[{"name": "Black Rock", "latitude": 37.1111086, "longitude": -109.1562202, "elevation": 1508.0, "source": "osm", "_tags": {"ele": "1508", "gnis:feature_id": "1425711", "name": "Black Rock", "natural": "peak"}}, {"name": "Boundary Butte", "latitude": 37.0219457, "longitude": -109.5578907, "elevation": 1585.0, "source": "osm", "_tags": {"ele": "1585", "gnis:feature_id": "1425903", "name": "Boundary Butte", "natural": "peak"}}, {"name": "Boundary Butte Mesa", "latitude": 37.038334, "longitude": -109.4834461, "elevation": 1706.0, "source": "osm", "_tags": {"ele": "1706", "gnis:feature_id": "1425904", "name": "Boundary Butte Mesa", "natural": "peak"}}, {"name": "Casa del Eco Mesa", "latitude": 37.2000003, "longitude": -109.5006739, "elevation": 1497.0, "source": "osm", "_tags": {"ele": "1497", "gnis:feature_id": "1426369", "name": "Casa del Eco Mesa", "natural": "peak"}}, {"name": "Clay Hill", "latitude": 37.1824974, "longitude": -109.1984451, "elevation": 1568.0, "source": "osm", "_tags": {"ele": "1568", "gnis:feature_id": "1426683", "name": "Clay Hill", "natural": "peak"}}, {"name": "Flat Mesa", "latitude": 37.0711094, "longitude": -109.1945532, "elevation": 1648.0, "source": "osm", "_tags": {"ele": "1648", "gnis:feature_id": "1427990", "name": "Flat Mesa", "natural": "peak"}}, {"name": "Flat Top Mountain", "latitude": 37.2280542, "longitude": -109.3203931, "elevation": 1568.0, "source": "osm", "_tags": {"ele": "1568", "gnis:feature_id": "1428002", "name": "Flat Top Mountain", "natural": "peak"}}, {"name": "Gray Point", "latitude": 37.2355561, "longitude": -109.5506758, "elevation": 1586.0, "source": "osm", "_tags": {"ele": "1586", "gnis:feature_id": "1428370", "name": "Gray Point", "natural": "peak"}}, {"name": "Gray Spot Rock", "latitude": 37.0738889, "longitude": -109.3987236, "elevation": 1598.0, "source": "osm", "_tags": {"ele": "1598", "gnis:feature_id": "1428372", "name": "Gray Spot Rock", "natural": "peak"}}, {"name": "Hogan Mesa", "latitude": 37.1894443, "longitude": -109.4476169, "elevation": 1718.0, "source": "osm", "_tags": {"ele": "1718", "gnis:feature_id": "1428746", "name": "Hogan Mesa", "natural": "peak"}}, {"name": "Lone Mountain", "latitude": 37.2040016, "longitude": -109.2060829, "elevation": 1499.0, "source": "osm", "_tags": {"ele": "1499", "gnis:feature_id": "1429861", "name": "Lone Mountain", "natural": "peak", "wikidata": "Q49046157"}}, {"name": "Peters Nipple", "latitude": 37.1855712, "longitude": -109.120607, "elevation": 1507.0, "source": "osm", "_tags": {"ele": "1507", "gnis:feature_id": "1431189", "name": "Peters Nipple", "natural": "peak"}}, {"name": "Red Mesa", "latitude": 36.9997222, "longitude": -109.3487207, "elevation": 1753.0, "source": "osm", "_tags": {"ele": "1753", "gnis:feature_id": "1431670", "name": "Red Mesa", "natural": "peak"}}, {"name": "Slick Horn", "latitude": 37.0488894, "longitude": -109.4503903, "elevation": 1586.0, "source": "osm", "_tags": {"ele": "1586", "gnis:feature_id": "1432539", "name": "Slick Horn", "natural": "peak"}}, {"name": "Three Gray Hills", "latitude": 37.0933314, "longitude": -109.1895537, "elevation": 1565.0, "source": "osm", "_tags": {"ele": "1565", "gnis:feature_id": "1433487", "name": "Three Gray Hills", "natural": "peak"}}, {"name": "Tow Gray Hill", "latitude": 37.2266649, "longitude": -109.2773366, "elevation": 1442.0, "source": "osm", "_tags": {"ele": "1442", "gnis:feature_id": "1433603", "name": "Tow Gray Hill", "natural": "peak"}}, {"name": "White Mesa", "latitude": 37.1405543, "longitude": -109.2820567, "elevation": 1692.0, "source": "osm", "_tags": {"ele": "1692", "gnis:feature_id": "1434168", "name": "White Mesa", "natural": "peak"}}, {"name": "White Mesa Mountain", "latitude": 37.1949986, "longitude": -109.3067808, "elevation": 1626.0, "source": "osm", "_tags": {"ele": "1626", "gnis:feature_id": "1434169", "name": "White Mesa Mountain", "natural": "peak"}}, {"name": "Standing Rock", "latitude": 37.1722218, "longitude": -109.4076155, "elevation": 1682.0, "source": "osm", "_tags": {"ele": "1682", "gnis:feature_id": "1435025", "name": "Standing Rock", "natural": "peak"}}, {"name": "Gothic Mesa", "latitude": 37.0000015, "longitude": -109.5840012, "elevation": 1565.0, "source": "osm", "_tags": {"ele": "1565", "gnis:feature_id": "1435598", "name": "Gothic Mesa", "natural": "peak"}}, {"name": "Horse Mesa", "latitude": 36.6952778, "longitude": -109.0456532, "elevation": 1766.0, "source": "osm", "_tags": {"ele": "1766", "gnis:feature_id": "5970", "name": "Horse Mesa", "natural": "peak"}}, {"name": "Barber Peak", "latitude": 36.5872237, "longitude": -108.6964758, "elevation": 1685.0, "source": "osm", "_tags": {"ele": "1685", "gnis:feature_id": "886056", "name": "Barber Peak", "natural": "peak", "wikidata": "Q49010688"}}, {"name": "Blue Hill", "latitude": 36.9440285, "longitude": -108.6998148, "elevation": 1740.0, "source": "osm", "_tags": {"ele": "1740", "gnis:feature_id": "886512", "name": "Blue Hill", "natural": "peak", "wikidata": "Q49014353"}}, {"name": "Cactus Peak", "latitude": 36.6794443, "longitude": -108.7445326, "elevation": 1683.0, "source": "osm", "_tags": {"ele": "1683", "gnis:feature_id": "887062", "name": "Cactus Peak", "natural": "peak", "wikidata": "Q49017525"}}, {"name": "Rock Mesa", "latitude": 36.4230589, "longitude": -108.8320352, "elevation": 1855.0, "source": "osm", "_tags": {"ele": "1855", "gnis:feature_id": "894065", "name": "Rock Mesa", "natural": "peak", "wikidata": "Q49068922"}}, {"name": "Tocito Dome", "latitude": 36.5033355, "longitude": -108.7959229, "elevation": 1783.0, "source": "osm", "_tags": {"ele": "1783", "gnis:feature_id": "895711", "name": "Tocito Dome", "natural": "peak", "wikidata": "Q49084071"}}, {"name": "Tsin-nas-kid", "latitude": 36.3025052, "longitude": -108.8475913, "elevation": 1911.0, "source": "osm", "_tags": {"ele": "1911", "gnis:feature_id": "895868", "name": "Tsin-nas-kid", "natural": "peak"}}, {"name": "White Hill", "latitude": 36.918885, "longitude": -108.6992579, "elevation": 1654.0, "source": "osm", "_tags": {"ele": "1654", "gnis:feature_id": "896497", "name": "White Hill", "natural": "peak", "wikidata": "Q49089275"}}, {"name": "Yellow Hill", "latitude": 36.5166686, "longitude": -108.8159235, "elevation": 1749.0, "source": "osm", "_tags": {"ele": "1749", "gnis:feature_id": "896813", "name": "Yellow Hill", "natural": "peak", "wikidata": "Q49091257"}}, {"name": "Ford Butte", "latitude": 36.3841713, "longitude": -108.707865, "elevation": 1864.0, "source": "osm", "_tags": {"ele": "1864", "gnis:feature_id": "897367", "name": "Ford Butte", "natural": "peak", "wikidata": "Q49029934"}}, {"name": "Mitten Rock", "latitude": 36.6091674, "longitude": -108.9445388, "elevation": 1998.0, "source": "osm", "_tags": {"ele": "1998", "gnis:feature_id": "897412", "name": "Mitten Rock", "natural": "peak", "wikidata": "Q49050770"}}, {"name": "Bennett Peak", "latitude": 36.3763935, "longitude": -108.7395326, "elevation": 1931.0, "source": "osm", "_tags": {"ele": "1931", "gnis:feature_id": "898244", "name": "Bennett Peak", "natural": "peak", "wikidata": "Q49012089"}}, {"name": "Table Mesa", "latitude": 36.5947234, "longitude": -108.7203653, "elevation": 1783.0, "source": "osm", "_tags": {"ele": "1783", "gnis:feature_id": "899938", "name": "Table Mesa", "natural": "peak", "wikidata": "Q49080657"}}, {"name": "White Rock", "latitude": 36.5677788, "longitude": -109.0264854, "elevation": 2022.0, "source": "osm", "_tags": {"ele": "2022", "gnis:feature_id": "899988", "name": "White Rock", "natural": "peak", "wikidata": "Q49089484"}}, {"name": "Gray Hills", "latitude": 36.8438867, "longitude": -108.8567609, "elevation": 1601.0, "source": "osm", "_tags": {"ele": "1601", "gnis:feature_id": "900010", "name": "Gray Hills", "natural": "peak", "wikidata": "Q49033235"}}, {"name": "Feather Hill", "latitude": 36.860831, "longitude": -108.8784287, "elevation": 1563.0, "source": "osm", "_tags": {"ele": "1563", "gnis:feature_id": "900013", "name": "Feather Hill", "natural": "peak", "wikidata": "Q49028671"}}, {"name": "Black Rock Point", "latitude": 36.8408321, "longitude": -108.9995433, "elevation": 1677.0, "source": "osm", "_tags": {"ele": "1677", "gnis:feature_id": "900014", "name": "Black Rock Point", "natural": "peak", "wikidata": "Q49014012"}}, {"name": "Rock Pile Mesa", "latitude": 36.8330543, "longitude": -108.9717644, "elevation": 1603.0, "source": "osm", "_tags": {"ele": "1603", "gnis:feature_id": "900016", "name": "Rock Pile Mesa", "natural": "peak", "wikidata": "Q49068961"}}, {"name": "Rocky Point", "latitude": 36.8144431, "longitude": -108.945652, "elevation": 1529.0, "source": "osm", "_tags": {"ele": "1529", "gnis:feature_id": "900020", "name": "Rocky Point", "natural": "peak", "wikidata": "Q49069230"}}, {"name": "Flat Top Rock", "latitude": 36.9699949, "longitude": -108.7325934, "elevation": 1729.0, "source": "osm", "_tags": {"ele": "1729", "gnis:feature_id": "900026", "name": "Flat Top Rock", "natural": "peak", "wikidata": "Q49029549"}}, {"name": "Black Cone", "latitude": 36.8999961, "longitude": -108.7406475, "elevation": 1532.0, "source": "osm", "_tags": {"ele": "1532", "gnis:feature_id": "900029", "name": "Black Cone", "natural": "peak", "wikidata": "Q49013344"}}, {"name": "Beautiful Mountain", "latitude": 36.4888906, "longitude": -108.9892618, "elevation": 2696.0, "source": "osm", "_tags": {"ele": "2696", "gnis:feature_id": "902172", "name": "Beautiful Mountain", "natural": "peak", "wikidata": "Q4877775"}}, {"name": "Yellow Butte", "latitude": 36.8548202, "longitude": -108.7219366, "elevation": 1570.0, "source": "osm", "_tags": {"ele": "1570", "gnis:feature_id": "902855", "name": "Yellow Butte", "natural": "peak", "wikidata": "Q49091226"}}, {"name": "Carona de Gigante", "latitude": 36.4166698, "longitude": -108.9006483, "elevation": 1858.0, "source": "osm", "_tags": {"ele": "1858", "gnis:feature_id": "914714", "name": "Carona de Gigante", "natural": "peak"}}, {"name": "Volcano Peak", "latitude": 36.9166624, "longitude": -108.7506482, "elevation": 1552.0, "source": "osm", "_tags": {"ele": "1552", "gnis:feature_id": "915150", "name": "Volcano Peak", "natural": "peak", "wikidata": "Q49087158"}}, {"name": "", "latitude": 36.6876889, "longitude": -108.8364619, "elevation": 2165.0, "source": "osm", "_tags": {"ele": "2165", "gnis:feature_id": "915902", "name:en": "Shiprock", "name:nv": "Tsé Bitʼaʼí", "natural": "peak", "wikidata": "Q2208162", "wikipedia": "en:Shiprock"}}, {"name": "Ute Peak / Wisuv Káruv", "latitude": 37.2841604, "longitude": -108.778711, "elevation": 3037.0, "source": "osm", "_tags": {"alt_name:en": "Ute Mountain", "ele": "3037", "gnis:feature_id": "179019", "name": "Ute Peak / Wisuv Káruv", "name:en": "Ute Peak", "name:ute": "Wisuv Káruv", "natural": "peak", "wikidata": "Q6436954"}}, {"name": "Horse Mountain", "latitude": 37.2658272, "longitude": -108.7831557, "elevation": 2769.0, "source": "osm", "_tags": {"ele": "2769", "gnis:feature_id": "179020", "name": "Horse Mountain", "natural": "peak"}}, {"name": "Black Mountain", "latitude": 37.2691605, "longitude": -108.8048235, "elevation": 2863.0, "source": "osm", "_tags": {"ele": "2863", "gnis:feature_id": "179023", "name": "Black Mountain", "natural": "peak"}}, {"name": "East Toe", "latitude": 37.1956688, "longitude": -108.7936141, "elevation": 2267.0, "source": "osm", "_tags": {"ele": "2267", "gnis:feature_id": "179157", "name": "East Toe", "natural": "peak"}}, {"name": "West Toe", "latitude": 37.1985887, "longitude": -108.8312854, "elevation": 2158.0, "source": "osm", "_tags": {"ele": "2158", "gnis:feature_id": "179158", "name": "West Toe", "natural": "peak"}}, {"name": "The Knees", "latitude": 37.2199941, "longitude": -108.8087119, "elevation": 2685.0, "source": "osm", "_tags": {"ele": "2685", "gnis:feature_id": "179159", "name": "The Knees", "natural": "peak"}}, {"name": "Tanner Mesa", "latitude": 37.0221556, "longitude": -108.7265981, "elevation": 1608.0, "source": "osm", "_tags": {"ele": "1608", "gnis:feature_id": "179315", "name": "Tanner Mesa", "natural": "peak"}}, {"name": "Bad Bug Butte", "latitude": 36.4236125, "longitude": -109.3120475, "elevation": 1888.0, "source": "osm", "_tags": {"ele": "1888", "gnis:feature_id": "932", "name": "Bad Bug Butte", "natural": "peak"}}, {"name": "Bijaadibae", "latitude": 36.4219458, "longitude": -109.2964916, "elevation": 1947.0, "source": "osm", "_tags": {"ele": "1947", "gnis:feature_id": "1407", "name": "Bijaadibae", "natural": "peak"}}, {"name": "Bilasha", "latitude": 36.3425018, "longitude": -109.4276052, "elevation": 1909.0, "source": "osm", "_tags": {"ele": "1909", "gnis:feature_id": "1408", "name": "Bilasha", "natural": "peak"}}, {"name": "Black Hill", "latitude": 36.9655572, "longitude": -109.602612, "elevation": 1610.0, "source": "osm", "_tags": {"ele": "1610", "gnis:feature_id": "1523", "name": "Black Hill", "natural": "peak"}}, {"name": "Black Rock", "latitude": 36.6475004, "longitude": -109.1350996, "elevation": 2020.0, "source": "osm", "_tags": {"ele": "2020", "gnis:feature_id": "1592", "name": "Black Rock", "natural": "peak"}}, {"name": "Blue Clay Hill", "latitude": 36.4763899, "longitude": -109.3153808, "elevation": 1811.0, "source": "osm", "_tags": {"ele": "1811", "gnis:feature_id": "1696", "name": "Blue Clay Hill", "natural": "peak"}}, {"name": "Carson Mesa", "latitude": 36.6308343, "longitude": -109.6184425, "elevation": 1724.0, "source": "osm", "_tags": {"ele": "1724", "gnis:feature_id": "2490", "name": "Carson Mesa", "natural": "peak"}}, {"name": "Cove Mesa", "latitude": 36.6302783, "longitude": -109.2703807, "elevation": 2161.0, "source": "osm", "_tags": {"ele": "2161", "gnis:feature_id": "3430", "name": "Cove Mesa", "natural": "peak"}}, {"name": "Cow Butte", "latitude": 36.966388, "longitude": -109.1984396, "elevation": 1725.0, "source": "osm", "_tags": {"ele": "1725", "gnis:feature_id": "3438", "name": "Cow Butte", "natural": "peak"}}, {"name": "Dry Mesa", "latitude": 36.8866668, "longitude": -109.3298294, "elevation": 1796.0, "source": "osm", "_tags": {"ele": "1796", "gnis:feature_id": "4153", "name": "Dry Mesa", "natural": "peak"}}, {"name": "East Mesa", "latitude": 36.6055562, "longitude": -109.2659361, "elevation": 2324.0, "source": "osm", "_tags": {"ele": "2324", "gnis:feature_id": "4290", "name": "East Mesa", "natural": "peak"}}, {"name": "Gray Cactus Mesa", "latitude": 36.328891, "longitude": -109.3001028, "elevation": 2119.0, "source": "osm", "_tags": {"ele": "2119", "gnis:feature_id": "5312", "name": "Gray Cactus Mesa", "natural": "peak"}}, {"name": "Hat Rock", "latitude": 36.7119454, "longitude": -109.5484416, "elevation": 1728.0, "source": "osm", "_tags": {"ele": "1728", "gnis:feature_id": "5604", "name": "Hat Rock", "natural": "peak"}}, {"name": "Little Round Rock", "latitude": 36.524723, "longitude": -109.5473297, "elevation": 1866.0, "source": "osm", "_tags": {"ele": "1866", "gnis:feature_id": "7172", "name": "Little Round Rock", "natural": "peak"}}, {"name": "Los Gigantes Buttes", "latitude": 36.5950008, "longitude": -109.4067718, "elevation": 1946.0, "source": "osm", "_tags": {"ele": "1946", "gnis:feature_id": "7388", "name": "Los Gigantes Buttes", "natural": "peak"}}, {"name": "Many Coyote Mesa", "latitude": 36.3502798, "longitude": -109.2703801, "elevation": 2049.0, "source": "osm", "_tags": {"ele": "2049", "gnis:feature_id": "7658", "name": "Many Coyote Mesa", "natural": "peak"}}, {"name": "Matthews Peak", "latitude": 36.3641691, "longitude": -109.1539884, "elevation": 2892.0, "source": "osm", "_tags": {"ele": "2892", "gnis:feature_id": "7776", "name": "Matthews Peak", "natural": "peak"}}, {"name": "Mexican Cry Mesa", "latitude": 36.5638896, "longitude": -109.2864917, "elevation": 2294.0, "source": "osm", "_tags": {"ele": "2294", "gnis:feature_id": "7954", "name": "Mexican Cry Mesa", "natural": "peak"}}, {"name": "Middle Wide Mesa", "latitude": 36.4108348, "longitude": -109.297325, "elevation": 1973.0, "source": "osm", "_tags": {"ele": "1973", "gnis:feature_id": "8021", "name": "Middle Wide Mesa", "natural": "peak"}}, {"name": "Owl Nest", "latitude": 36.3541684, "longitude": -109.4426054, "elevation": 1860.0, "source": "osm", "_tags": {"ele": "1860", "gnis:feature_id": "9051", "name": "Owl Nest", "natural": "peak"}}, {"name": "Pastora Peak", "latitude": 36.7902775, "longitude": -109.1645463, "elevation": 2861.0, "source": "osm", "_tags": {"ele": "2861", "gnis:feature_id": "9238", "name": "Pastora Peak", "natural": "peak"}}, {"name": "Plane Rock", "latitude": 36.6583344, "longitude": -109.6684435, "elevation": 1710.0, "source": "osm", "_tags": {"ele": "1710", "gnis:feature_id": "9566", "name": "Plane Rock", "natural": "peak"}}, {"name": "Red Cornfield Mesa", "latitude": 36.3394465, "longitude": -109.2634356, "elevation": 2119.0, "source": "osm", "_tags": {"ele": "2119", "gnis:feature_id": "10040", "name": "Red Cornfield Mesa", "natural": "peak"}}, {"name": "Red Mesa", "latitude": 36.9933333, "longitude": -109.3434427, "elevation": 1767.0, "source": "osm", "_tags": {"ele": "1767", "gnis:feature_id": "10087", "name": "Red Mesa", "natural": "peak"}}, {"name": "Red Rock", "latitude": 36.5630565, "longitude": -109.0795423, "elevation": 1942.0, "source": "osm", "_tags": {"ele": "1942", "gnis:feature_id": "10120", "name": "Red Rock", "natural": "peak"}}, {"name": "Roof Butte / Adáá dikʼá", "latitude": 36.460507, "longitude": -109.0936684, "elevation": 2952.0, "source": "osm", "_tags": {"ele": "2952", "gnis:feature_id": "10488", "name": "Roof Butte / Adáá dikʼá", "name:en": "Roof Butte", "name:nv": "Adáá dikʼá", "natural": "peak", "wikidata": "Q7366129"}}, {"name": "Round Rock", "latitude": 36.5025008, "longitude": -109.5537187, "elevation": 1916.0, "source": "osm", "_tags": {"ele": "1916", "gnis:feature_id": "10539", "name": "Round Rock", "natural": "peak"}}, {"name": "Sitting Coyote Mesa", "latitude": 36.4872231, "longitude": -109.3709374, "elevation": 1773.0, "source": "osm", "_tags": {"ele": "1773", "gnis:feature_id": "11374", "name": "Sitting Coyote Mesa", "natural": "peak"}}, {"name": "Small Wide Mesa", "latitude": 36.388335, "longitude": -109.3056585, "elevation": 1992.0, "source": "osm", "_tags": {"ele": "1992", "gnis:feature_id": "11456", "name": "Small Wide Mesa", "natural": "peak"}}, {"name": "Supai Mesa", "latitude": 36.3966683, "longitude": -109.3031584, "elevation": 1969.0, "source": "osm", "_tags": {"ele": "1969", "gnis:feature_id": "12005", "name": "Supai Mesa", "natural": "peak"}}, {"name": "Tahdahatooc", "latitude": 36.4055572, "longitude": -109.2848248, "elevation": 1933.0, "source": "osm", "_tags": {"ele": "1933", "gnis:feature_id": "12123", "name": "Tahdahatooc", "natural": "peak"}}, {"name": "Tall Tree Mesa", "latitude": 36.3111132, "longitude": -109.3964935, "elevation": 1999.0, "source": "osm", "_tags": {"ele": "1999", "gnis:feature_id": "12133", "name": "Tall Tree Mesa", "natural": "peak"}}, {"name": "The Legs", "latitude": 36.3672241, "longitude": -109.2617688, "elevation": 2075.0, "source": "osm", "_tags": {"ele": "2075", "gnis:feature_id": "12344", "name": "The Legs", "natural": "peak"}}, {"name": "Toh Atin Mesa", "latitude": 36.9061114, "longitude": -109.3764971, "elevation": 2020.0, "source": "osm", "_tags": {"ele": "2020", "gnis:feature_id": "12531", "name": "Toh Atin Mesa", "natural": "peak"}}, {"name": "Toh Chin Lini Mesa", "latitude": 36.82, "longitude": -109.263716, "elevation": 2029.0, "source": "osm", "_tags": {"ele": "2029", "gnis:feature_id": "12534", "name": "Toh Chin Lini Mesa", "natural": "peak"}}, {"name": "Toohidazdii", "latitude": 36.4544456, "longitude": -109.3267699, "elevation": 1825.0, "source": "osm", "_tags": {"ele": "1825", "gnis:feature_id": "12616", "name": "Toohidazdii", "natural": "peak"}}, {"name": "Tsedadahot Sosi", "latitude": 36.4394457, "longitude": -109.3581594, "elevation": 1859.0, "source": "osm", "_tags": {"ele": "1859", "gnis:feature_id": "12773", "name": "Tsedadahot Sosi", "natural": "peak"}}, {"name": "Tseh Any", "latitude": 36.7858338, "longitude": -109.3792478, "elevation": 1725.0, "source": "osm", "_tags": {"ele": "1725", "gnis:feature_id": "12779", "name": "Tseh Any", "natural": "peak"}}, {"name": "Tseyah", "latitude": 36.3822238, "longitude": -109.4662171, "elevation": 1837.0, "source": "osm", "_tags": {"ele": "1837", "gnis:feature_id": "12786", "name": "Tseyah", "natural": "peak"}}, {"name": "Walker Butte", "latitude": 36.7702787, "longitude": -109.4895522, "elevation": 1840.0, "source": "osm", "_tags": {"ele": "1840", "gnis:feature_id": "13284", "name": "Walker Butte", "natural": "peak"}}, {"name": "West Mesa", "latitude": 36.6005562, "longitude": -109.272325, "elevation": 2346.0, "source": "osm", "_tags": {"ele": "2346", "gnis:feature_id": "13511", "name": "West Mesa", "natural": "peak"}}, {"name": "White Clay Hill", "latitude": 36.4783343, "longitude": -109.3042695, "elevation": 1841.0, "source": "osm", "_tags": {"ele": "1841", "gnis:feature_id": "13604", "name": "White Clay Hill", "natural": "peak"}}, {"name": "Wide Mesa", "latitude": 36.375835, "longitude": -109.3067696, "elevation": 2041.0, "source": "osm", "_tags": {"ele": "2041", "gnis:feature_id": "13735", "name": "Wide Mesa", "natural": "peak"}}, {"name": "Window Rock", "latitude": 36.4966675, "longitude": -109.5581631, "elevation": 1776.0, "source": "osm", "_tags": {"ele": "1776", "gnis:feature_id": "13904", "name": "Window Rock", "natural": "peak"}}, {"name": "Zilbetod Peak", "latitude": 36.8083329, "longitude": -109.1628799, "elevation": 2820.0, "source": "osm", "_tags": {"ele": "2820", "gnis:feature_id": "14135", "name": "Zilbetod Peak", "natural": "peak"}}, {"name": "Alcove Mesa", "latitude": 36.669445, "longitude": -109.3676048, "elevation": 1997.0, "source": "osm", "_tags": {"ele": "1997", "gnis:feature_id": "21510", "name": "Alcove Mesa", "natural": "peak"}}, {"name": "Altar Mesa", "latitude": 36.7572225, "longitude": -109.3098267, "elevation": 1919.0, "source": "osm", "_tags": {"ele": "1919", "gnis:feature_id": "21512", "name": "Altar Mesa", "natural": "peak"}}, {"name": "Big Mountain", "latitude": 36.4650011, "longitude": -109.4234384, "elevation": 1770.0, "source": "osm", "_tags": {"ele": "1770", "gnis:feature_id": "21529", "name": "Big Mountain", "natural": "peak"}}, {"name": "Blue Hill", "latitude": 36.4741677, "longitude": -109.4414942, "elevation": 1706.0, "source": "osm", "_tags": {"ele": "1706", "gnis:feature_id": "21544", "name": "Blue Hill", "natural": "peak"}}, {"name": "Chezhindeza Mesa", "latitude": 36.8605554, "longitude": -109.2562166, "elevation": 2296.0, "source": "osm", "_tags": {"ele": "2296", "gnis:feature_id": "21569", "name": "Chezhindeza Mesa", "natural": "peak"}}, {"name": "Dry Mesa", "latitude": 36.502223, "longitude": -109.3501036, "elevation": 1810.0, "source": "osm", "_tags": {"ele": "1810", "gnis:feature_id": "21609", "name": "Dry Mesa", "natural": "peak"}}, {"name": "Horse Lookout Hill", "latitude": 36.4791677, "longitude": -109.293436, "elevation": 1867.0, "source": "osm", "_tags": {"ele": "1867", "gnis:feature_id": "21658", "name": "Horse Lookout Hill", "natural": "peak"}}, {"name": "Kinusta Mesa", "latitude": 36.6594449, "longitude": -109.2995481, "elevation": 2043.0, "source": "osm", "_tags": {"ele": "2043", "gnis:feature_id": "21676", "name": "Kinusta Mesa", "natural": "peak"}}, {"name": "Red Clay Mesa", "latitude": 36.5408341, "longitude": -109.4514946, "elevation": 1678.0, "source": "osm", "_tags": {"ele": "1678", "gnis:feature_id": "21758", "name": "Red Clay Mesa", "natural": "peak"}}, {"name": "Red Mesa", "latitude": 36.5541675, "longitude": -109.3664931, "elevation": 1856.0, "source": "osm", "_tags": {"ele": "1856", "gnis:feature_id": "21762", "name": "Red Mesa", "natural": "peak"}}, {"name": "Rescue Rock Mesa", "latitude": 36.5819451, "longitude": -109.3487152, "elevation": 2067.0, "source": "osm", "_tags": {"ele": "2067", "gnis:feature_id": "21769", "name": "Rescue Rock Mesa", "natural": "peak"}}, {"name": "Salt Water Cone", "latitude": 36.4472234, "longitude": -109.4528834, "elevation": 1754.0, "source": "osm", "_tags": {"ele": "1754", "gnis:feature_id": "21801", "name": "Salt Water Cone", "natural": "peak"}}, {"name": "Segi Ho Cho Mesa", "latitude": 36.7111114, "longitude": -109.2701033, "elevation": 2057.0, "source": "osm", "_tags": {"ele": "2057", "gnis:feature_id": "21809", "name": "Segi Ho Cho Mesa", "natural": "peak"}}, {"name": "Separate Hill", "latitude": 36.5069452, "longitude": -109.377882, "elevation": 1733.0, "source": "osm", "_tags": {"ele": "1733", "gnis:feature_id": "21810", "name": "Separate Hill", "natural": "peak"}}, {"name": "Standing Rock", "latitude": 36.5830564, "longitude": -109.4853843, "elevation": 1847.0, "source": "osm", "_tags": {"ele": "1847", "gnis:feature_id": "21823", "name": "Standing Rock", "natural": "peak"}}, {"name": "Sunnyside Mesa", "latitude": 36.7555558, "longitude": -109.268437, "elevation": 2066.0, "source": "osm", "_tags": {"ele": "2066", "gnis:feature_id": "21830", "name": "Sunnyside Mesa", "natural": "peak"}}, {"name": "Tall Cone", "latitude": 36.3763907, "longitude": -109.2764913, "elevation": 2046.0, "source": "osm", "_tags": {"ele": "2046", "gnis:feature_id": "21833", "name": "Tall Cone", "natural": "peak"}}, {"name": "Twin Red Hills", "latitude": 36.5694452, "longitude": -109.4470503, "elevation": 1763.0, "source": "osm", "_tags": {"ele": "1763", "gnis:feature_id": "21866", "name": "Twin Red Hills", "natural": "peak"}}, {"name": "View Point", "latitude": 36.5319453, "longitude": -109.1639887, "elevation": 2772.0, "source": "osm", "_tags": {"ele": "2772", "gnis:feature_id": "21871", "name": "View Point", "natural": "peak"}}, {"name": "White Ash Peak", "latitude": 36.5438896, "longitude": -109.2853805, "elevation": 2712.0, "source": "osm", "_tags": {"ele": "2712", "gnis:feature_id": "21883", "name": "White Ash Peak", "natural": "peak"}}, {"name": "White Mesa", "latitude": 36.5233341, "longitude": -109.3489926, "elevation": 1835.0, "source": "osm", "_tags": {"ele": "1835", "gnis:feature_id": "21888", "name": "White Mesa", "natural": "peak"}}, {"name": "Gothic Mesa", "latitude": 36.9983348, "longitude": -109.5840012, "elevation": 1568.0, "source": "osm", "_tags": {"ele": "1568", "gnis:feature_id": "23853", "name": "Gothic Mesa", "natural": "peak"}}, {"name": "Thirsty Mesa", "latitude": 36.5455563, "longitude": -109.2951029, "elevation": 2328.0, "source": "osm", "_tags": {"ele": "2328", "gnis:feature_id": "39171", "name": "Thirsty Mesa", "natural": "peak"}}, {"name": "Rock Pointing West", "latitude": 36.5876261, "longitude": -109.375683, "elevation": null, "source": "osm", "_tags": {"name": "Rock Pointing West", "natural": "peak"}}, {"name": "Black Rock Point", "latitude": 37.2350257, "longitude": -109.1860429, "elevation": null, "source": "osm", "_tags": {"gnis:feature_id": "1425722", "name": "Black Rock Point", "natural": "peak"}}, {"name": "Chimney Rock", "latitude": 37.0779866, "longitude": -108.7187818, "elevation": 1862.0, "source": "osm", "_tags": {"ele": "1862", "name": "Chimney Rock", "natural": "peak", "source": "USGS Topo map"}}, {"name": "Standing Rock", "latitude": 36.9717371, "longitude": -108.7520078, "elevation": 1760.2, "source": "osm", "_tags": {"ele": "1760.2", "ele:ft": "5775", "name": "Standing Rock", "natural": "peak", "source:ele:ft": "USGS Topographic Map"}}, {"name": "", "latitude": 36.9708678, "longitude": -108.7222106, "elevation": 1704.1, "source": "osm", "_tags": {"ele": "1704.1", "ele:ft": "5591", "natural": "peak", "source:ele:ft": "USGS Topographic Map"}}, {"name": "", "latitude": 36.9671648, "longitude": -108.7552026, "elevation": 1693.2, "source": "osm", "_tags": {"ele": "1693.2", "ele:ft": "5555", "natural": "peak", "source:ele:ft": "USGS Topographic Map"}}, {"name": "", "latitude": 36.6877018, "longitude": -108.8523996, "elevation": 1717.0, "source": "osm", "_tags": {"ele": "1717", "natural": "peak"}}, {"name": "", "latitude": 36.687405, "longitude": -108.8441223, "elevation": null, "source": "osm", "_tags": {"natural": "peak"}}, {"name": "", "latitude": 36.6867081, "longitude": -108.8458443, "elevation": 1760.0, "source": "osm", "_tags": {"ele": "1760", "natural": "peak"}}, {"name": "", "latitude": 36.6884288, "longitude": -108.8414562, "elevation": null, "source": "osm", "_tags": {"natural": "peak"}}, {"name": "", "latitude": 36.691827, "longitude": -108.830207, "elevation": null, "source": "osm", "_tags": {"natural": "peak"}}, {"name": "", "latitude": 36.6958402, "longitude": -108.8302231, "elevation": null, "source": "osm", "_tags": {"natural": "peak"}}, {"name": "", "latitude": 36.693952, "longitude": -108.8322347, "elevation": null, "source": "osm", "_tags": {"natural": "peak"}}, {"name": "", "latitude": 36.6914313, "longitude": -108.8365062, "elevation": null, "source": "osm", "_tags": {"natural": "peak"}}, {"name": "", "latitude": 36.6877276, "longitude": -108.8369474, "elevation": null, "source": "osm", "_tags": {"natural": "peak"}}, {"name": "", "latitude": 36.6598558, "longitude": -108.8324212, "elevation": 1777.0, "source": "osm", "_tags": {"ele": "1777", "natural": "peak"}}, {"name": "", "latitude": 36.6551156, "longitude": -108.8312759, "elevation": 1769.0, "source": "osm", "_tags": {"ele": "1769", "natural": "peak"}}, {"name": "", "latitude": 36.6438007, "longitude": -108.8278976, "elevation": 1721.0, "source": "osm", "_tags": {"ele": "1721", "natural": "peak"}}, {"name": "", "latitude": 36.6757893, "longitude": -108.8374409, "elevation": null, "source": "osm", "_tags": {"natural": "peak"}}, {"name": "Potato Rock", "latitude": 37.0079891, "longitude": -109.4074308, "elevation": null, "source": "osm", "_tags": {"name": "Potato Rock", "natural": "peak"}}, {"name": "Aneth Point", "latitude": 37.2155239, "longitude": -109.1376808, "elevation": null, "source": "osm", "_tags": {"gnis:feature_id": "1425115", "name": "Aneth Point", "natural": "peak"}}]