[{"name": "Belted Peak", "latitude": 37.5691138, "longitude": -116.0764302, "elevation": 2471.0, "source": "osm", "_tags": {"ele": "2471", "gnis:feature_id": "838688", "name": "Belted Peak", "natural": "peak"}}, {"name": "Black Beauty Mesa", "latitude": 38.2579878, "longitude": -116.1178261, "elevation": 1996.0, "source": "osm", "_tags": {"ele": "1996", "gnis:feature_id": "838804", "name": "Black Beauty Mesa", "natural": "peak"}}, {"name": "Castle Rock", "latitude": 38.1018801, "longitude": -116.4672776, "elevation": 2254.0, "source": "osm", "_tags": {"ele": "2254", "gnis:feature_id": "839344", "name": "Castle Rock", "natural": "peak"}}, {"name": "Little Rawhide Mountain", "latitude": 38.2799342, "longitude": -116.4331118, "elevation": 2571.0, "source": "osm", "_tags": {"ele": "2571", "gnis:feature_id": "841722", "name": "Little Rawhide Mountain", "natural": "peak"}}, {"name": "Nixon Peak", "latitude": 37.8785494, "longitude": -116.4717208, "elevation": 2309.0, "source": "osm", "_tags": {"ele": "2309", "gnis:feature_id": "842482", "name": "Nixon Peak", "natural": "peak"}}, {"name": "Quartzite Mountain", "latitude": 37.513835, "longitude": -116.3233812, "elevation": 2366.0, "source": "osm", "_tags": {"ele": "2366", "gnis:feature_id": "843032", "name": "Quartzite Mountain", "natural": "peak"}}, {"name": "Rhyolite Knob", "latitude": 37.6824432, "longitude": -116.2153238, "elevation": 1877.0, "source": "osm", "_tags": {"ele": "1877", "gnis:feature_id": "843206", "name": "Rhyolite Knob", "natural": "peak"}}, {"name": "Streuben Knob", "latitude": 38.0663239, "longitude": -116.2047715, "elevation": 2281.0, "source": "osm", "_tags": {"ele": "2281", "gnis:feature_id": "844049", "name": "Streuben Knob", "natural": "peak"}}, {"name": "Triangle Mountain", "latitude": 37.5532758, "longitude": -116.5664449, "elevation": 1891.0, "source": "osm", "_tags": {"ele": "1891", "gnis:feature_id": "844408", "name": "Triangle Mountain", "natural": "peak"}}, {"name": "Chalk Mountain", "latitude": 37.5313362, "longitude": -115.9209113, "elevation": 2243.0, "source": "osm", "_tags": {"ele": "2243", "gnis:feature_id": "845086", "name": "Chalk Mountain", "natural": "peak"}}, {"name": "Gabbard Hills", "latitude": 37.5685527, "longitude": -116.6172797, "elevation": 1776.0, "source": "osm", "_tags": {"ele": "1776", "gnis:feature_id": "845468", "name": "Gabbard Hills", "natural": "peak"}}, {"name": "Goblin Knobs", "latitude": 38.1279897, "longitude": -116.1650488, "elevation": 1999.0, "source": "osm", "_tags": {"ele": "1999", "gnis:feature_id": "845473", "name": "Goblin Knobs", "natural": "peak"}}, {"name": "Jack Rabbit Knob", "latitude": 37.684663, "longitude": -116.5422778, "elevation": 1821.0, "source": "osm", "_tags": {"ele": "1821", "gnis:feature_id": "845517", "name": "Jack Rabbit Knob", "natural": "peak"}}, {"name": "Lizard Hills", "latitude": 37.6121641, "longitude": -116.5419999, "elevation": 1891.0, "source": "osm", "_tags": {"ele": "1891", "gnis:feature_id": "845539", "name": "Lizard Hills", "natural": "peak"}}, {"name": "Reveille Peak", "latitude": 37.8537826, "longitude": -116.1358966, "elevation": 2640.0, "source": "osm", "_tags": {"addr:place": "Railroad Valley", "addr:state": "NV", "description": "mountain range in Nye County, Nevada,USA", "ele": "2640", "gnis:feature_id": "845626", "inscription": "REFERENCE MARK U.S. COAST & GEODETIC SURVEY FOR INFORMATION WRITE TO THE DIRECTOR, WASHINGTON D.C. $250 FINE OR INPRISIONMENT FOR DISTURBING THIS MARK REVEILLE >---|---> NO. 2 1933", "inscription:url": "https://www.dreamlandresort.com/trip_reports/reveille/i.revmedal.jpg", "name": "Reveille Peak", "natural": "peak", "structure": "medallion", "viewpoint": "yes", "wikidata": "Q7317789", "wikipedia": "en:Reveille Range"}}, {"name": "Silent Butte", "latitude": 37.3735564, "longitude": -116.4347764, "elevation": 1658.0, "source": "osm", "_tags": {"ele": "1658", "gnis:feature_id": "845658", "name": "Silent Butte", "natural": "peak"}}, {"name": "Trappman Hills", "latitude": 37.5191082, "longitude": -116.6728365, "elevation": 1779.0, "source": "osm", "_tags": {"ele": "1779", "gnis:feature_id": "845715", "name": "Trappman Hills", "natural": "peak"}}, {"name": "Wheelbarrow Peak", "latitude": 37.4507827, "longitude": -116.0780958, "elevation": 2572.0, "source": "osm", "_tags": {"ele": "2572", "gnis:feature_id": "845732", "name": "Wheelbarrow Peak", "natural": "peak"}}, {"name": "Gold Mountain", "latitude": 37.5716089, "longitude": -116.5731117, "elevation": 1838.0, "source": "osm", "_tags": {"ele": "1838", "gnis:feature_id": "845845", "name": "Gold Mountain", "natural": "peak"}}, {"name": "Black Top", "latitude": 37.7857766, "longitude": -115.9330954, "elevation": 2111.0, "source": "osm", "_tags": {"ele": "2111", "gnis:feature_id": "849171", "name": "Black Top", "natural": "peak"}}, {"name": "Queen City Summit", "latitude": 37.7516106, "longitude": -115.9447622, "elevation": 1816.0, "source": "osm", "_tags": {"ele": "1816", "gnis:feature_id": "849172", "name": "Queen City Summit", "natural": "peak"}}, {"name": "Red Hill", "latitude": 38.1338249, "longitude": -115.8853178, "elevation": 1837.0, "source": "osm", "_tags": {"ele": "1837", "gnis:feature_id": "849221", "name": "Red Hill", "natural": "peak"}}, {"name": "Eds Hill", "latitude": 38.0863256, "longitude": -115.9075407, "elevation": 2022.0, "source": "osm", "_tags": {"ele": "2022", "gnis:feature_id": "849235", "name": "Eds Hill", "natural": "peak"}}, {"name": "Saucer Mesa", "latitude": 37.471891, "longitude": -116.3281038, "elevation": 1891.0, "source": "osm", "_tags": {"ele": "1891", "gnis:feature_id": "849531", "name": "Saucer Mesa", "natural": "peak"}}, {"name": "Mount Wandell", "latitude": 37.3757888, "longitude": -115.7300305, "elevation": 2397.0, "source": "osm", "_tags": {"ele": "2397", "gnis:feature_id": "851970", "name": "Mount Wandell", "natural": "peak"}}, {"name": "Mount Clayton", "latitude": 37.9671591, "longitude": -116.1661584, "elevation": 2446.0, "source": "osm", "_tags": {"ele": "2446", "gnis:feature_id": "851971", "name": "Mount Clayton", "natural": "peak"}}, {"name": "Big Dome Mountain", "latitude": 37.3577279, "longitude": -116.1300417, "elevation": 2223.0, "source": "osm", "_tags": {"ele": "2223", "gnis:feature_id": "854343", "name": "Big Dome Mountain", "natural": "peak"}}, {"name": "Quartet Dome", "latitude": 37.350783, "longitude": -116.1697653, "elevation": 2344.0, "source": "osm", "_tags": {"ele": "2344", "gnis:feature_id": "854582", "name": "Quartet Dome", "natural": "peak"}}, {"name": "Mellan Mountain", "latitude": 37.7093844, "longitude": -116.586446, "elevation": 1800.0, "source": "osm", "_tags": {"ele": "1800", "gnis:feature_id": "854693", "name": "Mellan Mountain", "natural": "peak"}}, {"name": "Cedar Peak", "latitude": 37.7063307, "longitude": -116.3347719, "elevation": 2565.0, "source": "osm", "_tags": {"ele": "2565", "gnis:feature_id": "854697", "name": "Cedar Peak", "natural": "peak"}}, {"name": "Sharp Peak", "latitude": 37.6703834, "longitude": -115.8935156, "elevation": 1600.0, "source": "osm", "_tags": {"ele": "1600", "gnis:feature_id": "854702", "name": "Sharp Peak", "natural": "peak"}}, {"name": "Kawich Peak", "latitude": 37.9618815, "longitude": -116.4611655, "elevation": 2850.0, "source": "osm", "_tags": {"ele": "2850", "gnis:feature_id": "856290", "name": "Kawich Peak", "natural": "peak"}}, {"name": "Doya Goi", "latitude": 38.0532692, "longitude": -116.434498, "elevation": 2244.0, "source": "osm", "_tags": {"ele": "2244", "gnis:feature_id": "857490", "name": "Doya Goi", "natural": "peak", "old_name": "Squawtip", "wikidata": "Q49077393"}}, {"name": "Bald Mountain", "latitude": 37.4496523, "longitude": -115.7336223, "elevation": 2819.0, "source": "osm", "_tags": {"addr:place": "Groom Range", "addr:state": "NV", "ele": "2819", "gnis:feature_id": "857894", "name": "Bald Mountain", "name:hu": "Kopasz-hegy", "natural": "peak"}}, {"name": "Gray Top Mountain", "latitude": 37.6860292, "longitude": -116.0815764, "elevation": 2136.0, "source": "osm", "_tags": {"ele": "2136", "gnis:feature_id": "858277", "name": "Gray Top Mountain", "natural": "peak"}}, {"name": "Skull Mountain", "latitude": 38.0483333, "longitude": -115.7488889, "elevation": 2605.0, "source": "osm", "_tags": {"ele": "2605", "gnis:feature_id": "2090297", "name": "Skull Mountain", "natural": "peak"}}, {"name": "Stairstep Mountain", "latitude": 38.1047222, "longitude": -115.7469444, "elevation": 3069.0, "source": "osm", "_tags": {"ele": "3069", "gnis:feature_id": "2090298", "name": "Stairstep Mountain", "natural": "peak"}}, {"name": "", "latitude": 37.4833888, "longitude": -116.2818383, "elevation": 1854.1, "source": "osm", "_tags": {"ele": "1854.1", "natural": "peak"}}, {"name": "Brainwash Butte", "latitude": 37.9006716, "longitude": -116.5595657, "elevation": 2118.36, "source": "osm", "_tags": {"ele": "2118.36", "ele:ft": "6950", "name": "Brainwash Butte", "natural": "peak"}}, {"name": "Rider Hill", "latitude": 37.549018, "longitude": -115.801907, "elevation": null, "source": "osm", "_tags": {"name": "Rider Hill", "natural": "peak"}}, {"name": "", "latitude": 37.5190359, "longitude": -115.7643235, "elevation": 2400.0, "source": "osm", "_tags": {"ele": "2400", "natural": "peak"}}, {"name": "", "latitude": 37.5576424, "longitude": -115.7473827, "elevation": 1950.0, "source": "osm", "_tags": {"ele": "1950", "natural": "peak"}}, {"name": "", "latitude": 37.5510166, "longitude": -115.7326949, "elevation": 1870.0, "source": "osm", "_tags": {"ele": "1870", "natural": "peak"}}, {"name": "", "latitude": 37.5473845, "longitude": -115.7168913, "elevation": 1820.0, "source": "osm", "_tags": {"ele": "1820", "natural": "peak"}}, {"name": "", "latitude": 37.5367338, "longitude": -115.7305598, "elevation": 1890.0, "source": "osm", "_tags": {"ele": "1890", "natural": "peak"}}, {"name": "", "latitude": 37.5430972, "longitude": -115.7006157, "elevation": 1790.0, "source": "osm", "_tags": {"ele": "1790", "natural": "peak"}}, {"name": "", "latitude": 37.5435905, "longitude": -115.6960023, "elevation": 1810.0, "source": "osm", "_tags": {"ele": "1810", "natural": "peak"}}, {"name": "", "latitude": 37.5570811, "longitude": -115.6962061, "elevation": 1890.0, "source": "osm", "_tags": {"ele": "1890", "natural": "peak"}}, {"name": "", "latitude": 37.5564942, "longitude": -115.6922472, "elevation": 1920.0, "source": "osm", "_tags": {"ele": "1920", "natural": "peak"}}, {"name": "", "latitude": 37.5747614, "longitude": -115.7538629, "elevation": 1930.0, "source": "osm", "_tags": {"ele": "1930", "natural": "peak"}}, {"name": "", "latitude": 37.5711219, "longitude": -115.7630789, "elevation": 1910.0, "source": "osm", "_tags": {"ele": "1910", "natural": "peak"}}, {"name": "", "latitude": 37.5656964, "longitude": -115.7524145, "elevation": 2100.0, "source": "osm", "_tags": {"ele": "2100", "natural": "peak"}}, {"name": "", "latitude": 37.5624732, "longitude": -115.7565558, "elevation": 2130.0, "source": "osm", "_tags": {"ele": "2130", "natural": "peak"}}, {"name": "", "latitude": 37.5090876, "longitude": -115.7560301, "elevation": 2440.0, "source": "osm", "_tags": {"ele": "2440", "natural": "peak"}}, {"name": "", "latitude": 37.4796432, "longitude": -115.7426512, "elevation": 2440.0, "source": "osm", "_tags": {"ele": "2440", "natural": "peak"}}, {"name": "", "latitude": 37.4846067, "longitude": -115.7304096, "elevation": 2380.0, "source": "osm", "_tags": {"ele": "2380", "natural": "peak"}}, {"name": "", "latitude": 37.4653211, "longitude": -115.7108295, "elevation": 2360.0, "source": "osm", "_tags": {"ele": "2360", "natural": "peak"}}, {"name": "", "latitude": 37.5330584, "longitude": -115.7721126, "elevation": 2230.0, "source": "osm", "_tags": {"ele": "2230", "natural": "peak"}}, {"name": "", "latitude": 37.5572682, "longitude": -115.7803524, "elevation": 2230.0, "source": "osm", "_tags": {"ele": "2230", "natural": "peak"}}, {"name": "", "latitude": 37.5174021, "longitude": -115.7349694, "elevation": 2020.0, "source": "osm", "_tags": {"ele": "2020", "natural": "peak"}}, {"name": "", "latitude": 37.5217079, "longitude": -115.7296586, "elevation": 1950.0, "source": "osm", "_tags": {"ele": "1950", "natural": "peak"}}, {"name": "", "latitude": 37.5270685, "longitude": -115.7327485, "elevation": 1920.0, "source": "osm", "_tags": {"ele": "1920", "natural": "peak"}}, {"name": "", "latitude": 37.5303783, "longitude": -115.7449365, "elevation": 2030.0, "source": "osm", "_tags": {"ele": "2030", "natural": "peak"}}, {"name": "", "latitude": 37.5342155, "longitude": -115.7557404, "elevation": 2240.0, "source": "osm", "_tags": {"ele": "2240", "natural": "peak"}}, {"name": "", "latitude": 37.4627919, "longitude": -115.7187688, "elevation": 2500.0, "source": "osm", "_tags": {"ele": "2500", "natural": "peak"}}, {"name": "", "latitude": 37.4883015, "longitude": -115.7535732, "elevation": 2480.0, "source": "osm", "_tags": {"ele": "2480", "natural": "peak"}}, {"name": "", "latitude": 37.4967119, "longitude": -115.7527685, "elevation": 2450.0, "source": "osm", "_tags": {"ele": "2450", "natural": "peak"}}, {"name": "", "latitude": 37.5047172, "longitude": -115.7526505, "elevation": 2470.0, "source": "osm", "_tags": {"ele": "2470", "natural": "peak"}}, {"name": "", "latitude": 37.5474525, "longitude": -115.7799983, "elevation": 2300.0, "source": "osm", "_tags": {"ele": "2300", "natural": "peak"}}, {"name": "", "latitude": 37.5426548, "longitude": -115.7765758, "elevation": 2300.0, "source": "osm", "_tags": {"ele": "2300", "natural": "peak"}}, {"name": "", "latitude": 37.5433013, "longitude": -115.765965, "elevation": 2360.0, "source": "osm", "_tags": {"ele": "2360", "natural": "peak"}}, {"name": "", "latitude": 37.5360276, "longitude": -115.7644308, "elevation": 2340.0, "source": "osm", "_tags": {"ele": "2340", "natural": "peak"}}, {"name": "", "latitude": 37.5279407, "longitude": -115.7714045, "elevation": 2250.0, "source": "osm", "_tags": {"ele": "2250", "natural": "peak"}}, {"name": "", "latitude": 37.5238096, "longitude": -115.761888, "elevation": 2350.0, "source": "osm", "_tags": {"ele": "2350", "natural": "peak"}}, {"name": "", "latitude": 37.909432, "longitude": -116.5940917, "elevation": 1910.0, "source": "osm", "_tags": {"ele": "1910", "natural": "peak"}}, {"name": "", "latitude": 37.9160513, "longitude": -116.5841138, "elevation": 1950.0, "source": "osm", "_tags": {"ele": "1950", "natural": "peak"}}, {"name": "", "latitude": 37.9102701, "longitude": -116.5834701, "elevation": 1980.0, "source": "osm", "_tags": {"ele": "1980", "natural": "peak"}}, {"name": "", "latitude": 37.9009159, "longitude": -116.5832555, "elevation": 2010.0, "source": "osm", "_tags": {"ele": "2010", "natural": "peak"}}, {"name": "", "latitude": 37.8949134, "longitude": -116.5846396, "elevation": 2030.0, "source": "osm", "_tags": {"ele": "2030", "natural": "peak"}}, {"name": "", "latitude": 37.8914335, "longitude": -116.5657997, "elevation": 1990.0, "source": "osm", "_tags": {"ele": "1990", "natural": "peak"}}, {"name": "", "latitude": 37.9011445, "longitude": -116.5733314, "elevation": 2080.0, "source": "osm", "_tags": {"ele": "2080", "natural": "peak"}}, {"name": "", "latitude": 37.902863, "longitude": -116.5654671, "elevation": 2090.0, "source": "osm", "_tags": {"ele": "2090", "natural": "peak"}}, {"name": "", "latitude": 37.9491131, "longitude": -116.6118532, "elevation": 1970.0, "source": "osm", "_tags": {"ele": "1970", "natural": "peak"}}, {"name": "", "latitude": 37.9393704, "longitude": -116.5866834, "elevation": 1990.0, "source": "osm", "_tags": {"ele": "1990", "natural": "peak"}}, {"name": "", "latitude": 37.9462154, "longitude": -116.5831912, "elevation": 2060.0, "source": "osm", "_tags": {"ele": "2060", "natural": "peak"}}, {"name": "", "latitude": 37.9491554, "longitude": -116.591742, "elevation": 2130.0, "source": "osm", "_tags": {"ele": "2130", "natural": "peak"}}, {"name": "", "latitude": 37.9503737, "longitude": -116.5869677, "elevation": 2180.0, "source": "osm", "_tags": {"ele": "2180", "natural": "peak"}}, {"name": "", "latitude": 37.9511605, "longitude": -116.5910018, "elevation": 2130.0, "source": "osm", "_tags": {"ele": "2130", "natural": "peak"}}, {"name": "", "latitude": 37.9462535, "longitude": -116.5956044, "elevation": 2160.0, "source": "osm", "_tags": {"ele": "2160", "natural": "peak"}}, {"name": "", "latitude": 37.9392012, "longitude": -116.6171694, "elevation": 1900.0, "source": "osm", "_tags": {"ele": "1900", "natural": "peak"}}, {"name": "", "latitude": 37.91986, "longitude": -116.617856, "elevation": 1880.0, "source": "osm", "_tags": {"ele": "1880", "natural": "peak"}}, {"name": "", "latitude": 37.9151287, "longitude": -116.621815, "elevation": 1850.0, "source": "osm", "_tags": {"ele": "1850", "natural": "peak"}}, {"name": "", "latitude": 37.9147055, "longitude": -116.6294646, "elevation": 1840.0, "source": "osm", "_tags": {"ele": "1840", "natural": "peak"}}, {"name": "", "latitude": 37.9237786, "longitude": -116.6242826, "elevation": 1880.0, "source": "osm", "_tags": {"ele": "1880", "natural": "peak"}}, {"name": "", "latitude": 37.9253951, "longitude": -116.5549636, "elevation": 2350.0, "source": "osm", "_tags": {"ele": "2350", "natural": "peak"}}, {"name": "", "latitude": 37.9285263, "longitude": -116.5532255, "elevation": 2310.0, "source": "osm", "_tags": {"ele": "2310", "natural": "peak"}}, {"name": "", "latitude": 37.9227715, "longitude": -116.5346861, "elevation": 2220.0, "source": "osm", "_tags": {"ele": "2220", "natural": "peak"}}, {"name": "", "latitude": 37.9213581, "longitude": -116.4806449, "elevation": 2160.0, "source": "osm", "_tags": {"ele": "2160", "natural": "peak"}}, {"name": "", "latitude": 37.9208757, "longitude": -116.4893353, "elevation": 2200.0, "source": "osm", "_tags": {"ele": "2200", "natural": "peak"}}, {"name": "", "latitude": 37.9337645, "longitude": -116.4678455, "elevation": 2380.0, "source": "osm", "_tags": {"ele": "2380", "natural": "peak"}}, {"name": "", "latitude": 37.9271723, "longitude": -116.4681459, "elevation": 2280.0, "source": "osm", "_tags": {"ele": "2280", "natural": "peak"}}, {"name": "", "latitude": 37.9233131, "longitude": -116.4687091, "elevation": 2290.0, "source": "osm", "_tags": {"ele": "2290", "natural": "peak"}}, {"name": "", "latitude": 37.927697, "longitude": -116.4819539, "elevation": 2310.0, "source": "osm", "_tags": {"ele": "2310", "natural": "peak"}}, {"name": "", "latitude": 37.9190983, "longitude": -116.5057182, "elevation": 2320.0, "source": "osm", "_tags": {"ele": "2320", "natural": "peak"}}, {"name": "", "latitude": 37.9202917, "longitude": -116.5062332, "elevation": 2320.0, "source": "osm", "_tags": {"ele": "2320", "natural": "peak"}}, {"name": "", "latitude": 37.9242272, "longitude": -116.5168333, "elevation": 2330.0, "source": "osm", "_tags": {"ele": "2330", "natural": "peak"}}, {"name": "", "latitude": 37.937107, "longitude": -116.5238607, "elevation": 2550.0, "source": "osm", "_tags": {"ele": "2550", "natural": "peak"}}, {"name": "", "latitude": 37.9328083, "longitude": -116.5067911, "elevation": 2460.0, "source": "osm", "_tags": {"ele": "2460", "natural": "peak"}}, {"name": "", "latitude": 37.9294572, "longitude": -116.5042162, "elevation": 2480.0, "source": "osm", "_tags": {"ele": "2480", "natural": "peak"}}, {"name": "", "latitude": 37.9442737, "longitude": -116.4782632, "elevation": 2680.0, "source": "osm", "_tags": {"ele": "2680", "natural": "peak"}}, {"name": "", "latitude": 37.8944392, "longitude": -116.5359414, "elevation": 2020.0, "source": "osm", "_tags": {"ele": "2020", "natural": "peak"}}, {"name": "", "latitude": 37.8993836, "longitude": -116.5444923, "elevation": 2020.0, "source": "osm", "_tags": {"ele": "2020", "natural": "peak"}}, {"name": "", "latitude": 37.8890882, "longitude": -116.5952289, "elevation": 1900.0, "source": "osm", "_tags": {"ele": "1900", "natural": "peak"}}, {"name": "", "latitude": 37.8917299, "longitude": -116.5904117, "elevation": 1940.0, "source": "osm", "_tags": {"ele": "1940", "natural": "peak"}}, {"name": "", "latitude": 37.8946509, "longitude": -116.5520024, "elevation": 2020.0, "source": "osm", "_tags": {"ele": "2020", "natural": "peak"}}, {"name": "", "latitude": 37.9018471, "longitude": -116.5537298, "elevation": 2070.0, "source": "osm", "_tags": {"ele": "2070", "natural": "peak"}}, {"name": "", "latitude": 37.9007889, "longitude": -116.5238714, "elevation": 2160.0, "source": "osm", "_tags": {"ele": "2160", "natural": "peak"}}, {"name": "", "latitude": 37.9039381, "longitude": -116.5257704, "elevation": 2200.0, "source": "osm", "_tags": {"ele": "2200", "natural": "peak"}}, {"name": "", "latitude": 37.9179895, "longitude": -116.5487945, "elevation": 2170.0, "source": "osm", "_tags": {"ele": "2170", "natural": "peak"}}, {"name": "", "latitude": 37.9438802, "longitude": -116.5566748, "elevation": 2150.0, "source": "osm", "_tags": {"ele": "2150", "natural": "peak"}}, {"name": "", "latitude": 37.9360662, "longitude": -116.5430975, "elevation": 2430.0, "source": "osm", "_tags": {"ele": "2430", "natural": "peak"}}, {"name": "", "latitude": 37.9373523, "longitude": -116.5392244, "elevation": 2410.0, "source": "osm", "_tags": {"ele": "2410", "natural": "peak"}}, {"name": "", "latitude": 37.9327194, "longitude": -116.5425289, "elevation": 2480.0, "source": "osm", "_tags": {"ele": "2480", "natural": "peak"}}, {"name": "", "latitude": 37.9270876, "longitude": -116.5402007, "elevation": 2360.0, "source": "osm", "_tags": {"ele": "2360", "natural": "peak"}}, {"name": "", "latitude": 37.9430426, "longitude": -116.5269291, "elevation": 2680.0, "source": "osm", "_tags": {"ele": "2680", "natural": "peak"}}, {"name": "", "latitude": 37.9440875, "longitude": -116.5282112, "elevation": 2680.0, "source": "osm", "_tags": {"ele": "2680", "natural": "peak"}}, {"name": "", "latitude": 37.9417227, "longitude": -116.5325135, "elevation": 2570.0, "source": "osm", "_tags": {"ele": "2570", "natural": "peak"}}, {"name": "", "latitude": 37.9133935, "longitude": -116.5229166, "elevation": 2120.0, "source": "osm", "_tags": {"ele": "2120", "natural": "peak"}}, {"name": "", "latitude": 37.9156831, "longitude": -116.5261942, "elevation": 2140.0, "source": "osm", "_tags": {"ele": "2140", "natural": "peak"}}, {"name": "", "latitude": 37.9155434, "longitude": -116.5336454, "elevation": 2140.0, "source": "osm", "_tags": {"ele": "2140", "natural": "peak"}}, {"name": "", "latitude": 37.914096, "longitude": -116.5439665, "elevation": 2090.0, "source": "osm", "_tags": {"ele": "2090", "natural": "peak"}}, {"name": "", "latitude": 37.9239182, "longitude": -116.546005, "elevation": 2230.0, "source": "osm", "_tags": {"ele": "2230", "natural": "peak"}}, {"name": "", "latitude": 37.9220859, "longitude": -116.5473676, "elevation": 2230.0, "source": "osm", "_tags": {"ele": "2230", "natural": "peak"}}, {"name": "", "latitude": 37.9259282, "longitude": -116.5638578, "elevation": 2160.0, "source": "osm", "_tags": {"ele": "2160", "natural": "peak"}}, {"name": "", "latitude": 37.9244768, "longitude": -116.5709227, "elevation": 2130.0, "source": "osm", "_tags": {"ele": "2130", "natural": "peak"}}, {"name": "", "latitude": 37.9215273, "longitude": -116.5595019, "elevation": 2230.0, "source": "osm", "_tags": {"ele": "2230", "natural": "peak"}}, {"name": "", "latitude": 37.8919924, "longitude": -116.5703058, "elevation": 1990.0, "source": "osm", "_tags": {"ele": "1990", "natural": "peak"}}, {"name": "", "latitude": 37.8961241, "longitude": -116.5749836, "elevation": 1990.0, "source": "osm", "_tags": {"ele": "1990", "natural": "peak"}}, {"name": "", "latitude": 37.8895623, "longitude": -116.5814638, "elevation": 1920.0, "source": "osm", "_tags": {"ele": "1920", "natural": "peak"}}, {"name": "", "latitude": 37.8862177, "longitude": -116.5890169, "elevation": 1890.0, "source": "osm", "_tags": {"ele": "1890", "natural": "peak"}}, {"name": "", "latitude": 37.938537, "longitude": -116.5427649, "elevation": 2410.0, "source": "osm", "_tags": {"ele": "2410", "natural": "peak"}}, {"name": "", "latitude": 37.9433853, "longitude": -116.5239358, "elevation": 2670.0, "source": "osm", "_tags": {"ele": "2670", "natural": "peak"}}, {"name": "", "latitude": 37.9433599, "longitude": -116.5141082, "elevation": 2630.0, "source": "osm", "_tags": {"ele": "2630", "natural": "peak"}}, {"name": "", "latitude": 37.9502299, "longitude": -116.5093231, "elevation": 2660.0, "source": "osm", "_tags": {"ele": "2660", "natural": "peak"}}, {"name": "", "latitude": 37.9590448, "longitude": -116.5109378, "elevation": 2540.0, "source": "osm", "_tags": {"ele": "2540", "natural": "peak"}}, {"name": "", "latitude": 37.9558895, "longitude": -116.5120643, "elevation": 2570.0, "source": "osm", "_tags": {"ele": "2570", "natural": "peak"}}, {"name": "", "latitude": 37.9585415, "longitude": -116.5358341, "elevation": 2590.0, "source": "osm", "_tags": {"ele": "2590", "natural": "peak"}}, {"name": "", "latitude": 37.9550055, "longitude": -116.5327066, "elevation": 2630.0, "source": "osm", "_tags": {"ele": "2630", "natural": "peak"}}, {"name": "", "latitude": 37.9533601, "longitude": -116.5453023, "elevation": 2300.0, "source": "osm", "_tags": {"ele": "2300", "natural": "peak"}}, {"name": "", "latitude": 37.9603264, "longitude": -116.5465683, "elevation": 2290.0, "source": "osm", "_tags": {"ele": "2290", "natural": "peak"}}, {"name": "", "latitude": 37.95984, "longitude": -116.5530002, "elevation": 2260.0, "source": "osm", "_tags": {"ele": "2260", "natural": "peak"}}, {"name": "", "latitude": 37.9824899, "longitude": -116.6199482, "elevation": 1850.0, "source": "osm", "_tags": {"ele": "1850", "natural": "peak"}}, {"name": "", "latitude": 37.9835089, "longitude": -116.6250336, "elevation": 1920.0, "source": "osm", "_tags": {"ele": "1920", "natural": "peak"}}, {"name": "", "latitude": 37.9757371, "longitude": -116.6135001, "elevation": 1910.0, "source": "osm", "_tags": {"ele": "1910", "natural": "peak"}}, {"name": "", "latitude": 37.9758851, "longitude": -116.6164774, "elevation": 1920.0, "source": "osm", "_tags": {"ele": "1920", "natural": "peak"}}, {"name": "", "latitude": 37.9638664, "longitude": -116.6143531, "elevation": 1940.0, "source": "osm", "_tags": {"ele": "1940", "natural": "peak"}}, {"name": "", "latitude": 37.9602756, "longitude": -116.5918762, "elevation": 2050.0, "source": "osm", "_tags": {"ele": "2050", "natural": "peak"}}, {"name": "", "latitude": 37.9626399, "longitude": -116.5900254, "elevation": 2050.0, "source": "osm", "_tags": {"ele": "2050", "natural": "peak"}}, {"name": "", "latitude": 37.9628852, "longitude": -116.5840495, "elevation": 2060.0, "source": "osm", "_tags": {"ele": "2060", "natural": "peak"}}, {"name": "", "latitude": 37.9596074, "longitude": -116.5986139, "elevation": 2040.0, "source": "osm", "_tags": {"ele": "2040", "natural": "peak"}}, {"name": "", "latitude": 37.9638452, "longitude": -116.6009098, "elevation": 2060.0, "source": "osm", "_tags": {"ele": "2060", "natural": "peak"}}, {"name": "", "latitude": 37.9630882, "longitude": -116.6062796, "elevation": 2060.0, "source": "osm", "_tags": {"ele": "2060", "natural": "peak"}}, {"name": "", "latitude": 37.956524, "longitude": -116.5949071, "elevation": 2060.0, "source": "osm", "_tags": {"ele": "2060", "natural": "peak"}}, {"name": "", "latitude": 37.3405515, "longitude": -115.6987757, "elevation": 1720.0, "source": "osm", "_tags": {"ele": "1720", "natural": "peak"}}, {"name": "", "latitude": 37.3552044, "longitude": -115.6917429, "elevation": 1870.0, "source": "osm", "_tags": {"ele": "1870", "natural": "peak"}}, {"name": "", "latitude": 37.3472471, "longitude": -115.6993121, "elevation": 1750.0, "source": "osm", "_tags": {"ele": "1750", "natural": "peak"}}, {"name": "", "latitude": 37.3170138, "longitude": -115.7755458, "elevation": 1480.0, "source": "osm", "_tags": {"ele": "1480", "natural": "peak"}}, {"name": "", "latitude": 37.3452044, "longitude": -115.7890213, "elevation": 1770.0, "source": "osm", "_tags": {"ele": "1770", "natural": "peak"}}, {"name": "", "latitude": 37.3417201, "longitude": -115.7881898, "elevation": 1750.0, "source": "osm", "_tags": {"ele": "1750", "natural": "peak"}}, {"name": "", "latitude": 37.3335566, "longitude": -115.7833135, "elevation": 1640.0, "source": "osm", "_tags": {"ele": "1640", "natural": "peak"}}, {"name": "", "latitude": 37.3343884, "longitude": -115.7956463, "elevation": 1720.0, "source": "osm", "_tags": {"ele": "1720", "natural": "peak"}}, {"name": "", "latitude": 37.3414812, "longitude": -115.7983875, "elevation": 1710.0, "source": "osm", "_tags": {"ele": "1710", "natural": "peak"}}, {"name": "", "latitude": 37.3495585, "longitude": -115.8052754, "elevation": 1810.0, "source": "osm", "_tags": {"ele": "1810", "natural": "peak"}}, {"name": "", "latitude": 37.3494924, "longitude": -115.8008337, "elevation": 1870.0, "source": "osm", "_tags": {"ele": "1870", "natural": "peak"}}, {"name": "", "latitude": 37.349196, "longitude": -115.7962418, "elevation": 1890.0, "source": "osm", "_tags": {"ele": "1890", "natural": "peak"}}, {"name": "", "latitude": 37.3542023, "longitude": -115.7874012, "elevation": 1900.0, "source": "osm", "_tags": {"ele": "1900", "natural": "peak"}}, {"name": "", "latitude": 37.3507739, "longitude": -115.7741028, "elevation": 1760.0, "source": "osm", "_tags": {"ele": "1760", "natural": "peak"}}, {"name": "", "latitude": 37.3476565, "longitude": -115.76074, "elevation": 1880.0, "source": "osm", "_tags": {"ele": "1880", "natural": "peak"}}, {"name": "", "latitude": 37.3623806, "longitude": -115.7818866, "elevation": 1970.0, "source": "osm", "_tags": {"ele": "1970", "natural": "peak"}}, {"name": "", "latitude": 37.7090591, "longitude": -116.5960336, "elevation": 1710.0, "source": "osm", "_tags": {"ele": "1710", "natural": "peak"}}, {"name": "", "latitude": 37.7497812, "longitude": -116.1268562, "elevation": 1720.0, "source": "osm", "_tags": {"ele": "1720", "natural": "peak"}}, {"name": "", "latitude": 37.7507058, "longitude": -116.1240077, "elevation": 1730.0, "source": "osm", "_tags": {"ele": "1730", "natural": "peak"}}, {"name": "", "latitude": 37.7626936, "longitude": -115.979906, "elevation": null, "source": "osm", "_tags": {"natural": "peak"}}, {"name": "", "latitude": 37.763845, "longitude": -115.9808582, "elevation": null, "source": "osm", "_tags": {"natural": "peak"}}, {"name": "", "latitude": 37.8382165, "longitude": -116.1170098, "elevation": null, "source": "osm", "_tags": {"natural": "peak"}}, {"name": "", "latitude": 37.8490443, "longitude": -116.1421073, "elevation": 2480.0, "source": "osm", "_tags": {"ele": "2480", "natural": "peak"}}, {"name": "", "latitude": 37.8863574, "longitude": -116.142574, "elevation": 2430.0, "source": "osm", "_tags": {"ele": "2430", "natural": "peak"}}, {"name": "", "latitude": 37.8607768, "longitude": -116.1351657, "elevation": 2480.0, "source": "osm", "_tags": {"ele": "2480", "natural": "peak"}}, {"name": "", "latitude": 37.8332512, "longitude": -116.1248446, "elevation": 2250.0, "source": "osm", "_tags": {"ele": "2250", "natural": "peak"}}, {"name": "", "latitude": 37.83112, "longitude": -116.1280444, "elevation": 2250.0, "source": "osm", "_tags": {"ele": "2250", "natural": "peak"}}, {"name": "", "latitude": 37.8290227, "longitude": -116.1272317, "elevation": 2240.0, "source": "osm", "_tags": {"ele": "2240", "natural": "peak"}}, {"name": "", "latitude": 37.8267982, "longitude": -116.1309412, "elevation": 2200.0, "source": "osm", "_tags": {"ele": "2200", "natural": "peak"}}, {"name": "", "latitude": 37.8196074, "longitude": -116.1282241, "elevation": 2120.0, "source": "osm", "_tags": {"ele": "2120", "natural": "peak"}}, {"name": "", "latitude": 37.8087837, "longitude": -116.1419839, "elevation": 1900.0, "source": "osm", "_tags": {"ele": "1900", "natural": "peak"}}, {"name": "", "latitude": 37.7986961, "longitude": -116.1399078, "elevation": 1860.0, "source": "osm", "_tags": {"ele": "1860", "natural": "peak"}}, {"name": "", "latitude": 37.797683, "longitude": -116.1568594, "elevation": 1890.0, "source": "osm", "_tags": {"ele": "1890", "natural": "peak"}}, {"name": "", "latitude": 37.7954957, "longitude": -116.1569452, "elevation": 1870.0, "source": "osm", "_tags": {"ele": "1870", "natural": "peak"}}, {"name": "", "latitude": 37.7947836, "longitude": -116.1585063, "elevation": 1870.0, "source": "osm", "_tags": {"ele": "1870", "natural": "peak"}}, {"name": "", "latitude": 37.7897687, "longitude": -116.1565805, "elevation": 1850.0, "source": "osm", "_tags": {"ele": "1850", "natural": "peak"}}, {"name": "", "latitude": 37.7811624, "longitude": -116.1453688, "elevation": 1800.0, "source": "osm", "_tags": {"ele": "1800", "natural": "peak"}}, {"name": "", "latitude": 37.7807893, "longitude": -116.1731029, "elevation": 1840.0, "source": "osm", "_tags": {"ele": "1840", "natural": "peak"}}, {"name": "", "latitude": 37.815768, "longitude": -116.1204135, "elevation": 1970.0, "source": "osm", "_tags": {"ele": "1970", "natural": "peak"}}, {"name": "", "latitude": 37.844821, "longitude": -116.1234015, "elevation": 2290.0, "source": "osm", "_tags": {"ele": "2290", "natural": "peak"}}, {"name": "", "latitude": 37.8764116, "longitude": -116.1214864, "elevation": 2450.0, "source": "osm", "_tags": {"ele": "2450", "natural": "peak"}}, {"name": "", "latitude": 37.8760898, "longitude": -116.124925, "elevation": 2480.0, "source": "osm", "_tags": {"ele": "2480", "natural": "peak"}}, {"name": "", "latitude": 37.8758993, "longitude": -116.1290824, "elevation": 2500.0, "source": "osm", "_tags": {"ele": "2500", "natural": "peak"}}, {"name": "", "latitude": 37.8745273, "longitude": -116.1377031, "elevation": 2430.0, "source": "osm", "_tags": {"ele": "2430", "natural": "peak"}}, {"name": "", "latitude": 37.8793926, "longitude": -116.15017, "elevation": 2270.0, "source": "osm", "_tags": {"ele": "2270", "natural": "peak"}}, {"name": "", "latitude": 37.8788718, "longitude": -116.1374295, "elevation": 2490.0, "source": "osm", "_tags": {"ele": "2490", "natural": "peak"}}, {"name": "", "latitude": 37.8776904, "longitude": -116.1335242, "elevation": 2500.0, "source": "osm", "_tags": {"ele": "2500", "natural": "peak"}}, {"name": "", "latitude": 37.8577909, "longitude": -116.1198127, "elevation": 2320.0, "source": "osm", "_tags": {"ele": "2320", "natural": "peak"}}, {"name": "", "latitude": 37.8575792, "longitude": -116.1144617, "elevation": 2260.0, "source": "osm", "_tags": {"ele": "2260", "natural": "peak"}}, {"name": "", "latitude": 37.8636694, "longitude": -116.1392641, "elevation": 2540.0, "source": "osm", "_tags": {"ele": "2540", "natural": "peak"}}, {"name": "", "latitude": 37.8658801, "longitude": -116.1460769, "elevation": 2500.0, "source": "osm", "_tags": {"ele": "2500", "natural": "peak"}}, {"name": "", "latitude": 37.8708009, "longitude": -116.1406374, "elevation": 2390.0, "source": "osm", "_tags": {"ele": "2390", "natural": "peak"}}, {"name": "", "latitude": 37.8724567, "longitude": -116.14833, "elevation": 2400.0, "source": "osm", "_tags": {"ele": "2400", "natural": "peak"}}, {"name": "", "latitude": 37.8693019, "longitude": -116.1450094, "elevation": 2460.0, "source": "osm", "_tags": {"ele": "2460", "natural": "peak"}}, {"name": "", "latitude": 37.8495272, "longitude": -116.1297637, "elevation": 2510.0, "source": "osm", "_tags": {"ele": "2510", "natural": "peak"}}, {"name": "", "latitude": 37.8430778, "longitude": -116.1339372, "elevation": 2440.0, "source": "osm", "_tags": {"ele": "2440", "natural": "peak"}}, {"name": "", "latitude": 37.6951037, "longitude": -116.0758245, "elevation": null, "source": "osm", "_tags": {"natural": "peak"}}, {"name": "", "latitude": 37.6960461, "longitude": -116.0784531, "elevation": null, "source": "osm", "_tags": {"natural": "peak"}}, {"name": "", "latitude": 37.6915465, "longitude": -116.0842037, "elevation": null, "source": "osm", "_tags": {"natural": "peak"}}, {"name": "", "latitude": 37.6904258, "longitude": -116.0814142, "elevation": null, "source": "osm", "_tags": {"natural": "peak"}}, {"name": "", "latitude": 37.6872293, "longitude": -116.0813391, "elevation": null, "source": "osm", "_tags": {"natural": "peak"}}, {"name": "", "latitude": 37.69133, "longitude": -116.0778844, "elevation": null, "source": "osm", "_tags": {"natural": "peak"}}, {"name": "", "latitude": 37.6921705, "longitude": -116.0771227, "elevation": null, "source": "osm", "_tags": {"natural": "peak"}}, {"name": "", "latitude": 37.6884731, "longitude": -116.0707283, "elevation": null, "source": "osm", "_tags": {"natural": "peak"}}, {"name": "", "latitude": 37.6869449, "longitude": -116.075213, "elevation": null, "source": "osm", "_tags": {"natural": "peak"}}, {"name": "", "latitude": 37.6781695, "longitude": -116.0772863, "elevation": null, "source": "osm", "_tags": {"natural": "peak"}}, {"name": "", "latitude": 37.6765604, "longitude": -116.0777906, "elevation": null, "source": "osm", "_tags": {"natural": "peak"}}, {"name": "", "latitude": 37.6761952, "longitude": -116.0799444, "elevation": null, "source": "osm", "_tags": {"natural": "peak"}}, {"name": "", "latitude": 37.6773543, "longitude": -116.0786274, "elevation": null, "source": "osm", "_tags": {"natural": "peak"}}, {"name": "", "latitude": 37.6676649, "longitude": -116.0726863, "elevation": null, "source": "osm", "_tags": {"natural": "peak"}}, {"name": "", "latitude": 37.6640257, "longitude": -116.0739362, "elevation": null, "source": "osm", "_tags": {"natural": "peak"}}, {"name": "", "latitude": 37.6656054, "longitude": -116.0695481, "elevation": null, "source": "osm", "_tags": {"natural": "peak"}}, {"name": "", "latitude": 37.6839307, "longitude": -116.0765004, "elevation": null, "source": "osm", "_tags": {"natural": "peak"}}, {"name": "", "latitude": 37.6827632, "longitude": -116.0778952, "elevation": null, "source": "osm", "_tags": {"natural": "peak"}}, {"name": "", "latitude": 37.6810013, "longitude": -116.0763288, "elevation": null, "source": "osm", "_tags": {"natural": "peak"}}, {"name": "", "latitude": 37.6804919, "longitude": -116.0781822, "elevation": null, "source": "osm", "_tags": {"natural": "peak"}}, {"name": "", "latitude": 37.7138673, "longitude": -116.0917836, "elevation": 2100.0, "source": "osm", "_tags": {"ele": "2100", "natural": "peak"}}, {"name": "", "latitude": 37.7138079, "longitude": -116.0835171, "elevation": 1950.0, "source": "osm", "_tags": {"ele": "1950", "natural": "peak"}}, {"name": "", "latitude": 37.7042378, "longitude": -116.0808456, "elevation": 1990.0, "source": "osm", "_tags": {"ele": "1990", "natural": "peak"}}, {"name": "", "latitude": 37.6979943, "longitude": -116.0993582, "elevation": 1910.0, "source": "osm", "_tags": {"ele": "1910", "natural": "peak"}}, {"name": "", "latitude": 37.7123438, "longitude": -116.0943371, "elevation": 2090.0, "source": "osm", "_tags": {"ele": "2090", "natural": "peak"}}, {"name": "", "latitude": 37.7251334, "longitude": -116.1022174, "elevation": 1950.0, "source": "osm", "_tags": {"ele": "1950", "natural": "peak"}}, {"name": "", "latitude": 37.7347135, "longitude": -116.0977757, "elevation": 1780.0, "source": "osm", "_tags": {"ele": "1780", "natural": "peak"}}, {"name": "", "latitude": 37.7085837, "longitude": -116.0894448, "elevation": 2090.0, "source": "osm", "_tags": {"ele": "2090", "natural": "peak"}}, {"name": "", "latitude": 37.7106633, "longitude": -116.0907644, "elevation": 2100.0, "source": "osm", "_tags": {"ele": "2100", "natural": "peak"}}, {"name": "", "latitude": 37.7344759, "longitude": -116.0877979, "elevation": 1770.0, "source": "osm", "_tags": {"ele": "1770", "natural": "peak"}}, {"name": "", "latitude": 37.7191674, "longitude": -116.0756421, "elevation": 1850.0, "source": "osm", "_tags": {"ele": "1850", "natural": "peak"}}, {"name": "", "latitude": 37.723487, "longitude": -116.0774982, "elevation": 1850.0, "source": "osm", "_tags": {"ele": "1850", "natural": "peak"}}, {"name": "", "latitude": 37.7204319, "longitude": -116.087873, "elevation": 2030.0, "source": "osm", "_tags": {"ele": "2030", "natural": "peak"}}, {"name": "", "latitude": 37.7254304, "longitude": -116.0926473, "elevation": 1960.0, "source": "osm", "_tags": {"ele": "1960", "natural": "peak"}}, {"name": "", "latitude": 37.7205338, "longitude": -116.0987735, "elevation": 2050.0, "source": "osm", "_tags": {"ele": "2050", "natural": "peak"}}, {"name": "", "latitude": 37.7047513, "longitude": -116.1087513, "elevation": 1980.0, "source": "osm", "_tags": {"ele": "1980", "natural": "peak"}}, {"name": "", "latitude": 37.7038983, "longitude": -116.1033762, "elevation": 1950.0, "source": "osm", "_tags": {"ele": "1950", "natural": "peak"}}, {"name": "", "latitude": 37.7042972, "longitude": -116.0861135, "elevation": 2130.0, "source": "osm", "_tags": {"ele": "2130", "natural": "peak"}}, {"name": "", "latitude": 37.6994162, "longitude": -116.0753954, "elevation": 1960.0, "source": "osm", "_tags": {"ele": "1960", "natural": "peak"}}, {"name": "", "latitude": 37.7003627, "longitude": -116.0822511, "elevation": 2100.0, "source": "osm", "_tags": {"ele": "2100", "natural": "peak"}}, {"name": "", "latitude": 37.6751465, "longitude": -116.0935324, "elevation": 1960.0, "source": "osm", "_tags": {"ele": "1960", "natural": "peak"}}, {"name": "", "latitude": 37.6838734, "longitude": -116.0734588, "elevation": 2000.0, "source": "osm", "_tags": {"ele": "2000", "natural": "peak"}}, {"name": "", "latitude": 37.6880698, "longitude": -116.0835654, "elevation": 2090.0, "source": "osm", "_tags": {"ele": "2090", "natural": "peak"}}, {"name": "", "latitude": 37.6889443, "longitude": -116.0904425, "elevation": 2060.0, "source": "osm", "_tags": {"ele": "2060", "natural": "peak"}}, {"name": "", "latitude": 37.6874203, "longitude": -116.0902602, "elevation": 2060.0, "source": "osm", "_tags": {"ele": "2060", "natural": "peak"}}, {"name": "", "latitude": 37.6696989, "longitude": -116.0753337, "elevation": 1930.0, "source": "osm", "_tags": {"ele": "1930", "natural": "peak"}}, {"name": "", "latitude": 37.6654865, "longitude": -116.0791934, "elevation": 1910.0, "source": "osm", "_tags": {"ele": "1910", "natural": "peak"}}, {"name": "", "latitude": 37.6934652, "longitude": -115.9610045, "elevation": 2030.0, "source": "osm", "_tags": {"ele": "2030", "natural": "peak"}}, {"name": "", "latitude": 37.6911135, "longitude": -115.9617823, "elevation": 2020.0, "source": "osm", "_tags": {"ele": "2020", "natural": "peak"}}, {"name": "", "latitude": 37.684818, "longitude": -115.9592289, "elevation": 2030.0, "source": "osm", "_tags": {"ele": "2030", "natural": "peak"}}, {"name": "", "latitude": 37.6774732, "longitude": -115.9585583, "elevation": 2000.0, "source": "osm", "_tags": {"ele": "2000", "natural": "peak"}}, {"name": "", "latitude": 37.6922851, "longitude": -115.9429693, "elevation": 1880.0, "source": "osm", "_tags": {"ele": "1880", "natural": "peak"}}, {"name": "", "latitude": 37.7007744, "longitude": -115.9645397, "elevation": 2030.0, "source": "osm", "_tags": {"ele": "2030", "natural": "peak"}}, {"name": "", "latitude": 37.698788, "longitude": -115.9614873, "elevation": 2070.0, "source": "osm", "_tags": {"ele": "2070", "natural": "peak"}}, {"name": "", "latitude": 37.6736392, "longitude": -115.9763843, "elevation": 1890.0, "source": "osm", "_tags": {"ele": "1890", "natural": "peak"}}, {"name": "", "latitude": 37.6758768, "longitude": -115.983299, "elevation": 1840.0, "source": "osm", "_tags": {"ele": "1840", "natural": "peak"}}, {"name": "", "latitude": 37.6705014, "longitude": -115.9740454, "elevation": 1850.0, "source": "osm", "_tags": {"ele": "1850", "natural": "peak"}}, {"name": "", "latitude": 37.6659791, "longitude": -115.9782457, "elevation": 1810.0, "source": "osm", "_tags": {"ele": "1810", "natural": "peak"}}, {"name": "", "latitude": 37.6712784, "longitude": -115.9856701, "elevation": 1840.0, "source": "osm", "_tags": {"ele": "1840", "natural": "peak"}}, {"name": "", "latitude": 37.6624545, "longitude": -115.9795654, "elevation": 1850.0, "source": "osm", "_tags": {"ele": "1850", "natural": "peak"}}, {"name": "", "latitude": 37.6560673, "longitude": -115.9824514, "elevation": 1790.0, "source": "osm", "_tags": {"ele": "1790", "natural": "peak"}}, {"name": "", "latitude": 37.6522705, "longitude": -115.9860027, "elevation": 1800.0, "source": "osm", "_tags": {"ele": "1800", "natural": "peak"}}, {"name": "", "latitude": 37.6469358, "longitude": -115.9819633, "elevation": 1830.0, "source": "osm", "_tags": {"ele": "1830", "natural": "peak"}}, {"name": "", "latitude": 37.6451518, "longitude": -115.9803057, "elevation": 1830.0, "source": "osm", "_tags": {"ele": "1830", "natural": "peak"}}, {"name": "", "latitude": 37.6425692, "longitude": -115.9815019, "elevation": 1820.0, "source": "osm", "_tags": {"ele": "1820", "natural": "peak"}}, {"name": "", "latitude": 37.6101094, "longitude": -115.9990704, "elevation": 1780.0, "source": "osm", "_tags": {"ele": "1780", "natural": "peak"}}, {"name": "", "latitude": 37.6135303, "longitude": -116.0000628, "elevation": 1790.0, "source": "osm", "_tags": {"ele": "1790", "natural": "peak"}}, {"name": "", "latitude": 37.6180515, "longitude": -116.0005242, "elevation": 1770.0, "source": "osm", "_tags": {"ele": "1770", "natural": "peak"}}, {"name": "", "latitude": 37.6212978, "longitude": -115.9879714, "elevation": 1780.0, "source": "osm", "_tags": {"ele": "1780", "natural": "peak"}}, {"name": "", "latitude": 37.6185571, "longitude": -115.9883148, "elevation": 1780.0, "source": "osm", "_tags": {"ele": "1780", "natural": "peak"}}, {"name": "", "latitude": 37.6065312, "longitude": -115.9780526, "elevation": 1700.0, "source": "osm", "_tags": {"ele": "1700", "natural": "peak"}}, {"name": "", "latitude": 37.6103941, "longitude": -115.9874243, "elevation": 1750.0, "source": "osm", "_tags": {"ele": "1750", "natural": "peak"}}, {"name": "", "latitude": 37.6202525, "longitude": -115.9824783, "elevation": 1750.0, "source": "osm", "_tags": {"ele": "1750", "natural": "peak"}}, {"name": "", "latitude": 37.6234222, "longitude": -115.9838569, "elevation": 1780.0, "source": "osm", "_tags": {"ele": "1780", "natural": "peak"}}, {"name": "", "latitude": 37.6133688, "longitude": -115.9919304, "elevation": 1820.0, "source": "osm", "_tags": {"ele": "1820", "natural": "peak"}}, {"name": "", "latitude": 37.6174524, "longitude": -115.9932178, "elevation": 1820.0, "source": "osm", "_tags": {"ele": "1820", "natural": "peak"}}, {"name": "", "latitude": 37.627535, "longitude": -115.9844202, "elevation": 1790.0, "source": "osm", "_tags": {"ele": "1790", "natural": "peak"}}, {"name": "", "latitude": 37.6257548, "longitude": -115.995841, "elevation": 1800.0, "source": "osm", "_tags": {"ele": "1800", "natural": "peak"}}, {"name": "", "latitude": 37.4480088, "longitude": -115.7200161, "elevation": null, "source": "osm", "_tags": {"natural": "peak"}}, {"name": "", "latitude": 37.4491203, "longitude": -115.7230175, "elevation": null, "source": "osm", "_tags": {"natural": "peak"}}, {"name": "", "latitude": 37.4403148, "longitude": -115.7148957, "elevation": null, "source": "osm", "_tags": {"natural": "peak"}}, {"name": "", "latitude": 37.4438414, "longitude": -115.7124067, "elevation": null, "source": "osm", "_tags": {"natural": "peak"}}, {"name": "", "latitude": 37.4445612, "longitude": -115.7197559, "elevation": null, "source": "osm", "_tags": {"natural": "peak"}}, {"name": "", "latitude": 37.4546246, "longitude": -115.6986523, "elevation": 2050.0, "source": "osm", "_tags": {"ele": "2050", "natural": "peak"}}, {"name": "", "latitude": 37.4228455, "longitude": -115.7265151, "elevation": 2550.0, "source": "osm", "_tags": {"ele": "2550", "natural": "peak"}}, {"name": "", "latitude": 37.4341343, "longitude": -115.7025576, "elevation": 2300.0, "source": "osm", "_tags": {"ele": "2300", "natural": "peak"}}, {"name": "", "latitude": 37.4360426, "longitude": -115.7045317, "elevation": 2300.0, "source": "osm", "_tags": {"ele": "2300", "natural": "peak"}}, {"name": "", "latitude": 37.4476361, "longitude": -115.6987006, "elevation": 2150.0, "source": "osm", "_tags": {"ele": "2150", "natural": "peak"}}, {"name": "", "latitude": 37.453313, "longitude": -115.715518, "elevation": 2530.0, "source": "osm", "_tags": {"ele": "2530", "natural": "peak"}}, {"name": "", "latitude": 37.4372566, "longitude": -115.7135761, "elevation": 2380.0, "source": "osm", "_tags": {"ele": "2380", "natural": "peak"}}, {"name": "", "latitude": 37.4538453, "longitude": -115.7257909, "elevation": 2670.0, "source": "osm", "_tags": {"ele": "2670", "natural": "peak"}}, {"name": "", "latitude": 37.4452043, "longitude": -115.7277489, "elevation": 2630.0, "source": "osm", "_tags": {"ele": "2630", "natural": "peak"}}, {"name": "", "latitude": 37.4519545, "longitude": -115.7348299, "elevation": 2830.0, "source": "osm", "_tags": {"ele": "2830", "natural": "peak"}}, {"name": "", "latitude": 37.4401189, "longitude": -115.7387513, "elevation": 2630.0, "source": "osm", "_tags": {"ele": "2630", "natural": "peak"}}, {"name": "", "latitude": 37.4317617, "longitude": -115.7409454, "elevation": 2590.0, "source": "osm", "_tags": {"ele": "2590", "natural": "peak"}}, {"name": "", "latitude": 37.4453661, "longitude": -115.7388211, "elevation": 2670.0, "source": "osm", "_tags": {"ele": "2670", "natural": "peak"}}, {"name": "", "latitude": 37.4247114, "longitude": -115.7049877, "elevation": null, "source": "osm", "_tags": {"natural": "peak"}}, {"name": "", "latitude": 37.5613081, "longitude": -115.711838, "elevation": 1860.0, "source": "osm", "_tags": {"ele": "1860", "natural": "peak"}}, {"name": "", "latitude": 37.5593179, "longitude": -115.7048321, "elevation": 1870.0, "source": "osm", "_tags": {"ele": "1870", "natural": "peak"}}]