[{"name": "Nolan Hill", "latitude": 39.1088891, "longitude": -95.3021947, "elevation": 317.0, "source": "osm", "_tags": {"ele": "317", "gnis:feature_id": "478826", "name": "Nolan Hill", "natural": "peak"}}, {"name": "Shank Hill", "latitude": 38.8888929, "longitude": -95.2616397, "elevation": 304.0, "source": "osm", "_tags": {"ele": "304", "gnis:feature_id": "479118", "name": "Shank Hill", "natural": "peak"}}, {"name": "Blue Mound", "latitude": 38.9044485, "longitude": -95.1821935, "elevation": 318.0, "source": "osm", "_tags": {"ele": "318", "gnis:feature_id": "479132", "name": "Blue Mound", "natural": "peak"}}, {"name": "Fowler Hill", "latitude": 38.7027868, "longitude": -95.1835825, "elevation": 318.0, "source": "osm", "_tags": {"ele": "318", "gnis:feature_id": "479372", "name": "Fowler Hill", "natural": "peak", "wikidata": "Q31595521"}}, {"name": "Twin Mounds", "latitude": 38.8605591, "longitude": -95.4908114, "elevation": 316.0, "source": "osm", "_tags": {"ele": "316", "gnis:feature_id": "479481", "name": "Twin Mounds", "natural": "peak", "wikidata": "Q7858229", "wikipedia": "en:Twin Mound, Kansas"}}, {"name": "Observation Bluff", "latitude": 38.9077828, "longitude": -95.048302, "elevation": 277.0, "source": "osm", "_tags": {"addr:city": "De Soto", "addr:housenumber": "39755", "addr:postcode": "66018", "addr:state": "KS", "addr:street": "W 119th Street", "ele": "277", "gnis:feature_id": "482655", "name": "Observation Bluff", "natural": "peak", "wikidata": "Q31595982"}}, {"name": "Coon Point", "latitude": 39.0041675, "longitude": -95.4258086, "elevation": 338.0, "source": "osm", "_tags": {"ele": "338", "gnis:feature_id": "482657", "name": "Coon Point", "natural": "peak"}}, {"name": "Sanders Mound", "latitude": 38.9334561, "longitude": -95.3395318, "elevation": 288.0, "source": "osm", "_tags": {"ele": "288", "name": "Sanders Mound", "natural": "peak", "tourism": "viewpoint"}}]