[{"name": "Bread Knolls", "latitude": 39.0299786, "longitude": -109.4403984, "elevation": 1434.0, "source": "osm", "_tags": {"ele": "1434", "gnis:feature_id": "1425947", "name": "Bread Knolls", "natural": "peak"}}, {"name": "Cisco Mesa", "latitude": 39.0491483, "longitude": -109.36373, "elevation": 1489.0, "source": "osm", "_tags": {"ele": "1489", "gnis:feature_id": "1426641", "name": "Cisco Mesa", "natural": "peak"}}, {"name": "Cottonwood Point", "latitude": 39.1508038, "longitude": -109.6017939, "elevation": 2532.0, "source": "osm", "_tags": {"ele": "2532", "gnis:feature_id": "1426928", "name": "Cottonwood Point", "natural": "peak"}}, {"name": "Memphis Hill", "latitude": 38.8238676, "longitude": -109.5359534, "elevation": 1459.0, "source": "osm", "_tags": {"ele": "1459", "gnis:feature_id": "1430223", "name": "Memphis Hill", "natural": "peak"}}, {"name": "Molle Hogans", "latitude": 38.8260891, "longitude": -109.5678982, "elevation": 1508.0, "source": "osm", "_tags": {"ele": "1508", "gnis:feature_id": "1430405", "name": "Molle Hogans", "natural": "peak"}}, {"name": "Mule Shoe", "latitude": 38.7978421, "longitude": -109.3058378, "elevation": 1413.0, "source": "osm", "_tags": {"ele": "1413", "gnis:feature_id": "1430595", "name": "Mule Shoe", "natural": "peak"}}, {"name": "Potato Hill", "latitude": 39.2535895, "longitude": -109.2573421, "elevation": 1569.0, "source": "osm", "_tags": {"ele": "1569", "gnis:feature_id": "1431440", "name": "Potato Hill", "natural": "peak"}}, {"name": "Santio Knolls", "latitude": 39.28719, "longitude": -109.6115195, "elevation": 2624.0, "source": "osm", "_tags": {"ele": "2624", "gnis:feature_id": "1432240", "name": "Santio Knolls", "natural": "peak"}}, {"name": "Tepee Point", "latitude": 39.0933107, "longitude": -109.4273438, "elevation": 1596.0, "source": "osm", "_tags": {"ele": "1596", "gnis:feature_id": "1433236", "name": "Tepee Point", "natural": "peak"}}, {"name": "The Highlands", "latitude": 38.82637, "longitude": -109.4412298, "elevation": 1563.0, "source": "osm", "_tags": {"ele": "1563", "gnis:feature_id": "1433332", "name": "The Highlands", "natural": "peak"}}, {"name": "Tower of Babel", "latitude": 38.6412837, "longitude": -109.601943, "elevation": 1361.0, "source": "osm", "_tags": {"ele": "1361", "gnis:feature_id": "1433608", "name": "Tower of Babel", "natural": "peak"}}, {"name": "Windy Mesa", "latitude": 38.9908133, "longitude": -109.4295641, "elevation": 1414.0, "source": "osm", "_tags": {"ele": "1414", "gnis:feature_id": "1434396", "name": "Windy Mesa", "natural": "peak"}}, {"name": "Yellow Cat Mesa", "latitude": 38.8369231, "longitude": -109.5220645, "elevation": 1477.0, "source": "osm", "_tags": {"ele": "1477", "gnis:feature_id": "1434497", "name": "Yellow Cat Mesa", "natural": "peak"}}, {"name": "Coffee Pot Rock", "latitude": 38.612761, "longitude": -109.4340056, "elevation": 1937.0, "source": "osm", "_tags": {"ele": "1937", "gnis:feature_id": "1435329", "name": "Coffee Pot Rock", "natural": "peak"}}, {"name": "Elephant Butte", "latitude": 38.695814, "longitude": -109.5401185, "elevation": 1722.0, "source": "osm", "_tags": {"ele": "1722", "gnis:feature_id": "1435503", "name": "Elephant Butte", "natural": "peak"}}, {"name": "Flatiron Hill", "latitude": 38.9074853, "longitude": -109.0695554, "elevation": 2058.0, "source": "osm", "_tags": {"ele": "2058", "gnis:feature_id": "1435537", "name": "Flatiron Hill", "natural": "peak"}}, {"name": "The Portal", "latitude": 38.57026, "longitude": -109.5751173, "elevation": 1453.0, "source": "osm", "_tags": {"ele": "1453", "gnis:feature_id": "1436161", "name": "The Portal", "natural": "peak"}}, {"name": "Cowhead Hill", "latitude": 38.694333, "longitude": -109.1740027, "elevation": 1989.0, "source": "osm", "_tags": {"ele": "1989", "gnis:feature_id": "1440098", "name": "Cowhead Hill", "natural": "peak"}}, {"name": "Haystack Mountain", "latitude": 38.4991534, "longitude": -109.2470593, "elevation": 3546.0, "source": "osm", "_tags": {"ele": "3546", "gnis:feature_id": "1441652", "name": "Haystack Mountain", "natural": "peak"}}, {"name": "Grand View", "latitude": 38.5623306, "longitude": -109.2624947, "elevation": 3321.0, "source": "osm", "_tags": {"ele": "3321", "gnis:feature_id": "1441888", "name": "Grand View", "natural": "peak"}}, {"name": "Mount Mellenthin", "latitude": 38.4633203, "longitude": -109.234002, "elevation": 3852.0, "source": "osm", "_tags": {"ele": "3852", "gnis:feature_id": "1443301", "name": "Mount Mellenthin", "natural": "peak", "wikidata": "Q49053615", "wikipedia": "en:Mount Mellenthin"}}, {"name": "Mount Peale", "latitude": 38.4383204, "longitude": -109.2292799, "elevation": 3877.0, "source": "osm", "_tags": {"ele": "3877", "gnis:feature_id": "1444257", "name": "Mount Peale", "natural": "peak", "prominence": "1877", "source:prominence": "3877-2000 (Col at the E of Vanadium Point)", "wikidata": "Q6922678"}}, {"name": "Round Mountain", "latitude": 38.61304, "longitude": -109.3617828, "elevation": 1869.0, "source": "osm", "_tags": {"ele": "1869", "gnis:feature_id": "1445171", "name": "Round Mountain", "natural": "peak"}}, {"name": "South Mountain", "latitude": 38.4010982, "longitude": -109.2612244, "elevation": 3596.0, "source": "osm", "_tags": {"ele": "3596", "gnis:feature_id": "1445907", "name": "South Mountain", "natural": "peak"}}, {"name": "Mount Tomasaki", "latitude": 38.5021447, "longitude": -109.2068226, "elevation": 3711.0, "source": "osm", "_tags": {"ele": "3711", "gnis:feature_id": "1446639", "name": "Mount Tomasaki", "natural": "peak"}}, {"name": "Mount Waas", "latitude": 38.5390946, "longitude": -109.2278708, "elevation": 3751.0, "source": "osm", "_tags": {"ele": "3751", "gnis:feature_id": "1446945", "name": "Mount Waas", "natural": "peak", "wikidata": "Q30126653", "wikipedia": "en:Mount Waas"}}, {"name": "Horse Mountain", "latitude": 38.5510976, "longitude": -109.2520595, "elevation": 3394.0, "source": "osm", "_tags": {"ele": "3394", "gnis:feature_id": "1448489", "name": "Horse Mountain", "natural": "peak"}}, {"name": "La Sal Peak", "latitude": 38.5505781, "longitude": -109.2291598, "elevation": 3418.0, "source": "osm", "_tags": {"ele": "3418", "gnis:feature_id": "1448562", "name": "La Sal Peak", "natural": "peak"}}, {"name": "Gold Knob", "latitude": 38.530911, "longitude": -109.2712654, "elevation": 3368.0, "source": "osm", "_tags": {"ele": "3368", "gnis:feature_id": "1449928", "name": "Gold Knob", "natural": "peak"}}, {"name": "Mount Tukuhnikivatz", "latitude": 38.4396241, "longitude": -109.2600778, "elevation": 3810.0, "source": "osm", "_tags": {"ele": "3810", "gnis:feature_id": "1454615", "name": "Mount Tukuhnikivatz", "natural": "peak", "wikidata": "Q49054948", "wikipedia": "en:Mount Tukuhnikivatz"}}, {"name": "Manns Peak", "latitude": 38.5150047, "longitude": -109.2224472, "elevation": 3729.0, "source": "osm", "_tags": {"ele": "3729", "gnis:feature_id": "1455888", "name": "Manns Peak", "natural": "peak"}}, {"name": "Saddlehorn", "latitude": 39.1023849, "longitude": -108.7326492, "elevation": 1780.0, "source": "osm", "_tags": {"ele": "1780", "gnis:feature_id": "174558", "name": "Saddlehorn", "natural": "peak"}}, {"name": "Haystack Peaks", "latitude": 38.8550695, "longitude": -109.0043858, "elevation": 2529.0, "source": "osm", "_tags": {"ele": "2529", "gnis:feature_id": "185160", "name": "Haystack Peaks", "natural": "peak"}}, {"name": "The Palisade", "latitude": 38.7093527, "longitude": -108.9745499, "elevation": 2009.0, "source": "osm", "_tags": {"ele": "2009", "gnis:feature_id": "185400", "name": "The Palisade", "natural": "peak"}}, {"name": "Bull Hill", "latitude": 38.6771449, "longitude": -108.8930654, "elevation": 2352.0, "source": "osm", "_tags": {"ele": "2352", "gnis:feature_id": "185415", "name": "Bull Hill", "natural": "peak"}}, {"name": "Pine Mountain", "latitude": 38.7005662, "longitude": -108.8581751, "elevation": 2412.0, "source": "osm", "_tags": {"ele": "2412", "gnis:feature_id": "185423", "name": "Pine Mountain", "natural": "peak"}}, {"name": "Wolf Hill", "latitude": 38.69304, "longitude": -108.7539893, "elevation": 2818.0, "source": "osm", "_tags": {"ele": "2818", "gnis:feature_id": "185429", "name": "Wolf Hill", "natural": "peak"}}, {"name": "Cone Mountain", "latitude": 38.5631328, "longitude": -108.9964972, "elevation": 2402.0, "source": "osm", "_tags": {"ele": "2402", "gnis:feature_id": "185545", "name": "Cone Mountain", "natural": "peak"}}, {"name": "Potato Mountain", "latitude": 38.604986, "longitude": -108.8223247, "elevation": 2133.0, "source": "osm", "_tags": {"ele": "2133", "gnis:feature_id": "185570", "name": "Potato Mountain", "natural": "peak"}}, {"name": "Little Round Mountain", "latitude": 38.5024878, "longitude": -108.7412101, "elevation": 1982.0, "source": "osm", "_tags": {"ele": "1982", "gnis:feature_id": "185576", "name": "Little Round Mountain", "natural": "peak"}}, {"name": "Blue Springs Point", "latitude": 38.4088301, "longitude": -108.6923104, "elevation": 1794.0, "source": "osm", "_tags": {"ele": "1794", "gnis:feature_id": "185744", "name": "Blue Springs Point", "natural": "peak"}}, {"name": "Hog Point", "latitude": 38.4199887, "longitude": -108.715931, "elevation": 1778.0, "source": "osm", "_tags": {"ele": "1778", "gnis:feature_id": "185745", "name": "Hog Point", "natural": "peak"}}, {"name": "Nyswonger Mesa", "latitude": 38.3155453, "longitude": -108.9231595, "elevation": 2043.0, "source": "osm", "_tags": {"ele": "2043", "gnis:feature_id": "185830", "name": "Nyswonger Mesa", "natural": "peak"}}, {"name": "Mack Mesa", "latitude": 39.280535, "longitude": -108.847326, "elevation": 1460.0, "source": "osm", "_tags": {"ele": "1460", "gnis:feature_id": "202225", "name": "Mack Mesa", "natural": "peak"}}, {"name": "Pine Hill", "latitude": 38.6144302, "longitude": -108.7517666, "elevation": 2494.0, "source": "osm", "_tags": {"ele": "2494", "gnis:feature_id": "203077", "name": "Pine Hill", "natural": "peak"}}, {"name": "Sewemup Mesa", "latitude": 38.4712613, "longitude": -108.9450733, "elevation": 2282.0, "source": "osm", "_tags": {"ele": "2282", "gnis:feature_id": "203112", "name": "Sewemup Mesa", "natural": "peak", "place": "locality"}}, {"name": "Calamity Mesa", "latitude": 38.6140292, "longitude": -108.8605968, "elevation": 2111.0, "source": "osm", "_tags": {"ele": "2111", "gnis:feature_id": "203114", "name": "Calamity Mesa", "natural": "peak", "place": "locality"}}, {"name": "Carpenter Flats", "latitude": 38.3936, "longitude": -108.910104, "elevation": 2185.0, "source": "osm", "_tags": {"ele": "2185", "gnis:feature_id": "203145", "name": "Carpenter Flats", "natural": "peak"}}, {"name": "Martin Mesa", "latitude": 38.3699892, "longitude": -108.8667691, "elevation": 2137.0, "source": "osm", "_tags": {"ele": "2137", "gnis:feature_id": "203147", "name": "Martin Mesa", "natural": "peak"}}, {"name": "Atkinson Mesa", "latitude": 38.3977667, "longitude": -108.7956559, "elevation": 1875.0, "source": "osm", "_tags": {"ele": "1875", "gnis:feature_id": "203148", "name": "Atkinson Mesa", "natural": "peak"}}, {"name": "Spring Creek Mesa", "latitude": 38.3858223, "longitude": -108.7373206, "elevation": 1813.0, "source": "osm", "_tags": {"ele": "1813", "gnis:feature_id": "203152", "name": "Spring Creek Mesa", "natural": "peak"}}, {"name": "Ray Mesa", "latitude": 38.2947116, "longitude": -109.0651074, "elevation": 2282.0, "source": "osm", "_tags": {"ele": "2282", "gnis:feature_id": "203143", "name": "Ray Mesa", "natural": "peak"}}, {"name": "Independence Monument", "latitude": 39.0957248, "longitude": -108.7227258, "elevation": null, "source": "osm", "_tags": {"name": "Independence Monument", "natural": "peak", "source": "bing; survey", "wikidata": "Q65551299", "wikipedia": "en:Independence Monument (Colorado)"}}, {"name": "Egypt Rock", "latitude": 39.085603, "longitude": -108.7133422, "elevation": null, "source": "osm", "_tags": {"name": "Egypt Rock", "natural": "peak", "source": "bing;survey"}}, {"name": "Pipe Organ", "latitude": 39.0988104, "longitude": -108.7261797, "elevation": null, "source": "osm", "_tags": {"name": "Pipe Organ", "natural": "peak"}}, {"name": "Ham Rock", "latitude": 38.6996745, "longitude": -109.5537035, "elevation": null, "source": "osm", "_tags": {"name": "Ham Rock", "natural": "peak", "source:name": "NPS"}}, {"name": "The Organ", "latitude": 38.6364682, "longitude": -109.5985138, "elevation": null, "source": "osm", "_tags": {"name": "The Organ", "natural": "peak"}}, {"name": "Three Gossips", "latitude": 38.6358155, "longitude": -109.6037669, "elevation": null, "source": "osm", "_tags": {"name": "Three Gossips", "natural": "peak"}}, {"name": "Sheep Rock", "latitude": 38.6396202, "longitude": -109.6065349, "elevation": null, "source": "osm", "_tags": {"name": "Sheep Rock", "natural": "peak"}}, {"name": "Court Point", "latitude": 38.6357152, "longitude": -109.6703467, "elevation": 1737.0, "source": "osm", "_tags": {"ele": "1737", "name": "Court Point", "natural": "peak", "source": "USGS Topo map"}}, {"name": "", "latitude": 38.5739568, "longitude": -109.5854772, "elevation": 1598.0, "source": "osm", "_tags": {"ele": "1598", "natural": "peak", "source": "USGS Topo map"}}, {"name": "Flat Iron Point", "latitude": 38.435159, "longitude": -109.5918132, "elevation": 1792.0, "source": "osm", "_tags": {"ele": "1792", "name": "Flat Iron Point", "natural": "peak", "source": "USGS Topo map"}}, {"name": "Castleton Tower", "latitude": 38.6512745, "longitude": -109.3678971, "elevation": 2030.0, "source": "osm", "_tags": {"ele": "2030", "name": "Castleton Tower", "name:en": "Castleton Tower", "name:lzh": "卡色頓塔", "name:zh": "卡色頓塔", "name:zh-Hans": "卡色顿塔", "name:zh-Hant": "卡色頓塔", "natural": "peak", "wikidata": "Q5050641", "wikipedia": "en:Castleton Tower"}}, {"name": "Onion Point", "latitude": 38.7264298, "longitude": -109.2968096, "elevation": 2070.0, "source": "osm", "_tags": {"ele": "2070", "name": "Onion Point", "natural": "peak", "source": "USGS Topo map"}}, {"name": "Seven Point", "latitude": 38.7547472, "longitude": -109.2098441, "elevation": 1784.0, "source": "osm", "_tags": {"ele": "1784", "name": "Seven Point", "natural": "peak", "source": "USGS Topo map"}}, {"name": "Rectory", "latitude": 38.6582956, "longitude": -109.3682242, "elevation": null, "source": "osm", "_tags": {"name": "Rectory", "natural": "peak", "source": "USGS Topo map"}}, {"name": "Beaver Point", "latitude": 38.5800006, "longitude": -109.1300002, "elevation": 2656.0, "source": "osm", "_tags": {"ele": "2656", "name": "Beaver Point", "natural": "peak", "source": "USGS Topo map"}}, {"name": "Cairn Point", "latitude": 38.6070769, "longitude": -109.2238509, "elevation": 2734.0, "source": "osm", "_tags": {"ele": "2734", "name": "Cairn Point", "natural": "peak", "source": "USGS Topo map"}}, {"name": "Fisher Point", "latitude": 38.672589, "longitude": -109.2767894, "elevation": 2260.0, "source": "osm", "_tags": {"ele": "2260", "name": "Fisher Point", "natural": "peak", "source": "USGS Topo map"}}, {"name": "Beaver Point", "latitude": 38.696, "longitude": -109.0328333, "elevation": 2190.0, "source": "osm", "_tags": {"ele": "2190", "name": "Beaver Point", "natural": "peak", "source": "USGS Topo map"}}, {"name": "Pace Point", "latitude": 38.5421667, "longitude": -109.0771667, "elevation": 2788.0, "source": "osm", "_tags": {"ele": "2788", "name": "Pace Point", "natural": "peak", "source": "USGS Topo map"}}, {"name": "Polar Point", "latitude": 38.6575, "longitude": -109.1455, "elevation": 2466.0, "source": "osm", "_tags": {"ele": "2466", "name": "Polar Point", "natural": "peak", "source": "USGS Topo map"}}, {"name": "Steamboat Point", "latitude": 38.7566667, "longitude": -109.1081667, "elevation": 1916.0, "source": "osm", "_tags": {"ele": "1916", "name": "Steamboat Point", "natural": "peak", "source": "USGS Topo map"}}, {"name": "Dolores Point", "latitude": 38.6236528, "longitude": -109.0881945, "elevation": null, "source": "osm", "_tags": {"gnis:feature_id": "203047", "name": "Dolores Point", "natural": "peak"}}, {"name": "Black Ridge", "latitude": 39.065571, "longitude": -108.7481191, "elevation": 2173.0, "source": "osm", "_tags": {"ele": "2173", "name": "Black Ridge", "natural": "peak", "source": "USGS Topo map"}}, {"name": "Ancient Art", "latitude": 38.7216239, "longitude": -109.3042647, "elevation": null, "source": "osm", "_tags": {"name": "Ancient Art", "natural": "peak"}}, {"name": "Kingfisher", "latitude": 38.7225709, "longitude": -109.3021066, "elevation": null, "source": "osm", "_tags": {"name": "Kingfisher", "natural": "peak"}}, {"name": "Cottontail Tower", "latitude": 38.7199026, "longitude": -109.3015394, "elevation": null, "source": "osm", "_tags": {"name": "Cottontail Tower", "natural": "peak"}}, {"name": "Echo Tower", "latitude": 38.7204727, "longitude": -109.3006877, "elevation": null, "source": "osm", "_tags": {"name": "Echo Tower", "natural": "peak"}}, {"name": "The Titan", "latitude": 38.7170655, "longitude": -109.2995541, "elevation": null, "source": "osm", "_tags": {"name": "The Titan", "natural": "peak"}}, {"name": "The Oracle", "latitude": 38.7189514, "longitude": -109.2984107, "elevation": null, "source": "osm", "_tags": {"name": "The Oracle", "natural": "peak"}}, {"name": "Sentinel Spire", "latitude": 39.1029886, "longitude": -108.7256444, "elevation": null, "source": "osm", "_tags": {"name": "Sentinel Spire", "natural": "peak"}}, {"name": "Remnants Tower", "latitude": 39.1115298, "longitude": -108.7215748, "elevation": null, "source": "osm", "_tags": {"name": "Remnants Tower", "natural": "peak"}}, {"name": "Grand View Spire", "latitude": 39.0909788, "longitude": -108.7225486, "elevation": null, "source": "osm", "_tags": {"name": "Grand View Spire", "natural": "peak"}}, {"name": "Bell Tower (Kissing Couple)", "latitude": 39.0891878, "longitude": -108.7183582, "elevation": null, "source": "osm", "_tags": {"name": "Bell Tower (Kissing Couple)", "natural": "peak"}}, {"name": "Dirty Old Man", "latitude": 39.0887702, "longitude": -108.7189103, "elevation": null, "source": "osm", "_tags": {"name": "Dirty Old Man", "natural": "peak"}}, {"name": "Airport Tower", "latitude": 39.0882977, "longitude": -108.7189386, "elevation": null, "source": "osm", "_tags": {"name": "Airport Tower", "natural": "peak"}}, {"name": "Rainbow Tower", "latitude": 39.081287, "longitude": -108.7126247, "elevation": null, "source": "osm", "_tags": {"name": "Rainbow Tower", "natural": "peak"}}, {"name": "Clueless Tower", "latitude": 39.079144, "longitude": -108.7165461, "elevation": null, "source": "osm", "_tags": {"name": "Clueless Tower", "natural": "peak"}}, {"name": "\"Unknown\" Tower", "latitude": 39.0725708, "longitude": -108.7035844, "elevation": null, "source": "osm", "_tags": {"name": "\"Unknown\" Tower", "natural": "peak"}}, {"name": "Monolith Spire", "latitude": 39.0993684, "longitude": -108.7171631, "elevation": null, "source": "osm", "_tags": {"name": "Monolith Spire", "natural": "peak"}}, {"name": "Irishman's Temple", "latitude": 39.0912583, "longitude": -108.6994591, "elevation": null, "source": "osm", "_tags": {"name": "Irishman's Temple", "natural": "peak"}}, {"name": "Bottlecap Tower", "latitude": 39.0849258, "longitude": -108.6929026, "elevation": null, "source": "osm", "_tags": {"name": "Bottlecap Tower", "natural": "peak"}}, {"name": "Phantom Spire", "latitude": 39.1174355, "longitude": -108.7670776, "elevation": null, "source": "osm", "_tags": {"name": "Phantom Spire", "natural": "peak"}}, {"name": "Pitchfork Tower", "latitude": 39.1185412, "longitude": -108.7721492, "elevation": null, "source": "osm", "_tags": {"name": "Pitchfork Tower", "natural": "peak"}}, {"name": "Devils Desciples", "latitude": 39.1006736, "longitude": -108.7682924, "elevation": null, "source": "osm", "_tags": {"name": "Devils Desciples", "natural": "peak"}}, {"name": "Nuns", "latitude": 38.6585085, "longitude": -109.3689126, "elevation": null, "source": "osm", "_tags": {"name": "Nuns", "natural": "peak", "source": "USGS Topo map"}}, {"name": "Priest", "latitude": 38.6588645, "longitude": -109.3692184, "elevation": null, "source": "osm", "_tags": {"name": "Priest", "natural": "peak", "source": "USGS Topo map"}}, {"name": "Balanced Rock", "latitude": 39.1080895, "longitude": -108.7338164, "elevation": null, "source": "osm", "_tags": {"name": "Balanced Rock", "natural": "peak", "tourism": "attraction"}}, {"name": "Pilot Mountain", "latitude": 38.5272622, "longitude": -109.2336448, "elevation": 3719.0, "source": "osm", "_tags": {"ele": "3719", "name": "Pilot Mountain", "natural": "peak"}}, {"name": "Green Mountain", "latitude": 38.5343515, "longitude": -109.2351126, "elevation": 3707.0, "source": "osm", "_tags": {"ele": "3707", "name": "Green Mountain", "natural": "peak"}}, {"name": "Beaver Creek Peak", "latitude": 38.5437739, "longitude": -109.224501, "elevation": null, "source": "osm", "_tags": {"name": "Beaver Creek Peak", "natural": "peak"}}, {"name": "Castle Mountain", "latitude": 38.5467156, "longitude": -109.2333525, "elevation": 3671.0, "source": "osm", "_tags": {"ele": "3671", "name": "Castle Mountain", "natural": "peak"}}, {"name": "Dry Peak", "latitude": 38.5216669, "longitude": -109.2265174, "elevation": null, "source": "osm", "_tags": {"name": "Dry Peak", "natural": "peak"}}, {"name": "Mill Creek Peak", "latitude": 38.5146986, "longitude": -109.2323603, "elevation": null, "source": "osm", "_tags": {"name": "Mill Creek Peak", "natural": "peak"}}, {"name": "Burro Ridge", "latitude": 38.5009213, "longitude": -109.228658, "elevation": 3548.0, "source": "osm", "_tags": {"ele": "3548", "name": "Burro Ridge", "natural": "peak"}}, {"name": "Mount Laurel", "latitude": 38.4549173, "longitude": -109.2382773, "elevation": 3740.0, "source": "osm", "_tags": {"ele": "3740", "name": "Mount Laurel", "natural": "peak"}}, {"name": "Talking Mountain", "latitude": 38.4439923, "longitude": -109.2378256, "elevation": 3702.0, "source": "osm", "_tags": {"ele": "3702", "name": "Talking Mountain", "natural": "peak"}}, {"name": "Little Tuk", "latitude": 38.4465778, "longitude": -109.2646739, "elevation": 3672.0, "source": "osm", "_tags": {"ele": "3672", "name": "Little Tuk", "natural": "peak"}}, {"name": "", "latitude": 38.5092943, "longitude": -109.2145405, "elevation": 3641.0, "source": "osm", "_tags": {"ele": "3641", "natural": "peak"}}, {"name": "Lion's Back", "latitude": 38.5796029, "longitude": -109.5307609, "elevation": null, "source": "osm", "_tags": {"name": "Lion's Back", "natural": "peak"}}, {"name": "Opal Hill", "latitude": 39.1436312, "longitude": -108.7550162, "elevation": null, "source": "osm", "_tags": {"name": "Opal Hill", "natural": "peak"}}, {"name": "Catacomb Rock", "latitude": 38.449997, "longitude": -109.6658216, "elevation": null, "source": "osm", "_tags": {"name": "Catacomb Rock", "natural": "peak"}}, {"name": "Moonlight Spire", "latitude": 38.520087, "longitude": -109.6274461, "elevation": 55.0, "source": "osm", "_tags": {"description": "Small sandstone pinnacle with a single climbing route.", "ele": "55", "name": "Moonlight Spire", "natural": "peak"}}, {"name": "Trisstin's Tower", "latitude": 38.2948, "longitude": -109.6234559, "elevation": null, "source": "osm", "_tags": {"name": "Trisstin's Tower", "natural": "peak", "tower": "climbing"}}, {"name": "Nash Point", "latitude": 39.1928347, "longitude": -109.6374031, "elevation": 2801.112, "source": "osm", "_tags": {"ele": "2801.112", "name": "Nash Point", "natural": "peak"}}, {"name": "Flat Iron Mesa", "latitude": 38.3319745, "longitude": -109.4243938, "elevation": null, "source": "osm", "_tags": {"gnis:feature_id": "1427989", "name": "Flat Iron Mesa", "natural": "peak"}}, {"name": "Corral Point", "latitude": 39.0811879, "longitude": -109.4485452, "elevation": null, "source": "osm", "_tags": {"gnis:feature_id": "1426885", "name": "Corral Point", "natural": "peak"}}, {"name": "Windy Mesa", "latitude": 39.0590204, "longitude": -109.5486861, "elevation": null, "source": "osm", "_tags": {"gnis:feature_id": "1434396", "name": "Windy Mesa", "natural": "peak"}}, {"name": "Three Penguins", "latitude": 38.6192228, "longitude": -109.6179263, "elevation": null, "source": "osm", "_tags": {"gnis:feature_id": "1454629", "name": "Three Penguins", "natural": "peak"}}, {"name": "Piñon Mesa", "latitude": 38.8315467, "longitude": -108.7861902, "elevation": null, "source": "osm", "_tags": {"gnis:feature_id": "203044", "name": "Piñon Mesa", "natural": "peak"}}, {"name": "Pharaoh Point", "latitude": 39.0859489, "longitude": -108.7135894, "elevation": null, "source": "osm", "_tags": {"name": "Pharaoh Point", "natural": "peak"}}, {"name": "White Whale", "latitude": 39.1109511, "longitude": -108.7222777, "elevation": null, "source": "osm", "_tags": {"name": "White Whale", "natural": "peak"}}, {"name": "Ahab Tower", "latitude": 39.1092098, "longitude": -108.7268798, "elevation": null, "source": "osm", "_tags": {"name": "Ahab Tower", "natural": "peak"}}, {"name": "", "latitude": 39.2761788, "longitude": -109.4375203, "elevation": 2447.0, "source": "osm", "_tags": {"ele": "2447", "natural": "peak"}}, {"name": "", "latitude": 39.2719363, "longitude": -109.4227052, "elevation": 2367.0, "source": "osm", "_tags": {"ele": "2367", "natural": "peak"}}]