[{"name": "Cherry Mountain", "latitude": 41.1471191, "longitude": -119.7460348, "elevation": 2106.0, "source": "osm", "_tags": {"ele": "2106", "gnis:feature_id": "839443", "name": "Cherry Mountain", "natural": "peak"}}, {"name": "Twin Peaks", "latitude": 40.6404565, "longitude": -119.8913158, "elevation": 1976.0, "source": "osm", "_tags": {"ele": "1976", "gnis:feature_id": "844482", "name": "Twin Peaks", "natural": "peak"}}, {"name": "Round Mountain", "latitude": 41.0073976, "longitude": -119.818536, "elevation": 1611.0, "source": "osm", "_tags": {"ele": "1611", "gnis:feature_id": "849832", "name": "Round Mountain", "natural": "peak"}}, {"name": "Red Mountain", "latitude": 41.2135077, "longitude": -119.8963209, "elevation": 2126.0, "source": "osm", "_tags": {"ele": "2126", "gnis:feature_id": "849932", "name": "Red Mountain", "natural": "peak"}}, {"name": "Eddies Garden", "latitude": 40.8160108, "longitude": -119.7752007, "elevation": 1727.0, "source": "osm", "_tags": {"ele": "1727", "gnis:feature_id": "850006", "name": "Eddies Garden", "natural": "peak"}}, {"name": "Black Butte", "latitude": 40.8168443, "longitude": -119.7171431, "elevation": 1956.0, "source": "osm", "_tags": {"ele": "1956", "gnis:feature_id": "850027", "name": "Black Butte", "natural": "peak"}}, {"name": "Burro Mountain", "latitude": 40.5537906, "longitude": -119.8852043, "elevation": 1854.0, "source": "osm", "_tags": {"ele": "1854", "gnis:feature_id": "850305", "name": "Burro Mountain", "natural": "peak"}}, {"name": "Grass Mountain", "latitude": 40.7124003, "longitude": -119.8649261, "elevation": 1777.0, "source": "osm", "_tags": {"ele": "1777", "gnis:feature_id": "850351", "name": "Grass Mountain", "natural": "peak"}}, {"name": "Lone Mountain", "latitude": 40.6810118, "longitude": -119.8474254, "elevation": 1642.0, "source": "osm", "_tags": {"ele": "1642", "gnis:feature_id": "850355", "name": "Lone Mountain", "natural": "peak"}}, {"name": "Chimney Rock", "latitude": 40.6396232, "longitude": -119.8599258, "elevation": 1791.0, "source": "osm", "_tags": {"ele": "1791", "gnis:feature_id": "850356", "name": "Chimney Rock", "natural": "peak"}}, {"name": "Rowland Mountain", "latitude": 40.8551763, "longitude": -119.9463183, "elevation": 2104.0, "source": "osm", "_tags": {"ele": "2104", "gnis:feature_id": "850370", "name": "Rowland Mountain", "natural": "peak"}}, {"name": "The Buttes", "latitude": 41.2643406, "longitude": -119.7199246, "elevation": 1875.0, "source": "osm", "_tags": {"ele": "1875", "gnis:feature_id": "850381", "name": "The Buttes", "natural": "peak"}}, {"name": "Burnt Mountain", "latitude": 40.7346229, "longitude": -119.719921, "elevation": 2057.0, "source": "osm", "_tags": {"ele": "2057", "gnis:feature_id": "850400", "name": "Burnt Mountain", "natural": "peak"}}, {"name": "Black Mountain", "latitude": 40.4521247, "longitude": -119.9324275, "elevation": 1892.0, "source": "osm", "_tags": {"ele": "1892", "gnis:feature_id": "850527", "name": "Black Mountain", "natural": "peak"}}, {"name": "Eagle Head", "latitude": 40.3976809, "longitude": -119.9179821, "elevation": 1862.0, "source": "osm", "_tags": {"ele": "1862", "gnis:feature_id": "850534", "name": "Eagle Head", "natural": "peak"}}, {"name": "Hays Canyon Peak", "latitude": 41.2735075, "longitude": -119.9338237, "elevation": 2408.0, "source": "osm", "_tags": {"ele": "2408", "gnis:feature_id": "854926", "name": "Hays Canyon Peak", "natural": "peak"}}, {"name": "Antelope Mountain", "latitude": 40.4540633, "longitude": -120.5718934, "elevation": 1772.0, "source": "osm", "_tags": {"ele": "1772", "gnis:feature_id": "218299", "name": "Antelope Mountain", "name:nmu": "Omeponom Yamanim", "natural": "peak"}}, {"name": "Black Mountain", "latitude": 40.6054535, "longitude": -120.4657803, "elevation": 1843.0, "source": "osm", "_tags": {"ele": "1843", "gnis:feature_id": "219381", "name": "Black Mountain", "natural": "peak"}}, {"name": "Button Mountain", "latitude": 40.8493427, "longitude": -120.0210433, "elevation": 1999.0, "source": "osm", "_tags": {"ele": "1999", "gnis:feature_id": "220309", "name": "Button Mountain", "natural": "peak"}}, {"name": "Cherry Mountain", "latitude": 40.6079561, "longitude": -120.0529877, "elevation": 1854.0, "source": "osm", "_tags": {"ele": "1854", "gnis:feature_id": "220959", "name": "Cherry Mountain", "natural": "peak"}}, {"name": "Cochran Hill", "latitude": 41.0190636, "longitude": -120.4749495, "elevation": 1801.0, "source": "osm", "_tags": {"ele": "1801", "gnis:feature_id": "221287", "name": "Cochran Hill", "natural": "peak"}}, {"name": "Cole Peak", "latitude": 41.2768402, "longitude": -120.1679979, "elevation": 2723.0, "source": "osm", "_tags": {"ele": "2723", "gnis:feature_id": "221355", "name": "Cole Peak", "natural": "peak", "wikidata": "Q49021430"}}, {"name": "Dill Butte", "latitude": 40.8235092, "longitude": -120.305776, "elevation": 1746.0, "source": "osm", "_tags": {"ele": "1746", "gnis:feature_id": "222386", "name": "Dill Butte", "natural": "peak"}}, {"name": "Eagle Peak", "latitude": 41.2835067, "longitude": -120.2007766, "elevation": 3016.0, "source": "osm", "_tags": {"ele": "3016", "gnis:feature_id": "222824", "name": "Eagle Peak", "natural": "peak", "wikidata": "Q5325191"}}, {"name": "Five Springs Mountain", "latitude": 40.5560119, "longitude": -120.1049336, "elevation": 1820.0, "source": "osm", "_tags": {"ele": "1820", "gnis:feature_id": "223569", "name": "Five Springs Mountain", "natural": "peak"}}, {"name": "Fredonyer Peak", "latitude": 40.6879519, "longitude": -120.6002299, "elevation": 2374.0, "source": "osm", "_tags": {"ele": "2374", "gnis:feature_id": "223855", "name": "Fredonyer Peak", "name:nmu": "Om Kidudojwem", "natural": "peak"}}, {"name": "Horse Lake Mountain", "latitude": 40.5907302, "longitude": -120.549672, "elevation": 1958.0, "source": "osm", "_tags": {"ele": "1958", "gnis:feature_id": "225611", "name": "Horse Lake Mountain", "natural": "peak"}}, {"name": "Hot Springs Peak", "latitude": 40.3754577, "longitude": -120.1213213, "elevation": 2317.0, "source": "osm", "_tags": {"ele": "2317", "gnis:feature_id": "225677", "name": "Hot Springs Peak", "name:nmu": "Polpolim Jamanim", "natural": "peak"}}, {"name": "Little Fredonyer", "latitude": 40.6890639, "longitude": -120.5316167, "elevation": 1781.0, "source": "osm", "_tags": {"ele": "1781", "gnis:feature_id": "227259", "name": "Little Fredonyer", "natural": "peak"}}, {"name": "Little Hat Mountain", "latitude": 41.0676747, "longitude": -120.1032706, "elevation": 2363.0, "source": "osm", "_tags": {"ele": "2363", "gnis:feature_id": "227269", "name": "Little Hat Mountain", "natural": "peak"}}, {"name": "Mahogany Mountain", "latitude": 41.1104524, "longitude": -120.0443806, "elevation": 2084.0, "source": "osm", "_tags": {"ele": "2084", "gnis:feature_id": "227950", "name": "Mahogany Mountain", "natural": "peak"}}, {"name": "McDonald Peak", "latitude": 40.9407306, "longitude": -120.412447, "elevation": 2398.0, "source": "osm", "_tags": {"ele": "2398", "gnis:feature_id": "228349", "name": "McDonald Peak", "natural": "peak"}}, {"name": "Mitchell Hill", "latitude": 41.0498967, "longitude": -120.4293927, "elevation": 1879.0, "source": "osm", "_tags": {"ele": "1879", "gnis:feature_id": "228870", "name": "Mitchell Hill", "natural": "peak"}}, {"name": "Olson Mountain", "latitude": 41.0060082, "longitude": -120.4346703, "elevation": 2072.0, "source": "osm", "_tags": {"ele": "2072", "gnis:feature_id": "230029", "name": "Olson Mountain", "natural": "peak"}}, {"name": "Rush Creek Mountain", "latitude": 40.6243445, "longitude": -120.1082674, "elevation": 1894.0, "source": "osm", "_tags": {"ele": "1894", "gnis:feature_id": "232027", "name": "Rush Creek Mountain", "natural": "peak"}}, {"name": "Shaffer Mountain", "latitude": 40.4468438, "longitude": -120.3571632, "elevation": 2029.0, "source": "osm", "_tags": {"ele": "2029", "gnis:feature_id": "232846", "name": "Shaffer Mountain", "name:nmu": "Tymbakam", "natural": "peak"}}, {"name": "Shinn Mountain", "latitude": 40.6915659, "longitude": -120.2143827, "elevation": 2297.0, "source": "osm", "_tags": {"ele": "2297", "gnis:feature_id": "233025", "name": "Shinn Mountain", "natural": "peak"}}, {"name": "Bald Mountain", "latitude": 40.3385098, "longitude": -120.4577211, "elevation": 1588.0, "source": "osm", "_tags": {"ele": "1588", "gnis:feature_id": "233456", "name": "Bald Mountain", "natural": "peak"}}, {"name": "Snowstorm Mountain", "latitude": 40.6404542, "longitude": -120.3585543, "elevation": 1978.0, "source": "osm", "_tags": {"ele": "1978", "gnis:feature_id": "234792", "name": "Snowstorm Mountain", "natural": "peak"}}, {"name": "Spanish Springs Peak", "latitude": 40.7460098, "longitude": -120.2410509, "elevation": 2309.0, "source": "osm", "_tags": {"ele": "2309", "gnis:feature_id": "235167", "name": "Spanish Springs Peak", "natural": "peak"}}, {"name": "Sugarloaf", "latitude": 40.9521197, "longitude": -120.1732718, "elevation": 1881.0, "source": "osm", "_tags": {"ele": "1881", "gnis:feature_id": "235654", "name": "Sugarloaf", "natural": "peak"}}, {"name": "Susanville Peak", "latitude": 40.4712841, "longitude": -120.6555072, "elevation": 1986.0, "source": "osm", "_tags": {"ele": "1986", "gnis:feature_id": "235837", "name": "Susanville Peak", "natural": "peak"}}, {"name": "Tunnison Mountain", "latitude": 40.5135084, "longitude": -120.5232817, "elevation": 1760.0, "source": "osm", "_tags": {"ele": "1760", "gnis:feature_id": "236633", "name": "Tunnison Mountain", "natural": "peak"}}, {"name": "Whitinger Mountain", "latitude": 40.9621173, "longitude": -120.6535669, "elevation": 2143.0, "source": "osm", "_tags": {"ele": "2143", "gnis:feature_id": "237701", "name": "Whitinger Mountain", "natural": "peak"}}, {"name": "Bald Mountain", "latitude": 41.187117, "longitude": -120.5580097, "elevation": 1797.0, "source": "osm", "_tags": {"ele": "1797", "gnis:feature_id": "253107", "name": "Bald Mountain", "natural": "peak", "wikidata": "Q49009985"}}, {"name": "Anderson Mountain", "latitude": 40.993229, "longitude": -120.6043985, "elevation": 2053.0, "source": "osm", "_tags": {"ele": "2053", "gnis:feature_id": "253149", "name": "Anderson Mountain", "natural": "peak"}}, {"name": "Observation Peak", "latitude": 40.7740654, "longitude": -120.1707707, "elevation": 2417.0, "source": "osm", "_tags": {"ele": "2417", "gnis:feature_id": "254996", "name": "Observation Peak", "natural": "peak"}}, {"name": "Buck Mountain", "latitude": 41.1387854, "longitude": -120.1841078, "elevation": 2625.0, "source": "osm", "_tags": {"ele": "2625", "gnis:feature_id": "257576", "name": "Buck Mountain", "natural": "peak"}}, {"name": "Cold Spring Mountain", "latitude": 41.0273971, "longitude": -120.254109, "elevation": 2129.0, "source": "osm", "_tags": {"ele": "2129", "gnis:feature_id": "258562", "name": "Cold Spring Mountain", "natural": "peak"}}, {"name": "Emerson Peak", "latitude": 41.2379517, "longitude": -120.1646642, "elevation": 2724.0, "source": "osm", "_tags": {"ele": "2724", "gnis:feature_id": "259900", "name": "Emerson Peak", "natural": "peak", "wikidata": "Q49028013"}}, {"name": "Hat Mountain", "latitude": 41.1490633, "longitude": -120.1266062, "elevation": 2657.0, "source": "osm", "_tags": {"ele": "2657", "gnis:feature_id": "261147", "name": "Hat Mountain", "natural": "peak", "wikidata": "Q5680804"}}, {"name": "Horse Mountain", "latitude": 41.2173963, "longitude": -120.1349409, "elevation": 2588.0, "source": "osm", "_tags": {"ele": "2588", "gnis:feature_id": "261495", "name": "Horse Mountain", "natural": "peak", "wikidata": "Q49037295"}}, {"name": "Jim Peterson Hill", "latitude": 40.3204531, "longitude": -120.5355012, "elevation": 1345.0, "source": "osm", "_tags": {"ele": "1345", "gnis:feature_id": "261950", "name": "Jim Peterson Hill", "natural": "peak"}}, {"name": "Likely Mountain", "latitude": 41.1551728, "longitude": -120.563843, "elevation": 2249.0, "source": "osm", "_tags": {"ele": "2249", "gnis:feature_id": "262453", "name": "Likely Mountain", "natural": "peak"}}, {"name": "Red Rock Mountain", "latitude": 41.1337855, "longitude": -120.135495, "elevation": 2593.0, "source": "osm", "_tags": {"ele": "2593", "gnis:feature_id": "265329", "name": "Red Rock Mountain", "natural": "peak"}}, {"name": "Bald Mountain", "latitude": 41.2504514, "longitude": -120.2296659, "elevation": 2346.0, "source": "osm", "_tags": {"ele": "2346", "gnis:feature_id": "266408", "name": "Bald Mountain", "natural": "peak", "wikidata": "Q49009987"}}, {"name": "Bass Hill", "latitude": 40.3379533, "longitude": -120.5241123, "elevation": 1495.0, "source": "osm", "_tags": {"ele": "1495", "gnis:feature_id": "266416", "name": "Bass Hill", "natural": "peak"}}, {"name": "Sunflower Knob", "latitude": 41.2085071, "longitude": -120.2368879, "elevation": 2246.0, "source": "osm", "_tags": {"ele": "2246", "gnis:feature_id": "267961", "name": "Sunflower Knob", "natural": "peak", "wikidata": "Q49080088"}}, {"name": "Tule Mountain", "latitude": 41.1393404, "longitude": -120.45245, "elevation": 2144.0, "source": "osm", "_tags": {"ele": "2144", "gnis:feature_id": "276407", "name": "Tule Mountain", "natural": "peak"}}, {"name": "Bearcamp Mountain", "latitude": 41.223785, "longitude": -120.1691086, "elevation": 2576.0, "source": "osm", "_tags": {"ele": "2576", "gnis:feature_id": "1655819", "name": "Bearcamp Mountain", "natural": "peak", "wikidata": "Q49011546"}}, {"name": "Black Cone", "latitude": 41.1768408, "longitude": -120.142996, "elevation": 2467.0, "source": "osm", "_tags": {"ele": "2467", "gnis:feature_id": "1655835", "name": "Black Cone", "natural": "peak"}}, {"name": "Dorsey Butte", "latitude": 40.9487864, "longitude": -120.2599419, "elevation": 1747.0, "source": "osm", "_tags": {"ele": "1747", "gnis:feature_id": "1658429", "name": "Dorsey Butte", "natural": "peak"}}, {"name": "Shinn Peaks", "latitude": 40.687677, "longitude": -120.2221607, "elevation": 2158.0, "source": "osm", "_tags": {"ele": "2158", "gnis:feature_id": "1659648", "name": "Shinn Peaks", "natural": "peak"}}, {"name": "Shugru Hill", "latitude": 40.3532299, "longitude": -120.5827255, "elevation": 1348.0, "source": "osm", "_tags": {"ele": "1348", "gnis:feature_id": "1659655", "name": "Shugru Hill", "natural": "peak"}}, {"name": "Termo Buttes", "latitude": 40.8657307, "longitude": -120.4924495, "elevation": 1623.0, "source": "osm", "_tags": {"ele": "1623", "gnis:feature_id": "1659973", "name": "Termo Buttes", "natural": "peak"}}, {"name": "Three Peaks", "latitude": 40.9354529, "longitude": -120.4643932, "elevation": 2107.0, "source": "osm", "_tags": {"ele": "2107", "gnis:feature_id": "1659996", "name": "Three Peaks", "natural": "peak"}}, {"name": "Tule Mountain", "latitude": 41.1360071, "longitude": -120.4555055, "elevation": 2160.0, "source": "osm", "_tags": {"ele": "2160", "gnis:feature_id": "1660039", "name": "Tule Mountain", "natural": "peak"}}, {"name": "Twin Buttes", "latitude": 40.7848983, "longitude": -120.3091093, "elevation": 1764.0, "source": "osm", "_tags": {"ele": "1764", "gnis:feature_id": "1660052", "name": "Twin Buttes", "natural": "peak"}}, {"name": "Little Bald Mountain", "latitude": 41.1826727, "longitude": -120.5541207, "elevation": 1795.0, "source": "osm", "_tags": {"ele": "1795", "gnis:feature_id": "1665880", "name": "Little Bald Mountain", "natural": "peak"}}, {"name": "The Buttes", "latitude": 40.5287873, "longitude": -120.4238336, "elevation": 1478.0, "source": "osm", "_tags": {"ele": "1478", "gnis:feature_id": "1665934", "name": "The Buttes", "natural": "peak"}}, {"name": "Porcupine Hill", "latitude": 40.5188796, "longitude": -120.6307667, "elevation": null, "source": "osm", "_tags": {"name": "Porcupine Hill", "name:nmu": "Ch'onim Yamanim", "natural": "peak"}}]