[{"name": "Coleman Point", "latitude": 42.4476525, "longitude": -120.7171942, "elevation": 2102.0, "source": "osm", "_tags": {"ele": "2102", "gnis:feature_id": "1119140", "name": "Coleman Point", "natural": "peak", "wikidata": "Q49021454"}}, {"name": "Dead Indian Mountain", "latitude": 42.9835246, "longitude": -120.8292846, "elevation": 2153.7, "source": "osm", "_tags": {"ele": "2153.7", "gnis:feature_id": "1119745", "name": "Dead Indian Mountain", "natural": "peak"}}, {"name": "Grizzly Butte", "latitude": 42.3512545, "longitude": -121.6402815, "elevation": 1364.0, "source": "osm", "_tags": {"ele": "1364", "gnis:feature_id": "1121443", "name": "Grizzly Butte", "natural": "peak", "wikidata": "Q49033972"}}, {"name": "Hayes Butte", "latitude": 43.2382285, "longitude": -120.967844, "elevation": 1753.819, "source": "osm", "_tags": {"ele": "1753.819", "gnis:feature_id": "1121695", "name": "Hayes Butte", "natural": "peak"}}, {"name": "Haystack Rock", "latitude": 42.4712099, "longitude": -120.8635498, "elevation": 2231.0, "source": "osm", "_tags": {"ele": "2231", "gnis:feature_id": "1121709", "name": "Haystack Rock", "natural": "peak"}}, {"name": "James Butte", "latitude": 42.3354282, "longitude": -121.1747153, "elevation": 1633.0, "source": "osm", "_tags": {"ele": "1633", "gnis:feature_id": "1122374", "name": "James Butte", "natural": "peak"}}, {"name": "Owen Butte", "latitude": 42.3495975, "longitude": -120.8558096, "elevation": 1844.0, "source": "osm", "_tags": {"ele": "1844", "gnis:feature_id": "1125075", "name": "Owen Butte", "natural": "peak", "wikidata": "Q49059125"}}, {"name": "Paradise Mountain", "latitude": 42.2982089, "longitude": -120.9024779, "elevation": 1916.0, "source": "osm", "_tags": {"ele": "1916", "gnis:feature_id": "1125174", "name": "Paradise Mountain", "natural": "peak", "wikidata": "Q49059807"}}, {"name": "Quartz Butte", "latitude": 42.3184876, "longitude": -120.7810823, "elevation": 1913.0, "source": "osm", "_tags": {"ele": "1913", "gnis:feature_id": "1125725", "name": "Quartz Butte", "natural": "peak"}}, {"name": "Quartz Mountain", "latitude": 42.3345981, "longitude": -120.8127513, "elevation": 1844.0, "source": "osm", "_tags": {"ele": "1844", "gnis:feature_id": "1125736", "name": "Quartz Mountain", "natural": "peak", "wikidata": "Q49066083"}}, {"name": "Quartz Valley Mountain", "latitude": 42.3437648, "longitude": -120.7908058, "elevation": 1872.0, "source": "osm", "_tags": {"ele": "1872", "gnis:feature_id": "1125741", "name": "Quartz Valley Mountain", "natural": "peak"}}, {"name": "Riverbed Butte", "latitude": 42.6490374, "longitude": -121.1188823, "elevation": 1862.0, "source": "osm", "_tags": {"ele": "1862", "gnis:feature_id": "1126058", "name": "Riverbed Butte", "natural": "peak"}}, {"name": "Shake Butte", "latitude": 42.6534833, "longitude": -120.9708197, "elevation": 2173.0, "source": "osm", "_tags": {"ele": "2173", "gnis:feature_id": "1126784", "name": "Shake Butte", "natural": "peak"}}, {"name": "Spodue Mountain", "latitude": 42.5929248, "longitude": -121.269722, "elevation": 1954.0, "source": "osm", "_tags": {"ele": "1954", "gnis:feature_id": "1127396", "name": "Spodue Mountain", "natural": "peak"}}, {"name": "Table Rock", "latitude": 43.1646208, "longitude": -120.880304, "elevation": 1713.281, "source": "osm", "_tags": {"ele": "1713.281", "gnis:feature_id": "1127869", "name": "Table Rock", "natural": "peak"}}, {"name": "The Dome", "latitude": 42.4775978, "longitude": -120.837809, "elevation": 2182.0, "source": "osm", "_tags": {"ele": "2182", "gnis:feature_id": "1127963", "name": "The Dome", "natural": "peak", "wikidata": "Q49082343"}}, {"name": "Tub Butte", "latitude": 42.3170963, "longitude": -121.0272076, "elevation": 1603.0, "source": "osm", "_tags": {"ele": "1603", "gnis:feature_id": "1128257", "name": "Tub Butte", "natural": "peak"}}, {"name": "Yainax Butte", "latitude": 42.3261877, "longitude": -121.2691029, "elevation": 2201.266, "source": "osm", "_tags": {"ele": "2201.266", "gnis:feature_id": "1129347", "name": "Yainax Butte", "natural": "peak"}}, {"name": "Yamsay Mountain", "latitude": 42.9306195, "longitude": -121.360605, "elevation": 2498.141, "source": "osm", "_tags": {"ele": "2498.141", "gnis:feature_id": "1129349", "name": "Yamsay Mountain", "natural": "peak"}}, {"name": "Angel Peak", "latitude": 42.2998774, "longitude": -120.7330241, "elevation": 1806.0, "source": "osm", "_tags": {"ele": "1806", "gnis:feature_id": "1131011", "name": "Angel Peak", "natural": "peak"}}, {"name": "Black Butte", "latitude": 42.6182057, "longitude": -120.9519298, "elevation": 2154.0, "source": "osm", "_tags": {"ele": "2154", "gnis:feature_id": "1136071", "name": "Black Butte", "natural": "peak"}}, {"name": "Green Mountain", "latitude": 42.6043168, "longitude": -120.9549854, "elevation": 2195.0, "source": "osm", "_tags": {"ele": "2195", "gnis:feature_id": "1136335", "name": "Green Mountain", "natural": "peak"}}, {"name": "North Butte", "latitude": 42.3309873, "longitude": -120.7863608, "elevation": 1807.0, "source": "osm", "_tags": {"ele": "1807", "gnis:feature_id": "1136577", "name": "North Butte", "natural": "peak"}}, {"name": "Palisade Rocks", "latitude": 42.4659846, "longitude": -120.8138657, "elevation": 1991.0, "source": "osm", "_tags": {"ele": "1991", "gnis:feature_id": "1136611", "name": "Palisade Rocks", "natural": "peak", "wikidata": "Q49059506"}}, {"name": "Penney Hill", "latitude": 42.3037631, "longitude": -121.027763, "elevation": 1550.0, "source": "osm", "_tags": {"ele": "1550", "gnis:feature_id": "1136622", "name": "Penney Hill", "natural": "peak"}}, {"name": "Antone Butte", "latitude": 42.5095874, "longitude": -121.5027825, "elevation": 1435.0, "source": "osm", "_tags": {"ele": "1435", "gnis:feature_id": "1137266", "name": "Antone Butte", "natural": "peak", "wikidata": "Q49008940"}}, {"name": "Bald Mountain", "latitude": 43.2756875, "longitude": -121.3550157, "elevation": 2238.0, "source": "osm", "_tags": {"ele": "2238", "gnis:feature_id": "1137451", "name": "Bald Mountain", "natural": "peak"}}, {"name": "Bear Butte", "latitude": 43.0997714, "longitude": -121.4150999, "elevation": 1684.63, "source": "osm", "_tags": {"ele": "1684.63", "gnis:feature_id": "1137631", "name": "Bear Butte", "natural": "peak"}}, {"name": "Black Hills", "latitude": 42.5743145, "longitude": -121.219442, "elevation": 1599.0, "source": "osm", "_tags": {"ele": "1599", "gnis:feature_id": "1138201", "name": "Black Hills", "natural": "peak"}}, {"name": "Bly Mountain", "latitude": 42.4037567, "longitude": -121.4372233, "elevation": 1733.0, "source": "osm", "_tags": {"ele": "1733", "gnis:feature_id": "1138345", "name": "Bly Mountain", "natural": "peak", "wikidata": "Q49014584"}}, {"name": "Brattain Hill", "latitude": 42.8632042, "longitude": -120.8197047, "elevation": 1497.0, "source": "osm", "_tags": {"ele": "1497", "gnis:feature_id": "1138578", "name": "Brattain Hill", "natural": "peak", "wikidata": "Q49015292"}}, {"name": "Buckskin Butte", "latitude": 43.0476368, "longitude": -121.3947386, "elevation": 1685.0, "source": "osm", "_tags": {"ele": "1685", "gnis:feature_id": "1138872", "name": "Buckskin Butte", "natural": "peak"}}, {"name": "Bug Butte", "latitude": 42.4287579, "longitude": -121.3599999, "elevation": 1496.0, "source": "osm", "_tags": {"ele": "1496", "gnis:feature_id": "1138885", "name": "Bug Butte", "natural": "peak", "wikidata": "Q49016491"}}, {"name": "Buttes of the Gods", "latitude": 42.5179197, "longitude": -121.5525059, "elevation": 1312.0, "source": "osm", "_tags": {"ele": "1312", "gnis:feature_id": "1139072", "name": "Buttes of the Gods", "natural": "peak", "wikidata": "Q49017286"}}, {"name": "Calimus Butte", "latitude": 42.6318077, "longitude": -121.5597313, "elevation": 2012.0, "source": "osm", "_tags": {"ele": "2012", "gnis:feature_id": "1139161", "name": "Calimus Butte", "name:en": "Calimus Butte", "name:kla": "kelmas", "natural": "peak", "wikidata": "Q49017661"}}, {"name": "Campbell Hill", "latitude": 42.8829261, "longitude": -120.8177605, "elevation": 1536.0, "source": "osm", "_tags": {"ele": "1536", "gnis:feature_id": "1139285", "name": "Campbell Hill", "natural": "peak", "wikidata": "Q49017808"}}, {"name": "Cooks Mountain", "latitude": 42.5362552, "longitude": -121.438337, "elevation": 1632.0, "source": "osm", "_tags": {"ele": "1632", "gnis:feature_id": "1140059", "name": "Cooks Mountain", "natural": "peak", "wikidata": "Q49021835"}}, {"name": "Council Butte", "latitude": 42.4537567, "longitude": -121.4055568, "elevation": 1409.0, "source": "osm", "_tags": {"ele": "1409", "gnis:feature_id": "1140253", "name": "Council Butte", "natural": "peak", "wikidata": "Q49022358"}}, {"name": "Coyote Butte", "latitude": 42.5123643, "longitude": -121.5441723, "elevation": 1386.0, "source": "osm", "_tags": {"ele": "1386", "gnis:feature_id": "1140308", "name": "Coyote Butte", "natural": "peak", "wikidata": "Q49022566"}}, {"name": "Crawford Butte", "latitude": 42.6504161, "longitude": -121.6861229, "elevation": 1628.0, "source": "osm", "_tags": {"ele": "1628", "gnis:feature_id": "1140410", "name": "Crawford Butte", "natural": "peak", "wikidata": "Q49022861"}}, {"name": "Cruikshank Butte", "latitude": 42.3873657, "longitude": -121.5816702, "elevation": 1546.0, "source": "osm", "_tags": {"ele": "1546", "gnis:feature_id": "1140496", "name": "Cruikshank Butte", "natural": "peak", "wikidata": "Q49023231"}}, {"name": "Deer Head", "latitude": 42.906813, "longitude": -120.9397093, "elevation": 1951.0, "source": "osm", "_tags": {"ele": "1951", "gnis:feature_id": "1140849", "name": "Deer Head", "natural": "peak"}}, {"name": "Dillon Butte", "latitude": 43.0101375, "longitude": -121.3547362, "elevation": 1851.0, "source": "osm", "_tags": {"ele": "1851", "gnis:feature_id": "1141029", "name": "Dillon Butte", "natural": "peak"}}, {"name": "Doe Butte", "latitude": 43.0343038, "longitude": -121.4272404, "elevation": 1663.0, "source": "osm", "_tags": {"ele": "1663", "gnis:feature_id": "1141107", "name": "Doe Butte", "natural": "peak"}}, {"name": "Doeskin Butte", "latitude": 43.0556922, "longitude": -121.4055725, "elevation": 1659.0, "source": "osm", "_tags": {"ele": "1659", "gnis:feature_id": "1141124", "name": "Doeskin Butte", "natural": "peak"}}, {"name": "Eagle Butte", "latitude": 42.4945869, "longitude": -121.5355605, "elevation": 1426.0, "source": "osm", "_tags": {"ele": "1426", "gnis:feature_id": "1141458", "name": "Eagle Butte", "natural": "peak", "wikidata": "Q49026446"}}, {"name": "Ferguson Mountain", "latitude": 42.48126, "longitude": -121.1919398, "elevation": 1748.0, "source": "osm", "_tags": {"ele": "1748", "gnis:feature_id": "1142065", "name": "Ferguson Mountain", "natural": "peak", "wikidata": "Q49028738"}}, {"name": "Fire Butte", "latitude": 43.0354149, "longitude": -121.4141842, "elevation": 1700.0, "source": "osm", "_tags": {"ele": "1700", "gnis:feature_id": "1142122", "name": "Fire Butte", "natural": "peak"}}, {"name": "Foster Butte", "latitude": 42.9368119, "longitude": -120.9722106, "elevation": 2059.0, "source": "osm", "_tags": {"ele": "2059", "gnis:feature_id": "1142333", "name": "Foster Butte", "natural": "peak"}}, {"name": "Fremont Point", "latitude": 42.8657786, "longitude": -120.8343286, "elevation": 2169.0, "source": "osm", "_tags": {"ele": "2169", "gnis:feature_id": "1142454", "name": "Fremont Point", "natural": "peak", "wikidata": "Q49030539"}}, {"name": "Fuego Mountain", "latitude": 42.63931, "longitude": -121.4380616, "elevation": 2080.0, "source": "osm", "_tags": {"ele": "2080", "gnis:feature_id": "1142526", "name": "Fuego Mountain", "name:en": "Fuego Mountain", "name:kla": "koyLa", "natural": "peak", "wikidata": "Q49030742"}}, {"name": "God Butte", "latitude": 43.0651352, "longitude": -121.5711332, "elevation": 1532.0, "source": "osm", "_tags": {"ele": "1532", "gnis:feature_id": "1142793", "name": "God Butte", "natural": "peak"}}, {"name": "Hager Mountain", "latitude": 43.0094208, "longitude": -121.0316335, "elevation": 2188.0, "source": "osm", "_tags": {"ele": "2188", "gnis:feature_id": "1143196", "name": "Hager Mountain", "natural": "peak", "wikidata": "Q19867418", "wikipedia": "en:Hager Mountain"}}, {"name": "Hamelton Butte", "latitude": 42.7854211, "longitude": -121.3508396, "elevation": 1959.0, "source": "osm", "_tags": {"ele": "1959", "gnis:feature_id": "1143239", "name": "Hamelton Butte", "natural": "peak"}}, {"name": "Horse Butte", "latitude": 42.5095887, "longitude": -121.4383364, "elevation": 1495.0, "source": "osm", "_tags": {"ele": "1495", "gnis:feature_id": "1143739", "name": "Horse Butte", "natural": "peak", "wikidata": "Q49037161"}}, {"name": "Hunter Hill", "latitude": 42.8393159, "longitude": -120.7966481, "elevation": 1312.0, "source": "osm", "_tags": {"ele": "1312", "gnis:feature_id": "1143935", "name": "Hunter Hill", "natural": "peak", "wikidata": "Q49038030"}}, {"name": "K Davis Hill", "latitude": 42.4376475, "longitude": -121.3194436, "elevation": 1396.0, "source": "osm", "_tags": {"ele": "1396", "gnis:feature_id": "1144473", "name": "K Davis Hill", "natural": "peak", "wikidata": "Q49040512"}}, {"name": "Little Yamsay Mountain", "latitude": 42.9985892, "longitude": -121.4155408, "elevation": 1811.426, "source": "osm", "_tags": {"ele": "1811.426", "gnis:feature_id": "1145293", "name": "Little Yamsay Mountain", "natural": "peak"}}, {"name": "Location Butte", "latitude": 43.1768004, "longitude": -121.433074, "elevation": 1550.0, "source": "osm", "_tags": {"ele": "1550", "gnis:feature_id": "1145314", "name": "Location Butte", "natural": "peak"}}, {"name": "Magpie Butte", "latitude": 42.5001423, "longitude": -121.5386163, "elevation": 1361.0, "source": "osm", "_tags": {"ele": "1361", "gnis:feature_id": "1145735", "name": "Magpie Butte", "natural": "peak", "wikidata": "Q49047441"}}, {"name": "Mahogany Mountain", "latitude": 43.0515304, "longitude": -121.0408277, "elevation": 1550.0, "source": "osm", "_tags": {"ele": "1550", "gnis:feature_id": "1145746", "name": "Mahogany Mountain", "natural": "peak"}}, {"name": "McCarty Butte", "latitude": 43.0598586, "longitude": -121.3302907, "elevation": 1733.0, "source": "osm", "_tags": {"ele": "1733", "gnis:feature_id": "1145924", "name": "McCarty Butte", "natural": "peak"}}, {"name": "Medicine Mountain", "latitude": 42.4195936, "longitude": -121.2208294, "elevation": 1726.0, "source": "osm", "_tags": {"ele": "1726", "gnis:feature_id": "1146076", "name": "Medicine Mountain", "natural": "peak"}}, {"name": "Mousehawk Butte", "latitude": 42.5045867, "longitude": -121.539172, "elevation": 1379.0, "source": "osm", "_tags": {"ele": "1379", "gnis:feature_id": "1146553", "name": "Mousehawk Butte", "natural": "peak", "wikidata": "Q49055434"}}, {"name": "Oat Butte", "latitude": 43.2341715, "longitude": -121.2223615, "elevation": 1668.475, "source": "osm", "_tags": {"ele": "1668.475", "gnis:feature_id": "1147127", "name": "Oat Butte", "natural": "peak"}}, {"name": "Partin Butte", "latitude": 42.9206969, "longitude": -121.1844457, "elevation": 1921.0, "source": "osm", "_tags": {"ele": "1921", "gnis:feature_id": "1147473", "name": "Partin Butte", "natural": "peak"}}, {"name": "Pole Butte", "latitude": 42.845703, "longitude": -120.9738767, "elevation": 1819.0, "source": "osm", "_tags": {"ele": "1819", "gnis:feature_id": "1147839", "name": "Pole Butte", "natural": "peak"}}, {"name": "Ponina Butte", "latitude": 42.5579256, "longitude": -121.2388872, "elevation": 1618.0, "source": "osm", "_tags": {"ele": "1618", "gnis:feature_id": "1147871", "name": "Ponina Butte", "natural": "peak"}}, {"name": "Rat Butte", "latitude": 42.5073644, "longitude": -121.5422276, "elevation": 1391.0, "source": "osm", "_tags": {"ele": "1391", "gnis:feature_id": "1148230", "name": "Rat Butte", "natural": "peak", "wikidata": "Q49066637"}}, {"name": "Rock Butte", "latitude": 43.1274615, "longitude": -121.3537163, "elevation": 1570.025, "source": "osm", "_tags": {"ele": "1570.025", "gnis:feature_id": "1148560", "name": "Rock Butte", "natural": "peak"}}, {"name": "Rodeo Butte", "latitude": 42.5604275, "longitude": -121.0363779, "elevation": 1667.0, "source": "osm", "_tags": {"ele": "1667", "gnis:feature_id": "1148681", "name": "Rodeo Butte", "natural": "peak"}}, {"name": "Rodman Rock", "latitude": 43.0101371, "longitude": -121.2863989, "elevation": 2047.0, "source": "osm", "_tags": {"ele": "2047", "gnis:feature_id": "1148687", "name": "Rodman Rock", "natural": "peak"}}, {"name": "Round Butte", "latitude": 42.3868186, "longitude": -120.9213697, "elevation": 1628.0, "source": "osm", "_tags": {"ele": "1628", "gnis:feature_id": "1148756", "name": "Round Butte", "natural": "peak", "wikidata": "Q49069553"}}, {"name": "Round Butte", "latitude": 42.4893169, "longitude": -121.0027649, "elevation": 1503.0, "source": "osm", "_tags": {"ele": "1503", "gnis:feature_id": "1148757", "name": "Round Butte", "natural": "peak", "wikidata": "Q49069555"}}, {"name": "Round Butte", "latitude": 42.8948638, "longitude": -121.2138915, "elevation": 1971.0, "source": "osm", "_tags": {"ele": "1971", "gnis:feature_id": "1148758", "name": "Round Butte", "natural": "peak"}}, {"name": "Round Butte", "latitude": 43.0765216, "longitude": -121.6850221, "elevation": 1664.0, "source": "osm", "_tags": {"ele": "1664", "gnis:feature_id": "1148759", "name": "Round Butte", "natural": "peak"}}, {"name": "Round Mountain", "latitude": 42.3901442, "longitude": -121.5330581, "elevation": 1649.0, "source": "osm", "_tags": {"ele": "1649", "gnis:feature_id": "1148780", "name": "Round Mountain", "natural": "peak", "wikidata": "Q49069889"}}, {"name": "Saddle Mountain", "latitude": 42.5106952, "longitude": -121.6652858, "elevation": 2087.0, "source": "osm", "_tags": {"ele": "2087", "gnis:feature_id": "1148910", "name": "Saddle Mountain", "name:en": "Saddle Mountain", "name:kla": "ƒçeeLaqsdi", "natural": "peak", "wikidata": "Q49070686"}}, {"name": "Skookum Butte", "latitude": 43.2534578, "longitude": -121.6564177, "elevation": 1849.222, "source": "osm", "_tags": {"ele": "1849.222", "gnis:feature_id": "1149604", "name": "Skookum Butte", "natural": "peak"}}, {"name": "Skunk Butte", "latitude": 42.5240308, "longitude": -121.5511172, "elevation": 1372.0, "source": "osm", "_tags": {"ele": "1372", "gnis:feature_id": "1149637", "name": "Skunk Butte", "natural": "peak", "wikidata": "Q49074360"}}, {"name": "Slide Mountain", "latitude": 42.6815402, "longitude": -120.7246989, "elevation": 2366.0, "source": "osm", "_tags": {"ele": "2366", "gnis:feature_id": "1149716", "name": "Slide Mountain", "natural": "peak"}}, {"name": "Spring Butte", "latitude": 42.4401465, "longitude": -121.3683335, "elevation": 1420.0, "source": "osm", "_tags": {"ele": "1420", "gnis:feature_id": "1150150", "name": "Spring Butte", "natural": "peak", "wikidata": "Q49076652"}}, {"name": "Pattern Butte", "latitude": 43.059322, "longitude": -120.7864339, "elevation": 1736.75, "source": "osm", "_tags": {"ele": "1736.75", "gnis:feature_id": "1150224", "name": "Pattern Butte", "natural": "peak", "old_name": "Squaw Butte", "wikidata": "Q49077177"}}, {"name": "String Butte", "latitude": 43.1220768, "longitude": -121.6525222, "elevation": 1673.0, "source": "osm", "_tags": {"ele": "1673", "gnis:feature_id": "1150493", "name": "String Butte", "natural": "peak"}}, {"name": "Sugarpine Mountain", "latitude": 43.1173555, "longitude": -121.6075221, "elevation": 1947.0, "source": "osm", "_tags": {"ele": "1947", "gnis:feature_id": "1150565", "name": "Sugarpine Mountain", "natural": "peak"}}, {"name": "Swan Lake Point", "latitude": 42.4079196, "longitude": -121.6683388, "elevation": 2216.0, "source": "osm", "_tags": {"ele": "2216", "gnis:feature_id": "1150763", "name": "Swan Lake Point", "natural": "peak", "wikidata": "Q49080403"}}, {"name": "Switchboard Hill", "latitude": 42.4245876, "longitude": -121.5569482, "elevation": 1492.0, "source": "osm", "_tags": {"ele": "1492", "gnis:feature_id": "1150795", "name": "Switchboard Hill", "natural": "peak"}}, {"name": "Sycan Butte", "latitude": 42.8682019, "longitude": -121.0172121, "elevation": 1924.0, "source": "osm", "_tags": {"ele": "1924", "gnis:feature_id": "1150796", "name": "Sycan Butte", "natural": "peak"}}, {"name": "Taylor Butte", "latitude": 42.7048653, "longitude": -121.4294517, "elevation": 1650.0, "source": "osm", "_tags": {"ele": "1650", "gnis:feature_id": "1150909", "name": "Taylor Butte", "natural": "peak"}}, {"name": "Tea Table Mountain", "latitude": 43.2101323, "longitude": -121.525855, "elevation": 1754.0, "source": "osm", "_tags": {"ele": "1754", "gnis:feature_id": "1150926", "name": "Tea Table Mountain", "natural": "peak"}}, {"name": "Timber Fall Butte", "latitude": 42.8398264, "longitude": -120.9124424, "elevation": 1992.173, "source": "osm", "_tags": {"ele": "1992.173", "gnis:feature_id": "1151242", "name": "Timber Fall Butte", "natural": "peak"}}, {"name": "Timothy Butte", "latitude": 43.2270993, "longitude": -121.3085077, "elevation": 1917.192, "source": "osm", "_tags": {"ele": "1917.192", "gnis:feature_id": "1151250", "name": "Timothy Butte", "natural": "peak"}}, {"name": "Wart Peak", "latitude": 43.2820075, "longitude": -121.3060177, "elevation": 2115.312, "source": "osm", "_tags": {"ele": "2115.312", "gnis:feature_id": "1151918", "name": "Wart Peak", "natural": "peak"}}, {"name": "Watchdog Butte", "latitude": 42.4837539, "longitude": -121.5288935, "elevation": 1402.0, "source": "osm", "_tags": {"ele": "1402", "gnis:feature_id": "1151932", "name": "Watchdog Butte", "natural": "peak", "wikidata": "Q49087759"}}, {"name": "Wing Butte", "latitude": 43.2133484, "longitude": -121.2453997, "elevation": 1793.138, "source": "osm", "_tags": {"ele": "1793.138", "gnis:feature_id": "1152528", "name": "Wing Butte", "natural": "peak"}}, {"name": "Wocus Butte", "latitude": 42.8265255, "longitude": -121.6825165, "elevation": 1619.0, "source": "osm", "_tags": {"ele": "1619", "gnis:feature_id": "1152571", "name": "Wocus Butte", "natural": "peak"}}, {"name": "Wolf Butte", "latitude": 42.5259747, "longitude": -121.5750066, "elevation": 1375.0, "source": "osm", "_tags": {"ele": "1375", "gnis:feature_id": "1152572", "name": "Wolf Butte", "natural": "peak", "wikidata": "Q49090691"}}, {"name": "Coyote Butte", "latitude": 43.2559919, "longitude": -121.1093809, "elevation": 1540.764, "source": "osm", "_tags": {"ele": "1540.764", "gnis:feature_id": "1157183", "name": "Coyote Butte", "natural": "peak"}}, {"name": "Spike Butte", "latitude": 43.2628536, "longitude": -121.1141548, "elevation": 1486.205, "source": "osm", "_tags": {"ele": "1486.205", "gnis:feature_id": "1157184", "name": "Spike Butte", "natural": "peak"}}, {"name": "Tuff Butte", "latitude": 43.1813733, "longitude": -120.9588839, "elevation": 1555.09, "source": "osm", "_tags": {"ele": "1555.09", "gnis:feature_id": "1160635", "name": "Tuff Butte", "natural": "peak"}}, {"name": "Skeeter Butte", "latitude": 42.9923527, "longitude": -121.4306769, "elevation": 1626.413, "source": "osm", "_tags": {"ele": "1626.413", "gnis:feature_id": "1162547", "name": "Skeeter Butte", "natural": "peak"}}, {"name": "Switchback Hill", "latitude": 42.4248654, "longitude": -121.5577817, "elevation": 1502.0, "source": "osm", "_tags": {"ele": "1502", "gnis:feature_id": "2061618", "name": "Switchback Hill", "natural": "peak", "wikidata": "Q49080531"}}, {"name": "", "latitude": 42.9718923, "longitude": -121.0946244, "elevation": 1526.0, "source": "osm", "_tags": {"ele": "1526", "natural": "peak"}}, {"name": "hill 7577", "latitude": 42.567124, "longitude": -120.7809101, "elevation": 2309.0, "source": "osm", "_tags": {"ele": "2309", "name": "hill 7577", "natural": "peak"}}, {"name": "8134", "latitude": 42.5467859, "longitude": -120.7889083, "elevation": 2476.0, "source": "osm", "_tags": {"ele": "2476", "name": "8134", "natural": "peak"}}, {"name": "Gearhart Mountain", "latitude": 42.4959944, "longitude": -120.8773191, "elevation": 2551.0, "source": "osm", "_tags": {"ele": "2551", "gnis:feature_id": "1142597", "name": "Gearhart Mountain", "natural": "peak", "wikidata": "Q39050234", "wikipedia": "en:Gearhart Mountain"}}, {"name": "", "latitude": 42.4068148, "longitude": -121.5665639, "elevation": 1442.6, "source": "osm", "_tags": {"ele": "1442.6", "natural": "peak"}}, {"name": "", "latitude": 43.1748401, "longitude": -120.6943414, "elevation": 1424.0, "source": "osm", "_tags": {"ele": "1424", "natural": "peak"}}, {"name": "Dead Horse Rim 8064", "latitude": 42.5500662, "longitude": -120.7830449, "elevation": 2458.0, "source": "osm", "_tags": {"ele": "2458", "name": "Dead Horse Rim 8064", "natural": "peak"}}, {"name": "Bald Butte 7536", "latitude": 42.6145725, "longitude": -120.7901555, "elevation": 2297.0, "source": "osm", "_tags": {"ele": "2297", "name": "Bald Butte 7536", "natural": "peak"}}, {"name": "8295", "latitude": 42.5080042, "longitude": -120.862097, "elevation": 2528.0, "source": "osm", "_tags": {"ele": "2528", "name": "8295", "natural": "peak"}}, {"name": "Peak 8272", "latitude": 42.5001461, "longitude": -120.8744402, "elevation": 2521.0, "source": "osm", "_tags": {"ele": "2521", "name": "Peak 8272", "natural": "peak"}}, {"name": "Lookout Rock", "latitude": 42.4628044, "longitude": -120.8015045, "elevation": 1984.0, "source": "osm", "_tags": {"ele": "1984", "name": "Lookout Rock", "natural": "peak"}}, {"name": "7087", "latitude": 42.6147976, "longitude": -120.7556476, "elevation": 2160.0, "source": "osm", "_tags": {"ele": "2160", "name": "7087", "natural": "peak"}}, {"name": "Grassy Butte", "latitude": 43.0606348, "longitude": -120.9822987, "elevation": 1515.161, "source": "osm", "_tags": {"ele": "1515.161", "name": "Grassy Butte", "natural": "peak"}}, {"name": "Parker Butte", "latitude": 43.270515, "longitude": -121.5275149, "elevation": 1792.224, "source": "osm", "_tags": {"ele": "1792.224", "name": "Parker Butte", "natural": "peak"}}, {"name": "Antelope Mountain", "latitude": 43.1709548, "longitude": -121.324718, "elevation": 1989.125, "source": "osm", "_tags": {"ele": "1989.125", "name": "Antelope Mountain", "natural": "peak"}}, {"name": "Connley Hills", "latitude": 43.2618415, "longitude": -121.0160955, "elevation": 1693.164, "source": "osm", "_tags": {"ele": "1693.164", "name": "Connley Hills", "natural": "peak"}}]