[{"name": "Pinnacle Hill", "latitude": 43.3846445, "longitude": -80.4164535, "elevation": 341.0, "source": "osm", "_tags": {"canvec:UUID": "984562b0f3264fd698ee78a800fe8b96", "ele": "341", "name": "Pinnacle Hill", "name:fr": "Pinnacle Hill", "natural": "peak", "source": "CanVec_Import_2009"}}, {"name": "Baden Hills", "latitude": 43.4047257, "longitude": -80.6347466, "elevation": 434.0, "source": "osm", "_tags": {"canvec:UUID": "a917d5c8709340d08ab24dc2f5c1a68e", "ele": "434", "name": "Baden Hills", "name:fr": "Baden Hills", "natural": "peak", "place": "locality", "source": "CanVec_Import_2009", "wikidata": "Q4840756", "wikipedia": "en:Baden Hill"}}, {"name": "Baden Hills", "latitude": 43.4017665, "longitude": -80.6420275, "elevation": 428.0, "source": "osm", "_tags": {"canvec:UUID": "d0a7cf656cab47daaa782247ce1661cd", "ele": "428", "name": "Baden Hills", "name:fr": "Baden Hills", "natural": "peak", "source": "CanVec_Import_2009"}}, {"name": "Caledon Mountain", "latitude": 43.8438583, "longitude": -79.9636674, "elevation": null, "source": "osm", "_tags": {"attribution": "Natural Resources Canada", "canvec:CODE:1580010": "280", "canvec:UUID": "ecc5cb2f2dc94ef48d1422647839cac0", "name": "Caledon Mountain", "name:fr": "Caledon Mountain", "natural": "peak", "source": "CanVec_Import_2009", "wikidata": "Q22381416"}}, {"name": "Sligo Hill", "latitude": 43.8063718, "longitude": -79.9150263, "elevation": null, "source": "osm", "_tags": {"attribution": "Natural Resources Canada", "canvec:CODE:1580010": "280", "canvec:UUID": "c13ad039ee2840deb2ee900365e5d881", "name": "Sligo Hill", "name:fr": "Sligo Hill", "natural": "peak", "source": "CanVec_Import_2009", "wikidata": "Q22638913"}}, {"name": "Caledon Hills", "latitude": 43.8596071, "longitude": -79.9212424, "elevation": null, "source": "osm", "_tags": {"attribution": "Natural Resources Canada", "canvec:CODE:1580010": "280", "canvec:UUID": "f21defcb055042dd960352e26f6567d5", "name": "Caledon Hills", "name:fr": "Caledon Hills", "natural": "peak", "source": "CanVec_Import_2009"}}, {"name": "Albion Hills", "latitude": 43.9149567, "longitude": -79.8862089, "elevation": null, "source": "osm", "_tags": {"attribution": "Natural Resources Canada", "canvec:CODE:1580010": "280", "canvec:UUID": "79880ac19d974b9592e3a7f02c11e1a8", "name": "Albion Hills", "name:fr": "Albion Hills", "natural": "peak", "source": "CanVec_Import_2009", "wikidata": "Q22379905"}}, {"name": "Mount Wolfe", "latitude": 43.9625814, "longitude": -79.7900095, "elevation": null, "source": "osm", "_tags": {"attribution": "Natural Resources Canada", "canvec:CODE:1580010": "280", "canvec:UUID": "c3cf969d2ca34ea983d9cce2a46bb9f0", "name": "Mount Wolfe", "name:fr": "Mount Wolfe", "natural": "peak", "source": "CanVec_Import_2009", "wikidata": "Q22557901"}}, {"name": "Calcium Pits", "latitude": 43.4484237, "longitude": -79.9527717, "elevation": null, "source": "osm", "_tags": {"attribution": "Natural Resources Canada", "canvec:CODE:1580010": "280", "canvec:UUID": "2e0dc63159a24c00be7c1e1e980d00f9", "name": "Calcium Pits", "name:fr": "Calcium Pits", "natural": "peak", "source": "CanVec_Import_2009"}}, {"name": "", "latitude": 43.4343431, "longitude": -80.4221002, "elevation": 366.0, "source": "osm", "_tags": {"ele": "366", "natural": "peak"}}, {"name": "", "latitude": 43.4333829, "longitude": -80.4217891, "elevation": 370.0, "source": "osm", "_tags": {"ele": "370", "natural": "peak"}}, {"name": "Dunns Hill", "latitude": 44.0315052, "longitude": -79.9317832, "elevation": null, "source": "osm", "_tags": {"name": "Dunns Hill", "natural": "peak", "source": "NRCan-CanVec-10.0", "wikidata": "Q22605806"}}, {"name": "Gulley Hill", "latitude": 44.008192, "longitude": -79.9527299, "elevation": null, "source": "osm", "_tags": {"name": "Gulley Hill", "natural": "peak", "source": "NRCan-CanVec-10.0"}}, {"name": "Nottawa Hill", "latitude": 44.0465994, "longitude": -79.9819295, "elevation": null, "source": "osm", "_tags": {"name": "Nottawa Hill", "natural": "peak", "source": "NRCan-CanVec-10.0"}}, {"name": "Piper Hill", "latitude": 44.0269777, "longitude": -79.8834608, "elevation": null, "source": "osm", "_tags": {"name": "Piper Hill", "natural": "peak", "source": "NRCan-CanVec-10.0"}}, {"name": "Mill Hill", "latitude": 44.0679482, "longitude": -79.9867508, "elevation": null, "source": "osm", "_tags": {"name": "Mill Hill", "natural": "peak", "source": "NRCan-CanVec-10.0"}}, {"name": "Sheldon Hill", "latitude": 44.1023295, "longitude": -79.991138, "elevation": null, "source": "osm", "_tags": {"name": "Sheldon Hill", "natural": "peak", "source": "NRCan-CanVec-10.0"}}, {"name": "Oak Ridges", "latitude": 44.2008794, "longitude": -79.9931989, "elevation": null, "source": "osm", "_tags": {"name": "Oak Ridges", "natural": "peak", "source": "NRCan-CanVec-10.0"}}, {"name": "Oak Ridges", "latitude": 44.2166594, "longitude": -79.9998699, "elevation": null, "source": "osm", "_tags": {"name": "Oak Ridges", "natural": "peak", "source": "NRCan-CanVec-10.0"}}, {"name": "", "latitude": 43.4268132, "longitude": -80.5884276, "elevation": 418.0, "source": "osm", "_tags": {"ele": "418", "natural": "peak"}}, {"name": "Scenic Lookout/ Toboggan hill", "latitude": 43.4048811, "longitude": -79.760852, "elevation": null, "source": "osm", "_tags": {"name": "Scenic Lookout/ Toboggan hill", "natural": "peak"}}, {"name": "", "latitude": 43.3247328, "longitude": -80.3871937, "elevation": 350.0, "source": "osm", "_tags": {"ele": "350", "natural": "peak"}}, {"name": "", "latitude": 43.4642343, "longitude": -80.5978986, "elevation": 401.0, "source": "osm", "_tags": {"ele": "401", "natural": "peak"}}, {"name": "", "latitude": 43.4646149, "longitude": -80.6031717, "elevation": 395.0, "source": "osm", "_tags": {"ele": "395", "natural": "peak"}}, {"name": "Moe Hill", "latitude": 43.5252556, "longitude": -80.2496108, "elevation": 332.0, "source": "osm", "_tags": {"alt_name": "Mole Hill", "ele": "332", "name": "Moe Hill", "natural": "peak"}}, {"name": "", "latitude": 43.4681442, "longitude": -80.6194759, "elevation": 401.0, "source": "osm", "_tags": {"ele": "401", "natural": "peak"}}, {"name": "", "latitude": 43.4688139, "longitude": -80.6208754, "elevation": 403.0, "source": "osm", "_tags": {"ele": "403", "natural": "peak"}}, {"name": "", "latitude": 43.4700307, "longitude": -80.6235324, "elevation": 399.0, "source": "osm", "_tags": {"ele": "399", "natural": "peak"}}, {"name": "", "latitude": 43.4643256, "longitude": -80.6310109, "elevation": 405.0, "source": "osm", "_tags": {"ele": "405", "natural": "peak"}}, {"name": "", "latitude": 43.465478, "longitude": -80.6307748, "elevation": 400.0, "source": "osm", "_tags": {"ele": "400", "natural": "peak"}}, {"name": "", "latitude": 43.4614521, "longitude": -80.6294981, "elevation": 402.0, "source": "osm", "_tags": {"ele": "402", "natural": "peak"}}, {"name": "", "latitude": 43.4642676, "longitude": -80.6040151, "elevation": 406.0, "source": "osm", "_tags": {"ele": "406", "natural": "peak"}}, {"name": "", "latitude": 43.463145, "longitude": -80.6082608, "elevation": 401.0, "source": "osm", "_tags": {"ele": "401", "natural": "peak"}}, {"name": "", "latitude": 43.4510846, "longitude": -80.5952563, "elevation": 421.0, "source": "osm", "_tags": {"ele": "421", "natural": "peak"}}, {"name": "", "latitude": 43.4564089, "longitude": -80.5898194, "elevation": 411.0, "source": "osm", "_tags": {"ele": "411", "natural": "peak"}}, {"name": "", "latitude": 43.4294686, "longitude": -80.5911887, "elevation": 414.0, "source": "osm", "_tags": {"ele": "414", "natural": "peak"}}, {"name": "", "latitude": 43.444925, "longitude": -80.6300558, "elevation": 422.0, "source": "osm", "_tags": {"ele": "422", "natural": "peak"}}, {"name": "", "latitude": 43.4575095, "longitude": -80.6482128, "elevation": 409.0, "source": "osm", "_tags": {"ele": "409", "natural": "peak"}}, {"name": "", "latitude": 43.3763849, "longitude": -80.449357, "elevation": 353.0, "source": "osm", "_tags": {"ele": "353", "natural": "peak"}}, {"name": "", "latitude": 43.3783501, "longitude": -80.456202, "elevation": 351.0, "source": "osm", "_tags": {"ele": "351", "natural": "peak"}}, {"name": "", "latitude": 43.3864128, "longitude": -80.4664158, "elevation": 343.0, "source": "osm", "_tags": {"ele": "343", "natural": "peak"}}, {"name": "", "latitude": 43.3816252, "longitude": -80.4676818, "elevation": 347.0, "source": "osm", "_tags": {"ele": "347", "natural": "peak"}}, {"name": "", "latitude": 43.3935272, "longitude": -80.4889831, "elevation": 367.0, "source": "osm", "_tags": {"ele": "367", "natural": "peak"}}, {"name": "Pine Hill", "latitude": 43.3820931, "longitude": -80.4112605, "elevation": 360.0, "source": "osm", "_tags": {"ele": "360", "name": "Pine Hill", "natural": "peak"}}, {"name": "", "latitude": 43.3802714, "longitude": -80.4260123, "elevation": 338.0, "source": "osm", "_tags": {"ele": "338", "natural": "peak"}}, {"name": "", "latitude": 43.4066872, "longitude": -80.4645818, "elevation": 365.0, "source": "osm", "_tags": {"ele": "365", "natural": "peak"}}, {"name": "", "latitude": 43.4202785, "longitude": -80.4913917, "elevation": 370.0, "source": "osm", "_tags": {"ele": "370", "natural": "peak"}}, {"name": "", "latitude": 43.4192202, "longitude": -80.4898366, "elevation": 366.0, "source": "osm", "_tags": {"ele": "366", "natural": "peak"}}, {"name": "", "latitude": 43.3213043, "longitude": -80.3781295, "elevation": 350.0, "source": "osm", "_tags": {"ele": "350", "natural": "peak"}}, {"name": "", "latitude": 43.4553979, "longitude": -80.4208649, "elevation": 349.0, "source": "osm", "_tags": {"ele": "349", "natural": "peak"}}, {"name": "Natchez Hill", "latitude": 43.4557834, "longitude": -80.4252771, "elevation": 358.0, "source": "osm", "_tags": {"ele": "358", "name": "Natchez Hill", "natural": "peak"}}, {"name": "", "latitude": 43.4719576, "longitude": -80.4933371, "elevation": 356.0, "source": "osm", "_tags": {"ele": "356", "natural": "peak"}}, {"name": "", "latitude": 43.4765732, "longitude": -80.5079816, "elevation": 353.0, "source": "osm", "_tags": {"ele": "353", "natural": "peak"}}, {"name": "", "latitude": 43.4659805, "longitude": -80.5483715, "elevation": 356.0, "source": "osm", "_tags": {"ele": "356", "natural": "peak"}}, {"name": "", "latitude": 43.399787, "longitude": -80.6447437, "elevation": 415.0, "source": "osm", "_tags": {"ele": "415", "natural": "peak"}}, {"name": "", "latitude": 43.3232858, "longitude": -80.384037, "elevation": 359.0, "source": "osm", "_tags": {"ele": "359", "natural": "peak"}}]