[{"name": "Bean Hill", "latitude": 44.3500562, "longitude": -75.7635642, "elevation": 130.0, "source": "osm", "_tags": {"ele": "130", "gnis:feature_id": "943241", "name": "Bean Hill", "natural": "peak"}}, {"name": "Morelands Hill", "latitude": 44.3749257, "longitude": -76.4398898, "elevation": null, "source": "osm", "_tags": {"attribution": "Natural Resources Canada", "canvec:CODE:1580010": "280", "name": "Morelands Hill", "name:fr": "Morelands Hill", "natural": "peak", "source": "CanVec_Import_2009"}}, {"name": "Curtis Mountain", "latitude": 44.3199311, "longitude": -76.3087977, "elevation": null, "source": "osm", "_tags": {"attribution": "Natural Resources Canada", "canvec:CODE:1580010": "280", "name": "Curtis Mountain", "name:fr": "Curtis Mountain", "natural": "peak", "source": "CanVec_Import_2009"}}, {"name": "Sand Hill", "latitude": 44.3790674, "longitude": -76.3158169, "elevation": null, "source": "osm", "_tags": {"attribution": "Natural Resources Canada", "canvec:CODE:1580010": "280", "name": "Sand Hill", "name:fr": "Sand Hill", "natural": "peak", "source": "CanVec_Import_2009"}}, {"name": "Sand Hill", "latitude": 44.4127785, "longitude": -76.403594, "elevation": null, "source": "osm", "_tags": {"attribution": "Natural Resources Canada", "canvec:CODE:1580010": "280", "name": "Sand Hill", "name:fr": "Sand Hill", "natural": "peak", "source": "CanVec_Import_2009"}}, {"name": "Lime Hill", "latitude": 44.4272759, "longitude": -76.3878372, "elevation": null, "source": "osm", "_tags": {"attribution": "Natural Resources Canada", "canvec:CODE:1580010": "280", "name": "Lime Hill", "name:fr": "Lime Hill", "natural": "peak", "source": "CanVec_Import_2009"}}, {"name": "Fishers Hill", "latitude": 44.3900204, "longitude": -76.3606743, "elevation": null, "source": "osm", "_tags": {"attribution": "Natural Resources Canada", "canvec:CODE:1580010": "280", "name": "Fishers Hill", "name:fr": "Fishers Hill", "natural": "peak", "source": "CanVec_Import_2009", "wikidata": "Q22475547"}}, {"name": "Little Blue Mountain", "latitude": 44.355125, "longitude": -76.1641288, "elevation": null, "source": "osm", "_tags": {"attribution": "Natural Resources Canada", "canvec:CODE:1580010": "280", "name": "Little Blue Mountain", "name:fr": "Little Blue Mountain", "natural": "peak", "source": "CanVec_Import_2009"}}, {"name": "Big Hill", "latitude": 44.4574293, "longitude": -76.2345579, "elevation": null, "source": "osm", "_tags": {"attribution": "Natural Resources Canada", "canvec:CODE:1580010": "280", "name": "Big Hill", "name:fr": "Big Hill", "natural": "peak", "source": "CanVec_Import_2009"}}, {"name": "Mount Fitzsimmons", "latitude": 44.371829, "longitude": -76.0374316, "elevation": 161.0, "source": "osm", "_tags": {"attribution": "Natural Resources Canada", "canvec:CODE:1580010": "280", "ele": "161", "name": "Mount Fitzsimmons", "name:fr": "Mont Fitzsimmons", "natural": "peak", "source": "CanVec_Import_2009"}}, {"name": "Long Mountain", "latitude": 44.4867474, "longitude": -76.0076494, "elevation": null, "source": "osm", "_tags": {"attribution": "Natural Resources Canada", "canvec:CODE:1580010": "280", "name": "Long Mountain", "name:fr": "Long Mountain", "natural": "peak", "source": "CanVec_Import_2009"}}, {"name": "Silvers Hill", "latitude": 44.3039051, "longitude": -76.5428573, "elevation": null, "source": "osm", "_tags": {"attribution": "Natural Resources Canada", "canvec:CODE:1580010": "280", "name": "Silvers Hill", "name:fr": "Silvers Hill", "natural": "peak", "source": "CanVec_Import_2009"}}, {"name": "Mitchells Hill", "latitude": 44.4185607, "longitude": -76.6620339, "elevation": null, "source": "osm", "_tags": {"attribution": "Natural Resources Canada", "canvec:CODE:1580010": "280", "name": "Mitchells Hill", "name:fr": "Mitchells Hill", "natural": "peak", "source": "CanVec_Import_2009"}}, {"name": "Jamieson Hill", "latitude": 44.4346614, "longitude": -76.6376731, "elevation": null, "source": "osm", "_tags": {"attribution": "Natural Resources Canada", "canvec:CODE:1580010": "280", "name": "Jamieson Hill", "name:fr": "Jamieson Hill", "natural": "peak", "source": "CanVec_Import_2009"}}, {"name": "Gibsons Hill", "latitude": 44.2949025, "longitude": -76.5865081, "elevation": null, "source": "osm", "_tags": {"attribution": "Natural Resources Canada", "canvec:CODE:1580010": "280", "name": "Gibsons Hill", "name:fr": "Gibsons Hill", "natural": "peak", "source": "CanVec_Import_2009"}}, {"name": "Quabbin Hill", "latitude": 44.472376, "longitude": -75.9234004, "elevation": null, "source": "osm", "_tags": {"name": "Quabbin Hill", "natural": "peak", "source": "NRCan-CanVec-10.0"}}, {"name": "Painted Rocks", "latitude": 44.5156015, "longitude": -75.9913643, "elevation": null, "source": "osm", "_tags": {"name": "Painted Rocks", "natural": "peak", "source": "NRCan-CanVec-10.0", "wikidata": "Q22467004"}}, {"name": "Brandy Hill", "latitude": 44.7844574, "longitude": -75.9006456, "elevation": null, "source": "osm", "_tags": {"name": "Brandy Hill", "natural": "peak", "source": "NRCan-CanVec-10.0", "wikidata": "Q22589504"}}, {"name": "Blue Mountain", "latitude": 44.49409, "longitude": -75.99766, "elevation": null, "source": "osm", "_tags": {"name": "Blue Mountain", "natural": "peak"}}, {"name": "Morton Park Hill", "latitude": 44.5513957, "longitude": -76.1952661, "elevation": null, "source": "osm", "_tags": {"name": "Morton Park Hill", "natural": "peak", "wikidata": "Q22397904"}}, {"name": "Ottawa's Highest Point", "latitude": 45.2335354, "longitude": -76.0506597, "elevation": 166.0, "source": "osm", "_tags": {"ele": "166", "name": "Ottawa's Highest Point", "natural": "peak", "source": "https://en.wikipedia.org/wiki/Geography_of_Ottawa"}}]