[{"name": "Sommet de Westmount", "latitude": 45.4918297, "longitude": -73.6066703, "elevation": 201.0, "source": "osm", "_tags": {"ele": "201", "name": "Sommet de Westmount", "name:en": "Westmount Summit", "name:fr": "Sommet de Westmount", "natural": "peak", "source": "yahoo", "wikidata": "Q14875575", "wikipedia:en": "Westmount Summit"}}, {"name": "Colline Rocky", "latitude": 45.5613336, "longitude": -73.170022, "elevation": 400.0, "source": "osm", "_tags": {"ele": "400", "name": "Colline Rocky", "name:en": "Rocky Hill", "name:fr": "Colline Rocky", "natural": "peak"}}, {"name": "Mont Yamaska", "latitude": 45.4453795, "longitude": -72.8681714, "elevation": 411.0, "source": "osm", "_tags": {"ele": "411", "name": "Mont Yamaska", "natural": "peak", "source": "CanVec 6.0 - NRCan"}}, {"name": "Mont Sacré-Cœur", "latitude": 45.3872884, "longitude": -72.702568, "elevation": null, "source": "osm", "_tags": {"name": "Mont Sacré-Cœur", "natural": "peak", "source": "CanVec 6.0 - NRCan"}}, {"name": "Le Pain de Sucre", "latitude": 46.2715632, "longitude": -73.5512139, "elevation": null, "source": "osm", "_tags": {"name": "Le Pain de Sucre", "natural": "peak", "source": "CanVec 6.0 - NRCan"}}, {"name": "Falaise de Dieppe", "latitude": 45.5617945, "longitude": -73.1739662, "elevation": 381.0, "source": "osm", "_tags": {"ele": "381", "name": "Falaise de Dieppe", "name:en": "Dieppe Cliffs", "name:fr": "Falaise de Dieppe", "natural": "peak"}}, {"name": "Les Côtes", "latitude": 45.5515536, "longitude": -72.8831675, "elevation": null, "source": "osm", "_tags": {"name": "Les Côtes", "natural": "peak", "source": "NRCan-CanVec-7.0"}}, {"name": "Mont Saint-Grégoire", "latitude": 45.3563293, "longitude": -73.1481946, "elevation": 251.0, "source": "osm", "_tags": {"alt_name": "Mont Johnson", "ele": "251", "name": "Mont Saint-Grégoire", "natural": "peak", "source": "NRCan-CanVec-7.0"}}, {"name": "Mont D'Ailleboust", "latitude": 46.1642242, "longitude": -73.6015328, "elevation": 275.0, "source": "osm", "_tags": {"ele": "275", "name": "Mont D'Ailleboust", "natural": "peak", "source": "NRCan-CanVec-7.0"}}, {"name": "Mont Saint-Louis", "latitude": 46.2204198, "longitude": -73.6116651, "elevation": 402.0, "source": "osm", "_tags": {"ele": "402", "name": "Mont Saint-Louis", "natural": "peak", "source": "NRCan-CanVec-7.0", "wikidata": "Q22355766"}}, {"name": "Montagne Coupée", "latitude": 46.1954323, "longitude": -73.499915, "elevation": 300.0, "source": "osm", "_tags": {"ele": "300", "name": "Montagne Coupée", "natural": "peak", "source": "NRCan-CanVec-7.0"}}, {"name": "Mont Bellevue", "latitude": 46.2047292, "longitude": -73.6398703, "elevation": 365.0, "source": "osm", "_tags": {"ele": "365", "name": "Mont Bellevue", "natural": "peak", "source": "NRCan-CanVec-7.0"}}, {"name": "Mont Saint-Bruno", "latitude": 45.5566502, "longitude": -73.3255676, "elevation": 218.0, "source": "osm", "_tags": {"ele": "218", "name": "Mont Saint-Bruno", "natural": "peak"}}, {"name": "Burned Hill", "latitude": 45.5439578, "longitude": -73.1687712, "elevation": 308.0, "source": "osm", "_tags": {"ele": "308", "foot": "yes", "name": "Burned Hill", "name:en": "Burned Hill", "name:fr": "Colline Brûlée", "natural": "peak"}}, {"name": "Colline d'Outremont", "latitude": 45.5080541, "longitude": -73.6057217, "elevation": 211.0, "source": "osm", "_tags": {"ele": "211", "name": "Colline d'Outremont", "natural": "peak", "wikidata": "Q65619788"}}, {"name": "Mont-Royal", "latitude": 45.5085881, "longitude": -73.5897111, "elevation": 233.0, "source": "osm", "_tags": {"alt_name": "Colline de la Croix", "ele": "233", "name": "Mont-Royal", "name:ca": "Mont Reial", "name:en": "Mount Royal", "name:fr": "Mont-Royal", "natural": "peak", "wikidata": "Q1757764", "wikipedia": "fr:Mont Royal"}}, {"name": "Le Pain de Sucre", "latitude": 45.5505616, "longitude": -73.1723528, "elevation": 408.0, "source": "osm", "_tags": {"ele": "408", "name": "Le Pain de Sucre", "name:en": "Sugarloaf", "name:fr": "Le Pain de Sucre", "natural": "peak", "tourism": "viewpoint"}}, {"name": "Mont Rougemont", "latitude": 45.475093, "longitude": -73.0723971, "elevation": 381.0, "source": "osm", "_tags": {"ele": "381", "name": "Mont Rougemont", "natural": "peak"}}, {"name": "Colline Sunrise", "latitude": 45.5567988, "longitude": -73.1640968, "elevation": 399.0, "source": "osm", "_tags": {"ele": "399", "name": "Colline Sunrise", "name:en": "Sunrise Hill", "name:fr": "Colline Sunrise", "natural": "peak"}}, {"name": "Colline de l'Abri", "latitude": 45.5012471, "longitude": -73.5913121, "elevation": 200.0, "source": "osm", "_tags": {"ele": "200", "name": "Colline de l'Abri", "natural": "peak"}}, {"name": "Mont Yamaska Nord", "latitude": 45.47209, "longitude": -72.8580557, "elevation": 397.0, "source": "osm", "_tags": {"ele": "397", "name": "Mont Yamaska Nord", "natural": "peak"}}, {"name": "", "latitude": 45.4516806, "longitude": -72.8434859, "elevation": 350.0, "source": "osm", "_tags": {"ele": "350", "natural": "peak"}}, {"name": "Montagne du Brûlé", "latitude": 45.562171, "longitude": -73.1662417, "elevation": 397.0, "source": "osm", "_tags": {"ele": "397", "name": "Montagne du Brûlé", "name:en": "Burnt Hill", "name:fr": "Montagne du Brûlé", "natural": "peak"}}, {"name": "Mont Boullé", "latitude": 45.5170398, "longitude": -73.5330458, "elevation": 41.0, "source": "osm", "_tags": {"ele": "41", "name": "Mont Boullé", "natural": "peak"}}, {"name": "Mont Champlain", "latitude": 45.5188813, "longitude": -73.5341135, "elevation": 38.0, "source": "osm", "_tags": {"ele": "38", "name": "Mont Champlain", "natural": "peak"}}]