[{"name": "Black Butte", "latitude": 46.0073733, "longitude": -117.1179327, "elevation": 1261.0, "source": "osm", "_tags": {"addr:state": "WA", "ele": "1261", "gnis:feature_id": "1503395", "name": "Black Butte", "natural": "peak"}}, {"name": "Danger Point", "latitude": 46.0943123, "longitude": -117.6704681, "elevation": 1638.0, "source": "osm", "_tags": {"ele": "1638", "gnis:feature_id": "1504318", "name": "Danger Point", "natural": "peak"}}, {"name": "Little Butte", "latitude": 46.1429304, "longitude": -117.2734976, "elevation": 1393.0, "source": "osm", "_tags": {"addr:state": "WA", "ele": "1393", "gnis:feature_id": "1506189", "name": "Little Butte", "natural": "peak"}}, {"name": "Mount Misery", "latitude": 46.1229269, "longitude": -117.5146249, "elevation": 1941.0, "source": "osm", "_tags": {"ele": "1941", "gnis:feature_id": "1506735", "name": "Mount Misery", "natural": "peak"}}, {"name": "Mount Wilson", "latitude": 45.99793, "longitude": -116.9773708, "elevation": 1493.0, "source": "osm", "_tags": {"addr:state": "WA", "ele": "1493", "gnis:feature_id": "1509584", "name": "Mount Wilson", "natural": "peak"}}, {"name": "Bear Wallow", "latitude": 46.2137599, "longitude": -117.603797, "elevation": 1639.0, "source": "osm", "_tags": {"ele": "1639", "gnis:feature_id": "1511825", "name": "Bear Wallow", "natural": "peak"}}, {"name": "Anatone Butte", "latitude": 46.1084854, "longitude": -117.2543293, "elevation": 1491.0, "source": "osm", "_tags": {"addr:state": "WA", "ele": "1491", "gnis:feature_id": "1511965", "name": "Anatone Butte", "natural": "peak"}}, {"name": "Bald Butte", "latitude": 46.0876467, "longitude": -117.6085197, "elevation": 1664.0, "source": "osm", "_tags": {"ele": "1664", "gnis:feature_id": "1511980", "name": "Bald Butte", "natural": "peak"}}, {"name": "Big Butte", "latitude": 46.1154301, "longitude": -117.249329, "elevation": 1527.0, "source": "osm", "_tags": {"addr:state": "WA", "ele": "1527", "gnis:feature_id": "1512008", "name": "Big Butte", "natural": "peak"}}, {"name": "Diamond Peak", "latitude": 46.1154469, "longitude": -117.5397052, "elevation": 1935.0, "source": "osm", "_tags": {"ele": "1935", "gnis:feature_id": "1512150", "name": "Diamond Peak", "natural": "peak"}}, {"name": "Elk Point", "latitude": 46.2154294, "longitude": -117.4899014, "elevation": 1602.0, "source": "osm", "_tags": {"ele": "1602", "gnis:feature_id": "1512185", "name": "Elk Point", "natural": "peak"}}, {"name": "Halsey Butte", "latitude": 46.0751476, "longitude": -117.5432377, "elevation": 1623.0, "source": "osm", "_tags": {"ele": "1623", "gnis:feature_id": "1512262", "name": "Halsey Butte", "natural": "peak"}}, {"name": "Huckleberry Butte", "latitude": 46.2465382, "longitude": -117.6032413, "elevation": 1624.0, "source": "osm", "_tags": {"ele": "1624", "gnis:feature_id": "1512312", "name": "Huckleberry Butte", "natural": "peak"}}, {"name": "Lime Hill", "latitude": 46.0557095, "longitude": -116.9637599, "elevation": 888.0, "source": "osm", "_tags": {"addr:state": "WA", "ele": "888", "gnis:feature_id": "1512390", "name": "Lime Hill", "natural": "peak"}}, {"name": "Lost Point", "latitude": 46.2273735, "longitude": -117.5137918, "elevation": 1529.0, "source": "osm", "_tags": {"ele": "1529", "gnis:feature_id": "1512405", "name": "Lost Point", "natural": "peak"}}, {"name": "Oregon Butte", "latitude": 46.1104206, "longitude": -117.6796858, "elevation": 1929.0, "source": "osm", "_tags": {"ele": "1929", "gnis:feature_id": "1512537", "name": "Oregon Butte", "natural": "peak"}}, {"name": "", "latitude": 46.2225824, "longitude": -117.4341525, "elevation": 1446.0, "source": "osm", "_tags": {"ele": "1446", "natural": "peak"}}, {"name": "Puffer Butte", "latitude": 46.07293, "longitude": -117.174325, "elevation": 1363.0, "source": "osm", "_tags": {"addr:state": "WA", "ele": "1363", "gnis:feature_id": "1512584", "name": "Puffer Butte", "natural": "peak"}}, {"name": "Saddle Butte", "latitude": 46.0704265, "longitude": -117.4618433, "elevation": 1796.0, "source": "osm", "_tags": {"addr:state": "WA", "ele": "1796", "gnis:feature_id": "1512632", "name": "Saddle Butte", "natural": "peak"}}, {"name": "Tamarack Butte", "latitude": 46.0673719, "longitude": -117.3765597, "elevation": 1148.0, "source": "osm", "_tags": {"addr:state": "WA", "ele": "1148", "gnis:feature_id": "1512714", "name": "Tamarack Butte", "natural": "peak"}}, {"name": "Weller Butte", "latitude": 46.035145, "longitude": -117.6726908, "elevation": 1684.0, "source": "osm", "_tags": {"ele": "1684", "gnis:feature_id": "1512785", "name": "Weller Butte", "natural": "peak"}}, {"name": "Whitetail Butte", "latitude": 46.0426494, "longitude": -117.3537802, "elevation": 1078.0, "source": "osm", "_tags": {"addr:state": "WA", "ele": "1078", "gnis:feature_id": "1512804", "name": "Whitetail Butte", "natural": "peak"}}, {"name": "Mount Horrible", "latitude": 46.0997304, "longitude": -117.4476359, "elevation": 1773.9, "source": "osm", "_tags": {"addr:state": "WA", "ele": "1773.9", "gnis:feature_id": "1514683", "name": "Mount Horrible", "natural": "peak"}}, {"name": "Collusion Point", "latitude": 45.4759768, "longitude": -117.6676982, "elevation": 1448.0, "source": "osm", "_tags": {"ele": "1448", "gnis:feature_id": "1119155", "name": "Collusion Point", "natural": "peak"}}, {"name": "Trippier Point", "latitude": 45.4048648, "longitude": -117.647978, "elevation": 1830.0, "source": "osm", "_tags": {"ele": "1830", "gnis:feature_id": "1128233", "name": "Trippier Point", "natural": "peak"}}, {"name": "Hayden Butte", "latitude": 45.3854328, "longitude": -117.0773826, "elevation": 1481.0, "source": "osm", "_tags": {"ele": "1481", "gnis:feature_id": "1133862", "name": "Hayden Butte", "natural": "peak"}}, {"name": "Akers Butte", "latitude": 45.7143103, "longitude": -117.5729639, "elevation": 1356.0, "source": "osm", "_tags": {"ele": "1356", "gnis:feature_id": "1137041", "name": "Akers Butte", "natural": "peak"}}, {"name": "Bald Knob", "latitude": 45.437644, "longitude": -117.5901957, "elevation": 1992.0, "source": "osm", "_tags": {"ele": "1992", "gnis:feature_id": "1137444", "name": "Bald Knob", "natural": "peak"}}, {"name": "Bald Knob", "latitude": 45.5023803, "longitude": -116.7165371, "elevation": 1835.0, "source": "osm", "_tags": {"ele": "1835", "gnis:feature_id": "1137445", "name": "Bald Knob", "natural": "peak"}}, {"name": "Bald Mountain", "latitude": 45.3229229, "longitude": -117.516867, "elevation": 2408.0, "source": "osm", "_tags": {"ele": "2408", "gnis:feature_id": "1137454", "name": "Bald Mountain", "natural": "peak"}}, {"name": "Bear Mountain", "latitude": 45.3640473, "longitude": -116.6984793, "elevation": 2086.0, "source": "osm", "_tags": {"ele": "2086", "gnis:feature_id": "1137730", "name": "Bear Mountain", "natural": "peak"}}, {"name": "Buck Butte", "latitude": 45.9745926, "longitude": -117.3479461, "elevation": 1164.0, "source": "osm", "_tags": {"ele": "1164", "gnis:feature_id": "1138743", "name": "Buck Butte", "natural": "peak"}}, {"name": "Buck Point", "latitude": 45.5221013, "longitude": -116.7779278, "elevation": 1676.0, "source": "osm", "_tags": {"ele": "1676", "gnis:feature_id": "1138813", "name": "Buck Point", "natural": "peak"}}, {"name": "Cactus Mountain", "latitude": 45.804879, "longitude": -116.7382009, "elevation": 918.0, "source": "osm", "_tags": {"ele": "918", "gnis:feature_id": "1139133", "name": "Cactus Mountain", "natural": "peak"}}, {"name": "Courtney Butte", "latitude": 45.8818133, "longitude": -117.3735036, "elevation": 1339.0, "source": "osm", "_tags": {"ele": "1339", "gnis:feature_id": "1140258", "name": "Courtney Butte", "natural": "peak"}}, {"name": "Deadhorse Butte", "latitude": 45.8118211, "longitude": -116.8737595, "elevation": 1627.0, "source": "osm", "_tags": {"ele": "1627", "gnis:feature_id": "1140714", "name": "Deadhorse Butte", "natural": "peak"}}, {"name": "Doe Point", "latitude": 45.5098791, "longitude": -116.7807058, "elevation": 1687.0, "source": "osm", "_tags": {"ele": "1687", "gnis:feature_id": "1141118", "name": "Doe Point", "natural": "peak"}}, {"name": "Elk Mountain", "latitude": 45.5979281, "longitude": -117.2057184, "elevation": 1560.0, "source": "osm", "_tags": {"ele": "1560", "gnis:feature_id": "1141791", "name": "Elk Mountain", "natural": "peak"}}, {"name": "Fairchild Point", "latitude": 45.8323748, "longitude": -116.9768173, "elevation": 1626.0, "source": "osm", "_tags": {"ele": "1626", "gnis:feature_id": "1141944", "name": "Fairchild Point", "natural": "peak"}}, {"name": "Méex̣sem Héepey Butte", "latitude": 45.5457892, "longitude": -116.9926736, "elevation": 1672.1, "source": "osm", "_tags": {"ele": "1672.1", "gnis:feature_id": "1142102", "name": "Méex̣sem Héepey Butte", "name:en": "Méexsem Héepey Butte", "name:uma": "Méex̣sem Héepey Butte", "natural": "peak"}}, {"name": "Fox Point", "latitude": 45.4188477, "longitude": -117.5572412, "elevation": 2092.0, "source": "osm", "_tags": {"ele": "2092", "gnis:feature_id": "1142397", "name": "Fox Point", "natural": "peak"}}, {"name": "Frog Pond Butte", "latitude": 45.8834866, "longitude": -116.9276489, "elevation": 1358.0, "source": "osm", "_tags": {"ele": "1358", "gnis:feature_id": "1142504", "name": "Frog Pond Butte", "natural": "peak"}}, {"name": "Goat Mountain", "latitude": 45.3632013, "longitude": -117.491029, "elevation": 2453.0, "source": "osm", "_tags": {"ele": "2453", "gnis:feature_id": "1142786", "name": "Goat Mountain", "natural": "peak"}}, {"name": "Granny View Point", "latitude": 45.4109908, "longitude": -116.7443148, "elevation": 1914.0, "source": "osm", "_tags": {"ele": "1914", "gnis:feature_id": "1142935", "name": "Granny View Point", "natural": "peak"}}, {"name": "Harl Butte", "latitude": 45.3287383, "longitude": -116.8771341, "elevation": 1846.0, "source": "osm", "_tags": {"ele": "1846", "gnis:feature_id": "1143308", "name": "Harl Butte", "natural": "peak"}}, {"name": "Haystack Rock", "latitude": 45.8343155, "longitude": -117.2182161, "elevation": 1377.0, "source": "osm", "_tags": {"ele": "1377", "gnis:feature_id": "1143420", "name": "Haystack Rock", "natural": "peak"}}, {"name": "Huckleberry Mountain-North Peak", "latitude": 45.4240864, "longitude": -117.4948799, "elevation": 2296.0, "source": "osm", "_tags": {"ele": "2296", "gnis:feature_id": "1143883", "name": "Huckleberry Mountain-North Peak", "natural": "peak"}}, {"name": "Jim Creek Butte", "latitude": 45.9362641, "longitude": -116.934315, "elevation": 1542.0, "source": "osm", "_tags": {"ele": "1542", "gnis:feature_id": "1144275", "name": "Jim Creek Butte", "natural": "peak"}}, {"name": "Lent Butte", "latitude": 45.9393187, "longitude": -116.9976499, "elevation": 1480.0, "source": "osm", "_tags": {"ele": "1480", "gnis:feature_id": "1144948", "name": "Lent Butte", "natural": "peak"}}, {"name": "Lookout Mountain", "latitude": 45.291536, "longitude": -117.4429727, "elevation": 2673.0, "source": "osm", "_tags": {"ele": "2673", "gnis:feature_id": "1145471", "name": "Lookout Mountain", "natural": "peak"}}, {"name": "Lookout Mountain", "latitude": 45.3121023, "longitude": -116.7282019, "elevation": 2079.0, "source": "osm", "_tags": {"ele": "2079", "gnis:feature_id": "1145472", "name": "Lookout Mountain", "natural": "peak"}}, {"name": "Needham Butte", "latitude": 45.3465462, "longitude": -116.8918194, "elevation": 1734.0, "source": "osm", "_tags": {"ele": "1734", "gnis:feature_id": "1146746", "name": "Needham Butte", "natural": "peak"}}, {"name": "Poison Point", "latitude": 45.8179305, "longitude": -116.9737619, "elevation": 1648.0, "source": "osm", "_tags": {"ele": "1648", "gnis:feature_id": "1147826", "name": "Poison Point", "natural": "peak"}}, {"name": "Red Hill", "latitude": 45.7884838, "longitude": -117.1021004, "elevation": 1524.0, "source": "osm", "_tags": {"ele": "1524", "gnis:feature_id": "1148306", "name": "Red Hill", "natural": "peak"}}, {"name": "Ruby Peak", "latitude": 45.352927, "longitude": -117.3540698, "elevation": 2697.0, "source": "osm", "_tags": {"ele": "2697", "gnis:feature_id": "1148828", "name": "Ruby Peak", "natural": "peak"}}, {"name": "Sawtooth Peak", "latitude": 45.3193161, "longitude": -117.3449035, "elevation": 2790.0, "source": "osm", "_tags": {"ele": "2790", "gnis:feature_id": "1149102", "name": "Sawtooth Peak", "natural": "peak"}}, {"name": "Smith Mountain", "latitude": 45.6409779, "longitude": -117.6576946, "elevation": 1198.0, "source": "osm", "_tags": {"ele": "1198", "gnis:feature_id": "1149756", "name": "Smith Mountain", "natural": "peak"}}, {"name": "Table Mountain", "latitude": 45.8507047, "longitude": -117.2034932, "elevation": 1504.0, "source": "osm", "_tags": {"ele": "1504", "gnis:feature_id": "1150812", "name": "Table Mountain", "natural": "peak"}}, {"name": "Teepee Butte", "latitude": 45.8851514, "longitude": -117.0509862, "elevation": 1601.0, "source": "osm", "_tags": {"ele": "1601", "gnis:feature_id": "1150936", "name": "Teepee Butte", "natural": "peak"}}, {"name": "Tick Hill", "latitude": 45.5815333, "longitude": -117.5154625, "elevation": 1077.0, "source": "osm", "_tags": {"ele": "1077", "gnis:feature_id": "1151208", "name": "Tick Hill", "natural": "peak"}}, {"name": "Twin Peaks", "latitude": 45.3044457, "longitude": -117.3449524, "elevation": 2950.0, "source": "osm", "_tags": {"ele": "2950", "gnis:feature_id": "1151575", "name": "Twin Peaks", "natural": "peak"}}, {"name": "Wayne Butte", "latitude": 45.7237583, "longitude": -117.2859983, "elevation": 1492.0, "source": "osm", "_tags": {"ele": "1492", "gnis:feature_id": "1151978", "name": "Wayne Butte", "natural": "peak"}}, {"name": "Wood Butte", "latitude": 45.7701438, "longitude": -117.4448973, "elevation": 1345.0, "source": "osm", "_tags": {"ele": "1345", "gnis:feature_id": "1152617", "name": "Wood Butte", "natural": "peak"}}, {"name": "Hartshorn Butte", "latitude": 45.5749305, "longitude": -116.8661499, "elevation": 1447.8, "source": "osm", "_tags": {"ele": "1447.8", "gnis:feature_id": "1152865", "name": "Hartshorn Butte", "natural": "peak"}}, {"name": "Hurricane Point", "latitude": 45.3345943, "longitude": -117.3274008, "elevation": 2552.0, "source": "osm", "_tags": {"ele": "2552", "gnis:feature_id": "1152880", "name": "Hurricane Point", "natural": "peak"}}, {"name": "Indian Point", "latitude": 45.867645, "longitude": -117.6718594, "elevation": 1157.0, "source": "osm", "_tags": {"ele": "1157", "gnis:feature_id": "1153097", "name": "Indian Point", "natural": "peak"}}, {"name": "Miller Ridge", "latitude": 45.7787597, "longitude": -117.2112716, "elevation": 1443.0, "source": "osm", "_tags": {"ele": "1443", "gnis:feature_id": "1156568", "name": "Miller Ridge", "natural": "peak"}}, {"name": "Greenwood Butte", "latitude": 45.6682075, "longitude": -117.0679342, "elevation": 1418.0, "source": "osm", "_tags": {"ele": "1418", "gnis:feature_id": "1158270", "name": "Greenwood Butte", "natural": "peak"}}, {"name": "Haskin Butte", "latitude": 45.6962627, "longitude": -117.0696004, "elevation": 1357.0, "source": "osm", "_tags": {"ele": "1357", "gnis:feature_id": "1158282", "name": "Haskin Butte", "natural": "peak"}}, {"name": "Roberts Butte", "latitude": 45.6412608, "longitude": -117.2107179, "elevation": 1405.0, "source": "osm", "_tags": {"ele": "1405", "gnis:feature_id": "1161490", "name": "Roberts Butte", "natural": "peak"}}, {"name": "Cemetery Hill", "latitude": 45.5493227, "longitude": -116.8487628, "elevation": 687.0, "source": "osm", "_tags": {"ele": "687", "gnis:feature_id": "1851670", "name": "Cemetery Hill", "natural": "peak"}}, {"name": "Gold Hill", "latitude": 46.0829329, "longitude": -116.9295927, "elevation": 992.0, "source": "osm", "_tags": {"ele": "992", "gnis:feature_id": "372866", "name": "Gold Hill", "natural": "peak", "wikidata": "Q49032111"}}, {"name": "Pigeon Roost", "latitude": 46.2812713, "longitude": -116.9451511, "elevation": 711.0, "source": "osm", "_tags": {"ele": "711", "gnis:feature_id": "374394", "name": "Pigeon Roost", "natural": "peak", "wikidata": "Q49061180"}}, {"name": "Craig Mountain", "latitude": 46.0759892, "longitude": -116.8515353, "elevation": 1609.0, "source": "osm", "_tags": {"ele": "1609", "gnis:feature_id": "396337", "name": "Craig Mountain", "name:en": "Craig Mountain", "name:nez": "weeyekinwees", "natural": "peak", "wikidata": "Q49022735"}}, {"name": "Pool Knob", "latitude": 45.8615452, "longitude": -116.7468114, "elevation": 866.0, "source": "osm", "_tags": {"ele": "866", "gnis:feature_id": "397057", "name": "Pool Knob", "natural": "peak", "wikidata": "Q49063236"}}, {"name": "Joseph Knob", "latitude": 45.2914028, "longitude": -117.2406124, "elevation": 2296.0, "source": "osm", "_tags": {"ele": "2296", "name": "Joseph Knob", "natural": "peak"}}, {"name": "Dug Peak", "latitude": 45.3201114, "longitude": -117.3306718, "elevation": 2617.0, "source": "osm", "_tags": {"ele": "2617", "name": "Dug Peak", "natural": "peak"}}, {"name": "Harsin Butte", "latitude": 45.526392, "longitude": -116.9650358, "elevation": 1685.2, "source": "osm", "_tags": {"alt_name": "Wiláatysaksa Butte", "ele": "1685.2", "name": "Harsin Butte", "natural": "peak"}}, {"name": "", "latitude": 45.550632, "longitude": -116.9199801, "elevation": 1524.3, "source": "osm", "_tags": {"ele": "1524.3", "natural": "peak"}}, {"name": "Huckleberry Mountain-South Peak", "latitude": 45.3953606, "longitude": -117.465256, "elevation": 2427.0, "source": "osm", "_tags": {"ele": "2427", "name": "Huckleberry Mountain-South Peak", "natural": "peak"}}, {"name": "Huckleberry Mountain-Middle Peak", "latitude": 45.4028803, "longitude": -117.4799654, "elevation": 2355.0, "source": "osm", "_tags": {"ele": "2355", "name": "Huckleberry Mountain-Middle Peak", "natural": "peak"}}, {"name": "Broad Peak", "latitude": 45.3720252, "longitude": -117.5682264, "elevation": 2306.0, "source": "osm", "_tags": {"ele": "2306", "name": "Broad Peak", "natural": "peak"}}, {"name": "Survivor Peak", "latitude": 45.3674526, "longitude": -117.5591562, "elevation": 2291.0, "source": "osm", "_tags": {"ele": "2291", "name": "Survivor Peak", "natural": "peak"}}, {"name": "Cougar Ridge", "latitude": 45.4128292, "longitude": -117.594146, "elevation": 2065.0, "source": "osm", "_tags": {"ele": "2065", "name": "Cougar Ridge", "natural": "peak"}}, {"name": "", "latitude": 45.3944712, "longitude": -117.5683239, "elevation": 2192.0, "source": "osm", "_tags": {"ele": "2192", "natural": "peak"}}, {"name": "Pinkham Butte", "latitude": 46.2175252, "longitude": -117.431016, "elevation": 1449.3, "source": "osm", "_tags": {"ele": "1449.3", "name": "Pinkham Butte", "natural": "peak"}}, {"name": "Bracken Point", "latitude": 46.249348, "longitude": -117.3255301, "elevation": 1038.8, "source": "osm", "_tags": {"ele": "1038.8", "name": "Bracken Point", "natural": "peak"}}, {"name": "Findley Butte", "latitude": 45.5699761, "longitude": -117.0073847, "elevation": 1583.1, "source": "osm", "_tags": {"ele": "1583.1", "gnis:feature_id": "2707579", "name": "Findley Butte", "natural": "peak"}}, {"name": "Bunch Point", "latitude": 45.3380936, "longitude": -116.941748, "elevation": null, "source": "osm", "_tags": {"gnis:feature_id": "1133841", "name": "Bunch Point", "natural": "peak"}}, {"name": "", "latitude": 45.6348516, "longitude": -116.8918276, "elevation": 1469.4, "source": "osm", "_tags": {"ele": "1469.4", "natural": "peak"}}, {"name": "", "latitude": 45.5834399, "longitude": -116.8701554, "elevation": 1465.8, "source": "osm", "_tags": {"ele": "1465.8", "natural": "peak"}}]