[{"name": "Michigan Hill", "latitude": 46.7764894, "longitude": -123.1168065, "elevation": 142.0, "source": "osm", "_tags": {"ele": "142", "gnis:feature_id": "1510552", "name": "Michigan Hill", "natural": "peak", "source": "USGS"}}, {"name": "Lemon Hill", "latitude": 46.855933, "longitude": -122.8767993, "elevation": 208.0, "source": "osm", "_tags": {"ele": "208", "gnis:feature_id": "1512386", "name": "Lemon Hill", "natural": "peak", "source": "USGS"}}, {"name": "Capitol Peak", "latitude": 46.9731529, "longitude": -123.138082, "elevation": 787.0, "source": "osm", "_tags": {"alt_name": "Capital Peak", "ele": "787", "gnis:feature_id": "1503802", "name": "Capitol Peak", "name:es": "Pico del Capitolio", "natural": "peak", "source": "USGS"}}, {"name": "Grand Mound Peak", "latitude": 46.7968875, "longitude": -123.0337467, "elevation": 73.0, "source": "osm", "_tags": {"ele": "73", "gnis:feature_id": "1510553", "name": "Grand Mound Peak", "natural": "peak", "source": "USGS"}}, {"name": "Mount Molly", "latitude": 46.9537084, "longitude": -123.0895892, "elevation": 344.0, "source": "osm", "_tags": {"ele": "344", "gnis:feature_id": "1511627", "name": "Mount Molly", "natural": "peak", "source": "USGS"}}, {"name": "Larch Mountain", "latitude": 46.9873188, "longitude": -123.1376475, "elevation": 774.0, "source": "osm", "_tags": {"ele": "774", "gnis:feature_id": "1513143", "name": "Larch Mountain", "natural": "peak", "source": "USGS", "wikidata": "Q6488761", "wikipedia": "en:Larch Mountain (Thurston County, Washington)"}}, {"name": "Blumaer Hill", "latitude": 46.8356558, "longitude": -122.8329077, "elevation": 291.0, "source": "osm", "_tags": {"ele": "291", "gnis:feature_id": "1503462", "name": "Blumaer Hill", "natural": "peak", "source": "USGS"}}, {"name": "Crawford Mountain", "latitude": 46.842878, "longitude": -122.7645716, "elevation": 453.0, "source": "osm", "_tags": {"ele": "453", "gnis:feature_id": "1512124", "name": "Crawford Mountain", "natural": "peak", "source": "USGS"}}, {"name": "Little Larch Mountain", "latitude": 46.9570636, "longitude": -123.1174859, "elevation": 342.0, "source": "osm", "_tags": {"ele": "342", "gnis:feature_id": "1512394", "name": "Little Larch Mountain", "natural": "peak", "source": "USGS", "wikidata": "Q49045098", "wikipedia": "ceb:Little Larch Mountain"}}, {"name": "Stony Grade", "latitude": 46.4853839, "longitude": -123.0090119, "elevation": 308.0, "source": "osm", "_tags": {"ele": "308", "gnis:feature_id": "1508758", "name": "Stony Grade", "natural": "peak", "source": "USGS"}}, {"name": "Newaukum Hill", "latitude": 46.6164931, "longitude": -122.9615154, "elevation": 123.0, "source": "osm", "_tags": {"ele": "123", "gnis:feature_id": "1512501", "name": "Newaukum Hill", "natural": "peak", "source": "USGS"}}, {"name": "Point Hill", "latitude": 46.4781607, "longitude": -123.0881837, "elevation": 220.0, "source": "osm", "_tags": {"ele": "220", "gnis:feature_id": "1512572", "name": "Point Hill", "natural": "peak", "source": "USGS", "wikidata": "Q49062860", "wikipedia": "ceb:Point Hill (bukid)"}}, {"name": "Sure Shot Mountain", "latitude": 46.4764934, "longitude": -123.1406873, "elevation": 517.0, "source": "osm", "_tags": {"ele": "517", "gnis:feature_id": "1512708", "name": "Sure Shot Mountain", "natural": "peak", "source": "USGS", "wikidata": "Q49080311", "wikipedia": "ceb:Sure Shot Mountain"}}, {"name": "Sam Henry Mountain", "latitude": 46.5162165, "longitude": -123.0206804, "elevation": 462.0, "source": "osm", "_tags": {"ele": "462", "gnis:feature_id": "1513199", "name": "Sam Henry Mountain", "natural": "peak", "source": "USGS"}}, {"name": "Crego Hill", "latitude": 46.5548265, "longitude": -123.0587402, "elevation": 437.0, "source": "osm", "_tags": {"ele": "437", "gnis:feature_id": "1504263", "name": "Crego Hill", "natural": "peak", "source": "USGS"}}, {"name": "Ceres Hill", "latitude": 46.6192689, "longitude": -123.1559704, "elevation": 239.0, "source": "osm", "_tags": {"ele": "239", "gnis:feature_id": "1512079", "name": "Ceres Hill", "natural": "peak", "source": "USGS"}}, {"name": "Pleasant Hill", "latitude": 46.59427, "longitude": -123.0851322, "elevation": 269.0, "source": "osm", "_tags": {"ele": "269", "gnis:feature_id": "1512569", "name": "Pleasant Hill", "natural": "peak", "source": "USGS"}}, {"name": "Seminary Hill", "latitude": 46.7106582, "longitude": -122.9334627, "elevation": 144.0, "source": "osm", "_tags": {"ele": "144", "gnis:feature_id": "1512657", "name": "Seminary Hill", "natural": "peak", "source": "USGS"}}, {"name": "Finn Hill", "latitude": 46.4314966, "longitude": -122.9390078, "elevation": 128.0, "source": "osm", "_tags": {"ele": "128", "gnis:feature_id": "1512208", "name": "Finn Hill", "natural": "peak", "source": "USGS"}}, {"name": "Cook Hill", "latitude": 46.7181574, "longitude": -123.0476347, "elevation": 176.0, "source": "osm", "_tags": {"ele": "176", "gnis:feature_id": "1504114", "name": "Cook Hill", "natural": "peak", "source": "USGS"}}, {"name": "Logan Hill", "latitude": 46.658993, "longitude": -122.8148447, "elevation": 204.0, "source": "osm", "_tags": {"ele": "204", "gnis:feature_id": "1512398", "name": "Logan Hill", "natural": "peak", "source": "USGS"}}, {"name": "Bucks Knob", "latitude": 46.6820453, "longitude": -123.3337591, "elevation": 725.0, "source": "osm", "_tags": {"ele": "725", "gnis:feature_id": "1503623", "name": "Bucks Knob", "natural": "peak", "source": "USGS", "wikidata": "Q49016337", "wikipedia": "ceb:Bucks Knob (bukid sa Tinipong Bansa, Washington)"}}, {"name": "Ferrier Peak", "latitude": 46.4031611, "longitude": -123.2134657, "elevation": 721.0, "source": "osm", "_tags": {"ele": "721", "gnis:feature_id": "1504861", "name": "Ferrier Peak", "natural": "peak", "source": "USGS", "wikidata": "Q49028764", "wikipedia": "ceb:Ferrier Peak (bukid)"}}, {"name": "Cherry Hill", "latitude": 46.5867683, "longitude": -123.2626427, "elevation": 226.0, "source": "osm", "_tags": {"ele": "226", "gnis:feature_id": "1512088", "name": "Cherry Hill", "natural": "peak", "source": "USGS"}}, {"name": "Little Mountain", "latitude": 46.4717711, "longitude": -123.15041, "elevation": 479.0, "source": "osm", "_tags": {"ele": "479", "gnis:feature_id": "1506211", "name": "Little Mountain", "natural": "peak", "source": "USGS", "wikidata": "Q49045291", "wikipedia": "ceb:Little Mountain (bukid sa Tinipong Bansa, Washington, Lewis County)"}}, {"name": "Meridian Hill", "latitude": 46.7101033, "longitude": -122.7545662, "elevation": 431.0, "source": "osm", "_tags": {"ele": "431", "gnis:feature_id": "1512458", "name": "Meridian Hill", "natural": "peak", "source": "USGS"}}, {"name": "Buckhorn Hill", "latitude": 46.541216, "longitude": -123.0251263, "elevation": 398.0, "source": "osm", "_tags": {"ele": "398", "gnis:feature_id": "1512044", "name": "Buckhorn Hill", "natural": "peak", "source": "USGS"}}, {"name": "Little Onion", "latitude": 46.421494, "longitude": -123.2059663, "elevation": 808.0, "source": "osm", "_tags": {"ele": "808", "gnis:feature_id": "1506217", "name": "Little Onion", "natural": "peak", "source": "USGS", "wikidata": "Q49045338", "wikipedia": "ceb:Little Onion (bukid)"}}, {"name": "Joy Mountain", "latitude": 46.5339911, "longitude": -123.2568083, "elevation": 535.0, "source": "osm", "_tags": {"ele": "535", "gnis:feature_id": "1512336", "name": "Joy Mountain", "natural": "peak", "source": "USGS"}}, {"name": "Boistfort Peak", "latitude": 46.48778, "longitude": -123.2145022, "elevation": 941.0, "source": "osm", "_tags": {"ele": "941", "gnis:feature_id": "1503470", "name": "Boistfort Peak", "natural": "peak", "source": "USGS", "wikidata": "Q4938506", "wikipedia": "en:Boistfort Peak"}}, {"name": "Ham Hill", "latitude": 46.7214914, "longitude": -122.932352, "elevation": 100.0, "source": "osm", "_tags": {"ele": "100", "gnis:feature_id": "1514205", "name": "Ham Hill", "natural": "peak", "source": "USGS"}}, {"name": "Clinton Knob", "latitude": 46.4162169, "longitude": -123.1598521, "elevation": 727.0, "source": "osm", "_tags": {"ele": "727", "gnis:feature_id": "1504025", "name": "Clinton Knob", "natural": "peak", "source": "USGS", "wikidata": "Q49021047", "wikipedia": "ceb:Clinton Knob"}}, {"name": "Round Knob", "latitude": 46.4842969, "longitude": -123.1860445, "elevation": 617.0, "source": "osm", "_tags": {"ele": "617", "gnis:feature_id": "1507932", "name": "Round Knob", "natural": "peak", "source": "USGS", "wikidata": "Q49069679", "wikipedia": "ceb:Round Knob (bukid sa Tinipong Bansa, Washington)"}}, {"name": "Pikes Hill", "latitude": 46.4756628, "longitude": -122.8845627, "elevation": 111.0, "source": "osm", "_tags": {"ele": "111", "gnis:feature_id": "1512560", "name": "Pikes Hill", "natural": "peak", "source": "USGS"}}, {"name": "Davis Hill", "latitude": 46.7509352, "longitude": -122.9720771, "elevation": 158.0, "source": "osm", "_tags": {"ele": "158", "gnis:feature_id": "1512937", "name": "Davis Hill", "natural": "peak", "source": "USGS"}}, {"name": "Beigle Mountain", "latitude": 46.3445553, "longitude": -122.7226114, "elevation": 287.0, "source": "osm", "_tags": {"ele": "287", "gnis:feature_id": "1511998", "name": "Beigle Mountain", "natural": "peak", "source": "USGS"}}, {"name": "Abernathy Mountain", "latitude": 46.335386, "longitude": -123.0954004, "elevation": 770.0, "source": "osm", "_tags": {"ele": "770", "gnis:feature_id": "1511951", "name": "Abernathy Mountain", "natural": "peak", "source": "USGS"}}, {"name": "Pumphrey Mountain", "latitude": 46.3716845, "longitude": -123.0059765, "elevation": 457.0, "source": "osm", "_tags": {"ele": "457", "gnis:feature_id": "1507659", "name": "Pumphrey Mountain", "natural": "peak", "source": "USGS"}}, {"name": "Bebe Mountain", "latitude": 46.3537197, "longitude": -122.9948405, "elevation": 455.0, "source": "osm", "_tags": {"ele": "455", "gnis:feature_id": "1513060", "name": "Bebe Mountain", "natural": "peak", "source": "USGS"}}, {"name": "KM Mountain", "latitude": 46.3420522, "longitude": -123.5101401, "elevation": 276.0, "source": "osm", "_tags": {"ele": "276", "gnis:feature_id": "1531809", "name": "KM Mountain", "natural": "peak", "source": "USGS", "wikidata": "Q49042082", "wikipedia": "ceb:KM Mountain"}}, {"name": "Rangila Hill", "latitude": 46.3445505, "longitude": -123.6765339, "elevation": 142.0, "source": "osm", "_tags": {"ele": "142", "gnis:feature_id": "1512594", "name": "Rangila Hill", "natural": "peak", "source": "USGS"}}, {"name": "Deep River Hill", "latitude": 46.3809385, "longitude": -123.6890366, "elevation": 225.0, "source": "osm", "_tags": {"ele": "225", "gnis:feature_id": "1512141", "name": "Deep River Hill", "natural": "peak", "source": "USGS", "wikidata": "Q49023999", "wikipedia": "ceb:Deep River Hill"}}, {"name": "Elk Mountain", "latitude": 46.3279553, "longitude": -123.5508756, "elevation": 459.0, "source": "osm", "_tags": {"ele": "459", "gnis:feature_id": "1512184", "name": "Elk Mountain", "natural": "peak", "source": "USGS", "wikidata": "Q49027819", "wikipedia": "ceb:Elk Mountain (bukid sa Tinipong Bansa, Washington, Wahkiakum County)"}}, {"name": "Pluvius Hill", "latitude": 46.5509362, "longitude": -123.4115381, "elevation": 260.0, "source": "osm", "_tags": {"ele": "260", "gnis:feature_id": "1512571", "name": "Pluvius Hill", "natural": "peak", "source": "USGS"}}, {"name": "Squally Jim", "latitude": 46.5887137, "longitude": -123.4429293, "elevation": 625.0, "source": "osm", "_tags": {"ele": "625", "gnis:feature_id": "1513215", "name": "Squally Jim", "natural": "peak", "source": "USGS"}}, {"name": "Walville Peak", "latitude": 46.5895468, "longitude": -123.4159835, "elevation": 735.0, "source": "osm", "_tags": {"ele": "735", "gnis:feature_id": "1509278", "name": "Walville Peak", "natural": "peak", "source": "USGS"}}, {"name": "Blue Mountain", "latitude": 46.8256545, "longitude": -123.4626575, "elevation": 533.0, "source": "osm", "_tags": {"ele": "533", "gnis:feature_id": "1503454", "name": "Blue Mountain", "natural": "peak", "source": "USGS", "wikidata": "Q49014475", "wikipedia": "ceb:Blue Mountain (bukid sa Tinipong Bansa, Washington, Grays Harbor County)"}}, {"name": "Fuzzy Top", "latitude": 46.9386431, "longitude": -123.1655937, "elevation": 462.0, "source": "osm", "_tags": {"ele": "462", "gnis:feature_id": "1512231", "name": "Fuzzy Top", "natural": "peak", "source": "USGS"}}, {"name": "Minot Peak", "latitude": 46.8920422, "longitude": -123.4179343, "elevation": 544.0, "source": "osm", "_tags": {"ele": "544", "gnis:feature_id": "1506730", "name": "Minot Peak", "natural": "peak", "source": "USGS"}}, {"name": "Prices Peak", "latitude": 47.0889822, "longitude": -123.605164, "elevation": 218.0, "source": "osm", "_tags": {"ele": "218", "gnis:feature_id": "1507630", "name": "Prices Peak", "natural": "peak", "source": "USGS"}}, {"name": "Hicklin Hill", "latitude": 47.0620399, "longitude": -123.2082068, "elevation": 254.0, "source": "osm", "_tags": {"ele": "254", "gnis:feature_id": "1514048", "name": "Hicklin Hill", "natural": "peak", "source": "USGS", "wikidata": "Q49036150"}}, {"name": "White Star", "latitude": 47.1529675, "longitude": -123.2821498, "elevation": 258.0, "source": "osm", "_tags": {"ele": "258", "gnis:feature_id": "1528091", "name": "White Star", "natural": "peak", "source": "USGS", "wikidata": "Q49089547", "wikipedia": "ceb:White Star (bukid)"}}, {"name": "Dayton Peak", "latitude": 47.1895381, "longitude": -123.223765, "elevation": 324.0, "source": "osm", "_tags": {"ele": "324", "gnis:feature_id": "1518523", "name": "Dayton Peak", "natural": "peak", "source": "USGS"}}, {"name": "Snag Hill", "latitude": 47.1447799, "longitude": -123.3572522, "elevation": 201.0, "source": "osm", "_tags": {"ele": "201", "gnis:feature_id": "1528734", "name": "Snag Hill", "natural": "peak", "source": "USGS", "wikidata": "Q49074957", "wikipedia": "ceb:Snag Hill (bukid sa Tinipong Bansa, Washington)"}}, {"name": "Northcraft Mountain", "latitude": 46.8295448, "longitude": -122.809017, "elevation": 429.0, "source": "osm", "_tags": {"ele": "429", "gnis:feature_id": "1507105", "name": "Northcraft Mountain", "natural": "peak", "ref": "WA 507", "source": "USGS"}}, {"name": "Rock Candy Mountain", "latitude": 47.0088097, "longitude": -123.1108441, "elevation": 701.0, "source": "osm", "_tags": {"ele": "701", "gnis:feature_id": "1513194", "name": "Rock Candy Mountain", "natural": "peak", "source": "USGS"}}, {"name": "", "latitude": 46.9043862, "longitude": -122.934451, "elevation": 100.5, "source": "osm", "_tags": {"addr:city": "Olympia", "addr:housenumber": "12531", "addr:postcode": "98512", "addr:state": "WA", "addr:street": "Champion Drive Southwest", "alt_name": "Champion Hill", "ele": "100.5", "height": "45.7", "natural": "peak", "note": "This hill has an unofficial name of Champion Hill", "source": "http://www.cellreception.com/towers/compare.php"}}, {"name": "Macdaddy Mountain", "latitude": 47.0457169, "longitude": -123.0910198, "elevation": 359.0, "source": "osm", "_tags": {"ele": "359", "name": "Macdaddy Mountain", "natural": "peak"}}, {"name": "", "latitude": 46.467963, "longitude": -123.5510767, "elevation": 767.0, "source": "osm", "_tags": {"ele": "767", "natural": "peak"}}, {"name": "", "latitude": 46.4590579, "longitude": -123.5712791, "elevation": 578.0, "source": "osm", "_tags": {"ele": "578", "natural": "peak"}}, {"name": "", "latitude": 46.4643014, "longitude": -123.5528201, "elevation": 808.0, "source": "osm", "_tags": {"ele": "808", "natural": "peak"}}, {"name": "", "latitude": 46.460196, "longitude": -123.5392213, "elevation": 802.0, "source": "osm", "_tags": {"ele": "802", "natural": "peak"}}, {"name": "", "latitude": 46.4503286, "longitude": -123.5210252, "elevation": 820.0, "source": "osm", "_tags": {"ele": "820", "natural": "peak"}}, {"name": "", "latitude": 46.4454127, "longitude": -123.5778022, "elevation": 686.0, "source": "osm", "_tags": {"ele": "686", "natural": "peak"}}, {"name": "", "latitude": 46.4410509, "longitude": -123.5623956, "elevation": 534.0, "source": "osm", "_tags": {"ele": "534", "natural": "peak"}}, {"name": "", "latitude": 46.4685394, "longitude": -123.5655928, "elevation": 796.0, "source": "osm", "_tags": {"ele": "796", "natural": "peak"}}, {"name": "", "latitude": 46.4609979, "longitude": -123.5506421, "elevation": 869.0, "source": "osm", "_tags": {"ele": "869", "natural": "peak"}}, {"name": "", "latitude": 46.4679704, "longitude": -123.5510659, "elevation": 767.0, "source": "osm", "_tags": {"ele": "767", "natural": "peak"}}, {"name": "", "latitude": 46.3641661, "longitude": -123.3045817, "elevation": 657.0, "source": "osm", "_tags": {"ele": "657", "natural": "peak"}}, {"name": "", "latitude": 46.37151, "longitude": -123.3195162, "elevation": 803.0, "source": "osm", "_tags": {"ele": "803", "natural": "peak"}}, {"name": "", "latitude": 46.3672015, "longitude": -123.3340216, "elevation": 759.0, "source": "osm", "_tags": {"ele": "759", "natural": "peak"}}, {"name": "", "latitude": 46.368312, "longitude": -123.3483982, "elevation": 815.0, "source": "osm", "_tags": {"ele": "815", "natural": "peak"}}, {"name": "", "latitude": 46.30108, "longitude": -123.3215761, "elevation": 313.0, "source": "osm", "_tags": {"ele": "313", "natural": "peak"}}, {"name": "", "latitude": 46.3067723, "longitude": -123.3216834, "elevation": 419.0, "source": "osm", "_tags": {"ele": "419", "natural": "peak"}}, {"name": "", "latitude": 46.3344989, "longitude": -123.3407915, "elevation": 732.0, "source": "osm", "_tags": {"ele": "732", "natural": "peak"}}, {"name": "", "latitude": 47.0851456, "longitude": -123.1892708, "elevation": 134.0, "source": "osm", "_tags": {"ele": "134", "natural": "peak"}}, {"name": "", "latitude": 47.0818344, "longitude": -123.1850088, "elevation": 146.0, "source": "osm", "_tags": {"ele": "146", "natural": "peak"}}, {"name": "", "latitude": 47.0851548, "longitude": -123.1412888, "elevation": 96.0, "source": "osm", "_tags": {"ele": "96", "natural": "peak"}}, {"name": "", "latitude": 47.0899651, "longitude": -123.1528276, "elevation": 106.0, "source": "osm", "_tags": {"ele": "106", "natural": "peak"}}, {"name": "Mount Mcgreevy", "latitude": 47.0686089, "longitude": -123.0762084, "elevation": 324.0, "source": "osm", "_tags": {"ele": "324", "name": "Mount Mcgreevy", "natural": "peak"}}, {"name": "Repentence Hill", "latitude": 46.7672387, "longitude": -122.7476563, "elevation": 163.0, "source": "osm", "_tags": {"ele": "163", "name": "Repentence Hill", "natural": "peak"}}]