[{"name": "Rouchleau Mine (historical)", "latitude": 47.5115931, "longitude": -92.5221273, "elevation": 476.0, "source": "osm", "_tags": {"addr:state": "MN", "ele": "476", "gnis:feature_id": "662301", "landuse": "quarry", "name": "Rouchleau Mine (historical)", "natural": "peak", "wikidata": "Q49445251"}}, {"name": "Missabe Mountain Mine (historical)", "latitude": 47.5268705, "longitude": -92.5274046, "elevation": 485.0, "source": "osm", "_tags": {"addr:state": "MN", "ele": "485", "gnis:feature_id": "661934", "landuse": "quarry", "name": "Missabe Mountain Mine (historical)", "natural": "peak", "wikidata": "Q49432982"}}, {"name": "Minnewas Mine (historical)", "latitude": 47.5088153, "longitude": -92.5187941, "elevation": 476.0, "source": "osm", "_tags": {"addr:state": "MN", "ele": "476", "gnis:feature_id": "661926", "landuse": "quarry", "name": "Minnewas Mine (historical)", "natural": "peak", "wikidata": "Q49432865"}}, {"name": "Pike Mountain", "latitude": 47.5652466, "longitude": -92.4392375, "elevation": 594.0, "source": "osm", "_tags": {"ele": "594", "name": "Pike Mountain", "natural": "peak"}}, {"name": "Stellar Peak (Matson Bay Overlook)", "latitude": 47.8341194, "longitude": -92.2093856, "elevation": 484.0, "source": "osm", "_tags": {"ele": "484", "name": "Stellar Peak (Matson Bay Overlook)", "natural": "peak"}}, {"name": "Jasper Peak", "latitude": 47.8136982, "longitude": -92.2154232, "elevation": null, "source": "osm", "_tags": {"name": "Jasper Peak", "natural": "peak", "website": "https://en.m.wikipedia.org/wiki/Jasper_Peak", "wikidata": "Q6164026", "wikipedia": "en:Jasper Peak"}}, {"name": "Moose Mountain", "latitude": 47.5301929, "longitude": -92.0921084, "elevation": null, "source": "osm", "_tags": {"gnis:feature_id": "661956", "name": "Moose Mountain", "natural": "peak"}}, {"name": "Lookout Mountain", "latitude": 47.57325, "longitude": -92.5357286, "elevation": null, "source": "osm", "_tags": {"gnis:feature_id": "661807", "name": "Lookout Mountain", "natural": "peak"}}, {"name": "Blueberry Bluff", "latitude": 47.9191808, "longitude": -91.9685696, "elevation": 451.0, "source": "osm", "_tags": {"ele": "451", "name": "Blueberry Bluff", "natural": "peak"}}, {"name": "Warrior Hill", "latitude": 48.2725361, "longitude": -91.9950369, "elevation": null, "source": "osm", "_tags": {"name": "Warrior Hill", "natural": "peak"}}]