[{"name": "Mount Parker", "latitude": 49.4557333, "longitude": -121.6482288, "elevation": 1696.0, "source": "osm", "_tags": {"ele": "1696", "name": "Mount Parker", "natural": "peak", "source": "NRCan-CanVec-7.0"}}, {"name": "Mount McNair", "latitude": 49.4664293, "longitude": -121.6620164, "elevation": 1784.0, "source": "osm", "_tags": {"ele": "1784", "name": "Mount McNair", "natural": "peak", "source": "NRCan-CanVec-7.0"}}, {"name": "Mount Baird", "latitude": 49.489592, "longitude": -121.561627, "elevation": 1828.0, "source": "osm", "_tags": {"ele": "1828", "name": "Mount Baird", "natural": "peak", "source": "NRCan-CanVec-7.0"}}, {"name": "Mount Hicks", "latitude": 49.3426101, "longitude": -121.656716, "elevation": 809.0, "source": "osm", "_tags": {"ele": "809", "name": "Mount Hicks", "name:hur": "Lhelhxwáyeleq", "natural": "peak", "source": "NRCan-CanVec-7.0"}}, {"name": "Mount Devoy", "latitude": 49.3191291, "longitude": -121.5713823, "elevation": 1424.0, "source": "osm", "_tags": {"ele": "1424", "name": "Mount Devoy", "natural": "peak", "source": "NRCan-CanVec-7.0"}}, {"name": "Isolillock Peak", "latitude": 49.3004155, "longitude": -121.475136, "elevation": 2052.0, "source": "osm", "_tags": {"ele": "2052", "name": "Isolillock Peak", "name:hur": "Isléleqw", "natural": "peak", "source": "NRCan-CanVec-7.0"}}, {"name": "Silver Peak", "latitude": 49.304111, "longitude": -121.4625537, "elevation": 1949.0, "source": "osm", "_tags": {"ele": "1949", "name": "Silver Peak", "natural": "peak", "source": "NRCan-CanVec-7.0"}}, {"name": "Wells Peak", "latitude": 49.3170975, "longitude": -121.3833108, "elevation": 1863.0, "source": "osm", "_tags": {"ele": "1863", "name": "Wells Peak", "natural": "peak", "source": "NRCan-CanVec-7.0"}}, {"name": "Hope Mountain", "latitude": 49.3474454, "longitude": -121.4176279, "elevation": 1844.0, "source": "osm", "_tags": {"ele": "1844", "name": "Hope Mountain", "natural": "peak", "source": "CanVec"}}, {"name": "Dog Mountain", "latitude": 49.3982069, "longitude": -121.494817, "elevation": 1312.0, "source": "osm", "_tags": {"ele": "1312", "name": "Dog Mountain", "name:hur": "Q'á:w", "natural": "peak", "source": "NRCan-CanVec-7.0"}}, {"name": "Jorgenson Peak", "latitude": 49.4452005, "longitude": -121.3504457, "elevation": 1831.0, "source": "osm", "_tags": {"ele": "1831", "name": "Jorgenson Peak", "natural": "peak", "source": "NRCan-CanVec-7.0"}}, {"name": "Squeah Mountain", "latitude": 49.4820088, "longitude": -121.3358268, "elevation": 1798.0, "source": "osm", "_tags": {"ele": "1798", "name": "Squeah Mountain", "natural": "peak", "source": "NRCan-CanVec-7.0"}}, {"name": "Ogilvie Peak", "latitude": 49.4084291, "longitude": -121.3659087, "elevation": 1691.0, "source": "osm", "_tags": {"ele": "1691", "name": "Ogilvie Peak", "natural": "peak"}}, {"name": "Mount Jarvis", "latitude": 49.4015478, "longitude": -121.2787104, "elevation": 1754.0, "source": "osm", "_tags": {"ele": "1754", "name": "Mount Jarvis", "natural": "peak", "source": "NRCan-CanVec-7.0"}}, {"name": "Mount Snider", "latitude": 49.4210761, "longitude": -121.1701605, "elevation": 2036.0, "source": "osm", "_tags": {"ele": "2036", "name": "Mount Snider", "natural": "peak", "source": "NRCan-CanVec-7.0"}}, {"name": "Tulameen Mountain", "latitude": 49.3874559, "longitude": -121.11646, "elevation": 2285.0, "source": "osm", "_tags": {"ele": "2285", "name": "Tulameen Mountain", "natural": "peak", "source": "NRCan-CanVec-7.0"}}, {"name": "Treasure Mountain", "latitude": 49.4210868, "longitude": -121.0598131, "elevation": 1727.0, "source": "osm", "_tags": {"ele": "1727", "name": "Treasure Mountain", "natural": "peak", "source": "NRCan-CanVec-7.0"}}, {"name": "Mount Sutter", "latitude": 49.4342451, "longitude": -121.0955392, "elevation": 1951.0, "source": "osm", "_tags": {"ele": "1951", "name": "Mount Sutter", "natural": "peak", "source": "NRCan-CanVec-7.0"}}, {"name": "Mount Outram", "latitude": 49.2898913, "longitude": -121.1576469, "elevation": 2461.0, "source": "osm", "_tags": {"ele": "2461", "name": "Mount Outram", "natural": "peak", "source": "NRCan-CanVec-7.0"}}, {"name": "Johnson Peak", "latitude": 49.2971192, "longitude": -121.2066844, "elevation": 2024.0, "source": "osm", "_tags": {"ele": "2024", "name": "Johnson Peak", "natural": "peak", "source": "NRCan-CanVec-7.0"}}, {"name": "Macleod Peak", "latitude": 49.3285054, "longitude": -121.2143988, "elevation": 2176.0, "source": "osm", "_tags": {"ele": "2176", "name": "Macleod Peak", "natural": "peak", "source": "NRCan-CanVec-7.0"}}, {"name": "Manson Ridge", "latitude": 49.3614818, "longitude": -121.2198023, "elevation": 1798.0, "source": "osm", "_tags": {"ele": "1798", "name": "Manson Ridge", "natural": "peak", "source": "NRCan-CanVec-7.0"}}, {"name": "Mount Davis", "latitude": 49.3427214, "longitude": -121.0940919, "elevation": 2012.0, "source": "osm", "_tags": {"ele": "2012", "name": "Mount Davis", "natural": "peak", "source": "NRCan-CanVec-7.0"}}, {"name": "Warburton Peak", "latitude": 49.3319482, "longitude": -120.9829028, "elevation": 1803.0, "source": "osm", "_tags": {"ele": "1803", "name": "Warburton Peak", "natural": "peak", "source": "NRCan-CanVec-7.0"}}, {"name": "Granite Mountain", "latitude": 49.3392977, "longitude": -120.8614383, "elevation": 1926.0, "source": "osm", "_tags": {"ele": "1926", "name": "Granite Mountain", "natural": "peak", "source": "NRCan-CanVec-7.0"}}, {"name": "Kettle Mountain", "latitude": 49.3010606, "longitude": -120.8343479, "elevation": 1914.0, "source": "osm", "_tags": {"ele": "1914", "name": "Kettle Mountain", "natural": "peak", "source": "NRCan-CanVec-7.0"}}, {"name": "Dear Mountain", "latitude": 49.434923, "longitude": -120.9564751, "elevation": 1943.0, "source": "osm", "_tags": {"ele": "1943", "name": "Dear Mountain", "natural": "peak", "source": "NRCan-CanVec-7.0"}}, {"name": "Promontory Hills", "latitude": 50.1950779, "longitude": -120.9724444, "elevation": 1738.0, "source": "osm", "_tags": {"ele": "1738", "name": "Promontory Hills", "natural": "peak", "source": "NRCan-CanVec-7.0"}}, {"name": "Tanglewood Hill", "latitude": 49.4934348, "longitude": -120.810085, "elevation": 1638.0, "source": "osm", "_tags": {"ele": "1638", "name": "Tanglewood Hill", "natural": "peak", "source": "NRCan-CanVec-7.0"}}, {"name": "Lodestone Mountain", "latitude": 49.4636849, "longitude": -120.835653, "elevation": 1871.0, "source": "osm", "_tags": {"ele": "1871", "name": "Lodestone Mountain", "natural": "peak", "source": "NRCan-CanVec-7.0"}}, {"name": "Mount McInnes", "latitude": 50.0762234, "longitude": -120.971065, "elevation": 1690.0, "source": "osm", "_tags": {"ele": "1690", "name": "Mount McInnes", "natural": "peak", "source": "NRCan-CanVec-7.0"}}, {"name": "Mimenuh Mountain", "latitude": 50.1794357, "longitude": -121.2189797, "elevation": 1867.0, "source": "osm", "_tags": {"ele": "1867", "name": "Mimenuh Mountain", "natural": "peak", "source": "NRCan-CanVec-7.0"}}, {"name": "Zakwaski Mountain", "latitude": 50.1519716, "longitude": -121.2993906, "elevation": 2043.0, "source": "osm", "_tags": {"ele": "2043", "name": "Zakwaski Mountain", "natural": "peak", "source": "NRCan-CanVec-7.0"}}, {"name": "Mount Lytton", "latitude": 50.1639618, "longitude": -121.4378313, "elevation": 2049.0, "source": "osm", "_tags": {"ele": "2049", "name": "Mount Lytton", "natural": "peak", "source": "NRCan-CanVec-7.0"}}, {"name": "Mount Hewitt Bostock", "latitude": 50.0087868, "longitude": -121.2900282, "elevation": 2180.0, "source": "osm", "_tags": {"ele": "2180", "name": "Mount Hewitt Bostock", "natural": "peak", "source": "NRCan-CanVec-7.0"}}, {"name": "Kanaka Mountain", "latitude": 50.1157135, "longitude": -121.4875054, "elevation": 1897.0, "source": "osm", "_tags": {"ele": "1897", "name": "Kanaka Mountain", "name:en": "Kanaka Mountain", "name:thp": "sqʷəntútym̓xʷ", "natural": "peak", "source": "NRCan-CanVec-7.0"}}, {"name": "Jackass Mountain", "latitude": 50.0895605, "longitude": -121.4716295, "elevation": 2006.0, "source": "osm", "_tags": {"ele": "2006", "name": "Jackass Mountain", "name:en": "Jackass Mountain", "name:thp": "teyihén̓i", "natural": "peak", "source": "NRCan-CanVec-7.0", "wikidata": "Q6116087", "wikipedia": "en:Jackass Mountain"}}, {"name": "Selish Mountain", "latitude": 49.9835894, "longitude": -120.8174684, "elevation": 1770.0, "source": "osm", "_tags": {"ele": "1770", "name": "Selish Mountain", "natural": "peak", "source": "NRCan-CanVec-10.0"}}, {"name": "Shovelnose Mountain", "latitude": 49.8647167, "longitude": -120.8558622, "elevation": 1694.0, "source": "osm", "_tags": {"ele": "1694", "name": "Shovelnose Mountain", "natural": "peak", "source": "NRCan-CanVec-10.0"}}, {"name": "Mount Thynne", "latitude": 49.7028644, "longitude": -120.9211013, "elevation": 2020.0, "source": "osm", "_tags": {"ele": "2020", "name": "Mount Thynne", "natural": "peak", "source": "NRCan-CanVec-10.0"}}, {"name": "Mount Henning", "latitude": 49.6444147, "longitude": -120.9572986, "elevation": 1827.0, "source": "osm", "_tags": {"ele": "1827", "name": "Mount Henning", "natural": "peak", "source": "NRCan-CanVec-10.0"}}, {"name": "Hamilton Hill", "latitude": 49.5050487, "longitude": -120.7813146, "elevation": 1519.0, "source": "osm", "_tags": {"ele": "1519", "name": "Hamilton Hill", "natural": "peak", "source": "NRCan-CanVec-10.0"}}, {"name": "Mount Jackson", "latitude": 49.5301133, "longitude": -120.7662322, "elevation": 1336.0, "source": "osm", "_tags": {"ele": "1336", "name": "Mount Jackson", "natural": "peak", "source": "NRCan-CanVec-10.0"}}, {"name": "Mount Riddell", "latitude": 49.5653011, "longitude": -120.7908431, "elevation": 1261.0, "source": "osm", "_tags": {"ele": "1261", "name": "Mount Riddell", "natural": "peak", "source": "NRCan-CanVec-10.0"}}, {"name": "Boulder Mountain", "latitude": 49.6010179, "longitude": -120.8195371, "elevation": 1508.0, "source": "osm", "_tags": {"ele": "1508", "name": "Boulder Mountain", "natural": "peak", "source": "NRCan-CanVec-10.0"}}, {"name": "Mount Rabbitt", "latitude": 49.5739592, "longitude": -120.8358283, "elevation": 1530.0, "source": "osm", "_tags": {"ele": "1530", "name": "Mount Rabbitt", "natural": "peak", "source": "NRCan-CanVec-10.0"}}, {"name": "Mount Spearing", "latitude": 49.6150217, "longitude": -120.8584409, "elevation": 1717.0, "source": "osm", "_tags": {"ele": "1717", "name": "Mount Spearing", "natural": "peak", "source": "NRCan-CanVec-10.0"}}, {"name": "Olivine Mountain", "latitude": 49.5131439, "longitude": -120.877808, "elevation": 1803.0, "source": "osm", "_tags": {"ele": "1803", "name": "Olivine Mountain", "natural": "peak", "source": "NRCan-CanVec-10.0"}}, {"name": "Mount Britton", "latitude": 49.5205182, "longitude": -120.9275469, "elevation": 1344.0, "source": "osm", "_tags": {"ele": "1344", "name": "Mount Britton", "natural": "peak", "source": "NRCan-CanVec-10.0"}}, {"name": "Grasshopper Mountain", "latitude": 49.543198, "longitude": -120.8997984, "elevation": 1503.0, "source": "osm", "_tags": {"ele": "1503", "name": "Grasshopper Mountain", "natural": "peak", "source": "NRCan-CanVec-10.0"}}, {"name": "Coquihalla Mountain", "latitude": 49.525345, "longitude": -121.0605916, "elevation": 2157.0, "source": "osm", "_tags": {"ele": "2157", "name": "Coquihalla Mountain", "natural": "peak", "source": "NRCan-CanVec-10.0", "wikidata": "Q5169320", "wikipedia": "en:Coquihalla Mountain"}}, {"name": "Spider Peak", "latitude": 49.538072, "longitude": -121.3257197, "elevation": 1597.0, "source": "osm", "_tags": {"ele": "1597", "name": "Spider Peak", "natural": "peak", "source": "NRCan-CanVec-10.0"}}, {"name": "Zupjok Peak", "latitude": 49.6173254, "longitude": -121.155712, "elevation": 1835.0, "source": "osm", "_tags": {"ele": "1835", "name": "Zupjok Peak", "natural": "peak", "source": "NRCan-CanVec-10.0"}}, {"name": "Needle Peak", "latitude": 49.5712026, "longitude": -121.1251772, "elevation": 2090.0, "source": "osm", "_tags": {"ele": "2090", "name": "Needle Peak", "natural": "peak", "source": "NRCan-CanVec-10.0"}}, {"name": "Yak Peak", "latitude": 49.6068188, "longitude": -121.1050006, "elevation": 2039.0, "source": "osm", "_tags": {"ele": "2039", "name": "Yak Peak", "natural": "peak", "source": "NRCan-CanVec-10.0", "wikidata": "Q8047019", "wikipedia": "en:Yak Peak"}}, {"name": "Nak Peak", "latitude": 49.6072499, "longitude": -121.0924693, "elevation": 2009.0, "source": "osm", "_tags": {"ele": "2009", "name": "Nak Peak", "natural": "peak", "source": "NRCan-CanVec-10.0"}}, {"name": "Thar Peak", "latitude": 49.6108769, "longitude": -121.0844662, "elevation": 1940.0, "source": "osm", "_tags": {"ele": "1940", "name": "Thar Peak", "natural": "peak", "source": "gps"}}, {"name": "Zoa Peak", "latitude": 49.6271402, "longitude": -121.0892547, "elevation": 1869.0, "source": "osm", "_tags": {"ele": "1869", "name": "Zoa Peak", "natural": "peak", "source": "NRCan-CanVec-10.0"}}, {"name": "Zum Peak", "latitude": 49.6413346, "longitude": -121.108352, "elevation": 1886.0, "source": "osm", "_tags": {"ele": "1886", "name": "Zum Peak", "natural": "peak", "source": "NRCan-CanVec-10.0"}}, {"name": "Guanaco Peak", "latitude": 49.6619554, "longitude": -121.1433031, "elevation": 2127.0, "source": "osm", "_tags": {"ele": "2127", "name": "Guanaco Peak", "natural": "peak", "source": "NRCan-CanVec-10.0"}}, {"name": "Vicuna Peak", "latitude": 49.6557711, "longitude": -121.1536705, "elevation": 2126.0, "source": "osm", "_tags": {"ele": "2126", "name": "Vicuna Peak", "natural": "peak", "source": "NRCan-CanVec-10.0"}}, {"name": "Llama Peak", "latitude": 49.6362283, "longitude": -121.1689708, "elevation": 1914.0, "source": "osm", "_tags": {"ele": "1914", "name": "Llama Peak", "natural": "peak", "source": "NRCan-CanVec-10.0"}}, {"name": "Alpaca Peak", "latitude": 49.6492052, "longitude": -121.1712502, "elevation": 2083.0, "source": "osm", "_tags": {"ele": "2083", "name": "Alpaca Peak", "natural": "peak", "source": "NRCan-CanVec-10.0", "wikidata": "Q22395660", "wikipedia": "en:Alpaca Peak"}}, {"name": "Bighorn Peak", "latitude": 49.6759592, "longitude": -121.1874734, "elevation": 1924.0, "source": "osm", "_tags": {"ele": "1924", "name": "Bighorn Peak", "natural": "peak", "source": "NRCan-CanVec-10.0"}}, {"name": "Reh Peak", "latitude": 49.6561019, "longitude": -121.2108611, "elevation": 1809.0, "source": "osm", "_tags": {"ele": "1809", "name": "Reh Peak", "natural": "peak", "source": "NRCan-CanVec-10.0"}}, {"name": "Gamuza Peak", "latitude": 49.6351019, "longitude": -121.2374531, "elevation": 1944.0, "source": "osm", "_tags": {"ele": "1944", "name": "Gamuza Peak", "natural": "peak", "source": "NRCan-CanVec-10.0"}}, {"name": "Serna Peak", "latitude": 49.6402995, "longitude": -121.2167164, "elevation": 1780.0, "source": "osm", "_tags": {"ele": "1780", "name": "Serna Peak", "natural": "peak", "source": "NRCan-CanVec-10.0"}}, {"name": "Gemse Peak", "latitude": 49.6535598, "longitude": -121.2191766, "elevation": 1890.0, "source": "osm", "_tags": {"ele": "1890", "name": "Gemse Peak", "natural": "peak", "source": "NRCan-CanVec-10.0"}}, {"name": "Anderson River Mountain", "latitude": 49.659066, "longitude": -121.2708123, "elevation": 1977.0, "source": "osm", "_tags": {"ele": "1977", "name": "Anderson River Mountain", "natural": "peak", "source": "NRCan-CanVec-10.0"}}, {"name": "Chamois Peak", "latitude": 49.6529729, "longitude": -121.2617889, "elevation": 2003.0, "source": "osm", "_tags": {"ele": "2003", "name": "Chamois Peak", "natural": "peak", "source": "NRCan-CanVec-10.0"}}, {"name": "Ibex Peak", "latitude": 49.6475634, "longitude": -121.2610188, "elevation": 2039.0, "source": "osm", "_tags": {"ele": "2039", "name": "Ibex Peak", "natural": "peak", "source": "NRCan-CanVec-10.0"}}, {"name": "Steinbok Peak", "latitude": 49.6433726, "longitude": -121.2510855, "elevation": 2012.0, "source": "osm", "_tags": {"ele": "2012", "name": "Steinbok Peak", "natural": "peak", "source": "NRCan-CanVec-10.0"}}, {"name": "Spuzzum Mountain", "latitude": 49.7200482, "longitude": -121.4921731, "elevation": 1913.0, "source": "osm", "_tags": {"ele": "1913", "name": "Spuzzum Mountain", "natural": "peak", "source": "NRCan-CanVec-10.0"}}, {"name": "July Mountain", "latitude": 49.7013779, "longitude": -121.091529, "elevation": 2127.0, "source": "osm", "_tags": {"ele": "2127", "name": "July Mountain", "natural": "peak", "source": "survey"}}, {"name": "The Old Settler", "latitude": 49.5117531, "longitude": -121.6215929, "elevation": 2132.0, "source": "osm", "_tags": {"ele": "2132", "name": "The Old Settler", "natural": "peak", "source": "NRCan-CanVec-10.0"}}, {"name": "Mount Urquhart", "latitude": 49.6245565, "longitude": -121.6439724, "elevation": 2098.0, "source": "osm", "_tags": {"ele": "2098", "name": "Mount Urquhart", "natural": "peak", "source": "NRCan-CanVec-10.0"}}, {"name": "Mount Fagervik", "latitude": 49.5626193, "longitude": -121.5676348, "elevation": 1910.0, "source": "osm", "_tags": {"ele": "1910", "name": "Mount Fagervik", "natural": "peak", "source": "NRCan-CanVec-10.0"}}, {"name": "Stoyoma Mountain", "latitude": 49.9918476, "longitude": -121.2101426, "elevation": 2267.0, "source": "osm", "_tags": {"ele": "2267", "name": "Stoyoma Mountain", "natural": "peak", "source": "NRCan-CanVec-10.0"}}, {"name": "Markhor Peak", "latitude": 49.5784931, "longitude": -121.1144468, "elevation": 1994.0, "source": "osm", "_tags": {"ele": "1994", "name": "Markhor Peak", "natural": "peak"}}, {"name": "", "latitude": 49.5746636, "longitude": -121.1224718, "elevation": 1945.0, "source": "osm", "_tags": {"ele": "1945", "natural": "peak"}}, {"name": "Iago Peak", "latitude": 49.6018281, "longitude": -121.1789564, "elevation": 1737.0, "source": "osm", "_tags": {"ele": "1737", "name": "Iago Peak", "natural": "peak", "source": "canvec"}}, {"name": "Great Bear Peak", "latitude": 49.5966839, "longitude": -121.1773697, "elevation": 1728.0, "source": "osm", "_tags": {"ele": "1728", "name": "Great Bear Peak", "natural": "peak", "source": "local_knowlege"}}, {"name": "Flatiron", "latitude": 49.5655185, "longitude": -121.1536478, "elevation": 1898.0, "source": "osm", "_tags": {"ele": "1898", "name": "Flatiron", "natural": "peak"}}, {"name": "", "latitude": 49.4707203, "longitude": -121.5230681, "elevation": 1443.0, "source": "osm", "_tags": {"ele": "1443", "natural": "peak"}}, {"name": "", "latitude": 49.4819331, "longitude": -121.4991508, "elevation": 1559.0, "source": "osm", "_tags": {"ele": "1559", "natural": "peak"}}, {"name": "Ottomite Mountain", "latitude": 49.6029905, "longitude": -121.1536565, "elevation": 1470.0, "source": "osm", "_tags": {"ele": "1470", "name": "Ottomite Mountain", "natural": "peak"}}, {"name": "", "latitude": 49.6619842, "longitude": -121.3253624, "elevation": 1290.0, "source": "osm", "_tags": {"ele": "1290", "natural": "peak"}}, {"name": "", "latitude": 49.6735341, "longitude": -121.3622692, "elevation": 1128.0, "source": "osm", "_tags": {"ele": "1128", "natural": "peak"}}, {"name": "", "latitude": 49.5873298, "longitude": -121.1527033, "elevation": 1492.0, "source": "osm", "_tags": {"ele": "1492", "natural": "peak"}}, {"name": "", "latitude": 49.605071, "longitude": -121.1036941, "elevation": 1977.0, "source": "osm", "_tags": {"ele": "1977", "natural": "peak"}}, {"name": "", "latitude": 49.5258641, "longitude": -121.0559682, "elevation": 2110.0, "source": "osm", "_tags": {"ele": "2110", "natural": "peak"}}, {"name": "", "latitude": 49.5251402, "longitude": -121.0573975, "elevation": 2081.0, "source": "osm", "_tags": {"ele": "2081", "natural": "peak"}}, {"name": "Jim Kelly Peak", "latitude": 49.5277203, "longitude": -121.0408948, "elevation": 2107.0, "source": "osm", "_tags": {"ele": "2107", "name": "Jim Kelly Peak", "natural": "peak", "wikidata": "Q6196073", "wikipedia": "en:Jim Kelly Peak"}}, {"name": "", "latitude": 49.5259235, "longitude": -121.051683, "elevation": 2121.0, "source": "osm", "_tags": {"ele": "2121", "natural": "peak"}}, {"name": "", "latitude": 49.5241259, "longitude": -121.0315741, "elevation": 1938.0, "source": "osm", "_tags": {"ele": "1938", "natural": "peak"}}, {"name": "", "latitude": 49.3526781, "longitude": -121.4282904, "elevation": 1507.0, "source": "osm", "_tags": {"ele": "1507", "natural": "peak"}}, {"name": "", "latitude": 49.3451676, "longitude": -121.4118361, "elevation": 1687.0, "source": "osm", "_tags": {"ele": "1687", "natural": "peak"}}, {"name": "Otter Mountain", "latitude": 49.5511728, "longitude": -120.7405078, "elevation": 1124.0, "source": "osm", "_tags": {"ele": "1124", "name": "Otter Mountain", "natural": "peak"}}, {"name": "Iron Mountain", "latitude": 50.048702, "longitude": -120.7572071, "elevation": 1696.0, "source": "osm", "_tags": {"ele": "1696", "name": "Iron Mountain", "natural": "peak"}}, {"name": "", "latitude": 49.6259602, "longitude": -121.0820871, "elevation": 1828.0, "source": "osm", "_tags": {"ele": "1828", "natural": "peak"}}, {"name": "Zopkios Peak", "latitude": 49.6099033, "longitude": -121.1196142, "elevation": 1921.0, "source": "osm", "_tags": {"ele": "1921", "name": "Zopkios Peak", "natural": "peak"}}, {"name": "Mount Lincoln", "latitude": 49.5677633, "longitude": -121.413599, "elevation": 650.0, "source": "osm", "_tags": {"ele": "650", "name": "Mount Lincoln", "natural": "peak"}}, {"name": "Chawuthen Peak", "latitude": 49.3392566, "longitude": -121.517287, "elevation": 1537.0, "source": "osm", "_tags": {"ele": "1537", "name": "Chawuthen Peak", "natural": "peak"}}, {"name": "", "latitude": 49.3279311, "longitude": -121.4900106, "elevation": 1618.0, "source": "osm", "_tags": {"ele": "1618", "natural": "peak"}}, {"name": "", "latitude": 49.3121911, "longitude": -121.4932554, "elevation": 1577.0, "source": "osm", "_tags": {"ele": "1577", "natural": "peak"}}, {"name": "", "latitude": 49.2970668, "longitude": -121.4817488, "elevation": 1808.0, "source": "osm", "_tags": {"ele": "1808", "natural": "peak"}}, {"name": "", "latitude": 49.2919821, "longitude": -121.5072557, "elevation": 1878.0, "source": "osm", "_tags": {"ele": "1878", "natural": "peak"}}, {"name": "", "latitude": 49.5814124, "longitude": -121.1126346, "elevation": 1920.0, "source": "osm", "_tags": {"ele": "1920", "natural": "peak", "note": "Elevation is pretty approximate"}}, {"name": "", "latitude": 49.5748822, "longitude": -121.1201427, "elevation": 1933.0, "source": "osm", "_tags": {"ele": "1933", "natural": "peak"}}, {"name": "The Nipple", "latitude": 49.9450337, "longitude": -121.5848425, "elevation": 2299.0, "source": "osm", "_tags": {"ele": "2299", "name": "The Nipple", "natural": "peak"}}, {"name": "", "latitude": 49.9472894, "longitude": -121.5813461, "elevation": 2274.0, "source": "osm", "_tags": {"ele": "2274", "natural": "peak"}}, {"name": "Thacker Mountain", "latitude": 49.3932827, "longitude": -121.4207246, "elevation": 250.0, "source": "osm", "_tags": {"ele": "250", "name": "Thacker Mountain", "natural": "peak"}}, {"name": "", "latitude": 49.6066621, "longitude": -121.0990237, "elevation": 1952.0, "source": "osm", "_tags": {"ele": "1952", "natural": "peak"}}, {"name": "Mount McEwen", "latitude": 49.878539, "longitude": -121.6656951, "elevation": 2042.0, "source": "osm", "_tags": {"ele": "2042", "name": "Mount McEwen", "natural": "peak", "source": "NRCan-CanVec-10.0"}}, {"name": "Fraser Peak", "latitude": 49.8523946, "longitude": -121.6754418, "elevation": 2115.0, "source": "osm", "_tags": {"ele": "2115", "name": "Fraser Peak", "natural": "peak", "source": "NRCan-CanVec-10.0"}}, {"name": "Scuzzy Mountain", "latitude": 49.8545605, "longitude": -121.6324011, "elevation": 2221.0, "source": "osm", "_tags": {"ele": "2221", "name": "Scuzzy Mountain", "natural": "peak", "source": "NRCan-CanVec-10.0"}}, {"name": "Lake Mountain", "latitude": 49.7465057, "longitude": -121.3974222, "elevation": 930.0, "source": "osm", "_tags": {"ele": "930", "name": "Lake Mountain", "natural": "peak"}}, {"name": "Ilal Mountain", "latitude": 49.5397284, "longitude": -121.0474116, "elevation": 2010.0, "source": "osm", "_tags": {"ele": "2010", "name": "Ilal Mountain", "natural": "peak", "source": "GPS"}}, {"name": "Saddle Peak", "latitude": 49.5980246, "longitude": -121.3751194, "elevation": 1430.0, "source": "osm", "_tags": {"ele": "1430", "name": "Saddle Peak", "natural": "peak"}}, {"name": "Peak 580", "latitude": 49.4192132, "longitude": -121.4567555, "elevation": 580.0, "source": "osm", "_tags": {"ele": "580", "name": "Peak 580", "natural": "peak", "note": "Placement and elevation derived from lidar"}}, {"name": "Landstrom Ridge", "latitude": 49.3816352, "longitude": -121.4667941, "elevation": 275.0, "source": "osm", "_tags": {"alt_name": "Crack Mountain", "ele": "275", "loc_name": "Devil's Bump", "name": "Landstrom Ridge", "natural": "peak"}}, {"name": "Sasquatch Peak", "latitude": 49.3579242, "longitude": -121.6664078, "elevation": 894.0, "source": "osm", "_tags": {"ele": "894", "name": "Sasquatch Peak", "natural": "peak"}}, {"name": "Nicolum Knob", "latitude": 49.3711802, "longitude": -121.3517687, "elevation": 547.0, "source": "osm", "_tags": {"ele": "547", "name": "Nicolum Knob", "natural": "peak"}}, {"name": "All Hallows Mountain", "latitude": 49.5702305, "longitude": -121.4422735, "elevation": 617.0, "source": "osm", "_tags": {"ele": "617", "name": "All Hallows Mountain", "natural": "peak", "note": "Placement and elevation is lidar derived. \n\nYale First Nations Final Agreement refers to this as \"All Hallows Mountain\" - pending formal entry into BC Geographical Names Database. Historical references also refer to it as \"Pointing Thumb Mountain\"."}}, {"name": "", "latitude": 50.2611794, "longitude": -121.6559564, "elevation": 837.0, "source": "osm", "_tags": {"ele": "837", "natural": "peak"}}, {"name": "", "latitude": 49.5274221, "longitude": -121.6770214, "elevation": 1698.0, "source": "osm", "_tags": {"ele": "1698", "natural": "peak"}}]