[{"name": "Mount Aragorn", "latitude": 50.6425103, "longitude": -122.7061057, "elevation": 2435.0, "source": "osm", "_tags": {"ele": "2435", "name": "Mount Aragorn", "natural": "peak", "source": "NRCan-CanVec-10.0"}}, {"name": "Green Mountain", "latitude": 50.7872472, "longitude": -122.9310924, "elevation": 2161.0, "source": "osm", "_tags": {"ele": "2161", "name": "Green Mountain", "natural": "peak"}}, {"name": "Mount Sloan", "latitude": 50.7817651, "longitude": -122.9722482, "elevation": 2720.0, "source": "osm", "_tags": {"ele": "2720", "name": "Mount Sloan", "natural": "peak"}}, {"name": "Mount Gandalf", "latitude": 50.6320134, "longitude": -122.7019695, "elevation": 2391.0, "source": "osm", "_tags": {"ele": "2391", "name": "Mount Gandalf", "natural": "peak", "source": "NRCan-CanVec-10.0"}}, {"name": "Pika Peak", "latitude": 50.55404, "longitude": -123.3988281, "elevation": 2531.0, "source": "osm", "_tags": {"ele": "2531", "name": "Pika Peak", "natural": "peak", "source": "NRCan-CanVec-10.0"}}, {"name": "Overseer Mountain", "latitude": 50.5288176, "longitude": -123.3804378, "elevation": 2749.0, "source": "osm", "_tags": {"ele": "2749", "name": "Overseer Mountain", "natural": "peak", "source": "NRCan-CanVec-10.0"}}, {"name": "Longspur Peak", "latitude": 50.3763913, "longitude": -123.2660565, "elevation": 2533.0, "source": "osm", "_tags": {"ele": "2533", "name": "Longspur Peak", "natural": "peak", "source": "NRCan-CanVec-10.0"}}, {"name": "Frodo", "latitude": 50.6190584, "longitude": -122.6987072, "elevation": 2189.0, "source": "osm", "_tags": {"ele": "2189", "name": "Frodo", "natural": "peak", "source": "local knowledge"}}, {"name": "Signal Hill", "latitude": 50.3119296, "longitude": -122.8175344, "elevation": 613.0, "source": "osm", "_tags": {"designation": "Hill", "ele": "613", "name": "Signal Hill", "name:lil": "Spel’kumtn", "natural": "peak", "source": "user"}}, {"name": "Spidery Peak", "latitude": 50.5392766, "longitude": -123.3726255, "elevation": 2676.0, "source": "osm", "_tags": {"ele": "2676", "name": "Spidery Peak", "natural": "peak", "source": "NRCan-CanVec-10.0"}}, {"name": "Mount Miller", "latitude": 50.367208, "longitude": -122.9806554, "elevation": 2168.0, "source": "osm", "_tags": {"ele": "2168", "name": "Mount Miller", "name:en": "Mount Miller", "name:lil": "Qw̓eséset", "natural": "peak", "source": "NRCan-CanVec-10.0"}}, {"name": "Ipsoot Mountain", "latitude": 50.3253652, "longitude": -122.991961, "elevation": 2576.0, "source": "osm", "_tags": {"ele": "2576", "name": "Ipsoot Mountain", "natural": "peak", "source": "NRCan-CanVec-10.0"}}, {"name": "Rhododendron Mountain", "latitude": 50.3717727, "longitude": -123.031116, "elevation": 2523.0, "source": "osm", "_tags": {"ele": "2523", "name": "Rhododendron Mountain", "natural": "peak"}}, {"name": "Mount Ross", "latitude": 50.4326385, "longitude": -122.9875271, "elevation": 2031.0, "source": "osm", "_tags": {"ele": "2031", "name": "Mount Ross", "natural": "peak", "source": "NRCan-CanVec-10.0"}}, {"name": "Mount Fraser", "latitude": 50.3995306, "longitude": -122.824695, "elevation": 1647.0, "source": "osm", "_tags": {"ele": "1647", "name": "Mount Fraser", "natural": "peak", "source": "NRCan-CanVec-10.0"}}, {"name": "Mount Ronayne", "latitude": 50.4695339, "longitude": -122.8258568, "elevation": 2290.0, "source": "osm", "_tags": {"ele": "2290", "name": "Mount Ronayne", "natural": "peak", "source": "NRCan-CanVec-10.0"}}, {"name": "Seven O'clock Mountain", "latitude": 50.4938, "longitude": -122.8526471, "elevation": 2341.0, "source": "osm", "_tags": {"ele": "2341", "name": "Seven O'clock Mountain", "natural": "peak", "source": "NRCan-CanVec-10.0"}}, {"name": "Locomotive Mountain", "latitude": 50.582523, "longitude": -123.0585112, "elevation": 2340.0, "source": "osm", "_tags": {"ele": "2340", "name": "Locomotive Mountain", "natural": "peak"}}, {"name": "Tender Mountain", "latitude": 50.583873, "longitude": -123.0680084, "elevation": 2329.0, "source": "osm", "_tags": {"ele": "2329", "name": "Tender Mountain", "natural": "peak"}}, {"name": "Face Mountain", "latitude": 50.5990134, "longitude": -123.072272, "elevation": 2485.0, "source": "osm", "_tags": {"ele": "2485", "name": "Face Mountain", "natural": "peak"}}, {"name": "Tenquille Mountain", "latitude": 50.5497677, "longitude": -122.9394601, "elevation": 2391.0, "source": "osm", "_tags": {"ele": "2391", "name": "Tenquille Mountain", "natural": "peak"}}, {"name": "Faceless Mountain", "latitude": 50.5927749, "longitude": -123.0855144, "elevation": 2463.0, "source": "osm", "_tags": {"ele": "2463", "name": "Faceless Mountain", "natural": "peak"}}, {"name": "Caboose Peak", "latitude": 50.5861117, "longitude": -123.07027, "elevation": 2323.0, "source": "osm", "_tags": {"ele": "2323", "name": "Caboose Peak", "natural": "peak"}}, {"name": "Chipmunk Mountain East Peak", "latitude": 50.5803311, "longitude": -122.932425, "elevation": 2390.0, "source": "osm", "_tags": {"ele": "2390", "name": "Chipmunk Mountain East Peak", "natural": "peak"}}, {"name": "Mount Barbour", "latitude": 50.5063113, "longitude": -122.8891821, "elevation": 2290.0, "source": "osm", "_tags": {"ele": "2290", "name": "Mount Barbour", "natural": "peak", "source": "NRCan-CanVec-10.0"}}, {"name": "Copper Mound", "latitude": 50.528102, "longitude": -122.9419722, "elevation": 2157.0, "source": "osm", "_tags": {"ele": "2157", "name": "Copper Mound", "natural": "peak", "source": "NRCan-CanVec-10.0"}}, {"name": "Goat Peak", "latitude": 50.5469306, "longitude": -122.9543857, "elevation": 2473.0, "source": "osm", "_tags": {"ele": "2473", "name": "Goat Peak", "natural": "peak", "source": "NRCan-CanVec-10.0"}}, {"name": "Finch Ridge", "latitude": 50.5519597, "longitude": -122.9142887, "elevation": 2095.0, "source": "osm", "_tags": {"ele": "2095", "name": "Finch Ridge", "natural": "peak", "source": "NRCan-CanVec-10.0"}}, {"name": "Finch Ridge", "latitude": 50.5538019, "longitude": -122.9264955, "elevation": 2097.0, "source": "osm", "_tags": {"ele": "2097", "name": "Finch Ridge", "natural": "peak", "source": "NRCan-CanVec-10.0"}}, {"name": "Sun God Mountain", "latitude": 50.5049764, "longitude": -122.8019024, "elevation": 2421.0, "source": "osm", "_tags": {"ele": "2421", "name": "Sun God Mountain", "natural": "peak", "source": "NRCan-CanVec-10.0"}}, {"name": "Chipmunk Mountain West Peak", "latitude": 50.5854092, "longitude": -122.9491704, "elevation": 2360.0, "source": "osm", "_tags": {"ele": "2360", "name": "Chipmunk Mountain West Peak", "natural": "peak", "source": "NRCan-CanVec-10.0"}}, {"name": "Mount Athelstan", "latitude": 50.7013738, "longitude": -123.4184353, "elevation": 2776.0, "source": "osm", "_tags": {"ele": "2776", "name": "Mount Athelstan", "natural": "peak", "source": "NRCan-CanVec-10.0"}}, {"name": "Mount Thiassi", "latitude": 50.7139592, "longitude": -123.1820091, "elevation": 2760.0, "source": "osm", "_tags": {"ele": "2760", "name": "Mount Thiassi", "natural": "peak", "source": "NRCan-CanVec-10.0"}}, {"name": "The Frost Fiend", "latitude": 50.7489843, "longitude": -123.0878355, "elevation": 2635.0, "source": "osm", "_tags": {"ele": "2635", "name": "The Frost Fiend", "natural": "peak", "source": "NRCan-CanVec-10.0"}}, {"name": "Mount Sampson", "latitude": 50.6206709, "longitude": -123.1370819, "elevation": 2808.0, "source": "osm", "_tags": {"ele": "2808", "name": "Mount Sampson", "natural": "peak", "source": "NRCan-CanVec-10.0"}}, {"name": "Blockhead Mountain", "latitude": 50.6329324, "longitude": -123.3241485, "elevation": 2426.0, "source": "osm", "_tags": {"ele": "2426", "name": "Blockhead Mountain", "natural": "peak"}}, {"name": "Handcar Peak", "latitude": 50.5832949, "longitude": -123.0982598, "elevation": 2336.0, "source": "osm", "_tags": {"ele": "2336", "name": "Handcar Peak", "natural": "peak"}}, {"name": "Hemionus Mountain", "latitude": 50.6160428, "longitude": -123.2725416, "elevation": 2277.0, "source": "osm", "_tags": {"ele": "2277", "name": "Hemionus Mountain", "name:en": "Hemionus Mountain", "name:lil": "K̓ét̓a", "natural": "peak"}}, {"name": "Mount Delilah", "latitude": 50.6285389, "longitude": -123.1839225, "elevation": 2599.0, "source": "osm", "_tags": {"ele": "2599", "name": "Mount Delilah", "natural": "peak"}}, {"name": "Railroad Mountain", "latitude": 50.5892008, "longitude": -123.0347097, "elevation": 1819.0, "source": "osm", "_tags": {"ele": "1819", "name": "Railroad Mountain", "natural": "peak"}}, {"name": "Sessel Mountain", "latitude": 50.6506785, "longitude": -123.176486, "elevation": 2735.0, "source": "osm", "_tags": {"ele": "2735", "name": "Sessel Mountain", "natural": "peak"}}, {"name": "Spindrift Mountain", "latitude": 50.6269011, "longitude": -123.3029136, "elevation": 2381.0, "source": "osm", "_tags": {"ele": "2381", "name": "Spindrift Mountain", "natural": "peak"}}, {"name": "Sugus Mountain", "latitude": 50.6450122, "longitude": -123.3020401, "elevation": 2477.0, "source": "osm", "_tags": {"ele": "2477", "name": "Sugus Mountain", "natural": "peak"}}, {"name": "Sunshine Mountain", "latitude": 50.723727, "longitude": -122.7721843, "elevation": 2306.0, "source": "osm", "_tags": {"ele": "2306", "name": "Sunshine Mountain", "natural": "peak", "source": "NRCan-CanVec-10.0"}}, {"name": "Mount Noel", "latitude": 50.7129184, "longitude": -122.85689, "elevation": 2541.0, "source": "osm", "_tags": {"ele": "2541", "name": "Mount Noel", "natural": "peak", "source": "NRCan-CanVec-10.0", "volcano:status": "extinct", "volcano:type": "complex", "wikipedia:en": "Mount Noel"}}, {"name": "Mount Ralph", "latitude": 50.3541029, "longitude": -123.666512, "elevation": 2527.0, "source": "osm", "_tags": {"ele": "2527", "name": "Mount Ralph", "natural": "peak", "source": "NRCan-CanVec-10.0"}}, {"name": "Mount Job", "latitude": 50.6246898, "longitude": -123.552195, "elevation": 2493.0, "source": "osm", "_tags": {"ele": "2493", "name": "Mount Job", "natural": "peak", "source": "NRCan-CanVec-10.0", "volcano:last_eruption": "pleistocene", "volcano:status": "extinct", "volcano:type": "stratovolcano", "wikidata": "Q6921514", "wikipedia": "en:Mount Job", "wikipedia:en": "Mount Job"}}, {"name": "Pylon Peak", "latitude": 50.5973103, "longitude": -123.519069, "elevation": 2481.0, "source": "osm", "_tags": {"ele": "2481", "name": "Pylon Peak", "natural": "peak", "source": "NRCan-CanVec-10.0", "volcano:last_eruption": "pleistocene", "volcano:status": "extinct", "volcano:type": "stratovolcano", "wikidata": "Q7263093", "wikipedia": "en:Pylon Peak (British Columbia)"}}, {"name": "Capricorn Mountain", "latitude": 50.6237993, "longitude": -123.531245, "elevation": 2551.0, "source": "osm", "_tags": {"ele": "2551", "name": "Capricorn Mountain", "natural": "peak", "source": "NRCan-CanVec-10.0", "volcano:last_eruption": "pleistocene", "volcano:status": "extinct", "volcano:type": "stratovolcano", "wikidata": "Q5036259", "wikipedia": "en:Capricorn Mountain"}}, {"name": "Salal Peak", "latitude": 50.773524, "longitude": -123.407351, "elevation": 2530.0, "source": "osm", "_tags": {"ele": "2530", "name": "Salal Peak", "natural": "peak"}}, {"name": "Cardtable Mountain", "latitude": 51.100278, "longitude": -122.949444, "elevation": 2525.0, "source": "osm", "_tags": {"ele": "2525", "name": "Cardtable Mountain", "natural": "peak", "source": "http://www4.rncan.gc.ca/search-place-names/search?lang=en"}}, {"name": "Mount Vic", "latitude": 51.208611, "longitude": -123.308056, "elevation": 3005.0, "source": "osm", "_tags": {"ele": "3005", "name": "Mount Vic", "name:clc": "Tŝi Nadilʔah", "natural": "peak", "source": "http://www4.rncan.gc.ca/search-place-names/search?lang=en", "source:name:clc": "https://www.tsilhqotin.ca/wp-content/uploads/2020/11/2020_09_TsiGeography_V4.pdf", "wikidata": "Q6924427"}}, {"name": "Eldorado Mountain", "latitude": 51.010278, "longitude": -122.8475, "elevation": 2449.0, "source": "osm", "_tags": {"ele": "2449", "name": "Eldorado Mountain", "natural": "peak", "source": "http://www4.rncan.gc.ca/search-place-names/search?lang=en"}}, {"name": "Relay Mountain", "latitude": 51.130833, "longitude": -122.987778, "elevation": 2709.0, "source": "osm", "_tags": {"ele": "2709", "name": "Relay Mountain", "natural": "peak", "source": "http://www4.rncan.gc.ca/search-place-names/search?lang=en"}}, {"name": "Red Hill", "latitude": 51.153333, "longitude": -123.04, "elevation": 2569.0, "source": "osm", "_tags": {"ele": "2569", "name": "Red Hill", "natural": "peak", "source": "http://www4.rncan.gc.ca/search-place-names/search?lang=en"}}, {"name": "Mount Sheba", "latitude": 51.033056, "longitude": -123.076111, "elevation": 2665.0, "source": "osm", "_tags": {"ele": "2665", "name": "Mount Sheba", "natural": "peak", "source": "http://www4.rncan.gc.ca/search-place-names/search?lang=en"}}, {"name": "Mount Cunningham", "latitude": 51.097778, "longitude": -123.028056, "elevation": 2546.0, "source": "osm", "_tags": {"ele": "2546", "name": "Mount Cunningham", "natural": "peak", "source": "http://www4.rncan.gc.ca/search-place-names/search?lang=en"}}, {"name": "Castle Peak", "latitude": 51.0811514, "longitude": -122.966716, "elevation": 2492.0, "source": "osm", "_tags": {"ele": "2492", "name": "Castle Peak", "natural": "peak", "source": "nrcan"}}, {"name": "Copper Mountain", "latitude": 50.978611, "longitude": -123.187778, "elevation": 2603.0, "source": "osm", "_tags": {"ele": "2603", "name": "Copper Mountain", "natural": "peak", "source": "http://www4.rncan.gc.ca/search-place-names/search?lang=en"}}, {"name": "Mount Davidson", "latitude": 51.139167, "longitude": -123.076389, "elevation": 2410.0, "source": "osm", "_tags": {"ele": "2410", "name": "Mount Davidson", "natural": "peak", "source": "http://www4.rncan.gc.ca/search-place-names/search?lang=en"}}, {"name": "Leckie Peak", "latitude": 50.943889, "longitude": -123.093889, "elevation": 2715.0, "source": "osm", "_tags": {"ele": "2715", "name": "Leckie Peak", "natural": "peak", "source": "http://www4.rncan.gc.ca/search-place-names/search?lang=en"}}, {"name": "Mount Solomon", "latitude": 51.0711649, "longitude": -123.1376717, "elevation": 2589.0, "source": "osm", "_tags": {"ele": "2589", "name": "Mount Solomon", "natural": "peak", "source": "canvec"}}, {"name": "Tepee Mountain", "latitude": 51.145556, "longitude": -122.955556, "elevation": 2507.0, "source": "osm", "_tags": {"ele": "2507", "name": "Tepee Mountain", "natural": "peak", "source": "http://www4.rncan.gc.ca/search-place-names/search?lang=en"}}, {"name": "White Cross Mountain", "latitude": 50.7862357, "longitude": -123.5178022, "elevation": 2394.0, "source": "osm", "_tags": {"ele": "2394", "name": "White Cross Mountain", "natural": "peak", "source": "NRCan-CanVec-10.0"}}, {"name": "Mount Henderson", "latitude": 50.8747015, "longitude": -123.6738491, "elevation": 2814.0, "source": "osm", "_tags": {"ele": "2814", "name": "Mount Henderson", "natural": "peak", "source": "NRCan-CanVec-10.0"}}, {"name": "Mount Wheatley", "latitude": 50.8954296, "longitude": -123.6111305, "elevation": 2688.0, "source": "osm", "_tags": {"ele": "2688", "name": "Mount Wheatley", "natural": "peak", "source": "NRCan-CanVec-10.0"}}, {"name": "Mount Tait", "latitude": 50.9030684, "longitude": -123.6566648, "elevation": 2710.0, "source": "osm", "_tags": {"ele": "2710", "name": "Mount Tait", "natural": "peak", "source": "NRCan-CanVec-10.0"}}, {"name": "Mount Dodds", "latitude": 50.8834294, "longitude": -123.6615003, "elevation": 2874.0, "source": "osm", "_tags": {"ele": "2874", "name": "Mount Dodds", "natural": "peak", "source": "NRCan-CanVec-10.0"}}, {"name": "Mount Heaney", "latitude": 50.9777373, "longitude": -123.6822463, "elevation": 2842.0, "source": "osm", "_tags": {"ele": "2842", "name": "Mount Heaney", "natural": "peak", "source": "NRCan-CanVec-10.0"}}, {"name": "Mount Ethelweard", "latitude": 50.7740215, "longitude": -123.3231998, "elevation": 2819.0, "source": "osm", "_tags": {"ele": "2819", "name": "Mount Ethelweard", "natural": "peak", "source": "NRCan-CanVec-10.0"}}, {"name": "Icemaker Mountain", "latitude": 50.7505746, "longitude": -123.3446841, "elevation": 2745.0, "source": "osm", "_tags": {"ele": "2745", "name": "Icemaker Mountain", "natural": "peak", "source": "NRCan-CanVec-10.0"}}, {"name": "Mount Guthrum", "latitude": 50.7543606, "longitude": -123.3627259, "elevation": 2705.0, "source": "osm", "_tags": {"ele": "2705", "name": "Mount Guthrum", "natural": "peak", "source": "NRCan-CanVec-10.0"}}, {"name": "Ochre Mountain", "latitude": 50.7974188, "longitude": -123.3639347, "elevation": 2543.0, "source": "osm", "_tags": {"ele": "2543", "name": "Ochre Mountain", "natural": "peak", "source": "NRCan-CanVec-10.0"}}, {"name": "Mount Vayu", "latitude": 50.7701454, "longitude": -123.1395878, "elevation": 2794.0, "source": "osm", "_tags": {"ele": "2794", "name": "Mount Vayu", "natural": "peak", "source": "NRCan-CanVec-10.0"}}, {"name": "Scherle Peak", "latitude": 50.8667784, "longitude": -123.1557404, "elevation": 2635.0, "source": "osm", "_tags": {"ele": "2635", "name": "Scherle Peak", "natural": "peak", "source": "NRCan-CanVec-10.0"}}, {"name": "Mount John Decker", "latitude": 50.5752125, "longitude": -122.7039545, "elevation": 2209.0, "source": "osm", "_tags": {"ele": "2209", "name": "Mount John Decker", "natural": "peak"}}, {"name": "", "latitude": 50.5771415, "longitude": -122.7060301, "elevation": 2184.0, "source": "osm", "_tags": {"ele": "2184", "natural": "peak"}}, {"name": "", "latitude": 50.5863508, "longitude": -122.7119018, "elevation": 2124.0, "source": "osm", "_tags": {"ele": "2124", "natural": "peak"}}, {"name": "Tolkien S1", "latitude": 50.5939114, "longitude": -122.707503, "elevation": 2229.0, "source": "osm", "_tags": {"ele": "2229", "name": "Tolkien S1", "natural": "peak"}}, {"name": "", "latitude": 50.5919771, "longitude": -122.6965381, "elevation": 2199.0, "source": "osm", "_tags": {"ele": "2199", "natural": "peak"}}, {"name": "Tolkien Peak", "latitude": 50.6067438, "longitude": -122.7113643, "elevation": 2380.0, "source": "osm", "_tags": {"ele": "2380", "name": "Tolkien Peak", "natural": "peak"}}, {"name": "", "latitude": 50.6053548, "longitude": -122.7273288, "elevation": 2233.0, "source": "osm", "_tags": {"ele": "2233", "natural": "peak"}}, {"name": "", "latitude": 50.6379951, "longitude": -122.7747526, "elevation": 2127.0, "source": "osm", "_tags": {"ele": "2127", "natural": "peak"}}, {"name": "", "latitude": 50.6444725, "longitude": -122.7987637, "elevation": 2332.0, "source": "osm", "_tags": {"ele": "2332", "natural": "peak"}}, {"name": "", "latitude": 50.6464046, "longitude": -122.7939786, "elevation": 2327.0, "source": "osm", "_tags": {"ele": "2327", "natural": "peak"}}, {"name": "", "latitude": 50.65111, "longitude": -122.7845752, "elevation": 2296.0, "source": "osm", "_tags": {"ele": "2296", "natural": "peak"}}, {"name": "", "latitude": 50.6668818, "longitude": -122.7462942, "elevation": 2175.0, "source": "osm", "_tags": {"ele": "2175", "natural": "peak"}}, {"name": "", "latitude": 50.6728457, "longitude": -122.7255029, "elevation": 2489.0, "source": "osm", "_tags": {"ele": "2489", "natural": "peak"}}, {"name": "", "latitude": 50.6891613, "longitude": -122.7338928, "elevation": 2526.0, "source": "osm", "_tags": {"ele": "2526", "natural": "peak"}}, {"name": "", "latitude": 50.6974665, "longitude": -122.7358455, "elevation": 2604.0, "source": "osm", "_tags": {"ele": "2604", "natural": "peak"}}, {"name": "", "latitude": 50.6918801, "longitude": -122.7012986, "elevation": 2343.0, "source": "osm", "_tags": {"ele": "2343", "natural": "peak"}}, {"name": "", "latitude": 50.6869319, "longitude": -122.701878, "elevation": 2251.0, "source": "osm", "_tags": {"ele": "2251", "natural": "peak"}}, {"name": "", "latitude": 50.6843352, "longitude": -122.7012342, "elevation": 2251.0, "source": "osm", "_tags": {"ele": "2251", "natural": "peak"}}, {"name": "", "latitude": 50.6984451, "longitude": -122.6932091, "elevation": 2362.0, "source": "osm", "_tags": {"ele": "2362", "natural": "peak"}}, {"name": "", "latitude": 50.5713542, "longitude": -122.6954521, "elevation": 2063.0, "source": "osm", "_tags": {"ele": "2063", "natural": "peak"}}, {"name": "", "latitude": 50.569104, "longitude": -122.8177603, "elevation": 2337.0, "source": "osm", "_tags": {"ele": "2337", "natural": "peak"}}, {"name": "", "latitude": 50.5804753, "longitude": -122.8259011, "elevation": 2374.0, "source": "osm", "_tags": {"ele": "2374", "natural": "peak"}}, {"name": "", "latitude": 50.5833473, "longitude": -122.8522089, "elevation": 2243.0, "source": "osm", "_tags": {"ele": "2243", "natural": "peak"}}, {"name": "", "latitude": 50.5811298, "longitude": -122.8449166, "elevation": 2330.0, "source": "osm", "_tags": {"ele": "2330", "natural": "peak"}}, {"name": "Sockeye Horn/Mystery Peak", "latitude": 50.6057782, "longitude": -122.8259081, "elevation": 2498.0, "source": "osm", "_tags": {"ele": "2498", "name": "Sockeye Horn/Mystery Peak", "natural": "peak"}}, {"name": "", "latitude": 50.6113557, "longitude": -122.8091265, "elevation": 2223.0, "source": "osm", "_tags": {"ele": "2223", "natural": "peak"}}, {"name": "Beaujolais Peak", "latitude": 50.6176024, "longitude": -122.8444328, "elevation": 2433.0, "source": "osm", "_tags": {"ele": "2433", "name": "Beaujolais Peak", "natural": "peak"}}, {"name": "", "latitude": 51.0696045, "longitude": -123.1204943, "elevation": 2566.0, "source": "osm", "_tags": {"ele": "2566", "natural": "peak"}}, {"name": "Mount Penrose", "latitude": 50.8703245, "longitude": -122.9602078, "elevation": 2610.0, "source": "osm", "_tags": {"ele": "2610", "name": "Mount Penrose", "natural": "peak", "source": "NRCan-CanVec-10.0"}}, {"name": "Mount Zola", "latitude": 50.8518303, "longitude": -122.8669909, "elevation": 1275.0, "source": "osm", "_tags": {"ele": "1275", "name": "Mount Zola", "natural": "peak", "source": "NRCan-CanVec-10.0"}}, {"name": "Mount Fergusson", "latitude": 50.7851874, "longitude": -122.7513584, "elevation": 2571.0, "source": "osm", "_tags": {"ele": "2571", "name": "Mount Fergusson", "natural": "peak", "source": "NRCan-CanVec-10.0"}}, {"name": "Dickson Peak", "latitude": 50.8937377, "longitude": -122.9883481, "elevation": 2814.0, "source": "osm", "_tags": {"ele": "2814", "name": "Dickson Peak", "natural": "peak", "source": "NRCan-CanVec-10.0"}}, {"name": "Mount Truax", "latitude": 50.8201258, "longitude": -122.7178935, "elevation": 2858.0, "source": "osm", "_tags": {"ele": "2858", "name": "Mount Truax", "natural": "peak", "source": "NRCan-CanVec-10.0"}}, {"name": "", "latitude": 51.0910976, "longitude": -122.959714, "elevation": 2424.0, "source": "osm", "_tags": {"ele": "2424", "natural": "peak"}}, {"name": "", "latitude": 51.0762754, "longitude": -122.8722096, "elevation": 2219.0, "source": "osm", "_tags": {"ele": "2219", "natural": "peak"}}, {"name": "", "latitude": 51.0821647, "longitude": -122.9299508, "elevation": 2431.0, "source": "osm", "_tags": {"ele": "2431", "natural": "peak"}}, {"name": "Mount McClure", "latitude": 51.080913, "longitude": -123.477013, "elevation": 2685.0, "source": "osm", "_tags": {"ele": "2685", "name": "Mount McClure", "natural": "peak", "source": "NRCan-CanVec-10.0"}}, {"name": "Denain Spur", "latitude": 51.0897736, "longitude": -123.2522381, "elevation": 2533.0, "source": "osm", "_tags": {"ele": "2533", "name": "Denain Spur", "natural": "peak", "source": "NRCan-CanVec-10.0"}}, {"name": "Rae Spur", "latitude": 51.11312, "longitude": -123.2923504, "elevation": 2393.0, "source": "osm", "_tags": {"ele": "2393", "name": "Rae Spur", "natural": "peak", "source": "NRCan-CanVec-10.0"}}, {"name": "Feo Spur", "latitude": 51.1014278, "longitude": -123.2818577, "elevation": 2237.0, "source": "osm", "_tags": {"ele": "2237", "name": "Feo Spur", "natural": "peak", "source": "NRCan-CanVec-10.0"}}, {"name": "Wilson Ridge", "latitude": 51.0389183, "longitude": -123.2674952, "elevation": 2708.0, "source": "osm", "_tags": {"ele": "2708", "name": "Wilson Ridge", "natural": "peak", "source": "NRCan-CanVec-10.0"}}, {"name": "Porteau Mountain", "latitude": 51.0315447, "longitude": -123.2528608, "elevation": 2734.0, "source": "osm", "_tags": {"ele": "2734", "name": "Porteau Mountain", "natural": "peak", "source": "NRCan-CanVec-10.0"}}, {"name": "Taseko Mountain", "latitude": 51.2335517, "longitude": -123.4726716, "elevation": 3035.0, "source": "osm", "_tags": {"ele": "3035", "name": "Taseko Mountain", "natural": "peak", "source": "NRCan-CanVec-10.0", "wikidata": "Q7687132", "wikipedia": "en:Taseko Mountain"}}, {"name": "Battlement Ridge", "latitude": 51.134032, "longitude": -123.3113855, "elevation": 2341.0, "source": "osm", "_tags": {"ele": "2341", "name": "Battlement Ridge", "natural": "peak", "source": "NRCan-CanVec-10.0"}}, {"name": "Dorrie Peak", "latitude": 51.1282343, "longitude": -123.223713, "elevation": 2830.0, "source": "osm", "_tags": {"ele": "2830", "name": "Dorrie Peak", "natural": "peak", "source": "NRCan-CanVec-10.0"}}, {"name": "Cluckata Ridge", "latitude": 51.1581577, "longitude": -123.2268569, "elevation": 2515.0, "source": "osm", "_tags": {"ele": "2515", "name": "Cluckata Ridge", "natural": "peak", "source": "NRCan-CanVec-10.0"}}, {"name": "Dash Hill", "latitude": 51.2106709, "longitude": -123.0668195, "elevation": 2507.0, "source": "osm", "_tags": {"ele": "2507", "name": "Dash Hill", "natural": "peak", "source": "NRCan-CanVec-10.0"}}, {"name": "Elbow Mountain", "latitude": 51.1479163, "longitude": -123.1179729, "elevation": 2449.0, "source": "osm", "_tags": {"ele": "2449", "name": "Elbow Mountain", "natural": "peak", "source": "NRCan-CanVec-10.0"}}, {"name": "Warner Ridge", "latitude": 51.1034851, "longitude": -123.23496, "elevation": 2641.0, "source": "osm", "_tags": {"ele": "2641", "name": "Warner Ridge", "natural": "peak", "source": "NRCan-CanVec-10.0"}}, {"name": "Trail Ridge", "latitude": 51.1007707, "longitude": -123.1587464, "elevation": 2601.0, "source": "osm", "_tags": {"ele": "2601", "name": "Trail Ridge", "natural": "peak", "source": "NRCan-CanVec-10.0"}}, {"name": "Mount Warner", "latitude": 51.0724833, "longitude": -123.2068666, "elevation": 2816.0, "source": "osm", "_tags": {"ele": "2816", "name": "Mount Warner", "natural": "peak", "source": "NRCan-CanVec-10.0"}}, {"name": "Warner Ridge", "latitude": 51.0816831, "longitude": -123.2020566, "elevation": 2673.0, "source": "osm", "_tags": {"ele": "2673", "name": "Warner Ridge", "natural": "peak", "source": "NRCan-CanVec-10.0"}}, {"name": "", "latitude": 50.8819994, "longitude": -122.9623533, "elevation": 2442.0, "source": "osm", "_tags": {"ele": "2442", "natural": "peak"}}, {"name": "", "latitude": 50.8724, "longitude": -122.9484916, "elevation": 2487.0, "source": "osm", "_tags": {"ele": "2487", "natural": "peak"}}, {"name": "", "latitude": 50.877904, "longitude": -122.9936385, "elevation": 2604.0, "source": "osm", "_tags": {"ele": "2604", "natural": "peak"}}, {"name": "Mount McLeod", "latitude": 51.065047, "longitude": -123.6236509, "elevation": 2799.0, "source": "osm", "_tags": {"ele": "2799", "name": "Mount McLeod", "natural": "peak", "source": "NRCan-CanVec-10.0"}}, {"name": "Mount Pilkington", "latitude": 51.1264358, "longitude": -123.6582849, "elevation": 2823.0, "source": "osm", "_tags": {"ele": "2823", "name": "Mount Pilkington", "natural": "peak", "source": "NRCan-CanVec-10.0"}}, {"name": "", "latitude": 50.3128133, "longitude": -123.295541, "elevation": 2336.0, "source": "osm", "_tags": {"ele": "2336", "natural": "peak"}}, {"name": "", "latitude": 50.3139072, "longitude": -123.2153365, "elevation": 2234.0, "source": "osm", "_tags": {"ele": "2234", "natural": "peak"}}, {"name": "", "latitude": 50.3223888, "longitude": -123.1771445, "elevation": 2357.0, "source": "osm", "_tags": {"ele": "2357", "natural": "peak"}}, {"name": "", "latitude": 50.6153884, "longitude": -122.7073222, "elevation": 2209.0, "source": "osm", "_tags": {"ele": "2209", "natural": "peak"}}, {"name": "", "latitude": 50.612821, "longitude": -122.7857149, "elevation": 2212.0, "source": "osm", "_tags": {"ele": "2212", "natural": "peak"}}, {"name": "Devastator Peak", "latitude": 50.5927133, "longitude": -123.530857, "elevation": 2327.0, "source": "osm", "_tags": {"ele": "2327", "name": "Devastator Peak", "natural": "peak", "volcano:last_eruption": "pleistocene", "volcano:status": "extinct", "volcano:type": "volcanic plug", "wikidata": "Q5266591", "wikipedia": "en:Devastator Peak", "wikipedia:en": "Devastator Peak"}}, {"name": "Sugarloaf Mountain", "latitude": 50.4073679, "longitude": -123.0041839, "elevation": 2400.0, "source": "osm", "_tags": {"ele": "2400", "name": "Sugarloaf Mountain", "name:en": "Sugarloaf Mountain", "name:lil": "Q̓wexwq̓wíxaltcw", "natural": "peak"}}, {"name": "Mount Willson", "latitude": 50.3039486, "longitude": -123.6621815, "elevation": 2291.0, "source": "osm", "_tags": {"ele": "2291", "name": "Mount Willson", "natural": "peak"}}, {"name": "Nea Peak", "latitude": 50.997586, "longitude": -122.878922, "elevation": 2490.0, "source": "osm", "_tags": {"ele": "2490", "informal": "yes", "name": "Nea Peak", "natural": "peak"}}, {"name": "Taylor Peak", "latitude": 50.9810231, "longitude": -122.8472775, "elevation": 2259.0, "source": "osm", "_tags": {"ele": "2259", "informal": "yes", "name": "Taylor Peak", "natural": "peak"}}, {"name": "Athelney Peak", "latitude": 50.8087797, "longitude": -123.3032395, "elevation": 2608.0, "source": "osm", "_tags": {"ele": "2608", "name": "Athelney Peak", "natural": "peak"}}, {"name": "Frozen Boot", "latitude": 50.5104482, "longitude": -123.3977252, "elevation": 2579.0, "source": "osm", "_tags": {"ele": "2579", "informal": "yes", "name": "Frozen Boot", "natural": "peak"}}, {"name": "Madhorse Mountain", "latitude": 50.513711, "longitude": -123.3729826, "elevation": 2511.0, "source": "osm", "_tags": {"ele": "2511", "informal": "yes", "name": "Madhorse Mountain", "natural": "peak"}}, {"name": "Uriah's Heap", "latitude": 50.5429895, "longitude": -123.3964868, "elevation": 2621.0, "source": "osm", "_tags": {"ele": "2621", "informal": "yes", "name": "Uriah's Heap", "natural": "peak"}}, {"name": "Zygo Peak", "latitude": 50.4980673, "longitude": -123.4039739, "elevation": 2623.0, "source": "osm", "_tags": {"ele": "2623", "informal": "yes", "name": "Zygo Peak", "natural": "peak"}}, {"name": "Earth Peak", "latitude": 50.4890244, "longitude": -123.4285642, "elevation": 2375.0, "source": "osm", "_tags": {"ele": "2375", "informal": "yes", "name": "Earth Peak", "natural": "peak"}}, {"name": "Three Stooges", "latitude": 50.487994, "longitude": -123.445136, "elevation": 2441.0, "source": "osm", "_tags": {"ele": "2441", "informal": "yes", "name": "Three Stooges", "natural": "peak"}}, {"name": "Two Doctor Peak", "latitude": 50.5036444, "longitude": -123.4643548, "elevation": 2330.0, "source": "osm", "_tags": {"ele": "2330", "informal": "yes", "name": "Two Doctor Peak", "natural": "peak"}}, {"name": "The Meager Obelisk", "latitude": 50.507068, "longitude": -123.4644478, "elevation": 2225.0, "source": "osm", "_tags": {"ele": "2225", "informal": "yes", "name": "The Meager Obelisk", "natural": "peak"}}, {"name": "Pine Bump", "latitude": 50.5177173, "longitude": -123.4518516, "elevation": 2020.0, "source": "osm", "_tags": {"ele": "2020", "informal": "yes", "name": "Pine Bump", "natural": "peak"}}, {"name": "", "latitude": 50.7911387, "longitude": -122.7120879, "elevation": 2599.0, "source": "osm", "_tags": {"ele": "2599", "natural": "peak"}}, {"name": "Tuber Hill", "latitude": 50.9037429, "longitude": -123.3976555, "elevation": 2327.0, "source": "osm", "_tags": {"ele": "2327", "name": "Tuber Hill", "natural": "peak"}}, {"name": "Glacier View Peak", "latitude": 50.898417, "longitude": -123.3912609, "elevation": 2324.0, "source": "osm", "_tags": {"ele": "2324", "name": "Glacier View Peak", "natural": "peak"}}, {"name": "Sorcerer Mountain", "latitude": 50.9302674, "longitude": -123.2941869, "elevation": 2603.0, "source": "osm", "_tags": {"ele": "2603", "name": "Sorcerer Mountain", "natural": "peak"}}, {"name": "", "latitude": 50.9320123, "longitude": -123.2732954, "elevation": 2466.0, "source": "osm", "_tags": {"ele": "2466", "natural": "peak"}}, {"name": "Slim Mountain", "latitude": 50.9245362, "longitude": -123.242988, "elevation": 2509.0, "source": "osm", "_tags": {"ele": "2509", "name": "Slim Mountain", "natural": "peak"}}, {"name": "Gun Mountain", "latitude": 50.9792939, "longitude": -123.2843288, "elevation": 2623.0, "source": "osm", "_tags": {"ele": "2623", "name": "Gun Mountain", "natural": "peak"}}, {"name": "Porcupine Mountain", "latitude": 50.864105, "longitude": -123.1226056, "elevation": 2495.0, "source": "osm", "_tags": {"ele": "2495", "name": "Porcupine Mountain", "natural": "peak"}}, {"name": "Ursus Mountain", "latitude": 50.8801822, "longitude": -123.1648503, "elevation": 2606.0, "source": "osm", "_tags": {"ele": "2606", "name": "Ursus Mountain", "natural": "peak"}}, {"name": "Tillworth Mountain", "latitude": 50.886381, "longitude": -123.1951991, "elevation": 2626.0, "source": "osm", "_tags": {"ele": "2626", "name": "Tillworth Mountain", "natural": "peak"}}, {"name": "Marrow Mountain", "latitude": 50.8861377, "longitude": -123.2386009, "elevation": 2470.0, "source": "osm", "_tags": {"ele": "2470", "name": "Marrow Mountain", "natural": "peak"}}, {"name": "Tillicum Mountain", "latitude": 50.877454, "longitude": -123.2587184, "elevation": 2529.0, "source": "osm", "_tags": {"ele": "2529", "name": "Tillicum Mountain", "natural": "peak"}}, {"name": "Ipoo Mountain", "latitude": 50.8722148, "longitude": -123.2632657, "elevation": 2522.0, "source": "osm", "_tags": {"ele": "2522", "name": "Ipoo Mountain", "natural": "peak"}}, {"name": "Sxul Ridge", "latitude": 50.3340923, "longitude": -122.693979, "elevation": 639.0, "source": "osm", "_tags": {"ele": "639", "name": "Sxul Ridge", "name:en": "Sxul Ridge", "name:lil": "Xet, ólacw Ridge", "natural": "peak"}}, {"name": "", "latitude": 50.4574945, "longitude": -122.814582, "elevation": null, "source": "osm", "_tags": {"natural": "peak"}}, {"name": "Gingerbread Peak", "latitude": 50.5126895, "longitude": -122.9014009, "elevation": 2178.0, "source": "osm", "_tags": {"ele": "2178", "name": "Gingerbread Peak", "natural": "peak"}}, {"name": "", "latitude": 50.4771882, "longitude": -122.8581038, "elevation": 2178.0, "source": "osm", "_tags": {"ele": "2178", "natural": "peak"}}, {"name": "Fowl Peak", "latitude": 50.4479266, "longitude": -122.8174808, "elevation": 2218.0, "source": "osm", "_tags": {"ele": "2218", "name": "Fowl Peak", "natural": "peak"}}, {"name": "", "latitude": 50.4449417, "longitude": -122.8109906, "elevation": 2200.0, "source": "osm", "_tags": {"ele": "2200", "natural": "peak"}}, {"name": "", "latitude": 50.4695068, "longitude": -122.7931214, "elevation": 2210.0, "source": "osm", "_tags": {"ele": "2210", "natural": "peak"}}, {"name": "Mount McLeod", "latitude": 50.5217188, "longitude": -122.9217289, "elevation": 2158.0, "source": "osm", "_tags": {"ele": "2158", "name": "Mount McLeod", "natural": "peak", "old_name": "Crown Mountain"}}, {"name": "Mount Pauline", "latitude": 50.5276283, "longitude": -123.0219661, "elevation": 1087.0, "source": "osm", "_tags": {"ele": "1087", "name": "Mount Pauline", "natural": "peak"}}, {"name": "Dora Peak", "latitude": 50.517744, "longitude": -122.8837754, "elevation": 2118.0, "source": "osm", "_tags": {"ele": "2118", "name": "Dora Peak", "natural": "peak"}}, {"name": "The Camels Back", "latitude": 50.4858511, "longitude": -123.0055843, "elevation": 1338.0, "source": "osm", "_tags": {"ele": "1338", "name": "The Camels Back", "natural": "peak"}}, {"name": "Qatsqílnesten", "latitude": 50.3672076, "longitude": -122.7022686, "elevation": 1418.0, "source": "osm", "_tags": {"ele": "1418", "name": "Qatsqílnesten", "natural": "peak"}}, {"name": "", "latitude": 50.3070072, "longitude": -122.7946843, "elevation": 463.0, "source": "osm", "_tags": {"ele": "463", "name:en": "One Mile Lake Hill", "name:lil": "Spul̓", "natural": "peak"}}, {"name": "Vogel Peak", "latitude": 50.4250191, "longitude": -122.7451461, "elevation": 1966.0, "source": "osm", "_tags": {"ele": "1966", "name": "Vogel Peak", "name:en": "Vogel Peak", "natural": "peak"}}, {"name": "Yáy̓celem", "latitude": 50.4123395, "longitude": -122.9965665, "elevation": null, "source": "osm", "_tags": {"name": "Yáy̓celem", "natural": "peak"}}, {"name": "", "latitude": 50.2888608, "longitude": -123.4662181, "elevation": 2230.0, "source": "osm", "_tags": {"ele": "2230", "natural": "peak", "note": "Rough elevation."}}, {"name": "Valpolicella Peak", "latitude": 50.6335149, "longitude": -122.8378397, "elevation": 2370.0, "source": "osm", "_tags": {"ele": "2370", "name": "Valpolicella Peak", "natural": "peak"}}, {"name": "Merlot Peak", "latitude": 50.6257011, "longitude": -122.8568893, "elevation": 2290.0, "source": "osm", "_tags": {"ele": "2290", "name": "Merlot Peak", "natural": "peak"}}, {"name": "Brown Molar", "latitude": 50.6045417, "longitude": -122.9034815, "elevation": 2080.0, "source": "osm", "_tags": {"ele": "2080", "name": "Brown Molar", "natural": "peak"}}, {"name": "Canine", "latitude": 50.6009755, "longitude": -122.9250615, "elevation": 2160.0, "source": "osm", "_tags": {"ele": "2160", "name": "Canine", "natural": "peak"}}, {"name": "Verdejo Peak", "latitude": 50.653669, "longitude": -122.8330807, "elevation": 2460.0, "source": "osm", "_tags": {"ele": "2460", "name": "Verdejo Peak", "natural": "peak"}}, {"name": "The Incisors", "latitude": 50.6698076, "longitude": -122.8381896, "elevation": 2240.0, "source": "osm", "_tags": {"ele": "2240", "name": "The Incisors", "natural": "peak"}}]