[{"name": "Tunnel Mountain", "latitude": 51.1775391, "longitude": -115.5537599, "elevation": 1692.0, "source": "osm", "_tags": {"alt_name": "Sleeping Buffalo; Sacred Buffalo Guardian Mountain", "ele": "1692", "name": "Tunnel Mountain", "name:bla": "Iinii Istako", "name:en": "Tunnel Mountain", "name:fr": "Mont Tunnel", "name:sto": "Eyarhey Tatanga Woweyahgey Wakân", "natural": "peak", "old_name": "The Hill", "wikidata": "Q7853288", "wikipedia": "en:Tunnel Mountain"}}, {"name": "Surveyor's Ridge", "latitude": 50.6935574, "longitude": -114.7464308, "elevation": 2175.0, "source": "osm", "_tags": {"ele": "2175", "name": "Surveyor's Ridge", "natural": "peak"}}, {"name": "Mount Lipsett", "latitude": 50.54741, "longitude": -114.92601, "elevation": 2584.0, "source": "osm", "_tags": {"ele": "2584", "name": "Mount Lipsett", "natural": "peak", "source": "http://kananaskistrails.com/mountain-heights/2018/"}}, {"name": "Ha Ling Peak", "latitude": 51.06428, "longitude": -115.39949, "elevation": 2474.0, "source": "osm", "_tags": {"ele": "2474", "name": "Ha Ling Peak", "natural": "peak", "source": "http://kananaskistrails.com/mountain-heights/2018/"}}, {"name": "Grotto Mountain", "latitude": 51.087915, "longitude": -115.267565, "elevation": 2706.0, "source": "osm", "_tags": {"ele": "2706", "name": "Grotto Mountain", "natural": "peak", "source": "Calgary Area Trail Mapping Project", "wikidata": "Q5610805", "wikipedia": "en:Grotto Mountain"}}, {"name": "Rundle 1", "latitude": 51.1482234, "longitude": -115.4931385, "elevation": 2949.0, "source": "osm", "_tags": {"ele": "2949", "name": "Rundle 1", "natural": "peak"}}, {"name": "The Fortress", "latitude": 50.8284238, "longitude": -115.2432354, "elevation": 3016.0, "source": "osm", "_tags": {"ele": "3016", "name": "The Fortress", "natural": "peak", "source": "http://kananaskistrails.com/mountain-heights/2018/"}}, {"name": "Fortress Ridge", "latitude": 50.8568525, "longitude": -115.2046248, "elevation": 2287.0, "source": "osm", "_tags": {"ele": "2287", "name": "Fortress Ridge", "natural": "peak"}}, {"name": "Mount Yamnuska", "latitude": 51.123586, "longitude": -115.1180908, "elevation": 2232.0, "source": "osm", "_tags": {"alt_name": "Mount Laurie", "ele": "2232", "name": "Mount Yamnuska", "name:sto": "Îyâmnathka", "natural": "peak", "official_name": "Mount John Laurie", "source": "http://kananaskistrails.com/mountain-heights/2018/"}}, {"name": "Door Jamb Mountain", "latitude": 51.08724, "longitude": -115.14213, "elevation": 1996.0, "source": "osm", "_tags": {"ele": "1996", "name": "Door Jamb Mountain", "natural": "peak", "source": "Calgary Area Trail Mapping Project"}}, {"name": "Loder Peak", "latitude": 51.0928565, "longitude": -115.1418387, "elevation": 2088.0, "source": "osm", "_tags": {"ele": "2088", "name": "Loder Peak", "natural": "peak", "source": "Calgary Area Trail Mapping Project"}}, {"name": "Mount Allan", "latitude": 50.95931, "longitude": -115.22474, "elevation": 2832.0, "source": "osm", "_tags": {"ele": "2832", "name": "Mount Allan", "natural": "peak", "source": "http://kananaskistrails.com/mountain-heights/2018/"}}, {"name": "Eagle Hill", "latitude": 51.07771, "longitude": -114.92214, "elevation": 1730.0, "source": "osm", "_tags": {"ele": "1730", "name": "Eagle Hill", "natural": "peak", "source": "Calgary Area Trail Mapping Project"}}, {"name": "Deer Ridge", "latitude": 51.04317, "longitude": -114.8877571, "elevation": 1800.0, "source": "osm", "_tags": {"ele": "1800", "name": "Deer Ridge", "natural": "peak", "source": "Calgary Area Trail Mapping Project"}}, {"name": "Forgetmenot Ridge North Summit", "latitude": 50.794895, "longitude": -114.812707, "elevation": 2229.0, "source": "osm", "_tags": {"ele": "2229", "name": "Forgetmenot Ridge North Summit", "natural": "peak", "source": "Calgary Area Trail Mapping Project"}}, {"name": "Prairie Mountain", "latitude": 50.88846, "longitude": -114.80654, "elevation": 2205.0, "source": "osm", "_tags": {"ele": "2205", "name": "Prairie Mountain", "natural": "peak", "source": "http://kananaskistrails.com/mountain-heights/2018/"}}, {"name": "Buggeration Hill", "latitude": 50.9201298, "longitude": -114.7796241, "elevation": 2008.0, "source": "osm", "_tags": {"ele": "2008", "name": "Buggeration Hill", "natural": "peak", "source:name": "Common local usage"}}, {"name": "Powderface East Ridge", "latitude": 50.826829, "longitude": -114.8366021, "elevation": 2143.0, "source": "osm", "_tags": {"ele": "2143", "man_made": "flagpole", "name": "Powderface East Ridge", "natural": "peak", "note": "Elev from GPS seems high; SRTM shows lower."}}, {"name": "Boundary Peak", "latitude": 50.9594383, "longitude": -115.0039802, "elevation": 2400.0, "source": "osm", "_tags": {"ele": "2400", "name": "Boundary Peak", "natural": "peak"}}, {"name": "Red Man Mountain", "latitude": 50.788333, "longitude": -115.533056, "elevation": 2905.0, "source": "osm", "_tags": {"ele": "2905", "name": "Red Man Mountain", "natural": "peak", "source:location": "https://geonames.nrcan.gc.ca/search-place-names/unique?id=JBPTH", "wikidata": "Q7304563", "wikipedia": "en:Red Man Mountain"}}, {"name": "Stoney Lookout Mountain", "latitude": 51.2005879, "longitude": -115.576385, "elevation": 1868.0, "source": "osm", "_tags": {"ele": "1868", "name": "Stoney Lookout Mountain", "natural": "peak"}}, {"name": "Exshaw Mountain", "latitude": 51.0742873, "longitude": -115.1571179, "elevation": 1783.0, "source": "osm", "_tags": {"ele": "1783", "name": "Exshaw Mountain", "natural": "peak"}}, {"name": "Cox Hill", "latitude": 50.9902077, "longitude": -114.9074963, "elevation": 2211.0, "source": "osm", "_tags": {"ele": "2211", "name": "Cox Hill", "natural": "peak", "source": "http://kananaskistrails.com/mountain-heights/2018/"}}, {"name": "Jumpingpound Mountain", "latitude": 50.9507188, "longitude": -114.9075186, "elevation": 2224.0, "source": "osm", "_tags": {"ele": "2224", "name": "Jumpingpound Mountain", "natural": "peak", "source": "http://kananaskistrails.com/mountain-heights/2018/", "wikidata": "Q6311337", "wikipedia": "en:Jumpingpound Mountain"}}, {"name": "Mount Bryant", "latitude": 50.9011918, "longitude": -114.9912639, "elevation": 2600.0, "source": "osm", "_tags": {"ele": "2600", "name": "Mount Bryant", "natural": "peak", "source": "NRCan-CanVec-7.0"}}, {"name": "Moose Mountain", "latitude": 50.9389562, "longitude": -114.837306, "elevation": 2437.0, "source": "osm", "_tags": {"ele": "2437", "name": "Moose Mountain", "natural": "peak", "source": "NRCan-CanVec-7.0"}}, {"name": "Forgetmenot Mountain", "latitude": 50.7523321, "longitude": -114.7833849, "elevation": 2332.0, "source": "osm", "_tags": {"ele": "2332", "name": "Forgetmenot Mountain", "natural": "peak", "source": "NRCan-CanVec-7.0"}}, {"name": "Mount Remus", "latitude": 50.7947041, "longitude": -114.9715309, "elevation": 2688.0, "source": "osm", "_tags": {"ele": "2688", "name": "Mount Remus", "natural": "peak", "source": "NRCan-CanVec-7.0"}}, {"name": "Mount Romulus", "latitude": 50.788622, "longitude": -114.9928001, "elevation": 2832.0, "source": "osm", "_tags": {"ele": "2832", "name": "Mount Romulus", "natural": "peak", "source": "NRCan-CanVec-7.0"}}, {"name": "Nihahi Ridge", "latitude": 50.8591515, "longitude": -114.9299874, "elevation": 2545.0, "source": "osm", "_tags": {"ele": "2545", "name": "Nihahi Ridge", "natural": "peak", "source": "NRCan-CanVec-7.0"}}, {"name": "Mount Glasgow", "latitude": 50.7556858, "longitude": -114.9316621, "elevation": 2935.0, "source": "osm", "_tags": {"ele": "2935", "name": "Mount Glasgow", "natural": "peak", "source": "NRCan-CanVec-7.0", "wikidata": "Q22432683", "wikipedia": "en:Mount Glasgow"}}, {"name": "Mount Howard", "latitude": 50.8492413, "longitude": -114.9839819, "elevation": 2777.0, "source": "osm", "_tags": {"ele": "2777", "name": "Mount Howard", "natural": "peak", "source": "NRCan-CanVec-7.0"}}, {"name": "Banded Peak", "latitude": 50.718232, "longitude": -114.9177594, "elevation": 2934.0, "source": "osm", "_tags": {"ele": "2934", "name": "Banded Peak", "natural": "peak", "source": "NRCan-CanVec-7.0"}}, {"name": "Bluerock Mountain", "latitude": 50.6668769, "longitude": -114.8061324, "elevation": 2789.0, "source": "osm", "_tags": {"ele": "2789", "name": "Bluerock Mountain", "natural": "peak", "source": "NRCan-CanVec-7.0"}}, {"name": "Cougar Mountain", "latitude": 50.6739151, "longitude": -114.8989393, "elevation": 2863.0, "source": "osm", "_tags": {"ele": "2863", "name": "Cougar Mountain", "natural": "peak", "source": "NRCan-CanVec-7.0"}}, {"name": "Mount Burns", "latitude": 50.6417481, "longitude": -114.8605103, "elevation": 2936.0, "source": "osm", "_tags": {"ele": "2936", "name": "Mount Burns", "natural": "peak", "source": "NRCan-CanVec-7.0"}}, {"name": "Mount Cornwall", "latitude": 50.7383244, "longitude": -114.946851, "elevation": 2970.0, "source": "osm", "_tags": {"ele": "2970", "name": "Mount Cornwall", "natural": "peak", "source": "NRCan-CanVec-7.0", "wikidata": "Q22423485", "wikipedia": "en:Mount Cornwall"}}, {"name": "Mount Rose", "latitude": 50.6925746, "longitude": -114.815079, "elevation": 2515.0, "source": "osm", "_tags": {"ele": "2515", "name": "Mount Rose", "natural": "peak", "source": "NRCan-CanVec-7.0"}}, {"name": "Threepoint Mountain", "latitude": 50.7067081, "longitude": -114.8260107, "elevation": 2595.0, "source": "osm", "_tags": {"ele": "2595", "name": "Threepoint Mountain", "natural": "peak", "source": "NRCan-CanVec-7.0", "wikidata": "Q22501755", "wikipedia": "en:Threepoint Mountain"}}, {"name": "Gibraltar Mountain", "latitude": 50.590247, "longitude": -114.8368696, "elevation": 2665.0, "source": "osm", "_tags": {"ele": "2665", "name": "Gibraltar Mountain", "natural": "peak", "source": "NRCan-CanVec-7.0", "wikidata": "Q5559173", "wikipedia": "en:Gibraltar Mountain (Alberta)"}}, {"name": "Mist Mountain", "latitude": 50.5541451, "longitude": -114.9103637, "elevation": 3138.0, "source": "osm", "_tags": {"ele": "3138", "name": "Mist Mountain", "natural": "peak", "source": "http://kananaskistrails.com/mountain-heights/2018/", "wikidata": "Q6879980", "wikipedia": "en:Mist Mountain"}}, {"name": "Mount Rae", "latitude": 50.6232107, "longitude": -114.9751153, "elevation": 3218.0, "source": "osm", "_tags": {"ele": "3218", "name": "Mount Rae", "natural": "peak", "source": "NRCan-CanVec-7.0", "wikidata": "Q6923120", "wikipedia": "en:Mount Rae"}}, {"name": "Storm Mountain", "latitude": 50.5874493, "longitude": -114.9389993, "elevation": 3095.0, "source": "osm", "_tags": {"ele": "3095", "name": "Storm Mountain", "natural": "peak", "source": "NRCan-CanVec-7.0"}}, {"name": "Pyriform Mountain", "latitude": 50.5203756, "longitude": -114.6957742, "elevation": 2621.0, "source": "osm", "_tags": {"ele": "2621", "name": "Pyriform Mountain", "natural": "peak", "source": "NRCan-CanVec-7.0"}}, {"name": "Junction Mountain", "latitude": 50.547297, "longitude": -114.6934859, "elevation": 2682.0, "source": "osm", "_tags": {"ele": "2682", "name": "Junction Mountain", "natural": "peak", "source": "NRCan-CanVec-7.0"}}, {"name": "Mount Abruzzi", "latitude": 50.4422133, "longitude": -115.119615, "elevation": 3267.0, "source": "osm", "_tags": {"ele": "3267", "name": "Mount Abruzzi", "natural": "peak"}}, {"name": "Mount Lougheed", "latitude": 50.9655391, "longitude": -115.2621951, "elevation": 3107.0, "source": "osm", "_tags": {"ele": "3107", "name": "Mount Lougheed", "natural": "peak"}}, {"name": "Mount Sparrowhawk", "latitude": 50.9404146, "longitude": -115.2651068, "elevation": 3152.0, "source": "osm", "_tags": {"ele": "3152", "name": "Mount Sparrowhawk", "natural": "peak", "source": "gps", "website": "https://kananaskistrails.com/mtnheights/mtnheights.php"}}, {"name": "Little Ware", "latitude": 50.6620584, "longitude": -114.7282289, "elevation": 1947.0, "source": "osm", "_tags": {"ele": "1947", "name": "Little Ware", "natural": "peak"}}, {"name": "Mount Ware", "latitude": 50.6712302, "longitude": -114.7480057, "elevation": 2121.0, "source": "osm", "_tags": {"ele": "2121", "name": "Mount Ware", "natural": "peak"}}, {"name": "Cascade Mountain", "latitude": 51.2290043, "longitude": -115.5629368, "elevation": 3006.0, "source": "osm", "_tags": {"ele": "3006", "name": "Cascade Mountain", "natural": "peak", "source": "http://kananaskistrails.com/mountain-heights/2018/", "wikidata": "Q2940838", "wikipedia": "en:Cascade Mountain (Alberta)"}}, {"name": "Mount Norquay", "latitude": 51.2013297, "longitude": -115.6342494, "elevation": 2522.0, "source": "osm", "_tags": {"ele": "2522", "name": "Mount Norquay", "natural": "peak"}}, {"name": "Mount Girouard", "latitude": 51.2365926, "longitude": -115.4027161, "elevation": 2995.0, "source": "osm", "_tags": {"ele": "2995", "name": "Mount Girouard", "natural": "peak", "wikidata": "Q6920916", "wikipedia": "en:Mount Girouard"}}, {"name": "Mount Inglismaldie", "latitude": 51.2419, "longitude": -115.4217, "elevation": 2964.0, "source": "osm", "_tags": {"ele": "2964", "name": "Mount Inglismaldie", "natural": "peak", "wikidata": "Q8519329", "wikipedia": "en:Mount Inglismaldie"}}, {"name": "Mount Peechee", "latitude": 51.2102925, "longitude": -115.3770245, "elevation": 2935.0, "source": "osm", "_tags": {"ele": "2935", "name": "Mount Peechee", "natural": "peak", "wikidata": "Q6922694", "wikipedia": "en:Mount Peechee"}}, {"name": "Mount Charles Stewart SE2", "latitude": 51.1411185, "longitude": -115.306436, "elevation": 2636.0, "source": "osm", "_tags": {"ele": "2636", "name": "Mount Charles Stewart SE2", "natural": "peak"}}, {"name": "Mount Charles Stewart", "latitude": 51.1558517, "longitude": -115.3327776, "elevation": 2809.0, "source": "osm", "_tags": {"ele": "2809", "name": "Mount Charles Stewart", "natural": "peak", "wikidata": "Q6920110", "wikipedia": "en:Mount Charles Stewart"}}, {"name": "Mount Lady Macdonald", "latitude": 51.1221669, "longitude": -115.3171172, "elevation": 2606.0, "source": "osm", "_tags": {"alt_name": "Mount Lady Mac", "ele": "2606", "name": "Mount Lady Macdonald", "natural": "peak", "wikidata": "Q3321915", "wikipedia": "en:Mount Lady Macdonald"}}, {"name": "Princess Margaret Mountain", "latitude": 51.1598968, "longitude": -115.3681182, "elevation": 2515.0, "source": "osm", "_tags": {"ele": "2515", "name": "Princess Margaret Mountain", "natural": "peak", "wikidata": "Q7244700"}}, {"name": "Bald Eagle Peak", "latitude": 51.1356232, "longitude": -115.337138, "elevation": 2514.0, "source": "osm", "_tags": {"alt_name": "The Tit", "ele": "2514", "name": "Bald Eagle Peak", "name:en": "Bald Eagle Peak", "name:sto": "Anû Kathâ Îpa", "natural": "peak"}}, {"name": "Association Peak", "latitude": 51.1803, "longitude": -115.1256, "elevation": 2362.0, "source": "osm", "_tags": {"ele": "2362", "name": "Association Peak", "natural": "peak"}}, {"name": "End Mountain", "latitude": 51.198357, "longitude": -115.129631, "elevation": 2453.0, "source": "osm", "_tags": {"ele": "2453", "name": "End Mountain", "natural": "peak"}}, {"name": "Gap Peak", "latitude": 51.0902766, "longitude": -115.2208296, "elevation": 2517.0, "source": "osm", "_tags": {"ele": "2517", "name": "Gap Peak", "natural": "peak"}}, {"name": "Goat Mountain", "latitude": 51.114304, "longitude": -115.1425831, "elevation": 2385.0, "source": "osm", "_tags": {"ele": "2385", "name": "Goat Mountain", "natural": "peak"}}, {"name": "Mount Fable", "latitude": 51.1171774, "longitude": -115.2260409, "elevation": 2702.0, "source": "osm", "_tags": {"ele": "2702", "name": "Mount Fable", "natural": "peak"}}, {"name": "Mount Pringle", "latitude": 51.2235303, "longitude": -114.9051471, "elevation": 1597.0, "source": "osm", "_tags": {"ele": "1597", "name": "Mount Pringle", "natural": "peak"}}, {"name": "Mount Townsend", "latitude": 51.1536315, "longitude": -115.2369493, "elevation": 2820.0, "source": "osm", "_tags": {"ele": "2820", "name": "Mount Townsend", "natural": "peak"}}, {"name": "Old Fort Peak", "latitude": 51.1238274, "longitude": -115.1612964, "elevation": 2380.0, "source": "osm", "_tags": {"ele": "2380", "name": "Old Fort Peak", "natural": "peak"}}, {"name": "Orient Point", "latitude": 51.249339, "longitude": -115.1732251, "elevation": 2636.0, "source": "osm", "_tags": {"ele": "2636", "name": "Orient Point", "natural": "peak"}}, {"name": "Saddle Peak", "latitude": 51.2314995, "longitude": -115.23022, "elevation": 2831.0, "source": "osm", "_tags": {"ele": "2831", "name": "Saddle Peak", "natural": "peak"}}, {"name": "South Ghost Peak", "latitude": 51.1719553, "longitude": -115.2002512, "elevation": 2743.0, "source": "osm", "_tags": {"ele": "2743", "name": "South Ghost Peak", "natural": "peak"}}, {"name": "Stenton Peak", "latitude": 51.17146, "longitude": -115.2714216, "elevation": 2815.0, "source": "osm", "_tags": {"ele": "2815", "name": "Stenton Peak", "natural": "peak"}}, {"name": "Big Sister (Faith Peak)", "latitude": 51.0149778, "longitude": -115.3520361, "elevation": 2940.0, "source": "osm", "_tags": {"ele": "2940", "name": "Big Sister (Faith Peak)", "natural": "peak"}}, {"name": "East End of Rundle", "latitude": 51.08067, "longitude": -115.42108, "elevation": 2530.0, "source": "osm", "_tags": {"ele": "2530", "name": "East End of Rundle", "natural": "peak"}}, {"name": "Little Sister (Charity Peak)", "latitude": 51.0248242, "longitude": -115.3303499, "elevation": 2694.0, "source": "osm", "_tags": {"ele": "2694", "name": "Little Sister (Charity Peak)", "natural": "peak"}}, {"name": "Lougheed 1", "latitude": 50.9758107, "longitude": -115.2721948, "elevation": 3105.0, "source": "osm", "_tags": {"ele": "3105", "name": "Lougheed 1", "natural": "peak"}}, {"name": "Lougheed 3", "latitude": 50.9601747, "longitude": -115.2554569, "elevation": 3100.0, "source": "osm", "_tags": {"ele": "3100", "name": "Lougheed 3", "natural": "peak"}}, {"name": "Middle Sister (Hope Peak)", "latitude": 51.0225911, "longitude": -115.340276, "elevation": 2769.0, "source": "osm", "_tags": {"ele": "2769", "name": "Middle Sister (Hope Peak)", "natural": "peak"}}, {"name": "Mount Lawrence Grassi", "latitude": 51.0538033, "longitude": -115.3909213, "elevation": 2682.0, "source": "osm", "_tags": {"ele": "2682", "name": "Mount Lawrence Grassi", "natural": "peak", "wikidata": "Q6921787", "wikipedia": "en:Mount Lawrence Grassi"}}, {"name": "Mount Rundle", "latitude": 51.1245751, "longitude": -115.4691932, "elevation": 2949.0, "source": "osm", "_tags": {"ele": "2949", "name": "Mount Rundle", "natural": "peak", "wikidata": "Q3322071", "wikipedia": "en:Mount Rundle"}}, {"name": "Rimwall W2", "latitude": 51.0032779, "longitude": -115.339365, "elevation": 2620.0, "source": "osm", "_tags": {"ele": "2620", "name": "Rimwall W2", "natural": "peak"}}, {"name": "Rundle 2", "latitude": 51.1359935, "longitude": -115.4843888, "elevation": 2820.0, "source": "osm", "_tags": {"ele": "2820", "name": "Rundle 2", "natural": "peak"}}, {"name": "Rundle 4", "latitude": 51.1098659, "longitude": -115.4540906, "elevation": 2720.0, "source": "osm", "_tags": {"ele": "2720", "name": "Rundle 4", "natural": "peak"}}, {"name": "Rundle 5", "latitude": 51.10056, "longitude": -115.4438209, "elevation": 2581.0, "source": "osm", "_tags": {"ele": "2581", "name": "Rundle 5", "natural": "peak"}}, {"name": "Rundle 6", "latitude": 51.0925645, "longitude": -115.435122, "elevation": 2580.0, "source": "osm", "_tags": {"ele": "2580", "name": "Rundle 6", "natural": "peak"}}, {"name": "Rundle 7", "latitude": 51.0848549, "longitude": -115.430058, "elevation": 2560.0, "source": "osm", "_tags": {"ele": "2560", "name": "Rundle 7", "natural": "peak"}}, {"name": "The Rimwall", "latitude": 50.998396, "longitude": -115.3164961, "elevation": 2700.0, "source": "osm", "_tags": {"ele": "2700", "name": "The Rimwall", "natural": "peak"}}, {"name": "Wind Ridge", "latitude": 51.0203, "longitude": -115.2919, "elevation": 2179.0, "source": "osm", "_tags": {"ele": "2179", "name": "Wind Ridge", "natural": "peak"}}, {"name": "Windtower", "latitude": 50.9886, "longitude": -115.2911, "elevation": 2688.0, "source": "osm", "_tags": {"ele": "2688", "name": "Windtower", "natural": "peak", "wikidata": "Q22625448", "wikipedia": "en:Windtower (Alberta)"}}, {"name": "", "latitude": 51.0611, "longitude": -115.11715, "elevation": 1740.0, "source": "osm", "_tags": {"ele": "1740", "natural": "peak"}}, {"name": "Grant MacEwan Peak", "latitude": 51.0328, "longitude": -115.1219368, "elevation": 2148.0, "source": "osm", "_tags": {"ele": "2148", "name": "Grant MacEwan Peak", "natural": "peak"}}, {"name": "Heart Mountain", "latitude": 51.0395951, "longitude": -115.136724, "elevation": 2135.0, "source": "osm", "_tags": {"ele": "2135", "name": "Heart Mountain", "natural": "peak"}}, {"name": "Mount Collembola", "latitude": 50.9722, "longitude": -115.2017, "elevation": 2758.0, "source": "osm", "_tags": {"ele": "2758", "name": "Mount Collembola", "natural": "peak"}}, {"name": "Mount Lorette", "latitude": 50.9864, "longitude": -115.1336, "elevation": 2502.0, "source": "osm", "_tags": {"ele": "2502", "name": "Mount Lorette", "natural": "peak"}}, {"name": "Mount McGillivray", "latitude": 51.0202922, "longitude": -115.1644545, "elevation": 2479.0, "source": "osm", "_tags": {"ele": "2479", "name": "Mount McGillivray", "natural": "peak"}}, {"name": "Olympic Summit", "latitude": 50.9444589, "longitude": -115.1982146, "elevation": 2470.0, "source": "osm", "_tags": {"ele": "2470", "name": "Olympic Summit", "natural": "peak"}}, {"name": "Pigeon Peak", "latitude": 51.0285383, "longitude": -115.2066149, "elevation": 2411.0, "source": "osm", "_tags": {"ele": "2411", "name": "Pigeon Peak", "natural": "peak", "source": "http://kananaskistrails.com/mountain-heights/2018/"}}, {"name": "Skogan Peak", "latitude": 51.0019354, "longitude": -115.1447031, "elevation": 2662.0, "source": "osm", "_tags": {"ele": "2662", "name": "Skogan Peak", "natural": "peak"}}, {"name": "Twin Towers East (Jewell Peak)", "latitude": 51.0215149, "longitude": -115.1108819, "elevation": 2320.0, "source": "osm", "_tags": {"ele": "2320", "name": "Twin Towers East (Jewell Peak)", "natural": "peak"}}, {"name": "McConnell Ridge", "latitude": 51.0482333, "longitude": -115.08, "elevation": 1981.0, "source": "osm", "_tags": {"ele": "1981", "name": "McConnell Ridge", "natural": "peak"}}, {"name": "Buller Mountain", "latitude": 50.8929634, "longitude": -115.3137016, "elevation": 2805.0, "source": "osm", "_tags": {"ele": "2805", "name": "Buller Mountain", "natural": "peak"}}, {"name": "Gusty Peak", "latitude": 50.8307584, "longitude": -115.2575584, "elevation": 3000.0, "source": "osm", "_tags": {"ele": "3000", "name": "Gusty Peak", "natural": "peak"}}, {"name": "Mount Bogart", "latitude": 50.9108275, "longitude": -115.2431488, "elevation": 3144.0, "source": "osm", "_tags": {"ele": "3144", "name": "Mount Bogart", "natural": "peak"}}, {"name": "Mount Chester", "latitude": 50.8066719, "longitude": -115.2622032, "elevation": 3030.0, "source": "osm", "_tags": {"ele": "3030", "name": "Mount Chester", "natural": "peak", "wikidata": "Q6920119", "wikipedia": "en:Mount Chester"}}, {"name": "Mount Engadine", "latitude": 50.8648109, "longitude": -115.3106117, "elevation": 2972.0, "source": "osm", "_tags": {"ele": "2972", "name": "Mount Engadine", "natural": "peak", "wikidata": "Q6920644", "wikipedia": "en:Mount Engadine"}}, {"name": "Mount Galatea", "latitude": 50.8396851, "longitude": -115.2725029, "elevation": 3185.0, "source": "osm", "_tags": {"ele": "3185", "name": "Mount Galatea", "natural": "peak", "wikidata": "Q6920852", "wikipedia": "en:Mount Galatea"}}, {"name": "Mount Inflexible", "latitude": 50.7825851, "longitude": -115.2069282, "elevation": 3000.0, "source": "osm", "_tags": {"ele": "3000", "name": "Mount Inflexible", "natural": "peak", "wikidata": "Q8529225", "wikipedia": "en:Mount Inflexible"}}, {"name": "Mount James Walker", "latitude": 50.8047756, "longitude": -115.2191869, "elevation": 3035.0, "source": "osm", "_tags": {"ele": "3035", "name": "Mount James Walker", "natural": "peak", "wikidata": "Q8529229", "wikipedia": "en:Mount James Walker"}}, {"name": "Mount Kidd South", "latitude": 50.8809037, "longitude": -115.2148205, "elevation": 2934.0, "source": "osm", "_tags": {"ele": "2934", "name": "Mount Kidd South", "natural": "peak"}}, {"name": "Mount Kidd", "latitude": 50.89365, "longitude": -115.1901054, "elevation": 2958.0, "source": "osm", "_tags": {"ele": "2958", "name": "Mount Kidd", "natural": "peak", "wikidata": "Q22440069", "wikipedia": "en:Mount Kidd"}}, {"name": "Mount Lawson", "latitude": 50.765726, "longitude": -115.189342, "elevation": 2849.0, "source": "osm", "_tags": {"ele": "2849", "name": "Mount Lawson", "natural": "peak"}}, {"name": "Red Ridge", "latitude": 50.91555, "longitude": -115.2775833, "elevation": 2610.0, "source": "osm", "_tags": {"ele": "2610", "name": "Red Ridge", "natural": "peak"}}, {"name": "Ribbon Peak", "latitude": 50.9193061, "longitude": -115.2253517, "elevation": 2880.0, "source": "osm", "_tags": {"ele": "2880", "name": "Ribbon Peak", "natural": "peak", "wikidata": "Q22374060", "wikipedia": "en:Ribbon Peak"}}, {"name": "The Tower", "latitude": 50.8565711, "longitude": -115.289154, "elevation": 3117.0, "source": "osm", "_tags": {"ele": "3117", "name": "The Tower", "natural": "peak", "wikidata": "Q7769723", "wikipedia": "en:The Tower (Alberta)"}}, {"name": "Mary Barclay's Mountain", "latitude": 50.9990396, "longitude": -115.1040833, "elevation": 2290.0, "source": "osm", "_tags": {"ele": "2290", "name": "Mary Barclay's Mountain", "natural": "peak", "wikidata": "Q60760077", "wikipedia": "en:Mary Barclay's Mountain"}}, {"name": "Horton Hill", "latitude": 51.0419363, "longitude": -115.0024936, "elevation": 1700.0, "source": "osm", "_tags": {"ele": "1700", "name": "Horton Hill", "natural": "peak"}}, {"name": "Horton Ridge", "latitude": 51.0486239, "longitude": -114.9833482, "elevation": 1850.0, "source": "osm", "_tags": {"ele": "1850", "name": "Horton Ridge", "natural": "peak"}}, {"name": "Ole Buck Mountain", "latitude": 51.0615348, "longitude": -114.8383712, "elevation": 1722.0, "source": "osm", "_tags": {"ele": "1722", "name": "Ole Buck Mountain", "natural": "peak"}}, {"name": "Seventy Buck", "latitude": 51.0590167, "longitude": -114.9252, "elevation": 1740.0, "source": "osm", "_tags": {"ele": "1740", "name": "Seventy Buck", "natural": "peak"}}, {"name": "Lusk Ridge", "latitude": 51.0313833, "longitude": -114.9527333, "elevation": 2060.0, "source": "osm", "_tags": {"ele": "2060", "name": "Lusk Ridge", "natural": "peak"}}, {"name": "Midday Peak", "latitude": 50.9745025, "longitude": -115.0275421, "elevation": 2340.0, "source": "osm", "_tags": {"ele": "2340", "name": "Midday Peak", "natural": "peak"}}, {"name": "Midnight Peak", "latitude": 50.9798, "longitude": -115.0353333, "elevation": 2348.0, "source": "osm", "_tags": {"ele": "2348", "name": "Midnight Peak", "natural": "peak"}}, {"name": "Mount Baldy South", "latitude": 51.0032667, "longitude": -115.04475, "elevation": 2145.0, "source": "osm", "_tags": {"ele": "2145", "name": "Mount Baldy South", "natural": "peak"}}, {"name": "Mount Baldy West", "latitude": 51.0003793, "longitude": -115.0520651, "elevation": 2125.0, "source": "osm", "_tags": {"ele": "2125", "name": "Mount Baldy West", "natural": "peak"}}, {"name": "Mount Baldy", "latitude": 51.0131263, "longitude": -115.0496864, "elevation": 2192.0, "source": "osm", "_tags": {"ele": "2192", "name": "Mount Baldy", "natural": "peak"}}, {"name": "Pinetop Hill", "latitude": 51.0047149, "longitude": -114.7369194, "elevation": 1631.0, "source": "osm", "_tags": {"ele": "1631", "name": "Pinetop Hill", "natural": "peak"}}, {"name": "Belmore Browne Peak", "latitude": 50.9547, "longitude": -114.99, "elevation": 2332.0, "source": "osm", "_tags": {"ele": "2332", "name": "Belmore Browne Peak", "natural": "peak"}}, {"name": "Compression Ridge", "latitude": 50.8788871, "longitude": -114.9593925, "elevation": 2545.0, "source": "osm", "_tags": {"ele": "2545", "name": "Compression Ridge", "natural": "peak"}}, {"name": "Kananaskis Peak", "latitude": 50.93414, "longitude": -115.0868312, "elevation": 2419.0, "source": "osm", "_tags": {"ele": "2419", "name": "Kananaskis Peak", "natural": "peak"}}, {"name": "Wasootch Peak", "latitude": 50.9463598, "longitude": -115.099955, "elevation": 2323.0, "source": "osm", "_tags": {"ele": "2323", "name": "Wasootch Peak", "natural": "peak", "wikidata": "Q60770685", "wikipedia": "en:Wasootch Peak"}}, {"name": "Mount McDougall", "latitude": 50.8975982, "longitude": -115.0562095, "elevation": 2726.0, "source": "osm", "_tags": {"ele": "2726", "name": "Mount McDougall", "natural": "peak"}}, {"name": "Old Baldy Peak", "latitude": 50.9111251, "longitude": -115.0698849, "elevation": 2728.0, "source": "osm", "_tags": {"ele": "2728", "name": "Old Baldy Peak", "natural": "peak"}}, {"name": "Porcupine Ridge", "latitude": 50.9546517, "longitude": -115.0416225, "elevation": 2260.0, "source": "osm", "_tags": {"ele": "2260", "name": "Porcupine Ridge", "natural": "peak"}}, {"name": "Tiara Peak", "latitude": 50.9429168, "longitude": -114.9990463, "elevation": 2545.0, "source": "osm", "_tags": {"ele": "2545", "name": "Tiara Peak", "natural": "peak"}}, {"name": "Volcano Peak", "latitude": 50.8865314, "longitude": -115.0738873, "elevation": 2554.0, "source": "osm", "_tags": {"ele": "2554", "name": "Volcano Peak", "natural": "peak"}}, {"name": "Wasootch Ridge", "latitude": 50.9293632, "longitude": -115.0438997, "elevation": 2330.0, "source": "osm", "_tags": {"ele": "2330", "name": "Wasootch Ridge", "natural": "peak"}}, {"name": "Shoulder Peak", "latitude": 50.8020424, "longitude": -115.0305078, "elevation": 2922.0, "source": "osm", "_tags": {"ele": "2922", "name": "Shoulder Peak", "natural": "peak"}}, {"name": "Mount Sarcee", "latitude": 50.7635058, "longitude": -115.0522738, "elevation": 2975.0, "source": "osm", "_tags": {"ele": "2975", "name": "Mount Sarcee", "natural": "peak", "source": "Rockies South - David Jones"}}, {"name": "Fisher Peak", "latitude": 50.8144249, "longitude": -115.0299487, "elevation": 3053.0, "source": "osm", "_tags": {"ele": "3053", "name": "Fisher Peak", "natural": "peak"}}, {"name": "Forgetmenot Ridge", "latitude": 50.7681, "longitude": -114.805, "elevation": 2332.0, "source": "osm", "_tags": {"ele": "2332", "name": "Forgetmenot Ridge", "natural": "peak"}}, {"name": "Grizzly Peak", "latitude": 50.7622, "longitude": -115.1194, "elevation": 2545.0, "source": "osm", "_tags": {"ele": "2545", "name": "Grizzly Peak", "natural": "peak"}}, {"name": "Limestone Mountain", "latitude": 50.8578, "longitude": -115.1572, "elevation": 2180.0, "source": "osm", "_tags": {"ele": "2180", "name": "Limestone Mountain", "natural": "peak"}}, {"name": "Mount Denny", "latitude": 50.7889461, "longitude": -115.1035431, "elevation": 2980.0, "source": "osm", "_tags": {"ele": "2980", "name": "Mount Denny", "natural": "peak"}}, {"name": "Mount Evan-Thomas", "latitude": 50.7661915, "longitude": -115.0951214, "elevation": 3097.0, "source": "osm", "_tags": {"ele": "3097", "name": "Mount Evan-Thomas", "natural": "peak", "wikidata": "Q22429055", "wikipedia": "en:Mount Evan-Thomas"}}, {"name": "Mount Fullerton", "latitude": 50.8225822, "longitude": -114.9626541, "elevation": 2728.0, "source": "osm", "_tags": {"ele": "2728", "name": "Mount Fullerton", "natural": "peak"}}, {"name": "Mount Potts", "latitude": 50.7793244, "longitude": -115.0995095, "elevation": 2980.0, "source": "osm", "_tags": {"ele": "2980", "name": "Mount Potts", "natural": "peak"}}, {"name": "Opal Ridge", "latitude": 50.7803678, "longitude": -115.132677, "elevation": 2575.0, "source": "osm", "_tags": {"ele": "2575", "name": "Opal Ridge", "natural": "peak"}}, {"name": "The Wedge", "latitude": 50.8494255, "longitude": -115.1340709, "elevation": 2667.0, "source": "osm", "_tags": {"ele": "2667", "name": "The Wedge", "natural": "peak"}}, {"name": "Elpoca Mountain", "latitude": 50.6646537, "longitude": -115.0273704, "elevation": 3036.0, "source": "osm", "_tags": {"ele": "3036", "name": "Elpoca Mountain", "natural": "peak"}}, {"name": "Gap Mountain", "latitude": 50.6560707, "longitude": -115.0546646, "elevation": 2675.0, "source": "osm", "_tags": {"ele": "2675", "name": "Gap Mountain", "natural": "peak", "wikidata": "Q22626792", "wikipedia": "en:Gap Mountain (Alberta)"}}, {"name": "King Creek Ridge", "latitude": 50.7387071, "longitude": -115.1046401, "elevation": 2423.0, "source": "osm", "_tags": {"ele": "2423", "name": "King Creek Ridge", "natural": "peak"}}, {"name": "Mount Blane", "latitude": 50.7264, "longitude": -115.0728, "elevation": 2993.0, "source": "osm", "_tags": {"ele": "2993", "name": "Mount Blane", "natural": "peak"}}, {"name": "Mount Brock", "latitude": 50.7375, "longitude": -115.0811, "elevation": 2902.0, "source": "osm", "_tags": {"ele": "2902", "name": "Mount Brock", "natural": "peak"}}, {"name": "Mount Burney", "latitude": 50.7097, "longitude": -115.0611, "elevation": 2934.0, "source": "osm", "_tags": {"ele": "2934", "name": "Mount Burney", "natural": "peak"}}, {"name": "Mount Hood", "latitude": 50.7469, "longitude": -115.0886, "elevation": 2903.0, "source": "osm", "_tags": {"ele": "2903", "name": "Mount Hood", "natural": "peak"}}, {"name": "Mount Jerram", "latitude": 50.6997945, "longitude": -115.0487019, "elevation": 2996.0, "source": "osm", "_tags": {"ele": "2996", "name": "Mount Jerram", "natural": "peak", "wikidata": "Q22438792", "wikipedia": "en:Mount Jerram"}}, {"name": "Mount Packenham", "latitude": 50.7536, "longitude": -115.0911, "elevation": 3000.0, "source": "osm", "_tags": {"ele": "3000", "name": "Mount Packenham", "natural": "peak"}}, {"name": "Mount Schlee", "latitude": 50.6871105, "longitude": -115.0399494, "elevation": 2850.0, "source": "osm", "_tags": {"ele": "2850", "name": "Mount Schlee", "natural": "peak"}}, {"name": "Mount Wintour", "latitude": 50.694218, "longitude": -115.0801615, "elevation": 2700.0, "source": "osm", "_tags": {"ele": "2700", "name": "Mount Wintour", "natural": "peak"}}, {"name": "Outlaw Peak", "latitude": 50.7208, "longitude": -114.9411, "elevation": 2940.101, "source": "osm", "_tags": {"ele": "2940.101", "name": "Outlaw Peak", "natural": "peak"}}, {"name": "The Blade", "latitude": 50.7244, "longitude": -115.0719, "elevation": 2910.0, "source": "osm", "_tags": {"ele": "2910", "name": "The Blade", "natural": "peak"}}, {"name": "Tombstone Mountain South", "latitude": 50.6857949, "longitude": -115.006991, "elevation": 3035.0, "source": "osm", "_tags": {"ele": "3035", "name": "Tombstone Mountain South", "natural": "peak"}}, {"name": "Eagle Ridge", "latitude": 50.5436, "longitude": -114.8803, "elevation": 2484.0, "source": "osm", "_tags": {"ele": "2484", "name": "Eagle Ridge", "natural": "peak"}}, {"name": "Highwood Peak", "latitude": 50.542181, "longitude": -114.7832143, "elevation": 2850.0, "source": "osm", "_tags": {"ele": "2850", "name": "Highwood Peak", "natural": "peak"}}, {"name": "Mount Arethusa", "latitude": 50.6082218, "longitude": -114.9686547, "elevation": 2912.0, "source": "osm", "_tags": {"ele": "2912", "name": "Mount Arethusa", "natural": "peak"}}, {"name": "Shunga-la-she", "latitude": 50.5789359, "longitude": -114.7654697, "elevation": 2625.0, "source": "osm", "_tags": {"ele": "2625", "name": "Shunga-la-she", "natural": "peak"}}, {"name": "Picklejar Peak", "latitude": 50.5141143, "longitude": -114.7519788, "elevation": 2797.0, "source": "osm", "_tags": {"ele": "2797", "name": "Picklejar Peak", "natural": "peak"}}, {"name": "Cegnfs", "latitude": 50.7583, "longitude": -115.2931, "elevation": 2804.0, "source": "osm", "_tags": {"ele": "2804", "name": "Cegnfs", "natural": "peak"}}, {"name": "Commonwealth Peak", "latitude": 50.7903, "longitude": -115.3486, "elevation": 2774.0, "source": "osm", "_tags": {"ele": "2774", "name": "Commonwealth Peak", "natural": "peak"}}, {"name": "Gypsum Ridge", "latitude": 50.6819108, "longitude": -115.1566931, "elevation": 2115.0, "source": "osm", "_tags": {"ele": "2115", "name": "Gypsum Ridge", "natural": "peak"}}, {"name": "Hermione Peak", "latitude": 50.6828011, "longitude": -115.2301749, "elevation": 2860.0, "source": "osm", "_tags": {"ele": "2860", "name": "Hermione Peak", "natural": "peak"}}, {"name": "Mount Beatty", "latitude": 50.66898, "longitude": -115.2894913, "elevation": 2999.0, "source": "osm", "_tags": {"ele": "2999", "name": "Mount Beatty", "natural": "peak", "wikidata": "Q8530768", "wikipedia": "en:Mount Beatty"}}, {"name": "Mount Birdwood", "latitude": 50.7849439, "longitude": -115.3671455, "elevation": 3097.0, "source": "osm", "_tags": {"ele": "3097", "name": "Mount Birdwood", "natural": "peak"}}, {"name": "Mount Black Prince", "latitude": 50.6944, "longitude": -115.2436, "elevation": 2932.0, "source": "osm", "_tags": {"ele": "2932", "name": "Mount Black Prince", "natural": "peak"}}, {"name": "Mount Burstall", "latitude": 50.7703, "longitude": -115.3256, "elevation": 2760.0, "source": "osm", "_tags": {"ele": "2760", "name": "Mount Burstall", "natural": "peak"}}, {"name": "Mount French", "latitude": 50.7297, "longitude": -115.305, "elevation": 3234.0, "source": "osm", "_tags": {"ele": "3234", "name": "Mount French", "natural": "peak"}}, {"name": "Mount Indefatigable", "latitude": 50.653709, "longitude": -115.1721516, "elevation": 2670.0, "source": "osm", "_tags": {"ele": "2670", "name": "Mount Indefatigable", "natural": "peak", "source": "Calgary Area Trail Mapping Project"}}, {"name": "Mount Jellicoe", "latitude": 50.7149892, "longitude": -115.2900918, "elevation": 3075.0, "source": "osm", "_tags": {"ele": "3075", "name": "Mount Jellicoe", "natural": "peak"}}, {"name": "Mount Leroy", "latitude": 50.6992, "longitude": -115.3356, "elevation": 2970.0, "source": "osm", "_tags": {"ele": "2970", "name": "Mount Leroy", "natural": "peak"}}, {"name": "Mount Maude", "latitude": 50.7008022, "longitude": -115.303103, "elevation": 3042.0, "source": "osm", "_tags": {"ele": "3042", "name": "Mount Maude", "natural": "peak", "wikidata": "Q6922066", "wikipedia": "en:Mount Maude (Canada)"}}, {"name": "Mount Monro", "latitude": 50.7110348, "longitude": -115.33023, "elevation": 3092.0, "source": "osm", "_tags": {"ele": "3092", "name": "Mount Monro", "natural": "peak"}}, {"name": "Mount Murray", "latitude": 50.7494, "longitude": -115.2928, "elevation": 3024.0, "source": "osm", "_tags": {"ele": "3024", "name": "Mount Murray", "natural": "peak"}}, {"name": "Mount Nomad", "latitude": 50.6636, "longitude": -115.2106, "elevation": 2544.0, "source": "osm", "_tags": {"ele": "2544", "name": "Mount Nomad", "natural": "peak"}}, {"name": "Mount Putnik", "latitude": 50.6436, "longitude": -115.2572, "elevation": 2940.0, "source": "osm", "_tags": {"ele": "2940", "name": "Mount Putnik", "natural": "peak", "wikidata": "Q6923110", "wikipedia": "en:Mount Putnik"}}, {"name": "Mount Robertson", "latitude": 50.727065, "longitude": -115.3209055, "elevation": 3194.0, "source": "osm", "_tags": {"ele": "3194", "name": "Mount Robertson", "natural": "peak", "wikidata": "Q6923247", "wikipedia": "en:Mount Robertson"}}, {"name": "Mount Shark", "latitude": 50.8281, "longitude": -115.4097, "elevation": 2786.0, "source": "osm", "_tags": {"ele": "2786", "name": "Mount Shark", "natural": "peak"}}, {"name": "Mount Sir Douglas", "latitude": 50.7223615, "longitude": -115.3387751, "elevation": 3406.0, "source": "osm", "_tags": {"ele": "3406", "name": "Mount Sir Douglas", "natural": "peak", "wikidata": "Q6923693", "wikipedia": "en:Mount Sir Douglas"}}, {"name": "Mount Smuts", "latitude": 50.8075, "longitude": -115.3869, "elevation": 2938.0, "source": "osm", "_tags": {"ele": "2938", "name": "Mount Smuts", "natural": "peak"}}, {"name": "Mount Warspite", "latitude": 50.6813153, "longitude": -115.2167807, "elevation": 2850.0, "source": "osm", "_tags": {"ele": "2850", "name": "Mount Warspite", "natural": "peak"}}, {"name": "Pig's Tail", "latitude": 50.7864355, "longitude": -115.3599889, "elevation": 2822.0, "source": "osm", "_tags": {"ele": "2822", "name": "Pig's Tail", "natural": "peak"}}, {"name": "Piggy Plus", "latitude": 50.7493603, "longitude": -115.3296024, "elevation": 2760.0, "source": "osm", "_tags": {"ele": "2760", "name": "Piggy Plus", "natural": "peak"}}, {"name": "Prairie Lookout", "latitude": 50.7397883, "longitude": -115.3037022, "elevation": 3185.0, "source": "osm", "_tags": {"ele": "3185", "name": "Prairie Lookout", "natural": "peak"}}, {"name": "Snow Peak", "latitude": 50.7728, "longitude": -115.3861, "elevation": 2789.0, "source": "osm", "_tags": {"ele": "2789", "name": "Snow Peak", "natural": "peak"}}, {"name": "Tent Ridge", "latitude": 50.82, "longitude": -115.3736, "elevation": 2545.0, "source": "osm", "_tags": {"ele": "2545", "name": "Tent Ridge", "natural": "peak"}}, {"name": "The Fist", "latitude": 50.8142539, "longitude": -115.370497, "elevation": 2630.0, "source": "osm", "_tags": {"ele": "2630", "name": "The Fist", "natural": "peak"}}, {"name": "Whistling Rock Peak", "latitude": 50.7474802, "longitude": -115.3495015, "elevation": 2940.0, "source": "osm", "_tags": {"ele": "2940", "name": "Whistling Rock Peak", "natural": "peak"}}, {"name": "Zeke's Peak", "latitude": 50.7343995, "longitude": -115.3424414, "elevation": 2990.0, "source": "osm", "_tags": {"ele": "2990", "name": "Zeke's Peak", "natural": "peak"}}, {"name": "Aurora Mountain", "latitude": 50.8252587, "longitude": -115.5430011, "elevation": 2797.0, "source": "osm", "_tags": {"ele": "2797", "name": "Aurora Mountain", "natural": "peak", "wikidata": "Q4822574"}}, {"name": "Aye Mountain", "latitude": 50.8409949, "longitude": -115.64308, "elevation": 3243.0, "source": "osm", "_tags": {"ele": "3243", "name": "Aye Mountain", "natural": "peak", "wikidata": "Q4831125", "wikipedia": "en:Aye Mountain"}}, {"name": "Cascade Rock", "latitude": 50.9182043, "longitude": -115.5768818, "elevation": 2880.0, "source": "osm", "_tags": {"ele": "2880", "name": "Cascade Rock", "natural": "peak", "wikidata": "Q22448078"}}, {"name": "Ely's Dome", "latitude": 50.8941066, "longitude": -115.5636203, "elevation": 2830.0, "source": "osm", "_tags": {"ele": "2830", "name": "Ely's Dome", "natural": "peak"}}, {"name": "Eon Mountain", "latitude": 50.8348755, "longitude": -115.6251161, "elevation": 3310.0, "source": "osm", "_tags": {"ele": "3310", "name": "Eon Mountain", "natural": "peak", "wikidata": "Q5381817", "wikipedia": "en:Eon Mountain"}}, {"name": "Gibralter Rock", "latitude": 50.9119586, "longitude": -115.5673225, "elevation": 2870.0, "source": "osm", "_tags": {"ele": "2870", "name": "Gibralter Rock", "natural": "peak"}}, {"name": "Lockwood Peak", "latitude": 50.6801107, "longitude": -115.4401893, "elevation": 2880.0, "source": "osm", "_tags": {"ele": "2880", "name": "Lockwood Peak", "natural": "peak"}}, {"name": "Lunette Peak", "latitude": 50.8659327, "longitude": -115.6492693, "elevation": 3428.0, "source": "osm", "_tags": {"ele": "3428", "name": "Lunette Peak", "natural": "peak", "wikidata": "Q6704232", "wikipedia": "en:Lunette Peak"}}, {"name": "Marvel Peak", "latitude": 50.8597222, "longitude": -115.5513889, "elevation": 2650.0, "source": "osm", "_tags": {"ele": "2650", "name": "Marvel Peak", "natural": "peak", "source:location": "CGNDB key IAJKM", "wikidata": "Q22622768", "wikipedia": "en:Marvel Peak"}}, {"name": "Mount Alcantara", "latitude": 50.8013002, "longitude": -115.6081354, "elevation": 3029.0, "source": "osm", "_tags": {"ele": "3029", "name": "Mount Alcantara", "natural": "peak", "wikidata": "Q22412858", "wikipedia": "en:Mount Alcantara"}}, {"name": "Mount Assiniboine", "latitude": 50.8700193, "longitude": -115.6513468, "elevation": 3618.0, "source": "osm", "_tags": {"alt_name": "Assiniboine Mountain", "ele": "3618", "name": "Mount Assiniboine", "natural": "peak", "prominence": "2079", "source:prominence": "3618-1539 (Howse Pass)", "wikidata": "Q1818436", "wikipedia": "en:Mount Assiniboine"}}, {"name": "Mount Back", "latitude": 50.6967, "longitude": -115.4122, "elevation": 3009.0, "source": "osm", "_tags": {"ele": "3009", "name": "Mount Back", "natural": "peak"}}, {"name": "Mount Brussilof", "latitude": 50.7811232, "longitude": -115.6077516, "elevation": 3013.0, "source": "osm", "_tags": {"ele": "3013", "name": "Mount Brussilof", "natural": "peak"}}, {"name": "Mount Byng", "latitude": 50.8292753, "longitude": -115.5266022, "elevation": 2940.0, "source": "osm", "_tags": {"ele": "2940", "name": "Mount Byng", "natural": "peak", "wikidata": "Q22419987", "wikipedia": "en:Mount Byng"}}, {"name": "Mount Cautley", "latitude": 50.9078461, "longitude": -115.5721785, "elevation": 2880.0, "source": "osm", "_tags": {"ele": "2880", "name": "Mount Cautley", "natural": "peak"}}, {"name": "Mount Cradock", "latitude": 50.6772, "longitude": -115.4011, "elevation": 3030.0, "source": "osm", "_tags": {"ele": "3030", "name": "Mount Cradock", "natural": "peak"}}, {"name": "Mount Currie", "latitude": 50.8029644, "longitude": -115.4925095, "elevation": 2810.0, "source": "osm", "_tags": {"ele": "2810", "name": "Mount Currie", "natural": "peak", "wikidata": "Q22424487"}}, {"name": "Mount Gloria SE1", "latitude": 50.8460853, "longitude": -115.6072408, "elevation": 2877.0, "source": "osm", "_tags": {"ele": "2877", "name": "Mount Gloria SE1", "natural": "peak", "wikidata": "Q6920924", "wikipedia": "en:Mount Gloria"}}, {"name": "Mount King Albert", "latitude": 50.7119, "longitude": -115.4147, "elevation": 2987.0, "source": "osm", "_tags": {"ele": "2987", "name": "Mount King Albert", "natural": "peak", "wikidata": "Q6921668", "wikipedia": "en:Mount King Albert"}}, {"name": "Mount Leman", "latitude": 50.7340799, "longitude": -115.4137376, "elevation": 2730.0, "source": "osm", "_tags": {"ele": "2730", "name": "Mount Leman", "natural": "peak", "wikidata": "Q6921808"}}, {"name": "Mount Leval", "latitude": 50.7561, "longitude": -115.4369, "elevation": 2713.0, "source": "osm", "_tags": {"ele": "2713", "name": "Mount Leval", "natural": "peak", "wikidata": "Q6921820"}}, {"name": "Mount Magog", "latitude": 50.8784206, "longitude": -115.6355129, "elevation": 3095.0, "source": "osm", "_tags": {"ele": "3095", "name": "Mount Magog", "natural": "peak", "wikidata": "Q6921968", "wikipedia": "en:Mount Magog"}}, {"name": "Mount Morrison", "latitude": 50.8378, "longitude": -115.4792, "elevation": 2896.0, "source": "osm", "_tags": {"ele": "2896", "name": "Mount Morrison", "natural": "peak", "wikidata": "Q22548504", "wikipedia": "en:Mount Morrison (Alberta)"}}, {"name": "Mount Soderholm", "latitude": 50.7057135, "longitude": -115.5331238, "elevation": 2950.0, "source": "osm", "_tags": {"ele": "2950", "name": "Mount Soderholm", "natural": "peak"}}, {"name": "Mount Strom", "latitude": 50.8819, "longitude": -115.6658, "elevation": 3023.0, "source": "osm", "_tags": {"ele": "3023", "name": "Mount Strom", "natural": "peak", "wikidata": "Q22555133"}}, {"name": "Mount Sturdee", "latitude": 50.8678037, "longitude": -115.6644483, "elevation": 3155.0, "source": "osm", "_tags": {"ele": "3155", "name": "Mount Sturdee", "natural": "peak", "wikidata": "Q22555187"}}, {"name": "Mount Tipperary", "latitude": 50.6811, "longitude": -115.4133, "elevation": 2960.0, "source": "osm", "_tags": {"ele": "2960", "name": "Mount Tipperary", "natural": "peak"}}, {"name": "Mount Turner", "latitude": 50.8541529, "longitude": -115.477295, "elevation": 2813.0, "source": "osm", "_tags": {"ele": "2813", "name": "Mount Turner", "natural": "peak", "wikidata": "Q22556316", "wikipedia": "en:Mount Turner (Alberta)"}}, {"name": "Mount Vavasour", "latitude": 50.7683, "longitude": -115.4508, "elevation": 2835.0, "source": "osm", "_tags": {"ele": "2835", "name": "Mount Vavasour", "natural": "peak", "wikidata": "Q22556638"}}, {"name": "Mount Warre", "latitude": 50.7794, "longitude": -115.4569, "elevation": 2743.0, "source": "osm", "_tags": {"ele": "2743", "name": "Mount Warre", "natural": "peak", "wikidata": "Q22557149"}}, {"name": "Mount Williams", "latitude": 50.7181, "longitude": -115.3642, "elevation": 2730.0, "source": "osm", "_tags": {"ele": "2730", "name": "Mount Williams", "natural": "peak"}}, {"name": "Naiset Point", "latitude": 50.894763, "longitude": -115.6173194, "elevation": 2720.0, "source": "osm", "_tags": {"ele": "2720", "name": "Naiset Point", "natural": "peak"}}, {"name": "Sunburst Peak", "latitude": 50.905, "longitude": -115.6542, "elevation": 2830.0, "source": "osm", "_tags": {"ele": "2830", "name": "Sunburst Peak", "natural": "peak"}}, {"name": "Talon Peak", "latitude": 50.7073947, "longitude": -115.5094545, "elevation": 2874.0, "source": "osm", "_tags": {"ele": "2874", "name": "Talon Peak", "natural": "peak"}}, {"name": "Terrapin Mountain", "latitude": 50.8804281, "longitude": -115.6173087, "elevation": 2954.0, "source": "osm", "_tags": {"ele": "2954", "name": "Terrapin Mountain", "natural": "peak", "wikidata": "Q7703297", "wikipedia": "en:Terrapin Mountain"}}, {"name": "The Towers", "latitude": 50.8869954, "longitude": -115.6020386, "elevation": 2846.0, "source": "osm", "_tags": {"ele": "2846", "name": "The Towers", "natural": "peak", "wikidata": "Q7769756", "wikipedia": "en:The Towers (Canada)"}}, {"name": "Wedgwood Peak", "latitude": 50.8890889, "longitude": -115.6599465, "elevation": 3030.0, "source": "osm", "_tags": {"ele": "3030", "name": "Wedgwood Peak", "natural": "peak"}}, {"name": "White Man Mountain", "latitude": 50.7558, "longitude": -115.4819, "elevation": 2977.0, "source": "osm", "_tags": {"ele": "2977", "name": "White Man Mountain", "natural": "peak", "wikidata": "Q8530759", "wikipedia": "en:White Man Mountain"}}, {"name": "Wonder Peak", "latitude": 50.8907718, "longitude": -115.5721947, "elevation": 2852.0, "source": "osm", "_tags": {"ele": "2852", "name": "Wonder Peak", "natural": "peak"}}, {"name": "Beersheba Peak", "latitude": 50.9611051, "longitude": -115.5298375, "elevation": 3054.0, "source": "osm", "_tags": {"ele": "3054", "name": "Beersheba Peak", "natural": "peak"}}, {"name": "Cave Mountain", "latitude": 50.94, "longitude": -115.5975, "elevation": 2651.0, "source": "osm", "_tags": {"ele": "2651", "name": "Cave Mountain", "natural": "peak", "wikidata": "Q5054912"}}, {"name": "Cone Mountain", "latitude": 50.8905943, "longitude": -115.4633691, "elevation": 2910.0, "source": "osm", "_tags": {"ele": "2910", "name": "Cone Mountain", "natural": "peak", "wikidata": "Q22532474", "wikipedia": "en:Cone Mountain"}}, {"name": "Goatview Peak", "latitude": 51.0232596, "longitude": -115.4444479, "elevation": 2804.0, "source": "osm", "_tags": {"ele": "2804", "name": "Goatview Peak", "natural": "peak"}}, {"name": "Golden Mountain", "latitude": 50.9987611, "longitude": -115.6703401, "elevation": 2911.0, "source": "osm", "_tags": {"ele": "2911", "name": "Golden Mountain", "natural": "peak", "wikidata": "Q8530741", "wikipedia": "en:Golden Mountain (Canada)"}}, {"name": "Mount Allenby", "latitude": 50.9399154, "longitude": -115.5330838, "elevation": 2995.0, "source": "osm", "_tags": {"ele": "2995", "name": "Mount Allenby", "natural": "peak", "wikidata": "Q22413249"}}, {"name": "Mount Fortune", "latitude": 50.8921436, "longitude": -115.4123537, "elevation": 2332.0, "source": "osm", "_tags": {"ele": "2332", "name": "Mount Fortune", "natural": "peak", "wikidata": "Q22430693"}}, {"name": "Mount Mercer", "latitude": 50.9236352, "longitude": -115.5196871, "elevation": 2970.0, "source": "osm", "_tags": {"ele": "2970", "name": "Mount Mercer", "natural": "peak"}}, {"name": "Mount Nestor", "latitude": 50.9287539, "longitude": -115.364069, "elevation": 2972.0, "source": "osm", "_tags": {"ele": "2972", "name": "Mount Nestor", "natural": "peak", "source": "NRCan-CanVec-10.0", "wikidata": "Q22549093", "wikipedia": "en:Mount Nestor (Alberta)"}}, {"name": "Mount Turbulent", "latitude": 50.9325907, "longitude": -115.4583333, "elevation": 2850.0, "source": "osm", "_tags": {"ele": "2850", "name": "Mount Turbulent", "natural": "peak"}}, {"name": "Nasswald Peak", "latitude": 50.9987905, "longitude": -115.6517072, "elevation": 3042.0, "source": "osm", "_tags": {"ele": "3042", "name": "Nasswald Peak", "natural": "peak"}}, {"name": "Nub Peak", "latitude": 50.9306871, "longitude": -115.6578675, "elevation": 2755.0, "source": "osm", "_tags": {"ele": "2755", "name": "Nub Peak", "natural": "peak", "wikidata": "Q22401689"}}, {"name": "Og Mountain", "latitude": 50.9594, "longitude": -115.6125, "elevation": 2874.0, "source": "osm", "_tags": {"ele": "2874", "name": "Og Mountain", "natural": "peak"}}, {"name": "Old Goat Mountain", "latitude": 50.9449768, "longitude": -115.3718948, "elevation": 3120.0, "source": "osm", "_tags": {"ele": "3120", "name": "Old Goat Mountain", "natural": "peak", "wikidata": "Q60755844", "wikipedia": "en:Old Goat Mountain"}}, {"name": "Sanson Peak", "latitude": 51.1517715, "longitude": -115.5831812, "elevation": 2256.0, "source": "osm", "_tags": {"ele": "2256", "name": "Sanson Peak", "natural": "peak", "wikidata": "Q22421554"}}, {"name": "Sulphur Mountain", "latitude": 51.1236232, "longitude": -115.5550275, "elevation": 2451.0, "source": "osm", "_tags": {"ele": "2451", "name": "Sulphur Mountain", "natural": "peak", "wikidata": "Q842987", "wikipedia": "en:Sulphur Mountain (Alberta)"}}, {"name": "Sundance Peak", "latitude": 51.0842, "longitude": -115.6094, "elevation": 2902.0, "source": "osm", "_tags": {"ele": "2902", "name": "Sundance Peak", "natural": "peak"}}, {"name": "Mount Brewster", "latitude": 51.2462017, "longitude": -115.6551965, "elevation": 2859.0, "source": "osm", "_tags": {"ele": "2859", "name": "Mount Brewster", "natural": "peak", "wikidata": "Q3321713"}}, {"name": "Mount Cory", "latitude": 51.2004008, "longitude": -115.6905158, "elevation": 2802.0, "source": "osm", "_tags": {"ele": "2802", "name": "Mount Cory", "natural": "peak", "wikidata": "Q6920264"}}, {"name": "Mount Edith", "latitude": 51.20634, "longitude": -115.6696465, "elevation": 2599.0, "source": "osm", "_tags": {"ele": "2599", "name": "Mount Edith", "natural": "peak"}}, {"name": "Mount Louis", "latitude": 51.2154167, "longitude": -115.6795691, "elevation": 2682.0, "source": "osm", "_tags": {"ele": "2682", "name": "Mount Louis", "natural": "peak", "wikidata": "Q6921894", "wikipedia": "en:Mount Louis"}}, {"name": "Millstone NW1", "latitude": 50.6837081, "longitude": -115.6402015, "elevation": 2766.0, "source": "osm", "_tags": {"ele": "2766", "name": "Millstone NW1", "natural": "peak"}}, {"name": "Millstone NW2", "latitude": 50.6926345, "longitude": -115.6467247, "elevation": 2812.0, "source": "osm", "_tags": {"ele": "2812", "name": "Millstone NW2", "natural": "peak"}}, {"name": "Millstone NW4", "latitude": 50.7048225, "longitude": -115.6595993, "elevation": 2761.0, "source": "osm", "_tags": {"ele": "2761", "name": "Millstone NW4", "natural": "peak"}}, {"name": "Millstone Peak", "latitude": 50.6734085, "longitude": -115.6316184, "elevation": 2823.0, "source": "osm", "_tags": {"ele": "2823", "name": "Millstone Peak", "natural": "peak"}}, {"name": "Millstone S1", "latitude": 50.6646537, "longitude": -115.6350517, "elevation": 2682.0, "source": "osm", "_tags": {"ele": "2682", "name": "Millstone S1", "natural": "peak"}}, {"name": "Tangle E3", "latitude": 50.6425094, "longitude": -115.6065559, "elevation": 2684.0, "source": "osm", "_tags": {"ele": "2684", "name": "Tangle E3", "natural": "peak"}}, {"name": "Tangle SE2", "latitude": 50.6385612, "longitude": -115.6355667, "elevation": 2649.0, "source": "osm", "_tags": {"ele": "2649", "name": "Tangle SE2", "natural": "peak"}}, {"name": "Mount King George", "latitude": 50.5964276, "longitude": -115.405042, "elevation": 3411.0, "source": "osm", "_tags": {"ele": "3411", "name": "Mount King George", "natural": "peak", "source": "gps", "website": "https://kananaskistrails.com/mtnheights/mtnheights.php"}}, {"name": "Mount Prince Albert", "latitude": 50.6061, "longitude": -115.3989, "elevation": 3209.0, "source": "osm", "_tags": {"ele": "3209", "name": "Mount Prince Albert", "natural": "peak"}}, {"name": "Mount Prince Edward", "latitude": 50.6114796, "longitude": -115.4149442, "elevation": 3200.0, "source": "osm", "_tags": {"ele": "3200", "name": "Mount Prince Edward", "natural": "peak"}}, {"name": "Mount Prince George", "latitude": 50.6012855, "longitude": -115.3807521, "elevation": 2880.0, "source": "osm", "_tags": {"ele": "2880", "name": "Mount Prince George", "natural": "peak"}}, {"name": "Mount Prince Henry", "latitude": 50.6210467, "longitude": -115.4197813, "elevation": 3227.0, "source": "osm", "_tags": {"ele": "3227", "name": "Mount Prince Henry", "natural": "peak"}}, {"name": "Mount Prince John", "latitude": 50.638749, "longitude": -115.4367937, "elevation": 3236.0, "source": "osm", "_tags": {"ele": "3236", "name": "Mount Prince John", "natural": "peak"}}, {"name": "Mount Princess Mary", "latitude": 50.5853666, "longitude": -115.3944448, "elevation": 3084.0, "source": "osm", "_tags": {"ele": "3084", "name": "Mount Princess Mary", "natural": "peak"}}, {"name": "Mount Queen Mary", "latitude": 50.64206, "longitude": -115.4447606, "elevation": 3245.0, "source": "osm", "_tags": {"ele": "3245", "name": "Mount Queen Mary", "natural": "peak"}}, {"name": "Queen Mary NW3", "latitude": 50.6579589, "longitude": -115.473175, "elevation": 2518.0, "source": "osm", "_tags": {"ele": "2518", "name": "Queen Mary NW3", "natural": "peak"}}, {"name": "Queen Mary NW4", "latitude": 50.6571006, "longitude": -115.4930877, "elevation": 2559.0, "source": "osm", "_tags": {"ele": "2559", "name": "Queen Mary NW4", "natural": "peak"}}, {"name": "Queen Mary W2", "latitude": 50.6361579, "longitude": -115.4706001, "elevation": 2676.0, "source": "osm", "_tags": {"ele": "2676", "name": "Queen Mary W2", "natural": "peak"}}, {"name": "Queen Mary W3", "latitude": 50.6373596, "longitude": -115.4822731, "elevation": 2663.0, "source": "osm", "_tags": {"ele": "2663", "name": "Queen Mary W3", "natural": "peak"}}, {"name": "Queen Mary W5", "latitude": 50.6560707, "longitude": -115.5037307, "elevation": 2538.0, "source": "osm", "_tags": {"ele": "2538", "name": "Queen Mary W5", "natural": "peak"}}, {"name": "Frugal Peak", "latitude": 50.4916795, "longitude": -115.255073, "elevation": 2982.0, "source": "osm", "_tags": {"ele": "2982", "name": "Frugal Peak", "natural": "peak"}}, {"name": "Mount Aosta", "latitude": 50.5301885, "longitude": -115.0954734, "elevation": 2994.0, "source": "osm", "_tags": {"ele": "2994", "name": "Mount Aosta", "natural": "peak"}}, {"name": "Mount Battisti", "latitude": 50.4775038, "longitude": -115.163289, "elevation": 3102.0, "source": "osm", "_tags": {"ele": "3102", "name": "Mount Battisti", "natural": "peak"}}, {"name": "Mount Cadorna", "latitude": 50.4659005, "longitude": -115.1461047, "elevation": 3153.0, "source": "osm", "_tags": {"ele": "3153", "name": "Mount Cadorna", "natural": "peak"}}, {"name": "Mount De Gaulle", "latitude": 50.5187406, "longitude": -115.1566165, "elevation": 2952.0, "source": "osm", "_tags": {"ele": "2952", "name": "Mount De Gaulle", "natural": "peak"}}, {"name": "Mount Elkan", "latitude": 50.5462378, "longitude": -115.1384228, "elevation": 2760.0, "source": "osm", "_tags": {"ele": "2760", "name": "Mount Elkan", "natural": "peak"}}, {"name": "Mount Foch", "latitude": 50.5734468, "longitude": -115.1574492, "elevation": 3180.0, "source": "osm", "_tags": {"ele": "3180", "name": "Mount Foch", "natural": "peak"}}, {"name": "Mount Fox", "latitude": 50.5705667, "longitude": -115.1189735, "elevation": 2973.0, "source": "osm", "_tags": {"ele": "2973", "name": "Mount Fox", "natural": "peak", "wikidata": "Q6920794", "wikipedia": "en:Mount Fox (Canadian Rockies)"}}, {"name": "Mount Lyautey", "latitude": 50.6033743, "longitude": -115.2233059, "elevation": 3082.0, "source": "osm", "_tags": {"ele": "3082", "name": "Mount Lyautey", "natural": "peak"}}, {"name": "Mount Macdonnel", "latitude": 50.498193, "longitude": -115.1808684, "elevation": 2636.0, "source": "osm", "_tags": {"ele": "2636", "name": "Mount Macdonnel", "natural": "peak"}}, {"name": "Mount McHarg", "latitude": 50.6256523, "longitude": -115.3049235, "elevation": 2888.0, "source": "osm", "_tags": {"ele": "2888", "name": "Mount McHarg", "natural": "peak"}}, {"name": "Mount Ney", "latitude": 50.526011, "longitude": -115.1751389, "elevation": 3060.0, "source": "osm", "_tags": {"ele": "3060", "name": "Mount Ney", "natural": "peak"}}, {"name": "Mount Northover", "latitude": 50.5894797, "longitude": -115.2409871, "elevation": 3048.0, "source": "osm", "_tags": {"ele": "3048", "name": "Mount Northover", "natural": "peak", "wikidata": "Q6922450", "wikipedia": "en:Mount Northover"}}, {"name": "Mount Sarrail", "latitude": 50.5809525, "longitude": -115.1672872, "elevation": 3170.0, "source": "osm", "_tags": {"ele": "3170", "name": "Mount Sarrail", "natural": "peak"}}, {"name": "Mount Stiletto", "latitude": 50.4921846, "longitude": -115.1630044, "elevation": 2998.0, "source": "osm", "_tags": {"ele": "2998", "name": "Mount Stiletto", "natural": "peak"}}, {"name": "Mount Swiderski", "latitude": 50.4701974, "longitude": -115.1538529, "elevation": 3119.0, "source": "osm", "_tags": {"ele": "3119", "name": "Mount Swiderski", "natural": "peak"}}, {"name": "Mount Worthington", "latitude": 50.6265897, "longitude": -115.2973198, "elevation": 2972.0, "source": "osm", "_tags": {"ele": "2972", "name": "Mount Worthington", "natural": "peak"}}, {"name": "Riverside Mountain", "latitude": 50.4639, "longitude": -115.0083, "elevation": 2758.0, "source": "osm", "_tags": {"ele": "2758", "name": "Riverside Mountain", "natural": "peak"}}, {"name": "Russell NW2.4", "latitude": 50.4586226, "longitude": -115.2450062, "elevation": 2967.0, "source": "osm", "_tags": {"ele": "2967", "name": "Russell NW2.4", "natural": "peak"}}, {"name": "Russell N2.4", "latitude": 50.46072, "longitude": -115.2290725, "elevation": 2823.0, "source": "osm", "_tags": {"ele": "2823", "name": "Russell N2.4", "natural": "peak"}}, {"name": "Russell NW3.6", "latitude": 50.4680586, "longitude": -115.2556753, "elevation": 2785.0, "source": "osm", "_tags": {"ele": "2785", "name": "Russell NW3.6", "natural": "peak"}}, {"name": "Temperance Peak", "latitude": 50.4815924, "longitude": -115.3360176, "elevation": 2938.0, "source": "osm", "_tags": {"ele": "2938", "name": "Temperance Peak", "natural": "peak"}}, {"name": "The Turret", "latitude": 50.5861, "longitude": -115.1269, "elevation": 2575.0, "source": "osm", "_tags": {"ele": "2575", "name": "The Turret", "natural": "peak"}}, {"name": "The Warship", "latitude": 50.4712848, "longitude": -115.1116848, "elevation": 2758.0, "source": "osm", "_tags": {"ele": "2758", "name": "The Warship", "natural": "peak"}}, {"name": "Waka Nambe", "latitude": 50.5684895, "longitude": -115.2462478, "elevation": 2880.0, "source": "osm", "_tags": {"ele": "2880", "name": "Waka Nambe", "natural": "peak"}}, {"name": "Warrior Mountain", "latitude": 50.5686693, "longitude": -115.2382141, "elevation": 2973.0, "source": "osm", "_tags": {"ele": "2973", "name": "Warrior Mountain", "natural": "peak"}}, {"name": "Highwood Ridge", "latitude": 50.5888256, "longitude": -114.9923778, "elevation": 2697.0, "source": "osm", "_tags": {"ele": "2697", "name": "Highwood Ridge", "natural": "peak"}}, {"name": "Mount Loomis", "latitude": 50.4625656, "longitude": -114.9196593, "elevation": 2822.0, "source": "osm", "_tags": {"ele": "2822", "name": "Mount Loomis", "natural": "peak", "wikidata": "Q6921888", "wikipedia": "en:Mount Loomis"}}, {"name": "Mount Pocaterra", "latitude": 50.6003756, "longitude": -115.0303576, "elevation": 2941.0, "source": "osm", "_tags": {"ele": "2941", "name": "Mount Pocaterra", "natural": "peak", "wikidata": "Q6923005", "wikipedia": "en:Mount Pocaterra"}}, {"name": "Mount Tyrwhitt", "latitude": 50.5824641, "longitude": -115.0161121, "elevation": 2874.0, "source": "osm", "_tags": {"ele": "2874", "name": "Mount Tyrwhitt", "natural": "peak", "wikidata": "Q8523073", "wikipedia": "en:Mount Tyrwhitt"}}, {"name": "Odlum Ridge", "latitude": 50.5017, "longitude": -114.8569, "elevation": 2469.0, "source": "osm", "_tags": {"ele": "2469", "name": "Odlum Ridge", "natural": "peak"}}, {"name": "Pocaterra Ridge", "latitude": 50.5986678, "longitude": -115.0186713, "elevation": 2667.0, "source": "osm", "_tags": {"ele": "2667", "name": "Pocaterra Ridge", "natural": "peak"}}, {"name": "Storelk Mountain", "latitude": 50.5383436, "longitude": -114.9832249, "elevation": 2865.0, "source": "osm", "_tags": {"ele": "2865", "name": "Storelk Mountain", "natural": "peak", "wikidata": "Q7619991", "wikipedia": "en:Storelk Mountain"}}, {"name": "Baril Peak", "latitude": 50.2994, "longitude": -114.7561, "elevation": 2998.0, "source": "osm", "_tags": {"ele": "2998", "name": "Baril Peak", "natural": "peak", "wikidata": "Q4860743", "wikipedia": "en:Baril Peak"}}, {"name": "Courcelette NW3", "latitude": 50.3137779, "longitude": -114.8294448, "elevation": 2475.0, "source": "osm", "_tags": {"ele": "2475", "name": "Courcelette NW3", "natural": "peak"}}, {"name": "Courcelette Peak", "latitude": 50.2912207, "longitude": -114.8083385, "elevation": 3044.0, "source": "osm", "_tags": {"ele": "3044", "name": "Courcelette Peak", "natural": "peak"}}, {"name": "Horned Mountain", "latitude": 50.4264, "longitude": -114.8689, "elevation": 2667.0, "source": "osm", "_tags": {"ele": "2667", "name": "Horned Mountain", "natural": "peak"}}, {"name": "Mount Armstrong West Summit", "latitude": 50.3501574, "longitude": -114.7679724, "elevation": 2785.0, "source": "osm", "_tags": {"ele": "2785", "name": "Mount Armstrong West Summit", "natural": "peak"}}, {"name": "Mount Bishop", "latitude": 50.439807, "longitude": -114.8770105, "elevation": 2850.0, "source": "osm", "_tags": {"ele": "2850", "name": "Mount Bishop", "natural": "peak", "wikidata": "Q6919740", "wikipedia": "en:Mount Bishop (Elk Range)"}}, {"name": "Mount Bolton", "latitude": 50.3299572, "longitude": -114.8010942, "elevation": 2706.0, "source": "osm", "_tags": {"ele": "2706", "name": "Mount Bolton", "natural": "peak", "wikidata": "Q6919774", "wikipedia": "en:Mount Bolton"}}, {"name": "Mount Cornwell", "latitude": 50.3003, "longitude": -114.7814, "elevation": 2972.0, "source": "osm", "_tags": {"ele": "2972", "name": "Mount Cornwell", "natural": "peak", "wikidata": "Q6920258", "wikipedia": "en:Mount Cornwell (Canada)"}}, {"name": "Mount MacLaren", "latitude": 50.358505, "longitude": -114.7897717, "elevation": 2837.0, "source": "osm", "_tags": {"ele": "2837", "name": "Mount MacLaren", "natural": "peak"}}, {"name": "Mount McPhail", "latitude": 50.4081, "longitude": -114.8617, "elevation": 2883.0, "source": "osm", "_tags": {"ele": "2883", "name": "Mount McPhail", "natural": "peak", "wikidata": "Q6922129", "wikipedia": "en:Mount McPhail"}}, {"name": "Mount Muir", "latitude": 50.3938448, "longitude": -114.8259704, "elevation": 2758.0, "source": "osm", "_tags": {"ele": "2758", "name": "Mount Muir", "natural": "peak"}}, {"name": "Mount Shankland NE0.7", "latitude": 50.3513819, "longitude": -114.8084215, "elevation": 2730.0, "source": "osm", "_tags": {"ele": "2730", "name": "Mount Shankland NE0.7", "natural": "peak"}}, {"name": "Mount Strachan", "latitude": 50.3823941, "longitude": -114.8149882, "elevation": 2682.0, "source": "osm", "_tags": {"ele": "2682", "name": "Mount Strachan", "natural": "peak", "wikidata": "Q6923893", "wikipedia": "en:Mount Strachan"}}, {"name": "Mount Tuxford", "latitude": 50.2933, "longitude": -114.8756, "elevation": 2575.0, "source": "osm", "_tags": {"ele": "2575", "name": "Mount Tuxford", "natural": "peak"}}, {"name": "Mount Veits", "latitude": 50.3292, "longitude": -114.8681, "elevation": 2301.0, "source": "osm", "_tags": {"ele": "2301", "name": "Mount Veits", "natural": "peak"}}, {"name": "Muir SW2", "latitude": 50.3774642, "longitude": -114.8440361, "elevation": 2662.0, "source": "osm", "_tags": {"ele": "2662", "name": "Muir SW2", "natural": "peak"}}, {"name": "The Hill of the Flowers", "latitude": 50.4396227, "longitude": -114.8383028, "elevation": 2400.0, "source": "osm", "_tags": {"ele": "2400", "name": "The Hill of the Flowers", "natural": "peak"}}, {"name": "Weary Ridge", "latitude": 50.3722634, "longitude": -114.881897, "elevation": 2226.0, "source": "osm", "_tags": {"ele": "2226", "name": "Weary Ridge", "natural": "peak"}}, {"name": "Abby Ridge", "latitude": 50.3317, "longitude": -114.9506, "elevation": 2484.0, "source": "osm", "_tags": {"ele": "2484", "name": "Abby Ridge", "natural": "peak"}}, {"name": "Mount Bleasdell", "latitude": 50.3472, "longitude": -114.9553, "elevation": 2590.0, "source": "osm", "_tags": {"ele": "2590", "name": "Mount Bleasdell", "natural": "peak"}}, {"name": "Mount Connor", "latitude": 50.4159519, "longitude": -115.0904405, "elevation": 2963.0, "source": "osm", "_tags": {"ele": "2963", "name": "Mount Connor", "natural": "peak"}}, {"name": "Mount Ingram", "latitude": 50.2978, "longitude": -115.0331, "elevation": 2731.0, "source": "osm", "_tags": {"ele": "2731", "name": "Mount Ingram", "natural": "peak"}}, {"name": "Mount Marconi", "latitude": 50.3825421, "longitude": -115.1258794, "elevation": 3089.0, "source": "osm", "_tags": {"ele": "3089", "name": "Mount Marconi", "natural": "peak"}}, {"name": "Mount Minton", "latitude": 50.3694, "longitude": -115.1219, "elevation": 3035.0, "source": "osm", "_tags": {"ele": "3035", "name": "Mount Minton", "natural": "peak"}}, {"name": "O'Neil Peak", "latitude": 50.312501, "longitude": -115.1254124, "elevation": 2799.0, "source": "osm", "_tags": {"ele": "2799", "name": "O'Neil Peak", "natural": "peak"}}, {"name": "Quarrie Peak", "latitude": 50.3865623, "longitude": -115.0084877, "elevation": 2935.0, "source": "osm", "_tags": {"ele": "2935", "name": "Quarrie Peak", "natural": "peak"}}, {"name": "Russell Peak", "latitude": 50.4389, "longitude": -115.2333, "elevation": 3065.0, "source": "osm", "_tags": {"ele": "3065", "name": "Russell Peak", "natural": "peak"}}, {"name": "Umbria Peak", "latitude": 50.3163528, "longitude": -115.0603294, "elevation": 2763.0, "source": "osm", "_tags": {"ele": "2763", "name": "Umbria Peak", "natural": "peak"}}, {"name": "Franklin Peaks", "latitude": 50.3791412, "longitude": -115.408772, "elevation": 2892.0, "source": "osm", "_tags": {"ele": "2892", "name": "Franklin Peaks", "natural": "peak"}}, {"name": "Mount Stuart", "latitude": 50.4011, "longitude": -115.5031, "elevation": 2671.0, "source": "osm", "_tags": {"ele": "2671", "name": "Mount Stuart", "natural": "peak"}}, {"name": "Association Hill", "latitude": 51.179058, "longitude": -115.102178, "elevation": 1932.0, "source": "osm", "_tags": {"ele": "1932", "name": "Association Hill", "natural": "peak"}}, {"name": "Mount Charles Stewart South", "latitude": 51.143311, "longitude": -115.322075, "elevation": 2776.0, "source": "osm", "_tags": {"ele": "2776", "name": "Mount Charles Stewart South", "natural": "peak"}}, {"name": "Cougar Peak", "latitude": 51.12402, "longitude": -115.258709, "elevation": 2644.0, "source": "osm", "_tags": {"ele": "2644", "name": "Cougar Peak", "natural": "peak"}}, {"name": "Elpoca Creek Hill", "latitude": 50.679583, "longitude": -115.058028, "elevation": 2500.0, "source": "osm", "_tags": {"ele": "2500.000000", "name": "Elpoca Creek Hill", "natural": "peak"}}, {"name": "Grassi Knob", "latitude": 51.048667, "longitude": -115.360111, "elevation": 2174.0, "source": "osm", "_tags": {"ele": "2174", "name": "Grassi Knob", "natural": "peak", "tourism": "viewpoint"}}, {"name": "Kent Ridge North", "latitude": 50.770829, "longitude": -115.2216299, "elevation": 2914.0, "source": "osm", "_tags": {"ele": "2914", "name": "Kent Ridge North", "natural": "peak"}}, {"name": "Kent South Peak", "latitude": 50.710721, "longitude": -115.17514, "elevation": 2365.0, "source": "osm", "_tags": {"ele": "2365.000000", "name": "Kent South Peak", "natural": "peak"}}, {"name": "Little Arethusa", "latitude": 50.603148, "longitude": -114.975627, "elevation": 2761.0, "source": "osm", "_tags": {"ele": "2761", "name": "Little Arethusa", "natural": "peak"}}, {"name": "Little Lougheed", "latitude": 50.9620063, "longitude": -115.2913381, "elevation": 2483.0, "source": "osm", "_tags": {"ele": "2483", "name": "Little Lougheed", "natural": "peak"}}, {"name": "Morrowmount", "latitude": 51.1382749, "longitude": -115.1702901, "elevation": 2528.0, "source": "osm", "_tags": {"ele": "2528", "name": "Morrowmount", "natural": "peak"}}, {"name": "Mustang Hills East Summit", "latitude": 50.8374754, "longitude": -114.7954547, "elevation": 1814.0, "source": "osm", "_tags": {"ele": "1814", "name": "Mustang Hills East Summit", "natural": "peak"}}, {"name": "Mustang Hills", "latitude": 50.835476, "longitude": -114.809001, "elevation": 1843.0, "source": "osm", "_tags": {"ele": "1843", "name": "Mustang Hills", "natural": "peak"}}, {"name": "Little Mythic", "latitude": 51.133329, "longitude": -115.227809, "elevation": 2614.0, "source": "osm", "_tags": {"ele": "2614", "name": "Little Mythic", "natural": "peak"}}, {"name": "Opal North Peak", "latitude": 50.820605, "longitude": -115.144252, "elevation": 2482.7, "source": "osm", "_tags": {"ele": "2482.7", "name": "Opal North Peak", "natural": "peak"}}, {"name": "Read's Tower", "latitude": 50.937022, "longitude": -115.282538, "elevation": 2657.0, "source": "osm", "_tags": {"ele": "2657", "name": "Read's Tower", "natural": "peak"}}, {"name": "Red Peak", "latitude": 50.904639, "longitude": -115.273778, "elevation": 2779.0, "source": "osm", "_tags": {"ele": "2779", "name": "Red Peak", "natural": "peak"}}, {"name": "Serendipity Peak", "latitude": 50.463789, "longitude": -114.700186, "elevation": 2662.5, "source": "osm", "_tags": {"ele": "2662.5", "name": "Serendipity Peak", "natural": "peak"}}, {"name": "Smutwood Peak", "latitude": 50.800703, "longitude": -115.399215, "elevation": 2692.800049, "source": "osm", "_tags": {"ele": "2692.800049", "name": "Smutwood Peak", "natural": "peak"}}, {"name": "Little Lawson Peak", "latitude": 50.726787, "longitude": -115.150796, "elevation": 2386.0, "source": "osm", "_tags": {"ele": "2386", "name": "Little Lawson Peak", "natural": "peak"}}, {"name": "Strawberry Hills", "latitude": 50.382214, "longitude": -114.723857, "elevation": 1969.900024, "source": "osm", "_tags": {"ele": "1969.900024", "name": "Strawberry Hills", "natural": "peak"}}, {"name": "Lineham North Twin", "latitude": 50.487932, "longitude": -114.720738, "elevation": 2704.0, "source": "osm", "_tags": {"ele": "2704", "name": "Lineham North Twin", "natural": "peak"}}, {"name": "Wendell East Peak", "latitude": 51.1475279, "longitude": -115.1336425, "elevation": 2291.0, "source": "osm", "_tags": {"ele": "2291", "name": "Wendell East Peak", "natural": "peak"}}, {"name": "Subpeak 2", "latitude": 50.8980655, "longitude": -115.5561138, "elevation": 2754.0, "source": "osm", "_tags": {"ele": "2754", "name": "Subpeak 2", "natural": "peak"}}, {"name": "Mount Chesmill", "latitude": 50.7859041, "longitude": -115.2416082, "elevation": 2829.0, "source": "osm", "_tags": {"ele": "2829", "name": "Mount Chesmill", "natural": "peak"}}, {"name": "Mount Invincible", "latitude": 50.667292, "longitude": -115.1922329, "elevation": 2678.0, "source": "osm", "_tags": {"ele": "2678", "name": "Mount Invincible", "natural": "peak", "source": "NRCan-CanVec-10.0"}}, {"name": "Mount Kent", "latitude": 50.733681, "longitude": -115.1919422, "elevation": 2544.0, "source": "osm", "_tags": {"ele": "2544", "name": "Mount Kent", "natural": "peak", "source": "NRCan-CanVec-10.0"}}, {"name": "Mount Castelnau", "latitude": 50.5282837, "longitude": -115.1651012, "elevation": 3005.0, "source": "osm", "_tags": {"ele": "3005", "name": "Mount Castelnau", "natural": "peak", "source": "NRCan-CanVec-10.0"}}, {"name": "Mount Cordonnier", "latitude": 50.5504663, "longitude": -115.2324765, "elevation": 3021.0, "source": "osm", "_tags": {"ele": "3021", "name": "Mount Cordonnier", "natural": "peak", "source": "NRCan-CanVec-10.0", "wikidata": "Q6920251", "wikipedia": "en:Mount Cordonnier"}}, {"name": "Mount Joffre", "latitude": 50.5284106, "longitude": -115.2068768, "elevation": 3433.0, "source": "osm", "_tags": {"ele": "3433", "name": "Mount Joffre", "natural": "peak", "prominence": "1503", "source": "NRCan-CanVec-10.0", "source:ele": "https://bivouac.com//MtnPg.asp?MtnId=12", "source:prominence": "3433-1930 (Col beside Leman Lake)", "wikipedia": "en:Mount Joffre"}}, {"name": "Mount Mangin", "latitude": 50.5419777, "longitude": -115.2262599, "elevation": 3057.0, "source": "osm", "_tags": {"ele": "3057", "name": "Mount Mangin", "natural": "peak", "source": "NRCan-CanVec-10.0", "wikidata": "Q6921992", "wikipedia": "en:Mount Mangin"}}, {"name": "Mount Marlborough", "latitude": 50.560537, "longitude": -115.2004663, "elevation": 2973.0, "source": "osm", "_tags": {"ele": "2973", "name": "Mount Marlborough", "natural": "peak", "source": "NRCan-CanVec-10.0"}}, {"name": "Mount McCuaig", "latitude": 50.5225153, "longitude": -115.1448947, "elevation": 2884.0, "source": "osm", "_tags": {"ele": "2884", "name": "Mount McCuaig", "natural": "peak", "source": "NRCan-CanVec-10.0"}}, {"name": "Mount Nivelle", "latitude": 50.5195539, "longitude": -115.1767346, "elevation": 3256.0, "source": "osm", "_tags": {"ele": "3256", "name": "Mount Nivelle", "natural": "peak", "source": "NRCan-CanVec-10.0", "wikidata": "Q6922432", "wikipedia": "en:Mount Nivelle"}}, {"name": "Unnamed Peak", "latitude": 50.5440205, "longitude": -115.185117, "elevation": 3183.0, "source": "osm", "_tags": {"alt_name": "Mount Pétain", "ele": "3183", "name": "Unnamed Peak", "natural": "peak", "source": "NRCan-CanVec-10.0", "wikidata": "Q6923098", "wikipedia": "en:Unnamed Alberta–BC mountain"}}, {"name": "Mount Smith-Dorrien", "latitude": 50.7318819, "longitude": -115.2896426, "elevation": 3155.0, "source": "osm", "_tags": {"ele": "3155", "name": "Mount Smith-Dorrien", "natural": "peak", "source": "NRCan-CanVec-10.0"}}, {"name": "Mount Queen Elizabeth", "latitude": 50.7125895, "longitude": -115.4052903, "elevation": 2850.0, "source": "osm", "_tags": {"ele": "2850", "name": "Mount Queen Elizabeth", "natural": "peak", "source": "NRCan-CanVec-10.0", "wikidata": "Q6923105"}}, {"name": "Defender Mountain", "latitude": 50.6016982, "longitude": -115.2919341, "elevation": 2790.0, "source": "osm", "_tags": {"ele": "2790", "name": "Defender Mountain", "natural": "peak", "source": "NRCan-CanVec-10.0"}}, {"name": "Onslow Mountain", "latitude": 50.593167, "longitude": -115.2914116, "elevation": 2790.0, "source": "osm", "_tags": {"ele": "2790", "name": "Onslow Mountain", "natural": "peak", "source": "NRCan-CanVec-10.0"}}, {"name": "Shatch Mountain", "latitude": 50.5138907, "longitude": -115.2718801, "elevation": 2884.0, "source": "osm", "_tags": {"ele": "2884", "name": "Shatch Mountain", "natural": "peak", "source": "NRCan-CanVec-10.0"}}, {"name": "Abby Ridge", "latitude": 50.3120042, "longitude": -114.9555708, "elevation": 2194.0, "source": "osm", "_tags": {"ele": "2194", "name": "Abby Ridge", "natural": "peak", "source": "NRCan-CanVec-10.0"}}, {"name": "Mount Shankland", "latitude": 50.3467282, "longitude": -114.8166644, "elevation": 2597.0, "source": "osm", "_tags": {"ele": "2597", "name": "Mount Shankland", "natural": "peak", "source": "NRCan-CanVec-10.0"}}, {"name": "Mount Odlum", "latitude": 50.4864162, "longitude": -114.938136, "elevation": 2724.0, "source": "osm", "_tags": {"ele": "2724", "name": "Mount Odlum", "natural": "peak"}}, {"name": "Commonwealth Ridge", "latitude": 50.792769, "longitude": -115.337933, "elevation": 2578.0, "source": "osm", "_tags": {"ele": "2578", "name": "Commonwealth Ridge", "natural": "peak", "source": "Brendan Clark"}}, {"name": "Wasootch Peak North", "latitude": 50.949012, "longitude": -115.101384, "elevation": 2305.0, "source": "osm", "_tags": {"ele": "2305", "name": "Wasootch Peak North", "natural": "peak"}}, {"name": "Mount Roberta", "latitude": 50.633777, "longitude": -115.052673, "elevation": 2373.0, "source": "osm", "_tags": {"ele": "2373", "name": "Mount Roberta", "natural": "peak"}}, {"name": "The Orphan", "latitude": 51.006219, "longitude": -115.327308, "elevation": 2614.0, "source": "osm", "_tags": {"ele": "2614", "name": "The Orphan", "natural": "peak"}}, {"name": "Wind Mountain", "latitude": 50.9543221, "longitude": -115.2454738, "elevation": 3153.0, "source": "osm", "_tags": {"ele": "3153", "name": "Wind Mountain", "natural": "peak", "source": "NRCan-CanVec-10.0", "wikidata": "Q22624262", "wikipedia": "en:Wind Mountain"}}, {"name": "Cliffside Ridge", "latitude": 51.0613659, "longitude": -114.9611557, "elevation": 1804.0, "source": "osm", "_tags": {"ele": "1804", "name": "Cliffside Ridge", "natural": "peak"}}, {"name": "Sibbald Ridge", "latitude": 51.059213, "longitude": -114.8877549, "elevation": 1702.0, "source": "osm", "_tags": {"ele": "1702", "name": "Sibbald Ridge", "natural": "peak"}}, {"name": "Lusk Ridge South", "latitude": 51.0092026, "longitude": -114.9689632, "elevation": 2082.0, "source": "osm", "_tags": {"ele": "2082", "name": "Lusk Ridge South", "natural": "peak"}}, {"name": "Lusk Ridge West", "latitude": 51.0330874, "longitude": -114.9816348, "elevation": 1855.0, "source": "osm", "_tags": {"ele": "1855", "name": "Lusk Ridge West", "natural": "peak"}}, {"name": "Iyarhe Ipan", "latitude": 50.8524114, "longitude": -114.779991, "elevation": 1897.0, "source": "osm", "_tags": {"alt_name": "Mountain Point", "ele": "1897", "name": "Iyarhe Ipan", "natural": "peak"}}, {"name": "Swany's Ridge", "latitude": 50.8502058, "longitude": -114.7654901, "elevation": 1890.0, "source": "osm", "_tags": {"ele": "1890", "name": "Swany's Ridge", "natural": "peak"}}, {"name": "Lusk Ridge East", "latitude": 51.0332369, "longitude": -114.9220738, "elevation": 1915.0, "source": "osm", "_tags": {"ele": "1915", "name": "Lusk Ridge East", "natural": "peak"}}, {"name": "Ole Buck Mountain North", "latitude": 51.0771634, "longitude": -114.8459453, "elevation": 1687.0, "source": "osm", "_tags": {"ele": "1687", "name": "Ole Buck Mountain North", "natural": "peak"}}, {"name": "Blacksmith Ridge", "latitude": 50.7202238, "longitude": -115.2397459, "elevation": 2331.0, "source": "osm", "_tags": {"ele": "2331", "name": "Blacksmith Ridge", "natural": "peak"}}, {"name": "Lower Lineham Ridge", "latitude": 50.5034447, "longitude": -114.7691548, "elevation": 2478.0, "source": "osm", "_tags": {"ele": "2478", "name": "Lower Lineham Ridge", "natural": "peak"}}, {"name": "Rummel Ridge", "latitude": 50.8404462, "longitude": -115.3094203, "elevation": 2428.0, "source": "osm", "_tags": {"ele": "2428", "name": "Rummel Ridge", "natural": "peak"}}, {"name": "Tangle Peak", "latitude": 50.6500396, "longitude": -115.6525666, "elevation": 2764.0, "source": "osm", "_tags": {"ele": "2764", "name": "Tangle Peak", "natural": "peak", "source": "NRCan-CanVec-10.0"}}, {"name": "Windy Ridge", "latitude": 50.9633429, "longitude": -115.6190911, "elevation": 2688.0, "source": "osm", "_tags": {"ele": "2688", "name": "Windy Ridge", "natural": "peak"}}, {"name": "Chucks Ridge", "latitude": 50.9195795, "longitude": -115.6713081, "elevation": 2297.0, "source": "osm", "_tags": {"ele": "2297", "name": "Chucks Ridge", "natural": "peak", "source": "NRCan-CanVec-10.0"}}, {"name": "Chucks Ridge", "latitude": 50.923785, "longitude": -115.66368, "elevation": 2480.0, "source": "osm", "_tags": {"ele": "2480", "name": "Chucks Ridge", "natural": "peak", "source": "NRCan-CanVec-10.0"}}, {"name": "The Nublet", "latitude": 50.9210538, "longitude": -115.6497151, "elevation": 2537.0, "source": "osm", "_tags": {"ele": "2537", "name": "The Nublet", "natural": "peak", "source": "NRCan-CanVec-10.0", "wikidata": "Q22401851"}}, {"name": "Mist Ridge", "latitude": 50.5878025, "longitude": -114.8632097, "elevation": 2500.0, "source": "osm", "_tags": {"ele": "2500", "name": "Mist Ridge", "natural": "peak"}}, {"name": "Thorne Hill", "latitude": 50.9529283, "longitude": -114.8082127, "elevation": 1983.0, "source": "osm", "_tags": {"ele": "1983", "name": "Thorne Hill", "natural": "peak"}}, {"name": "Moose Mountain Northeast", "latitude": 50.9407634, "longitude": -114.8218327, "elevation": 2315.0, "source": "osm", "_tags": {"ele": "2315", "name": "Moose Mountain Northeast", "natural": "peak"}}, {"name": "Mt Indefatigable East Peak", "latitude": 50.6578717, "longitude": -115.1644161, "elevation": 2540.0, "source": "osm", "_tags": {"ele": "2540", "name": "Mt Indefatigable East Peak", "natural": "peak"}}, {"name": "Mount Indefatigable South Peak", "latitude": 50.64637, "longitude": -115.16638, "elevation": 2650.0, "source": "osm", "_tags": {"ele": "2650", "name": "Mount Indefatigable South Peak", "natural": "peak"}}, {"name": "Rundle 8", "latitude": 51.0806383, "longitude": -115.4240925, "elevation": 2575.0, "source": "osm", "_tags": {"ele": "2575", "name": "Rundle 8", "natural": "peak"}}, {"name": "Shell Hill", "latitude": 51.0143165, "longitude": -114.8910339, "elevation": 1831.0, "source": "osm", "_tags": {"ele": "1831", "name": "Shell Hill", "natural": "peak"}}, {"name": "Ben's Hill", "latitude": 50.889284, "longitude": -114.7880977, "elevation": 1924.0, "source": "osm", "_tags": {"ele": "1924", "name": "Ben's Hill", "natural": "peak"}}, {"name": "Mount Mackay", "latitude": 50.8513524, "longitude": -115.1195583, "elevation": 2394.0, "source": "osm", "_tags": {"ele": "2394", "name": "Mount Mackay", "natural": "peak"}}, {"name": "Taiga Viewpoint", "latitude": 50.5706312, "longitude": -115.0970244, "elevation": 2347.0, "source": "osm", "_tags": {"ele": "2347", "name": "Taiga Viewpoint", "natural": "peak"}}, {"name": "Southwest Mist Hill", "latitude": 50.5325554, "longitude": -114.8253675, "elevation": 2370.0, "source": "osm", "_tags": {"ele": "2370", "name": "Southwest Mist Hill", "natural": "peak"}}, {"name": "Southeast Mist Hill", "latitude": 50.535222, "longitude": -114.817556, "elevation": 2416.0, "source": "osm", "_tags": {"ele": "2416", "name": "Southeast Mist Hill", "natural": "peak"}}, {"name": "Bogart Tower", "latitude": 50.9246918, "longitude": -115.2389927, "elevation": 2251.0, "source": "osm", "_tags": {"ele": "2251", "name": "Bogart Tower", "natural": "peak"}}, {"name": "Mount Muir West", "latitude": 50.3899202, "longitude": -114.8324659, "elevation": 2679.0, "source": "osm", "_tags": {"ele": "2679", "name": "Mount Muir West", "natural": "peak"}}, {"name": "Crown Peak East", "latitude": 50.9474269, "longitude": -115.0135053, "elevation": 2263.0, "source": "osm", "_tags": {"ele": "2263", "name": "Crown Peak East", "natural": "peak"}}, {"name": "Crown Peak West", "latitude": 50.9450749, "longitude": -115.0186019, "elevation": 2272.0, "source": "osm", "_tags": {"ele": "2272", "name": "Crown Peak West", "natural": "peak"}}, {"name": "Porcupine Tower", "latitude": 50.9492837, "longitude": -115.0302319, "elevation": 2120.0, "source": "osm", "_tags": {"ele": "2120", "name": "Porcupine Tower", "natural": "peak"}}, {"name": "Grouse Ridge", "latitude": 51.0727816, "longitude": -114.9006175, "elevation": 1735.0, "source": "osm", "_tags": {"ele": "1735", "name": "Grouse Ridge", "natural": "peak"}}, {"name": "Mist Mountain Outlier", "latitude": 50.5519232, "longitude": -114.9033696, "elevation": 3040.0, "source": "osm", "_tags": {"ele": "3040", "name": "Mist Mountain Outlier", "natural": "peak"}}, {"name": "Mount Wendell", "latitude": 51.1450636, "longitude": -115.1499475, "elevation": 2336.0, "source": "osm", "_tags": {"ele": "2336", "name": "Mount Wendell", "natural": "peak"}}, {"name": "Mount Norquay East Peak", "latitude": 51.2031987, "longitude": -115.6241837, "elevation": 2344.0, "source": "osm", "_tags": {"ele": "2344", "name": "Mount Norquay East Peak", "natural": "peak"}}, {"name": "Little Galatea", "latitude": 50.823636, "longitude": -115.2921272, "elevation": 2653.0, "source": "osm", "_tags": {"ele": "2653", "name": "Little Galatea", "natural": "peak"}}, {"name": "Miner's Peak", "latitude": 51.059312, "longitude": -115.39424, "elevation": 2450.0, "source": "osm", "_tags": {"ele": "2450", "name": "Miner's Peak", "natural": "peak"}}, {"name": "Burstall Pass Peak", "latitude": 50.7491223, "longitude": -115.3756625, "elevation": 2551.0, "source": "osm", "_tags": {"ele": "2551", "name": "Burstall Pass Peak", "natural": "peak"}}, {"name": "Cox Hill NE summit", "latitude": 50.9916548, "longitude": -114.900642, "elevation": 2193.0, "source": "osm", "_tags": {"ele": "2193", "name": "Cox Hill NE summit", "natural": "peak", "source": "http://kananaskistrails.com/mountain-heights/2018/"}}, {"name": "Mount Rundle", "latitude": 51.1523728, "longitude": -115.5015087, "elevation": 2766.0, "source": "osm", "_tags": {"ele": "2766", "name": "Mount Rundle", "natural": "peak", "source": "NRCan-CanVec-10.0"}}, {"name": "Twin Towers (West)", "latitude": 51.0212533, "longitude": -115.1139934, "elevation": 2315.0, "source": "osm", "_tags": {"ele": "2315", "name": "Twin Towers (West)", "natural": "peak"}}, {"name": "Ship's Prow Mountain", "latitude": 51.0445122, "longitude": -115.378963, "elevation": 2636.0, "source": "osm", "_tags": {"ele": "2636", "name": "Ship's Prow Mountain", "natural": "peak"}}, {"name": "Moose Mountain North", "latitude": 50.946571, "longitude": -114.8445591, "elevation": 2382.0, "source": "osm", "_tags": {"ele": "2382", "name": "Moose Mountain North", "natural": "peak"}}, {"name": "Moose Mountain Northwest", "latitude": 50.9573214, "longitude": -114.8526656, "elevation": 2247.0, "source": "osm", "_tags": {"ele": "2247", "name": "Moose Mountain Northwest", "natural": "peak"}}, {"name": "The End of Jumpingpound Ridge", "latitude": 50.9501843, "longitude": -114.8640722, "elevation": 2200.0, "source": "osm", "_tags": {"ele": "2200", "name": "The End of Jumpingpound Ridge", "natural": "peak"}}, {"name": "Pig's Back", "latitude": 50.8004505, "longitude": -115.3519401, "elevation": 2359.0, "source": "osm", "_tags": {"ele": "2359", "name": "Pig's Back", "natural": "peak"}}, {"name": "Bluemat Hill", "latitude": 51.0790491, "longitude": -115.192168, "elevation": 1910.0, "source": "osm", "_tags": {"ele": "1910", "name": "Bluemat Hill", "natural": "peak"}}, {"name": "Anklebiter Ridge", "latitude": 51.0814847, "longitude": -115.2045208, "elevation": 2131.0, "source": "osm", "_tags": {"ele": "2131", "name": "Anklebiter Ridge", "natural": "peak"}}, {"name": "The Niblet", "latitude": 50.9156547, "longitude": -115.6481632, "elevation": 2382.0, "source": "osm", "_tags": {"ele": "2382", "name": "The Niblet", "natural": "peak"}}, {"name": "South Volcano Ridge", "latitude": 50.6913021, "longitude": -114.7054802, "elevation": 1950.0, "source": "osm", "_tags": {"ele": "1950", "name": "South Volcano Ridge", "natural": "peak"}}, {"name": "Surveyor's Ridge SW", "latitude": 50.6890084, "longitude": -114.7518692, "elevation": 2161.0, "source": "osm", "_tags": {"ele": "2161", "name": "Surveyor's Ridge SW", "natural": "peak"}}, {"name": "Volcano Ridge", "latitude": 50.7085395, "longitude": -114.7107786, "elevation": 2127.0, "source": "osm", "_tags": {"ele": "2127", "name": "Volcano Ridge", "natural": "peak"}}, {"name": "Valleyside Ridge", "latitude": 51.0596537, "longitude": -114.9709648, "elevation": 1827.0, "source": "osm", "_tags": {"ele": "1827", "name": "Valleyside Ridge", "natural": "peak"}}, {"name": "Dawson Hill", "latitude": 51.0106398, "longitude": -114.8398738, "elevation": 1707.0, "source": "osm", "_tags": {"ele": "1707", "name": "Dawson Hill", "natural": "peak"}}, {"name": "Taipiti Ridge", "latitude": 50.9273396, "longitude": -114.6948222, "elevation": 1655.0, "source": "osm", "_tags": {"ele": "1655", "name": "Taipiti Ridge", "natural": "peak"}}, {"name": "Carrot Peak", "latitude": 51.2030961, "longitude": -115.2800146, "elevation": 2735.0, "source": "osm", "_tags": {"ele": "2735", "name": "Carrot Peak", "natural": "peak"}}, {"name": "Cross Peak", "latitude": 51.1564393, "longitude": -115.1919985, "elevation": 2560.0, "source": "osm", "_tags": {"ele": "2560", "name": "Cross Peak", "natural": "peak"}}, {"name": "Moose Mountain East", "latitude": 50.9250167, "longitude": -114.8137333, "elevation": 2255.0, "source": "osm", "_tags": {"ele": "2255", "name": "Moose Mountain East", "natural": "peak"}}, {"name": "Moose Mountain South", "latitude": 50.92695, "longitude": -114.8288167, "elevation": 2318.0, "source": "osm", "_tags": {"ele": "2318", "name": "Moose Mountain South", "natural": "peak"}}, {"name": "Moose Mountain Southeast", "latitude": 50.9133333, "longitude": -114.8039, "elevation": 2167.0, "source": "osm", "_tags": {"ele": "2167", "name": "Moose Mountain Southeast", "natural": "peak"}}, {"name": "Moose Mountain Southwest", "latitude": 50.9191, "longitude": -114.8339, "elevation": 2297.0, "source": "osm", "_tags": {"ele": "2297", "name": "Moose Mountain Southwest", "natural": "peak"}}, {"name": "Moose Mountain West", "latitude": 50.93035, "longitude": -114.84245, "elevation": 2319.0, "source": "osm", "_tags": {"ele": "2319", "name": "Moose Mountain West", "natural": "peak"}}, {"name": "Mount Glasgow North", "latitude": 50.778444, "longitude": -114.9207472, "elevation": 2448.0, "source": "osm", "_tags": {"ele": "2448", "name": "Mount Glasgow North", "natural": "peak"}}, {"name": "Canyon Creek Hill", "latitude": 50.9147618, "longitude": -114.903287, "elevation": 1782.0, "source": "osm", "_tags": {"ele": "1782", "name": "Canyon Creek Hill", "natural": "peak"}}, {"name": "Mount Wintour North", "latitude": 50.7032246, "longitude": -115.0853017, "elevation": 2464.0, "source": "osm", "_tags": {"ele": "2464", "name": "Mount Wintour North", "natural": "peak"}}, {"name": "Buller Pass Peak", "latitude": 50.8857461, "longitude": -115.2867455, "elevation": 2650.0, "source": "osm", "_tags": {"ele": "2650", "name": "Buller Pass Peak", "natural": "peak"}}, {"name": "Hero's Knob", "latitude": 50.7331674, "longitude": -115.2615126, "elevation": 2428.0, "source": "osm", "_tags": {"ele": "2428", "name": "Hero's Knob", "natural": "peak"}}, {"name": "Quirk Ridge North", "latitude": 50.8394185, "longitude": -114.7593546, "elevation": 1858.0, "source": "osm", "_tags": {"ele": "1858", "name": "Quirk Ridge North", "natural": "peak"}}, {"name": "Quirk Ridge", "latitude": 50.827009, "longitude": -114.7521324, "elevation": 1949.0, "source": "osm", "_tags": {"ele": "1949", "name": "Quirk Ridge", "natural": "peak"}}, {"name": "Little Marvel", "latitude": 50.8519616, "longitude": -115.560039, "elevation": 2488.0, "source": "osm", "_tags": {"ele": "2488", "name": "Little Marvel", "natural": "peak"}}, {"name": "Link Hill", "latitude": 50.8690868, "longitude": -114.8461839, "elevation": 1959.0, "source": "osm", "_tags": {"ele": "1959", "name": "Link Hill", "natural": "peak"}}, {"name": "Boundary Ridge", "latitude": 50.9711807, "longitude": -115.0067676, "elevation": 2126.0, "source": "osm", "_tags": {"ele": "2126", "name": "Boundary Ridge", "natural": "peak"}}, {"name": "Limestone Ridge", "latitude": 50.8581293, "longitude": -115.1474745, "elevation": 2263.0, "source": "osm", "_tags": {"ele": "2263", "name": "Limestone Ridge", "natural": "peak"}}, {"name": "Bryant Ridge Peak 1", "latitude": 50.9185072, "longitude": -114.9581583, "elevation": 2251.0, "source": "osm", "_tags": {"ele": "2251", "name": "Bryant Ridge Peak 1", "natural": "peak"}}, {"name": "Bryant Ridge Peak 2", "latitude": 50.9317279, "longitude": -114.9701131, "elevation": 2309.0, "source": "osm", "_tags": {"ele": "2309", "name": "Bryant Ridge Peak 2", "natural": "peak"}}, {"name": "Bryant Ridge Peak 3", "latitude": 50.9352138, "longitude": -114.9917055, "elevation": 2450.0, "source": "osm", "_tags": {"ele": "2450", "name": "Bryant Ridge Peak 3", "natural": "peak"}}, {"name": "Bryant Ridge Peak 4", "latitude": 50.9272627, "longitude": -114.9953472, "elevation": 2511.0, "source": "osm", "_tags": {"ele": "2511", "name": "Bryant Ridge Peak 4", "natural": "peak"}}, {"name": "Bryant Ridge Peak 5", "latitude": 50.910558, "longitude": -115.0147157, "elevation": 2548.0, "source": "osm", "_tags": {"ele": "2548", "name": "Bryant Ridge Peak 5", "natural": "peak"}}, {"name": "Bryant Ridge Peak 6", "latitude": 50.8987898, "longitude": -115.0174712, "elevation": 2591.0, "source": "osm", "_tags": {"ele": "2591", "name": "Bryant Ridge Peak 6", "natural": "peak"}}, {"name": "Bryant Ridge Peak 7", "latitude": 50.8968267, "longitude": -115.0076448, "elevation": 2552.0, "source": "osm", "_tags": {"ele": "2552", "name": "Bryant Ridge Peak 7", "natural": "peak"}}, {"name": "Guinn's Peak", "latitude": 50.8773019, "longitude": -115.2430945, "elevation": 2617.0, "source": "osm", "_tags": {"ele": "2617", "name": "Guinn's Peak", "natural": "peak"}}, {"name": "Elbow Hill", "latitude": 50.7761916, "longitude": -114.8673527, "elevation": 1910.0, "source": "osm", "_tags": {"ele": "1910", "name": "Elbow Hill", "natural": "peak"}}, {"name": "Mount ArmLaren", "latitude": 50.362935, "longitude": -114.7769353, "elevation": 2809.0, "source": "osm", "_tags": {"ele": "2809", "name": "Mount ArmLaren", "natural": "peak"}}, {"name": "Carnarvon Peak", "latitude": 50.3617912, "longitude": -114.7968716, "elevation": 2835.0, "source": "osm", "_tags": {"ele": "2835", "name": "Carnarvon Peak", "natural": "peak"}}, {"name": "Mount Edith South Peak", "latitude": 51.2017532, "longitude": -115.6623577, "elevation": 2552.0, "source": "osm", "_tags": {"ele": "2552", "name": "Mount Edith South Peak", "natural": "peak", "source": "Brendan Clark"}}, {"name": "Mount Aldridge North Peak", "latitude": 50.3073125, "longitude": -114.8028959, "elevation": 2948.0, "source": "osm", "_tags": {"ele": "2948", "name": "Mount Aldridge North Peak", "natural": "peak", "source": "Brendan Clark"}}, {"name": "Mount Aldridge", "latitude": 50.2991036, "longitude": -114.7995987, "elevation": 3023.0, "source": "osm", "_tags": {"ele": "3023", "name": "Mount Aldridge", "natural": "peak", "source": "Brendan Clark"}}, {"name": "Mount Armstrong True Summit", "latitude": 50.3476576, "longitude": -114.7610347, "elevation": 2790.0, "source": "osm", "_tags": {"ele": "2790", "name": "Mount Armstrong True Summit", "natural": "peak"}}, {"name": "Mount Edith Centre Peak", "latitude": 51.2046828, "longitude": -115.6665401, "elevation": 2584.0, "source": "osm", "_tags": {"ele": "2584", "name": "Mount Edith Centre Peak", "natural": "peak", "source": "Brendan Clark"}}, {"name": "Delta Peak", "latitude": 50.9485671, "longitude": -115.1083224, "elevation": 2133.0, "source": "osm", "_tags": {"ele": "2133", "name": "Delta Peak", "natural": "peak"}}, {"name": "Packenham Junior", "latitude": 50.7507064, "longitude": -115.1115943, "elevation": 2253.0, "source": "osm", "_tags": {"ele": "2253", "name": "Packenham Junior", "natural": "peak"}}, {"name": "Sarrail Ridge", "latitude": 50.5994187, "longitude": -115.1597611, "elevation": 2362.0, "source": "osm", "_tags": {"ele": "2362", "name": "Sarrail Ridge", "natural": "peak"}}, {"name": "Cat Creek Knob", "latitude": 50.4455, "longitude": -114.693972, "elevation": 2335.0, "source": "osm", "_tags": {"ele": "2335", "name": "Cat Creek Knob", "natural": "peak"}}, {"name": "Jagermeister Peak", "latitude": 50.5718927, "longitude": -114.7840405, "elevation": 2715.0, "source": "osm", "_tags": {"ele": "2715", "name": "Jagermeister Peak", "natural": "peak"}}, {"name": "Epic Tower", "latitude": 51.1460587, "longitude": -115.2322429, "elevation": 2652.0, "source": "osm", "_tags": {"ele": "2652", "name": "Epic Tower", "natural": "peak"}}, {"name": "Mythic Tower", "latitude": 51.1395632, "longitude": -115.2288955, "elevation": 2580.0, "source": "osm", "_tags": {"ele": "2580", "name": "Mythic Tower", "natural": "peak"}}, {"name": "Indian Oils Hill 4", "latitude": 50.6294833, "longitude": -114.7074795, "elevation": 1820.0, "source": "osm", "_tags": {"ele": "1820", "name": "Indian Oils Hill 4", "natural": "peak"}}, {"name": "Indian Oils Hill 3", "latitude": 50.6327636, "longitude": -114.7341943, "elevation": 1979.0, "source": "osm", "_tags": {"ele": "1979", "name": "Indian Oils Hill 3", "natural": "peak"}}, {"name": "Indian Oils Hill 2", "latitude": 50.6327431, "longitude": -114.7272956, "elevation": 1961.0, "source": "osm", "_tags": {"ele": "1961", "name": "Indian Oils Hill 2", "natural": "peak"}}, {"name": "Indian Oils Hill 1", "latitude": 50.6276594, "longitude": -114.7236371, "elevation": 1940.0, "source": "osm", "_tags": {"ele": "1940", "name": "Indian Oils Hill 1", "natural": "peak"}}, {"name": "Wasootch Tower", "latitude": 50.9521803, "longitude": -115.0910273, "elevation": 2007.0, "source": "osm", "_tags": {"ele": "2007", "name": "Wasootch Tower", "natural": "peak"}}, {"name": "Sibbald Meadows Hill", "latitude": 51.0645254, "longitude": -114.9438958, "elevation": 1736.0, "source": "osm", "_tags": {"ele": "1736", "name": "Sibbald Meadows Hill", "natural": "peak"}}, {"name": "Mount Buller West Peak", "latitude": 50.885949, "longitude": -115.3338236, "elevation": 2505.0, "source": "osm", "_tags": {"ele": "2505", "name": "Mount Buller West Peak", "natural": "peak"}}, {"name": "Running Rain Peak", "latitude": 50.497322, "longitude": -114.9512246, "elevation": 2755.0, "source": "osm", "_tags": {"ele": "2755", "name": "Running Rain Peak", "natural": "peak"}}, {"name": "Fortress Southern Outlier", "latitude": 50.8231002, "longitude": -115.2353489, "elevation": 2692.0, "source": "osm", "_tags": {"ele": "2692", "name": "Fortress Southern Outlier", "natural": "peak"}}, {"name": "Powderface Ridge", "latitude": 50.84468, "longitude": -114.8488268, "elevation": 2200.0, "source": "osm", "_tags": {"ele": "2200", "name": "Powderface Ridge", "natural": "peak"}}, {"name": "Piper Pass", "latitude": 50.6954136, "longitude": -115.0302348, "elevation": 2584.0, "source": "osm", "_tags": {"ele": "2584", "mountain_pass": "yes", "name": "Piper Pass", "natural": "peak"}}, {"name": "Mount Barnwell", "latitude": 50.302627, "longitude": -114.769906, "elevation": 2890.0, "source": "osm", "_tags": {"ele": "2890", "name": "Mount Barnwell", "natural": "peak"}}, {"name": "Grizzly Ridge", "latitude": 50.586343, "longitude": -115.004454, "elevation": 2764.0, "source": "osm", "_tags": {"ele": "2764", "name": "Grizzly Ridge", "natural": "peak"}}, {"name": "Lillian Peak", "latitude": 50.8768459, "longitude": -115.2688026, "elevation": 2880.0, "source": "osm", "_tags": {"ele": "2880", "name": "Lillian Peak", "natural": "peak"}}, {"name": "Little Chester", "latitude": 50.801971, "longitude": -115.2701268, "elevation": 2640.0, "source": "osm", "_tags": {"ele": "2640", "name": "Little Chester", "natural": "peak"}}, {"name": "Headwall Peak", "latitude": 50.8042809, "longitude": -115.2339663, "elevation": 3020.0, "source": "osm", "_tags": {"ele": "3020", "name": "Headwall Peak", "natural": "peak"}}, {"name": "", "latitude": 51.2825098, "longitude": -114.9828689, "elevation": 1640.0, "source": "osm", "_tags": {"ele": "1640", "natural": "peak"}}, {"name": "Perdition Peak", "latitude": 50.8666319, "longitude": -115.0317853, "elevation": 2770.0, "source": "osm", "_tags": {"description": "Perdition Peak, southeast of Mount McDougall", "ele": "2770", "name": "Perdition Peak", "natural": "peak"}}, {"name": "Purgatory Peak", "latitude": 50.8783159, "longitude": -115.0470247, "elevation": 2765.0, "source": "osm", "_tags": {"description": "Ascended Unnamed Peak while traversing to Perdition Peak to the southeast - named it Purgatory Peak and corrected route information in David Jones' Rockies South guidebook", "ele": "2765", "name": "Purgatory Peak", "natural": "peak"}}, {"name": "", "latitude": 51.1867621, "longitude": -115.0078482, "elevation": 1720.0, "source": "osm", "_tags": {"ele": "1720", "natural": "peak"}}, {"name": "", "latitude": 51.1667539, "longitude": -115.0576047, "elevation": 1640.0, "source": "osm", "_tags": {"ele": "1640", "natural": "peak"}}, {"name": "Grotto Mountain N1.9", "latitude": 51.1041067, "longitude": -115.2593796, "elevation": 2620.0, "source": "osm", "_tags": {"ele": "2620", "name": "Grotto Mountain N1.9", "natural": "peak"}}, {"name": "Grotto Mountain N1.4", "latitude": 51.0979835, "longitude": -115.2578684, "elevation": 2645.0, "source": "osm", "_tags": {"ele": "2645", "name": "Grotto Mountain N1.4", "natural": "peak"}}, {"name": "2240", "latitude": 51.1439759, "longitude": -115.574823, "elevation": null, "source": "osm", "_tags": {"name": "2240", "natural": "peak"}}, {"name": "2260", "latitude": 51.147059, "longitude": -115.5783596, "elevation": null, "source": "osm", "_tags": {"name": "2260", "natural": "peak"}}, {"name": "Mount Kidd Lookout", "latitude": 50.9144336, "longitude": -115.1720614, "elevation": 2100.0, "source": "osm", "_tags": {"ele": "2100", "name": "Mount Kidd Lookout", "natural": "peak"}}, {"name": "Storthusa Ridge", "latitude": 50.5993006, "longitude": -114.9478746, "elevation": 2852.0, "source": "osm", "_tags": {"ele": "2852", "name": "Storthusa Ridge", "natural": "peak"}}, {"name": "Rock Point Ridge", "latitude": 50.8967333, "longitude": -114.8736799, "elevation": 2090.0, "source": "osm", "_tags": {"ele": "2090", "name": "Rock Point Ridge", "natural": "peak"}}, {"name": "Coyote Hills West", "latitude": 50.3486015, "longitude": -114.7148028, "elevation": 2010.0, "source": "osm", "_tags": {"ele": "2010", "name": "Coyote Hills West", "natural": "peak"}}, {"name": "Little Evan Peak", "latitude": 50.766189, "longitude": -115.0350186, "elevation": 2665.0, "source": "osm", "_tags": {"ele": "2665", "name": "Little Evan Peak", "natural": "peak", "source": "Rockies South - David Jones"}}, {"name": "Mount Ripsaw", "latitude": 50.767654, "longitude": -115.0606058, "elevation": 2975.0, "source": "osm", "_tags": {"ele": "2975", "name": "Mount Ripsaw", "natural": "peak", "source": "Rockies South - David Jones"}}, {"name": "Garriochmill Peak", "latitude": 50.7673554, "longitude": -114.9298744, "elevation": 2675.0, "source": "osm", "_tags": {"ele": "2675", "name": "Garriochmill Peak", "natural": "peak"}}, {"name": "Mount Howard West", "latitude": 50.8538383, "longitude": -115.0084322, "elevation": 2670.0, "source": "osm", "_tags": {"ele": "2670", "name": "Mount Howard West", "natural": "peak"}}, {"name": "Perdition Peak West", "latitude": 50.8644282, "longitude": -115.0442357, "elevation": 2720.0, "source": "osm", "_tags": {"ele": "2720", "name": "Perdition Peak West", "natural": "peak"}}, {"name": "Rocky Peak", "latitude": 50.796965, "longitude": -115.1075012, "elevation": 2915.0, "source": "osm", "_tags": {"ele": "2915", "name": "Rocky Peak", "natural": "peak", "source": "Rockies South - David Jones"}}, {"name": "Mackay Hills East", "latitude": 50.8376411, "longitude": -115.0952496, "elevation": null, "source": "osm", "_tags": {"name": "Mackay Hills East", "natural": "peak"}}, {"name": "Mackay Hills West", "latitude": 50.8427121, "longitude": -115.1051246, "elevation": null, "source": "osm", "_tags": {"name": "Mackay Hills West", "natural": "peak"}}, {"name": "Outlaw Peak SW2", "latitude": 50.7084758, "longitude": -114.9538426, "elevation": 2850.0, "source": "osm", "_tags": {"ele": "2850", "name": "Outlaw Peak SW2", "natural": "peak", "source": "Rockies South - David Jones"}}, {"name": "Outlaw Peak SW1", "latitude": 50.7142872, "longitude": -114.9545147, "elevation": 2850.0, "source": "osm", "_tags": {"ele": "2850", "name": "Outlaw Peak SW1", "natural": "peak", "source": "Rockies South - David Jones"}}, {"name": "Mount Denny South", "latitude": 50.7860294, "longitude": -115.1018428, "elevation": 2980.0, "source": "osm", "_tags": {"ele": "2980", "name": "Mount Denny South", "natural": "peak"}}, {"name": "Opal Ridge South", "latitude": 50.7859542, "longitude": -115.1371456, "elevation": 2575.0, "source": "osm", "_tags": {"ele": "2575", "name": "Opal Ridge South", "natural": "peak"}}, {"name": "Mount Barham", "latitude": 50.7201823, "longitude": -115.0692503, "elevation": 2900.0, "source": "osm", "_tags": {"ele": "2900", "name": "Mount Barham", "natural": "peak", "source": "Rockies South - David Jones"}}, {"name": "Piper Pass Peak", "latitude": 50.6948926, "longitude": -115.031952, "elevation": 2600.0, "source": "osm", "_tags": {"ele": "2600", "name": "Piper Pass Peak", "natural": "peak"}}, {"name": "Tombstone Towers", "latitude": 50.693827, "longitude": -115.0153536, "elevation": 2950.0, "source": "osm", "_tags": {"ele": "2950", "name": "Tombstone Towers", "natural": "peak", "source": "Rockies South - David Jones"}}, {"name": "Tombstone Mountain", "latitude": 50.6991214, "longitude": -115.0178023, "elevation": 3035.0, "source": "osm", "_tags": {"ele": "3035", "name": "Tombstone Mountain", "natural": "peak", "source": "Rockies South - David Jones"}}, {"name": "Janelea Mountain", "latitude": 50.7266197, "longitude": -115.0228189, "elevation": 2810.0, "source": "osm", "_tags": {"ele": "2810", "name": "Janelea Mountain", "natural": "peak", "source": "Rockies South - David Jones"}}, {"name": "Elpoca Mountain South", "latitude": 50.6484378, "longitude": -115.019493, "elevation": 2822.0, "source": "osm", "_tags": {"ele": "2822", "name": "Elpoca Mountain South", "natural": "peak", "source": "Rockies South - David Jones"}}, {"name": "Elpoca Tower", "latitude": 50.6684678, "longitude": -115.0192798, "elevation": 2700.0, "source": "osm", "_tags": {"ele": "2700", "name": "Elpoca Tower", "natural": "peak", "source": "Rockies South - David Jones"}}, {"name": "South Schlee", "latitude": 50.6761257, "longitude": -115.0360316, "elevation": 2800.0, "source": "osm", "_tags": {"ele": "2800", "name": "South Schlee", "natural": "peak", "source": "Rockies South - David Jones"}}, {"name": "Cat's Ears", "latitude": 50.6964961, "longitude": -115.0410493, "elevation": 2950.0, "source": "osm", "_tags": {"ele": "2950", "name": "Cat's Ears", "natural": "peak", "source": "Rockies South - David Jones"}}, {"name": "Opaca Peak", "latitude": 50.6756547, "longitude": -115.0659899, "elevation": 2460.0, "source": "osm", "_tags": {"ele": "2460", "name": "Opaca Peak", "natural": "peak", "source": "Peakery"}}, {"name": "Mist South Tower", "latitude": 50.572896, "longitude": -114.9244289, "elevation": 2960.0, "source": "osm", "_tags": {"ele": "2960", "name": "Mist South Tower", "natural": "peak", "source": "Rockies South - David Jones"}}, {"name": "Mist Central Tower", "latitude": 50.5771686, "longitude": -114.9265333, "elevation": 2960.0, "source": "osm", "_tags": {"ele": "2960", "name": "Mist Central Tower", "natural": "peak", "source": "Rockies South - David Jones"}}, {"name": "Mist North Tower", "latitude": 50.5786242, "longitude": -114.9265368, "elevation": 2960.0, "source": "osm", "_tags": {"ele": "2960", "name": "Mist North Tower", "natural": "peak", "source": "Rockies South - David Jones"}}, {"name": "Storm Mountain East", "latitude": 50.5910034, "longitude": -114.9252673, "elevation": 2750.0, "source": "osm", "_tags": {"ele": "2750", "name": "Storm Mountain East", "natural": "peak", "source": "Rockies South - David Jones"}}, {"name": "Rabbit Ears", "latitude": 50.5928116, "longitude": -114.9454552, "elevation": 2870.0, "source": "osm", "_tags": {"ele": "2870", "name": "Rabbit Ears", "natural": "peak", "source": "Rockies South - David Jones"}}, {"name": "Mount Rae E 2.3", "latitude": 50.6181424, "longitude": -114.9455164, "elevation": 2775.0, "source": "osm", "_tags": {"ele": "2775", "name": "Mount Rae E 2.3", "natural": "peak", "source": "Rockies South - David Jones"}}, {"name": "Mount Rae E1", "latitude": 50.6228975, "longitude": -114.9624317, "elevation": 3150.0, "source": "osm", "_tags": {"ele": "3150", "name": "Mount Rae E1", "natural": "peak", "source": "Rockies South - David Jones"}}, {"name": "Mount Rae SW1", "latitude": 50.6169599, "longitude": -114.9835739, "elevation": 3030.0, "source": "osm", "_tags": {"ele": "3030", "name": "Mount Rae SW1", "natural": "peak", "source": "Rockies South - David Jones"}}, {"name": "Mount Rae W 1.7", "latitude": 50.6260183, "longitude": -114.9977516, "elevation": 2850.0, "source": "osm", "_tags": {"ele": "2850", "name": "Mount Rae W 1.7", "natural": "peak", "source": "Rockies South - David Jones"}}, {"name": "Mount Rae E 3.3", "latitude": 50.6296191, "longitude": -114.9287692, "elevation": 2685.0, "source": "osm", "_tags": {"ele": "2685", "name": "Mount Rae E 3.3", "natural": "peak", "source": "Rockies South - David Jones"}}, {"name": "Mount Rae N 1.8", "latitude": 50.6388054, "longitude": -114.9811863, "elevation": 2847.0, "source": "osm", "_tags": {"ele": "2847", "name": "Mount Rae N 1.8", "natural": "peak", "source": "Rockies South - David Jones"}}, {"name": "Mount Rae N 2.7", "latitude": 50.6471873, "longitude": -114.9810635, "elevation": 2866.0, "source": "osm", "_tags": {"ele": "2866", "name": "Mount Rae N 2.7", "natural": "peak", "source": "Rockies South - David Jones"}}, {"name": "Mount Rae N 3.8", "latitude": 50.6561075, "longitude": -114.9875247, "elevation": 2835.0, "source": "osm", "_tags": {"ele": "2835", "name": "Mount Rae N 3.8", "natural": "peak", "source": "Rockies South - David Jones"}}, {"name": "Picklejar Hill", "latitude": 50.5165338, "longitude": -114.7958623, "elevation": 2270.0, "source": "osm", "_tags": {"ele": "2270", "name": "Picklejar Hill", "natural": "peak", "source": "NRCan-CanVec-7.0"}}, {"name": "Bluerock Mountain NW2", "latitude": 50.6798519, "longitude": -114.8246099, "elevation": 2453.0, "source": "osm", "_tags": {"ele": "2453", "name": "Bluerock Mountain NW2", "natural": "peak", "source": "NRCan-CanVec-7.0"}}, {"name": "Cougar Mountain NE 1.5", "latitude": 50.6811576, "longitude": -114.8808848, "elevation": 2800.0, "source": "osm", "_tags": {"ele": "2800", "name": "Cougar Mountain NE 1.5", "natural": "peak", "source": "NRCan-CanVec-7.0"}}, {"name": "Lineham South Twin", "latitude": 50.481267, "longitude": -114.7124228, "elevation": 2704.0, "source": "osm", "_tags": {"ele": "2704", "name": "Lineham South Twin", "natural": "peak"}}, {"name": "Lineham Centre Twin", "latitude": 50.4864163, "longitude": -114.718623, "elevation": 2704.0, "source": "osm", "_tags": {"ele": "2704", "name": "Lineham Centre Twin", "natural": "peak"}}, {"name": "Trap Peak", "latitude": 50.4716871, "longitude": -114.7051843, "elevation": 2745.0, "source": "osm", "_tags": {"ele": "2745", "name": "Trap Peak", "natural": "peak", "source": "Rockies South - David Jones"}}, {"name": "Pickletooth Mountain", "latitude": 50.5032056, "longitude": -114.7174601, "elevation": 2710.0, "source": "osm", "_tags": {"ele": "2710", "name": "Pickletooth Mountain", "natural": "peak", "source": "Rockies South - David Jones"}}, {"name": "Dogtooth Mountain", "latitude": 50.5090666, "longitude": -114.6910997, "elevation": 2750.0, "source": "osm", "_tags": {"ele": "2750", "name": "Dogtooth Mountain", "natural": "peak", "source": "Rockies South - David Jones"}}, {"name": "Picklejar Peak SE1", "latitude": 50.5093293, "longitude": -114.7383908, "elevation": 2710.0, "source": "osm", "_tags": {"ele": "2710", "name": "Picklejar Peak SE1", "natural": "peak", "source": "Rockies South - David Jones"}}, {"name": "Lineham Ridge", "latitude": 50.5127624, "longitude": -114.7683454, "elevation": 2695.0, "source": "osm", "_tags": {"ele": "2695", "name": "Lineham Ridge", "natural": "peak", "source": "Rockies South - David Jones"}}, {"name": "Picklewood Peak", "latitude": 50.5251224, "longitude": -114.7584643, "elevation": 2645.0, "source": "osm", "_tags": {"ele": "2645", "name": "Picklewood Peak", "natural": "peak", "source": "Rockies South - David Jones"}}, {"name": "Highwood Peak NE 1.8", "latitude": 50.552544, "longitude": -114.7655269, "elevation": 2638.0, "source": "osm", "_tags": {"ele": "2638", "name": "Highwood Peak NE 1.8", "natural": "peak", "source": "Rockies South - David Jones"}}, {"name": "Highwood Peak NE 1.2", "latitude": 50.5501512, "longitude": -114.7729575, "elevation": 2665.0, "source": "osm", "_tags": {"ele": "2665", "name": "Highwood Peak NE 1.2", "natural": "peak", "source": "Rockies South - David Jones"}}, {"name": "South Highwood Peak", "latitude": 50.5348086, "longitude": -114.784653, "elevation": 2790.0, "source": "osm", "_tags": {"ele": "2790", "name": "South Highwood Peak", "natural": "peak", "source": "Rockies South - David Jones"}}, {"name": "Highwood Peak W 1.4", "latitude": 50.5433953, "longitude": -114.8018335, "elevation": 2723.0, "source": "osm", "_tags": {"ele": "2723", "name": "Highwood Peak W 1.4", "natural": "peak", "source": "Rockies South - David Jones"}}, {"name": "Highwood Peak W 1.1", "latitude": 50.5421573, "longitude": -114.7988567, "elevation": 2719.0, "source": "osm", "_tags": {"ele": "2719", "name": "Highwood Peak W 1.1", "natural": "peak", "source": "Rockies South - David Jones"}}, {"name": "Highwood Peak W 1.5", "latitude": 50.5479037, "longitude": -114.8016575, "elevation": 2741.0, "source": "osm", "_tags": {"ele": "2741", "name": "Highwood Peak W 1.5", "natural": "peak", "source": "Rockies South - David Jones"}}, {"name": "North Highwood Peak", "latitude": 50.5612455, "longitude": -114.7965338, "elevation": 2850.0, "source": "osm", "_tags": {"ele": "2850", "name": "North Highwood Peak", "natural": "peak", "source": "Rockies South - David Jones"}}, {"name": "Monty Burns Peak", "latitude": 50.6179147, "longitude": -114.8010186, "elevation": 2622.0, "source": "osm", "_tags": {"ele": "2622", "name": "Monty Burns Peak", "natural": "peak", "source": "Rockies South - David Jones"}}, {"name": "Mount Burnrock", "latitude": 50.6562055, "longitude": -114.8325214, "elevation": 2710.0, "source": "osm", "_tags": {"ele": "2710", "name": "Mount Burnrock", "natural": "peak", "source": "Rockies South - David Jones"}}, {"name": "Mount Burns E 1.7", "latitude": 50.6283341, "longitude": -114.820673, "elevation": 2720.0, "source": "osm", "_tags": {"ele": "2720", "name": "Mount Burns E 1.7", "natural": "peak", "source": "Rockies South - David Jones"}}, {"name": "Mount Burnugar", "latitude": 50.6599945, "longitude": -114.8902875, "elevation": 2850.0, "source": "osm", "_tags": {"ele": "2850", "name": "Mount Burnugar", "natural": "peak", "source": "Rockies South - David Jones"}}, {"name": "Mount Marushka", "latitude": 50.816158, "longitude": -115.4016566, "elevation": 2743.0, "source": "osm", "_tags": {"ele": "2743", "name": "Mount Marushka", "natural": "peak", "source": "Rockies South - David Jones"}}, {"name": "Warspite Ridge", "latitude": 50.6890298, "longitude": -115.2141512, "elevation": 2550.0, "source": "osm", "_tags": {"ele": "2550", "name": "Warspite Ridge", "natural": "peak", "source": "Peakery"}}, {"name": "Beatty Bump", "latitude": 50.669371, "longitude": -115.2789994, "elevation": 2670.0, "source": "osm", "_tags": {"ele": "2670", "name": "Beatty Bump", "natural": "peak"}}, {"name": "Surprise Station", "latitude": 50.6438008, "longitude": -115.2742915, "elevation": 2898.0, "source": "osm", "_tags": {"ele": "2898", "name": "Surprise Station", "natural": "peak", "source": "Rockies South - David Jones"}}, {"name": "Razor Flakes", "latitude": 50.6633075, "longitude": -115.2742863, "elevation": 2818.0, "source": "osm", "_tags": {"ele": "2818", "name": "Razor Flakes", "natural": "peak", "source": "Rockies South - David Jones"}}, {"name": "Three Isle Peak", "latitude": 50.6484267, "longitude": -115.2754905, "elevation": 2907.0, "source": "osm", "_tags": {"ele": "2907", "name": "Three Isle Peak", "natural": "peak", "source": "Rockies South - David Jones"}}, {"name": "Forks Peak", "latitude": 50.6606309, "longitude": -115.2234165, "elevation": 2862.0, "source": "osm", "_tags": {"ele": "2862", "name": "Forks Peak", "natural": "peak", "source": "Rockies South - David Jones"}}, {"name": "Mount Warspite SW 1.3", "latitude": 50.6719384, "longitude": -115.2281282, "elevation": 2800.0, "source": "osm", "_tags": {"ele": "2800", "name": "Mount Warspite SW 1.3", "natural": "peak", "source": "Rockies South - David Jones"}}, {"name": "Haig Ridge", "latitude": 50.7113622, "longitude": -115.3117222, "elevation": null, "source": "osm", "_tags": {"name": "Haig Ridge", "natural": "peak"}}, {"name": "Leaning Peak", "latitude": 50.7118808, "longitude": -115.2556272, "elevation": null, "source": "osm", "_tags": {"name": "Leaning Peak", "natural": "peak"}}, {"name": "Mount Marlborough SE1", "latitude": 50.5552476, "longitude": -115.1915679, "elevation": 3017.0, "source": "osm", "_tags": {"ele": "3017", "name": "Mount Marlborough SE1", "natural": "peak", "source": "Rockies South - David Jones"}}, {"name": "Mount Nivelle SW1", "latitude": 50.5120078, "longitude": -115.1844271, "elevation": 2910.0, "source": "osm", "_tags": {"ele": "2910", "name": "Mount Nivelle SW1", "natural": "peak", "source": "Rockies South - David Jones"}}, {"name": "Mount Foch SE1.7", "latitude": 50.5581159, "longitude": -115.1478514, "elevation": 2872.0, "source": "osm", "_tags": {"ele": "2872", "name": "Mount Foch SE1.7", "natural": "peak", "source": "Rockies South - David Jones"}}, {"name": "Elkan Station", "latitude": 50.55252, "longitude": -115.1377858, "elevation": 2730.0, "source": "osm", "_tags": {"ele": "2730", "name": "Elkan Station", "natural": "peak", "source": "Rockies South - David Jones"}}, {"name": "Mount Foch SW1.5", "latitude": 50.5679679, "longitude": -115.1753406, "elevation": 3120.0, "source": "osm", "_tags": {"ele": "3120", "name": "Mount Foch SW1.5", "natural": "peak", "source": "Rockies South - David Jones"}}, {"name": "Mount Joffre NE1", "latitude": 50.5338146, "longitude": -115.2024747, "elevation": 3288.0, "source": "osm", "_tags": {"ele": "3288", "name": "Mount Joffre NE1", "natural": "peak", "source": "Rockies South - David Jones"}}, {"name": "Mount Lyautey W1", "latitude": 50.6026502, "longitude": -115.2306646, "elevation": 2920.0, "source": "osm", "_tags": {"ele": "2920", "name": "Mount Lyautey W1", "natural": "peak", "source": "Rockies South - David Jones"}}, {"name": "Mount Lyautey NW1", "latitude": 50.611454, "longitude": -115.2346222, "elevation": 2771.0, "source": "osm", "_tags": {"ele": "2771", "name": "Mount Lyautey NW1", "natural": "peak", "source": "Rockies South - David Jones"}}, {"name": "Mount Lyautey NW2", "latitude": 50.6201248, "longitude": -115.2368978, "elevation": 2684.0, "source": "osm", "_tags": {"ele": "2684", "name": "Mount Lyautey NW2", "natural": "peak", "source": "Rockies South - David Jones"}}, {"name": "Lakeview Station", "latitude": 50.6157885, "longitude": -115.2061638, "elevation": 2930.0, "source": "osm", "_tags": {"ele": "2930", "name": "Lakeview Station", "natural": "peak", "source": "Rockies South - David Jones"}}, {"name": "Mount Pushover", "latitude": 50.5906477, "longitude": -115.2282798, "elevation": 2920.0, "source": "osm", "_tags": {"ele": "2920", "name": "Mount Pushover", "natural": "peak", "source": "Rockies South - David Jones"}}, {"name": "Mount Northover N2", "latitude": 50.6050364, "longitude": -115.2556914, "elevation": 2870.0, "source": "osm", "_tags": {"ele": "2870", "name": "Mount Northover N2", "natural": "peak", "source": "Rockies South - David Jones"}}, {"name": "Northover Ridge", "latitude": 50.597753, "longitude": -115.2678882, "elevation": 2809.0, "source": "osm", "_tags": {"ele": "2809", "name": "Northover Ridge", "natural": "peak", "source": "Rockies South - David Jones"}}, {"name": "Offender Mountain", "latitude": 50.6100473, "longitude": -115.2915554, "elevation": 2809.0, "source": "osm", "_tags": {"ele": "2809", "name": "Offender Mountain", "natural": "peak"}}, {"name": "South Kan Pass Peak", "latitude": 50.6373919, "longitude": -115.3137973, "elevation": 2780.0, "source": "osm", "_tags": {"ele": "2780", "name": "South Kan Pass Peak", "natural": "peak", "source": "Rockies South - David Jones"}}, {"name": "Mount Fox SE", "latitude": 50.567594, "longitude": -115.1147891, "elevation": 2900.0, "source": "osm", "_tags": {"ele": "2900", "name": "Mount Fox SE", "natural": "peak", "wikidata": "Q6920794", "wikipedia": "en:Mount Fox (Canadian Rockies)"}}, {"name": "Cross Ridge", "latitude": 50.7930624, "longitude": -115.5094001, "elevation": null, "source": "osm", "_tags": {"name": "Cross Ridge", "natural": "peak", "source": "Peakery"}}, {"name": "Og Mountain East", "latitude": 50.9562111, "longitude": -115.5830668, "elevation": 2930.0, "source": "osm", "_tags": {"ele": "2930", "name": "Og Mountain East", "natural": "peak"}}, {"name": "Mount Morrison NW2", "latitude": 50.8505729, "longitude": -115.4995675, "elevation": 2750.0, "source": "osm", "_tags": {"ele": "2750", "name": "Mount Morrison NW2", "natural": "peak"}}, {"name": "Owl Mountain", "latitude": 50.8335214, "longitude": -115.5049992, "elevation": 2870.0, "source": "osm", "_tags": {"ele": "2870", "name": "Owl Mountain", "natural": "peak", "source": "Rockies South - David Jones"}}, {"name": "Aurora Mountain West", "latitude": 50.8273129, "longitude": -115.5613652, "elevation": 2631.0, "source": "osm", "_tags": {"ele": "2631", "name": "Aurora Mountain West", "natural": "peak", "source": "Rockies South - David Jones"}}, {"name": "Aurora Mountain Centre", "latitude": 50.8279516, "longitude": -115.548762, "elevation": 2756.0, "source": "osm", "_tags": {"ele": "2756", "name": "Aurora Mountain Centre", "natural": "peak", "source": "Rockies South - David Jones"}}, {"name": "Mount Alcantara NE2.9", "latitude": 50.811099, "longitude": -115.5705094, "elevation": 2802.0, "source": "osm", "_tags": {"ele": "2802", "name": "Mount Alcantara NE2.9", "natural": "peak", "source": "Rockies South - David Jones"}}, {"name": "Mount Alcantara NE3.5", "latitude": 50.8112859, "longitude": -115.5616923, "elevation": 2808.0, "source": "osm", "_tags": {"ele": "2808", "name": "Mount Alcantara NE3.5", "natural": "peak", "source": "Rockies South - David Jones"}}, {"name": "Mount Alcantara NE3.3", "latitude": 50.8155467, "longitude": -115.5670844, "elevation": 2872.0, "source": "osm", "_tags": {"ele": "2872", "name": "Mount Alcantara NE3.3", "natural": "peak", "source": "Rockies South - David Jones"}}, {"name": "Red Man Mountain NW1.1", "latitude": 50.7966782, "longitude": -115.5405113, "elevation": 2754.0, "source": "osm", "_tags": {"ele": "2754", "name": "Red Man Mountain NW1.1", "natural": "peak", "source": "Rockies South - David Jones"}}, {"name": "Red Man Mountain NW1.3", "latitude": 50.7956272, "longitude": -115.5466621, "elevation": 2808.0, "source": "osm", "_tags": {"ele": "2808", "name": "Red Man Mountain NW1.3", "natural": "peak", "source": "Rockies South - David Jones"}}, {"name": "Red Man Mountain SE1.4", "latitude": 50.7807625, "longitude": -115.5168815, "elevation": 2690.0, "source": "osm", "_tags": {"ele": "2690", "name": "Red Man Mountain SE1.4", "natural": "peak", "source": "Rockies South - David Jones"}}, {"name": "Red Man Mountain S2.6", "latitude": 50.7657027, "longitude": -115.5235904, "elevation": 2626.0, "source": "osm", "_tags": {"ele": "2626", "name": "Red Man Mountain S2.6", "natural": "peak", "source": "Rockies South - David Jones"}}, {"name": "Mount Brussilof W1", "latitude": 50.776747, "longitude": -115.6257326, "elevation": 2973.0, "source": "osm", "_tags": {"ele": "2973", "name": "Mount Brussilof W1", "natural": "peak", "source": "Rockies South - David Jones"}}, {"name": "Mount Brussilof W2", "latitude": 50.7735349, "longitude": -115.6412753, "elevation": 2669.0, "source": "osm", "_tags": {"ele": "2669", "name": "Mount Brussilof W2", "natural": "peak", "source": "Rockies South - David Jones"}}, {"name": "Mount Brussilof S3.4", "latitude": 50.751876, "longitude": -115.6152864, "elevation": 2781.0, "source": "osm", "_tags": {"ele": "2781", "name": "Mount Brussilof S3.4", "natural": "peak", "source": "Rockies South - David Jones"}}, {"name": "Mount Gloria SE2", "latitude": 50.8374475, "longitude": -115.5962337, "elevation": 2769.0, "source": "osm", "_tags": {"ele": "2769", "name": "Mount Gloria SE2", "natural": "peak", "source": "Rockies South - David Jones"}}, {"name": "Mount Gloria", "latitude": 50.8508269, "longitude": -115.609372, "elevation": 2889.0, "source": "osm", "_tags": {"ele": "2889", "name": "Mount Gloria", "natural": "peak", "source": "Rockies South - David Jones"}}, {"name": "Aye Mountain West", "latitude": 50.840088, "longitude": -115.6507086, "elevation": 3090.0, "source": "osm", "_tags": {"ele": "3090", "name": "Aye Mountain West", "natural": "peak"}}, {"name": "Naiset Peak", "latitude": 50.8862219, "longitude": -115.6142104, "elevation": 2809.0, "source": "osm", "_tags": {"ele": "2809", "name": "Naiset Peak", "natural": "peak"}}, {"name": "Tangle Peak S5.1", "latitude": 50.6040171, "longitude": -115.6616242, "elevation": 2735.0, "source": "osm", "_tags": {"ele": "2735", "name": "Tangle Peak S5.1", "natural": "peak", "source": "Rockies South - David Jones"}}, {"name": "Tangle Peak SE5", "latitude": 50.6090558, "longitude": -115.6184708, "elevation": 2657.0, "source": "osm", "_tags": {"ele": "2657", "name": "Tangle Peak SE5", "natural": "peak", "source": "Rockies South - David Jones"}}, {"name": "Tangle Peak S6.6", "latitude": 50.5914735, "longitude": -115.6395716, "elevation": 2727.0, "source": "osm", "_tags": {"ele": "2727", "name": "Tangle Peak S6.6", "natural": "peak", "source": "Rockies South - David Jones"}}, {"name": "Queen Mary Lake North Hill", "latitude": 50.6167109, "longitude": -115.4532662, "elevation": null, "source": "osm", "_tags": {"name": "Queen Mary Lake North Hill", "natural": "peak"}}, {"name": "Queen Mary Lake South Hill", "latitude": 50.6021254, "longitude": -115.4444954, "elevation": null, "source": "osm", "_tags": {"name": "Queen Mary Lake South Hill", "natural": "peak"}}, {"name": "Mount Cradock E2.2", "latitude": 50.6753551, "longitude": -115.3694554, "elevation": 2663.0, "source": "osm", "_tags": {"ele": "2663", "name": "Mount Cradock E2.2", "natural": "peak", "source": "Rockies South - David Jones"}}, {"name": "The Royal Bee", "latitude": 50.5898378, "longitude": -115.4134904, "elevation": 3239.0, "source": "osm", "_tags": {"ele": "3239", "name": "The Royal Bee", "natural": "peak", "source": "Rockies South - David Jones"}}, {"name": "The Duke", "latitude": 50.5768434, "longitude": -115.4121305, "elevation": 2936.0, "source": "osm", "_tags": {"ele": "2936", "name": "The Duke", "natural": "peak", "source": "Rockies South - David Jones"}}, {"name": "King George S4", "latitude": 50.5608987, "longitude": -115.4054363, "elevation": 2792.0, "source": "osm", "_tags": {"ele": "2792", "name": "King George S4", "natural": "peak", "source": "Rockies South - David Jones"}}, {"name": "King George W6.5", "latitude": 50.5821115, "longitude": -115.4949909, "elevation": 2708.0, "source": "osm", "_tags": {"ele": "2708", "name": "King George W6.5", "natural": "peak", "source": "Rockies South - David Jones"}}, {"name": "King George W6.3", "latitude": 50.5952694, "longitude": -115.4941326, "elevation": 2703.0, "source": "osm", "_tags": {"ele": "2703", "name": "King George W6.3", "natural": "peak", "source": "Rockies South - David Jones"}}, {"name": "Queen Mary SW5.7", "latitude": 50.6092424, "longitude": -115.5065155, "elevation": 2695.0, "source": "osm", "_tags": {"ele": "2695", "name": "Queen Mary SW5.7", "natural": "peak", "source": "Rockies South - David Jones"}}, {"name": "Talus Peak", "latitude": 50.7232019, "longitude": -115.4778179, "elevation": 2695.0, "source": "osm", "_tags": {"ele": "2695", "name": "Talus Peak", "natural": "peak", "source": "Rockies South - David Jones"}}, {"name": "Mount Soderholm E3.5", "latitude": 50.7057593, "longitude": -115.4845061, "elevation": 2770.0, "source": "osm", "_tags": {"ele": "2770", "name": "Mount Soderholm E3.5", "natural": "peak", "source": "Rockies South - David Jones"}}, {"name": "Mount Soderholm NE2.2", "latitude": 50.7089851, "longitude": -115.5013859, "elevation": 2696.0, "source": "osm", "_tags": {"ele": "2696", "name": "Mount Soderholm NE2.2", "natural": "peak", "source": "Rockies South - David Jones"}}, {"name": "Mount Soderholm NE1.9", "latitude": 50.7190465, "longitude": -115.5154129, "elevation": 2741.0, "source": "osm", "_tags": {"ele": "2741", "name": "Mount Soderholm NE1.9", "natural": "peak", "source": "Rockies South - David Jones"}}, {"name": "Pyramid Peak", "latitude": 50.6848245, "longitude": -115.5289371, "elevation": 2787.0, "source": "osm", "_tags": {"ele": "2787", "name": "Pyramid Peak", "natural": "peak", "source": "Rockies South - David Jones"}}, {"name": "Mount Soderholm S3", "latitude": 50.6787318, "longitude": -115.5415699, "elevation": 2679.0, "source": "osm", "_tags": {"ele": "2679", "name": "Mount Soderholm S3", "natural": "peak", "source": "Rockies South - David Jones"}}, {"name": "Mount Soderholm SW4.1", "latitude": 50.6734112, "longitude": -115.5524684, "elevation": 2693.0, "source": "osm", "_tags": {"ele": "2693", "name": "Mount Soderholm SW4.1", "natural": "peak", "source": "Rockies South - David Jones"}}, {"name": "Mount Crouch", "latitude": 50.4995086, "longitude": -115.2635568, "elevation": 2893.0, "source": "osm", "_tags": {"ele": "2893", "name": "Mount Crouch", "natural": "peak", "source": "Rockies South - David Jones"}}, {"name": "Russell NW4.2", "latitude": 50.4725469, "longitude": -115.2607072, "elevation": 2763.0, "source": "osm", "_tags": {"ele": "2763", "name": "Russell NW4.2", "natural": "peak", "source": "Rockies South - David Jones"}}, {"name": "Shatch SW4.2", "latitude": 50.4983354, "longitude": -115.3331872, "elevation": 2748.0, "source": "osm", "_tags": {"ele": "2748", "name": "Shatch SW4.2", "natural": "peak", "source": "Rockies South - David Jones"}}, {"name": "Russell NW5.6", "latitude": 50.4793788, "longitude": -115.2824085, "elevation": 2680.0, "source": "osm", "_tags": {"ele": "2680", "name": "Russell NW5.6", "natural": "peak", "source": "Rockies South - David Jones"}}, {"name": "Russell NW8.2", "latitude": 50.4867222, "longitude": -115.3203958, "elevation": 2697.0, "source": "osm", "_tags": {"ele": "2697", "name": "Russell NW8.2", "natural": "peak", "source": "Rockies South - David Jones"}}, {"name": "Peak of the Cross", "latitude": 50.4651586, "longitude": -115.3357677, "elevation": 2921.0, "source": "osm", "_tags": {"ele": "2921", "name": "Peak of the Cross", "natural": "peak", "source": "Rockies South - David Jones"}}, {"name": "Russell W7.1", "latitude": 50.453781, "longitude": -115.3303791, "elevation": 2848.0, "source": "osm", "_tags": {"ele": "2848", "name": "Russell W7.1", "natural": "peak", "source": "Rockies South - David Jones"}}, {"name": "Russell W6.2", "latitude": 50.4446308, "longitude": -115.3200696, "elevation": 2724.0, "source": "osm", "_tags": {"ele": "2724", "name": "Russell W6.2", "natural": "peak", "source": "Rockies South - David Jones"}}, {"name": "Russell NW4.5", "latitude": 50.4591149, "longitude": -115.2879215, "elevation": 2717.0, "source": "osm", "_tags": {"ele": "2717", "name": "Russell NW4.5", "natural": "peak", "source": "Rockies South - David Jones"}}, {"name": "Russell S1.7", "latitude": 50.4245501, "longitude": -115.2250362, "elevation": 2726.0, "source": "osm", "_tags": {"ele": "2726", "name": "Russell S1.7", "natural": "peak", "source": "Rockies South - David Jones"}}, {"name": "Russell S5.6", "latitude": 50.4013669, "longitude": -115.2865076, "elevation": 3050.0, "source": "osm", "_tags": {"ele": "3050", "name": "Russell S5.6", "natural": "peak", "source": "Rockies South - David Jones"}}, {"name": "Russell S7.6", "latitude": 50.3732795, "longitude": -115.2613839, "elevation": 2725.0, "source": "osm", "_tags": {"ele": "2725", "name": "Russell S7.6", "natural": "peak", "source": "Rockies South - David Jones"}}, {"name": "Russell S8.7", "latitude": 50.3657812, "longitude": -115.2772429, "elevation": 2814.0, "source": "osm", "_tags": {"ele": "2814", "name": "Russell S8.7", "natural": "peak", "source": "Rockies South - David Jones"}}, {"name": "Russell S9.7", "latitude": 50.3556913, "longitude": -115.2719666, "elevation": 2766.0, "source": "osm", "_tags": {"ele": "2766", "name": "Russell S9.7", "natural": "peak", "source": "Rockies South - David Jones"}}, {"name": "Russell S12.8", "latitude": 50.3264602, "longitude": -115.259603, "elevation": 2687.0, "source": "osm", "_tags": {"ele": "2687", "name": "Russell S12.8", "natural": "peak", "source": "Rockies South - David Jones"}}, {"name": "Russell S15", "latitude": 50.3002515, "longitude": -115.2454657, "elevation": 2636.0, "source": "osm", "_tags": {"ele": "2636", "name": "Russell S15", "natural": "peak", "source": "Rockies South - David Jones"}}, {"name": "Franklin NW15", "latitude": 50.4949748, "longitude": -115.513288, "elevation": 2750.0, "source": "osm", "_tags": {"ele": "2750", "name": "Franklin NW15", "natural": "peak", "source": "Rockies South - David Jones"}}, {"name": "Franklin NW11", "latitude": 50.4702585, "longitude": -115.4661292, "elevation": 2636.0, "source": "osm", "_tags": {"ele": "2636", "name": "Franklin NW11", "natural": "peak", "source": "Rockies South - David Jones"}}, {"name": "Franklin N9", "latitude": 50.4591516, "longitude": -115.4195751, "elevation": 2735.0, "source": "osm", "_tags": {"ele": "2735", "name": "Franklin N9", "natural": "peak", "source": "Rockies South - David Jones"}}, {"name": "Franklin N7.3", "latitude": 50.4450984, "longitude": -115.4036251, "elevation": 2738.0, "source": "osm", "_tags": {"ele": "2738", "name": "Franklin N7.3", "natural": "peak", "source": "Rockies South - David Jones"}}, {"name": "Franklin NW5.9", "latitude": 50.4262241, "longitude": -115.4311979, "elevation": 2720.0, "source": "osm", "_tags": {"ele": "2720", "name": "Franklin NW5.9", "natural": "peak", "source": "Rockies South - David Jones"}}, {"name": "Franklin NW3.6", "latitude": 50.4081035, "longitude": -115.4288717, "elevation": 2837.0, "source": "osm", "_tags": {"ele": "2837", "name": "Franklin NW3.6", "natural": "peak", "source": "Rockies South - David Jones"}}, {"name": "Franklin SE7.6", "latitude": 50.3159373, "longitude": -115.3684053, "elevation": 2613.0, "source": "osm", "_tags": {"ele": "2613", "name": "Franklin SE7.6", "natural": "peak", "source": "Rockies South - David Jones"}}, {"name": "Mount Dorman NW1.5", "latitude": 50.2944089, "longitude": -115.4415074, "elevation": 2654.0, "source": "osm", "_tags": {"ele": "2654", "name": "Mount Dorman NW1.5", "natural": "peak", "source": "Rockies South - David Jones"}}, {"name": "Mount Dorman NW0.6", "latitude": 50.2901591, "longitude": -115.4354088, "elevation": 2760.0, "source": "osm", "_tags": {"ele": "2760", "name": "Mount Dorman NW0.6", "natural": "peak", "source": "Rockies South - David Jones"}}, {"name": "O'Neil Peak S2.1", "latitude": 50.2937742, "longitude": -115.1277517, "elevation": 2779.0, "source": "osm", "_tags": {"ele": "2779", "name": "O'Neil Peak S2.1", "natural": "peak", "source": "Rockies South - David Jones"}}, {"name": "O'Neil Peak N1", "latitude": 50.3214141, "longitude": -115.1284108, "elevation": 2834.0, "source": "osm", "_tags": {"ele": "2834", "name": "O'Neil Peak N1", "natural": "peak", "source": "Rockies South - David Jones"}}, {"name": "Ingram W1.6", "latitude": 50.2978969, "longitude": -115.0556444, "elevation": 2750.0, "source": "osm", "_tags": {"ele": "2750", "name": "Ingram W1.6", "natural": "peak", "source": "Rockies South - David Jones"}}, {"name": "Umbria N1.9", "latitude": 50.3328476, "longitude": -115.0659658, "elevation": 2735.0, "source": "osm", "_tags": {"ele": "2735", "name": "Umbria N1.9", "natural": "peak", "source": "Rockies South - David Jones"}}, {"name": "Umbria N3.3", "latitude": 50.3451373, "longitude": -115.0708385, "elevation": 2671.0, "source": "osm", "_tags": {"ele": "2671", "name": "Umbria N3.3", "natural": "peak", "source": "Rockies South - David Jones"}}, {"name": "Umbria N4.2", "latitude": 50.3531643, "longitude": -115.071638, "elevation": 2735.0, "source": "osm", "_tags": {"ele": "2735", "name": "Umbria N4.2", "natural": "peak", "source": "Rockies South - David Jones"}}, {"name": "Connor S5.9", "latitude": 50.3645627, "longitude": -115.0723348, "elevation": 2769.0, "source": "osm", "_tags": {"ele": "2769", "name": "Connor S5.9", "natural": "peak", "source": "Rockies South - David Jones"}}, {"name": "Connor S4.9", "latitude": 50.3735154, "longitude": -115.0732485, "elevation": 2818.0, "source": "osm", "_tags": {"ele": "2818", "name": "Connor S4.9", "natural": "peak", "source": "Rockies South - David Jones"}}, {"name": "Connor S3.2", "latitude": 50.3883952, "longitude": -115.0791983, "elevation": 2859.0, "source": "osm", "_tags": {"ele": "2859", "name": "Connor S3.2", "natural": "peak", "source": "Rockies South - David Jones"}}, {"name": "Quarrie SW4", "latitude": 50.3533785, "longitude": -115.0299563, "elevation": 2820.0, "source": "osm", "_tags": {"ele": "2820", "name": "Quarrie SW4", "natural": "peak", "source": "Rockies South - David Jones"}}, {"name": "Quarrie SW3", "latitude": 50.3636967, "longitude": -115.0296465, "elevation": 2927.0, "source": "osm", "_tags": {"ele": "2927", "name": "Quarrie SW3", "natural": "peak", "source": "Rockies South - David Jones"}}, {"name": "Quarrie SW2.2", "latitude": 50.3713686, "longitude": -115.0284889, "elevation": 2925.0, "source": "osm", "_tags": {"ele": "2925", "name": "Quarrie SW2.2", "natural": "peak", "source": "Rockies South - David Jones"}}, {"name": "Quarrie NE1.3", "latitude": 50.394345, "longitude": -114.9951028, "elevation": 2749.0, "source": "osm", "_tags": {"ele": "2749", "name": "Quarrie NE1.3", "natural": "peak", "source": "Rockies South - David Jones"}}, {"name": "Quarrie N2.4", "latitude": 50.4078538, "longitude": -115.0010546, "elevation": 2759.0, "source": "osm", "_tags": {"ele": "2759", "name": "Quarrie N2.4", "natural": "peak", "source": "Rockies South - David Jones"}}, {"name": "Mount Minton S1.6", "latitude": 50.3548703, "longitude": -115.1240394, "elevation": 2878.0, "source": "osm", "_tags": {"ele": "2878", "name": "Mount Minton S1.6", "natural": "peak", "source": "Rockies South - David Jones"}}, {"name": "Lancaster S2.3", "latitude": 50.4051735, "longitude": -115.1292139, "elevation": 2878.0, "source": "osm", "_tags": {"ele": "2878", "name": "Lancaster S2.3", "natural": "peak", "source": "Rockies South - David Jones"}}, {"name": "Lancaster SW2", "latitude": 50.4092865, "longitude": -115.1607887, "elevation": 2728.0, "source": "osm", "_tags": {"ele": "2728", "name": "Lancaster SW2", "natural": "peak", "source": "Rockies South - David Jones"}}, {"name": "Mount Lancaster", "latitude": 50.4227662, "longitude": -115.1370625, "elevation": 3179.0, "source": "osm", "_tags": {"ele": "3179", "name": "Mount Lancaster", "natural": "peak", "source": "Rockies South - David Jones"}}, {"name": "Lancaster NE0.8", "latitude": 50.4294841, "longitude": -115.1319556, "elevation": 3136.0, "source": "osm", "_tags": {"ele": "3136", "name": "Lancaster NE0.8", "natural": "peak", "source": "Rockies South - David Jones"}}, {"name": "Mount Connor S1.1", "latitude": 50.4063115, "longitude": -115.0869119, "elevation": 2858.0, "source": "osm", "_tags": {"ele": "2858", "name": "Mount Connor S1.1", "natural": "peak", "source": "Rockies South - David Jones"}}, {"name": "Abruzzi SE1.3", "latitude": 50.4324416, "longitude": -115.110884, "elevation": 3065.0, "source": "osm", "_tags": {"ele": "3065", "name": "Abruzzi SE1.3", "natural": "peak", "source": "Rockies South - David Jones"}}, {"name": "Abruzzi SE1.6", "latitude": 50.4312708, "longitude": -115.1049435, "elevation": 3093.0, "source": "osm", "_tags": {"ele": "3093", "name": "Abruzzi SE1.6", "natural": "peak", "source": "Rockies South - David Jones"}}, {"name": "The Warship N1.8", "latitude": 50.487741, "longitude": -115.1068608, "elevation": 2720.0, "source": "osm", "_tags": {"ele": "2720", "name": "The Warship N1.8", "natural": "peak", "source": "Rockies South - David Jones"}}, {"name": "Elk Point", "latitude": 50.4931933, "longitude": -115.1574308, "elevation": 2932.0, "source": "osm", "_tags": {"ele": "2932", "name": "Elk Point", "natural": "peak", "source": "Rockies South - David Jones"}}, {"name": "Skyline Peaks", "latitude": 50.5039907, "longitude": -115.1299264, "elevation": 2660.0, "source": "osm", "_tags": {"ele": "2660", "name": "Skyline Peaks", "natural": "peak", "source": "Rockies South - David Jones"}}, {"name": "Mount Aosta SE1.8", "latitude": 50.5196325, "longitude": -115.075324, "elevation": 2930.0, "source": "osm", "_tags": {"ele": "2930", "name": "Mount Aosta SE1.8", "natural": "peak", "source": "Rockies South - David Jones"}}, {"name": "Mount Aosta SE3.7", "latitude": 50.5077525, "longitude": -115.0566209, "elevation": 2858.0, "source": "osm", "_tags": {"ele": "2858", "name": "Mount Aosta SE3.7", "natural": "peak", "source": "Rockies South - David Jones"}}, {"name": "Mount Aosta SE4", "latitude": 50.5044959, "longitude": -115.0533017, "elevation": 2809.0, "source": "osm", "_tags": {"ele": "2809", "name": "Mount Aosta SE4", "natural": "peak", "source": "Rockies South - David Jones"}}, {"name": "Riverside Mountain NW4.5", "latitude": 50.4971925, "longitude": -115.0444067, "elevation": 2841.0, "source": "osm", "_tags": {"ele": "2841", "name": "Riverside Mountain NW4.5", "natural": "peak", "source": "Rockies South - David Jones"}}, {"name": "Riverside Mountain NW3.1", "latitude": 50.4864746, "longitude": -115.0330969, "elevation": 2845.0, "source": "osm", "_tags": {"ele": "2845", "name": "Riverside Mountain NW3.1", "natural": "peak", "source": "Rockies South - David Jones"}}, {"name": "Riverside Mountain NW3.9", "latitude": 50.4926437, "longitude": -115.0396438, "elevation": 2801.0, "source": "osm", "_tags": {"ele": "2801", "name": "Riverside Mountain NW3.9", "natural": "peak", "source": "Rockies South - David Jones"}}, {"name": "Riverside Mountain NW1.8", "latitude": 50.477629, "longitude": -115.0214108, "elevation": 2805.0, "source": "osm", "_tags": {"ele": "2805", "name": "Riverside Mountain NW1.8", "natural": "peak", "source": "Rockies South - David Jones"}}, {"name": "Bishop Ridge", "latitude": 50.4502162, "longitude": -114.8653287, "elevation": null, "source": "osm", "_tags": {"name": "Bishop Ridge", "natural": "peak", "source": "Peakery"}}, {"name": "Kananaskis Lookout", "latitude": 50.6123432, "longitude": -115.0692885, "elevation": 2110.0, "source": "osm", "_tags": {"ele": "2110", "name": "Kananaskis Lookout", "natural": "peak", "source": "Rockies South - David Jones"}}, {"name": "Weary Creek Hill", "latitude": 50.39368, "longitude": -114.8607275, "elevation": 2300.0, "source": "osm", "_tags": {"ele": "2300", "name": "Weary Creek Hill", "natural": "peak", "source": "Rockies South - David Jones"}}, {"name": "Peak of the Jagged Stone", "latitude": 50.4208903, "longitude": -114.8612839, "elevation": 2708.0, "source": "osm", "_tags": {"ele": "2708", "name": "Peak of the Jagged Stone", "natural": "peak", "source": "Rockies South - David Jones"}}, {"name": "Mount Bishop W1", "latitude": 50.4359341, "longitude": -114.8891656, "elevation": 2731.0, "source": "osm", "_tags": {"ele": "2731", "name": "Mount Bishop W1", "natural": "peak", "source": "Rockies South - David Jones"}}, {"name": "Mount Loomis S1.8", "latitude": 50.4485616, "longitude": -114.9054951, "elevation": 2647.0, "source": "osm", "_tags": {"ele": "2647", "name": "Mount Loomis S1.8", "natural": "peak", "source": "Rockies South - David Jones"}}, {"name": "Mount McCrae", "latitude": 50.4554952, "longitude": -114.9135348, "elevation": 2741.0, "source": "osm", "_tags": {"ele": "2741", "name": "Mount McCrae", "natural": "peak", "source": "Rockies South - David Jones"}}, {"name": "Elk Peak", "latitude": 50.514297, "longitude": -114.964703, "elevation": 2829.0, "source": "osm", "_tags": {"ele": "2829", "name": "Elk Peak", "natural": "peak", "source": "Rockies South - David Jones"}}, {"name": "Mount Tyrwhitt SE2.3", "latitude": 50.5628539, "longitude": -115.0070666, "elevation": 2756.0, "source": "osm", "_tags": {"ele": "2756", "name": "Mount Tyrwhitt SE2.3", "natural": "peak", "source": "Rockies South - David Jones"}}, {"name": "Mount Pocaterra NW1.9", "latitude": 50.6152112, "longitude": -115.0435339, "elevation": 2742.0, "source": "osm", "_tags": {"ele": "2742", "name": "Mount Pocaterra NW1.9", "natural": "peak", "source": "Rockies South - David Jones"}}, {"name": "Mount Townsend NW1.5", "latitude": 51.161226, "longitude": -115.2555642, "elevation": 2780.0, "source": "osm", "_tags": {"ele": "2780", "name": "Mount Townsend NW1.5", "natural": "peak"}}, {"name": "Stenton Peak S1", "latitude": 51.1651778, "longitude": -115.2699698, "elevation": 2750.0, "source": "osm", "_tags": {"ele": "2750", "name": "Stenton Peak S1", "natural": "peak"}}, {"name": "Saddle Peak SW3", "latitude": 51.2190141, "longitude": -115.2673364, "elevation": 2700.0, "source": "osm", "_tags": {"ele": "2700", "name": "Saddle Peak SW3", "natural": "peak"}}, {"name": "Goat Mountain Peak 5", "latitude": 51.1119606, "longitude": -115.1448098, "elevation": null, "source": "osm", "_tags": {"name": "Goat Mountain Peak 5", "natural": "peak"}}, {"name": "Goat Mountain Peak 2", "latitude": 51.1168244, "longitude": -115.1345719, "elevation": null, "source": "osm", "_tags": {"name": "Goat Mountain Peak 2", "natural": "peak"}}, {"name": "Goat Mountain SW1", "latitude": 51.1067095, "longitude": -115.1496352, "elevation": 2300.0, "source": "osm", "_tags": {"ele": "2300", "name": "Goat Mountain SW1", "natural": "peak"}}, {"name": "Goat Mountain Peak 6", "latitude": 51.1075155, "longitude": -115.1455935, "elevation": 2380.0, "source": "osm", "_tags": {"ele": "2380", "name": "Goat Mountain Peak 6", "natural": "peak"}}, {"name": "Goat Mountain NW1", "latitude": 51.1215861, "longitude": -115.1530516, "elevation": 2330.0, "source": "osm", "_tags": {"ele": "2330", "name": "Goat Mountain NW1", "natural": "peak"}}, {"name": "Boatrock Peak", "latitude": 51.1151478, "longitude": -115.1606035, "elevation": 2208.0, "source": "osm", "_tags": {"ele": "2208", "name": "Boatrock Peak", "natural": "peak"}}, {"name": "Goat Mountain Peak 3", "latitude": 51.1152048, "longitude": -115.1377472, "elevation": null, "source": "osm", "_tags": {"name": "Goat Mountain Peak 3", "natural": "peak"}}, {"name": "Goat Mountain Peak 1", "latitude": 51.1187207, "longitude": -115.1322471, "elevation": null, "source": "osm", "_tags": {"name": "Goat Mountain Peak 1", "natural": "peak"}}, {"name": "Morrowcross Peak", "latitude": 51.1417828, "longitude": -115.1838035, "elevation": 2510.0, "source": "osm", "_tags": {"ele": "2510", "name": "Morrowcross Peak", "natural": "peak"}}, {"name": "Old Goat Mountain NW1", "latitude": 50.9539109, "longitude": -115.3844165, "elevation": 2860.0, "source": "osm", "_tags": {"ele": "2860", "name": "Old Goat Mountain NW1", "natural": "peak", "source": "Rockies Central - David Jones"}}, {"name": "Old Goat Mountain NW3", "latitude": 50.9709143, "longitude": -115.3914477, "elevation": 2924.0, "source": "osm", "_tags": {"ele": "2924", "name": "Old Goat Mountain NW3", "natural": "peak", "source": "Rockies Central - David Jones"}}, {"name": "Goatview Peak SE1", "latitude": 51.0132885, "longitude": -115.4366523, "elevation": 2740.0, "source": "osm", "_tags": {"ele": "2740", "name": "Goatview Peak SE1", "natural": "peak", "source": "Rockies Central - David Jones"}}, {"name": "Goatview Peak NW2", "latitude": 51.0387753, "longitude": -115.4567661, "elevation": 2730.0, "source": "osm", "_tags": {"ele": "2730", "name": "Goatview Peak NW2", "natural": "peak", "source": "Rockies Central - David Jones"}}, {"name": "Mount Lawson SE2.3", "latitude": 50.7483802, "longitude": -115.1714034, "elevation": 2685.0, "source": "osm", "_tags": {"ele": "2685", "name": "Mount Lawson SE2.3", "natural": "peak"}}, {"name": "Headwall Peak North Tower", "latitude": 50.8099945, "longitude": -115.2335048, "elevation": 2980.0, "source": "osm", "_tags": {"ele": "2980", "name": "Headwall Peak North Tower", "natural": "peak", "source": "Rockies Central - David Jones"}}, {"name": "Headwall South Peak", "latitude": 50.7916811, "longitude": -115.2406519, "elevation": 2900.0, "source": "osm", "_tags": {"ele": "2900", "name": "Headwall South Peak", "natural": "peak", "source": "Rockies Central - David Jones"}}, {"name": "Mount Chester NE1.4", "latitude": 50.816472, "longitude": -115.2506397, "elevation": 2900.0, "source": "osm", "_tags": {"ele": "2900", "name": "Mount Chester NE1.4", "natural": "peak", "source": "Rockies Central - David Jones"}}, {"name": "Mount Chester NE0.8", "latitude": 50.8130833, "longitude": -115.2556745, "elevation": 2900.0, "source": "osm", "_tags": {"ele": "2900", "name": "Mount Chester NE0.8", "natural": "peak", "source": "Rockies Central - David Jones"}}, {"name": "Galatea SW1.3", "latitude": 50.8301446, "longitude": -115.2830994, "elevation": 2980.0, "source": "osm", "_tags": {"ele": "2980", "name": "Galatea SW1.3", "natural": "peak"}}, {"name": "Catherine Barclay's Mountain", "latitude": 51.0122512, "longitude": -115.1186118, "elevation": 2295.0, "source": "osm", "_tags": {"ele": "2295", "name": "Catherine Barclay's Mountain", "natural": "peak"}}, {"name": "Mount Skogan North Peak", "latitude": 51.0118734, "longitude": -115.1528169, "elevation": 2628.0, "source": "osm", "_tags": {"ele": "2628", "name": "Mount Skogan North Peak", "natural": "peak"}}, {"name": "V6", "latitude": 51.2841852, "longitude": -115.6731523, "elevation": 2930.0, "source": "osm", "_tags": {"ele": "2930", "name": "V6", "natural": "peak", "source": "Rockies Central - David Jones"}}, {"name": "V5", "latitude": 51.2810101, "longitude": -115.6602971, "elevation": 2860.0, "source": "osm", "_tags": {"ele": "2860", "name": "V5", "natural": "peak", "source": "Rockies Central - David Jones"}}, {"name": "V4", "latitude": 51.2716114, "longitude": -115.6573858, "elevation": 2820.0, "source": "osm", "_tags": {"ele": "2820", "name": "V4", "natural": "peak", "source": "Rockies Central - David Jones"}}, {"name": "V3", "latitude": 51.2662324, "longitude": -115.6659997, "elevation": 2900.0, "source": "osm", "_tags": {"ele": "2900", "name": "V3", "natural": "peak", "source": "Rockies Central - David Jones"}}, {"name": "V2", "latitude": 51.255043, "longitude": -115.6609921, "elevation": 2820.0, "source": "osm", "_tags": {"ele": "2820", "name": "V2", "natural": "peak", "source": "Rockies Central - David Jones"}}, {"name": "Cascade North", "latitude": 51.2686472, "longitude": -115.5826889, "elevation": 2980.0, "source": "osm", "_tags": {"ele": "2980", "name": "Cascade North", "natural": "peak", "source": "Rockies Central - David Jones"}}, {"name": "Cascade Central", "latitude": 51.2479288, "longitude": -115.5676504, "elevation": 2960.0, "source": "osm", "_tags": {"ele": "2960", "name": "Cascade Central", "natural": "peak", "source": "Rockies Central - David Jones"}}, {"name": "Mount Allenby True Summit", "latitude": 50.9410467, "longitude": -115.5140651, "elevation": 3001.0, "source": "osm", "_tags": {"ele": "3001", "name": "Mount Allenby True Summit", "natural": "peak", "source": "Rockies Central - David Jones"}}, {"name": "Allenby Pass Peak", "latitude": 50.9663067, "longitude": -115.5584362, "elevation": 2955.0, "source": "osm", "_tags": {"ele": "2955", "name": "Allenby Pass Peak", "natural": "peak", "source": "Rockies Central - David Jones"}}, {"name": "Nasswald Peak SE3.2", "latitude": 50.9874152, "longitude": -115.609174, "elevation": 2869.0, "source": "osm", "_tags": {"ele": "2869", "name": "Nasswald Peak SE3.2", "natural": "peak", "source": "Rockies Central - David Jones"}}, {"name": "Nasswald Peak SE2.5", "latitude": 50.9807737, "longitude": -115.6288371, "elevation": 2885.0, "source": "osm", "_tags": {"ele": "2885", "name": "Nasswald Peak SE2.5", "natural": "peak", "source": "Rockies Central - David Jones"}}, {"name": "Nasswald Peak NE1.8", "latitude": 51.0077355, "longitude": -115.6309023, "elevation": 2834.0, "source": "osm", "_tags": {"ele": "2834", "name": "Nasswald Peak NE1.8", "natural": "peak", "source": "Rockies Central - David Jones"}}, {"name": "Beersheba Peak N1.5", "latitude": 50.9753387, "longitude": -115.5282142, "elevation": 2830.0, "source": "osm", "_tags": {"ele": "2830", "name": "Beersheba Peak N1.5", "natural": "peak", "source": "Rockies Central - David Jones"}}, {"name": "Sundance Ridge 7.5", "latitude": 51.0154071, "longitude": -115.5371964, "elevation": 2820.0, "source": "osm", "_tags": {"ele": "2820", "name": "Sundance Ridge 7.5", "natural": "peak", "source": "Rockies Central - David Jones"}}, {"name": "Sundance Ridge 7", "latitude": 51.0118328, "longitude": -115.5485801, "elevation": 2820.0, "source": "osm", "_tags": {"ele": "2820", "name": "Sundance Ridge 7", "natural": "peak", "source": "Rockies Central - David Jones"}}, {"name": "Sundance Ridge 6", "latitude": 51.0250004, "longitude": -115.5607036, "elevation": 2690.0, "source": "osm", "_tags": {"ele": "2690", "name": "Sundance Ridge 6", "natural": "peak", "source": "Rockies Central - David Jones"}}, {"name": "Sundance Ridge 5", "latitude": 51.0484163, "longitude": -115.5730642, "elevation": 2820.0, "source": "osm", "_tags": {"ele": "2820", "name": "Sundance Ridge 5", "natural": "peak", "source": "Rockies Central - David Jones"}}, {"name": "Sundance Ridge 4", "latitude": 51.0590781, "longitude": -115.5878028, "elevation": 2740.0, "source": "osm", "_tags": {"ele": "2740", "name": "Sundance Ridge 4", "natural": "peak", "source": "Rockies Central - David Jones"}}, {"name": "Sundance Ridge 3", "latitude": 51.0751521, "longitude": -115.606204, "elevation": 2820.0, "source": "osm", "_tags": {"ele": "2820", "name": "Sundance Ridge 3", "natural": "peak", "source": "Rockies Central - David Jones"}}, {"name": "Sundance Ridge 1", "latitude": 51.0986011, "longitude": -115.6272988, "elevation": 2798.0, "source": "osm", "_tags": {"ele": "2798", "name": "Sundance Ridge 1", "natural": "peak", "source": "Rockies Central - David Jones"}}, {"name": "", "latitude": 51.0354432, "longitude": -115.2392601, "elevation": 1614.0, "source": "osm", "_tags": {"ele": "1614", "natural": "peak"}}, {"name": "", "latitude": 51.0323993, "longitude": -115.212824, "elevation": 2300.0, "source": "osm", "_tags": {"ele": "2300", "natural": "peak"}}, {"name": "", "latitude": 51.0194871, "longitude": -115.1955379, "elevation": 2340.0, "source": "osm", "_tags": {"ele": "2340", "natural": "peak"}}]