[{"name": "Mount Henri", "latitude": 56.5092906, "longitude": -124.7242704, "elevation": 2216.0, "source": "osm", "_tags": {"ele": "2216", "name": "Mount Henri", "natural": "peak", "source": "NRCan-CanVec-7.0", "wikidata": "Q22436107"}}, {"name": "Mica Peak", "latitude": 56.534874, "longitude": -124.7147304, "elevation": 2067.0, "source": "osm", "_tags": {"ele": "2067", "name": "Mica Peak", "natural": "peak", "source": "NRCan-CanVec-7.0"}}, {"name": "Mount Ferguson", "latitude": 56.6345337, "longitude": -124.9838583, "elevation": 1995.0, "source": "osm", "_tags": {"ele": "1995", "name": "Mount Ferguson", "natural": "peak", "source": "NRCan-CanVec-7.0", "wikidata": "Q22429701"}}, {"name": "Mount Ross", "latitude": 56.6514732, "longitude": -124.8523738, "elevation": 1773.0, "source": "osm", "_tags": {"ele": "1773", "name": "Mount Ross", "natural": "peak", "source": "NRCan-CanVec-7.0", "wikidata": "Q22552470"}}, {"name": "Deception Cone", "latitude": 56.8517632, "longitude": -124.7629369, "elevation": 2142.0, "source": "osm", "_tags": {"ele": "2142", "name": "Deception Cone", "natural": "peak", "source": "NRCan-CanVec-7.0", "wikidata": "Q22613279"}}, {"name": "Snowtop Peak", "latitude": 56.9180596, "longitude": -124.8440728, "elevation": 2163.0, "source": "osm", "_tags": {"ele": "2163", "name": "Snowtop Peak", "natural": "peak", "source": "NRCan-CanVec-7.0", "wikidata": "Q22648695"}}, {"name": "Deserters Peak", "latitude": 56.9676827, "longitude": -124.905528, "elevation": 2251.0, "source": "osm", "_tags": {"ele": "2251", "name": "Deserters Peak", "natural": "peak", "source": "NRCan-CanVec-7.0", "wikidata": "Q22624030"}}, {"name": "Pesika Mountain", "latitude": 56.9868046, "longitude": -124.9294888, "elevation": 2125.0, "source": "osm", "_tags": {"ele": "2125", "name": "Pesika Mountain", "natural": "peak", "source": "NRCan-CanVec-7.0"}}, {"name": "", "latitude": 56.9217463, "longitude": -125.6750108, "elevation": 1906.0, "source": "osm", "_tags": {"ele": "1906", "natural": "peak"}}, {"name": "", "latitude": 56.9108298, "longitude": -125.6496049, "elevation": 1795.0, "source": "osm", "_tags": {"ele": "1795", "natural": "peak"}}, {"name": "Truncate Mountain", "latitude": 57.1207191, "longitude": -125.1097318, "elevation": 1921.0, "source": "osm", "_tags": {"ele": "1921", "name": "Truncate Mountain", "natural": "peak", "source": "NRCan-CanVec-10.0", "wikidata": "Q22529564"}}, {"name": "Akie Mountain", "latitude": 57.0576388, "longitude": -125.0095401, "elevation": 1954.0, "source": "osm", "_tags": {"ele": "1954", "name": "Akie Mountain", "natural": "peak", "source": "NRCan-CanVec-10.0"}}, {"name": "", "latitude": 57.1585888, "longitude": -125.6492186, "elevation": 2065.0, "source": "osm", "_tags": {"ele": "2065", "natural": "peak"}}, {"name": "McGraw Peak", "latitude": 57.1166704, "longitude": -125.6208291, "elevation": 2219.0, "source": "osm", "_tags": {"ele": "2219", "name": "McGraw Peak", "natural": "peak", "source": "NRCan-CanVec-10.0", "wikidata": "Q22474575"}}, {"name": "Pivot Peak", "latitude": 57.0868094, "longitude": -125.415458, "elevation": 1873.0, "source": "osm", "_tags": {"ele": "1873", "name": "Pivot Peak", "natural": "peak", "source": "NRCan-CanVec-10.0", "wikidata": "Q22382423"}}, {"name": "Taper Mountain", "latitude": 57.0104049, "longitude": -124.960515, "elevation": 1817.0, "source": "osm", "_tags": {"ele": "1817", "name": "Taper Mountain", "natural": "peak", "source": "NRCan-CanVec-10.0", "wikidata": "Q22464296"}}, {"name": "", "latitude": 57.2091047, "longitude": -125.5368234, "elevation": 1562.0, "source": "osm", "_tags": {"ele": "1562", "natural": "peak"}}, {"name": "Lookout Hill", "latitude": 56.6840221, "longitude": -125.1700967, "elevation": 973.0, "source": "osm", "_tags": {"ele": "973", "name": "Lookout Hill", "natural": "peak", "source": "NRCan-CanVec-10.0", "wikidata": "Q22657782"}}, {"name": "Chase Mountain", "latitude": 56.5692009, "longitude": -125.2646358, "elevation": 2214.0, "source": "osm", "_tags": {"ele": "2214", "name": "Chase Mountain", "natural": "peak", "source": "NRCan-CanVec-10.0", "wikidata": "Q22483993"}}, {"name": "Ingenika Cone", "latitude": 56.6686216, "longitude": -125.0577334, "elevation": 1680.0, "source": "osm", "_tags": {"ele": "1680", "name": "Ingenika Cone", "natural": "peak", "source": "NRCan-CanVec-10.0"}}, {"name": "Mount Lay", "latitude": 56.5452524, "longitude": -125.5477609, "elevation": 2201.0, "source": "osm", "_tags": {"ele": "2201", "name": "Mount Lay", "natural": "peak", "source": "NRCan-CanVec-10.0", "wikidata": "Q22441639"}}, {"name": "Ravenal Peak (West Summit)", "latitude": 56.8830475, "longitude": -125.5042909, "elevation": 2076.0, "source": "osm", "_tags": {"ele": "2076", "name": "Ravenal Peak (West Summit)", "natural": "peak", "source": "NRCan-CanVec-10.0"}}, {"name": "Forres Mountain", "latitude": 56.8153102, "longitude": -125.6215105, "elevation": 2006.0, "source": "osm", "_tags": {"ele": "2006", "name": "Forres Mountain", "natural": "peak", "source": "NRCan-CanVec-10.0", "wikidata": "Q22493251"}}, {"name": "Pelly Peak", "latitude": 56.8356084, "longitude": -125.3842134, "elevation": 2041.0, "source": "osm", "_tags": {"ele": "2041", "name": "Pelly Peak", "natural": "peak", "source": "NRCan-CanVec-10.0"}}, {"name": "Barrier Peak", "latitude": 56.8586314, "longitude": -125.2981339, "elevation": 2080.0, "source": "osm", "_tags": {"ele": "2080", "name": "Barrier Peak", "natural": "peak", "source": "NRCan-CanVec-10.0", "wikidata": "Q22528454"}}, {"name": "Ravenal Peak (East Summit)", "latitude": 56.8829151, "longitude": -125.4996608, "elevation": 2015.0, "source": "osm", "_tags": {"ele": "2015", "name": "Ravenal Peak (East Summit)", "natural": "peak", "source": "NRCan-CanVec-10.0"}}, {"name": "Mount Tsaydizkun", "latitude": 56.9821543, "longitude": -125.212636, "elevation": 1603.0, "source": "osm", "_tags": {"ele": "1603", "name": "Mount Tsaydizkun", "natural": "peak", "source": "NRCan-CanVec-10.0", "wikidata": "Q22556247"}}, {"name": "Montagnes Rocheuses", "latitude": 56.9940043, "longitude": -125.0114219, "elevation": 789.0, "source": "osm", "_tags": {"ele": "789", "name": "Montagnes Rocheuses", "name:en": "Rocky Mountains", "name:fr": "Montagnes Rocheuses", "natural": "peak", "source": "NRCan-CanVec-10.0"}}, {"name": "Bluff Hill", "latitude": 56.8289109, "longitude": -125.0185772, "elevation": 1027.0, "source": "osm", "_tags": {"ele": "1027", "name": "Bluff Hill", "natural": "peak", "source": "NRCan-CanVec-10.0", "wikidata": "Q22578883"}}, {"name": "Mount Isola", "latitude": 56.7869849, "longitude": -125.2362655, "elevation": 1673.0, "source": "osm", "_tags": {"ele": "1673", "name": "Mount Isola", "natural": "peak", "source": "NRCan-CanVec-10.0", "wikidata": "Q22438261"}}, {"name": "Montagnes Rocheuses", "latitude": 57.0991908, "longitude": -124.7078338, "elevation": 1456.0, "source": "osm", "_tags": {"ele": "1456", "name": "Montagnes Rocheuses", "name:en": "Rocky Mountains", "name:fr": "Montagnes Rocheuses", "natural": "peak", "source": "NRCan-CanVec-10.0"}}, {"name": "Montagnes Rocheuses", "latitude": 57.0013368, "longitude": -125.0662962, "elevation": 695.0, "source": "osm", "_tags": {"ele": "695", "name": "Montagnes Rocheuses", "name:en": "Rocky Mountains", "name:fr": "Montagnes Rocheuses", "natural": "peak", "source": "NRCan-CanVec-10.0"}}, {"name": "Montagnes Rocheuses", "latitude": 57.2415666, "longitude": -125.1043817, "elevation": 1396.0, "source": "osm", "_tags": {"ele": "1396", "name": "Montagnes Rocheuses", "name:en": "Rocky Mountains", "name:fr": "Montagnes Rocheuses", "natural": "peak", "source": "NRCan-CanVec-10.0"}}, {"name": "England Mountain", "latitude": 57.0003052, "longitude": -125.3737896, "elevation": 2080.0, "source": "osm", "_tags": {"ele": "2080", "name": "England Mountain", "natural": "peak", "source": "NRCan-CanVec-10.0"}}, {"name": "Mount Blanchard", "latitude": 57.1445708, "longitude": -125.1495112, "elevation": 1715.0, "source": "osm", "_tags": {"ele": "1715", "name": "Mount Blanchard", "natural": "peak", "source": "NRCan-CanVec-10.0", "wikidata": "Q22417326"}}, {"name": "Montagnes Rocheuses", "latitude": 57.1256982, "longitude": -125.0934866, "elevation": 1731.0, "source": "osm", "_tags": {"ele": "1731", "name": "Montagnes Rocheuses", "name:en": "Rocky Mountains", "name:fr": "Montagnes Rocheuses", "natural": "peak", "source": "NRCan-CanVec-10.0"}}, {"name": "Mount Del", "latitude": 57.2575475, "longitude": -125.2776542, "elevation": 1500.0, "source": "osm", "_tags": {"ele": "1500", "name": "Mount Del", "natural": "peak", "source": "NRCan-CanVec-10.0", "wikidata": "Q22425703"}}]