[{"name": "Mount Moodie", "latitude": 56.2952067, "longitude": -124.2145077, "elevation": 1571.0, "source": "osm", "_tags": {"ele": "1571", "name": "Mount Moodie", "natural": "peak", "source": "NRCan-CanVec-7.0", "wikidata": "Q22548316"}}, {"name": "Montagnes Rocheuses", "latitude": 56.4932597, "longitude": -124.3222317, "elevation": 1066.0, "source": "osm", "_tags": {"ele": "1066", "name": "Montagnes Rocheuses", "natural": "peak", "source": "NRCan-CanVec-7.0"}}, {"name": "Chowika Mountain", "latitude": 56.7483652, "longitude": -124.6602224, "elevation": 2064.0, "source": "osm", "_tags": {"ele": "2064", "name": "Chowika Mountain", "natural": "peak", "source": "NRCan-CanVec-7.0", "wikidata": "Q22497239"}}, {"name": "Mount Grahame", "latitude": 56.6100705, "longitude": -124.481519, "elevation": 1728.0, "source": "osm", "_tags": {"ele": "1728", "name": "Mount Grahame", "natural": "peak", "source": "NRCan-CanVec-8.0"}}, {"name": "Trident Peak", "latitude": 56.7281718, "longitude": -124.0824082, "elevation": 2090.0, "source": "osm", "_tags": {"ele": "2090", "name": "Trident Peak", "natural": "peak", "source": "NRCan-CanVec-8.0", "wikidata": "Q22525078"}}, {"name": "Mount Lady Laurier", "latitude": 56.6824992, "longitude": -123.7844566, "elevation": 2362.0, "source": "osm", "_tags": {"ele": "2362", "name": "Mount Lady Laurier", "natural": "peak", "source": "NRCan-CanVec-8.0"}}, {"name": "Montagnes Rocheuses", "latitude": 56.8672556, "longitude": -123.739793, "elevation": 1960.0, "source": "osm", "_tags": {"ele": "1960", "name": "Montagnes Rocheuses", "natural": "peak", "source": "NRCan-CanVec-7.0"}}, {"name": "Mount Kenny", "latitude": 56.9256602, "longitude": -123.8170129, "elevation": 2669.0, "source": "osm", "_tags": {"ele": "2669", "name": "Mount Kenny", "natural": "peak", "source": "NRCan-CanVec-7.0", "wikidata": "Q22439878"}}, {"name": "Mount Robb", "latitude": 56.8616459, "longitude": -123.8136129, "elevation": 2543.0, "source": "osm", "_tags": {"ele": "2543", "name": "Mount Robb", "natural": "peak", "source": "NRCan-CanVec-7.0"}}, {"name": "Mount Ford", "latitude": 57.1897391, "longitude": -124.0993738, "elevation": 2296.0, "source": "osm", "_tags": {"ele": "2296", "name": "Mount Ford", "natural": "peak", "source": "NRCan-CanVec-10.0", "wikidata": "Q22430467"}}, {"name": "", "latitude": 57.1626382, "longitude": -124.5671941, "elevation": 2129.0, "source": "osm", "_tags": {"ele": "2129", "natural": "peak"}}, {"name": "", "latitude": 57.2099879, "longitude": -124.4859982, "elevation": 2074.0, "source": "osm", "_tags": {"ele": "2074", "natural": "peak"}}, {"name": "", "latitude": 57.173481, "longitude": -124.376135, "elevation": 2006.0, "source": "osm", "_tags": {"ele": "2006", "natural": "peak"}}, {"name": "", "latitude": 57.1441563, "longitude": -124.4418813, "elevation": 2204.0, "source": "osm", "_tags": {"ele": "2204", "natural": "peak"}}, {"name": "", "latitude": 57.1233357, "longitude": -124.4894315, "elevation": 2331.0, "source": "osm", "_tags": {"ele": "2331", "natural": "peak"}}, {"name": "", "latitude": 57.1437838, "longitude": -124.504881, "elevation": 2163.0, "source": "osm", "_tags": {"ele": "2163", "natural": "peak"}}, {"name": "", "latitude": 57.1892508, "longitude": -124.5083142, "elevation": 2194.0, "source": "osm", "_tags": {"ele": "2194", "natural": "peak"}}, {"name": "", "latitude": 57.1920412, "longitude": -124.4536401, "elevation": 2152.0, "source": "osm", "_tags": {"ele": "2152", "natural": "peak"}}, {"name": "", "latitude": 57.1634294, "longitude": -124.433384, "elevation": 2203.0, "source": "osm", "_tags": {"ele": "2203", "natural": "peak"}}, {"name": "Montagnes Rocheuses", "latitude": 57.1194113, "longitude": -124.2562241, "elevation": 1178.0, "source": "osm", "_tags": {"ele": "1178", "name": "Montagnes Rocheuses", "name:en": "Rocky Mountains", "name:fr": "Montagnes Rocheuses", "natural": "peak", "source": "NRCan-CanVec-10.0"}}, {"name": "Mount Bertha", "latitude": 57.1972516, "longitude": -123.7249964, "elevation": 2127.0, "source": "osm", "_tags": {"ele": "2127", "name": "Mount Bertha", "natural": "peak", "source": "NRCan-CanVec-10.0", "wikidata": "Q22416719"}}, {"name": "Montagnes Rocheuses", "latitude": 57.1196951, "longitude": -123.8957299, "elevation": 1763.0, "source": "osm", "_tags": {"ele": "1763", "name": "Montagnes Rocheuses", "name:en": "Rocky Mountains", "name:fr": "Montagnes Rocheuses", "natural": "peak", "source": "NRCan-CanVec-10.0"}}, {"name": "Mount McCusker", "latitude": 57.0811845, "longitude": -123.9256194, "elevation": 2581.0, "source": "osm", "_tags": {"ele": "2581", "name": "Mount McCusker", "natural": "peak", "source": "NRCan-CanVec-10.0", "wikidata": "Q22547037"}}, {"name": "Mount Helen", "latitude": 57.2745953, "longitude": -123.9194232, "elevation": 2537.0, "source": "osm", "_tags": {"ele": "2537", "name": "Mount Helen", "natural": "peak", "source": "NRCan-CanVec-10.0"}}, {"name": "Montagnes Rocheuses", "latitude": 57.2687769, "longitude": -123.7845968, "elevation": 1473.0, "source": "osm", "_tags": {"ele": "1473", "name": "Montagnes Rocheuses", "name:en": "Rocky Mountains", "name:fr": "Montagnes Rocheuses", "natural": "peak", "source": "NRCan-CanVec-10.0"}}]