[{"name": "", "latitude": 57.4493562, "longitude": -125.778408, "elevation": 1675.0, "source": "osm", "_tags": {"ele": "1675", "natural": "peak"}}, {"name": "Bend Mountain", "latitude": 57.3680618, "longitude": -126.6718499, "elevation": 2154.0, "source": "osm", "_tags": {"ele": "2154", "name": "Bend Mountain", "natural": "peak", "source": "NRCan-CanVec-10.0"}}, {"name": "", "latitude": 57.6973596, "longitude": -126.3652612, "elevation": 1872.0, "source": "osm", "_tags": {"ele": "1872", "natural": "peak"}}, {"name": "", "latitude": 57.7005243, "longitude": -126.3830281, "elevation": 1877.0, "source": "osm", "_tags": {"ele": "1877", "natural": "peak"}}, {"name": "", "latitude": 57.6957083, "longitude": -126.4988995, "elevation": 1777.0, "source": "osm", "_tags": {"ele": "1777", "natural": "peak"}}, {"name": "", "latitude": 57.7300023, "longitude": -126.452036, "elevation": 1156.0, "source": "osm", "_tags": {"ele": "1156", "natural": "peak"}}, {"name": "Mount Bennett", "latitude": 57.3690814, "longitude": -125.6965542, "elevation": 1975.0, "source": "osm", "_tags": {"ele": "1975", "name": "Mount Bennett", "natural": "peak", "source": "NRCan-CanVec-10.0", "wikidata": "Q22416377"}}, {"name": "Prairie Mountain", "latitude": 57.4384442, "longitude": -125.738375, "elevation": 1565.0, "source": "osm", "_tags": {"ele": "1565", "name": "Prairie Mountain", "natural": "peak", "source": "NRCan-CanVec-10.0", "wikidata": "Q22562550"}}, {"name": "Mount Bower", "latitude": 57.4726678, "longitude": -126.0765429, "elevation": 1939.0, "source": "osm", "_tags": {"ele": "1939", "name": "Mount Bower", "natural": "peak", "source": "NRCan-CanVec-10.0"}}, {"name": "Mount Irish", "latitude": 57.4066353, "longitude": -125.9761094, "elevation": 2266.0, "source": "osm", "_tags": {"ele": "2266", "name": "Mount Irish", "natural": "peak", "source": "NRCan-CanVec-10.0"}}, {"name": "", "latitude": 57.3444952, "longitude": -126.0415079, "elevation": 1823.0, "source": "osm", "_tags": {"ele": "1823", "natural": "peak"}}, {"name": "", "latitude": 57.3975317, "longitude": -126.2303354, "elevation": 1849.0, "source": "osm", "_tags": {"ele": "1849", "natural": "peak"}}, {"name": "", "latitude": 57.3804166, "longitude": -126.1271669, "elevation": 1525.0, "source": "osm", "_tags": {"ele": "1525", "natural": "peak"}}, {"name": "", "latitude": 57.292727, "longitude": -126.2216664, "elevation": 2138.0, "source": "osm", "_tags": {"ele": "2138", "natural": "peak"}}, {"name": "Whudzi Mountain", "latitude": 57.3491194, "longitude": -126.4645989, "elevation": 2001.0, "source": "osm", "_tags": {"ele": "2001", "name": "Whudzi Mountain", "natural": "peak", "source": "NRCan-CanVec-10.0", "wikidata": "Q22613865"}}, {"name": "Bronlund Peak", "latitude": 57.4280825, "longitude": -126.6755408, "elevation": 2609.0, "source": "osm", "_tags": {"ele": "2609", "name": "Bronlund Peak", "natural": "peak"}}, {"name": "Bronlund Peak", "latitude": 57.4233838, "longitude": -126.6807919, "elevation": 2293.0, "source": "osm", "_tags": {"ele": "2293", "name": "Bronlund Peak", "natural": "peak", "source": "NRCan-CanVec-10.0"}}, {"name": "Mount Ward", "latitude": 57.5964861, "longitude": -126.4324935, "elevation": 2016.0, "source": "osm", "_tags": {"ele": "2016", "name": "Mount Ward", "natural": "peak", "source": "NRCan-CanVec-10.0"}}, {"name": "Brandon Peak", "latitude": 57.632677, "longitude": -126.071815, "elevation": 2107.0, "source": "osm", "_tags": {"ele": "2107", "name": "Brandon Peak", "natural": "peak", "source": "NRCan-CanVec-10.0"}}, {"name": "Rocky Peak", "latitude": 57.7354318, "longitude": -126.1737957, "elevation": 2251.0, "source": "osm", "_tags": {"ele": "2251", "name": "Rocky Peak", "natural": "peak", "source": "NRCan-CanVec-10.0"}}, {"name": "Warner Peak", "latitude": 57.6644552, "longitude": -126.1086271, "elevation": 2357.0, "source": "osm", "_tags": {"ele": "2357", "name": "Warner Peak", "natural": "peak", "source": "NRCan-CanVec-10.0", "wikidata": "Q22549525"}}, {"name": "Mount Finlay", "latitude": 57.5886441, "longitude": -126.2217734, "elevation": 1803.0, "source": "osm", "_tags": {"ele": "1803", "name": "Mount Finlay", "natural": "peak", "source": "NRCan-CanVec-10.0", "wikidata": "Q22429957"}}, {"name": "Hedges Peak", "latitude": 57.7181629, "longitude": -126.1557022, "elevation": 2211.0, "source": "osm", "_tags": {"ele": "2211", "name": "Hedges Peak", "natural": "peak", "source": "NRCan-CanVec-10.0"}}, {"name": "Mount Basnett", "latitude": 57.5189193, "longitude": -126.2270227, "elevation": 1987.0, "source": "osm", "_tags": {"ele": "1987", "name": "Mount Basnett", "natural": "peak", "source": "NRCan-CanVec-10.0", "wikidata": "Q22415561"}}, {"name": "Pulpit Peak", "latitude": 57.6005309, "longitude": -126.6734635, "elevation": 2573.0, "source": "osm", "_tags": {"ele": "2573", "name": "Pulpit Peak", "natural": "peak", "source": "NRCan-CanVec-10.0", "wikidata": "Q22620166"}}, {"name": "Spiked Peak", "latitude": 57.6071311, "longitude": -126.6902599, "elevation": 2504.0, "source": "osm", "_tags": {"ele": "2504", "name": "Spiked Peak", "natural": "peak", "source": "NRCan-CanVec-10.0"}}, {"name": "Montagnes Rocheuses", "latitude": 57.8712612, "longitude": -126.0078079, "elevation": 1615.0, "source": "osm", "_tags": {"ele": "1615", "name": "Montagnes Rocheuses", "name:en": "Rocky Mountains", "name:fr": "Montagnes Rocheuses", "natural": "peak", "source": "NRCan-CanVec-10.0"}}, {"name": "Scarcity Mountain", "latitude": 57.9365138, "longitude": -126.1099779, "elevation": 1966.0, "source": "osm", "_tags": {"ele": "1966", "name": "Scarcity Mountain", "natural": "peak", "source": "NRCan-CanVec-10.0"}}, {"name": "Montagnes Rocheuses", "latitude": 57.9984303, "longitude": -126.1958552, "elevation": 1812.0, "source": "osm", "_tags": {"ele": "1812", "name": "Montagnes Rocheuses", "name:en": "Rocky Mountains", "name:fr": "Montagnes Rocheuses", "natural": "peak", "source": "NRCan-CanVec-10.0"}}, {"name": "Montagnes Rocheuses", "latitude": 57.9988587, "longitude": -126.1894824, "elevation": 1816.0, "source": "osm", "_tags": {"ele": "1816", "name": "Montagnes Rocheuses", "name:en": "Rocky Mountains", "name:fr": "Montagnes Rocheuses", "natural": "peak", "source": "NRCan-CanVec-10.0"}}, {"name": "Flat Top Mountain", "latitude": 57.9357931, "longitude": -126.3766904, "elevation": 2187.0, "source": "osm", "_tags": {"ele": "2187", "name": "Flat Top Mountain", "natural": "peak", "source": "NRCan-CanVec-10.0"}}, {"name": "Mount Slocomb", "latitude": 57.8882346, "longitude": -126.3214722, "elevation": 2228.0, "source": "osm", "_tags": {"ele": "2228", "name": "Mount Slocomb", "natural": "peak", "source": "NRCan-CanVec-10.0"}}, {"name": "Montagnes Rocheuses", "latitude": 57.9068522, "longitude": -126.0083659, "elevation": 1207.0, "source": "osm", "_tags": {"ele": "1207", "name": "Montagnes Rocheuses", "name:en": "Rocky Mountains", "name:fr": "Montagnes Rocheuses", "natural": "peak", "source": "NRCan-CanVec-10.0"}}, {"name": "Fox Peak", "latitude": 57.7601193, "longitude": -126.2433224, "elevation": 2152.0, "source": "osm", "_tags": {"ele": "2152", "name": "Fox Peak", "natural": "peak", "source": "NRCan-CanVec-10.0", "wikidata": "Q22503160"}}, {"name": "Mount Chief Davie", "latitude": 57.5481508, "longitude": -125.7039646, "elevation": 1651.0, "source": "osm", "_tags": {"ele": "1651", "name": "Mount Chief Davie", "natural": "peak", "source": "NRCan-CanVec-10.0", "wikidata": "Q22421589"}}, {"name": "Montagnes Rocheuses", "latitude": 57.7458063, "longitude": -125.7646251, "elevation": 1039.0, "source": "osm", "_tags": {"ele": "1039", "name": "Montagnes Rocheuses", "name:en": "Rocky Mountains", "name:fr": "Montagnes Rocheuses", "natural": "peak", "source": "NRCan-CanVec-10.0"}}, {"name": "Chisholm Peak", "latitude": 57.6522443, "longitude": -125.7467142, "elevation": 2027.0, "source": "osm", "_tags": {"ele": "2027", "name": "Chisholm Peak", "natural": "peak", "source": "NRCan-CanVec-10.0", "wikidata": "Q22495173"}}, {"name": "Montagnes Rocheuses", "latitude": 57.6403385, "longitude": -125.8572167, "elevation": 982.0, "source": "osm", "_tags": {"ele": "982", "name": "Montagnes Rocheuses", "name:en": "Rocky Mountains", "name:fr": "Montagnes Rocheuses", "natural": "peak", "source": "NRCan-CanVec-10.0"}}, {"name": "Mount Balourdet", "latitude": 57.5969216, "longitude": -125.9498657, "elevation": 2148.0, "source": "osm", "_tags": {"ele": "2148", "name": "Mount Balourdet", "natural": "peak", "source": "NRCan-CanVec-10.0", "wikidata": "Q22415179"}}, {"name": "Mount McCook", "latitude": 57.7559656, "longitude": -125.8687903, "elevation": 1955.0, "source": "osm", "_tags": {"ele": "1955", "name": "Mount McCook", "natural": "peak", "source": "NRCan-CanVec-10.0"}}, {"name": "Montagnes Rocheuses", "latitude": 57.8871884, "longitude": -125.7685892, "elevation": 1185.0, "source": "osm", "_tags": {"ele": "1185", "name": "Montagnes Rocheuses", "name:en": "Rocky Mountains", "name:fr": "Montagnes Rocheuses", "natural": "peak", "source": "NRCan-CanVec-10.0"}}, {"name": "Mount Josefina", "latitude": 57.8424016, "longitude": -125.9939889, "elevation": 2095.0, "source": "osm", "_tags": {"ele": "2095", "name": "Mount Josefina", "natural": "peak", "source": "NRCan-CanVec-10.0"}}, {"name": "Mount New", "latitude": 58.2446492, "longitude": -126.435744, "elevation": 2102.0, "source": "osm", "_tags": {"ele": "2102", "name": "Mount New", "natural": "peak", "source": "NRCan-CanVec-10.0"}}, {"name": "Citroen Peak", "latitude": 58.0276507, "longitude": -126.2325939, "elevation": 1939.0, "source": "osm", "_tags": {"ele": "1939", "name": "Citroen Peak", "natural": "peak", "source": "NRCan-CanVec-10.0"}}, {"name": "Bighorn Mountain", "latitude": 58.1721116, "longitude": -126.3985779, "elevation": 1936.0, "source": "osm", "_tags": {"ele": "1936", "name": "Bighorn Mountain", "natural": "peak", "source": "NRCan-CanVec-10.0"}}, {"name": "Mount Mark", "latitude": 58.0961603, "longitude": -126.2800335, "elevation": 1989.0, "source": "osm", "_tags": {"ele": "1989", "name": "Mount Mark", "natural": "peak", "source": "NRCan-CanVec-10.0"}}, {"name": "Montagnes Rocheuses", "latitude": 58.1402914, "longitude": -126.2247597, "elevation": 1402.0, "source": "osm", "_tags": {"ele": "1402", "name": "Montagnes Rocheuses", "name:en": "Rocky Mountains", "name:fr": "Montagnes Rocheuses", "natural": "peak", "source": "NRCan-CanVec-10.0"}}]