[{"name": "Cairo Peak", "latitude": 58.2538566, "longitude": -125.194727, "elevation": 2531.0, "source": "osm", "_tags": {"ele": "2531", "name": "Cairo Peak", "natural": "peak", "source": "NRCan-CanVec-10.0"}}, {"name": "Tehran Peak", "latitude": 58.2700858, "longitude": -125.2375972, "elevation": 2710.0, "source": "osm", "_tags": {"ele": "2710", "name": "Tehran Peak", "natural": "peak", "source": "NRCan-CanVec-10.0"}}, {"name": "Angle Peak", "latitude": 58.2812511, "longitude": -124.7526092, "elevation": 2716.0, "source": "osm", "_tags": {"ele": "2716", "name": "Angle Peak", "natural": "peak", "source": "NRCan-CanVec-10.0"}}, {"name": "Icecap Peak", "latitude": 58.2561999, "longitude": -124.7280165, "elevation": 2774.0, "source": "osm", "_tags": {"ele": "2774", "name": "Icecap Peak", "natural": "peak", "source": "NRCan-CanVec-10.0"}}, {"name": "Churchill Peak", "latitude": 58.2425327, "longitude": -125.1990529, "elevation": 2770.0, "source": "osm", "_tags": {"ele": "2770", "name": "Churchill Peak", "natural": "peak", "source": "NRCan-CanVec-10.0"}}, {"name": "Campobasso Mountain", "latitude": 58.1348124, "longitude": -124.8436281, "elevation": 2684.0, "source": "osm", "_tags": {"ele": "2684", "name": "Campobasso Mountain", "natural": "peak", "source": "NRCan-CanVec-10.0"}}, {"name": "King Peak", "latitude": 58.2237359, "longitude": -124.856582, "elevation": 2810.0, "source": "osm", "_tags": {"ele": "2810", "name": "King Peak", "natural": "peak", "prominence": "1073", "source": "NRCan-CanVec-10.0", "wikidata": "Q59320", "wikipedia": "en:King Peak (Yukon)"}}, {"name": "Lindisfarne Peak", "latitude": 58.2357245, "longitude": -124.9771332, "elevation": 2526.0, "source": "osm", "_tags": {"ele": "2526", "name": "Lindisfarne Peak", "natural": "peak", "source": "NRCan-CanVec-10.0"}}, {"name": "Liri Mountain", "latitude": 58.2082255, "longitude": -124.9138495, "elevation": 2764.0, "source": "osm", "_tags": {"ele": "2764", "name": "Liri Mountain", "natural": "peak", "source": "NRCan-CanVec-10.0"}}, {"name": "Mount Aida", "latitude": 58.2139263, "longitude": -124.7081451, "elevation": 2673.0, "source": "osm", "_tags": {"ele": "2673", "name": "Mount Aida", "natural": "peak", "source": "NRCan-CanVec-10.0"}}, {"name": "Ortona Mountain", "latitude": 58.1890224, "longitude": -124.8332598, "elevation": 2781.0, "source": "osm", "_tags": {"ele": "2781", "name": "Ortona Mountain", "natural": "peak", "source": "NRCan-CanVec-10.0"}}, {"name": "Potsdam Peak", "latitude": 58.1911331, "longitude": -124.787749, "elevation": 2766.0, "source": "osm", "_tags": {"ele": "2766", "name": "Potsdam Peak", "natural": "peak", "source": "NRCan-CanVec-10.0"}}, {"name": "Quebec Citadel Peak", "latitude": 58.2283875, "longitude": -124.8866725, "elevation": 2787.0, "source": "osm", "_tags": {"ele": "2787", "name": "Quebec Citadel Peak", "natural": "peak", "source": "NRCan-CanVec-10.0"}}, {"name": "Savio Mountain", "latitude": 58.2139775, "longitude": -124.7866785, "elevation": 2754.0, "source": "osm", "_tags": {"ele": "2754", "name": "Savio Mountain", "natural": "peak", "source": "NRCan-CanVec-10.0"}}, {"name": "Senio Mountain", "latitude": 58.1806245, "longitude": -124.9289998, "elevation": 2804.0, "source": "osm", "_tags": {"ele": "2804", "name": "Senio Mountain", "natural": "peak", "source": "NRCan-CanVec-10.0"}}, {"name": "Sicily Mountain", "latitude": 58.1264141, "longitude": -124.9249377, "elevation": 2732.0, "source": "osm", "_tags": {"ele": "2732", "name": "Sicily Mountain", "natural": "peak", "source": "NRCan-CanVec-10.0"}}, {"name": "Yalta Peak", "latitude": 58.2416372, "longitude": -124.7287183, "elevation": 2723.0, "source": "osm", "_tags": {"ele": "2723", "name": "Yalta Peak", "natural": "peak", "source": "NRCan-CanVec-10.0"}}, {"name": "Criccieth Mountain", "latitude": 57.901024, "longitude": -124.9718174, "elevation": 2849.0, "source": "osm", "_tags": {"ele": "2849", "name": "Criccieth Mountain", "natural": "peak", "source": "NRCan-CanVec-10.0", "wikidata": "Q22427073"}}, {"name": "Mount Lloyd George (East Summit)", "latitude": 57.8954663, "longitude": -124.9982352, "elevation": 2925.0, "source": "osm", "_tags": {"ele": "2925", "name": "Mount Lloyd George (East Summit)", "natural": "peak", "source": "NRCan-CanVec-10.0", "wikidata": "Q6921860", "wikipedia": "en:Mount Lloyd George"}}, {"name": "Mount Bedaux", "latitude": 57.7945559, "longitude": -124.8614463, "elevation": 2298.0, "source": "osm", "_tags": {"ele": "2298", "name": "Mount Bedaux", "natural": "peak", "source": "NRCan-CanVec-10.0", "wikidata": "Q22415920"}}, {"name": "", "latitude": 57.3800001, "longitude": -125.6650544, "elevation": 1474.0, "source": "osm", "_tags": {"ele": "1474", "natural": "peak"}}, {"name": "Montagnes Rocheuses", "latitude": 57.3556044, "longitude": -125.5098008, "elevation": 759.0, "source": "osm", "_tags": {"ele": "759", "name": "Montagnes Rocheuses", "name:en": "Rocky Mountains", "name:fr": "Montagnes Rocheuses", "natural": "peak", "source": "NRCan-CanVec-10.0"}}, {"name": "Kwadacha Mountain", "latitude": 57.4482982, "longitude": -125.5839567, "elevation": 1622.0, "source": "osm", "_tags": {"ele": "1622", "name": "Kwadacha Mountain", "natural": "peak", "source": "NRCan-CanVec-10.0", "wikidata": "Q22563179"}}, {"name": "Mount Haworth", "latitude": 57.4997436, "longitude": -125.5396955, "elevation": 1679.0, "source": "osm", "_tags": {"ele": "1679", "name": "Mount Haworth", "natural": "peak", "source": "NRCan-CanVec-10.0"}}, {"name": "Montagnes Rocheuses", "latitude": 57.4971943, "longitude": -125.5865727, "elevation": 987.0, "source": "osm", "_tags": {"ele": "987", "name": "Montagnes Rocheuses", "name:en": "Rocky Mountains", "name:fr": "Montagnes Rocheuses", "natural": "peak", "source": "NRCan-CanVec-10.0"}}, {"name": "Grave Mountain", "latitude": 57.3019065, "longitude": -125.3931951, "elevation": 1433.0, "source": "osm", "_tags": {"ele": "1433", "name": "Grave Mountain", "natural": "peak", "source": "NRCan-CanVec-10.0", "wikidata": "Q22419179"}}, {"name": "Mount Paul", "latitude": 57.3533362, "longitude": -125.4572281, "elevation": 1551.0, "source": "osm", "_tags": {"ele": "1551", "name": "Mount Paul", "natural": "peak", "source": "NRCan-CanVec-10.0", "wikidata": "Q22550245"}}, {"name": "Montagnes Rocheuses", "latitude": 57.3831315, "longitude": -125.2241274, "elevation": 1033.0, "source": "osm", "_tags": {"ele": "1033", "name": "Montagnes Rocheuses", "name:en": "Rocky Mountains", "name:fr": "Montagnes Rocheuses", "natural": "peak", "source": "NRCan-CanVec-10.0"}}, {"name": "Montagnes Rocheuses", "latitude": 57.3764107, "longitude": -124.7714356, "elevation": 1534.0, "source": "osm", "_tags": {"ele": "1534", "name": "Montagnes Rocheuses", "name:en": "Rocky Mountains", "name:fr": "Montagnes Rocheuses", "natural": "peak", "source": "NRCan-CanVec-10.0"}}, {"name": "Montagnes Rocheuses", "latitude": 57.6048031, "longitude": -124.7665651, "elevation": 1910.0, "source": "osm", "_tags": {"ele": "1910", "name": "Montagnes Rocheuses", "name:en": "Rocky Mountains", "name:fr": "Montagnes Rocheuses", "natural": "peak", "source": "NRCan-CanVec-10.0"}}, {"name": "Lombard Peak", "latitude": 57.7282327, "longitude": -124.8021198, "elevation": 2296.0, "source": "osm", "_tags": {"ele": "2296", "name": "Lombard Peak", "natural": "peak", "source": "NRCan-CanVec-10.0"}}, {"name": "Mount Lavoie", "latitude": 57.5640094, "longitude": -125.4014184, "elevation": 2034.0, "source": "osm", "_tags": {"ele": "2034", "name": "Mount Lavoie", "natural": "peak", "source": "NRCan-CanVec-10.0", "wikidata": "Q22441560"}}, {"name": "Mount Yuen", "latitude": 57.570243, "longitude": -125.3111245, "elevation": 2054.0, "source": "osm", "_tags": {"ele": "2054", "name": "Mount Yuen", "natural": "peak", "source": "NRCan-CanVec-10.0", "wikidata": "Q22558160"}}, {"name": "Montagnes Rocheuses", "latitude": 57.6309075, "longitude": -125.2478495, "elevation": 1568.0, "source": "osm", "_tags": {"ele": "1568", "name": "Montagnes Rocheuses", "name:en": "Rocky Mountains", "name:fr": "Montagnes Rocheuses", "natural": "peak", "source": "NRCan-CanVec-10.0"}}, {"name": "Mount Chesterfield", "latitude": 57.7497912, "longitude": -125.1432813, "elevation": 2219.0, "source": "osm", "_tags": {"ele": "2219", "name": "Mount Chesterfield", "natural": "peak", "source": "NRCan-CanVec-10.0"}}, {"name": "Mount Luke", "latitude": 57.6960007, "longitude": -125.3296091, "elevation": 1714.0, "source": "osm", "_tags": {"ele": "1714", "name": "Mount Luke", "natural": "peak", "source": "NRCan-CanVec-10.0"}}, {"name": "Mount Alcock", "latitude": 57.6565225, "longitude": -125.4092198, "elevation": 1964.0, "source": "osm", "_tags": {"ele": "1964", "name": "Mount Alcock", "natural": "peak", "source": "NRCan-CanVec-10.0", "wikidata": "Q22412879"}}, {"name": "Mount Holben", "latitude": 57.7062928, "longitude": -125.2963818, "elevation": 2048.0, "source": "osm", "_tags": {"ele": "2048", "name": "Mount Holben", "natural": "peak", "source": "NRCan-CanVec-10.0"}}, {"name": "Montagnes Rocheuses", "latitude": 57.6383694, "longitude": -125.586871, "elevation": 1122.0, "source": "osm", "_tags": {"ele": "1122", "name": "Montagnes Rocheuses", "name:en": "Rocky Mountains", "name:fr": "Montagnes Rocheuses", "natural": "peak", "source": "NRCan-CanVec-10.0"}}, {"name": "Spectre Peak", "latitude": 57.7130912, "longitude": -125.6873091, "elevation": 2018.0, "source": "osm", "_tags": {"ele": "2018", "name": "Spectre Peak", "natural": "peak", "source": "NRCan-CanVec-10.0", "wikidata": "Q22592524"}}, {"name": "Mount McCrae", "latitude": 57.6065012, "longitude": -125.5657233, "elevation": 1854.0, "source": "osm", "_tags": {"ele": "1854", "name": "Mount McCrae", "natural": "peak", "source": "NRCan-CanVec-10.0", "wikidata": "Q22546962"}}, {"name": "Mount Haworth", "latitude": 57.5044163, "longitude": -125.5330563, "elevation": 1866.0, "source": "osm", "_tags": {"ele": "1866", "name": "Mount Haworth", "natural": "peak", "source": "NRCan-CanVec-10.0", "wikidata": "Q22435637"}}, {"name": "Montagnes Rocheuses", "latitude": 57.5019625, "longitude": -125.5616769, "elevation": 1356.0, "source": "osm", "_tags": {"ele": "1356", "name": "Montagnes Rocheuses", "name:en": "Rocky Mountains", "name:fr": "Montagnes Rocheuses", "natural": "peak", "source": "NRCan-CanVec-10.0"}}, {"name": "Dryas Peak", "latitude": 57.8664815, "longitude": -125.1389515, "elevation": 2407.0, "source": "osm", "_tags": {"ele": "2407", "name": "Dryas Peak", "natural": "peak", "source": "NRCan-CanVec-10.0", "wikidata": "Q22596651"}}, {"name": "Columbine Peak", "latitude": 57.8829146, "longitude": -125.0637005, "elevation": 2473.0, "source": "osm", "_tags": {"ele": "2473", "name": "Columbine Peak", "natural": "peak", "source": "NRCan-CanVec-10.0"}}, {"name": "Mount Chesterfield", "latitude": 57.7537052, "longitude": -125.1390433, "elevation": 2370.0, "source": "osm", "_tags": {"ele": "2370", "name": "Mount Chesterfield", "natural": "peak", "source": "NRCan-CanVec-10.0"}}, {"name": "Lupin Ridge", "latitude": 57.8444851, "longitude": -125.0978566, "elevation": 2064.0, "source": "osm", "_tags": {"ele": "2064", "name": "Lupin Ridge", "natural": "peak", "source": "NRCan-CanVec-10.0"}}, {"name": "Montagnes Rocheuses", "latitude": 57.8871857, "longitude": -125.2548846, "elevation": 1918.0, "source": "osm", "_tags": {"ele": "1918", "name": "Montagnes Rocheuses", "name:en": "Rocky Mountains", "name:fr": "Montagnes Rocheuses", "natural": "peak", "source": "NRCan-CanVec-10.0"}}, {"name": "Little Cloudmaker Mountain", "latitude": 57.7733313, "longitude": -125.0995604, "elevation": 2329.0, "source": "osm", "_tags": {"ele": "2329", "name": "Little Cloudmaker Mountain", "natural": "peak", "source": "NRCan-CanVec-10.0"}}, {"name": "Cloudmaker Mountain", "latitude": 57.7604281, "longitude": -125.0937598, "elevation": 2494.0, "source": "osm", "_tags": {"ele": "2494", "name": "Cloudmaker Mountain", "natural": "peak", "source": "NRCan-CanVec-10.0", "wikidata": "Q22514515"}}, {"name": "Survey Peak", "latitude": 57.836858, "longitude": -125.0004083, "elevation": 2382.0, "source": "osm", "_tags": {"ele": "2382", "name": "Survey Peak", "natural": "peak", "source": "NRCan-CanVec-10.0"}}, {"name": "Mount Lloyd George (West Summit)", "latitude": 57.8947996, "longitude": -125.0010326, "elevation": 2800.0, "source": "osm", "_tags": {"ele": "2800", "name": "Mount Lloyd George (West Summit)", "natural": "peak", "source": "NRCan-CanVec-10.0"}}, {"name": "Mount Glendower", "latitude": 57.8925363, "longitude": -125.0306251, "elevation": 2915.0, "source": "osm", "_tags": {"ele": "2915", "name": "Mount Glendower", "natural": "peak", "source": "NRCan-CanVec-10.0"}}, {"name": "Grey Peak", "latitude": 57.8069304, "longitude": -125.1987018, "elevation": 2330.0, "source": "osm", "_tags": {"ele": "2330", "name": "Grey Peak", "natural": "peak", "source": "NRCan-CanVec-10.0", "wikidata": "Q22442405"}}, {"name": "Bilou Peak", "latitude": 57.8164613, "longitude": -124.6936418, "elevation": 2633.0, "source": "osm", "_tags": {"ele": "2633", "name": "Bilou Peak", "natural": "peak", "source": "NRCan-CanVec-10.0", "wikidata": "Q22441829"}}, {"name": "Survey Peak", "latitude": 57.8362328, "longitude": -124.9982989, "elevation": 2402.0, "source": "osm", "_tags": {"ele": "2402", "name": "Survey Peak", "natural": "peak", "source": "NRCan-CanVec-10.0"}}, {"name": "Bruce Ridge", "latitude": 57.8079632, "longitude": -124.7860345, "elevation": 2146.0, "source": "osm", "_tags": {"ele": "2146", "name": "Bruce Ridge", "natural": "peak", "source": "NRCan-CanVec-10.0"}}, {"name": "Montagnes Rocheuses", "latitude": 57.8815213, "longitude": -124.7104279, "elevation": 2137.0, "source": "osm", "_tags": {"ele": "2137", "name": "Montagnes Rocheuses", "name:en": "Rocky Mountains", "name:fr": "Montagnes Rocheuses", "natural": "peak", "source": "NRCan-CanVec-10.0"}}, {"name": "Mount Crosby", "latitude": 57.7981579, "longitude": -124.9650317, "elevation": 2539.0, "source": "osm", "_tags": {"ele": "2539", "name": "Mount Crosby", "natural": "peak", "source": "NRCan-CanVec-10.0", "wikidata": "Q22424251"}}, {"name": "Bardsey Ridge", "latitude": 57.8841163, "longitude": -124.9308562, "elevation": 2051.0, "source": "osm", "_tags": {"ele": "2051", "name": "Bardsey Ridge", "natural": "peak", "source": "NRCan-CanVec-10.0"}}, {"name": "Mount Walsh", "latitude": 57.8697113, "longitude": -124.8313947, "elevation": 2652.0, "source": "osm", "_tags": {"ele": "2652", "name": "Mount Walsh", "natural": "peak", "source": "NRCan-CanVec-10.0", "wikidata": "Q22557024"}}, {"name": "Mount Smythe", "latitude": 57.9036875, "longitude": -124.884301, "elevation": 2747.0, "source": "osm", "_tags": {"ele": "2747", "name": "Mount Smythe", "natural": "peak", "source": "NRCan-CanVec-10.0", "wikidata": "Q22554213"}}, {"name": "Bardsey Ridge", "latitude": 57.8666393, "longitude": -124.9091163, "elevation": 1913.0, "source": "osm", "_tags": {"ele": "1913", "name": "Bardsey Ridge", "natural": "peak", "source": "NRCan-CanVec-10.0"}}]