[{"name": "Long Mountain (Peak I)", "latitude": 59.2575286, "longitude": -126.5920427, "elevation": 1647.0, "source": "osm", "_tags": {"ele": "1647", "name": "Long Mountain (Peak I)", "natural": "peak", "source": "NRCan-CanVec-10.0"}}, {"name": "", "latitude": 58.689931, "longitude": -126.5896886, "elevation": 1870.0, "source": "osm", "_tags": {"ele": "1870", "natural": "peak"}}, {"name": "", "latitude": 58.673414, "longitude": -126.563293, "elevation": 1982.0, "source": "osm", "_tags": {"ele": "1982", "natural": "peak"}}, {"name": "", "latitude": 58.6663706, "longitude": -126.5567099, "elevation": 1898.0, "source": "osm", "_tags": {"ele": "1898", "natural": "peak"}}, {"name": "", "latitude": 58.6856049, "longitude": -126.6237628, "elevation": 1911.0, "source": "osm", "_tags": {"ele": "1911", "natural": "peak"}}, {"name": "", "latitude": 58.7033064, "longitude": -126.6242046, "elevation": 1901.0, "source": "osm", "_tags": {"ele": "1901", "natural": "peak"}}, {"name": "", "latitude": 58.6961968, "longitude": -126.6161158, "elevation": 1801.0, "source": "osm", "_tags": {"ele": "1801", "natural": "peak"}}, {"name": "", "latitude": 58.6947496, "longitude": -126.6300732, "elevation": 1956.0, "source": "osm", "_tags": {"ele": "1956", "natural": "peak"}}, {"name": "", "latitude": 58.6807193, "longitude": -126.6175717, "elevation": 1867.0, "source": "osm", "_tags": {"ele": "1867", "natural": "peak"}}, {"name": "", "latitude": 58.647356, "longitude": -126.5701609, "elevation": 1909.0, "source": "osm", "_tags": {"ele": "1909", "natural": "peak"}}, {"name": "", "latitude": 58.6452875, "longitude": -126.5398433, "elevation": 1994.0, "source": "osm", "_tags": {"ele": "1994", "natural": "peak"}}, {"name": "", "latitude": 58.632977, "longitude": -126.5199332, "elevation": 2024.0, "source": "osm", "_tags": {"ele": "2024", "natural": "peak"}}, {"name": "", "latitude": 58.6333889, "longitude": -126.5506332, "elevation": 1932.0, "source": "osm", "_tags": {"ele": "1932", "natural": "peak"}}, {"name": "", "latitude": 58.6248049, "longitude": -126.5363909, "elevation": 1896.0, "source": "osm", "_tags": {"ele": "1896", "natural": "peak"}}, {"name": "", "latitude": 58.6319538, "longitude": -126.4448476, "elevation": 1999.0, "source": "osm", "_tags": {"ele": "1999", "natural": "peak"}}, {"name": "", "latitude": 58.6356396, "longitude": -126.4551902, "elevation": 2034.0, "source": "osm", "_tags": {"ele": "2034", "natural": "peak"}}, {"name": "", "latitude": 58.6347796, "longitude": -126.4636231, "elevation": 1976.0, "source": "osm", "_tags": {"ele": "1976", "natural": "peak"}}, {"name": "", "latitude": 58.6386549, "longitude": -126.4756823, "elevation": 2012.0, "source": "osm", "_tags": {"ele": "2012", "natural": "peak"}}, {"name": "", "latitude": 58.6341318, "longitude": -126.4713049, "elevation": 2023.0, "source": "osm", "_tags": {"ele": "2023", "natural": "peak"}}, {"name": "", "latitude": 58.6316411, "longitude": -126.4774204, "elevation": 1898.0, "source": "osm", "_tags": {"ele": "1898", "natural": "peak"}}, {"name": "", "latitude": 58.6602457, "longitude": -126.4047003, "elevation": 1872.0, "source": "osm", "_tags": {"ele": "1872", "natural": "peak"}}, {"name": "", "latitude": 58.6241539, "longitude": -126.370486, "elevation": 2105.0, "source": "osm", "_tags": {"ele": "2105", "natural": "peak"}}, {"name": "", "latitude": 58.6237322, "longitude": -126.3737637, "elevation": 2095.0, "source": "osm", "_tags": {"ele": "2095", "natural": "peak"}}, {"name": "", "latitude": 58.625003, "longitude": -126.3938695, "elevation": 2164.0, "source": "osm", "_tags": {"ele": "2164", "natural": "peak"}}, {"name": "", "latitude": 58.630122, "longitude": -126.3969112, "elevation": 2185.0, "source": "osm", "_tags": {"ele": "2185", "natural": "peak"}}, {"name": "", "latitude": 58.636332, "longitude": -126.4081979, "elevation": 2117.0, "source": "osm", "_tags": {"ele": "2117", "natural": "peak"}}, {"name": "", "latitude": 58.6464376, "longitude": -126.4119316, "elevation": 2205.0, "source": "osm", "_tags": {"ele": "2205", "natural": "peak"}}, {"name": "", "latitude": 58.6551339, "longitude": -126.4236689, "elevation": 2181.0, "source": "osm", "_tags": {"ele": "2181", "natural": "peak"}}, {"name": "", "latitude": 58.6903881, "longitude": -126.4750386, "elevation": 1962.0, "source": "osm", "_tags": {"ele": "1962", "natural": "peak"}}, {"name": "", "latitude": 58.6846339, "longitude": -126.4640523, "elevation": 2027.0, "source": "osm", "_tags": {"ele": "2027", "natural": "peak"}}, {"name": "", "latitude": 58.6832732, "longitude": -126.4613057, "elevation": 2026.0, "source": "osm", "_tags": {"ele": "2026", "natural": "peak"}}, {"name": "", "latitude": 58.6816671, "longitude": -126.4505769, "elevation": 2018.0, "source": "osm", "_tags": {"ele": "2018", "natural": "peak"}}, {"name": "", "latitude": 58.6789902, "longitude": -126.4538384, "elevation": 2048.0, "source": "osm", "_tags": {"ele": "2048", "natural": "peak"}}, {"name": "", "latitude": 58.6719845, "longitude": -126.4461137, "elevation": 2095.0, "source": "osm", "_tags": {"ele": "2095", "natural": "peak"}}, {"name": "", "latitude": 58.6700209, "longitude": -126.4174462, "elevation": 2038.0, "source": "osm", "_tags": {"ele": "2038", "natural": "peak"}}, {"name": "", "latitude": 58.6647766, "longitude": -126.4298058, "elevation": 2264.0, "source": "osm", "_tags": {"ele": "2264", "natural": "peak"}}, {"name": "", "latitude": 58.6587949, "longitude": -126.4324665, "elevation": 2175.0, "source": "osm", "_tags": {"ele": "2175", "natural": "peak"}}, {"name": "", "latitude": 58.6577234, "longitude": -126.4426375, "elevation": 2103.0, "source": "osm", "_tags": {"ele": "2103", "natural": "peak"}}, {"name": "", "latitude": 58.6588395, "longitude": -126.4495039, "elevation": 2056.0, "source": "osm", "_tags": {"ele": "2056", "natural": "peak"}}, {"name": "", "latitude": 58.6809533, "longitude": -126.4958955, "elevation": 1936.0, "source": "osm", "_tags": {"ele": "1936", "natural": "peak"}}, {"name": "", "latitude": 58.6612502, "longitude": -126.462679, "elevation": 2031.0, "source": "osm", "_tags": {"ele": "2031", "natural": "peak"}}, {"name": "", "latitude": 58.6726985, "longitude": -126.4825059, "elevation": 2051.0, "source": "osm", "_tags": {"ele": "2051", "natural": "peak"}}, {"name": "", "latitude": 58.6661603, "longitude": -126.4786435, "elevation": 2108.0, "source": "osm", "_tags": {"ele": "2108", "natural": "peak"}}, {"name": "", "latitude": 58.6643302, "longitude": -126.4724208, "elevation": 2020.0, "source": "osm", "_tags": {"ele": "2020", "natural": "peak"}}, {"name": "", "latitude": 58.6619867, "longitude": -126.5049935, "elevation": 1880.0, "source": "osm", "_tags": {"ele": "1880", "natural": "peak"}}, {"name": "", "latitude": 58.6752421, "longitude": -126.4911748, "elevation": 2004.0, "source": "osm", "_tags": {"ele": "2004", "natural": "peak"}}, {"name": "", "latitude": 58.6826932, "longitude": -126.5176965, "elevation": 1770.0, "source": "osm", "_tags": {"ele": "1770", "natural": "peak"}}, {"name": "", "latitude": 58.6780086, "longitude": -126.5117741, "elevation": 1822.0, "source": "osm", "_tags": {"ele": "1822", "natural": "peak"}}, {"name": "", "latitude": 58.6836747, "longitude": -126.5031911, "elevation": 1953.0, "source": "osm", "_tags": {"ele": "1953", "natural": "peak"}}, {"name": "", "latitude": 58.7266538, "longitude": -126.6397477, "elevation": 1642.0, "source": "osm", "_tags": {"ele": "1642", "natural": "peak"}}, {"name": "", "latitude": 58.7247378, "longitude": -126.6514207, "elevation": 1684.0, "source": "osm", "_tags": {"ele": "1684", "natural": "peak"}}, {"name": "", "latitude": 58.7203261, "longitude": -126.6711617, "elevation": 1547.0, "source": "osm", "_tags": {"ele": "1547", "natural": "peak"}}, {"name": "", "latitude": 58.7224875, "longitude": -126.6607548, "elevation": 1751.0, "source": "osm", "_tags": {"ele": "1751", "natural": "peak"}}, {"name": "Montagnes Rocheuses", "latitude": 58.3744859, "longitude": -126.522912, "elevation": 1579.0, "source": "osm", "_tags": {"ele": "1579", "name": "Montagnes Rocheuses", "name:en": "Rocky Mountains", "name:fr": "Montagnes Rocheuses", "natural": "peak", "source": "NRCan-CanVec-10.0"}}, {"name": "Montagnes Rocheuses", "latitude": 58.4285208, "longitude": -126.6012194, "elevation": 1297.0, "source": "osm", "_tags": {"ele": "1297", "name": "Montagnes Rocheuses", "name:en": "Rocky Mountains", "name:fr": "Montagnes Rocheuses", "natural": "peak", "source": "NRCan-CanVec-10.0"}}, {"name": "Forsberg Ridge", "latitude": 58.3921949, "longitude": -126.6508647, "elevation": 1412.0, "source": "osm", "_tags": {"ele": "1412", "name": "Forsberg Ridge", "natural": "peak", "source": "NRCan-CanVec-10.0"}}, {"name": "Valemont Mountain", "latitude": 58.2968376, "longitude": -126.6391835, "elevation": 1625.0, "source": "osm", "_tags": {"ele": "1625", "name": "Valemont Mountain", "natural": "peak", "source": "NRCan-CanVec-10.0"}}, {"name": "Split Top Mountain", "latitude": 58.4933646, "longitude": -126.5694351, "elevation": 1645.0, "source": "osm", "_tags": {"ele": "1645", "name": "Split Top Mountain", "natural": "peak", "source": "NRCan-CanVec-10.0"}}, {"name": "Montagnes Rocheuses", "latitude": 58.3779858, "longitude": -126.2524756, "elevation": 801.0, "source": "osm", "_tags": {"ele": "801", "name": "Montagnes Rocheuses", "name:en": "Rocky Mountains", "name:fr": "Montagnes Rocheuses", "natural": "peak", "source": "NRCan-CanVec-10.0"}}, {"name": "Montagnes Rocheuses", "latitude": 58.6130182, "longitude": -126.2546103, "elevation": 1425.0, "source": "osm", "_tags": {"ele": "1425", "name": "Montagnes Rocheuses", "name:en": "Rocky Mountains", "name:fr": "Montagnes Rocheuses", "natural": "peak", "source": "NRCan-CanVec-10.0"}}, {"name": "Montagnes Rocheuses", "latitude": 58.5044148, "longitude": -126.5782254, "elevation": 1207.0, "source": "osm", "_tags": {"ele": "1207", "name": "Montagnes Rocheuses", "name:en": "Rocky Mountains", "name:fr": "Montagnes Rocheuses", "natural": "peak", "source": "NRCan-CanVec-10.0"}}, {"name": "Montagnes Rocheuses", "latitude": 58.5809277, "longitude": -126.6781737, "elevation": 1036.0, "source": "osm", "_tags": {"ele": "1036", "name": "Montagnes Rocheuses", "name:en": "Rocky Mountains", "name:fr": "Montagnes Rocheuses", "natural": "peak", "source": "NRCan-CanVec-10.0"}}, {"name": "Montagnes Rocheuses", "latitude": 58.8793788, "longitude": -126.2548579, "elevation": 1470.0, "source": "osm", "_tags": {"ele": "1470", "name": "Montagnes Rocheuses", "name:en": "Rocky Mountains", "name:fr": "Montagnes Rocheuses", "natural": "peak", "source": "NRCan-CanVec-10.0"}}, {"name": "Long Mountain (Peak III)", "latitude": 59.1846461, "longitude": -126.5022634, "elevation": 1414.0, "source": "osm", "_tags": {"ele": "1414", "name": "Long Mountain (Peak III)", "natural": "peak", "source": "NRCan-CanVec-10.0"}}, {"name": "Long Mountain (Peak II)", "latitude": 59.2493898, "longitude": -126.5745194, "elevation": 1577.0, "source": "osm", "_tags": {"ele": "1577", "name": "Long Mountain (Peak II)", "natural": "peak", "source": "NRCan-CanVec-10.0"}}]