[{"name": "Montagnes Rocheuses", "latitude": 58.4853737, "longitude": -126.6960588, "elevation": 867.0, "source": "osm", "_tags": {"ele": "867", "name": "Montagnes Rocheuses", "name:en": "Rocky Mountains", "name:fr": "Montagnes Rocheuses", "natural": "peak", "source": "NRCan-CanVec-10.0"}}, {"name": "Gataga Mountain", "latitude": 58.6418235, "longitude": -126.9128922, "elevation": 2286.0, "source": "osm", "_tags": {"ele": "2286", "name": "Gataga Mountain", "natural": "peak", "source": "NRCan-CanVec-10.0"}}, {"name": "Montagnes Rocheuses", "latitude": 58.7341357, "longitude": -126.8792161, "elevation": 1245.0, "source": "osm", "_tags": {"ele": "1245", "name": "Montagnes Rocheuses", "name:en": "Rocky Mountains", "name:fr": "Montagnes Rocheuses", "natural": "peak", "source": "NRCan-CanVec-10.0"}}, {"name": "Montagnes Rocheuses", "latitude": 58.6575555, "longitude": -126.7746695, "elevation": 1204.0, "source": "osm", "_tags": {"ele": "1204", "name": "Montagnes Rocheuses", "name:en": "Rocky Mountains", "name:fr": "Montagnes Rocheuses", "natural": "peak", "source": "NRCan-CanVec-10.0"}}, {"name": "Brownie Mountain", "latitude": 58.5992574, "longitude": -126.7678206, "elevation": 2191.0, "source": "osm", "_tags": {"ele": "2191", "name": "Brownie Mountain", "natural": "peak", "source": "NRCan-CanVec-10.0"}}, {"name": "Mount Winston", "latitude": 58.6573298, "longitude": -127.2429875, "elevation": 2361.0, "source": "osm", "_tags": {"ele": "2361", "name": "Mount Winston", "natural": "peak", "source": "NRCan-CanVec-10.0"}}, {"name": "Mount Skook Davidson", "latitude": 58.681222, "longitude": -127.3288443, "elevation": 2369.0, "source": "osm", "_tags": {"ele": "2369", "name": "Mount Skook Davidson", "natural": "peak", "source": "NRCan-CanVec-10.0"}}, {"name": "Montagnes Rocheuses", "latitude": 58.7492497, "longitude": -127.0716157, "elevation": 1395.0, "source": "osm", "_tags": {"ele": "1395", "name": "Montagnes Rocheuses", "name:en": "Rocky Mountains", "name:fr": "Montagnes Rocheuses", "natural": "peak", "source": "NRCan-CanVec-10.0"}}, {"name": "Montagnes Rocheuses", "latitude": 58.7049174, "longitude": -127.0033428, "elevation": 1630.0, "source": "osm", "_tags": {"ele": "1630", "name": "Montagnes Rocheuses", "name:en": "Rocky Mountains", "name:fr": "Montagnes Rocheuses", "natural": "peak", "source": "NRCan-CanVec-10.0"}}, {"name": "Eskona Mountain", "latitude": 58.9812906, "longitude": -127.6396259, "elevation": 1859.0, "source": "osm", "_tags": {"ele": "1859", "name": "Eskona Mountain", "natural": "peak", "source": "NRCan-CanVec-10.0"}}, {"name": "Inspector Peak", "latitude": 58.8475417, "longitude": -127.6582549, "elevation": 2182.0, "source": "osm", "_tags": {"ele": "2182", "name": "Inspector Peak", "natural": "peak", "source": "NRCan-CanVec-10.0"}}, {"name": "Montagnes Rocheuses", "latitude": 58.8846906, "longitude": -127.1376425, "elevation": 1462.0, "source": "osm", "_tags": {"ele": "1462", "name": "Montagnes Rocheuses", "name:en": "Rocky Mountains", "name:fr": "Montagnes Rocheuses", "natural": "peak", "source": "NRCan-CanVec-10.0"}}, {"name": "Montagnes Rocheuses", "latitude": 58.7880974, "longitude": -127.0624989, "elevation": 1271.0, "source": "osm", "_tags": {"ele": "1271", "name": "Montagnes Rocheuses", "name:en": "Rocky Mountains", "name:fr": "Montagnes Rocheuses", "natural": "peak", "source": "NRCan-CanVec-10.0"}}, {"name": "Terminus Mountain", "latitude": 58.7536121, "longitude": -127.0868067, "elevation": 1887.0, "source": "osm", "_tags": {"ele": "1887", "name": "Terminus Mountain", "natural": "peak", "source": "NRCan-CanVec-10.0"}}, {"name": "Montagnes Rocheuses", "latitude": 58.9790515, "longitude": -127.2120301, "elevation": 1075.0, "source": "osm", "_tags": {"ele": "1075", "name": "Montagnes Rocheuses", "name:en": "Rocky Mountains", "name:fr": "Montagnes Rocheuses", "natural": "peak", "source": "NRCan-CanVec-10.0"}}, {"name": "Montagnes Rocheuses", "latitude": 58.8853044, "longitude": -126.7547945, "elevation": 1458.0, "source": "osm", "_tags": {"ele": "1458", "name": "Montagnes Rocheuses", "name:en": "Rocky Mountains", "name:fr": "Montagnes Rocheuses", "natural": "peak", "source": "NRCan-CanVec-10.0"}}, {"name": "Montagnes Rocheuses", "latitude": 59.1239084, "longitude": -126.7623468, "elevation": 1291.0, "source": "osm", "_tags": {"ele": "1291", "name": "Montagnes Rocheuses", "name:en": "Rocky Mountains", "name:fr": "Montagnes Rocheuses", "natural": "peak", "source": "NRCan-CanVec-10.0"}}, {"name": "Montagnes Rocheuses", "latitude": 59.1372325, "longitude": -127.2404914, "elevation": 1115.0, "source": "osm", "_tags": {"ele": "1115", "name": "Montagnes Rocheuses", "name:en": "Rocky Mountains", "name:fr": "Montagnes Rocheuses", "natural": "peak", "source": "NRCan-CanVec-10.0"}}, {"name": "Chee Mountain", "latitude": 59.1549595, "longitude": -127.4246662, "elevation": 1394.0, "source": "osm", "_tags": {"ele": "1394", "name": "Chee Mountain", "natural": "peak", "source": "NRCan-CanVec-10.0"}}, {"name": "Montagnes Rocheuses", "latitude": 59.1389388, "longitude": -127.5208054, "elevation": 596.0, "source": "osm", "_tags": {"ele": "596", "name": "Montagnes Rocheuses", "name:en": "Rocky Mountains", "name:fr": "Montagnes Rocheuses", "natural": "peak", "source": "NRCan-CanVec-10.0"}}]