[{"name": "Buck Creek Medical Center", "latitude": 39.6396839, "longitude": -106.5223865, "source": "osm", "_tags": {"addr:city": "Avon", "addr:housenumber": "50", "addr:postcode": "81620", "addr:state": "CO", "addr:street": "Buck Creek Road", "amenity": "hospital", "healthcare": "hospital", "name": "Buck Creek Medical Center"}}, {"name": "Shaw Cancer Center", "latitude": 39.6519134, "longitude": -106.5925266, "source": "osm", "_tags": {"amenity": "hospital", "healthcare": "hospital", "name": "Shaw Cancer Center", "operator": "Vail Health"}}, {"name": "Middle Park Medical Center - Granby Campus", "latitude": 40.075728, "longitude": -105.925792, "source": "osm", "_tags": {"addr:city": "Granby", "addr:housenumber": "1000", "addr:postcode": "80446", "addr:state": "CO", "addr:street": "Granby Park Drive", "amenity": "hospital", "beds": "7", "healthcare": "hospital", "name": "Middle Park Medical Center - Granby Campus", "operator": "Middle Park Health", "phone": "+1-970-887-5800", "website": "https://middleparkhealth.org/locations/granby/"}}, {"name": "Saint Anthony Summit Medical Center", "latitude": 39.5698533, "longitude": -106.076606, "source": "osm", "_tags": {"addr:city": "Frisco", "addr:housenumber": "340", "addr:postcode": "80443", "addr:state": "CO", "addr:street": "Peak One Drive", "amenity": "hospital", "emergency": "yes", "healthcare": "hospital", "name": "Saint Anthony Summit Medical Center", "opening_hours": "24/7", "operator": "Centura Health", "phone": "+1 970 668 3300", "website": "https://www.centura.org/locations/st-anthony-summit-medical-center"}}, {"name": "Yampa Valley Medical Center", "latitude": 40.4632255, "longitude": -106.8148729, "source": "osm", "_tags": {"addr:city": "Steamboat Springs", "addr:housenumber": "1024", "addr:postcode": "80487", "addr:state": "CO", "addr:street": "Central Park Drive", "amenity": "hospital", "beds": "39", "emergency": "yes", "healthcare": "hospital", "name": "Yampa Valley Medical Center", "opening_hours": "24/7", "operator": "UCHealth", "phone": "+1 970 879 1322", "website": "https://www.uchealth.org/locations/uchealth-yampa-valley-medical-center/"}}, {"name": "Vail Health Vail Campus", "latitude": 39.6434072, "longitude": -106.382329, "source": "osm", "_tags": {"addr:city": "Vail", "addr:housenumber": "181", "addr:postcode": "81657", "addr:state": "CO", "addr:street": "West Meadow Drive", "amenity": "hospital", "beds": "56", "emergency": "yes", "healthcare": "hospital", "name": "Vail Health Vail Campus", "old_name": "Vail Valley Medical Center", "opening_hours": "24/7", "phone": "+1-970-476-2451", "url": "https://www.vailhealth.org/", "website": "https://www.vailhealth.org/locations/vail"}}, {"name": "Middle Park Medical Center", "latitude": 40.0570711, "longitude": -106.3905877, "source": "osm", "_tags": {"addr:city": "Kremmling", "addr:housenumber": "214", "addr:postcode": "80459", "addr:state": "CO", "addr:street": "4th Street", "amenity": "hospital", "emergency": "yes", "fixme": "facility needs to be updated with recent imagery", "gnis:feature_id": "2043326", "healthcare": "hospital", "name": "Middle Park Medical Center", "old_name": "Kremmling Memorial Hospital", "opening_hours": "24/7", "phone": "+1 970 724 3442", "website": "https://mpmc.org/"}}]