[{"name": "Anderson Medical Associates", "latitude": 40.4505695, "longitude": -122.2967393, "source": "osm", "_tags": {"amenity": "hospital", "emergency": "no", "healthcare": "hospital", "name": "Anderson Medical Associates", "source": "GPS Survey"}}, {"name": "Restpadd Red Bluff Psychiatric Health Facility", "latitude": 40.1747476, "longitude": -122.2424489, "source": "osm", "_tags": {"addr:city": "Red Bluff", "addr:housenumber": "925", "addr:postcode": "96080", "addr:street": "Walnut Street", "amenity": "hospital", "beds": "16", "healthcare": "hospital", "healthcare:speciality": "psychiatry", "name": "Restpadd Red Bluff Psychiatric Health Facility", "phone": "+1 530 567 7300", "website": "https://www.restpaddhealth.com"}}, {"name": "Saint Elizabeth Community Hospital", "latitude": 40.1482632, "longitude": -122.2195339, "source": "osm", "_tags": {"addr:city": "Red Bluff", "addr:housenumber": "2550", "addr:postcode": "96080", "addr:state": "CA", "addr:street": "Sister Mary Columba Drive", "amenity": "hospital", "emergency": "yes", "healthcare": "hospital", "name": "Saint Elizabeth Community Hospital", "opening_hours": "24/7", "operator": "Dignity Health", "operator:wikidata": "Q5276334", "phone": "+1 530 529 8000", "website": "https://www.dignityhealth.org/north-state/locations/stelizabethhospital", "wikidata": "Q43303026"}}]