[{"name": "Encompass Health", "latitude": 40.5074059, "longitude": -111.4137307, "source": "osm", "_tags": {"amenity": "hospital", "healthcare": "hospital", "healthcare:speciality": "hospice;home_health", "name": "Encompass Health", "operator": "Encompass Health", "operator:wikidata": "Q5690400", "operator:wikipedia": "en:Encompass Health", "strapline": "Home Health and Hospice"}}, {"name": "Utah Valley Specialty Hospital", "latitude": 40.305434, "longitude": -111.6625831, "source": "osm", "_tags": {"addr:city": "Provo", "addr:housenumber": "306", "addr:postcode": "84604", "addr:state": "UT", "addr:street": "West River Bend Lane", "amenity": "hospital", "beds": "40", "contact:phone": "+1 888-346-5822 \"sts\"; +1 800-346-4128 \"tty\"; +1 800-346-7141 \"vco\"", "emergency": "no", "fax": "+1 801-226-8890", "healthcare": "hospital", "name": "Utah Valley Specialty Hospital", "operator": "Ernest Health", "operator:type": "private", "phone": "+1 801-226-8880", "website": "https://uvsh.ernesthealth.com", "wheelchair": "yes"}}, {"name": "Timpanogos Regional Hospital", "latitude": 40.3137616, "longitude": -111.7134137, "source": "osm", "_tags": {"addr:city": "Orem", "addr:housenumber": "700", "addr:postcode": "84057", "addr:state": "UT", "addr:street": "West 800 North", "amenity": "hospital", "emergency": "yes", "healthcare": "hospital", "name": "Timpanogos Regional Hospital", "opening_hours": "24/7", "phone": "+1 801 714 6000", "website": "https://timphospital.com/", "wikidata": "Q7807642"}}, {"name": "American Fork Hospital", "latitude": 40.3802971, "longitude": -111.7666815, "source": "osm", "_tags": {"addr:city": "American Fork", "addr:housenumber": "170", "addr:postcode": "84003", "addr:state": "UT", "addr:street": "North 1100 East", "amenity": "hospital", "beds": "90", "emergency": "yes", "healthcare": "hospital", "name": "American Fork Hospital", "opening_hours": "24/7", "operator": "Intermountain Healthcare", "operator:wikidata": "Q6047563", "operator:wikipedia": "en:Intermountain Healthcare", "phone": "+1 801 855 3300", "website": "https://intermountainhealthcare.org/locations/american-fork-hospital/", "wikidata": "Q4743841"}}, {"name": "Utah State Hospital", "latitude": 40.2326967, "longitude": -111.6354349, "source": "osm", "_tags": {"amenity": "hospital", "emergency": "no", "healthcare": "hospital", "name": "Utah State Hospital", "social_facility:for": "mental_health", "wikidata": "Q7902415"}}, {"name": "Central Valley Medical Center", "latitude": 39.7315387, "longitude": -111.8380435, "source": "osm", "_tags": {"addr:city": "Nephi", "addr:housenumber": "48", "addr:postcode": "84648", "addr:state": "UT", "addr:street": "West 1500 North", "amenity": "hospital", "emergency": "yes", "healthcare": "hospital", "name": "Central Valley Medical Center", "opening_hours": "24/7", "phone": "+1 435 623 3000", "website": "https://www.centralvalleymedicalcenter.com/"}}, {"name": "Utah Valley Hospital", "latitude": 40.2479566, "longitude": -111.665683, "source": "osm", "_tags": {"addr:city": "Provo", "addr:housenumber": "1034", "addr:postcode": "84604", "addr:state": "UT", "addr:street": "North 500 West", "amenity": "hospital", "beds": "395", "emergency": "yes", "gnis:feature_id": "1449135", "healthcare": "hospital", "name": "Utah Valley Hospital", "old_name": "Utah Valley Regional Medical Center", "opening_hours": "24/7", "operator": "Intermountain Healthcare", "operator:type": "private", "operator:wikidata": "Q6047563", "operator:wikipedia": "en:Intermountain Healthcare", "phone": "+1 801 357 7850", "website": "https://intermountainhealthcare.org/locations/utah-valley-hospital/", "wikidata": "Q7902518"}}, {"name": "Revere Health", "latitude": 40.2488692, "longitude": -111.668823, "source": "osm", "_tags": {"addr:city": "Provo", "addr:housenumber": "1055", "addr:postcode": "84604", "addr:state": "UT", "addr:street": "North 500 West", "amenity": "hospital", "emergency": "no", "gnis:feature_id": "1448929", "healthcare": "hospital", "name": "Revere Health", "old_name": "Riverwood Hospital", "phone": "+1 801 429 8000", "website": "https://reverehealth.com/"}}, {"name": "Sanpete Valley Hospital", "latitude": 39.5313421, "longitude": -111.4610084, "source": "osm", "_tags": {"addr:city": "Mount Pleasant", "addr:housenumber": "1100", "addr:postcode": "84647", "addr:state": "UT", "addr:street": "South Medical Drive", "amenity": "hospital", "emergency": "yes", "gnis:feature_id": "1436315", "healthcare": "hospital", "healthcare:speciality": "general", "name": "Sanpete Valley Hospital", "opening_hours": "24/7", "operator": "Intermountain Healthcare", "operator:type": "private", "operator:wikidata": "Q6047563", "phone": "+1 435 462 2441", "website": "https://intermountainhealthcare.org/locations/sanpete-valley-hospital/", "wikidata": "Q14711872"}}, {"name": "Mountain View Hospital", "latitude": 40.0439181, "longitude": -111.7141047, "source": "osm", "_tags": {"addr:city": "Payson", "addr:housenumber": "1000 E", "addr:postcode": "84651", "addr:state": "UT", "addr:street": "100 North", "amenity": "hospital", "emergency": "yes", "healthcare": "hospital", "name": "Mountain View Hospital", "opening_hours": "24/7", "phone": "+1 801 465 7000", "website": "https://mvhpayson.com/", "wikidata": "Q6925376"}}, {"name": "Provo Canyon Behavioral Hospital", "latitude": 40.3106413, "longitude": -111.6636549, "source": "osm", "_tags": {"addr:city": "Orem", "addr:housenumber": "1350", "addr:postcode": "84097", "addr:state": "UT", "addr:street": "East 750 North", "amenity": "hospital", "emergency": "no", "gnis:feature_id": "1448261", "healthcare": "hospital", "healthcare:speciality": "psychiatry", "name": "Provo Canyon Behavioral Hospital", "old_name": "Charter Canyon Hospital", "phone": "+1 801 852 2273", "website": "https://www.pcbh.com/"}}, {"name": "Orem Community Hospital", "latitude": 40.3026569, "longitude": -111.7080222, "source": "osm", "_tags": {"addr:city": "Orem", "addr:housenumber": "331", "addr:postcode": "84057", "addr:state": "UT", "addr:street": "North 400 West", "amenity": "hospital", "emergency": "yes", "gnis:feature_id": "1448783", "healthcare": "hospital", "name": "Orem Community Hospital", "opening_hours": "24/7", "operator": "Intermountain Healthcare", "operator:wikidata": "Q6047563", "operator:wikipedia": "en:Intermountain Healthcare", "phone": "+1 801 224 4080", "website": "https://intermountainhealthcare.org/locations/orem-community-hospital/", "wikidata": "Q7101531", "wikipedia": "en:Orem Community Hospital"}}, {"name": "Rock Canyon Periodontist", "latitude": 40.2385177, "longitude": -111.6678615, "source": "osm", "_tags": {"addr:city": "Provo", "addr:housenumber": "524", "addr:postcode": "84601", "addr:state": "UT", "addr:street": "W 300 N Stree", "amenity": "hospital", "healthcare": "hospital", "name": "Rock Canyon Periodontist"}}, {"name": "Holy Cross Hospital - Mountain Point", "latitude": 40.425394, "longitude": -111.8786, "source": "osm", "_tags": {"addr:city": "Lehi", "addr:housenumber": "3000", "addr:postcode": "84043", "addr:state": "UT", "addr:street": "Triumph Boulevard", "amenity": "hospital", "contact:phone": "+1 385 345 3000", "contact:website": "https://www.centura.org/location/holy-cross-hospital-mountain-point/hc", "emergency": "yes", "healthcare": "hospital", "healthcare:speciality": "general", "name": "Holy Cross Hospital - Mountain Point", "operator": "Centura Health", "operator:wikidata": "Q110940557", "operator:wikipedia": "en:Centura Health"}}, {"name": "Center for Change", "latitude": 40.3300501, "longitude": -111.7086548, "source": "osm", "_tags": {"amenity": "hospital", "healthcare": "hospital", "name": "Center for Change"}}, {"name": "Intermountain Health Spanish Fork", "latitude": 40.1304947, "longitude": -111.6409189, "source": "osm", "_tags": {"addr:city": "Spanish Fork", "addr:housenumber": "765", "addr:postcode": "84660", "addr:state": "UT", "addr:street": "East Marketplace Drive", "amenity": "hospital", "emergency": "yes", "healthcare": "hospital", "name": "Intermountain Health Spanish Fork", "operator": "Intermountain Healthcare", "operator:type": "private", "operator:wikidata": "Q6047563", "operator:wikipedia": "en:Intermountain Healthcare"}}, {"name": "Heber Valley Hospital", "latitude": 40.4902686, "longitude": -111.40581, "source": "osm", "_tags": {"addr:city": "Heber City", "addr:housenumber": "1485", "addr:postcode": "84032", "addr:state": "UT", "addr:street": "South Highway 40", "amenity": "hospital", "beds": "19", "emergency": "yes", "healthcare": "hospital", "name": "Heber Valley Hospital", "old_name": "Wasatch County Hospital", "opening_hours": "24/7", "operator": "Intermountain Healthcare", "operator:wikidata": "Q6047563", "operator:wikipedia": "en:Intermountain Healthcare", "phone": "+1 435 654 2500", "website": "https://intermountainhealthcare.org/locations/heber-valley-hospital/"}}]