[{"name": "The Memorial Hospital", "latitude": 40.5183665, "longitude": -107.5797687, "source": "osm", "_tags": {"addr:city": "Craig", "addr:housenumber": "750", "addr:postcode": "81625", "addr:state": "CO", "addr:street": "Hospital Loop", "amenity": "hospital", "emergency": "yes", "healthcare": "hospital", "name": "The Memorial Hospital", "phone": "+1 970 824 9411", "website": "http://www.thememorialhospital.com/"}}, {"name": "Valley View Hospital", "latitude": 39.5329746, "longitude": -107.3213895, "source": "osm", "_tags": {"addr:city": "Glenwood Springs", "addr:housenumber": "1906", "addr:postcode": "81601", "addr:state": "CO", "addr:street": "Blake Avenue", "amenity": "hospital", "emergency": "yes", "gnis:feature_id": "174087", "healthcare": "hospital", "name": "Valley View Hospital", "opening_hours": "24/7", "phone": "+1 970 945 6535", "website": "https://www.vvh.org/"}}, {"name": "Pioneers Medical Center", "latitude": 40.0463826, "longitude": -107.8812531, "source": "osm", "_tags": {"addr:city": "Meeker", "addr:housenumber": "100", "addr:postcode": "81641", "addr:state": "CO", "addr:street": "Pioneers Medical Center Drive", "amenity": "hospital", "beds": "10", "emergency": "yes", "healthcare": "hospital", "name": "Pioneers Medical Center", "opening_hours": "24/7", "phone": "+1 970 878 5047", "website": "https://www.pioneershospital.org/"}}]