[{"name": "Riverton Hospital", "latitude": 40.5203843, "longitude": -111.9802742, "source": "osm", "_tags": {"addr:city": "Riverton", "addr:housenumber": "3741", "addr:postcode": "84065", "addr:state": "UT", "addr:street": "West 12600 South", "amenity": "hospital", "beds": "97", "emergency": "yes", "healthcare": "hospital", "name": "Riverton Hospital", "opening_hours": "24/7", "operator": "Intermountain Healthcare", "operator:type": "private", "operator:wikidata": "Q6047563", "operator:wikipedia": "en:Intermountain Healthcare", "phone": "+1-801-285-4000", "website": "https://intermountainhealthcare.org/locations/riverton-hospital/"}}, {"name": "Saratoga Springs Instacare", "latitude": 40.3881089, "longitude": -111.9249817, "source": "osm", "_tags": {"amenity": "hospital", "building": "yes", "healthcare": "hospital", "name": "Saratoga Springs Instacare", "operator": "Intermountain Healthcare", "operator:wikidata": "Q6047563", "operator:wikipedia": "en:Intermountain Healthcare"}}, {"name": "Primary Children's Hospital - Larry H. & Gail Miller Family Campus", "latitude": 40.4146778, "longitude": -111.8994406, "source": "osm", "_tags": {"amenity": "hospital", "healthcare": "hospital", "name": "Primary Children's Hospital - Larry H. & Gail Miller Family Campus", "operator": "Intermoundain Healthcare", "operator:wikipedia": "en:Intermountain Healthcare"}}, {"name": "Saratoga Springs Emergency", "latitude": 40.3823578, "longitude": -111.9269142, "source": "osm", "_tags": {"amenity": "hospital", "name": "Saratoga Springs Emergency", "operator": "Intermountain Healthcare"}}, {"name": "Westlake Emergency Center", "latitude": 40.3959746, "longitude": -111.917038, "source": "osm", "_tags": {"amenity": "hospital", "name": "Westlake Emergency Center", "operator": "Mountainstar Healthcare"}}]