[{"name": "Northern Nevada Adult Mental Health Services", "latitude": 39.5295173, "longitude": -119.7776248, "source": "osm", "_tags": {"addr:city": "Sparks", "addr:housenumber": "480", "addr:postcode": "89431", "addr:street": "Galletti Way", "amenity": "hospital", "emergency": "no", "gnis:feature_id": "845218", "healthcare": "hospital", "healthcare:speciality": "psychiatry", "name": "Northern Nevada Adult Mental Health Services", "phone": "+1 775 688 2001", "website": "https://dpbh.nv.gov/About/Overview/NNAMHS_Overview/"}}, {"name": "Tahoe Pacific Hospitals – North", "latitude": 39.5412265, "longitude": -119.6975673, "source": "osm", "_tags": {"addr:city": "Sparks", "addr:housenumber": "2375", "addr:postcode": "89434", "addr:street": "East Prater Way", "amenity": "hospital", "beds": "21", "emergency": "no", "gnis:feature_id": "2060259", "healthcare": "hospital", "level": "7", "name": "Tahoe Pacific Hospitals – North", "note": "Located inside of Northern Nevada Medical Center.", "operator": "LifeCare Hospitals", "phone": "+1 775 355 5600", "website": "https://www.lifecarehealthpartners.com/region/tahoepacific"}}, {"name": "Saint Mary's Regional Medical Center", "latitude": 39.5325095, "longitude": -119.8193699, "source": "osm", "_tags": {"addr:city": "Reno", "addr:housenumber": "235", "addr:postcode": "89503", "addr:state": "NV", "addr:street": "West 6th Street", "amenity": "hospital", "emergency": "yes", "gnis:feature_id": "843448", "healthcare": "hospital", "helipad": "yes", "name": "Saint Mary's Regional Medical Center", "opening_hours": "24/7", "phone": "+1 775 770 3000", "website": "https://www.saintmarysreno.com/", "wikidata": "Q7401841", "wikipedia": "en:Saint Mary's Regional Medical Center (Reno, Nevada)"}}, {"name": "Northern Nevada Medical Center", "latitude": 39.5412226, "longitude": -119.6974074, "source": "osm", "_tags": {"addr:city": "Sparks", "addr:housenumber": "2375", "addr:postcode": "89434", "addr:state": "NV", "addr:street": "East Prater Way", "amenity": "hospital", "beds": "21", "emergency": "yes", "gnis:feature_id": "2059621", "helipad": "yes", "name": "Northern Nevada Medical Center", "opening_hours": "24/7", "phone": "+1 775 331 7000", "website": "https://www.nnmc.com/"}}, {"name": "West Hills Hospital", "latitude": 39.537614, "longitude": -119.797325, "source": "osm", "_tags": {"addr:city": "Reno", "addr:housenumber": "1240", "addr:postcode": "89512", "addr:state": "NV", "addr:street": "East 9th Street", "amenity": "hospital", "emergency": "no", "gnis:feature_id": "2059622", "healthcare": "hospital", "healthcare:speciality": "psychiatry", "name": "West Hills Hospital", "opening_hours": "24/7", "phone": "+1 800 242 0478", "website": "https://www.westhillshospital.net/"}}, {"name": "Northern Nevada Medical Group", "latitude": 39.5390836, "longitude": -119.6974575, "source": "osm", "_tags": {"amenity": "hospital", "healthcare": "hospital", "name": "Northern Nevada Medical Group"}}, {"name": "", "latitude": 39.6316508, "longitude": -119.716321, "source": "osm", "_tags": {"amenity": "hospital", "healthcare": "hospital"}}, {"name": "ER at McCarran NW", "latitude": 39.5318922, "longitude": -119.8625332, "source": "osm", "_tags": {"addr:city": "Reno", "addr:county": "Washoe", "addr:housenumber": "10290", "addr:postcode": "89503", "addr:state": "NV", "addr:street": "North Mccarran Boulevard", "amenity": "hospital", "building": "yes", "check_date": "2023-07-30", "emergency": "yes", "healthcare": "hospital", "name": "ER at McCarran NW", "opening_hours": "24/7", "operator": "Northern Nevada Medical Center", "wheelchair": "yes"}}, {"name": "", "latitude": 39.5299955, "longitude": -119.7912888, "source": "osm", "_tags": {"addr:city": "Reno", "addr:state": "NV", "addr:street": "Kuenzli Street", "amenity": "hospital", "emergency": "no", "healthcare": "hospital", "operator": "Reno Sparks Indian Colony Tribal Health Clinic"}}]