[{"name": "Enloe Rehabilitation Center", "latitude": 39.7541866, "longitude": -121.8675319, "source": "osm", "_tags": {"addr:city": "Chico", "addr:housenumber": "340", "addr:postcode": "95926-7238", "addr:street": "West East Avenue", "amenity": "hospital", "beds": "40", "healthcare": "hospital", "name": "Enloe Rehabilitation Center", "phone": "+1 530 332 7300", "website": "https://www.enloe.org/care-treatment/rehabilitation"}}, {"name": "Enloe Medical Center", "latitude": 39.7423938, "longitude": -121.8504052, "source": "osm", "_tags": {"addr:city": "Chico", "addr:housenumber": "1531", "addr:postcode": "95926", "addr:state": "CA", "addr:street": "Esplanade", "amenity": "hospital", "emergency": "yes", "healthcare": "hospital", "name": "Enloe Medical Center", "opening_hours": "24/7", "phone": "+1 530 332 7300", "website": "https://www.enloe.org/"}}, {"name": "Plumas District Hospital", "latitude": 39.9398205, "longitude": -120.9615327, "source": "osm", "_tags": {"addr:city": "Quincy", "addr:housenumber": "1065", "addr:postcode": "95971", "addr:state": "CA", "addr:street": "Bucks Lake Road", "amenity": "hospital", "emergency": "yes", "gnis:feature_id": "1701393", "healthcare": "hospital", "name": "Plumas District Hospital", "opening_hours": "24/7", "phone": "+1 530 283 2121", "urgent_care": "yes", "website": "http://www.pdh.org/"}}, {"name": "Adventist Health Feather River", "latitude": 39.757417, "longitude": -121.570327, "source": "osm", "_tags": {"addr:city": "Paradise", "addr:housenumber": "5974", "addr:postcode": "95969", "addr:state": "CA", "addr:street": "Pentz Road", "amenity": "hospital", "beds": "100", "gnis:feature_id": "1723854", "healthcare": "hospital", "name": "Adventist Health Feather River", "old_name": "Feather River Hospital", "opening_hours": "24/7", "operator": "Adventist Health", "operator:type": "private", "operator:wikidata": "Q4686452", "phone": "+1 530 877 9361", "short_name": "AHFR", "website": "https://www.adventisthealth.org/feather-river/", "wikidata": "Q5439589", "wikipedia": "en:Adventist Health Feather River"}}, {"name": "Seneca Hospital", "latitude": 40.3059842, "longitude": -121.2349043, "source": "osm", "_tags": {"addr:city": "Chester", "addr:housenumber": "130", "addr:postcode": "96020", "addr:street": "Brentwood Drive", "amenity": "hospital", "beds": "10", "emergency": "yes", "gnis:feature_id": "1701409", "healthcare": "hospital", "name": "Seneca Hospital", "opening_hours": "24/7", "operator": "Seneca Healthcare District", "phone": "+1 530 258 2151", "website": "https://www.senecahospital.org/"}}]