[{"name": "Viewpoint Center", "latitude": 41.0754081, "longitude": -112.0792064, "source": "osm", "_tags": {"addr:city": "Syracuse", "addr:housenumber": "2732", "addr:postcode": "84075", "addr:state": "UT", "addr:street": "West 2700 South", "amenity": "hospital", "beds": "26", "healthcare": "hospital", "healthcare:speciality": "psychiatry", "name": "Viewpoint Center", "website": "https://www.viewpointcenter.com"}}, {"name": "KPC Promise Hospital of Salt Lake", "latitude": 40.6795415, "longitude": -111.893282, "source": "osm", "_tags": {"addr:city": "Murray", "addr:housenumber": "4252 S", "addr:postcode": "84107", "addr:state": "UT", "addr:street": "Birkhill Boulevard", "amenity": "hospital", "beds": "38", "healthcare": "hospital", "name": "KPC Promise Hospital of Salt Lake", "phone": "+1 385 425 0050", "website": "https://saltlake.kpcph.com"}}, {"name": "McKay-Dee Hospital", "latitude": 41.1847815, "longitude": -111.9532813, "source": "osm", "_tags": {"addr:city": "Ogden", "addr:housenumber": "4401", "addr:postcode": "84403", "addr:state": "UT", "addr:street": "Harrison Boulevard", "amenity": "hospital", "ele": "4600 ft", "emergency": "yes", "healthcare": "hospital", "healthcare:speciality": "allergy_&_immunology;behavior_health;brain_&_spine;dermatology;destination_medicine;otolaryngology;emergency_department_&_trauma_services;endocrinology;eye_care;gastroenterology;genomics;geriatrics;hearing_&_balance;heart_&_vescular;hli_faculty;homecare", "name": "McKay-Dee Hospital", "name_1": "Intermountain Heath Care", "note": "Area is approximate", "operator": "Intermountain Healthcare", "operator:type": "private", "operator:wikidata": "Q6047563", "operator:wikipedia": "en:Intermountain Healthcare", "phone": "+1-801-387-2800", "website": "https://intermountainhealthcare.org/locations/mckay-dee-hospital", "wheelchair": "yes", "wikidata": "Q14711818", "wikipedia": "en:McKay-Dee Hospital"}}, {"name": "Holy Cross Hospital - Jordan Valley West", "latitude": 40.6984674, "longitude": -111.9899315, "source": "osm", "_tags": {"addr:city": "West Valley City", "addr:housenumber": "3460 S", "addr:postcode": "84120", "addr:state": "UT", "addr:street": "Pioneer Parkway", "amenity": "hospital", "emergency": "yes", "healthcare": "hospital", "name": "Holy Cross Hospital - Jordan Valley West", "old_name": "Pioneer Valley Hospital", "opening_hours": "24/7", "operator": "Centura Health", "operator:wikidata": "Q110940557", "operator:wikipedia": "en:Centura Health", "phone": "+1 801 964 3100", "website": "https://www.centura.org/location/holy-cross-hospital-jordan-valley-west/hc"}}, {"name": "The Orthopedic Specialty Hospital", "latitude": 40.6442727, "longitude": -111.8851316, "source": "osm", "_tags": {"addr:city": "Murray", "addr:housenumber": "5848", "addr:postcode": "84107", "addr:state": "UT", "addr:street": "Fashion Boulevard", "amenity": "hospital", "emergency": "no", "healthcare": "hospital", "name": "The Orthopedic Specialty Hospital", "old_name": "Cottonwood Hospital", "operator": "Intermountain Healthcare", "operator:type": "private", "operator:wikidata": "Q6047563", "operator:wikipedia": "en:Intermountain Healthcare", "phone": "+1 801 314 4100", "short_name": "TOSH", "website": "https://intermountainhealthcare.org/locations/the-orthopedic-specialty-hospital/", "wikidata": "Q7755434"}}, {"name": "Highland Ridge Hospital", "latitude": 40.617874, "longitude": -111.8964623, "source": "osm", "_tags": {"addr:city": "Midvale", "addr:housenumber": "7309", "addr:postcode": "84047", "addr:state": "UT", "addr:street": "South 180 West", "amenity": "hospital", "emergency": "no", "healthcare": "hospital", "healthcare:speciality": "psychiatry", "name": "Highland Ridge Hospital", "phone": "+1 801 845 9544", "website": "https://www.highlandridgehospital.com/"}}, {"name": "Intermountain Medical Center", "latitude": 40.6595356, "longitude": -111.8916809, "source": "osm", "_tags": {"addr:city": "Murray", "addr:housenumber": "5121", "addr:postcode": "84107", "addr:state": "UT", "addr:street": "South Cottonwood Street", "amenity": "hospital", "beds": "454", "emergency": "yes", "healthcare": "hospital", "name": "Intermountain Medical Center", "opening_hours": "24/7", "phone": "+1 801 507 7000", "website": "https://intermountainhealthcare.org/locations/intermountain-medical-center/", "wikidata": "Q6047575"}}, {"name": "Holy Cross Hospital - Jordan Valley", "latitude": 40.5897669, "longitude": -111.974533, "source": "osm", "_tags": {"addr:city": "West Jordan", "addr:housenumber": "3580", "addr:postcode": "84088", "addr:state": "UT", "addr:street": "West 9000 South", "amenity": "hospital", "emergency": "yes", "healthcare": "hospital", "name": "Holy Cross Hospital - Jordan Valley", "opening_hours": "24/7", "operator:wikidata": "Q110940557", "operator:wikipedia": "en:Centura Health", "phone": "+1 801 561 8888", "website": "https://www.centura.org/location/holy-cross-hospital-jordan-valley/hc"}}, {"name": "Brigham City Community Hospital", "latitude": 41.4909382, "longitude": -112.0263071, "source": "osm", "_tags": {"addr:city": "Brigham City", "addr:housenumber": "950 South", "addr:postcode": "84302", "addr:state": "UT", "addr:street": "Medical Drive", "amenity": "hospital", "emergency": "yes", "healthcare": "hospital", "name": "Brigham City Community Hospital", "phone": "+1 435 734 9471", "website": "https://brighamcityhospital.com/", "wheelchair": "yes"}}, {"name": "Redwood Health Center", "latitude": 40.7253877, "longitude": -111.9331172, "source": "osm", "_tags": {"addr:city": "Salt Lake City", "addr:state": "UT", "addr:street": "2100 South", "amenity": "hospital", "building": "yes", "emergency": "yes", "healthcare": "hospital", "name": "Redwood Health Center"}}, {"name": "McKay-Dee North Campus", "latitude": 41.1916181, "longitude": -111.9513812, "source": "osm", "_tags": {"addr:city": "Ogden", "addr:housenumber": "3903", "addr:postcode": "84403", "addr:state": "UT", "addr:street": "Harrison Boulevard", "amenity": "hospital", "ele": "4600 ft", "emergency": "no", "healthcare": "hospital", "name": "McKay-Dee North Campus", "operator": "Intermountain Healthcare", "operator:type": "private", "operator:wikidata": "Q6047563", "phone": "+1-801-387-3600", "website": "https://intermountainhealthcare.org/"}}, {"name": "Mountain West Medical Center", "latitude": 40.566686, "longitude": -112.2982073, "source": "osm", "_tags": {"addr:city": "Tooele", "addr:housenumber": "2055", "addr:postcode": "84074", "addr:state": "UT", "addr:street": "North Main Street", "amenity": "hospital", "beds": "44", "emergency": "yes", "healthcare": "hospital", "name": "Mountain West Medical Center", "old_name": "Tooele Valley Regional Medical Centre", "opening_hours": "24/7", "phone": "+1 435 843 3600", "website": "http://www.mountainwestmc.com/", "wikidata": "Q6925434"}}, {"name": "Holy Cross Hospital - Davis", "latitude": 41.0910328, "longitude": -111.9952203, "source": "osm", "_tags": {"addr:city": "Layton", "addr:housenumber": "1600", "addr:postcode": "84041", "addr:state": "UT", "addr:street": "West Antelope Drive", "amenity": "hospital", "beds": "220", "emergency": "yes", "healthcare": "hospital", "name": "Holy Cross Hospital - Davis", "old_name": "Davis Hospital and Medical Center", "opening_hours": "24/7", "operator": "Centura Health", "operator:wikidata": "Q110940557", "operator:wikipedia": "en:Centura Health", "phone": "+1 801 807 1000", "website": "https://www.centura.org/location/holy-cross-hospital-davis/hc"}}, {"name": "Ogden Regional Medical Center", "latitude": 41.1640458, "longitude": -111.9705984, "source": "osm", "_tags": {"addr:city": "Washington Terrace", "addr:housenumber": "5475", "addr:postcode": "84405", "addr:state": "UT", "addr:street": "South 500 East", "amenity": "hospital", "emergency": "yes", "gnis:feature_id": "1449059", "healthcare": "hospital", "name": "Ogden Regional Medical Center", "name_1": "Saint Benedicts Hospital", "opening_hours": "24/7", "phone": "+1 801 479 2111", "website": "https://ogdenregional.com", "wikidata": "Q7079943"}}, {"name": "Northern Utah Rehabilitation Hospital", "latitude": 41.1571014, "longitude": -111.9412688, "source": "osm", "_tags": {"addr:city": "South Ogden", "addr:housenumber": "5825", "addr:postcode": "84403", "addr:state": "UT", "addr:street": "Harrison Boulevard", "amenity": "hospital", "emergency": "no", "healthcare": "hospital", "name": "Northern Utah Rehabilitation Hospital", "operator": "Ernest Health", "phone": "+1 801 475 5254", "website": "https://nurh.ernesthealth.com/"}}, {"name": "Benchmark Behavioral Health Systems", "latitude": 40.8777574, "longitude": -111.8955453, "source": "osm", "_tags": {"addr:city": "Woods Cross", "addr:housenumber": "592", "addr:postcode": "84087", "addr:state": "UT", "addr:street": "West 1350 South", "amenity": "hospital", "emergency": "no", "gnis:feature_id": "2432248", "healthcare": "hospital", "healthcare:speciality": "psychiatry", "name": "Benchmark Behavioral Health Systems", "phone": "+1 801 299 5319", "website": "https://www.bbhsnet.com/"}}, {"name": "University of Utah Healthcare - South Jordan Health Center", "latitude": 40.5419783, "longitude": -112.0142417, "source": "osm", "_tags": {"addr:city": "South Jordan", "addr:housenumber": "5126", "addr:postcode": "84009", "addr:state": "UT", "addr:street": "West Daybreak Parkway", "amenity": "hospital", "emergency": "yes", "healthcare": "hospital", "name": "University of Utah Healthcare - South Jordan Health Center", "opening_hours": "24/7", "phone": "+1 801 213 4500", "website": "https://healthcare.utah.edu/locations/south-jordan"}}, {"name": "Lone Peak Hospital", "latitude": 40.5351846, "longitude": -111.8890193, "source": "osm", "_tags": {"addr:city": "Draper", "addr:housenumber": "11925 S", "addr:postcode": "84020", "addr:state": "UT", "addr:street": "State Street", "amenity": "hospital", "beds": "30", "emergency": "yes", "healthcare": "hospital", "name": "Lone Peak Hospital", "opening_hours": "24/7", "operator": "HCA", "operator:type": "private", "operator:wikidata": "Q1630431", "operator:wikipedia": "en:HCA Healthcare", "phone": "+1-801-545-8000", "website": "https://lonepeakhospital.com/"}}, {"name": "Intermountain Healthcare Layton Hospital", "latitude": 41.0520866, "longitude": -111.9686464, "source": "osm", "_tags": {"addr:city": "Layton", "addr:housenumber": "201", "addr:postcode": "84041", "addr:state": "UT", "addr:street": "West Layton Parkway", "amenity": "hospital", "healthcare": "hospital", "name": "Intermountain Healthcare Layton Hospital", "operator": "Intermountain Healthcare", "operator:wikidata": "Q6047563", "operator:wikipedia": "en:Intermountain Healthcare", "phone": "+1 801 543 6000", "website": "https://intermountainhealthcare.org/locations/layton-hospital/"}}, {"name": "Copper Hills Youth Center", "latitude": 40.5892089, "longitude": -112.0327075, "source": "osm", "_tags": {"amenity": "hospital", "healthcare": "hospital", "name": "Copper Hills Youth Center"}}, {"name": "Stansbury Health Center", "latitude": 40.6451216, "longitude": -112.2893938, "source": "osm", "_tags": {"addr:city": "Stansbury Park", "addr:housenumber": "220", "addr:postcode": "84074", "addr:state": "UT", "addr:street": "Millpond Road", "amenity": "hospital", "check_date": "2025-01-21", "healthcare": "hospital", "name": "Stansbury Health Center", "operator": "University of Utah Health", "operator:type": "university"}}, {"name": "Wasatch Canyons Hospital", "latitude": 40.6465734, "longitude": -111.9348945, "source": "osm", "_tags": {"addr:city": "Salt Lake City", "addr:housenumber": "5770", "addr:postcode": "84123", "addr:street": "South 1500 West", "amenity": "hospital", "emergency": "no", "gnis:feature_id": "1436587", "healthcare": "hospital", "healthcare:speciality": "psychiatry", "name": "Wasatch Canyons Hospital", "operator": "Intermountain Healthcare", "phone": "+1 801 313 7770", "website": "https://intermountainhealthcare.org/locations/primary-childrens-hospital/hospital-information/contact-maps-directions/wasatch-canyons-behavioral-health/"}}, {"name": "Intermountain West Valley Clinic", "latitude": 40.7117114, "longitude": -112.0196931, "source": "osm", "_tags": {"amenity": "hospital", "name": "Intermountain West Valley Clinic", "operator": "Intermountain Healthcare"}}, {"name": "Kem and Carolyn Gardner Mental Health Crisis Care Center", "latitude": 40.6985696, "longitude": -111.9184001, "source": "osm", "_tags": {"addr:city": "South Salt Lake", "addr:housenumber": "955", "addr:postcode": "84119", "addr:state": "UT", "addr:street": "West 3300 South", "amenity": "hospital", "emergency": "yes", "healthcare": "hospital", "healthcare:speciality": "psychiatry", "min_age": "18", "name": "Kem and Carolyn Gardner Mental Health Crisis Care Center", "opening_hours": "24/7", "operator": "University of Utah Health", "operator:type": "public", "short_name": "Mental Health Crisis Care Center", "website": "https://healthcare.utah.edu/hmhi/programs/crisis-diversion/crisis-care-center"}}]