[{"name": "Sempervirens Psychiatric Health Facility", "latitude": 40.7807166, "longitude": -124.1606002, "source": "osm", "_tags": {"addr:city": "Eureka", "addr:housenumber": "720", "addr:postcode": "95501-4413", "addr:street": "Wood Street", "amenity": "hospital", "beds": "16", "healthcare": "hospital", "healthcare:speciality": "psychiatry", "name": "Sempervirens Psychiatric Health Facility", "phone": "+1 707 445 7710", "website": "https://humboldtgov.org/437/Sempervirens-Psychiatric-Health-Facility"}}, {"name": "Providence St. Joseph Hospital Eureka", "latitude": 40.7840724, "longitude": -124.1422189, "source": "osm", "_tags": {"addr:city": "Eureka", "addr:housenumber": "2700", "addr:postcode": "95501", "addr:state": "CA", "addr:street": "Dolbeer Street", "amenity": "hospital", "healthcare": "hospital", "name": "Providence St. Joseph Hospital Eureka"}}, {"name": "General Hospital Campus", "latitude": 40.7885875, "longitude": -124.1409684, "source": "osm", "_tags": {"addr:city": "Eureka", "addr:postcode": "95501", "amenity": "hospital", "emergency": "no", "gnis:feature_id": "1681986", "healthcare": "hospital", "name": "General Hospital Campus", "operator": "Saint Joseph Health", "website": "https://www.stjoehumboldt.org/", "wheelchair": "yes"}}, {"name": "Saint Josephs Hospital", "latitude": 40.7839429, "longitude": -124.1422045, "source": "osm", "_tags": {"addr:city": "Eureka", "addr:housenumber": "2700", "addr:postcode": "95501", "addr:state": "CA", "addr:street": "Dolbeer Street", "amenity": "hospital", "emergency": "yes", "gnis:feature_id": "1682023", "healthcare": "hospital", "name": "Saint Josephs Hospital", "opening_hours": "24/7", "operator": "Saint Joseph Health", "operator:type": "religious", "phone": "+1 707 445 8121", "website": "https://www.stjoehumboldt.org/", "wheelchair": "yes", "wikidata": "Q50039309"}}, {"name": "Mad River Community Hospital", "latitude": 40.8960998, "longitude": -124.0913378, "source": "osm", "_tags": {"addr:city": "Arcata", "addr:housenumber": "3800", "addr:postcode": "95521", "addr:state": "CA", "addr:street": "Janes Road", "amenity": "hospital", "beds": "78", "emergency": "yes", "gnis:feature_id": "1681913", "healthcare": "hospital", "name": "Mad River Community Hospital", "opening_hours": "24/7", "phone": "+1 707 822 3621", "website": "https://madriverhospital.com/"}}, {"name": "Redwood Memorial Hospital", "latitude": 40.5820697, "longitude": -124.1363079, "source": "osm", "_tags": {"addr:city": "Fortuna", "addr:housenumber": "3300", "addr:postcode": "95540", "addr:state": "CA", "addr:street": "Renner Drive", "amenity": "hospital", "beds": "25", "emergency": "yes", "gnis:feature_id": "1656251", "healthcare": "hospital", "name": "Redwood Memorial Hospital", "opening_hours": "24/7", "operator": "Saint Joseph Health", "phone": "+1 707 725 3361", "website": "https://www.stjoehumboldt.org/"}}]