[{"name": "Logan Regional Hospital", "latitude": 41.7555498, "longitude": -111.8216371, "source": "osm", "_tags": {"addr:city": "Logan", "addr:housenumber": "1400", "addr:postcode": "84341", "addr:state": "UT", "addr:street": "North 500 East", "amenity": "hospital", "emergency": "yes", "gnis:feature_id": "1448619", "healthcare": "hospital", "name": "Logan Regional Hospital", "opening_hours": "24/7", "operator": "Intermountain Healthcare", "operator:type": "private", "operator:wikidata": "Q6047563", "operator:wikipedia": "en:Intermountain Healthcare", "phone": "+1 435 716 1000", "website": "https://intermountainhealthcare.org/locations/logan-regional-hospital/", "wheelchair": "yes", "wikidata": "Q6667136"}}, {"name": "Cache Valley Hospital", "latitude": 41.7750188, "longitude": -111.8215389, "source": "osm", "_tags": {"addr:city": "North Logan", "addr:housenumber": "2380", "addr:postcode": "84341", "addr:state": "UT", "addr:street": "North 400 East", "amenity": "hospital", "emergency": "yes", "healthcare": "hospital", "name": "Cache Valley Hospital", "opening_hours": "24/7", "phone": "+1 435 713 9700", "website": "https://cachevalleyhospital.com/"}}, {"name": "Franklin County Medical Center", "latitude": 42.0976361, "longitude": -111.8729645, "source": "osm", "_tags": {"addr:city": "Preston", "addr:housenumber": "44", "addr:postcode": "83263", "addr:state": "ID", "addr:street": "East 1st North", "amenity": "hospital", "beds": "20", "emergency": "yes", "gnis:feature_id": "399023", "healthcare": "hospital", "name": "Franklin County Medical Center", "opening_hours": "24/7", "phone": "+1 208 852 0137", "website": "https://www.fcmc.org/"}}, {"name": "Bear Lake Memorial Hospital", "latitude": 42.3165879, "longitude": -111.2997027, "source": "osm", "_tags": {"addr:city": "Montpelier", "addr:housenumber": "164", "addr:postcode": "83254", "addr:state": "ID", "addr:street": "South 5th Street", "amenity": "hospital", "beds": "21", "emergency": "yes", "healthcare": "hospital", "name": "Bear Lake Memorial Hospital", "opening_hours": "24/7", "phone": "+1 208 847 1630", "website": "https://www.blmhospital.com/"}}]