[{"name": "Providence Medford Medical Center", "latitude": 42.3395705, "longitude": -122.8635034, "source": "osm", "_tags": {"addr:city": "Medford", "addr:housenumber": "1111", "addr:postcode": "97504", "addr:state": "OR", "addr:street": "Crater Lake Avenue", "amenity": "hospital", "check_date": "2025-05-02", "emergency": "yes", "healthcare": "hospital", "name": "Providence Medford Medical Center", "opening_hours": "24/7", "phone": "+1-541-732-5000", "website": "https://oregon.providence.org/location-directory/p/providence-medford-medical-center/", "wikidata": "Q30288329"}}, {"name": "Asante Ashland Community Hospital", "latitude": 42.205643, "longitude": -122.7249128, "source": "osm", "_tags": {"addr:city": "Ashland", "addr:housenumber": "280", "addr:postcode": "97520", "addr:state": "OR", "addr:street": "Maple Street", "amenity": "hospital", "beds": "49", "check_date": "2025-03-31", "emergency": "yes", "fax": "541-201-4087", "gnis:feature_id": "2091244", "healthcare": "hospital", "healthcare:speciality": "general;emergency;gynaecology;imaging;labratory;maternity;cardiology", "name": "Asante Ashland Community Hospital", "old_name": "Ashland Community Hospital", "opening_hours": "24/7", "phone": "+1-541-201-4000", "website": "https://www.asante.org/Locations/location-detail/?id=1042", "wikidata": "Q4805235"}}, {"name": "Asante Rogue Regional Medical Center", "latitude": 42.318105, "longitude": -122.8307342, "source": "osm", "_tags": {"addr:city": "Medford", "addr:housenumber": "2825", "addr:postcode": "97504", "addr:street": "East Barnett Road", "amenity": "hospital", "beds": "378", "check_date": "2025-03-22", "emergency": "yes", "healthcare": "hospital", "name": "Asante Rogue Regional Medical Center", "opening_hours": "24/7", "phone": "+1 541 789 7000", "website": "https://www.asante.org/Locations/location-detail/?id=1018", "wikidata": "Q14709216"}}, {"name": "White City VA Rehabilitation Center & Clinics", "latitude": 42.4415752, "longitude": -122.838739, "source": "osm", "_tags": {"addr:city": "White City", "addr:housenumber": "8495", "addr:postcode": "97503", "addr:street": "Crater Lake Highway", "amenity": "hospital", "emergency": "no", "gnis:feature_id": "1135373", "healthcare": "hospital", "name": "White City VA Rehabilitation Center & Clinics", "phone": "+1 541 826 2111", "website": "https://www.southernoregon.va.gov/"}}, {"name": "Fairchild Medical Center", "latitude": 41.7196021, "longitude": -122.6458847, "source": "osm", "_tags": {"addr:city": "Yreka", "addr:housenumber": "444", "addr:postcode": "96097", "addr:state": "CA", "addr:street": "Bruce Street", "amenity": "hospital", "emergency": "yes", "healthcare": "hospital", "name": "Fairchild Medical Center", "opening_hours": "24/7", "phone": "+1 530 842 4121", "website": "https://fairchildmed.org/"}}]