[{"name": "Minidoka Memorial Hospital", "latitude": 42.6205745, "longitude": -113.6862373, "source": "osm", "_tags": {"addr:city": "Rupert", "addr:housenumber": "1224", "addr:postcode": "83350", "addr:state": "ID", "addr:street": "8th Street", "amenity": "hospital", "emergency": "yes", "gnis:feature_id": "373971", "healthcare": "hospital", "name": "Minidoka Memorial Hospital", "phone": "+1 208 436 0481", "website": "http://www.minidokamemorial.com/"}}, {"name": "Cassia Regional Hospital", "latitude": 42.5344554, "longitude": -113.7814434, "source": "osm", "_tags": {"addr:city": "Burley", "addr:housenumber": "1501", "addr:postcode": "83318", "addr:state": "ID", "addr:street": "Hiland Avenue", "amenity": "hospital", "emergency": "yes", "name": "Cassia Regional Hospital", "old_name": "Cassia Regional Medical Center", "opening_hours": "24/7", "operator": "Intermountain Healthcare", "phone": "+1 208 678 4444", "website": "https://intermountainhealthcare.org/locations/cassia-regional-hospital/"}}]