[{"name": "Roseburg VA Medical Center", "latitude": 43.2247983, "longitude": -123.3675632, "source": "osm", "_tags": {"access": "private", "addr:city": "Roseburg", "addr:housenumber": "913", "addr:postcode": "97471", "addr:street": "Northwest Garden Valley Boulevard", "amenity": "hospital", "check_date": "2025-01-01", "emergency": "yes", "gnis:feature_id": "1639176", "healthcare": "hospital", "name": "Roseburg VA Medical Center", "phone": "+1 541 440 1000", "website": "https://www.roseburg.va.gov/"}}, {"name": "CHI Mercy Health Mercy Medical Center", "latitude": 43.2415984, "longitude": -123.3669486, "source": "osm", "_tags": {"addr:city": "Roseburg", "addr:housenumber": "2700", "addr:postcode": "97471", "addr:street": "Northwest Stewart Parkway", "amenity": "hospital", "emergency": "yes", "gnis:feature_id": "1639175", "healthcare": "hospital", "name": "CHI Mercy Health Mercy Medical Center", "old_name": "Mercy Medical Center", "opening_hours": "24/7", "operator": "Catholic Health Initiatives", "operator:short": "CHI", "operator:wikidata": "Q5053168", "phone": "+1 541 673 0611", "website": "http://www.mercyrose.org/", "wikidata": "Q14709068"}}, {"name": "", "latitude": 43.2452766, "longitude": -123.351856, "source": "osm", "_tags": {"amenity": "hospital", "healthcare": "hospital"}}]