[{"name": "State Hospital South", "latitude": 43.1874153, "longitude": -112.3346991, "source": "osm", "_tags": {"addr:city": "Blackfoot", "addr:housenumber": "700", "addr:postcode": "83221", "addr:state": "ID", "addr:street": "East Alice Street", "amenity": "hospital", "emergency": "no", "gnis:feature_id": "375262", "healthcare": "hospital", "healthcare:speciality": "psychiatry", "name": "State Hospital South", "phone": "+1-208-785-8401", "website": "http://healthandwelfare.idaho.gov/medical/mentalhealth/statehospitals/tabid/495/default.aspx"}}, {"name": "Idaho Doctors' Hospital", "latitude": 43.1959518, "longitude": -112.3549159, "source": "osm", "_tags": {"addr:city": "Blackfoot", "addr:housenumber": "350", "addr:postcode": "83221", "addr:state": "ID", "addr:street": "North Meridian Street", "amenity": "hospital", "beds": "8", "emergency": "no", "healthcare": "hospital", "healthcare:speciality": "neurosurgery", "name": "Idaho Doctors' Hospital", "operator": "Bingham Memorial Hospital", "phone": "+1-208-782-2900", "website": "https://www.binghammemorial.org/idaho-doctors-hospital-blackfoot"}}, {"name": "Wright Physical Therapy", "latitude": 43.4777736, "longitude": -112.0618067, "source": "osm", "_tags": {"addr:housenumber": "2194", "addr:postcode": "83402", "addr:street": "Snake River Parkway", "amenity": "hospital", "name": "Wright Physical Therapy", "phone": "(208) 973-4144", "website": "https://wrightpt.com/"}}, {"name": "Wright Physical Therapy", "latitude": 43.4777736, "longitude": -112.0618067, "source": "osm", "_tags": {"addr:housenumber": "2194", "addr:postcode": "83402", "addr:street": "Snake River Parkway", "amenity": "hospital", "name": "Wright Physical Therapy", "phone": "(208) 973-4144", "website": "https://wrightpt.com/"}}, {"name": "Power County Hospital District", "latitude": 42.7815842, "longitude": -112.8485502, "source": "osm", "_tags": {"addr:city": "American Falls", "addr:housenumber": "510", "addr:postcode": "83211", "addr:state": "ID", "addr:street": "Roosevelt Street", "amenity": "hospital", "emergency": "yes", "gnis:feature_id": "399056", "healthcare": "hospital", "name": "Power County Hospital District", "phone": "+1 208 226 3200", "website": "https://www.pchd.net/"}}, {"name": "Bingham Memorial Hospital", "latitude": 43.1932561, "longitude": -112.3462613, "source": "osm", "_tags": {"addr:city": "Blackfoot", "addr:housenumber": "98", "addr:postcode": "83221", "addr:state": "ID", "addr:street": "Poplar Street", "amenity": "hospital", "emergency": "yes", "gnis:feature_id": "399534", "healthcare": "hospital", "name": "Bingham Memorial Hospital", "opening_hours": "24/7", "phone": "+1 208 785 4100", "website": "https://www.binghammemorial.org/", "wikidata": "Q18358397", "wikipedia": "en:Bingham Memorial Hospital"}}, {"name": "Portneuf Medical Center", "latitude": 42.8727506, "longitude": -112.4203777, "source": "osm", "_tags": {"addr:city": "Pocatello", "addr:housenumber": "777", "addr:postcode": "83201", "addr:state": "ID", "addr:street": "Hospital Way", "amenity": "hospital", "beds": "187", "emergency": "yes", "healthcare": "hospital", "name": "Portneuf Medical Center", "opening_hours": "24/7", "operator": "Portneuf Health Partners", "phone": "+1 208 239 1000", "toilets:wheelchair": "yes", "website": "https://www.portneuf.org/", "wheelchair": "yes"}}, {"name": "Mountain View Hospital & Idaho Falls Community Hospital", "latitude": 43.4742313, "longitude": -111.9878973, "source": "osm", "_tags": {"addr:city": "Idaho Falls", "addr:housenumber": "2325", "addr:postcode": "83404", "addr:state": "ID", "addr:street": "Coronado Street", "amenity": "hospital", "healthcare": "hospital", "name": "Mountain View Hospital & Idaho Falls Community Hospital"}}, {"name": "Eastern Idaho Regional Medical Center (EIRMC)", "latitude": 43.4702812, "longitude": -111.9921111, "source": "osm", "_tags": {"addr:city": "Idaho Falls", "addr:housenumber": "3100", "addr:postcode": "83404", "addr:state": "ID", "addr:street": "Channing Way", "amenity": "hospital", "emergency": "yes", "healthcare": "hospital", "name": "Eastern Idaho Regional Medical Center (EIRMC)"}}]