[{"name": "Hot Springs County Memorial Hospital", "latitude": 43.6479587, "longitude": -108.1997576, "source": "osm", "_tags": {"addr:city": "Thermopolis", "addr:housenumber": "150", "addr:postcode": "82443", "addr:state": "WY", "addr:street": "East Arapahoe Street", "amenity": "hospital", "emergency": "yes", "gnis:feature_id": "1794895", "healthcare": "hospital", "name": "Hot Springs County Memorial Hospital", "phone": "+1 307 864 3121", "website": "http://www.hscmh.org/"}}, {"name": "Washakie Medical Center", "latitude": 44.012643, "longitude": -107.9496375, "source": "osm", "_tags": {"addr:city": "Worland", "addr:housenumber": "400", "addr:postcode": "82401", "addr:state": "WY", "addr:street": "South 15th Street", "amenity": "hospital", "emergency": "yes", "gnis:feature_id": "1596054", "healthcare": "hospital", "healthcare:speciality": "community", "name": "Washakie Medical Center", "old_name": "Washakie Memorial Hospital", "operator": "Banner Health", "operator:type": "private_non_profit", "operator:wikidata": "Q4856918", "phone": "+1 307 347 3221", "website": "https://www.bannerhealth.com/locations/worland/washakie-medical-center#"}}, {"name": "South Big Horn County Hospital", "latitude": 44.4339461, "longitude": -108.0507627, "source": "osm", "_tags": {"addr:city": "Basin", "addr:housenumber": "388", "addr:postcode": "82410", "addr:state": "WY", "addr:street": "US 20 South", "amenity": "hospital", "emergency": "yes", "gnis:feature_id": "1594594", "healthcare": "hospital", "name": "South Big Horn County Hospital", "phone": "+1 307 568 3311", "website": "https://midwayclinic.sharepoint.com/"}}]