[{"name": "McKenzie-Willamette Medical Center", "latitude": 44.0532522, "longitude": -123.0034879, "source": "osm", "_tags": {"addr:city": "Springfield", "addr:housenumber": "1460", "addr:postcode": "97477", "addr:street": "G Street", "amenity": "hospital", "beds": "113", "check_date": "2025-02-28", "emergency": "yes", "gnis:feature_id": "1638159", "healthcare": "hospital", "name": "McKenzie-Willamette Medical Center", "opening_hours": "24/7", "phone": "+1 541 726 4400", "website": "https://www.mckweb.com/", "wikidata": "Q6801815"}}, {"name": "Peace Health Medical Center University District", "latitude": 44.0466189, "longitude": -123.0819121, "source": "osm", "_tags": {"addr:city": "Eugene", "addr:housenumber": "1255", "addr:postcode": "97401", "addr:street": "Hilyard Street", "amenity": "hospital", "emergency": "yes", "healthcare": "hospital", "name": "Peace Health Medical Center University District", "opening_hours": "24/7", "operator": "PeaceHealth", "operator:type": "private", "operator:wikidata": "Q16966652", "operator:wikipedia": "en:PeaceHealth", "phone": "+1 541 686 7300", "website": "https://www.peacehealth.org/sacred-heart-university-district", "wikidata": "Q7397235"}}, {"name": "Serenity Lane", "latitude": 44.1398365, "longitude": -123.0588169, "source": "osm", "_tags": {"addr:city": "Coburg", "addr:housenumber": "1", "addr:postcode": "97408", "addr:state": "OR", "addr:street": "Serenity Lane", "amenity": "hospital", "emergency": "no", "healthcare": "hospital", "healthcare:speciality": "addiction", "name": "Serenity Lane", "phone": "+1-541-687-1110", "website": "https://serenitylane.org/inpatient.html"}}, {"name": "Cottage Grove Community Medical Center", "latitude": 43.8041177, "longitude": -123.0396719, "source": "osm", "_tags": {"addr:city": "Cottage Grove", "addr:housenumber": "1515", "addr:postcode": "97424", "addr:state": "OR", "addr:street": "Village Drive", "amenity": "hospital", "beds": "14", "emergency": "yes", "healthcare": "hospital", "healthcare:speciality": "general;vaccination;radiology", "name": "Cottage Grove Community Medical Center", "opening_hours": "24/7; Mo-Sa 08:00-18:00 \"Clinic\"", "operator": "PeaceHealth", "operator:wikidata": "Q16966652", "phone": "+1 541 767 5500", "website": "https://www.peacehealth.org/cottage-grove-medical-center", "wikidata": "Q5175513", "wikipedia": "en:Cottage Grove Community Hospital"}}, {"name": "Sacred Heart Medical Center at Riverbend", "latitude": 44.0808127, "longitude": -123.0271212, "source": "osm", "_tags": {"addr:city": "Springfield", "addr:housenumber": "3333", "addr:postcode": "97477", "addr:street": "Riverbend Drive", "amenity": "hospital", "beds": "347", "emergency": "yes", "healthcare": "hospital", "name": "Sacred Heart Medical Center at Riverbend", "opening_hours": "24/7", "operator": "PeaceHealth", "operator:type": "private", "operator:wikidata": "Q16966652", "phone": "+1-541-222-7300", "website": "https://www.peacehealth.org/sacred-heart-riverbend", "wikidata": "Q7397238", "wikipedia": "en:PeaceHealth Sacred Heart Medical Center at RiverBend"}}, {"name": "Junction City Oregon State Hospital", "latitude": 44.1653315, "longitude": -123.1945742, "source": "osm", "_tags": {"amenity": "hospital", "healthcare": "hospital", "name": "Junction City Oregon State Hospital", "note": "Mental health hospital & correctional facility"}}, {"name": "Elizabeth McCorkle, MD", "latitude": 44.038275, "longitude": -123.0693629, "source": "osm", "_tags": {"addr:city": "Eugene", "addr:housenumber": "1961", "addr:postcode": "97403", "addr:state": "OR", "addr:street": "Agate Street", "amenity": "hospital", "healthcare": "hospital", "healthcare:speciality": "plastics;botox", "name": "Elizabeth McCorkle, MD"}}, {"name": "Peacehealth Barger Clinic", "latitude": 44.0849003, "longitude": -123.1636458, "source": "osm", "_tags": {"addr:city": "Eugene", "addr:housenumber": "4010", "addr:postcode": "97402", "addr:state": "OR", "addr:street": "Aerial Way", "amenity": "hospital", "building": "yes", "healthcare": "hospital", "name": "Peacehealth Barger Clinic", "operator": "PeaceHealth", "operator:type": "private", "operator:wikidata": "Q16966652"}}, {"name": "VA Healthcare Center", "latitude": 44.0882858, "longitude": -123.0519784, "source": "osm", "_tags": {"amenity": "hospital", "check_date": "2025-05-07", "healthcare": "hospital", "name": "VA Healthcare Center", "operator": "U.S. Department of Veteran Affairs", "operator:type": "government"}}, {"name": "Green Valley Health Center", "latitude": 44.0844381, "longitude": -123.0652038, "source": "osm", "_tags": {"amenity": "hospital", "emergency": "no", "healthcare": "hospital", "healthcare:speciality": "community", "name": "Green Valley Health Center"}}]