[{"name": "Oregon State Hospital", "latitude": 44.9381604, "longitude": -123.0028433, "source": "osm", "_tags": {"addr:city": "Salem", "addr:housenumber": "2600", "addr:postcode": "97301", "addr:street": "Center Street Northeast", "amenity": "hospital", "emergency": "no", "healthcare": "hospital", "healthcare:speciality": "psychiatry", "name": "Oregon State Hospital", "phone": "+1 503-945-2800", "website": "https://www.oregon.gov/oha/osh/", "wikidata": "Q7101361"}}, {"name": "Good Samaritan Regional Medical Center", "latitude": 44.6026075, "longitude": -123.2525026, "source": "osm", "_tags": {"addr:city": "Corvallis", "addr:housenumber": "3600", "addr:postcode": "97330", "addr:street": "Northwest Samaritan Drive", "amenity": "hospital", "check_date": "2025-07-08", "emergency": "yes", "healthcare": "hospital", "name": "Good Samaritan Regional Medical Center", "opening_hours": "24/7", "phone": "+1 541 768 5111", "website": "https://www.samhealth.org/find-a-location/g/good-samaritan-regional-medical-center", "wheelchair": "yes", "wikidata": "Q5582923"}}, {"name": "Samaritan Lebanon Community Hospital", "latitude": 44.5502757, "longitude": -122.906537, "source": "osm", "_tags": {"addr:city": "Lebanon", "addr:housenumber": "525", "addr:postcode": "97355", "addr:street": "North Santiam Highway", "amenity": "hospital", "beds": "25", "emergency": "yes", "gnis:feature_id": "1638857", "healthcare": "hospital", "name": "Samaritan Lebanon Community Hospital", "old_name": "Lebanon Hospital", "opening_hours": "24/7", "phone": "+1 541 258 2101", "website": "https://www.samhealth.org/find-a-location/s/samaritan-lebanon-community-hospital", "wikidata": "Q7408843"}}, {"name": "Tillamook Regional Medical Center", "latitude": 45.4570751, "longitude": -123.853838, "source": "osm", "_tags": {"addr:city": "Tillamook", "addr:housenumber": "1000", "addr:postcode": "97141", "addr:state": "OR", "addr:street": "3rd Street", "amenity": "hospital", "beds": "25", "emergency": "yes", "healthcare": "hospital", "name": "Tillamook Regional Medical Center", "old_name": "Tillamook County General Hospital", "opening_hours": "24/7", "operator": "Adventist Health", "operator:wikidata": "Q4686452", "operator:wikipedia": "en:Adventist Health", "phone": "+1-503-842-4444", "website": "https://www.adventisthealth.org/trmc/", "wikidata": "Q7802243", "wikipedia": "en:Tillamook Regional Medical Center"}}, {"name": "", "latitude": 45.3083943, "longitude": -122.9352881, "source": "osm", "_tags": {"amenity": "hospital", "healthcare": "hospital", "wikidata": "Q7252456"}}, {"name": "Salem Health West Valley", "latitude": 44.9188722, "longitude": -123.3101743, "source": "osm", "_tags": {"addr:city": "Dallas", "addr:housenumber": "525", "addr:postcode": "97338", "addr:street": "Southeast Washington Street", "amenity": "hospital", "emergency": "yes", "healthcare": "hospital", "name": "Salem Health West Valley", "old_name": "West Valley Hospital", "opening_hours": "24/7", "phone": "+1 503 623 8301", "website": "https://www.salemhealth.org/locations/west-valley-hospital", "wikidata": "Q20712671"}}, {"name": "Willamette Valley Medical Center", "latitude": 45.1990422, "longitude": -123.1651653, "source": "osm", "_tags": {"addr:city": "McMinnville", "addr:housenumber": "2700", "addr:postcode": "97128", "addr:state": "OR", "addr:street": "Southeast Stratus Avenue", "amenity": "hospital", "check_date": "2025-06-15", "emergency": "yes", "healthcare": "hospital", "name": "Willamette Valley Medical Center", "opening_hours": "24/7", "phone": "+1-503-472-6131", "website": "https://willamettevalleymedical.com/", "wikidata": "Q8003322"}}, {"name": "Tuality Forest Grove Hospital", "latitude": 45.5172032, "longitude": -123.090392, "source": "osm", "_tags": {"addr:city": "Forest Grove", "addr:housenumber": "1809", "addr:postcode": "97116", "addr:state": "OR", "addr:street": "Maple Street", "amenity": "hospital", "contact:phone": "+1 503 359 6180", "contact:website": "https://tuality.org/hospital-services/immediate-care/", "emergency": "yes", "healthcare": "hospital", "name": "Tuality Forest Grove Hospital", "opening_hours": "24/7", "wheelchair": "yes", "wikidata": "Q7850607", "wikipedia": "en:Tuality Forest Grove Hospital"}}, {"name": "Salem Hospital", "latitude": 44.9326957, "longitude": -123.0340831, "source": "osm", "_tags": {"addr:city": "Salem", "addr:housenumber": "890", "addr:postcode": "97301", "addr:street": "Oak Street Southeast", "amenity": "hospital", "beds": "454", "emergency": "yes", "healthcare": "hospital", "name": "Salem Hospital", "opening_hours": "24/7", "operator": "Salem Health", "phone": "+1-503-561-5200", "website": "https://www.salemhealth.org/", "wikidata": "Q7404125", "wikipedia": "en:Salem Hospital (Oregon)"}}, {"name": "Samaritan Albany General Hospital", "latitude": 44.6321535, "longitude": -123.1165049, "source": "osm", "_tags": {"addr:city": "Albany", "addr:housenumber": "1046", "addr:postcode": "97321", "addr:street": "6th Avenue Southwest", "amenity": "hospital", "beds": "70", "check_date": "2025-04-12", "emergency": "yes", "healthcare": "hospital", "name": "Samaritan Albany General Hospital", "opening_hours": "24/7", "operator": "Samaritan Health Services", "phone": "+1 541 812 4000", "website": "https://www.samhealth.org/find-a-location/s/samaritan-albany-general-hospital", "wikidata": "Q7408838", "wikipedia": "en:Samaritan Albany General Hospital"}}, {"name": "Hillsboro Medical Center", "latitude": 45.5200019, "longitude": -122.9781936, "source": "osm", "_tags": {"addr:city": "Hillsboro", "addr:housenumber": "335", "addr:postcode": "97123", "addr:state": "OR", "addr:street": "Southeast 8th Avenue", "amenity": "hospital", "emergency": "yes", "healthcare": "hospital", "name": "Hillsboro Medical Center", "official_name": "OHSU Health Hillsboro Medical Center", "old_name": "Tuality Community Hospital", "opening_hours": "24/7", "operator": "Tuality Healthcare", "operator:type": "private_non_profit", "phone": "+1-503-681-1860", "type": "multipolygon", "website": "http://www.tuality.org/", "wikidata": "Q7850605", "wikipedia": "en:Hillsboro Medical Center"}}]