[{"name": "Doernbecher Children's Hospital", "latitude": 45.4977189, "longitude": -122.6859547, "source": "osm", "_tags": {"addr:city": "Portland", "addr:housenumber": "700", "addr:postcode": "97239", "addr:state": "OR", "addr:street": "Southwest Campus Drive", "amenity": "hospital", "building": "yes", "building:levels": "11", "building:min_level": "7", "emergency": "no", "healthcare": "hospital", "healthcare:speciality": "paediatrics", "layer": "1", "name": "Doernbecher Children's Hospital", "opening_hours": "24/7", "phone": "+1-503-346-0640", "website": "https://www.ohsu.edu/", "wikidata": "Q5288081", "wikipedia": "en:Doernbecher Children's Hospital"}}, {"name": "Oregon Health & Science University Hospital", "latitude": 45.4989989, "longitude": -122.6855618, "source": "osm", "_tags": {"addr:city": "Portland", "addr:housenumber": "3251", "addr:postcode": "97239", "addr:state": "OR", "addr:street": "Southwest Sam Jackson Park Road", "alt_name": "OHSU Hospital", "amenity": "hospital", "building": "yes", "emergency": "no", "healthcare": "hospital", "name": "Oregon Health & Science University Hospital", "operator": "Oregon Health & Science University", "ref": "OHS", "short_name": "OHSU Hospital", "wikidata": "Q7101213", "wikipedia": "en:Oregon Health & Science University Hospital"}}, {"name": "Kohler Pavilion", "latitude": 45.4996495, "longitude": -122.6844186, "source": "osm", "_tags": {"addr:city": "Portland", "addr:housenumber": "808", "addr:postcode": "97239", "addr:state": "OR", "addr:street": "Southwest Campus Drive", "amenity": "hospital", "building": "hospital", "emergency": "no", "healthcare": "hospital", "layer": "1", "name": "Kohler Pavilion", "official_name": "Peter O. Kohler Pavillion", "operator": "Oregon Health & Science University", "ref": "KPV", "website": "https://www.ohsu.edu/xd/", "wheelchair": "yes"}}, {"name": "Providence Portland Medical Center", "latitude": 45.5283211, "longitude": -122.6124141, "source": "osm", "_tags": {"addr:city": "Portland", "addr:housenumber": "4805", "addr:postcode": "97213", "addr:street": "Northeast Glisan Street", "amenity": "hospital", "beds": "483", "check_date": "2024-12-11", "emergency": "yes", "healthcare": "hospital", "name": "Providence Portland Medical Center", "opening_hours": "24/7", "operator": "Providence Health & Services", "operator:wikidata": "Q7252430", "operator:wikipedia": "en:Providence Health & Services", "phone": "+1-503-215-1111", "website": "https://oregon.providence.org/location-directory/p/providence-portland-medical-center/", "wikidata": "Q7252461", "wikipedia": "en:Providence Portland Medical Center"}}, {"name": "OHSU - Doernbecher Emergency", "latitude": 45.4989741, "longitude": -122.6866485, "source": "osm", "_tags": {"addr:city": "Portland", "addr:housenumber": "3251", "addr:postcode": "97239", "addr:state": "OR", "addr:street": "Southwest Sam Jackson Park Road", "amenity": "hospital", "building": "yes", "emergency": "yes", "healthcare": "hospital", "name": "OHSU - Doernbecher Emergency", "opening_hours": "24/7", "phone": "+1 503 494 7551", "ref": "ERC", "website": "https://www.ohsu.edu/xd/health/services/doernbecher/programs-services/emergency/index.cfm"}}, {"name": "Portland VA Medical Center", "latitude": 45.49641, "longitude": -122.6829977, "source": "osm", "_tags": {"access": "private", "amenity": "hospital", "emergency": "yes", "healthcare": "hospital", "name": "Portland VA Medical Center", "official_name": "Department of Vereran Affairs Medical Center Portland, Oregon", "old_name": "Sam Jackson Park", "website": "https://www.portland.va.gov/", "wikidata": "Q16902632"}}, {"name": "Shriners Hospitals for Children", "latitude": 45.5011692, "longitude": -122.6844818, "source": "osm", "_tags": {"addr:city": "Portland", "addr:housenumber": "3101", "addr:postcode": "97239", "addr:state": "OR", "addr:street": "Southwest Sam Jackson Park Road", "amenity": "hospital", "beds": "29", "brand": "Shriners Hospitals for Children", "brand:wikidata": "Q7504109", "emergency": "no", "healthcare": "hospital", "healthcare:speciality": "paediatrics", "name": "Shriners Hospitals for Children", "operator": "Shriners Hospitals for Children", "operator:wikidata": "Q7504109", "operator:wikipedia": "en:Shriners Hospitals for Children", "phone": "+1-503-241-5090", "website": "https://www.shrinershospitalsforchildren.org/portland", "wikidata": "Q7504106", "wikipedia": "en:Shriners Hospital for Children (Portland)"}}, {"name": "Legacy Meridian Park Medical Center", "latitude": 45.3788268, "longitude": -122.7414622, "source": "osm", "_tags": {"addr:city": "Tualatin", "addr:housenumber": "19300", "addr:postcode": "97062", "addr:state": "OR", "addr:street": "Southwest 65th Avenue", "amenity": "hospital", "emergency": "yes", "healthcare": "hospital", "name": "Legacy Meridian Park Medical Center", "opening_hours": "24/7", "operator": "Legacy Health", "operator:wikidata": "Q6517244", "operator:wikipedia": "en:Legacy Health", "phone": "+1 503 692 1212", "toilets:wheelchair": "yes", "website": "https://www.legacyhealth.org/locations/hospitals/legacy-meridian-park-medical-center.aspx", "wheelchair": "yes", "wikidata": "Q6517255", "wikipedia": "en:Legacy Meridian Park Medical Center"}}, {"name": "Adventist Health Portland", "latitude": 45.5125412, "longitude": -122.5575537, "source": "osm", "_tags": {"addr:city": "Portland", "addr:housenumber": "10123", "addr:postcode": "97216", "addr:state": "OR", "addr:street": "Southeast Market Street", "alt_name": "OHSU Adventist Health Portland", "amenity": "hospital", "emergency": "yes", "healthcare": "hospital", "name": "Adventist Health Portland", "old_name": "Portland Adventist Medical Center", "opening_hours": "24/7", "operator": "Adventist Health", "operator:type": "private_non_profit", "operator:wikidata": "Q4686452", "phone": "+1-503-257-2500", "website": "https://www.adventisthealth.org/portland/", "wheelchair": "yes", "wikidata": "Q2945876", "wikipedia": "en:Adventist Health Portland"}}, {"name": "Santiam Hospital", "latitude": 44.8050844, "longitude": -122.785111, "source": "osm", "_tags": {"addr:city": "Stayton", "addr:housenumber": "1401", "addr:postcode": "97383", "addr:street": "North 10th Avenue", "amenity": "hospital", "beds": "40", "emergency": "yes", "healthcare": "hospital", "name": "Santiam Hospital", "opening_hours": "24/7", "phone": "+1 503 769 2175", "website": "https://santiamhospital.org/", "wikidata": "Q18157763"}}, {"name": "Providence Saint Vincent Hospital", "latitude": 45.5104142, "longitude": -122.7721234, "source": "osm", "_tags": {"addr:city": "Portland", "addr:housenumber": "9205", "addr:postcode": "97225", "addr:state": "OR", "addr:street": "Southwest Barnes Road", "amenity": "hospital", "emergency": "yes", "healthcare": "hospital", "name": "Providence Saint Vincent Hospital", "opening_hours": "24/7", "phone": "+1-503-216-1234", "website": "https://oregon.providence.org/", "wikidata": "Q7252480"}}, {"name": "Providence Willamette Falls Medical Center", "latitude": 45.3561769, "longitude": -122.5864454, "source": "osm", "_tags": {"addr:city": "Oregon City", "addr:housenumber": "1500", "addr:postcode": "97045", "addr:state": "OR", "addr:street": "Division Street", "amenity": "hospital", "beds": "143", "emergency": "yes", "healthcare": "hospital", "name": "Providence Willamette Falls Medical Center", "opening_hours": "24/7", "phone": "+1-503-656-1631", "website": "https://oregon.providence.org/", "wikidata": "Q7252504"}}, {"name": "Kaiser Sunnyside Medical Center", "latitude": 45.4315662, "longitude": -122.5597776, "source": "osm", "_tags": {"addr:city": "Clackamas", "addr:housenumber": "10180", "addr:postcode": "97015", "addr:state": "OR", "addr:street": "Southeast Sunnyside Road", "amenity": "hospital", "contact:phone": "+1 503 652 2880", "contact:website": "https://healthy.kaiserpermanente.org/oregon-washington/facilities/Sunnyside-Medical-Center-100249", "emergency": "yes", "healthcare": "hospital", "name": "Kaiser Sunnyside Medical Center", "opening_hours": "24/7", "operator": "Kaiser Permanente", "operator:short": "KP", "operator:website": "https://healthy.kaiserpermanente.org/", "operator:wikidata": "Q1721601", "operator:wikipedia": "en:Kaiser Permanente", "wikidata": "Q6348463"}}, {"name": "Legacy Mount Hood Medical Center", "latitude": 45.5173246, "longitude": -122.4064587, "source": "osm", "_tags": {"addr:city": "Gresham", "addr:housenumber": "24800", "addr:postcode": "97030", "addr:street": "Southeast Stark Street", "amenity": "hospital", "emergency": "yes", "healthcare": "hospital", "name": "Legacy Mount Hood Medical Center", "opening_hours": "24/7", "operator": "Legacy Health", "operator:wikidata": "Q6517244", "operator:wikipedia": "en:Legacy Health", "phone": "+1 503 674 1122", "website": "https://www.legacyhealth.org/locations/hospitals/legacy-mount-hood-medical-center.aspx", "wikidata": "Q17508439", "wikipedia": "en:Legacy Mount Hood Medical Center"}}, {"name": "Cedar Hills Hospital", "latitude": 45.5058259, "longitude": -122.7830946, "source": "osm", "_tags": {"amenity": "hospital", "emergency": "no", "healthcare": "hospital", "name": "Cedar Hills Hospital"}}, {"name": "Legacy Silverton Medical Center", "latitude": 45.0042613, "longitude": -122.790431, "source": "osm", "_tags": {"addr:city": "Silverton", "addr:housenumber": "342", "addr:postcode": "97381", "addr:street": "Fairview Street", "amenity": "hospital", "beds": "49", "emergency": "yes", "healthcare": "hospital", "name": "Legacy Silverton Medical Center", "opening_hours": "24/7", "operator": "Legacy Health", "operator:type": "private", "operator:wikidata": "Q6517244", "operator:wikipedia": "en:Legacy Health", "phone": "+1 503 873 1500", "website": "https://www.legacyhealth.org/locations/hospitals/legacy-silverton-medical-center.aspx", "wikidata": "Q7516846", "wikipedia": "en:Legacy Silverton Medical Center"}}, {"name": "Providence Milwaukie Hospital", "latitude": 45.4496943, "longitude": -122.6281091, "source": "osm", "_tags": {"addr:city": "Milwaukie", "addr:housenumber": "10150", "addr:postcode": "97222", "addr:street": "Southeast 32nd Avenue", "amenity": "hospital", "beds": "77", "emergency": "yes", "healthcare": "hospital", "name": "Providence Milwaukie Hospital", "opening_hours": "24/7", "operator": "Providence Health & Services", "operator:type": "private", "operator:wikidata": "Q7252430", "operator:wikipedia": "en:Providence Health & Services", "phone": "+1-503-513-8300", "website": "https://oregon.providence.org/location-directory/p/providence-milwaukie-hospital/", "wikidata": "Q16898822"}}, {"name": "Woodburn Diagnostic Imaging", "latitude": 45.1515134, "longitude": -122.8567183, "source": "osm", "_tags": {"amenity": "hospital", "healthcare": "hospital", "name": "Woodburn Diagnostic Imaging"}}, {"name": "", "latitude": 45.3665982, "longitude": -122.8496722, "source": "osm", "_tags": {"amenity": "hospital", "healthcare": "hospital"}}, {"name": "Adventist Health Medical Group - Hoodland", "latitude": 45.3464642, "longitude": -121.9639218, "source": "osm", "_tags": {"addr:city": "Welches", "addr:housenumber": "24461", "addr:postcode": "97067", "addr:state": "OR", "addr:street": "East Welches Road", "amenity": "hospital", "building": "yes", "building:levels": "1", "healthcare": "hospital", "name": "Adventist Health Medical Group - Hoodland", "operator": "Adventist Health", "operator:wikidata": "Q4686452", "phone": "(503) 622-3126", "website": "https://adventisthealth.org"}}]