[{"name": "Syringa Hospital & Clinics", "latitude": 45.9271888, "longitude": -116.1276283, "source": "osm", "_tags": {"addr:city": "Grangeville", "addr:housenumber": "607", "addr:postcode": "83530", "addr:state": "ID", "addr:street": "West Main Street", "amenity": "hospital", "emergency": "yes", "healthcare": "hospital", "name": "Syringa Hospital & Clinics", "opening_hours": "24/7", "phone": "+1 208 983 1700", "website": "https://www.syringahospital.org/"}}, {"name": "Clearwater Valley Hospital", "latitude": 46.4869577, "longitude": -116.2599076, "source": "osm", "_tags": {"addr:city": "Orofino", "addr:housenumber": "301", "addr:postcode": "83544", "addr:state": "ID", "addr:street": "Cedar Street", "amenity": "hospital", "emergency": "yes", "healthcare": "hospital", "name": "Clearwater Valley Hospital", "opening_hours": "24/7", "phone": "+1 208 476 4555", "website": "http://www.smh-cvhc.org/", "wikidata": "Q50039189"}}, {"name": "Saint Mary's Hospital", "latitude": 46.0502853, "longitude": -116.3531526, "source": "osm", "_tags": {"addr:city": "Cottonwood", "addr:housenumber": "701", "addr:postcode": "83522", "addr:state": "ID", "addr:street": "Lewiston Street", "amenity": "hospital", "emergency": "yes", "healthcare": "hospital", "name": "Saint Mary's Hospital", "opening_hours": "24/7", "phone": "+1 208 962 3251", "website": "http://www.smh-cvhc.org/"}}, {"name": "State Hospital North", "latitude": 46.4897534, "longitude": -116.26039, "source": "osm", "_tags": {"addr:city": "Orofino", "addr:housenumber": "300", "addr:postcode": "83544", "addr:state": "ID", "addr:street": "Hospital Drive", "amenity": "hospital", "beds": "55", "building": "hospital", "emergency": "no", "healthcare": "hospital", "healthcare:speciality": "psychiatry", "name": "State Hospital North", "phone": "+1 208 476 4511", "type": "multipolygon", "website": "http://healthandwelfare.idaho.gov/Medical/MentalHealth/StateHospitals/tabid/495/Default.aspx"}}]