[{"name": "Bozeman Deaconess Hospital", "latitude": 45.6695958, "longitude": -111.0209494, "source": "osm", "_tags": {"addr:city": "Bozeman", "addr:housenumber": "915", "addr:postcode": "59715", "addr:state": "MT", "addr:street": "Highland Boulevard", "amenity": "hospital", "check_date": "2024-06-19", "emergency": "yes", "gnis:feature_id": "1737987", "healthcare": "hospital", "name": "Bozeman Deaconess Hospital", "note": "Define non-offset Hospital land use for MapBox base map.", "opening_hours": "24/7", "operator": "Bozeman Health", "phone": "+1 406 414 5000", "website": "https://www.bozemanhealth.org/"}}, {"name": "Broadwater Health Center", "latitude": 46.3218215, "longitude": -111.5163079, "source": "osm", "_tags": {"addr:city": "Townsend", "addr:housenumber": "110", "addr:postcode": "59644", "addr:state": "MT", "addr:street": "North Oak Street", "amenity": "hospital", "emergency": "yes", "gnis:feature_id": "1762250", "healthcare": "hospital", "name": "Broadwater Health Center", "opening_hours": "24/7", "phone": "+1 406 266 3186", "website": "https://www.broadwaterhealthcenter.com/"}}, {"name": "Billings Clinic - Bozeman", "latitude": 45.7210883, "longitude": -111.0779969, "source": "osm", "_tags": {"amenity": "hospital", "healthcare": "hospital", "name": "Billings Clinic - Bozeman"}}, {"name": "", "latitude": 45.7651185, "longitude": -111.1815433, "source": "osm", "_tags": {"amenity": "hospital", "healthcare": "hospital"}}]