[{"name": "Billings Clinic", "latitude": 45.7896771, "longitude": -108.5132991, "source": "osm", "_tags": {"addr:city": "Billings", "addr:housenumber": "2800", "addr:postcode": "59101", "addr:state": "MT", "addr:street": "10th Avenue North", "amenity": "hospital", "emergency": "yes", "gnis:feature_id": "770499", "healthcare": "hospital", "name": "Billings Clinic", "opening_hours": "24/7", "operator": "Billings Clinic", "phone": "+1 406 238 2500", "website": "https://www.billingsclinic.com/"}}, {"name": "Saint Vincent Healthcare", "latitude": 45.7932064, "longitude": -108.517755, "source": "osm", "_tags": {"addr:city": "Billings", "addr:housenumber": "1233", "addr:postcode": "59101", "addr:state": "MT", "addr:street": "North 30th Street", "amenity": "hospital", "emergency": "yes", "gnis:feature_id": "777143", "healthcare": "hospital", "name": "Saint Vincent Healthcare", "opening_hours": "24/7", "operator": "SCL Health", "phone": "+1 406 237 7000", "website": "https://www.sclhealth.org/locations/st-vincent-healthcare/"}}, {"name": "Roundup Memorial Healthcare", "latitude": 46.4538443, "longitude": -108.5456489, "source": "osm", "_tags": {"addr:city": "Roundup", "addr:housenumber": "1202", "addr:postcode": "59072", "addr:state": "MT", "addr:street": "3rd Street West", "amenity": "hospital", "emergency": "yes", "gnis:feature_id": "778774", "healthcare": "hospital", "name": "Roundup Memorial Healthcare", "opening_hours": "24/7", "phone": "+1 406 323 2301", "source": "Esri beta", "website": "https://rmhmt.org/"}}, {"name": "Advanced Care Hospital of Montana", "latitude": 45.7433601, "longitude": -108.605012, "source": "osm", "_tags": {"addr:city": "Billings", "addr:housenumber": "3528", "addr:postcode": "59102", "addr:state": "MT", "addr:street": "Gabel Road", "amenity": "hospital", "healthcare": "hospital", "name": "Advanced Care Hospital of Montana", "website": "https://www.achm.ernesthealth.com/"}}, {"name": "St. Vincent Healthcare", "latitude": 45.793357, "longitude": -108.5192743, "source": "osm", "_tags": {"building": "yes", "healthcare": "hospital", "name": "St. Vincent Healthcare", "type": "multipolygon"}}]