[{"name": "Columbia Memorial Hospital", "latitude": 46.1878017, "longitude": -123.8188632, "source": "osm", "_tags": {"addr:city": "Astoria", "addr:country": "US", "addr:housenumber": "2111", "addr:postcode": "97103", "addr:state": "OR", "addr:street": "Exchange Street", "amenity": "hospital", "beds": "25", "emergency": "yes", "gnis:feature_id": "1638916", "healthcare": "hospital", "name": "Columbia Memorial Hospital", "opening_hours": "24/7", "phone": "+1 503 325 4321", "website": "https://www.columbiamemorial.org/", "wikidata": "Q20064928", "wikipedia": "en:Columbia Memorial Hospital (Oregon)"}}, {"name": "PeaceHealth St. John Medical Center", "latitude": 46.1301462, "longitude": -122.9420818, "source": "osm", "_tags": {"addr:city": "Longview", "addr:housenumber": "1615", "addr:postcode": "98632", "addr:state": "WA", "addr:street": "Delaware Street", "amenity": "hospital", "emergency": "yes", "gnis:feature_id": "1508018", "healthcare": "hospital", "name": "PeaceHealth St. John Medical Center", "old_name": "Saint John's Hospital", "opening_hours": "24/7", "operator": "PeaceHealth", "operator:type": "private", "operator:wikidata": "Q16966652", "phone": "+1-360-414-2000", "website": "https://www.peacehealth.org/st-john-medical-center", "wikidata": "Q29096836", "wikipedia": "en:PeaceHealth St. John Medical Center"}}, {"name": "", "latitude": 46.3647279, "longitude": -123.8122811, "source": "osm", "_tags": {"amenity": "hospital", "healthcare": "hospital"}}]