[{"name": "Kaiser Permanente Westside Medical Center", "latitude": 45.5396013, "longitude": -122.8767098, "source": "osm", "_tags": {"addr:city": "Hillsboro", "addr:housenumber": "2875", "addr:postcode": "97124", "addr:state": "OR", "addr:street": "Northeast Stucki Avenue", "amenity": "hospital", "emergency": "yes", "healthcare": "hospital", "name": "Kaiser Permanente Westside Medical Center", "opening_hours": "24/7", "operator": "Kaiser Permanente", "operator:short": "KP", "operator:type": "private", "operator:website": "https://healthy.kaiserpermanente.org/", "operator:wikidata": "Q1721601", "operator:wikipedia": "en:Kaiser Permanente", "phone": "+1-971-310-1000", "website": "https://www.kaiserpermanente.org/", "wikidata": "Q12060932", "wikipedia": "en:Kaiser Westside Medical Center"}}, {"name": "Legacy Salmon Creek Medical Center", "latitude": 45.7204998, "longitude": -122.6483474, "source": "osm", "_tags": {"addr:city": "Vancouver", "addr:housenumber": "2211", "addr:postcode": "98686", "addr:state": "WA", "addr:street": "Northeast 139th Street", "amenity": "hospital", "emergency": "yes", "healthcare": "hospital", "healthcare:speciality": "general;emergency", "name": "Legacy Salmon Creek Medical Center", "opening_hours": "24/7", "operator": "Legacy Health", "operator:type": "private_non_profit", "operator:wikidata": "Q6517244", "operator:wikipedia": "en:Legacy Health", "phone": "+1-360-487-1000", "website": "https://www.legacyhealth.org/locations/hospitals/legacy-salmon-creek-medical-center.aspx"}}, {"name": "Providence Portland Medical Center", "latitude": 45.5283211, "longitude": -122.6124141, "source": "osm", "_tags": {"addr:city": "Portland", "addr:housenumber": "4805", "addr:postcode": "97213", "addr:street": "Northeast Glisan Street", "amenity": "hospital", "beds": "483", "check_date": "2024-12-11", "emergency": "yes", "healthcare": "hospital", "name": "Providence Portland Medical Center", "opening_hours": "24/7", "operator": "Providence Health & Services", "operator:wikidata": "Q7252430", "operator:wikipedia": "en:Providence Health & Services", "phone": "+1-503-215-1111", "website": "https://oregon.providence.org/location-directory/p/providence-portland-medical-center/", "wikidata": "Q7252461", "wikipedia": "en:Providence Portland Medical Center"}}, {"name": "PeaceHealth Southwest Memorial Health Center", "latitude": 45.6461948, "longitude": -122.6703031, "source": "osm", "_tags": {"addr:city": "Vancouver", "addr:housenumber": "3400", "addr:postcode": "98663", "addr:street": "Main Street", "amenity": "hospital", "emergency": "no", "gnis:feature_id": "2474337", "healthcare": "hospital", "name": "PeaceHealth Southwest Memorial Health Center", "operator": "PeaceHealth", "operator:wikidata": "Q16966652", "operator:wikipedia": "en:PeaceHealth", "phone": "+1-360-696-5232", "website": "https://www.peacehealth.org/southwest-medical-center"}}, {"name": "Portland VA Medical Center - Vancouver Division", "latitude": 45.6374391, "longitude": -122.6566683, "source": "osm", "_tags": {"addr:city": "Vancouver", "addr:housenumber": "1601", "addr:postcode": "98661", "addr:street": "East Fourth Plain Boulevard", "amenity": "hospital", "emergency": "no", "gnis:feature_id": "1503178", "healthcare": "hospital", "name": "Portland VA Medical Center - Vancouver Division", "operator": "Department of Veterans Affairs", "phone": "+1-360-759-1901", "website": "https://www.portland.va.gov/vancouver.asp"}}, {"name": "PeaceHealth Southwest Medical Center", "latitude": 45.6250195, "longitude": -122.5810503, "source": "osm", "_tags": {"addr:city": "Vancouver", "addr:housenumber": "400", "addr:postcode": "98664", "addr:street": "Northeast Mother Joseph Place", "amenity": "hospital", "emergency": "yes", "gnis:feature_id": "2474336", "healthcare": "hospital", "name": "PeaceHealth Southwest Medical Center", "opening_hours": "24/7", "operator": "PeaceHealth", "operator:wikidata": "Q16966652", "phone": "+1-360-514-2000", "website": "https://www.peacehealth.org/southwest-medical-center", "wikidata": "Q7157279"}}, {"name": "Vibra Specialty Hospital of Portland", "latitude": 45.5357849, "longitude": -122.5567209, "source": "osm", "_tags": {"addr:city": "Portland", "addr:housenumber": "10300", "addr:postcode": "97220", "addr:state": "OR", "addr:street": "Northeast Hancock Street", "amenity": "hospital", "emergency": "no", "fax": "+1-503-257-5673", "healthcare": "hospital", "name": "Vibra Specialty Hospital of Portland", "phone": "+1-503-257-5500", "website": "https://vshportland.com/"}}, {"name": "Legacy Good Samaritan Medical Center", "latitude": 45.5301941, "longitude": -122.6965911, "source": "osm", "_tags": {"addr:city": "Portland", "addr:housenumber": "1015", "addr:postcode": "97210", "addr:state": "OR", "addr:street": "Northwest 22nd Avenue", "amenity": "hospital", "contact:phone": "+1 503 413 7711", "contact:website": "https://www.legacyhealth.org/doctors-and-locations/hospitals/legacy-good-samaritan-medical-center", "emergency": "yes", "healthcare": "hospital", "name": "Legacy Good Samaritan Medical Center", "opening_hours": "24/7", "operator": "Legacy Health", "operator:wikidata": "Q6517244", "operator:wikipedia": "en:Legacy Health", "type": "multipolygon", "wikidata": "Q6517242"}}, {"name": "", "latitude": 45.8544002, "longitude": -122.827304, "source": "osm", "_tags": {"addr:city": "Saint Helens", "addr:housenumber": "475", "addr:postcode": "97051", "addr:state": "OR", "addr:street": "South Columbia River Highway", "amenity": "hospital", "emergency": "no", "healthcare": "hospital", "type": "multipolygon", "wheelchair": "yes"}}, {"name": "Kaiser Permanente", "latitude": 45.5483977, "longitude": -122.6806247, "source": "osm", "_tags": {"amenity": "hospital", "emergency": "no", "healthcare": "hospital", "name": "Kaiser Permanente", "operator": "Kaiser Permanente", "operator:short": "KP", "operator:website": "https://healthy.kaiserpermanente.org/", "operator:wikidata": "Q1721601", "type": "multipolygon"}}, {"name": "Legacy Emanuel Medical Center", "latitude": 45.5438879, "longitude": -122.6692966, "source": "osm", "_tags": {"addr:city": "Portland", "addr:housenumber": "2801", "addr:postcode": "97227", "addr:street": "North Gantenbein Avenue", "amenity": "hospital", "emergency": "yes", "healthcare": "hospital", "name": "Legacy Emanuel Medical Center", "opening_hours": "24/7", "operator": "Legacy Health", "operator:wikidata": "Q6517244", "operator:wikipedia": "en:Legacy Health", "phone": "+1-503-413-2200", "type": "multipolygon", "website": "https://www.legacyhealth.org/", "wikidata": "Q6517238", "wikipedia": "en:Legacy Emanuel Medical Center"}}]