[{"name": "Montana State Hospital", "latitude": 46.1806046, "longitude": -112.793195, "source": "osm", "_tags": {"addr:city": "Warm Springs", "addr:postcode": "59425", "amenity": "hospital", "emergency": "no", "gnis:feature_id": "792839", "healthcare:speciality": "psychiatry", "name": "Montana State Hospital", "phone": "+1 406 693 7000", "website": "https://dphhs.mt.gov/amdd/MSH.aspx", "wikidata": "Q14704737", "wikipedia": "en:Montana State Hospital"}}, {"name": "St. James Hospital", "latitude": 46.0102586, "longitude": -112.5407819, "source": "osm", "_tags": {"amenity": "hospital", "healthcare": "hospital", "name": "St. James Hospital"}}, {"name": "Saint James Healthcare", "latitude": 46.0086463, "longitude": -112.544925, "source": "osm", "_tags": {"addr:city": "Butte", "addr:housenumber": "400", "addr:postcode": "59701", "addr:state": "MT", "addr:street": "South Clark Street", "amenity": "hospital", "emergency": "yes", "gnis:feature_id": "793814", "healthcare": "hospital", "helipad": "yes", "name": "Saint James Healthcare", "old_name": "Saint James Hospital", "opening_hours": "24/7", "phone": "+1 406 723 2500", "website": "https://www.sclhealth.org/locations/st-james-healthcare/"}}, {"name": "Deer Lodge Medical Center", "latitude": 46.4134638, "longitude": -112.7267138, "source": "osm", "_tags": {"addr:city": "Deer Lodge", "addr:housenumber": "1100", "addr:postcode": "59722", "addr:state": "MT", "addr:street": "Hollenbeck Lane", "amenity": "hospital", "emergency": "yes", "name": "Deer Lodge Medical Center", "opening_hours": "24/7", "phone": "+1 406 846 2212", "website": "https://www.dlmed.org/"}}]