[{"name": "Trios Women's and Children's Hospital", "latitude": 46.199171, "longitude": -119.1207655, "source": "osm", "_tags": {"addr:city": "Kennewick", "addr:housenumber": "900", "addr:postcode": "99336", "addr:state": "WA", "addr:street": "South Auburn Street", "amenity": "hospital", "emergency": "no", "healthcare": "hospital", "name": "Trios Women's and Children's Hospital", "old_name": "Kennewick General Hospital", "operator": "Trios Health", "phone": "+1-509-221-7000", "website": "https://www.trioshealth.org/"}}, {"name": "Lourdes Medical Center", "latitude": 46.2349121, "longitude": -119.09564, "source": "osm", "_tags": {"addr:city": "Pasco", "addr:housenumber": "420", "addr:postcode": "99301", "addr:state": "WA", "addr:street": "North 4th Avenue", "amenity": "hospital", "emergency": "yes", "healthcare": "hospital", "name": "Lourdes Medical Center", "opening_hours": "24/7", "operator": "Lourdes Health", "phone": "+1-509-547-7704", "website": "https://www.yourlourdes.com/"}}, {"name": "Trios Southridge Hospital", "latitude": 46.1780635, "longitude": -119.1916102, "source": "osm", "_tags": {"addr:city": "Kennewick", "addr:housenumber": "3810", "addr:postcode": "99336", "addr:state": "WA", "addr:street": "Plaza Way", "amenity": "hospital", "emergency": "yes", "healthcare": "hospital", "name": "Trios Southridge Hospital", "opening_hours": "24/7", "operator": "Trios Health", "phone": "+1-509-221-7000", "website": "https://www.trioshealth.org/"}}, {"name": "Good Shepherd Medical Center", "latitude": 45.847779, "longitude": -119.3082964, "source": "osm", "_tags": {"addr:city": "Hermiston", "addr:housenumber": "610", "addr:postcode": "97838", "addr:street": "Northwest 11th Street", "amenity": "hospital", "emergency": "yes", "gnis:feature_id": "1167887", "healthcare": "hospital", "name": "Good Shepherd Medical Center", "opening_hours": "24/7", "phone": "+1 541 667 3400", "website": "https://www.gshealth.org/"}}, {"name": "Kadlec Regional Medical Center", "latitude": 46.2816428, "longitude": -119.2819115, "source": "osm", "_tags": {"addr:city": "Richland", "addr:housenumber": "888", "addr:postcode": "99352", "addr:state": "WA", "addr:street": "Swift Boulevard", "amenity": "hospital", "emergency": "yes", "gnis:feature_id": "1513451", "healthcare": "hospital", "name": "Kadlec Regional Medical Center", "opening_hours": "24/7", "phone": "+1-509-946-4611", "website": "https://www.kadlec.org/"}}, {"name": "Kadlec Clinic", "latitude": 46.227486, "longitude": -119.2642466, "source": "osm", "_tags": {"addr:city": "Richland", "addr:housenumber": "560", "addr:postcode": "99352", "addr:state": "WA", "addr:street": "Gage Boulevard", "amenity": "hospital", "healthcare": "hospital", "name": "Kadlec Clinic"}}, {"name": "Lourdes Pediatrics", "latitude": 46.2796287, "longitude": -119.2209407, "source": "osm", "_tags": {"addr:city": "Pasco", "addr:housenumber": "9915", "addr:postcode": "99301", "addr:state": "WA", "addr:street": "Sandifur Parkway", "amenity": "hospital", "building": "hospital", "healthcare": "hospital", "name": "Lourdes Pediatrics"}}, {"name": "Northwest Stem Cell", "latitude": 46.2809724, "longitude": -119.2181829, "source": "osm", "_tags": {"addr:city": "Pasco", "addr:housenumber": "5908", "addr:postcode": "99301", "addr:state": "WA", "addr:street": "Bedford Street Suite A", "amenity": "hospital", "building": "hospital", "healthcare": "hospital", "healthcare:speciality": "stem_cell_therapy", "name": "Northwest Stem Cell"}}, {"name": "", "latitude": 46.2279833, "longitude": -119.263659, "source": "osm", "_tags": {"amenity": "hospital", "healthcare": "hospital"}}, {"name": "", "latitude": 46.2627643, "longitude": -119.3403976, "source": "osm", "_tags": {"amenity": "hospital", "healthcare": "hospital"}}, {"name": "Prosser Memorial Hospital", "latitude": 46.2080797, "longitude": -119.7637452, "source": "osm", "_tags": {"addr:city": "Prosser", "addr:housenumber": "723", "addr:postcode": "99350", "addr:state": "WA", "addr:street": "Memorial Street", "amenity": "hospital", "beds": "25", "emergency": "yes", "healthcare": "hospital", "name": "Prosser Memorial Hospital", "opening_hours": "24/7", "operator": "Prosser Memorial Health", "phone": "+1-509-786-2222", "type": "multipolygon", "website": "https://prosserhealth.org/"}}]