[{"name": "Central Washington Hospital", "latitude": 47.406359, "longitude": -120.3219187, "source": "osm", "_tags": {"addr:city": "Wenatchee", "addr:housenumber": "1201", "addr:postcode": "98801", "addr:street": "South Miller Street", "amenity": "hospital", "beds": "198", "emergency": "yes", "gnis:feature_id": "1525352", "healthcare": "hospital", "name": "Central Washington Hospital", "opening_hours": "24/7", "operator": "Confluence Health", "phone": "+1-509-662-1511", "website": "https://www.confluencehealth.org/locations/central-washington-hospital-clinics/"}}, {"name": "Wenatchee Valley Medical Center", "latitude": 47.4327584, "longitude": -120.3226899, "source": "osm", "_tags": {"addr:city": "Wenatchee", "addr:housenumber": "820", "addr:postcode": "98801", "addr:state": "WA", "addr:street": "North Chelan Avenue", "amenity": "hospital", "emergency": "no", "healthcare": "hospital", "name": "Wenatchee Valley Medical Center", "operator": "Confluence Health", "phone": "+1-509-663-8711", "website": "https://www.confluencehealth.org/locations/wenatchee-valley-hospital-clinics/", "wikidata": "Q30270663"}}, {"name": "Virginia Mason Memorial", "latitude": 46.5936064, "longitude": -120.5467663, "source": "osm", "_tags": {"addr:city": "Yakima", "addr:housenumber": "2811", "addr:postcode": "98902", "addr:state": "WA", "addr:street": "Tieton Drive", "amenity": "hospital", "emergency": "yes", "healthcare": "hospital", "name": "Virginia Mason Memorial", "old_name": "Yakima Valley Memorial Hospital", "opening_hours": "24/7", "operator": "Virginia Mason", "phone": "+1-509-575-8000", "website": "https://www.yakimamemorial.org/", "wikidata": "Q8047104", "wikipedia": "en:Yakima Valley Memorial Hospital"}}, {"name": "Kittitas Valley Community Hospital", "latitude": 46.9873738, "longitude": -120.5380557, "source": "osm", "_tags": {"addr:city": "Ellensburg", "addr:housenumber": "603", "addr:postcode": "98926", "addr:street": "South Chestnut Street", "amenity": "hospital", "emergency": "yes", "healthcare": "hospital", "name": "Kittitas Valley Community Hospital", "opening_hours": "24/7", "operator": "Kittitas Valley Healthcare", "phone": "+1-509-962-9841", "website": "https://www.kvhealthcare.org/"}}, {"name": "Yakima Regional Medical & Cardiac Center", "latitude": 46.5967003, "longitude": -120.5214584, "source": "osm", "_tags": {"addr:city": "Yakima", "addr:housenumber": "110", "addr:postcode": "98902", "addr:street": "South 9th Avenue", "amenity": "hospital", "beds": "214", "emergency": "yes", "healthcare": "hospital", "name": "Yakima Regional Medical & Cardiac Center", "old_name": "St. Elizabeth Medical Center", "opening_hours": "24/7", "phone": "+1-509-575-5000", "website": "http://www.yakimaregional.com/", "wikidata": "Q20047292", "wikipedia": "en:Yakima Regional Medical & Cardiac Center"}}, {"name": "Columbia Basin Health Association", "latitude": 46.7382964, "longitude": -119.8988553, "source": "osm", "_tags": {"addr:city": "Mattawa", "addr:housenumber": "611", "addr:postcode": "99349", "addr:state": "WA", "addr:street": "Government Road", "amenity": "clinic", "healthcare": "hospital", "healthcare:speciality": "dentistry;maternity;general", "name": "Columbia Basin Health Association"}}]