[{"name": "South Sound Behavioral Hospital", "latitude": 47.0426091, "longitude": -122.8279879, "source": "osm", "_tags": {"addr:city": "Lacey", "addr:housenumber": "605", "addr:postcode": "98503", "addr:state": "WA", "addr:street": "Woodland Square Loop", "amenity": "hospital", "beds": "108", "healthcare": "hospital", "healthcare:speciality": "psychiatry", "name": "South Sound Behavioral Hospital", "website": "https://www.southsoundbehavioralhospital.com"}}, {"name": "", "latitude": 47.2608215, "longitude": -122.4510826, "source": "osm", "_tags": {"amenity": "hospital", "healthcare": "hospital"}}, {"name": "MulticareLacey Emergency", "latitude": 47.0384143, "longitude": -122.8292603, "source": "osm", "_tags": {"amenity": "hospital", "healthcare": "hospital", "name": "MulticareLacey Emergency"}}, {"name": "MultiCare Indigo Urgent Care", "latitude": 47.2634918, "longitude": -122.4478876, "source": "osm", "_tags": {"amenity": "hospital", "healthcare": "hospital", "name": "MultiCare Indigo Urgent Care"}}, {"name": "St. Francis Hospital", "latitude": 47.2921913, "longitude": -122.3260475, "source": "osm", "_tags": {"addr:city": "Federal Way", "addr:housenumber": "34515", "addr:postcode": "98003", "addr:state": "WA", "addr:street": "9th Avenue South", "amenity": "hospital", "beds": "110", "emergency": "yes", "gnis:feature_id": "2462522", "healthcare": "hospital", "name": "St. Francis Hospital", "opening_hours": "24/7", "operator": "CHI Franciscan Health", "phone": "+1-253-835-8100", "website": "https://www.chifranciscan.org/st-francis-hospital.html", "wikidata": "Q7587972"}}, {"name": "Mary Bridge Children's Hospital", "latitude": 47.2587028, "longitude": -122.4528146, "source": "osm", "_tags": {"addr:city": "Tacoma", "addr:housenumber": "317", "addr:postcode": "98403", "addr:state": "WA", "addr:street": "Martin Luther King Jr Way", "amenity": "hospital", "beds": "72", "emergency": "yes", "gnis:feature_id": "2462519", "healthcare": "hospital", "name": "Mary Bridge Children's Hospital", "opening_hours": "24/7", "operator": "MultiCare Health System", "phone": "+1-253-403-1400", "website": "https://www.marybridge.org/", "wheelchair": "yes", "wikidata": "Q6934524", "wikipedia": "en:Mary Bridge Children's Hospital"}}, {"name": "Saint Joseph Medical Center", "latitude": 47.2455492, "longitude": -122.44808, "source": "osm", "_tags": {"addr:city": "Tacoma", "addr:housenumber": "1717", "addr:postcode": "98405", "addr:state": "WA", "addr:street": "South J Street", "amenity": "hospital", "beds": "374", "emergency": "yes", "healthcare": "hospital", "name": "Saint Joseph Medical Center", "opening_hours": "24/7", "operator": "CHI Franciscan Health", "phone": "+1-253-426-4101", "website": "https://www.chifranciscan.org/st-joseph-medical-center.html", "wheelchair": "yes", "wikidata": "Q7589340"}}, {"name": "MultiCare Allenmore Hospital", "latitude": 47.2417544, "longitude": -122.4794598, "source": "osm", "_tags": {"addr:city": "Tacoma", "addr:housenumber": "1901", "addr:postcode": "98405", "addr:state": "WA", "addr:street": "South Union Avenue", "alt_name": "Allenmore Hospital", "amenity": "hospital", "beds": "130", "emergency": "yes", "healthcare": "hospital", "healthcare:speciality": "orthopaedics;surgery", "name": "MultiCare Allenmore Hospital", "opening_hours": "24/7", "operator": "MultiCare Health System", "phone": "+1-253-459-6633", "website": "https://www.multicare.org/allenmore-hospital/"}}, {"name": "Saint Clare Hospital", "latitude": 47.1545617, "longitude": -122.5017704, "source": "osm", "_tags": {"addr:city": "Lakewood", "addr:housenumber": "11315", "addr:postcode": "98499", "addr:state": "WA", "addr:street": "Bridgeport Way Southwest", "amenity": "hospital", "beds": "106", "emergency": "yes", "gnis:feature_id": "2462521", "healthcare": "hospital", "name": "Saint Clare Hospital", "opening_hours": "24/7", "operator": "CHI Franciscan Health", "phone": "+1-253-985-1711", "website": "https://www.chifranciscan.org/st-clare-hospital.html", "wikidata": "Q7587611", "wikipedia": "en:St. Clare Hospital"}}, {"name": "Western State Hospital", "latitude": 47.1801438, "longitude": -122.563743, "source": "osm", "_tags": {"addr:city": "Lakewood", "addr:housenumber": "9601", "addr:postcode": "98498", "addr:state": "WA", "addr:street": "Steilacoom Boulevard", "amenity": "hospital", "emergency": "no", "gnis:feature_id": "1509437", "healthcare": "hospital", "healthcare:speciality": "psychiatry", "name": "Western State Hospital", "phone": "+1-253-582-8900", "website": "https://www.dshs.wa.gov/bha/division-state-hospitals/western-state-hospital", "wikidata": "Q7988334", "wikipedia": "en:Western State Hospital (Washington)"}}, {"name": "MultiCare Good Samaritan Hospital", "latitude": 47.1777591, "longitude": -122.2889164, "source": "osm", "_tags": {"addr:city": "Puyallup", "addr:housenumber": "401", "addr:postcode": "98372", "addr:state": "WA", "addr:street": "15th Avenue Southeast", "amenity": "hospital", "beds": "275", "emergency": "yes", "gnis:feature_id": "1505177", "healthcare": "hospital", "name": "MultiCare Good Samaritan Hospital", "opening_hours": "24/7", "operator": "MultiCare Health System", "phone": "+1-253-697-4000", "website": "https://www.multicare.org/good-samaritan-hospital/", "wikidata": "Q30254188"}}, {"name": "Madigan Army Medical Center", "latitude": 47.1091813, "longitude": -122.5521362, "source": "osm", "_tags": {"access": "private", "addr:city": "Tacoma", "addr:housenumber": "9040", "addr:postcode": "98431", "addr:state": "WA", "addr:street": "Jackson Avenue", "amenity": "hospital", "beds": "205", "emergency": "yes", "gnis:feature_id": "1506413", "healthcare": "hospital", "name": "Madigan Army Medical Center", "opening_hours": "24/7", "phone": "+1-253-968-1110", "website": "http://www.mamc.amedd.army.mil/", "wikidata": "Q6727718", "wikipedia": "en:Madigan Army Medical Center"}}, {"name": "American Lake VA Medical Center", "latitude": 47.135427, "longitude": -122.5749591, "source": "osm", "_tags": {"amenity": "hospital", "ele": "76", "emergency": "no", "gnis:feature_id": "1510195", "healthcare": "hospital", "name": "American Lake VA Medical Center"}}, {"name": "St. Anne Hospital", "latitude": 47.4574623, "longitude": -122.3424072, "source": "osm", "_tags": {"addr:city": "Burien", "addr:country": "US", "addr:housenumber": "16251", "addr:postcode": "98166", "addr:state": "WA", "addr:street": "Sylvester Road Southwest", "amenity": "hospital", "beds": "133", "emergency": "yes", "healthcare": "hospital", "name": "St. Anne Hospital", "old_name": "Highline Medical Center", "opening_hours": "24/7", "operator": "CHI Franciscan Health", "phone": "+1-206-244-9970", "website": "https://www.chifranciscan.org/st-anne-hospital.html"}}, {"name": "Saint Anthony Hospital", "latitude": 47.363995, "longitude": -122.6129639, "source": "osm", "_tags": {"addr:city": "Gig Harbor", "addr:housenumber": "11567", "addr:postcode": "98332", "addr:street": "Canterwood Boulevard Northwest", "amenity": "hospital", "beds": "80", "check_date": "2024-05-06", "emergency": "yes", "healthcare": "hospital", "name": "Saint Anthony Hospital", "opening_hours": "24/7", "operator": "CHI Franciscan Health", "phone": "+1-253-530-2000", "website": "https://www.chifranciscan.org/st-anthony-hospital.html", "wikidata": "Q7587097"}}, {"name": "MultiCare Tacoma General Hospital", "latitude": 47.2597119, "longitude": -122.4531204, "source": "osm", "_tags": {"addr:city": "Tacoma", "addr:housenumber": "315", "addr:postcode": "98403", "addr:state": "WA", "addr:street": "Martin Luther King Jr Way", "amenity": "hospital", "beds": "437", "emergency": "yes", "gnis:feature_id": "2462528", "healthcare": "hospital", "name": "MultiCare Tacoma General Hospital", "opening_hours": "24/7", "operator": "MultiCare Health System", "phone": "+1-253-403-1000", "website": "https://www.multicare.org/tacoma-general-hospital/", "wikidata": "Q6934525", "wikipedia": "en:MultiCare Tacoma General Hospital"}}, {"name": "Multicare Auburn Medical Center", "latitude": 47.3091395, "longitude": -122.2287729, "source": "osm", "_tags": {"addr:city": "Auburn", "addr:housenumber": "202", "addr:postcode": "98001", "addr:state": "WA", "addr:street": "North Division Street", "amenity": "hospital", "beds": "195", "emergency": "yes", "gnis:feature_id": "2461624", "healthcare": "hospital", "name": "Multicare Auburn Medical Center", "opening_hours": "24/7", "operator": "MultiCare Health System", "phone": "+1-253-833-7711", "website": "https://www.multicare.org/auburn-medical-center/"}}, {"name": "MultiCare Covington Medical Center", "latitude": 47.3593424, "longitude": -122.1037091, "source": "osm", "_tags": {"addr:city": "Covington", "addr:housenumber": "17700", "addr:postcode": "98042", "addr:state": "WA", "addr:street": "Southeast 272nd Street", "amenity": "hospital", "beds": "58", "emergency": "yes", "healthcare": "hospital", "name": "MultiCare Covington Medical Center", "opening_hours": "24/7", "operator": "MultiCare Health System", "phone": "+1-253-372-7100", "website": "https://www.multicare.org/multicare-covington-medical-center/"}}, {"name": "Arbor Health Morton Hospital", "latitude": 46.5553381, "longitude": -122.280107, "source": "osm", "_tags": {"addr:city": "Morton", "addr:housenumber": "521", "addr:postcode": "98356", "addr:street": "Adams Avenue", "amenity": "hospital", "emergency": "yes", "healthcare": "hospital", "name": "Arbor Health Morton Hospital", "opening_hours": "24/7", "phone": "+1-360-496-5112", "website": "http://www.mortongeneral.org/"}}, {"name": "Valley Medical Center", "latitude": 47.4434502, "longitude": -122.2138148, "source": "osm", "_tags": {"addr:city": "Renton", "addr:housenumber": "400", "addr:postcode": "98055", "addr:state": "WA", "addr:street": "South 43rd Street", "amenity": "hospital", "beds": "303", "emergency": "yes", "gnis:feature_id": "2462541", "healthcare": "hospital", "name": "Valley Medical Center", "opening_hours": "24/7", "phone": "+1-425-228-3450", "website": "https://www.valleymed.org/"}}, {"name": "Snoqualmie Valley Hospital", "latitude": 47.51272, "longitude": -121.8855547, "source": "osm", "_tags": {"addr:city": "Snoqualmie", "addr:housenumber": "9801", "addr:postcode": "98065", "addr:state": "WA", "addr:street": "Frontier Avenue Southeast", "amenity": "hospital", "beds": "25", "emergency": "yes", "healthcare": "hospital", "name": "Snoqualmie Valley Hospital", "opening_hours": "24/7", "phone": "+1-425-831-2300", "website": "https://snoqualmiehospital.org/"}}, {"name": "Cascade Behavioral Health", "latitude": 47.487416, "longitude": -122.2957506, "source": "osm", "_tags": {"addr:city": "Tukwila", "addr:housenumber": "12844", "addr:postcode": "98168", "addr:state": "WA", "addr:street": "Military Road South", "amenity": "hospital", "emergency": "no", "gnis:feature_id": "1510105", "healthcare": "hospital", "healthcare:speciality": "psychiatry", "name": "Cascade Behavioral Health", "old_name": "Highline Medical Center", "phone": "+1-206-244-0180", "website": "https://www.cascadebh.com/"}}, {"name": "Schick Shadel Hospital", "latitude": 47.4945774, "longitude": -122.3506862, "source": "osm", "_tags": {"addr:city": "Seattle", "addr:country": "US", "addr:housenumber": "12101", "addr:postcode": "98146", "addr:state": "WA", "addr:street": "Ambaum Boulevard Southwest", "amenity": "hospital", "emergency": "no", "gnis:feature_id": "2462525", "healthcare": "hospital", "name": "Schick Shadel Hospital", "phone": "+1-206-966-6273", "website": "https://www.schickshadel.com/"}}, {"name": "Providence St. Peter Hospital", "latitude": 47.0526226, "longitude": -122.8478334, "source": "osm", "_tags": {"addr:city": "Olympia", "addr:housenumber": "413", "addr:postcode": "98506", "addr:state": "WA", "addr:street": "Lilly Road Northeast", "amenity": "hospital", "beds": "390", "emergency": "yes", "healthcare": "hospital", "name": "Providence St. Peter Hospital", "old_name": "St. Peter Hospital", "opening_hours": "24/7", "operator": "Providence Health & Services", "operator:wikidata": "Q7252430", "operator:wikipedia": "en:Providence Health & Services", "phone": "+1-360-491-9480", "website": "https://washington.providence.org/hospitals/st-peter/", "wikidata": "Q7252481", "wikipedia": "en:Providence St. Peter Hospital"}}, {"name": "St. Elizabeth Hospital", "latitude": 47.2089444, "longitude": -121.9883787, "source": "osm", "_tags": {"addr:city": "Enumclaw", "addr:housenumber": "1455", "addr:postcode": "98022", "addr:state": "WA", "addr:street": "Battersby Avenue", "amenity": "hospital", "beds": "38", "emergency": "yes", "gnis:feature_id": "2461626", "healthcare": "hospital", "name": "St. Elizabeth Hospital", "opening_hours": "24/7", "operator": "CHI Franciscan Health", "phone": "+1-360-802-8800", "website": "https://www.chifranciscan.org/st-elizabeth-hospital.html", "wikidata": "Q7587851"}}, {"name": "CHI Franciscan Health", "latitude": 47.5224459, "longitude": -122.6562969, "source": "osm", "_tags": {"amenity": "hospital", "healthcare": "hospital", "name": "CHI Franciscan Health"}}, {"name": "Providence Lacey Immediate Care", "latitude": 47.0042551, "longitude": -122.8219261, "source": "osm", "_tags": {"addr:city": "Lacey", "addr:housenumber": "4800", "addr:postcode": "98503", "addr:state": "WA", "addr:street": "College Street Southeast", "amenity": "hospital", "building": "yes", "healthcare": "hospital", "healthcare:speciality": "community", "name": "Providence Lacey Immediate Care", "source": "esri_USDOT_ThurstonWA"}}]