[{"name": "Capital Oncology", "latitude": 46.6406101, "longitude": -122.9413845, "source": "osm", "_tags": {"addr:city": "Chehalis", "addr:housenumber": "1201", "addr:postcode": "98532", "addr:state": "WA", "addr:street": "Bishop Road", "amenity": "hospital", "emergency": "yes", "healthcare": "hospital", "healthcare:speciality": "oncology", "name": "Capital Oncology"}}, {"name": "VA Medical Center", "latitude": 46.6873697, "longitude": -122.9580516, "source": "osm", "_tags": {"amenity": "hospital", "healthcare": "hospital", "healthcare:for": "veterans", "name": "VA Medical Center", "operator": "Veterans Health Administration", "operator:short": "VA", "operator:wikidata": "Q6580225", "operator:wikipedia": "en:Veterans Health Administration", "short_name": "VA"}}, {"name": "Harbor Crest Behavioral Health", "latitude": 46.9811017, "longitude": -123.820699, "source": "osm", "_tags": {"addr:city": "Aberdeen", "addr:housenumber": "1006", "addr:postcode": "98520", "addr:state": "WA", "addr:street": "North H Street", "amenity": "hospital", "emergency": "no", "healthcare": "psychotherapist", "healthcare:speciality": "behavior", "name": "Harbor Crest Behavioral Health", "operator": "Harbor Regional Health", "operator:type": "public"}}, {"name": "Mason General Hospital", "latitude": 47.2255539, "longitude": -123.1143942, "source": "osm", "_tags": {"addr:city": "Shelton", "addr:housenumber": "901", "addr:postcode": "98584", "addr:street": "Mountain View Drive", "amenity": "hospital", "beds": "25", "emergency": "yes", "gnis:feature_id": "1528869", "healthcare": "hospital", "name": "Mason General Hospital", "opening_hours": "24/7", "phone": "+1-360-426-1611", "website": "https://www.masongeneral.com/"}}, {"name": "Providence Centralia Hospital", "latitude": 46.7124886, "longitude": -122.9855669, "source": "osm", "_tags": {"addr:city": "Centralia", "addr:housenumber": "914", "addr:postcode": "98331", "addr:street": "South Scheuber Road", "amenity": "hospital", "beds": "127", "emergency": "yes", "gnis:feature_id": "1514368", "healthcare": "hospital", "name": "Providence Centralia Hospital", "old_name": "Centralia General Hospital", "opening_hours": "24/7", "operator": "Providence Health & Services", "operator:wikidata": "Q7252430", "phone": "+1-360-736-2803", "website": "https://washington.providence.org/hospitals/centralia-hospital/"}}, {"name": "Willapa Harbor Hospital", "latitude": 46.6627375, "longitude": -123.8124899, "source": "osm", "_tags": {"addr:city": "South Bend", "addr:housenumber": "800", "addr:postcode": "98586", "addr:state": "WA", "addr:street": "Alder Street", "amenity": "hospital", "beds": "10", "emergency": "yes", "healthcare": "hospital", "healthcare:speciality": "emergency;cardiology;diabetology;radiology", "name": "Willapa Harbor Hospital", "opening_hours": "24/7", "operator": "Pacific County Hospital District #2", "operator:type": "public", "phone": "+1-360-875-5526", "website": "https://www.willapaharborhospital.com/"}}, {"name": "Harbor Regional Health Community Hospital", "latitude": 46.979421, "longitude": -123.8463296, "source": "osm", "_tags": {"addr:city": "Aberdeen", "addr:housenumber": "915", "addr:postcode": "98520", "addr:street": "Anderson Drive", "amenity": "hospital", "emergency": "yes", "gnis:feature_id": "1514191", "healthcare": "hospital", "healthcare:speciality": "gynaecology;emergency;intensive;surgery", "name": "Harbor Regional Health Community Hospital", "opening_hours": "24/7", "phone": "+1-360-532-8330", "website": "https://www.ghcares.org/", "wikidata": "Q98609845"}}, {"name": "Summit Pacific Medical Center", "latitude": 47.0074072, "longitude": -123.3921771, "source": "osm", "_tags": {"addr:city": "Elma", "addr:housenumber": "600", "addr:postcode": "98541", "addr:street": "East Main Street", "amenity": "hospital", "beds": "11", "contact:facebook": "https://www.facebook.com/141562612709914", "email": "info@sp-mc.org", "emergency": "yes", "healthcare": "hospital", "name": "Summit Pacific Medical Center", "opening_hours": "24/7", "phone": "+1-360-346-2222", "website": "https://summitpacificmedicalcenter.org/"}}, {"name": "Capital Medical Center", "latitude": 47.0434107, "longitude": -122.9514691, "source": "osm", "_tags": {"addr:city": "Olympia", "addr:housenumber": "3900", "addr:postcode": "98502", "addr:state": "WA", "addr:street": "Capital Mall Drive Southwest", "amenity": "hospital", "beds": "110", "emergency": "yes", "healthcare": "hospital", "name": "Capital Medical Center", "opening_hours": "24/7", "phone": "+1-360-754-5858", "website": "https://www.capitalmedical.com/"}}, {"name": "Harbor Regional Health East Campus", "latitude": 46.9812979, "longitude": -123.8203568, "source": "osm", "_tags": {"amenity": "hospital", "healthcare": "hospital", "name": "Harbor Regional Health East Campus", "operator": "Grays Harbor Hospital District #2"}}]