[{"name": "Royal Jubilee Hospital", "latitude": 48.4324503, "longitude": -123.3269499, "source": "osm", "_tags": {"addr:city": "Victoria", "addr:housenumber": "1952", "addr:province": "BC", "addr:street": "Bay Street", "amenity": "hospital", "emergency": "yes", "healthcare": "hospital", "name": "Royal Jubilee Hospital", "phone": "+1-250-370-8000", "toilets:wheelchair": "yes", "website": "https://www.islandhealth.ca/our-locations/hospitals-health-centre-locations/royal-jubilee-hospital-rjh", "wheelchair": "yes", "wikidata": "Q7374361", "wikipedia": "en:Royal Jubilee Hospital"}}, {"name": "Olympic Medical Center", "latitude": 48.1154183, "longitude": -123.4146344, "source": "osm", "_tags": {"addr:city": "Port Angeles", "addr:housenumber": "939", "addr:postcode": "98362", "addr:state": "WA", "addr:street": "Caroline Street", "amenity": "hospital", "beds": "67", "emergency": "yes", "healthcare": "hospital", "name": "Olympic Medical Center", "opening_hours": "24/7", "phone": "+1-360-417-7000", "website": "https://www.olympicmedical.org/", "wikidata": "Q7089097", "wikipedia": "en:Olympic Medical Center"}}, {"name": "PeaceHealth Peace Island Medical Center", "latitude": 48.5266732, "longitude": -123.029941, "source": "osm", "_tags": {"addr:city": "Friday Harbor", "addr:housenumber": "1117", "addr:postcode": "98250", "addr:street": "Spring Street", "amenity": "hospital", "emergency": "yes", "healthcare": "hospital", "name": "PeaceHealth Peace Island Medical Center", "opening_hours": "24/7", "operator": "PeaceHealth", "operator:wikidata": "Q16966652", "phone": "+1-360-378-2141", "website": "https://www.peacehealth.org/peace-island-medical-center"}}, {"name": "Victoria General Hospital", "latitude": 48.4665748, "longitude": -123.4323111, "source": "osm", "_tags": {"addr:housenumber": "1", "addr:postcode": "V8Z 6R5", "addr:street": "Hospital Way", "amenity": "hospital", "emergency": "yes", "healthcare": "hospital", "name": "Victoria General Hospital", "operator": "Island Health", "operator:type": "public", "phone": "+1-250-727-4212", "website": "https://www.islandhealth.ca/our-locations/hospitals-health-centre-locations/victoria-general-hospital-vgh", "wikidata": "Q7926728", "wikipedia": "en:Victoria General Hospital"}}, {"name": "Base Hospital", "latitude": 48.4382755, "longitude": -123.4157551, "source": "osm", "_tags": {"amenity": "hospital", "healthcare": "hospital", "name": "Base Hospital", "type": "multipolygon"}}]