[{"name": "Shriners Hospitals for Children Spokane", "latitude": 47.6508731, "longitude": -117.4256875, "source": "osm", "_tags": {"addr:city": "Spokane", "addr:housenumber": "911", "addr:postcode": "99204", "addr:state": "WA", "addr:street": "West 5th Avenue", "amenity": "hospital", "emergency": "no", "healthcare": "hospital", "healthcare:speciality": "paediatrics", "name": "Shriners Hospitals for Children Spokane", "operator": "Shriners Hospitals for Children", "operator:type": "ngo", "operator:wikidata": "Q7504109", "operator:wikipedia": "en:Shriners Hospitals for Children", "phone": "+1-509-455-7844", "website": "https://www.shrinershospitalsforchildren.org/locations/spokane", "wikidata": "Q30282041"}}, {"name": "Mann-Grandstaff VA Medical Center", "latitude": 47.7026595, "longitude": -117.4780616, "source": "osm", "_tags": {"addr:city": "Spokane", "addr:housenumber": "4815", "addr:postcode": "99205", "addr:state": "WA", "addr:street": "North Assembly Street", "amenity": "hospital", "emergency": "no", "healthcare": "hospital", "healthcare:for": "veteran", "name": "Mann-Grandstaff VA Medical Center", "opening_hours": "08:00-18:00", "operator": "Veterans Health Administration", "operator:short": "VA", "operator:wikidata": "Q6580225", "phone": "+1-509-434-7000", "short_name": "VA", "website": "https://www.spokane.va.gov/"}}, {"name": "Valley Hospital", "latitude": 47.6702355, "longitude": -117.2356764, "source": "osm", "_tags": {"addr:city": "Spokane Valley", "addr:housenumber": "12606", "addr:postcode": "99216", "addr:state": "WA", "addr:street": "East Mission Avenue", "amenity": "hospital", "beds": "123", "emergency": "yes", "gnis:feature_id": "1508608", "healthcare": "hospital", "name": "Valley Hospital", "old_name": "Spokane Valley Hospital", "opening_hours": "24/7", "operator": "Rockwood Health System", "phone": "+1-509-924-6650", "website": "https://www.spokanevalleyhospital.com/"}}, {"name": "Providence Holy Family Hospital", "latitude": 47.7097047, "longitude": -117.4059166, "source": "osm", "_tags": {"addr:city": "Spokane", "addr:housenumber": "5633", "addr:postcode": "99208", "addr:state": "WA", "addr:street": "North Lidgerwood Street", "amenity": "hospital", "emergency": "yes", "healthcare": "hospital", "name": "Providence Holy Family Hospital", "opening_hours": "24/7", "operator": "Providence Health & Services", "operator:type": "private", "operator:wikidata": "Q7252430", "operator:wikipedia": "en:Providence Health & Services", "phone": "+1-509-482-0111", "website": "https://washington.providence.org/hospitals/holy-family-hospital/"}}, {"name": "Eastern State Hospital", "latitude": 47.570724, "longitude": -117.6978834, "source": "osm", "_tags": {"addr:city": "Medical Lake", "addr:postcode": "99022", "addr:street": "Maple Street", "amenity": "hospital", "beds": "287", "emergency": "no", "gnis:feature_id": "1504662", "healthcare": "hospital", "healthcare:speciality": "psychiatry", "name": "Eastern State Hospital", "phone": "+1-509-565-4000", "website": "https://www.dshs.wa.gov/bha/division-state-hospitals/eastern-state-hospital-overview", "wikidata": "Q5330493", "wikipedia": "en:Eastern State Hospital (Washington)"}}, {"name": "Newport Hospital & Health Services", "latitude": 48.1823111, "longitude": -117.0491123, "source": "osm", "_tags": {"addr:city": "Newport", "addr:housenumber": "714", "addr:postcode": "99156", "addr:street": "West Pine Street", "amenity": "hospital", "emergency": "yes", "healthcare": "hospital", "name": "Newport Hospital & Health Services", "old_name": "Newport Community Hospital", "opening_hours": "24/7", "operator": "Pend Oreille County Public Hospital District #1", "phone": "+1-509-447-2441", "website": "https://newporthospitalandhealth.org/"}}, {"name": "Providence Saint Joseph's Hospital", "latitude": 48.2776394, "longitude": -117.7106042, "source": "osm", "_tags": {"addr:city": "Chewelah", "addr:housenumber": "500", "addr:postcode": "99109", "addr:street": "East Webster Avenue", "amenity": "hospital", "emergency": "yes", "gnis:feature_id": "1530413", "healthcare": "hospital", "name": "Providence Saint Joseph's Hospital", "old_name": "Saint Joseph's Hospital", "opening_hours": "24/7", "operator": "Providence Health & Services", "operator:type": "private", "operator:wikidata": "Q7252430", "phone": "+1-509-935-8211", "website": "https://washington.providence.org/hospitals/st-josephs-hospital/"}}, {"name": "Inland Northwest Behavioral Health", "latitude": 47.651968, "longitude": -117.4141708, "source": "osm", "_tags": {"amenity": "hospital", "healthcare": "hospital", "name": "Inland Northwest Behavioral Health"}}, {"name": "", "latitude": 47.7132082, "longitude": -116.9031155, "source": "osm", "_tags": {"amenity": "hospital", "healthcare": "hospital"}}, {"name": "Kootenai Clinic Post Falls", "latitude": 47.7153433, "longitude": -116.9285584, "source": "osm", "_tags": {"amenity": "hospital", "healthcare": "hospital", "name": "Kootenai Clinic Post Falls", "operator": "Kooteani Health"}}, {"name": "Healing Lodge of the Seven Nations", "latitude": 47.6476209, "longitude": -117.32906, "source": "osm", "_tags": {"addr:city": "Spokane Valley", "addr:housenumber": "5600", "addr:street": "East 8th Avenue", "amenity": "hospital", "emergency": "no", "healthcare": "hospital", "healthcare:speciality": "community;homeopathy;herbalism", "name": "Healing Lodge of the Seven Nations", "website": "https://healinglodge.org"}}, {"name": "Providence Sacred Heart Medical Center and Children's Hospital", "latitude": 47.6485833, "longitude": -117.4124365, "source": "osm", "_tags": {"addr:city": "Spokane", "addr:housenumber": "101", "addr:postcode": "99204", "addr:state": "WA", "addr:street": "West 8th Avenue", "amenity": "hospital", "capacity": "628", "emergency": "yes", "healthcare": "hospital", "name": "Providence Sacred Heart Medical Center and Children's Hospital", "opening_hours": "24/7", "operator": "Providence Health & Services", "operator:type": "private", "operator:wikidata": "Q7252430", "operator:wikipedia": "en:Providence Health & Services", "phone": "+1-509-474-3131", "type": "multipolygon", "website": "https://washington.providence.org/hospitals/sacred-heart-medical-center-and-childrens-hospital/", "wheelchair": "yes", "wikidata": "Q7252476", "wikipedia": "en:Providence Sacred Heart Medical Center and Children's Hospital"}}, {"name": "St. Lukes Rehabilitation Institute", "latitude": 47.6500362, "longitude": -117.4063339, "source": "osm", "_tags": {"addr:city": "Spokane", "addr:housenumber": "711", "addr:postcode": "99202", "addr:state": "WA", "addr:street": "South Cowley Street", "amenity": "hospital", "healthcare": "hospital", "healthcare:speciality": "rehabilitation;occupational_therapy", "name": "St. Lukes Rehabilitation Institute", "phone": "+1-509-473-6000", "type": "multipolygon", "website": "https://www.st-lukes.org/"}}, {"name": "MultiCare Deaconess Hospital", "latitude": 47.6513966, "longitude": -117.4252967, "source": "osm", "_tags": {"addr:city": "Spokane", "addr:housenumber": "800", "addr:postcode": "99204", "addr:street": "West 5th Avenue", "amenity": "hospital", "beds": "388", "emergency": "yes", "healthcare": "hospital", "name": "MultiCare Deaconess Hospital", "opening_hours": "24/7", "operator": "MultiCare Health System", "phone": "+1-509-473-5800", "type": "multipolygon", "website": "http://www.deaconessspokane.com/", "wikidata": "Q5245052"}}, {"name": "Northwest Specialty Hospital Medical Park", "latitude": 47.7161116, "longitude": -116.9239475, "source": "osm", "_tags": {"addr:city": "Post Falls", "addr:housenumber": "1593", "addr:postcode": "83854", "addr:state": "ID", "addr:street": "East Polston Avenue", "amenity": "hospital", "beds": "34", "emergency": "no", "healthcare": "hospital", "healthcare:speciality": "surgery", "name": "Northwest Specialty Hospital Medical Park", "operator": "Northwest Specialty Hospital", "operator:type": "private_for_profit", "phone": "+1 208 262 2300", "type": "multipolygon", "website": "https://www.northwestspecialtyhospital.com/"}}]