[{"name": "Navos West Seattle Campus", "latitude": 47.534445, "longitude": -122.366224, "source": "osm", "_tags": {"addr:city": "Seattle", "addr:housenumber": "2600", "addr:postcode": "98126", "addr:state": "WA", "addr:street": "Southwest Holden Street", "amenity": "hospital", "emergency": "no", "gnis:feature_id": "2462543", "healthcare": "hospital", "healthcare:speciality": "psychiatry", "name": "Navos West Seattle Campus", "old_name": "West Seattle Psychiatric Hospital", "operator": "Navos Mental Health Solutions", "phone": "+1-206-933-7000", "website": "https://www.navos.org/"}}, {"name": "Kaiser Permanente Redmond Medical Center at Riverpark", "latitude": 47.6732863, "longitude": -122.129091, "source": "osm", "_tags": {"amenity": "hospital", "emergency": "no", "healthcare": "hospital", "name": "Kaiser Permanente Redmond Medical Center at Riverpark", "operator": "Kaiser Permanente", "operator:short": "KP", "operator:website": "https://healthy.kaiserpermanente.org/", "operator:wikidata": "Q1721601", "operator:wikipedia": "en:Kaiser Permanente", "phone": "+1-888-901-4636"}}, {"name": "The Everett Clinic", "latitude": 47.976643, "longitude": -122.2125408, "source": "osm", "_tags": {"amenity": "hospital", "healthcare": "hospital", "name": "The Everett Clinic"}}, {"name": "The Seattle Facial Plastic Surgery Center", "latitude": 47.6091703, "longitude": -122.3242052, "source": "osm", "_tags": {"addr:city": "Seattle", "addr:housenumber": "1101", "addr:postcode": "98104", "addr:state": "WA", "addr:street": "Marion Street", "amenity": "hospital", "healthcare": "hospital", "healthcare:speciality": "plastic_surgery;surgery", "name": "The Seattle Facial Plastic Surgery Center", "operator": "Dr William Portuese", "operator:type": "business"}}, {"name": "Adult Family Home", "latitude": 47.8106266, "longitude": -122.2734904, "source": "osm", "_tags": {"addr:city": "Lynnwood", "addr:housenumber": "20708", "addr:postcode": "98036", "addr:state": "WA", "addr:street": "29th Place West", "amenity": "social_facility", "healthcare": "hospital", "name": "Adult Family Home"}}, {"name": "Fred Hutch Cancer Center - Proton Therapy", "latitude": 47.7129304, "longitude": -122.3364351, "source": "osm", "_tags": {"healthcare": "hospital", "healthcare:speciality": "radiotherapy", "man_made": "particle_accelerator", "name": "Fred Hutch Cancer Center - Proton Therapy", "particle_accelerator": "circular", "substance": "proton", "website": "https://www.fredhutch.org/en/patient-care/treatments/proton-therapy.html"}}, {"name": "Evergreen Endodontics - Tooth Pain & Dental Emergency Specialists", "latitude": 47.5430118, "longitude": -122.0450729, "source": "osm", "_tags": {"addr:city": "Issaquah", "addr:housenumber": "600", "addr:postcode": "98027", "addr:state": "WA", "addr:street": "Northwest Gilman Boulevard", "addr:unit": "A", "amenity": "hospital", "contact:facebook": "https://www.facebook.com/evergreen.endo/", "description": "We specialize in resolving your Tooth Pain, Aches and Infections through root canals, retreatments, endodontic microsurgery and endodontist treatments in a calm and relaxing state-of-the-art environment.", "email": "info@EvergreenEndo.com", "emergency": "yes", "fax": "+1-425-697-9778", "healthcare": "hospital", "healthcare:speciality": "dentist;endodontics;dental_oral_maxillo_facial_surgery;root_canal", "internet_access": "wlan", "name": "Evergreen Endodontics - Tooth Pain & Dental Emergency Specialists", "opening_hours": "Mo-Fr 07:30-17:00", "operator": "Dr. Nima Dejbod", "operator:type": "business", "payment:american_express": "yes", "payment:apple_pay": "yes", "payment:cash": "yes", "payment:contactless": "yes", "payment:credit_cards": "yes", "payment:debit_cards": "yes", "payment:discover_card": "yes", "payment:mastercard": "yes", "payment:paypal": "yes", "payment:visa": "yes", "payment:visa_debit": "yes", "phone": "+1-425-697-9777", "website": "https://www.evergreenendo.com", "wheelchair": "yes"}}, {"name": "University of Washington Medical Center - Northwest", "latitude": 47.7141308, "longitude": -122.3371229, "source": "osm", "_tags": {"addr:city": "Seattle", "alt_name": "UW Medical Center - Northwest", "amenity": "hospital", "beds": "231", "ele": "121", "emergency": "yes", "gnis:feature_id": "1509819", "healthcare": "hospital", "name": "University of Washington Medical Center - Northwest", "old_name": "Northwest Hospital & Medical Center", "operator": "UW Medicine", "website": "https://www.uwmedicine.org/locations/northwest-hospital", "wikidata": "Q7060076"}}, {"name": "Providence Regional Medical Center", "latitude": 47.9751421, "longitude": -122.2172556, "source": "osm", "_tags": {"addr:city": "Everett", "addr:housenumber": "916", "addr:postcode": "98201", "addr:state": "WA", "addr:street": "Pacific Avenue", "amenity": "hospital", "emergency": "no", "gnis:feature_id": "1507648", "healthcare": "hospital", "name": "Providence Regional Medical Center", "old_name": "Providence Hospital", "operator": "Providence Health & Services", "operator:wikidata": "Q7252430", "phone": "+1-425-261-2000", "website": "https://washington.providence.org/hospitals/regional-medical-center/"}}, {"name": "Naval Hospital Bremerton", "latitude": 47.5942166, "longitude": -122.6900821, "source": "osm", "_tags": {"addr:city": "Bremerton", "addr:housenumber": "1", "addr:postcode": "98312-1898", "addr:state": "WA", "addr:street": "Boone Road", "amenity": "hospital", "beds": "40", "ele": "18", "gnis:feature_id": "2512335", "healthcare": "hospital", "landuse": "military", "name": "Naval Hospital Bremerton", "phone": "+1-360-475-4000", "source_ref": "geonames.usgs.gov", "website": "https://bremerton.tricare.mil"}}, {"name": "VA Medical Center - Seattle", "latitude": 47.5630065, "longitude": -122.3082632, "source": "osm", "_tags": {"access": "private", "addr:city": "Seattle", "addr:housenumber": "1660", "addr:postcode": "98108", "addr:state": "WA", "addr:street": "South Columbian Way", "alt_name": "VA Puget Sound Health Care System Seattle Division", "amenity": "hospital", "beds": "429", "brand": "VA", "brand:wikidata": "Q6580225", "emergency": "yes", "healthcare": "hospital", "healthcare:for": "veteran", "name": "VA Medical Center - Seattle", "opening_hours": "24/7", "operator": "Veterans Health Administration", "operator:short": "VA", "operator:type": "government", "operator:wikidata": "Q6580225", "phone": "+1-206-762-1010", "short_name": "VA", "website": "https://www.pugetsound.va.gov/"}}, {"name": "Swedish Hospital", "latitude": 47.6764005, "longitude": -122.0991002, "source": "osm", "_tags": {"addr:city": "Redmond", "addr:housenumber": "18100", "addr:postcode": "98052", "addr:state": "WA", "addr:street": "Northeast Union Hill Road", "amenity": "hospital", "beds": "18", "building": "yes", "emergency": "yes", "healthcare": "hospital", "name": "Swedish Hospital", "opening_hours": "24/7", "operator": "Swedish Medical Center", "phone": "+1-206-320-5190", "website": "https://www.swedish.org/locations/redmond-campus"}}, {"name": "Eastgate Public Health Center", "latitude": 47.5812847, "longitude": -122.1498082, "source": "osm", "_tags": {"addr:city": "Bellevue", "addr:housenumber": "14350", "addr:postcode": "98007", "addr:street": "Southeast Eastgate Way", "amenity": "hospital", "building": "hospital", "emergency": "no", "healthcare": "hospital", "name": "Eastgate Public Health Center", "source": "http://www.kingcounty.gov/healthservices/health/locations/eastgate.aspx"}}, {"name": "Providence Regional Medical Center Everett", "latitude": 48.000619, "longitude": -122.2055759, "source": "osm", "_tags": {"addr:city": "Everett", "addr:housenumber": "1700", "addr:postcode": "98201", "addr:state": "WA", "addr:street": "13th Street", "amenity": "hospital", "beds": "468", "emergency": "yes", "healthcare": "hospital", "name": "Providence Regional Medical Center Everett", "old_name": "Providence Hospital", "opening_hours": "24/7", "operator": "Providence Health & Services", "phone": "+1-425-261-2000", "website": "https://washington.providence.org/hospitals/regional-medical-center/", "wikidata": "Q7252468", "wikipedia": "en:Providence Regional Medical Center Everett"}}, {"name": "University of Washington Medical Center - Montlake", "latitude": 47.6494128, "longitude": -122.3075239, "source": "osm", "_tags": {"addr:city": "Seattle", "addr:housenumber": "1959", "addr:postcode": "98195", "addr:street": "Northeast Pacific Street", "alt_name": "UW Medical Center - Montlake", "amenity": "hospital", "beds": "450", "building": "hospital", "emergency": "yes", "healthcare": "hospital", "name": "University of Washington Medical Center - Montlake", "opening_hours": "24/7", "operator": "UW Medicine", "phone": "+1-206-598-3300", "website": "https://www.uwmedicine.org/uw-medical-center", "wikidata": "Q7896576", "wikimedia_commons": "Category:University of Washington Medical Center", "wikipedia": "en:University of Washington Medical Center"}}, {"name": "Swedish Medical Center Ballard Campus", "latitude": 47.6675911, "longitude": -122.3802398, "source": "osm", "_tags": {"addr:city": "Seattle", "addr:housenumber": "5300", "addr:postcode": "98107", "addr:state": "WA", "addr:street": "Tallman Avenue Northwest", "amenity": "hospital", "beds": "163", "emergency": "yes", "healthcare": "hospital", "name": "Swedish Medical Center Ballard Campus", "opening_hours": "24/7", "operator": "Swedish Medical Center", "phone": "+1-206-782-2700", "website": "https://www.swedish.org/locations/ballard-campus"}}, {"name": "Kaiser Permanente Capitol Hill Campus", "latitude": 47.6199564, "longitude": -122.3120786, "source": "osm", "_tags": {"addr:city": "Seattle", "addr:housenumber": "201", "addr:postcode": "98112", "addr:state": "WA", "addr:street": "16th Avenue East", "amenity": "hospital", "check_date": "2024-06-25", "emergency": "no", "healthcare": "hospital", "name": "Kaiser Permanente Capitol Hill Campus", "operator": "Kaiser Permanente", "operator:short": "KP", "operator:website": "https://healthy.kaiserpermanente.org/", "operator:wikidata": "Q1721601", "operator:wikipedia": "en:Kaiser Permanente", "source": "King County GIS;data.seattle.gov"}}, {"name": "Virginia Mason Hospital & Seattle Medical Center", "latitude": 47.6100706, "longitude": -122.3278853, "source": "osm", "_tags": {"addr:city": "Seattle", "addr:housenumber": "1100", "addr:postcode": "98101", "addr:state": "WA", "addr:street": "9th Avenue", "alt_name": "VM Seattle", "amenity": "hospital", "beds": "336", "emergency": "no", "healthcare": "hospital", "name": "Virginia Mason Hospital & Seattle Medical Center", "opening_hours": "24/7", "phone": "+1-206-223-6600", "website": "https://www.virginiamason.org", "wikidata": "Q7934401", "wikipedia": "en:Virginia Mason Hospital"}}, {"name": "Island Hospital", "latitude": 48.5020384, "longitude": -122.6151081, "source": "osm", "_tags": {"addr:city": "Anacortes", "addr:housenumber": "1211", "addr:postcode": "98221", "addr:state": "WA", "addr:street": "24th Street", "amenity": "hospital", "beds": "43", "emergency": "yes", "healthcare": "hospital", "healthcare:speciality": "emergency", "name": "Island Hospital", "opening_hours": "24/7", "phone": "+1-360-299-1300", "website": "https://www.islandhospital.org/", "wikidata": "Q50036399"}}, {"name": "Skagit Valley Hospital", "latitude": 48.4192738, "longitude": -122.3241293, "source": "osm", "_tags": {"addr:city": "Mount Vernon", "addr:housenumber": "300", "addr:postcode": "98274", "addr:street": "Hospital Parkway", "amenity": "hospital", "emergency": "yes", "healthcare": "hospital", "name": "Skagit Valley Hospital", "opening_hours": "24/7", "operator": "Skagit Regional Health", "phone": "+1-360-424-4111", "website": "https://www.skagitregionalhealth.org/locations/skagit-valley-hospital", "wikidata": "Q7533759", "wikipedia": "en:Skagit Valley Hospital"}}, {"name": "Swedish First Hill Medical Center", "latitude": 47.6086102, "longitude": -122.3222589, "source": "osm", "_tags": {"addr:city": "Seattle", "addr:housenumber": "747", "addr:postcode": "98122", "addr:state": "WA", "addr:street": "Broadway", "amenity": "hospital", "beds": "830", "contact:phone": "+1-206-386-6000", "contact:website": "http://www.swedish.org/locations/first-hill-campus", "emergency": "yes", "healthcare": "hospital", "name": "Swedish First Hill Medical Center", "opening_hours": "24/7", "operator": "Swedish", "wikidata": "Q7654755"}}, {"name": "Swedish Issaquah", "latitude": 47.5356792, "longitude": -122.021731, "source": "osm", "_tags": {"addr:city": "Issaquah", "addr:housenumber": "751", "addr:postcode": "98029", "addr:state": "WA", "addr:street": "Northeast Blakely Drive", "amenity": "hospital", "beds": "120", "emergency": "yes", "healthcare": "hospital", "name": "Swedish Issaquah", "opening_hours": "24/7", "operator": "Swedish Medical Center", "phone": "+1-425-313-4000", "website": "https://www.swedish.org/locations/issaquah-campus"}}, {"name": "Overlake Medical Center", "latitude": 47.6209671, "longitude": -122.1869413, "source": "osm", "_tags": {"addr:city": "Bellevue", "addr:housenumber": "1035", "addr:postcode": "98004", "addr:state": "WA", "addr:street": "116th Avenue Northeast", "amenity": "hospital", "beds": "347", "emergency": "yes", "healthcare": "hospital", "name": "Overlake Medical Center", "old_name": "Overlake Memorial Hospital", "opening_hours": "24/7", "phone": "+1-425-688-5000", "website": "https://www.overlakehospital.org/", "wikidata": "Q7113724", "wikipedia": "en:Overlake Hospital Medical Center"}}, {"name": "Jefferson Healthcare Hospital", "latitude": 48.105892, "longitude": -122.7890014, "source": "osm", "_tags": {"addr:city": "Port Townsend", "addr:housenumber": "834", "addr:postcode": "98368", "addr:state": "WA", "addr:street": "Sheridan Street", "amenity": "hospital", "beds": "25", "emergency": "yes", "healthcare": "hospital", "name": "Jefferson Healthcare Hospital", "opening_hours": "24/7", "phone": "+1-360-385-2200", "website": "https://jeffersonhealthcare.org/", "wikidata": "Q16892891", "wikipedia": "en:Jefferson Healthcare Hospital"}}, {"name": "WhidbeyHealth Medical Center", "latitude": 48.2138132, "longitude": -122.6844354, "source": "osm", "_tags": {"addr:city": "Coupeville", "addr:housenumber": "101", "addr:postcode": "98239", "addr:state": "WA", "addr:street": "North MainStreet", "amenity": "hospital", "beds": "25", "emergency": "yes", "gnis:feature_id": "1514579", "healthcare": "hospital", "name": "WhidbeyHealth Medical Center", "name_1": "Whidbey General Hospital", "opening_hours": "24/7", "phone": "+1-360-678-5151", "website": "https://whidbeyhealth.org/"}}, {"name": "PeaceHealth United General Medical Center", "latitude": 48.4957658, "longitude": -122.2757945, "source": "osm", "_tags": {"addr:city": "Sedro Woolley", "addr:housenumber": "2000", "addr:postcode": "98284", "addr:street": "Hospital Drive", "amenity": "hospital", "emergency": "yes", "healthcare": "hospital", "name": "PeaceHealth United General Medical Center", "old_name": "United General Hospital", "opening_hours": "24/7", "operator": "PeaceHealth", "phone": "+1-360-856-6021", "website": "https://www.peacehealth.org/united-general-medical-center", "wikidata": "Q30268426"}}, {"name": "Cascade Valley Hospital", "latitude": 48.1891807, "longitude": -122.118713, "source": "osm", "_tags": {"addr:city": "Arlington", "addr:housenumber": "330", "addr:postcode": "98223", "addr:state": "WA", "addr:street": "South Stillaguamish Avenue", "amenity": "hospital", "beds": "48", "emergency": "yes", "gnis:feature_id": "1530104", "healthcare": "hospital", "name": "Cascade Valley Hospital", "opening_hours": "24/7", "phone": "+1-360-435-2133", "website": "http://www.cascadevalley.org/", "wikidata": "Q30595966"}}, {"name": "Swedish Medical Center - Mill Creek", "latitude": 47.8787141, "longitude": -122.2347836, "source": "osm", "_tags": {"addr:city": "Everett", "addr:housenumber": "13020", "addr:postcode": "98208", "addr:state": "WA", "addr:street": "Meridian Avenue South", "amenity": "hospital", "beds": "0", "emergency": "yes", "healthcare": "hospital", "name": "Swedish Medical Center - Mill Creek", "opening_hours": "24/7", "operator": "Swedish Medical Center", "phone": "+1-425-357-3700", "website": "https://www.swedish.org/locations/mill-creek-campus", "wheelchair": "yes"}}, {"name": "EvergreenHealth Monroe", "latitude": 47.8636835, "longitude": -121.9885258, "source": "osm", "_tags": {"addr:city": "Monroe", "addr:housenumber": "14701", "addr:postcode": "98272", "addr:street": "179th Avenue Southeast", "amenity": "hospital", "beds": "112", "emergency": "yes", "gnis:feature_id": "1523321", "healthcare": "hospital", "name": "EvergreenHealth Monroe", "old_name": "Valley General Hospital", "opening_hours": "24/7", "operator": "EvergreenHealth", "phone": "+1-360-794-7497", "website": "https://www.evergreenhealthmonroe.com/"}}, {"name": "Swedish Medical Center Edmonds Campus", "latitude": 47.8028587, "longitude": -122.3335911, "source": "osm", "_tags": {"addr:city": "Edmonds", "addr:housenumber": "21601", "addr:postcode": "98026", "addr:state": "WA", "addr:street": "76th Avenue West", "amenity": "hospital", "beds": "217", "emergency": "yes", "gnis:feature_id": "1514488", "healthcare": "hospital", "internet_access": "wlan", "internet_access:ssid": "Swedish", "name": "Swedish Medical Center Edmonds Campus", "old_name": "Stevens Memorial Hospital", "opening_hours": "24/7", "operator": "Swedish Medical Center", "phone": "+1-425-640-4000", "website": "https://www.swedish.org/locations/edmonds-campus"}}, {"name": "EvergreenHealth Kirkland", "latitude": 47.7153387, "longitude": -122.1783439, "source": "osm", "_tags": {"addr:city": "Kirkland", "addr:housenumber": "12040", "addr:postcode": "98034", "addr:street": "Northeast 128th Street", "alt_name": "Evergreen Health Kirkland;Ever green Health Kirkland", "amenity": "hospital", "beds": "318", "emergency": "yes", "gnis:feature_id": "1510108", "healthcare": "hospital", "name": "EvergreenHealth Kirkland", "old_name": "Evergreen General Hospital", "opening_hours": "24/7", "operator": "EvergreenHealth", "phone": "+1-425-899-1000", "website": "https://www.evergreenhealth.com/"}}, {"name": "Fairfax Hospital", "latitude": 47.719426, "longitude": -122.2046766, "source": "osm", "_tags": {"addr:city": "Kirkland", "addr:housenumber": "10200", "addr:postcode": "98034", "addr:street": "Northeast 132nd Street", "amenity": "hospital", "emergency": "no", "gnis:feature_id": "1514181", "healthcare": "hospital", "healthcare:speciality": "psychiatry", "name": "Fairfax Hospital", "phone": "+1-425-821-2000", "website": "https://www.fairfaxhospital.com/"}}, {"name": "St. Michael Medical Center Silverdale", "latitude": 47.6566098, "longitude": -122.6750336, "source": "osm", "_tags": {"addr:city": "Silverdale", "addr:housenumber": "1800", "addr:postcode": "98383", "addr:state": "WA", "addr:street": "Northwest Myhre Road", "amenity": "hospital", "beds": "297", "emergency": "yes", "healthcare": "hospital", "name": "St. Michael Medical Center Silverdale", "old_name": "Harrison Medical Center", "opening_hours": "24/7", "operator": "CHI Franciscan Health", "phone": "+1-564-240-1000", "website": "https://www.vmfh.org/our-hospitals/st-michael-medical-center"}}, {"name": "Eastside Therapeutic Resource", "latitude": 47.6684163, "longitude": -122.1957553, "source": "osm", "_tags": {"addr:city": "Kirkland", "addr:housenumber": "830", "addr:postcode": "98033", "addr:state": "WA", "addr:street": "6th Street South", "amenity": "hospital", "emergency": "no", "healthcare": "hospital", "healthcare:speciality": "dentistry", "name": "Eastside Therapeutic Resource", "operator": "Eastside Therapeutic Resource"}}, {"name": "Smokey Point Behavioral Hospital", "latitude": 48.1386498, "longitude": -122.1794565, "source": "osm", "_tags": {"amenity": "hospital", "healthcare": "hospital", "name": "Smokey Point Behavioral Hospital", "website": "https://smokeypointbehavioralhospital.com/"}}, {"name": "Swedish Medical Center Cherry Hill Campus", "latitude": 47.6071124, "longitude": -122.310904, "source": "osm", "_tags": {"addr:city": "Seattle", "addr:housenumber": "500", "addr:postcode": "98122", "addr:state": "WA", "addr:street": "17th Avenue", "amenity": "hospital", "beds": "385", "contact:phone": "+1-206-320-2000", "contact:website": "http://www.swedish.org/locations/cherry-hill-campus", "emergency": "yes", "healthcare": "hospital", "name": "Swedish Medical Center Cherry Hill Campus", "opening_hours": "24/7", "operator": "Swedish"}}, {"name": "", "latitude": 47.7148641, "longitude": -122.3372123, "source": "osm", "_tags": {"amenity": "hospital", "building:levels": "1", "healthcare": "hospital", "year_of_construction": "1960"}}, {"name": "C-Wing", "latitude": 47.7147962, "longitude": -122.3377343, "source": "osm", "_tags": {"addr:city": "Seattle", "addr:housenumber": "1550", "addr:postcode": "98133", "addr:state": "WA", "addr:street": "N 115th St", "amenity": "hospital", "healthcare": "hospital", "name": "C-Wing", "operator": "UW Medicine Northwest Campus", "operator:type": "government"}}, {"name": "Seattle Children's Hospital", "latitude": 47.663096, "longitude": -122.2829494, "source": "osm", "_tags": {"addr:city": "Seattle", "addr:housenumber": "4800", "addr:postcode": "98105", "addr:street": "Sand Point Way Northeast", "amenity": "hospital", "beds": "407", "contact:website": "http://www.seattlechildrens.org/", "emergency": "yes", "gnis:feature_id": "2461625", "healthcare": "hospital", "healthcare:speciality": "paediatrics", "name": "Seattle Children's Hospital", "opening_hours": "24/7", "phone": "+1-206-987-2000", "type": "multipolygon", "website": "https://www.seattlechildrens.org/", "wikidata": "Q7442069"}}]