[{"name": "Kootenai Health Behavioral Health Services", "latitude": 47.6982747, "longitude": -116.7992944, "source": "osm", "_tags": {"amenity": "hospital", "emergency": "no", "gnis:feature_id": "399526", "healthcare": "hospital", "healthcare:speciality": "psychiatry", "name": "Kootenai Health Behavioral Health Services", "old_name": "Pine Crest Hospital"}}, {"name": "Bonner County Hospital", "latitude": 48.2776878, "longitude": -116.5496768, "source": "osm", "_tags": {"addr:city": "Sandpoint", "addr:housenumber": "520", "addr:postcode": "83864", "addr:state": "ID", "addr:street": "North 3rd Avenue", "amenity": "hospital", "emergency": "yes", "gnis:feature_id": "399529", "healthcare": "hospital", "name": "Bonner County Hospital", "opening_hours": "24/7", "phone": "+1 208 263 1441", "website": "https://bonnergeneral.org/"}}, {"name": "Shoshone Medical Center", "latitude": 47.5469964, "longitude": -116.1306978, "source": "osm", "_tags": {"addr:city": "Kellogg", "addr:housenumber": "25", "addr:postcode": "83837", "addr:state": "ID", "addr:street": "Jacobs Gulch Road", "amenity": "hospital", "emergency": "yes", "healthcare": "hospital", "name": "Shoshone Medical Center", "opening_hours": "24/7", "phone": "+1 208 784 1221", "website": "https://www.shoshonehealth.com/"}}, {"name": "Family Health Center", "latitude": 48.2787323, "longitude": -116.5499154, "source": "osm", "_tags": {"amenity": "hospital", "building": "yes", "healthcare": "hospital", "healthcare:speciality": "general;paediatrics;Family", "name": "Family Health Center"}}, {"name": "Kootenai Medical Center", "latitude": 47.6948469, "longitude": -116.7958654, "source": "osm", "_tags": {"addr:city": "Coeur d'Alene", "addr:housenumber": "2003", "addr:postcode": "83814", "addr:state": "ID", "addr:street": "Kootenai Health Way", "amenity": "hospital", "beds": "292", "emergency": "yes", "healthcare": "hospital", "name": "Kootenai Medical Center", "opening_hours": "24/7", "phone": "+1 208 625 4000", "type": "multipolygon", "website": "https://www.kh.org/", "wheelchair": "yes"}}]