[{"name": "Mid Valley Hospital", "latitude": 48.3965876, "longitude": -119.5467103, "source": "osm", "_tags": {"addr:city": "Omak", "addr:housenumber": "810", "addr:postcode": "98841", "addr:street": "Jasmine Street", "amenity": "hospital", "emergency": "yes", "gnis:feature_id": "1529140", "healthcare": "hospital", "name": "Mid Valley Hospital", "opening_hours": "24/7", "phone": "+1-509-826-1760", "website": "https://www.mvhealth.org/", "wikidata": "Q6840830", "wikipedia": "en:Mid-Valley Hospital"}}, {"name": "Three Rivers Hospital", "latitude": 48.1062296, "longitude": -119.7825396, "source": "osm", "_tags": {"addr:city": "Brewster", "addr:housenumber": "507", "addr:postcode": "98812", "addr:street": "Hospital Way", "amenity": "hospital", "emergency": "yes", "gnis:feature_id": "1530205", "name": "Three Rivers Hospital", "old_name": "Okanogan Douglas County Hospital", "opening_hours": "24/7", "phone": "+1-509-689-2517", "website": "https://threerivershospital.net/"}}, {"name": "Coulee Medical Center", "latitude": 47.9422824, "longitude": -119.0077311, "source": "osm", "_tags": {"addr:city": "Grand Coulee", "addr:housenumber": "411", "addr:postcode": "99133", "addr:street": "Fortuyn Boulevard", "amenity": "hospital", "emergency": "yes", "healthcare": "hospital", "name": "Coulee Medical Center", "opening_hours": "24/7", "phone": "+1-509-633-1753", "website": "https://cmccares.org/"}}]