[{"name": "Raymond Health Centre", "latitude": 49.4644335, "longitude": -112.6510414, "source": "osm", "_tags": {"amenity": "hospital", "healthcare": "hospital", "name": "Raymond Health Centre", "source:name": "local_knowledge", "website": "https://www.albertahealthservices.ca/facilities.asp?pid=facility&rid=3306"}}, {"name": "", "latitude": 49.4225669, "longitude": -112.8636878, "source": "osm", "_tags": {"amenity": "hospital", "healthcare": "hospital"}}, {"name": "Northern Rockies Medical Center", "latitude": 48.6282045, "longitude": -112.3268082, "source": "osm", "_tags": {"addr:city": "Cut Bank", "addr:housenumber": "802", "addr:postcode": "59427", "addr:state": "MT", "addr:street": "2nd Street Southeast", "amenity": "hospital", "emergency": "yes", "gnis:feature_id": "1750554", "healthcare": "hospital", "name": "Northern Rockies Medical Center", "opening_hours": "24/7", "phone": "+1 406 873 2251", "website": "http://nrmcinc.org/"}}, {"name": "", "latitude": 49.1489495, "longitude": -112.0773407, "source": "osm", "_tags": {"amenity": "hospital"}}]