[{"name": "Penticton Regional Hospital", "latitude": 49.4817041, "longitude": -119.5777232, "source": "osm", "_tags": {"amenity": "hospital", "healthcare": "hospital", "name": "Penticton Regional Hospital", "wikidata": "Q14874740", "wikipedia": "en:Penticton Regional Hospital"}}, {"name": "North Valley Hospital", "latitude": 48.7068483, "longitude": -119.4387247, "source": "osm", "_tags": {"addr:city": "Tonasket", "addr:housenumber": "203", "addr:postcode": "98855", "addr:state": "WA", "addr:street": "South Western Avenue", "amenity": "hospital", "emergency": "yes", "healthcare": "hospital", "name": "North Valley Hospital", "opening_hours": "24/7", "phone": "+1-509-486-2151", "website": "https://www.nvhospital.org/", "wikidata": "Q7057100"}}, {"name": "South Okanagan General Hospital", "latitude": 49.1833484, "longitude": -119.5390828, "source": "osm", "_tags": {"addr:housenumber": "911", "addr:street": "McKinney Road", "amenity": "hospital", "emergency": "yes", "healthcare": "hospital", "name": "South Okanagan General Hospital", "phone": "+1-250-498-5000", "website": "https://www.interiorhealth.ca/locations/south-okanagan-general-hospital", "wheelchair": "yes", "wikidata": "Q7568061", "wikipedia": "en:South Okanagan General Hospital"}}, {"name": "South Similkameen Health Centre", "latitude": 49.204561, "longitude": -119.8326679, "source": "osm", "_tags": {"addr:housenumber": "700", "addr:street": "3rd Street", "amenity": "hospital", "emergency": "yes", "healthcare": "hospital", "name": "South Similkameen Health Centre", "phone": "+1-250-499-3000", "website": "https://www.interiorhealth.ca/locations/south-similkameen-health-centre"}}]