[{"name": "Galiano Health Clinic", "latitude": 48.8715029, "longitude": -123.3199232, "source": "osm", "_tags": {"addr:city": "Galiano", "addr:housenumber": "908", "addr:postcode": "V0N 1P0", "addr:province": "BC", "addr:street": "Burrill Road", "amenity": "hospital", "bed": "1", "emergency": "yes", "healthcare": "hospital", "name": "Galiano Health Clinic", "name_1": "Galiano Health Care Centre", "note": "limited emergency capable - will fly severe cases out", "operator": "Vancouver Island Health Authority"}}, {"name": "British Columbia Children's Emergency", "latitude": 49.2455446, "longitude": -123.123599, "source": "osm", "_tags": {"addr:housenumber": "4480", "addr:street": "Oak Street", "amenity": "hospital", "emergency": "yes", "healthcare": "hospital", "healthcare:speciality": "emergency;paediatrics", "name": "British Columbia Children's Emergency", "wheelchair": "yes"}}, {"name": "UBC Hospital", "latitude": 49.2641866, "longitude": -123.245747, "source": "osm", "_tags": {"addr:housenumber": "2211", "addr:street": "Wesbrook Mall", "amenity": "hospital", "emergency": "yes", "healthcare": "hospital", "name": "UBC Hospital", "website": "https://www.vch.ca/en/location/ubc-hospital", "wikidata": "Q7863802", "wikipedia": "en:UBC Hospital"}}, {"name": "Emergency", "latitude": 49.2582638, "longitude": -123.0957019, "source": "osm", "_tags": {"amenity": "hospital", "healthcare": "hospital", "name": "Emergency"}}, {"name": "Emergency", "latitude": 49.2259374, "longitude": -122.8920702, "source": "osm", "_tags": {"amenity": "hospital", "emergency": "yes", "healthcare": "hospital", "name": "Emergency"}}, {"name": "Aarm Dental Group on Beach", "latitude": 49.2757508, "longitude": -123.133849, "source": "osm", "_tags": {"Category": "Dentist", "addr:city": "Vancouver", "addr:housenumber": "1000", "addr:postcode": "V6E 4M2", "addr:province": "BC", "addr:street": "Beach Avenue", "addr:unit": "#112", "amenity": "hospital", "contact:facebook": "https://www.facebook.com/profile.php?id=100083372280809", "email": "beach@aarm-dental.com", "healthcare": "hospital", "healthcare:speciality": "dentist", "name": "Aarm Dental Group on Beach", "opening_hours": "Mon-Tue 9am-6pm; Wed 10am-8pm; Thu-Fri 9am-6pm; Sat 9am-4pm", "phone": "604-683-5530", "start_date": "1997-12-01", "website": "https://www.aarm-dental.com/beach"}}, {"name": "Lions Gate Hospital", "latitude": 49.3209784, "longitude": -123.0676719, "source": "osm", "_tags": {"addr:housenumber": "231", "addr:street": "East 15th Street", "amenity": "hospital", "emergency": "yes", "healthcare": "hospital", "name": "Lions Gate Hospital", "operator": "Vancouver Coastal Health", "operator:type": "public", "phone": "+1-604-988-3131", "toilets:wheelchair": "yes", "website": "https://www.vch.ca/en/location/lions-gate-hospital", "wheelchair": "yes", "wikidata": "Q96418816", "wikipedia": "en:Lions Gate Hospital"}}, {"name": "Burnaby Hospital", "latitude": 49.2496764, "longitude": -123.0154562, "source": "osm", "_tags": {"addr:housenumber": "3935", "addr:street": "Kincaid Street", "amenity": "hospital", "beds": "286", "emergency": "yes", "healthcare": "hospital", "healthcare:speciality": "emergency;general;internal;surgery;orthopaedics;gynaecology;urology;obstetrics;neonatal_intensive_care;tertiary_palliative;psychiatry;ambulatory", "name": "Burnaby Hospital", "old_name": "Burnaby General Hospital", "opening_hours": "24/7", "operator": "Fraser Health Authority", "operator:type": "public", "operator:wikidata": "Q5493608", "operator:wikipedia": "en:Fraser Health", "phone": "+1-604-434-4211", "start_date": "1952", "website": "https://www.fraserhealth.ca/Service-Directory/Locations/Burnaby/burnaby-hospital#.YIrwo_lKjn0", "wheelchair": "yes", "wikidata": "Q4999585", "wikipedia": "en:Burnaby Hospital"}}, {"name": "Royal Columbian Hospital", "latitude": 49.2266299, "longitude": -122.8906222, "source": "osm", "_tags": {"addr:housenumber": "330", "addr:street": "East Columbia Street", "amenity": "hospital", "emergency": "yes", "healthcare": "hospital", "name": "Royal Columbian Hospital", "operator": "Fraser Health Authority", "operator:type": "public", "operator:wikidata": "Q5493608", "operator:wikipedia": "en:Fraser Health", "phone": "+1-604-520-4253", "website": "https://www.fraserhealth.ca/Service-Directory/Locations/New-Westminster/royal-columbian-hospital", "wikidata": "Q7373996"}}, {"name": "St. Paul's Hospital", "latitude": 49.2806221, "longitude": -123.1289183, "source": "osm", "_tags": {"addr:city": "Vancouver", "addr:housenumber": "1081", "addr:postcode": "V6Z 1Y6", "addr:street": "Burrard Street", "amenity": "hospital", "emergency": "yes", "healthcare": "hospital", "name": "St. Paul's Hospital", "opening_hours": "24/7", "operator": "Providence Health Care", "operator:type": "public", "phone": "+1-604-682-2344", "website": "https://www.providencehealthcare.org/hospitals-residences/st-paul%27s-hospital", "wheelchair": "yes", "wikidata": "Q7591153", "wikipedia": "en:St. Paul's Hospital (Vancouver)"}}, {"name": "Children's & Women's Health Centre of British Columbia", "latitude": 49.2442391, "longitude": -123.124124, "source": "osm", "_tags": {"addr:housenumber": "4500", "addr:street": "Oak Street", "alt_name": "BCCW", "amenity": "hospital", "healthcare": "hospital", "landuse": "institutional", "name": "Children's & Women's Health Centre of British Columbia", "operator": "Provincial Health Services Authority", "operator:type": "public", "short_name": "C&W", "website": "http://www.cw.bc.ca", "wikidata": "Q30279823"}}, {"name": "Mount Saint Joseph Hospital", "latitude": 49.2582912, "longitude": -123.094971, "source": "osm", "_tags": {"addr:city": "Vancouver", "addr:housenumber": "3080", "addr:province": "BC", "addr:street": "Prince Edward Street", "amenity": "hospital", "healthcare": "hospital", "name": "Mount Saint Joseph Hospital", "wikidata": "Q96419005", "wikipedia": "en:Mount Saint Joseph Hospital"}}, {"name": "Sechelt Hospital", "latitude": 49.4754626, "longitude": -123.7493433, "source": "osm", "_tags": {"addr:city": "Sechelt", "addr:housenumber": "5544", "addr:postcode": "V0N 3A0", "addr:province": "BC", "addr:street": "Sunshine Coast Highway", "alt_name": "Shísálh Hospital", "amenity": "hospital", "emergency": "yes", "healthcare": "hospital", "healthcare:speciality": "emergency", "name": "Sechelt Hospital", "old_name": "Sechelt St. Mary's Hospital", "operator": "Vancouver Coastal Health", "operator:type": "public", "phone": "+1-604-885-2224", "website": "https://www.vch.ca/Locations-Services/result?res_id=648"}}, {"name": "Chemainus Health Care Centre", "latitude": 48.9272775, "longitude": -123.7158643, "source": "osm", "_tags": {"addr:housenumber": "9909", "addr:street": "Esplanade Street", "amenity": "hospital", "emergency": "no", "healthcare": "hospital", "name": "Chemainus Health Care Centre", "operator": "Island Health", "operator:type": "public", "website": "https://www.islandhealth.ca/our-locations/hospitals-health-centre-locations/chemainus-health-care-centre", "wheelchair": "yes"}}, {"name": "Saanich Peninsula Hospital", "latitude": 48.5963278, "longitude": -123.409676, "source": "osm", "_tags": {"addr:city": "Saanichton", "addr:housenumber": "2166", "addr:postcode": "V8M 2B2", "addr:province": "BC", "addr:street": "Mount Newton Cross Road", "amenity": "hospital", "beds": "143", "emergency": "yes", "healthcare": "hospital", "name": "Saanich Peninsula Hospital", "operator": "Island Health"}}, {"name": "Ladysmith Community Health Centre", "latitude": 48.9957474, "longitude": -123.8272001, "source": "osm", "_tags": {"amenity": "hospital", "area": "yes", "healthcare": "hospital", "name": "Ladysmith Community Health Centre", "operator": "Island Health"}}, {"name": "Delta Hospital", "latitude": 49.0860132, "longitude": -123.0619072, "source": "osm", "_tags": {"addr:housenumber": "5800", "addr:street": "Mountain View Boulevard", "amenity": "hospital", "beds": "64", "emergency": "yes", "healthcare": "hospital", "name": "Delta Hospital", "operator": "Fraser Health Authority", "operator:type": "public", "operator:wikidata": "Q5493608", "operator:wikipedia": "en:Fraser Health", "phone": "+1-604-946-1121", "website": "https://www.fraserhealth.ca/Service-Directory/Locations/Delta/delta-hospital", "wikidata": "Q20712289"}}, {"name": "Cowichan District Hospital", "latitude": 48.786188, "longitude": -123.7225471, "source": "osm", "_tags": {"addr:city": "Duncan", "addr:housenumber": "3045", "addr:postcode": "V9L 1E5", "addr:province": "BC", "addr:street": "Gibbins Road", "amenity": "hospital", "building": "hospital", "healthcare": "hospital", "name": "Cowichan District Hospital", "phone": "+1 250-737-2030", "source": "NRCan-CanVec-8.0"}}, {"name": "Cowichan Lodge", "latitude": 48.78178, "longitude": -123.6701277, "source": "osm", "_tags": {"addr:housenumber": "2041", "addr:street": "Tzouhalem Road", "amenity": "hospital", "healthcare": "hospital", "healthcare:speciality": "psychiatry", "name": "Cowichan Lodge", "name:en": "Cowichan Lodge", "operator": "Island Health", "type": "multipolygon"}}, {"name": "Richmond Hospital", "latitude": 49.1688721, "longitude": -123.146326, "source": "osm", "_tags": {"addr:housenumber": "7000", "addr:street": "Westminster Highway", "amenity": "hospital", "emergency": "yes", "healthcare": "hospital", "internet_access": "wlan", "internet_access:fee": "customers", "name": "Richmond Hospital", "old_name": "Richmond General Hospital", "opening_hours": "24/7", "operator": "Vancouver Coastal Health", "operator:type": "public", "phone": "+1-604-278-9711", "type": "multipolygon", "website": "https://www.vch.ca/en/location/richmond-hospital", "wheelchair": "yes", "wikidata": "Q7330892", "wikipedia": "en:Richmond Hospital"}}, {"name": "Lady Minto Hospital", "latitude": 48.8624124, "longitude": -123.5081966, "source": "osm", "_tags": {"amenity": "hospital", "name": "Lady Minto Hospital", "type": "multipolygon"}}, {"name": "Vancouver General Hospital", "latitude": 49.2612374, "longitude": -123.1221077, "source": "osm", "_tags": {"addr:city": "Vancouver", "addr:housenumber": "899", "addr:postcode": "V5Z 0A2", "addr:province": "BC", "addr:street": "West 12th Avenue", "amenity": "hospital", "beds": "1900", "emergency": "yes", "healthcare": "hospital", "healthcare:speciality": "emergency", "name": "Vancouver General Hospital", "operator": "Vancouver Coastal Health", "operator:type": "public", "operator:wikidata": "Q7914144", "phone": "+1-604-875-4111", "ref": "VGH", "short_name": "VGH", "type": "multipolygon", "website": "https://www.vch.ca/en/location/vancouver-general-hospital", "wheelchair": "yes", "wikidata": "Q7914187", "wikipedia": "en:Vancouver General Hospital"}}]