[{"name": "", "latitude": 49.7259032, "longitude": -113.3933087, "source": "osm", "_tags": {"amenity": "hospital", "healthcare": "hospital"}}, {"name": "Claresholm General Hospital", "latitude": 50.0186244, "longitude": -113.5826165, "source": "osm", "_tags": {"amenity": "hospital", "building": "hospital", "healthcare": "hospital", "name": "Claresholm General Hospital"}}, {"name": "", "latitude": 50.0173044, "longitude": -113.5806841, "source": "osm", "_tags": {"amenity": "hospital", "healthcare": "hospital"}}, {"name": "Fort Macleod Hospital", "latitude": 49.7263175, "longitude": -113.3938538, "source": "osm", "_tags": {"amenity": "hospital", "building": "hospital", "healthcare": "hospital", "name": "Fort Macleod Hospital"}}, {"name": "Claresholm Centre for Mental Health & Addictions", "latitude": 50.0177877, "longitude": -113.579561, "source": "osm", "_tags": {"amenity": "hospital", "building": "hospital", "healthcare": "hospital", "name": "Claresholm Centre for Mental Health & Addictions"}}]