[{"name": "BC Prosthetic & Orthotic Services", "latitude": 49.8835665, "longitude": -119.4497089, "source": "osm", "_tags": {"amenity": "hospital", "healthcare": "hospital", "name": "BC Prosthetic & Orthotic Services", "name:en": "BC Prosthetic & Orthotic Services"}}, {"name": "Kelowna General Hospital", "latitude": 49.8734256, "longitude": -119.4936591, "source": "osm", "_tags": {"amenity": "hospital", "check_date": "2024-08-21", "emergency": "yes", "healthcare": "hospital", "name": "Kelowna General Hospital", "phone": "+250-862-4000", "wheelchair": "yes"}}, {"name": "", "latitude": 50.4439262, "longitude": -119.1938814, "source": "osm", "_tags": {"amenity": "hospital", "building": "yes", "source": "NRCan-CanVec-8.0"}}, {"name": "Summerland Community Health Centre", "latitude": 49.6013159, "longitude": -119.6688599, "source": "osm", "_tags": {"amenity": "hospital", "healthcare": "hospital", "name": "Summerland Community Health Centre", "source": "NRCan-CanVec-10.0"}}, {"name": "Vernon Jubilee Hospital", "latitude": 50.2566885, "longitude": -119.2711548, "source": "osm", "_tags": {"amenity": "hospital", "emergency": "yes", "healthcare": "hospital", "name": "Vernon Jubilee Hospital", "operator": "Interior Health"}}]