[{"name": "Rockyview General Hospital EMERGENCY ENTRANCE", "latitude": 50.9890757, "longitude": -114.097359, "source": "osm", "_tags": {"amenity": "hospital", "emergency": "emergency_ward_entrance", "healthcare": "hospital", "name": "Rockyview General Hospital EMERGENCY ENTRANCE", "operator": "Alberta Health Services", "operator:short": "AHS", "operator:type": "public", "operator:wikidata": "Q4711650"}}, {"name": "Mayfair Diagnostics", "latitude": 51.1299186, "longitude": -114.2009878, "source": "osm", "_tags": {"addr:city": "Calgary", "addr:housenumber": "400", "addr:postcode": "T3G 5H6", "addr:province": "Alberta", "addr:street": "Crowfoot Crescent NW", "addr:unit": "401", "amenity": "hospital", "check_date": "2025-07-12", "healthcare": "hospital", "level": "4", "name": "Mayfair Diagnostics", "opening_hours": "Mo-Fr 08:00-16:00", "phone": "+1 866-611-2665", "website": "https://www.radiology.ca/location/crowfoot/"}}, {"name": "Harvest Medicine Calgary & Alberta", "latitude": 51.0689758, "longitude": -114.1171756, "source": "osm", "_tags": {"addr:city": "Calgary", "addr:housenumber": "1824", "addr:postcode": "T2M 3Y7", "addr:province": "Alberta", "addr:street": "Crowchild Trail NW", "addr:unit": "suite 101", "amenity": "hospital", "healthcare": "hospital", "name": "Harvest Medicine Calgary & Alberta"}}, {"name": "Bright Horizon Therapies", "latitude": 50.9638857, "longitude": -114.0733343, "source": "osm", "_tags": {"addr:city": "Calgary", "addr:housenumber": "10201", "addr:postcode": "T2W 4X9", "addr:province": "Alberta", "addr:street": "Southport Road SW", "addr:unit": "#650", "amenity": "hospital", "healthcare": "hospital", "healthcare:speciality": "behavior;psychiatry", "name": "Bright Horizon Therapies"}}, {"name": "Alberta Children's Hospital", "latitude": 51.0747205, "longitude": -114.1479501, "source": "osm", "_tags": {"addr:housenumber": "28", "addr:postcode": "T3B 6A8", "addr:street": "Oki Drive NW", "amenity": "hospital", "emergency": "yes", "healthcare": "hospital", "name": "Alberta Children's Hospital", "website": "https://www.albertahealthservices.ca/Facilities/ACH/", "wheelchair": "yes", "wikidata": "Q2831698"}}, {"name": "Foothills Medical Centre", "latitude": 51.0651377, "longitude": -114.1351878, "source": "osm", "_tags": {"addr:housenumber": "1403", "addr:street": "29 Street NW", "amenity": "hospital", "description": "\"As one of Canada’s largest hospitals, Foothills Medical Centre (FMC) provides advanced healthcare services to more than two million people from Calgary, southern Alberta, southeastern British Columbia and southern Saskatchewan.\"", "emergency": "yes", "healthcare": "hospital", "name": "Foothills Medical Centre", "note": "main bldg complex reworked using \"footprint\" map 2017-04; don't expect good visual alignment with aerial images (height/angle issues)", "operator": "Alberta Health Services", "operator:short": "AHS", "operator:type": "public", "operator:wikidata": "Q4711650", "phone": "+1-403-944-1110", "website": "https://www.albertahealthservices.ca/fmc/fmc.aspx", "wheelchair": "yes", "wikidata": "Q8564404", "wikipedia": "en:Foothills Medical Centre"}}, {"name": "Peter Lougheed Centre of the Calgary General Hospital", "latitude": 51.0791076, "longitude": -113.9845747, "source": "osm", "_tags": {"addr:city": "Calgary", "addr:housenumber": "3500", "addr:street": "26 Avenue NE", "amenity": "hospital", "emergency": "yes", "healthcare": "hospital", "name": "Peter Lougheed Centre of the Calgary General Hospital", "phone": "+1-403-943-4555", "website": "https://www.albertahealthservices.ca/facilities.asp?pid=facility&rid=2", "wheelchair": "yes", "wikipedia": "en:Peter Lougheed Centre"}}, {"name": "South Calgary Health Centre", "latitude": 50.9025594, "longitude": -114.0591201, "source": "osm", "_tags": {"amenity": "hospital", "check_date": "2024-06-07", "healthcare": "hospital", "name": "South Calgary Health Centre"}}, {"name": "South Health Campus", "latitude": 50.8822636, "longitude": -113.9525711, "source": "osm", "_tags": {"addr:city": "Calgary", "addr:housenumber": "4448", "addr:postcode": "T3M 1M4", "addr:province": "AB", "addr:street": "Front Street SE", "amenity": "hospital", "emergency": "yes", "healthcare": "hospital", "name": "South Health Campus", "website": "https://www.albertahealthservices.ca/shc/shc.aspx", "wheelchair": "yes", "wikidata": "Q14956882", "wikipedia": "en:South Health Campus"}}, {"name": "Rockyview General Hospital", "latitude": 50.9908489, "longitude": -114.0973582, "source": "osm", "_tags": {"amenity": "hospital", "healthcare": "hospital", "name": "Rockyview General Hospital", "wikidata": "Q7356054", "wikipedia:en": "Rockyview General Hospital"}}, {"name": "Tsuu T'ina Health Centre", "latitude": 50.9527216, "longitude": -114.1626739, "source": "osm", "_tags": {"addr:city": "Tsuutʼina Nation", "addr:housenumber": "72", "addr:province": "AB", "addr:street": "Bullhead Road", "amenity": "hospital", "fax": "+1-403-251-1627", "healthcare": "hospital", "name": "Tsuu T'ina Health Centre", "operator": "Tsuut'ina Nation", "operator:type": "government", "phone": "+1-403-251-7575"}}, {"name": "Sheldon M. Chumir Health Centre", "latitude": 51.0412033, "longitude": -114.0728688, "source": "osm", "_tags": {"addr:housenumber": "1213", "addr:postcode": "T2R 0X7", "addr:street": "4 Street SW", "amenity": "hospital", "description": "This facility provides 24/7 care for people with injuries or illnesses that are not life threatening. Other healthcare services have limited hours.", "emergency": "no", "healthcare": "hospital", "internet_access": "wlan", "internet_access:ssid": "healthspot", "name": "Sheldon M. Chumir Health Centre", "operator": "Alberta Health Services", "operator:short": "AHS", "operator:type": "public", "operator:wikidata": "Q4711650", "operator:wikipedia": "en:Alberta Health Services", "phone": "+1 403 955 6200", "website": "https://www.albertahealthservices.ca/findhealth/facility.aspx?id=1018406", "wheelchair": "yes", "wikidata": "Q7493529", "wikipedia": "en:Sheldon M. Chumir Centre"}}, {"name": "Oilfields General Hospital", "latitude": 50.6777735, "longitude": -114.2346948, "source": "osm", "_tags": {"amenity": "hospital", "emergency": "yes", "healthcare": "hospital", "name": "Oilfields General Hospital"}}, {"name": "", "latitude": 51.1696378, "longitude": -114.8481491, "source": "osm", "_tags": {"amenity": "hospital", "healthcare": "hospital"}}]