[{"name": "Hanna Hospital", "latitude": 51.650208, "longitude": -111.9277221, "source": "osm", "_tags": {"amenity": "hospital", "designation": "Hospital", "emergency": "yes", "healthcare": "hospital", "name": "Hanna Hospital"}}, {"name": "Our Lady of the Rosary Hospital", "latitude": 52.2237669, "longitude": -111.9071684, "source": "osm", "_tags": {"amenity": "hospital", "healthcare": "hospital", "name": "Our Lady of the Rosary Hospital"}}, {"name": "Stettler Regional Healthcare Center", "latitude": 52.3237007, "longitude": -112.723754, "source": "osm", "_tags": {"addr:housenumber": "5912", "addr:street": "47 Avenue", "amenity": "hospital", "building": "hospital", "emergency": "yes", "healthcare": "hospital", "name": "Stettler Regional Healthcare Center"}}, {"name": "", "latitude": 52.3238488, "longitude": -112.7243289, "source": "osm", "_tags": {"amenity": "hospital", "healthcare": "hospital"}}, {"name": "", "latitude": 52.2239281, "longitude": -111.9076348, "source": "osm", "_tags": {"amenity": "hospital", "healthcare": "hospital"}}, {"name": "", "latitude": 51.650314, "longitude": -111.9277216, "source": "osm", "_tags": {"amenity": "hospital", "healthcare": "hospital"}}]