[{"name": "Stollery Children's Hospital", "latitude": 53.5198507, "longitude": -113.524234, "source": "osm", "_tags": {"amenity": "hospital", "check_date": "2025-05-08", "healthcare": "hospital", "name": "Stollery Children's Hospital", "wikidata": "Q17096630", "wikipedia:en": "Stollery Children's Hospital"}}, {"name": "Cross Cancer Institute", "latitude": 53.5181569, "longitude": -113.5310894, "source": "osm", "_tags": {"addr:city": "Edmonton", "addr:housenumber": "11560", "addr:postcode": "T6G 1Z2", "addr:province": "AB", "addr:street": "University Avenue NW", "building": "hospital", "healthcare": "hospital", "name": "Cross Cancer Institute", "wikidata": "Q5188247", "wikipedia": "en:Cross Cancer Institute"}}, {"name": "Leduc Community Hospital", "latitude": 53.2551282, "longitude": -113.5457984, "source": "osm", "_tags": {"addr:city": "Leduc", "addr:country": "CA", "addr:housenumber": "4210", "addr:postcode": "T9E 5Z3", "addr:street": "48 Street", "amenity": "hospital", "building": "hospital", "building:levels": "3", "healthcare": "hospital", "name": "Leduc Community Hospital", "operator": "Alberta Health Services", "operator:short": "AHS", "operator:wikidata": "Q4711650", "phone": "+1-780-986-7711", "source": "NRCan-CanVec-7.0", "website": "https://www.albertahealthservices.ca/info/facility.aspx?id=7825", "wikidata": "Q14874844", "wikipedia": "en:Leduc Community Hospital"}}, {"name": "Kaye Edmonton Clinic", "latitude": 53.5186585, "longitude": -113.5267463, "source": "osm", "_tags": {"amenity": "hospital", "building": "university", "healthcare": "hospital", "name": "Kaye Edmonton Clinic", "operator": "Alberta Health Services", "operator:short": "AHS", "operator:wikidata": "Q4711650", "operator:wikipedia": "en:Alberta Health Services", "wheelchair": "yes"}}, {"name": "Centennial Centre for Mental Health & Brain Injury", "latitude": 52.651106, "longitude": -113.5733283, "source": "osm", "_tags": {"amenity": "hospital", "name": "Centennial Centre for Mental Health & Brain Injury", "operator": "Alberta Health Services", "toilets:wheelchair": "yes", "website": "https://mentalhealthexcellence.ca/", "wheelchair": "yes"}}, {"name": "Ponoka Hospital & Care Centre", "latitude": 52.6844437, "longitude": -113.5893603, "source": "osm", "_tags": {"amenity": "hospital", "emergency": "yes", "healthcare": "hospital", "name": "Ponoka Hospital & Care Centre"}}, {"name": "Wetaskiwin Hospital & Care Centre", "latitude": 52.9864751, "longitude": -113.368037, "source": "osm", "_tags": {"amenity": "hospital", "emergency": "yes", "healthcare": "hospital", "name": "Wetaskiwin Hospital & Care Centre"}}, {"name": "Grey Nuns Community Hospital", "latitude": 53.4617351, "longitude": -113.4296542, "source": "osm", "_tags": {"addr:city": "Edmonton", "addr:housenumber": "1100", "addr:postcode": "T6L 5X8", "addr:province": "AB", "addr:street": "Youville Drive West NW", "amenity": "hospital", "emergency": "yes", "healthcare": "hospital", "name": "Grey Nuns Community Hospital", "operator": "Alberta Health Services", "operator:short": "AHS", "operator:type": "public", "operator:wikidata": "Q4711650", "website": "https://www.covenanthealth.ca/hospitals-care-centres/grey-nuns-community-hospital/", "wikidata": "Q5608215", "wikipedia": "en:Grey Nuns Community Hospital"}}, {"name": "Covenant Health St. Joseph’s Auxiliary Hospital", "latitude": 53.4598656, "longitude": -113.5060555, "source": "osm", "_tags": {"amenity": "hospital", "healthcare": "hospital", "name": "Covenant Health St. Joseph’s Auxiliary Hospital", "operator": "Covenant Health", "operator:wikidata": "Q5178995"}}, {"name": "", "latitude": 53.4472026, "longitude": -113.5031151, "source": "osm", "_tags": {"amenity": "hospital", "healthcare": "hospital"}}, {"name": "Misericordia Community Hospital", "latitude": 53.5217454, "longitude": -113.6115798, "source": "osm", "_tags": {"addr:city": "Edmonton", "addr:housenumber": "16940", "addr:postcode": "T5R 4H5", "addr:province": "AB", "addr:street": "87 Avenue", "amenity": "hospital", "emergency": "yes", "healthcare": "hospital", "name": "Misericordia Community Hospital", "operator": "Alberta Health Services", "operator:short": "AHS", "operator:type": "public", "operator:wikidata": "Q4711650", "wikidata": "Q6875334", "wikipedia": "en:Misericordia Community Hospital"}}, {"name": "", "latitude": 53.5070714, "longitude": -113.4781278, "source": "osm", "_tags": {"amenity": "hospital", "healthcare": "hospital"}}, {"name": "Enoch Health Centre", "latitude": 53.5024463, "longitude": -113.7588131, "source": "osm", "_tags": {"amenity": "hospital", "healthcare": "hospital", "name": "Enoch Health Centre"}}, {"name": "Allen Gray Continuing Care Centre", "latitude": 53.458589, "longitude": -113.4224241, "source": "osm", "_tags": {"amenity": "hospital", "healthcare": "hospital", "name": "Allen Gray Continuing Care Centre"}}, {"name": "Good Samaritan Southgate Care Centre", "latitude": 53.480384, "longitude": -113.5067025, "source": "osm", "_tags": {"amenity": "hospital", "healthcare": "hospital", "name": "Good Samaritan Southgate Care Centre"}}, {"name": "Jasper Place Continuing Care Centre", "latitude": 53.5243611, "longitude": -113.6118063, "source": "osm", "_tags": {"amenity": "hospital", "healthcare": "hospital", "name": "Jasper Place Continuing Care Centre"}}, {"name": "", "latitude": 53.4987213, "longitude": -113.5425339, "source": "osm", "_tags": {"amenity": "hospital", "healthcare": "hospital"}}, {"name": "", "latitude": 53.4996404, "longitude": -113.5069903, "source": "osm", "_tags": {"amenity": "hospital", "healthcare": "hospital"}}, {"name": "University of Alberta Hospital", "latitude": 53.5205182, "longitude": -113.5231902, "source": "osm", "_tags": {"amenity": "hospital", "healthcare": "hospital", "name": "University of Alberta Hospital", "wikidata": "Q7895046", "wikipedia": "en:University of Alberta Hospital"}}, {"name": "Devon General Hospital", "latitude": 53.3512143, "longitude": -113.7301071, "source": "osm", "_tags": {"addr:city": "Devon", "addr:housenumber": "101", "addr:postcode": "T9G 0A6", "addr:province": "AB", "addr:street": "Erie Street South", "amenity": "hospital", "emergency": "yes", "healthcare": "hospital", "healthcare:speciality": "general", "name": "Devon General Hospital", "operator": "Alberta Health Services", "operator:short": "AHS", "operator:type": "government", "operator:wikidata": "Q4711650", "wikidata": "Q5267720", "wikipedia": "en:Devon General Hospital"}}]