[{"name": "Strathcona Community Hospital", "latitude": 53.5682411, "longitude": -113.2758681, "source": "osm", "_tags": {"addr:city": "Sherwood Park", "addr:housenumber": "9000", "addr:postcode": "T8H 0K9", "addr:province": "AB", "addr:street": "Emerald Drive", "amenity": "hospital", "emergency": "yes", "healthcare": "hospital", "name": "Strathcona Community Hospital", "operator": "Alberta Health Services", "operator:short": "AHS", "operator:type": "government", "operator:wikidata": "Q4711650", "source": "Bing", "website": "https://www.albertahealthservices.ca/strath/strathcona.aspx", "wikidata": "Q7622072", "wikipedia": "en:Strathcona Community Hospital"}}, {"name": "Edmonton Community Health Hub North", "latitude": 53.5920302, "longitude": -113.4293517, "source": "osm", "_tags": {"addr:city": "Edmonton", "addr:housenumber": "13211", "addr:postcode": "T5A 1C3", "addr:province": "AB", "addr:street": "Fort Road NW", "amenity": "hospital", "building": "commercial", "health_facility:type": "health_centre", "healthcare": "hospital", "healthcare:speciality": "psychiatry;general;community", "name": "Edmonton Community Health Hub North", "old_name": "Canadian Tire", "opening_hours": "24/7", "operator": "Alberta Health Services", "operator:short": "AHS", "operator:type": "public", "operator:wikidata": "Q4711650", "source": "https://www.albertahealthservices.ca/findhealth/Service.aspx?id=1077952&serviceAtFacilityID=1132871;https://enpcn.com/edmonton-community-health-hub-north/;local knowledge"}}, {"name": "Fort Saskatchewan Community Hospital", "latitude": 53.6919431, "longitude": -113.2107967, "source": "osm", "_tags": {"addr:city": "Fort Saskatchewan", "addr:housenumber": "9401", "addr:street": "86 Avenue", "amenity": "hospital", "building": "yes", "emergency": "yes", "healthcare": "hospital", "name": "Fort Saskatchewan Community Hospital", "website": "https://www.albertahealthservices.ca/facilities.asp?pid=facility&rid=8274", "wikipedia": "en:Fort Saskatchewan Community Hospital"}}, {"name": "Fort Saskatchewan Community Hospital", "latitude": 53.6925551, "longitude": -113.2110966, "source": "osm", "_tags": {"amenity": "hospital", "healthcare": "hospital", "name": "Fort Saskatchewan Community Hospital"}}, {"name": "Sturgeon Community Hospital", "latitude": 53.6553162, "longitude": -113.6263697, "source": "osm", "_tags": {"amenity": "hospital", "emergency": "yes", "healthcare": "hospital", "name": "Sturgeon Community Hospital", "operator": "Alberta Health Services", "operator:short": "AHS", "operator:type": "public", "operator:wikidata": "Q4711650"}}, {"name": "Alberta Hospital Edmonton", "latitude": 53.6363295, "longitude": -113.3738962, "source": "osm", "_tags": {"addr:city": "Edmonton", "addr:housenumber": "17480", "addr:postcode": "T5J 2J7", "addr:province": "AB", "addr:street": "Fort Road NW", "amenity": "hospital", "beds": "410", "emergency": "no", "healthcare": "hospital", "name": "Alberta Hospital Edmonton", "operator": "Alberta Health Services", "operator:short": "AHS", "operator:wikidata": "Q4711650", "phone": "+1-780-342-5555", "social_facility:for": "mental_health", "website": "https://www.albertahealthservices.ca/info/facility.aspx?id=6337", "wikidata": "Q4711754", "wikipedia": "en:Alberta Hospital Edmonton"}}, {"name": "Royal Alexandra Hospital", "latitude": 53.5571119, "longitude": -113.4975777, "source": "osm", "_tags": {"addr:city": "Edmonton", "addr:housenumber": "10240", "addr:postcode": "T5H 3V9", "addr:street": "Kingsway NW", "amenity": "hospital", "emergency": "yes", "healthcare": "hospital", "name": "Royal Alexandra Hospital", "operator": "Alberta Health Services", "operator:short": "AHS", "operator:type": "public", "operator:wikidata": "Q4711650", "toilets:wheelchair": "yes", "website": "https://www.albertahealthservices.ca/findhealth/facility.aspx?id=6598", "wheelchair": "yes", "wheelchair:description": "Wheelchair accessible toilets are extremely limited (2) and are often filthy. None of the patient care rooms or wards have any accessible toilets.", "wikidata": "Q7373655", "wikipedia": "en:Royal Alexandra Hospital, Edmonton"}}, {"name": "Glenwood Health Centre", "latitude": 53.5407984, "longitude": -113.5986752, "source": "osm", "_tags": {"addr:city": "Edmonton", "addr:street": "Stony Plain Road NW", "amenity": "hospital", "healthcare": "hospital", "name": "Glenwood Health Centre"}}, {"name": "", "latitude": 53.5417974, "longitude": -113.4305253, "source": "osm", "_tags": {"amenity": "hospital", "healthcare": "hospital"}}, {"name": "Shepherd's Wellness Centre", "latitude": 53.5955449, "longitude": -113.5395598, "source": "osm", "_tags": {"amenity": "hospital", "healthcare": "hospital", "name": "Shepherd's Wellness Centre"}}, {"name": "Northeast Community Health Centre", "latitude": 53.6040502, "longitude": -113.417212, "source": "osm", "_tags": {"amenity": "hospital", "emergency": "yes", "healthcare": "hospital", "name": "Northeast Community Health Centre", "toilets:wheelchair": "yes", "wheelchair": "yes", "wikidata": "Q7057862", "wikipedia:en": "Northeast Community Health Centre"}}, {"name": "Miller Crossing Long Term Care", "latitude": 53.6054903, "longitude": -113.4161804, "source": "osm", "_tags": {"amenity": "hospital", "healthcare": "hospital", "name": "Miller Crossing Long Term Care"}}, {"name": "Henwood Treatment Centre", "latitude": 53.6489963, "longitude": -113.3769491, "source": "osm", "_tags": {"amenity": "hospital", "healthcare": "hospital", "name": "Henwood Treatment Centre"}}, {"name": "", "latitude": 53.9499814, "longitude": -113.1263142, "source": "osm", "_tags": {"amenity": "hospital", "healthcare": "hospital"}}, {"name": "", "latitude": 54.1476354, "longitude": -113.8540441, "source": "osm", "_tags": {"amenity": "hospital", "healthcare": "hospital"}}, {"name": "Jensen Lakes Dental", "latitude": 53.6644156, "longitude": -113.6364709, "source": "osm", "_tags": {"addr:city": "St. Albert", "addr:housenumber": "840", "addr:postcode": "T8N 7V2", "addr:province": "AB", "addr:street": "St. Albert Trail", "addr:unit": "215", "amenity": "hospital", "healthcare": "hospital", "name": "Jensen Lakes Dental", "website": "https://www.jensenlakesdental.com/"}}, {"name": "", "latitude": 53.5398766, "longitude": -113.5130306, "source": "osm", "_tags": {"amenity": "hospital", "healthcare": "hospital"}}, {"name": "Glenrose Rehabilitation Hospital", "latitude": 53.559983, "longitude": -113.4983516, "source": "osm", "_tags": {"addr:city": "Edmonton", "addr:housenumber": "10230", "addr:postcode": "T5G 0B7", "addr:province": "AB", "addr:street": "111 Avenue NW", "amenity": "hospital", "emergency": "no", "healthcare": "hospital", "healthcare:speciality": "physiatry", "name": "Glenrose Rehabilitation Hospital", "operator": "Alberta Health Services", "operator:short": "AHS", "operator:type": "government", "operator:wikidata": "Q4711650", "operator:wikipedia": "en:Alberta Health Services", "phone": "+1-780-735-7999", "website": "https://www.albertahealthservices.ca/grh/grh.aspx", "wikidata": "Q5569291", "wikipedia": "en:Glenrose Rehabilitation Hospital"}}, {"name": "East Edmonton Health Clinic", "latitude": 53.5617559, "longitude": -113.463273, "source": "osm", "_tags": {"amenity": "hospital", "building": "hospital", "healthcare": "hospital", "name": "East Edmonton Health Clinic", "operator": "Alberta Health Services", "operator:short": "AHS", "operator:type": "public", "operator:wikidata": "Q4711650", "type": "multipolygon"}}]