[{"name": "St. Paul Health Care Centre", "latitude": 53.9885742, "longitude": -111.2904315, "source": "osm", "_tags": {"amenity": "hospital", "healthcare": "hospital", "name": "St. Paul Health Care Centre"}}, {"name": "Elk Point Healthcare Centre", "latitude": 53.897919, "longitude": -110.9068134, "source": "osm", "_tags": {"amenity": "hospital", "building": "hospital", "name": "Elk Point Healthcare Centre"}}, {"name": "St. Paul Health Care Centre", "latitude": 53.9885982, "longitude": -111.2903998, "source": "osm", "_tags": {"amenity": "hospital", "building": "hospital", "healthcare": "hospital", "name": "St. Paul Health Care Centre"}}, {"name": "Saddle Lake Health Services", "latitude": 53.9703434, "longitude": -111.694235, "source": "osm", "_tags": {"amenity": "hospital", "healthcare": "hospital", "name": "Saddle Lake Health Services"}}, {"name": "Two Hills Health Centre", "latitude": 53.7133117, "longitude": -111.7316914, "source": "osm", "_tags": {"addr:city": "Two Hills", "addr:housenumber": "4401", "addr:postcode": "T0B 4K0", "addr:province": "Alberta", "addr:street": "53 Avenue", "amenity": "hospital", "emergency": "yes", "healthcare": "hospital", "name": "Two Hills Health Centre", "operator": "Alberta Health Services", "operator:short": "AHS", "operator:type": "public", "operator:wikidata": "Q4711650", "website": "https://www.albertahealthservices.ca/findhealth/facility.aspx?id=1001613"}}]