[{"name": "Providence Extended Care", "latitude": 61.176623, "longitude": -149.8772219, "source": "osm", "_tags": {"healthcare": "hospital", "name": "Providence Extended Care"}}, {"name": "Alaska Psychiatric Institute", "latitude": 61.1850968, "longitude": -149.8298016, "source": "osm", "_tags": {"addr:city": "Anchorage", "addr:housenumber": "3700", "addr:postcode": "99508", "addr:state": "AK", "addr:street": "Piper Street", "amenity": "hospital", "beds": "80", "healthcare": "hospital", "healthcare:speciality": "psychiatry", "name": "Alaska Psychiatric Institute", "phone": "+1 907 269 7100", "wikidata": "Q16868887", "wikipedia": "en:Alaska Psychiatric Institute"}}, {"name": "Northern Lights Imaging", "latitude": 61.1949647, "longitude": -149.8409453, "source": "osm", "_tags": {"addr:housenumber": "2110", "addr:postcode": "99508", "addr:street": "East Northern Lights Boulevard", "amenity": "hospital", "name": "Northern Lights Imaging", "opening_hours": "Mo-Fr 08:00-18:00", "phone": "+1 (907) 644-2997", "website": "https://nliak.com/"}}, {"name": "Providence Alaska Medical Center", "latitude": 61.1871232, "longitude": -149.8200356, "source": "osm", "_tags": {"addr:city": "Anchorage", "addr:housenumber": "3200", "addr:postcode": "99515", "addr:street": "Providence Drive", "amenity": "hospital", "beds": "401", "emergency": "yes", "healthcare": "hospital", "name": "Providence Alaska Medical Center", "opening_hours": "24/7", "phone": "+1 907 562 2211", "website": "https://alaska.providence.org/locations/p/pamc", "wikidata": "Q7252388", "wikipedia": "en:Providence Alaska Medical Center"}}, {"name": "Alaska Regional Hospital", "latitude": 61.2102248, "longitude": -149.8307617, "source": "osm", "_tags": {"addr:city": "Anchorage", "addr:housenumber": "2801", "addr:postcode": "99508", "addr:state": "AK", "addr:street": "Debarr Road", "amenity": "hospital", "beds": "250", "emergency": "yes", "healthcare": "hospital", "name": "Alaska Regional Hospital", "phone": "+1 907 276 1131", "source": "Bing", "website": "https://alaskaregional.com/"}}, {"name": "North Star Behavorial Hospital", "latitude": 61.2078072, "longitude": -149.8335677, "source": "osm", "_tags": {"amenity": "hospital", "building": "hospital", "healthcare": "hospital", "name": "North Star Behavorial Hospital"}}, {"name": "Joint Base Elmendorf-Richardson Hospital", "latitude": 61.2349473, "longitude": -149.7449722, "source": "osm", "_tags": {"amenity": "hospital", "healthcare": "hospital", "name": "Joint Base Elmendorf-Richardson Hospital"}}, {"name": "Alaska Native Medical Center Health Campus", "latitude": 61.1826756, "longitude": -149.8007464, "source": "osm", "_tags": {"amenity": "hospital", "beds": "173", "contact:phone": "+1 (907) 729-1729", "emergency": "yes", "healthcare": "hospital", "name": "Alaska Native Medical Center Health Campus", "operator": "Alaska Native Medical Center"}}, {"name": "Chris Kyle Patriots Hospital", "latitude": 61.2056383, "longitude": -149.8094269, "source": "osm", "_tags": {"addr:city": "Anchorage", "addr:housenumber": "1650", "addr:postcode": "99508", "addr:state": "AK", "addr:street": "South Bragaw Street", "amenity": "hospital", "beds": "56", "healthcare": "hospital", "healthcare:speciality": "psychiatry", "name": "Chris Kyle Patriots Hospital", "operator": "North Star Behavioral Health System", "phone": "+1 907-258-7575", "website": "https://chriskylepatriotshospital.com/"}}, {"name": "Providence Extended Stay", "latitude": 61.2118126, "longitude": -149.7750269, "source": "osm", "_tags": {"amenity": "hospital", "healthcare": "hospital", "name": "Providence Extended Stay"}}, {"name": "Providence Extended Care", "latitude": 61.176434, "longitude": -149.8772754, "source": "osm", "_tags": {"amenity": "hospital", "healthcare": "hospital", "landuse": "commercial", "name": "Providence Extended Care", "operator": "Providence"}}, {"name": "St. Elias", "latitude": 61.1763602, "longitude": -149.880981, "source": "osm", "_tags": {"addr:city": "Anchorage", "addr:housenumber": "4800", "addr:postcode": "99508", "addr:state": "AK", "addr:street": "Cordova Street", "amenity": "hospital", "beds": "59", "emergency": "no", "healthcare": "hospital", "landuse": "commercial", "name": "St. Elias", "operator": "Providence"}}, {"name": "", "latitude": 61.2107426, "longitude": -149.8218472, "source": "osm", "_tags": {"amenity": "hospital", "healthcare": "hospital"}}, {"name": "Colonel Mary Louise Rasmuson Campus", "latitude": 61.2332345, "longitude": -149.7448815, "source": "osm", "_tags": {"amenity": "hospital", "healthcare": "hospital", "name": "Colonel Mary Louise Rasmuson Campus"}}, {"name": "", "latitude": 61.2210082, "longitude": -149.8539596, "source": "osm", "_tags": {"amenity": "hospital", "healthcare": "hospital", "landuse": "construction"}}]