[{"name": "Mat-Su Regional Outpatient Center", "latitude": 61.5864231, "longitude": -149.4270914, "source": "osm", "_tags": {"addr:city": "Wasilla", "addr:housenumber": "950", "addr:postcode": "99654", "addr:street": "East Bogard", "amenity": "hospital", "healthcare": "hospital", "name": "Mat-Su Regional Outpatient Center", "phone": "+1 907 352 2860", "website": "https://www.matsuregional.com"}}, {"name": "Alaska Heart Institute", "latitude": 61.5629261, "longitude": -149.2561634, "source": "osm", "_tags": {"amenity": "hospital", "building": "hospital", "building:levels": "4", "emergency": "no", "healthcare": "hospital", "name": "Alaska Heart Institute"}}, {"name": "Providence Health & Services Alaska", "latitude": 61.5596919, "longitude": -149.2518829, "source": "osm", "_tags": {"alt_name": "Providence Matanuska Health Care", "amenity": "hospital", "building": "hospital", "building:levels": "2", "emergency": "no", "healthcare": "hospital", "name": "Providence Health & Services Alaska", "operator": "Providence Health & Services", "operator:wikidata": "Q7252430", "operator:wikipedia": "en:Providence Health & Services"}}, {"name": "Mat-Su Regional Medical Center", "latitude": 61.5627757, "longitude": -149.2579536, "source": "osm", "_tags": {"addr:city": "Palmer", "addr:housenumber": "2500", "addr:postcode": "99645", "addr:street": "South Woodworth Loop", "amenity": "hospital", "beds": "74", "emergency": "yes", "healthcare": "hospital", "name": "Mat-Su Regional Medical Center", "phone": "+1 907 861 6000", "website": "https://www.matsuregional.com/", "wikidata": "Q6785802"}}, {"name": "North Star Palmer Residential Treatment Center", "latitude": 61.623972, "longitude": -149.0677145, "source": "osm", "_tags": {"amenity": "hospital", "beds": "30", "healthcare": "hospital", "name": "North Star Palmer Residential Treatment Center"}}]