[{"name": "Fairbanks Family Wellness", "latitude": 64.8373102, "longitude": -147.807663, "source": "osm", "_tags": {"addr:city": "Fairbanks", "addr:country": "US", "addr:housenumber": "3550", "addr:postcode": "99709", "addr:state": "AK", "addr:street": "Airport Way", "addr:unit": "4", "amenity": "hospital", "emergency": "yes", "healthcare": "hospital", "healthcare:speciality": "paediatrics", "name": "Fairbanks Family Wellness", "opening_hours": "Mo-Fr 09:00-18:00", "operator": "Amy Williamson", "operator:type": "private", "payment:american_express": "yes", "payment:cash": "yes", "payment:cheque": "yes", "payment:debit_cards": "yes", "payment:discover_card": "yes", "payment:mastercard": "yes", "payment:visa": "yes", "phone": "907-479-2331", "website": "https://fairbanksfamilywellness.com"}}, {"name": "Bassett Army Community Hospital", "latitude": 64.8297002, "longitude": -147.6622292, "source": "osm", "_tags": {"addr:city": "Fort Wainwright", "addr:housenumber": "4076", "addr:postcode": "99703-7400", "addr:state": "AK", "addr:street": "Neely Road", "amenity": "hospital", "beds": "23", "healthcare": "hospital", "name": "Bassett Army Community Hospital", "phone": "+1 800 478 5172", "website": "https://bassett-wainwright.tricare.mil"}}, {"name": "Fairbanks Memorial Hospital", "latitude": 64.8317381, "longitude": -147.7405837, "source": "osm", "_tags": {"addr:city": "Fairbanks", "addr:housenumber": "1650", "addr:postcode": "99701", "addr:street": "Cowles Street", "amenity": "hospital", "beds": "152", "building": "hospital", "emergency": "yes", "healthcare": "hospital", "name": "Fairbanks Memorial Hospital", "phone": "+1 907 452 8181", "source": "Bing", "website": "http://www.fmhdc.com/", "wikidata": "Q50036850"}}]