[{"name": "مؤسسة الإستشفائية مهر محي الدين", "latitude": 35.4024932, "longitude": 0.1367773, "source": "osm", "_tags": {"amenity": "hospital", "name": "مؤسسة الإستشفائية مهر محي الدين", "name:ar": "مؤسسة الإستشفائية مهر محي الدين", "name:fr": "S.M.U mascara mhor mhaydin"}}, {"name": "مستوصف", "latitude": 35.3727148, "longitude": 0.4900907, "source": "osm", "_tags": {"amenity": "hospital", "healthcare": "hospital", "name": "مستوصف", "name:ar": "مستوصف"}}, {"name": "polyclinique", "latitude": 35.0558025, "longitude": 0.8855166, "source": "osm", "_tags": {"addr:city": "Aïn El Hadid ⵄⵉⵏ ⵍⴻⵃⴷⵉⴷ عين الحديد", "addr:postcode": "14008", "addr:street": "حي اوكيل محمد", "amenity": "clinic", "building": "yes", "healthcare": "hospital", "healthcare:speciality": "general;paediatrics;dentistry;biology;gynaecology;radiology;orthodontics", "name": "polyclinique"}}, {"name": "Hôpital de Tighennif", "latitude": 35.4221327, "longitude": 0.32213, "source": "osm", "_tags": {"addr:city": "Tighennif", "amenity": "hospital", "emergency": "yes", "name": "Hôpital de Tighennif"}}, {"name": "Hôpital de Ghriss", "latitude": 35.2477436, "longitude": 0.1530131, "source": "osm", "_tags": {"addr:city": "Ghriss", "amenity": "hospital", "name": "Hôpital de Ghriss", "name:ar": "مستشفى غريس", "opening_hours": "24/7"}}, {"name": "Hôpital-Maternité", "latitude": 34.8401697, "longitude": 0.1562157, "source": "osm", "_tags": {"addr:city": "Saida", "amenity": "hospital", "name": "Hôpital-Maternité", "name:ar": "حمدان بختة"}}, {"name": "EPH Ahmed MEDEGHRI", "latitude": 34.8293582, "longitude": 0.1601409, "source": "osm", "_tags": {"addr:city": "Saida", "amenity": "hospital", "emergency": "yes", "name": "EPH Ahmed MEDEGHRI", "name:ar": "Hôpital Ahmed Medeghri", "phone": "+213 48 47 16 56"}}, {"name": "", "latitude": 34.8273857, "longitude": 0.3213582, "source": "osm", "_tags": {"amenity": "hospital", "emergency": "yes"}}, {"name": "Hôpital de Bouhanifia", "latitude": 35.3001818, "longitude": -0.0598401, "source": "osm", "_tags": {"amenity": "hospital", "emergency": "yes", "name": "Hôpital de Bouhanifia"}}, {"name": "Hôpital Yessaad Khaled", "latitude": 35.398648, "longitude": 0.140492, "source": "osm", "_tags": {"addr:city": "Mascara", "addr:postcode": "29000", "amenity": "hospital", "emergency": "yes", "name": "Hôpital Yessaad Khaled", "name:ar": "مستشفى يسعد خالد", "name:fr": "Hôpital Yessaad Khaled"}}, {"name": "Hôpital Meslem Tayeb", "latitude": 35.4000902, "longitude": 0.1588845, "source": "osm", "_tags": {"addr:city": "Mascara", "amenity": "hospital", "healthcare": "hospital", "name": "Hôpital Meslem Tayeb", "name:ar": "مستشفى مسلم الطيب", "name:fr": "Hôpital Meslem Tayeb"}}, {"name": "", "latitude": 35.4024101, "longitude": 0.136749, "source": "osm", "_tags": {"amenity": "hospital", "healthcare": "hospital"}}, {"name": "", "latitude": 35.3725035, "longitude": 0.4900775, "source": "osm", "_tags": {"amenity": "hospital", "healthcare": "hospital"}}, {"name": "", "latitude": 35.3313793, "longitude": -0.0547157, "source": "osm", "_tags": {"healthcare": "hospital"}}, {"name": "", "latitude": 35.3135444, "longitude": -0.046246, "source": "osm", "_tags": {"healthcare": "hospital"}}]