[{"name": "Centre de reéducation fonctionnelle", "latitude": 34.6822245, "longitude": 3.2472782, "source": "osm", "_tags": {"amenity": "hospital", "name": "Centre de reéducation fonctionnelle"}}, {"name": "", "latitude": 35.0876736, "longitude": 3.0223454, "source": "osm", "_tags": {"amenity": "hospital", "fixme": "Merci de préciser le nom exact.", "name:ar": "الاستعجالات", "name:fr": "Urgences"}}, {"name": "عيادة تصفية الدم", "latitude": 35.0881608, "longitude": 3.0221684, "source": "osm", "_tags": {"amenity": "hospital", "name": "عيادة تصفية الدم", "name:ar": "عيادة تصفية الدم", "name:en": "Clinique Hémodialyse", "name:fr": "Clinique Hémodialyse"}}, {"name": "حيسونة طب الأعصاب", "latitude": 34.6704187, "longitude": 3.2544259, "source": "osm", "_tags": {"amenity": "hospital", "healthcare:speciality": "neurology", "name": "حيسونة طب الأعصاب", "name:ar": "حيسونة طب الأعصاب", "name:en": "Haissouna", "name:fr": "Haissouna"}}, {"name": "عين سرار", "latitude": 34.6898524, "longitude": 3.2597628, "source": "osm", "_tags": {"amenity": "hospital", "name": "عين سرار", "name:ar": "عين سرار", "name:fr": "Ain srar"}}, {"name": "Sameh Mezher Ophtalmologie", "latitude": 34.6651918, "longitude": 3.2517335, "source": "osm", "_tags": {"addr:city": "Djelfa", "addr:postcode": "17001", "addr:street": "Cité Guanani N°184 étage 1, Rond point Chiguvara.", "amenity": "hospital", "healthcare": "hospital", "healthcare:speciality": "ophthalmology", "name": "Sameh Mezher Ophtalmologie", "operator": "Sameh mezher", "operator:type": "private"}}, {"name": "مستشفى العقيد احمد بن شريف لمرضى السرطان", "latitude": 34.6965156, "longitude": 3.273903, "source": "osm", "_tags": {"addr:postcode": "17000", "amenity": "hospital", "name": "مستشفى العقيد احمد بن شريف لمرضى السرطان", "name:fr": "Hôpital Ahmed Ben Cherif des malades du cancer", "opening_hours": "Sa-We 08:00-16:00"}}, {"name": "عيادة متعددة الخدمات الوئام", "latitude": 34.6760679, "longitude": 3.2765084, "source": "osm", "_tags": {"addr:postcode": "17079", "amenity": "hospital", "name": "عيادة متعددة الخدمات الوئام", "name:fr": "Polyclinique El-wiam", "opening_hours": "24/7"}}, {"name": "", "latitude": 34.6708956, "longitude": 3.2536451, "source": "osm", "_tags": {"amenity": "hospital", "name:ar": "مستشفلى الأمراض الصدرية", "name:fr": "Pneumologie"}}, {"name": "UMC (urgences médico-chirurgicale)", "latitude": 34.6526653, "longitude": 3.2679716, "source": "osm", "_tags": {"amenity": "hospital", "emergency": "yes", "name": "UMC (urgences médico-chirurgicale)"}}, {"name": "", "latitude": 34.6842648, "longitude": 3.2391105, "source": "osm", "_tags": {"amenity": "hospital"}}, {"name": "مركز غسيل الكلى", "latitude": 34.6638362, "longitude": 3.2639261, "source": "osm", "_tags": {"addr:city": "Djelfa", "addr:postcode": "17000", "amenity": "hospital", "building": "yes", "name": "مركز غسيل الكلى", "name:ar": "مركز غسيل الكلى", "name:fr": "Centre d'hémodialyse"}}, {"name": "Hôpital Colonel Ahmed Bouguera", "latitude": 35.0870461, "longitude": 3.0238796, "source": "osm", "_tags": {"addr:city": "Hassi Bahbah", "addr:postcode": "17002", "amenity": "hospital", "emergency": "yes", "name": "Hôpital Colonel Ahmed Bouguera", "name:ar": "مستشفى العقيد احمد بوقرة"}}, {"name": "مستشفى الجلفة", "latitude": 34.6629664, "longitude": 3.2643454, "source": "osm", "_tags": {"amenity": "hospital", "name": "مستشفى الجلفة", "name:ar": "مستشفى الجلفة", "name:en": "Hôpital Djelfa", "name:fr": "Hôpital de Djelfa"}}, {"name": "Centre de Santé", "latitude": 34.8211802, "longitude": 3.7635251, "source": "osm", "_tags": {"amenity": "hospital", "name": "Centre de Santé", "name:ar": "Centre de Santé bir foda"}}, {"name": "Hôpital Ophtalmologique Cubain Djelfa", "latitude": 34.6575341, "longitude": 3.2620398, "source": "osm", "_tags": {"amenity": "hospital", "contact:phone": "+213 27 876027", "name": "Hôpital Ophtalmologique Cubain Djelfa", "name:fr": "Hôpital Ophtalmologique Cubain Djelfa"}}, {"name": "EHS Mother and Child Hospital", "latitude": 34.6672956, "longitude": 3.2488217, "source": "osm", "_tags": {"addr:city": "Djelfa", "addr:postcode": "17000", "amenity": "hospital", "name": "EHS Mother and Child Hospital", "name:ar": "مؤسسة حماية الطفولة و الأمومة"}}, {"name": "Hôpital", "latitude": 35.3544756, "longitude": 3.3655958, "source": "osm", "_tags": {"addr:city": "Had Sahary", "amenity": "hospital", "name": "Hôpital"}}, {"name": "Centre de reéducation fonctionnelle", "latitude": 34.6821633, "longitude": 3.247116, "source": "osm", "_tags": {"amenity": "hospital", "healthcare": "hospital", "name": "Centre de reéducation fonctionnelle"}}, {"name": "عيادة تصفية الدم", "latitude": 35.0876953, "longitude": 3.0223611, "source": "osm", "_tags": {"amenity": "hospital", "healthcare": "hospital", "name": "عيادة تصفية الدم", "name:ar": "عيادة تصفية الدم"}}]