[{"name": "Hopital Sidi Aïd", "latitude": 35.3551028, "longitude": -0.9729479, "source": "osm", "_tags": {"amenity": "hospital", "healthcare": "hospital", "name": "Hopital Sidi Aïd", "name:ar": "مستشفى سيدي عايد", "name:fr": "EPH"}}, {"name": "", "latitude": 35.2383026, "longitude": -0.2328704, "source": "osm", "_tags": {"addr:city": "سفيزف", "addr:city:ar": "سفيزف", "amenity": "hospital", "healthcare": "hospital"}}, {"name": "Polyclinique sidi chaib", "latitude": 34.5927437, "longitude": -0.5507738, "source": "osm", "_tags": {"amenity": "hospital", "name": "Polyclinique sidi chaib", "name:ar": "Polyclinique sidi chaib"}}, {"name": "المؤسسة العمومية للصحة الجوارية\"سايج يحي\"", "latitude": 34.7873444, "longitude": -0.5719594, "source": "osm", "_tags": {"addr:city": "تلاغ", "addr:street": "نهج العربي بن مهيدي", "amenity": "hospital", "healthcare": "hospital", "name": "المؤسسة العمومية للصحة الجوارية\"سايج يحي\"", "name:ar": "المؤسسة العمومية للصحة الجوارية\"سايج يحي\"", "name:fr": "EPSP SAIDJ YAHIA", "opening_hours": "24/7"}}, {"name": "مركز الصحة", "latitude": 35.1918965, "longitude": -0.35876, "source": "osm", "_tags": {"addr:city": "مصطفى بن إبراهيم", "addr:city:ar": "مصطفى بن إبراهيم", "amenity": "hospital", "healthcare": "hospital", "healthcare:speciality": "general", "name": "مركز الصحة", "name:ar": "مركز الصحة", "name:fr": "centre de centé"}}, {"name": "", "latitude": 35.1945455, "longitude": -0.6363444, "source": "osm", "_tags": {"addr:postcode": "22000", "amenity": "hospital", "name:fr": "Les rosiers", "opening_hours": "24/7"}}, {"name": "De police", "latitude": 35.1898784, "longitude": -0.6444025, "source": "osm", "_tags": {"amenity": "hospital", "name": "De police"}}, {"name": "قاعة علاج", "latitude": 34.8864955, "longitude": -0.5505049, "source": "osm", "_tags": {"amenity": "hospital", "name": "قاعة علاج", "name:ar": "قاعة علاج"}}, {"name": "مستشفى", "latitude": 34.4993608, "longitude": -0.8078268, "source": "osm", "_tags": {"amenity": "hospital", "name": "مستشفى", "name:ar": "مستشفى"}}, {"name": "مستشفى", "latitude": 34.4951978, "longitude": -0.8267119, "source": "osm", "_tags": {"amenity": "hospital", "name": "مستشفى", "name:ar": "مستشفى", "name:en": "Hopital"}}, {"name": "عيادة شيالي", "latitude": 35.1883586, "longitude": -0.6307306, "source": "osm", "_tags": {"amenity": "hospital", "name": "عيادة شيالي", "name:ar": "عيادة شيالي", "name:en": "Clinique chiali"}}, {"name": "", "latitude": 34.7779417, "longitude": -0.4479773, "source": "osm", "_tags": {"amenity": "hospital"}}, {"name": "قاعة علاج", "latitude": 34.9112261, "longitude": -1.0363253, "source": "osm", "_tags": {"amenity": "hospital", "name": "قاعة علاج", "name:fr": "Salle de soins"}}, {"name": "CHU Docteur Hassani Abdelkader", "latitude": 35.182472, "longitude": -0.6468609, "source": "osm", "_tags": {"amenity": "hospital", "emergency": "yes", "name": "CHU Docteur Hassani Abdelkader"}}, {"name": "Centre anticancéreux", "latitude": 35.1768305, "longitude": -0.6476054, "source": "osm", "_tags": {"amenity": "hospital", "healthcare": "hospital", "name": "Centre anticancéreux"}}, {"name": "مستشفى حديد عيسى تلاغ", "latitude": 34.7793942, "longitude": -0.5644231, "source": "osm", "_tags": {"addr:city": "تلاغ", "amenity": "hospital", "healthcare": "hospital", "name": "مستشفى حديد عيسى تلاغ", "name:ar": "مستشفى تلاغ", "name:fr": "Hôpital de Telagh"}}, {"name": "Polyclinique de Hammam Bou Hadjar", "latitude": 35.3771308, "longitude": -0.9666106, "source": "osm", "_tags": {"amenity": "hospital", "healthcare": "clinic", "healthcare:speciality": "general", "name": "Polyclinique de Hammam Bou Hadjar", "name:fr": "Polyclinique de Hammam Bou Hadjar", "source": "Algerie Mapper Team"}}, {"name": "Sanatorium Tessala", "latitude": 35.274587, "longitude": -0.7765764, "source": "osm", "_tags": {"amenity": "hospital", "building": "hospital", "emergency": "yes", "healthcare": "hospital", "name": "Sanatorium Tessala", "operator": "Ministère de la Santé", "operator:type": "public"}}, {"name": "centre de santé", "latitude": 35.2010079, "longitude": -0.6190994, "source": "osm", "_tags": {"amenity": "hospital", "emergency": "yes", "healthcare": "hospital", "name": "centre de santé"}}, {"name": "Maternité Benatou Mira", "latitude": 35.1933797, "longitude": -0.6193061, "source": "osm", "_tags": {"amenity": "hospital", "emergency": "yes", "healthcare": "hospital", "name": "Maternité Benatou Mira", "name:ar": "مستشفى الولادة", "name:fr": "Maternité"}}, {"name": "مركز الصحة", "latitude": 35.192154, "longitude": -0.6316184, "source": "osm", "_tags": {"addr:city": "سيدي بلعباس", "addr:city:ar": "سيدي بلعباس", "amenity": "hospital", "emergency": "yes", "healthcare": "hospital", "name": "مركز الصحة", "name:ar": "مركز الصحة", "name:fr": "Centre de santé"}}, {"name": "مركز الصحة", "latitude": 35.1939438, "longitude": -0.6438964, "source": "osm", "_tags": {"addr:city": "سيدي بلعباس", "addr:city:ar": "سيدي بلعباس", "amenity": "hospital", "healthcare": "hospital", "name": "مركز الصحة", "name:ar": "مركز الصحة", "name:fr": "centre de santé"}}, {"name": "مركز الصحة", "latitude": 35.1951754, "longitude": -0.6289335, "source": "osm", "_tags": {"addr:city": "سيدي بلعباس", "addr:city:ar": "سيدي بلعباس", "amenity": "hospital", "emergency": "yes", "healthcare": "hospital", "name": "مركز الصحة", "name:ar": "مركز الصحة", "name:fr": "centre de santé"}}, {"name": "centre de santé", "latitude": 35.2000371, "longitude": -0.6476865, "source": "osm", "_tags": {"amenity": "hospital", "name": "centre de santé"}}, {"name": "EPH Sidi Bel Abbès", "latitude": 35.218377, "longitude": -0.6317008, "source": "osm", "_tags": {"amenity": "hospital", "healthcare": "hospital", "name": "EPH Sidi Bel Abbès"}}, {"name": "Hôpital psychiatrique", "latitude": 35.2214453, "longitude": -0.6315381, "source": "osm", "_tags": {"amenity": "hospital", "barrier": "wall", "healthcare:speciality": "psychiatry", "name": "Hôpital psychiatrique"}}, {"name": "مجمع عيادات - أمومة", "latitude": 35.236135, "longitude": -0.2420719, "source": "osm", "_tags": {"addr:city": "سفيزف", "addr:city:ar": "سفيزف", "amenity": "hospital", "building": "yes", "healthcare": "hospital", "name": "مجمع عيادات - أمومة", "name:ar": "مجمع عيادات - أمومة", "name:fr": "Polyclinique - Maternité"}}, {"name": "", "latitude": 35.2329043, "longitude": -0.2450007, "source": "osm", "_tags": {"addr:city": "سفيزف", "addr:city:ar": "سفيزف", "amenity": "hospital", "healthcare": "hospital"}}, {"name": "Les Urgences", "latitude": 35.4053274, "longitude": -0.8776363, "source": "osm", "_tags": {"addr:city": "Ain El Arbaa", "amenity": "hospital", "healthcare:speciality": "emergency", "name": "Les Urgences"}}, {"name": "Hôpital de Bouhanifia", "latitude": 35.3001818, "longitude": -0.0598401, "source": "osm", "_tags": {"amenity": "hospital", "emergency": "yes", "name": "Hôpital de Bouhanifia"}}, {"name": "Hôpital de Aïn El Berd", "latitude": 35.3652034, "longitude": -0.511266, "source": "osm", "_tags": {"amenity": "hospital", "emergency": "yes", "name": "Hôpital de Aïn El Berd"}}, {"name": "Hôpital", "latitude": 34.9215751, "longitude": -0.9505869, "source": "osm", "_tags": {"addr:city": "Aïn Tallout", "amenity": "hospital", "name": "Hôpital", "name:ar": "مستشفى"}}, {"name": "Dispensaire", "latitude": 34.9245832, "longitude": -0.9558268, "source": "osm", "_tags": {"amenity": "hospital", "name": "Dispensaire"}}, {"name": "المؤسسة العمومية للصحة الجوارية\"سايج يحي\"", "latitude": 34.7874554, "longitude": -0.5718621, "source": "osm", "_tags": {"amenity": "hospital", "healthcare": "hospital", "name": "المؤسسة العمومية للصحة الجوارية\"سايج يحي\"", "name:ar": "المؤسسة العمومية للصحة الجوارية\"سايج يحي\""}}, {"name": "Clinique d'hémodialyse", "latitude": 35.1844296, "longitude": -0.6428742, "source": "osm", "_tags": {"addr:city": "سيدي بلعباس", "addr:city:ar": "سيدي بلعباس", "amenity": "hospital", "healthcare": "hospital", "name": "Clinique d'hémodialyse"}}, {"name": "مستشفى أولاد ميمون", "latitude": 34.9050334, "longitude": -1.0328629, "source": "osm", "_tags": {"amenity": "hospital", "healthcare": "hospital", "language:ar": "main", "name": "مستشفى أولاد ميمون", "name:ar": "مستشفى أولاد ميمون", "name:fr": "Hôpital"}}, {"name": "", "latitude": 35.2382923, "longitude": -0.2328703, "source": "osm", "_tags": {"amenity": "hospital", "healthcare": "hospital"}}, {"name": "Polyclinique sidi chaibq", "latitude": 34.5928905, "longitude": -0.5509522, "source": "osm", "_tags": {"amenity": "hospital", "healthcare": "hospital", "name": "Polyclinique sidi chaibq"}}, {"name": "مركز الصحة", "latitude": 35.1918801, "longitude": -0.3587782, "source": "osm", "_tags": {"amenity": "hospital", "healthcare": "hospital", "name": "مركز الصحة", "name:ar": "مركز الصحة"}}, {"name": "المؤسسة الاستشفائية للأمن الوطني", "latitude": 35.1887442, "longitude": -0.6420235, "source": "osm", "_tags": {"addr:city": "سيدي بلعباس", "addr:city:ar": "سيدي بلعباس", "addr:postcode": "22000", "amenity": "hospital", "healthcare": "hospital", "name": "المؤسسة الاستشفائية للأمن الوطني", "name:ar": "المؤسسة الاستشفائية للأمن الوطني", "name:fr": "EHSN SBA"}}, {"name": "", "latitude": 35.1947367, "longitude": -0.6362913, "source": "osm", "_tags": {"amenity": "hospital", "healthcare": "hospital"}}]