[{"name": "المستشفى الجهوي بسيدي بوزيد", "latitude": 35.0240509, "longitude": 9.4652098, "source": "osm", "_tags": {"addr:city": "سيدي بوزيد", "addr:country": "TN", "amenity": "hospital", "emergency": "yes", "healthcare": "hospital", "name": "المستشفى الجهوي بسيدي بوزيد", "name:ar": "المستشفى الجهوي بسيدي بوزيد", "name:fr": "Hôpital Régional de Sidi Bouzid", "phone": "+216 76 632 500"}}, {"name": "المستشفى الجهوي بسيدي بوزيد", "latitude": 35.024146, "longitude": 9.4658999, "source": "osm", "_tags": {"addr:city": "سيدي بوزيد", "addr:postcode": "9100", "amenity": "hospital", "barrier": "wall", "emergency": "yes", "healthcare": "hospital", "name": "المستشفى الجهوي بسيدي بوزيد", "name:ar": "المستشفى الجهوي بسيدي بوزيد", "name:fr": "Hôpital Régional de Sidi Bouzid", "phone": "+216 76 632 175"}}, {"name": "مركز الصحة الاساسية بالمكارم", "latitude": 35.2150982, "longitude": 9.6077895, "source": "osm", "_tags": {"amenity": "hospital", "emergency": "yes", "healthcare": "hospital", "name": "مركز الصحة الاساسية بالمكارم", "name:ar": "مركز الصحة الاساسية بالمكارم"}}, {"name": "", "latitude": 34.849246, "longitude": 9.7885106, "source": "osm", "_tags": {"amenity": "hospital", "healthcare": "hospital"}}, {"name": "HopHôpitalital Ouled Ouhiba", "latitude": 34.6443874, "longitude": 9.0765782, "source": "osm", "_tags": {"amenity": "hospital", "emergency": "yes", "name": "HopHôpitalital Ouled Ouhiba"}}, {"name": "المستشفى المحلي بالسند", "latitude": 34.5361112, "longitude": 9.2533848, "source": "osm", "_tags": {"addr:city": "Sened", "addr:postcode": "2190", "addr:street": "Route de la Gare", "amenity": "hospital", "fax": "+216 76 290 131", "healthcare": "hospital", "name": "المستشفى المحلي بالسند", "name:ar": "المستشفى المحلي بالسند", "name:fr": "Hôpital de Sened", "phone": "+216 76 290 044"}}, {"name": "Hopital local de BIADHA", "latitude": 34.4783612, "longitude": 9.1718481, "source": "osm", "_tags": {"addr:city": "السند", "addr:city:ar": "السند", "addr:postcode": "2190", "addr:street": "Route de Tafertaset", "amenity": "hospital", "building": "hospital", "building:levels": "1", "name": "Hopital local de BIADHA"}}, {"name": "مستشفى الأطفال", "latitude": 34.8563885, "longitude": 9.7854728, "source": "osm", "_tags": {"amenity": "hospital", "healthcare": "hospital", "name": "مستشفى الأطفال", "name:ar": "مستشفى الأطفال", "name:fr": "Hôpital d'Enfants"}}, {"name": "مستشفى أولاد حفوز", "latitude": 35.0826547, "longitude": 9.8715432, "source": "osm", "_tags": {"building": "yes", "healthcare": "hospital", "name": "مستشفى أولاد حفوز", "name:ar": "مستشفى أولاد حفوز", "name:fr": "Hôpital Ouled Haffouz"}}, {"name": "Hajeb El Oyoun Hospital", "latitude": 35.3909053, "longitude": 9.5530691, "source": "osm", "_tags": {"amenity": "hospital", "healthcare": "hospital", "name": "Hajeb El Oyoun Hospital", "name:ar": "مستشفى حاجب العيون", "name:en": "Hajeb El Oyoun Hospital", "name:it": "Ospedale di Hajeb El Oyoun"}}, {"name": "Sbeitla Regional Hospital", "latitude": 35.2458611, "longitude": 9.1059817, "source": "osm", "_tags": {"amenity": "hospital", "healthcare": "hospital", "name": "Sbeitla Regional Hospital"}}, {"name": "", "latitude": 35.2365464, "longitude": 9.1149861, "source": "osm", "_tags": {"amenity": "hospital", "healthcare": "hospital"}}]