[{"name": "Health centre", "latitude": 35.4081301, "longitude": 24.2030232, "source": "osm", "_tags": {"amenity": "hospital", "healthcare": "hospital", "name": "Health centre"}}, {"name": "ΚΕΝΤΡΟ ΥΓΕΙΑΣ Μοίρες", "latitude": 35.0536511, "longitude": 24.8779725, "source": "osm", "_tags": {"addr:city": "Μοίρες", "addr:postcode": "704 00", "amenity": "hospital", "healthcare": "hospital", "name": "ΚΕΝΤΡΟ ΥΓΕΙΑΣ Μοίρες", "name:el": "ΚΕΝΤΡΟ ΥΓΕΙΑΣ Μοίρες", "name:en": "HEALTH CENTER in Mires", "name:it": "Ospedale di Mires", "phone": "+30 289 234 0100", "phone:de": "+30 28920 24495", "phone:en": "+30 28920 24564", "website": "https://www.lentas-online.com/en/information/health.html"}}, {"name": "", "latitude": 35.3697201, "longitude": 24.6936948, "source": "osm", "_tags": {"amenity": "hospital", "healthcare": "hospital", "name:en": "Health Center Perama"}}, {"name": "Agkali Eldery Care Homes", "latitude": 35.2134808, "longitude": 24.6083018, "source": "osm", "_tags": {"amenity": "hospital", "name": "Agkali Eldery Care Homes"}}, {"name": "Γενικό Νοσοκομείο Ρεθύμνου", "latitude": 35.3651226, "longitude": 24.4714494, "source": "osm", "_tags": {"addr:city": "Ρέθυμνο", "addr:housenumber": "17-19", "addr:postcode": "74132", "addr:street": "Τρανταλλίδη", "amenity": "hospital", "email": "info@rethymnohospital.gr", "emergency": "yes", "healthcare": "hospital", "healthcare:speciality": "general;ophthalmology;physiatry;maternity;emergency", "int_name": "Geniko Nosokomeio  Rethimno", "name": "Γενικό Νοσοκομείο Ρεθύμνου", "name:el": "Γενικό Νοσοκομείο Ρεθύμνου", "name:en": "Rethymno General Hospital", "operator": "ΕΣΥ", "operator:type": "government", "phone": "+30 2831 342100", "website": "https://www.rethymnohospital.gr/", "wikidata": "Q134366790"}}]