[{"name": "Polyclinque d'Assa", "latitude": 35.0413484, "longitude": -1.7834565, "source": "osm", "_tags": {"amenity": "hospital", "name": "Polyclinque d'Assa"}}, {"name": "polyclinique Khouriba", "latitude": 35.0328899, "longitude": -1.7687651, "source": "osm", "_tags": {"addr:city": "Khouriba", "amenity": "hospital", "emergency": "no", "name": "polyclinique Khouriba"}}, {"name": "", "latitude": 35.0694938, "longitude": -1.1392369, "source": "osm", "_tags": {"amenity": "hospital"}}, {"name": "Polyclinique Aboubakr Belkaïd", "latitude": 35.3111068, "longitude": -1.1417506, "source": "osm", "_tags": {"addr:city": "AIN TEMOUCHENT", "addr:postcode": "46000", "amenity": "hospital", "name": "Polyclinique Aboubakr Belkaïd", "opening_hours": "08:00-17:00"}}, {"name": "Dispensaire Ammour Ahmed", "latitude": 35.300432, "longitude": -1.1316211, "source": "osm", "_tags": {"addr:city": "Ain Temouchent", "addr:postcode": "46000", "amenity": "hospital", "healthcare": "hospital", "healthcare:speciality": "general", "name": "Dispensaire Ammour Ahmed", "opening_hours": "08:00-20:00"}}, {"name": "Centre de santé Souk El Tenine", "latitude": 35.2272191, "longitude": -1.5057249, "source": "osm", "_tags": {"addr:city": "ولهاصة", "amenity": "hospital", "healthcare": "hospital", "name": "Centre de santé Souk El Tenine", "name:ar": "سوق الإثنين", "name:en": "Suq al-Ithnain", "name:fr": "Centre de santé Souk el tenine"}}, {"name": "Hôpital de Bab El Assa", "latitude": 34.9608456, "longitude": -2.0307071, "source": "osm", "_tags": {"addr:city": "Bab El Assa", "addr:city:ar": "باب العسة", "addr:city:fr": "Bab El Assa", "amenity": "hospital", "healthcare": "hospital", "name": "Hôpital de Bab El Assa", "name:fr": "Hôpital de Bab El Assa"}}, {"name": "Hôpital Docteur Benzarjeb", "latitude": 35.2886316, "longitude": -1.1287361, "source": "osm", "_tags": {"addr:city": "عين تموشنت", "addr:postcode": "46000", "amenity": "hospital", "designation": "Etablissement Hospitalier", "emergency": "yes", "healthcare": "hospital", "name": "Hôpital Docteur Benzarjeb", "name:ar": "مستشفى الدكتور بن زرجب", "name:fr": "Hôpital Docteur Benzarjeb"}}, {"name": "Centre de santé", "latitude": 35.2954639, "longitude": -1.1407311, "source": "osm", "_tags": {"addr:city": "عين تموشنت", "addr:postcode": "46000", "amenity": "hospital", "healthcare": "hospital", "name": "Centre de santé", "name:ar": "مركز الصحة", "name:fr": "Centre de santé"}}, {"name": "urgence médicale", "latitude": 35.0784869, "longitude": -1.2230568, "source": "osm", "_tags": {"addr:street": "route de sidi abdelli", "amenity": "hospital", "name": "urgence médicale"}}, {"name": "طبيبة بريكسي", "latitude": 34.8479339, "longitude": -1.7403039, "source": "osm", "_tags": {"addr:city": "مغنية", "addr:city:ar": "مغنية", "amenity": "hospital", "healthcare": "hospital", "name": "طبيبة بريكسي", "name:ar": "طبيبة بريكسي", "name:fr": "Medcin brikci"}}, {"name": "", "latitude": 34.6731549, "longitude": -1.9235752, "source": "osm", "_tags": {"addr:housenumber": "Immeuble 2", "addr:postcode": "60000", "addr:street": "rue saad zaghloul", "amenity": "hospital", "healthcare": "hospital", "internet_access": "wlan"}}, {"name": "Sanatorium Lalla Setti مستشفى لالا ستي", "latitude": 34.863915, "longitude": -1.3030037, "source": "osm", "_tags": {"amenity": "hospital", "is_in:country": "Algeria الجزائر", "is_in:state": "Tlemcen تلمسان", "name": "Sanatorium Lalla Setti مستشفى لالا ستي", "name:ar": "مستشفى لالا ستي", "name:en": "Sanatorium Lalla Setti"}}, {"name": "Rajesh Deshmukh Consultant Eye Surgeon", "latitude": 34.9230433, "longitude": -1.3326404, "source": "osm", "_tags": {"addr:city": "London", "addr:housenumber": "50-52", "addr:postcode": "W1G8TL", "addr:street": "New Cavendish St", "amenity": "hospital", "description": "Mr Deshmukh is a consultant ophthalmologist and an expert Cataract Surgeon with world renowned Moorfields Eye Hospital in London. \nHe has supervised and trained many ophthalmologists in cataract surgery since 2013.", "healthcare": "hospital", "name": "Rajesh Deshmukh Consultant Eye Surgeon", "operator": "Rajesh Deshmukh, Eye Specialist & Surgeon", "operator:type": "private"}}, {"name": "Hôpital Maalem Lahcen", "latitude": 35.0885931, "longitude": -1.8590612, "source": "osm", "_tags": {"addr:city": "Ghazaouet", "addr:street": "Ouled Ziri", "amenity": "hospital", "barrier": "wall", "name": "Hôpital Maalem Lahcen", "phone": "+213 (0)43 32 64 28"}}, {"name": "polyclinique Khouriba", "latitude": 35.0329331, "longitude": -1.7688127, "source": "osm", "_tags": {"amenity": "hospital", "building": "yes", "healthcare": "hospital", "name": "polyclinique Khouriba"}}, {"name": "Hôpital privé", "latitude": 35.0632377, "longitude": -1.4269539, "source": "osm", "_tags": {"addr:city": "Remchi", "amenity": "hospital", "name": "Hôpital privé"}}, {"name": "مستشفى الدكتور بن زرجب", "latitude": 35.2883036, "longitude": -1.1296828, "source": "osm", "_tags": {"addr:city": "عين تموشنت", "addr:postcode": "46000", "amenity": "hospital", "designation": "Etablissement Hospilarier", "emergency": "yes", "healthcare": "hospital", "name": "مستشفى الدكتور بن زرجب", "name:ar": "مستشفى الدكتور بن زرجب", "name:fr": "Hôpital Dr Benzarjeb"}}, {"name": "Hôpital Ahmed Medeghri مستشفى أحمد مدغري", "latitude": 35.2999501, "longitude": -1.1418299, "source": "osm", "_tags": {"addr:city": "Aïn Témouchent عين تموشنت", "addr:city:ar": "عين تموشنت", "addr:city:es": "Aín Temushent", "addr:postcode": "46000", "amenity": "hospital", "emergency": "yes", "healthcare": "hospital", "name": "Hôpital Ahmed Medeghri مستشفى أحمد مدغري", "name:ar": "مستشفى أحمد مدغري", "name:en": "Ahmad Madighri Hospital"}}, {"name": "Hôpital de Beni Saf", "latitude": 35.3052659, "longitude": -1.3838154, "source": "osm", "_tags": {"addr:city": "Beni Saf", "addr:street": "Rue de la Falaise", "amenity": "hospital", "emergency": "yes", "healthcare": "hospital", "healthcare:speciality": "general", "name": "Hôpital de Beni Saf", "operator": "Ministère de la Santé", "operator:type": "government", "operator:wikidata": "Q17639127"}}, {"name": "EPH Nedroma", "latitude": 35.0178489, "longitude": -1.7593382, "source": "osm", "_tags": {"addr:city": "Nedroma", "addr:postcode": "13600", "addr:street": "N99", "amenity": "hospital", "emergency": "yes", "name": "EPH Nedroma"}}, {"name": "Hôpital de Maghnia", "latitude": 34.8389655, "longitude": -1.7344991, "source": "osm", "_tags": {"amenity": "hospital", "name": "Hôpital de Maghnia"}}, {"name": "Hôpital El Farabi", "latitude": 34.6755048, "longitude": -1.914488, "source": "osm", "_tags": {"amenity": "hospital", "healthcare": "hospital", "name": "Hôpital El Farabi", "name:fr": "Hôpital El Farabi"}}, {"name": "Centre Hospitalier Universitaire (CHU) Mohammed VI", "latitude": 34.6562534, "longitude": -1.9107389, "source": "osm", "_tags": {"amenity": "hospital", "healthcare": "hospital", "name": "Centre Hospitalier Universitaire (CHU) Mohammed VI", "name:fr": "Centre Hospitalier Universitaire (CHU) Mohammed VI"}}, {"name": "Hopital de Trone", "latitude": 34.4800253, "longitude": -1.7630063, "source": "osm", "_tags": {"addr:city": "TOUISSIT", "addr:district": "OUJDA", "addr:full": "Cité Economique 64852 TOUISSIT", "addr:place": "Cité Economique", "addr:postcode": "64852", "addr:province": "JERADA", "addr:suburb": "TOUISSIT", "amenity": "hospital", "comment": "Précision de 3 décimal", "fixme": "resurvey", "healthcare": "hospital", "name": "Hopital de Trone", "operator": "Ministère de la Santé", "post_office:type": "agence ABB", "ref:code_mecano": "4600.0", "source": "https://www.sante.gov.ma/", "website": "https://www.sante.gov.ma/"}}, {"name": "Centre de Santé Lamharchi", "latitude": 34.6778842, "longitude": -1.9356027, "source": "osm", "_tags": {"amenity": "hospital", "healthcare": "hospital", "name": "Centre de Santé Lamharchi"}}, {"name": "Polyclinique CNSS", "latitude": 34.6700246, "longitude": -1.9113664, "source": "osm", "_tags": {"amenity": "hospital", "healthcare": "hospital", "name": "Polyclinique CNSS"}}, {"name": "Clinique Isly", "latitude": 34.6729664, "longitude": -1.925882, "source": "osm", "_tags": {"addr:city": "Oujda", "addr:housenumber": "12", "addr:street": "Rue Abdelaziz Taalibi", "amenity": "hospital", "healthcare": "hospital", "name": "Clinique Isly", "phone": "+212 536700701"}}, {"name": "L'Hôpital des Maladies Psychiatriques", "latitude": 34.6800227, "longitude": -1.8906515, "source": "osm", "_tags": {"amenity": "hospital", "healthcare": "hospital", "name": "L'Hôpital des Maladies Psychiatriques"}}, {"name": "Centre Mehdi Ibn Toumart مركز المهدي ابن تومرت", "latitude": 34.7913823, "longitude": -1.9020136, "source": "osm", "_tags": {"amenity": "hospital", "health_facility_type": "health_center", "healthcare": "hospital", "name": "Centre Mehdi Ibn Toumart مركز المهدي ابن تومرت", "name:ar": "مركز المهدي ابن تومرت", "name:fr": "Centre Mehdi Ibn Toumart"}}, {"name": "Hôpital Dr Tidjani Damerdji", "latitude": 34.8755872, "longitude": -1.3272164, "source": "osm", "_tags": {"addr:city": "Tlemcen", "addr:postcode": "13000", "addr:street": "Boulevard de L'ALN", "alt_name": "centre hospitalo-universitaire Tlemcen", "amenity": "hospital", "emergency": "yes", "healthcare": "hospital", "name": "Hôpital Dr Tidjani Damerdji", "name:ar": "مستشفى دكتور دمرجي تيجاني", "name:en": "Dr Tidjani Damerdji Hospital", "name:fr": "Hôpital Dr Tidjani Damerdji", "operator": "Ministère de la Santé", "operator:wikidata": "Q17639127", "website": "https://www.chu-tlemcen.dz/"}}, {"name": "Dispensaire El Aounia مستوصف العونية", "latitude": 34.6883068, "longitude": -1.9007217, "source": "osm", "_tags": {"amenity": "hospital", "health_facility:type": "dispensary", "healthcare": "hospital", "name": "Dispensaire El Aounia مستوصف العونية", "name:ar": "مستوصف العونية", "name:fr": "Dispensaire El Aounia"}}, {"name": "Centre Medical Oujlida", "latitude": 34.921601, "longitude": -1.3305244, "source": "osm", "_tags": {"amenity": "hospital", "name": "Centre Medical Oujlida"}}, {"name": "Hopital de Oncologie", "latitude": 34.6250716, "longitude": -1.9839779, "source": "osm", "_tags": {"amenity": "hospital", "healthcare": "hospital", "name": "Hopital de Oncologie"}}, {"name": "Polyclinique des consultations spécialisées Boudghène", "latitude": 34.8730379, "longitude": -1.3211314, "source": "osm", "_tags": {"amenity": "hospital", "name": "Polyclinique des consultations spécialisées Boudghène", "name:ar": "مستشفى بودغن", "name:fr": "Polyclinique des consultations spécialisées Boudghène"}}, {"name": "Clinique Les Dahlias", "latitude": 34.8904135, "longitude": -1.3296538, "source": "osm", "_tags": {"amenity": "hospital", "building": "yes", "healthcare": "clinic", "name": "Clinique Les Dahlias", "name:ar": "عيادة الدالية", "name:fr": "Clinique Les Dahlias"}}, {"name": "Centre anti-cancer de Chetouane", "latitude": 34.9159908, "longitude": -1.3010815, "source": "osm", "_tags": {"addr:city": "Chetouane", "amenity": "hospital", "barrier": "wall", "healthcare": "hospital", "name": "Centre anti-cancer de Chetouane", "name:fr": "Centre anti-cancer de Chetouane"}}, {"name": "Hopital Dr. Benzardjeb Benaouda", "latitude": 34.6439728, "longitude": -1.3241357, "source": "osm", "_tags": {"addr:city": "Sebdou", "addr:postcode": "13006", "addr:street": "Rue Chahid Boubakkar Tahar", "amenity": "hospital", "emergency": "yes", "name": "Hopital Dr. Benzardjeb Benaouda", "operator": "Etablissement Public", "website": "http://www.eph-sebdou.dz/"}}, {"name": "dispensaire", "latitude": 34.7756745, "longitude": -1.5698673, "source": "osm", "_tags": {"amenity": "hospital", "name": "dispensaire"}}, {"name": "Sanatorium Lalla Setti", "latitude": 34.8633415, "longitude": -1.3035279, "source": "osm", "_tags": {"amenity": "hospital", "name": "Sanatorium Lalla Setti"}}, {"name": "Polyclinique Agadir عيادة متعددة الخدمات أكادير", "latitude": 34.8873347, "longitude": -1.3024115, "source": "osm", "_tags": {"building": "yes", "healthcare": "hospital", "name": "Polyclinique Agadir عيادة متعددة الخدمات أكادير", "name:ar": "عيادة متعددة الخدمات أكادير", "name:fr": "Polyclinique Agadir"}}, {"name": "UMC (Les urgences)", "latitude": 35.3000381, "longitude": -1.1404674, "source": "osm", "_tags": {"addr:city": "Aïn Témouchent", "addr:city:fr": "Aïn Témouchent", "addr:postcode": "46000", "addr:street": "Rue Ould Belaïd Mohamed", "addr:street:fr": "Rue Ould Belaïd Mohamed", "amenity": "hospital", "emergency": "yes", "healthcare": "hospital", "name": "UMC (Les urgences)", "name:fr": "UMC (Les urgences)", "operator": "Ministère de la Santé", "operator:fr": "Ministère de la Santé", "operator:type": "university", "operator:wikidata": "Q17639127", "operator:wikipedia": "fr:Ministère de la Santé (Algérie)"}}, {"name": "", "latitude": 35.2946947, "longitude": -1.1280521, "source": "osm", "_tags": {"amenity": "hospital", "emergency": "no", "healthcare": "hospital"}}, {"name": "Centre médical", "latitude": 35.3007016, "longitude": -1.1526064, "source": "osm", "_tags": {"amenity": "hospital", "healthcare": "hospital", "name": "Centre médical", "name:fr": "Centre médical"}}, {"name": "Polyclinque d'Assa", "latitude": 35.0413839, "longitude": -1.7834353, "source": "osm", "_tags": {"amenity": "hospital", "healthcare": "hospital", "name": "Polyclinque d'Assa"}}, {"name": "", "latitude": 35.0695389, "longitude": -1.1392738, "source": "osm", "_tags": {"amenity": "hospital", "healthcare": "hospital"}}, {"name": "Dispensaire Ammour Ahmed", "latitude": 35.3003559, "longitude": -1.1316301, "source": "osm", "_tags": {"amenity": "hospital", "healthcare": "hospital", "name": "Dispensaire Ammour Ahmed"}}, {"name": "Centre de santé Souk El Tenine", "latitude": 35.2273355, "longitude": -1.5055831, "source": "osm", "_tags": {"amenity": "hospital", "healthcare": "hospital", "name": "Centre de santé Souk El Tenine"}}, {"name": "Hôpital EPH Remchi", "latitude": 35.047817, "longitude": -1.4260035, "source": "osm", "_tags": {"amenity": "hospital", "healthcare": "hospital", "name": "Hôpital EPH Remchi", "name:fr": "Hôpital EPH Remchi"}}, {"name": "Centre de santé", "latitude": 35.2954898, "longitude": -1.1406852, "source": "osm", "_tags": {"amenity": "hospital", "healthcare": "hospital", "name": "Centre de santé"}}, {"name": "urgence médicale", "latitude": 35.0785484, "longitude": -1.2230554, "source": "osm", "_tags": {"amenity": "hospital", "healthcare": "hospital", "name": "urgence médicale"}}, {"name": "centre hospitalier", "latitude": 35.0733124, "longitude": -1.2256411, "source": "osm", "_tags": {"amenity": "hospital", "healthcare": "hospital", "name": "centre hospitalier"}}, {"name": "عيادة المتعددة الخدمات المجاهد بن عبد الله يخلف", "latitude": 34.910264, "longitude": -1.3182231, "source": "osm", "_tags": {"amenity": "hospital", "building": "yes", "healthcare": "clinic", "name": "عيادة المتعددة الخدمات المجاهد بن عبد الله يخلف", "name:ar": "عيادة المتعددة الخدمات المجاهد بن عبد الله يخلف", "name:fr": "Polyclinique Mujahid Ben Abdoullah Yakhlaf", "opening_hours": "24/7"}}, {"name": "", "latitude": 34.9503173, "longitude": -1.3644796, "source": "osm", "_tags": {"amenity": "hospital", "healthcare": "clinic"}}, {"name": "Clinique Mimosa", "latitude": 34.8786886, "longitude": -1.3414783, "source": "osm", "_tags": {"addr:city": "Tlemcen", "addr:housenumber": "115", "addr:street": "Riath Lahoual", "addr:suburb": "Imama", "amenity": "hospital", "building": "hospital", "healthcare": "clinic", "name": "Clinique Mimosa", "name:ar": "عيادة ميموزة", "name:fr": "Clinique Mimosa"}}, {"name": "Clinique Ben Habib", "latitude": 34.8881829, "longitude": -1.3207202, "source": "osm", "_tags": {"amenity": "hospital", "building": "yes", "healthcare": "clinic", "name": "Clinique Ben Habib", "name:ar": "عيادة بن حبيب", "name:en": "Ben Habib Clinic", "name:fr": "Clinique Ben Habib"}}, {"name": "Centre régional d'Oncologie", "latitude": 34.6567405, "longitude": -1.9131286, "source": "osm", "_tags": {"addr:city": "Oujda", "addr:postcode": "60000", "addr:street": "Boulevard Oum Rabia", "amenity": "hospital", "healthcare": "hospital", "healthcare:speciality": "oncology;radiotherapy;chirurgie_oncologique;nuclear;chimiothérapie", "name": "Centre régional d'Oncologie", "operator": "CHU M-VI OUJDA", "operator:type": "public"}}]