[{"name": "مستشقى بلدية الشارف", "latitude": 34.6189237, "longitude": 2.8069766, "source": "osm", "_tags": {"amenity": "hospital", "emergency": "yes", "healthcare": "hospital", "name": "مستشقى بلدية الشارف", "name:ar": "مستشقى بلدية الشارف", "name:fr": "مستشقى بلدية الشارف"}}, {"name": "", "latitude": 35.2577878, "longitude": 2.4901938, "source": "osm", "_tags": {"amenity": "hospital", "healthcare": "hospital"}}, {"name": "مستشفى الإدريسية", "latitude": 34.4564121, "longitude": 2.5311525, "source": "osm", "_tags": {"addr:city": "الإدريسية", "addr:city:ar": "الإدريسية", "amenity": "hospital", "barrier": "wall", "emergency": "yes", "healthcare": "hospital", "name": "مستشفى الإدريسية", "name:ar": "مستشفى الإدريسية", "name:fr": "Hôpital El Idrissia"}}, {"name": "Hopital", "latitude": 35.2283623, "longitude": 2.3108019, "source": "osm", "_tags": {"amenity": "hospital", "healthcare": "hospital", "name": "Hopital"}}, {"name": "العيادة المتعددة الخدمات الشهيد طيبي الصغير", "latitude": 34.4663897, "longitude": 2.7846271, "source": "osm", "_tags": {"amenity": "hospital", "name": "العيادة المتعددة الخدمات الشهيد طيبي الصغير", "name:ar": "العيادة المتعددة الخدمات الشهيد طيبي الصغير"}}, {"name": "", "latitude": 35.4186809, "longitude": 2.4393528, "source": "osm", "_tags": {"amenity": "hospital", "building:levels": "1", "emergency": "yes"}}, {"name": "مستوصف", "latitude": 35.3639121, "longitude": 2.4456939, "source": "osm", "_tags": {"amenity": "hospital", "name": "مستوصف", "name:ar": "مستوصف", "name:fr": "Dispensaire"}}, {"name": "مستشفى الشارف", "latitude": 34.6188325, "longitude": 2.8069894, "source": "osm", "_tags": {"amenity": "hospital", "healthcare": "hospital", "name": "مستشفى الشارف", "name:ar": "مستشفى الشارف"}}]