[{"name": "Hôpital Hakim Saâdane", "latitude": 34.8402112, "longitude": 5.7303812, "source": "osm", "_tags": {"addr:city": "Biskra", "amenity": "hospital", "emergency": "yes", "name": "Hôpital Hakim Saâdane", "name:ar": "مستشفى حكيم سعدان", "name:fr": "Hôpital Hakim Saâdane"}}, {"name": "العيادة المتعددة الخدمات رزيق يونس", "latitude": 34.8588164, "longitude": 5.741392, "source": "osm", "_tags": {"amenity": "hospital", "name": "العيادة المتعددة الخدمات رزيق يونس", "name:ar": "العيادة المتعددة الخدمات رزيق يونس"}}, {"name": "", "latitude": 34.755192, "longitude": 5.9062927, "source": "osm", "_tags": {"amenity": "hospital"}}, {"name": "", "latitude": 34.5969047, "longitude": 5.1023613, "source": "osm", "_tags": {"addr:city": "الدوسن", "addr:city:ar": "الدوسن", "amenity": "hospital", "healthcare": "hospital"}}, {"name": "المؤسسة الإستشفائية المتخصصة في طب النساء و التوليد", "latitude": 34.8497377, "longitude": 5.7419969, "source": "osm", "_tags": {"addr:city": "Biskra", "addr:postcode": "07000", "amenity": "hospital", "healthcare:speciality": "gynaecology", "name": "المؤسسة الإستشفائية المتخصصة في طب النساء و التوليد", "name:ar": "مصلحة الاستعمالات الطبية بشير بن ناصر", "name:fr": "Établissement hospitalière spécialisé en gynécologie obstétrique"}}, {"name": "قاعة الاستعجالات", "latitude": 35.3799785, "longitude": 5.8983129, "source": "osm", "_tags": {"amenity": "hospital", "name": "قاعة الاستعجالات", "name:ar": "قاعة الاستعجالات", "name:fr": "Salle D'Urgence"}}, {"name": "مستوصف", "latitude": 35.2101846, "longitude": 5.4643506, "source": "osm", "_tags": {"addr:street": "شارع عين الدفيلة", "amenity": "hospital", "name": "مستوصف", "name:ar": "مستوصف"}}, {"name": "", "latitude": 34.8500278, "longitude": 5.7191895, "source": "osm", "_tags": {"amenity": "hospital"}}, {"name": "المجمع الصحي بن باديس", "latitude": 34.8489451, "longitude": 5.7055732, "source": "osm", "_tags": {"addr:city": "biskra", "amenity": "hospital", "healthcare": "hospital", "name": "المجمع الصحي بن باديس", "name:ar": "المجمع الصحي بن باديس", "name:fr": "Polyclinique Abdelhamid Ibn Badis"}}, {"name": "المؤسسة الاستشفائية للصحة الجوارية (ليشانة)", "latitude": 34.7295665, "longitude": 5.4371823, "source": "osm", "_tags": {"amenity": "hospital", "name": "المؤسسة الاستشفائية للصحة الجوارية (ليشانة)", "name:ar": "المؤسسة الاستشفائية للصحة الجوارية (ليشانة)", "name:en": "Hospital", "name:fr": "Hôpital"}}, {"name": "gherbi", "latitude": 34.8501343, "longitude": 5.7361529, "source": "osm", "_tags": {"amenity": "hospital", "healthcare": "hospital", "healthcare:speciality": "dentist", "name": "gherbi"}}, {"name": "مستشفى عاشور زيان", "latitude": 34.4285321, "longitude": 5.0599191, "source": "osm", "_tags": {"addr:city": "اولاد جلال", "addr:country": "DZ", "addr:postcode": "07400", "addr:street": "شارع العربي بن مهيدي", "amenity": "hospital", "barrier": "wall", "contact:fax": "+213 33 76 03 05", "contact:phone": "+213 33 76 03 29", "emergency": "yes", "name": "مستشفى عاشور زيان", "name:ar": "مستشفى عاشور زيان", "name:en": "Achour Ziane Hospital", "name:fr": "Hôpital Achour Ziane", "name:ru": "Ашур Сиань больницы"}}, {"name": "المؤسسة العمومية للصحة الجوارية", "latitude": 34.4294192, "longitude": 5.069443, "source": "osm", "_tags": {"addr:city": "اولاد جلال", "addr:country": "DZ", "addr:postcode": "07400", "addr:street": "شارع قاسمي براهيم", "amenity": "hospital", "emergency": "no", "name": "المؤسسة العمومية للصحة الجوارية", "name:ar": "المؤسسة العمومية للصحة الجوارية قاسمي ابراهيم", "name:en": "public institution nearby health", "name:fr": "établissement public de santé de proximité", "short_name": "EPSP"}}, {"name": "المركز النفسي البيداغوجي", "latitude": 34.4253901, "longitude": 5.0544371, "source": "osm", "_tags": {"amenity": "hospital", "emergency": "no", "name": "المركز النفسي البيداغوجي", "name:ar": "المركز النفسي البيداغوجي", "name:fr": "centre psychopédagogique"}}, {"name": "قاعة علاج مرغاد لخضر", "latitude": 34.4260677, "longitude": 5.0448133, "source": "osm", "_tags": {"amenity": "hospital", "building": "hospital", "building:levels": "1", "name": "قاعة علاج مرغاد لخضر", "name:ar": "قاعة علاج مرغاد لخضر", "name:fr": "dispensaire"}}, {"name": "قاعة علاج شبيرة معمر", "latitude": 34.4352237, "longitude": 5.073868, "source": "osm", "_tags": {"amenity": "hospital", "building": "hospital", "name": "قاعة علاج شبيرة معمر", "name:ar": "قاعة علاج شبيرة معمر", "name:en": "dispensary", "name:fr": "dispensaire"}}, {"name": "Hôpital Ziouchi Mohamed", "latitude": 34.7252945, "longitude": 5.3823757, "source": "osm", "_tags": {"amenity": "hospital", "emergency": "yes", "internet_access": "wlan", "name": "Hôpital Ziouchi Mohamed", "name:ar": "مستشفى زيوشي محمد", "name:fr": "Hôpital Ziouchi Mohamed"}}, {"name": "المؤسسة العمومية للصحة الجوارية", "latitude": 34.7877889, "longitude": 5.5945268, "source": "osm", "_tags": {"amenity": "hospital", "name": "المؤسسة العمومية للصحة الجوارية", "name:ar": "المؤسسة العمومية للصحة الجوارية", "name:fr": "Établissement public de la santé de proximité"}}, {"name": "", "latitude": 34.5101259, "longitude": 5.2693997, "source": "osm", "_tags": {"amenity": "hospital"}}, {"name": "Hôpital", "latitude": 35.3802037, "longitude": 5.3789467, "source": "osm", "_tags": {"addr:city": "Barika", "amenity": "hospital", "emergency": "yes", "name": "Hôpital", "name:ar": "المستشفى"}}, {"name": "Etablissement public hospitalier Slimane Amirat", "latitude": 35.3851414, "longitude": 5.3663655, "source": "osm", "_tags": {"addr:city": "Barika", "addr:postcode": "05400", "addr:street": "Rue 1er Novembre", "amenity": "hospital", "emergency": "yes", "name": "Etablissement public hospitalier Slimane Amirat", "name:ar": "مستشفى سليمان عميران", "phone": "033 89 95 28"}}, {"name": "مستشفى بشير بن ناصر", "latitude": 34.8495369, "longitude": 5.7438748, "source": "osm", "_tags": {"amenity": "hospital", "emergency": "yes", "name": "مستشفى بشير بن ناصر"}}, {"name": "قاعة علاج لصطب عبد الحفيظ", "latitude": 34.434734, "longitude": 5.0556485, "source": "osm", "_tags": {"amenity": "hospital", "building": "yes", "healthcare": "hospital", "name": "قاعة علاج لصطب عبد الحفيظ", "name:ar": "قاعة علاج لصطب عبد الحفيظ", "name:fr": "dispensaire Lastab Abdelhafidh"}}, {"name": "العيادة متعددة الخدمات الشهيد نور خرخاش معمر", "latitude": 34.6387386, "longitude": 5.3887841, "source": "osm", "_tags": {"addr:city": "ليوة", "addr:city:ar": "ليوة", "amenity": "hospital", "barrier": "wall", "healthcare": "hospital", "name": "العيادة متعددة الخدمات الشهيد نور خرخاش معمر", "name:ar": "العيادة متعددة الخدمات الشهيد نور خرخاش معمر"}}, {"name": "Urgence médicale et chirurgicale", "latitude": 34.7501601, "longitude": 5.9091463, "source": "osm", "_tags": {"addr:city": "Sidi Okba", "amenity": "hospital", "emergency": "yes", "name": "Urgence médicale et chirurgicale"}}, {"name": "عيادة متعددة الخدمات سلمي احمد", "latitude": 34.4483959, "longitude": 5.0623219, "source": "osm", "_tags": {"amenity": "hospital", "building": "hospital", "name": "عيادة متعددة الخدمات سلمي احمد", "name:ar": "عيادة متعددة الخدمات سلمي احمد", "name:fr": "dispensaire"}}, {"name": "", "latitude": 34.8589888, "longitude": 5.74121, "source": "osm", "_tags": {"amenity": "hospital"}}, {"name": "", "latitude": 34.8402927, "longitude": 5.7303831, "source": "osm", "_tags": {"amenity": "hospital", "healthcare": "hospital"}}, {"name": "Hôpital de Foughala", "latitude": 34.7296098, "longitude": 5.324115, "source": "osm", "_tags": {"addr:city": "Foughala", "amenity": "hospital", "healthcare": "hospital", "name": "Hôpital de Foughala", "opening_hours": "24/7"}}, {"name": "polyclénique mekhadma", "latitude": 34.6455257, "longitude": 5.4712112, "source": "osm", "_tags": {"addr:city": "mekhadma", "addr:postcode": "07034", "addr:street": "Rue Rahmoun Belkacem", "amenity": "hospital", "emergency": "no", "healthcare": "hospital", "healthcare:speciality": "general", "name": "polyclénique mekhadma"}}, {"name": "Polyclénique bent-essaleh", "latitude": 34.6502651, "longitude": 5.4718003, "source": "osm", "_tags": {"addr:city": "mekhadma", "addr:postcode": "07034", "amenity": "hospital", "emergency": "no", "healthcare": "hospital", "healthcare:speciality": "general", "name": "Polyclénique bent-essaleh"}}, {"name": "", "latitude": 35.2163966, "longitude": 5.7121099, "source": "osm", "_tags": {"amenity": "hospital", "healthcare": "hospital"}}, {"name": "Hôpital de Aïn Touta", "latitude": 35.3797246, "longitude": 5.8972064, "source": "osm", "_tags": {"amenity": "hospital", "healthcare": "hospital", "name": "Hôpital de Aïn Touta", "name:ar": "المستشفى", "name:fr": "Hôpital de Aïn Touta"}}, {"name": "مستوصف", "latitude": 35.122105, "longitude": 5.6157028, "source": "osm", "_tags": {"amenity": "hospital", "healthcare": "hospital", "name": "مستوصف", "name:ar": "مستوصف", "name:fr": "Dispensaire"}}, {"name": "", "latitude": 34.7552446, "longitude": 5.9062481, "source": "osm", "_tags": {"amenity": "hospital", "healthcare": "hospital"}}, {"name": "", "latitude": 34.5969025, "longitude": 5.102094, "source": "osm", "_tags": {"amenity": "hospital", "healthcare": "hospital"}}, {"name": "المؤسسة الإستشفائية المتخصصة في طب النساء و التوليد", "latitude": 34.8497932, "longitude": 5.7424728, "source": "osm", "_tags": {"addr:city": "Biskra", "addr:postcode": "07000", "addr:street": "route sidi okba", "amenity": "hospital", "healthcare": "hospital", "name": "المؤسسة الإستشفائية المتخصصة في طب النساء و التوليد", "name:ar": "المؤسسة الإستشفائية المتخصصة في طب النساء و التوليد"}}, {"name": "", "latitude": 35.2161115, "longitude": 5.7105685, "source": "osm", "_tags": {"amenity": "hospital", "healthcare": "hospital"}}, {"name": "قاعة الاستعجالات", "latitude": 35.3800131, "longitude": 5.8982564, "source": "osm", "_tags": {"amenity": "hospital", "healthcare": "hospital", "name": "قاعة الاستعجالات", "name:ar": "قاعة الاستعجالات"}}, {"name": "مشفى", "latitude": 35.0321472, "longitude": 5.5901477, "source": "osm", "_tags": {"addr:street": "Voie rapide Batna-Biskra", "amenity": "hospital", "healthcare": "hospital", "name": "مشفى", "name:ar": "مشفى", "name:en": "Hôpital", "name:fr": "Hôpital"}}, {"name": "futur Hôpital", "latitude": 34.7658359, "longitude": 5.8969072, "source": "osm", "_tags": {"amenity": "hospital", "healthcare": "hospital", "healthcare:speciality": "maternity", "name": "futur Hôpital", "note": "terrain de projet maternité", "operator": "maternité", "operator:type": "public"}}, {"name": "", "latitude": 35.1522454, "longitude": 5.8360421, "source": "osm", "_tags": {"amenity": "hospital"}}]