[{"name": "ΚΕΝΤΡΟ ΥΓΕΙΑΣ ΚΑΣΤΕΛΛΙΟΥ ΠΕΔΙΑΔΟΣ", "latitude": 35.2078571, "longitude": 25.3428113, "source": "osm", "_tags": {"amenity": "hospital", "healthcare": "hospital", "name": "ΚΕΝΤΡΟ ΥΓΕΙΑΣ ΚΑΣΤΕΛΛΙΟΥ ΠΕΔΙΑΔΟΣ"}}, {"name": "Creta InterClinic", "latitude": 35.3351427, "longitude": 25.1206462, "source": "osm", "_tags": {"amenity": "hospital", "healthcare": "hospital", "name": "Creta InterClinic", "phone": "+302810373800", "website": "https://cic.gr/", "wheelchair": "yes", "wikidata": "Q21626613"}}, {"name": "Medical Center", "latitude": 35.4071575, "longitude": 25.0162544, "source": "osm", "_tags": {"amenity": "clinic", "healthcare": "hospital", "name": "Medical Center"}}, {"name": "", "latitude": 35.319295, "longitude": 25.3869939, "source": "osm", "_tags": {"amenity": "hospital", "healthcare": "hospital", "internet_access": "wlan", "name:ru": "Медицинский центр"}}, {"name": "Affidea Ηρακλείου Κρήτης", "latitude": 35.3369131, "longitude": 25.1360705, "source": "osm", "_tags": {"addr:housenumber": "45", "addr:street": "Πλατεία Ελευθερίας", "amenity": "hospital", "email": "heraklion@affidea.com", "healthcare": "hospital", "internet_access": "wlan", "name": "Affidea Ηρακλείου Κρήτης", "name:el": "Affidea Ηρακλείου Κρήτης", "name:en": "Affidea Medical Center", "opening_hours": "Mo-Fr 07:00-21:00; Sa 07:00-14:00", "phone": "+302810342500", "website": "https://affidea.gr/diagnostiko-kentro/affidea-heraklion/"}}, {"name": "Πανεπιστημιακό Γενικό Νοσοκομείο Ηρακλείου", "latitude": 35.3038972, "longitude": 25.0834082, "source": "osm", "_tags": {"amenity": "hospital", "emergency": "yes", "healthcare": "hospital", "healthcare:speciality": "general;cardiology;surgery;oncology;emergency;dermatology", "name": "Πανεπιστημιακό Γενικό Νοσοκομείο Ηρακλείου", "name:el": "Πανεπιστημιακό Γενικό Νοσοκομείο Ηρακλείου", "name:en": "General University Hospital of Heraklion", "operator": "ΕΣΥ", "operator:type": "government", "phone": "+302813402111", "website": "https://www.pagni.gr/", "wikidata": "Q21626610"}}, {"name": "", "latitude": 35.2053916, "longitude": 25.1009592, "source": "osm", "_tags": {"amenity": "hospital", "healthcare": "hospital"}}, {"name": "Γενικό Νοσοκομείο Αγίου Νικολάου", "latitude": 35.1943438, "longitude": 25.7135571, "source": "osm", "_tags": {"addr:city": "Άγιος Νικόλαος", "addr:housenumber": "4", "addr:postcode": "72100", "addr:street": "Κνωσού", "amenity": "hospital", "email": "info@agnhosp.gr", "emergency": "yes", "healthcare": "hospital", "healthcare:speciality": "vaccination;general;oncology;ophthalmology;paediatrics;psychiatry;surgery", "name": "Γενικό Νοσοκομείο Αγίου Νικολάου", "name:de": "Allgemeines Krankenhaus Agios Nikolaos", "name:el": "Γενικό Νοσοκομείο Αγίου Νικολάου", "name:el-Latn": "Geniko Nosokomeio Agiou Nikolaou", "name:en": "General Hospital of Agios Nikolaos", "phone": "+302841343000", "start_date": "1940-04-05", "website": "https://www.agnhosp.gr/", "wikidata": "Q134366898"}}, {"name": "Παιδιατρική Κλινική", "latitude": 35.1947464, "longitude": 25.7130915, "source": "osm", "_tags": {"amenity": "hospital", "healthcare": "hospital", "healthcare:speciality": "paediatrics", "name": "Παιδιατρική Κλινική"}}, {"name": "Βενιζέλειο Νοσοκομείο", "latitude": 35.3061272, "longitude": 25.15603, "source": "osm", "_tags": {"amenity": "hospital", "emergency": "yes", "healthcare": "hospital", "healthcare:speciality": "general;dermatology;cardiology;oncology;surgery;psychiatry;paediatrics", "name": "Βενιζέλειο Νοσοκομείο", "name:el": "Βενιζέλειο Νοσοκομείο", "name:en": "Venizelio-Pananio Heraklion General Hospital", "operator": "ΕΣΥ", "operator:type": "government", "phone": "+30281340 8000", "website": "https://www.venizeleio.gr/", "wikidata": "Q21626612"}}, {"name": "", "latitude": 35.2018403, "longitude": 25.4814456, "source": "osm", "_tags": {"amenity": "hospital", "healthcare": "hospital"}}, {"name": "Γενικό Νοσοκομείο Ιεράπετρας - Κέντρο Υγείας Ιεράπετρας", "latitude": 35.0134265, "longitude": 25.7420104, "source": "osm", "_tags": {"addr:city": "Ιεράπετρα", "addr:country": "GR", "addr:housenumber": "6", "addr:postcode": "722 00", "addr:street": "Καλημεράκη", "amenity": "hospital", "email": "info@ierapetrahospital.gr", "emergency": "yes", "healthcare": "hospital", "healthcare:speciality": "cardiology;paediatrics;surgery;general", "name": "Γενικό Νοσοκομείο Ιεράπετρας - Κέντρο Υγείας Ιεράπετρας", "name:el": "Γενικό Νοσοκομείο Ιεράπετρας - Κέντρο Υγείας Ιεράπετρας", "name:en": "General Hospital Ierapetra", "operator": "ΕΣΥ", "operator:type": "government", "phone": "+302842340222", "website": "https://www.ierapetrahospital.gr/", "wikidata": "Q134366942"}}, {"name": "Γενικό Νοσοκομείο Νεάπολης - \"Διαλυνάκειο\"", "latitude": 35.2547733, "longitude": 25.6086254, "source": "osm", "_tags": {"amenity": "hospital", "area": "yes", "emergency": "yes", "healthcare": "hospital", "healthcare:speciality": "general;cardiology;paediatrics;dentistry;oncology;psychiatry", "name": "Γενικό Νοσοκομείο Νεάπολης - \"Διαλυνάκειο\"", "name:el": "Γενικό Νοσοκομείο Νεάπολης - \"Διαλυνάκειο\"", "operator": "ΕΣΥ", "operator:type": "government", "phone": "+302841340801", "website": "https://www.dialynakeio.com/", "wikidata": "Q134366803"}}]