[{"name": "مصحة الرياض", "latitude": 34.7562001, "longitude": 10.7694432, "source": "osm", "_tags": {"amenity": "clinic", "healthcare": "hospital", "name": "مصحة الرياض", "name:ar": "مصحة الرياض", "name:fr": "Polyclinique Erriadh", "opening_hours": "24/7"}}, {"name": "Service des consultations externes", "latitude": 34.5317902, "longitude": 10.496435, "source": "osm", "_tags": {"amenity": "hospital", "healthcare": "hospital", "name": "Service des consultations externes"}}, {"name": "DAMMAK OPTIQUE", "latitude": 34.797783, "longitude": 10.7603483, "source": "osm", "_tags": {"addr:city": "Sfax", "addr:housenumber": "Centre Ennakhla", "addr:postcode": "3021", "addr:street": "Rte de Tunis km 6, Sakiet Ezzit", "amenity": "hospital", "emergency": "no", "healthcare": "hospital", "healthcare:speciality": "opticien", "name": "DAMMAK OPTIQUE", "operator": "DAMMAK OPTIQUE", "operator:type": "private"}}, {"name": "مركز الرعاية الصحية بالحاجب", "latitude": 34.7180875, "longitude": 10.6463323, "source": "osm", "_tags": {"amenity": "hospital", "healthcare": "hospital", "name": "مركز الرعاية الصحية بالحاجب", "name:ar": "مركز الرعاية الصحية بالحاجب", "name:fr": "Centre de Santé El Hajeb", "opening_hours": "Mo-Fr 07:30-17:00; Sa 07:30-14:00"}}, {"name": "مستشفى الحبيب بورقيبة بصفاقس", "latitude": 34.7404268, "longitude": 10.7483544, "source": "osm", "_tags": {"amenity": "hospital", "healthcare": "hospital", "name": "مستشفى الحبيب بورقيبة بصفاقس", "name:ar": "مستشفى الحبيب بورقيبة بصفاقس", "name:fr": "Hôpital Habib Bourguiba", "opening_hours": "24/7", "wikidata": "Q30254315"}}, {"name": "مستشفى الهادي شاكر بصفاقس", "latitude": 34.7409343, "longitude": 10.7501559, "source": "osm", "_tags": {"addr:city": "Sfax", "addr:housenumber": "Km 0,5", "addr:street": "Route El Ain", "amenity": "hospital", "healthcare": "hospital", "name": "مستشفى الهادي شاكر بصفاقس", "name:ar": "مستشفى الهادي شاكر بصفاقس", "name:fr": "Hôpital Hédi Chaker", "opening_hours": "24/7", "phone": "+216 74 242 181", "wikidata": "Q30279837"}}, {"name": "قسم أمراض النساء و التوليد", "latitude": 34.7399203, "longitude": 10.7507428, "source": "osm", "_tags": {"amenity": "hospital", "healthcare": "hospital", "name": "قسم أمراض النساء و التوليد", "name:ar": "قسم أمراض النساء و التوليد", "name:fr": "Département de Gynécologie et Maternité", "opening_hours": "24/7"}}, {"name": "Hopital de circonscription de Bouhajla", "latitude": 35.3969702, "longitude": 10.0464551, "source": "osm", "_tags": {"amenity": "hospital", "barrier": "wall", "healthcare": "yes", "name": "Hopital de circonscription de Bouhajla"}}, {"name": "Consultations externes Mahres", "latitude": 34.5316952, "longitude": 10.4964356, "source": "osm", "_tags": {"amenity": "hospital", "healthcare": "hospital", "name": "Consultations externes Mahres"}}, {"name": "المستشفى الجهوي شربان", "latitude": 35.28842, "longitude": 10.3896164, "source": "osm", "_tags": {"addr:postcode": "5130", "amenity": "hospital", "fax": "+216 73 698 070", "healthcare": "hospital", "name": "المستشفى الجهوي شربان", "name:ar": "المستشفى الجهوي شربان", "name:fr": "Hôpital Régional de Chorbane", "phone": "+216 73 698 070"}}, {"name": "SAMU 04 Garage", "latitude": 34.7378335, "longitude": 10.7063735, "source": "osm", "_tags": {"amenity": "hospital", "healthcare": "hospital", "name": "SAMU 04 Garage", "operator": "Ministry of health"}}, {"name": "المستشفى الجهوي بئر علي بن خليفة", "latitude": 34.7457448, "longitude": 10.1086227, "source": "osm", "_tags": {"amenity": "hospital", "healthcare": "hospital", "name": "المستشفى الجهوي بئر علي بن خليفة", "name:ar": "المستشفى الجهوي بئر علي بن خليفة", "name:fr": "Hôpital Régional Bir Ali Ben Khelifa"}}, {"name": "المستشفى المحلي عقارب", "latitude": 34.7416212, "longitude": 10.5271684, "source": "osm", "_tags": {"addr:city": "عقارب", "amenity": "hospital", "healthcare": "hospital", "name": "المستشفى المحلي عقارب", "name:ar": "المستشفى المحلي عقارب", "name:fr": "Hôpital Local de Agareb"}}, {"name": "Hôpital Militaire de Sfax", "latitude": 34.6609276, "longitude": 10.6604323, "source": "osm", "_tags": {"amenity": "hospital", "healthcare": "hospital", "landuse": "military", "name": "Hôpital Militaire de Sfax"}}]