[{"name": "وكالة الأنباء الجزائرية ششار", "latitude": 35.0382188, "longitude": 7.0079943, "source": "osm", "_tags": {"addr:city": "ششار", "addr:city:ar": "ششار", "amenity": "hospital", "brand": "وكالة الأنباء الجزائرية", "brand:ar": "وكالة الأنباء الجزائرية", "brand:website": "http://www.aps.dz/ar/", "brand:wikidata": "Q1162323", "brand:wikipedia": "ar:وكالة الأنباء الجزائرية", "healthcare": "hospital", "name": "وكالة الأنباء الجزائرية ششار", "name:ar": "وكالة الأنباء الجزائرية ششار", "name:en": "APS Chechar"}}, {"name": "مستشفى زوي", "latitude": 35.2902976, "longitude": 7.3556469, "source": "osm", "_tags": {"amenity": "hospital", "name": "مستشفى زوي", "name:ar": "مستشفى زوي", "name:fr": "Hôpital de Zoui"}}, {"name": "Mohamed Echebouki", "latitude": 35.2610981, "longitude": 7.7478491, "source": "osm", "_tags": {"amenity": "hospital", "name": "Mohamed Echebouki"}}, {"name": "", "latitude": 35.0401673, "longitude": 7.0019715, "source": "osm", "_tags": {"addr:city": "ششار", "addr:city:ar": "ششار", "amenity": "hospital", "healthcare": "hospital", "internet_access": "wlan"}}]