[{"name": "Hôpital Mohammed V", "latitude": 35.1690506, "longitude": -5.2703159, "source": "osm", "_tags": {"amenity": "hospital", "healthcare": "hospital", "name": "Hôpital Mohammed V", "phone": "0539986228"}}, {"name": "Projet Centre Hospitalier Provincial d'Ouezzane", "latitude": 34.8036143, "longitude": -5.5597105, "source": "osm", "_tags": {"addr:city": "Ouazzane ⵡⴰⵣⴰⵏ وزان", "amenity": "hospital", "emergency": "yes", "healthcare": "hospital", "healthcare:speciality": "general", "name": "Projet Centre Hospitalier Provincial d'Ouezzane"}}, {"name": "Centre de Santé Urbain المركز الصحي الحضري", "latitude": 34.7974555, "longitude": -5.5789704, "source": "osm", "_tags": {"addr:city": "Ouazzane ⵡⴰⵣⴰⵏ وزان", "addr:street": "QCXC+2F7, Ouazzane", "amenity": "hospital", "healthcare": "hospital", "healthcare:speciality": "general", "name": "Centre de Santé Urbain المركز الصحي الحضري", "operator": "Centre de santé", "operator:type": "public"}}, {"name": "Centre de Santé Urbain 9 Juillet", "latitude": 34.8017803, "longitude": -5.5767769, "source": "osm", "_tags": {"addr:city": "Ouazzane ⵡⴰⵣⴰⵏ وزان", "amenity": "hospital", "healthcare": "hospital", "healthcare:speciality": "general", "name": "Centre de Santé Urbain 9 Juillet", "operator": "Ministère de la Santé Maroc", "operator:type": "public"}}, {"name": "مصحة متعددة الاختصاصات وزان دار الضمانة", "latitude": 34.7965183, "longitude": -5.5644632, "source": "osm", "_tags": {"addr:city": "Ouazzane وزان", "amenity": "hospital", "healthcare": "hospital", "name": "مصحة متعددة الاختصاصات وزان دار الضمانة", "operator": "clinic", "operator:type": "private"}}, {"name": "Hôpital Abou El Kacem Zahraoui_Ouazzane مستشفى أبو القاسم الزهراوي وزان", "latitude": 34.7990076, "longitude": -5.5882348, "source": "osm", "_tags": {"addr:city": "Ouazzane ⵡⴰⵣⴰⵏ وزان", "amenity": "hospital", "healthcare": "hospital", "healthcare:speciality": "general", "name": "Hôpital Abou El Kacem Zahraoui_Ouazzane مستشفى أبو القاسم الزهراوي وزان", "operator": "hospital", "operator:type": "public"}}, {"name": "Abi Kacem Zehraoui أبي قاسم الزهراوي", "latitude": 34.7990181, "longitude": -5.5882554, "source": "osm", "_tags": {"addr:postcode": "16200", "amenity": "hospital", "building": "yes", "emergency": "yes", "healthcare": "hospital", "name": "Abi Kacem Zehraoui أبي قاسم الزهراوي", "name:ar": "أبي قاسم الزهراوي", "name:fr": "Abi Kacem Zehraoui"}}, {"name": "Hôpital Mohamed V", "latitude": 35.1686501, "longitude": -5.2708822, "source": "osm", "_tags": {"addr:city": "Chefchaouen", "addr:street": "AV Jamaleddine Al Afghani", "amenity": "hospital", "fax": "0539986244", "healthcare": "hospital", "name": "Hôpital Mohamed V"}}, {"name": "Hopital Mohamed V", "latitude": 35.1684934, "longitude": -5.2712294, "source": "osm", "_tags": {"addr:city": "Chefchaouen", "addr:street": "AV Jamaleddine Al Afghani", "amenity": "hospital", "fax": "0539986244", "healthcare": "hospital", "name": "Hopital Mohamed V"}}, {"name": "Hôpital psychiatrique", "latitude": 35.1750779, "longitude": -5.285553, "source": "osm", "_tags": {"amenity": "hospital", "healthcare": "hospital", "name": "Hôpital psychiatrique"}}, {"name": "Hôpital Mechra Bel Ksiri", "latitude": 34.5702685, "longitude": -5.9559741, "source": "osm", "_tags": {"amenity": "hospital", "healthcare": "hospital", "name": "Hôpital Mechra Bel Ksiri", "name:fr": "Hôpital Mechra Bel Ksiri"}}, {"name": "Centre de Santé Urbain \"Oulad Hmaid\"", "latitude": 34.9955192, "longitude": -5.9061766, "source": "osm", "_tags": {"addr:city": "Ksar-el-Kebir القصر الكبير", "addr:street": "Quartier Oulad Hmaid", "amenity": "hospital", "healthcare": "hospital", "name": "Centre de Santé Urbain \"Oulad Hmaid\""}}, {"name": "Hopital Provincial de Ksar El Kébir", "latitude": 34.993954, "longitude": -5.9029802, "source": "osm", "_tags": {"addr:city": "Ksar-el-Kebir القصر الكبير", "addr:street": "Avenue Hassan II, Route de Rabat", "amenity": "hospital", "fax": "+212 5 39 91 88 06", "healthcare": "hospital", "name": "Hopital Provincial de Ksar El Kébir"}}, {"name": "Centre provincial spécialisé de psychiatrie", "latitude": 35.1690017, "longitude": -5.2634057, "source": "osm", "_tags": {"amenity": "hospital", "healthcare": "hospital", "name": "Centre provincial spécialisé de psychiatrie", "phone": "0661-113674", "social_facility:for": "mental_health", "type": "multipolygon"}}]