[{"name": "Premiers secours", "latitude": 35.2684815, "longitude": -2.9275725, "source": "osm", "_tags": {"addr:city": "Beni Ensar", "addr:city:ar": "بني انصار", "addr:city:es": "Beni Enzar", "addr:city:fr": "Beni Ensar", "amenity": "hospital", "healthcare": "hospital", "name": "Premiers secours", "name:ar": "إسعاف أولي", "name:de": "Erste Hilfe", "name:es": "Primeros Auxilios", "name:fr": "Premiers secours", "name:nl": "E.H.B.O"}}, {"name": "Hôpital Mariouari et Idoudouhan ⵙⴻⴱⴼⵉⵟⴰⵔ ⴻⵏ ⵢ'ⴷⵓⴷⵓⵃⴻⵏ مستشفى ماريواري وإدودوحن", "latitude": 35.3013131, "longitude": -2.9755224, "source": "osm", "_tags": {"amenity": "hospital", "healthcare": "hospital", "name": "Hôpital Mariouari et Idoudouhan ⵙⴻⴱⴼⵉⵟⴰⵔ ⴻⵏ ⵢ'ⴷⵓⴷⵓⵃⴻⵏ مستشفى ماريواري وإدودوحن", "name:ar": "مستشفى ماريواري وإدودوحن", "name:ber": "ⵙⴻⴱⴼⵉⵟⴰⵔ ⴻⵏ ⵢ'ⴷⵓⴷⵓⵃⴻⵏ", "name:fr": "Hôpital Mariouari et Idoudouhan"}}, {"name": "Clinique El Wahda", "latitude": 35.1683846, "longitude": -2.9451742, "source": "osm", "_tags": {"amenity": "hospital", "healthcare": "hospital", "name": "Clinique El Wahda"}}, {"name": "مستوصف مرسى بن مهيدي", "latitude": 35.0814244, "longitude": -2.2019521, "source": "osm", "_tags": {"addr:city": "مرسى بن مهيدي", "amenity": "hospital", "healthcare": "hospital", "name": "مستوصف مرسى بن مهيدي", "name:ar": "مستوصف مرسى بن مهيدي", "name:fr": "Polyclinique Marsa Ben M'hidi", "opening_hours": "24/7"}}, {"name": "", "latitude": 34.4773788, "longitude": -2.2427964, "source": "osm", "_tags": {"amenity": "hospital", "healthcare": "hospital"}}, {"name": "Centre de diagnostic مركز التشخيص", "latitude": 35.17611, "longitude": -2.9261796, "source": "osm", "_tags": {"addr:city": "الناظور", "amenity": "hospital", "building": "yes", "healthcare": "hospital", "name": "Centre de diagnostic مركز التشخيص", "name:ar": "مركز التشخيص", "name:fr": "Centre de diagnostic"}}, {"name": "Hopital Mohamed 6", "latitude": 35.004445, "longitude": -3.0066505, "source": "osm", "_tags": {"amenity": "hospital", "healthcare": "hospital", "name": "Hopital Mohamed 6"}}, {"name": "Hopital l Hassani", "latitude": 35.1766682, "longitude": -2.9364152, "source": "osm", "_tags": {"amenity": "hospital", "healthcare": "hospital", "name": "Hopital l Hassani"}}, {"name": "Hôpital Ahfir", "latitude": 34.9501765, "longitude": -2.1028386, "source": "osm", "_tags": {"amenity": "hospital", "healthcare": "hospital", "name": "Hôpital Ahfir"}}, {"name": "Centre de Santé et Maison d'accouchement", "latitude": 34.8139707, "longitude": -2.4096814, "source": "osm", "_tags": {"amenity": "hospital", "emergency": "yes", "healthcare": "hospital", "name": "Centre de Santé et Maison d'accouchement"}}, {"name": "Hospital Comarcal", "latitude": 35.2863579, "longitude": -2.9474143, "source": "osm", "_tags": {"addr:city": "Melilla", "alt_name": "Hospital Comarcal de Melilla", "amenity": "hospital", "emergency": "yes", "healthcare": "hospital", "name": "Hospital Comarcal", "operator": "INGESA", "operator:type": "public", "start_date": "1988", "wikidata": "Q87762694"}}, {"name": "Hospital Universitario de Melilla", "latitude": 35.2811761, "longitude": -2.9429832, "source": "osm", "_tags": {"addr:city": "Melilla", "addr:street": "Calle Monumental", "amenity": "hospital", "emergency": "yes", "healthcare": "hospital", "name": "Hospital Universitario de Melilla", "name:ar": "مستشفى جامعة مليلية", "name:fr": "Hôpital universitaire de Melilla", "name:ku": "Nexweşxaneya Zanîngeha Melilla", "name:tr": "Melilla Üniversitesi Hastanesi", "old_name": "Hospital Militar Pagés de Melilla", "wikidata": "Q132562057"}}, {"name": "", "latitude": 35.2818649, "longitude": -2.9429853, "source": "osm", "_tags": {"building": "hospital", "healthcare": "hospital"}}, {"name": "Dispensaire مستوصف", "latitude": 35.2615812, "longitude": -2.9337219, "source": "osm", "_tags": {"addr:city": "Beni Enzar بني انصار", "addr:city:ar": "بني انصار", "addr:city:es": "Beni Enzar", "amenity": "hospital", "healthcare": "hospital", "name": "Dispensaire مستوصف", "name:ar": "مستوصف", "name:es": "Dispensario", "name:fr": "Dispensaire"}}, {"name": "Hôpital Eddarrak مستشفى الدراق", "latitude": 34.9248828, "longitude": -2.3251758, "source": "osm", "_tags": {"addr:city": "Berkane", "addr:street": "Rue De La Victoire", "amenity": "hospital", "emergency": "yes", "healthcare": "hospital", "healthcare:speciality": "general;paediatrics;intensive;ophthalmology;gynaecology;emergency;maternity", "name": "Hôpital Eddarrak مستشفى الدراق", "name:fr": "Le Centre Hospitalier Provincial de Berkane", "operator": "Hôpital Eddarrak", "operator:type": "government"}}, {"name": "L'Hôpital de Saïdia مستشفى السعيدية", "latitude": 35.0880971, "longitude": -2.2400108, "source": "osm", "_tags": {"amenity": "hospital", "healthcare": "hospital", "name": "L'Hôpital de Saïdia مستشفى السعيدية", "name:ar": "مستشفى السعيدية", "name:en": "Saidia Hospital", "name:fr": "L'Hôpital de Saïdia"}}, {"name": "", "latitude": 34.942334, "longitude": -2.7355618, "source": "osm", "_tags": {"amenity": "hospital", "healthcare": "hospital"}}, {"name": "Clinique Moulouya", "latitude": 34.9254396, "longitude": -2.3270085, "source": "osm", "_tags": {"amenity": "hospital", "healthcare": "hospital", "name": "Clinique Moulouya"}}, {"name": "Clinique Al Matar", "latitude": 35.151357, "longitude": -2.92683, "source": "osm", "_tags": {"amenity": "hospital", "healthcare": "hospital", "name": "Clinique Al Matar"}}, {"name": "Dispensaire Lamhal", "latitude": 34.9160838, "longitude": -2.3157912, "source": "osm", "_tags": {"healthcare": "hospital", "name": "Dispensaire Lamhal"}}]