[{"name": "المستشفى الجهوي بقرقنة", "latitude": 34.7083998, "longitude": 11.201436, "source": "osm", "_tags": {"addr:city": "Erramla", "addr:country": "TN", "addr:governorate": "Sfax", "addr:postcode": "3070", "amenity": "hospital", "barrier": "wall", "emergency": "yes", "healthcare": "hospital", "is_in:city": "Erramla", "is_in:country": "Tunisia", "is_in:governorate": "Sfax", "name": "المستشفى الجهوي بقرقنة", "name:ar": "المستشفى الجهوي بقرقنة", "name:fr": "Hôpital Régional de Kerkennah"}}, {"name": "مستشفى الشابة", "latitude": 35.234635, "longitude": 11.1145448, "source": "osm", "_tags": {"addr:city": "الشابة", "addr:postcode": "5170", "addr:street": "شارع الهادي شاكر", "addr:street:ar": "شارع الهادي شاكر", "addr:street:fr": "Avenue Hedi Chaker", "amenity": "hospital", "emergency": "yes", "fax": "+216 73 683 522", "healthcare": "hospital", "name": "مستشفى الشابة", "name:ar": "مستشفى الشابة", "name:fr": "Hôpital La Chebba", "phone": "+216 73 683 522"}}, {"name": "مستوصف مليتة", "latitude": 34.6518762, "longitude": 11.0290452, "source": "osm", "_tags": {"amenity": "hospital", "healthcare": "hospital", "name": "مستوصف مليتة"}}, {"name": "Medical centre", "latitude": 34.6539961, "longitude": 11.0877421, "source": "osm", "_tags": {"amenity": "hospital", "healthcare": "hospital", "name": "Medical centre"}}]