[{"name": "أم الأقصاب", "latitude": 34.7092626, "longitude": 8.3592423, "source": "osm", "_tags": {"amenity": "hospital", "name": "أم الأقصاب", "name:en": "om lagsab"}}, {"name": "المستشفى المحلي ماجل بلعباس", "latitude": 34.754686, "longitude": 8.5201173, "source": "osm", "_tags": {"addr:city": "ماجل بلعباس", "amenity": "hospital", "barrier": "wall", "healthcare": "hospital", "name": "المستشفى المحلي ماجل بلعباس", "name:ar": "المستشفى المحلي ماجل بلعباس", "name:fr": "Hôpital Régional de Majel Bel Abbès"}}, {"name": "مستشفى عبد العزبز خالدي", "latitude": 35.4022048, "longitude": 8.1172179, "source": "osm", "_tags": {"addr:city": "تبسة", "addr:city:ar": "تبسة", "amenity": "hospital", "healthcare": "hospital", "name": "مستشفى عبد العزبز خالدي", "name:ar": "مستشفى عبد العزبز خالدي", "name:fr": "Hôpital Khaldi Abdelaziz"}}, {"name": "الاستعجالات الطبية عاليا صالح", "latitude": 35.4013773, "longitude": 8.1042695, "source": "osm", "_tags": {"addr:city": "تبسة", "addr:city:ar": "تبسة", "amenity": "hospital", "emergency": "yes", "healthcare": "hospital", "name": "الاستعجالات الطبية عاليا صالح", "name:ar": "الاستعجالات الطبية عاليا صالح"}}, {"name": "مختبر النظافة", "latitude": 35.3944393, "longitude": 8.099801, "source": "osm", "_tags": {"addr:city": "تبسة", "addr:city:ar": "تبسة", "addr:postcode": "12000", "amenity": "hospital", "healthcare": "hospital", "name": "مختبر النظافة", "name:ar": "مختبر النظافة", "name:fr": "Laboratoire d'Hygiène"}}, {"name": "Polyclinique", "latitude": 35.206805, "longitude": 8.1705839, "source": "osm", "_tags": {"amenity": "hospital", "name": "Polyclinique"}}, {"name": "Hôpital Tidjani Hadam", "latitude": 34.757034, "longitude": 8.0510037, "source": "osm", "_tags": {"addr:postcode": "12001", "amenity": "hospital", "healthcare": "hospital", "healthcare:speciality": "general", "name": "Hôpital Tidjani Hadam", "name:ar": "مستشفى التيجاني هدام", "name:en": "Tidjani Haddam Hospital", "operator": "Ministère de la santé", "operator:type": "public"}}, {"name": "المؤسسة العمومية الاستشفائية", "latitude": 35.3669049, "longitude": 8.2435434, "source": "osm", "_tags": {"addr:city": "بكارية", "addr:city:ar": "بكارية", "alt_name": "المؤسسة الاستشفائية العمومية;مستشفى بكارية;مستشفى مصطفى بولعراس - بكارية", "alt_name:ar": "المؤسسة الاستشفائية العمومية;مستشفى بكارية;مستشفى مصطفى بولعراس - بكارية", "amenity": "hospital", "healthcare": "hospital", "name": "المؤسسة العمومية الاستشفائية", "name:ar": "المؤسسة العمومية الاستشفائية"}}, {"name": "المستشفى الجهوي بالقصرين", "latitude": 35.1760186, "longitude": 8.7923786, "source": "osm", "_tags": {"addr:city": "Kasserine", "amenity": "hospital", "healthcare": "hospital", "name": "المستشفى الجهوي بالقصرين", "name:ar": "المستشفى الجهوي بالقصرين", "name:fr": "Hôpital Régional de Kasserine", "phone": "+216 77 474 910"}}, {"name": "المستشفى المحلي أم العرايس", "latitude": 34.4809593, "longitude": 8.2993589, "source": "osm", "_tags": {"amenity": "hospital", "healthcare": "hospital", "name": "المستشفى المحلي أم العرايس", "name:ar": "المستشفى المحلي أم العرايس", "operator": "Étatique"}}, {"name": "مستوصف", "latitude": 34.489235, "longitude": 8.2686698, "source": "osm", "_tags": {"addr:city": "أم العرائس", "healthcare": "hospital", "name": "مستوصف", "name:ar": "مستوصف"}}, {"name": "", "latitude": 35.4034219, "longitude": 8.1203779, "source": "osm", "_tags": {"addr:city": "تبسة", "amenity": "hospital", "healthcare": "hospital"}}, {"name": "مركز الصحة الأساسية حي الزهور", "latitude": 35.1558827, "longitude": 8.8374343, "source": "osm", "_tags": {"amenity": "hospital", "healthcare": "hospital", "name": "مركز الصحة الأساسية حي الزهور", "name:ar": "مركز الصحة الأساسية حي الزهور", "name:fr": "مركز الصحة الأساسية حي الزهور", "type": "multipolygon"}}]