[{"name": "", "latitude": 35.2219978, "longitude": 4.2797777, "source": "osm", "_tags": {"amenity": "hospital"}}, {"name": "مركز للصحة الجوارية", "latitude": 34.8397937, "longitude": 4.1721584, "source": "osm", "_tags": {"addr:housenumber": "حي البساتين", "amenity": "hospital", "name": "مركز للصحة الجوارية", "name:ar": "مركز للصحة الجوارية"}}, {"name": "طبيب عام", "latitude": 35.1886843, "longitude": 4.1558906, "source": "osm", "_tags": {"amenity": "hospital", "name": "طبيب عام", "name:ar": "طبيب عام"}}, {"name": "القطاع الصحي سيدي سليمان", "latitude": 35.1907808, "longitude": 4.1561146, "source": "osm", "_tags": {"amenity": "hospital", "name": "القطاع الصحي سيدي سليمان", "name:ar": "القطاع الصحي سيدي سليمان"}}, {"name": "مستشفى عسلي محمد", "latitude": 34.8581114, "longitude": 4.1529621, "source": "osm", "_tags": {"amenity": "hospital", "name": "مستشفى عسلي محمد", "name:ar": "مستشفى عسلي محمد"}}, {"name": "EPSP Ben Srour", "latitude": 35.0363305, "longitude": 4.5625634, "source": "osm", "_tags": {"amenity": "hospital", "healthcare": "hospital", "name": "EPSP Ben Srour"}}, {"name": "Hôpital Bachir Rezig", "latitude": 35.2007575, "longitude": 4.1604985, "source": "osm", "_tags": {"addr:city": "Bou Sâada", "addr:postcode": "28001", "amenity": "hospital", "emergency": "yes", "healthcare": "hospital", "name": "Hôpital Bachir Rezig"}}, {"name": "Service d'épidémiologie et de médecine préventive", "latitude": 35.2122041, "longitude": 4.1787416, "source": "osm", "_tags": {"addr:city": "Bou Saâda", "amenity": "hospital", "name": "Service d'épidémiologie et de médecine préventive", "name:ar": "مصلحة علم الاوبئة والطب الوقائي", "name:fr": "Service d'épidémiologie et de médecine préventive"}}, {"name": "عياط بالقاسم", "latitude": 35.2139832, "longitude": 4.3007044, "source": "osm", "_tags": {"amenity": "hospital", "ele": "8", "name": "عياط بالقاسم", "name:ar": "عياط بالقاسم"}}, {"name": "قاعة علاج", "latitude": 34.8535581, "longitude": 4.1613187, "source": "osm", "_tags": {"addr:housenumber": "حي 8 ماي 45", "amenity": "hospital", "name": "قاعة علاج", "name:ar": "قاعة علاج"}}, {"name": "HOPILA BENKHONATHA DIOUAHI", "latitude": 35.0390993, "longitude": 4.5736803, "source": "osm", "_tags": {"addr:city": "BEN-S'ROUR", "addr:postcode": "28215", "amenity": "hospital", "healthcare": "hospital", "healthcare:speciality": "general", "name": "HOPILA BENKHONATHA DIOUAHI", "operator": "ETAT", "operator:type": "public"}}, {"name": "", "latitude": 35.2220361, "longitude": 4.2798166, "source": "osm", "_tags": {"amenity": "hospital", "healthcare": "hospital"}}, {"name": "مركز للصحة الجوارية", "latitude": 34.8398465, "longitude": 4.1722081, "source": "osm", "_tags": {"amenity": "hospital", "healthcare": "hospital", "name": "مركز للصحة الجوارية", "name:ar": "مركز للصحة الجوارية"}}, {"name": "الدكتور عبد اللطيف توفيق الامراض الباطنية وأمراض النساء", "latitude": 35.2371038, "longitude": 4.1593134, "source": "osm", "_tags": {"amenity": "hospital", "healthcare": "hospital", "name": "الدكتور عبد اللطيف توفيق الامراض الباطنية وأمراض النساء", "name:ar": "الدكتور عبد اللطيف توفيق الامراض الباطنية وأمراض النساء"}}, {"name": "طبيب عام", "latitude": 35.1886954, "longitude": 4.1560062, "source": "osm", "_tags": {"amenity": "hospital", "healthcare": "hospital", "name": "طبيب عام", "name:ar": "طبيب عام"}}, {"name": "القطاع الصحي سيدي سليمان", "latitude": 35.1906975, "longitude": 4.156128, "source": "osm", "_tags": {"amenity": "hospital", "healthcare": "hospital", "name": "القطاع الصحي سيدي سليمان", "name:ar": "القطاع الصحي سيدي سليمان"}}, {"name": "عيادة القابلة منادي .س", "latitude": 35.1972163, "longitude": 4.1587902, "source": "osm", "_tags": {"addr:housenumber": "907/10", "addr:postcode": "28002", "addr:street": "Cité Sidi Slimane", "amenity": "hospital", "email": "mekidecheadel@gmail.com", "healthcare": "hospital", "internet_access": "wlan", "name": "عيادة القابلة منادي .س", "name:ar": "عيادة القابلة منادي .س", "name:en": "Cabinet de sage femme", "name:fr": "Cabinet de sage femme", "opening_hours": "24/7", "phone": "0667659105"}}, {"name": "الدكتور عبد اللطيف توفيق الامراض الباطنية وأمراض النساء", "latitude": 35.237178, "longitude": 4.1594349, "source": "osm", "_tags": {"addr:street": "طريق سيدي عامر", "amenity": "hospital", "building": "yes", "healthcare:speciality": "internal;gynaecology", "name": "الدكتور عبد اللطيف توفيق الامراض الباطنية وأمراض النساء", "name:ar": "الدكتور عبد اللطيف توفيق الامراض الباطنية وأمراض النساء", "opening_hours": "Sa-We 08:00-12:00, 14:00-16:00; Th 08:00-12:00", "phone": "0699164436", "source": "microsoft/BuildingFootprints"}}]