[{"name": "مستشفى الأمراض العقلية", "latitude": 34.9498957, "longitude": 5.9842739, "source": "osm", "_tags": {"amenity": "hospital", "name": "مستشفى الأمراض العقلية", "name:ar": "مستشفى الأمراض العقلية"}}, {"name": "مستوصف طبي", "latitude": 35.2173346, "longitude": 6.5450386, "source": "osm", "_tags": {"amenity": "hospital", "emergency": "yes", "name": "مستوصف طبي", "name:ar": "مستوصف طبي", "operator": "مساعد ممرض فقط"}}, {"name": "Hôpital d'Arris", "latitude": 35.2593401, "longitude": 6.3580785, "source": "osm", "_tags": {"amenity": "hospital", "name": "Hôpital d'Arris"}}, {"name": "EPSP Djellal", "latitude": 34.9156196, "longitude": 6.8940595, "source": "osm", "_tags": {"amenity": "hospital", "name": "EPSP Djellal"}}, {"name": "", "latitude": 35.2545119, "longitude": 6.1895017, "source": "osm", "_tags": {"amenity": "hospital"}}, {"name": "Hôpital", "latitude": 35.3190556, "longitude": 6.7442602, "source": "osm", "_tags": {"amenity": "hospital", "name": "Hôpital"}}, {"name": "عيادة متعددة الخدمات", "latitude": 34.9454777, "longitude": 5.9946343, "source": "osm", "_tags": {"amenity": "hospital", "healthcare": "hospital", "name": "عيادة متعددة الخدمات", "name:ar": "عيادة متعددة الخدمات", "name:fr": "Clinique multi-services"}}, {"name": "قاعة علاج", "latitude": 34.9511494, "longitude": 6.010029, "source": "osm", "_tags": {"amenity": "hospital", "healthcare": "hospital", "name": "قاعة علاج", "name:ar": "قاعة علاج"}}, {"name": "مستوصف طبي", "latitude": 35.2172977, "longitude": 6.5449753, "source": "osm", "_tags": {"amenity": "hospital", "healthcare": "hospital", "name": "مستوصف طبي", "name:ar": "مستوصف طبي"}}, {"name": "Maternité", "latitude": 35.2553702, "longitude": 6.3560717, "source": "osm", "_tags": {"amenity": "hospital", "healthcare": "hospital", "name": "Maternité"}}, {"name": "احمد بن بلة", "latitude": 35.3175691, "longitude": 6.7373566, "source": "osm", "_tags": {"addr:city": "بوحمامة", "addr:housenumber": "40", "amenity": "hospital", "emergency": "no", "healthcare": "hospital", "healthcare:speciality": "surgery", "name": "احمد بن بلة", "operator": "مستشفى", "operator:type": "public"}}]