[{"name": "Clinique Khlalfa", "latitude": 34.6695404, "longitude": -4.6212783, "source": "osm", "_tags": {"amenity": "hospital", "healthcare": "hospital", "name": "Clinique Khlalfa"}}, {"name": "مستشفى", "latitude": 34.6321673, "longitude": -4.9140958, "source": "osm", "_tags": {"amenity": "hospital", "healthcare": "hospital", "name": "مستشفى"}}, {"name": "", "latitude": 34.6695391, "longitude": -4.6212776, "source": "osm", "_tags": {"amenity": "hospital", "healthcare": "hospital"}}, {"name": "Clinique de Taounate", "latitude": 34.5177814, "longitude": -4.6462989, "source": "osm", "_tags": {"amenity": "hospital", "designation": "Clinique de Taounate", "healthcare": "hospital", "name": "Clinique de Taounate"}}, {"name": "Hopital de Taounate", "latitude": 34.5219661, "longitude": -4.6408908, "source": "osm", "_tags": {"amenity": "hospital", "designation": "Hopital de Taounate", "emergency": "yes", "healthcare": "hospital", "name": "Hopital de Taounate"}}, {"name": "Hôpital de Kaf El Ghar", "latitude": 34.508325, "longitude": -4.2601019, "source": "osm", "_tags": {"amenity": "hospital", "healthcare": "hospital", "name": "Hôpital de Kaf El Ghar", "name:fr": "Hôpital de Kaf El Ghar"}}, {"name": "مستشفى حمان الفطواكي ايت عزة", "latitude": 34.9446968, "longitude": -4.3275306, "source": "osm", "_tags": {"addr:city": "Targuist ⵜⴰⵔⴳⵉⵙⵜ تارجيست", "addr:street": "طريق الوحدة", "amenity": "hospital", "healthcare": "hospital", "healthcare:speciality": "general", "name": "مستشفى حمان الفطواكي ايت عزة", "operator": "ministere de la santé Maroc", "operator:type": "public"}}]