[{"name": "centre ta3 l karia", "latitude": 35.654998, "longitude": 0.062499, "source": "osm", "_tags": {"amenity": "hospital", "emergency": "no", "name": "centre ta3 l karia"}}, {"name": "", "latitude": 36.1222716, "longitude": 0.744262, "source": "osm", "_tags": {"addr:city": "مديونة", "addr:city:ar": "مديونة", "amenity": "hospital", "healthcare": "hospital"}}, {"name": "Centre médical", "latitude": 35.8094773, "longitude": 0.2098555, "source": "osm", "_tags": {"addr:city": "Touahria", "addr:postcode": "27013", "addr:street": "CW42", "amenity": "hospital", "name": "Centre médical"}}, {"name": "", "latitude": 35.7798071, "longitude": 0.1878288, "source": "osm", "_tags": {"amenity": "hospital"}}, {"name": "Hamadou Hocine", "latitude": 36.0966948, "longitude": 0.4099403, "source": "osm", "_tags": {"amenity": "hospital", "name": "Hamadou Hocine"}}, {"name": "المؤسسة الصحة العامة حجاج", "latitude": 36.0958771, "longitude": 0.3250874, "source": "osm", "_tags": {"addr:city": "حجاج", "addr:city:ar": "حجاج", "amenity": "hospital", "healthcare": "hospital", "name": "المؤسسة الصحة العامة حجاج", "name:ar": "المؤسسة الصحة العامة حجاج", "name:fr": "Entreprise publique de la santé publique Hadjadj"}}, {"name": "Hôpital de Bormadia", "latitude": 35.7062844, "longitude": 0.5743154, "source": "osm", "_tags": {"amenity": "hospital", "name": "Hôpital de Bormadia", "name:fr": "Hôpital de Bormadia"}}, {"name": "مركز صحي", "latitude": 35.7538241, "longitude": 0.5766999, "source": "osm", "_tags": {"amenity": "hospital", "name": "مركز صحي", "name:ar": "مركز صحي"}}, {"name": "Urgences", "latitude": 35.7330666, "longitude": 0.5509565, "source": "osm", "_tags": {"amenity": "hospital", "name": "Urgences", "name:fr": "Urgences"}}, {"name": "Maternité", "latitude": 35.9248464, "longitude": 0.0962475, "source": "osm", "_tags": {"amenity": "hospital", "healthcare": "hospital", "name": "Maternité", "name:fr": "Maternité"}}, {"name": "رلاينس الجزائر مندس", "latitude": 35.6560508, "longitude": 0.8654125, "source": "osm", "_tags": {"amenity": "hospital", "healthcare": "hospital", "name": "رلاينس الجزائر مندس", "name:ar": "رلاينس الجزائر مندس", "name:en": "Mendes Reliance Algeria", "name:zh": "Mendes 60床医院", "opening_hours": "24/7"}}, {"name": "العيادة المتعددة الخدمات غليزان", "latitude": 35.7321765, "longitude": 0.5604548, "source": "osm", "_tags": {"addr:city": "غليزان", "addr:city:ar": "غليزان", "amenity": "hospital", "healthcare": "hospital", "name": "العيادة المتعددة الخدمات غليزان", "name:ar": "العيادة المتعددة الخدمات غليزان", "name:en": "EPSP Relizane", "name:fr": "EPSP Relizane"}}, {"name": "مستشفى عمامرة الحبيب", "latitude": 35.4608616, "longitude": 0.6941959, "source": "osm", "_tags": {"amenity": "hospital", "name": "مستشفى عمامرة الحبيب", "name:ar": "مستشفى عمامرة الحبيب", "name:en": "hôpital AMAMRA HBIB", "name:fr": "hôpital AMAMRA HBIB"}}, {"name": "13 - hospital", "latitude": 35.9545878, "longitude": 0.0978456, "source": "osm", "_tags": {"amenity": "hospital", "name": "13 - hospital"}}, {"name": "Hôpital Dahaoua Dahou", "latitude": 35.5920054, "longitude": 0.081465, "source": "osm", "_tags": {"amenity": "hospital", "emergency": "yes", "healthcare": "hospital", "name": "Hôpital Dahaoua Dahou", "name:fr": "Hôpital Dahaoua Dahou"}}, {"name": "مستشفى محمد بوضياف", "latitude": 35.7327581, "longitude": 0.5510827, "source": "osm", "_tags": {"addr:city": "غليزان", "addr:city:ar": "غليزان", "addr:postcode": "48000", "amenity": "hospital", "emergency": "yes", "healthcare": "hospital", "name": "مستشفى محمد بوضياف", "name:ar": "مستشفى محمد بوضياف", "name:en": "Mohamed Boudiaf Hospital", "name:fr": "Hôpital Mohamed Boudiaf"}}, {"name": "مستشفى الدكتور أحمد فرنسيس", "latitude": 35.9638891, "longitude": 0.9245456, "source": "osm", "_tags": {"amenity": "hospital", "emergency": "yes", "healthcare": "hospital", "name": "مستشفى الدكتور أحمد فرنسيس", "name:ar": "مستشفى الدكتور أحمد فرنسيس", "name:en": "Dr.Ahmed Francis Hospital", "name:fr": "Hôpital Dr.Ahmed Francis"}}, {"name": "", "latitude": 36.1195601, "longitude": 0.8677137, "source": "osm", "_tags": {"amenity": "hospital", "name:ar": "المستشفى", "name:en": "L'Hôpital"}}, {"name": "Hôpital de Tighennif", "latitude": 35.4221327, "longitude": 0.32213, "source": "osm", "_tags": {"addr:city": "Tighennif", "amenity": "hospital", "emergency": "yes", "name": "Hôpital de Tighennif"}}, {"name": "مستشفى العجال أبو الأطرش", "latitude": 36.00071, "longitude": 0.2885151, "source": "osm", "_tags": {"addr:city": "عين تادلس", "addr:city:ar": "عين تادلس", "amenity": "hospital", "emergency": "yes", "healthcare": "hospital", "name": "مستشفى العجال أبو الأطرش", "name:ar": "مستشفى العجال أبو الأطرش", "name:fr": "Hôpital Adjel Bellatrach"}}, {"name": "Hôpital psychiatrique", "latitude": 35.9449685, "longitude": 0.0990699, "source": "osm", "_tags": {"addr:city": "Mostaganem", "amenity": "hospital", "healthcare:speciality": "psychiatry", "name": "Hôpital psychiatrique", "name:ar": "مستشفى الأمراض العقلية", "name:fr": "Hôpital psychiatrique"}}, {"name": "Urgences", "latitude": 35.9452883, "longitude": 0.0974939, "source": "osm", "_tags": {"addr:postcode": "27000", "amenity": "hospital", "emergency": "yes", "healthcare": "hospital", "healthcare:speciality": "emergency", "name": "Urgences", "name:ar": "الإستعجالات الطبية", "name:fr": "Urgences", "opening_hours": "24/7"}}, {"name": "EPH Bouguirat", "latitude": 35.7486537, "longitude": 0.2667516, "source": "osm", "_tags": {"amenity": "hospital", "name": "EPH Bouguirat"}}, {"name": "", "latitude": 36.0966773, "longitude": 0.4095818, "source": "osm", "_tags": {"amenity": "hospital"}}, {"name": "", "latitude": 36.2524475, "longitude": 0.9256026, "source": "osm", "_tags": {"amenity": "hospital"}}, {"name": "", "latitude": 35.7199843, "longitude": 0.7577205, "source": "osm", "_tags": {"amenity": "hospital", "healthcare": "hospital"}}, {"name": "Hôpital Ernesto Che Guevara", "latitude": 35.9346415, "longitude": 0.0941617, "source": "osm", "_tags": {"addr:city": "Mostaganem", "addr:postcode": "27000", "amenity": "hospital", "emergency": "yes", "healthcare": "hospital", "name": "Hôpital Ernesto Che Guevara"}}, {"name": "Hôpital de Kharouba", "latitude": 35.9626168, "longitude": 0.1045488, "source": "osm", "_tags": {"addr:city": "Mostaganem", "amenity": "hospital", "healthcare": "hospital", "name": "Hôpital de Kharouba", "name:ar": "مستشفى خروبة", "name:fr": "Hôpital de Kharouba"}}, {"name": "Hopital El marsa مستشفى المرسى", "latitude": 36.4063223, "longitude": 0.9194703, "source": "osm", "_tags": {"amenity": "hospital", "healthcare": "hospital", "name": "Hopital El marsa مستشفى المرسى", "name:ar": "Hopital El marsa مستشفى المرسى"}}, {"name": "Centre Hospitalier", "latitude": 35.6550335, "longitude": 0.0624792, "source": "osm", "_tags": {"amenity": "hospital", "healthcare": "hospital", "name": "Centre Hospitalier"}}, {"name": "", "latitude": 36.1222385, "longitude": 0.7442362, "source": "osm", "_tags": {"addr:city": "مديونة", "addr:city:ar": "مديونة", "amenity": "hospital", "healthcare": "hospital"}}, {"name": "Centre médical", "latitude": 35.8095057, "longitude": 0.2098315, "source": "osm", "_tags": {"amenity": "hospital", "healthcare": "hospital", "name": "Centre médical"}}, {"name": "", "latitude": 35.7798067, "longitude": 0.1876666, "source": "osm", "_tags": {"amenity": "hospital", "healthcare": "hospital"}}, {"name": "المؤسسة الصحة العامة حجاج", "latitude": 36.0961042, "longitude": 0.3251296, "source": "osm", "_tags": {"addr:city": "حجاج", "addr:city:ar": "حجاج", "amenity": "hospital", "healthcare": "hospital", "name": "المؤسسة الصحة العامة حجاج", "name:ar": "المؤسسة الصحة العامة حجاج", "name:fr": "Entreprise publique de la santé publique Hadjadj"}}, {"name": "Hôpital de Bormadia", "latitude": 35.7063541, "longitude": 0.5743677, "source": "osm", "_tags": {"amenity": "hospital", "healthcare": "hospital", "name": "Hôpital de Bormadia"}}, {"name": "مركز صحي", "latitude": 35.7538109, "longitude": 0.5767665, "source": "osm", "_tags": {"amenity": "hospital", "healthcare": "hospital", "name": "مركز صحي", "name:ar": "مركز صحي"}}, {"name": "Maternité", "latitude": 35.9247826, "longitude": 0.096135, "source": "osm", "_tags": {"amenity": "hospital", "healthcare": "hospital", "name": "Maternité"}}, {"name": "العيادة المتعددة الخدمات غليزان", "latitude": 35.7320426, "longitude": 0.5605567, "source": "osm", "_tags": {"amenity": "hospital", "healthcare": "hospital", "name": "العيادة المتعددة الخدمات غليزان", "name:ar": "العيادة المتعددة الخدمات غليزان"}}, {"name": "", "latitude": 35.6570009, "longitude": 0.8657062, "source": "osm", "_tags": {"amenity": "hospital", "healthcare": "hospital"}}, {"name": "", "latitude": 36.111969, "longitude": 0.8560116, "source": "osm", "_tags": {"amenity": "hospital", "healthcare": "hospital"}}]