[{"name": "Service d'Urgence Sahloul", "latitude": 35.8377222, "longitude": 10.5891304, "source": "osm", "_tags": {"amenity": "hospital", "name": "Service d'Urgence Sahloul"}}, {"name": "المستشفى المحلي محمد سلامة", "latitude": 35.6810749, "longitude": 10.8524315, "source": "osm", "_tags": {"amenity": "hospital", "emergency": "no", "healthcare": "hospital", "healthcare:speciality": "general", "name": "المستشفى المحلي محمد سلامة", "name:ar": "المستشفى المحلي محمد سلامة", "name:fr": "Hôpital Régional Mohamed Slama", "operator": "Ministère de la santé publique", "operator:type": "government"}}, {"name": "Hôpital Sbikha", "latitude": 35.9292217, "longitude": 10.0214701, "source": "osm", "_tags": {"amenity": "hospital", "healthcare": "clinic", "name": "Hôpital Sbikha"}}, {"name": "", "latitude": 35.8061298, "longitude": 10.600555, "source": "osm", "_tags": {"amenity": "hospital", "name:en": "مستوصف حي الرياض3"}}, {"name": "cantre de dyalise", "latitude": 35.8538177, "longitude": 10.6052634, "source": "osm", "_tags": {"addr:city": "سوسة", "addr:postcode": "4051", "addr:street": "شارع زهير بن أبي سلمى", "amenity": "hospital", "emergency": "yes", "healthcare": "hospital", "healthcare:speciality": "nephrology", "name": "cantre de dyalise"}}, {"name": "المستشفى الجامعي بسهلول", "latitude": 35.837203, "longitude": 10.5903678, "source": "osm", "_tags": {"addr:city": "Hammam Sousse", "addr:postcode": "4011", "addr:street": "Route de la Ceinture", "amenity": "hospital", "healthcare": "hospital", "name": "المستشفى الجامعي بسهلول", "name:ar": "المستشفى الجامعي بسهلول", "name:en": "Sahloul University Hospital", "name:fr": "Hôpital Universitaire Sahloul", "phone": "+216 73 241 411", "wheelchair": "yes", "wikidata": "Q30254035", "wikimedia_commons": "Category:Hôpital Sahloul"}}, {"name": "Dispensaire de Zriba", "latitude": 36.3540258, "longitude": 10.2073752, "source": "osm", "_tags": {"amenity": "hospital", "barrier": "wall", "designation": "Dispensaire de Zriba", "emergency": "no", "name": "Dispensaire de Zriba"}}, {"name": "Maternité Farhat Hached", "latitude": 35.8295917, "longitude": 10.626108, "source": "osm", "_tags": {"amenity": "hospital", "building": "yes", "healthcare": "hospital", "name": "Maternité Farhat Hached"}}, {"name": "Hôpital Farhat hached;Service des Urgences Farhat hached", "latitude": 35.8300096, "longitude": 10.6288344, "source": "osm", "_tags": {"addr:city": "سوسة", "addr:city:ar": "سوسة", "addr:postcode": "4031", "addr:street": "Avenue Ibn Jazzar", "amenity": "hospital", "building": "yes", "emergency": "yes", "healthcare": "hospital", "layer": "1", "name": "Hôpital Farhat hached;Service des Urgences Farhat hached", "phone": "+216 73 222 293"}}, {"name": "مستشفى فطومة بورقيبة", "latitude": 35.7704011, "longitude": 10.8340063, "source": "osm", "_tags": {"addr:city": "المنستير", "addr:city:ar": "المنستير", "addr:postcode": "5000", "addr:street": "Rue du 1er juin 1995", "amenity": "hospital", "emergency": "yes", "healthcare": "hospital", "name": "مستشفى فطومة بورقيبة", "name:ar": "مستشفى فطومة بورقيبة", "name:fr": "Hôpital Fattouma Bourguiba", "phone": "+216 73 460 309", "wikidata": "Q30282397", "wikimedia_commons": "Category:Hôpital Fattouma Bourguiba"}}, {"name": "مركز طب الولدان و التوليد بالمنستير", "latitude": 35.7602118, "longitude": 10.8030722, "source": "osm", "_tags": {"amenity": "hospital", "barrier": "wall", "healthcare": "hospital", "name": "مركز طب الولدان و التوليد بالمنستير", "name:ar": "مركز طب الولدان و التوليد بالمنستير", "name:fr": "Centre de Néonatologie et Maternité deMonastir"}}, {"name": "المستشفى الجهوي الحاج علي صوة", "latitude": 35.6505654, "longitude": 10.8890548, "source": "osm", "_tags": {"addr:city": "Ksar Helal", "addr:postcode": "5070", "addr:street": "Avenue Haj Ali Soua", "amenity": "hospital", "emergency": "yes", "healthcare": "hospital", "name": "المستشفى الجهوي الحاج علي صوة", "name:ar": "المستشفى الجهوي الحاج علي صوة", "name:fr": "Hôpital Régional Haj Ali Soua", "phone": "+216 73 476 054"}}, {"name": "المستوصف المحلي", "latitude": 36.0307797, "longitude": 10.5084995, "source": "osm", "_tags": {"amenity": "hospital", "healthcare": "hospital", "name": "المستوصف المحلي", "name:ar": "المستوصف المحلي", "name:fr": ""}}, {"name": "مستشفى النفيضة", "latitude": 36.1342585, "longitude": 10.3676661, "source": "osm", "_tags": {"addr:city": "النفيضة", "amenity": "hospital", "healthcare": "hospital", "name": "مستشفى النفيضة", "name:ar": "مستشفى النفيضة", "name:fr": "Hôpital Enfidha"}}, {"name": "Hôpital d'Hammamet", "latitude": 36.3998828, "longitude": 10.6156199, "source": "osm", "_tags": {"amenity": "hospital", "emergency": "yes", "name": "Hôpital d'Hammamet"}}, {"name": "", "latitude": 35.7369186, "longitude": 10.573109, "source": "osm", "_tags": {"amenity": "hospital", "healthcare": "hospital"}}, {"name": "", "latitude": 35.7274707, "longitude": 10.5820345, "source": "osm", "_tags": {"amenity": "hospital", "healthcare": "hospital"}}, {"name": "", "latitude": 35.7221586, "longitude": 10.581318, "source": "osm", "_tags": {"amenity": "hospital", "healthcare": "hospital"}}, {"name": "مستشفى ابن الجزار", "latitude": 35.6839893, "longitude": 10.0952712, "source": "osm", "_tags": {"addr:city": "القيروان", "amenity": "hospital", "healthcare": "hospital", "name": "مستشفى ابن الجزار", "name:ar": "مستشفى ابن الجزار", "name:fr": "Hôpital Ibn El Jazzar"}}, {"name": "", "latitude": 35.6810815, "longitude": 10.8524031, "source": "osm", "_tags": {"addr:city": "Ksibet el mediouni", "amenity": "hospital", "emergency": "yes", "healthcare": "hospital", "healthcare:speciality": "general", "name:fr": "Hôpital Régional Mohamed Slama"}}, {"name": "مستشفى الدكتور إمحمد بن صالح", "latitude": 35.6335685, "longitude": 10.9095137, "source": "osm", "_tags": {"addr:city": "Moknine", "addr:postcode": "5050", "addr:street": "Rue Koubine", "amenity": "hospital", "name": "مستشفى الدكتور إمحمد بن صالح", "name:ar": "مستشفى الدكتور إمحمد بن صالح", "name:fr": "Hôpital Dr M'hamed BEN SALAH", "phone": "+216 73 476 508"}}, {"name": "Polyclinique Hammamet", "latitude": 36.4059671, "longitude": 10.5915454, "source": "osm", "_tags": {"amenity": "hospital", "healthcare": "hospital", "name": "Polyclinique Hammamet"}}, {"name": "المستشفى الجهوي بزغوان", "latitude": 36.4166794, "longitude": 10.1322966, "source": "osm", "_tags": {"addr:street": "شارع البيئة", "addr:street:ar": "شارع البيئة", "addr:street:fr": "Avenue de l'Environnement", "amenity": "hospital", "healthcare": "hospital", "name": "المستشفى الجهوي بزغوان", "name:ar": "المستشفى الجهوي بزغوان", "name:fr": "Hôpital Régional de Zaghouan", "phone": "+216 72 676 700"}}, {"name": "المركز الطبي ابن خلدون", "latitude": 35.8455269, "longitude": 10.5914183, "source": "osm", "_tags": {"addr:city": "Hammam Sousse", "addr:postcode": "4011", "addr:street": "Avenue de la liberté", "amenity": "hospital", "email": "contact@cmik.tn", "fax": "+216 73 363 511", "healthcare": "hospital", "name": "المركز الطبي ابن خلدون", "name:ar": "المركز الطبي ابن خلدون", "name:fr": "Centre Médical Ibn Khaldoun", "phone": "+216 73 363 513;+216 73 363 500", "website": "https://www.cmik.tn/"}}, {"name": "مصحة الكرنيش", "latitude": 35.8370405, "longitude": 10.6314168, "source": "osm", "_tags": {"addr:city": "Sousse", "addr:housenumber": "1", "addr:postcode": "4000", "addr:street": "Boulevard Mongi Bali", "amenity": "clinic", "building": "yes", "email": "contact@clinique-lacorniche.com", "fax": "+216 73 222 800", "healthcare": "hospital", "name": "مصحة الكرنيش", "name:ar": "مصحة الكرنيش", "name:fr": "Clinique La Corniche", "phone": "+216 73 222 666", "website": "http://www.clinique-lacorniche.com/"}}, {"name": "مصحة السواني بالمنستير", "latitude": 35.7758914, "longitude": 10.8172716, "source": "osm", "_tags": {"addr:city": "Monastir", "addr:postcode": "5000", "amenity": "clinic", "fax": "+216 73 501 003", "healthcare": "hospital", "name": "مصحة السواني بالمنستير", "name:ar": "مصحة السواني بالمنستير", "name:fr": "Clinique Essouani", "phone": "+216 73 501 001"}}, {"name": "Clinique DEBBABI", "latitude": 35.7684955, "longitude": 10.8359759, "source": "osm", "_tags": {"addr:city": "Monastir", "addr:postcode": "5000", "addr:street": "Avenue Avicenne", "amenity": "clinic", "healthcare": "hospital", "internet_access": "wlan", "name": "Clinique DEBBABI", "phone": "+216 73 447 100"}}, {"name": "مستشفى الأغالبة", "latitude": 35.6655809, "longitude": 10.1076724, "source": "osm", "_tags": {"amenity": "hospital", "building": "hospital", "name": "مستشفى الأغالبة", "name:ar": "مستشفى الأغالبة", "name:en": "Aghalba hospital", "name:fr": "Hôpital Aghalba"}}, {"name": "Csb nord msaken", "latitude": 35.7337082, "longitude": 10.5742252, "source": "osm", "_tags": {"amenity": "hospital", "healthcare": "hospital", "name": "Csb nord msaken", "name:ar": "", "name:fr": ""}}, {"name": "Clinique hospitalo-universitaire d'Odontologie", "latitude": 35.7649716, "longitude": 10.8285192, "source": "osm", "_tags": {"addr:city": "المنستير", "addr:city:ar": "المنستير", "addr:postcode": "5000", "addr:street": "Rue Avicenne", "amenity": "clinic", "fax": "+216 73 462 866", "healthcare": "hospital", "healthcare:speciality": "orthodontics;clinic;community", "name": "Clinique hospitalo-universitaire d'Odontologie", "phone": "+216 73 461 154;+216 73 461 155"}}, {"name": "جراحة التجميل د.كمال العربى", "latitude": 35.8304262, "longitude": 10.6401654, "source": "osm", "_tags": {"addr:city": "سوسة", "addr:housenumber": "5", "addr:postcode": "4000", "addr:street": "شارع الحبيب بورقيبة", "addr:street:ar": "شارع الحبيب بورقيبة", "amenity": "hospital", "email": "larbi@dr.com", "emergency": "no", "healthcare": "hospital", "healthcare:speciality": "anaesthetics;plastic_surgery", "name": "جراحة التجميل د.كمال العربى", "name:ar": "جراحة التجميل د.كمال العربى", "operator": "د كمال العربى", "phone": "+216 73 220 107"}}, {"name": "", "latitude": 35.726258, "longitude": 10.5833084, "source": "osm", "_tags": {"amenity": "hospital", "healthcare": "hospital"}}, {"name": "Hôpital Kondar", "latitude": 35.9323214, "longitude": 10.2991635, "source": "osm", "_tags": {"amenity": "hospital", "healthcare": "hospital", "name": "Hôpital Kondar"}}, {"name": "hopital Hergla", "latitude": 36.0288295, "longitude": 10.4950296, "source": "osm", "_tags": {"amenity": "hospital", "emergency": "no", "healthcare": "hospital", "name": "hopital Hergla"}}, {"name": "Polyclinique Okba", "latitude": 35.6902363, "longitude": 10.0778831, "source": "osm", "_tags": {"amenity": "hospital", "healthcare": "hospital", "name": "Polyclinique Okba"}}, {"name": "Hospital F. Hached", "latitude": 35.8293228, "longitude": 10.6275001, "source": "osm", "_tags": {"amenity": "hospital", "healthcare": "hospital", "name": "Hospital F. Hached"}}, {"name": "مصحة قوات الأمن الداخلي", "latitude": 35.8225175, "longitude": 10.6334513, "source": "osm", "_tags": {"amenity": "hospital", "healthcare": "hospital", "landuse": "military", "name": "مصحة قوات الأمن الداخلي"}}, {"name": "مستشفى حبيب بيار القلعة الكبرى", "latitude": 35.8895431, "longitude": 10.5372826, "source": "osm", "_tags": {"amenity": "hospital", "healthcare": "hospital", "name": "مستشفى حبيب بيار القلعة الكبرى"}}, {"name": "Centre Alwassit Médical", "latitude": 35.794227, "longitude": 10.5851938, "source": "osm", "_tags": {"amenity": "hospital", "healthcare": "hospital", "name": "Centre Alwassit Médical"}}, {"name": "Hôpital militaire Enfidha", "latitude": 36.0926755, "longitude": 10.3964814, "source": "osm", "_tags": {"amenity": "hospital", "healthcare": "hospital", "landuse": "military", "name": "Hôpital militaire Enfidha"}}]