[{"name": "Hôpital Chelghoum Laïd", "latitude": 36.1701847, "longitude": 6.1610625, "source": "osm", "_tags": {"amenity": "hospital", "name": "Hôpital Chelghoum Laïd"}}, {"name": "Polyclinique", "latitude": 36.1635614, "longitude": 6.1729266, "source": "osm", "_tags": {"amenity": "hospital", "name": "Polyclinique"}}, {"name": "Hôpital", "latitude": 36.1639184, "longitude": 6.166417, "source": "osm", "_tags": {"amenity": "hospital", "name": "Hôpital"}}, {"name": "Centre De Soins", "latitude": 35.5340152, "longitude": 6.1727862, "source": "osm", "_tags": {"amenity": "hospital", "name": "Centre De Soins", "opening_hours": "Mo-Su 08:00-22:00"}}, {"name": "EPH Belhi Abdelhamid", "latitude": 36.1199102, "longitude": 5.9801869, "source": "osm", "_tags": {"amenity": "hospital", "name": "EPH Belhi Abdelhamid", "name:ar": "مستشفى بلحي عبد الحميد", "opening_hours": "24/7"}}, {"name": "Hôpital", "latitude": 36.3980428, "longitude": 6.3261281, "source": "osm", "_tags": {"addr:postcode": "43016", "amenity": "hospital", "name": "Hôpital", "name:ar": "بوفلغط رمضان", "opening_hours": "Sa-Th 08:00-16:30"}}, {"name": "clinque lambarkia", "latitude": 35.5443817, "longitude": 6.1873641, "source": "osm", "_tags": {"amenity": "hospital", "name": "clinque lambarkia", "name:fr": "clinque lambarkia"}}, {"name": "Service de radiologie", "latitude": 35.4832655, "longitude": 6.626289, "source": "osm", "_tags": {"amenity": "hospital", "name": "Service de radiologie", "name:fr": "Service de radiologie"}}, {"name": "", "latitude": 36.3033904, "longitude": 6.0107718, "source": "osm", "_tags": {"amenity": "hospital"}}, {"name": "", "latitude": 35.5613999, "longitude": 6.1729694, "source": "osm", "_tags": {"addr:city": "باتنة", "amenity": "hospital", "healthcare": "hospital"}}, {"name": "", "latitude": 36.3676384, "longitude": 6.6089917, "source": "osm", "_tags": {"addr:city": "قسنطينة", "addr:city:ar": "قسنطينة", "addr:street": "نهج زيغود يوسف", "addr:street:ar": "نهج زيغود يوسف", "amenity": "hospital", "healthcare": "hospital"}}, {"name": "", "latitude": 36.1828549, "longitude": 6.3863753, "source": "osm", "_tags": {"amenity": "hospital", "healthcare": "hospital", "healthcare:speciality": "paediatrics"}}, {"name": "", "latitude": 36.37353, "longitude": 6.6183092, "source": "osm", "_tags": {"addr:city": "قسنطينة", "addr:city:ar": "قسنطينة", "amenity": "hospital", "healthcare": "hospital", "healthcare:speciality": "dermatology", "language:ar": "main"}}, {"name": "محمد الصادق بن يحي", "latitude": 35.5267107, "longitude": 6.2022264, "source": "osm", "_tags": {"amenity": "hospital", "name": "محمد الصادق بن يحي", "name:ar": "محمد الصادق بن يحي"}}, {"name": "", "latitude": 36.3741467, "longitude": 6.625348, "source": "osm", "_tags": {"addr:street": "Boulevard Chihani Bachir", "amenity": "hospital", "healthcare": "hospital", "name:fr": "Consultation psychiatrique externe - Chihani Bachir"}}, {"name": "مشفى", "latitude": 36.1177623, "longitude": 5.9687414, "source": "osm", "_tags": {"amenity": "hospital", "healthcare": "hospital", "name": "مشفى", "name:ar": "مشفى", "name:en": "hospital", "name:fr": "hospital"}}, {"name": "مركز الاصيل الاكاديمي العالمي", "latitude": 35.5477347, "longitude": 6.1716802, "source": "osm", "_tags": {"addr:city": "باتنة", "addr:postcode": "05000", "amenity": "hospital", "healthcare": "hospital", "name": "مركز الاصيل الاكاديمي العالمي", "name:ar": "مركز الاصيل الاكاديمي العالمي"}}, {"name": "Dr BEKKOUCHE Dentiste", "latitude": 36.3913589, "longitude": 6.1283942, "source": "osm", "_tags": {"amenity": "hospital", "healthcare": "hospital", "name": "Dr BEKKOUCHE Dentiste"}}, {"name": "projet centre des autistes", "latitude": 35.5495817, "longitude": 6.1709932, "source": "osm", "_tags": {"addr:city": "Batna", "amenity": "hospital", "healthcare": "hospital", "name": "projet centre des autistes"}}, {"name": "Hôpital de maternité", "latitude": 36.3629165, "longitude": 6.6391664, "source": "osm", "_tags": {"amenity": "hospital", "healthcare": "hospital", "name": "Hôpital de maternité", "name:en": "Maternity Hospital"}}, {"name": "Dispensaire", "latitude": 36.4096895, "longitude": 6.0442842, "source": "osm", "_tags": {"amenity": "hospital", "name": "Dispensaire"}}, {"name": "CHU Benflis Touhami", "latitude": 35.5320507, "longitude": 6.1894037, "source": "osm", "_tags": {"addr:city": "Batna", "amenity": "hospital", "emergency": "yes", "name": "CHU Benflis Touhami"}}, {"name": "Centre Anti Cancer", "latitude": 35.5236612, "longitude": 6.1964348, "source": "osm", "_tags": {"addr:city": "Batna", "amenity": "hospital", "emergency": "yes", "name": "Centre Anti Cancer"}}, {"name": "Hôpital Militaire de Ali Mendjeli", "latitude": 36.245825, "longitude": 6.5903668, "source": "osm", "_tags": {"addr:city": "Ali Mendjeli", "amenity": "hospital", "healthcare": "hospital", "name": "Hôpital Militaire de Ali Mendjeli", "name:ar": "المستشفى العسكري علي منجلي", "name:fr": "Hôpital Militaire de Ali Mendjeli"}}, {"name": "Hopital Psychiatrique", "latitude": 36.3902208, "longitude": 6.6473658, "source": "osm", "_tags": {"amenity": "hospital", "healthcare": "hospital", "name": "Hopital Psychiatrique"}}, {"name": "Salle de Soins", "latitude": 36.4119178, "longitude": 6.1282039, "source": "osm", "_tags": {"amenity": "hospital", "building": "yes", "name": "Salle de Soins"}}, {"name": "Hopital Mohamed Meddahi", "latitude": 36.4094767, "longitude": 5.9501928, "source": "osm", "_tags": {"amenity": "hospital", "name": "Hopital Mohamed Meddahi"}}, {"name": "مستشفى الاخوة بوخشم", "latitude": 36.2542246, "longitude": 6.2862111, "source": "osm", "_tags": {"amenity": "hospital", "healthcare": "hospital", "name": "مستشفى الاخوة بوخشم", "name:ar": "مستشفى الاخوة بوخشم", "name:en": "Brothers Boukhechem Hospital", "name:fr": "Hôpital frères Boukhechem", "opening_hours": "24/7"}}, {"name": "Centre médical", "latitude": 36.1231685, "longitude": 6.7849306, "source": "osm", "_tags": {"amenity": "hospital", "name": "Centre médical"}}, {"name": "Hôpital Slimane Amirat", "latitude": 36.0176972, "longitude": 6.5695258, "source": "osm", "_tags": {"amenity": "hospital", "name": "Hôpital Slimane Amirat", "name:ar": "Hôpital Slimane Amirat ( الباطوار)"}}, {"name": "Clinique d'Hémodialyse", "latitude": 36.0386016, "longitude": 6.5638792, "source": "osm", "_tags": {"amenity": "hospital", "name": "Clinique d'Hémodialyse"}}, {"name": "Centre Hispitalier Hamouda Amer", "latitude": 35.9741643, "longitude": 6.8778575, "source": "osm", "_tags": {"amenity": "hospital", "emergency": "yes", "name": "Centre Hispitalier Hamouda Amer"}}, {"name": "CHU Ibn Badis", "latitude": 36.3734414, "longitude": 6.6166463, "source": "osm", "_tags": {"addr:city": "Constantine", "addr:postcode": "25000", "addr:street": "Rue Benseghir Abdelouahab", "amenity": "hospital", "emergency": "yes", "healthcare": "hospital", "name": "CHU Ibn Badis", "name:ar": "المستشفى الجامعي عبد الحميد بن باديس", "phone": "+213 31 64 16 07"}}, {"name": "Hopital El-Khroub", "latitude": 36.2603689, "longitude": 6.7082857, "source": "osm", "_tags": {"amenity": "hospital", "emergency": "yes", "name": "Hopital El-Khroub", "name:ar": "مستشفى الخروب", "name:fr": "EPH EL KHROUB"}}, {"name": "مركز صحي", "latitude": 36.3928903, "longitude": 6.1276276, "source": "osm", "_tags": {"amenity": "hospital", "name": "مركز صحي", "name:ar": "مركز صحي", "name:fr": "Centre de santé"}}, {"name": "Hôpital de Kaïs", "latitude": 35.4908062, "longitude": 6.9348988, "source": "osm", "_tags": {"amenity": "hospital", "name": "Hôpital de Kaïs", "name:ar": "مستشفى حيحي عبد المجيد", "name:fr": "Hôpital Hihi Abdelmadjid"}}, {"name": "", "latitude": 36.3033942, "longitude": 6.0107797, "source": "osm", "_tags": {"amenity": "hospital", "healthcare": "hospital"}}, {"name": "", "latitude": 36.1243349, "longitude": 6.3636172, "source": "osm", "_tags": {"amenity": "hospital"}}, {"name": "PHARMACIE", "latitude": 36.3447255, "longitude": 6.6036123, "source": "osm", "_tags": {"amenity": "hospital", "emergency": "no", "healthcare": "hospital", "name": "PHARMACIE", "operator": "AIT YAHIA", "operator:type": "private"}}, {"name": "Hôpital hafid boudjema", "latitude": 36.351585, "longitude": 6.5944741, "source": "osm", "_tags": {"amenity": "hospital", "name": "Hôpital hafid boudjema"}}, {"name": "Hôpital Pédiatrique", "latitude": 36.3682911, "longitude": 6.6345709, "source": "osm", "_tags": {"addr:city": "Constantine", "addr:postcode": "25000", "amenity": "hospital", "healthcare:speciality": "paediatrics", "name": "Hôpital Pédiatrique", "name:fr": "Hôpital Pédiatrique"}}, {"name": "", "latitude": 36.1699974, "longitude": 6.1606112, "source": "osm", "_tags": {"amenity": "hospital"}}, {"name": "centre d'hemodialyse maghreb", "latitude": 36.1693144, "longitude": 6.1745968, "source": "osm", "_tags": {"amenity": "hospital", "emergency": "yes", "name": "centre d'hemodialyse maghreb"}}, {"name": "Dispensaire Hamma Bouziane", "latitude": 36.4215603, "longitude": 6.5990848, "source": "osm", "_tags": {"amenity": "hospital", "name": "Dispensaire Hamma Bouziane"}}, {"name": "مستشفى الأمراض العقلية الجديد", "latitude": 35.6265423, "longitude": 6.3834431, "source": "osm", "_tags": {"addr:city": "El Madher", "amenity": "hospital", "name": "مستشفى الأمراض العقلية الجديد", "name:ar": "مستشفى الأمراض العقلية الجديد", "name:en": "New psychiatry hospital", "name:fr": "Nouvel hôpital psychiatrique"}}, {"name": "Sanatorium EPH Batna", "latitude": 35.5558881, "longitude": 6.182601, "source": "osm", "_tags": {"addr:city": "Batna", "addr:postcode": "05000", "amenity": "hospital", "healthcare": "sanatorium", "name": "Sanatorium EPH Batna"}}, {"name": "", "latitude": 36.3745834, "longitude": 6.6167589, "source": "osm", "_tags": {"building": "yes", "ele": "5", "healthcare": "hospital"}}, {"name": "Maternité", "latitude": 36.374694, "longitude": 6.6151254, "source": "osm", "_tags": {"building": "yes", "ele": "5", "healthcare": "hospital", "healthcare:speciality": "maternity", "name": "Maternité"}}, {"name": "Hôpital psychiatrique", "latitude": 36.2501465, "longitude": 6.2884679, "source": "osm", "_tags": {"amenity": "hospital", "healthcare": "hospital", "healthcare:speciality": "psychiatry", "name": "Hôpital psychiatrique", "name:ar": "مستشفى الأمراض العقلية", "name:fr": "Hôpital psychiatrique"}}, {"name": "مستشفى جراحة القلب الرياض بن شيكو", "latitude": 36.3560293, "longitude": 6.6532618, "source": "osm", "_tags": {"addr:city": "قسنطينة", "addr:city:ar": "قسنطينة", "addr:place": "حي الرياض", "addr:place:ar": "حي الرياض", "alt_name": "مستشفى جراحة القلب", "alt_name:ar": "مستشفى جراحة القلب", "amenity": "hospital", "emergency": "yes", "healthcare": "hospital", "healthcare:speciality": "cardiology", "language:ar": "main", "name": "مستشفى جراحة القلب الرياض بن شيكو", "name:ar": "مستشفى جراحة القلب الرياض بن شيكو", "name:fr": "Clinique Du Coeur EHS De Cardiologie Erriad Benchicou"}}, {"name": "Hôpital psychiatrique d'El Madher", "latitude": 35.6239309, "longitude": 6.3691313, "source": "osm", "_tags": {"addr:city": "El Madher", "amenity": "hospital", "healthcare": "hospital", "name": "Hôpital psychiatrique d'El Madher", "name:ar": "مستشفى الأمراض العقلية سابقا", "name:en": "Old psychiatry"}}, {"name": "Polyclinique", "latitude": 36.1636155, "longitude": 6.1729546, "source": "osm", "_tags": {"amenity": "hospital", "healthcare": "hospital", "name": "Polyclinique"}}, {"name": "EPH Belhi Abdelhamid", "latitude": 36.1200757, "longitude": 5.9803787, "source": "osm", "_tags": {"amenity": "hospital", "healthcare": "hospital", "name": "EPH Belhi Abdelhamid"}}, {"name": "مستشفى سريانة", "latitude": 35.6899842, "longitude": 6.1846172, "source": "osm", "_tags": {"amenity": "hospital", "healthcare": "hospital", "name": "مستشفى سريانة", "name:ar": "مستشفى سريانة", "name:fr": "Hôpital de Seriana"}}, {"name": "Hôpital", "latitude": 36.3982047, "longitude": 6.3259149, "source": "osm", "_tags": {"amenity": "hospital", "healthcare": "hospital", "name": "Hôpital"}}, {"name": "", "latitude": 35.5405483, "longitude": 6.1904586, "source": "osm", "_tags": {"amenity": "hospital", "check_date": "2024-09-17", "healthcare": "hospital", "name:ar": "مستشفى الشرطة", "name:en": "Police Hospital", "name:fr": "Hôpital Police", "note": "Private: Access exclusive to members of the police.", "operator": "Algérie Police", "operator:type": "government"}}, {"name": "Polyclinique", "latitude": 35.4825313, "longitude": 6.626251, "source": "osm", "_tags": {"amenity": "hospital", "healthcare": "hospital", "name": "Polyclinique"}}, {"name": "", "latitude": 35.561352, "longitude": 6.1730922, "source": "osm", "_tags": {"amenity": "hospital", "healthcare": "hospital"}}, {"name": "عيادة الاحسان لجراحة الاسنان", "latitude": 35.481654, "longitude": 6.258398, "source": "osm", "_tags": {"amenity": "hospital", "healthcare": "hospital", "name": "عيادة الاحسان لجراحة الاسنان"}}, {"name": "", "latitude": 36.1829895, "longitude": 6.3865266, "source": "osm", "_tags": {"amenity": "hospital", "healthcare": "hospital"}}, {"name": "محمد الصادق بن يحي", "latitude": 35.5266589, "longitude": 6.202335, "source": "osm", "_tags": {"amenity": "hospital", "healthcare": "hospital", "name": "محمد الصادق بن يحي"}}, {"name": "مشفى", "latitude": 36.117753, "longitude": 5.9687955, "source": "osm", "_tags": {"amenity": "hospital", "healthcare": "hospital", "name": "مشفى", "name:ar": "مشفى", "name:fr": "Hôpital de Tadjenanet"}}, {"name": "ancienne urgence", "latitude": 36.169439, "longitude": 6.1777349, "source": "osm", "_tags": {"amenity": "hospital", "healthcare": "hospital", "name": "ancienne urgence"}}, {"name": "مركز علاج الإدمان", "latitude": 36.2591798, "longitude": 6.7082228, "source": "osm", "_tags": {"amenity": "hospital", "healthcare": "hospital", "name": "مركز علاج الإدمان", "name:en": "Centre de traitement de la toxicomanie"}}, {"name": "Ibn Ziad Centre Medical", "latitude": 36.3816795, "longitude": 6.4704152, "source": "osm", "_tags": {"amenity": "hospital", "name": "Ibn Ziad Centre Medical"}}, {"name": "عيادة متعددة الخدمات", "latitude": 35.5097021, "longitude": 6.8127424, "source": "osm", "_tags": {"amenity": "hospital", "healthcare": "hospital", "name": "عيادة متعددة الخدمات"}}, {"name": "", "latitude": 35.4904017, "longitude": 6.5646127, "source": "osm", "_tags": {"amenity": "hospital", "healthcare": "hospital", "source": "microsoft/BuildingFootprints"}}]