[{"name": "", "latitude": 36.1572027, "longitude": 3.1413919, "source": "osm", "_tags": {"amenity": "hospital"}}, {"name": "", "latitude": 36.2134069, "longitude": 3.1261091, "source": "osm", "_tags": {"amenity": "hospital"}}, {"name": "", "latitude": 35.9820602, "longitude": 2.9589118, "source": "osm", "_tags": {"amenity": "hospital"}}, {"name": "", "latitude": 36.263088, "longitude": 3.0365692, "source": "osm", "_tags": {"amenity": "hospital"}}, {"name": "", "latitude": 36.0004396, "longitude": 3.7541259, "source": "osm", "_tags": {"amenity": "hospital"}}, {"name": "cabinet CARDIOLOGUE DR BELKHIR", "latitude": 36.2284391, "longitude": 3.3064486, "source": "osm", "_tags": {"amenity": "hospital", "name": "cabinet CARDIOLOGUE DR BELKHIR"}}, {"name": "قاعة علاج", "latitude": 36.2355667, "longitude": 3.6468799, "source": "osm", "_tags": {"amenity": "hospital", "healthcare": "hospital", "name": "قاعة علاج", "name:ar": "قاعة علاج"}}, {"name": "طبيبة عامة دحماني", "latitude": 36.2345134, "longitude": 3.6487243, "source": "osm", "_tags": {"amenity": "hospital", "healthcare": "doctor", "name": "طبيبة عامة دحماني", "name:ar": "طبيبة عامة دحماني"}}, {"name": "Polyclinique", "latitude": 35.9574251, "longitude": 3.8487679, "source": "osm", "_tags": {"amenity": "hospital", "name": "Polyclinique"}}, {"name": "طبيب الأسنان", "latitude": 36.2907305, "longitude": 3.6738962, "source": "osm", "_tags": {"amenity": "hospital", "name": "طبيب الأسنان", "name:ar": "طبيب الأسنان"}}, {"name": "", "latitude": 36.1453811, "longitude": 3.6886973, "source": "osm", "_tags": {"addr:city": "سور الغزلان", "addr:city:ar": "سور الغزلان", "amenity": "hospital", "emergency": "yes", "healthcare": "hospital"}}, {"name": "Hôpital Mohamed Boudiaf ⵙⵠⵉⵜⴰⵔ ⵎⵓⵀⴰⵎⴻⴷ ⴱⵓⵝⵖⴰⴼ مستشفى محمد بوضياف", "latitude": 36.3698517, "longitude": 3.8839042, "source": "osm", "_tags": {"addr:postcode": "10000", "amenity": "hospital", "emergency": "yes", "healthcare": "hospital", "name": "Hôpital Mohamed Boudiaf ⵙⵠⵉⵜⴰⵔ ⵎⵓⵀⴰⵎⴻⴷ ⴱⵓⵝⵖⴰⴼ مستشفى محمد بوضياف", "name:ar": "مستشفى محمد بوضياف", "name:fr": "Hôpital Mohamed Boudiaf", "name:kab": "ⵙⵠⵉⵜⴰⵔ ⵎⵓⵀⴰⵎⴻⴷ ⴱⵓⵝⵖⴰⴼ"}}, {"name": "Hôpital de Chellalet El Adhaoura", "latitude": 35.9414298, "longitude": 3.4149021, "source": "osm", "_tags": {"addr:city": "Chellalet El Adhaoura", "amenity": "hospital", "emergency": "yes", "name": "Hôpital de Chellalet El Adhaoura"}}, {"name": "Hopital", "latitude": 36.1234592, "longitude": 3.2624638, "source": "osm", "_tags": {"amenity": "hospital", "name": "Hopital"}}, {"name": "Hopital EPH Said Omar", "latitude": 36.2234192, "longitude": 3.2991117, "source": "osm", "_tags": {"addr:city": "Beni Slimane", "addr:postcode": "26001", "amenity": "hospital", "emergency": "yes", "fax": "025 71 52 74", "name": "Hopital EPH Said Omar", "operator": "CHENAF GOUIDER", "phone": "025 71 41 84"}}, {"name": "service des urgences", "latitude": 36.370095, "longitude": 3.8844209, "source": "osm", "_tags": {"addr:city": "Bouira", "addr:postcode": "10000", "addr:street": "Rue Henach Ahmed", "building": "yes", "building:levels": "2", "healthcare": "hospital", "healthcare:speciality": "emergency", "name": "service des urgences"}}, {"name": "clinique de oued edhous", "latitude": 36.3687725, "longitude": 3.9009877, "source": "osm", "_tags": {"addr:city": "Bouira", "addr:postcode": "10000", "amenity": "hospital", "building": "yes", "emergency": "yes", "healthcare": "clinic", "healthcare:speciality": "general", "name": "clinique de oued edhous"}}, {"name": "Centre de santé", "latitude": 36.2202299, "longitude": 3.8149362, "source": "osm", "_tags": {"amenity": "hospital", "emergency": "yes", "name": "Centre de santé"}}, {"name": "", "latitude": 35.8923708, "longitude": 3.767395, "source": "osm", "_tags": {"amenity": "hospital", "emergency": "yes", "healthcare": "hospital", "name:ar": "المؤسسة العمومية الإستشفائية سيدي عيسى", "name:fr": "EPH Sidi Aissa", "short_name": "EPH"}}, {"name": "Établissement de santé public de proximité", "latitude": 35.8838839, "longitude": 3.7841812, "source": "osm", "_tags": {"amenity": "hospital", "name": "Établissement de santé public de proximité", "name:ar": "المؤسسة العمومية للصحة الجوارية", "name:fr": "Établissement de santé publique de proximité"}}, {"name": "", "latitude": 36.1614511, "longitude": 3.6744654, "source": "osm", "_tags": {"amenity": "hospital", "healthcare": "hospital"}}, {"name": "العيادة المتعددة الخدمات", "latitude": 35.6308346, "longitude": 3.2275073, "source": "osm", "_tags": {"addr:city": "البيرين", "addr:city:ar": "البيرين", "amenity": "hospital", "emergency": "yes", "healthcare": "hospital", "name": "العيادة المتعددة الخدمات", "name:ar": "العيادة المتعددة الخدمات", "name:fr": "Polyclinique de BIRINE"}}, {"name": "الإستعجالات الطبية الجراحية", "latitude": 35.6441241, "longitude": 3.2271126, "source": "osm", "_tags": {"addr:city": "البيرين", "addr:city:ar": "البيرين", "amenity": "hospital", "emergency": "yes", "healthcare": "hospital", "name": "الإستعجالات الطبية الجراحية", "name:ar": "الإستعجالات الطبية الجراحية", "name:en": "Emergency", "name:fr": "UMC BIRINE"}}, {"name": "", "latitude": 36.213398, "longitude": 3.1262093, "source": "osm", "_tags": {"amenity": "hospital", "healthcare": "hospital"}}, {"name": "", "latitude": 35.982041, "longitude": 2.9588187, "source": "osm", "_tags": {"amenity": "hospital", "healthcare": "hospital"}}, {"name": "EPH", "latitude": 35.8905781, "longitude": 3.1463753, "source": "osm", "_tags": {"addr:city": "Ain Boucif", "addr:postcode": "26500", "amenity": "hospital", "emergency": "yes", "name": "EPH", "opening_hours": "24/7"}}, {"name": "EPSP Hopital Saïd Hamiane", "latitude": 36.4075491, "longitude": 3.3076429, "source": "osm", "_tags": {"amenity": "hospital", "name": "EPSP Hopital Saïd Hamiane"}}, {"name": "", "latitude": 36.2865543, "longitude": 3.4930147, "source": "osm", "_tags": {"amenity": "hospital"}}, {"name": "", "latitude": 35.6208962, "longitude": 3.2123834, "source": "osm", "_tags": {"addr:city": "Birine", "amenity": "hospital", "name:ar": "مستشفى 60 سرير", "name:fr": "Hôpital de Birine"}}, {"name": "Hôpital de Aïn Bessam", "latitude": 36.2966344, "longitude": 3.6759555, "source": "osm", "_tags": {"addr:city": "Aïn Bessam", "amenity": "hospital", "name": "Hôpital de Aïn Bessam"}}, {"name": "", "latitude": 36.2650509, "longitude": 3.5839117, "source": "osm", "_tags": {"amenity": "hospital"}}, {"name": "مستشفى", "latitude": 35.8766765, "longitude": 3.7768694, "source": "osm", "_tags": {"amenity": "hospital", "emergency": "yes", "healthcare": "hospital", "name": "مستشفى", "name:ar": "مستشفى"}}, {"name": "Centre médical de la police", "latitude": 36.3770573, "longitude": 3.8875107, "source": "osm", "_tags": {"amenity": "hospital", "building": "yes", "building:levels": "2", "name": "Centre médical de la police"}}, {"name": "Centre de santé", "latitude": 36.3759868, "longitude": 3.8827493, "source": "osm", "_tags": {"addr:city": "bouira", "amenity": "hospital", "emergency": "no", "healthcare": "dispensory", "healthcare:speciality": "general", "name": "Centre de santé"}}, {"name": "Etablissement public de santé de proximité", "latitude": 36.3812413, "longitude": 3.9005767, "source": "osm", "_tags": {"addr:city": "Bouira", "addr:street": "Rue Amirouche Mouloud", "amenity": "hospital", "building": "yes", "building:levels": "4", "name": "Etablissement public de santé de proximité", "operator": "public"}}, {"name": "Hadiouch Saleh Polyclinic", "latitude": 36.2956248, "longitude": 3.6693993, "source": "osm", "_tags": {"amenity": "hospital", "building": "yes", "building:levels": "3", "healthcare:speciality": "polyclinic", "name": "Hadiouch Saleh Polyclinic"}}, {"name": "Polyclinique", "latitude": 36.2954699, "longitude": 3.6694024, "source": "osm", "_tags": {"amenity": "hospital", "healthcare": "hospital", "name": "Polyclinique"}}, {"name": "Centre De Santé Aïn El Hadjar", "latitude": 36.3408463, "longitude": 3.8113091, "source": "osm", "_tags": {"amenity": "hospital", "healthcare": "hospital", "name": "Centre De Santé Aïn El Hadjar"}}, {"name": "", "latitude": 36.3815662, "longitude": 3.9014041, "source": "osm", "_tags": {"addr:city": "Bouira", "addr:street": "Avenue Khalfa Boukarou", "amenity": "hospital", "barrier": "wall", "healthcare": "hospital", "height": "2.3", "operator": "public", "wall": "noise_barrier"}}, {"name": "", "latitude": 36.3812922, "longitude": 3.9005412, "source": "osm", "_tags": {"amenity": "hospital", "barrier": "wall", "healthcare": "hospital", "height": "2.4", "wall": "noise_barrier"}}, {"name": "Hôpital", "latitude": 36.4157217, "longitude": 3.3096418, "source": "osm", "_tags": {"addr:city": "Tablat", "amenity": "hospital", "building": "hospital", "healthcare": "hospital", "name": "Hôpital"}}, {"name": "مستوصف", "latitude": 36.2623457, "longitude": 3.0347114, "source": "osm", "_tags": {"amenity": "hospital", "healthcare": "hospital", "name": "مستوصف", "name:ar": "مستوصف", "name:fr": "Clinique"}}, {"name": "", "latitude": 36.2630091, "longitude": 3.0364888, "source": "osm", "_tags": {"amenity": "hospital", "healthcare": "hospital"}}, {"name": "", "latitude": 36.0005693, "longitude": 3.7542117, "source": "osm", "_tags": {"amenity": "hospital", "healthcare": "hospital"}}, {"name": "cabinet CARDIOLOGUE DR BELKHIR", "latitude": 36.2285059, "longitude": 3.3066404, "source": "osm", "_tags": {"amenity": "hospital", "healthcare": "hospital", "name": "cabinet CARDIOLOGUE DR BELKHIR"}}, {"name": "قاعة علاج", "latitude": 36.235597, "longitude": 3.646895, "source": "osm", "_tags": {"amenity": "hospital", "healthcare": "hospital", "name": "قاعة علاج", "name:ar": "قاعة علاج"}}, {"name": "طبيبة عامة دحماني", "latitude": 36.2345038, "longitude": 3.6488644, "source": "osm", "_tags": {"amenity": "hospital", "healthcare": "hospital", "name": "طبيبة عامة دحماني", "name:ar": "طبيبة عامة دحماني"}}, {"name": "Polyclinique", "latitude": 35.9574174, "longitude": 3.8488587, "source": "osm", "_tags": {"amenity": "hospital", "healthcare": "hospital", "name": "Polyclinique"}}]