[{"name": "مدرسة التكوين شبه الطبي", "latitude": 35.7943949, "longitude": 7.3931757, "source": "osm", "_tags": {"amenity": "hospital", "emergency": "no", "healthcare": "hospital", "name": "مدرسة التكوين شبه الطبي", "name:ar": "مدرسة التكوين شبه الطبي", "name:en": "Semi-Medical School", "name:fr": "école paramédical"}}, {"name": "مستشفى الأمومة والتوليد", "latitude": 35.7951245, "longitude": 7.3942211, "source": "osm", "_tags": {"amenity": "hospital", "name": "مستشفى الأمومة والتوليد", "name:ar": "مستشفى الأمومة والتوليد", "name:en": "Maternity Hospital", "name:fr": "Hôpital de maternité et d'obstétrique"}}, {"name": "المستشفى القديم", "latitude": 35.7916998, "longitude": 7.3907151, "source": "osm", "_tags": {"amenity": "hospital", "healthcare": "hospital", "name": "المستشفى القديم", "name:ar": "مشفى المناوبة الليلية", "name:en": "The Old Hospital"}}, {"name": "مستشفى الأمومة والتوليد", "latitude": 35.7950066, "longitude": 7.3941655, "source": "osm", "_tags": {"amenity": "hospital", "name": "مستشفى الأمومة والتوليد", "name:ar": "مستشفى الأمومة والتوليد", "name:fr": "Hôpital de maternité et d'obstétrique"}}, {"name": "المؤسسة العمومية الاستشفائية هواري بومدين", "latitude": 36.131672, "longitude": 7.533409, "source": "osm", "_tags": {"amenity": "hospital", "name": "المؤسسة العمومية الاستشفائية هواري بومدين", "name:ar": "المؤسسة العمومية الاستشفائية هواري بومدين"}}, {"name": "المستشفى القديم", "latitude": 36.1324083, "longitude": 7.5301868, "source": "osm", "_tags": {"amenity": "hospital", "healthcare": "hospital", "name": "المستشفى القديم", "name:ar": "المستشفى القديم"}}, {"name": "عيادة رمزي صايم", "latitude": 35.7907903, "longitude": 7.4010268, "source": "osm", "_tags": {"amenity": "hospital", "healthcare": "hospital", "name": "عيادة رمزي صايم", "name:ar": "عيادة رمزي صايم", "name:fr": "Clinique Saim Remzi"}}, {"name": "صيدلية بوجاهم", "latitude": 36.370418, "longitude": 7.5298482, "source": "osm", "_tags": {"amenity": "hospital", "healthcare": "hospital", "name": "صيدلية بوجاهم", "name:ar": "صيدلية بوجاهم"}}, {"name": "مستوصف", "latitude": 35.4498428, "longitude": 7.1238579, "source": "osm", "_tags": {"addr:city": "خنشلة", "addr:city:ar": "خنشلة", "amenity": "hospital", "healthcare": "hospital", "name": "مستوصف", "name:ar": "مستوصف"}}, {"name": "Entree des Urgence", "latitude": 36.3160468, "longitude": 7.1613808, "source": "osm", "_tags": {"amenity": "hospital", "name": "Entree des Urgence"}}, {"name": "عيادة الأمير", "latitude": 35.8014142, "longitude": 7.392083, "source": "osm", "_tags": {"amenity": "hospital", "description": "العيادة الطبية الامير", "healthcare": "hospital", "healthcare:speciality": "gynaecology;internal;general", "name": "عيادة الأمير", "name:ar": "عيادة الأمير", "name:en": "Clinique Amir", "operator": "berkani"}}, {"name": "عيادة الامل", "latitude": 35.7959078, "longitude": 7.3826288, "source": "osm", "_tags": {"amenity": "hospital", "healthcare": "hospital", "healthcare:speciality": "gynaecology", "name": "عيادة الامل", "name:ar": "عيادة الامل", "name:fr": "Clinique El Amel"}}, {"name": "العيادة المتعددة الخدمات الجديدة", "latitude": 36.3670847, "longitude": 7.5212157, "source": "osm", "_tags": {"addr:postcode": "24016", "amenity": "hospital", "name": "العيادة المتعددة الخدمات الجديدة", "name:en": "New polyclinique", "name:fr": "Nouvelle polyclinique", "opening_hours": "24/7"}}, {"name": "مستشفى هواري بومدين", "latitude": 36.1319566, "longitude": 7.5338348, "source": "osm", "_tags": {"amenity": "hospital", "name": "مستشفى هواري بومدين", "name:en": "Houari boumedien Hospital", "name:fr": "EPH Houari boumedienne", "opening_hours": "24/7", "phone": "037776718"}}, {"name": "pharmacier", "latitude": 35.7923614, "longitude": 7.3927627, "source": "osm", "_tags": {"amenity": "hospital", "healthcare": "hospital", "name": "pharmacier"}}, {"name": "Hopital", "latitude": 36.2339367, "longitude": 6.9459826, "source": "osm", "_tags": {"amenity": "hospital", "emergency": "yes", "name": "Hopital"}}, {"name": "عيادة الولادة - سليمان عميرات", "latitude": 35.8752702, "longitude": 7.1109083, "source": "osm", "_tags": {"addr:city": "Oum El Bouaghi", "addr:postcode": "04000", "aeroway": "no", "amenity": "hospital", "emergency": "yes", "healthcare:speciality": "gynaecology;maternity;paediatrics", "name": "عيادة الولادة - سليمان عميرات", "name:ar": "عيادة الولادة - سليمان عميرات"}}, {"name": "", "latitude": 36.0268844, "longitude": 7.6058233, "source": "osm", "_tags": {"amenity": "hospital", "name:fr": "مستشفى"}}, {"name": "مستشفى بوضياف محمد", "latitude": 35.8704352, "longitude": 7.1124709, "source": "osm", "_tags": {"addr:city": "Oum El Bouaghi", "addr:postcode": "04000", "amenity": "hospital", "emergency": "yes", "healthcare": "hospital", "name": "مستشفى بوضياف محمد", "name:ar": "Hôpital mouhamed boudiaf", "name:fr": "Hôpital Mohammed Boudiaf"}}, {"name": "Hôpital d'El Aouinet", "latitude": 35.8609414, "longitude": 7.8901071, "source": "osm", "_tags": {"addr:postcode": "12005", "amenity": "hospital", "emergency": "yes", "healthcare": "hospital", "name": "Hôpital d'El Aouinet", "name:ar": "مستثفى العوينات"}}, {"name": "", "latitude": 35.6315027, "longitude": 7.6630553, "source": "osm", "_tags": {"amenity": "hospital", "healthcare": "hospital"}}, {"name": "مستشفى علي بو سحابة", "latitude": 35.4324102, "longitude": 7.1499853, "source": "osm", "_tags": {"addr:city": "Khenchela", "addr:postcode": "40000", "addr:street": "Rue Ali Boushaba", "amenity": "hospital", "emergency": "yes", "healthcare": "hospital", "name": "مستشفى علي بو سحابة", "name:ar": "مستشفى علي بو سحابة", "name:fr": "Hôpital Ali Bou Sehaba"}}, {"name": "EPH de Oued Zenati", "latitude": 36.3148497, "longitude": 7.1619713, "source": "osm", "_tags": {"addr:city": "Oued Zenati", "amenity": "hospital", "emergency": "yes", "name": "EPH de Oued Zenati"}}, {"name": "المؤسسة الاستشفائية للصحة الجوارية أحمد بن بلة", "latitude": 35.4500299, "longitude": 7.1189107, "source": "osm", "_tags": {"addr:city": "خنشلة", "addr:city:ar": "خنشلة", "addr:postcode": "40000", "amenity": "hospital", "barrier": "wall", "healthcare": "hospital", "name": "المؤسسة الاستشفائية للصحة الجوارية أحمد بن بلة", "name:ar": "المؤسسة الاستشفائية للصحة الجوارية أحمد بن بلة", "name:etymology": "أحمد بن بلة", "name:etymology:wikidata": "Q179908", "name:etymology:wikipedia": "ar:أحمد بن بلة", "name:fr": "EPH Ahmed Ben Bella"}}, {"name": "مصلحة الولادة", "latitude": 35.4302374, "longitude": 7.1421134, "source": "osm", "_tags": {"amenity": "hospital", "healthcare": "hospital", "name": "مصلحة الولادة", "name:ar": "مصلحة الولادة", "name:fr": "Maternité"}}, {"name": "عيادة الامل", "latitude": 35.7958849, "longitude": 7.3826148, "source": "osm", "_tags": {"addr:city": "عين البيضاء", "amenity": "hospital", "healthcare": "hospital", "healthcare:speciality": "general;orthopaedics;chiropractic", "name": "عيادة الامل", "name:ar": "عيادة الامل", "name:fr": "clinique el amel"}}, {"name": "Ibn Sina", "latitude": 35.8789831, "longitude": 7.1087326, "source": "osm", "_tags": {"addr:city": "Oum El Bouaghi", "addr:postcode": "04000", "addr:street": "نهج أول نوفمبر 1954", "amenity": "hospital", "building": "hospital", "height": "11.45", "name": "Ibn Sina", "operator": "Direction générale de santé", "roof:colour": "#dd7e6b", "roof:height": "2.62", "roof:shape": "hipped"}}, {"name": "مستشفى الأمومة والتوليد", "latitude": 35.7949972, "longitude": 7.3943559, "source": "osm", "_tags": {"amenity": "hospital", "healthcare": "hospital", "name": "مستشفى الأمومة والتوليد", "name:ar": "مستشفى الأمومة والتوليد", "name:fr": "Hôpital de maternité et d'obstétrique"}}, {"name": "المستشفى القديم", "latitude": 35.7915882, "longitude": 7.3908763, "source": "osm", "_tags": {"amenity": "hospital", "healthcare": "hospital", "name": "المستشفى القديم"}}, {"name": "المؤسسة العمومية الاستشفائية هواري بومدين", "latitude": 36.1319483, "longitude": 7.5335262, "source": "osm", "_tags": {"amenity": "hospital", "healthcare": "hospital", "name": "المؤسسة العمومية الاستشفائية هواري بومدين", "name:ar": "المؤسسة العمومية الاستشفائية هواري بومدين", "name:fr": "EPHP Houari Boumediene"}}, {"name": "المستشفى القديم", "latitude": 36.1323737, "longitude": 7.5301547, "source": "osm", "_tags": {"amenity": "hospital", "healthcare": "hospital", "name": "المستشفى القديم", "name:ar": "المستشفى القديم"}}, {"name": "عيادة رمزي صايم", "latitude": 35.7908073, "longitude": 7.4011254, "source": "osm", "_tags": {"amenity": "hospital", "healthcare": "hospital", "name": "عيادة رمزي صايم", "name:ar": "عيادة رمزي صايم"}}, {"name": "صيدلية بوجاهم", "latitude": 36.3703813, "longitude": 7.5299193, "source": "osm", "_tags": {"amenity": "hospital", "healthcare": "hospital", "name": "صيدلية بوجاهم", "name:ar": "صيدلية بوجاهم"}}, {"name": "", "latitude": 35.4495008, "longitude": 7.1239357, "source": "osm", "_tags": {"addr:city": "خنشلة", "addr:city:ar": "خنشلة", "amenity": "hospital", "healthcare": "hospital"}}, {"name": "عيادة الأمير", "latitude": 35.8013925, "longitude": 7.3918992, "source": "osm", "_tags": {"amenity": "hospital", "healthcare": "hospital", "name": "عيادة الأمير", "name:ar": "عيادة الأمير", "name:en": "Clinique Amir"}}, {"name": "", "latitude": 35.879299, "longitude": 7.108983, "source": "osm", "_tags": {"addr:city": "Oum El Bouaghi", "addr:postcode": "04000", "addr:street": "نهج أول نوفمبر 1954", "amenity": "hospital", "building": "yes", "building:levels": "2", "height": "11.45", "roof:colour": "#dd7e6b", "roof:height": "2.62", "roof:shape": "hipped"}}, {"name": "", "latitude": 35.8795438, "longitude": 7.109122, "source": "osm", "_tags": {"addr:city": "Oum El Bouaghi", "addr:postcode": "04000", "addr:street": "نهج أول نوفمبر 1954", "amenity": "hospital", "building": "yes", "building:levels": "2", "height": "11.45", "roof:colour": "#dd7e6b", "roof:height": "2.62", "roof:shape": "hipped"}}, {"name": "", "latitude": 35.8794374, "longitude": 7.1091471, "source": "osm", "_tags": {"addr:city": "Oum El Bouaghi", "addr:postcode": "04000", "addr:street": "نهج أول نوفمبر 1954", "amenity": "hospital", "building": "yes", "building:levels": "2", "height": "11.45", "roof:colour": "#dd7e6b", "roof:height": "2.62", "roof:shape": "hipped"}}, {"name": "", "latitude": 35.8793347, "longitude": 7.1091827, "source": "osm", "_tags": {"addr:city": "Oum El Bouaghi", "addr:postcode": "04000", "addr:street": "نهج أول نوفمبر 1954", "amenity": "hospital", "building": "yes", "building:levels": "2", "height": "11.45", "roof:colour": "#dd7e6b", "roof:height": "2.62", "roof:shape": "hipped"}}, {"name": "", "latitude": 35.8790793, "longitude": 7.1084581, "source": "osm", "_tags": {"addr:city": "Oum El Bouaghi", "addr:postcode": "04000", "addr:street": "نهج أول نوفمبر 1954", "amenity": "hospital", "building": "yes", "building:levels": "2", "height": "11.45", "roof:colour": "#dd7e6b", "roof:height": "2.62", "roof:shape": "hipped", "start_date": "1980"}}, {"name": "", "latitude": 35.8791536, "longitude": 7.1087847, "source": "osm", "_tags": {"addr:city": "Oum El Bouaghi", "addr:postcode": "04000", "addr:street": "نهج أول نوفمبر 1954", "amenity": "hospital", "building": "yes", "building:levels": "2", "height": "11.45", "roof:colour": "#dd7e6b", "roof:height": "2.62", "roof:shape": "hipped"}}, {"name": "", "latitude": 35.8791466, "longitude": 7.1089238, "source": "osm", "_tags": {"addr:city": "Oum El Bouaghi", "addr:postcode": "04000", "addr:street": "نهج أول نوفمبر 1954", "amenity": "hospital", "building": "yes", "building:levels": "2", "height": "11.45", "roof:colour": "#dd7e6b", "roof:height": "2.62", "roof:shape": "hipped"}}, {"name": "", "latitude": 35.8792048, "longitude": 7.1089554, "source": "osm", "_tags": {"addr:city": "Oum El Bouaghi", "addr:postcode": "04000", "addr:street": "نهج أول نوفمبر 1954", "amenity": "hospital", "building": "yes", "building:levels": "2", "height": "11.45", "roof:colour": "#dd7e6b", "roof:height": "2.62", "roof:shape": "hipped"}}, {"name": "", "latitude": 35.8819839, "longitude": 7.0945427, "source": "osm", "_tags": {"addr:city": "Oum El Bouaghi", "addr:postcode": "04000", "amenity": "hospital", "building": "house", "building:levels": "2", "healthcare": "hospital", "height": "6", "start_date": "1998"}}, {"name": "مستشفى إبن سينا", "latitude": 35.8791593, "longitude": 7.1090798, "source": "osm", "_tags": {"addr:city": "Oum El Bouaghi", "addr:postcode": "04000", "addr:street": "نهج أول نوفمبر 1954", "amenity": "hospital", "barrier": "wall", "healthcare": "hospital", "healthcare:speciality": "emergency", "name": "مستشفى إبن سينا", "name:ar": "مستشفى إبن سينا", "name:en": "Iben Sina Hospital", "type": "multipolygon"}}]