[{"name": "centre de santé", "latitude": 36.1557927, "longitude": 1.3071566, "source": "osm", "_tags": {"amenity": "hospital", "emergency": "no", "name": "centre de santé", "name:fr": "مركز صحي", "operator": "EPSP el hammadia"}}, {"name": "Dispensaire", "latitude": 36.0718909, "longitude": 1.1238958, "source": "osm", "_tags": {"amenity": "hospital", "name": "Dispensaire"}}, {"name": "Hôpital de SOBHA", "latitude": 36.105313, "longitude": 1.105041, "source": "osm", "_tags": {"amenity": "hospital", "name": "Hôpital de SOBHA"}}, {"name": "Hôpital", "latitude": 36.1597631, "longitude": 0.9660759, "source": "osm", "_tags": {"amenity": "hospital", "name": "Hôpital", "name:ar": "مستشفى عين مران"}}, {"name": "", "latitude": 36.162116, "longitude": 0.9656134, "source": "osm", "_tags": {"amenity": "hospital", "name:ar": "مستشفى", "name:fr": "Hôpital"}}, {"name": "المؤسسة العمومية للصحة الجوارية - سيدي ساعد", "latitude": 36.275231, "longitude": 1.6781462, "source": "osm", "_tags": {"amenity": "hospital", "name": "المؤسسة العمومية للصحة الجوارية - سيدي ساعد", "name:ar": "المؤسسة العمومية للصحة الجوارية - سيدي ساعد"}}, {"name": "مستشفى محمد بوضياف", "latitude": 35.4332932, "longitude": 1.7687157, "source": "osm", "_tags": {"amenity": "hospital", "name": "مستشفى محمد بوضياف"}}, {"name": "", "latitude": 36.0398211, "longitude": 1.2737483, "source": "osm", "_tags": {"amenity": "hospital"}}, {"name": "", "latitude": 36.1056149, "longitude": 1.1046965, "source": "osm", "_tags": {"amenity": "hospital"}}, {"name": "Hôpital Ouled Mohamed", "latitude": 36.1571204, "longitude": 1.3621714, "source": "osm", "_tags": {"addr:city": "Chlef", "addr:postcode": "02000", "amenity": "hospital", "emergency": "yes", "healthcare": "hospital", "name": "Hôpital Ouled Mohamed", "name:ar": "مستشفى أولاد محمد"}}, {"name": "Hôpital Chorfa", "latitude": 36.1457717, "longitude": 1.3136295, "source": "osm", "_tags": {"amenity": "hospital", "emergency": "yes", "healthcare": "hospital", "name": "Hôpital Chorfa", "name:ar": "مستشفى الشرفة"}}, {"name": "Hôpital Sidi Bouabida", "latitude": 36.2283464, "longitude": 1.7198551, "source": "osm", "_tags": {"addr:city": "Sidi Bouabida", "addr:postcode": "44304", "amenity": "hospital", "emergency": "yes", "healthcare": "hospital", "name": "Hôpital Sidi Bouabida", "name:ar": "مستشفى سيدي بوعبيدة"}}, {"name": "l’Etablissement public hospitalier de Tissemsilt", "latitude": 35.601893, "longitude": 1.8210401, "source": "osm", "_tags": {"addr:city": "Tissemsilt", "addr:postcode": "38000", "amenity": "hospital", "name": "l’Etablissement public hospitalier de Tissemsilt"}}, {"name": "مستشفى الأخوات باج", "latitude": 36.1591829, "longitude": 1.3210371, "source": "osm", "_tags": {"addr:city": "الشلف", "addr:postcode": "02000", "amenity": "hospital", "emergency": "yes", "healthcare": "hospital", "name": "مستشفى الأخوات باج", "name:ar": "مستشفى الأخوات باج", "name:fr": "Hôpital des sœurs Bedj"}}, {"name": "Hôpital d'Oued Fodda مستشفى وادي الفضة", "latitude": 36.1825161, "longitude": 1.5222737, "source": "osm", "_tags": {"addr:city": "وادي الفضة", "addr:postcode": "02100", "amenity": "hospital", "emergency": "yes", "healthcare": "hospital", "name": "Hôpital d'Oued Fodda مستشفى وادي الفضة", "name:ar": "مستشفى وادي الفضة", "name:en": "Wadi Al Fiddha Hospital", "name:fr": "Hôpital d'Oued Fodda"}}, {"name": "مستشفى", "latitude": 35.784319, "longitude": 1.1322421, "source": "osm", "_tags": {"addr:city": "Aïn Tarek", "addr:postcode": "48015", "amenity": "hospital", "denomination": "catholic", "emergency": "yes", "healthcare": "hospital", "healthcare:speciality": "general", "name": "مستشفى", "name:en": "Hospital", "religion": "christian"}}, {"name": "Hopital Merouani Abed", "latitude": 36.2043577, "longitude": 1.2612032, "source": "osm", "_tags": {"amenity": "hospital", "emergency": "yes", "name": "Hopital Merouani Abed"}}, {"name": "Hôpital de Bordj Bou Naâma", "latitude": 35.8700217, "longitude": 1.6180192, "source": "osm", "_tags": {"amenity": "hospital", "name": "Hôpital de Bordj Bou Naâma", "name:ar": "مستشفى برج بونعامة", "name:en": "Bordj Bou Naama Hospital", "name:fr": "Hôpital de Bordj Bou Naâma"}}, {"name": "Dispensaire", "latitude": 36.0681927, "longitude": 1.1358786, "source": "osm", "_tags": {"amenity": "hospital", "emergency": "yes", "name": "Dispensaire", "operator": "ministère de la Santé"}}, {"name": "", "latitude": 36.147645, "longitude": 1.3585224, "source": "osm", "_tags": {"amenity": "hospital"}}, {"name": "مستشفى بسعة 120 سرير", "latitude": 35.8749917, "longitude": 1.1023736, "source": "osm", "_tags": {"addr:city": "عمي موسى", "addr:city:ar": "عمي موسى", "amenity": "hospital", "beds": "120", "healthcare": "hospital", "name": "مستشفى بسعة 120 سرير", "name:ar": "مستشفى بسعة 120 سرير"}}, {"name": "centre de santé", "latitude": 36.1558075, "longitude": 1.3071838, "source": "osm", "_tags": {"amenity": "hospital", "healthcare": "hospital", "name": "centre de santé"}}, {"name": "Dispensaire", "latitude": 36.0719045, "longitude": 1.1239294, "source": "osm", "_tags": {"amenity": "hospital", "healthcare": "hospital", "name": "Dispensaire"}}, {"name": "Hôpital", "latitude": 36.15959, "longitude": 0.9659076, "source": "osm", "_tags": {"amenity": "hospital", "healthcare": "hospital", "name": "Hôpital"}}, {"name": "", "latitude": 36.1621347, "longitude": 0.965613, "source": "osm", "_tags": {"amenity": "hospital", "healthcare": "hospital"}}, {"name": "", "latitude": 36.2749466, "longitude": 1.6779249, "source": "osm", "_tags": {"amenity": "hospital", "healthcare": "hospital"}}, {"name": "", "latitude": 36.1585903, "longitude": 0.9622527, "source": "osm", "_tags": {"amenity": "hospital", "healthcare": "hospital", "name:en": "Hôpital"}}, {"name": "", "latitude": 35.5328051, "longitude": 1.0177651, "source": "osm", "_tags": {"amenity": "hospital"}}]