[{"name": "Centre de Soins", "latitude": 35.4566241, "longitude": 2.8922732, "source": "osm", "_tags": {"amenity": "hospital", "name": "Centre de Soins"}}, {"name": "", "latitude": 36.3599231, "longitude": 2.7662992, "source": "osm", "_tags": {"amenity": "hospital", "healthcare": "hospital"}}, {"name": "Dispensaire Slimani slimane", "latitude": 35.4492373, "longitude": 2.894077, "source": "osm", "_tags": {"addr:housenumber": "17200", "addr:street": "Cité Slimani Slimane (52)", "amenity": "hospital", "emergency": "yes", "name": "Dispensaire Slimani slimane", "name:ar": "مستوصف سليماني سليمان", "name:fr": "Dispensaire Slimani slimane"}}, {"name": "", "latitude": 36.2599684, "longitude": 1.954616, "source": "osm", "_tags": {"amenity": "hospital", "name:ar": "تحاليل طبية", "name:fr": "Analyses médicales"}}, {"name": "Polyclinique", "latitude": 35.8863361, "longitude": 2.7521002, "source": "osm", "_tags": {"amenity": "hospital", "healthcare": "hospital", "name": "Polyclinique", "name:fr": "Polyclinique."}}, {"name": "", "latitude": 35.8742847, "longitude": 2.0277527, "source": "osm", "_tags": {"amenity": "hospital"}}, {"name": "مركز تصفية الدم", "latitude": 35.45599, "longitude": 2.9048785, "source": "osm", "_tags": {"amenity": "hospital", "name": "مركز تصفية الدم", "name:ar": "مركز تصفية الدم", "name:en": "hemodialysis center", "name:fr": "Centre d'hémodialyse"}}, {"name": "المركز الطبي البيداغوجي", "latitude": 35.4590664, "longitude": 2.892693, "source": "osm", "_tags": {"amenity": "hospital", "name": "المركز الطبي البيداغوجي", "name:ar": "المركز الطبي البيداغوجي", "name:en": "Pedagogic Medical Center", "name:fr": "centre de médecine pédagogique"}}, {"name": "الاستعجالات الطبية", "latitude": 35.4547572, "longitude": 2.9052217, "source": "osm", "_tags": {"amenity": "hospital", "name": "الاستعجالات الطبية", "name:ar": "الاستعجالات الطبية (المعاينة)", "name:en": "Emergency", "name:fr": "Urgences médicales (consultation )", "opening_hours": "24/7"}}, {"name": "الاستعجالات الطبية الجراحية", "latitude": 35.4549244, "longitude": 2.9055754, "source": "osm", "_tags": {"amenity": "hospital", "name": "الاستعجالات الطبية الجراحية", "name:ar": "الاستعجالات الطبية", "name:en": "Surgical medical emergencies", "name:fr": "Urgences Médicales Chirurgicale", "opening_hours": "24/7"}}, {"name": "Pédiatre", "latitude": 35.4559228, "longitude": 2.9051492, "source": "osm", "_tags": {"amenity": "hospital", "name": "Pédiatre", "name:ar": "مصلحة طب الأطفال", "name:fr": "Pédiatre"}}, {"name": "", "latitude": 36.1332725, "longitude": 2.9288638, "source": "osm", "_tags": {"addr:city": "البرواقية", "addr:city:ar": "البرواقية", "amenity": "hospital", "healthcare": "hospital"}}, {"name": "مصلحة الاشعة", "latitude": 35.4548321, "longitude": 2.9052516, "source": "osm", "_tags": {"amenity": "hospital", "name": "مصلحة الاشعة", "name:ar": "مصلحة الاشعة", "name:fr": "Centre d'imagerie"}}, {"name": "Ex-Centre des insuffisants respiratoires مستشفى الأمراض التنفسية والصدرية", "latitude": 36.3458164, "longitude": 2.2464439, "source": "osm", "_tags": {"amenity": "hospital", "healthcare": "hospital", "healthcare:speciality": "pulmonology", "name": "Ex-Centre des insuffisants respiratoires مستشفى الأمراض التنفسية والصدرية", "name:ar": "مستشفى الأمراض التنفسية والصدرية", "name:fr": "Centre des insuffisants respiratoires"}}, {"name": "Centre de Santé", "latitude": 35.8954442, "longitude": 2.7552496, "source": "osm", "_tags": {"amenity": "hospital", "healthcare": "hospital", "name": "Centre de Santé", "name:fr": "Polyclinique Romanette"}}, {"name": "Hôpital", "latitude": 35.8854551, "longitude": 2.7472512, "source": "osm", "_tags": {"addr:city": "Ksar el Boukhari", "addr:postcode": "26300", "amenity": "hospital", "healthcare": "hospital", "name": "Hôpital", "name:ar": "مستشفى قصر البخاري", "name:fr": "Hôpital EPH Ksar el Boukhari", "phone": "025692003"}}, {"name": "المؤسسة العمومية الاستشفائية -البرواقية-", "latitude": 36.134973, "longitude": 2.9148073, "source": "osm", "_tags": {"addr:city": "البرواقية", "addr:city:ar": "البرواقية", "addr:postcode": "26200", "amenity": "hospital", "emergency": "yes", "healthcare": "hospital", "name": "المؤسسة العمومية الاستشفائية -البرواقية-", "name:ar": "المؤسسة العمومية الاستشفائية -البرواقية-", "name:fr": "Etablissement Public Hospitalier -Berrouaghia-"}}, {"name": "Hôpital Mohamed Boudiaf", "latitude": 36.2596728, "longitude": 2.7576301, "source": "osm", "_tags": {"addr:city": "Médéa", "addr:postcode": "26000", "amenity": "hospital", "emergency": "yes", "name": "Hôpital Mohamed Boudiaf"}}, {"name": "Dispensaire", "latitude": 36.2709269, "longitude": 2.7711739, "source": "osm", "_tags": {"amenity": "hospital", "healthcare": "hospital", "name": "Dispensaire", "name:ar": "مستوصف"}}, {"name": "Dispensaire", "latitude": 36.1962763, "longitude": 2.2806963, "source": "osm", "_tags": {"amenity": "hospital", "name": "Dispensaire"}}, {"name": "EPSP", "latitude": 36.2006954, "longitude": 2.0784456, "source": "osm", "_tags": {"addr:city": "Djelida", "addr:postcode": "44100", "amenity": "hospital", "name": "EPSP"}}, {"name": "CHU Makour Hamou", "latitude": 36.2651999, "longitude": 1.9636267, "source": "osm", "_tags": {"addr:city": "Aïn Defla", "addr:postcode": "44000", "addr:street": "Bd Emir Abdelkader", "amenity": "hospital", "emergency": "yes", "healthcare": "hospital", "name": "CHU Makour Hamou", "name:ar": "المؤسسة العمومية الاستشفائية مكور حمو", "name:en": "Makour Hamou Hospital", "name:fr": "EPH Makour Hamou", "phone": "+213 27 60 34 24"}}, {"name": "Hôpital Commandant Saâdaoui El Mokhtar", "latitude": 35.4554205, "longitude": 2.9050988, "source": "osm", "_tags": {"addr:city": "Aïn Oussara", "amenity": "hospital", "emergency": "yes", "name": "Hôpital Commandant Saâdaoui El Mokhtar", "name:ar": "مستشفى الرائد سعداوي المختار", "name:en": "Hospital commander Saadaoui El Mokhtar", "name:fr": "Hôpital Commandant Saâdaoui El Mokhtar"}}, {"name": "Centre d'acceuil pour enfants à besoins particuliers", "latitude": 36.3332358, "longitude": 2.1569961, "source": "osm", "_tags": {"addr:city": "Ben Allel", "addr:postcode": "44210", "amenity": "hospital", "healthcare": "hospital", "name": "Centre d'acceuil pour enfants à besoins particuliers"}}, {"name": "", "latitude": 35.8646923, "longitude": 2.2580385, "source": "osm", "_tags": {"amenity": "hospital", "building": "yes"}}, {"name": "", "latitude": 35.8657623, "longitude": 2.2659644, "source": "osm", "_tags": {"amenity": "hospital", "building": "yes", "healthcare": "hospital"}}, {"name": "", "latitude": 35.8649304, "longitude": 2.267854, "source": "osm", "_tags": {"amenity": "hospital", "building": "yes"}}, {"name": "EPH Theniet El Had", "latitude": 35.8785646, "longitude": 2.0196394, "source": "osm", "_tags": {"addr:city": "Theniet El Had", "amenity": "hospital", "emergency": "yes", "healthcare": "hospital", "name": "EPH Theniet El Had", "name:ar": "المؤسسة العمومية الاستشفائية لثنية الحد"}}, {"name": "Hôpital", "latitude": 36.270497, "longitude": 1.9795597, "source": "osm", "_tags": {"amenity": "hospital", "construction": "hospital", "healthcare": "hospital", "name": "Hôpital", "name:ar": "مستشفى المجاهد المرحوم ماجن بن ميرة"}}, {"name": "", "latitude": 35.4565151, "longitude": 2.8921914, "source": "osm", "_tags": {"amenity": "hospital"}}, {"name": "Centre de Santé", "latitude": 35.8270466, "longitude": 2.4553081, "source": "osm", "_tags": {"amenity": "hospital", "emergency": "yes", "healthcare": "hospital", "name": "Centre de Santé"}}, {"name": "Centre Médical", "latitude": 35.8245282, "longitude": 2.4519429, "source": "osm", "_tags": {"amenity": "hospital", "barrier": "wall", "name": "Centre Médical"}}, {"name": "Dispensaire Slimani slimane", "latitude": 35.4492058, "longitude": 2.8940397, "source": "osm", "_tags": {"amenity": "hospital", "building:levels": "2", "healthcare": "hospital", "name": "Dispensaire Slimani slimane"}}, {"name": "", "latitude": 35.4499483, "longitude": 2.9029027, "source": "osm", "_tags": {"amenity": "hospital", "healthcare": "hospital"}}, {"name": "", "latitude": 35.4420892, "longitude": 2.891861, "source": "osm", "_tags": {"amenity": "hospital", "healthcare": "hospital", "name:ar": "المؤسسة العمومية للصحة الجوارية غزال عمر", "name:fr": "EPSP Ghezal omar"}}, {"name": "", "latitude": 36.3599346, "longitude": 2.7662587, "source": "osm", "_tags": {"amenity": "hospital", "healthcare": "hospital"}}, {"name": "", "latitude": 36.2598463, "longitude": 1.9546052, "source": "osm", "_tags": {"amenity": "hospital", "healthcare": "hospital"}}, {"name": "Polyclinique", "latitude": 35.8863252, "longitude": 2.7520036, "source": "osm", "_tags": {"amenity": "hospital", "healthcare": "hospital", "name": "Polyclinique"}}, {"name": "المركز الطبي البيداغوجي", "latitude": 35.4590772, "longitude": 2.8925861, "source": "osm", "_tags": {"amenity": "hospital", "healthcare": "hospital", "name": "المركز الطبي البيداغوجي", "name:ar": "المركز الطبي البيداغوجي"}}, {"name": "hopital", "latitude": 36.1330701, "longitude": 2.9287998, "source": "osm", "_tags": {"amenity": "hospital", "healthcare": "hospital", "name": "hopital"}}, {"name": "Hopital de Khemis Miliana", "latitude": 36.2577634, "longitude": 2.2329014, "source": "osm", "_tags": {"addr:city": "Khemis Miliana", "addr:postcode": "44001", "addr:street": "Rue national 4", "amenity": "hospital", "emergency": "yes", "healthcare": "hospital", "healthcare:speciality": "orthopaedics;paediatrics;emergency;internal", "name": "Hopital de Khemis Miliana", "operator": "DSP Ain Defla", "operator:type": "public"}}, {"name": "Hôpital Fares Yahia", "latitude": 36.3018974, "longitude": 2.2243137, "source": "osm", "_tags": {"addr:city": "Miliana", "addr:postcode": "44003", "addr:street": "Boulevard du 1er Novembre", "amenity": "hospital", "emergency": "yes", "healthcare": "hospital", "name": "Hôpital Fares Yahia", "name:ar": "مستشفى مليانة", "type": "multipolygon"}}]