[{"name": "Doctors", "latitude": 36.2152014, "longitude": 28.1178297, "source": "osm", "_tags": {"amenity": "hospital", "healthcare": "hospital", "name": "Doctors"}}, {"name": "Γενικό Νοσοκομείο Ρόδου", "latitude": 36.4182528, "longitude": 28.1920253, "source": "osm", "_tags": {"addr:city": "Ρόδος", "addr:housenumber": "1", "addr:postcode": "851 33", "addr:street": "Κρίστιαν Μπάρναρντ", "amenity": "hospital", "email": "info@rhodes-hospital.gr", "emergency": "yes", "healthcare": "hospital", "name": "Γενικό Νοσοκομείο Ρόδου", "name:de": "Allgemeines Krankenhaus Rhodos", "name:el": "Γενικό Νοσοκομείο Ρόδου", "name:en": "General Hospital of Rhodes", "official_name": "Γενικό Νοσοκομείο Ρόδου \"Ανδρέας Γ. Παπανδρέου\"", "phone": "+30 22413 60000", "website": "http://www.rhodes-hospital.gr/", "wikidata": "Q21626781"}}, {"name": "Euromedica", "latitude": 36.3852318, "longitude": 28.2006132, "source": "osm", "_tags": {"amenity": "hospital", "emergency": "yes", "healthcare": "hospital", "name": "Euromedica", "website": "https://www.euromedica-rhodes.gr/"}}]