[{"name": "", "latitude": 36.4076992, "longitude": 4.8917133, "source": "osm", "_tags": {"amenity": "hospital"}}, {"name": "", "latitude": 36.3642284, "longitude": 4.2696792, "source": "osm", "_tags": {"amenity": "hospital", "emergency": "no"}}, {"name": "", "latitude": 36.3646711, "longitude": 4.2690335, "source": "osm", "_tags": {"amenity": "hospital", "emergency": "yes"}}, {"name": "", "latitude": 35.9256653, "longitude": 4.3782603, "source": "osm", "_tags": {"addr:city": "حمام الضلعة", "addr:city:ar": "حمام الضلعة", "amenity": "hospital", "healthcare": "hospital", "language:ar": "main"}}, {"name": "", "latitude": 36.0665638, "longitude": 4.6233375, "source": "osm", "_tags": {"amenity": "hospital"}}, {"name": "الطب المدرسي", "latitude": 36.063401, "longitude": 4.6268336, "source": "osm", "_tags": {"amenity": "hospital", "name": "الطب المدرسي", "name:ar": "الطب المدرسي", "name:fr": "Médecine scolaire"}}, {"name": "Hôpital", "latitude": 36.3853436, "longitude": 4.3885898, "source": "osm", "_tags": {"amenity": "hospital", "name": "Hôpital"}}, {"name": "Hopital Selmane", "latitude": 35.6907907, "longitude": 4.7699016, "source": "osm", "_tags": {"amenity": "hospital", "name": "Hopital Selmane"}}, {"name": "EPH", "latitude": 35.9182332, "longitude": 4.3783081, "source": "osm", "_tags": {"addr:postcode": "28005", "amenity": "hospital", "name": "EPH", "name:ar": "المؤسسة الاستشفائية للصحة الجوارية", "opening_hours": "24/7"}}, {"name": "المركز الصحي الجواري 5 جويلية", "latitude": 36.0723275, "longitude": 4.7444714, "source": "osm", "_tags": {"amenity": "hospital", "name": "المركز الصحي الجواري 5 جويلية", "name:ar": "المركز الصحي الجواري 5 جويلية", "name:fr": "EPSP"}}, {"name": "Nouveau Centre de santé (non encore achevé)", "latitude": 36.257556, "longitude": 4.0370245, "source": "osm", "_tags": {"amenity": "hospital", "healthcare": "centre", "name": "Nouveau Centre de santé (non encore achevé)", "name:fr": "Nouveau Centre de santé (non encore achevé)"}}, {"name": "بوصيدة كسال", "latitude": 35.9023313, "longitude": 4.8891376, "source": "osm", "_tags": {"amenity": "hospital", "name": "بوصيدة كسال", "name:ar": "بوصيدة كسال"}}, {"name": "مستشفى متعدد الخدمات", "latitude": 36.1208625, "longitude": 4.3738074, "source": "osm", "_tags": {"amenity": "hospital", "name": "مستشفى متعدد الخدمات", "name:ar": "عيادة متعددةالخدمات", "name:en": "عيادة متعددة الخدمات", "name:fr": "Polyclinique"}}, {"name": "", "latitude": 35.9459876, "longitude": 4.6846687, "source": "osm", "_tags": {"amenity": "hospital"}}, {"name": "", "latitude": 36.06878, "longitude": 4.7817111, "source": "osm", "_tags": {"amenity": "hospital", "healthcare": "hospital"}}, {"name": "Hôpital Bouzidi Lakhdar", "latitude": 36.0622373, "longitude": 4.7710786, "source": "osm", "_tags": {"addr:city": "Bordj Bou Arréridj", "addr:postcode": "34000", "amenity": "hospital", "emergency": "yes", "name": "Hôpital Bouzidi Lakhdar", "name:ar": "مستشفى بوزيدي لخضر", "name:fr": "Hôpital Bouzidi Lakhdar"}}, {"name": "Hopital", "latitude": 36.3604458, "longitude": 4.3215519, "source": "osm", "_tags": {"amenity": "hospital", "name": "Hopital"}}, {"name": "Centre de Santé", "latitude": 36.4153248, "longitude": 4.3410009, "source": "osm", "_tags": {"amenity": "hospital", "name": "Centre de Santé"}}, {"name": "Hôpital", "latitude": 36.0708147, "longitude": 4.4739894, "source": "osm", "_tags": {"amenity": "hospital", "healthcare": "hospital", "name": "Hôpital"}}, {"name": "مستشفى الزهراوي", "latitude": 35.7145349, "longitude": 4.5500166, "source": "osm", "_tags": {"addr:city": "المسيلة", "addr:postcode": "28000", "addr:street": "شارع العقيد عميروش", "amenity": "hospital", "emergency": "yes", "healthcare": "hospital", "name": "مستشفى الزهراوي", "name:ar": "مستشفى الزهراوي", "name:en": "Ezzahraoui Hospital", "name:fr": "Hôpital Ezzahraoui"}}, {"name": "Hôpital de Medjana", "latitude": 36.1303354, "longitude": 4.6667256, "source": "osm", "_tags": {"addr:city": "Medjana", "amenity": "hospital", "emergency": "yes", "name": "Hôpital de Medjana", "name:ar": "مستشفى مجانة", "name:fr": "Hôpital de Medjana"}}, {"name": "Centre De Sante 1044", "latitude": 36.0814213, "longitude": 4.7910137, "source": "osm", "_tags": {"amenity": "hospital", "name": "Centre De Sante 1044"}}, {"name": "Centre De Sante 1008", "latitude": 36.0826042, "longitude": 4.7704235, "source": "osm", "_tags": {"amenity": "hospital", "name": "Centre De Sante 1008"}}, {"name": "Hôpital d'orthopédie", "latitude": 36.0573743, "longitude": 4.7896319, "source": "osm", "_tags": {"amenity": "hospital", "healthcare": "hospital", "name": "Hôpital d'orthopédie"}}, {"name": "", "latitude": 35.9209951, "longitude": 4.3762187, "source": "osm", "_tags": {"addr:city": "حمام الضلعة", "addr:city:ar": "حمام الضلعة", "amenity": "hospital", "healthcare": "hospital", "language:ar": "main"}}, {"name": "Centre de santé", "latitude": 36.3379053, "longitude": 4.1857555, "source": "osm", "_tags": {"amenity": "hospital", "healthcare": "hospital", "name": "Centre de santé"}}, {"name": "عيادة 500 مسكن", "latitude": 35.7158289, "longitude": 4.5474873, "source": "osm", "_tags": {"amenity": "hospital", "healthcare": "hospital", "name": "عيادة 500 مسكن", "name:ar": "عيادة 500 مسكن"}}, {"name": "Hôpital becheloul", "latitude": 36.3128114, "longitude": 4.0684552, "source": "osm", "_tags": {"amenity": "hospital", "building": "yes", "building:levels": "3", "name": "Hôpital becheloul", "operator": "public"}}, {"name": "", "latitude": 36.4076614, "longitude": 4.8916201, "source": "osm", "_tags": {"amenity": "hospital", "description": "Hospital", "healthcare": "hospital"}}, {"name": "", "latitude": 35.9256916, "longitude": 4.378259, "source": "osm", "_tags": {"amenity": "hospital", "healthcare": "hospital"}}, {"name": "", "latitude": 36.0665888, "longitude": 4.6233738, "source": "osm", "_tags": {"amenity": "hospital", "healthcare": "hospital"}}, {"name": "Hopital Selmane", "latitude": 35.6909758, "longitude": 4.7700384, "source": "osm", "_tags": {"amenity": "hospital", "healthcare": "hospital", "name": "Hopital Selmane"}}, {"name": "المركز الصحي الجواري 5 جويلية", "latitude": 36.0721605, "longitude": 4.7443789, "source": "osm", "_tags": {"amenity": "hospital", "healthcare": "hospital", "name": "المركز الصحي الجواري 5 جويلية", "name:ar": "المركز الصحي الجواري 5 جويلية", "name:fr": "EPSP"}}, {"name": "Nouveau Centre de santé (non encore achevé)", "latitude": 36.257423, "longitude": 4.0372967, "source": "osm", "_tags": {"amenity": "hospital", "healthcare": "hospital", "name": "Nouveau Centre de santé (non encore achevé)"}}, {"name": "بوصيدة كسال", "latitude": 35.9027194, "longitude": 4.8896716, "source": "osm", "_tags": {"amenity": "hospital", "healthcare": "hospital", "name": "بوصيدة كسال", "name:ar": "بوصيدة كسال"}}, {"name": "مستشفى متعدد الخدمات", "latitude": 36.1209769, "longitude": 4.3739893, "source": "osm", "_tags": {"amenity": "hospital", "healthcare": "hospital", "name": "مستشفى متعدد الخدمات", "name:ar": "مستشفى متعدد الخدمات"}}, {"name": "", "latitude": 35.9457075, "longitude": 4.6845749, "source": "osm", "_tags": {"amenity": "hospital", "healthcare": "hospital"}}, {"name": "AMG", "latitude": 36.3676041, "longitude": 4.4867397, "source": "osm", "_tags": {"amenity": "hospital", "healthcare": "hospital", "name": "AMG"}}, {"name": "", "latitude": 35.9780594, "longitude": 4.877007, "source": "osm", "_tags": {"amenity": "hospital"}}]