[{"name": "Floriana Health Centre", "latitude": 35.8899318, "longitude": 14.5049645, "source": "osm", "_tags": {"addr:city": "Il-Furjana", "addr:country": "MT", "addr:street": "Triq Frangisk Saver Fenech", "amenity": "hospital", "check_date": "2025-06-18", "emergency": "yes", "healthcare": "hospital", "name": "Floriana Health Centre", "opening_hours": "24/7"}}, {"name": "Victoria Health Centre", "latitude": 36.0417493, "longitude": 14.2404986, "source": "osm", "_tags": {"addr:city": "Ir-Rabat (Għawdex)", "addr:country": "MT", "addr:street": "Triq Enrico Mizzi", "amenity": "hospital", "healthcare": "hospital", "name": "Victoria Health Centre", "name:en": "Victoria Health Centre", "name:mt": "Ċentru Tas-Saħħa", "source": "survey"}}, {"name": "Cospicua Health Centre", "latitude": 35.8807702, "longitude": 14.5201658, "source": "osm", "_tags": {"addr:city": "Bormla (Cospicua)", "addr:country": "MT", "addr:street": "Triq L Jun", "amenity": "hospital", "healthcare": "hospital", "name": "Cospicua Health Centre"}}, {"name": "Polyclinic Sliema", "latitude": 35.907523, "longitude": 14.496204, "source": "osm", "_tags": {"addr:city": "Il-Gżira", "addr:country": "MT", "addr:street": "Pjazza Meme Scicluna", "amenity": "hospital", "emergency": "yes", "healthcare": "hospital", "name": "Polyclinic Sliema", "name:en": "Gzira Health Centre", "opening_hours": "Mo-Fr 07:00-20:00; Sa 07:00-17:00", "phone": "+35622609000", "website": "https://deputyprimeminister.gov.mt/en/phc/Pages/Health-Centres/Gzira-Health-Centre.aspx"}}, {"name": "VGH Gozo General Hospital", "latitude": 36.0396266, "longitude": 14.2454507, "source": "osm", "_tags": {"addr:city": "Ir-Rabat (Għawdex)", "addr:country": "MT", "addr:postcode": "VCT 2520", "addr:street": "Triq Għajn Qatet", "amenity": "hospital", "designation": "Hospital of Gozo", "emergency": "yes", "healthcare": "hospital", "name": "VGH Gozo General Hospital"}}, {"name": "mercer", "latitude": 35.9082114, "longitude": 14.5007664, "source": "osm", "_tags": {"amenity": "hospital", "healthcare": "hospital", "name": "mercer"}}, {"name": "Saint Vincent de Paul Long Term Facility", "latitude": 35.8668117, "longitude": 14.4832866, "source": "osm", "_tags": {"addr:city": "Ħal Luqa", "addr:country": "MT", "addr:postcode": "LQA 3301", "addr:street": "Triq L Ingiered", "amenity": "hospital", "healthcare": "hospital", "name": "Saint Vincent de Paul Long Term Facility"}}, {"name": "Sptar Monte Karmeli", "latitude": 35.8844336, "longitude": 14.4321439, "source": "osm", "_tags": {"addr:city": "Ħ'Attard", "addr:street": "Triq l-Imdina", "amenity": "hospital", "healthcare": "hospital", "healthcare:speciality": "psychiatry", "name": "Sptar Monte Karmeli", "name:en": "Mount Carmel Hospital", "name:mt": "Sptar Monte Karmeli", "wikidata": "Q116947357"}}, {"name": "Sptar Mater Dei", "latitude": 35.9018546, "longitude": 14.4765796, "source": "osm", "_tags": {"amenity": "hospital", "check_date": "2025-07-16", "healthcare": "hospital", "name": "Sptar Mater Dei", "name:en": "Mater Dei Hospital", "website": "https://deputyprimeminister.gov.mt/en/MDH/Pages/Home.aspx", "wikidata": "Q6786508", "wikimedia_commons": "Category:Mater Dei Hospital (Msida)", "wikipedia": "en:Mater Dei Hospital"}}, {"name": "Saint James Hospital", "latitude": 35.9130251, "longitude": 14.5032248, "source": "osm", "_tags": {"addr:city": "Tas-Sliema", "addr:country": "MT", "addr:postcode": "SLM 1807", "addr:street": "George Borg Olivier Street", "amenity": "hospital", "building": "hospital", "check_date": "2024-05-22", "emergency": "yes", "fax": "+3562133022", "healthcare": "hospital", "healthcare:speciality": "surgery;radiology;dentistry;ophthalmology", "internet_access": "wlan", "internet_access:fee": "no", "name": "Saint James Hospital", "opening_hours": "24/7", "operator": "Saint James Hospital Group", "operator:type": "private", "payment:cash": "yes", "payment:credit_cards": "yes", "payment:debit_cards": "yes", "phone": "+35623291000", "website": "https://stjameshospital.com/sliema/", "wheelchair": "yes", "wikidata": "Q7593482", "wikipedia": "en:Saint James Capua Hospital"}}, {"name": "Sir Paul Boffa", "latitude": 35.8929211, "longitude": 14.5094699, "source": "osm", "_tags": {"addr:city": "Il-Furjana", "addr:country": "MT", "addr:postcode": "FRN 1941", "addr:street": "Sqaq Harper", "amenity": "hospital", "building": "yes", "check_date": "2025-08-28", "emergency": "no", "healthcare": "hospital", "name": "Sir Paul Boffa", "wikidata": "Q30280730", "wikimedia_commons": "Category:Sir Paul Boffa Hospital"}}, {"name": "Good Samaritan Hospital", "latitude": 35.9483226, "longitude": 14.4112596, "source": "osm", "_tags": {"amenity": "hospital", "building": "hospital", "healthcare": "hospital", "name": "Good Samaritan Hospital"}}, {"name": "Saint James' International Hospital", "latitude": 35.8605255, "longitude": 14.5196655, "source": "osm", "_tags": {"amenity": "hospital", "healthcare": "hospital", "name": "Saint James' International Hospital", "operator": "Saint James Group", "operator:type": "private", "website": "https://stjameshospital.com/zejtun/"}}, {"name": "Sptar San Luqa", "latitude": 35.8943024, "longitude": 14.4947937, "source": "osm", "_tags": {"amenity": "hospital", "check_date": "2025-08-28", "emergency": "no", "healthcare": "hospital", "name": "Sptar San Luqa", "name:tr": "St. Luke Hastanesi", "type": "multipolygon", "wikidata": "Q7589800"}}]