[{"name": "", "latitude": 36.228201, "longitude": 27.8520381, "source": "osm", "_tags": {"amenity": "hospital", "healthcare": "hospital"}}, {"name": "Γενικό Νοσοκομείο Καρπάθου \"Άγιος Ιωάννης ο Καρπάθιος\"", "latitude": 35.5073895, "longitude": 27.2112454, "source": "osm", "_tags": {"addr:city": "Κάρπαθος", "addr:postcode": "85700", "building": "hospital", "disused": "yes", "fixme": "It seems that the hospital has moved to another location. Is this building still being used as a hospital?", "healthcare": "hospital", "name": "Γενικό Νοσοκομείο Καρπάθου \"Άγιος Ιωάννης ο Καρπάθιος\"", "name:el": "Γενικό Νοσοκομείο Καρπάθου \"Άγιος Ιωάννης ο Καρπάθιος\"", "name:en": "Karpathos Hospital", "phone": "+302245022228"}}, {"name": "Γενικό Νοσοκομείο Καρπάθου \"Άγιος Ιωάννης ο Καρπάθιος\"", "latitude": 35.5277587, "longitude": 27.194809, "source": "osm", "_tags": {"amenity": "hospital", "healthcare": "hospital", "name": "Γενικό Νοσοκομείο Καρπάθου \"Άγιος Ιωάννης ο Καρπάθιος\"", "name:el": "Γενικό Νοσοκομείο Καρπάθου \"Άγιος Ιωάννης ο Καρπάθιος\"", "name:en": "Karpathos General Hospital \"Agios Ioannis o Karpathios\"", "wikidata": "Q112286539"}}]