[{"name": "", "latitude": 35.5305111, "longitude": -0.1881833, "source": "osm", "_tags": {"addr:city": "سيق", "amenity": "hospital", "healthcare": "hospital"}}, {"name": "مركز علاج", "latitude": 35.636284, "longitude": -0.6738468, "source": "osm", "_tags": {"amenity": "hospital", "name": "مركز علاج", "name:ar": "مركز علاج", "name:fr": "Centre de santé"}}, {"name": "العقيد عثمان", "latitude": 35.7403984, "longitude": -0.7589517, "source": "osm", "_tags": {"amenity": "hospital", "internet_access": "wlan", "name": "العقيد عثمان", "name:ar": "العقيد عثمان", "name:fr": "EPH Akid Othmane", "opening_hours": "24/7", "phone": "041447778"}}, {"name": "Grande porte de l'hôpital sebiane", "latitude": 35.6950799, "longitude": -0.6423197, "source": "osm", "_tags": {"amenity": "hospital", "name": "Grande porte de l'hôpital sebiane", "name:fr": "Grande porte de l'hôpital sebiane"}}, {"name": "المؤسسة العمومية للصحة الجوارية العنصر", "latitude": 35.6861202, "longitude": -0.8662666, "source": "osm", "_tags": {"addr:city": "العنصر", "addr:city:ar": "العنصر", "amenity": "hospital", "healthcare": "hospital", "name": "المؤسسة العمومية للصحة الجوارية العنصر", "name:ar": "المؤسسة العمومية للصحة الجوارية العنصر", "name:fr": "EPSP Ançor", "opening_hours": "24/7"}}, {"name": "مركز صحي للحماية المدنية", "latitude": 35.6899669, "longitude": -0.6254419, "source": "osm", "_tags": {"amenity": "hospital", "name": "مركز صحي للحماية المدنية", "name:ar": "مركز صحي للحماية المدنية", "name:fr": "centre médical de la protection civile"}}, {"name": "EHU USTO - 1 Novembre", "latitude": 35.6993243, "longitude": -0.5827737, "source": "osm", "_tags": {"addr:city": "Bir El Djir", "addr:city:fr": "Bir El Djir", "amenity": "hospital", "emergency": "yes", "healthcare": "hospital", "name": "EHU USTO - 1 Novembre", "name:ar": "المؤسسة العمومية الإستشفائية أول نوفمبر", "name:fr": "EHU USTO - 1 Novembre", "operator": "Ministère de la Santé", "operator:fr": "Ministère de la Santé", "operator:type": "university", "operator:wikidata": "Q17639127", "operator:wikipedia": "fr:Ministère de la Santé (Algérie)"}}, {"name": "Hôpital Militaire Dr. Amir Mohamed Benaissa", "latitude": 35.6689889, "longitude": -0.6684295, "source": "osm", "_tags": {"addr:city": "Oran", "addr:postcode": "31000", "addr:street": "3e Boulevard Périphérique", "amenity": "hospital", "emergency": "yes", "healthcare": "hospital", "name": "Hôpital Militaire Dr. Amir Mohamed Benaissa", "name:ar": "المستشفى العسكري الدكتور أمير محمد بن عيسى", "name:fr": "Hôpital Militaire Dr. Amir Mohamed Benaissa"}}, {"name": "Hôpital Psychiatrique de Sidi Chami", "latitude": 35.6736704, "longitude": -0.529643, "source": "osm", "_tags": {"addr:city": "Sidi Chami", "amenity": "hospital", "emergency": "no", "healthcare": "hospital", "healthcare:speciality": "psychiatry", "name": "Hôpital Psychiatrique de Sidi Chami", "name:ar": "مستشفى الأمراض العقلية سيدي الشحمي", "name:fr": "Hôpital Psychiatrique de Sidi Chami", "operator": "Publique"}}, {"name": "Hôpital pédiatrique de Canastel", "latitude": 35.7385339, "longitude": -0.5732789, "source": "osm", "_tags": {"addr:city": "Oran", "amenity": "hospital", "emergency": "yes", "healthcare": "hospital", "healthcare:speciality": "paediatrics", "name": "Hôpital pédiatrique de Canastel", "name:ar": "مستشفى كنستال للأطفال", "name:fr": "Hôpital pédiatrique de Canastel"}}, {"name": "EPSP Oued Tlelat", "latitude": 35.5537651, "longitude": -0.445282, "source": "osm", "_tags": {"amenity": "hospital", "name": "EPSP Oued Tlelat", "phone": "041184710"}}, {"name": "Clinique maternité", "latitude": 35.6773076, "longitude": -0.6789635, "source": "osm", "_tags": {"amenity": "hospital", "emergency": "yes", "name": "Clinique maternité"}}, {"name": "مستشفى بودانس", "latitude": 35.7056835, "longitude": -0.6537832, "source": "osm", "_tags": {"addr:city": "وهران", "addr:city:ar": "وهران", "amenity": "hospital", "healthcare": "hospital", "name": "مستشفى بودانس", "name:ar": "مستشفى بودانس", "name:fr": "Hôpital Baudens"}}, {"name": "Hôpital Dr. Med Seghir Nekkache", "latitude": 35.8250515, "longitude": -0.3528846, "source": "osm", "_tags": {"amenity": "hospital", "healthcare": "hospital", "name": "Hôpital Dr. Med Seghir Nekkache"}}, {"name": "Hôpital Medjber Tami", "latitude": 35.7372623, "longitude": -0.7561074, "source": "osm", "_tags": {"addr:city": "Aïn El Turk", "amenity": "hospital", "healthcare": "hospital", "name": "Hôpital Medjber Tami", "name:en": "Medjber Tami Hospital", "name:fr": "Hôpital Medjber Tami"}}, {"name": "مستوصف حي 500 مسكن", "latitude": 35.5575753, "longitude": -0.4444968, "source": "osm", "_tags": {"addr:city": "وادي تليلات", "addr:place": "حي 500 مسكن", "amenity": "hospital", "building:levels": "6", "healthcare": "hospital", "name": "مستوصف حي 500 مسكن", "name:ar": "مستوصف حي 500 مسكن", "name:fr": "Dispensaire quartier 500 logements"}}, {"name": "Hopital (EPH) Akid Othmane", "latitude": 35.7406299, "longitude": -0.7587403, "source": "osm", "_tags": {"amenity": "hospital", "name": "Hopital (EPH) Akid Othmane"}}, {"name": "Polyclinique Yaghmoracene", "latitude": 35.6737227, "longitude": -0.6601089, "source": "osm", "_tags": {"addr:city": "Oran", "addr:street": "cité Yaghmoracene", "amenity": "hospital", "healthcare": "hospital", "healthcare:speciality": "general;dentistry;ophthalmology;dermatology", "name": "Polyclinique Yaghmoracene", "operator": "etatique", "operator:type": "public"}}, {"name": "Polyclinique Es-Senia", "latitude": 35.6527985, "longitude": -0.6149174, "source": "osm", "_tags": {"addr:city": "Es Senia", "amenity": "hospital", "healthcare": "hospital", "name": "Polyclinique Es-Senia"}}, {"name": "Polyclinique Hai Chouhadas", "latitude": 35.6914116, "longitude": -0.6228397, "source": "osm", "_tags": {"amenity": "hospital", "name": "Polyclinique Hai Chouhadas"}}, {"name": "Polyclinique Hai Bouamama", "latitude": 35.6620547, "longitude": -0.6993847, "source": "osm", "_tags": {"addr:city": "oran", "addr:street": "hai bouamama", "amenity": "hospital", "healthcare": "hospital", "healthcare:speciality": "general", "name": "Polyclinique Hai Bouamama", "operator": "etatique", "operator:type": "public"}}, {"name": "Polyclinique Soufi Zoubida", "latitude": 35.6808611, "longitude": -0.655248, "source": "osm", "_tags": {"addr:city": "Oran", "addr:street": "Avenue Tarik Ibn Ziad", "amenity": "hospital", "healthcare": "hospital", "healthcare:speciality": "general", "name": "Polyclinique Soufi Zoubida", "operator": "etatique", "operator:type": "public"}}, {"name": "Hôpital Régional de la Sûreté Nnationale", "latitude": 35.6948702, "longitude": -0.5861781, "source": "osm", "_tags": {"addr:city": "Bir El Djir", "addr:street": "Rue 1 er Novembre", "amenity": "hospital", "healthcare": "hospital", "name": "Hôpital Régional de la Sûreté Nnationale", "name:ar": "المستشفى الجهوي للأمن الوطني", "name:fr": "Hôpital Régional de la Sûreté Nationale"}}, {"name": "المؤسسة العمومية الاستشفائية الدكتور فرادي محمد بن عمار", "latitude": 35.7871738, "longitude": -0.4164109, "source": "osm", "_tags": {"addr:city": "قديل", "addr:postcode": "31260", "addr:street": "Boulevard Assas Mohammed 1941-2016", "amenity": "hospital", "healthcare": "hospital", "name": "المؤسسة العمومية الاستشفائية الدكتور فرادي محمد بن عمار", "name:ar": "المؤسسة العمومية الاستشفائية الدكتور فرادي محمد بن عمار", "name:arq": "المؤسسة العمومية الاستشفائية الدكتور فرادي محمد بن عمار", "name:fr": "Etablissement Public Hospitalier Dr Fradi Mohamed Ben Ammar"}}, {"name": "Centre anti-cancer pour enfants", "latitude": 35.6578661, "longitude": -0.6939036, "source": "osm", "_tags": {"amenity": "hospital", "healthcare": "hospital", "healthcare:speciality": "oncology", "name": "Centre anti-cancer pour enfants", "name:ar": "مستشفى سرطان الأطفال", "name:fr": "Centre anti-cancer pour enfants"}}, {"name": "Salle de soin Hai Ennour", "latitude": 35.6848939, "longitude": -0.6735688, "source": "osm", "_tags": {"amenity": "hospital", "healthcare": "hospital", "name": "Salle de soin Hai Ennour"}}, {"name": "Polyclinique", "latitude": 35.7254097, "longitude": -0.5451481, "source": "osm", "_tags": {"amenity": "hospital", "barrier": "all", "healthcare": "hospital", "name": "Polyclinique"}}, {"name": "", "latitude": 35.5304624, "longitude": -0.1881108, "source": "osm", "_tags": {"amenity": "hospital", "healthcare": "hospital"}}, {"name": "", "latitude": 35.6364273, "longitude": -0.6739198, "source": "osm", "_tags": {"amenity": "hospital", "healthcare": "hospital"}}, {"name": "Etablissement hospitalier Nedjma", "latitude": 35.6568507, "longitude": -0.5690796, "source": "osm", "_tags": {"amenity": "hospital", "healthcare": "hospital", "name": "Etablissement hospitalier Nedjma"}}, {"name": "EHS Les Pins (Les Planteurs)", "latitude": 35.7013266, "longitude": -0.6590343, "source": "osm", "_tags": {"addr:city": "oran", "addr:street": "les Planteurs", "amenity": "hospital", "healthcare": "hospital", "healthcare:speciality": "paediatrics;gynaecology;maternity", "name": "EHS Les Pins (Les Planteurs)", "operator": "etatique", "operator:type": "public"}}, {"name": "Polyclinique Les Planteurs II", "latitude": 35.6986573, "longitude": -0.6647356, "source": "osm", "_tags": {"addr:city": "Oran", "addr:street": "Les Planteurs", "amenity": "hospital", "healthcare": "hospital", "healthcare:speciality": "general", "name": "Polyclinique Les Planteurs II", "operator": "etatique"}}, {"name": "Polyclinique Les Planteurs I", "latitude": 35.7010342, "longitude": -0.6610561, "source": "osm", "_tags": {"addr:city": "oran", "addr:street": "les planteurs", "amenity": "hospital", "healthcare": "hospital", "healthcare:speciality": "general", "name": "Polyclinique Les Planteurs I", "operator": "etatique"}}, {"name": "Urgences medico-chirurgicales UMC", "latitude": 35.6924185, "longitude": -0.6437076, "source": "osm", "_tags": {"addr:city": "Oran", "addr:street": "Rue des Frères Bouchakour", "amenity": "hospital", "emergency": "yes", "healthcare": "hospital", "healthcare:speciality": "emergency", "name": "Urgences medico-chirurgicales UMC", "operator": "etatique", "operator:type": "public"}}, {"name": "centre de santé Oran marine", "latitude": 35.7051345, "longitude": -0.6547526, "source": "osm", "_tags": {"amenity": "hospital", "healthcare": "hospital", "healthcare:speciality": "general", "name": "centre de santé Oran marine", "operator": "etatique", "operator:type": "public"}}, {"name": "Polyclinique les palmiers", "latitude": 35.6742805, "longitude": -0.6462001, "source": "osm", "_tags": {"amenity": "hospital", "healthcare": "hospital", "healthcare:speciality": "general", "name": "Polyclinique les palmiers", "operator": "etatique", "operator:type": "public"}}, {"name": "centre de santé Ras el Ain", "latitude": 35.7013156, "longitude": -0.654268, "source": "osm", "_tags": {"amenity": "hospital", "healthcare": "hospital", "healthcare:speciality": "general", "name": "centre de santé Ras el Ain", "operator": "etatique", "operator:type": "public"}}, {"name": "Ancien Polyclinique", "latitude": 35.7865772, "longitude": -0.424536, "source": "osm", "_tags": {"addr:city": "Gdyel", "amenity": "hospital", "healthcare": "hospital", "name": "Ancien Polyclinique", "name:ar": "مستوصف القديم", "name:fr": "Ancien Polyclinique", "operator": "public", "operator:type": "public"}}, {"name": "", "latitude": 35.720369, "longitude": -0.5665592, "source": "osm", "_tags": {"amenity": "hospital", "healthcare": "hospital"}}, {"name": "", "latitude": 35.7281015, "longitude": -0.4661125, "source": "osm", "_tags": {"amenity": "hospital", "healthcare": "hospital"}}, {"name": "مستوصف حي 500 مسكن", "latitude": 35.5576157, "longitude": -0.4445734, "source": "osm", "_tags": {"addr:city": "وادي تليلات", "addr:place": "حي 500 مسكن", "amenity": "hospital", "building": "yes", "healthcare": "hospital", "name": "مستوصف حي 500 مسكن", "name:ar": "مستوصف حي 500 مسكن", "name:fr": "Dispensaire 500 logts", "source": "FB: Algerie Mapper Team : (Superadlen)"}}, {"name": "", "latitude": 35.7059151, "longitude": -0.644754, "source": "osm", "_tags": {"amenity": "hospital", "healthcare": "hospital"}}, {"name": "Centre Hospitalier Universitaire d'Oran", "latitude": 35.6939365, "longitude": -0.6410936, "source": "osm", "_tags": {"addr:city": "Oran", "addr:postcode": "31000", "addr:street": "Rue des Frères Bouchakour", "amenity": "hospital", "emergency": "yes", "name": "Centre Hospitalier Universitaire d'Oran", "name:ar": "المركز الاستشفائي الجامعي وهران", "name:en": "Oran Hospital", "name:fr": "Centre Hospitalier Universitaire d'Oran", "phone": "+213 41 41 22 38", "short_name": "CHU Oran", "type": "multipolygon", "website": "http://www.sante.dz/CHU-Oran/"}}]