[{"name": "St Bernard's Hospital", "latitude": 36.1432246, "longitude": -5.3594905, "source": "osm", "_tags": {"addr:city": "Gibraltar", "amenity": "hospital", "emergency": "yes", "healthcare": "hospital", "name": "St Bernard's Hospital", "name:es": "Hospital de San Bernardo", "wikidata": "Q36207", "wikipedia": "en:St Bernard's Hospital", "wikipedia:es": "Hospital de San Bernardo (Gibraltar)"}}, {"name": "Clinique Rif", "latitude": 35.5867664, "longitude": -5.3469081, "source": "osm", "_tags": {"amenity": "hospital", "healthcare": "hospital", "name": "Clinique Rif"}}, {"name": "Hôpital Espagnol", "latitude": 35.5723502, "longitude": -5.3877507, "source": "osm", "_tags": {"addr:city": "Tétouan", "addr:street": "Av. Moussa Ibn Noussair", "amenity": "hospital", "healthcare": "hospital", "name": "Hôpital Espagnol"}}, {"name": "Cruz Roja", "latitude": 36.1567269, "longitude": -5.4567803, "source": "osm", "_tags": {"amenity": "hospital", "healthcare": "hospital", "name": "Cruz Roja", "operator": "Cruz Roja", "operator:type": "ngo", "operator:wikidata": "Q7178"}}, {"name": "", "latitude": 35.6842694, "longitude": -5.926075, "source": "osm", "_tags": {"amenity": "hospital", "healthcare": "hospital"}}, {"name": "APEX Dental Clinic", "latitude": 35.7757254, "longitude": -5.8046245, "source": "osm", "_tags": {"addr:city": "Tanger", "addr:housenumber": "Residence Zainab, num 8", "addr:street": "Place des Nations ساحة الأمم", "amenity": "hospital", "fax": "0666061666", "healthcare": "hospital", "healthcare:speciality": "dentist;orthodontics;dental_oral_maxillo_facial_surgery;clinic", "level": "0", "name": "APEX Dental Clinic"}}, {"name": "Hôpital", "latitude": 35.4647749, "longitude": -6.0269395, "source": "osm", "_tags": {"addr:city": "Assilah", "addr:street": "Avenue du 2 Mars", "amenity": "hospital", "healthcare": "hospital", "name": "Hôpital", "operator": "hopital", "operator:type": "public"}}, {"name": "Hospital Le Croissant Rouge D'assilah", "latitude": 35.4677114, "longitude": -6.0344082, "source": "osm", "_tags": {"addr:city": "Assilah", "addr:street": "Avenue Ibn Rochd شارع ابن رشد", "amenity": "hospital", "healthcare": "hospital", "name": "Hospital Le Croissant Rouge D'assilah", "operator": "hopital", "operator:type": "public"}}, {"name": "Clinique Tingis", "latitude": 35.7708912, "longitude": -5.8072381, "source": "osm", "_tags": {"addr:city": "Tanger", "addr:street": "Rue Aboubakr Razi", "amenity": "hospital", "fax": "0539340404", "healthcare": "hospital", "name": "Clinique Tingis", "operator": "clinic", "operator:type": "private"}}, {"name": "La Symphony Dental Centre", "latitude": 35.7493705, "longitude": -5.7989835, "source": "osm", "_tags": {"addr:city": "Tanger طنجة", "addr:postcode": "90000", "addr:street": "Avenue Al Quds شارع القدس", "amenity": "hospital", "emergency": "yes", "healthcare": "hospital", "healthcare:speciality": "dentist;dentistry", "loc_name": "La Symphony Dental Centre", "mobile": "+212668679811", "name": "La Symphony Dental Centre", "opening_hours": "Mo-Su 09:00-21:00", "website": "https://lasymphonydental.com/"}}, {"name": "Centre de Santé Said Noussairi", "latitude": 35.7706014, "longitude": -5.8146093, "source": "osm", "_tags": {"addr:city": "Tanger", "addr:postcode": "90060", "addr:street": "Rue de Fès", "amenity": "hospital", "emergency": "no", "healthcare": "hospital", "name": "Centre de Santé Said Noussairi", "name:ar": "المركز الصحي سعيد النصيري", "phone": "0663613242"}}, {"name": "Hôpital Mohammed V", "latitude": 35.7781906, "longitude": -5.8282592, "source": "osm", "_tags": {"addr:city": "Tanger", "addr:street": "Boulevard Moulay Rachid شارع مولاي رشيد", "amenity": "hospital", "fax": "0539930856", "healthcare": "hospital", "name": "Hôpital Mohammed V", "operator": "hopital", "operator:type": "public"}}, {"name": "Clinique rif", "latitude": 35.5868035, "longitude": -5.3468001, "source": "osm", "_tags": {"addr:city": "Tétouan", "addr:street": "Av. des FAR", "amenity": "hospital", "fax": "05399-99484", "healthcare": "hospital", "name": "Clinique rif"}}, {"name": "Centre de dialyse Arrayane", "latitude": 35.5844993, "longitude": -5.3467761, "source": "osm", "_tags": {"addr:city": "Tétouan", "addr:street": "Avenue Beyrout", "amenity": "hospital", "fax": "+212539990036", "healthcare": "hospital", "name": "Centre de dialyse Arrayane"}}, {"name": "Clinique an-Nakhil", "latitude": 35.5689951, "longitude": -5.3822046, "source": "osm", "_tags": {"addr:city": "Tétouan", "addr:street": "Av. Hassan II", "amenity": "hospital", "fax": "05399-62600", "healthcare": "hospital", "name": "Clinique an-Nakhil"}}, {"name": "Clinique Tétouan", "latitude": 35.5707363, "longitude": -5.3854731, "source": "osm", "_tags": {"addr:city": "Tétouan", "addr:street": "Av. Mohamed V", "amenity": "hospital", "fax": "05399-64252", "healthcare": "hospital", "name": "Clinique Tétouan"}}, {"name": "Hopital Mohamed 6", "latitude": 35.6917865, "longitude": -5.3299838, "source": "osm", "_tags": {"addr:city": "MDiq", "addr:street": "Avenue Annaser", "amenity": "hospital", "healthcare": "hospital", "name": "Hopital Mohamed 6", "operator": "hopital", "operator:type": "public"}}, {"name": "Antiguo Hospital de La Línea de la Concepción", "latitude": 36.170193, "longitude": -5.3409969, "source": "osm", "_tags": {"abandoned:amenity": "hospital", "addr:city": "La Línea de la Concepción", "addr:postcode": "11300", "amenity": "hospital", "emergency": "no", "healthcare": "hospital", "name": "Antiguo Hospital de La Línea de la Concepción", "operator": "Junta de Andalucía", "operator:type": "public"}}, {"name": "hôpital al kortobi", "latitude": 35.7894876, "longitude": -5.8183982, "source": "osm", "_tags": {"addr:city": "Tanger", "addr:street": "Rue Assad Ibn Al Farrat", "amenity": "hospital", "fax": "0539934242", "healthcare": "hospital", "name": "hôpital al kortobi", "operator": "hopital", "operator:type": "public"}}, {"name": "Hospital Universitario de Ceuta", "latitude": 35.8804231, "longitude": -5.3418244, "source": "osm", "_tags": {"addr:postcode": "51003", "addr:street": "Loma Colmenar", "amenity": "hospital", "emergency": "yes", "healthcare": "hospital", "name": "Hospital Universitario de Ceuta", "name:fr": "Hôpital universitaire de Ceuta", "operator": "Ingesa", "operator:type": "public", "phone": "+34 856907000", "website": "http://www.areasanitariaceuta.es", "wikidata": "Q87762692"}}, {"name": "", "latitude": 35.6832423, "longitude": -5.9218464, "source": "osm", "_tags": {"amenity": "hospital", "healthcare": "hospital"}}, {"name": "Hôpital Mohammed VI", "latitude": 35.7509724, "longitude": -5.8283569, "source": "osm", "_tags": {"addr:city": "Tanger", "addr:street": "Rue Indonesie", "amenity": "hospital", "fax": "0601419990", "healthcare": "hospital", "name": "Hôpital Mohammed VI", "operator": "hopital", "operator:type": "private"}}, {"name": "Hôpital Sanyat Rmel", "latitude": 35.5732887, "longitude": -5.3556967, "source": "osm", "_tags": {"addr:city": "Tétouan", "addr:street": "Av. Abdelkhalek Torres", "amenity": "hospital", "fax": "05359-98750", "healthcare": "hospital", "name": "Hôpital Sanyat Rmel"}}, {"name": "Polyclinique CNSS", "latitude": 35.7753803, "longitude": -5.770132, "source": "osm", "_tags": {"addr:city": "Tanger", "addr:street": "Rue 14 زنقة", "amenity": "hospital", "fax": "0649652995", "healthcare": "hospital", "name": "Polyclinique CNSS"}}, {"name": "Hôpital Espagnol", "latitude": 35.7782078, "longitude": -5.8225022, "source": "osm", "_tags": {"addr:city": "Tanger", "addr:street": "Rue Mahatma Gandi", "amenity": "hospital", "fax": "0690451176", "healthcare": "hospital", "name": "Hôpital Espagnol", "operator": "hopital", "operator:type": "public"}}, {"name": "Centre Ahmad Bin Zayed Al Nahyan De Traitement des Cancers", "latitude": 35.6829906, "longitude": -5.921976, "source": "osm", "_tags": {"addr:city": "Tanger", "addr:street": "Chraka", "amenity": "hospital", "building": "hospital", "healthcare": "hospital", "name": "Centre Ahmad Bin Zayed Al Nahyan De Traitement des Cancers", "operator": "hopital", "operator:type": "public", "source": "Kaart Ground Survey 2018"}}, {"name": "Centre De sante Saadina", "latitude": 35.6066966, "longitude": -5.4499269, "source": "osm", "_tags": {"addr:city": "Saadina", "addr:street": "Route principale de Saddina", "amenity": "hospital", "healthcare": "hospital", "name": "Centre De sante Saadina"}}, {"name": "Centre Médical Boujarrah", "latitude": 35.5901009, "longitude": -5.3517106, "source": "osm", "_tags": {"addr:city": "Tétouan", "addr:street": "Avenue Jbel Boukhafer", "amenity": "hospital", "healthcare": "hospital", "name": "Centre Médical Boujarrah"}}, {"name": "Centre de Sante Touila", "latitude": 35.5809744, "longitude": -5.3624421, "source": "osm", "_tags": {"addr:city": "Tétouan", "addr:street": "Av. Cheikh Ben Laarbi Alaoui", "amenity": "hospital", "healthcare": "hospital", "healthcare:speciality": "general", "name": "Centre de Sante Touila", "operator:type": "public"}}, {"name": "Hopital Italien المستشفى الإيطالي", "latitude": 35.7845305, "longitude": -5.8212436, "source": "osm", "_tags": {"addr:city": "Tanger", "addr:street": "Rue Sidi Bourqia", "amenity": "hospital", "fax": "0539931288", "healthcare": "hospital", "name": "Hopital Italien المستشفى الإيطالي", "operator": "hopital", "operator:type": "public"}}, {"name": "Croissant Rouge", "latitude": 35.7777167, "longitude": -5.8100344, "source": "osm", "_tags": {"addr:city": "Tanger", "addr:street": "Rue Allal Ben Abdallah", "amenity": "hospital", "fax": "0539946976", "healthcare": "hospital", "name": "Croissant Rouge", "operator": "hopital", "operator:type": "public"}}, {"name": "Clinique croissant Rouge", "latitude": 35.5715071, "longitude": -5.3874731, "source": "osm", "_tags": {"addr:city": "Tétouan", "addr:street": "HJC6+MX5", "amenity": "hospital", "fax": "05397-01310", "healthcare": "hospital", "name": "Clinique croissant Rouge"}}, {"name": "Centre De Sante Martil", "latitude": 35.6197939, "longitude": -5.2740769, "source": "osm", "_tags": {"addr:city": "Martil", "addr:street": "Avenue Al Masira Khadra", "amenity": "hospital", "fax": "0539979246", "healthcare": "hospital", "name": "Centre De Sante Martil", "operator": "hopital", "operator:type": "public"}}, {"name": "CHU de Tanger-Tétouan-Al Hoceima", "latitude": 35.6837521, "longitude": -5.9258114, "source": "osm", "_tags": {"addr:city": "Tanger", "addr:street": "chraka", "amenity": "hospital", "fax": "0539392465", "healthcare": "hospital", "name": "CHU de Tanger-Tétouan-Al Hoceima", "official_name": "Centre Hospitalier Universitaire de Tanger-Tétouan-Al Hoceima", "operator": "centre", "operator:type": "public", "short_name": "CHU TTA", "website": "https://chutanger.ma"}}, {"name": "Hospital de Vejer La Janda", "latitude": 36.2507344, "longitude": -5.9813808, "source": "osm", "_tags": {"amenity": "hospital", "emergency": "yes", "healthcare": "hospital", "name": "Hospital de Vejer La Janda", "network": "Servicio Andaluz de Salud", "network:short": "SAS", "operator:type": "public"}}, {"name": "Cruz Roja", "latitude": 36.0108582, "longitude": -5.6056337, "source": "osm", "_tags": {"addr:housenumber": "5", "addr:street": "Calle Alcalde Juan Núñez", "amenity": "hospital", "building": "yes", "building:colour": "white", "check_date": "2024-12-30", "healthcare": "hospital", "name": "Cruz Roja", "operator": "Cruz Roja", "operator:wikidata": "Q7178", "wheelchair": "yes"}}, {"name": "Hospital Universitario de La Línea de la Concepción", "latitude": 36.1748044, "longitude": -5.3535598, "source": "osm", "_tags": {"addr:city": "La Línea de la Concepción", "addr:housenumber": "101", "addr:postcode": "11300", "addr:street": "Calle Gabriel Miró", "amenity": "hospital", "emergency": "yes", "healthcare": "hospital", "name": "Hospital Universitario de La Línea de la Concepción", "network": "Servicio Andaluz de Salud", "network:short": "SAS", "operator": "Servicio Andaluz de Salud", "operator:short": "SAS", "operator:type": "public", "operator:wikidata": "Q4753529", "wikidata": "Q87761688", "wikipedia": "es:Hospital de La Línea de la Concepción"}}, {"name": "International Clinic of Tangier", "latitude": 35.7715937, "longitude": -5.7853316, "source": "osm", "_tags": {"addr:city": "Tanger", "addr:street": "Route de Malabata", "amenity": "hospital", "fax": "0539309090", "healthcare": "hospital", "name": "International Clinic of Tangier", "operator": "clinic", "operator:type": "private"}}, {"name": "Centro de Salud Levante", "latitude": 36.1799239, "longitude": -5.3373562, "source": "osm", "_tags": {"addr:city": "La Línea de la Concepción", "addr:postcode": "11300", "addr:street": "Avenida del Puerto", "amenity": "hospital", "healthcare": "hospital", "name": "Centro de Salud Levante", "operator": "Junta de Andalucía", "operator:type": "public", "operator:wikidata": "Q2743342"}}, {"name": "Hospital Ben Karrich", "latitude": 35.5104321, "longitude": -5.4231156, "source": "osm", "_tags": {"addr:city": "Bni Karrich بن قريش", "addr:street": "Rte de Ben Karrich", "amenity": "hospital", "healthcare": "hospital", "name": "Hospital Ben Karrich"}}, {"name": "", "latitude": 36.3032242, "longitude": -5.2920777, "source": "osm", "_tags": {"addr:city": "San Enrique de Guadiaro", "addr:postcode": "11312", "addr:street": "Avenida de San Enrique", "amenity": "hospital", "healthcare": "hospital", "operator": "Junta de Andalucía", "operator:type": "public", "operator:wikidata": "Q2743342"}}, {"name": "Hospital Punta Europa", "latitude": 36.1109074, "longitude": -5.443741, "source": "osm", "_tags": {"amenity": "hospital", "emergency": "yes", "healthcare": "hospital", "name": "Hospital Punta Europa", "network": "Servicio Andaluz de Salud", "network:short": "SAS", "operator": "Junta de Andalucía", "operator:type": "public", "wikidata": "Q5908562"}}, {"name": "Hospital de Alta Resolución de Estepona", "latitude": 36.4115765, "longitude": -5.197596, "source": "osm", "_tags": {"addr:city": "Estepona", "addr:housenumber": "9", "addr:postcode": "29680", "addr:street": "Calle Irene Villa González", "amenity": "hospital", "emergency": "yes", "healthcare": "hospital", "name": "Hospital de Alta Resolución de Estepona", "operator": "Junta de Andalucía", "operator:type": "public"}}, {"name": "AKDITAL : Hôpital Privé de Tanger", "latitude": 35.7444797, "longitude": -5.8618785, "source": "osm", "_tags": {"addr:city": "Tanger", "addr:street": "Boulevard Moulay Rachid شارع مولاي رشيد", "amenity": "hospital", "fax": "0539319898", "healthcare": "hospital", "name": "AKDITAL : Hôpital Privé de Tanger", "operator": "hopital", "operator:type": "private"}}, {"name": "Centro de Salud Poniente-El Junquillo", "latitude": 36.166051, "longitude": -5.3581769, "source": "osm", "_tags": {"addr:city": "La Línea de la Concepción", "addr:postcode": "11300", "addr:street": "Calle Andalucía", "amenity": "hospital", "healthcare": "hospital", "name": "Centro de Salud Poniente-El Junquillo", "name:ca": "Centre de Salut Poniente-El Junquillo", "name:es": "Centro de Salud Poniente-El Junquillo", "operator": "Servicio Andaluz de Salud", "operator:short": "SAS", "operator:type": "public", "operator:wikidata": "Q4753529"}}, {"name": "Centro de Salud La Velada (La Línea Centro)", "latitude": 36.1661939, "longitude": -5.3479162, "source": "osm", "_tags": {"addr:city": "La Línea de la Concepción", "addr:postcode": "11300", "addr:street": "Calle Feria", "amenity": "hospital", "healthcare": "hospital", "name": "Centro de Salud La Velada (La Línea Centro)", "operator": "Servicio Andaluz de Salud", "operator:short": "SAS", "operator:type": "public", "operator:wikidata": "Q4753529"}}, {"name": "Centro de Salud Juan Batanero", "latitude": 36.2133114, "longitude": -5.3823433, "source": "osm", "_tags": {"addr:city": "San Roque", "addr:housenumber": "4", "addr:postcode": "11360", "addr:street": "Avenida Carlos Pacheco Perujo", "amenity": "hospital", "healthcare": "hospital", "name": "Centro de Salud Juan Batanero", "operator": "Servicio Andaluz de Salud", "operator:short": "SAS", "operator:type": "public", "operator:wikidata": "Q4753529"}}, {"name": "Centro de Salud Evaristo Domínguez (San Roque Sur)", "latitude": 36.2093711, "longitude": -5.3939851, "source": "osm", "_tags": {"addr:city": "San Roque", "addr:postcode": "11360", "addr:street": "Calle de la Ermita", "amenity": "hospital", "healthcare": "hospital", "name": "Centro de Salud Evaristo Domínguez (San Roque Sur)", "operator": "Servicio Andaluz de Salud", "operator:short": "SAS", "operator:type": "public", "operator:wikidata": "Q4753529"}}, {"name": "Hospital Quirónsalud Campo de Gibraltar", "latitude": 36.1854281, "longitude": -5.4308947, "source": "osm", "_tags": {"addr:city": "Palmones", "addr:postcode": "11379", "addr:street": "Avenida de los Empresarios", "amenity": "hospital", "emergency": "yes", "healthcare": "hospital", "name": "Hospital Quirónsalud Campo de Gibraltar", "operator": "Quirónsalud", "operator:type": "public", "operator:wikidata": "Q5886225", "website": "https://www.quironsalud.es/campo-gibraltar"}}]