[{"name": "établissements publics de santé de proximité المؤسسة العموممية للصحة الجوارية", "latitude": 35.9241676, "longitude": 5.2930364, "source": "osm", "_tags": {"amenity": "hospital", "name": "établissements publics de santé de proximité المؤسسة العموممية للصحة الجوارية", "name:ar": "المؤسسة العموممية للصحة الجوارية", "name:fr": "établissements publics de santé de proximité", "short_name:fr": "EPSP"}}, {"name": "Hôpital Mohammed Boudiaf", "latitude": 35.9134849, "longitude": 5.2880555, "source": "osm", "_tags": {"amenity": "hospital", "emergency": "yes", "name": "Hôpital Mohammed Boudiaf", "name:ar": "مستشفى محمد بوضياف", "name:fr": "Hôpital Mohammed Boudiaf"}}, {"name": "", "latitude": 35.8104299, "longitude": 5.1054722, "source": "osm", "_tags": {"amenity": "hospital"}}, {"name": "", "latitude": 35.8829135, "longitude": 5.0229101, "source": "osm", "_tags": {"amenity": "hospital"}}, {"name": "dr kermali", "latitude": 36.1782792, "longitude": 5.4027943, "source": "osm", "_tags": {"amenity": "hospital", "name": "dr kermali"}}, {"name": "EPSP", "latitude": 35.9167115, "longitude": 5.2931623, "source": "osm", "_tags": {"addr:city": "Ain Oulmane", "addr:country": "DZ", "addr:postcode": "19200", "amenity": "hospital", "fixme": "Nom officiel manquant", "name": "EPSP"}}, {"name": "médecine du travail", "latitude": 36.1809403, "longitude": 5.4042201, "source": "osm", "_tags": {"amenity": "hospital", "name": "médecine du travail"}}, {"name": "العربي سلامي", "latitude": 36.2722259, "longitude": 5.127404, "source": "osm", "_tags": {"amenity": "hospital", "name": "العربي سلامي", "name:ar": "العربي سلامي", "name:fr": "Larbi Salami"}}, {"name": "العيادة المتعددة الخدمات", "latitude": 35.4389021, "longitude": 5.5604412, "source": "osm", "_tags": {"amenity": "hospital", "name": "العيادة المتعددة الخدمات", "name:ar": "العيادة المتعددة الخدمات"}}, {"name": "Polyclinique", "latitude": 35.758489, "longitude": 5.2147961, "source": "osm", "_tags": {"amenity": "hospital", "name": "Polyclinique", "name:ar": "Polyclinique"}}, {"name": "المركز الصحي شيمينو", "latitude": 36.1915202, "longitude": 5.4208297, "source": "osm", "_tags": {"amenity": "hospital", "name": "المركز الصحي شيمينو", "name:ar": "المركز الصحي شيمينو", "name:en": "Centre de santè Cheminot", "name:fr": "Centre de santè Cheminot"}}, {"name": "المركز الصحي المنكوبين", "latitude": 36.163683, "longitude": 5.694079, "source": "osm", "_tags": {"amenity": "hospital", "name": "المركز الصحي المنكوبين", "name:ar": "المركز الصحي المنكوبين", "name:fr": "Centre de santé", "opening_hours": "Su-Th 08:00-16:00"}}, {"name": "عيادة متعددة الخدمات الصحية محفوظي العمري", "latitude": 36.1304673, "longitude": 5.0795389, "source": "osm", "_tags": {"amenity": "hospital", "name": "عيادة متعددة الخدمات الصحية محفوظي العمري", "name:ar": "عيادة متعددة الخدمات الصحية محفوظي العمري", "name:en": "Polyclinique Mahfoudi Lamri", "name:fr": "Polyclinique Mahfoudi Lamri"}}, {"name": "مصحة نابتي", "latitude": 36.1759794, "longitude": 5.407536, "source": "osm", "_tags": {"amenity": "hospital", "name": "مصحة نابتي", "name:ar": "مصحة نابتي", "name:fr": "Clinique NABTI", "opening_hours": "24/7"}}, {"name": "مستشفى عموشة", "latitude": 36.3760495, "longitude": 5.4112672, "source": "osm", "_tags": {"amenity": "hospital", "name": "مستشفى عموشة", "name:fr": "hôpital amoucha"}}, {"name": "", "latitude": 35.5690213, "longitude": 5.6183615, "source": "osm", "_tags": {"amenity": "hospital", "building": "yes"}}, {"name": "CHU Saâdna-Abdenour المستشفى الجامعي سعادنة عبد النور", "latitude": 36.1921945, "longitude": 5.4013815, "source": "osm", "_tags": {"addr:city": "Sérif", "amenity": "hospital", "emergency": "yes", "name": "CHU Saâdna-Abdenour المستشفى الجامعي سعادنة عبد النور", "name:ar": "المركز الاستشفائي الجامعي سعادنة عبد النور", "name:fr": "CHU Saâdna-Abdenour", "wheelchair": "yes"}}, {"name": "Hôpital Saroub El Khatir", "latitude": 36.1491282, "longitude": 5.6833662, "source": "osm", "_tags": {"amenity": "hospital", "emergency": "yes", "healthcare": "hospital", "layer": "1", "name": "Hôpital Saroub El Khatir"}}, {"name": "Maternité", "latitude": 36.1565708, "longitude": 5.6844565, "source": "osm", "_tags": {"amenity": "hospital", "name": "Maternité"}}, {"name": "EPSP", "latitude": 36.1529096, "longitude": 5.684881, "source": "osm", "_tags": {"amenity": "hospital", "emergency": "yes", "name": "EPSP"}}, {"name": "Centres de Santé", "latitude": 36.2001996, "longitude": 5.4294547, "source": "osm", "_tags": {"amenity": "hospital", "healthcare": "hospital", "name": "Centres de Santé"}}, {"name": "Kaab.ilot 06-1 Maternité", "latitude": 36.2020292, "longitude": 5.4058989, "source": "osm", "_tags": {"amenity": "hospital", "healthcare": "hospital", "name": "Kaab.ilot 06-1 Maternité", "wheelchair": "yes"}}, {"name": "Hôpital Mère et Enfant", "latitude": 36.2021242, "longitude": 5.3577349, "source": "osm", "_tags": {"addr:city": "Sétif", "amenity": "hospital", "emergency": "yes", "name": "Hôpital Mère et Enfant"}}, {"name": "Centre anti-cancer", "latitude": 36.2027923, "longitude": 5.3595832, "source": "osm", "_tags": {"addr:city": "Sétif", "amenity": "hospital", "emergency": "no", "name": "Centre anti-cancer"}}, {"name": "centre de santé", "latitude": 36.1952124, "longitude": 5.4284641, "source": "osm", "_tags": {"amenity": "hospital", "name": "centre de santé", "name:ar": "طبيبة خلود"}}, {"name": "Hopital Said Aouamri", "latitude": 36.3380698, "longitude": 5.0928952, "source": "osm", "_tags": {"amenity": "hospital", "name": "Hopital Said Aouamri"}}, {"name": "Hôpital Psychiatrique", "latitude": 36.304457, "longitude": 5.3061496, "source": "osm", "_tags": {"amenity": "hospital", "healthcare:speciality": "psychiatry", "name": "Hôpital Psychiatrique"}}, {"name": "مستشفى يوسف يعلاوي", "latitude": 35.8070979, "longitude": 5.5057617, "source": "osm", "_tags": {"amenity": "hospital", "emergency": "yes", "name": "مستشفى يوسف يعلاوي", "name:ar": "مستشفى يوسف يعلاوي", "name:fr": "Hôpital Youcef Yaalaoui"}}, {"name": "المستوصف", "latitude": 35.8159658, "longitude": 5.5022224, "source": "osm", "_tags": {"amenity": "hospital", "building": "yes", "emergency": "yes", "name": "المستوصف", "name:ar": "المستوصف", "name:fr": "Polyclinique"}}, {"name": "EHP", "latitude": 35.5047361, "longitude": 5.2637315, "source": "osm", "_tags": {"addr:city": "Djezzar", "amenity": "hospital", "name": "EHP"}}, {"name": "Hôpital Ali N'mer", "latitude": 35.6274688, "longitude": 5.9096601, "source": "osm", "_tags": {"amenity": "hospital", "healthcare": "hospital", "name": "Hôpital Ali N'mer"}}, {"name": "Hôpital Mouhammed Bennani", "latitude": 35.9406011, "longitude": 5.0401806, "source": "osm", "_tags": {"addr:city": "Ras El Oued", "amenity": "hospital", "emergency": "yes", "name": "Hôpital Mouhammed Bennani"}}, {"name": "Hopital Ziza Massika", "latitude": 35.632928, "longitude": 5.9159836, "source": "osm", "_tags": {"addr:postcode": "05300", "amenity": "hospital", "healthcare": "hospital", "name": "Hopital Ziza Massika", "name:ar": "ziza massika hospital", "opening_hours": "24/7"}}, {"name": "مستوصف", "latitude": 35.9329274, "longitude": 5.8954353, "source": "osm", "_tags": {"amenity": "hospital", "name": "مستوصف", "name:ar": "مستوصف"}}, {"name": "Maternité", "latitude": 35.9643369, "longitude": 5.4343221, "source": "osm", "_tags": {"amenity": "hospital", "name": "Maternité"}}, {"name": "Établissement Hospitalier Spécialisé en Rééducation Fonctionnelle à Ras Elma", "latitude": 36.1191726, "longitude": 5.5362371, "source": "osm", "_tags": {"amenity": "hospital", "healthcare": "hospital", "name": "Établissement Hospitalier Spécialisé en Rééducation Fonctionnelle à Ras Elma", "name:ar": "المؤسسة الإستشفائية المختصة في التأهيل و التكييف الوظيفي"}}, {"name": "Cabinet médical Hamadache.H", "latitude": 36.1909626, "longitude": 5.4183098, "source": "osm", "_tags": {"addr:city": "Sétif", "addr:postcode": "19000", "addr:street": "Rue des Frères Djemili", "amenity": "hospital", "description": "Medecine générale.\nGyneco-obstetrique.\nSuivi des femmes enceintes.\nEchographie abdomino-pelvienne", "emergency": "no", "name": "Cabinet médical Hamadache.H", "operator": "Hamadache.H"}}, {"name": "Hôpital de Ras El Aioun", "latitude": 35.6780618, "longitude": 5.6494811, "source": "osm", "_tags": {"addr:city": "Ras El Aioun", "alt_name": "EPH Ras El Aioun", "amenity": "hospital", "emergency": "yes", "name": "Hôpital de Ras El Aioun"}}, {"name": "centre medical", "latitude": 36.2623073, "longitude": 5.7161383, "source": "osm", "_tags": {"amenity": "hospital", "name": "centre medical"}}, {"name": "", "latitude": 35.6167894, "longitude": 5.0843525, "source": "osm", "_tags": {"addr:city": "مقرة", "addr:city:ar": "مقرة", "amenity": "hospital", "healthcare": "hospital"}}, {"name": "Hopital Cheghoub Abdellah", "latitude": 36.3657124, "longitude": 5.4965122, "source": "osm", "_tags": {"amenity": "hospital", "healthcare": "hospital", "name": "Hopital Cheghoub Abdellah"}}, {"name": "médecine du travail", "latitude": 36.1810451, "longitude": 5.4047235, "source": "osm", "_tags": {"amenity": "hospital", "healthcare": "hospital", "name": "médecine du travail"}}, {"name": "عيادة متعددة الخدمات أحمد ساسي", "latitude": 35.8103182, "longitude": 5.1056423, "source": "osm", "_tags": {"amenity": "hospital", "healthcare": "hospital", "name": "عيادة متعددة الخدمات أحمد ساسي"}}, {"name": "", "latitude": 35.8829527, "longitude": 5.022896, "source": "osm", "_tags": {"amenity": "hospital", "healthcare": "hospital"}}, {"name": "EPSP", "latitude": 35.9167765, "longitude": 5.2931877, "source": "osm", "_tags": {"amenity": "hospital", "healthcare": "hospital", "name": "EPSP"}}, {"name": "العربي سلامي", "latitude": 36.2722227, "longitude": 5.1271948, "source": "osm", "_tags": {"amenity": "hospital", "healthcare": "hospital", "name": "العربي سلامي", "name:ar": "العربي سلامي", "name:fr": "Larbi Sellami"}}, {"name": "Polyclinique", "latitude": 35.7586555, "longitude": 5.2142114, "source": "osm", "_tags": {"amenity": "hospital", "healthcare": "hospital", "name": "Polyclinique"}}, {"name": "المركز الصحي شيمينو", "latitude": 36.191487, "longitude": 5.4207502, "source": "osm", "_tags": {"amenity": "hospital", "healthcare": "hospital", "name": "المركز الصحي شيمينو", "name:ar": "المركز الصحي شيمينو", "name:fr": "Centre de santé Cheminot"}}, {"name": "مستشفى بليليطة", "latitude": 35.8524102, "longitude": 5.2824228, "source": "osm", "_tags": {"addr:city": "صالح باي", "addr:city:ar": "صالح باي", "addr:postcode": "19013", "amenity": "hospital", "healthcare": "hospital", "language:ar": "yes", "name": "مستشفى بليليطة", "name:ar": "مستشفى بليليطة", "name:fr": "Hôpital Blilita"}}, {"name": "", "latitude": 36.1635286, "longitude": 5.6939883, "source": "osm", "_tags": {"amenity": "hospital", "healthcare": "hospital"}}, {"name": "عيادة متعددة الخدمات الصحية محفوظي العمري", "latitude": 36.1304933, "longitude": 5.0794081, "source": "osm", "_tags": {"amenity": "hospital", "healthcare": "hospital", "name": "عيادة متعددة الخدمات الصحية محفوظي العمري", "name:ar": "عيادة متعددة الخدمات الصحية محفوظي العمري"}}, {"name": "عيادة شياد حمزة للعلاج الطبيعي", "latitude": 35.8173511, "longitude": 5.5167348, "source": "osm", "_tags": {"addr:city": "Aïn Azel", "addr:postcode": "19007", "amenity": "hospital", "healthcare": "hospital", "healthcare:speciality": "physiotherapy", "name": "عيادة شياد حمزة للعلاج الطبيعي", "name:ar": "عيادة شياد حمزة للعلاج الطبيعي", "name:en": "Physiotherapist", "name:fr": "Cabinet de rééducation fonctionnelle CHIAD", "phone": "00213772779636"}}, {"name": "Clinique Nabti", "latitude": 36.1758795, "longitude": 5.4074833, "source": "osm", "_tags": {"amenity": "hospital", "healthcare": "hospital", "name": "Clinique Nabti"}}, {"name": "", "latitude": 35.6535559, "longitude": 5.0399682, "source": "osm", "_tags": {"amenity": "hospital"}}]