[{"name": "policlinique Diar Zarga", "latitude": 36.2871513, "longitude": 7.9713974, "source": "osm", "_tags": {"amenity": "hospital", "name": "policlinique Diar Zarga", "name:fr": "policlinique Diar Zarga"}}, {"name": "", "latitude": 35.6704096, "longitude": 8.0130463, "source": "osm", "_tags": {"addr:street": "rue sidi abdallah", "amenity": "hospital", "name:fr": "EPH MORSOTT", "phone": "037657224"}}, {"name": "المستشفى الجهوية سوق أهراس", "latitude": 36.2818424, "longitude": 7.9643212, "source": "osm", "_tags": {"addr:city": "سوق أهراس", "addr:city:ar": "سوق أهراس", "amenity": "hospital", "emergency": "yes", "healthcare": "hospital", "name": "المستشفى الجهوية سوق أهراس", "name:ar": "المستشفى الجهوية سوق أهراس", "name:fr": "Hôpital régional de Souk-ahras"}}, {"name": "Hôpital Ibn Rochd", "latitude": 36.2628355, "longitude": 7.9519595, "source": "osm", "_tags": {"addr:city": "Souk Ahras", "addr:postcode": "41000", "amenity": "hospital", "emergency": "yes", "name": "Hôpital Ibn Rochd", "name:ar": "مستشفى ابن رشد", "name:fr": "Hôpital Ibn Rochd"}}, {"name": "Hôpital de Taoura", "latitude": 36.1692304, "longitude": 8.0344618, "source": "osm", "_tags": {"addr:city": "Taoura", "amenity": "hospital", "name": "Hôpital de Taoura"}}, {"name": "مستشفى ساقية سيدي يوسف", "latitude": 36.2248935, "longitude": 8.3583527, "source": "osm", "_tags": {"addr:city": "ساقية سيدي يوسف", "amenity": "hospital", "healthcare": "hospital", "name": "مستشفى ساقية سيدي يوسف", "name:ar": "مستشفى ساقية سيدي يوسف", "name:fr": "Hôpital Sakiet Sidi Youssef"}}, {"name": "policlinique Diar Zarga", "latitude": 36.2873276, "longitude": 7.9713787, "source": "osm", "_tags": {"amenity": "hospital", "healthcare": "hospital", "name": "policlinique Diar Zarga"}}, {"name": "", "latitude": 36.1644476, "longitude": 8.0479385, "source": "osm", "_tags": {"amenity": "hospital", "healthcare": "hospital"}}, {"name": "", "latitude": 35.6703349, "longitude": 8.012997, "source": "osm", "_tags": {"amenity": "hospital", "healthcare": "hospital"}}, {"name": "مركز العتيق للاشعة", "latitude": 36.2820925, "longitude": 7.9585357, "source": "osm", "_tags": {"addr:city": "سوق أهراس", "addr:city:ar": "سوق أهراس", "amenity": "hospital", "building": "yes", "healthcare": "hospital", "name": "مركز العتيق للاشعة", "name:ar": "مركز العتيق للاشعة", "name:fr": "centre de radiologie ATIK", "source": "FB: Algerie Mapper Team (Adlen)"}}, {"name": "Houam Ali hospital", "latitude": 35.6735411, "longitude": 8.0107525, "source": "osm", "_tags": {"amenity": "hospital", "name": "Houam Ali hospital", "name:ar": "مستشفى على هوام"}}]