[{"name": "Santorini Medlife Clinic", "latitude": 36.3987, "longitude": 25.4506297, "source": "osm", "_tags": {"amenity": "hospital", "email": "info@santorinimedlifeclinic.gr", "healthcare": "hospital", "name": "Santorini Medlife Clinic", "opening_hours": "Mo-Su 09:00-20:00", "phone": "+30 22860 30403", "website": "https://www.santorinimedlifeclinic.gr/"}}, {"name": "Central Clinic of Santorini", "latitude": 36.4191731, "longitude": 25.4341815, "source": "osm", "_tags": {"amenity": "hospital", "building": "yes", "healthcare": "hospital", "name": "Central Clinic of Santorini", "phone": "+30 22860 21728", "website": "https://santorinicentralclinic.gr/"}}, {"name": "Santorini Hospital", "latitude": 36.4076348, "longitude": 25.4417167, "source": "osm", "_tags": {"addr:city": "Καρτεράδος", "addr:postcode": "84700", "amenity": "hospital", "building": "yes", "email": "info@santorini-hospital.gr", "emergency": "yes", "fax": "+30 22860 35459", "healthcare": "hospital", "healthcare:speciality": "paediatrics;orthopaedics;dentist;urology;neurology;ophthalmology;orthodontics;cardiology;psychiatry;surgery;gynaecology;otolaryngology;radiology", "image": "https://scontent.fath5-1.fna.fbcdn.net/v/t39.30808-6/277565109_383011833829717_4747692254795631894_n.jpg?_nc_cat=108&ccb=1-7&_nc_sid=e3f864&_nc_ohc=MoH4qlM1upAAX-Kzb2p&_nc_ht=scontent.fath5-1.fna&oh=00_AT8GQw4EX7tb_ySSE4cTCoFj92D6eLI9UZrMsBjozymyEg&oe=62B", "name": "Santorini Hospital", "name:el": "Νοσοκομείο Θήρας Σαντορίνης", "name:fr": "Hôpital de Santorin", "phone": "+30 22860 35300", "website": "https://www.santorini-hospital.gr", "wheelchair": "yes", "wikidata": "Q112286179"}}]