[{"name": "Hôpital Téboulba", "latitude": 35.6414277, "longitude": 10.9693569, "source": "osm", "_tags": {"amenity": "hospital", "emergency": "yes", "name": "Hôpital Téboulba"}}, {"name": "مستوصف السكرين - الرحمة", "latitude": 35.6519269, "longitude": 10.9490526, "source": "osm", "_tags": {"amenity": "hospital", "name": "مستوصف السكرين - الرحمة", "name:ar": "مستوصف السكرين - الرحمة"}}, {"name": "مستوصف الفاضلين", "latitude": 35.6413449, "longitude": 10.9905104, "source": "osm", "_tags": {"amenity": "hospital", "healthcare": "hospital", "name": "مستوصف الفاضلين", "name:ar": "مستوصف الفاضلين"}}, {"name": "Polyclinique l'Excellence", "latitude": 35.4992636, "longitude": 11.0585161, "source": "osm", "_tags": {"amenity": "hospital", "healthcare": "hospital", "name": "Polyclinique l'Excellence", "opening_hours": "24/7"}}, {"name": "Polyclinique", "latitude": 35.5271654, "longitude": 11.0323734, "source": "osm", "_tags": {"amenity": "hospital", "healthcare": "hospital", "name": "Polyclinique"}}, {"name": "University Hospital Tahar Sfar", "latitude": 35.5094872, "longitude": 11.0332983, "source": "osm", "_tags": {"amenity": "hospital", "healthcare": "hospital", "name": "University Hospital Tahar Sfar"}}]