[{"name": "Κεντρική Κλινική Τσεπέτη", "latitude": 35.5102558, "longitude": 24.0329512, "source": "osm", "_tags": {"addr:city": "Χανιά", "addr:housenumber": "9", "addr:postcode": "73133", "addr:street": "Παπαναστασίου", "amenity": "hospital", "emergency": "yes", "healthcare": "hospital", "name": "Κεντρική Κλινική Τσεπέτη", "name:de": "Privatklinik Tsepeti", "name:el": "Κεντρική Κλινική Τσεπέτη", "name:en": "Private Hospital Tsepeti", "operator": "ΚΕΝΤΡΙΚΗ ΚΛΙΝΙΚΗ ΧΑΝΙΩΝ Α.Ε.", "operator:type": "private", "phone": "+30 28210 28828", "website": "https://chaniaclinic.com/", "wheelchair": "yes"}}, {"name": "Branch Health Clinic Souda Bay", "latitude": 35.5348087, "longitude": 24.1579461, "source": "osm", "_tags": {"amenity": "hospital", "healthcare": "hospital", "healthcare:speciality": "family_medicine", "name": "Branch Health Clinic Souda Bay", "phone": "266-1590", "website": "https://www.cnic.navy.mil/regions/cnreurafcent/installations/nsa_souda_bay/about/installation_guide/facilities_and_resources/health_clinic.html"}}, {"name": "Iassis", "latitude": 35.5104285, "longitude": 24.0161448, "source": "osm", "_tags": {"addr:housenumber": "76", "addr:postcode": "73136", "addr:street": "Μάρκου Μπότσαρη", "alt_name": "IASIS Hospital", "amenity": "hospital", "building": "yes", "healthcare": "hospital", "name": "Iassis", "name:el": "IASIS κλινική Γαβριλάκη", "phone": "2821070800", "wheelchair": "yes"}}, {"name": "Γενικό Νοσοκομείο Χανίων - Άγιος Γεώργιος", "latitude": 35.478925, "longitude": 24.0163543, "source": "osm", "_tags": {"addr:city": "Μουρνιές", "addr:postcode": "73100", "addr:street": "Παράκαμψη Μουρνιών", "alt_name": "Άγιος Γεώργιος", "amenity": "hospital", "email": "info@chaniahospital.gr", "emergency": "yes", "healthcare": "hospital", "healthcare:speciality": "general;cardiology;oncology;paediatrics;maternity;dentistry;ophthalmology", "int_name": "Geniko Nosokomeio Chania", "name": "Γενικό Νοσοκομείο Χανίων - Άγιος Γεώργιος", "name:el": "Γενικό Νοσοκομείο Χανίων, Άγιος Γεώργιος", "name:en": "Chania General Hospital - Agios Georgios", "operator": "ΕΣΥ", "operator:type": "government", "phone": "+302821342000", "website": "https://chaniahospital.gr/", "wikidata": "Q50036462"}}, {"name": "", "latitude": 35.498887, "longitude": 24.0323532, "source": "osm", "_tags": {"amenity": "hospital", "healthcare": "hospital"}}]