[{"name": "المركز المندمج للشباب والطفولة بالخضراء", "latitude": 36.8300388, "longitude": 10.1921935, "source": "osm", "_tags": {"amenity": "hospital", "healthcare": "hospital", "name": "المركز المندمج للشباب والطفولة بالخضراء", "name:ar": "المركز المندمج للشباب والطفولة بالخضراء", "name:fr": "Centre d'Enfants Bourguiba"}}, {"name": "مستشفى الرابطة", "latitude": 36.8021425, "longitude": 10.1568023, "source": "osm", "_tags": {"amenity": "hospital", "building": "hospital", "name": "مستشفى الرابطة", "name:ar": "مستشفى الرابطة", "name:fr": "Hôpital La Rabta"}}, {"name": "حالة طوارئ", "latitude": 36.8667257, "longitude": 10.2895844, "source": "osm", "_tags": {"addr:postcode": "2046", "amenity": "hospital", "healthcare": "hospital", "name": "حالة طوارئ", "name:ar": "حالة طوارئ", "name:en": "Emergency", "name:fr": "Urgences"}}, {"name": "parapharmacie", "latitude": 36.8525991, "longitude": 10.1685548, "source": "osm", "_tags": {"amenity": "hospital", "healthcare": "hospital", "name": "parapharmacie"}}, {"name": "Immeuble City Center", "latitude": 36.450657, "longitude": 10.7356077, "source": "osm", "_tags": {"addr:city": "نابل", "addr:housenumber": "37", "addr:postcode": "8000", "addr:street": "شارع الحبيب بورقيبة", "amenity": "hospital", "healthcare": "doctor", "healthcare:speciality": "general", "name": "Immeuble City Center"}}, {"name": "Laboratoire d'analyses médicales Atf Kamoun", "latitude": 36.833963, "longitude": 10.1510901, "source": "osm", "_tags": {"amenity": "hospital", "name": "Laboratoire d'analyses médicales Atf Kamoun"}}, {"name": "CSB", "latitude": 36.4680179, "longitude": 10.7472075, "source": "osm", "_tags": {"amenity": "hospital", "healthcare": "hospital", "name": "CSB"}}, {"name": "Carthagene قرطاجنة", "latitude": 36.8454573, "longitude": 10.2001733, "source": "osm", "_tags": {"amenity": "hospital", "name": "Carthagene قرطاجنة"}}, {"name": "Centre Amel", "latitude": 36.537361, "longitude": 10.0686408, "source": "osm", "_tags": {"amenity": "hospital", "healthcare": "hospital", "name": "Centre Amel"}}, {"name": "المستشفى الجهوي فوشانة", "latitude": 36.6974127, "longitude": 10.1696931, "source": "osm", "_tags": {"amenity": "hospital", "healthcare": "hospital", "name": "المستشفى الجهوي فوشانة", "name:ar": "المستشفى الجهوي فوشانة", "name:fr": "Hôpital régional de fouchana"}}, {"name": "Cabinet dentaire Dr Lina Attia", "latitude": 36.7923403, "longitude": 10.176895, "source": "osm", "_tags": {"addr:city": "Tunis", "addr:housenumber": "6", "addr:postcode": "1008", "addr:street": "Rue Sidi El Bechir", "amenity": "hospital", "contact:facebook": "https://www.facebook.com/profile.php?id=61566754815639&mibextid=LQQJ4d", "email": "attialina44@gmail.com", "healthcare": "hospital", "healthcare:speciality": "dentist", "level": "3", "name": "Cabinet dentaire Dr Lina Attia", "opening_hours": "Mo-Fr 09:00-18:00", "phone": "+21623422232"}}, {"name": "Centre médical AHLEM", "latitude": 36.8272095, "longitude": 10.1200428, "source": "osm", "_tags": {"addr:city": "التحرير", "addr:postcode": "2000", "addr:street": "شارع المنجي سليم", "amenity": "hospital", "healthcare": "hospital", "name": "Centre médical AHLEM"}}, {"name": "مركز الصحة بحي إنسيم", "latitude": 36.8767262, "longitude": 10.1990583, "source": "osm", "_tags": {"addr:city": "ariana", "addr:postcode": "1001", "addr:street": "نهج جبران خليل جبران", "amenity": "hospital", "healthcare": "hospital", "name": "مركز الصحة بحي إنسيم", "name:aeb": "مركز الصحة بحي إنسيم", "name:fr": "centre de santé de base cité Nassim", "operator": "centre", "operator:type": "public"}}, {"name": "مستشفى الرازي", "latitude": 36.8108089, "longitude": 10.0830765, "source": "osm", "_tags": {"addr:city": "منوبة", "addr:country": "TN", "addr:governorate": "Manouba", "addr:housename": "Hôpital Razi", "addr:housenumber": "1", "addr:postcode": "2010", "addr:street": "نهج البرتقال", "amenity": "hospital", "barrier": "wall", "is_in:city": "Manouba", "is_in:country": "Tunisia", "is_in:governorate": "Manouba", "leisure": "garden", "name": "مستشفى الرازي", "name:ar": "مستشفى الرازي", "name:en": "AL RAZI Hospital", "name:fr": "Hôpital Razi", "wikidata": "Q30279976"}}, {"name": "مستشفى المنجي سليم", "latitude": 36.8670591, "longitude": 10.291253, "source": "osm", "_tags": {"amenity": "hospital", "emergency": "yes", "healthcare": "hospital", "healthcare:speciality": "surgery;paediatrics;radiology;psychiatry;internal_medicine;intensive_care;orthopaedics;trauma;rhumatology;acupuncture;gastroenterology;cardiology", "name": "مستشفى المنجي سليم", "name:ar": "مستشفى المنجي سليم", "name:en": "Hospital Mongi Slim", "name:fr": "CHU Mongi Slim", "wikidata": "Q12242626", "wikipedia": "ar:مستشفى المنجي سليم بالمرسى"}}, {"name": "مستشفى عزيزة عثمانة", "latitude": 36.7967248, "longitude": 10.1688067, "source": "osm", "_tags": {"amenity": "hospital", "healthcare": "hospital", "name": "مستشفى عزيزة عثمانة", "name:ar": "مستشفى عزيزة عثمانة", "name:fr": "Hôpital Aziza Othmana", "phone": "+216 71 151 300", "wikidata": "Q4027024", "wikimedia_commons": "Category:Hôpital Aziza Othmana"}}, {"name": "مستشفى شارل نيكول", "latitude": 36.8027158, "longitude": 10.1607361, "source": "osm", "_tags": {"addr:city": "تونس", "amenity": "hospital", "emergency": "yes", "healthcare": "hospital", "name": "مستشفى شارل نيكول", "name:ar": "مستشفى شارل نيكول", "name:en": "Charles Nicolle Hospital", "name:fr": "Hôpital Charles Nicolle", "wikidata": "Q3145149", "wikimedia_commons": "Category:Hôpital Charles Nicolle", "wikipedia": "ar:مستشفى شارل نيكول"}}, {"name": "مستشفى الرابطة", "latitude": 36.8022858, "longitude": 10.1550655, "source": "osm", "_tags": {"amenity": "hospital", "barrier": "wall", "name": "مستشفى الرابطة", "name:ar": "مستشفى الرابطة", "name:fr": "Hôpital La Rabta", "wikidata": "Q12242607"}}, {"name": "المستشفى العسكري الأصلي للتعليم بتونس", "latitude": 36.7859024, "longitude": 10.1785617, "source": "osm", "_tags": {"addr:city": "تونس", "addr:city:ar": "تونس", "amenity": "hospital", "name": "المستشفى العسكري الأصلي للتعليم بتونس", "name:ar": "المستشفى العسكري الأصلي للتعليم بتونس", "name:fr": "Hôpital Militaire Principal d'Instruction de Tunis", "opening_hours": "24/7", "phone": "+216 71 391 133", "website": "http://www.hopmil.defense.tn/", "wikidata": "Q16508249", "wikimedia_commons": "Category:Military hospital of Tunis", "wikipedia": "fr:Hôpital militaire de Tunis"}}, {"name": "مستشفى خير الدين", "latitude": 36.8291495, "longitude": 10.3156622, "source": "osm", "_tags": {"addr:city": "تونس", "addr:city:ar": "تونس", "amenity": "hospital", "name": "مستشفى خير الدين", "name:ar": "مستشفى خير الدين", "name:en": "Kheireddine Hospital", "name:fr": "Hôpital Kheireddine"}}, {"name": "Polyclinique Les Berges du Lac", "latitude": 36.8319366, "longitude": 10.2309188, "source": "osm", "_tags": {"addr:city": "Tunis-Les Berges du Lac", "addr:country": "TN", "addr:housename": "Polyclinique Les Berges du Lac", "addr:neighbourhood": "Les Berges du Lac", "addr:postcode": "1053", "addr:street": "Rue du Lac de Constance", "alt_name": "Clinique Les Berges du Lac", "amenity": "hospital", "email": "polyclinique.lac@gnet.tn", "fax": "+216 71 960 309", "name": "Polyclinique Les Berges du Lac", "name:fr": "Polyclinique Les Berges du Lac", "phone": "+216 71 960 000", "website": "http://www.polyclinique-lac.com/"}}, {"name": "المركز المندمج للشباب والطفولة بالخضراء", "latitude": 36.8299282, "longitude": 10.1922241, "source": "osm", "_tags": {"amenity": "hospital", "healthcare": "hospital", "name": "المركز المندمج للشباب والطفولة بالخضراء", "name:ar": "المركز المندمج للشباب والطفولة بالخضراء", "name:fr": "Centre d'Enfants Bourguiba"}}, {"name": "مصحة التوفيق", "latitude": 36.8319442, "longitude": 10.1557946, "source": "osm", "_tags": {"addr:city": "El Omrane", "addr:street": "Boulevard Mohamed Bouazizi", "alt_name": "Clinique Taoufik", "amenity": "hospital", "barrier": "fence", "name": "مصحة التوفيق", "name:ar": "مصحة التوفيق", "name:fr": "Polyclinique Taoufik", "phone": "+216 71 848 211"}}, {"name": "مركز الطب الرياضي", "latitude": 36.8407088, "longitude": 10.1914372, "source": "osm", "_tags": {"amenity": "hospital", "name": "مركز الطب الرياضي", "name:ar": "مركز الطب الرياضي", "name:fr": "Centre de Médecine du Sport"}}, {"name": "الصيدلية المركزية", "latitude": 36.83338, "longitude": 10.1812123, "source": "osm", "_tags": {"addr:city": "تونس", "addr:city:ar": "تونس", "amenity": "hospital", "healthcare": "hospital", "language:ar": "main", "name": "الصيدلية المركزية", "name:ar": "الصيدلية المركزية", "name:fr": "Pharmacie Centrale"}}, {"name": "المستشفى الجهوي برادس", "latitude": 36.7660492, "longitude": 10.2610136, "source": "osm", "_tags": {"amenity": "hospital", "healthcare": "hospital", "name": "المستشفى الجهوي برادس", "name:ar": "المستشفى الجهوي برادس", "name:fr": "Hôpital Régionale de Radès"}}, {"name": "مصحة المنار", "latitude": 36.8352462, "longitude": 10.1508853, "source": "osm", "_tags": {"addr:street": "Rue Habib Echatti", "amenity": "clinic", "building": "hospital", "fax": "+216 71 883 100", "healthcare": "hospital", "name": "مصحة المنار", "name:ar": "مصحة المنار", "name:en": "El Manar Clinic", "name:fr": "Clinique El Manar", "phone": "+216 71 885 000"}}, {"name": "Hôpital Ibn Nafis", "latitude": 36.8677531, "longitude": 10.1776358, "source": "osm", "_tags": {"amenity": "hospital", "barrier": "wall", "check_date": "2025-05-24", "name": "Hôpital Ibn Nafis"}}, {"name": "مستشفى محمود الماطري بأريانة", "latitude": 36.8678364, "longitude": 10.1829009, "source": "osm", "_tags": {"amenity": "hospital", "check_date": "2025-05-24", "name": "مستشفى محمود الماطري بأريانة", "name:ar": "مستشفى محمود الماطري بأريانة", "name:fr": "Hôpital Mahmoud El Matri"}}, {"name": "معهد باستور", "latitude": 36.8234552, "longitude": 10.1792225, "source": "osm", "_tags": {"addr:city": "تونس", "addr:city:ar": "تونس", "amenity": "hospital", "healthcare": "hospital", "name": "معهد باستور", "name:ar": "معهد باستور", "name:fr": "Institut Pasteur", "phone": "+216 71783 022", "website": "http://www.pasteur.tn/"}}, {"name": "", "latitude": 36.8426438, "longitude": 10.1655623, "source": "osm", "_tags": {"amenity": "hospital", "healthcare": "hospital", "name:fr": "Analyse centre masmoudi", "parking": "surface"}}, {"name": "", "latitude": 36.7693819, "longitude": 10.2325284, "source": "osm", "_tags": {"amenity": "hospital"}}, {"name": "Dispensaire Mégrine", "latitude": 36.7706414, "longitude": 10.2294866, "source": "osm", "_tags": {"amenity": "hospital", "name": "Dispensaire Mégrine"}}, {"name": "Polyclinique el Farabi", "latitude": 36.8482963, "longitude": 10.1678033, "source": "osm", "_tags": {"addr:city": "El Menzah VI", "addr:housenumber": "3", "addr:street": "Rue Zaghouani", "amenity": "hospital", "barrier": "wall", "check_date": "2025-05-25", "name": "Polyclinique el Farabi", "phone": "+216 71 750 500;+216 71 233 916"}}, {"name": "المستشفى الجامعي محمد الطاهر المعموري بنابل", "latitude": 36.4375334, "longitude": 10.6742811, "source": "osm", "_tags": {"addr:city": "نابل", "addr:city:ar": "نابل", "amenity": "hospital", "emergency": "yes", "healthcare": "hospital", "name": "المستشفى الجامعي محمد الطاهر المعموري بنابل", "name:ar": "المستشفى الجامعي محمد الطاهر المعموري بنابل", "name:fr": "Hôpital Régional Mohamed Taher Al Maamouri"}}, {"name": "Hôpital Ernest Conseil", "latitude": 36.8016946, "longitude": 10.1561283, "source": "osm", "_tags": {"amenity": "hospital", "building": "hospital", "healthcare": "hospital", "name": "Hôpital Ernest Conseil", "name:fr": "Hôpital Ernest Conseil"}}, {"name": "مستشفى الرابطة", "latitude": 36.8018656, "longitude": 10.1547409, "source": "osm", "_tags": {"amenity": "hospital", "building": "hospital", "name": "مستشفى الرابطة", "name:ar": "مستشفى الرابطة", "name:fr": "Hôpital La Rabta"}}, {"name": "مستشفى الرابطة", "latitude": 36.8021598, "longitude": 10.155596, "source": "osm", "_tags": {"amenity": "hospital", "building": "hospital", "healthcare": "hospital", "name": "مستشفى الرابطة", "name:ar": "مستشفى الرابطة", "name:fr": "Hôpital La Rabta"}}, {"name": "المعهد الوطني لأمراض الأعصاب", "latitude": 36.801038, "longitude": 10.1582164, "source": "osm", "_tags": {"amenity": "hospital", "building": "yes", "name": "المعهد الوطني لأمراض الأعصاب", "name:ar": "المعهد الوطني لأمراض الأعصاب", "name:fr": "Institut National de Neurobiologie"}}, {"name": "المعهد الوطني لأمراض الأعصاب", "latitude": 36.8055521, "longitude": 10.1569961, "source": "osm", "_tags": {"amenity": "hospital", "building": "yes", "name": "المعهد الوطني لأمراض الأعصاب", "name:ar": "المعهد الوطني لأمراض الأعصاب", "name:fr": "Centre Institut de l'Imagerie par Résonance Magnétique (IRM)"}}, {"name": "مستشفى الأطفال", "latitude": 36.806653, "longitude": 10.1589847, "source": "osm", "_tags": {"addr:city": "تونس", "addr:city:ar": "تونس", "amenity": "hospital", "building": "yes", "emergency": "yes", "healthcare": "hospital", "healthcare:speciality": "paediatrics;surgery_perdiatric;pediatric_reanimation", "language:ar": "main", "name": "مستشفى الأطفال", "name:ar": "مستشفى الأطفال", "name:fr": "Hôpital d'Enfants", "official_name": "مستشفى البشير حمزة للأطفال", "official_name:ar": "مستشفى البشير حمزة للأطفال", "wikidata": "Q12242590", "wikimedia_commons": "Category:Hôpital Béchir Hamza", "wikipedia": "ar:مستشفى البشير حمزة للأطفال", "wikipedia:ar": "مستشفى البشير حمزة للأطفال"}}, {"name": "معهد الهادي الرايس لأمراض العيون", "latitude": 36.8063091, "longitude": 10.1598061, "source": "osm", "_tags": {"addr:city": "Tunis", "addr:postcode": "1006", "addr:street": "شارع 9 أفريل 1938", "addr:street:ar": "شارع 9 أفريل 1938", "addr:street:fr": "Boulevard 9 Avril 1938", "amenity": "hospital", "building": "yes", "name": "معهد الهادي الرايس لأمراض العيون", "name:ar": "معهد الهادي الرايس لأمراض العيون", "name:fr": "Institut Hedi Raies D'ophtalmologie", "phone": "+216 71 263 701", "wheelchair": "yes", "wikidata": "Q12244333", "wikipedia": "ar:معهد الهادي الرايس لأمراض العيون"}}, {"name": "معهد صالح عزيز", "latitude": 36.8071912, "longitude": 10.1583476, "source": "osm", "_tags": {"addr:city": "تونس", "addr:city:ar": "تونس", "amenity": "hospital", "building": "yes", "healthcare": "hospital", "name": "معهد صالح عزيز", "name:ar": "معهد صالح عزيز", "name:fr": "Institut Salah-Azaïz", "website": "https://www.institutsalahazaiez.com", "wikidata": "Q3151812", "wikipedia": "ar:معهد صالح عزيز", "wikipedia:ar": "معهد صالح عزيز"}}, {"name": "Hannibal Medical Center", "latitude": 36.8455508, "longitude": 10.2846667, "source": "osm", "_tags": {"amenity": "hospital", "building": "yes", "name": "Hannibal Medical Center"}}, {"name": "Hospital des Forces de Securité Interieures (F.S.I)", "latitude": 36.8791068, "longitude": 10.3250055, "source": "osm", "_tags": {"amenity": "hospital", "name": "Hospital des Forces de Securité Interieures (F.S.I)", "name:fr": "Hôpital des Forces de Securité Interieures (F.S.I)"}}, {"name": "Hôpital Circonscription Fattouma Limam - Menzel Bouzelfa", "latitude": 36.6912844, "longitude": 10.5885509, "source": "osm", "_tags": {"addr:postcode": "8010", "addr:street": "Rue Mongi Slim", "amenity": "hospital", "barrier": "wall", "fax": "+216 72 292 593", "healthcare": "hospital", "name": "Hôpital Circonscription Fattouma Limam - Menzel Bouzelfa", "phone": "+216 72 292 091"}}, {"name": "المستشفى المحلي حسان بلخوجة براس الجبل", "latitude": 37.2107996, "longitude": 10.1251345, "source": "osm", "_tags": {"addr:city": "Ras Jebel", "addr:postcode": "7070", "amenity": "hospital", "check_date": "2024-11-02", "emergency": "yes", "name": "المستشفى المحلي حسان بلخوجة براس الجبل", "name:ar": "المستشفى المحلي حسان بلخوجة براس الجبل", "name:fr": "Hôpital Hassen Belkhouja de Ras Jebel", "phone": "+216 72 449 299", "wheelchair": "yes"}}, {"name": "Hôpital de Nabeul", "latitude": 36.4536442, "longitude": 10.7317892, "source": "osm", "_tags": {"amenity": "hospital", "barrier": "wall", "emergency": "yes", "name": "Hôpital de Nabeul"}}, {"name": "", "latitude": 36.7643555, "longitude": 10.2238955, "source": "osm", "_tags": {"amenity": "hospital", "barrier": "wall", "healthcare": "hospital"}}, {"name": "مصحة المنار", "latitude": 36.8352984, "longitude": 10.151085, "source": "osm", "_tags": {"amenity": "hospital", "healthcare": "hospital", "name": "مصحة المنار", "name:ar": "مصحة المنار", "name:en": "Elmanar", "name:fr": "Elmanara"}}, {"name": "المستشفى الجهوي ببن عروس", "latitude": 36.7325259, "longitude": 10.2478009, "source": "osm", "_tags": {"addr:city": "Nouvelle Médina", "addr:postcode": "2063", "addr:street": "Route de Mornag", "amenity": "hospital", "emergency": "yes", "healthcare": "hospital", "name": "المستشفى الجهوي ببن عروس", "name:ar": "المستشفى الجهوي ببن عروس", "name:fr": "Hôpital Régional de Ben Arous", "operator": "Ministère de la Santé publique", "operator:type": "public"}}, {"name": "مستشفى التّضامن", "latitude": 36.8329352, "longitude": 10.0966626, "source": "osm", "_tags": {"addr:city": "ariana", "addr:postcode": "2041", "addr:street": "Avenue des Martyrs", "amenity": "hospital", "name": "مستشفى التّضامن", "name:ar": "مستشفى التّضامن", "name:fr": "Hopital Etadhamen"}}, {"name": "مستشفى الدندان", "latitude": 36.8018822, "longitude": 10.1101233, "source": "osm", "_tags": {"addr:city": "الدندان", "amenity": "hospital", "healthcare": "hospital", "name": "مستشفى الدندان", "name:ar": "مستشفى الدندان", "name:fr": "Hôpital Den Den"}}, {"name": "مستشفى قربة", "latitude": 36.5699301, "longitude": 10.8536811, "source": "osm", "_tags": {"addr:city": "قربة", "amenity": "hospital", "healthcare": "hospital", "name": "مستشفى قربة", "name:ar": "مستشفى قربة", "name:fr": "Hôpital de Korba"}}, {"name": "", "latitude": 36.9000249, "longitude": 10.1912732, "source": "osm", "_tags": {"amenity": "hospital"}}, {"name": "مصحة باستور", "latitude": 36.8492, "longitude": 10.1986852, "source": "osm", "_tags": {"addr:street": "الشرقية 1", "amenity": "hospital", "building": "hospital", "height": "32", "name": "مصحة باستور", "name:ar": "مصحة باستور", "name:en": "Clinic Pasteur", "name:fr": "Pasteur;Polyclinique pasteur"}}, {"name": "المركز العلاجي الوسيط لامروج 2", "latitude": 36.7419579, "longitude": 10.1970051, "source": "osm", "_tags": {"amenity": "hospital", "building": "hospital", "name": "المركز العلاجي الوسيط لامروج 2", "name:ar": "المركز العلاجي الوسيط لامروج 2", "name:fr": "Hopital intermediaire Mourouj 2"}}, {"name": "مستوصف", "latitude": 36.7452458, "longitude": 10.3066013, "source": "osm", "_tags": {"addr:city": "الزهراء", "addr:city:ar": "الزهراء", "addr:postcode": "2034", "addr:street": "شارع الحبيب بورقيبة", "addr:street:ar": "شارع الحبيب بورقيبة", "building": "yes", "healthcare": "hospital", "healthcare:speciality": "general", "name": "مستوصف", "name:ar": "مستوصف", "name:fr": "Dispensaire", "operator": "L'État"}}, {"name": "صيدلية الليل", "latitude": 36.824732, "longitude": 10.1395882, "source": "osm", "_tags": {"addr:city": "تونس", "addr:city:ar": "تونس", "addr:street": "شارع ابن الخطيب", "amenity": "hospital", "healthcare": "hospital", "name": "صيدلية الليل", "name:ar": "صيدلية الليل", "name:fr": "Pharmacie de nuit"}}, {"name": "صيدلية اليوم", "latitude": 36.8249191, "longitude": 10.1394206, "source": "osm", "_tags": {"addr:city": "تونس", "addr:city:ar": "تونس", "addr:street": "شارع ابن الخطيب", "amenity": "hospital", "healthcare": "hospital", "name": "صيدلية اليوم", "name:ar": "صيدلية اليوم", "name:fr": "Pharmacie du jour"}}, {"name": "centre de santé de base", "latitude": 36.8313162, "longitude": 10.0912749, "source": "osm", "_tags": {"amenity": "hospital", "name": "centre de santé de base", "operator": ""}}, {"name": "centre de santé de base", "latitude": 36.8314124, "longitude": 10.0914279, "source": "osm", "_tags": {"amenity": "hospital", "name": "centre de santé de base", "operator": ""}}, {"name": "Clinique Amen Nabeul", "latitude": 36.4451761, "longitude": 10.7151305, "source": "osm", "_tags": {"addr:city": "Nabeul", "addr:street": "Avenue Hédi Nouira", "amenity": "clinic", "healthcare": "hospital", "name": "Clinique Amen Nabeul", "phone": "+216 70 130 320"}}, {"name": "مستشفى حبيب ثامر", "latitude": 36.7862613, "longitude": 10.1771182, "source": "osm", "_tags": {"addr:street": "Rue Ali Ben Ayed", "amenity": "hospital", "healthcare": "hospital", "name": "مستشفى حبيب ثامر", "name:ar": "مستشفى حبيب ثامر", "name:fr": "Hôpital Habib Thameur", "phone": "+216 71 492 773", "wikidata": "Q12242598", "wikimedia_commons": "Category:Hôpital Habib Thameur"}}, {"name": "Polyclinique El Hakim", "latitude": 36.5542034, "longitude": 10.8477558, "source": "osm", "_tags": {"amenity": "hospital", "healthcare": "hospital", "name": "Polyclinique El Hakim"}}, {"name": "مركز الإصابات والحروق البليغة", "latitude": 36.7473178, "longitude": 10.2142892, "source": "osm", "_tags": {"addr:city": "Ben Arous", "addr:postcode": "2013", "addr:street": "Rue du 1er Mai", "alt_name": "Hôpital Mohamed Bouazizi", "amenity": "hospital", "emergency": "yes", "healthcare": "hospital", "healthcare:speciality": "intensive;emergency;dermatology", "name": "مركز الإصابات والحروق البليغة", "name:ar": "مركز الإصابات والحروق البليغة", "name:fr": "Centre de traumatologie et des grands brûlés", "operator": "Ministère de la Santé publique", "operator:type": "public", "source:alt_name": "Wikipedia", "wikidata": "Q4026962", "wikipedia": "fr:Centre de traumatologie et des grands brûlés"}}, {"name": "SOS Animaux Tunisie", "latitude": 36.4835872, "longitude": 10.6998327, "source": "osm", "_tags": {"amenity": "hospital", "healthcare": "hospital", "name": "SOS Animaux Tunisie"}}, {"name": "", "latitude": 36.5949325, "longitude": 10.4951381, "source": "osm", "_tags": {"addr:city": "Grombalia", "addr:street": "Avenue Farhat Hached", "amenity": "hospital", "healthcare": "hospital", "name:fr": "Hôpital Régional de Grombalia", "operator": "Ministère de la Santé publique", "operator:type": "public", "phone": "+216 72 255 212"}}, {"name": "Hôpital de Soliman", "latitude": 36.7097823, "longitude": 10.4813737, "source": "osm", "_tags": {"amenity": "hospital", "healthcare": "hospital", "name": "Hôpital de Soliman", "name:fr": "Hôpital de Soliman"}}, {"name": "Polyclinique Hammam-Lif", "latitude": 36.7260173, "longitude": 10.3405286, "source": "osm", "_tags": {"amenity": "hospital", "healthcare": "hospital", "name": "Polyclinique Hammam-Lif"}}, {"name": "مستوصف دار شعبان الفهري البلدي", "latitude": 36.4680101, "longitude": 10.7472208, "source": "osm", "_tags": {"amenity": "hospital", "barrier": "wall", "emergency": "no", "healthcare": "hospital", "name": "مستوصف دار شعبان الفهري البلدي", "name:ar": "مستوصف دار شعبان الفهري البلدي", "name:fr": "Hôpital Municipal Dar Chaabane Al Fehri"}}, {"name": "", "latitude": 36.8695849, "longitude": 10.1777869, "source": "osm", "_tags": {"amenity": "hospital", "healthcare": "hospital"}}, {"name": "", "latitude": 36.4660717, "longitude": 10.8083804, "source": "osm", "_tags": {"amenity": "hospital", "healthcare": "hospital"}}, {"name": "مركز رعاية الأم و الطفل بالملاسين", "latitude": 36.7900618, "longitude": 10.162069, "source": "osm", "_tags": {"amenity": "hospital", "healthcare": "hospital", "name": "مركز رعاية الأم و الطفل بالملاسين", "name:ar": "مركز رعاية الأم و الطفل بالملاسين", "name:fr": "Centre de protection maternelle et infantile Mellassine"}}, {"name": "مركز الصحة الأساسية بحي هلال", "latitude": 36.781654, "longitude": 10.1685527, "source": "osm", "_tags": {"amenity": "hospital", "healthcare": "hospital", "name": "مركز الصحة الأساسية بحي هلال", "name:ar": "مركز الصحة الأساسية بحي هلال", "name:fr": "Centre de santé de base Hay Hlel"}}, {"name": "Complex Sanitary Djebel Ouest", "latitude": 36.5365183, "longitude": 10.0694528, "source": "osm", "_tags": {"amenity": "hospital", "healthcare": "hospital", "name": "Complex Sanitary Djebel Ouest"}}, {"name": "centre hospitalier cite Nassime", "latitude": 36.8767268, "longitude": 10.199058, "source": "osm", "_tags": {"addr:city": "ariana", "addr:postcode": "1001", "addr:street": "نهج جبران خليل جبران", "amenity": "hospital", "healthcare": "hospital", "healthcare:speciality": "community", "name": "centre hospitalier cite Nassime", "operator": "centre", "operator:type": "public"}}, {"name": "Hopital Militaire", "latitude": 36.7855881, "longitude": 10.1781067, "source": "osm", "_tags": {"amenity": "hospital", "healthcare": "hospital", "name": "Hopital Militaire", "type": "multipolygon"}}, {"name": "المركز الوطني للزرع النخاع العظمي", "latitude": 36.8051039, "longitude": 10.1566976, "source": "osm", "_tags": {"amenity": "hospital", "building": "yes", "name": "المركز الوطني للزرع النخاع العظمي", "name:ar": "المركز الوطني للزرع النخاع العظمي", "name:fr": "Centre National de Greffe de Moelle Osseuse", "type": "multipolygon", "wikidata": "Q28961109"}}, {"name": "معهد محمد القصاب للجبر وتقويم الأعضاء", "latitude": 36.8139135, "longitude": 10.1030165, "source": "osm", "_tags": {"amenity": "hospital", "barrier": "wall", "emergency": "yes", "healthcare": "hospital", "healthcare:speciality": "orthopaedics;hand_surgery;plastic_surgery;anaesthetics;cosmetic_surgery;trauma;physiotherapy;rhumatology;radiology;diagnostic_radiology;intensive_care", "name": "معهد محمد القصاب للجبر وتقويم الأعضاء", "name:ar": "معهد محمد القصاب للجبر وتقويم الأعضاء", "name:fr": "Institut \"Mohamed T. Kassab\" d'Orthopedie", "operator": "Ministère de la santé", "type": "multipolygon", "wikidata": "Q12244357"}}, {"name": "مركز الصحة الاساسية بفوشانة", "latitude": 36.6973566, "longitude": 10.1696969, "source": "osm", "_tags": {"amenity": "hospital", "healthcare": "hospital", "name": "مركز الصحة الاساسية بفوشانة", "name:ar": "مركز الصحة الاساسية بفوشانة", "name:fr": "Hôpital régional de fouchana", "type": "multipolygon"}}, {"name": "عمادة أطباء الأسنان بتونس", "latitude": 36.7970581, "longitude": 10.1814537, "source": "osm", "_tags": {"addr:city": "تونس", "amenity": "hospital", "email": "cnomdt@gmail.com", "healthcare": "hospital", "height": "25'", "name": "عمادة أطباء الأسنان بتونس", "name:ar": "عمادة أطباء الأسنان بتونس", "name:fr": "Ordre des Médecins Dentistes de Tunisie", "phone": "0021671353638", "type": "multipolygon", "website": "https://www.cnomdt.tn/"}}]