[{"name": "", "latitude": 36.8993321, "longitude": 25.9771257, "source": "osm", "_tags": {"amenity": "hospital", "healthcare": "hospital"}}, {"name": "νοσοκομειο πατμου", "latitude": 37.316453, "longitude": 26.5426218, "source": "osm", "_tags": {"amenity": "hospital", "healthcare": "hospital", "name": "νοσοκομειο πατμου", "name:de": "Patmos Health Center", "name:en": "Patmos Health Center"}}, {"name": "", "latitude": 36.550823, "longitude": 26.3528784, "source": "osm", "_tags": {"amenity": "hospital", "healthcare": "hospital"}}, {"name": "Κέντρο Υγείας Λέρου", "latitude": 37.1333, "longitude": 26.8479314, "source": "osm", "_tags": {"amenity": "hospital", "full_name": "Κρατικό Θεραπευτήριο - Γενικό Νοσοκομείο - Κέντρο Υγείας Λέρου", "healthcare": "hospital", "name": "Κέντρο Υγείας Λέρου", "name:el": "Κέντρο Υγείας Λέρου", "name:en": "Leros Health Center", "wikidata": "Q112287117"}}, {"name": "", "latitude": 37.2960079, "longitude": 26.7705564, "source": "osm", "_tags": {"amenity": "hospital", "healthcare": "hospital"}}]