[{"name": "Bodrum Amerikan Hastanesi", "latitude": 37.0399394, "longitude": 27.4289622, "source": "osm", "_tags": {"amenity": "hospital", "healthcare": "hospital", "name": "Bodrum Amerikan Hastanesi"}}, {"name": "Hastane", "latitude": 37.3542553, "longitude": 27.2682281, "source": "osm", "_tags": {"amenity": "hospital", "healthcare": "hospital", "name": "Hastane"}}, {"name": "HIPPOCRATES KOS HOSPITAL", "latitude": 36.8922438, "longitude": 27.2914935, "source": "osm", "_tags": {"addr:postcode": "85300", "addr:street": "Ελευθερίου Βενιζέλου", "amenity": "hospital", "healthcare": "hospital", "name": "HIPPOCRATES KOS HOSPITAL", "name:el": "ΙΠΠΟΚΡΑΤΗΣ ΝΟΣΟΚΟΜΕΙΟ ΚΩΣ", "phone": "0030 2242 360321"}}, {"name": "Bodrum Tıp", "latitude": 37.033254, "longitude": 27.4395875, "source": "osm", "_tags": {"addr:city": "Muğla", "addr:district": "Bodrum", "addr:neighbourhood": "Umurça", "addr:street": "Dr. Mümtaz Ataman Caddesi", "amenity": "hospital", "emergency": "no", "healthcare": "hospital", "name": "Bodrum Tıp", "operator:type": "public"}}, {"name": "Dent Halikarnas", "latitude": 37.0520661, "longitude": 27.3818046, "source": "osm", "_tags": {"addr:city": "Muğla", "addr:district": "Bodrum", "addr:housenumber": "No:203 C/1", "addr:neighbourhood": "Konacık", "addr:street": "Atatürk Bulvarı", "amenity": "hospital", "emergency": "no", "healthcare": "hospital", "healthcare:speciality": "dentist", "name": "Dent Halikarnas", "operator": "Dent Halikarnas", "operator:type": "public"}}, {"name": "Didim İlçe Devlet Hastanesi", "latitude": 37.3712946, "longitude": 27.2760795, "source": "osm", "_tags": {"addr:city": "Didim/Aydın", "amenity": "hospital", "emergency": "yes", "healthcare": "hospital", "name": "Didim İlçe Devlet Hastanesi", "operator": "Sağlık Bakanlığı", "operator:wikidata": "Q4294365", "operator:wikipedia": "tr:Türkiye Cumhuriyeti Sağlık Bakanlığı"}}, {"name": "Eski Bodrum Devlet Hastanesi", "latitude": 37.0455395, "longitude": 27.4264545, "source": "osm", "_tags": {"building": "hospital", "healthcare": "hospital", "name": "Eski Bodrum Devlet Hastanesi"}}, {"name": "Özel İzan Sağlık Hastanesi", "latitude": 37.3075056, "longitude": 27.7815962, "source": "osm", "_tags": {"addr:city": "Milas", "addr:district": "Muğla", "addr:housenumber": "21", "addr:neighbourhood": "Ahmet Çavuş Hayıtlı Mah.", "addr:postcode": "48200", "addr:street": "Atatürk Blv.", "amenity": "hospital", "emergency": "yes", "healthcare": "hospital", "name": "Özel İzan Sağlık Hastanesi"}}, {"name": "75. Yıl Milas Devlet Hastanesi", "latitude": 37.3330532, "longitude": 27.7623545, "source": "osm", "_tags": {"addr:city": "Milas", "addr:district": "Muğla", "addr:neighbourhood": "Bahçeburun Mah.", "addr:postcode": "48160", "addr:street": "75. Yıl Hastane Cad.", "amenity": "hospital", "emergency": "yes", "healthcare": "hospital", "name": "75. Yıl Milas Devlet Hastanesi"}}, {"name": "Κέντρο Υγείας Καλύμνου \"ΤΟ ΒΟΥΒΑΛΕΙΟ\"", "latitude": 36.9572127, "longitude": 26.9725622, "source": "osm", "_tags": {"amenity": "hospital", "healthcare": "hospital", "name": "Κέντρο Υγείας Καλύμνου \"ΤΟ ΒΟΥΒΑΛΕΙΟ\"", "name:el": "Κέντρο Υγείας Καλύμνου \"ΤΟ ΒΟΥΒΑΛΕΙΟ\"", "name:en": "Kalymnos Health Center \"Vouvaleio\"", "wikidata": "Q112286331"}}, {"name": "Bodrum Devlet Hastahanesi", "latitude": 37.05757, "longitude": 27.3664777, "source": "osm", "_tags": {"addr:city": "Muğla", "addr:district": "Bodrum", "amenity": "hospital", "emergency": "yes", "healthcare": "hospital", "name": "Bodrum Devlet Hastahanesi", "name:en": "Bodrum State Hospital", "phone": "+90 252 313 14 20", "website": "https://bodrumdh.saglik.gov.tr/"}}, {"name": "Datça Devlet Hastanesi", "latitude": 36.7436269, "longitude": 27.6702827, "source": "osm", "_tags": {"addr:city": "Muğla", "addr:district": "Datça", "addr:neighbourhood": "Datça Mah.", "amenity": "hospital", "emergency": "yes", "healthcare": "hospital", "name": "Datça Devlet Hastanesi", "operator": "Sağlık Bakanlığı", "operator:wikidata": "Q4294365", "phone": "+90 252 712 3082", "website": "https://datcadh.saglik.gov.tr/"}}]