[{"name": "Hospital Doctor López Cano", "latitude": 36.5019728, "longitude": -6.2734749, "source": "osm", "_tags": {"addr:street": "Plaza de Madrid", "amenity": "hospital", "check_date": "2025-08-09", "email": "info@gmlopezcano.com", "healthcare": "hospital", "name": "Hospital Doctor López Cano", "nohousenumber": "yes", "phone": "+34 956 20 58 54;+34 956 20 58 55", "website": "https://www.gmlopezcano.com"}}, {"name": "Hospital San Carlos", "latitude": 36.4799527, "longitude": -6.1950774, "source": "osm", "_tags": {"addr:city": "San Fernando", "addr:housenumber": "2", "addr:postcode": "11100", "addr:street": "Calle Juan Sebastián Elcano", "amenity": "hospital", "building": "yes", "emergency": "yes", "healthcare": "hospital", "name": "Hospital San Carlos", "network": "Servicio Andaluz de Salud", "network:short": "SAS", "operator": "Servicio Andaluz de Salud", "operator:short": "SAS", "operator:type": "public", "operator:wikidata": "Q4753529", "website": "https://www.sspa.juntadeandalucia.es/servicioandaluzdesalud/el-sas/servicios-y-centros/informacion-por-centros/31415"}}, {"name": "U.S. Naval Hospital - Rota, Spain", "latitude": 36.6343787, "longitude": -6.3507401, "source": "osm", "_tags": {"addr:city": "Rota", "amenity": "hospital", "contact:fax": "+34 956 82 33 06", "contact:phone": "+34 956 82 33 05", "contact:website": "http://www.med.navy.mil/sites/nhrota/", "healthcare": "hospital", "name": "U.S. Naval Hospital - Rota, Spain"}}, {"name": "Hospital de Jerez", "latitude": 36.699046, "longitude": -6.1490564, "source": "osm", "_tags": {"amenity": "hospital", "emergency": "yes", "healthcare": "hospital", "name": "Hospital de Jerez", "network": "Servicio Andaluz de Salud", "network:short": "SAS", "operator": "Servicio Andaluz de Salud", "operator:type": "public"}}, {"name": "Hospital Virgen del Camino", "latitude": 36.7680432, "longitude": -6.3600674, "source": "osm", "_tags": {"amenity": "hospital", "building": "yes", "emergency": "yes", "healthcare": "hospital", "name": "Hospital Virgen del Camino", "phone": "+34 956 048 000", "wikidata": "Q87829744"}}, {"name": "Hospital de Santa María del Puerto", "latitude": 36.5982369, "longitude": -6.2379934, "source": "osm", "_tags": {"addr:street": "Avenida de La Libertad", "amenity": "hospital", "building": "yes", "check_date": "2024-07-02", "emergency": "yes", "healthcare": "hospital", "layer": "1", "name": "Hospital de Santa María del Puerto", "phone": "+34 956017000", "website": "https://www.josemanuelpascualpascual.es/index.php/nuestros-hospitales/hospital-santa-maria-del-puerto", "wikidata": "Q87761677"}}, {"name": "Hospital San Juan de Dios del Aljarafe", "latitude": 37.373265, "longitude": -6.0835225, "source": "osm", "_tags": {"addr:city": "Bormujos", "addr:postcode": "41930", "addr:street": "Calle Averroes", "amenity": "hospital", "emergency": "yes", "healthcare": "hospital", "name": "Hospital San Juan de Dios del Aljarafe", "operator:type": "public", "phone": "+34 955 050 550", "website": "https://www.hsjda.es/"}}, {"name": "Hospital San Juan Grande", "latitude": 36.6914571, "longitude": -6.149534, "source": "osm", "_tags": {"addr:city": "Jerez", "addr:housenumber": "1", "addr:street": "Glorieta Félix Rodríguez de la Fuente", "amenity": "hospital", "emergency": "yes", "healthcare": "hospital", "name": "Hospital San Juan Grande", "operator": "Orden de San Juan de Dios", "website": "http://www.hospitalsanjuangrande.es/", "wikidata": "Q87761673"}}, {"name": "Hospital Vázquez Díaz", "latitude": 37.2795872, "longitude": -6.9211327, "source": "osm", "_tags": {"amenity": "hospital", "healthcare": "hospital", "name": "Hospital Vázquez Díaz", "phone": "+34 959014620", "wikidata": "Q87761885"}}, {"name": "Centro Hospitalario de Alta Resolución de Lebrija", "latitude": 36.9105319, "longitude": -6.0723078, "source": "osm", "_tags": {"addr:city": "Lebrija", "addr:postcode": "41570", "addr:street": "Avenida El Cuervo", "amenity": "hospital", "emergency": "yes", "healthcare": "hospital", "name": "Centro Hospitalario de Alta Resolución de Lebrija", "operator:type": "public"}}, {"name": "Cruz Roja", "latitude": 37.2044207, "longitude": -7.0281344, "source": "osm", "_tags": {"amenity": "hospital", "building": "yes", "building:levels": "1", "emergency": "lifeguard", "healthcare": "hospital", "lifeguard": "base", "name": "Cruz Roja", "operator": "Cruz Roja", "operator:wikidata": "Q7178", "operator:wikipedia": "es:Cruz Roja"}}, {"name": "Hospital Sanyres Aljaraque", "latitude": 37.2861441, "longitude": -7.0047258, "source": "osm", "_tags": {"amenity": "hospital", "name": "Hospital Sanyres Aljaraque"}}, {"name": "Cruz Roja", "latitude": 37.2137047, "longitude": -6.939598, "source": "osm", "_tags": {"building": "yes", "emergency": "ambulance_station", "healthcare": "hospital", "name": "Cruz Roja", "office": "ngo"}}, {"name": "Hospital NISA Aljarafe", "latitude": 37.392339, "longitude": -6.0618728, "source": "osm", "_tags": {"access": "private", "addr:city": "Castilleja de la Cuesta", "addr:postcode": "41950", "addr:street": "Avenida Plácido Fernández Viagas", "amenity": "hospital", "emergency": "yes", "healthcare": "hospital", "name": "Hospital NISA Aljarafe", "operator": "Vithas", "wikidata": "Q87762522"}}, {"name": "Urgencias hospital San Carlos", "latitude": 36.4802935, "longitude": -6.1954057, "source": "osm", "_tags": {"amenity": "hospital", "building": "yes", "emergency": "yes", "healthcare": "hospital", "layer": "1", "name": "Urgencias hospital San Carlos", "operator": "Junta de Andalucía", "operator:type": "public", "website": "https://www.sspa.juntadeandalucia.es/servicioandaluzdesalud/el-sas/servicios-y-centros/informacion-por-centros/31415", "wikidata": "Q3277335", "wikipedia": "es:Hospital Militar de San Carlos"}}, {"name": "Hospital Juan Ramón Jiménez", "latitude": 37.2797496, "longitude": -6.9264569, "source": "osm", "_tags": {"addr:city": "Huelva", "addr:postcode": "21005", "addr:street": "Ronda Exterior Norte", "amenity": "hospital", "emergency": "yes", "healthcare": "hospital", "healthcare:speciality": "psychiatry;orthopaedics;gynaecology;emergency;maternity;surgery;cardiology;oncology;dermatology", "name": "Hospital Juan Ramón Jiménez", "network": "Servicio Andaluz de Salud", "network:short": "SAS", "nohousenumber": "yes", "operator:type": "public", "phone": "+34 959 01 60 00", "start_date": "1993", "wikidata": "Q30280284"}}, {"name": "Hospital Infanta Elena", "latitude": 37.2804383, "longitude": -6.9123998, "source": "osm", "_tags": {"amenity": "hospital", "emergency": "yes", "healthcare": "hospital", "name": "Hospital Infanta Elena", "network": "Servicio Andaluz de Salud", "network:short": "SAS", "operator:type": "public", "phone": "+34 959 01 51 00", "website": "https://www.hospital-infantaelena.es/", "wikidata": "Q87828386"}}, {"name": "Hospital Universitario de Puerto Real", "latitude": 36.5202058, "longitude": -6.1518123, "source": "osm", "_tags": {"addr:street": "Autovía del Sur", "amenity": "hospital", "emergency": "yes", "healthcare": "hospital", "name": "Hospital Universitario de Puerto Real", "network": "Servicio Andaluz de Salud", "network:short": "SAS", "operator": "Servicio Andaluz de Salud", "operator:type": "public", "wikidata": "Q5902963", "wikipedia": "es:Hospital Universitario Puerto Real"}}, {"name": "Hospital Universitario Puerta del Mar", "latitude": 36.5090481, "longitude": -6.2778596, "source": "osm", "_tags": {"addr:city": "Cádiz", "addr:housenumber": "21", "addr:postcode": "11009", "addr:street": "Avenida Ana de Viya", "amenity": "hospital", "emergency": "yes", "healthcare": "hospital", "name": "Hospital Universitario Puerta del Mar", "network": "Servicio Andaluz de Salud", "network:short": "SAS", "operator": "Servicio Andaluz de Salud", "operator:short": "SAS", "operator:type": "public", "operator:wikidata": "Q4753529", "phone": "+34 956002040", "wheelchair": "yes", "wikidata": "Q5489257"}}, {"name": "", "latitude": 36.6735646, "longitude": -6.1123493, "source": "osm", "_tags": {"amenity": "hospital", "healthcare": "hospital"}}, {"name": "Cruz Roja", "latitude": 36.7351937, "longitude": -6.43976, "source": "osm", "_tags": {"amenity": "hospital", "brand": "Cruz Roja Española", "brand:wikidata": "Q5792382", "emergency": "ambulance_station", "healthcare": "hospital", "name": "Cruz Roja", "operator": "Cruz Roja", "operator:type": "ngo", "operator:wikidata": "Q7178"}}, {"name": "", "latitude": 36.6346593, "longitude": -6.3506742, "source": "osm", "_tags": {"addr:city": "Rota", "amenity": "hospital", "building": "hospital", "healthcare": "hospital", "type": "multipolygon", "website": "https://rota.tricare.mil/"}}, {"name": "Clínica San Rafael", "latitude": 36.5331489, "longitude": -6.3024607, "source": "osm", "_tags": {"amenity": "hospital", "building": "yes", "emergency": "yes", "healthcare": "hospital", "name": "Clínica San Rafael", "type": "multipolygon", "website": "http://www.josemanuelpascualpascual.com/index.php?option=com_content&view=article&id=29&Itemid=23&lang=en"}}]