[{"name": "Casa di cura Villa Aurelia", "latitude": 37.1010465, "longitude": 15.2689633, "source": "osm", "_tags": {"amenity": "hospital", "healthcare": "hospital", "name": "Casa di cura Villa Aurelia"}}, {"name": "Presidi Ospedalieri Umberto I e Alessandro Rizza - ospedale Alessandro Rizza", "latitude": 37.0829344, "longitude": 15.2705005, "source": "osm", "_tags": {"amenity": "hospital", "emergency": "no", "name": "Presidi Ospedalieri Umberto I e Alessandro Rizza - ospedale Alessandro Rizza", "operator": "Azienda Sanitaria Provinciale di Siracusa", "phone": "+39 0931 724111", "short_name": "Ospedale Alessandro Rizza"}}, {"name": "Presidi Ospedalieri Umberto I e Alessandro Rizza - ospedale Umberto I", "latitude": 37.0738474, "longitude": 15.2830275, "source": "osm", "_tags": {"amenity": "hospital", "emergency": "yes", "healthcare": "hospital", "name": "Presidi Ospedalieri Umberto I e Alessandro Rizza - ospedale Umberto I", "operator": "Azienda Sanitaria Provinciale di Siracusa", "phone": "+39 0931 724111", "short_name": "Ospedale Umberto I"}}, {"name": "Ospedale Unico Avola-Noto - presidio Giuseppe Di Maria", "latitude": 36.9265804, "longitude": 15.1584524, "source": "osm", "_tags": {"amenity": "hospital", "emergency": "yes", "name": "Ospedale Unico Avola-Noto - presidio Giuseppe Di Maria", "operator": "Azienda Sanitaria Provinciale di Siracusa", "phone": "+39 0931 582111", "short_name": "Ospedale Di Maria"}}, {"name": "Casa di cura Santa Lucia", "latitude": 37.0803662, "longitude": 15.2978999, "source": "osm", "_tags": {"amenity": "hospital", "healthcare": "hospital", "name": "Casa di cura Santa Lucia"}}, {"name": "Casa di cura Villa Azzurra", "latitude": 37.1019912, "longitude": 15.2688324, "source": "osm", "_tags": {"amenity": "hospital", "healthcare": "hospital", "name": "Casa di cura Villa Azzurra"}}, {"name": "Casa di cura Villa Mauritius", "latitude": 37.10048, "longitude": 15.2695207, "source": "osm", "_tags": {"amenity": "hospital", "healthcare": "hospital", "name": "Casa di cura Villa Mauritius"}}, {"name": "Clinica Villa Rizzo", "latitude": 37.0793003, "longitude": 15.2783932, "source": "osm", "_tags": {"amenity": "hospital", "healthcare": "hospital", "name": "Clinica Villa Rizzo"}}, {"name": "Ospedale Emanuele Muscatello", "latitude": 37.2456312, "longitude": 15.2345022, "source": "osm", "_tags": {"amenity": "hospital", "emergency": "yes", "healthcare": "hospital", "name": "Ospedale Emanuele Muscatello", "operator": "Azienda Sanitaria Provinciale di Siracusa", "phone": "+39 0931 989111", "short_name": "Ospedale Muscatello", "wheelchair": "yes"}}, {"name": "Ospedale Unico Avola-Noto - presidio Raffaele Trigona", "latitude": 36.9044146, "longitude": 15.0696983, "source": "osm", "_tags": {"amenity": "hospital", "emergency": "yes", "healthcare": "hospital", "name": "Ospedale Unico Avola-Noto - presidio Raffaele Trigona", "operator": "Azienda Sanitaria Provinciale di Siracusa", "phone": "+39 0931 890111", "short_name": "Ospedale Trigona", "wheelchair": "yes"}}, {"name": "Ospedale di Lentini", "latitude": 37.2851288, "longitude": 14.9827038, "source": "osm", "_tags": {"amenity": "hospital", "emergency": "yes", "healthcare": "hospital", "name": "Ospedale di Lentini", "operator": "Azienda Sanitaria Provinciale di Siracusa", "phone": "+39 0931 909111"}}, {"name": "Infermeria Presidiaria di Augusta", "latitude": 37.2203567, "longitude": 15.2231164, "source": "osm", "_tags": {"amenity": "hospital", "building": "hospital", "building:levels": "3", "check_date": "2024-06-27", "name": "Infermeria Presidiaria di Augusta", "roof:levels": "0", "roof:shape": "flat", "wheelchair": "yes"}}, {"name": "Casa di cura Villa Salus", "latitude": 37.1097186, "longitude": 15.2312596, "source": "osm", "_tags": {"amenity": "hospital", "healthcare": "hospital", "name": "Casa di cura Villa Salus"}}]