[{"name": "Hospital Psiquiátrico", "latitude": 36.8577567, "longitude": -2.4140921, "source": "osm", "_tags": {"amenity": "hospital", "name": "Hospital Psiquiátrico"}}, {"name": "Centro de Salud \"Cruz de Caravaca\"", "latitude": 36.8516397, "longitude": -2.456012, "source": "osm", "_tags": {"amenity": "hospital", "healthcare": "hospital", "name": "Centro de Salud \"Cruz de Caravaca\"", "wikidata": "Q97286283"}}, {"name": "Hospital Vithas Virgen del Mar", "latitude": 36.8561694, "longitude": -2.4176347, "source": "osm", "_tags": {"addr:city": "Almería", "addr:milestone": "Km. 1", "addr:postcode": "04009", "addr:street": "Carretera de El Mamí a Viator", "amenity": "hospital", "building": "yes", "emergency": "yes", "healthcare": "hospital", "healthcare:speciality": "general", "name": "Hospital Vithas Virgen del Mar", "phone": "+34950217100", "website": "https://www.vithas.es/Almeria/detal", "wikidata": "Q87761435"}}, {"name": "Centro de consultas externas Bola Azul", "latitude": 36.8483316, "longitude": -2.4515858, "source": "osm", "_tags": {"amenity": "hospital", "building": "yes", "healthcare": "hospital", "name": "Centro de consultas externas Bola Azul", "wikidata": "Q109289140"}}, {"name": "Hospital de Alta Resolución El Toyo", "latitude": 36.8507883, "longitude": -2.312661, "source": "osm", "_tags": {"addr:city": "El Retamar", "addr:postcode": "04131", "addr:street": "Camino de la Botica", "amenity": "hospital", "building": "yes", "emergency": "yes", "healthcare": "hospital", "name": "Hospital de Alta Resolución El Toyo", "network": "Servicio Andaluz de Salud", "network:short": "SAS", "operator:type": "public", "wheelchair": "yes", "wikidata": "Q5903008"}}, {"name": "Emergencias Roquetas de Mar", "latitude": 36.7748724, "longitude": -2.6084596, "source": "osm", "_tags": {"addr:city": "Roquetas de Mar", "addr:housenumber": "176", "addr:postcode": "04740", "addr:street": "Avenida Reino de España", "amenity": "hospital", "emergency": "yes", "healthcare": "hospital", "healthcare:speciality": "emergency", "name": "Emergencias Roquetas de Mar", "opening_hours": "24/7", "phone": "950325690"}}, {"name": "Hospital de Poniente", "latitude": 36.7531788, "longitude": -2.8035358, "source": "osm", "_tags": {"addr:city": "El Ejido", "addr:postcode": "04700", "amenity": "hospital", "building": "yes", "emergency": "yes", "healthcare": "hospital", "healthcare:speciality": "tropical", "helipad": "yes", "name": "Hospital de Poniente", "network": "Servicio Andaluz de Salud", "network:short": "SAS", "operator:type": "public"}}, {"name": "Centro de Alta Resolución Nicolás Salmerón", "latitude": 36.8369098, "longitude": -2.4680729, "source": "osm", "_tags": {"alt_name": "Hospital provincial", "amenity": "hospital", "building": "yes", "healthcare": "hospital", "name": "Centro de Alta Resolución Nicolás Salmerón", "phone": "+34 950 03 40 23", "wikidata": "Q109289151"}}, {"name": "Centro de Salud Mediterráneo - Torrecárdenas", "latitude": 36.8572577, "longitude": -2.446, "source": "osm", "_tags": {"amenity": "hospital", "building": "yes", "name": "Centro de Salud Mediterráneo - Torrecárdenas", "operator": "Junta de Andalucía", "operator:wikidata": "Q2743342"}}, {"name": "Hospital HLA Mediterráneo", "latitude": 36.8203659, "longitude": -2.4353175, "source": "osm", "_tags": {"amenity": "hospital", "healthcare": "hospital", "name": "Hospital HLA Mediterráneo", "wikidata": "Q50036683"}}, {"name": "", "latitude": 36.8492664, "longitude": -2.4513318, "source": "osm", "_tags": {"amenity": "hospital", "healthcare": "hospital"}}, {"name": "Hospital Materno-Infantil", "latitude": 36.8623603, "longitude": -2.4421635, "source": "osm", "_tags": {"addr:city": "Almería", "addr:postcode": "04009", "addr:street": "Calle Hermandad de los Donantes de Sangre", "amenity": "hospital", "building": "hospital", "emergency": "yes", "healthcare": "hospital", "name": "Hospital Materno-Infantil", "network": "Servicio Andaluz de Salud", "network:short": "SAS", "operator:type": "public"}}, {"name": "Complejo Hospitalario Torrecárdenas", "latitude": 36.8624325, "longitude": -2.4410356, "source": "osm", "_tags": {"amenity": "hospital", "healthcare": "hospital", "name": "Complejo Hospitalario Torrecárdenas"}}, {"name": "", "latitude": 36.9359674, "longitude": -2.1339808, "source": "osm", "_tags": {"amenity": "hospital", "healthcare": "hospital"}}, {"name": "Hospital Universitario Torrecárdenas", "latitude": 36.8626062, "longitude": -2.4411837, "source": "osm", "_tags": {"addr:city": "Almería", "addr:postcode": "04009", "addr:street": "Calle Hermandad de los Donantes de Sangre", "amenity": "hospital", "building": "hospital", "building:levels": "10", "emergency": "yes", "healthcare": "hospital", "healthcare:speciality": "general", "name": "Hospital Universitario Torrecárdenas", "network": "Servicio Andaluz de Salud", "network:short": "SAS", "operator": "Servicio Andaluz de Salud", "operator:type": "public", "type": "multipolygon", "wikidata": "Q87761433"}}]