[{"name": "المستشفى الجهوي بمنزل بورقيبة", "latitude": 37.1612865, "longitude": 9.7969174, "source": "osm", "_tags": {"addr:city": "Menzel Bourguiba", "addr:street": "Rue de Haïfa", "amenity": "hospital", "emergency": "no", "healthcare": "hospital", "name": "المستشفى الجهوي بمنزل بورقيبة", "name:ar": "المستشفى الجهوي بمنزل بورقيبة", "name:fr": "Hôpital Régional de Menzel Bourguiba", "phone": "+216 72 460 284"}}, {"name": "المستشفى الجهوي بمجاز الباب Hôpital Régional de Mejez El Bab 1", "latitude": 36.6442809, "longitude": 9.5981795, "source": "osm", "_tags": {"building": "construction", "healthcare": "hospital", "name": "المستشفى الجهوي بمجاز الباب Hôpital Régional de Mejez El Bab 1", "name:ar": "1 المستشفى الجهوي بمجاز الباب", "name:fr": "Hôpital Régional de Mejez El Bab 1", "operator": "Ministère de la Santé publique", "operator:type": "public"}}, {"name": "المستشفى الجهوي بمجاز الباب", "latitude": 36.644943, "longitude": 9.6339023, "source": "osm", "_tags": {"amenity": "hospital", "barrier": "wall", "emergency": "yes", "healthcare": "hospital", "healthcare:speciality": "general", "name": "المستشفى الجهوي بمجاز الباب", "name:ar": "المستشفى الجهوي بمجاز الباب", "name:fr": "Hôpital Régional de Medjez el Bab", "operator": "Ministère de la santé publique", "operator:type": "public", "wheelchair": "yes"}}, {"name": "ETAWLID", "latitude": 36.726344, "longitude": 9.1946824, "source": "osm", "_tags": {"amenity": "hospital", "name": "ETAWLID"}}, {"name": "Dispensaire", "latitude": 36.7548306, "longitude": 9.7186461, "source": "osm", "_tags": {"amenity": "hospital", "healthcare": "hospital", "name": "Dispensaire"}}, {"name": "مستشفى بوسالم", "latitude": 36.6073541, "longitude": 8.9673816, "source": "osm", "_tags": {"addr:city": "بوسالم", "addr:housenumber": "1", "addr:postcode": "8170", "addr:street": "Rue Avicenne", "amenity": "hospital", "healthcare": "hospital", "name": "مستشفى بوسالم", "name:ar": "مستشفى بوسالم", "name:en": "Bou Salem Hospital", "name:fr": "Hôpital de Bou Salem"}}, {"name": "", "latitude": 37.2699119, "longitude": 9.8606593, "source": "osm", "_tags": {"addr:city": "Bizerte", "addr:postcode": "7000", "addr:street": "Rue Pasteur", "amenity": "hospital", "healthcare": "hospital", "name:fr": "Hôpital Régional Habib Bougatfa", "phone": "+216 72 460 284"}}, {"name": "Hôpital Militaire de Bizerte", "latitude": 37.2717371, "longitude": 9.8619446, "source": "osm", "_tags": {"amenity": "hospital", "healthcare": "hospital", "landuse": "military", "name": "Hôpital Militaire de Bizerte", "wikidata": "Q16039686", "wikipedia": "ar:المستشفى العسكري ببنزرت"}}, {"name": "Unité De Diagnostic Anténatal UDANB", "latitude": 37.2750094, "longitude": 9.8632926, "source": "osm", "_tags": {"amenity": "hospital", "healthcare": "hospital", "name": "Unité De Diagnostic Anténatal UDANB"}}, {"name": "", "latitude": 36.6448125, "longitude": 9.6340275, "source": "osm", "_tags": {"amenity": "hospital", "healthcare": "hospital"}}]