[{"name": "Residencia San Francisco", "latitude": 37.1174154, "longitude": -5.4544576, "source": "osm", "_tags": {"amenity": "hospital", "emergency": "yes", "name": "Residencia San Francisco"}}, {"name": "Ciudad Sanitaria Virgen del Rocío", "latitude": 37.3618571, "longitude": -5.9810517, "source": "osm", "_tags": {"amenity": "hospital", "emergency": "yes", "healthcare": "hospital", "name": "Ciudad Sanitaria Virgen del Rocío", "wheelchair": "yes"}}, {"name": "Hospital Valme", "latitude": 37.318874, "longitude": -5.9711913, "source": "osm", "_tags": {"amenity": "hospital", "name": "Hospital Valme"}}, {"name": "Cruz Roja", "latitude": 37.3818439, "longitude": -5.7291414, "source": "osm", "_tags": {"amenity": "hospital", "healthcare": "hospital", "name": "Cruz Roja", "operator": "Cruz Roja", "operator:wikidata": "Q7178"}}, {"name": "Edificio Administración Y Mantenimiento Hospital", "latitude": 37.3641701, "longitude": -5.9780052, "source": "osm", "_tags": {"amenity": "hospital", "check_date": "2023-10-30", "healthcare": "hospital", "name": "Edificio Administración Y Mantenimiento Hospital"}}, {"name": "", "latitude": 37.3287963, "longitude": -5.9669875, "source": "osm", "_tags": {"amenity": "hospital", "healthcare": "hospital"}}, {"name": "Hospital el Tomillar", "latitude": 37.2980615, "longitude": -5.9007344, "source": "osm", "_tags": {"amenity": "hospital", "healthcare": "hospital", "name": "Hospital el Tomillar", "wikidata": "Q87762476"}}, {"name": "Hospital Universitario Virgen del Rocío", "latitude": 37.3630459, "longitude": -5.9792168, "source": "osm", "_tags": {"amenity": "hospital", "barrier": "fence", "emergency": "yes", "healthcare": "hospital", "name": "Hospital Universitario Virgen del Rocío", "name:en": "University Hospital Virgen del Rocio", "operator:type": "public", "website": "https://www.huvr.es/", "wheelchair": "yes", "wikidata": "Q3145371"}}, {"name": "Hospital San Juan de Dios", "latitude": 37.3814519, "longitude": -5.9691634, "source": "osm", "_tags": {"amenity": "hospital", "name": "Hospital San Juan de Dios", "source": "ide.Sevilla", "source:date": "2011", "wikidata": "Q63954238", "wikimedia_commons": "Category:Hospital de San Juan de Dios, Sevilla", "wikipedia": "es:Hospital San Juan de Dios (Sevilla)"}}, {"name": "Hospital Comarcal de la Merced", "latitude": 37.2322589, "longitude": -5.0958464, "source": "osm", "_tags": {"addr:city": "Osuna", "addr:housenumber": "2", "addr:postcode": "41640", "addr:street": "Avenida de la Constitución", "amenity": "hospital", "emergency": "yes", "healthcare": "hospital", "name": "Hospital Comarcal de la Merced", "operator:type": "public", "wheelchair": "limited"}}, {"name": "Antiguo Hospital Militar Vigil de Quiñones", "latitude": 37.3460928, "longitude": -5.9714865, "source": "osm", "_tags": {"amenity": "hospital", "building": "hospital", "name": "Antiguo Hospital Militar Vigil de Quiñones"}}, {"name": "Hospital de San Lázaro", "latitude": 37.4144237, "longitude": -5.982204, "source": "osm", "_tags": {"amenity": "hospital", "healthcare": "hospital", "healthcare:speciality": "psychiatry;ophthalmology;orthopaedics;dermatology;surgery;internal;anaesthetics;blood_check;paediatric_surgery;plastic_surgery;urology;trauma;otolaryngology", "name": "Hospital de San Lázaro", "wikidata": "Q87762465"}}, {"name": "Hospital Universitario Virgen de Valme", "latitude": 37.3195949, "longitude": -5.9711948, "source": "osm", "_tags": {"amenity": "hospital", "emergency": "yes", "healthcare": "hospital", "name": "Hospital Universitario Virgen de Valme", "operator:type": "public"}}, {"name": "Hospital San Agustín", "latitude": 37.2807132, "longitude": -5.9359854, "source": "osm", "_tags": {"amenity": "hospital", "building": "yes", "building:colour": "beige", "check_date": "2025-01-15", "name": "Hospital San Agustín", "wheelchair": "yes"}}, {"name": "Hospital de Alta Resolución de Utrera", "latitude": 37.175866, "longitude": -5.7849096, "source": "osm", "_tags": {"addr:city": "Utrera", "addr:postcode": "41710", "addr:street": "Avenida Brigadas Internacionales", "amenity": "hospital", "email": "informacion.epsbg.sspa@juntadeandalucia.es", "emergency": "yes", "healthcare": "hospital", "name": "Hospital de Alta Resolución de Utrera", "nohousenumber": "yes", "operator": "Servicio Andaluz de Salud", "operator:type": "public", "phone": "+34 955 83 90 01", "wikidata": "Q87762523"}}, {"name": "Hospital de La Serranía", "latitude": 36.7222199, "longitude": -5.1468324, "source": "osm", "_tags": {"amenity": "hospital", "email": "ciudadanos.hsr.sspa@juntadeandalucia.es", "emergency": "yes", "healthcare": "hospital", "name": "Hospital de La Serranía", "network": "Servicio Andaluz de Salud", "network:short": "SAS", "operator:type": "public", "phone": "+34 951065001", "website": "https://www.sspa.juntadeandalucia.es/servicioandaluzdesalud/el-sas/servicios-y-centros/informacion-por-centros/16476", "wikidata": "Q20748112"}}, {"name": "Hospital de Morón", "latitude": 37.1175427, "longitude": -5.4544905, "source": "osm", "_tags": {"amenity": "hospital", "name": "Hospital de Morón"}}, {"name": "Hospital Victoria Eugenia", "latitude": 37.4004564, "longitude": -5.9827233, "source": "osm", "_tags": {"amenity": "hospital", "check_date": "2024-06-15", "emergency": "yes", "name": "Hospital Victoria Eugenia", "operator": "Cruz Roja Española", "website": "https://www.hospitalveugenia.com/", "wikidata": "Q87762466"}}, {"name": "Policlínico Virgen Macarena", "latitude": 37.4056758, "longitude": -5.9874329, "source": "osm", "_tags": {"addr:city": "Sevilla", "addr:housename": "Avenida Doctor Fedriani, 3", "addr:housenumber": "3", "addr:postcode": "41009", "addr:street": "Avenida Doctor Fedriani", "amenity": "hospital", "building": "yes", "emergency": "no", "healthcare": "hospital", "name": "Policlínico Virgen Macarena", "phone": "+34 955 130 183"}}, {"name": "Hospital Santa Ángela de la Cruz - Viamed", "latitude": 37.3276419, "longitude": -5.9660129, "source": "osm", "_tags": {"amenity": "hospital", "check_date": "2025-07-12", "emergency": "yes", "name": "Hospital Santa Ángela de la Cruz - Viamed"}}, {"name": "Hospital Quirón Salud Infanta Luisa", "latitude": 37.3811549, "longitude": -6.0080422, "source": "osm", "_tags": {"amenity": "hospital", "barrier": "wall", "building": "hospital", "emergency": "yes", "healthcare": "hospital", "name": "Hospital Quirón Salud Infanta Luisa", "ref:cadastre:building": "3915001TG3431N0001FG", "wikidata": "Q87762471"}}, {"name": "Hospital Fátima", "latitude": 37.3686599, "longitude": -5.9879447, "source": "osm", "_tags": {"amenity": "hospital", "building": "yes", "healthcare": "hospital", "name": "Hospital Fátima", "wikidata": "Q87798348"}}, {"name": "Hospital Universitario Virgen Macarena", "latitude": 37.4067793, "longitude": -5.9867335, "source": "osm", "_tags": {"addr:housenumber": "3", "addr:postcode": "41071", "addr:street": "Avenida Doctor Fedriani", "amenity": "hospital", "emergency": "yes", "healthcare": "hospital", "name": "Hospital Universitario Virgen Macarena", "operator:type": "public", "wikidata": "Q27892167", "wikimedia_commons": "Category:Hospital Universitario Virgen Macarena (Sevilla)", "wikipedia": "es:Hospital Universitario Virgen Macarena"}}, {"name": "Hospital Hospiten de Estepona", "latitude": 36.4528265, "longitude": -5.0842368, "source": "osm", "_tags": {"amenity": "hospital", "emergency": "yes", "name": "Hospital Hospiten de Estepona", "wikidata": "Q87762182"}}, {"name": "Clinica del Dr. Pelotoyo", "latitude": 37.2826912, "longitude": -5.9280975, "source": "osm", "_tags": {"amenity": "clinic", "healthcare": "hospital", "name": "Clinica del Dr. Pelotoyo"}}, {"name": "Cruz Roja", "latitude": 36.4546795, "longitude": -5.9268218, "source": "osm", "_tags": {"amenity": "hospital", "building": "yes", "check_date": "2025-01-12", "healthcare": "hospital", "name": "Cruz Roja", "operator": "Cruz Roja", "operator:wikidata": "Q7178", "operator:wikipedia": "es:Cruz Roja"}}, {"name": "CARE \"Los Alcores\"", "latitude": 37.3838433, "longitude": -5.731797, "source": "osm", "_tags": {"addr:city": "Mairena del Alcor", "addr:postcode": "41510", "addr:street": "Calle El Pedroso", "amenity": "hospital", "healthcare": "hospital", "healthcare:speciality": "general", "name": "CARE \"Los Alcores\"", "nohousenumber": "yes", "wheelchair": "yes"}}, {"name": "", "latitude": 36.862485, "longitude": -5.6501716, "source": "osm", "_tags": {"amenity": "hospital", "healthcare": "hospital"}}, {"name": "Hospital de la Santa Caridad", "latitude": 37.3840822, "longitude": -5.9952229, "source": "osm", "_tags": {"addr:city": "Sevilla", "addr:housenumber": "3", "addr:postcode": "41001", "addr:street": "Calle Temprado", "amenity": "hospital", "building": "hospital", "healthcare": "hospital", "name": "Hospital de la Santa Caridad", "name:etymology:wikidata": "Q858907", "note": "La Iglesia y Hospital de la Santa Caridad es del siglo XVII y de estilo barroco sevillano. En este lugar tiene su sede la Hermandad de la Santa Caridad. Se encuentra situada en el barrio del Arenal, en el antiguo arrabal de la Carreteria, a extramuros de", "phone": "954 223 232", "source:date": "2009", "tourism": "museum", "type": "multipolygon", "website": "https://www.santa-caridad.es/es/la-caridad-hoy/", "wikidata": "Q858907", "wikipedia": "es:Iglesia y Hospital de la Caridad (Sevilla)"}}]