[{"name": "Γενικό Νοσοκομείο Νάξου", "latitude": 37.1024747, "longitude": 25.3806279, "source": "osm", "_tags": {"addr:postcode": "84300", "amenity": "hospital", "healthcare": "hospital", "healthcare:speciality": "general;paediatrics;orthopaedics;dentist;gynaecology;surgery;cardiology;microbiology", "int_name": "Naxos Hospital", "name": "Γενικό Νοσοκομείο Νάξου", "phone": "+302285360500", "website": "https://naxoshospital.gov.gr/", "wikidata": "Q112287301"}}, {"name": "Κέντρο Υγείας Πάρου", "latitude": 37.0858073, "longitude": 25.1514158, "source": "osm", "_tags": {"addr:city": "Παροικιά", "addr:postcode": "84400", "amenity": "hospital", "emergency": "yes", "healthcare": "hospital", "name": "Κέντρο Υγείας Πάρου", "name:el": "Κέντρο Υγείας Πάρου", "name:en": "Paros Health Center", "phone": "+302284360000"}}, {"name": "", "latitude": 36.720974, "longitude": 25.2829694, "source": "osm", "_tags": {"amenity": "hospital", "healthcare": "hospital"}}, {"name": "", "latitude": 36.8314165, "longitude": 25.8940147, "source": "osm", "_tags": {"amenity": "hospital", "healthcare": "hospital", "note": "Small Injures Only"}}, {"name": "", "latitude": 36.4369452, "longitude": 25.3448409, "source": "osm", "_tags": {"amenity": "hospital", "healthcare": "hospital", "int_name": "Medical Unit of Thirassia"}}, {"name": "Κέντρο Υγείας Ίου", "latitude": 36.7250054, "longitude": 25.2746872, "source": "osm", "_tags": {"amenity": "hospital", "building": "yes", "emergency": "yes", "healthcare": "hospital", "name": "Κέντρο Υγείας Ίου", "name:el": "Κέντρο Υγείας Ίου", "name:en": "Ios Public Health Center", "name:fr": "Centre medical de Ios", "phone": "+30 22860 60000;+30 22860 91227;112", "seamark:building:function": "hospital", "seamark:type": "building"}}, {"name": "", "latitude": 37.1025789, "longitude": 25.3808265, "source": "osm", "_tags": {"amenity": "hospital", "healthcare": "hospital"}}]