[{"name": "Ahmed Ouroua", "latitude": 36.5369503, "longitude": 6.7154472, "source": "osm", "_tags": {"amenity": "hospital", "name": "Ahmed Ouroua"}}, {"name": "قاعة علاج برج القائد", "latitude": 36.8218184, "longitude": 6.5056775, "source": "osm", "_tags": {"amenity": "hospital", "name": "قاعة علاج برج القائد", "name:ar": "قاعة علاج برج القائد", "name:en": "Health center"}}, {"name": "Centre d'Imagerie", "latitude": 36.4426101, "longitude": 6.2696414, "source": "osm", "_tags": {"amenity": "hospital", "name": "Centre d'Imagerie", "name:ar": "مصتوصف"}}, {"name": "AMG", "latitude": 36.8770365, "longitude": 6.6086063, "source": "osm", "_tags": {"amenity": "hospital", "healthcare": "hospital", "name": "AMG", "name:fr": "AMG"}}, {"name": "PSP Kerkera", "latitude": 36.9296473, "longitude": 6.5889453, "source": "osm", "_tags": {"amenity": "hospital", "healthcare": "hospital", "name": "PSP Kerkera", "name:ar": "العيادة المتعددة الخدمات كركرة", "name:fr": "PSP Kerkera"}}, {"name": "bloc opératoire", "latitude": 36.8391011, "longitude": 6.6408143, "source": "osm", "_tags": {"amenity": "hospital", "internet_access": "wlan", "name": "bloc opératoire", "name:fr": "bloc opératoire"}}, {"name": "", "latitude": 36.5209888, "longitude": 6.3290014, "source": "osm", "_tags": {"amenity": "hospital", "healthcare": "hospital"}}, {"name": "الحكيمة بوعروج", "latitude": 36.4482963, "longitude": 6.2648324, "source": "osm", "_tags": {"amenity": "hospital", "healthcare": "hospital", "name": "الحكيمة بوعروج", "name:ar": "الحكيمة بوعروج", "name:fr": "Bouaroudj"}}, {"name": "", "latitude": 36.9054005, "longitude": 6.5509145, "source": "osm", "_tags": {"amenity": "hospital", "opening_hours": "Su-Th 08:00-12:00"}}, {"name": "Cabinet médical général Dr. Boulfous", "latitude": 36.4966756, "longitude": 6.059463, "source": "osm", "_tags": {"amenity": "hospital", "healthcare": "hospital", "healthcare:speciality": "general;acupuncture;traditional_chinese_medicine", "name": "Cabinet médical général Dr. Boulfous", "name:ar": "عيادة طبية عامة الدكتورة بولفوس"}}, {"name": "Polyclinique Lefilef Mohamed", "latitude": 36.4691227, "longitude": 6.1738265, "source": "osm", "_tags": {"amenity": "hospital", "name": "Polyclinique Lefilef Mohamed"}}, {"name": "", "latitude": 36.8770242, "longitude": 6.6086085, "source": "osm", "_tags": {"amenity": "hospital", "designation": "Infirmerie", "emergency": "no", "healthcare": "hospital"}}, {"name": "Hôpital d'El Harrouch", "latitude": 36.6551829, "longitude": 6.8383116, "source": "osm", "_tags": {"amenity": "hospital", "emergency": "yes", "name": "Hôpital d'El Harrouch"}}, {"name": "Hôpital de Mila", "latitude": 36.443837, "longitude": 6.2622271, "source": "osm", "_tags": {"amenity": "hospital", "emergency": "yes", "healthcare": "hospital", "name": "Hôpital de Mila"}}, {"name": "Hôpital DU JOUR", "latitude": 36.4499365, "longitude": 6.2623992, "source": "osm", "_tags": {"addr:city": "Mila", "amenity": "hospital", "building:colour": "blue", "emergency": "yes", "healthcare": "hospital", "name": "Hôpital DU JOUR"}}, {"name": "Salle de Soins", "latitude": 36.4475866, "longitude": 6.1474562, "source": "osm", "_tags": {"amenity": "hospital", "building": "yes", "name": "Salle de Soins"}}, {"name": "Hôpital de Tamalous", "latitude": 36.8392143, "longitude": 6.6403976, "source": "osm", "_tags": {"addr:city": "tamalous", "addr:housename": "cite mohamed rahouadj", "addr:postcode": "21005", "addr:street": "Cite Mohamed Rahouadj", "amenity": "hospital", "emergency": "yes", "name": "Hôpital de Tamalous"}}, {"name": "Clinique obstétrique", "latitude": 36.8348335, "longitude": 6.6431468, "source": "osm", "_tags": {"amenity": "hospital", "name": "Clinique obstétrique", "name:ar": "مستشفى التوليد"}}, {"name": "Polyclinique Lessak Abdelmajid", "latitude": 36.8648843, "longitude": 6.9211232, "source": "osm", "_tags": {"amenity": "hospital", "emergency": "no", "name": "Polyclinique Lessak Abdelmajid"}}, {"name": "Nouvel Hôpital Abderezzak Bouhara", "latitude": 36.8624113, "longitude": 6.8975747, "source": "osm", "_tags": {"amenity": "hospital", "emergency": "yes", "name": "Nouvel Hôpital Abderezzak Bouhara"}}, {"name": "Hôpital de Skikda", "latitude": 36.8822669, "longitude": 6.9085399, "source": "osm", "_tags": {"addr:city": "سكيكدة", "amenity": "hospital", "emergency": "yes", "healthcare": "hospital", "name": "Hôpital de Skikda", "name:ar": "مستشفى سكيكدة", "name:en": "Skikda Hospital", "name:fr": "Hôpital de Skikda"}}, {"name": "Salle de soins Al Arsa", "latitude": 36.4393814, "longitude": 6.1584314, "source": "osm", "_tags": {"amenity": "hospital", "building": "yes", "emergency": "no", "name": "Salle de soins Al Arsa"}}, {"name": "EPH Didouche Morad", "latitude": 36.4537713, "longitude": 6.6303218, "source": "osm", "_tags": {"amenity": "hospital", "emergency": "yes", "name": "EPH Didouche Morad", "wheelchair": "yes"}}, {"name": "Polyclinique 700 Logements", "latitude": 36.8670424, "longitude": 6.9008135, "source": "osm", "_tags": {"amenity": "hospital", "emergency": "no", "healthcare": "hospital", "name": "Polyclinique 700 Logements", "name:ar": "مستوصف 700 مسكن"}}, {"name": "Clinique Abu Al-Quassim", "latitude": 36.8697387, "longitude": 6.9143478, "source": "osm", "_tags": {"amenity": "hospital", "emergency": "yes", "name": "Clinique Abu Al-Quassim", "name:ar": "Clinique Abu Al-Quassim ( Hammani )", "name:fr": "مصحة أبو القاسم (حماني)"}}, {"name": "قاعة علاج الطاحونة", "latitude": 36.8032057, "longitude": 6.5160046, "source": "osm", "_tags": {"amenity": "hospital", "emergency": "yes", "name": "قاعة علاج الطاحونة", "name:en": "Health center"}}, {"name": "قاعة علاج عين رويبح", "latitude": 36.8068562, "longitude": 6.522578, "source": "osm", "_tags": {"amenity": "hospital", "emergency": "yes", "name": "قاعة علاج عين رويبح"}}, {"name": "", "latitude": 36.8032052, "longitude": 6.5159946, "source": "osm", "_tags": {"amenity": "hospital"}}, {"name": "Hôpital de Collo", "latitude": 37.0097207, "longitude": 6.558361, "source": "osm", "_tags": {"addr:city": "Collo", "amenity": "hospital", "emergency": "yes", "healthcare": "hospital", "name": "Hôpital de Collo"}}, {"name": "قاعة علاج", "latitude": 37.0044201, "longitude": 6.5576491, "source": "osm", "_tags": {"amenity": "hospital", "healthcare": "hospital", "name": "قاعة علاج", "name:ar": "قاعة علاج"}}, {"name": "مستشفى بشير منتوري - الميلية", "latitude": 36.7589102, "longitude": 6.2851121, "source": "osm", "_tags": {"amenity": "hospital", "healthcare": "hospital", "name": "مستشفى بشير منتوري - الميلية", "name:ar": "مستشفى بشير منتوري - الميلية", "name:fr": "Hôpital Bachir Mentouri;Hôpital Bachir Mentouri - El milia", "opening_hours": "24/7"}}, {"name": "", "latitude": 36.5207049, "longitude": 6.3287211, "source": "osm", "_tags": {"amenity": "hospital", "healthcare": "hospital"}}, {"name": "عيادة متعددة الخدمات", "latitude": 36.6662853, "longitude": 6.0219757, "source": "osm", "_tags": {"amenity": "hospital", "healthcare": "hospital", "name": "عيادة متعددة الخدمات", "name:ar": "عيادة متعددة الخدمات", "name:fr": "Polyclinique"}}, {"name": "الحكيمة بوعروج", "latitude": 36.448365, "longitude": 6.2647433, "source": "osm", "_tags": {"amenity": "hospital", "healthcare": "hospital", "name": "الحكيمة بوعروج", "name:ar": "الحكيمة بوعروج", "name:fr": "Bouaroudj"}}, {"name": "", "latitude": 36.9054166, "longitude": 6.5507616, "source": "osm", "_tags": {"amenity": "hospital", "healthcare": "hospital"}}, {"name": "عيادة متعددة الخدمات", "latitude": 36.9304476, "longitude": 6.4824285, "source": "osm", "_tags": {"amenity": "hospital", "name": "عيادة متعددة الخدمات", "name:ar": "عيادة متعددة الخدمات"}}, {"name": "Policlinique", "latitude": 36.4533669, "longitude": 6.049796, "source": "osm", "_tags": {"amenity": "hospital", "building:levels": "3", "healthcare": "hospital", "name": "Policlinique"}}, {"name": "", "latitude": 36.4532922, "longitude": 6.0497144, "source": "osm", "_tags": {"amenity": "hospital", "healthcare": "hospital"}}]