[{"name": "مركز أم الطبول الصحي", "latitude": 36.8814704, "longitude": 8.5647338, "source": "osm", "_tags": {"addr:city": "السوارخ", "addr:city:ar": "السوارخ", "addr:place": "أم الطبول", "addr:place:ar": "أم الطبول", "amenity": "hospital", "healthcare": "hospital", "name": "مركز أم الطبول الصحي", "name:ar": "مركز أم الطبول الصحي", "name:fr": "Centre de santé Oum Theboul"}}, {"name": "Hôpital bouteldja", "latitude": 36.7891198, "longitude": 8.1954677, "source": "osm", "_tags": {"amenity": "hospital", "name": "Hôpital bouteldja"}}, {"name": "Hopital Mohamed BOUDIAF", "latitude": 36.5099468, "longitude": 8.1010758, "source": "osm", "_tags": {"amenity": "hospital", "emergency": "no", "name": "Hopital Mohamed BOUDIAF"}}, {"name": "المستشفى الجهوي بجندوبة", "latitude": 36.5138929, "longitude": 8.7579019, "source": "osm", "_tags": {"addr:city": "جندوبة", "addr:governorate": "Jendouba", "addr:postcode": "8100", "addr:street": "Rue du Grand Mahgreb", "amenity": "hospital", "barrier": "wall", "healthcare": "hospital", "is_in": "Jendouba;Jendouba;Tunisia;Africa", "is_in:city": "Jendouba", "is_in:country": "Tunisia", "is_in:governorate": "Jendouba", "name": "المستشفى الجهوي بجندوبة", "name:ar": "المستشفى الجهوي بجندوبة", "name:fr": "Hôpital Régional de Jendouba", "phone": "+216 78 630 110"}}, {"name": "المستشفى المحلي بغار الدماء", "latitude": 36.4445155, "longitude": 8.4372186, "source": "osm", "_tags": {"addr:city": "غار الدماء", "addr:postcode": "8160", "addr:street": "نهج الحبيب ثامر", "addr:street:ar": "نهج الحبيب ثامر", "addr:street:fr": "Rue Habib Thameur", "amenity": "hospital", "fax": "+216 78 662 300", "healthcare": "hospital", "name": "المستشفى المحلي بغار الدماء", "name:ar": "المستشفى المحلي بغار الدماء", "name:fr": "Hôpital local Ghardimaou", "opening_hours": "24/7", "phone": "+216 78 660 013"}}, {"name": "مركز الصحي أم الطبول", "latitude": 36.8814488, "longitude": 8.5647182, "source": "osm", "_tags": {"addr:city": "السوارخ", "addr:city:ar": "السوارخ", "addr:place": "أم الطبول", "addr:place:ar": "أم الطبول", "amenity": "hospital", "building": "hospital", "healthcare": "hospital", "name": "مركز الصحي أم الطبول", "name:ar": "مركز الصحي أم الطبول", "name:fr": "Centre de santé Oum Theboul"}}, {"name": "مستشفى الطارف", "latitude": 36.7631968, "longitude": 8.3243946, "source": "osm", "_tags": {"addr:city": "الطارف", "addr:city:ar": "الطارف", "addr:postcode": "36000", "amenity": "hospital", "healthcare": "hospital", "name": "مستشفى الطارف", "name:ar": "مستشفى الطارف", "name:fr": "Hôpital d'El Tarf"}}, {"name": "المؤسسة الاستشفائية للصحة الجوارية عمار بوزيد القالة", "latitude": 36.8955648, "longitude": 8.4434873, "source": "osm", "_tags": {"addr:city": "القالة", "addr:city:ar": "القالة", "addr:postcode": "36002", "amenity": "hospital", "healthcare": "hospital", "name": "المؤسسة الاستشفائية للصحة الجوارية عمار بوزيد القالة", "name:ar": "المؤسسة الاستشفائية للصحة الجوارية عمار بوزيد القالة", "name:fr": "EPH Bouzid Ammar El Kala"}}, {"name": "Hôpital bouteldja", "latitude": 36.7888438, "longitude": 8.1952008, "source": "osm", "_tags": {"amenity": "hospital", "healthcare": "hospital", "name": "Hôpital bouteldja"}}, {"name": "المستشفى الجهوي بطبرقة", "latitude": 36.9450235, "longitude": 8.812754, "source": "osm", "_tags": {"amenity": "hospital", "healthcare": "hospital", "name": "المستشفى الجهوي بطبرقة", "name:ar": "المستشفى الجهوي بطبرقة", "name:en": "Tabarka Regional Hospital", "name:fr": "Hôpital Régional de Tabarka"}}, {"name": "SAMU", "latitude": 36.9508735, "longitude": 8.7621284, "source": "osm", "_tags": {"amenity": "hospital", "emergency": "no", "healthcare": "hospital", "name": "SAMU"}}]