[{"name": "Κέντρο Υγείας Γυθείου", "latitude": 36.755509, "longitude": 22.5695948, "source": "osm", "_tags": {"addr:city": "Γύθειο", "addr:postcode": "23200", "addr:street": "Γύθειο - Αρεόπολη", "amenity": "hospital", "healthcare": "hospital", "int_name": "Gythio health center", "name": "Κέντρο Υγείας Γυθείου", "phone": "+3027330 22001"}}, {"name": "Κέντρο υγείας Αγίου Νικολάου", "latitude": 36.8259697, "longitude": 22.2822029, "source": "osm", "_tags": {"addr:city": "Άγιος Νικόλαος", "addr:postcode": "24024", "amenity": "hospital", "healthcare": "hospital", "name": "Κέντρο υγείας Αγίου Νικολάου", "name:el": "Κέντρο υγείας Αγίου Νικολάου", "name:en": "Agios Nikolaos health center", "phone": "+302721360300", "wheelchair": "yes"}}, {"name": "Γενικό Νομαρχιακό Νοσοκομείο Καλαμάτας", "latitude": 37.0681072, "longitude": 22.0612078, "source": "osm", "_tags": {"amenity": "hospital", "date": "20110721", "emergency": "yes", "healthcare": "hospital", "healthcare:speciality": "psychiatry;general;surgery", "name": "Γενικό Νομαρχιακό Νοσοκομείο Καλαμάτας", "name:el": "Γενικό Νομαρχιακό Νοσοκομείο Καλαμάτας", "name:en": "Kalamata General Hospital", "name:ru": "больница префектуры Каламата", "operator": "ΕΣΥ", "operator:type": "government", "phone": "+3027213 63000", "website": "https://www.nosokomeiokalamatas.gr/", "wikidata": "Q21626751"}}, {"name": "", "latitude": 37.0873696, "longitude": 22.4201939, "source": "osm", "_tags": {"amenity": "hospital", "building": "yes", "healthcare": "hospital"}}, {"name": "Γενικό Νοσοκομείο Λακωνίας - Νοσηλευτική Μονάδα Μολάων", "latitude": 36.8009393, "longitude": 22.8556377, "source": "osm", "_tags": {"addr:city": "Μολάοι", "addr:housenumber": "578", "addr:postcode": "23052", "addr:street": "Καλλιόπης Μάνου", "amenity": "hospital", "emergency": "yes", "healthcare": "hospital", "healthcare:speciality": "general;surgery", "name": "Γενικό Νοσοκομείο Λακωνίας - Νοσηλευτική Μονάδα Μολάων", "name:el": "Γενικό Νοσοκομείο Λακωνίας - Νοσηλευτική Μονάδα Μολάων", "name:en": "General Hospital of Laconia - Hospital unit of Molaoi", "operator": "Γενικό Νοσοκομείο Λακωνίας", "operator:type": "government", "phone": "+302732022 374", "source": "http://www.hosplak.gr/?q=node/9", "website": "http://www.hosplak.gr/?q=node/9", "wikidata": "Q112270224"}}, {"name": "Κέντρο Υγείας Άστρους", "latitude": 37.4071312, "longitude": 22.7149542, "source": "osm", "_tags": {"amenity": "hospital", "building": "yes", "healthcare": "hospital", "name": "Κέντρο Υγείας Άστρους", "name:el": "Κέντρο Υγείας Άστρους", "name:en": "Astros Regional Medical Center"}}, {"name": "Κέντρο Υγείας Μελιγαλά", "latitude": 37.2255403, "longitude": 21.9700421, "source": "osm", "_tags": {"amenity": "hospital", "healthcare": "hospital", "name": "Κέντρο Υγείας Μελιγαλά"}}, {"name": "", "latitude": 37.2253186, "longitude": 21.9700124, "source": "osm", "_tags": {"amenity": "hospital", "healthcare": "hospital"}}, {"name": "Health Center", "latitude": 36.8260254, "longitude": 22.2820586, "source": "osm", "_tags": {"addr:city": "Άγιος Νικόλαος", "amenity": "hospital", "healthcare": "hospital", "name": "Health Center", "wheelchair": "yes"}}, {"name": "Κέντρο Υγείας Μεγαλόπολης", "latitude": 37.397387, "longitude": 22.1387668, "source": "osm", "_tags": {"amenity": "hospital", "healthcare": "hospital", "name": "Κέντρο Υγείας Μεγαλόπολης", "name:el": "Κέντρο Υγείας Μεγαλόπολης", "name:en": "Megalopoli Health Center"}}, {"name": "Κέντρο Υγείας Αρεόπολης", "latitude": 36.6663853, "longitude": 22.3834496, "source": "osm", "_tags": {"amenity": "hospital", "building": "hospital", "healthcare": "hospital", "name": "Κέντρο Υγείας Αρεόπολης"}}, {"name": "Γενικό Νοσοκομείο Λακωνίας", "latitude": 37.0873091, "longitude": 22.4195675, "source": "osm", "_tags": {"amenity": "hospital", "area": "yes", "emergency": "yes", "healthcare": "hospital", "name": "Γενικό Νοσοκομείο Λακωνίας", "name:el": "Γενικό Νοσοκομείο Λακωνίας", "name:en": "Laconia General Hospital", "operator": "ΕΣΥ", "operator:type": "government", "phone": "+302731028671", "website": "https://www.hosplak.gr/"}}, {"name": "Γενικό Νοσοκομείο Μεσσηνίας - Κέντρο Ψυχικής Υγείας", "latitude": 37.0405577, "longitude": 22.1142967, "source": "osm", "_tags": {"amenity": "hospital", "building": "yes", "healthcare": "hospital", "healthcare:speciality": "psychiatry", "name": "Γενικό Νοσοκομείο Μεσσηνίας - Κέντρο Ψυχικής Υγείας", "name:el": "Γενικό Νοσοκομείο Μεσσηνίας - Κέντρο Ψυχικής Υγείας", "operator": "ΕΣΥ", "operator:type": "government"}}]