[{"name": "Hopital", "latitude": 36.6055809, "longitude": 2.1884059, "source": "osm", "_tags": {"amenity": "hospital", "healthcare": "hospital", "name": "Hopital", "name:ar": "مستشفى", "name:fr": "Hopital"}}, {"name": "Hôpital Neurologie cherchell", "latitude": 36.5967601, "longitude": 2.1752232, "source": "osm", "_tags": {"amenity": "hospital", "name": "Hôpital Neurologie cherchell"}}, {"name": "مستوصف", "latitude": 36.6292618, "longitude": 2.9180313, "source": "osm", "_tags": {"amenity": "hospital", "name": "مستوصف", "name:ar": "مستوصف", "name:fr": "policlinique"}}, {"name": "", "latitude": 36.6616155, "longitude": 2.8799767, "source": "osm", "_tags": {"amenity": "hospital", "healthcare": "hospital", "name:fr": "centre pour radiologie et chimiothérapie"}}, {"name": "Centre du sang de Tipaza", "latitude": 36.5873594, "longitude": 2.4388187, "source": "osm", "_tags": {"addr:city": "Tipaza", "amenity": "hospital", "healthcare": "hospital", "name": "Centre du sang de Tipaza", "name:ar": "مركز التبرع بالدم", "name:en": "Tipaza Blood Centre", "name:fr": "Centre du sang de Tipaza"}}, {"name": "قاعة علاج", "latitude": 36.680812, "longitude": 2.7712809, "source": "osm", "_tags": {"amenity": "hospital", "name": "قاعة علاج"}}, {"name": "", "latitude": 36.4837421, "longitude": 2.7950234, "source": "osm", "_tags": {"amenity": "hospital"}}, {"name": "", "latitude": 36.4838796, "longitude": 2.7949971, "source": "osm", "_tags": {"amenity": "hospital"}}, {"name": "Hopital Douira", "latitude": 36.6674932, "longitude": 2.9404112, "source": "osm", "_tags": {"amenity": "hospital", "emergency": "yes", "name": "Hopital Douira"}}, {"name": "Hôpital Frantz Fanon", "latitude": 36.4836652, "longitude": 2.7949731, "source": "osm", "_tags": {"addr:city": "Blida", "addr:postcode": "09000", "addr:street": "CW108", "addr:suburb": "Zabana", "alt_name": "Centre hospitalier universitaire de Blida", "amenity": "hospital", "emergency": "yes", "healthcare": "hospital", "healthcare:speciality": "neurosurgery;neurology;ophthalmology;otolaryngology;surgery;internal;cardiology;rehabiliation;radiology;anatomy;pathology;trauma;orthopaedics;oncology;cardiac_surgery;haematology;nephrology;transplant", "name": "Hôpital Frantz Fanon", "name:ar": "مستشفى فرانتز فانون", "name:en": "Frantz Fanon Hospital", "name:fr": "Hôpital Frantz Fanon", "operator": "Ministère de la Santé", "operator:wikidata": "Q17639127", "phone": "+213 25 41 29 82", "short_name": "CHU Blida"}}, {"name": "Hôpital Dr Fares Yahia مستشفى دكتور فارس يحي", "latitude": 36.6352353, "longitude": 2.7720979, "source": "osm", "_tags": {"addr:city": "Koléa", "amenity": "hospital", "emergency": "yes", "healthcare": "hospital", "name": "Hôpital Dr Fares Yahia مستشفى دكتور فارس يحي", "name:ar": "مستشفى فارس يحيى", "name:fr": "Hôpital Dr Fares Yahia"}}, {"name": "Clinique de chirurgie cardio-infantile", "latitude": 36.63748, "longitude": 2.6860506, "source": "osm", "_tags": {"addr:city": "Bou Ismaïl", "addr:postcode": "42004", "amenity": "hospital", "name": "Clinique de chirurgie cardio-infantile", "name:ar": "عيادة جراحة القلب للأطفال"}}, {"name": "Hôpital d'El Affroun", "latitude": 36.4716194, "longitude": 2.6285475, "source": "osm", "_tags": {"addr:city": "El Affroun", "amenity": "hospital", "emergency": "yes", "name": "Hôpital d'El Affroun"}}, {"name": "Hôpital de Boufarik", "latitude": 36.5768733, "longitude": 2.9093395, "source": "osm", "_tags": {"addr:city": "Boufarik", "addr:postcode": "09001", "addr:street": "Rue des frères Hamadouch", "amenity": "hospital", "emergency": "yes", "healthcare:speciality": "internal;infectious_diseases;gynaecology;surgery;paediatrics;emergency;anaesthetics;intensive", "name": "Hôpital de Boufarik", "name:ar": "مستشفى بوفاريك", "name:en": "Boufarik Hospital", "name:fr": "Hôpital de Boufarik", "operator": "Ministère de la santé"}}, {"name": "Hôpital de Hadjout", "latitude": 36.5097958, "longitude": 2.4122686, "source": "osm", "_tags": {"addr:city": "Hadjout", "addr:postcode": "42001", "amenity": "hospital", "emergency": "yes", "name": "Hôpital de Hadjout", "name:ar": "مستشفى حجوط", "name:en": "Hadjout Hospital", "name:fr": "Hôpital de Hadjout"}}, {"name": "Hôpital de Zéralda", "latitude": 36.7003707, "longitude": 2.8438522, "source": "osm", "_tags": {"amenity": "hospital", "healthcare": "hospital", "name": "Hôpital de Zéralda", "name:fr": "Hôpital de Zéralda"}}, {"name": "Centre de rééducation militaire", "latitude": 36.7319082, "longitude": 2.8871982, "source": "osm", "_tags": {"amenity": "hospital", "emergency": "yes", "name": "Centre de rééducation militaire", "name:fr": "Hôpital Bouchawi"}}, {"name": "Hôpital Hassiba Ben Bouali", "latitude": 36.4855639, "longitude": 2.832235, "source": "osm", "_tags": {"addr:city": "Blida", "addr:postcode": "09000", "addr:street": "Boulevard Mohamed Boudiaf", "alt_name": "Hôpital de Ben Boulaid", "amenity": "hospital", "emergency": "yes", "healthcare:speciality": "paediatrics", "name": "Hôpital Hassiba Ben Bouali", "name:ar": "مستشفى حسيبة بن بوعلي", "name:en": "Hassiba Ben Bouali Hospital", "name:fr": "Hôpital Hassiba Ben Bouali", "note": "Ceci c'est un hôpital pédiatrique de Blida"}}, {"name": "Hôpital Lakhdar Bouchemaa", "latitude": 36.5839779, "longitude": 2.1280451, "source": "osm", "_tags": {"amenity": "hospital", "emergency": "yes", "name": "Hôpital Lakhdar Bouchemaa", "wheelchair": "yes"}}, {"name": "salle de soins", "latitude": 36.5900995, "longitude": 2.5457498, "source": "osm", "_tags": {"amenity": "hospital", "name": "salle de soins"}}, {"name": "Centre des asthmatiques", "latitude": 36.4312854, "longitude": 2.8802484, "source": "osm", "_tags": {"addr:city": "Chréa", "alt_name": "Sanatorium de Chréa", "amenity": "hospital", "emergency": "yes", "healthcare": "hospital", "healthcare:speciality": "pulmonology", "name": "Centre des asthmatiques", "name:ar": "مركز علاج الربو الشريعة", "name:fr": "Centre des asthmatiques"}}, {"name": "polyclinique Ben Azouz عيادة متعددة الخدمات بن عزوز", "latitude": 36.644805, "longitude": 2.7688771, "source": "osm", "_tags": {"amenity": "hospital", "healthcare": "polyclinic", "name": "polyclinique Ben Azouz عيادة متعددة الخدمات بن عزوز", "name:ar": "عيادة متعددة الخدمات بن عزوز", "name:fr": "Polyclinique Ben Azouz"}}, {"name": "Hôpital Azur Plage", "latitude": 36.7363467, "longitude": 2.8452295, "source": "osm", "_tags": {"amenity": "hospital", "name": "Hôpital Azur Plage"}}, {"name": "Hôpital Militaire de Blida", "latitude": 36.4658954, "longitude": 2.7952104, "source": "osm", "_tags": {"addr:city": "Blida", "addr:street": "Route de Chiffa", "amenity": "hospital", "emergency": "yes", "healthcare": "hospital", "name": "Hôpital Militaire de Blida", "name:ar": "المستشفى العسكري البليدة", "name:fr": "Hôpital Militaire de Blida"}}, {"name": "Hôpital M'Hamed Yazid", "latitude": 36.4772664, "longitude": 2.8097013, "source": "osm", "_tags": {"addr:city": "Blida", "addr:postcode": "09000", "amenity": "hospital", "emergency": "yes", "name": "Hôpital M'Hamed Yazid", "name:ar": "مستشفى امحمد يزيد", "name:fr": "Hôpital M'Hamed Yazid", "old_name": "Hôpital Ferroudja", "operator": "CHU Blida"}}, {"name": "Hôpital Brahim Tirichine", "latitude": 36.4769883, "longitude": 2.8333158, "source": "osm", "_tags": {"addr:city": "Blida", "addr:postcode": "09000", "addr:street": "Avenue Kritli Mokhtar", "amenity": "hospital", "emergency": "yes", "healthcare:speciality": "pulmonology;rheumatology;internal;surgery;gynaecology;paediatrics;emergency;radiology;anatomy;pathology", "name": "Hôpital Brahim Tirichine", "name:ar": "مستشفى ابراهيم تيريشين", "name:en": "Brahim Tirichine Hospital", "name:fr": "Hôpital Brahim Tirichine", "old_name": "Hôpital Faubourg"}}, {"name": "Maternité", "latitude": 36.6661425, "longitude": 2.9401528, "source": "osm", "_tags": {"amenity": "hospital", "healthcare": "hospital", "name": "Maternité"}}, {"name": "Hôpital psychiatrique", "latitude": 36.571003, "longitude": 2.3873309, "source": "osm", "_tags": {"amenity": "hospital", "healthcare": "hospital", "healthcare:speciality": "psychiatry", "name": "Hôpital psychiatrique"}}, {"name": "Hôpital Neurologie cherchell", "latitude": 36.5968961, "longitude": 2.1752953, "source": "osm", "_tags": {"amenity": "hospital", "building:levels": "3", "healthcare": "hospital", "name": "Hôpital Neurologie cherchell"}}, {"name": "Hôpital Militaire Universitaire Spécialisé", "latitude": 36.7331461, "longitude": 2.8889614, "source": "osm", "_tags": {"amenity": "hospital", "name": "Hôpital Militaire Universitaire Spécialisé"}}, {"name": "Hôpital de Gériatrie de Zéralda", "latitude": 36.6977318, "longitude": 2.8450095, "source": "osm", "_tags": {"amenity": "hospital", "healthcare": "hospital", "name": "Hôpital de Gériatrie de Zéralda"}}, {"name": "Hôpital de Tipaza", "latitude": 36.5865753, "longitude": 2.4621748, "source": "osm", "_tags": {"addr:city": "Tipaza", "addr:postcode": "42000", "amenity": "hospital", "emergency": "yes", "healthcare": "hospital", "name": "Hôpital de Tipaza", "name:ar": "مستشفى تيبازة", "name:fr": "Hôpital de Tipaza"}}, {"name": "Polylinque Bali Mohamed", "latitude": 36.761564, "longitude": 2.9230245, "source": "osm", "_tags": {"amenity": "hospital", "name": "Polylinque Bali Mohamed"}}, {"name": "Polyclinique 66 lgts", "latitude": 36.7148538, "longitude": 2.8462302, "source": "osm", "_tags": {"amenity": "hospital", "name": "Polyclinique 66 lgts"}}, {"name": "EPSP Zéralda", "latitude": 36.7090928, "longitude": 2.8443378, "source": "osm", "_tags": {"addr:city": "Zéralda", "amenity": "hospital", "healthcare": "hospital", "name": "EPSP Zéralda", "name:fr": "EPSP Zéralda"}}, {"name": "Salle de soins Mazafran", "latitude": 36.6992703, "longitude": 2.8351983, "source": "osm", "_tags": {"amenity": "hospital", "name": "Salle de soins Mazafran"}}, {"name": "Salle de soin", "latitude": 36.6760124, "longitude": 2.8349642, "source": "osm", "_tags": {"amenity": "hospital", "healthcare": "hospital", "name": "Salle de soin"}}, {"name": "Salle de soin", "latitude": 36.6953639, "longitude": 2.8131359, "source": "osm", "_tags": {"amenity": "hospital", "name": "Salle de soin"}}, {"name": "Salle de Soin", "latitude": 36.7169905, "longitude": 2.9165682, "source": "osm", "_tags": {"amenity": "hospital", "name": "Salle de Soin"}}, {"name": "", "latitude": 36.7311954, "longitude": 2.8883234, "source": "osm", "_tags": {"amenity": "hospital"}}, {"name": "Sbitar", "latitude": 36.6056306, "longitude": 2.1884336, "source": "osm", "_tags": {"amenity": "hospital", "healthcare": "hospital", "name": "Sbitar"}}, {"name": "مستوصف", "latitude": 36.6292377, "longitude": 2.9181084, "source": "osm", "_tags": {"amenity": "hospital", "healthcare": "hospital", "name": "مستوصف", "name:ar": "مستوصف", "name:fr": "Polyclinique"}}, {"name": "Dr BEKHTARI  pédiatre", "latitude": 36.5696173, "longitude": 2.9159127, "source": "osm", "_tags": {"addr:city": "Boufarik", "addr:postcode": "09001", "addr:street": "Cite dallas (Soummam)", "email": "redouanebekhtari@yahoo.fr", "emergency": "yes", "healthcare": "hospital", "healthcare:speciality": "paediatrics;allergology", "name": "Dr BEKHTARI  pédiatre", "opening_hours": "Mo-Fr 08:00-17:00", "operator:type": "private", "phone": "025482417", "source": "FB: Algerie Mapper Team : (Superadlen)"}}, {"name": "Centre d'imagerie scintigraphique", "latitude": 36.4881356, "longitude": 2.7889304, "source": "osm", "_tags": {"addr:city": "Blida", "addr:postcode": "09000", "addr:street": "Cité 17 Juin, Zabana.", "amenity": "hospital", "emergency": "no", "fax": "025 32 89 73", "healthcare": "centre", "healthcare:speciality": "nuclear", "image": "http://www.scintigraphies.com/wp-content/uploads/2020/01/hero-dark.png", "mobile": "05 59 50 80 17", "name": "Centre d'imagerie scintigraphique", "opening_hours": "Dim-jud: 8h00-16h00/ sam: 8h00-12h00/ ven: fermé", "operator": "Dr Naili", "operator:type": "private", "phone": "025 32 87 37", "website": "http://www.scintigraphies.com/#hero"}}]