[{"name": "", "latitude": 36.6223089, "longitude": 29.1150102, "source": "osm", "_tags": {"amenity": "hospital", "healthcare": "hospital"}}, {"name": "Özel Lokman Hekim Esnaf Hastanesi", "latitude": 36.6312535, "longitude": 29.120119, "source": "osm", "_tags": {"addr:city": "Muğla", "addr:district": "Fethiye", "addr:neighbourhood": "Tuzla Mah.", "amenity": "hospital", "check_date": "2025-05-31", "emergency": "yes", "healthcare": "hospital", "internet_access": "wlan", "internet_access:fee": "customers", "name": "Özel Lokman Hekim Esnaf Hastanesi", "opening_hours": "24/7", "operator:type": "private", "payment:cards": "yes", "payment:cash": "yes", "payment:credit_cards": "yes", "payment:debit_cards": "yes", "payment:mastercard": "yes", "payment:troy": "yes", "payment:visa": "yes", "phone": "+90 252 612 6400", "website": "https://www.esnafhastanesi.com/", "wheelchair": "yes"}}, {"name": "Özel Letoon Hospital", "latitude": 36.6298652, "longitude": 29.1524297, "source": "osm", "_tags": {"amenity": "hospital", "healthcare": "hospital", "name": "Özel Letoon Hospital"}}, {"name": "Fethiye Devlet Hastanesi", "latitude": 36.6529284, "longitude": 29.1195534, "source": "osm", "_tags": {"addr:city": "Muğla", "addr:district": "Fethiye", "addr:housenumber": "212", "addr:neighbourhood": "Akarca Mah.", "addr:postcode": "48300", "addr:street": "Mustafa Kemal Bulvarı", "amenity": "hospital", "emergency": "yes", "healthcare": "hospital", "name": "Fethiye Devlet Hastanesi", "operator": "Sağlık Bakanlığı", "operator:wikidata": "Q4294365", "phone": "+90 252 613 3546", "website": "https://fethiyedh.saglik.gov.tr/"}}, {"name": "Seydikemer Devlet Hastanesi", "latitude": 36.6393462, "longitude": 29.3894674, "source": "osm", "_tags": {"amenity": "hospital", "email": "seydikemer.dh@saglik.gov.tr", "healthcare": "hospital", "name": "Seydikemer Devlet Hastanesi", "operator": "Sağlık Bakanlığı", "operator:type": "government", "operator:wikidata": "Q4294365", "phone": "+90 252 502 40 00", "website": "https://seydikemerdh.saglik.gov.tr"}}]