[{"name": "Hôpital Arassa", "latitude": 36.4249006, "longitude": 4.8240446, "source": "osm", "_tags": {"amenity": "hospital", "name": "Hôpital Arassa", "name:ar": "مستشفى عراسة", "name:fr": "Hôpital Arassa"}}, {"name": "Urgences médicale", "latitude": 36.8920953, "longitude": 4.1264919, "source": "osm", "_tags": {"amenity": "hospital", "name": "Urgences médicale", "name:ar": "ثيڤزيرث", "name:fr": "Tigzirt", "opening_hours": "24/7"}}, {"name": "Centre de Soin Illilten", "latitude": 36.5128583, "longitude": 4.4207923, "source": "osm", "_tags": {"amenity": "hospital", "name": "Centre de Soin Illilten"}}, {"name": "Centre de soin Afir", "latitude": 36.8099058, "longitude": 4.1694615, "source": "osm", "_tags": {"amenity": "hospital", "healthcare": "hospital", "name": "Centre de soin Afir", "name:ar": "مركز رعاية أعفير"}}, {"name": "Hôpital orthopédique", "latitude": 36.6694469, "longitude": 4.7674742, "source": "osm", "_tags": {"amenity": "hospital", "name": "Hôpital orthopédique"}}, {"name": "مستوصف تالة تقانة", "latitude": 36.7978511, "longitude": 4.2969111, "source": "osm", "_tags": {"amenity": "hospital", "name": "مستوصف تالة تقانة", "name:ar": "مستوصف تالة تقانة", "name:fr": "Disponsair"}}, {"name": "عيادة متعددة الخدمات أيث شبانة", "latitude": 36.4689527, "longitude": 4.8672682, "source": "osm", "_tags": {"addr:housenumber": "36404214", "addr:postcode": "19031", "amenity": "hospital", "internet_access": "wlan", "name": "عيادة متعددة الخدمات أيث شبانة", "name:ar": "عيادة متعددة الخدمات بني شبانة", "name:fr": "Polyclinique Ait Chebana", "phone": "0364404217"}}, {"name": "Centre d'imagerie médicale mahmoudi", "latitude": 36.700881, "longitude": 4.039308, "source": "osm", "_tags": {"addr:housenumber": "026112333", "addr:street": "Rue des Frères Belhadj", "amenity": "hospital", "name": "Centre d'imagerie médicale mahmoudi", "name:fr": "Centre d'imagerie médicale mahmoudi"}}, {"name": "", "latitude": 36.6833773, "longitude": 4.0075173, "source": "osm", "_tags": {"amenity": "hospital", "healthcare": "hospital"}}, {"name": "dispensaire", "latitude": 36.8432286, "longitude": 3.98773, "source": "osm", "_tags": {"amenity": "hospital", "name": "dispensaire"}}, {"name": "Maternité", "latitude": 36.5372167, "longitude": 3.9538842, "source": "osm", "_tags": {"amenity": "hospital", "healthcare": "hospital", "name": "Maternité"}}, {"name": "", "latitude": 36.8923759, "longitude": 4.1264974, "source": "osm", "_tags": {"amenity": "hospital", "name:fr": "Hôpital de Tigzirt"}}, {"name": "مركز تحقين الدم", "latitude": 36.7126975, "longitude": 4.0381155, "source": "osm", "_tags": {"amenity": "hospital", "healthcare": "hospital", "name": "مركز تحقين الدم", "name:ar": "مركز تحقين الدم", "name:fr": "Centre transfusion de sang"}}, {"name": "Hôpital Akloul Ali", "latitude": 36.4588425, "longitude": 4.5258336, "source": "osm", "_tags": {"amenity": "hospital", "emergency": "yes", "name": "Hôpital Akloul Ali"}}, {"name": "Ancien Hopital", "latitude": 36.4651947, "longitude": 4.5320274, "source": "osm", "_tags": {"addr:city": "Akbou", "amenity": "hospital", "name": "Ancien Hopital"}}, {"name": "Hôpital Rachid Belhocine", "latitude": 36.6144214, "longitude": 4.6989721, "source": "osm", "_tags": {"addr:city": "Sidi-Aïch", "amenity": "hospital", "building:levels": "4", "email": "epspsidiaich.dz@gmail.com", "emergency": "yes", "fax": "+21334860204", "healthcare": "hospital", "language:ar": "yes", "name": "Hôpital Rachid Belhocine", "name:ar": "مستشفى رشيد بلحسين", "name:fr": "Hôpital Rachid Belhocine", "name:kab": "Sbiṭar Racid Belḥusin (Buzerman)", "phone": "+21334860203"}}, {"name": "Hôpital Psychiatrique Fernan Hanafi", "latitude": 36.6990698, "longitude": 4.1141727, "source": "osm", "_tags": {"addr:city": "Oued Aissi Tizi Ouzou", "addr:housenumber": "RN12", "addr:postcode": "15191", "amenity": "hospital", "emergency": "yes", "hospital": "psychiatric", "name": "Hôpital Psychiatrique Fernan Hanafi"}}, {"name": "Polyclinique de Boghni", "latitude": 36.5387347, "longitude": 3.9568888, "source": "osm", "_tags": {"amenity": "hospital", "healthcare": "hospital", "name": "Polyclinique de Boghni"}}, {"name": "Sbiṭaṛ n Vuɣni", "latitude": 36.5376129, "longitude": 3.9544889, "source": "osm", "_tags": {"amenity": "hospital", "healthcare": "hospital", "name": "Sbiṭaṛ n Vuɣni"}}, {"name": "Hopital Azzefoune", "latitude": 36.8912359, "longitude": 4.4229936, "source": "osm", "_tags": {"addr:postcode": "15010", "addr:street": "vers lycée", "amenity": "hospital", "email": "epspazeffoun@yahoo.fr", "name": "Hopital Azzefoune", "name:ar": "مستشفى أزفون", "name:fr": "EPSP Azeffoun", "opening_hours": "24/7", "phone": "026450604", "website": "https://epsp-azeffoun.forumactif.com/"}}, {"name": "Hôpital", "latitude": 36.8858539, "longitude": 4.4266505, "source": "osm", "_tags": {"amenity": "hospital", "healthcare": "hospital", "name": "Hôpital"}}, {"name": "Hôpital de Larbâa N'Aït Irathen", "latitude": 36.6446634, "longitude": 4.1993199, "source": "osm", "_tags": {"addr:city": "Larbaa N'Aït Irathen", "amenity": "hospital", "emergency": "yes", "name": "Hôpital de Larbâa N'Aït Irathen"}}, {"name": "EPSP Sidi Aich", "latitude": 36.6136141, "longitude": 4.6883612, "source": "osm", "_tags": {"amenity": "hospital", "contact:email": "epspsidiaich.dz@gmail.com", "contact:website": "http://www.epsp-sidiaich.dz/", "healthcare": "hospital", "name": "EPSP Sidi Aich", "name:ar": "المؤسسة العمومية للصحة الجوارية سيدي عيش", "name:fr": "Etablissement Public de Santé de proximité Sidi Aïch", "name:kab": "Sbitar Aqdim"}}, {"name": "Hôpital pour enfants cardiaques", "latitude": 36.7278521, "longitude": 3.9691108, "source": "osm", "_tags": {"amenity": "hospital", "emergency": "yes", "healthcare": "vaccination_centre", "healthcare:speciality": "cardiology;vaccination;covid19", "name": "Hôpital pour enfants cardiaques", "vaccination": "covid19"}}, {"name": "Hôpital Sidi Belloua Sanatorium", "latitude": 36.7268909, "longitude": 4.0652282, "source": "osm", "_tags": {"addr:city": "Redjaouna", "amenity": "hospital", "emergency": "yes", "name": "Hôpital Sidi Belloua Sanatorium"}}, {"name": "Hôpital Chahids Mahmoudi", "latitude": 36.7011814, "longitude": 4.0549472, "source": "osm", "_tags": {"addr:housenumber": "1", "addr:postcode": "15000", "amenity": "hospital", "emergency": "no", "healthcare": "hospital", "name": "Hôpital Chahids Mahmoudi", "name:ar": "مستشفى السهيد محمودي", "name:fr": "Hôpital Chahids Mahmoudi", "name:kab": "Sbiṭar Maḥmudi", "phone": "+213 (0) 26 11 00 38"}}, {"name": "Hôpital Nedir Mohamed", "latitude": 36.7085794, "longitude": 4.0546907, "source": "osm", "_tags": {"amenity": "hospital", "emergency": "yes", "healthcare": "hospital", "name": "Hôpital Nedir Mohamed", "name:ar": "مستشفى ندير محمد", "name:fr": "Hôpital Nedir Mohamed", "name:kab": "Sbiṭar Nadir Muḥamed", "phone": "026 21 13 16"}}, {"name": "Polyclinique de Mekla", "latitude": 36.6856118, "longitude": 4.2679515, "source": "osm", "_tags": {"amenity": "hospital", "name": "Polyclinique de Mekla"}}, {"name": "Hôpital Ben Merad El Meki", "latitude": 36.6411738, "longitude": 4.8944789, "source": "osm", "_tags": {"addr:city": "Amizour", "addr:postcode": "06300", "amenity": "hospital", "healthcare": "hospital", "name": "Hôpital Ben Merad El Meki", "name:ar": "مستشفى بن مَرّاد المَكِّي", "name:fr": "Hôpital Ben Merad El Meki", "name:kab": "Sbitar Ben Merad Lmeki"}}, {"name": "Ammas n Tujjya d Tazmert Gerib Mulud", "latitude": 36.6053047, "longitude": 4.1173015, "source": "osm", "_tags": {"amenity": "hospital", "healthcare": "hospital", "name": "Ammas n Tujjya d Tazmert Gerib Mulud"}}, {"name": "Centre Anti-Cancer", "latitude": 36.7292654, "longitude": 3.9698086, "source": "osm", "_tags": {"addr:city": "Draâ Ben Khedda", "addr:postcode": "15100", "amenity": "hospital", "healthcare": "hospital", "healthcare:speciality": "oncology", "name": "Centre Anti-Cancer"}}, {"name": "Ṣṣbiṭaṛ Meɣnem Lunes", "latitude": 36.7597063, "longitude": 4.3893341, "source": "osm", "_tags": {"amenity": "hospital", "healthcare": "hospital", "name": "Ṣṣbiṭaṛ Meɣnem Lunes", "name:ar": "مستشفى مغنم لونس", "name:kab": "Ṣṣbitar Meɣnem Lunes"}}, {"name": "", "latitude": 36.5515492, "longitude": 4.6864172, "source": "osm", "_tags": {"amenity": "hospital", "healthcare": "hospital"}}, {"name": "Hôpital Arassa", "latitude": 36.4246109, "longitude": 4.8242014, "source": "osm", "_tags": {"amenity": "hospital", "healthcare": "hospital", "name": "Hôpital Arassa"}}, {"name": "Centre de Santé", "latitude": 36.4644518, "longitude": 4.5362567, "source": "osm", "_tags": {"amenity": "hospital", "healthcare": "hospital", "name": "Centre de Santé"}}, {"name": "Centre de soins Tiliouacadi", "latitude": 36.6023927, "longitude": 4.631398, "source": "osm", "_tags": {"amenity": "hospital", "healthcare": "hospital", "name": "Centre de soins Tiliouacadi", "name:ar": "مركز رعاية ثلواقاضي", "name:kab": "Ammas n udawi n Telwaqaḍi"}}, {"name": "Centre de Soin Illilten", "latitude": 36.5128079, "longitude": 4.420723, "source": "osm", "_tags": {"amenity": "hospital", "healthcare": "hospital", "name": "Centre de Soin Illilten"}}, {"name": "Centre de soin Afir", "latitude": 36.8098895, "longitude": 4.1695394, "source": "osm", "_tags": {"amenity": "hospital", "healthcare": "hospital", "name": "Centre de soin Afir", "name:ar": "مركز رعاية أعفير"}}, {"name": "مستشفى تاوريرت آغيل", "latitude": 36.6997432, "longitude": 4.6966253, "source": "osm", "_tags": {"addr:city": "تاوريرت آغيل", "addr:city:ar": "تاوريرت آغيل", "amenity": "hospital", "healthcare": "hospital", "name": "مستشفى تاوريرت آغيل", "name:ar": "مستشفى تاوريرت آغيل", "name:en": "Taourirt Ighil Hospital", "name:fr": "Hôpital Taourirt Ighil"}}, {"name": "Etablissement hospitalier privé les Amandiers", "latitude": 36.7026504, "longitude": 4.2394763, "source": "osm", "_tags": {"addr:city": "chaib mekla", "addr:street": "route CW150", "amenity": "hospital", "healthcare": "hospital", "name": "Etablissement hospitalier privé les Amandiers", "phone": "026 37 00 02"}}, {"name": "عيادة متعددة الخدمات بني شبانة", "latitude": 36.4688501, "longitude": 4.8671597, "source": "osm", "_tags": {"amenity": "hospital", "healthcare": "hospital", "name": "عيادة متعددة الخدمات بني شبانة", "name:ar": "عيادة متعددة الخدمات بني شبانة", "name:fr": "Polyclinique Beni Chebana"}}, {"name": "Centre d'imagerie médicale mahmoudi", "latitude": 36.7008896, "longitude": 4.0393588, "source": "osm", "_tags": {"amenity": "hospital", "healthcare": "hospital", "name": "Centre d'imagerie médicale mahmoudi"}}, {"name": "dispensaire", "latitude": 36.8432973, "longitude": 3.9876429, "source": "osm", "_tags": {"amenity": "hospital", "healthcare": "hospital", "name": "dispensaire"}}, {"name": "Urgences médicale", "latitude": 36.8922865, "longitude": 4.1266275, "source": "osm", "_tags": {"amenity": "hospital", "healthcare": "hospital", "name": "Urgences médicale"}}, {"name": "عيادة بني موحلي", "latitude": 36.5169232, "longitude": 4.9065768, "source": "osm", "_tags": {"addr:housenumber": "036404815", "amenity": "hospital", "healthcare": "hospital", "name": "عيادة بني موحلي", "name:ar": "عيادة بني موحلي", "name:fr": "polyclinique Béni Mouhli", "opening_hours": "24/7", "phone": "036404815"}}, {"name": "مركز تحقين الدم", "latitude": 36.7127375, "longitude": 4.0382276, "source": "osm", "_tags": {"amenity": "hospital", "healthcare": "hospital", "name": "مركز تحقين الدم", "name:ar": "مركز تحقين الدم"}}, {"name": "laboratoire belkacem", "latitude": 36.7587958, "longitude": 4.3132592, "source": "osm", "_tags": {"addr:city": "Freha", "addr:postcode": "15012", "amenity": "hospital", "healthcare": "hospital", "healthcare:speciality": "biology;analyses_medicales", "name": "laboratoire belkacem", "operator": "dr belkacem", "operator:type": "private"}}, {"name": "مركز الصحة", "latitude": 36.4644551, "longitude": 4.5362815, "source": "osm", "_tags": {"addr:city": "أقبو", "addr:city:ar": "أقبو", "amenity": "hospital", "building": "yes", "healthcare": "hospital", "name": "مركز الصحة", "name:ar": "مركز الصحة", "name:en": "Health center", "name:fr": "Centre de Santé", "source": "microsoft/BuildingFootprints"}}, {"name": "HOPITAL AHMED ALI AMMAR", "latitude": 36.5707714, "longitude": 4.2895274, "source": "osm", "_tags": {"addr:city": "ain el hammam", "amenity": "hospital", "healthcare": "hospital", "name": "HOPITAL AHMED ALI AMMAR", "operator": "étatique"}}, {"name": "", "latitude": 36.5432602, "longitude": 4.1072134, "source": "osm", "_tags": {"amenity": "hospital", "healthcare": "hospital"}}]