[{"name": "Γενικό Νοσοκομείο Κυπαρισσίας", "latitude": 37.2495059, "longitude": 21.6672587, "source": "osm", "_tags": {"amenity": "hospital", "emergency": "yes", "healthcare": "hospital", "healthcare:speciality": "general;surgery;dentistry;cardiology;orthopaedics", "name": "Γενικό Νοσοκομείο Κυπαρισσίας", "name:el": "Γενικό Νοσοκομείο Κυπαρισσίας", "name:en": "Kyparissia General Hospital", "name:nl": "Ziekenhuis", "name:ru": "больница Кипарисии", "operator": "ΕΣΥ", "operator:type": "government", "phone": "+3027610 24051", "website": "https://kyparissiahospital.gr/", "wikidata": "Q112287800"}}, {"name": "Κέντρο Υγείας Φιλιατρών", "latitude": 37.1568718, "longitude": 21.5946737, "source": "osm", "_tags": {"amenity": "hospital", "healthcare": "hospital", "name": "Κέντρο Υγείας Φιλιατρών", "name:el": "Κέντρο Υγείας Φιλιατρών", "name:en": "Filiatra Health Center"}}, {"name": "", "latitude": 36.9098567, "longitude": 21.6942814, "source": "osm", "_tags": {"amenity": "hospital", "building": "yes", "healthcare": "hospital", "type": "multipolygon"}}]