[{"name": "polyclinique Souk El Tenine", "latitude": 36.6263104, "longitude": 5.3360406, "source": "osm", "_tags": {"amenity": "hospital", "name": "polyclinique Souk El Tenine", "name:en": "Polyclinique"}}, {"name": "Hôpital Psychiatrique", "latitude": 36.8156549, "longitude": 5.7651341, "source": "osm", "_tags": {"amenity": "hospital", "emergency": "no", "name": "Hôpital Psychiatrique"}}, {"name": "Oued achalal", "latitude": 36.758808, "longitude": 5.0817569, "source": "osm", "_tags": {"addr:city": "Béjaïa", "addr:city:ar": "بجاية", "addr:city:ber": "ⴲⴳⴰⵢⴻⵝ", "addr:city:fr": "Béjaïa", "addr:city:kab": "Bgayet", "amenity": "hospital", "healthcare": "hospital", "language:ar": "yes", "name": "Oued achalal", "name:ar": "وادي الشلال", "name:fr": "Oued achalal"}}, {"name": "Hôpital Souk El Tenine مستشفى سوق الاثنين", "latitude": 36.6288242, "longitude": 5.339233, "source": "osm", "_tags": {"addr:city": "سوق الاثنين", "addr:city:ar": "سوق الاثنين", "amenity": "hospital", "healthcare": "hospital", "language:ar": "main", "name": "Hôpital Souk El Tenine مستشفى سوق الاثنين", "name:ar": "مستشفى سوق الاثنين", "name:en": "Souk El Tenine Hospital", "name:fr": "Hôpital Souk El Tenine"}}, {"name": "Hôpital Khelil Amrane", "latitude": 36.7544322, "longitude": 5.0498111, "source": "osm", "_tags": {"addr:city": "Béjaïa", "amenity": "hospital", "emergency": "yes", "healthcare": "hospital", "name": "Hôpital Khelil Amrane", "name:ar": "مستشفى خليل عمران", "name:fr": "Hôpital Khelil Amrane", "website": "http://www.chubejaia.dz/", "wikidata": "Q23021568", "wikipedia": "fr:Hôpital Khelil Amrane"}}, {"name": "Hôpital Frantz Fanon", "latitude": 36.7564211, "longitude": 5.0835519, "source": "osm", "_tags": {"addr:city": "Béjaïa", "addr:city:ar": "بجاية", "addr:city:ber": "ⴲⴳⴰⵢⴻⵝ", "addr:city:fr": "Béjaïa", "addr:city:kab": "Bgayet", "alt_name:ar": "مستشفى بجاية;مستشفى بقايث;مستشفى فرانتز فانون", "amenity": "hospital", "emergency": "yes", "healthcare": "hospital", "name": "Hôpital Frantz Fanon", "name:ar": "مستشفى فرانز فانون", "name:en": "Frantz Fanon Hospital", "name:etymology": "فرانز فانون", "name:etymology:wikidata": "Q193670", "name:etymology:wikipedia": "ar:فرانز فانون", "name:fr": "Hôpital Frantz Fanon", "website": "http://www.chubejaia.dz/HopitalFrantz", "wikidata": "Q23021567"}}, {"name": "Hôpital Mohamed Seddik Benyahia", "latitude": 36.8131637, "longitude": 5.7667399, "source": "osm", "_tags": {"addr:city": "Jijel", "addr:postcode": "18000", "addr:street": "Rue des Frères Bouketta", "amenity": "hospital", "emergency": "yes", "healthcare": "hospital", "name": "Hôpital Mohamed Seddik Benyahia", "name:ar": "مستشفى محمد صديق بن يحيى", "name:fr": "Hôpital Mohamed Seddik Benyahia"}}, {"name": "مستشفى مجدوب سعيد", "latitude": 36.7892273, "longitude": 5.9074552, "source": "osm", "_tags": {"addr:city": "Taher", "addr:postcode": "18002", "amenity": "hospital", "beds": "236", "emergency": "yes", "healthcare": "hospital", "name": "مستشفى مجدوب سعيد", "name:ar": "مستشفى مجدوب سعيد", "name:en": "Hospital Madjdoub Saïd", "name:fr": "Hôpital Madjdoub Saïd", "phone": "+213 34 440989"}}, {"name": "Hôpital", "latitude": 36.464333, "longitude": 5.6462269, "source": "osm", "_tags": {"amenity": "hospital", "name": "Hôpital"}}, {"name": "Centre de transfusion sanguine publique", "latitude": 36.7530837, "longitude": 5.0776025, "source": "osm", "_tags": {"amenity": "hospital", "healthcare": "hospital", "name": "Centre de transfusion sanguine publique", "name:fr": "Centre de transfusion sanguine publique"}}, {"name": "", "latitude": 36.7269546, "longitude": 5.8818581, "source": "osm", "_tags": {"amenity": "hospital", "emergency": "no", "healthcare": "hospital", "healthcare:speciality": "general"}}, {"name": "Infirmerie", "latitude": 36.8177061, "longitude": 5.8966977, "source": "osm", "_tags": {"healthcare": "hospital", "name": "Infirmerie"}}, {"name": "Hôpital d'Aokas", "latitude": 36.6375979, "longitude": 5.2404963, "source": "osm", "_tags": {"addr:postcode": "06007", "amenity": "hospital", "healthcare": "hospital", "language:ar": "main", "name": "Hôpital d'Aokas", "name:ar": "مستشفى أوقاس"}}, {"name": "Polyclinique Souk El Tenine", "latitude": 36.6262547, "longitude": 5.3361529, "source": "osm", "_tags": {"amenity": "hospital", "healthcare": "hospital", "name": "Polyclinique Souk El Tenine", "name:fr": "Polyclinique Souk-El-Tenine"}}, {"name": "", "latitude": 36.5478992, "longitude": 5.2761375, "source": "osm", "_tags": {"amenity": "hospital", "healthcare": "hospital", "healthcare:speciality": "multi_speciality", "language:ar": "yes"}}, {"name": "", "latitude": 36.6149609, "longitude": 5.1635792, "source": "osm", "_tags": {"amenity": "hospital", "emergency": "yes", "healthcare": "hospital", "language:ar": "main"}}, {"name": "Salle de soins Aberouak", "latitude": 36.6992209, "longitude": 5.0006724, "source": "osm", "_tags": {"amenity": "hospital", "healthcare": "hospital", "name": "Salle de soins Aberouak", "name:ar": "قاعة العلاج ابرواق", "name:en": "Aberouak treatment room", "name:fr": "Salle de soins Aberouak"}}, {"name": "Hôpital Psychiatrique", "latitude": 36.8154767, "longitude": 5.7650093, "source": "osm", "_tags": {"amenity": "hospital", "healthcare": "hospital", "name": "Hôpital Psychiatrique"}}, {"name": "", "latitude": 36.6289608, "longitude": 5.3390171, "source": "osm", "_tags": {"amenity": "hospital"}}, {"name": "Hopital Merouaha المركز الصحي مرواحة", "latitude": 36.4513651, "longitude": 5.3061134, "source": "osm", "_tags": {"amenity": "hospital", "healthcare": "hospital", "name": "Hopital Merouaha المركز الصحي مرواحة", "name:ar": "المركز الصحي مرواحة"}}, {"name": "المؤسسة العمومية للصحة الجوارية خراطة", "latitude": 36.4918438, "longitude": 5.277096, "source": "osm", "_tags": {"amenity": "hospital", "healthcare": "hospital", "name": "المؤسسة العمومية للصحة الجوارية خراطة"}}]