[{"name": "Hopital Zighoud Youcef مستشفى زيغود يوسف", "latitude": 36.5031388, "longitude": 1.2939915, "source": "osm", "_tags": {"amenity": "hospital", "healthcare": "hospital", "name": "Hopital Zighoud Youcef مستشفى زيغود يوسف", "name:ar": "مستشفى زيغود يوسف", "name:en": "Zighoud Youssef Hospital", "name:fr": "Zighoud Youssef Hospital"}}, {"name": "Hôpital de Ténès", "latitude": 36.5128504, "longitude": 1.3065041, "source": "osm", "_tags": {"addr:city": "Ténès", "addr:postcode": "02006", "amenity": "hospital", "healthcare": "hospital", "name": "Hôpital de Ténès", "name:ar": "مستشفى تنس", "name:fr": "مستشفى تنس"}}, {"name": "Annexe maternité", "latitude": 36.5732429, "longitude": 1.9053958, "source": "osm", "_tags": {"amenity": "hospital", "emergency": "yes", "healthcare": "hospital", "name": "Annexe maternité", "name:ar": "مصلحة الأمومة"}}, {"name": "Hôpital", "latitude": 36.572394, "longitude": 1.9059303, "source": "osm", "_tags": {"addr:city": "Gouraya", "amenity": "hospital", "emergency": "yes", "healthcare": "hospital", "name": "Hôpital", "name:ar": "مستشفى", "name:fr": "Hôpital"}}, {"name": "", "latitude": 36.5112357, "longitude": 1.5701306, "source": "osm", "_tags": {"amenity": "hospital", "name:ar": "قاعة علاج", "name:fr": "Salle de soins"}}, {"name": "Hopital psychiatrique de TENES مستشفى الأمراض النفسية", "latitude": 36.5035017, "longitude": 1.2699899, "source": "osm", "_tags": {"addr:city": "تنس", "addr:city:ar": "تنس", "addr:place": "الشعارير", "addr:place:ar": "الشعارير", "amenity": "hospital", "healthcare": "hospital", "healthcare:speciality": "psychiatry", "name": "Hopital psychiatrique de TENES مستشفى الأمراض النفسية", "name:ar": "مستشفى الأمراض النفسية", "name:en": "Psychiatric Hospital of tenes"}}, {"name": "Polyclinique Chaarir قاعة العلاج الشعارير", "latitude": 36.5041052, "longitude": 1.2770103, "source": "osm", "_tags": {"addr:city": "تنس", "addr:city:ar": "تنس", "addr:place": "الشعارير", "addr:place:ar": "الشعارير", "amenity": "hospital", "healthcare": "hospital", "name": "Polyclinique Chaarir قاعة العلاج الشعارير", "name:ar": "قاعة العلاج الشعارير", "name:fr": "Polyclinique Chaarir"}}, {"name": "قاعة العلاج خلوفة", "latitude": 36.4811665, "longitude": 1.4944452, "source": "osm", "_tags": {"amenity": "hospital", "healthcare": "hospital", "name": "قاعة العلاج خلوفة", "name:ar": "قاعة العلاج خلوفة"}}]