[{"name": "Hôpital de kélibia", "latitude": 36.8541218, "longitude": 11.0909707, "source": "osm", "_tags": {"amenity": "hospital", "area": "yes", "barrier": "wall", "emergency": "yes", "healthcare": "hospital", "name": "Hôpital de kélibia"}}, {"name": "المستشفى الجهوي بمنزل تميم", "latitude": 36.7782263, "longitude": 10.9975643, "source": "osm", "_tags": {"addr:street": "Rue de la Plage", "amenity": "hospital", "barrier": "fence", "emergency": "yes", "fence_type": "metal", "healthcare": "hospital", "name": "المستشفى الجهوي بمنزل تميم", "name:ar": "المستشفى الجهوي بمنزل تميم", "name:fr": "Hôpital Régional de Menzel Temine", "phone": "+216 72 344 155;+216 72 344 167"}}, {"name": "Hôpital De Haouaria", "latitude": 37.052653, "longitude": 11.0167741, "source": "osm", "_tags": {"addr:city": "El Haouaria", "addr:street": "Rue du Festival", "amenity": "hospital", "healthcare": "hospital", "name": "Hôpital De Haouaria", "phone": "+216 72 297 054"}}, {"name": "Polyclinique du Cap Bon", "latitude": 36.7861024, "longitude": 11.009095, "source": "osm", "_tags": {"addr:city": "", "addr:street": "Route De Kelibia", "amenity": "hospital", "healthcare": "hospital", "name": "Polyclinique du Cap Bon", "phone": "+216 31 346 000"}}, {"name": "Clinique Menzel Horr", "latitude": 36.7270499, "longitude": 10.9553316, "source": "osm", "_tags": {"amenity": "hospital", "emergency": "no", "healthcare": "hospital", "healthcare:speciality": "general", "name": "Clinique Menzel Horr", "wheelchair": "yes"}}]