[{"name": "Ospedale Michele Chiello", "latitude": 37.3979956, "longitude": 14.3780867, "source": "osm", "_tags": {"amenity": "hospital", "emergency": "yes", "name": "Ospedale Michele Chiello"}}, {"name": "Emergency Room", "latitude": 36.9046574, "longitude": 14.6804238, "source": "osm", "_tags": {"amenity": "hospital", "healthcare": "hospital", "name": "Emergency Room"}}, {"name": "Ospedale Regina Margherita", "latitude": 36.9583557, "longitude": 14.6081055, "source": "osm", "_tags": {"amenity": "hospital", "healthcare": "hospital", "name": "Ospedale Regina Margherita", "operator": "Azienda Sanitaria Provinciale di Ragusa", "phone": "+39 0932 740111", "wheelchair": "yes"}}, {"name": "Presidio Ospedaliero Gravina e San Pietro - ospedale Gravina", "latitude": 37.2219852, "longitude": 14.5158985, "source": "osm", "_tags": {"amenity": "hospital", "emergency": "yes", "healthcare": "hospital", "name": "Presidio Ospedaliero Gravina e San Pietro - ospedale Gravina", "operator": "Azienda Sanitaria Provinciale di Catania", "operator:type": "public", "phone": "+39 0933 39446", "short_name": "Ospedale Gravina", "website": "https://www.aspct.it/azienda/presidi-ospedalieri/caltagirone/"}}, {"name": "Ospedale Civile Vittorio Emanuele", "latitude": 37.0732843, "longitude": 14.2303945, "source": "osm", "_tags": {"amenity": "hospital", "contact:city": "Gela", "contact:housenumber": "173", "contact:phone": "+39 0933 930030", "contact:postcode": "93012", "contact:street": "Via Palazzi", "emergency": "yes", "name": "Ospedale Civile Vittorio Emanuele", "source": "local_knowledge", "wheelchair": "yes"}}, {"name": "Ospedale Busacca", "latitude": 36.7948868, "longitude": 14.6995643, "source": "osm", "_tags": {"amenity": "hospital", "emergency": "yes", "healthcare": "hospital", "name": "Ospedale Busacca", "operator": "Azienda Sanitaria Provinciale di Ragusa", "phone": "+39 0932 446511"}}, {"name": "Ospedale Maria Paternò Arezzo", "latitude": 36.9222698, "longitude": 14.7424568, "source": "osm", "_tags": {"amenity": "hospital", "healthcare": "hospital", "name": "Ospedale Maria Paternò Arezzo", "operator": "Azienda Sanitaria Provinciale di Ragusa", "phone": "+39 0932 600111", "short_name": "Ospedale Paternò Arezzo", "toilets:wheelchair": "yes", "wheelchair": "yes"}}, {"name": "Presidio Ospedaliero Gravina e San Pietro - ospedale San Pietro", "latitude": 37.1055903, "longitude": 14.4930301, "source": "osm", "_tags": {"amenity": "hospital", "healthcare": "hospital", "name": "Presidio Ospedaliero Gravina e San Pietro - ospedale San Pietro", "operator": "Azienda Sanitaria Provinciale di Catania", "phone": "+39 0933 20178", "short_name": "Ospedale Santo Pietro", "website": "https://www.aspct.it/azienda/presidi-ospedalieri/caltagirone/"}}, {"name": "Ospedale Maggiore Nino Baglieri", "latitude": 36.83926, "longitude": 14.7652072, "source": "osm", "_tags": {"amenity": "hospital", "emergency": "yes", "healthcare": "hospital", "name": "Ospedale Maggiore Nino Baglieri", "note": "intitolato con delibera GM n. 58/2022", "operator": "Azienda Sanitaria Provinciale di Ragusa", "phone": "+39 0932 448111", "short_name": "Ospedale Maggiore"}}, {"name": "Ospedale Riccardo Guzzardi", "latitude": 36.9538288, "longitude": 14.5457038, "source": "osm", "_tags": {"amenity": "hospital", "emergency": "yes", "healthcare": "hospital", "name": "Ospedale Riccardo Guzzardi", "operator": "Azienda Sanitaria Provinciale di Ragusa", "phone": "+39 0932 999111", "short_name": "Ospedale Guzzardi"}}, {"name": "Ospedale Giovanni Paolo II", "latitude": 36.9049399, "longitude": 14.6811254, "source": "osm", "_tags": {"amenity": "hospital", "emergency": "yes", "healthcare": "hospital", "name": "Ospedale Giovanni Paolo II", "operator": "Azienda Sanitaria Provinciale di Ragusa", "phone": "+39 0932 600111"}}, {"name": "Ospedale Suor Cecilia Basarocco", "latitude": 37.1526126, "longitude": 14.3848307, "source": "osm", "_tags": {"amenity": "hospital", "name": "Ospedale Suor Cecilia Basarocco"}}, {"name": "Ospedale Mario Basso Ragusa", "latitude": 37.277613, "longitude": 14.7959188, "source": "osm", "_tags": {"amenity": "hospital", "healthcare": "hospital", "name": "Ospedale Mario Basso Ragusa", "operator": "Azienda Sanitaria Provinciale di Catania", "short_name": "Ospedale Basso Ragusa", "website": "https://www.aspct.it/azienda/presidi-ospedalieri/militello/"}}, {"name": "Presidio Ospedaliero Santo Stefano", "latitude": 37.3034183, "longitude": 14.2088273, "source": "osm", "_tags": {"amenity": "hospital", "healthcare": "hospital", "name": "Presidio Ospedaliero Santo Stefano", "operator": "Azienda Sanitaria Provinciale Caltanissetta"}}, {"name": "Ospedale Salvatore Federico", "latitude": 37.1881779, "longitude": 14.1845215, "source": "osm", "_tags": {"amenity": "hospital", "building": "hospital", "name": "Ospedale Salvatore Federico"}}]