[{"name": "Centro de Salud Águilas Norte", "latitude": 37.4154427, "longitude": -1.5772339, "source": "osm", "_tags": {"amenity": "hospital", "healthcare": "hospital", "name": "Centro de Salud Águilas Norte"}}, {"name": "Policlínica Águilas", "latitude": 37.4037285, "longitude": -1.5896641, "source": "osm", "_tags": {"addr:street": "Calle Juan Gray", "amenity": "hospital", "email": "informacion@policlinicaaguilas.com", "name": "Policlínica Águilas", "website": "https://www.policlinicaaguilas.com/"}}, {"name": "Hospital Virgen del Alcázar", "latitude": 37.4033927, "longitude": -1.5960968, "source": "osm", "_tags": {"amenity": "hospital", "name": "Hospital Virgen del Alcázar", "phone": "+34 868021782", "website": "https://www.virgendelalcazar.com/centros/aguilas"}}, {"name": "Cruz Roja", "latitude": 37.1186726, "longitude": -1.83438, "source": "osm", "_tags": {"addr:city": "Mojácar Playa", "addr:housenumber": "20", "addr:postcode": "04638", "addr:street": "Paseo del Mediterráneo", "amenity": "hospital", "building": "yes", "email": "mojacar@cruzroja.es", "emergency": "no", "fax": "+34950255325", "healthcare": "hospital", "image": "https://www.cruzroja.es/principal/image/journal/article?img_id=2385961&t=1571035948208", "name": "Cruz Roja", "opening_hours": "Mo-Fr 09:00-14:00", "operator": "Cruz Roja", "operator:wikidata": "Q7178", "phone": "+34950478952", "website": "https://www.cruzroja.es/principal/web/provincial-almeria/asamblea-local-mojacar", "wheelchair": "yes"}}, {"name": "Hospital La Inmaculada", "latitude": 37.4013857, "longitude": -1.9420063, "source": "osm", "_tags": {"addr:postcode": "04600", "addr:street": "Avenida de la Doctora Ana Parra", "amenity": "hospital", "emergency": "yes", "healthcare": "hospital", "name": "Hospital La Inmaculada", "network": "Servicio Andaluz de Salud", "network:short": "SAS", "operator": "Servicio Andaluz de Salud", "operator:short": "SAS", "operator:type": "public", "operator:wikidata": "Q4753529", "phone": "+34 950029000", "website": "https://www.sspa.juntadeandalucia.es/servicioandaluzdesalud/el-sas/servicios-y-centros/informacion-por-centros/16411", "wikidata": "Q5902730", "wikipedia": "es:Hospital La Inmaculada"}}]