[{"name": "", "latitude": 36.8584766, "longitude": 7.2934883, "source": "osm", "_tags": {"amenity": "hospital", "healthcare": "hospital"}}, {"name": "مستشفى ابن رشد", "latitude": 36.9107362, "longitude": 7.746547, "source": "osm", "_tags": {"addr:postcode": "23000", "amenity": "hospital", "healthcare": "hospital", "name": "مستشفى ابن رشد", "name:ar": "مستشفى ابن رشد", "name:en": "Ibn Rochd Hospital", "name:fr": "Hôpital Ibn Rochd"}}, {"name": "المؤسسة الاستشفائية المتخصصة عبد الله نواورية البوني أمراض النساء والتوليد جراحة الأطفال جراحة التوليد", "latitude": 36.8562889, "longitude": 7.7372108, "source": "osm", "_tags": {"amenity": "hospital", "emergency": "Généco-obstetrique", "healthcare": "hospital", "healthcare:speciality": "gynaecology;paediatrics", "name": "المؤسسة الاستشفائية المتخصصة عبد الله نواورية البوني أمراض النساء والتوليد جراحة الأطفال جراحة التوليد", "name:ar": "المؤسسة الاستشفائية المتخصصة عبد الله نواورية البوني أمراض النساء والتوليد جراحة الأطفال جراحة التوليد", "name:fr": "Abdellah Nouaria El-Bouni"}}, {"name": "", "latitude": 36.8338193, "longitude": 7.4603361, "source": "osm", "_tags": {"amenity": "hospital", "healthcare": "hospital", "name:fr": "Hôpital"}}, {"name": "مستشفى ابن سينا", "latitude": 36.9042439, "longitude": 7.7667381, "source": "osm", "_tags": {"amenity": "hospital", "name": "مستشفى ابن سينا", "name:ar": "مستشفى ابن سينا", "name:en": "Ibn Sina Hospital", "name:fr": "Hôpital Ibn Sina (ex Caroubier)"}}, {"name": "", "latitude": 36.7066201, "longitude": 7.8508323, "source": "osm", "_tags": {"amenity": "hospital", "healthcare": "hospital"}}, {"name": "CHU Ibn Rochd", "latitude": 36.9107529, "longitude": 7.7465599, "source": "osm", "_tags": {"amenity": "hospital", "emergency": "yes", "healthcare": "hospital", "name": "CHU Ibn Rochd"}}, {"name": "Hôpital de El Bouni", "latitude": 36.856035, "longitude": 7.7372582, "source": "osm", "_tags": {"addr:city": "El Bouni", "amenity": "hospital", "emergency": "yes", "name": "Hôpital de El Bouni"}}, {"name": "", "latitude": 36.8581387, "longitude": 7.7840698, "source": "osm", "_tags": {"amenity": "hospital"}}, {"name": "", "latitude": 36.7222724, "longitude": 7.7258673, "source": "osm", "_tags": {"amenity": "hospital"}}, {"name": "مركز الصحة حجر الديس", "latitude": 36.786529, "longitude": 7.6161324, "source": "osm", "_tags": {"addr:city": "سيدي عمار", "addr:city:ar": "سيدي عمار", "addr:place": "حجر الديس", "addr:place:ar": "حجر الديس", "amenity": "hospital", "emergency": "yes", "healthcare": "hospital", "name": "مركز الصحة حجر الديس", "name:ar": "مركز الصحة حجر الديس", "name:fr": "Centre de santé Hadjar Eddis"}}, {"name": "Hôpital El Hakim Okbi", "latitude": 36.4558119, "longitude": 7.4355674, "source": "osm", "_tags": {"addr:city": "Guelma", "addr:postcode": "24000", "amenity": "hospital", "emergency": "yes", "healthcare": "hospital", "name": "Hôpital El Hakim Okbi"}}, {"name": "", "latitude": 36.7044522, "longitude": 7.8330529, "source": "osm", "_tags": {"addr:city": "Besbes", "amenity": "hospital", "name:fr": "Hôpital de Besbes"}}, {"name": "Hôpital psychiatrique Aboubaker Errazi", "latitude": 36.8984189, "longitude": 7.7248659, "source": "osm", "_tags": {"addr:city": "Annaba", "addr:postcode": "23000", "addr:street": "Boulevard Belaid Belkacem", "amenity": "hospital", "barrier": "wall", "healthcare:speciality": "psychiatry", "name": "Hôpital psychiatrique Aboubaker Errazi", "phone": "+213 38 84 97 52"}}, {"name": "centre de santé", "latitude": 36.4457916, "longitude": 7.3092239, "source": "osm", "_tags": {"amenity": "hospital", "emergency": "yes", "name": "centre de santé"}}, {"name": "Hôpital Frantz Fanon", "latitude": 36.903458, "longitude": 7.7661068, "source": "osm", "_tags": {"addr:city": "Annaba", "addr:postcode": "23000", "amenity": "hospital", "emergency": "yes", "name": "Hôpital Frantz Fanon"}}, {"name": "Centre Sanitaire", "latitude": 36.9039598, "longitude": 7.7577703, "source": "osm", "_tags": {"amenity": "hospital", "healthcare": "hospital", "name": "Centre Sanitaire"}}, {"name": "EHS Seraïdi", "latitude": 36.9094797, "longitude": 7.6767212, "source": "osm", "_tags": {"amenity": "hospital", "name": "EHS Seraïdi"}}, {"name": "مستشفى أحمد قواسمي", "latitude": 37.0665604, "longitude": 7.3780062, "source": "osm", "_tags": {"addr:city": "شطايبي", "addr:city:ar": "شطايبي", "addr:postcode": "23014", "addr:street": "نهج حفصاوي عمار", "addr:street:ar": "نهج حفصاوي عمار", "amenity": "hospital", "healthcare": "hospital", "name": "مستشفى أحمد قواسمي", "name:ar": "مستشفى أحمد قواسمي", "name:fr": "Hôpital Ahmed Gouasmi"}}, {"name": "Hôpital de Bouchegouf", "latitude": 36.4720754, "longitude": 7.7253534, "source": "osm", "_tags": {"amenity": "hospital", "name": "Hôpital de Bouchegouf"}}, {"name": "Hopital d'El-hadjar", "latitude": 36.8044617, "longitude": 7.7443252, "source": "osm", "_tags": {"amenity": "hospital", "name": "Hopital d'El-hadjar", "operator": "مستشفى الحجار", "phone": "038 89 29 94"}}, {"name": "Hôpital Dorban Annaba", "latitude": 36.9093599, "longitude": 7.7300736, "source": "osm", "_tags": {"addr:city": "Annaba", "addr:postcode": "23000", "addr:street": "Rue Bicha Youcef", "amenity": "hospital", "name": "Hôpital Dorban Annaba", "name:ar": "مستشفى ضربان - عنابة", "phone": "038 83 46 76"}}, {"name": "Centre de sente", "latitude": 36.7222649, "longitude": 7.7259286, "source": "osm", "_tags": {"amenity": "hospital", "name": "Centre de sente"}}, {"name": "مستشفى ابن زهر", "latitude": 36.4632911, "longitude": 7.4284369, "source": "osm", "_tags": {"addr:city": "قالمة", "addr:postcode": "24000", "amenity": "hospital", "healthcare": "hospital", "name": "مستشفى ابن زهر", "name:ar": "مستشفى ابن زهر", "name:fr": "Hôpital Ibn Zohr"}}, {"name": "Nouvel Hôpital de Guelma", "latitude": 36.4516763, "longitude": 7.4428076, "source": "osm", "_tags": {"addr:city": "Guelma", "addr:postcode": "24000", "amenity": "hospital", "healthcare": "hospital", "name": "Nouvel Hôpital de Guelma"}}, {"name": "مستشفى أمراض الأطفال سان تيراس", "latitude": 36.9189504, "longitude": 7.7604144, "source": "osm", "_tags": {"addr:city": "عنابة", "addr:city:ar": "عنابة", "addr:postcode": "23000", "amenity": "hospital", "healthcare": "hospital", "healthcare:speciality": "paediatrics", "name": "مستشفى أمراض الأطفال سان تيراس", "name:ar": "مستشفى أمراض الأطفال سان تيراس", "name:fr": "Hôpital Pediatrique Sainte Thérèse"}}, {"name": "Hopital De Ain Berda", "latitude": 36.6510644, "longitude": 7.5900377, "source": "osm", "_tags": {"amenity": "hospital", "healthcare": "hospital", "name": "Hopital De Ain Berda"}}, {"name": "", "latitude": 36.8584326, "longitude": 7.2935634, "source": "osm", "_tags": {"amenity": "hospital", "healthcare": "hospital"}}, {"name": "", "latitude": 36.8337168, "longitude": 7.4604417, "source": "osm", "_tags": {"amenity": "hospital", "healthcare": "hospital"}}, {"name": "مصحة المنظر الجميل", "latitude": 36.9081847, "longitude": 7.7469129, "source": "osm", "_tags": {"amenity": "hospital", "healthcare": "hospital", "name": "مصحة المنظر الجميل", "name:ar": "مصحة المنظر الجميل", "name:fr": "Clinique Bellevue"}}, {"name": "", "latitude": 36.7066126, "longitude": 7.850772, "source": "osm", "_tags": {"amenity": "hospital", "healthcare": "hospital"}}]