[{"name": "Bozburun sağlık ocağı", "latitude": 36.6850995, "longitude": 28.0590814, "source": "osm", "_tags": {"amenity": "hospital", "name": "Bozburun sağlık ocağı"}}, {"name": "Özel Ahu Hetman Hastanesi", "latitude": 36.8480579, "longitude": 28.2555799, "source": "osm", "_tags": {"addr:city": "Marmaris", "addr:country": "TR", "addr:district": "Marmaris", "addr:housenumber": "3", "addr:postcode": "48700", "addr:province": "Muğla", "addr:street": "167. Sokak", "amenity": "hospital", "emergency": "yes", "healthcare": "hospital", "name": "Özel Ahu Hetman Hastanesi", "phone": "+902524177777", "website": "https://ahuhastanesi.com/"}}, {"name": "Özel Marmaris Hastanesi", "latitude": 36.85136, "longitude": 28.2570559, "source": "osm", "_tags": {"addr:city": "Marmaris/Muğla", "addr:country": "TR", "addr:district": "Marmaris", "addr:housenumber": "30", "addr:postcode": "48700", "addr:province": "Muğla", "addr:street": "İnönü Caddesi", "amenity": "hospital", "emergency": "yes", "healthcare": "hospital", "name": "Özel Marmaris Hastanesi", "phone": "+902524136000", "website": "https://www.omh.com.tr/"}}, {"name": "Marmaris Devlet Hastanesi", "latitude": 36.859285, "longitude": 28.257985, "source": "osm", "_tags": {"addr:city": "Marmaris", "addr:country": "TR", "addr:district": "Marmaris", "addr:province": "Muğla", "amenity": "hospital", "emergency": "yes", "name": "Marmaris Devlet Hastanesi", "wheelchair": "yes"}}, {"name": "Marmaris Yücelen Hastanesi", "latitude": 36.8818596, "longitude": 28.2650624, "source": "osm", "_tags": {"amenity": "hospital", "building": "hospital", "healthcare": "hospital", "name": "Marmaris Yücelen Hastanesi", "source": "bing", "wheelchair": "yes"}}, {"name": "Muğla Eğitim ve Araştırma Hastanesi", "latitude": 37.1655239, "longitude": 28.3662463, "source": "osm", "_tags": {"amenity": "hospital", "emergency": "yes", "health_specialty:anaesthetics": "yes", "health_specialty:cardiac_surgery": "yes", "health_specialty:cardiology": "yes", "health_specialty:dermatology": "yes", "health_specialty:endocrinology": "yes", "health_specialty:gastroenterology": "yes", "health_specialty:gynaecology": "yes", "health_specialty:haematology": "yes", "health_specialty:infectious_diseases": "yes", "health_specialty:internal": "yes", "health_specialty:nephrology": "yes", "health_specialty:neurology": "yes", "health_specialty:neurosurgery": "yes", "health_specialty:nuclear": "yes", "health_specialty:ophthalmology": "yes", "health_specialty:orthopaedics": "yes", "health_specialty:otolaryngology": "yes", "health_specialty:paediatric_surgery": "yes", "health_specialty:paediatrics": "yes", "health_specialty:physiatry": "yes", "health_specialty:plastic_surgery": "yes", "health_specialty:psychiatry": "yes", "health_specialty:pulmonology": "yes", "health_specialty:radiology": "yes", "health_specialty:rheumatology": "yes", "health_specialty:surgery": "yes", "health_specialty:urology": "yes", "healthcare": "hospital", "name": "Muğla Eğitim ve Araştırma Hastanesi", "operator": "Sağlık Bakanlığı", "operator:type": "government", "operator:wikidata": "Q4294365"}}, {"name": "Muğla Yücelen Hastanesi", "latitude": 37.1772116, "longitude": 28.3718042, "source": "osm", "_tags": {"addr:city": "Muğla", "addr:district": "Merkez", "amenity": "hospital", "emergency": "yes", "healthcare": "hospital", "name": "Muğla Yücelen Hastanesi", "phone": "0252 223 80 40"}}, {"name": "Muğla Devlet Hastanesi", "latitude": 37.2132465, "longitude": 28.3695595, "source": "osm", "_tags": {"addr:city": "Muğla", "addr:district": "Menteşe", "amenity": "hospital", "emergency": "yes", "healthcare": "hospital", "name": "Muğla Devlet Hastanesi"}}, {"name": "Yatağan Devlet Hastanesi", "latitude": 37.3531196, "longitude": 28.1577207, "source": "osm", "_tags": {"addr:city": "Muğla", "addr:district": "Yatağan", "addr:housenumber": "82", "addr:neighbourhood": "Atatürk Mah.", "addr:street": "Mustafa Kemal Atatürk Bulvarı", "amenity": "hospital", "emergency": "yes", "healthcare": "hospital", "name": "Yatağan Devlet Hastanesi", "operator": "Sağlık Bakanlığı", "operator:type": "government", "operator:wikidata": "Q4294365", "phone": "+90 252 572 50 34", "website": "https://yatagandh.saglik.gov.tr/"}}, {"name": "Ortaca Devlet Hastanesi", "latitude": 36.8535052, "longitude": 28.7594705, "source": "osm", "_tags": {"amenity": "hospital", "emergency": "yes", "healthcare": "hospital", "healthcare:speciality": "anaesthetics;infectious_diseases;physiatry;surgery;ophthalmology;internal;gynaecology;cardiology;otolaryngology;neurology;orthopaedics;psychiatry;urology;paediatrics;radiology;emergency;pulmonology", "name": "Ortaca Devlet Hastanesi", "name:en": "Ortaca Public Hospital", "operator": "Sağlık Bakanlığı", "operator:type": "government", "operator:wikidata": "Q4294365", "phone": "+90 0252 2825313"}}, {"name": "Ortaca Yücelen Hastanesi", "latitude": 36.844946, "longitude": 28.7683744, "source": "osm", "_tags": {"addr:housenumber": "80", "amenity": "hospital", "emergency": "yes", "healthcare": "hospital", "healthcare:speciality": "emergency;paediatrics;internal;physiatry;surgery;ophthalmology;otolaryngology;cardiology;gynaecology;neurology;orthopaedics;radiology;urology;neurosurgery;dermatology;pulmonology", "name": "Ortaca Yücelen Hastanesi", "name:en": "Ortaca Yücelen Hospital", "phone": "+90 4448040"}}, {"name": "", "latitude": 36.7848936, "longitude": 28.8107108, "source": "osm", "_tags": {"amenity": "hospital", "emergency": "yes", "healthcare": "hospital"}}, {"name": "Marmaris Devlet Hastanesi", "latitude": 36.8703644, "longitude": 28.2679041, "source": "osm", "_tags": {"addr:district": "Marmaris", "addr:housenumber": "20", "addr:neighbourhood": "Beldibi Mahallesi", "addr:postcode": "48700", "addr:street": "Atatürk Caddesi", "amenity": "hospital", "barrier": "wall", "contact:email": "marmarisdh@saglik.gov.tr", "contact:facebook": "https://www.facebook.com/Marmaris.Devlet.Hastanesi/", "contact:fax": "+90 252 412 50 94", "contact:phone": "+90 252 412 10 29;+90 252 413 44 55;+90 252 413 44 56;+90 252 413 44 57", "contact:twitter": "https://twitter.com/marmarisdh", "contact:website": "https://marmarisdh.saglik.gov.tr", "name": "Marmaris Devlet Hastanesi", "operator": "Muğla İl Sağlık Müdürlüğü"}}, {"name": "Köyceğiz Devlet Hastanesi", "latitude": 36.9805614, "longitude": 28.6803338, "source": "osm", "_tags": {"amenity": "hospital", "emergency": "yes", "healthcare": "hospital", "healthcare:speciality": "anaesthetics;dentistry;surgery;internal;radiology;gynaecology;paediatrics", "name": "Köyceğiz Devlet Hastanesi", "operator": "Sağlık Bakanlığı", "operator:wikidata": "Q4294365", "operator:wikipedia": "tr:Türkiye Cumhuriyeti Sağlık Bakanlığı", "type": "multipolygon"}}]