[{"name": "PAÜ Tıp Fakültesi Acil Servis", "latitude": 37.7404059, "longitude": 29.1067181, "source": "osm", "_tags": {"amenity": "hospital", "healthcare": "hospital", "name": "PAÜ Tıp Fakültesi Acil Servis"}}, {"name": "Denipol Hastanesi", "latitude": 37.7779559, "longitude": 29.0567611, "source": "osm", "_tags": {"addr:housenumber": "102", "addr:postcode": "20010", "addr:street": "29 Ekim Bulvarı", "amenity": "hospital", "name": "Denipol Hastanesi", "name:en": "“Denipol” Hospital", "phone": "+902582636969", "website": "http://denipolhastanesi.com/"}}, {"name": "Denizli Devlet Hastanesi", "latitude": 37.7836535, "longitude": 29.0786931, "source": "osm", "_tags": {"amenity": "hospital", "healthcare": "hospital", "name": "Denizli Devlet Hastanesi"}}, {"name": "Servergazi Devlet Hastanesi", "latitude": 37.7767263, "longitude": 29.0190606, "source": "osm", "_tags": {"addr:city": "Denizli", "amenity": "hospital", "emergency": "yes", "healthcare": "hospital", "name": "Servergazi Devlet Hastanesi"}}, {"name": "Tekden Hastanesi", "latitude": 37.7806976, "longitude": 29.0696547, "source": "osm", "_tags": {"amenity": "hospital", "healthcare": "hospital", "name": "Tekden Hastanesi"}}, {"name": "Özel Denizli Sağlık Hastanesi", "latitude": 37.7741483, "longitude": 29.0447103, "source": "osm", "_tags": {"addr:city": "Merkezefendi/Denizli", "addr:housenumber": "23", "addr:street": "3007. Sokak", "amenity": "hospital", "healthcare": "hospital", "name": "Özel Denizli Sağlık Hastanesi", "phone": "+90 258 264 44 11"}}, {"name": "Özel Odak Hastanesi", "latitude": 37.7849131, "longitude": 29.0934489, "source": "osm", "_tags": {"addr:city": "Denizli", "addr:district": "Merkezefendi", "addr:housenumber": "18", "addr:street": "İzmir Bulvarı", "amenity": "hospital", "emergency": "yes", "healthcare": "hospital", "name": "Özel Odak Hastanesi", "phone": "+90 258 264 46 46"}}, {"name": "Denizli Cerrahi Hastanesi", "latitude": 37.7394384, "longitude": 29.1133722, "source": "osm", "_tags": {"addr:city": "Pamukkale/Denizli", "amenity": "hospital", "emergency": "yes", "healthcare": "hospital", "name": "Denizli Cerrahi Hastanesi"}}, {"name": "Özel Denizli Şifa Hastanesi", "latitude": 37.7807126, "longitude": 29.082807, "source": "osm", "_tags": {"amenity": "hospital", "building": "hospital", "emergency": "yes", "healthcare": "hospital", "name": "Özel Denizli Şifa Hastanesi"}}, {"name": "Özel Ladik Hastanesi", "latitude": 37.7799829, "longitude": 29.0616321, "source": "osm", "_tags": {"addr:city": "Merkezefendi/Denizli", "amenity": "hospital", "emergency": "no", "healthcare": "hospital", "name": "Özel Ladik Hastanesi"}}, {"name": "Özel Ege Akademi Göz Hastanesi", "latitude": 37.780154, "longitude": 29.0605143, "source": "osm", "_tags": {"addr:city": "Merkezefendi/Denizli", "addr:housenumber": "15", "addr:street": "438. Sokak", "amenity": "hospital", "healthcare": "hospital", "name": "Özel Ege Akademi Göz Hastanesi", "phone": "+90 258 377 77 77"}}, {"name": "Honaz Devlet Hastanesi", "latitude": 37.7592007, "longitude": 29.2666191, "source": "osm", "_tags": {"amenity": "hospital", "emergency": "yes", "healthcare": "hospital", "name": "Honaz Devlet Hastanesi", "operator": "Sağlık Bakanlığı", "operator:wikidata": "Q4294365"}}, {"name": "Acıpayam Devlet Hastanesi", "latitude": 37.4281397, "longitude": 29.3352822, "source": "osm", "_tags": {"addr:city": "Denizli", "addr:district": "Acıpayam", "amenity": "hospital", "healthcare": "hospital", "name": "Acıpayam Devlet Hastanesi", "website": "https://acipayamdh.saglik.gov.tr"}}, {"name": "Özel Ege Hastanesi", "latitude": 37.7810427, "longitude": 29.0817557, "source": "osm", "_tags": {"amenity": "hospital", "building": "hospital", "emergency": "yes", "healthcare": "hospital", "name": "Özel Ege Hastanesi"}}, {"name": "Denizli Devlet Hastanesi Pamukkale Belediyesi Semt Polikliniği", "latitude": 37.791612, "longitude": 29.1029608, "source": "osm", "_tags": {"amenity": "hospital", "building": "hospital", "emergency": "no", "healthcare": "hospital", "name": "Denizli Devlet Hastanesi Pamukkale Belediyesi Semt Polikliniği"}}, {"name": "Tavas Devlet Hastanesi", "latitude": 37.5653066, "longitude": 29.0746702, "source": "osm", "_tags": {"addr:city": "Denizli", "addr:district": "Tavas", "amenity": "hospital", "emergency": "yes", "healthcare": "hospital", "name": "Tavas Devlet Hastanesi", "name:en": "Tavas City Hospital", "operator": "Sağlık Bakanlığı", "operator:type": "government", "operator:wikidata": "Q4294365", "phone": "+90 258 613 1024", "website": "https://tavasdh.saglik.gov.tr/"}}, {"name": "Çal Devlet Hastanesi", "latitude": 38.0815038, "longitude": 29.3925599, "source": "osm", "_tags": {"amenity": "hospital", "emergency": "yes", "healthcare": "hospital", "name": "Çal Devlet Hastanesi"}}, {"name": "Eşme Devlet Hastanesi", "latitude": 38.3959875, "longitude": 28.9892077, "source": "osm", "_tags": {"amenity": "hospital", "healthcare": "hospital", "name": "Eşme Devlet Hastanesi"}}]