[{"name": "Kuşadası Özel Hastanesi", "latitude": 37.8600215, "longitude": 27.2678679, "source": "osm", "_tags": {"amenity": "hospital", "emergency": "yes", "healthcare": "hospital", "name": "Kuşadası Özel Hastanesi"}}, {"name": "Dokuz Eylül Üniversitesi Hastanesi", "latitude": 38.3951225, "longitude": 27.034139, "source": "osm", "_tags": {"amenity": "hospital", "healthcare": "hospital", "name": "Dokuz Eylül Üniversitesi Hastanesi"}}, {"name": "Fizik", "latitude": 37.8497511, "longitude": 27.8373463, "source": "osm", "_tags": {"amenity": "hospital", "name": "Fizik"}}, {"name": "Menderes Devlet Hastanesi", "latitude": 38.2384068, "longitude": 27.135861, "source": "osm", "_tags": {"addr:housenumber": "147", "addr:postcode": "35471", "addr:street": "Menderes-Gümüldür Yolu", "amenity": "hospital", "internet_access": "wlan", "name": "Menderes Devlet Hastanesi", "opening_hours": "24/7", "website": "https://menderesdh.saglik.gov.tr/"}}, {"name": "Dokuz Eylül Üniversitesi Hastanesi", "latitude": 38.3946095, "longitude": 27.0341514, "source": "osm", "_tags": {"amenity": "hospital", "emergency": "yes", "healthcare": "hospital", "name": "Dokuz Eylül Üniversitesi Hastanesi", "source": "bing", "url": "http://www.hastane.deu.edu.tr/", "wheelchair": "yes", "wikidata": "Q30254024", "wikimedia_commons": "Category:Dokuz Eylül University Hospital"}}, {"name": "İzmir Atatürk Eğitim ve Araştırma Hastanesi", "latitude": 38.3971941, "longitude": 27.1037406, "source": "osm", "_tags": {"alt_name": "Yeşilyurt Devlet Hastanesi", "amenity": "hospital", "emergency": "yes", "healthcare": "hospital", "name": "İzmir Atatürk Eğitim ve Araştırma Hastanesi", "official_name": "İzmir Kâtip Çelebi Üniversitesi Atatürk Eğitim ve Araştırma Hastanesi", "source": "local knowledge, bing", "website": "http://www.iaeh.gov.tr/", "wikidata": "Q30280224", "wikimedia_commons": "Category:İzmir Kâtip Çelebi University Atatürk Training and Research Hospital"}}, {"name": "Kuşadası Devlet Hastanesi", "latitude": 37.8784691, "longitude": 27.2674674, "source": "osm", "_tags": {"amenity": "hospital", "healthcare": "hospital", "name": "Kuşadası Devlet Hastanesi"}}, {"name": "Buca Kadın Doğum ve Çocuk Hastanesi", "latitude": 38.3759344, "longitude": 27.1810268, "source": "osm", "_tags": {"addr:city": "izmir", "addr:district": "buca", "addr:neighbourhood": "Atatürk Mahallesi", "addr:street": "Hoca Ahmet Yesevi Caddesi", "amenity": "hospital", "email": "bucadogumdh.bil@saglik.gov.tr", "emergency": "yes", "healthcare": "hospital", "healthcare:speciality": "gynaecology;paediatrics", "name": "Buca Kadın Doğum ve Çocuk Hastanesi", "phone": "+90 232 444 35 09", "website": "http://bucakdch.saglik.gov.tr/"}}, {"name": "Tınaztepe Hastanesi", "latitude": 38.37029, "longitude": 27.1936683, "source": "osm", "_tags": {"addr:city": "İzmir", "addr:district": "Buca", "amenity": "hospital", "building": "hospital", "emergency": "yes", "healthcare": "hospital", "name": "Tınaztepe Hastanesi", "operator": "İzmir Tınaztepe Üniversitesi", "operator:type": "university"}}, {"name": "İzmir Atatürk Eğitim ve Araştırma Hastanesi Hatay Hizmet Binası", "latitude": 38.4030757, "longitude": 27.1121201, "source": "osm", "_tags": {"amenity": "hospital", "emergency": "yes", "healthcare": "hospital", "healthcare:speciality": "general", "name": "İzmir Atatürk Eğitim ve Araştırma Hastanesi Hatay Hizmet Binası", "operator": "Sağlık Bakanlığı", "operator:type": "government", "operator:wikidata": "Q4294365"}}, {"name": "Bozyaka Eğitim ve Araştırma Hastahanesi", "latitude": 38.3980208, "longitude": 27.1252506, "source": "osm", "_tags": {"amenity": "hospital", "emergency": "yes", "healthcare": "hospital", "name": "Bozyaka Eğitim ve Araştırma Hastahanesi", "wikidata": "Q30280229", "wikimedia_commons": "Category:İzmir Bozyaka Training and Research Hospital"}}, {"name": "Aydın Devlet Hastanesi", "latitude": 37.8486782, "longitude": 27.8367657, "source": "osm", "_tags": {"amenity": "hospital", "healthcare": "hospital", "name": "Aydın Devlet Hastanesi"}}, {"name": "", "latitude": 37.8482194, "longitude": 27.8348325, "source": "osm", "_tags": {"amenity": "hospital", "healthcare": "hospital"}}, {"name": "Buca Tıp Merkezi", "latitude": 38.3885107, "longitude": 27.1509828, "source": "osm", "_tags": {"amenity": "hospital", "building": "hospital", "healthcare": "hospital", "name": "Buca Tıp Merkezi", "name:short": "TAPDİ", "operator": "Tınaztepe Hastanesi", "operator:type": "private"}}, {"name": "Özel Karataş Hastanesi", "latitude": 38.4113337, "longitude": 27.1229546, "source": "osm", "_tags": {"addr:postcode": "35260", "amenity": "hospital", "healthcare": "hospital", "name": "Özel Karataş Hastanesi", "website": "https://www.karatashastanesi.com/", "wikidata": "Q6024789", "wikipedia": "tr:Karataş Yahudi Hastanesi"}}, {"name": "Tire Devlet Hastanesi", "latitude": 38.1008494, "longitude": 27.7219569, "source": "osm", "_tags": {"addr:city": "Tire/İzmir", "amenity": "hospital", "emergency": "yes", "healthcare": "hospital", "name": "Tire Devlet Hastanesi"}}, {"name": "Söke Fehime Faik Kocagöz Devlet Hastanesi", "latitude": 37.7647693, "longitude": 27.4035703, "source": "osm", "_tags": {"addr:city": "Aydın", "addr:district": "Söke", "amenity": "hospital", "emergency": "yes", "healthcare": "hospital", "name": "Söke Fehime Faik Kocagöz Devlet Hastanesi", "phone": "0256 518 23 61"}}, {"name": "Bayındır Devlet Hastanesi", "latitude": 38.2213715, "longitude": 27.6498088, "source": "osm", "_tags": {"addr:district": "Bayındır", "amenity": "hospital", "emergency": "yes", "healthcare": "hospital", "name": "Bayındır Devlet Hastanesi"}}, {"name": "Egemed Hastanesi", "latitude": 37.7482716, "longitude": 27.4156865, "source": "osm", "_tags": {"amenity": "hospital", "building": "hospital", "emergency": "yes", "healthcare": "hospital", "name": "Egemed Hastanesi"}}, {"name": "Germencik Devlet Hastanesi", "latitude": 37.8742046, "longitude": 27.5918242, "source": "osm", "_tags": {"amenity": "hospital", "emergency": "yes", "healthcare": "hospital", "name": "Germencik Devlet Hastanesi"}}, {"name": "Saydam Tıp Merkezi ve Cerrahi Birimi", "latitude": 37.8641908, "longitude": 27.2677014, "source": "osm", "_tags": {"addr:city": "Kuşadası", "amenity": "hospital", "building": "hospital", "building:levels": "3", "emergency": "yes", "healthcare": "hospital", "name": "Saydam Tıp Merkezi ve Cerrahi Birimi"}}, {"name": "Torbalı Devlet Hastanesi", "latitude": 38.1749073, "longitude": 27.3581269, "source": "osm", "_tags": {"amenity": "hospital", "emergency": "yes", "healthcare": "hospital", "healthcare:speciality": "general;chiropractic;psychiatry;paediatrics;orthopaedics;surgery;ophthalmology;dentistry;radiology;gynaecology;emergency;cardiology", "name": "Torbalı Devlet Hastanesi", "opening_hours": "24/7", "operator": "Sağlık Bakanlığı", "operator:wikidata": "Q4294365", "operator:wikipedia": "tr:Türkiye Cumhuriyeti Sağlık Bakanlığı"}}, {"name": "Aydın Kadın Doğum ve Çocuk Hastalıkları Hastanesi", "latitude": 37.8421707, "longitude": 27.8321982, "source": "osm", "_tags": {"amenity": "hospital", "healthcare": "hospital", "name": "Aydın Kadın Doğum ve Çocuk Hastalıkları Hastanesi"}}, {"name": "Buca Seyfi Demirsoy Eğitim ve Araştırma Hastanesi", "latitude": 38.3845575, "longitude": 27.1630776, "source": "osm", "_tags": {"amenity": "hospital", "emergency": "yes", "healthcare": "hospital", "name": "Buca Seyfi Demirsoy Eğitim ve Araştırma Hastanesi", "wikidata": "Q134373564", "wikipedia": "tr:Buca Seyfi Demirsoy Eğitim ve Araştırma Hastanesi"}}, {"name": "Γενικό Νοσοκομείο Σάμου", "latitude": 37.7617808, "longitude": 26.9697963, "source": "osm", "_tags": {"addr:city": "Σάμος", "addr:housenumber": "17", "addr:postcode": "83100", "addr:street": "Συνταγματάρχη Καφαλοπούλου", "amenity": "hospital", "emergency": "yes", "healthcare": "hospital", "name": "Γενικό Νοσοκομείο Σάμου", "name:el": "Γενικό Νοσοκομείο Σάμου", "name:en": "Samos General Hospital", "operator": "Ε.Σ.Υ.", "operator:type": "public", "phone": "+30 2273351000", "website": "https://www.nosokomeiosamou.gov.gr/"}}, {"name": "", "latitude": 37.8539761, "longitude": 27.8596889, "source": "osm", "_tags": {"amenity": "hospital", "building": "yes", "healthcare": "hospital"}}, {"name": "Tınaztepe Ağız ve Diş Sağlığı Merkezi", "latitude": 38.3704632, "longitude": 27.1949022, "source": "osm", "_tags": {"amenity": "hospital", "building": "hospital", "healthcare": "hospital", "name": "Tınaztepe Ağız ve Diş Sağlığı Merkezi", "operator": "İzmir Tınaztepe Üniversitesi", "operator:type": "university"}}, {"name": "Özel Medifema Hastanesi", "latitude": 38.2412118, "longitude": 27.2756669, "source": "osm", "_tags": {"addr:city": "İzmir", "addr:district": "Torbalı", "addr:neighbourhood": "Ayrancılar Mah.", "addr:street": "Kocatepe Caddesi", "amenity": "hospital", "emergency": "yes", "healthcare": "hospital", "name": "Özel Medifema Hastanesi", "phone": "+90 232 854 18 54"}}, {"name": "Egepol Hastanesi", "latitude": 38.4003221, "longitude": 27.1278499, "source": "osm", "_tags": {"amenity": "hospital", "healthcare": "hospital", "name": "Egepol Hastanesi"}}, {"name": "Aydın Atatürk Devlet Hastanesi", "latitude": 37.840333, "longitude": 27.8397977, "source": "osm", "_tags": {"addr:city": "Aydın", "amenity": "hospital", "emergency": "yes", "healthcare": "hospital", "name": "Aydın Atatürk Devlet Hastanesi"}}, {"name": "Gözde Hastanesi Kuşadası", "latitude": 37.8664056, "longitude": 27.2652277, "source": "osm", "_tags": {"amenity": "hospital", "emergency": "yes", "healthcare": "hospital", "name": "Gözde Hastanesi Kuşadası", "name:en": "Gözde Hospital Kuşadası"}}, {"name": "Karpuzlu Devlet Hastanesi", "latitude": 37.5562795, "longitude": 27.8366666, "source": "osm", "_tags": {"amenity": "hospital", "emergency": "yes", "healthcare": "hospital", "name": "Karpuzlu Devlet Hastanesi"}}, {"name": "Bağarası Aile Sağlığı Merkezi", "latitude": 37.7121042, "longitude": 27.5538932, "source": "osm", "_tags": {"addr:city": "Aydın", "addr:district": "Söke", "addr:neighbourhood": "Bağarası Mahallesi", "amenity": "hospital", "building": "yes", "healthcare": "centre", "name": "Bağarası Aile Sağlığı Merkezi", "operator": "Sağlık Bakanlığı", "operator:wikidata": "Q4294365"}}, {"name": "İzmir Demokrasi Üniversitesi Ağız ve Diş Sağlığı Hastanesi", "latitude": 38.3468543, "longitude": 27.0892711, "source": "osm", "_tags": {"addr:district": "Karabağlar", "addr:housenumber": "86", "addr:postcode": "35120", "addr:province": "İzmir", "addr:street": "3962/30. Sokak", "amenity": "hospital", "building": "hospital", "email": "agizdis@idu.edu.tr", "emergency": "no", "healthcare": "hospital", "healthcare:speciality": "dental_oral_maxillo_facial_surgery;periodontics;orthodontics", "name": "İzmir Demokrasi Üniversitesi Ağız ve Diş Sağlığı Hastanesi", "operator": "İzmir Demokrasi Üniversitesi", "operator:type": "university", "phone": "+90 232 299 06 00", "website": "https://agizdis.idu.edu.tr"}}, {"name": "Tınaztepe Torbalı Hastanesi", "latitude": 38.1426856, "longitude": 27.3664785, "source": "osm", "_tags": {"addr:housenumber": "336/1", "addr:street": "Aydın Caddesi", "amenity": "hospital", "building": "hospital", "building:levels": "5", "email": "torbali@tinaztepe.com", "name": "Tınaztepe Torbalı Hastanesi", "operator": "Tınaztepe Sağlık Grubu", "operator:type": "private", "phone": "+90 232 856 07 06", "website": "https://tinaztepe.com/tr/hastanelerimiz/torbali-hastanesi"}}, {"name": "Tepecik Eğitim ve Araştırma Hastanesi", "latitude": 38.4228995, "longitude": 27.1662448, "source": "osm", "_tags": {"addr:street": "Gaziler Caddesi", "amenity": "hospital", "emergency": "yes", "healthcare": "hospital", "name": "Tepecik Eğitim ve Araştırma Hastanesi", "operator": "Sağlık Bakanlığı", "operator:type": "government", "operator:wikidata": "Q4294365", "type": "multipolygon", "wikidata": "Q30280232"}}]