[{"name": "Nazilli Devlet Hastanesi", "latitude": 37.9205347, "longitude": 28.3382917, "source": "osm", "_tags": {"addr:city": "Aydın", "addr:district": "Nazilli", "addr:neighbourhood": "Yeşil Mah.", "amenity": "hospital", "emergency": "yes", "healthcare": "hospital", "name": "Nazilli Devlet Hastanesi"}}, {"name": "Rasim Menteşe Bozdoğan İlçe Devlet Hastanesi", "latitude": 37.6750737, "longitude": 28.3175927, "source": "osm", "_tags": {"addr:city": "Aydın", "addr:district": "Bozdoğan", "addr:neighbourhood": "Çarşı", "addr:postcode": "09760", "addr:street": "Okullar Caddesi", "amenity": "hospital", "emergency": "yes", "healthcare": "hospital", "name": "Rasim Menteşe Bozdoğan İlçe Devlet Hastanesi"}}, {"name": "Ödemiş Devlet Hastanesi", "latitude": 38.2304727, "longitude": 27.987511, "source": "osm", "_tags": {"addr:city": "İzmir", "addr:district": "Ödemiş", "amenity": "hospital", "emergency": "yes", "healthcare": "hospital", "name": "Ödemiş Devlet Hastanesi", "operator": "Sağlık Bakanlığı", "operator:wikidata": "Q4294365"}}, {"name": "Manisa Alaşehir Devlet Hastanesi", "latitude": 38.3416873, "longitude": 28.5331828, "source": "osm", "_tags": {"addr:city": "Manisa", "addr:district": "Alaşehir", "amenity": "hospital", "emergency": "yes", "healthcare": "hospital", "name": "Manisa Alaşehir Devlet Hastanesi", "phone": "+90 236 653 10 65"}}, {"name": "Referans Hastanesi", "latitude": 37.9085432, "longitude": 28.3178308, "source": "osm", "_tags": {"amenity": "hospital", "healthcare": "hospital", "name": "Referans Hastanesi"}}, {"name": "Çine Devlet Hastanesi", "latitude": 37.6076844, "longitude": 28.0605632, "source": "osm", "_tags": {"addr:city": "Aydın", "addr:district": "Çine", "amenity": "hospital", "emergency": "yes", "healthcare": "hospital", "name": "Çine Devlet Hastanesi", "operator": "Sağlık Bakanlığı", "operator:wikidata": "Q4294365", "phone": "+90 256 711 5900", "website": "https://cinedh.saglik.gov.tr/"}}, {"name": "Sarayköy Devlet Hastanesi", "latitude": 37.9280622, "longitude": 28.9282896, "source": "osm", "_tags": {"amenity": "hospital", "healthcare": "hospital", "name": "Sarayköy Devlet Hastanesi"}}, {"name": "Kiraz Devlet Hastanesi", "latitude": 38.2304197, "longitude": 28.2185409, "source": "osm", "_tags": {"amenity": "hospital", "healthcare": "hospital", "name": "Kiraz Devlet Hastanesi"}}, {"name": "Buharkent İlçe Devlet Hastanesi", "latitude": 37.9698997, "longitude": 28.741873, "source": "osm", "_tags": {"amenity": "hospital", "emergency": "yes", "healthcare": "hospital", "name": "Buharkent İlçe Devlet Hastanesi"}}, {"name": "Kale İlçe Devlet Hastanesi", "latitude": 37.4396786, "longitude": 28.8481757, "source": "osm", "_tags": {"amenity": "hospital", "healthcare": "hospital", "name": "Kale İlçe Devlet Hastanesi", "type": "multipolygon"}}]