[{"name": "Guardia medica", "latitude": 38.0500447, "longitude": 15.0995242, "source": "osm", "_tags": {"addr:city": "Tripi", "addr:housenumber": "172", "addr:postcode": "98060", "addr:street": "Via Francesco Todaro", "amenity": "hospital", "healthcare": "hospital", "name": "Guardia medica", "operator": "Nino Gatto", "operator:type": "public"}}, {"name": "Chirurgia Vascolare", "latitude": 38.1123962, "longitude": 15.6599943, "source": "osm", "_tags": {"addr:street": "Via Vallone Petrara", "amenity": "hospital", "name": "Chirurgia Vascolare"}}, {"name": "Ospedale Garibaldi Centro", "latitude": 37.5111274, "longitude": 15.0769125, "source": "osm", "_tags": {"amenity": "hospital", "healthcare": "hospital", "name": "Ospedale Garibaldi Centro", "operator": "Azienda ospedaliera di rilievo nazionale e di alta specializzazione Garibaldi", "website": "https://www.ao-garibaldi.catania.it/presidio-osp-garibaldi/"}}, {"name": "Ospedale Garibaldi Nesima", "latitude": 37.5114964, "longitude": 15.0430937, "source": "osm", "_tags": {"amenity": "hospital", "healthcare": "hospital", "name": "Ospedale Garibaldi Nesima", "operator": "Azienda ospedaliera di rilievo nazionale e di alta specializzazione Garibaldi", "website": "https://www.ao-garibaldi.catania.it/presidio-osp-nesima/", "wikidata": "Q30280424"}}, {"name": "Ospedale Cannizzaro", "latitude": 37.5428271, "longitude": 15.1168243, "source": "osm", "_tags": {"amenity": "hospital", "emergency": "yes", "healthcare": "hospital", "name": "Ospedale Cannizzaro", "official_name": "Azienda ospedaliera per l'emergenza Cannizzaro", "website": "https://www.ospedale-cannizzaro.it/"}}, {"name": "NAS Sigonella Hospital", "latitude": 37.4589941, "longitude": 14.9617372, "source": "osm", "_tags": {"amenity": "hospital", "building": "hospital", "emergency": "yes", "name": "NAS Sigonella Hospital"}}, {"name": "Ospedale Gaspare Rodolico", "latitude": 37.5300887, "longitude": 15.0703346, "source": "osm", "_tags": {"amenity": "hospital", "healthcare": "hospital", "name": "Ospedale Gaspare Rodolico", "operator": "Azienda ospedaliera universitaria Policlinico Gaspare Rodolico-San Marco", "ref:vatin": "IT04721290874", "website": "https://www.policlinicorodolicosanmarco.it/g-rodolico/"}}, {"name": "Presidio ospedaliero Giuseppe Fogliani", "latitude": 38.188675, "longitude": 15.2524506, "source": "osm", "_tags": {"amenity": "hospital", "emergency": "yes", "name": "Presidio ospedaliero Giuseppe Fogliani", "phone": "+39 090 9290111"}}, {"name": "Ospedale Giuseppe Cutroni Zodda", "latitude": 38.1521023, "longitude": 15.2213135, "source": "osm", "_tags": {"amenity": "hospital", "healthcare": "hospital", "name": "Ospedale Giuseppe Cutroni Zodda", "phone": "+39 090 9751714"}}, {"name": "Azienda Ospedale Piemonte", "latitude": 38.1816898, "longitude": 15.5442351, "source": "osm", "_tags": {"amenity": "hospital", "healthcare": "hospital", "name": "Azienda Ospedale Piemonte"}}, {"name": "Policlinico Universitario Gaetano Martino", "latitude": 38.1648393, "longitude": 15.5334196, "source": "osm", "_tags": {"amenity": "hospital", "emergency": "yes", "name": "Policlinico Universitario Gaetano Martino", "source": "http://www.polime.it/azienda/mappa-del-policlinico"}}, {"name": "Azienda Ospedaliera Papardo", "latitude": 38.2638885, "longitude": 15.5969252, "source": "osm", "_tags": {"addr:city": "Messina", "addr:postcode": "98158", "addr:street": "Contrada Papardo", "amenity": "hospital", "email": "urp@aopapardo.it", "emergency": "yes", "healthcare": "hospital", "healthcare:speciality": "psychiatry;orthodontics;emergency;nephrology;dermatology;biology;cardiology;radiology;abortion;ophthalmology;orthopaedics;gynaecology;intensive;paediatrics;internal;surgery;vaccination;maternity;general;urology;vascular_surgery;oncology;osteopathy;biochem", "internet_access": "yes", "name": "Azienda Ospedaliera Papardo", "opening_hours": "24/7", "phone": "+39 090-3991", "ref:vatin": "03051880833", "website": "https://www.aopapardo.it/", "wheelchair": "yes"}}, {"name": "ASP 5 Reggio Calabria - Ex ASL 10 Palmi", "latitude": 38.3779017, "longitude": 15.8704461, "source": "osm", "_tags": {"amenity": "hospital", "name": "ASP 5 Reggio Calabria - Ex ASL 10 Palmi"}}, {"name": "IRCSS Centro Neurolesi Bonino - Pulejo", "latitude": 38.2059767, "longitude": 15.5191602, "source": "osm", "_tags": {"amenity": "hospital", "contact:email": "Info@irccsme.it", "contact:phone": "+399411898059", "contact:website": "https://www.irccsme.it/", "name": "IRCSS Centro Neurolesi Bonino - Pulejo"}}, {"name": "Istituto Ortopedico del Mezzogiorno d'Italia", "latitude": 38.1147432, "longitude": 15.6700556, "source": "osm", "_tags": {"amenity": "hospital", "emergency": "no", "name": "Istituto Ortopedico del Mezzogiorno d'Italia"}}, {"name": "Istituto Ortopedico del Mezzogiorno d'Italia \"Franco Scalabrino\"", "latitude": 38.2623884, "longitude": 15.6148284, "source": "osm", "_tags": {"amenity": "hospital", "building": "yes", "name": "Istituto Ortopedico del Mezzogiorno d'Italia \"Franco Scalabrino\""}}, {"name": "Ospedale Barone Romeo", "latitude": 38.141513, "longitude": 14.969301, "source": "osm", "_tags": {"addr:housename": "Ospedale Barone Romeo", "amenity": "hospital", "emergency": "yes", "healthcare": "hospital", "name": "Ospedale Barone Romeo", "wheelchair": "yes"}}, {"name": "Ospedale \"Morelli\"", "latitude": 38.0957502, "longitude": 15.6475633, "source": "osm", "_tags": {"amenity": "hospital", "barrier": "fence", "name": "Ospedale \"Morelli\""}}, {"name": "Ospedale \"Tiberio Evoli\"", "latitude": 37.9180186, "longitude": 15.7801073, "source": "osm", "_tags": {"amenity": "hospital", "emergency": "yes", "healthcare": "hospital", "name": "Ospedale \"Tiberio Evoli\""}}, {"name": "Ospedali Riuniti \"Bianchi Melacrino Morelli\"", "latitude": 38.1131104, "longitude": 15.6592297, "source": "osm", "_tags": {"amenity": "hospital", "emergency": "yes", "name": "Ospedali Riuniti \"Bianchi Melacrino Morelli\""}}, {"name": "Policlinico Madonna della consolazione", "latitude": 38.1150957, "longitude": 15.6614869, "source": "osm", "_tags": {"amenity": "hospital", "healthcare": "hospital", "name": "Policlinico Madonna della consolazione"}}, {"name": "Casa di cura Cristo Re", "latitude": 38.1961683, "longitude": 15.5493106, "source": "osm", "_tags": {"amenity": "hospital", "building": "hospital", "name": "Casa di cura Cristo Re"}}, {"name": "COT", "latitude": 38.1901032, "longitude": 15.5438761, "source": "osm", "_tags": {"amenity": "hospital", "name": "COT", "official_name": "Clinica Ortopedica Traumatologica"}}, {"name": "Ospedale San Vincenzo", "latitude": 37.8455982, "longitude": 15.2793322, "source": "osm", "_tags": {"amenity": "hospital", "emergency": "yes", "name": "Ospedale San Vincenzo", "operator": "Azienda Sanitaria Provinciale di Messina"}}, {"name": "Ospedale San Marco", "latitude": 37.4799972, "longitude": 15.0383501, "source": "osm", "_tags": {"amenity": "hospital", "emergency": "yes", "healthcare": "hospital", "name": "Ospedale San Marco", "operator": "Azienda ospedaliera universitaria Policlinico Gaspare Rodolico-San Marco", "website": "https://www.policlinicorodolicosanmarco.it/san-marco/"}}, {"name": "Centro Cuore Morgagni", "latitude": 37.6172105, "longitude": 15.0523933, "source": "osm", "_tags": {"amenity": "hospital", "emergency": "no", "healthcare": "hospital", "healthcare:speciality": "cardiology", "name": "Centro Cuore Morgagni"}}, {"name": "Humanitas Istituto Clinico Catanese", "latitude": 37.4886585, "longitude": 15.0050906, "source": "osm", "_tags": {"amenity": "hospital", "name": "Humanitas Istituto Clinico Catanese"}}, {"name": "Ospedale civile \"Francesco Pentimalli\"", "latitude": 38.3624603, "longitude": 15.8554773, "source": "osm", "_tags": {"amenity": "hospital", "healthcare": "hospital", "healthcare:speciality": "general", "name": "Ospedale civile \"Francesco Pentimalli\"", "operator": "ASP 5 Reggio Calabria", "operator:type": "public", "wikidata": "Q3886598"}}, {"name": "Ospedale San Giovanni Di Dio e Sant'Isidoro", "latitude": 37.7241438, "longitude": 15.1702292, "source": "osm", "_tags": {"amenity": "hospital", "healthcare": "hospital", "healthcare:speciality": "general", "name": "Ospedale San Giovanni Di Dio e Sant'Isidoro", "operator": "Azienda Sanitaria Provinciale di Catania", "website": "https://www.aspct.it/azienda/presidi-ospedalieri/caltagirone/"}}, {"name": "Ospedale Santa Marta e Santa Venera", "latitude": 37.6156779, "longitude": 15.1432311, "source": "osm", "_tags": {"amenity": "hospital", "healthcare": "hospital", "name": "Ospedale Santa Marta e Santa Venera", "operator": "Azienda Sanitaria Provinciale di Catania", "website": "https://www.aspct.it/azienda/presidi-ospedalieri/p-o-s-marta-e-s-venera-acireale/"}}, {"name": "Ospedale \"Scillesi d'America\"", "latitude": 38.2502824, "longitude": 15.7182011, "source": "osm", "_tags": {"amenity": "hospital", "building": "yes", "name": "Ospedale \"Scillesi d'America\""}}, {"name": "", "latitude": 38.0961334, "longitude": 15.6474295, "source": "osm", "_tags": {"amenity": "hospital", "type": "multipolygon"}}, {"name": "Centro clinico diagnostico Giovanni Battista Morgagni - Presidio di Catania", "latitude": 37.5337328, "longitude": 15.0806473, "source": "osm", "_tags": {"amenity": "hospital", "emergency": "no", "healthcare": "hospital", "name": "Centro clinico diagnostico Giovanni Battista Morgagni - Presidio di Catania", "phone": "+39 095 238111", "type": "multipolygon", "website": "https://www.policlinicomorgagni.it/it/"}}]