[{"name": "Ιατρικό Παλαιού Φαλήρου", "latitude": 37.9251747, "longitude": 23.6997435, "source": "osm", "_tags": {"addr:city": "Παλαιό Φάληρο", "addr:country": "GR", "addr:housenumber": "36", "addr:postcode": "17562", "addr:street": "Άρεως", "amenity": "hospital", "healthcare": "hospital", "name": "Ιατρικό Παλαιού Φαλήρου", "operator": "Όμιλος Ιατρικού Αθηνών", "phone": "+30 21 09892100", "website": "http://www.iatrikofalirou.gr"}}, {"name": "Βιοκλινική Αθήνας", "latitude": 37.9947939, "longitude": 23.765146, "source": "osm", "_tags": {"addr:city": "Αθήνα", "addr:housenumber": "15", "addr:postcode": "11524", "addr:street": "Γερουλάνου Μαρίνου", "amenity": "hospital", "healthcare": "hospital", "name": "Βιοκλινική Αθήνας", "phone": "2106962600", "website": "https://bioclinic.gr/bioclinic-athens/", "wheelchair": "yes"}}, {"name": "Δρομοκαΐτειο", "latitude": 38.0002412, "longitude": 23.6626908, "source": "osm", "_tags": {"addr:city": "Χαϊδάρι", "addr:country": "GR", "addr:housenumber": "343", "addr:postcode": "12461", "addr:street": "Ιερά Οδός", "amenity": "hospital", "fixme": "Όποιος γνωρίζει, ας προσθέσει/συγκεκριμενοποιησει τα όρια του νοσοκομείου (hospital grounds)", "healthcare": "hospital", "healthcare:speciality": "psychiatry", "name": "Δρομοκαΐτειο", "phone": "+30213 2046000", "website": "https://www.dromokaiteio.gr/", "wikidata": "Q21626565", "wikipedia": "el:Δρομοκαΐτειο"}}, {"name": "Αμαλία Φλέμινγκ", "latitude": 38.0543409, "longitude": 23.8349783, "source": "osm", "_tags": {"addr:city": "Μελίσσια", "addr:country": "GR", "addr:postcode": "15127", "addr:street": "25ης Μαρτίου 14", "amenity": "hospital", "healthcare": "hospital", "name": "Αμαλία Φλέμινγκ", "name:el": "Αμαλία Φλέμινγκ", "name:en": "Amalia Fleming Prefecture General Hospital", "wikidata": "Q30254194"}}, {"name": "Κλινική Αγία Ειρήνη", "latitude": 37.99124, "longitude": 23.6767057, "source": "osm", "_tags": {"addr:city": "Αιγάλεω", "addr:country": "GR", "addr:postcode": "12244", "addr:street": "Αγ. Λαύρας 16", "amenity": "hospital", "designation": "ΚΛΙΝΙΚΗ", "healthcare": "hospital", "name": "Κλινική Αγία Ειρήνη", "name:el": "Κλινική Αγία Ειρήνη", "name:en": "West Clinic Egaleo"}}, {"name": "ΚΛΙΝΙΚΗ ΤΙΜΙΟΣ ΣΤΑΥΡΟΣ", "latitude": 37.9899235, "longitude": 23.6750905, "source": "osm", "_tags": {"addr:city": "Αιγάλεω", "addr:country": "GR", "addr:housenumber": "18", "addr:postcode": "12244", "addr:street": "Παπούλα", "amenity": "hospital", "designation": "ΚΛΙΝΙΚΗ", "healthcare": "hospital", "name": "ΚΛΙΝΙΚΗ ΤΙΜΙΟΣ ΣΤΑΥΡΟΣ", "phone": "2105695541"}}, {"name": "Metropolitan General", "latitude": 38.006145, "longitude": 23.798663, "source": "osm", "_tags": {"addr:city": "Χολαργός", "addr:housename": "Γενική Κλινική ΙΑΣΩ General", "addr:housenumber": "264", "addr:postcode": "15562", "addr:street": "Λεωφόρος Μεσογείων", "amenity": "hospital", "contact:email": "info@metropolitan-general.gr", "contact:phone": "+30 2106502000", "contact:website": "https://www.metropolitan-general.gr/", "emergency": "yes", "healthcare": "hospital", "name": "Metropolitan General", "old_name": "Γενική Κλινική ΙΑΣΩ General", "wheelchair": "yes", "wikidata": "Q112256935"}}, {"name": "Ιατρικό Αθηνών Κλινική Ψυχικού", "latitude": 37.9965231, "longitude": 23.7696641, "source": "osm", "_tags": {"addr:city": "Αθήνα", "addr:country": "GR", "addr:housenumber": "1", "addr:postcode": "11525", "addr:street": "Άντερσεν", "amenity": "hospital", "healthcare": "hospital", "name": "Ιατρικό Αθηνών Κλινική Ψυχικού", "name:el": "Ιατρικό Αθηνών Κλινική Ψυχικού", "name:en": "Hospital of Psychiko"}}, {"name": "Κλινική Σινούρη", "latitude": 38.0873509, "longitude": 23.8100874, "source": "osm", "_tags": {"addr:city": "Κηφισιά", "addr:country": "GR", "addr:housenumber": "157", "addr:postcode": "14564", "addr:street": "Χαριλάου Τρικούπη", "amenity": "hospital", "emergency": "no", "healthcare": "hospital", "name": "Κλινική Σινούρη", "website": "https://www.sinouri.gr/"}}, {"name": "Νευροψυχιατρική Κλινική \"Παναγιά η Γρηγορούσα\"", "latitude": 38.0631713, "longitude": 23.7744508, "source": "osm", "_tags": {"addr:city": "Ηράκλειο", "addr:country": "GR", "addr:housenumber": "519", "addr:postcode": "14122", "addr:street": "Ηρακλείου", "amenity": "hospital", "healthcare": "hospital", "name": "Νευροψυχιατρική Κλινική \"Παναγιά η Γρηγορούσα\""}}, {"name": "Ιατρικό Αθηνών Κλινική Περιστερίου", "latitude": 38.0053594, "longitude": 23.7009839, "source": "osm", "_tags": {"addr:city": "Περιστέρι", "addr:country": "GR", "addr:housenumber": "60", "addr:postcode": "12132", "addr:street": "Εθνάρχου Μακαρίου", "amenity": "hospital", "healthcare": "centre", "name": "Ιατρικό Αθηνών Κλινική Περιστερίου", "name:el": "Ιατρικό Αθηνών Κλινική Περιστερίου", "name:en": "General Hospital of Peristeri"}}, {"name": "Γεώργιος Χρυσοχοϊδης", "latitude": 38.1209555, "longitude": 23.859149, "source": "osm", "_tags": {"addr:city": "Σταμάτα", "addr:country": "GR", "addr:housenumber": "5Α", "addr:postcode": "14575", "addr:street": "Λεωφόρος Δροσιάς-Σταμάτας", "amenity": "hospital", "fixme": "no hospital here.", "healthcare": "hospital", "name": "Γεώργιος Χρυσοχοϊδης"}}, {"name": "Γένεσις Αθηνών", "latitude": 38.0224126, "longitude": 23.7914824, "source": "osm", "_tags": {"addr:city": "Χαλάνδρι", "addr:housenumber": "14", "addr:street": "Παπανικολή", "amenity": "hospital", "check_date": "2025-08-21", "healthcare": "hospital", "name": "Γένεσις Αθηνών"}}, {"name": "Mediterranean Center for Rehabilitation", "latitude": 37.9504384, "longitude": 22.99947, "source": "osm", "_tags": {"addr:city": "Loutraki", "addr:street": "Thesi Katounistra", "amenity": "hospital", "healthcare": "hospital", "name": "Mediterranean Center for Rehabilitation", "name:el": "ΜΕΣΟΓΕΙΑΚΟ ΚΕΝΤΡΟ ΑΠΟΚΑΤΑΣΤΑΣΗΣ", "operator": "Mediterranean Center for Rehabilitationm"}}, {"name": "Γεν. Νοσ. \"Αλεξάνδρα\" (Εξωτερικά Ιατρεία)", "latitude": 37.9810314, "longitude": 23.7562692, "source": "osm", "_tags": {"addr:city": "Αθήνα", "addr:housenumber": "6", "addr:postcode": "11528", "addr:street": "Λάμψακου", "amenity": "hospital", "healthcare": "hospital", "name": "Γεν. Νοσ. \"Αλεξάνδρα\" (Εξωτερικά Ιατρεία)", "opening_hours": "Mo-Tu, Th-Sa 09:00-17:00", "phone": "2132162185", "website": "https://hosp-alexandra.gr/"}}, {"name": "", "latitude": 37.935238, "longitude": 23.7479747, "source": "osm", "_tags": {"amenity": "hospital", "healthcare": "hospital"}}, {"name": "", "latitude": 37.930915, "longitude": 23.7528229, "source": "osm", "_tags": {"amenity": "hospital", "healthcare": "hospital"}}, {"name": "", "latitude": 38.1153851, "longitude": 23.8647321, "source": "osm", "_tags": {"addr:street": "Γοργοποταμου", "amenity": "hospital", "healthcare": "hospital"}}, {"name": "Κέντρο Υγείας Σαλαμίνας", "latitude": 37.9678497, "longitude": 23.4790821, "source": "osm", "_tags": {"addr:postcode": "18900", "addr:street": "Φανερωμένης", "amenity": "hospital", "emergency": "yes", "healthcare": "hospital", "healthcare:speciality": "general", "int_name": "Health Center of Salamina", "name": "Κέντρο Υγείας Σαλαμίνας", "name:el": "Κέντρο Υγείας Σαλαμίνας", "operator": "Ε.Σ.Υ.", "phone": "+30 21 3200 8534", "website": "https://www.nikaia-hosp.gr/864A2A4A.el.aspx"}}, {"name": "(ΤΟΜΥ) Τοπική Ομάδα Υγείας Θήβας", "latitude": 38.3160806, "longitude": 23.3204007, "source": "osm", "_tags": {"addr:city": "Θήβα", "amenity": "hospital", "emergency": "no", "healthcare": "hospital", "healthcare:speciality": "Γενικής_Ιατρικής;Παθολογίας", "name": "(ΤΟΜΥ) Τοπική Ομάδα Υγείας Θήβας"}}, {"name": "Δαβανέλος Κωνσταντίνος", "latitude": 38.0942552, "longitude": 23.8029209, "source": "osm", "_tags": {"addr:city": "Κηφισιά", "addr:country": "GR", "addr:housenumber": "28", "addr:postcode": "14564", "addr:street": "Κηφισού", "amenity": "hospital", "emergency": "yes", "healthcare": "hospital", "healthcare:speciality": "νευροχειρουργός;neyrosurgeon", "name": "Δαβανέλος Κωνσταντίνος", "operator": "Δαβανέλος Κωνσταντίνος", "operator:type": "public", "phone": "+302108071407", "website": "http://davaneloskonstantinos.blogspot.com/"}}, {"name": "Ναυτικό Νοσοκομείο Πειραιά", "latitude": 37.934533, "longitude": 23.6480004, "source": "osm", "_tags": {"amenity": "hospital", "healthcare": "hospital", "name": "Ναυτικό Νοσοκομείο Πειραιά", "wikidata": "Q21626588"}}, {"name": "Ογκολογική Μονάδα Παίδων «ΕΛΠΙΔΑ»", "latitude": 37.9858264, "longitude": 23.769913, "source": "osm", "_tags": {"amenity": "hospital", "healthcare": "hospital", "name": "Ογκολογική Μονάδα Παίδων «ΕΛΠΙΔΑ»"}}, {"name": "Skintopia Dermatology Center - Κριτσωτάκη Ελευθερία", "latitude": 38.0365601, "longitude": 23.6938297, "source": "osm", "_tags": {"addr:city": "Ίλιον", "addr:country": "GR", "addr:housenumber": "92", "addr:postcode": "13123", "addr:street": "Πετρουπόλεως", "amenity": "hospital", "description": "Δερματολογικό Ιατρείο", "email": "info@skintopia.gr", "healthcare": "doctor", "healthcare:speciality": "dermatology", "name": "Skintopia Dermatology Center - Κριτσωτάκη Ελευθερία", "operator": "Κριτσωτάκη Ελευθερία", "operator:type": "business", "website": "https://www.skintopia.gr"}}, {"name": "ΠΙΚΠΑ Βούλας", "latitude": 37.8518859, "longitude": 23.7457428, "source": "osm", "_tags": {"amenity": "hospital", "healthcare": "hospital", "name": "ΠΙΚΠΑ Βούλας"}}, {"name": "", "latitude": 37.9856507, "longitude": 23.7628736, "source": "osm", "_tags": {"amenity": "hospital", "healthcare": "hospital"}}, {"name": "Οι Άγιοι Ανάργυροι", "latitude": 38.0283425, "longitude": 23.7192295, "source": "osm", "_tags": {"amenity": "hospital", "email": "grammateia@oiagioianargyroi.gr", "healthcare": "hospital", "name": "Οι Άγιοι Ανάργυροι", "phone": "+302102634401;+302102693604", "website": "https://www.oiagioianargyroi.gr/"}}, {"name": "Ωνάσειο Καρδιοχειρουργικό Κέντρο", "latitude": 37.9426134, "longitude": 23.6974335, "source": "osm", "_tags": {"addr:city": "Καλλιθέα", "addr:street": "Ανδρέα Συγγρού", "amenity": "hospital", "healthcare": "hospital", "int_name": "Onassis Cardiac Surgery Center", "name": "Ωνάσειο Καρδιοχειρουργικό Κέντρο", "name:el": "Ωνάσειο Καρδιοχειρουργικό Κέντρο", "name:en": "Onassis Cardiac Surgery Center", "toilets:wheelchair": "yes", "wheelchair": "yes", "wikidata": "Q28821562"}}, {"name": "ΝΙΜΤΣ - Νοσηλευτικό Ίδρυμα Μετοχικού Ταμείου Στρατού 417", "latitude": 37.9794725, "longitude": 23.7513507, "source": "osm", "_tags": {"addr:city": "Αθήνα", "addr:country": "GR", "addr:housenumber": "10-12", "addr:postcode": "11521", "addr:street": "Μονής Πετράκη", "alt_name": "ΝΙΜΤΣ", "amenity": "hospital", "contact:phone": "+30 210 7288001", "contact:website": "http://www.nimts.gr/", "healthcare": "hospital", "name": "ΝΙΜΤΣ - Νοσηλευτικό Ίδρυμα Μετοχικού Ταμείου Στρατού 417", "name:el": "ΝΙΜΤΣ - Νοσηλευτικό Ίδρυμα Μετοχικού Ταμείου Στρατού 417", "name:en": "NIMTS - 417 Army Equity Fund Hospital", "short_name": "Ν.Ι.Μ.Τ.Σ.", "toilets:wheelchair": "yes", "wheelchair": "yes", "wikidata": "Q21626589"}}, {"name": "Γενικό Νοσοκομείο Νίκαιας \"Αγ. Παντελεήμων\"", "latitude": 37.9720132, "longitude": 23.6628353, "source": "osm", "_tags": {"amenity": "hospital", "contact:phone": "+30 2132077000", "contact:website": "www.nikaia-hosp.gr", "emergency": "yes", "healthcare": "hospital", "name": "Γενικό Νοσοκομείο Νίκαιας \"Αγ. Παντελεήμων\"", "wikidata": "Q21626575"}}, {"name": "Σισμανόγλειο Γενικό Νοσοκομείο", "latitude": 38.045979, "longitude": 23.8287791, "source": "osm", "_tags": {"amenity": "hospital", "healthcare": "hospital", "int_name": "Sismanogleio Hospital", "name": "Σισμανόγλειο Γενικό Νοσοκομείο", "wikidata": "Q7530891"}}, {"name": "Κέντρο Υγείας Μεγάρων", "latitude": 37.9984573, "longitude": 23.3512936, "source": "osm", "_tags": {"amenity": "hospital", "emergency": "yes", "healthcare": "hospital", "name": "Κέντρο Υγείας Μεγάρων"}}, {"name": "Γενικό Νοσοκομείο Αθηνών \"Ευαγγελισμός\"", "latitude": 37.9777601, "longitude": 23.7477793, "source": "osm", "_tags": {"addr:city": "Αθήνα", "addr:country": "GR", "addr:housename": "Γενικό Νοσοκομείο Αθηνών \"Ευαγγελισμός\"", "addr:housenumber": "45", "addr:postcode": "10676", "addr:street": "Υψηλάντου", "alt_name": "Νοσοκομείο Ευαγγελισμός", "amenity": "hospital", "contact:phone": "+30 213 2041000", "contact:website": "http://www.evaggelismos-hosp.gr/", "healthcare": "hospital", "name": "Γενικό Νοσοκομείο Αθηνών \"Ευαγγελισμός\"", "name:de": "Evangelismos Krankenhaus", "name:el": "Γενικό Νοσοκομείο Αθηνών \"Ευαγγελισμός\"", "name:en": "Evangelismos Hospital", "short_name": "Γ.Ν.Α. \"Ευαγγελισμός\"", "toilets:wheelchair": "yes", "wheelchair": "yes", "wikidata": "Q14536091", "wikipedia": "el:Νοσοκομείο Ευαγγελισμός"}}, {"name": "Ναυτικό Νοσοκομείο Αθηνών", "latitude": 37.9817271, "longitude": 23.7520318, "source": "osm", "_tags": {"addr:city": "Αθήνα", "addr:country": "GR", "addr:housenumber": "70", "addr:postcode": "11521", "addr:street": "Δεινοκράτους", "amenity": "hospital", "contact:email": "info@nnaneurol.gr", "contact:fax": "+30 210 7261369", "contact:phone": "+30 210 7261148", "healthcare": "hospital", "name": "Ναυτικό Νοσοκομείο Αθηνών", "name:el": "Ναυτικό Νοσοκομείο Αθηνών", "name:en": "Naval Hostpital of Athens", "toilets:wheelchair": "yes", "wheelchair": "yes", "wikidata": "Q21626586", "wikipedia": "en:Athens Naval Hospital"}}, {"name": "Γενικό Νοσοκομείο Αθηνών \"Αλεξάνδρα\"", "latitude": 37.9801307, "longitude": 23.7552795, "source": "osm", "_tags": {"addr:city": "Αθήνα", "addr:country": "GR", "addr:housenumber": "80", "addr:postcode": "11528", "addr:street": "Λεωφόρος Βασιλίσσης Σοφίας", "amenity": "hospital", "check_date": "2025-05-20", "contact:email": "hospital@hosp-alexandra.gr", "contact:fax": "+30 213 216-2898", "contact:phone": "+30 213 2162000", "contact:website": "http://www.hosp-alexandra.gr/", "healthcare": "hospital", "name": "Γενικό Νοσοκομείο Αθηνών \"Αλεξάνδρα\"", "name:el": "Γενικό Νοσοκομείο Αθηνών \"Αλεξάνδρα\"", "name:en": "Alexandra Hospital", "short_name": "Γ.Ν.Α. \"Αλεξάνδρα\"", "toilets:wheelchair": "yes", "wheelchair": "yes", "wikidata": "Q30254346", "wikipedia": "en:Alexandra Hospital (Athens)"}}, {"name": "Αρεταίειο Νοσοκομείο", "latitude": 37.9795046, "longitude": 23.7548038, "source": "osm", "_tags": {"addr:city": "Αθήνα", "addr:country": "GR", "addr:housenumber": "76", "addr:postcode": "11528", "addr:street": "Λεωφόρος Βασιλίσσης Σοφίας", "amenity": "hospital", "check_date": "2025-05-20", "contact:phone": "+30 210 7286000", "contact:website": "http://www.aretaieio.uoa.gr/", "healthcare": "hospital", "name": "Αρεταίειο Νοσοκομείο", "name:el": "Αρεταίειο Νοσοκομείο", "name:en": "Areteio Hospital", "operator": "Εθνικό και Καποδιστριακό Πανεπιστήμιο Αθηνών", "toilets:wheelchair": "yes", "wheelchair": "yes", "wikidata": "Q21626558", "wikipedia": "el:Αρεταίειο Νοσοκομείο"}}, {"name": "Νοσοκομείο Αφροδισίων & Δερματικών Νόσων «Ανδρέας Συγγρός»", "latitude": 37.9734795, "longitude": 23.7523067, "source": "osm", "_tags": {"addr:city": "Καισαριανή", "addr:country": "GR", "addr:housenumber": "5", "addr:postcode": "16121", "addr:street": "Ίωνος Δραγούμη", "amenity": "hospital", "check_date": "2022-11-03", "contact:email": "protokollo@syggros.gr", "contact:fax": "+30 210 7235546", "contact:phone": "+30 210 7265100", "contact:website": "http://www.syggros-hosp.gr/", "healthcare": "hospital", "name": "Νοσοκομείο Αφροδισίων & Δερματικών Νόσων «Ανδρέας Συγγρός»", "name:el": "Νοσοκομείο Αφροδισίων & Δερματικών Νόσων «Ανδρέας Συγγρός»", "name:en": "Andreas Syngros Hospital", "short_name": "Νοσοκομείο «Ανδρέας Συγγρός»", "toilets:wheelchair": "yes", "wheelchair": "yes", "wikidata": "Q12881931"}}, {"name": "Περιφερειακό Γενικό Νοσοκομείο - Μαιευτήριο \"Έλενα Βενιζέλου\"", "latitude": 37.9849567, "longitude": 23.7558979, "source": "osm", "_tags": {"addr:city": "Αθήνα", "addr:country": "GR", "addr:housenumber": "2", "addr:place": "Πλατεία Έλενας Βενιζέλου", "addr:postcode": "11521", "addr:street": "Έλενας Βενιζέλου", "amenity": "hospital", "contact:fax": "+30 210 6465559", "contact:phone": "+30 213 2051000", "contact:website": "http://www.hospital-elena.gr", "healthcare": "hospital", "name": "Περιφερειακό Γενικό Νοσοκομείο - Μαιευτήριο \"Έλενα Βενιζέλου\"", "name:el": "Περιφερειακό Γενικό Νοσοκομείο - Μαιευτήριο \"Έλενα Βενιζέλου\"", "name:en": "General and Maternity Hospital \"Helena Venizelou\"", "toilets:wheelchair": "yes", "wheelchair": "yes", "wikidata": "Q21626578"}}, {"name": "Γενικό Νοσοκομείο Αθηνών \"Ιπποκράτειο\"", "latitude": 37.9836922, "longitude": 23.7597588, "source": "osm", "_tags": {"addr:city": "Αθήνα", "addr:country": "GR", "addr:housenumber": "114", "addr:postcode": "11527", "addr:street": "Λεωφόρος Βασιλίσσης Σοφίας", "amenity": "hospital", "check_date": "2024-12-13", "contact:phone": "+30 213 2088000", "contact:website": "http://www.hippocratio.gr/", "healthcare": "hospital", "name": "Γενικό Νοσοκομείο Αθηνών \"Ιπποκράτειο\"", "name:el": "Γενικό Νοσοκομείο Αθηνών \"Ιπποκράτειο\"", "name:en": "Hippocratio Hospital", "short_name": "Γ.Ν.Α. Ιπποκράτειο", "wikidata": "Q21626572"}}, {"name": "Γενικό Νοσοκομείο Αθηνών \"Η Ελπίς\"", "latitude": 37.9899876, "longitude": 23.7553889, "source": "osm", "_tags": {"addr:city": "Αθήνα", "addr:country": "GR", "addr:housenumber": "7", "addr:postcode": "11522", "addr:street": "Δημητσάνας", "alt_name": "ΓΕΝΙΚΟ ΝΟΣΟΚΟΜΕΙΟ ΑΘΗΝΩΝ ΕΛΠΙΣ", "amenity": "hospital", "check_date": "2025-02-22", "healthcare": "hospital", "name": "Γενικό Νοσοκομείο Αθηνών \"Η Ελπίς\"", "name:el": "Γενικό Νοσοκομείο Αθηνών \"Η Ελπίς\"", "phone": "21 3203 9000", "toilets:wheelchair": "yes", "website": "elpis.gr", "wheelchair": "yes", "wikidata": "Q29342844"}}, {"name": "Γενικό Νοσοκομείο Ελευσίνας «Θριάσιο»", "latitude": 38.0717255, "longitude": 23.5326127, "source": "osm", "_tags": {"addr:housename": "Θριάσιο Νοσοκομείο", "amenity": "hospital", "emergency": "yes", "healthcare": "hospital", "healthcare:speciality": "general;emergency;surgery;psychiatry;physiatry", "name": "Γενικό Νοσοκομείο Ελευσίνας «Θριάσιο»", "name:el": "Γενικό Νοσοκομείο Ελευσίνας «Θριάσιο»", "name:en": "Thriassio General Hospital", "operator": "2η Υγειονομική Περιφέρεια (Πειραιώς και Αιγαίου)", "operator:type": "government", "phone": "+302132028000", "url": "http://www.thriassio-hosp.gr/", "website": "https://thriassio-hosp.gr/", "wikidata": "Q21626570"}}, {"name": "Ευρωκλινική Αθηνών", "latitude": 37.986366, "longitude": 23.7584584, "source": "osm", "_tags": {"addr:city": "Αθήνα", "addr:country": "GR", "addr:full": "Αθανασιάδου 9, πάροδος Δημητρίου Σούτσου", "addr:housenumber": "9", "addr:place": "Κουντουριώτικα", "addr:postcode": "11521", "addr:street": "Ι. Αθανασιάδου", "amenity": "hospital", "building": "hospital", "contact:email": "mkt@euroclinic.gr", "contact:fax": "+30 210 6416555", "contact:phone": "+30 210 6416600", "contact:website": "http://www.euroclinic.gr/", "healthcare": "hospital", "name": "Ευρωκλινική Αθηνών", "name:el": "Ευρωκλινική Αθηνών", "operator": "Όμιλος Ευρωκλινικής", "toilets:wheelchair": "yes", "wheelchair": "yes", "wikidata": "Q30260375"}}, {"name": "Τζάνειο Γενικό Νοσοκομείο Πειραιά", "latitude": 37.9341662, "longitude": 23.6459011, "source": "osm", "_tags": {"addr:city": "Πειραιάς", "addr:country": "GR", "addr:postcode": "18536", "addr:street": "Αφεντούλη;Ζαννή", "amenity": "hospital", "emergency": "yes", "healthcare": "hospital", "healthcare:speciality": "surgery;general;emergency;psychiatry;maternity", "name": "Τζάνειο Γενικό Νοσοκομείο Πειραιά", "name:el": "Τζάνειο Γενικό Νοσοκομείο Πειραιά", "name:en": "Tzanio General Hospital", "operator": "ΕΣΥ", "operator:type": "government", "phone": "+30 213 20 81 000", "website": "http://www.tzaneio.gr/", "wikidata": "Q21626599"}}, {"name": "Metropolitan Hospital", "latitude": 37.9451516, "longitude": 23.6698915, "source": "osm", "_tags": {"amenity": "hospital", "building": "yes", "building:levels": "6", "healthcare": "hospital", "name": "Metropolitan Hospital", "phone": "+30 210 48 09 000", "toilets:wheelchair": "yes", "website": "https://www.metropolitan-hospital.gr", "wheelchair": "yes", "wikidata": "Q30280485"}}, {"name": "Metropolitan Hospital", "latitude": 37.9450858, "longitude": 23.6704795, "source": "osm", "_tags": {"amenity": "hospital", "building": "yes", "healthcare": "hospital", "name": "Metropolitan Hospital", "toilets:wheelchair": "yes", "wheelchair": "yes", "wikidata": "Q30280485"}}, {"name": "Γενικό Νοσοκομείο Αθηνών \"Λαϊκό\"", "latitude": 37.9840353, "longitude": 23.7652256, "source": "osm", "_tags": {"amenity": "hospital", "contact:phone": "+30 213 2060800", "contact:website": "http://www.laiko.gr/", "emergency": "yes", "healthcare": "hospital", "name": "Γενικό Νοσοκομείο Αθηνών \"Λαϊκό\"", "name:el": "Γενικό Νοσοκομείο Αθηνών \"Λαϊκό\"", "operator": "Ε.Σ.Υ.", "short_name": "Γ.Ν.Α. \"Λαϊκό\"", "website": "http://www.laiko.gr/", "wikidata": "Q21626577", "wikipedia": "el:Γενικό Νοσοκομείο Αθηνών «Λαϊκό»"}}, {"name": "", "latitude": 38.0353774, "longitude": 23.7936627, "source": "osm", "_tags": {"amenity": "hospital", "healthcare": "hospital"}}, {"name": "Ασκληπιείο Βούλας", "latitude": 37.848823, "longitude": 23.7572858, "source": "osm", "_tags": {"amenity": "hospital", "healthcare": "hospital", "name": "Ασκληπιείο Βούλας", "name:el": "Ασκληπιείο Βούλας", "name:en": "Asklepieio Voulas", "wikidata": "Q21626560"}}, {"name": "Κλινική Άγιος Γεράσιμος", "latitude": 38.0721227, "longitude": 23.737422, "source": "osm", "_tags": {"amenity": "hospital", "contact:fax": "2102467305", "contact:phone": "2102467192", "healthcare": "hospital", "name": "Κλινική Άγιος Γεράσιμος", "operator": "Αντώνης Λυράκος"}}, {"name": "Athens Eye Hospital", "latitude": 37.8803835, "longitude": 23.754748, "source": "osm", "_tags": {"addr:street": "Κολοκοτρώνη", "amenity": "hospital", "building": "hospital", "healthcare": "hospital", "name": "Athens Eye Hospital", "wikidata": "Q30254050"}}, {"name": "Γενικό Αντικαρκινικό Νοσοκομείο Πειραιά Μεταξά", "latitude": 37.9296283, "longitude": 23.6439395, "source": "osm", "_tags": {"addr:city": "Πειραιάς", "addr:country": "GR", "addr:housenumber": "51", "addr:postcode": "18537", "addr:street": "Μπόταση", "amenity": "hospital", "contact:email": "info@metaxa-hospital.gr", "contact:fax": "+30 2104517111", "contact:phone": "+30 2132079100", "contact:website": "www.metaxa-hospital.gr", "emergency": "no", "healthcare": "hospital", "healthcare:speciality": "general;emergency;oncology;dermatology;surgery;psychiatry;physiatry", "name": "Γενικό Αντικαρκινικό Νοσοκομείο Πειραιά Μεταξά", "name:el": "Γενικό Αντικαρκινικό Νοσοκομείο Πειραιά Μεταξά", "name:en": "Metaxa General Hospital", "operator": "ΕΣΥ", "operator:type": "government", "phone": "+30213 2079100", "short_name": "Ε.Α.Ν.Π. Μεταξά", "wikidata": "Q30280472"}}, {"name": "Γενικό Νοσοκομείο Αθηνών \"Γιώργος Γεννηματάς\"", "latitude": 37.9967836, "longitude": 23.7838188, "source": "osm", "_tags": {"addr:city": "Αθήνα", "addr:country": "GR", "addr:housenumber": "154", "addr:postcode": "11527", "addr:street": "Λεωφόρος Μεσογείων", "amenity": "hospital", "email": "info@gna-gennimatas.gr", "emergency": "yes", "fax": "+30 210 7705980", "fixme": "borders", "healthcare": "hospital", "name": "Γενικό Νοσοκομείο Αθηνών \"Γιώργος Γεννηματάς\"", "name:el": "Γενικό Νοσοκομείο Αθηνών \"Γιώργος Γεννηματάς\"", "name:en": "General Hospital of Athens \"Giorgos Gennimatas\"", "phone": "+30 213 2032000", "short_name": "Γ.Ν.Α. \"Γ.Γεννηματάς\"", "toilets:wheelchair": "yes", "website": "https://www.gna-gennimatas.gr/", "wheelchair": "yes", "wikidata": "Q30279850"}}, {"name": "Κωνσταντοπούλειο Συγκρότημα - Γενικό Νοσοκομείο Νέας Ιωνίας «Η Αγία Όλγα»", "latitude": 38.037891, "longitude": 23.7580076, "source": "osm", "_tags": {"amenity": "hospital", "check_date": "2025-09-11", "emergency": "yes", "healthcare": "hospital", "name": "Κωνσταντοπούλειο Συγκρότημα - Γενικό Νοσοκομείο Νέας Ιωνίας «Η Αγία Όλγα»", "name:el": "Κωνσταντοπούλειο Συγκρότημα - Γενικό Νοσοκομείο Νέας Ιωνίας «Η Αγία Όλγα»", "toilets:wheelchair": "yes", "website": "http://www.konstantopouleio.gr/", "wheelchair": "yes", "wikidata": "Q21626549"}}, {"name": "Ιατρικό Κέντρο Αθηνών", "latitude": 38.0432045, "longitude": 23.8056418, "source": "osm", "_tags": {"amenity": "hospital", "emergency": "no", "healthcare": "hospital", "name": "Ιατρικό Κέντρο Αθηνών", "name:el": "Ιατρικό Κέντρο Αθηνών", "name:en": "Athens Medical Center", "operator": "Athens Medical Group", "toilets:wheelchair": "yes", "wheelchair": "yes", "wikidata": "Q21626571"}}, {"name": "Αντικαρκινικό - Ογκολογικό Νοσοκομείο Αθηνών \"Αγιος Σάββας\"", "latitude": 37.9882219, "longitude": 23.7552683, "source": "osm", "_tags": {"addr:housenumber": "1", "addr:street": "Δημητσάνας", "amenity": "hospital", "check_date": "2025-02-24", "healthcare": "hospital", "name": "Αντικαρκινικό - Ογκολογικό Νοσοκομείο Αθηνών \"Αγιος Σάββας\"", "name:el": "Αντικαρκινικό - Ογκολογικό Νοσοκομείο Αθηνών \"Αγιος Σάββας\"", "toilets:wheelchair": "yes", "wheelchair": "yes"}}, {"name": "Νομαρχιακό Γενικό Ογκολογικό Νοσοκομείο Κηφισιάς, Άγιοι Ανάργυροι", "latitude": 38.0797886, "longitude": 23.7708049, "source": "osm", "_tags": {"amenity": "hospital", "barrier": "fence", "healthcare": "hospital", "name": "Νομαρχιακό Γενικό Ογκολογικό Νοσοκομείο Κηφισιάς, Άγιοι Ανάργυροι", "name:el": "Γενικό Ογκολογικό Νοσοκομείο Κηφισιάς Οι Άγιοι Ανάργυροι", "phone": "+302103501500", "website": "https://gonkhosp.gr/", "wikidata": "Q21626550"}}, {"name": "Γενικό Ογκολογικό Νοσοκομείο Κηφισιάς Οι Άγιοι Ανάργυροι", "latitude": 38.0799809, "longitude": 23.7701255, "source": "osm", "_tags": {"building": "hospital", "building:levels": "3", "healthcare": "hospital", "name": "Γενικό Ογκολογικό Νοσοκομείο Κηφισιάς Οι Άγιοι Ανάργυροι"}}, {"name": "", "latitude": 38.0797868, "longitude": 23.7716918, "source": "osm", "_tags": {"building": "hospital", "building:levels": "2", "healthcare": "hospital"}}, {"name": "Γενικό Νοσοκομείο Κορίνθου", "latitude": 37.9401588, "longitude": 22.9493713, "source": "osm", "_tags": {"addr:city": "Δημοτική Ενότητα Κορινθίων", "addr:housenumber": "53", "addr:postcode": "20100", "addr:street": "Αθηνών", "amenity": "hospital", "emergency": "yes", "healthcare": "hospital", "healthcare:speciality": "general;dentistry;orthopaedics;surgery", "name": "Γενικό Νοσοκομείο Κορίνθου", "name:el": "Γενικό Νοσοκομείο Κορίνθου", "name:en": "Corinth General Hospital", "operator": "ΕΣΥ", "operator:type": "government", "phone": "+30 27413 61400", "website": "http://www.hospkorinthos.gr/", "wikidata": "Q21626733"}}, {"name": "Ψυχιατρικό τμήμα Νοσοκομείου Αγίας Όλγας", "latitude": 38.0389821, "longitude": 23.758321, "source": "osm", "_tags": {"amenity": "hospital", "check_date": "2025-08-21", "healthcare": "hospital", "healthcare:speciality": "psychiatry", "name": "Ψυχιατρικό τμήμα Νοσοκομείου Αγίας Όλγας", "toilets:wheelchair": "yes", "wheelchair": "yes"}}, {"name": "Παθολογικό Νοσοκομείο Αθηνών - Σπηλιοπούλειο \"Η Αγία Ελένη\"", "latitude": 37.9841947, "longitude": 23.7564695, "source": "osm", "_tags": {"addr:city": "Αθήνα", "addr:country": "GR", "addr:housenumber": "21", "addr:place": "Κουντουριώτικα", "addr:postcode": "11521", "addr:street": "Δημητρίου Σούτσου", "amenity": "hospital", "contact:email": "grammateia.dioik@spiliopoulio.gr", "contact:fax": "+30 213 2023464; +30 210 6446951", "contact:phone": "+30 213 2023400", "contact:website": "http://www.spiliopoulio.gr/", "healthcare": "hospital", "name": "Παθολογικό Νοσοκομείο Αθηνών - Σπηλιοπούλειο \"Η Αγία Ελένη\"", "name:el": "Παθολογικό Νοσοκομείο Αθηνών - Σπηλιοπούλειο \"Η Αγία Ελένη\"", "short_name": "Σπηλιοπούλειο", "toilets:wheelchair": "yes", "wheelchair": "yes", "wikidata": "Q21626596"}}, {"name": "Αιγινήτειο Νοσοκομείο", "latitude": 37.9790614, "longitude": 23.7541624, "source": "osm", "_tags": {"addr:city": "Αθήνα", "addr:country": "GR", "addr:housenumber": "72-74", "addr:postcode": "11528", "addr:street": "Λεωφόρος Βασιλίσσης Σοφίας", "amenity": "hospital", "check_date": "2025-05-20", "contact:website": "http://www.eginitio.gr/", "healthcare": "hospital", "name": "Αιγινήτειο Νοσοκομείο", "name:el": "Αιγινήτειο Νοσοκομείο", "name:en": "Eginitio Hospital", "operator": "Εθνικό και Καποδιστριακό Πανεπιστήμιο Αθηνών", "toilets:wheelchair": "yes", "wheelchair": "yes"}}, {"name": "414 ΣΤΡΑΤΙΩΤΙΚΟ ΝΟΣΟΚΟΜΕΙΟ ΕΙΔΙΚΩΝ ΝΟΣΗΜΑΤΩΝ", "latitude": 38.0606981, "longitude": 23.8734886, "source": "osm", "_tags": {"amenity": "hospital", "healthcare": "hospital", "landuse": "military", "name": "414 ΣΤΡΑΤΙΩΤΙΚΟ ΝΟΣΟΚΟΜΕΙΟ ΕΙΔΙΚΩΝ ΝΟΣΗΜΑΤΩΝ"}}, {"name": "Γενικό Νοσοκομείο Αττικής \"ΚΑΤ\"", "latitude": 38.0659166, "longitude": 23.8073664, "source": "osm", "_tags": {"addr:city": "Κηφισιά", "addr:country": "GR", "addr:housenumber": "2", "addr:postcode": "14561", "addr:street": "Νίκης", "amenity": "hospital", "contact:email": "infokat@kat-hosp.gr", "contact:phone": "+302132086000", "contact:website": "https://kat-hosp.gr", "emergency": "yes", "healthcare": "hospital", "name": "Γενικό Νοσοκομείο Αττικής \"ΚΑΤ\"", "short_name": "Γ.Ν.Α. ΚΑΤ", "toilets:wheelchair": "yes", "wheelchair": "yes", "wikidata": "Q26860294"}}, {"name": "Νοσοκομείο Παίδων \"Παναγιώτη και Αγλαΐας Κυριακού\" - Παράρτημα Καλλιθέας", "latitude": 37.9485202, "longitude": 23.7055129, "source": "osm", "_tags": {"amenity": "hospital", "healthcare": "hospital", "name": "Νοσοκομείο Παίδων \"Παναγιώτη και Αγλαΐας Κυριακού\" - Παράρτημα Καλλιθέας", "name:el": "Νοσοκομείο Παίδων \"Παναγιώτη και Αγλαΐας Κυριακού\" - Παράρτημα Καλλιθέας", "name:en": "\"Aglaia Kyriakou\" Children’s Hospital - Kallithea Branch"}}, {"name": "Πανεπιστημιακό Γενικό Νοσοκομείο \"Αττικόν\"", "latitude": 38.0171104, "longitude": 23.6671478, "source": "osm", "_tags": {"addr:city": "Χαϊδάρι", "addr:country": "GR", "addr:housename": "Πανεπιστημιακό Γενικό Νοσοκομείο \"Αττικόν\"", "addr:housenumber": "1", "addr:postcode": "12462", "addr:street": "Ρίμινι", "addr:suburb": "Χαϊδάρι", "amenity": "hospital", "check_date": "2024-05-21", "contact:email": "politis@attikonhospital.gr", "contact:fax": "+20 210 5326385", "contact:phone": "+30 210 5831000", "contact:website": "http://www.attikonhospital.gr/", "emergency": "yes", "healthcare": "hospital", "healthcare:speciality": "orthopaedics;cardiology;emergency;ophthalmology;surgery;psychiatry;general", "name": "Πανεπιστημιακό Γενικό Νοσοκομείο \"Αττικόν\"", "name:de": "Universitätsklinik \"Attikon\"", "name:el": "Πανεπιστημιακό Γενικό Νοσοκομείο \"Αττικόν\"", "name:en": "University Hospital \"Attikon\"", "name:fr": "Hôpital Universitaire \"Attikon\"", "note": "Area from aerial, no local knowledge.", "operator": "Εθνικό και Καποδιστριακό Πανεπιστήμιο Αθηνών", "operator:type": "government", "phone": "+30 210 5831000", "short_name": "Π.Γ.Ν. Αττικόν", "website": "http://www.attikonhospital.gr/", "wheelchair": "yes", "wikidata": "Q30253936"}}, {"name": "Γενικό Νοσοκομείο Νοσημάτων Θώρακος \"Η Σωτηρία\"", "latitude": 37.993798, "longitude": 23.7835, "source": "osm", "_tags": {"addr:city": "Αθήνα", "addr:country": "GR", "addr:housenumber": "152", "addr:postcode": "11527", "addr:street": "Μεσογείων", "amenity": "hospital", "email": "politis@sotiria.gr", "fax": "+30 210 7788055", "healthcare": "hospital", "name": "Γενικό Νοσοκομείο Νοσημάτων Θώρακος \"Η Σωτηρία\"", "name:el": "Γενικό Νοσοκομείο Νοσημάτων Θώρακος \"Η Σωτηρία\"", "phone": "+30 210 7763100", "short_name": "Γ.Ν.Ν.Θ. Η Σωτηρία", "toilets:wheelchair": "yes", "website": "http://www.sotiria.gr", "wheelchair": "yes", "wikidata": "Q21626598", "wikipedia": "el:Νοσοκομείο Σωτηρία"}}, {"name": "Μητέρα", "latitude": 38.0290157, "longitude": 23.789122, "source": "osm", "_tags": {"addr:housenumber": "6", "addr:postcode": "15124", "addr:street": "Ερυθρού Σταυρού", "amenity": "hospital", "email": "info@mitera.gr", "healthcare": "hospital", "internet_access": "wlan", "name": "Μητέρα", "name:el": "Μητέρα", "opening_hours": "24/7", "phone": "2106869000", "toilets:wheelchair": "yes", "website": "https://www.mitera.gr/", "wheelchair": "yes", "wikidata": "Q30296274"}}, {"name": "Υγεία", "latitude": 38.0286629, "longitude": 23.7902029, "source": "osm", "_tags": {"addr:housenumber": "4", "addr:postcode": "15123", "addr:street": "Ερυθρού Σταυρού", "amenity": "hospital", "email": "info@hygeia.gr", "healthcare": "hospital", "internet_access": "wlan", "name": "Υγεία", "name:el": "Υγεία", "opening_hours": "24/7", "phone": "2106867000", "toilets:wheelchair": "yes", "website": "https://www.hygeia.gr/", "wheelchair": "yes", "wikidata": "Q15762293"}}, {"name": "ΨΥΧΙΑΤΡΙΚΗ ΚΛΙΝΙΚΗ ΣΑΜΕΛΛΑ Δ. Α.Ε. - ΤΟ ΑΣΚΛΗΠΙΕΙΟΝ", "latitude": 38.0189346, "longitude": 23.7892648, "source": "osm", "_tags": {"addr:city": "Χαλάνδρι", "addr:country": "GR", "addr:housenumber": "276", "addr:postcode": "15232", "addr:street": "Κηφισίας", "amenity": "hospital", "healthcare": "hospital", "name": "ΨΥΧΙΑΤΡΙΚΗ ΚΛΙΝΙΚΗ ΣΑΜΕΛΛΑ Δ. Α.Ε. - ΤΟ ΑΣΚΛΗΠΙΕΙΟΝ"}}, {"name": "Βιοιατρική--EUROMEDICA", "latitude": 38.0647168, "longitude": 23.8088261, "source": "osm", "_tags": {"addr:city": "Κηφισιά", "addr:country": "GR", "addr:housenumber": "2", "addr:postcode": "14561", "addr:street": "Νίκης", "amenity": "hospital", "bus": "yes", "check_date": "2025-01-15", "contact:phone": "2132086000", "healthcare": "hospital", "name": "Βιοιατρική--EUROMEDICA", "wheelchair": "yes"}}, {"name": "Παίδων Πεντέλης", "latitude": 38.0506223, "longitude": 23.8755866, "source": "osm", "_tags": {"amenity": "hospital", "healthcare": "hospital", "name": "Παίδων Πεντέλης", "name:el": "Παίδων Πεντέλης", "name:en": "Penteli Children Hospital", "wikidata": "Q21626593"}}, {"name": "Κέντρο Υγείας Αλεξάνδρας", "latitude": 37.9887969, "longitude": 23.7513287, "source": "osm", "_tags": {"addr:city": "Αθήνα", "addr:country": "GR", "addr:housenumber": "119", "addr:postcode": "11475", "addr:street": "Αλεξάνδρας", "amenity": "hospital", "building": "yes", "healthcare": "hospital", "name": "Κέντρο Υγείας Αλεξάνδρας", "name:en": "Health Center Alexandras"}}, {"name": "Γενικό Νοσοκομείο Θήβας", "latitude": 38.3324535, "longitude": 23.3552558, "source": "osm", "_tags": {"amenity": "hospital", "healthcare": "hospital", "name": "Γενικό Νοσοκομείο Θήβας", "name:el": "Γενικό Νοσοκομείο Θήβας", "name:en": "Thebes General Hospital", "wikidata": "Q112289890"}}, {"name": "ΚΕΝΤΡΟ ΥΠΟΣΤΗΡΙΞΗΣ ΑΤΟΜΩΝ ΜΕ ΑΝΑΠΗΡΙΕΣ", "latitude": 38.3332073, "longitude": 23.353778, "source": "osm", "_tags": {"amenity": "hospital", "healthcare": "hospital", "name": "ΚΕΝΤΡΟ ΥΠΟΣΤΗΡΙΞΗΣ ΑΤΟΜΩΝ ΜΕ ΑΝΑΠΗΡΙΕΣ"}}, {"name": "Αμαλία Φλέμινγκ Πτέρυγα Μπόμπολα", "latitude": 38.0552845, "longitude": 23.8414038, "source": "osm", "_tags": {"addr:city": "Μελίσσια", "addr:country": "GR", "addr:housenumber": "2", "addr:postcode": "15127", "addr:street": "Πηγής", "amenity": "hospital", "emergency": "yes", "healthcare": "hospital", "name": "Αμαλία Φλέμινγκ Πτέρυγα Μπόμπολα", "website": "https://www.flemig-hospital.gr/"}}, {"name": "414 Στρατιωτικό Νοσοκομείο Ειδικών Νοσημάτων", "latitude": 38.0607345, "longitude": 23.8736996, "source": "osm", "_tags": {"amenity": "hospital", "building": "yes", "healthcare": "hospital", "healthcare:speciality": "psychiatry", "name": "414 Στρατιωτικό Νοσοκομείο Ειδικών Νοσημάτων", "name:el": "414 Στρατιωτικό Νοσοκομείο Ειδικών Νοσημάτων"}}, {"name": "Πολυκλινική Αθηνών", "latitude": 37.9832852, "longitude": 23.7268262, "source": "osm", "_tags": {"addr:city": "Αθήνα", "addr:housenumber": "3", "addr:street": "Παναγή Τσαλδάρη", "amenity": "hospital", "building": "hospital", "check_date": "2025-06-27", "ele": "90", "healthcare": "hospital", "level": "8", "name": "Πολυκλινική Αθηνών", "wikidata": "Q30280336"}}, {"name": "Γενικό Νοσοκομείο Αθηνών \"Λαϊκό\" - Παράρτημα Σεβαστουπόλεως", "latitude": 37.9870928, "longitude": 23.7638276, "source": "osm", "_tags": {"addr:city": "Αθήνα", "addr:housenumber": "16", "addr:street": "Σεβαστουπόλεως", "amenity": "hospital", "building": "hospital", "building:levels": "6", "emergency": "no", "healthcare": "hospital", "name": "Γενικό Νοσοκομείο Αθηνών \"Λαϊκό\" - Παράρτημα Σεβαστουπόλεως"}}, {"name": "Άγιος Σάββας - Κέντρο Ημερήσιας Νοσηλείας «Νίκος Κούρκουλος»", "latitude": 37.9907499, "longitude": 23.7413862, "source": "osm", "_tags": {"addr:city": "Αθήνα", "addr:country": "GR", "addr:housenumber": "16", "addr:postcode": "11473", "addr:street": "Παράσχου", "amenity": "hospital", "building": "hospital", "building:levels": "6", "check_date": "2024-12-19", "healthcare": "hospital", "name": "Άγιος Σάββας - Κέντρο Ημερήσιας Νοσηλείας «Νίκος Κούρκουλος»", "phone": "+302106495100"}}, {"name": "Ευγενίδειο Θεραπευτήριο", "latitude": 37.9785231, "longitude": 23.7548543, "source": "osm", "_tags": {"addr:city": "Αθήνα", "addr:country": "GR", "addr:housenumber": "20", "addr:postcode": "11528", "addr:street": "Παπαδιαμαντοπούλου", "amenity": "hospital", "building": "hospital", "emergency": "no", "healthcare": "hospital", "int_name": "Evgenideio Therapeutirio", "name": "Ευγενίδειο Θεραπευτήριο", "phone": "+30 210 7208100", "website": "https://eugenideio.uoa.gr/", "wikidata": "Q30280147"}}, {"name": "Παράρτημα Ιπποκρατείου Νοσοκομείου Αθηνών", "latitude": 37.9830363, "longitude": 23.7583965, "source": "osm", "_tags": {"addr:city": "Αθήνα", "addr:housenumber": "108", "addr:street": "Λεωφόρος Βασιλίσσης Σοφίας", "amenity": "hospital", "check_date": "2025-05-20", "healthcare": "hospital", "name": "Παράρτημα Ιπποκρατείου Νοσοκομείου Αθηνών"}}, {"name": "Metropolitan Hospital", "latitude": 37.9450555, "longitude": 23.6694773, "source": "osm", "_tags": {"amenity": "hospital", "building": "yes", "healthcare": "hospital", "name": "Metropolitan Hospital", "toilets:wheelchair": "yes", "wheelchair": "yes", "wikidata": "Q30280485"}}, {"name": "we.physio", "latitude": 37.9435094, "longitude": 23.7137922, "source": "osm", "_tags": {"addr:city": "Νέα Σμύρνη", "addr:housenumber": "54", "addr:street": "Ελευθερίου Βενιζέλου", "amenity": "hospital", "building:levels": "1", "healthcare": "psychotherapist", "name": "we.physio"}}, {"name": "Παμμακάριστος", "latitude": 38.0142613, "longitude": 23.7315822, "source": "osm", "_tags": {"addr:city": "Αθήνα", "addr:country": "GR", "addr:housenumber": "43", "addr:postcode": "11144", "addr:street": "Ιακωβάτων", "amenity": "hospital", "email": "info@pammakaristos-hosp.gr", "healthcare": "hospital", "name": "Παμμακάριστος", "phone": "+30 213 2042100", "website": "https://pammakaristos-hosp.gr", "wheelchair": "yes", "wikidata": "Q30260638"}}, {"name": "Εθνικό Κέντρο Αποκατάστασης", "latitude": 38.0495834, "longitude": 23.7177383, "source": "osm", "_tags": {"addr:city": "Ίλιον", "addr:country": "GR", "addr:housenumber": "1", "addr:postcode": "13122", "addr:street": "Θεολόγου Σπύρου", "amenity": "hospital", "healthcare": "hospital", "name": "Εθνικό Κέντρο Αποκατάστασης", "phone": "+30 213 2015109;+30 213 2015110", "social_facility": "group_home", "social_facility:for": "disabled", "start_date": "1945", "website": "https://ekahosp.wordpress.com/", "wikidata": "Q112285923", "wikipedia": "el:Εθνικό Κέντρο Αποκατάστασης"}}, {"name": "Κέντρο Υγείας Σαλαμίνας", "latitude": 37.9679946, "longitude": 23.4791059, "source": "osm", "_tags": {"addr:postcode": "18900", "addr:street": "Φανερωμένης", "amenity": "hospital", "building": "yes", "emergency": "yes", "healthcare": "hospital", "healthcare:speciality": "general", "name": "Κέντρο Υγείας Σαλαμίνας", "operator": "Ε.Σ.Υ.", "phone": "+30 21 3200 8534", "website": "https://www.nikaia-hosp.gr/864A2A4A.el.aspx"}}, {"name": "Γενική Κλινική ΑΘΗΝΑΙΟΝ Euromedica", "latitude": 37.9646121, "longitude": 23.75599, "source": "osm", "_tags": {"amenity": "hospital", "healthcare": "hospital", "name": "Γενική Κλινική ΑΘΗΝΑΙΟΝ Euromedica"}}, {"name": "251 Γενικό Νοσοκομείο Αεροπορίας", "latitude": 37.9897103, "longitude": 23.7803785, "source": "osm", "_tags": {"amenity": "hospital", "barrier": "fence", "emergency": "yes", "healthcare": "hospital", "military": "military", "name": "251 Γενικό Νοσοκομείο Αεροπορίας", "note": "fence", "wikidata": "Q21626546"}}, {"name": "Κέντρο Υγείας Λουτρακίου", "latitude": 37.9720001, "longitude": 22.9821698, "source": "osm", "_tags": {"amenity": "hospital", "healthcare": "hospital", "name": "Κέντρο Υγείας Λουτρακίου", "name:el": "Κέντρο Υγείας Λουτρακίου", "name:en": "Loutraki Health Center"}}, {"name": "Ψυχιατρικό Θεραπευτήριο «Αθηνά»", "latitude": 38.0424938, "longitude": 23.8381737, "source": "osm", "_tags": {"amenity": "hospital", "healthcare": "hospital", "name": "Ψυχιατρικό Θεραπευτήριο «Αθηνά»"}}, {"name": "Κέντρο Υγείας Λυγουριού", "latitude": 37.6018685, "longitude": 23.0528885, "source": "osm", "_tags": {"addr:city": "Λυγουριό", "addr:postcode": "21052", "amenity": "hospital", "healthcare": "hospital", "name": "Κέντρο Υγείας Λυγουριού", "name:el": "Κέντρο Υγείας Λυγουριού", "name:en": "Lygourio Health Center", "phone": "+30 2753 360000", "wikidata": "Q112269592"}}, {"name": "Κέντρο Υγείας Αλιάρτου", "latitude": 38.373054, "longitude": 23.1027894, "source": "osm", "_tags": {"addr:city": "Αλίαρτος", "addr:housenumber": "1", "addr:postcode": "32001", "addr:street": "Δημοκρατίας", "amenity": "hospital", "emergency": "yes", "healthcare": "hospital", "name": "Κέντρο Υγείας Αλιάρτου", "name:el": "Κέντρο Υγείας Αλιάρτου", "name:en": "Health center of Aliartos", "phone": "+30 2268 350000", "website": "https://www.dypethessaly.gr/primarycare/ky-aliartos"}}, {"name": "ΜΕΣΟΓΕΙΑΚΟ ΚΕΝΤΡΟ ΑΠΟΚΑΤΑΣΤΑΣΗΣ", "latitude": 37.9502367, "longitude": 22.999507, "source": "osm", "_tags": {"amenity": "hospital", "healthcare": "hospital", "name": "ΜΕΣΟΓΕΙΑΚΟ ΚΕΝΤΡΟ ΑΠΟΚΑΤΑΣΤΑΣΗΣ"}}, {"name": "ΜΕΣΟΓΕΙΑΚΟ ΚΕΝΤΡΟ ΑΠΟΚΑΤΑΣΤΑΣΗΣ", "latitude": 37.9492221, "longitude": 22.9988271, "source": "osm", "_tags": {"amenity": "hospital", "healthcare": "hospital", "name": "ΜΕΣΟΓΕΙΑΚΟ ΚΕΝΤΡΟ ΑΠΟΚΑΤΑΣΤΑΣΗΣ"}}, {"name": "ΠΕΡΙΦΕΡΕΙΑΚΟ ΙΑΤΡΕΙΟ ΔΟΜΒΡΑΙΝΑΣ", "latitude": 38.2536014, "longitude": 22.980741, "source": "osm", "_tags": {"amenity": "hospital", "healthcare": "hospital", "name": "ΠΕΡΙΦΕΡΕΙΑΚΟ ΙΑΤΡΕΙΟ ΔΟΜΒΡΑΙΝΑΣ", "operator": "ΚΕΝΤΡΟ ΥΓΕΙΑΣ ΕΡΥΘΡΩΝ", "phone": "2264022219", "website": "https://www.dypethessaly.gr/primarycare/ky-erythrwn"}}, {"name": "Mediterraneo Hospital", "latitude": 37.885689, "longitude": 23.7469032, "source": "osm", "_tags": {"addr:city": "Γλυφάδα", "addr:housenumber": "8-12", "addr:postcode": "16675", "addr:street": "Ηλείας", "amenity": "hospital", "building": "yes", "email": "info@mediterraneohospital.gr", "name": "Mediterraneo Hospital", "phone": "+30 210 9117000", "website": "https://mediterraneohospital.gr/"}}, {"name": "Κλινική Γαλήνη", "latitude": 38.0870803, "longitude": 23.8081897, "source": "osm", "_tags": {"amenity": "hospital", "building": "yes", "emergency": "no", "healthcare": "hospital", "name": "Κλινική Γαλήνη", "type": "multipolygon"}}, {"name": "Γενικό Νομαρχιακό Νοσοκομείο Αθηνών Κοργιαλένιο Μπενάκειο Ελληνικού Ερυθρού Σταυρού", "latitude": 37.9920649, "longitude": 23.769252, "source": "osm", "_tags": {"alt_name": "Ερυθρός Σταυρός", "amenity": "hospital", "healthcare": "hospital", "name": "Γενικό Νομαρχιακό Νοσοκομείο Αθηνών Κοργιαλένιο Μπενάκειο Ελληνικού Ερυθρού Σταυρού", "name:el": "Γενικό Νομαρχιακό Νοσοκομείο Αθηνών Κοργιαλένιο Μπενάκειο Ελληνικού Ερυθρού Σταυρού", "type": "multipolygon", "website": "https://korgialenio-benakio.gr/", "wikidata": "Q16327184", "wikipedia": "el:Νοσοκομείο Ερυθρός Σταυρός"}}, {"name": "Ερρίκος Ντυνάν", "latitude": 37.990627, "longitude": 23.7696433, "source": "osm", "_tags": {"amenity": "hospital", "check_date": "2025-05-08", "healthcare": "hospital", "name": "Ερρίκος Ντυνάν", "name:el": "Ερρίκος Ντυνάν", "type": "multipolygon", "website": "https://www.dunant.gr/", "wheelchair": "yes", "wikidata": "Q21626568"}}, {"name": "401 Γενικό Στρατιωτικό Νοσοκομείο Αθηνών", "latitude": 37.9918314, "longitude": 23.7785787, "source": "osm", "_tags": {"amenity": "hospital", "emergency": "yes", "healthcare": "hospital", "military": "hospital", "name": "401 Γενικό Στρατιωτικό Νοσοκομείο Αθηνών", "name:el": "401 Γενικό Στρατιωτικό Νοσοκομείο Αθηνών", "name:en": "401 General Military Hospital of Athens", "note": "multipolygon is for future development of the perimeter (walls,fences e.t.c.)", "short_name": "401 Γ.Σ.Ν.Α.", "type": "multipolygon", "wikidata": "Q21626547"}}, {"name": "Νοσοκομείο Παίδων", "latitude": 37.985387, "longitude": 23.7689617, "source": "osm", "_tags": {"amenity": "hospital", "healthcare": "hospital", "name": "Νοσοκομείο Παίδων", "name:el": "Νοσοκομείο Παίδων", "type": "multipolygon"}}, {"name": "", "latitude": 37.7531758, "longitude": 23.4314038, "source": "osm", "_tags": {"amenity": "hospital", "building": "hospital", "healthcare": "hospital", "type": "multipolygon"}}]