[{"name": "Presidio Ospedaliero \"Santa Maria degli Ungheresi\"", "latitude": 38.4096412, "longitude": 16.0763122, "source": "osm", "_tags": {"addr:city": "Polistena", "addr:postcode": "89024", "addr:street": "Via Montegrappa", "amenity": "hospital", "emergency": "yes", "healthcare": "hospital", "name": "Presidio Ospedaliero \"Santa Maria degli Ungheresi\""}}, {"name": "Ospedale di Taurianova", "latitude": 38.3530189, "longitude": 16.0058774, "source": "osm", "_tags": {"addr:city": "Taurianova", "addr:postcode": "89029", "amenity": "hospital", "building": "yes", "healthcare": "hospital", "name": "Ospedale di Taurianova"}}, {"name": "", "latitude": 38.3531059, "longitude": 16.005719, "source": "osm", "_tags": {"addr:city": "Taurianova", "addr:postcode": "89029", "amenity": "hospital", "healthcare": "hospital"}}, {"name": "Struttura polispecialistica Cittanova", "latitude": 38.3567382, "longitude": 16.0786572, "source": "osm", "_tags": {"addr:city": "Cittanova", "addr:postcode": "89022", "addr:street": "Viale Merano", "amenity": "hospital", "building": "yes", "email": "polocittanova@asprc.it", "fax": "+39 0966661365", "healthcare": "hospital", "name": "Struttura polispecialistica Cittanova", "operator": "Azienda Sanitaria Provinciale", "phone": "+39 0966 613731"}}, {"name": "Ospedale di Oppido Mamertina", "latitude": 38.2904756, "longitude": 15.9868015, "source": "osm", "_tags": {"amenity": "hospital", "healthcare": "hospital", "name": "Ospedale di Oppido Mamertina"}}, {"name": "", "latitude": 38.2754959, "longitude": 16.294762, "source": "osm", "_tags": {"amenity": "hospital", "healthcare": "hospital"}}, {"name": "Ospedale di Locri", "latitude": 38.2363418, "longitude": 16.2450066, "source": "osm", "_tags": {"amenity": "hospital", "emergency": "yes", "healthcare": "hospital", "name": "Ospedale di Locri"}}, {"name": "", "latitude": 38.2714864, "longitude": 16.2238031, "source": "osm", "_tags": {"amenity": "hospital", "healthcare": "hospital"}}]