[{"name": "Hospital de Alta Resolución de Sierra Norte", "latitude": 37.8623308, "longitude": -5.6192381, "source": "osm", "_tags": {"amenity": "hospital", "emergency": "yes", "healthcare": "hospital", "name": "Hospital de Alta Resolución de Sierra Norte", "operator:type": "public", "source": "PNOA", "wikidata": "Q87762526"}}, {"name": "Hospital de Alta Resolución de Ecija", "latitude": 37.5492192, "longitude": -5.0816624, "source": "osm", "_tags": {"addr:city": "Écija", "addr:housenumber": "1", "addr:postcode": "41400", "addr:street": "Calle Sor Cándida Saiz", "amenity": "hospital", "building": "hospital", "name": "Hospital de Alta Resolución de Ecija"}}, {"name": "Hospital de Alta Resolución Valle del Guadiato", "latitude": 38.3085899, "longitude": -5.2709654, "source": "osm", "_tags": {"amenity": "hospital", "emergency": "yes", "healthcare": "hospital", "name": "Hospital de Alta Resolución Valle del Guadiato", "operator:type": "public", "wikidata": "Q87761725"}}, {"name": "Hospital de Alta Resolución de Ecija", "latitude": 37.532354, "longitude": -5.0921777, "source": "osm", "_tags": {"addr:city": "Écija", "addr:postcode": "41400", "addr:street": "Avenida Dr. Sánchez Malo", "amenity": "hospital", "emergency": "yes", "healthcare": "hospital", "name": "Hospital de Alta Resolución de Ecija", "operator:type": "public", "wikidata": "Q87762530"}}, {"name": "Ambulatorio de la luisiana", "latitude": 37.5267677, "longitude": -5.2459035, "source": "osm", "_tags": {"amenity": "hospital", "healthcare": "hospital", "name": "Ambulatorio de la luisiana"}}, {"name": "Hospital de Palma del Río", "latitude": 37.7015174, "longitude": -5.2692805, "source": "osm", "_tags": {"addr:city": "Palma del Río", "addr:postcode": "14700", "addr:street": "Avenida del V Califa", "amenity": "hospital", "emergency": "yes", "healthcare": "hospital", "healthcare:speciality": "general", "name": "Hospital de Palma del Río", "operator": "Servicio Andaluz de Salud", "operator:short": "SAS", "operator:type": "public", "operator:wikidata": "Q4753529"}}, {"name": "Hospital General de Llerena", "latitude": 38.2425142, "longitude": -6.0128432, "source": "osm", "_tags": {"addr:housenumber": "1", "addr:postcode": "06900", "addr:street": "Avenida de Badajoz", "amenity": "hospital", "emergency": "yes", "healthcare": "hospital", "name": "Hospital General de Llerena", "operator": "Servicio Extremeño de Salud", "operator:type": "public", "phone": "+34 924 87 70 00", "wikidata": "Q87761446"}}]