[{"name": "Presidio ospedaliero Abele Ajello", "latitude": 37.6571979, "longitude": 12.6004486, "source": "osm", "_tags": {"amenity": "hospital", "emergency": "yes", "healthcare": "hospital", "name": "Presidio ospedaliero Abele Ajello", "wheelchair": "yes", "wikidata": "Q3886661", "wikipedia": "it:Ospedale di Mazara del Vallo"}}, {"name": "Presidio ospedaliero Vittorio Emanuele III", "latitude": 37.8290806, "longitude": 12.802929, "source": "osm", "_tags": {"amenity": "hospital", "building": "yes", "contact:phone": "+39 0924 990111", "name": "Presidio ospedaliero Vittorio Emanuele III"}}, {"name": "Poliambulatorio Lo Re", "latitude": 37.6436711, "longitude": 12.6148488, "source": "osm", "_tags": {"amenity": "hospital", "building": "yes", "healthcare": "hospital", "name": "Poliambulatorio Lo Re"}}, {"name": "Presidio Ospedaliero Sant'Antonio Abate", "latitude": 38.0279482, "longitude": 12.5498651, "source": "osm", "_tags": {"amenity": "hospital", "contact:phone": "+39 0923 809111", "name": "Presidio Ospedaliero Sant'Antonio Abate", "operator": "Asp 9 Trapani"}}, {"name": "Presidio Ospedaliero Vittorio Emanuele II", "latitude": 37.6741848, "longitude": 12.796632, "source": "osm", "_tags": {"amenity": "hospital", "contact:phone": "+39 0924 930111", "name": "Presidio Ospedaliero Vittorio Emanuele II"}}, {"name": "Ospedale Paolo Borsellino", "latitude": 37.7946628, "longitude": 12.4985668, "source": "osm", "_tags": {"amenity": "hospital", "name": "Ospedale Paolo Borsellino"}}]