[{"name": "Doctor Laura Burca's cabinet", "latitude": 37.7275143, "longitude": 20.8636188, "source": "osm", "_tags": {"addr:city": "Laganas", "addr:country": "GR", "addr:street": "Main Road", "amenity": "hospital", "healthcare": "hospital", "name": "Doctor Laura Burca's cabinet"}}, {"name": "Μαντζαβινάτειο Γενικό Νοσοκομείο Ληξουρίου", "latitude": 38.209192, "longitude": 20.4377212, "source": "osm", "_tags": {"addr:city": "Ληξούρι", "addr:housenumber": "91", "addr:postcode": "28200", "addr:street": "Τυπαλδου Στυλιανού", "amenity": "hospital", "emergency": "yes", "healthcare": "hospital", "name": "Μαντζαβινάτειο Γενικό Νοσοκομείο Ληξουρίου", "name:el": "Μαντζαβινάτειο Γενικό Νοσοκομείο Ληξουρίου", "name:en": "Μatzavinateio Hospital", "phone": "+30 2671092222", "wikidata": "Q21626773"}}, {"name": "", "latitude": 38.3029581, "longitude": 20.5974712, "source": "osm", "_tags": {"amenity": "hospital"}}, {"name": "Γενικό Νοσοκομείο Κεφαλονιάς", "latitude": 38.1697722, "longitude": 20.4921111, "source": "osm", "_tags": {"amenity": "hospital", "emergency": "yes", "healthcare": "hospital", "name": "Γενικό Νοσοκομείο Κεφαλονιάς", "name:el": "Γενικό Νοσοκομείο Κεφαλονιάς", "name:en": "General Hospital of Kefalonia", "name:ru": "Souidias 17, Agrostoli 281 00 +30 2671 038080", "wikidata": "Q21626767"}}, {"name": "Γενικό Νοσοκομείο Ζακύνθου \"Άγιος Διονύσιος\"", "latitude": 37.7843903, "longitude": 20.8758425, "source": "osm", "_tags": {"amenity": "hospital", "contact:phone": "+30 2695360500", "contact:website": "www.zante-hospital.gr", "emergency": "yes", "healthcare": "hospital", "name": "Γενικό Νοσοκομείο Ζακύνθου \"Άγιος Διονύσιος\"", "wikidata": "Q21626776"}}]