[{"name": "Ospedale San Vito e Santo Spirito", "latitude": 37.9822826, "longitude": 12.9605762, "source": "osm", "_tags": {"amenity": "hospital", "name": "Ospedale San Vito e Santo Spirito"}}, {"name": "Medicina clinica e patologie emergenti", "latitude": 38.1020951, "longitude": 13.3613242, "source": "osm", "_tags": {"amenity": "hospital", "healthcare": "hospital", "name": "Medicina clinica e patologie emergenti"}}, {"name": "Medicina del lavoro e preventiva", "latitude": 38.1025589, "longitude": 13.3606328, "source": "osm", "_tags": {"amenity": "hospital", "healthcare": "hospital", "name": "Medicina del lavoro e preventiva"}}, {"name": "Medicine", "latitude": 38.1041201, "longitude": 13.3569987, "source": "osm", "_tags": {"amenity": "hospital", "healthcare": "hospital", "healthcare:speciality": "pharmacology", "name": "Medicine"}}, {"name": "Maternità", "latitude": 38.1035474, "longitude": 13.3563947, "source": "osm", "_tags": {"amenity": "hospital", "healthcare": "hospital", "healthcare:speciality": "gynaecology", "name": "Maternità"}}, {"name": "Chirurgia plastica", "latitude": 38.1026713, "longitude": 13.3567731, "source": "osm", "_tags": {"amenity": "hospital", "healthcare": "hospital", "healthcare:speciality": "plastic_surgery", "name": "Chirurgia plastica"}}, {"name": "Chirurgia toracica", "latitude": 38.1026484, "longitude": 13.3574136, "source": "osm", "_tags": {"amenity": "hospital", "healthcare": "hospital", "healthcare:speciality": "thoracic_surgery", "name": "Chirurgia toracica"}}, {"name": "A.S.L. n.6", "latitude": 38.137489, "longitude": 13.3504533, "source": "osm", "_tags": {"amenity": "hospital", "healthcare": "hospital", "name": "A.S.L. n.6", "operator": "ASL", "operator:type": "public", "operator:wikidata": "Q3631467"}}, {"name": "Radial - Diagnostica per Immagini", "latitude": 38.1378983, "longitude": 13.3514571, "source": "osm", "_tags": {"addr:housenumber": "87", "addr:street": "Via Maggiore Pietro Toselli", "amenity": "hospital", "description": "Centro esami radiologici: ecografie, radiografie, mammografia, densitometria ossea, panoramica arcate dentarie Direttore sanitario: Dott.ssa Gabriella Caffarelli", "healthcare": "hospital", "name": "Radial - Diagnostica per Immagini", "phone": "+39 091 346010", "website": "https://www.radialsrl.it/"}}, {"name": "Istituto Ortopedico Rizzoli", "latitude": 38.0924152, "longitude": 13.5133188, "source": "osm", "_tags": {"amenity": "hospital", "contact:phone": "+39 051 636 6900", "contact:website": "http://www.ior.it/rizzoli-sicilia/", "healthcare": "hospital", "healthcare:speciality": "orthopaedics", "kids_area": "yes", "name": "Istituto Ortopedico Rizzoli"}}, {"name": "Ospedale dei Bianchi Vittorio Emanuele Terzo", "latitude": 37.8114273, "longitude": 13.302137, "source": "osm", "_tags": {"amenity": "hospital", "name": "Ospedale dei Bianchi Vittorio Emanuele Terzo"}}, {"name": "Psichiatria", "latitude": 38.1020714, "longitude": 13.3608469, "source": "osm", "_tags": {"amenity": "hospital", "healthcare": "hospital", "name": "Psichiatria"}}, {"name": "Azienda Ospedaliera Universitaria Policlinico \"Paolo Giaccone\"", "latitude": 38.1047025, "longitude": 13.3605278, "source": "osm", "_tags": {"amenity": "hospital", "healthcare": "hospital", "name": "Azienda Ospedaliera Universitaria Policlinico \"Paolo Giaccone\"", "wikidata": "Q17651392"}}, {"name": "Ospedale Civico e Benefratelli \"G. Di Cristina\" e \"M. Ascoli\"", "latitude": 38.1032075, "longitude": 13.3582452, "source": "osm", "_tags": {"amenity": "hospital", "emergency": "yes", "healthcare": "hospital", "name": "Ospedale Civico e Benefratelli \"G. Di Cristina\" e \"M. Ascoli\""}}, {"name": "Ospedali Villa Sofia Cervello", "latitude": 38.1549196, "longitude": 13.3366782, "source": "osm", "_tags": {"amenity": "hospital", "healthcare": "hospital", "name": "Ospedali Villa Sofia Cervello"}}, {"name": "Centro Traumatologico Ortopedico", "latitude": 38.1513896, "longitude": 13.3407237, "source": "osm", "_tags": {"amenity": "hospital", "healthcare": "hospital", "name": "Centro Traumatologico Ortopedico", "wheelchair": "yes"}}, {"name": "Ospedale Vincenzo Cervello", "latitude": 38.1551798, "longitude": 13.3130164, "source": "osm", "_tags": {"amenity": "hospital", "emergency": "yes", "healthcare": "hospital", "name": "Ospedale Vincenzo Cervello", "wikidata": "Q30281162"}}, {"name": "Ospedale Buccheri La Ferla Fatebenefratelli", "latitude": 38.1056185, "longitude": 13.3850885, "source": "osm", "_tags": {"amenity": "hospital", "healthcare": "hospital", "name": "Ospedale Buccheri La Ferla Fatebenefratelli", "wheelchair": "yes", "wikidata": "Q30280142"}}, {"name": "Ospedale Guadagna", "latitude": 38.0951999, "longitude": 13.365674, "source": "osm", "_tags": {"amenity": "hospital", "healthcare": "hospital", "name": "Ospedale Guadagna"}}, {"name": "Cardiologia", "latitude": 38.1008103, "longitude": 13.3588356, "source": "osm", "_tags": {"amenity": "hospital", "healthcare": "hospital", "healthcare:speciality": "cardiology", "name": "Cardiologia"}}, {"name": "Ospedale Civico e Benefratelli \"G. Di Cristina\" e \"M. Ascoli\"", "latitude": 38.1033415, "longitude": 13.3547231, "source": "osm", "_tags": {"amenity": "hospital", "emergency": "no", "healthcare": "hospital", "name": "Ospedale Civico e Benefratelli \"G. Di Cristina\" e \"M. Ascoli\""}}, {"name": "ASL (ex Ospedale Psichiatrico)", "latitude": 38.1085712, "longitude": 13.3351961, "source": "osm", "_tags": {"amenity": "hospital", "healthcare": "hospital", "name": "ASL (ex Ospedale Psichiatrico)", "operator": "ASL", "operator:wikidata": "Q3631467", "wikipedia": "it:Real Casa dei Matti di Palermo"}}, {"name": "Ospedale G. F. Ingrassia", "latitude": 38.0928173, "longitude": 13.3114012, "source": "osm", "_tags": {"amenity": "hospital", "healthcare": "hospital", "name": "Ospedale G. F. Ingrassia"}}, {"name": "Ospedale Enrico Albanese", "latitude": 38.1486054, "longitude": 13.3716702, "source": "osm", "_tags": {"amenity": "hospital", "check_date": "2025-07-20", "healthcare": "hospital", "name": "Ospedale Enrico Albanese", "wheelchair": "limited"}}, {"name": "Policlinico (Nuove aule)", "latitude": 38.1023989, "longitude": 13.3608689, "source": "osm", "_tags": {"amenity": "hospital", "healthcare": "hospital", "name": "Policlinico (Nuove aule)"}}, {"name": "Ospedale Maria Immacolata Longo", "latitude": 37.5846355, "longitude": 13.7468217, "source": "osm", "_tags": {"addr:city": "Mussomeli", "amenity": "hospital", "healthcare": "hospital", "name": "Ospedale Maria Immacolata Longo"}}, {"name": "Ospedale Civico di Partinico", "latitude": 38.0375147, "longitude": 13.1154057, "source": "osm", "_tags": {"amenity": "hospital", "emergency": "yes", "healthcare": "hospital", "name": "Ospedale Civico di Partinico", "phone": "+39 091 8911111"}}, {"name": "Ospedale Giovanni Paolo II", "latitude": 37.525982, "longitude": 13.0738699, "source": "osm", "_tags": {"amenity": "hospital", "emergency": "yes", "name": "Ospedale Giovanni Paolo II"}}, {"name": "La Maddalena S.P.A.", "latitude": 38.1669857, "longitude": 13.3140431, "source": "osm", "_tags": {"addr:city": "Palermo", "addr:housenumber": "312", "addr:postcode": "90146", "addr:street": "Via San Lorenzo", "addr:unit": "D", "amenity": "hospital", "healthcare": "hospital", "healthcare:speciality": "oncology;surgery", "name": "La Maddalena S.P.A."}}, {"name": "Ospedale dei Bianchi", "latitude": 37.8166075, "longitude": 13.2988466, "source": "osm", "_tags": {"addr:city": "Corleone", "addr:housenumber": "42", "addr:postcode": "90034", "addr:province": "Palermo", "addr:street": "Via Don Giovanni Colletto", "amenity": "hospital", "name": "Ospedale dei Bianchi"}}, {"name": "", "latitude": 37.6295695, "longitude": 13.6289574, "source": "osm", "_tags": {"amenity": "hospital"}}, {"name": "Presidio ospedaliero Fratelli Parlapiano", "latitude": 37.4925341, "longitude": 13.2686713, "source": "osm", "_tags": {"amenity": "hospital", "healthcare": "hospital", "name": "Presidio ospedaliero Fratelli Parlapiano"}}, {"name": "Presidio Ospedaliero Villa Belmonte", "latitude": 38.1463117, "longitude": 13.368836, "source": "osm", "_tags": {"amenity": "hospital", "healthcare": "hospital", "healthcare:speciality": "oculistica", "name": "Presidio Ospedaliero Villa Belmonte", "operator": "Azienda Ospedaliera Universitaria Policlinico P. Giaccone", "operator:type": "public", "source": "local knowledge"}}, {"name": "Presidio Ospedaliero \"Salvatore Cimino\"", "latitude": 37.9833919, "longitude": 13.6859911, "source": "osm", "_tags": {"amenity": "hospital", "healthcare": "hospital", "name": "Presidio Ospedaliero \"Salvatore Cimino\""}}, {"name": "Ospedale dei bambini \"Giovanni Di Cristina\"", "latitude": 38.1092043, "longitude": 13.3558005, "source": "osm", "_tags": {"amenity": "hospital", "building": "yes", "healthcare": "hospital", "name": "Ospedale dei bambini \"Giovanni Di Cristina\"", "type": "multipolygon"}}, {"name": "Santo Spirito", "latitude": 38.1333164, "longitude": 13.1843451, "source": "osm", "_tags": {"amenity": "hospital", "building": "yes", "healthcare": "hospital", "name": "Santo Spirito", "type": "multipolygon"}}, {"name": "", "latitude": 37.8164433, "longitude": 13.2988728, "source": "osm", "_tags": {"amenity": "hospital", "building": "hospital", "type": "multipolygon"}}]