[{"name": "", "latitude": 38.0292025, "longitude": 23.9679367, "source": "osm", "_tags": {"amenity": "hospital", "healthcare": "hospital"}}, {"name": "Γενικό Νοσοκομείο Σύρου", "latitude": 37.4384422, "longitude": 24.9351655, "source": "osm", "_tags": {"addr:city": "Ερμούπολη", "addr:country": "GR", "addr:housenumber": "2", "addr:postcode": "84100", "addr:street": "Γεωργίου Παπανδρέου", "amenity": "hospital", "emergency": "yes", "healthcare": "hospital", "int_name": "General Hospital of Syros", "name": "Γενικό Νοσοκομείο Σύρου", "name:el": "Γενικό Νοσοκομείο Σύρου", "name:en": "General Hospital of Syros", "phone": "2281360500", "wikidata": "Q21626786"}}, {"name": "Διόκλειον Γενικό Νοσοκομείο Καρύστου", "latitude": 38.0188665, "longitude": 24.4237721, "source": "osm", "_tags": {"addr:city": "Κάρυστος", "addr:housenumber": "56", "addr:postcode": "340 01", "addr:street": "Πολυχρονίου Κότσικα", "alt_name": "Κέντρο Υγείας Καρύστου;Γενικό Νοσοκομείο - Κέντρο Υγείας Καρύστου", "amenity": "hospital", "emergency": "yes", "fax": "+302222022332", "healthcare": "hospital", "healthcare:speciality": "general;surgery", "int_name": "General Hospital of Karystos", "name": "Διόκλειον Γενικό Νοσοκομείο Καρύστου", "operator": "Ε.Σ.Υ.", "phone": "+302224350100", "wikidata": "Q112290875"}}, {"name": "Κέντρο Υγείας Άνδρου", "latitude": 37.8363449, "longitude": 24.9370439, "source": "osm", "_tags": {"amenity": "hospital", "healthcare": "hospital", "name": "Κέντρο Υγείας Άνδρου"}}, {"name": "Κέντρο Υγείας Κερατέας", "latitude": 37.8135769, "longitude": 23.9667787, "source": "osm", "_tags": {"amenity": "hospital", "healthcare": "hospital", "name": "Κέντρο Υγείας Κερατέας", "type": "multipolygon"}}]