[{"name": "Entrada a Úrgencias", "latitude": 38.0397805, "longitude": -4.0303425, "source": "osm", "_tags": {"amenity": "hospital", "emergency": "emergency_ward_entrance", "healthcare": "hospital", "name": "Entrada a Úrgencias"}}, {"name": "Centro de Salud de Villargordo", "latitude": 37.9409696, "longitude": -3.7271918, "source": "osm", "_tags": {"amenity": "hospital", "emergency": "yes", "healthcare": "hospital", "name": "Centro de Salud de Villargordo", "operator": "Consejería de Salud - Junta de Andalucía", "operator:type": "public"}}, {"name": "Hospital de Alta resolución", "latitude": 37.4541208, "longitude": -3.9314535, "source": "osm", "_tags": {"amenity": "hospital", "building": "yes", "emergency": "yes", "healthcare": "hospital", "name": "Hospital de Alta resolución", "operator:type": "public"}}, {"name": "Hospital San Juan de la Cruz", "latitude": 38.0194697, "longitude": -3.3851189, "source": "osm", "_tags": {"addr:city": "Úbeda", "addr:housenumber": "41", "addr:postcode": "23400", "addr:street": "Avenida de la Ciudad de Linares", "amenity": "hospital", "emergency": "yes", "healthcare": "hospital", "healthcare:speciality": "general;emergency;ophthalmology;gynaecology;radiology;oncology;surgery;orthopaedics;paediatrics;maternity;neurology;otolaryngology", "name": "Hospital San Juan de la Cruz", "operator": "Servicio Andaluz de Salud", "operator:type": "public", "wikidata": "Q5841682", "wikipedia": "es:Hospital San Juan de la Cruz"}}, {"name": "Complejo Hospitalario de Jaén", "latitude": 37.7756923, "longitude": -3.7932015, "source": "osm", "_tags": {"addr:city": "Jaén", "amenity": "hospital", "emergency": "yes", "healthcare": "hospital", "name": "Complejo Hospitalario de Jaén", "operator:type": "public"}}, {"name": "Hospital Metropolitano", "latitude": 37.7838819, "longitude": -3.827114, "source": "osm", "_tags": {"addr:city": "Jaén", "addr:street": "Carretera de Córdoba", "amenity": "hospital", "building": "hospital", "contact:facebook": "https://www.facebook.com/HospitalMetropolitanoJaen", "contact:instagram": "https://www.instagram.com/metropolitanodejaen/", "contact:linkedin": "https://www.linkedin.com/company/hospital-metropolitano-de-ja%C3%A9n/", "contact:phone": "+34 953 27 55 65", "healthcare": "hospital", "name": "Hospital Metropolitano", "old_name": "Hotel La Imora", "start_date": "2023-05", "website": "https://hospitalmetropolitano.es/"}}, {"name": "Hospital San Agustin", "latitude": 38.0885457, "longitude": -3.6434022, "source": "osm", "_tags": {"addr:city": "Linares", "addr:postcode": "23700", "amenity": "hospital", "emergency": "yes", "healthcare": "hospital", "healthcare:speciality": "general", "name": "Hospital San Agustin", "operator": "Servicio Andaluz de Salud", "operator:type": "public"}}, {"name": "Hospital Alto Guadalquivir", "latitude": 38.0407487, "longitude": -4.0308226, "source": "osm", "_tags": {"addr:city": "Andújar", "addr:postcode": "23740", "addr:street": "Avenida Blas Infante", "amenity": "hospital", "emergency": "yes", "healthcare": "hospital", "healthcare:speciality": "general;ophthalmology;vaccination;paediatrics;gynaecology;cardiology;surgery;oncology;radiology;internal;maternity;emergency;intensive", "name": "Hospital Alto Guadalquivir", "operator:type": "public", "wikidata": "Q30260264"}}, {"name": "Hospital Neurotraumatológico", "latitude": 37.7949773, "longitude": -3.7779783, "source": "osm", "_tags": {"addr:city": "Jaén", "amenity": "hospital", "emergency": "yes", "healthcare": "hospital", "name": "Hospital Neurotraumatológico", "operator": "Servicio Andaluz de Salud", "operator:short": "SAS", "operator:type": "public", "operator:wikidata": "Q4753529"}}, {"name": "Hospital Doctor Sagaz", "latitude": 37.7706225, "longitude": -3.817956, "source": "osm", "_tags": {"alt_name": "El Neveral", "amenity": "hospital", "emergency": "no", "healthcare": "hospital", "name": "Hospital Doctor Sagaz", "wikidata": "Q87761906"}}, {"name": "Centro de Salud 'Virgen del Gavellar'", "latitude": 38.0135165, "longitude": -3.3746379, "source": "osm", "_tags": {"addr:city": "Úbeda", "addr:housenumber": "37", "addr:postcode": "23400", "addr:street": "Calle Explanada", "amenity": "hospital", "healthcare": "hospital", "healthcare:speciality": "emergency;general;vaccination;blood_check", "name": "Centro de Salud 'Virgen del Gavellar'"}}, {"name": "", "latitude": 37.7851629, "longitude": -3.7838943, "source": "osm", "_tags": {"amenity": "hospital", "healthcare": "hospital"}}]