[{"name": "Hospital HLA La Vega", "latitude": 37.9928683, "longitude": -1.1334248, "source": "osm", "_tags": {"addr:street": "Calle doctor Román Alberca", "amenity": "hospital", "building": "yes", "healthcare": "hospital", "name": "Hospital HLA La Vega", "old_name": "Hospital Virgen de La Vega", "operator": "HLA", "phone": "+34 968 27 81 00", "website": "https://www.grupohla.com/es/hospitales-clinicas/hospital-la-vega/", "wikidata": "Q87762204"}}, {"name": "Hospital Quirón Murcia", "latitude": 37.9779912, "longitude": -1.1194244, "source": "osm", "_tags": {"addr:city": "Murcia", "addr:housenumber": "12", "addr:postcode": "30011", "addr:street": "Calle Miguel Hernández", "amenity": "hospital", "name": "Hospital Quirón Murcia", "operator": "Quirón", "phone": "+34 968 36 50 00", "website": "https://www.quironsalud.es/"}}, {"name": "Hospital General Universitario Reina Sofía", "latitude": 37.9828273, "longitude": -1.1209196, "source": "osm", "_tags": {"addr:city": "Murcia", "addr:housenumber": "1", "addr:postcode": "30003", "addr:street": "Avenida Intendente Jorge Palacios", "amenity": "hospital", "emergency": "yes", "healthcare": "hospital", "name": "Hospital General Universitario Reina Sofía", "operator": "SMS - Servicio Murciano de Salud", "operator:type": "public", "wikidata": "Q5902867", "wikimedia_commons": "Category:Hospital General Universitario Reina Sofía", "wikipedia": "es:Hospital General Universitario Reina Sofía"}}, {"name": "Hospital Clínico Universitario Virgen de la Arrixaca", "latitude": 37.9329297, "longitude": -1.162796, "source": "osm", "_tags": {"amenity": "hospital", "emergency": "yes", "healthcare": "hospital", "layer": "2", "name": "Hospital Clínico Universitario Virgen de la Arrixaca", "name:en": "University Hospital Virgen de la Arrixaca", "operator:type": "public", "wikidata": "Q5902977", "wikipedia": "es:Hospital Clínico Universitario Virgen de la Arrixaca"}}, {"name": "Clinica HLA Belén", "latitude": 37.9987449, "longitude": -1.1304758, "source": "osm", "_tags": {"amenity": "hospital", "healthcare": "hospital", "name": "Clinica HLA Belén", "phone": "+34 968233500", "website": "https://www.grupohla.com/es/clinica-belen"}}, {"name": "Hospital Román Alberca", "latitude": 37.9426771, "longitude": -1.1672759, "source": "osm", "_tags": {"addr:housenumber": "58", "addr:postcode": "30120", "addr:street": "Calle Lorca", "amenity": "hospital", "barrier": "fence", "name": "Hospital Román Alberca", "opening_hours": "24/7", "phone": "968 36 58 00", "website": "https://www.murciasalud.es/seccion.php?idsec=1003", "wikidata": "Q87762201"}}, {"name": "Hospital Virgen del Alcazar", "latitude": 37.6696224, "longitude": -1.6959264, "source": "osm", "_tags": {"amenity": "hospital", "building": "yes", "name": "Hospital Virgen del Alcazar", "website": "https://www.virgendelalcazar.com/"}}, {"name": "Hospital Comarcal del Noroeste", "latitude": 38.1037491, "longitude": -1.8673859, "source": "osm", "_tags": {"amenity": "hospital", "building": "yes", "emergency": "yes", "healthcare": "hospital", "name": "Hospital Comarcal del Noroeste", "operator:type": "public", "wikidata": "Q87762211", "wikipedia": "es:Hospital Comarcal del Noroeste"}}, {"name": "Hospital de Molina", "latitude": 38.0597833, "longitude": -1.2148638, "source": "osm", "_tags": {"amenity": "hospital", "building": "yes", "healthcare": "hospital", "name": "Hospital de Molina", "wikidata": "Q87762226"}}, {"name": "Hospital de la Vega Lorenzo Guirao", "latitude": 38.2293955, "longitude": -1.4090468, "source": "osm", "_tags": {"amenity": "hospital", "emergency": "yes", "healthcare": "hospital", "name": "Hospital de la Vega Lorenzo Guirao", "operator:type": "public", "wikidata": "Q87762224"}}, {"name": "Centro de Salud", "latitude": 38.3311307, "longitude": -1.9814485, "source": "osm", "_tags": {"amenity": "clinic", "healthcare": "hospital", "name": "Centro de Salud"}}, {"name": "Consultorio", "latitude": 38.3545486, "longitude": -2.0091218, "source": "osm", "_tags": {"amenity": "clinic", "building": "yes", "healthcare": "hospital", "name": "Consultorio"}}, {"name": "Consultorio Local", "latitude": 38.3065804, "longitude": -1.9069613, "source": "osm", "_tags": {"amenity": "clinic", "building": "yes", "healthcare": "hospital", "name": "Consultorio Local"}}, {"name": "Hospital Mesa del Castillo", "latitude": 37.9693968, "longitude": -1.128068, "source": "osm", "_tags": {"addr:city": "Murcia", "addr:housenumber": "20", "addr:postcode": "30010", "addr:street": "Ronda Sur", "amenity": "hospital", "emergency": "no", "healthcare": "hospital", "healthcare:speciality": "general", "name": "Hospital Mesa del Castillo", "operator": "Hospital Mesa del Castillo, S.L.", "phone": "+34 968 246 116", "website": "https://www.mesadelcastillo.com/", "wikidata": "Q87762207"}}, {"name": "Hospital General Universitario Morales Meseguer", "latitude": 37.9947594, "longitude": -1.1295258, "source": "osm", "_tags": {"addr:city": "Murcia", "addr:postcode": "30008", "addr:street": "Avenida Marqués de los Vélez", "amenity": "hospital", "emergency": "yes", "healthcare": "hospital", "name": "Hospital General Universitario Morales Meseguer", "operator": "Servicio Murciano de Salud", "operator:type": "public", "wikidata": "Q30253897"}}, {"name": "", "latitude": 38.0007909, "longitude": -1.1405758, "source": "osm", "_tags": {"amenity": "hospital", "healthcare": "hospital"}}, {"name": "Hospital General Universitario Rafael Méndez", "latitude": 37.6450044, "longitude": -1.7345692, "source": "osm", "_tags": {"amenity": "hospital", "building": "yes", "emergency": "yes", "healthcare": "hospital", "name": "Hospital General Universitario Rafael Méndez", "operator:type": "public", "type": "multipolygon"}}]