[{"name": "Centro Hospitalario de Alicante-Psiquiatrico", "latitude": 38.3500732, "longitude": -0.563469, "source": "osm", "_tags": {"addr:city": "Alicante", "addr:postcode": "03113", "addr:street": "Polígono de la Vallonga", "amenity": "hospital", "contact:phone": "+34 \t965102222", "healthcare": "hospital", "name": "Centro Hospitalario de Alicante-Psiquiatrico", "nohousenumber": "yes", "website": "https://www.institucionpenitenciaria.es/es/establecimientos-penitenciarios/localizar-un-establecimiento-penitenciario"}}, {"name": "Centro de Salud San Luis", "latitude": 38.0138889, "longitude": -0.6918137, "source": "osm", "_tags": {"addr:street": "Calle Pujol", "amenity": "hospital", "name": "Centro de Salud San Luis", "name:en": "San Luis health centre", "phone": "+34 965 290 270", "website": "http://torrevieja-salud.com"}}, {"name": "Dua Clinic", "latitude": 38.3701775, "longitude": -0.4144339, "source": "osm", "_tags": {"addr:city": "Alicante", "addr:housenumber": "21", "addr:postcode": "03540", "addr:street": "Avinguda de Santander / Avenida de Santander", "addr:unit": "3", "amenity": "hospital", "email": "info@duaclinic.es", "healthcare": "hospital", "healthcare:speciality": "blood_check;general;depth;emergency;family_medicine", "internet_access": "wlan", "mobile": "+34 611559150", "name": "Dua Clinic", "opening_hours": "Mo-Fr 08:00-20:00; Sa 10:00.13:30; Su,PH off", "website": "https://www.duaclinic.es/", "wheelchair": "yes"}}, {"name": "Hospital General Universitario de Alicante", "latitude": 38.3633856, "longitude": -0.4861161, "source": "osm", "_tags": {"amenity": "hospital", "emergency": "yes", "healthcare": "hospital", "layer": "-1", "name": "Hospital General Universitario de Alicante", "name:ca": "Hospital General Universitari d'Alacant", "name:en": "University Hospital General de Alicante", "wikidata": "Q16576057", "wikimedia_commons": "Category:Hospital General Universitari d'Alacant", "wikipedia": "es:Hospital General Universitario de Alicante"}}, {"name": "Clínica HLA Vistahermosa", "latitude": 38.3630706, "longitude": -0.4638787, "source": "osm", "_tags": {"addr:housenumber": "103", "addr:street": "Avinguda de Dénia / Avenida de Denia", "amenity": "hospital", "building": "hospital", "building:levels": "5", "healthcare": "hospital", "name": "Clínica HLA Vistahermosa", "phone": "+34 966 709312", "website": "https://www.grupohla.com/es/hospitales-clinicas/clinica-vistahermosa/"}}, {"name": "Vithas hospital", "latitude": 38.3526067, "longitude": -0.4762089, "source": "osm", "_tags": {"addr:city": "Alicant", "addr:housenumber": "15", "addr:postcode": "03013", "addr:street": "Plaza doctor Gómez Ulla", "amenity": "hospital", "building": "yes", "building:levels": "5", "email": "infoperpetuo@vithas.es", "healthcare": "hospital", "name": "Vithas hospital", "old_name": "Hospital Perpetuo Socorro", "phone": "+34965201100", "website": "https://vithas.es/centro/vithas-hospital-alicante/", "wikidata": "Q30254181"}}, {"name": "Hospital Internacional Vithas Medimar I", "latitude": 38.3584803, "longitude": -0.4673824, "source": "osm", "_tags": {"amenity": "hospital", "building": "yes", "building:levels": "5", "healthcare": "hospital", "name": "Hospital Internacional Vithas Medimar I", "source": "field_work"}}, {"name": "Hospital San Vicente del Raspeig", "latitude": 38.403245, "longitude": -0.5306785, "source": "osm", "_tags": {"addr:city": "Sant Vicent del Raspeig/San Vicente del Raspeig", "addr:housenumber": "137", "addr:postcode": "03690", "addr:street": "calle Lillo Juan", "amenity": "hospital", "healthcare": "hospital", "name": "Hospital San Vicente del Raspeig"}}, {"name": "Centro de Parálisis Cerebral Infanta Elena", "latitude": 38.414578, "longitude": -0.4151208, "source": "osm", "_tags": {"amenity": "hospital", "name": "Centro de Parálisis Cerebral Infanta Elena"}}, {"name": "Hospital General Universitari d'Elx", "latitude": 38.2598687, "longitude": -0.6854202, "source": "osm", "_tags": {"amenity": "hospital", "emergency": "yes", "name": "Hospital General Universitari d'Elx", "name:ca": "Hospital General Universitari d'Elx", "name:es": "Hospital General Universitario de Elche", "wheelchair": "no", "wheelchair:description": "Los ascensores tienen los pulsadores tan altos que no se pueden utilizar para la mitad de pisos. Los pacientes ingresados no disponen de cuarto de baño accesible. Los pacientes de consultas externas no disponen de una balanza para saber cuál es su peso c", "wikidata": "Q5902659", "wikipedia": "es:Hospital General Universitario de Elche"}}, {"name": "Hospital Vega Baja", "latitude": 38.0879527, "longitude": -0.8538954, "source": "osm", "_tags": {"amenity": "hospital", "healthcare": "hospital", "name": "Hospital Vega Baja", "wikidata": "Q30254319"}}, {"name": "Hospital de San Vicente", "latitude": 38.4033895, "longitude": -0.5307223, "source": "osm", "_tags": {"amenity": "hospital", "building": "yes", "emergency": "yes", "name": "Hospital de San Vicente"}}, {"name": "Centro Médico Virgen de la Caridad", "latitude": 37.6153286, "longitude": -0.9877215, "source": "osm", "_tags": {"amenity": "hospital", "check_date": "2024-01-04", "healthcare": "hospital", "name": "Centro Médico Virgen de la Caridad", "operator:type": "private", "wheelchair": "yes", "wikidata": "Q87762236", "wikimedia_commons": "Category:Hospital Centro Médico Virgen de la Caridad"}}, {"name": "Cruz Roja", "latitude": 38.2546961, "longitude": -0.5167687, "source": "osm", "_tags": {"amenity": "hospital", "emergency": "lifeguard_base", "name": "Cruz Roja", "seasonal": "summer"}}, {"name": "Hospital del Vinalopó", "latitude": 38.2554593, "longitude": -0.7161519, "source": "osm", "_tags": {"addr:housenumber": "14", "addr:street": "calle Tonico Sansano Mora", "amenity": "hospital", "building": "hospital", "emergency": "yes", "name": "Hospital del Vinalopó", "name:ca": "Hospital del Vinalopó", "wikidata": "Q43896421", "wikipedia": "es:Hospital Universitario del Vinalopó"}}, {"name": "Hospital General Universitario Sta. María del Rosell", "latitude": 37.6081888, "longitude": -0.9761543, "source": "osm", "_tags": {"addr:city": "Cartagena", "addr:housenumber": "61", "addr:postcode": "30203", "addr:street": "Paseo de Alfonso XIII", "amenity": "hospital", "check_date": "2024-01-04", "emergency": "yes", "healthcare": "hospital", "name": "Hospital General Universitario Sta. María del Rosell", "operator:type": "public"}}, {"name": "Hospital Perpetuo Socorro 2", "latitude": 37.6082119, "longitude": -0.9915947, "source": "osm", "_tags": {"amenity": "hospital", "name": "Hospital Perpetuo Socorro 2"}}, {"name": "Hospital Perpetuo Socorro", "latitude": 37.6143344, "longitude": -0.996901, "source": "osm", "_tags": {"amenity": "hospital", "building": "yes", "emergency": "yes", "healthcare": "hospital", "name": "Hospital Perpetuo Socorro", "wikidata": "Q87762217", "wikimedia_commons": "Category:Hospital Perpetuo Socorro Cartagena"}}, {"name": "Santo y Real Hospital de Caridad", "latitude": 37.6271688, "longitude": -0.9945401, "source": "osm", "_tags": {"alt_name": "Hospital de los Pinos", "amenity": "hospital", "healthcare": "hospital", "name": "Santo y Real Hospital de Caridad", "wikidata": "Q87762215", "wikimedia_commons": "Category:Santo y Real Hospital de la Caridad"}}, {"name": "Centro de Rehabilitación de Salud Mental de Cartagena", "latitude": 37.6105888, "longitude": -0.9768919, "source": "osm", "_tags": {"amenity": "hospital", "building": "yes", "healthcare": "hospital", "name": "Centro de Rehabilitación de Salud Mental de Cartagena"}}, {"name": "Hospital General Universitario Los Arcos del Mar Menor", "latitude": 37.8191455, "longitude": -0.8598086, "source": "osm", "_tags": {"addr:city": "San Javier", "addr:housenumber": "54", "addr:postcode": "30739", "addr:street": "Paraje Torre Octavio", "amenity": "hospital", "emergency": "yes", "healthcare": "hospital", "name": "Hospital General Universitario Los Arcos del Mar Menor", "operator:type": "public", "wikidata": "Q30269957", "wikipedia": "es:Hospital General Universitario Los Arcos del Mar Menor"}}, {"name": "Hospital Internacional Vithas Medimar - II", "latitude": 38.3583351, "longitude": -0.4657879, "source": "osm", "_tags": {"amenity": "hospital", "building": "yes", "building:levels": "5", "healthcare": "hospital", "name": "Hospital Internacional Vithas Medimar - II", "source": "catastro;field_work", "source:date": "2014"}}, {"name": "Hospital General Universitario Santa Lucía", "latitude": 37.6017782, "longitude": -0.9617145, "source": "osm", "_tags": {"amenity": "hospital", "emergency": "yes", "healthcare": "hospital", "name": "Hospital General Universitario Santa Lucía", "operator:type": "public", "wikidata": "Q16576145", "wikimedia_commons": "Category:Hospital General Universitario Santa Lucía", "wikipedia": "es:Hospital General Universitario Santa Lucía"}}, {"name": "Hospital Imed Elche", "latitude": 38.2880636, "longitude": -0.6158624, "source": "osm", "_tags": {"amenity": "hospital", "building": "yes", "healthcare": "hospital", "name": "Hospital Imed Elche", "phone": "+34965503030", "website": "http://www.imedelche.com/es/", "wikidata": "Q87761432"}}, {"name": "Centro Sociosanitario 'Cristo de los Mineros'", "latitude": 37.6384202, "longitude": -0.9044218, "source": "osm", "_tags": {"amenity": "hospital", "barrier": "wall", "name": "Centro Sociosanitario 'Cristo de los Mineros'"}}, {"name": "Centro de Salud de Benijófar", "latitude": 38.0783687, "longitude": -0.7368568, "source": "osm", "_tags": {"amenity": "hospital", "building": "yes", "building:levels": "1", "healthcare": "hospital", "name": "Centro de Salud de Benijófar"}}, {"name": "Hospital Universitari de Sant Joan D'Alacant", "latitude": 38.3886896, "longitude": -0.4347404, "source": "osm", "_tags": {"addr:city": "Sant Joan d'Alacant", "amenity": "hospital", "building": "yes", "emergency": "yes", "healthcare": "hospital", "name": "Hospital Universitari de Sant Joan D'Alacant", "name:ca": "Hospital Universitari de Sant Joan D'Alacant", "name:es": "Hospital Universitario de San Juan de Alicante", "operator": "Consellería de Sanitat. Generalitat Valenciana", "operator:type": "government", "phone": "+34 965169472", "type": "multipolygon", "wheelchair": "yes", "wikidata": "Q30253915"}}, {"name": "Complejo Hospitalario Cartagena", "latitude": 37.604231, "longitude": -0.9687883, "source": "osm", "_tags": {"amenity": "hospital", "emergency": "yes", "idee:name": "Complejo Hospitalario Cartagena", "name": "Complejo Hospitalario Cartagena", "type": "site"}}, {"name": "Hospital Universitario de Torrevieja", "latitude": 37.9635229, "longitude": -0.7154964, "source": "osm", "_tags": {"amenity": "hospital", "email": "info@torreviejasalud.com", "healthcare": "hospital", "name": "Hospital Universitario de Torrevieja", "phone": "+34 965721200", "type": "multipolygon", "website": "https://www.torrevieja-salud.com/", "wikidata": "Q87761428"}}, {"name": "Hospital Quirón/USP Hospital San Jaime", "latitude": 38.0065577, "longitude": -0.6735104, "source": "osm", "_tags": {"amenity": "hospital", "emergency": "yes", "healthcare": "hospital", "name": "Hospital Quirón/USP Hospital San Jaime", "payment:cash": "yes", "payment:visa": "yes", "phone": "+34 966 92 13 13", "type": "multipolygon", "website": "https://www.quironsalud.es/torrevieja"}}]