[{"name": "Τμήμα Επειγόντων Περιστατικών", "latitude": 37.6431155, "longitude": 22.7276984, "source": "osm", "_tags": {"emergency": "emergency_ward_entrance", "emergency_ward_entrance": "all", "entrance": "yes", "healthcare": "hospital", "healthcare:speciality": "emergency", "level": "0", "name": "Τμήμα Επειγόντων Περιστατικών", "name:el": "Τμήμα Επειγόντων Περιστατικών", "name:en": "Emergency Department"}}, {"name": "Εξωτερικά Ιατρεία/Επείγοντα Περιστατικά", "latitude": 38.2422892, "longitude": 22.0731366, "source": "osm", "_tags": {"amenity": "hospital", "healthcare": "hospital", "name": "Εξωτερικά Ιατρεία/Επείγοντα Περιστατικά"}}, {"name": "Ψυχιατρικό Τμήμα", "latitude": 37.6434202, "longitude": 22.7275165, "source": "osm", "_tags": {"healthcare": "hospital", "healthcare:speciality": "psychiatry", "name": "Ψυχιατρικό Τμήμα", "name:el": "Ψυχιατρικό Τμήμα", "name:en": "Psychiatric Department"}}, {"name": "Εξωτερικά Ιατρεία Ψυχιατρικού Τμήματος", "latitude": 37.6435929, "longitude": 22.7275182, "source": "osm", "_tags": {"healthcare": "hospital", "healthcare:speciality": "psychiatry", "name": "Εξωτερικά Ιατρεία Ψυχιατρικού Τμήματος"}}, {"name": "Ψυχιατρικό Νοσοκομείο Τρίπολης", "latitude": 37.5113919, "longitude": 22.3639279, "source": "osm", "_tags": {"amenity": "hospital", "healthcare": "hospital", "healthcare:speciality": "psychiatry", "name": "Ψυχιατρικό Νοσοκομείο Τρίπολης"}}, {"name": "Γενικό Παναρκαδικό Νοσοκομείο Τρίπολης \"Η Ευαγγελίστρια\"", "latitude": 37.512143, "longitude": 22.3629533, "source": "osm", "_tags": {"addr:city": "Τρίπολη", "addr:street": "Ερυθρού Σταυρού", "amenity": "hospital", "emergency": "yes", "full_name": "411 Γενικό Στρατιωτικό Νοσοκομείο", "healthcare": "hospital", "healthcare:speciality": "psychiatry;general", "name": "Γενικό Παναρκαδικό Νοσοκομείο Τρίπολης \"Η Ευαγγελίστρια\"", "name:el": "Γενικό Παναρκαδικό Νοσοκομείο Τρίπολης \"Η Ευαγγελίστρια\"", "phone": "+302713601700", "website": "https://www.panarkadiko.eu/ns/", "wikidata": "Q21626755"}}, {"name": "Γενικό Νοσοκομείο Άργους", "latitude": 37.6435069, "longitude": 22.7280538, "source": "osm", "_tags": {"addr:city": "Άργος", "addr:housenumber": "191", "addr:postcode": "21231", "addr:street": "Κορίνθου", "amenity": "hospital", "email": "politis@gna.gr", "emergency": "yes", "healthcare": "hospital", "healthcare:speciality": "general", "name": "Γενικό Νοσοκομείο Άργους", "name:el": "Γενικό Νοσοκομείο Άργους", "name:en": "Argos General Hospital", "official_name": "Γενικό Νοσοκομείο Αργολίδας - Νοσοκομειακή Μονάδα Άργους", "official_name:en": "General Hospital of Argolida – Hospital Unit of Argos", "phone": "+3027513 60100", "website": "https://gna.gr/", "wikidata": "Q21626746"}}, {"name": "Κέντρο Υγείας Νεμέας", "latitude": 37.8205515, "longitude": 22.6657857, "source": "osm", "_tags": {"addr:city": "Νεμέα", "addr:housenumber": "18", "addr:postcode": "20500", "addr:street": "Παναγιώτη Μπόλιαρη", "amenity": "hospital", "area": "yes", "building": "yes", "emergency": "yes", "healthcare": "hospital", "name": "Κέντρο Υγείας Νεμέας", "name:el": "Κέντρο Υγείας Νεμέας", "name:en": "Nemea Health Center", "phone": "+302746360000"}}, {"name": "Γενικό Νοσοκομείο Ναυπλίου", "latitude": 37.5661405, "longitude": 22.8083203, "source": "osm", "_tags": {"addr:city": "Ναύπλιο", "addr:postcode": "21100", "addr:street": "Ασκληπιού & Κολοκοτρώνη", "amenity": "hospital", "email": "info@gnn.gov.gr", "emergency": "no", "healthcare": "hospital", "healthcare:speciality": "general;emergency", "name": "Γενικό Νοσοκομείο Ναυπλίου", "name:el": "Γενικό Νοσοκομείο Ναυπλίου", "name:en": "Nafplio General Hospital", "note": "Πέρσι τον Μάρτιο (2019) έκλεισαν τα επείγοντα στο Ναύπλιο. Θεωρώ ότι παραμένουν κλειστά (2020) και μόνο τα επείγοντα του Άργους (ΤΕΠ) λειτουργούν.", "official_name": "Γενικό Νοσοκομείο Αργολίδας - Νοσοκομειακή Μονάδα Ναυπλίου", "official_name:en": "General Hospital of Argolida – Hospital Unit of Nafplio", "phone": "+30 2752 361100", "website": "http://www.gnn.gov.gr/", "wikidata": "Q21626742"}}, {"name": "Περιφερειακό Ιατρείο Μύλων", "latitude": 37.5523997, "longitude": 22.7170834, "source": "osm", "_tags": {"amenity": "hospital", "building": "yes", "description": "Υπάγεται στο Κέντρο Υγείας Λυγουριού", "healthcare": "hospital", "name": "Περιφερειακό Ιατρείο Μύλων", "wikidata": "Q117457342"}}, {"name": "Νοσηλευτική Μονάδα Καλαβρύτων", "latitude": 38.0326454, "longitude": 22.1083753, "source": "osm", "_tags": {"addr:city": "Καλάβρυτα", "addr:housenumber": "4", "addr:postcode": "25001", "addr:street": "Πάνου Πόλκα", "amenity": "hospital", "healthcare": "hospital", "name": "Νοσηλευτική Μονάδα Καλαβρύτων", "name:el": "Νοσηλευτική Μονάδα Καλαβρύτων", "name:en": "Kalavryta General Hospital", "official_name": "Γενικό Νοσοκομείο Ανατολικής Αχαίας - Νοσηλευτική Μονάδα Καλαβρύτων", "operator": "ΕΣΥ", "operator:type": "government", "phone": "+30 26923 60100", "website": "http://www.gnaigio.gr/kalavryta/", "wikidata": "Q112289598"}}, {"name": "Καλλιμανοπούλειο Εκκλησιαστικό Διακονικό Κέντρο", "latitude": 38.0303733, "longitude": 22.1161476, "source": "osm", "_tags": {"building": "yes", "healthcare": "hospital", "name": "Καλλιμανοπούλειο Εκκλησιαστικό Διακονικό Κέντρο", "short_name": "Κ.Ε.ΔΙ.Κ.", "website": "http://kedik.gr/"}}, {"name": "Κέντρο Υγείας Γκούρας", "latitude": 37.9327671, "longitude": 22.3431774, "source": "osm", "_tags": {"amenity": "hospital", "email": "bmpek@1643.syzefxis.gov.gr", "fax": "+30 2747 051206", "healthcare": "hospital", "name": "Κέντρο Υγείας Γκούρας", "name:el": "Κέντρο Υγείας Γκούρας", "name:en": "Goura Health Center", "phone": "+30 2747 360000", "website": "http://www.hospkorinthos.gr/Goura.html"}}, {"name": "Παλιό Ψυχιατρικό Νοσοκομείο Τρίπολης", "latitude": 37.4857048, "longitude": 22.3359684, "source": "osm", "_tags": {"addr:postcode": "22100", "alt_name": "Σανατόριο Μάκρης", "amenity": "hospital", "disused": "yes", "emergency": "no", "healthcare": "hospital", "name": "Παλιό Ψυχιατρικό Νοσοκομείο Τρίπολης", "source": "geodata.gov.gr", "wikidata": "Q114037045"}}, {"name": "Κέντρο Υγείας Ξυλοκάστρου", "latitude": 38.0697161, "longitude": 22.6505826, "source": "osm", "_tags": {"amenity": "hospital", "contact:email": "hgob@1676.syzefxis.gov.gr", "healthcare": "clinic", "name": "Κέντρο Υγείας Ξυλοκάστρου", "name:el": "Κέντρο Υγείας Ξυλοκάστρου", "name:en": "Xylokastro Health Centre", "phone": "+30 2743 360000", "type": "multipolygon", "website": "http://www.hospkorinthos.gr/Ksilokastro.html", "wikidata": "Q131987347"}}, {"name": "Γενικό Νοσοκομείο Αιγίου", "latitude": 38.242055, "longitude": 22.0727782, "source": "osm", "_tags": {"amenity": "hospital", "emergency": "yes", "healthcare": "hospital", "name": "Γενικό Νοσοκομείο Αιγίου", "name:el": "Γενικό Νοσοκομείο Αιγίου", "name:en": "Aegio General Hospital", "operator": "ΕΣΥ", "operator:type": "government", "phone": "+3026910 22222", "type": "multipolygon", "website": "http://www.gnaigio.gr/aigio/index.php/2013-06-04-14-28-33", "wikidata": "Q55639125"}}]