[{"name": "Necati Hepkon Devlet Hastanesi", "latitude": 38.1977948, "longitude": 26.8456512, "source": "osm", "_tags": {"addr:postcode": "35460", "amenity": "hospital", "healthcare": "hospital", "name": "Necati Hepkon Devlet Hastanesi", "website": "https://seferihisardh.saglik.gov.tr/"}}, {"name": "Γενικό Νοσοκομείο Κ.Υ. Ικαρίας", "latitude": 37.6123492, "longitude": 26.2914902, "source": "osm", "_tags": {"addr:city": "Άγιος Κήρυκος", "addr:postcode": "83300", "amenity": "hospital", "healthcare": "hospital", "name": "Γενικό Νοσοκομείο Κ.Υ. Ικαρίας", "phone": "+302275350201"}}, {"name": "Çeşme Alper Çizgenakat Devlet Hastanesi", "latitude": 38.3167003, "longitude": 26.3256971, "source": "osm", "_tags": {"amenity": "hospital", "emergency": "yes", "healthcare": "hospital", "name": "Çeşme Alper Çizgenakat Devlet Hastanesi"}}, {"name": "Κέντρο Υγείας Καρλοβάσου", "latitude": 37.7945125, "longitude": 26.7075986, "source": "osm", "_tags": {"addr:city": "Νέο Καρλόβασι", "addr:postcode": "83200", "amenity": "hospital", "emergency": "yes", "healthcare": "hospital", "healthcare:speciality": "general", "name": "Κέντρο Υγείας Καρλοβάσου", "name:en": "Karlovasi Health Center", "operator": "Ε.Σ.Υ.", "operator:type": "public"}}, {"name": "Γενικό Νοσοκομείο Χίου \"Σκυλίτσειο\"", "latitude": 38.3840479, "longitude": 26.1376531, "source": "osm", "_tags": {"addr:city": "Χίος", "addr:housenumber": "2", "addr:postcode": "82131", "addr:street": "Έλενας Βενιζέλου", "amenity": "hospital", "emergency": "yes", "healthcare": "hospital", "name": "Γενικό Νοσοκομείο Χίου \"Σκυλίτσειο\"", "name:de": "Krankenhaus", "name:el": "Γενικό Νοσοκομείο Χίου \"Σκυλίτσειο\"", "name:en": "General Hospital of Chios \"Skilitsion\"", "phone": "+302271350100", "website": "https://xioshosp.gr/"}}, {"name": "Urla Devlet Hastanesi", "latitude": 38.3305773, "longitude": 26.7462388, "source": "osm", "_tags": {"addr:city": "İzmir", "addr:district": "Urla", "addr:neighbourhood": "Torasan Mah.", "amenity": "hospital", "emergency": "yes", "healthcare": "hospital", "name": "Urla Devlet Hastanesi", "phone": "+90 232 735 4444", "website": "https://urladh.saglik.gov.tr/", "wikidata": "Q131350128", "wikimedia_commons": "Category:Urla State Hospital"}}]