[{"name": "Hospital de Alta Resoluci贸n Sierra de Segura", "latitude": 38.3602619, "longitude": -2.7873443, "source": "osm", "_tags": {"amenity": "hospital", "emergency": "yes", "healthcare": "hospital", "name": "Hospital de Alta Resoluci贸n Sierra de Segura", "operator:type": "public", "wikidata": "Q5903010"}}, {"name": "Hospital de Baza", "latitude": 37.500309, "longitude": -2.7522119, "source": "osm", "_tags": {"addr:city": "Baza", "addr:postcode": "18800", "addr:street": "Carretera de Murcia", "amenity": "hospital", "email": "hospitalbaza.sspa@juntadeandalucia.es", "emergency": "yes", "emergency:phone": "+34 958 02 88 27", "healthcare": "hospital", "name": "Hospital de Baza", "network": "Servicio Andaluz de Salud", "network:short": "SAS", "nohousenumber": "yes", "operator": "Servicio Andaluz de Salud", "operator:short": "SAS", "operator:type": "public", "operator:wikidata": "Q4753529", "phone": "+34 958 86 31 52;+34 958 03 13 00", "ref": "1805", "source": "https://www.sspa.juntadeandalucia.es/servicioandaluzdesalud/el-sas/servicios-y-centros/informacion-por-centros/1805", "start_date": "1986", "website": "https://www.agsnordestegranada.es", "wikidata": "Q5903020", "wikipedia": "es:Hospital de Baza"}}, {"name": "Cruz Roja", "latitude": 38.1638617, "longitude": -3.0055737, "source": "osm", "_tags": {"amenity": "hospital", "healthcare": "hospital", "name": "Cruz Roja", "operator": "Cruz Roja", "operator:wikidata": "Q7178"}}, {"name": "Hospital de Alta Resoluci贸n de Cazorla", "latitude": 37.9153, "longitude": -3.0144475, "source": "osm", "_tags": {"amenity": "hospital", "building": "yes", "emergency": "yes", "healthcare": "hospital", "name": "Hospital de Alta Resoluci贸n de Cazorla", "operator:type": "public", "wikidata": "Q88071154"}}]