[{"name": "Servizio di Continuità Assistenziale (Ex Guardia Medica)", "latitude": 38.0554753, "longitude": 14.9116337, "source": "osm", "_tags": {"addr:street": "Via Antonio Gramsci", "amenity": "hospital", "name": "Servizio di Continuità Assistenziale (Ex Guardia Medica)", "opening_hours": "Mo-Fr 20:00-08:00; Sa-Su 00:00-24:00", "phone": "+390941663202"}}, {"name": "", "latitude": 37.9277391, "longitude": 14.3530665, "source": "osm", "_tags": {"amenity": "hospital", "healthcare": "hospital", "operator": "ASL", "operator:wikidata": "Q3631467", "operator:wikipedia": "it:Azienda sanitaria locale"}}, {"name": "Ospedale Maria Santissima Addolorata", "latitude": 37.6465465, "longitude": 14.8712988, "source": "osm", "_tags": {"amenity": "hospital", "healthcare": "hospital", "name": "Ospedale Maria Santissima Addolorata", "operator": "Azienda Sanitaria Provinciale di Catania", "website": "https://www.aspct.it/azienda/presidi-ospedalieri/biancavilla/"}}, {"name": "", "latitude": 38.0661694, "longitude": 14.6275781, "source": "osm", "_tags": {"amenity": "hospital", "healthcare": "hospital"}}, {"name": "Ospedale Santissimo Salvatore", "latitude": 37.5721669, "longitude": 14.8984023, "source": "osm", "_tags": {"amenity": "hospital", "emergency": "yes", "healthcare": "hospital", "name": "Ospedale Santissimo Salvatore", "operator": "Azienda Sanitaria Provinciale di Catania", "website": "https://www.aspct.it/azienda/presidi-ospedalieri/patern/"}}, {"name": "Presidio ospedaliero Umberto I", "latitude": 37.5538777, "longitude": 14.3019729, "source": "osm", "_tags": {"amenity": "hospital", "emergency": "yes", "name": "Presidio ospedaliero Umberto I"}}, {"name": "Azienda ospedaliera Sant'Elia", "latitude": 37.4904011, "longitude": 14.0310161, "source": "osm", "_tags": {"amenity": "hospital", "emergency": "yes", "healthcare": "hospital", "name": "Azienda ospedaliera Sant'Elia"}}, {"name": "Ospedale Santissimo Salvatore", "latitude": 37.9283183, "longitude": 14.3575988, "source": "osm", "_tags": {"addr:housenumber": "95", "addr:postcode": "98073", "addr:street": "Via Anna Salamone", "amenity": "hospital", "building": "hospital", "healthcare": "hospital", "name": "Ospedale Santissimo Salvatore", "phone": "+39 0921 389111", "website": "https://www.asp.messina.it/?page_id=650"}}, {"name": "Ospedale di Naso", "latitude": 38.1272808, "longitude": 14.7886909, "source": "osm", "_tags": {"amenity": "hospital", "emergency": "no", "healthcare": "hospital", "name": "Ospedale di Naso"}}, {"name": "Fondazione Istituto Giuseppe Giglio", "latitude": 38.0278595, "longitude": 14.0127558, "source": "osm", "_tags": {"amenity": "hospital", "healthcare": "hospital", "name": "Fondazione Istituto Giuseppe Giglio", "old_name": "Fondazione Istituto San Raffaele - Giuseppe Giglio"}}, {"name": "Ospedale Ferro Capra Branciforti", "latitude": 37.6524789, "longitude": 14.4113175, "source": "osm", "_tags": {"amenity": "hospital", "healthcare": "hospital", "name": "Ospedale Ferro Capra Branciforti"}}, {"name": "Guardia medica", "latitude": 37.8121948, "longitude": 13.9983921, "source": "osm", "_tags": {"amenity": "hospital", "healthcare": "hospital", "name": "Guardia medica"}}, {"name": "Ospedale Carlo Basilotta", "latitude": 37.7447866, "longitude": 14.3897413, "source": "osm", "_tags": {"addr:city": "Nicosia", "addr:postcode": "94014", "addr:province": "Enna", "addr:street": "Via San Giovanni", "amenity": "hospital", "healthcare": "hospital", "name": "Ospedale Carlo Basilotta", "operator": "Azienda Sanitaria Provinciale di Enna"}}, {"name": "Ospedale Madonna dell'Alto", "latitude": 37.8188336, "longitude": 14.0909813, "source": "osm", "_tags": {"amenity": "hospital", "emergency": "yes", "healthcare": "hospital", "name": "Ospedale Madonna dell'Alto"}}, {"name": "Ospedale Castiglione-Prestianni", "latitude": 37.7889942, "longitude": 14.8362258, "source": "osm", "_tags": {"amenity": "hospital", "healthcare": "hospital", "name": "Ospedale Castiglione-Prestianni", "operator": "Azienda Sanitaria Provinciale di Catania", "phone": "+39 095 7746111", "website": "https://www.aspct.it/azienda/presidi-ospedalieri/bronte/"}}]