[{"name": "Centro médico", "latitude": 39.243587, "longitude": -1.3830224, "source": "osm", "_tags": {"addr:street": "Calle de la Iglesia", "amenity": "hospital", "healthcare": "hospital", "healthcare:speciality": "general", "name": "Centro médico", "operator": "SESCAM"}}, {"name": "Centro de Salud Francisco Palao Molina", "latitude": 38.6127194, "longitude": -1.1258927, "source": "osm", "_tags": {"amenity": "hospital", "healthcare": "hospital", "name": "Centro de Salud Francisco Palao Molina"}}, {"name": "Center of Medical Specialties", "latitude": 38.4734694, "longitude": -1.3326647, "source": "osm", "_tags": {"amenity": "hospital", "healthcare": "hospital", "name": "Center of Medical Specialties"}}, {"name": "Centro De Salud Mental De Jumilla", "latitude": 38.4735543, "longitude": -1.3330247, "source": "osm", "_tags": {"amenity": "hospital", "healthcare": "hospital", "name": "Centro De Salud Mental De Jumilla"}}, {"name": "SinVello!", "latitude": 39.0013634, "longitude": -1.8625708, "source": "osm", "_tags": {"addr:city": "Albacete", "addr:postcode": "02005", "addr:street": "Calle Miguel López de Legazpi", "amenity": "hospital", "healthcare": "hospital", "healthcare:speciality": "depilacion_laser", "name": "SinVello!", "operator": "SinVello!", "operator:type": "private"}}, {"name": "Hospital QuirónSalud \"Santa Cristina\"", "latitude": 38.9895835, "longitude": -1.8578995, "source": "osm", "_tags": {"amenity": "hospital", "building": "hospital", "healthcare": "hospital", "name": "Hospital QuirónSalud \"Santa Cristina\"", "old_name": "Sanatorio Santa Cristina"}}, {"name": "Hospital Quirónsalud", "latitude": 38.9853784, "longitude": -1.8441825, "source": "osm", "_tags": {"amenity": "hospital", "building": "yes", "emergency": "yes", "healthcare": "hospital", "name": "Hospital Quirónsalud", "old_name": "Clínica Capio", "phone": "+34 967 247 100", "website": "https://www.quironsalud.es/albacete", "wikidata": "Q87761416"}}, {"name": "Hospital Perpetuo Socorro", "latitude": 38.989554, "longitude": -1.872202, "source": "osm", "_tags": {"amenity": "hospital", "emergency": "yes", "healthcare": "hospital", "name": "Hospital Perpetuo Socorro", "website": "https://www.hospitalperpetuosocorro.es/", "wikidata": "Q16576153"}}, {"name": "Hospital General Universitario de Albacete", "latitude": 38.9852808, "longitude": -1.8463974, "source": "osm", "_tags": {"amenity": "hospital", "emergency": "yes", "healthcare": "hospital", "name": "Hospital General Universitario de Albacete", "operator": "JCCM", "wheelchair": "yes", "wikidata": "Q16576054"}}, {"name": "Hospital de Hellín", "latitude": 38.5044096, "longitude": -1.6892782, "source": "osm", "_tags": {"amenity": "hospital", "emergency": "yes", "name": "Hospital de Hellín", "operator": "SESCAM", "wikidata": "Q29559520", "wikipedia": "es:Hospital de Hellín"}}, {"name": "Hospital General de Almansa", "latitude": 38.8793762, "longitude": -1.0938215, "source": "osm", "_tags": {"amenity": "hospital", "healthcare": "hospital", "name": "Hospital General de Almansa", "wikidata": "Q18286002"}}, {"name": "Hospital Virgen del Castillo", "latitude": 38.6157179, "longitude": -1.1078538, "source": "osm", "_tags": {"addr:city": "Yecla", "addr:postcode": "30510", "addr:street": "Avenida de la Feria", "amenity": "hospital", "emergency": "yes", "healthcare": "hospital", "name": "Hospital Virgen del Castillo", "operator:type": "public", "wikidata": "Q87762219"}}, {"name": "Consultorio Local", "latitude": 39.1746959, "longitude": -1.4912786, "source": "osm", "_tags": {"amenity": "clinic", "building": "yes", "healthcare": "hospital", "name": "Consultorio Local"}}, {"name": "", "latitude": 38.8702166, "longitude": -1.0920393, "source": "osm", "_tags": {"amenity": "clinic", "building": "yes", "healthcare": "hospital"}}, {"name": "", "latitude": 38.7854898, "longitude": -1.3297876, "source": "osm", "_tags": {"amenity": "clinic", "healthcare": "hospital"}}, {"name": "Centro de Salud", "latitude": 39.2592231, "longitude": -1.3315618, "source": "osm", "_tags": {"amenity": "clinic", "healthcare": "hospital", "name": "Centro de Salud"}}, {"name": "Consultorio Local", "latitude": 38.835211, "longitude": -1.4625614, "source": "osm", "_tags": {"amenity": "clinic", "building": "yes", "healthcare": "hospital", "name": "Consultorio Local"}}, {"name": "Consultorio Local", "latitude": 38.8284392, "longitude": -1.5545308, "source": "osm", "_tags": {"amenity": "clinic", "building": "yes", "healthcare": "hospital", "name": "Consultorio Local"}}, {"name": "Consultorio Local", "latitude": 39.2220921, "longitude": -1.2601716, "source": "osm", "_tags": {"amenity": "clinic", "building": "yes", "healthcare": "hospital", "name": "Consultorio Local"}}, {"name": "Consultorio Local", "latitude": 39.0780614, "longitude": -1.5061302, "source": "osm", "_tags": {"amenity": "clinic", "building": "yes", "healthcare": "hospital", "name": "Consultorio Local"}}, {"name": "Consultorio Local", "latitude": 39.2114511, "longitude": -1.7233824, "source": "osm", "_tags": {"amenity": "clinic", "building": "yes", "healthcare": "hospital", "name": "Consultorio Local"}}, {"name": "Consultorio Local", "latitude": 39.1793059, "longitude": -1.7891376, "source": "osm", "_tags": {"amenity": "clinic", "building": "yes", "healthcare": "hospital", "name": "Consultorio Local"}}, {"name": "Centro de Salud", "latitude": 38.6922717, "longitude": -1.4336448, "source": "osm", "_tags": {"amenity": "clinic", "healthcare": "hospital", "name": "Centro de Salud"}}, {"name": "Consultorio Local", "latitude": 38.9599737, "longitude": -1.5543338, "source": "osm", "_tags": {"amenity": "clinic", "building": "yes", "healthcare": "hospital", "name": "Consultorio Local"}}, {"name": "Consultorio Local", "latitude": 38.717972, "longitude": -1.9117633, "source": "osm", "_tags": {"amenity": "clinic", "building": "yes", "healthcare": "hospital", "name": "Consultorio Local"}}, {"name": "Consultorio Local", "latitude": 39.1130795, "longitude": -1.9991797, "source": "osm", "_tags": {"amenity": "clinic", "building": "yes", "healthcare": "hospital", "name": "Consultorio Local"}}, {"name": "Consultorio Local", "latitude": 39.2668352, "longitude": -1.5526866, "source": "osm", "_tags": {"amenity": "clinic", "building": "yes", "healthcare": "hospital", "name": "Consultorio Local"}}, {"name": "Consultorio Local", "latitude": 39.1339675, "longitude": -1.6755639, "source": "osm", "_tags": {"amenity": "hospital", "healthcare": "hospital", "name": "Consultorio Local"}}, {"name": "Consultorio Local", "latitude": 38.8016964, "longitude": -1.7329532, "source": "osm", "_tags": {"amenity": "clinic", "building": "yes", "healthcare": "hospital", "name": "Consultorio Local"}}, {"name": "Consultorio Local", "latitude": 38.5401509, "longitude": -1.9535708, "source": "osm", "_tags": {"amenity": "clinic", "building": "yes", "healthcare": "hospital", "name": "Consultorio Local"}}, {"name": "Consultorio Local", "latitude": 39.1753012, "longitude": -1.5196292, "source": "osm", "_tags": {"amenity": "clinic", "building": "yes", "healthcare": "hospital", "name": "Consultorio Local"}}, {"name": "Centro de Salud", "latitude": 38.5871858, "longitude": -1.6905828, "source": "osm", "_tags": {"amenity": "clinic", "healthcare": "hospital", "name": "Centro de Salud"}}, {"name": "Consultorio", "latitude": 39.4027244, "longitude": -1.6233501, "source": "osm", "_tags": {"amenity": "hospital", "healthcare": "hospital", "name": "Consultorio"}}]