[{"name": "Consultori Mèdic de Busot", "latitude": 38.4844659, "longitude": -0.4161927, "source": "osm", "_tags": {"amenity": "hospital", "name": "Consultori Mèdic de Busot", "name:ca": "Consultori Mèdic de Busot", "name:es": "Consultorio Médico de Busot"}}, {"name": "Metge", "latitude": 38.7815553, "longitude": -0.7842386, "source": "osm", "_tags": {"amenity": "hospital", "emergency": "no", "healthcare": "hospital", "name": "Metge"}}, {"name": "Centro de salud de Sollana", "latitude": 39.2796262, "longitude": -0.383911, "source": "osm", "_tags": {"addr:city": "Sollana", "addr:postcode": "46430", "addr:street": "Avinguda de la Ribera Alta", "amenity": "clinic", "healthcare": "hospital", "name": "Centro de salud de Sollana", "nohousenumber": "yes"}}, {"name": "", "latitude": 39.2952112, "longitude": -0.412878, "source": "osm", "_tags": {"amenity": "clinic", "healthcare": "hospital"}}, {"name": "Residencia La Llum", "latitude": 39.2263936, "longitude": -0.5262795, "source": "osm", "_tags": {"addr:city": "Carlet", "addr:housenumber": "2", "addr:postcode": "46240", "addr:street": "Camí de Villarrubia", "amenity": "social_facility", "emergency": "no", "healthcare": "hospital", "healthcare:speciality": "internal;psychiatry", "name": "Residencia La Llum", "name:ca": "Residència La Llum", "social_facility": "nursing_home"}}, {"name": "Centro Salud Polinyà de Xúquer", "latitude": 39.1984292, "longitude": -0.3668908, "source": "osm", "_tags": {"amenity": "hospital", "healthcare": "hospital", "name": "Centro Salud Polinyà de Xúquer"}}, {"name": "Cruz Roja", "latitude": 39.1466852, "longitude": -0.4398372, "source": "osm", "_tags": {"amenity": "hospital", "healthcare": "hospital", "name": "Cruz Roja", "operator": "Cruz Roja", "operator:wikidata": "Q7178", "operator:wikipedia": "es:Cruz Roja"}}, {"name": "Centro de Salud Almàssera de Tonda", "latitude": 38.5121147, "longitude": -0.2314042, "source": "osm", "_tags": {"amenity": "hospital", "healthcare": "hospital", "name": "Centro de Salud Almàssera de Tonda", "name:ca": "Centre de Salut Almàssera de Tonda", "name:es": "Centro de Salud Almàssera de Tonda"}}, {"name": "Sanatori Sant Francesc de Borja - Fontilles", "latitude": 38.7770902, "longitude": -0.0881104, "source": "osm", "_tags": {"amenity": "hospital", "description": "El Sanatori Sant Francesc de Borja (o localment Fontilles) es va constuïr al 1909 per a atendre als maralts de lepra. Hui en dia és un centre Geriatric", "description:ca": "El Sanatori Sant Francesc de Borja (o localment Fontilles) es va constuïr al 1909 per a atendre als maralts de lepra. Hui en dia és un centre Geriatric", "description:en": "The Sant Francesc de Borja Sanatorium (or Fontilles locally) was built in 1909 to treat leprosy. Today it is a Geriatric Center", "description:es": "El Sanatorio San Francisco de Borja (o localmente Fontilles) se construyó en el 1909 para atender a los enfermos de lepra. Hoy en dia es un centro Geriatrico", "healthcare:speciality": "geriatrics", "loc_name": "Fontilles", "name": "Sanatori Sant Francesc de Borja - Fontilles", "name:ca": "Sanatori Sant Francesc de Borja - Fontilles", "name:es": "Sanatorio San Francisco de Borja - Fontilles", "operator": "Fontilles", "reg_name": "Fontilles", "start_date": "1909", "wikidata": "Q2220251", "wikipedia": "es:Sanatorio San Francisco de Borja"}}, {"name": "Hospital Comarcal de la Marina Baixa", "latitude": 38.5300436, "longitude": -0.198264, "source": "osm", "_tags": {"amenity": "hospital", "building": "yes", "emergency": "yes", "healthcare": "hospital", "name": "Hospital Comarcal de la Marina Baixa", "name:ca": "Hospital Comarcal de la Marina Baixa"}}, {"name": "Hospital General Universitario de Elda Virgen de la Salud", "latitude": 38.4935424, "longitude": -0.8057173, "source": "osm", "_tags": {"amenity": "hospital", "designation": "Hospital General Universitario de Elda Virgen de la Salud", "emergency": "yes", "name": "Hospital General Universitario de Elda Virgen de la Salud", "name:ca": "Hospital General Universitari d'Elda, Mare de Déu de la Salut", "wikidata": "Q5902666", "wikimedia_commons": "Category:Hospital General Universitario de Elda Virgen de la Salud", "wikipedia": "ca:Hospital General d'Elda"}}, {"name": "Hospital Virgen de los Lirios", "latitude": 38.7050287, "longitude": -0.466069, "source": "osm", "_tags": {"amenity": "hospital", "emergency": "yes", "healthcare": "hospital", "name": "Hospital Virgen de los Lirios", "name:ca": "Hospital Verge dels Lliris", "name:es": "Hospital Virgen de los Lirios", "name:etymology:wikidata": "Q11935374", "operator": "Generalitat Valenciana", "operator:type": "public", "operator:wikidata": "Q2477285", "wheelchair": "yes", "wikidata": "Q30254325"}}, {"name": "Hospital Lluís Alcanyís", "latitude": 39.0066489, "longitude": -0.5095862, "source": "osm", "_tags": {"amenity": "hospital", "emergency": "yes", "healthcare": "hospital", "name": "Hospital Lluís Alcanyís", "name:ca": "Hospital Lluís Alcanyís", "wikidata": "Q30280286"}}, {"name": "IMED San Jorge", "latitude": 38.6928151, "longitude": -0.4859392, "source": "osm", "_tags": {"addr:city": "Alcoi", "addr:housenumber": "55", "addr:postcode": "03802", "addr:street": "Carrer Oliver", "amenity": "hospital", "building": "hospital", "emergency": "yes", "healthcare": "hospital", "healthcare:speciality": "gynaecology;urology;otolaryngology;emergency;internal;general;pathology;radiology;plastic_surgery;pulmonology;trauma;anaesthetics;gastroenterology;fertility;haematology;cardiology;rheumatology", "name": "IMED San Jorge", "old_name": "Sanatori San Jordi", "old_name:ca": "Sanatori Sant Jordi", "old_name:es": "Sanatorio San Jorge", "operator": "IMED", "phone": "+34 965 33 04 00", "website": "https://www.imedhospitales.com/es/alcoy-san-jorge", "wikidata": "Q87761420"}}, {"name": "Hospital Comarcal Francesc De Borja", "latitude": 38.9634338, "longitude": -0.169828, "source": "osm", "_tags": {"addr:city": "Gandia", "addr:postcode": "46730", "addr:street": "Avinguda de la Medicina", "alt_name": "Hospital de Gandia", "alt_name:ca": "Hospital de Gandia", "amenity": "hospital", "check_date": "2024-12-09", "emergency": "yes", "healthcare": "hospital", "name": "Hospital Comarcal Francesc De Borja", "name:ca": "Hospital Comarcal Francesc De Borja", "wheelchair": "yes", "wikidata": "Q87762614"}}, {"name": "Hospital Clínica Benidorm", "latitude": 38.5430808, "longitude": -0.1291843, "source": "osm", "_tags": {"addr:city": "Benidorm", "addr:housenumber": "8", "addr:postcode": "03501", "addr:street": "Avinguda d'Alfonso Puchades", "amenity": "hospital", "building": "yes", "emergency": "yes", "healthcare": "hospital", "name": "Hospital Clínica Benidorm", "name:ca": "Hospital Clínica Benidorm", "phone": "+34 965 85 38 50", "website": "https://www.clinicabenidorm.com/", "wikidata": "Q30269906"}}, {"name": "Hospital Vithas Aguas Vivas", "latitude": 39.0880936, "longitude": -0.3549545, "source": "osm", "_tags": {"amenity": "hospital", "healthcare": "hospital", "name": "Hospital Vithas Aguas Vivas", "phone": "+34 96 258 88 00", "website": "https://www.hospitales.nisa.es/hospital-nisa-aguas-vivas_4_H.aspx", "wikidata": "Q87762631"}}, {"name": "Hospital Romelo Escoleta", "latitude": 39.0561629, "longitude": -0.3047719, "source": "osm", "_tags": {"building": "yes", "healthcare": "hospital", "name": "Hospital Romelo Escoleta"}}, {"name": "Hospital Universitario de la Ribera", "latitude": 39.1595408, "longitude": -0.4173269, "source": "osm", "_tags": {"amenity": "hospital", "emergency": "yes", "healthcare": "hospital", "healthcare:speciality": "cardiac_surgery;emergency;thoracic_surgery;neurosurgery;oncology", "name": "Hospital Universitario de la Ribera", "name:ca": "Hospital Universitari de la Ribera", "operator": "RiberaSalud", "phone": "+34 962458100", "website": "https://laribera.riberasalud.com/"}}, {"name": "Centro de Salud de Beniopa", "latitude": 38.9696025, "longitude": -0.1867489, "source": "osm", "_tags": {"addr:city": "Gandia", "addr:housenumber": "33", "addr:postcode": "46701", "addr:street": "Avinguda de Beniopa", "amenity": "clinic", "building": "yes", "healthcare": "hospital", "healthcare:speciality": "general;community;paediatrics", "name": "Centro de Salud de Beniopa"}}, {"name": "Centro de Especialidades l'Espanyoleto", "latitude": 38.9874052, "longitude": -0.5234687, "source": "osm", "_tags": {"amenity": "hospital", "healthcare": "hospital", "name": "Centro de Especialidades l'Espanyoleto", "operator": "Generalitat Valenciana", "operator:type": "public", "operator:wikidata": "Q2477285"}}, {"name": "", "latitude": 38.7062957, "longitude": -0.9802195, "source": "osm", "_tags": {"amenity": "hospital", "healthcare": "hospital"}}, {"name": "Hospital General d'Ontinyent", "latitude": 38.8201241, "longitude": -0.6031254, "source": "osm", "_tags": {"amenity": "hospital", "barrier": "wall", "healthcare": "hospital", "name": "Hospital General d'Ontinyent", "name:ca": "Hospital General d'Ontinyent"}}, {"name": "Hospital General d'Ontinyent", "latitude": 38.8103483, "longitude": -0.6074178, "source": "osm", "_tags": {"amenity": "hospital", "emergency": "yes", "healthcare": "hospital", "name": "Hospital General d'Ontinyent", "operator": "Generalitat Valenciana", "operator:type": "public", "operator:wikidata": "Q2477285", "phone": "+34 961 629 260"}}, {"name": "", "latitude": 38.5412658, "longitude": -0.1064083, "source": "osm", "_tags": {"amenity": "hospital"}}]