[{"name": "Özel Öztan Hastanesi", "latitude": 38.675788, "longitude": 29.3879098, "source": "osm", "_tags": {"addr:city": "Uşak", "amenity": "hospital", "healthcare": "hospital", "name": "Özel Öztan Hastanesi"}}, {"name": "Gediz Devlet Hastanesi", "latitude": 38.9856495, "longitude": 29.3867035, "source": "osm", "_tags": {"amenity": "hospital", "emergency": "yes", "healthcare": "hospital", "name": "Gediz Devlet Hastanesi", "operator": "Sağlık Bakanlığı", "operator:type": "government", "operator:wikidata": "Q4294365"}}, {"name": "Simav Doç. Dr. İsmail Karakuyu Devlet Hastanesi", "latitude": 39.0922014, "longitude": 28.9901452, "source": "osm", "_tags": {"addr:city": "Kütahya", "addr:district": "Simav", "amenity": "hospital", "emergency": "yes", "healthcare": "hospital", "name": "Simav Doç. Dr. İsmail Karakuyu Devlet Hastanesi", "operator": "Sağlık Bakanlığı", "operator:type": "government", "operator:wikidata": "Q4294365", "operator:wikipedia": "tr:Türkiye Cumhuriyeti Sağlık Bakanlığı", "phone": "+90 274 513 70 48"}}]