[{"name": "Gamma Center", "latitude": 38.5521094, "longitude": 15.9379704, "source": "osm", "_tags": {"amenity": "hospital", "healthcare": "hospital", "name": "Gamma Center"}}, {"name": "Cane pericoloso", "latitude": 38.5960615, "longitude": 15.911034, "source": "osm", "_tags": {"amenity": "hospital", "healthcare": "hospital", "name": "Cane pericoloso"}}, {"name": "", "latitude": 38.6684975, "longitude": 15.8795043, "source": "osm", "_tags": {"amenity": "hospital", "healthcare": "hospital"}}, {"name": "Ospedale Civile di Lipari", "latitude": 38.4622619, "longitude": 14.9542032, "source": "osm", "_tags": {"amenity": "hospital", "email": "ospedale.lipari@asp.messina.it", "emergency": "yes", "healthcare": "hospital", "name": "Ospedale Civile di Lipari", "phone": "+39 090 9885929"}}, {"name": "", "latitude": 38.5547881, "longitude": 15.9325657, "source": "osm", "_tags": {"amenity": "hospital", "healthcare": "hospital"}}, {"name": "Ospedale Giovanni XXIII", "latitude": 38.4246001, "longitude": 15.9057685, "source": "osm", "_tags": {"amenity": "hospital", "healthcare": "hospital", "name": "Ospedale Giovanni XXIII"}}]