[{"name": "Consultas Externas", "latitude": 39.2999491, "longitude": -7.4281575, "source": "osm", "_tags": {"healthcare": "hospital", "name": "Consultas Externas"}}, {"name": "Hospital da Misericórdia de Évora", "latitude": 38.5633397, "longitude": -7.914578, "source": "osm", "_tags": {"amenity": "hospital", "emergency": "no", "healthcare": "hospital", "name": "Hospital da Misericórdia de Évora"}}, {"name": "Cruz Roja Española", "latitude": 38.6882961, "longitude": -7.094693, "source": "osm", "_tags": {"amenity": "hospital", "healthcare": "hospital", "name": "Cruz Roja Española", "operator": "Cruz Roja", "operator:wikidata": "Q7178", "operator:wikipedia": "es:Cruz Roja"}}, {"name": "Unidade Local de Saúde do Norte Alentejano, EPE - Hospital Doutor José Maria Grande", "latitude": 39.3002175, "longitude": -7.4278683, "source": "osm", "_tags": {"amenity": "hospital", "healthcare": "hospital", "name": "Unidade Local de Saúde do Norte Alentejano, EPE - Hospital Doutor José Maria Grande"}}, {"name": "Cruz Vermelha Portuguesa", "latitude": 38.8479891, "longitude": -7.5839139, "source": "osm", "_tags": {"amenity": "clinic", "healthcare": "hospital", "name": "Cruz Vermelha Portuguesa"}}, {"name": "Unidade Local de Saúde do Norte Alentejano, EPE - Hospital de Santa Luzia", "latitude": 38.8754257, "longitude": -7.1630774, "source": "osm", "_tags": {"amenity": "hospital", "emergency": "yes", "healthcare": "hospital", "name": "Unidade Local de Saúde do Norte Alentejano, EPE - Hospital de Santa Luzia", "wheelchair": "yes"}}, {"name": "Hospital do Espírito Santo", "latitude": 38.56919, "longitude": -7.9020634, "source": "osm", "_tags": {"addr:city": "Évora", "addr:postcode": "7000-811", "addr:street": "Largo Senhor da Pobreza", "amenity": "hospital", "emergency": "yes", "healthcare": "hospital", "name": "Hospital do Espírito Santo", "operator": "Unidade Local de Saúde do Alentejo Central, E.P.E.", "operator:type": "government", "short_name": "HESE", "type": "multipolygon"}}]