[{"name": "Παλιό Νοσοκομείο Λευκάδας", "latitude": 38.8320665, "longitude": 20.7037298, "source": "osm", "_tags": {"addr:city": "Λευκάδα", "addr:housenumber": "29", "addr:postcode": "31100", "addr:street": "Αριστοτέλη Βαλαωρίτη", "amenity": "hospital", "emergency": "yes", "healthcare": "hospital", "name": "Παλιό Νοσοκομείο Λευκάδας", "name:el": "Παλιό Νοσοκομείο Λευκάδας", "name:en": "Lefkada Hospital", "phone": "+3026453 60200", "website": "http://www.lefkada-hospital.gr/"}}, {"name": "Γενικό Νοσοκομείο Πρέβεζας", "latitude": 38.9653206, "longitude": 20.7538176, "source": "osm", "_tags": {"amenity": "hospital", "barrier": "fence", "emergency": "yes", "fence_type": "chain_link", "healthcare": "hospital", "name": "Γενικό Νοσοκομείο Πρέβεζας", "name:el": "Γενικό Νοσοκομείο Πρέβεζας", "name:en": "General Hospital of Preveza", "phone": "+30 26823 61200", "website": "https://www.prevezahospital.gr/", "wikidata": "Q21626799"}}, {"name": "ΚΕΝΤΡΟ ΥΓΕΙΑΣ ΦΙΛΙΠΠΙΑΔΑΣ", "latitude": 39.2022396, "longitude": 20.8846827, "source": "osm", "_tags": {"amenity": "hospital", "healthcare": "hospital", "name": "ΚΕΝΤΡΟ ΥΓΕΙΑΣ ΦΙΛΙΠΠΙΑΔΑΣ", "name:el": "Κέντρο Υγείας Φιλιππιάδας", "name:en": "Filippiada Medical Centre", "operator": "6η ΥΠΕ"}}, {"name": "ΚΕΚΥΚΑΜΕΑ", "latitude": 38.9817503, "longitude": 20.7905218, "source": "osm", "_tags": {"amenity": "hospital", "healthcare": "hospital", "name": "ΚΕΚΥΚΑΜΕΑ"}}, {"name": "Κέντρο Υγείας Πάργας", "latitude": 39.2861618, "longitude": 20.3985239, "source": "osm", "_tags": {"amenity": "hospital", "emergency": "yes", "healthcare": "yes", "name": "Κέντρο Υγείας Πάργας", "name:el": "Κέντρο Υγείας Πάργας", "name:en": "Parga's Health Centre", "phone": "+30 26843 60000"}}, {"name": "Γενικό Νοσοκομείο Λευκάδας", "latitude": 38.8260961, "longitude": 20.6972416, "source": "osm", "_tags": {"amenity": "hospital", "healthcare": "hospital", "name": "Γενικό Νοσοκομείο Λευκάδας", "name:el": "Γενικό Νοσοκομείο Λευκάδας", "name:en": "Lefkada General Hospital", "wikidata": "Q21626764"}}, {"name": "Κέντρο Υγείας Βόνιτσας", "latitude": 38.9191569, "longitude": 20.8941337, "source": "osm", "_tags": {"amenity": "hospital", "healthcare": "hospital", "name": "Κέντρο Υγείας Βόνιτσας"}}, {"name": "Κέντρο Υγείας Βασιλικής", "latitude": 38.6303623, "longitude": 20.6081081, "source": "osm", "_tags": {"amenity": "hospital", "healthcare": "hospital", "name": "Κέντρο Υγείας Βασιλικής", "name:el": "Κέντρο Υγείας Βασιλικής", "name:en": "Health centre"}}]