[{"name": "Kaşkaloğlu Göz Hastanesi", "latitude": 38.432016, "longitude": 27.1473523, "source": "osm", "_tags": {"amenity": "hospital", "emergency": "yes", "healthcare": "hospital", "name": "Kaşkaloğlu Göz Hastanesi"}}, {"name": "Başkent Üniversitesi Zübeyde Hanım Uygulama Merkezi", "latitude": 38.4640228, "longitude": 27.0932624, "source": "osm", "_tags": {"addr:city": "Karsiyaka", "addr:postcode": "35540", "amenity": "hospital", "emergency": "yes", "healthcare": "hospital", "name": "Başkent Üniversitesi Zübeyde Hanım Uygulama Merkezi", "name:en": "Başkent Üniversitesi Zübeyde Hanım Uygulama Merkezi", "name:tr": "Başkent Üniversitesi Zübeyde Hanım Uygulama Merkezi"}}, {"name": "Zübeyde Hanım Tıp Merkezi", "latitude": 38.4613584, "longitude": 27.1160003, "source": "osm", "_tags": {"amenity": "hospital", "healthcare": "hospital", "name": "Zübeyde Hanım Tıp Merkezi"}}, {"name": "Özel EntoKBB Cerrahi Tıp Merkezi", "latitude": 38.4499935, "longitude": 27.2036447, "source": "osm", "_tags": {"addr:housenumber": "36/A", "addr:street": "364/1. Sokak", "amenity": "hospital", "email": "info@entokbb.com", "healthcare": "hospital", "healthcare:speciality": "surgery", "internet_access": "wlan", "name": "Özel EntoKBB Cerrahi Tıp Merkezi", "opening_hours": "Mo-Sa 09:00-23:00", "phone": "+902324003686", "website": "https://www.entokbb.com/"}}, {"name": "Özel Ege Şehir Hastanesi", "latitude": 38.4242763, "longitude": 27.1682518, "source": "osm", "_tags": {"amenity": "hospital", "healthcare": "hospital", "name": "Özel Ege Şehir Hastanesi", "name:tr": "Özel Ege Şehir Hastanesi"}}, {"name": "Özel Gözde İzmir Hastanesi", "latitude": 38.4248293, "longitude": 27.168444, "source": "osm", "_tags": {"amenity": "hospital", "healthcare": "hospital", "name": "Özel Gözde İzmir Hastanesi", "name:tr": "Özel Gözde İzmir Hastanesi"}}, {"name": "ozel kent", "latitude": 38.4404593, "longitude": 27.1432668, "source": "osm", "_tags": {"addr:housenumber": "hospital", "addr:street": "1479. Sokak", "amenity": "hospital", "healthcare": "hospital", "name": "ozel kent"}}, {"name": "Özel Metropol Tıp Merkezi", "latitude": 38.477477, "longitude": 27.0967466, "source": "osm", "_tags": {"amenity": "hospital", "healthcare": "hospital", "name": "Özel Metropol Tıp Merkezi"}}, {"name": "Çınarlı Kadın Doğum Hastanesi", "latitude": 38.440739, "longitude": 27.1727482, "source": "osm", "_tags": {"addr:housenumber": "14", "addr:street": "Anadolu Caddesi", "amenity": "hospital", "healthcare": "hospital", "name": "Çınarlı Kadın Doğum Hastanesi"}}, {"name": "Uzman Klinik Psikolog Zümrüt Çetin", "latitude": 38.4312418, "longitude": 27.1501019, "source": "osm", "_tags": {"addr:city": "İzmir", "addr:district": "konak", "addr:housenumber": "no:81", "addr:neighbourhood": "Mimar Sinan Cad. 1420 Sok Alibey Apartmanı no:81 daire:6", "addr:postcode": "35559", "addr:street": "1420. Sokak", "amenity": "hospital", "healthcare": "hospital", "healthcare:speciality": "psychiatry", "name": "Uzman Klinik Psikolog Zümrüt Çetin", "operator": "İzmiripm Psikoloji Merkezi", "operator:type": "public"}}, {"name": "Medigün", "latitude": 39.1182505, "longitude": 27.1751773, "source": "osm", "_tags": {"addr:postcode": "35725", "addr:street": "23. Sokak", "amenity": "hospital", "healthcare": "hospital", "name": "Medigün", "name:en": "Bergama Medigün Medical Center", "name:tr": "Bergama Medigün Tıp Merkezi", "phone": "08502601222"}}, {"name": "Yedigün Tıp Merkezi Çamdibi Şubesi", "latitude": 38.4349213, "longitude": 27.1923771, "source": "osm", "_tags": {"addr:city": "Gazi Osman Paşa Mahallesi", "addr:district": "bornova", "addr:housenumber": "23/3", "addr:neighbourhood": "Gaziosmanpaşa Mah, 5454. Sk. 23/3, 35090 Bornova/İzmir", "addr:postcode": "35090", "addr:street": "5454. Sokak", "amenity": "hospital", "emergency": "yes", "healthcare": "hospital", "healthcare:speciality": "physiotherapy;orthopaedics;neurology;biology;physiatry;dermatology;cardiology;radiology;urology;internal;gynaecology;ophthalmology;psychiatry;paediatrics;diabetology;otolaryngology;podiatry;body;humanistic;blood_check;allergology;dermatovenereology", "image": "https://yediguntipcamdibi.com/2022/09/06/camdibi-tip-merkezi/", "name": "Yedigün Tıp Merkezi Çamdibi Şubesi", "operator": "Yedigün Tıp Merkezi", "operator:type": "medical_center", "source": "https://yediguntipcamdibi.com/contact-us/", "website": "https://yediguntipcamdibi.com/category/guncel/"}}, {"name": "Karşıyaka Göz Hastanesi", "latitude": 38.4723339, "longitude": 27.084632, "source": "osm", "_tags": {"amenity": "hospital", "name": "Karşıyaka Göz Hastanesi"}}, {"name": "Özel Akhisar Doğuş Hastanesi", "latitude": 38.9126062, "longitude": 27.8264444, "source": "osm", "_tags": {"addr:district": "Akhisar", "amenity": "hospital", "emergency": "yes", "healthcare": "hospital", "name": "Özel Akhisar Doğuş Hastanesi", "operator": "Doğuş", "operator:type": "private"}}, {"name": "Akhisar Mustafa Kirazoğlu Devlet Hastanesi", "latitude": 38.9139883, "longitude": 27.8305462, "source": "osm", "_tags": {"addr:city": "Manisa", "addr:district": "Akhisar", "amenity": "hospital", "emergency": "yes", "healthcare": "hospital", "name": "Akhisar Mustafa Kirazoğlu Devlet Hastanesi", "operator": "Sağlık Bakanlığı", "operator:wikidata": "Q4294365", "phone": "+90 236 413 9191"}}, {"name": "Akhisar Mustafa Kirazoğlu Devlet Hastahanesi Eski Bina", "latitude": 38.9184042, "longitude": 27.8084821, "source": "osm", "_tags": {"amenity": "hospital", "healthcare": "hospital", "name": "Akhisar Mustafa Kirazoğlu Devlet Hastahanesi Eski Bina"}}, {"name": "İzmir Alsancak Ağız ve Diş Sağlığı Merkezine Bağlı Bayraklı Ağız ve Diş Sağlığı Polikliniği", "latitude": 38.470009, "longitude": 27.1775954, "source": "osm", "_tags": {"addr:street": "Şehit Hakan Uysal Sokak", "amenity": "hospital", "name": "İzmir Alsancak Ağız ve Diş Sağlığı Merkezine Bağlı Bayraklı Ağız ve Diş Sağlığı Polikliniği"}}, {"name": "Özel Oksijen Sağlık Kabini", "latitude": 38.4679306, "longitude": 27.2199246, "source": "osm", "_tags": {"addr:housenumber": "No 4/C", "addr:postcode": "35040", "amenity": "hospital", "email": "info@oksijensaglik.com", "healthcare": "hospital", "name": "Özel Oksijen Sağlık Kabini", "name:en": "Health Cabin", "opening_hours": "Mo-Su 09:00-19:00", "phone": "+905055983535", "website": "https://www.oksijensaglik.com/"}}, {"name": "Bergama Necla-Mithat Öztüre Devlet Hastanesi Toplum Ruh Sağlığı Merkezi", "latitude": 39.1059342, "longitude": 27.1751245, "source": "osm", "_tags": {"amenity": "hospital", "healthcare": "hospital", "name": "Bergama Necla-Mithat Öztüre Devlet Hastanesi Toplum Ruh Sağlığı Merkezi"}}, {"name": "İzmir Bergama 13 Nolu Ertuğrul Aile Sağlığı Merkezi", "latitude": 39.1174993, "longitude": 27.177654, "source": "osm", "_tags": {"addr:city": "İzmir", "addr:district": "Bergama", "addr:housenumber": "No : 23", "addr:neighbourhood": "Ertuğrul Mahallesi", "addr:postcode": "35700", "addr:street": "Ertuğrul Caddesi", "amenity": "hospital", "healthcare": "hospital", "name": "İzmir Bergama 13 Nolu Ertuğrul Aile Sağlığı Merkezi", "operator": "Sağlık Bakanlığı", "operator:type": "government", "operator:wikidata": "Q4294365", "phone": "+90 (232) 631 01 46"}}, {"name": "İzmir Bergama 11 Nolu Güzeloğulları Aile Sağlığı Merkezi", "latitude": 39.1040237, "longitude": 27.1666876, "source": "osm", "_tags": {"addr:city": "İzmir", "addr:district": "Bergama", "addr:housenumber": "No : 30", "addr:neighbourhood": "Fatih Mahallesi", "addr:postcode": "35700", "addr:street": "Tuna Caddesi", "amenity": "hospital", "healthcare": "hospital", "name": "İzmir Bergama 11 Nolu Güzeloğulları Aile Sağlığı Merkezi", "operator": "Sağlık Bakanlığı", "operator:type": "government", "operator:wikidata": "Q4294365", "phone": "+ 90 (232) 633 64 08"}}, {"name": "İzmir Bergama 1 Nolu Aile Sağlığı Merkezi", "latitude": 39.1167956, "longitude": 27.1752104, "source": "osm", "_tags": {"addr:city": "İzmir", "addr:district": "Bergama", "addr:housenumber": "No : 8", "addr:neighbourhood": "Zafer Mahallesi", "addr:postcode": "35700", "addr:street": "623. Sokak", "amenity": "hospital", "healthcare": "hospital", "name": "İzmir Bergama 1 Nolu Aile Sağlığı Merkezi", "operator": "Sağlık Bakanlığı", "operator:type": "government", "operator:wikidata": "Q4294365", "phone": "+90 (232) 631 22 61"}}, {"name": "Bergama Toplum Sağlığı Merkezi", "latitude": 39.1166512, "longitude": 27.1751339, "source": "osm", "_tags": {"amenity": "hospital", "healthcare": "hospital", "name": "Bergama Toplum Sağlığı Merkezi", "operator": "Sağlık Bakanlığı", "operator:type": "government", "operator:wikidata": "Q4294365"}}, {"name": "İzmir Bergama 1 Nolu Sağlıklı Hayat Merkezi", "latitude": 39.1168054, "longitude": 27.1745806, "source": "osm", "_tags": {"amenity": "hospital", "healthcare": "hospital", "name": "İzmir Bergama 1 Nolu Sağlıklı Hayat Merkezi", "operator": "Sağlık Bakanlığı", "operator:type": "government", "operator:wikidata": "Q4294365"}}, {"name": "İzmir Bergama 1 Nolu Acil Yardım İstasyonu", "latitude": 39.1169245, "longitude": 27.1746731, "source": "osm", "_tags": {"amenity": "hospital", "healthcare": "hospital", "name": "İzmir Bergama 1 Nolu Acil Yardım İstasyonu", "operator": "Sağlık Bakanlığı", "operator:type": "government", "operator:wikidata": "Q4294365"}}, {"name": "İzmir Bergama 4 Nolu Dr. Hasan Ergil Aile Sağlığı Merkezi", "latitude": 39.1104522, "longitude": 27.1726023, "source": "osm", "_tags": {"addr:city": "İzmir", "addr:district": "Bergama", "addr:housenumber": "No : 5", "addr:neighbourhood": "Maltepe Mahallesi", "addr:postcode": "35700", "addr:street": "418. Sokak", "amenity": "hospital", "healthcare": "hospital", "name": "İzmir Bergama 4 Nolu Dr. Hasan Ergil Aile Sağlığı Merkezi", "operator": "Sağlık Bakanlığı", "operator:type": "government", "operator:wikidata": "Q4294365", "phone": "+90 (232) 632 05 35"}}, {"name": "Ege Üniversitesi Hastanesi", "latitude": 38.4554655, "longitude": 27.2110809, "source": "osm", "_tags": {"alt_name": "Ege Üniversitesi Tıp Fakültesi Hastanesi", "amenity": "hospital", "emergency": "yes", "healthcare": "hospital", "name": "Ege Üniversitesi Hastanesi", "website": "http://hastane.ege.edu.tr/", "wheelchair": "limited", "wikidata": "Q30254026", "wikimedia_commons": "Category:Ege University Hospital"}}, {"name": "Dr. Suat Seren Göğüs Hastalıkları Hastanesi", "latitude": 38.4247169, "longitude": 27.1641102, "source": "osm", "_tags": {"amenity": "hospital", "healthcare": "hospital", "name": "Dr. Suat Seren Göğüs Hastalıkları Hastanesi", "wikidata": "Q30287052"}}, {"name": "Eşrefpaşa Hastanesi", "latitude": 38.4242908, "longitude": 27.1602756, "source": "osm", "_tags": {"addr:housenumber": "315", "addr:street": "Gaziler Caddesi", "amenity": "hospital", "email": "esrefpasa@izmir.bel.tr", "emergency": "yes", "healthcare": "hospital", "name": "Eşrefpaşa Hastanesi", "operator": "İzmir Büyükşehir Belediyesi", "phone": "+90 232 293 80 00", "website": "https://esrefpasahastanesi.izmir.bel.tr/", "wikidata": "Q5994572", "wikipedia": "tr:Eşrefpaşa Hastanesi"}}, {"name": "Central Hospital", "latitude": 38.4608814, "longitude": 27.1669755, "source": "osm", "_tags": {"amenity": "hospital", "building": "hospital", "emergency": "yes", "healthcare": "hospital", "name": "Central Hospital"}}, {"name": "Aliağa Devlet Hastanesi", "latitude": 38.7869883, "longitude": 26.9753373, "source": "osm", "_tags": {"amenity": "hospital", "emergency": "yes", "healthcare": "hospital", "name": "Aliağa Devlet Hastanesi", "operator": "Sağlık Bakanlığı", "operator:wikidata": "Q4294365", "school_level": "primary"}}, {"name": "Medical Point İzmir Hastanesi", "latitude": 38.4737102, "longitude": 27.1122187, "source": "osm", "_tags": {"addr:city": "İzmir", "addr:district": "Karşıyaka", "addr:neighbourhood": "İmbatlı Mahallesi", "addr:postcode": "35560", "addr:street": "1848. Sokak", "amenity": "hospital", "email": "info@mph.com.tr", "emergency": "yes", "healthcare": "hospital", "healthcare:speciality": "general;psychiatry;emergency;anaesthetics;brain_and_nerve_surgery;dermatology;surgery;neurology;rheumatology;urology;haematology;cardiology;nephrology;plastic_surgery;radiology;oncology", "internet_access": "wlan", "name": "Medical Point İzmir Hastanesi", "opening_hours": "24/7", "operator": "Medical Point", "operator:type": "private", "operator:wikipedia": "tr:Medical Park", "phone": "444 3 525", "wikidata": "Q116610043"}}, {"name": "Behçet Uz Çocuk Hastanesi", "latitude": 38.4278285, "longitude": 27.138593, "source": "osm", "_tags": {"amenity": "hospital", "building": "yes", "emergency": "yes", "healthcare": "hospital", "name": "Behçet Uz Çocuk Hastanesi", "wikidata": "Q30279892", "wikimedia_commons": "Category:Dr. Behçet Uz Children's Hospital", "wikipedia": "en:Dr. Behçet Uz Çocuk Hospital"}}, {"name": "", "latitude": 38.9140913, "longitude": 27.8305792, "source": "osm", "_tags": {"addr:city": "Manisa", "addr:district": "Akhisar", "amenity": "hospital", "healthcare": "hospital", "operator": "Sağlık Bakanlığı", "operator:wikidata": "Q4294365"}}, {"name": "Kordon Kadın Doğum ve Çocuk Hastalıkları Hastanesi", "latitude": 38.4853267, "longitude": 27.0624221, "source": "osm", "_tags": {"amenity": "hospital", "building": "hospital", "healthcare": "hospital", "name": "Kordon Kadın Doğum ve Çocuk Hastalıkları Hastanesi"}}, {"name": "Özel Bergama Diyaliz Merkezi", "latitude": 39.098738, "longitude": 27.1557069, "source": "osm", "_tags": {"amenity": "hospital", "healthcare": "hospital", "name": "Özel Bergama Diyaliz Merkezi", "name:en": "Bergama Dialysis Center", "phone": "+90 232 633 63 63"}}, {"name": "Manisa Şehzadeler Semt Polikliniği", "latitude": 38.6202167, "longitude": 27.4375596, "source": "osm", "_tags": {"addr:city": "Manisa", "amenity": "hospital", "emergency": "yes", "healthcare": "hospital", "name": "Manisa Şehzadeler Semt Polikliniği"}}, {"name": "Özel Sekiz Eylül Hastanesi", "latitude": 38.6188453, "longitude": 27.4363082, "source": "osm", "_tags": {"addr:city": "Manisa", "amenity": "hospital", "building": "yes", "emergency": "yes", "healthcare": "hospital", "name": "Özel Sekiz Eylül Hastanesi", "phone": "+90 236 238 8823"}}, {"name": "Turgutlu Yeni Devlet Hastanesi", "latitude": 38.4919752, "longitude": 27.6909273, "source": "osm", "_tags": {"addr:city": "Turgutlu/Manisa", "amenity": "hospital", "emergency": "yes", "healthcare": "hospital", "name": "Turgutlu Yeni Devlet Hastanesi", "operator": "Sağlık Bakanlığı", "operator:wikidata": "Q4294365"}}, {"name": "Zübeyde Hanım Hastanesi Polikliniği", "latitude": 38.4718533, "longitude": 27.0861902, "source": "osm", "_tags": {"amenity": "hospital", "building": "hospital", "healthcare": "hospital", "name": "Zübeyde Hanım Hastanesi Polikliniği", "operator": "Başkent Üniversitesi", "operator:type": "university", "phone": "+902322411000"}}, {"name": "Soma Devlet Hastanesi", "latitude": 39.1835799, "longitude": 27.5524543, "source": "osm", "_tags": {"amenity": "hospital", "healthcare": "hospital", "name": "Soma Devlet Hastanesi", "operator": "Sağlık Bakanlığı", "operator:type": "government", "operator:wikidata": "Q4294365"}}, {"name": "İzmir Bayraklı Entegre Sağlık Kampüsü", "latitude": 38.4849814, "longitude": 27.1753194, "source": "osm", "_tags": {"amenity": "hospital", "healthcare": "hospital", "name": "İzmir Bayraklı Entegre Sağlık Kampüsü", "opening_date": "2020", "operator": "İzmir Kuzey Kamu Hastahaneleri", "wikidata": "Q6042254", "wikimedia_commons": "Category:İzmir City Hospital", "wikipedia": "tr:İzmir Şehir Hastanesi"}}, {"name": "Özel Acıbadem İzmir Kent Hastanesi", "latitude": 38.4896963, "longitude": 27.0516757, "source": "osm", "_tags": {"addr:street": "8229/2. Sokak", "amenity": "hospital", "building": "hospital", "healthcare": "hospital", "name": "Özel Acıbadem İzmir Kent Hastanesi", "operator": "Acıbadem", "operator:type": "private", "operator:wikidata": "Q19610384", "wikidata": "Q30280365"}}, {"name": "Ege Üniversitesi Çocuk Hastanesi", "latitude": 38.4543281, "longitude": 27.2137863, "source": "osm", "_tags": {"amenity": "hospital", "building": "hospital", "emergency": "yes", "healthcare": "hospital", "healthcare:speciality": "paediatrics", "name": "Ege Üniversitesi Çocuk Hastanesi"}}, {"name": "Medicana İnternational İzmir Hastanesi", "latitude": 38.4296372, "longitude": 27.1572795, "source": "osm", "_tags": {"amenity": "hospital", "check_date": "2022-10-19", "emergency": "yes", "healthcare": "hospital", "internet_access": "wlan", "internet_access:fee": "no", "name": "Medicana İnternational İzmir Hastanesi", "operator": "Medicana", "operator:type": "private", "phone": "+90 232 970 35 35", "website": "https://www.medicana.com.tr", "wheelchair": "yes"}}, {"name": "Diş Hekimliği Ağız ve Diş Sağlığı Hastanesi", "latitude": 38.4565523, "longitude": 27.2243425, "source": "osm", "_tags": {"amenity": "hospital", "building": "hospital", "healthcare": "hospital", "name": "Diş Hekimliği Ağız ve Diş Sağlığı Hastanesi", "operator": "Ege Üniversitesi", "operator:type": "university"}}, {"name": "Manisa Şehir Hastanesi", "latitude": 38.6123437, "longitude": 27.4617129, "source": "osm", "_tags": {"amenity": "hospital", "healthcare": "hospital", "healthcare:speciality": "general;surgery;emergency", "name": "Manisa Şehir Hastanesi"}}, {"name": "Türkan Özilhan Devlet Hastanesi", "latitude": 38.4590996, "longitude": 27.250146, "source": "osm", "_tags": {"amenity": "hospital", "healthcare": "hospital", "name": "Türkan Özilhan Devlet Hastanesi"}}, {"name": "Menemen İlçe Devlet Hastanesi", "latitude": 38.6073185, "longitude": 27.0880534, "source": "osm", "_tags": {"amenity": "hospital", "emergency": "yes", "healthcare": "hospital", "name": "Menemen İlçe Devlet Hastanesi", "operator": "Sağlık Bakanlığı", "operator:type": "government", "operator:wikidata": "Q4294365"}}, {"name": "Özel Kent Bayraklı Tıp Merkezi", "latitude": 38.4531137, "longitude": 27.1880997, "source": "osm", "_tags": {"amenity": "hospital", "building": "hospital", "healthcare": "hospital", "name": "Özel Kent Bayraklı Tıp Merkezi"}}, {"name": "Tınaztepe Galen Hastanesi", "latitude": 38.463774, "longitude": 27.1944378, "source": "osm", "_tags": {"addr:city": "İzmir", "addr:district": "Bayraklı", "addr:housenumber": "23", "addr:neighbourhood": "Manavkuyu Mahallesi", "addr:street": "250. Sokak", "amenity": "hospital", "building": "hospital", "email": "galen@tinaztepe.com", "emergency": "yes", "fax": "+90 232 438 83 44", "healthcare": "hospital", "name": "Tınaztepe Galen Hastanesi", "official_name": "İzmir Tınaztepe Üniversitesi Özel Galen Hastanesi", "operator": "İzmir Tınaztepe Üniversitesi", "operator:type": "private", "phone": "+90 232 966 14 14"}}, {"name": "Tepecik Eğitim ve Araştırma Hastanesi Bornova Ek Binası", "latitude": 38.4545521, "longitude": 27.2051215, "source": "osm", "_tags": {"amenity": "hospital", "building": "hospital", "emergency": "no", "healthcare": "hospital", "name": "Tepecik Eğitim ve Araştırma Hastanesi Bornova Ek Binası", "operator": "Sağlık Bakanlığı", "operator:type": "government", "operator:wikidata": "Q4294365"}}, {"name": "Nevvar Salih İşgören Hospital", "latitude": 38.4340751, "longitude": 27.1430855, "source": "osm", "_tags": {"addr:city": "İzmir", "addr:district": "Konak", "addr:housenumber": "26", "addr:neighbourhood": "Alsancak", "addr:postcode": "35220", "addr:street": "Ali Çetinkaya Bulvarı", "amenity": "hospital", "fax": "464 80 34", "healthcare": "hospital", "name": "Nevvar Salih İşgören Hospital", "name:tr": "Alsancak Nevvar - Salih İşgören Devlet Hastanesi", "operator": "Municipality", "phone": "+90 232 463 64 65", "website": "https://alsancakdh.saglik.gov.tr/"}}, {"name": "Ento KBB Tıp Merkezi", "latitude": 38.4469941, "longitude": 27.2068073, "source": "osm", "_tags": {"addr:housenumber": "36/A", "addr:postcode": "35100", "addr:street": "364/1. Sokak", "amenity": "hospital", "building": "hospital", "email": "info@entokbb.com", "emergency": "no", "healthcare": "hospital", "internet_access": "wlan", "name": "Ento KBB Tıp Merkezi", "name:en": "Ento KBB Medical Center", "opening_hours": "Mo-Sa 09:00-23:00", "phone": "+902324003686", "website": "http://www.entokbb.con"}}, {"name": "Alfa Tıp Merkezi", "latitude": 38.4468976, "longitude": 27.2065348, "source": "osm", "_tags": {"amenity": "hospital", "building": "hospital", "emergency": "no", "healthcare": "hospital", "name": "Alfa Tıp Merkezi"}}, {"name": "Emot Hastanesi", "latitude": 38.4260313, "longitude": 27.1509142, "source": "osm", "_tags": {"addr:city": "İzmir", "addr:district": "Konak", "addr:neighbourhood": "Kahramanlar", "addr:street": "1418. Sokak", "building": "hospital", "building:levels": "5", "emergency": "yes", "healthcare": "hospital", "healthcare:speciality": "general", "name": "Emot Hastanesi"}}, {"name": "Özel İzmir Ege Laboratuarı", "latitude": 38.4252686, "longitude": 27.1485554, "source": "osm", "_tags": {"addr:city": "İzmir", "addr:district": "Konak", "addr:neighbourhood": "Kahramanlar Mahallesi", "addr:street": "1397. Sokak", "amenity": "hospital", "emergency": "no", "healthcare": "hospital", "healthcare:speciality": "biology", "name": "Özel İzmir Ege Laboratuarı", "operator": "Özel", "operator:type": "business"}}, {"name": "Özel Medical Park İzmir Hastanesi", "latitude": 38.4250052, "longitude": 27.1497698, "source": "osm", "_tags": {"addr:city": "İzmir", "addr:district": "Konak", "addr:housenumber": "1", "addr:neighbourhood": "Kahramanlar Mahallesi", "addr:postcode": "35230", "addr:street": "1397. Sokak", "amenity": "hospital", "building": "hospital", "emergency": "yes", "healthcare": "hospital", "healthcare:speciality": "general", "layer": "-1", "name": "Özel Medical Park İzmir Hastanesi", "wikidata": "Q12810778"}}, {"name": "", "latitude": 38.427518, "longitude": 27.1388186, "source": "osm", "_tags": {"amenity": "hospital", "healthcare": "hospital", "wikidata": "Q30279892", "wikimedia_commons": "Category:Dr. Behçet Uz Children's Hospital", "wikipedia": "en:Dr. Behçet Uz Çocuk Hospital"}}, {"name": "Diş Hekimliği Fakültesi", "latitude": 38.5193383, "longitude": 27.0306714, "source": "osm", "_tags": {"amenity": "hospital", "building": "hospital", "building:levels": "4", "healthcare": "hospital", "healthcare:speciality": "dentistry", "name": "Diş Hekimliği Fakültesi", "operator": "İzmir Kâtip Çelebi Üniversitesi", "operator:type": "university", "payment:wire_transfer": "yes"}}, {"name": "Özel Metropol Hastanesi", "latitude": 38.5015746, "longitude": 27.0526328, "source": "osm", "_tags": {"addr:city": "İzmir", "addr:district": "Çiğli", "addr:housenumber": "No:1169", "addr:neighbourhood": "Küçük Çiğli Mah.", "addr:postcode": "35620", "addr:street": "Anadolu Caddesi", "amenity": "hospital", "building": "hospital", "emergency": "yes", "healthcare": "hospital", "name": "Özel Metropol Hastanesi", "operator": "Metropol Hastaneleri", "operator:type": "private"}}, {"name": "İzmir Bergama 2 Nolu Acil Yardım İstasyonu", "latitude": 39.1112701, "longitude": 27.1853049, "source": "osm", "_tags": {"amenity": "hospital", "building": "hospital", "healthcare": "hospital", "name": "İzmir Bergama 2 Nolu Acil Yardım İstasyonu", "operator": "Sağlık Bakanlığı", "operator:type": "government", "operator:wikidata": "Q4294365"}}, {"name": "İzmir Bergama 3 Nolu Ömer Perihan Filiz Aile Sağlığı Merkezi", "latitude": 39.1260142, "longitude": 27.1777891, "source": "osm", "_tags": {"addr:city": "İzmir", "addr:district": "Bergama", "addr:housenumber": "No : 46", "addr:neighbourhood": "Selçuk Mahallesi", "addr:postcode": "35700", "addr:street": "Uzunyol Caddesi", "amenity": "hospital", "building": "hospital", "healthcare": "hospital", "name": "İzmir Bergama 3 Nolu Ömer Perihan Filiz Aile Sağlığı Merkezi", "operator": "Sağlık Bakanlığı", "operator:type": "government", "operator:wikidata": "Q4294365", "phone": "+90 (232) 631 33 38"}}, {"name": "Kınık İlçe Devlet Hastanesi", "latitude": 39.0895868, "longitude": 27.3629142, "source": "osm", "_tags": {"amenity": "hospital", "building": "hospital", "healthcare": "hospital", "name": "Kınık İlçe Devlet Hastanesi", "operator": "Sağlık Bakanlığı", "operator:type": "government", "operator:wikidata": "Q4294365"}}, {"name": "seyrek sağlık ocağı", "latitude": 38.5783263, "longitude": 26.9788558, "source": "osm", "_tags": {"addr:neighbourhood": "inönü mahallesi", "addr:street": "Seyrek Maltepe Yolu Sokak", "amenity": "hospital", "healthcare": "hospital", "name": "seyrek sağlık ocağı", "operator": "sağlık ocağı"}}, {"name": "Saruhanlı Devlet Hastanesi", "latitude": 38.7333495, "longitude": 27.5666408, "source": "osm", "_tags": {"addr:city": "Manisa", "addr:district": "Saruhanlı", "amenity": "hospital", "emergency": "yes", "healthcare": "hospital", "name": "Saruhanlı Devlet Hastanesi", "operator": "Sağlık Bakanlığı", "operator:wikidata": "Q4294365"}}, {"name": "Manisa Ruh Ve Sinir Hastalıkları Hastanesi Psikiyatri Polikliniği", "latitude": 38.6178818, "longitude": 27.4444122, "source": "osm", "_tags": {"addr:city": "Manisa", "amenity": "hospital", "healthcare": "hospital", "name": "Manisa Ruh Ve Sinir Hastalıkları Hastanesi Psikiyatri Polikliniği"}}, {"name": "Dokuz Eylül Üniversitesi Mesleki ve Çevresel Hastalıklar Hastahanesi", "latitude": 38.8531645, "longitude": 27.0285363, "source": "osm", "_tags": {"building": "yes", "healthcare": "hospital", "name": "Dokuz Eylül Üniversitesi Mesleki ve Çevresel Hastalıklar Hastahanesi"}}, {"name": "", "latitude": 38.9179958, "longitude": 27.8086075, "source": "osm", "_tags": {"amenity": "hospital", "healthcare": "hospital"}}, {"name": "Kemalpaşa Devlet Hastanesi", "latitude": 38.4363569, "longitude": 27.4098832, "source": "osm", "_tags": {"addr:city": "İzmir", "addr:district": "Kemalpaşa", "amenity": "hospital", "emergency": "yes", "healthcare": "hospital", "name": "Kemalpaşa Devlet Hastanesi", "operator": "Sağlık Bakanlığı", "operator:wikidata": "Q4294365", "website": "https://kemalpasadh.saglik.gov.tr/"}}, {"name": "Gölmarmara Devlet Hastanesi", "latitude": 38.7181776, "longitude": 27.9118685, "source": "osm", "_tags": {"addr:city": "Manisa", "addr:district": "Gölmarmara", "amenity": "hospital", "emergency": "yes", "healthcare": "hospital", "name": "Gölmarmara Devlet Hastanesi", "operator": "Sağlık Bakanlığı", "operator:wikidata": "Q4294365"}}, {"name": "", "latitude": 38.6290595, "longitude": 27.3934004, "source": "osm", "_tags": {"amenity": "hospital", "healthcare": "hospital"}}, {"name": "Kınık İlçe Devlet Hastanesi", "latitude": 39.0894302, "longitude": 27.363044, "source": "osm", "_tags": {"amenity": "hospital", "healthcare": "hospital", "name": "Kınık İlçe Devlet Hastanesi", "operator": "Sağlık Bakanlığı", "operator:type": "government", "operator:wikidata": "Q4294365"}}, {"name": "Bornova Ağız ve Diş Sağlığı Merkezi (Çınarlı)", "latitude": 38.4396445, "longitude": 27.1738117, "source": "osm", "_tags": {"amenity": "hospital", "healthcare": "hospital", "name": "Bornova Ağız ve Diş Sağlığı Merkezi (Çınarlı)"}}, {"name": "İzmir Bergama Necla - Mithat Öztüre Devlet Hastanesi", "latitude": 39.1183514, "longitude": 27.1979398, "source": "osm", "_tags": {"addr:city": "İzmir", "addr:district": "Bergama", "addr:housenumber": "No : 223", "addr:neighbourhood": "İslamsaray Mahallesi", "addr:postcode": "35700", "addr:street": "Adnan Menderes Bulvarı", "amenity": "hospital", "building": "hospital", "email": "bergamadh.bilgi@saglik.gov.tr", "emergency": "yes", "healthcare": "hospital", "name": "İzmir Bergama Necla - Mithat Öztüre Devlet Hastanesi", "operator": "Sağlık Bakanlığı", "operator:type": "government", "operator:wikidata": "Q4294365", "phone": "+90 (232) 631 28 94", "website": "https://bergamadh.saglik.gov.tr/"}}, {"name": "Bergama Ağız ve Diş Sağlığı Merkezi", "latitude": 39.1164263, "longitude": 27.1748325, "source": "osm", "_tags": {"amenity": "hospital", "building": "hospital", "healthcare": "hospital", "name": "Bergama Ağız ve Diş Sağlığı Merkezi", "operator": "Sağlık Bakanlığı", "operator:type": "government", "operator:wikidata": "Q4294365"}}, {"name": "Bergama Ağız ve Diş Sağlığı Merkezi", "latitude": 39.1163552, "longitude": 27.1748847, "source": "osm", "_tags": {"amenity": "hospital", "healthcare": "hospital", "name": "Bergama Ağız ve Diş Sağlığı Merkezi", "operator": "Sağlık Bakanlığı", "operator:type": "government", "operator:wikidata": "Q4294365"}}, {"name": "İzmir Bergama 2 Nolu Merkez Aile Sağlığı Merkezi", "latitude": 39.1114862, "longitude": 27.1850639, "source": "osm", "_tags": {"addr:city": "İzmir", "addr:district": "Bergama", "addr:housenumber": "No : 33", "addr:neighbourhood": "Gaziosmanpaşa Mahallesi", "addr:postcode": "35700", "addr:street": "Hasan Çelebi Caddesi", "amenity": "hospital", "building": "hospital", "healthcare": "hospital", "name": "İzmir Bergama 2 Nolu Merkez Aile Sağlığı Merkezi", "operator": "Sağlık Bakanlığı", "operator:type": "government", "operator:wikidata": "Q4294365", "phone": "+90 (232) 633 62 55"}}, {"name": "İzmir Bergama Necla - Mithat Öztüre Devlet Hastanesi", "latitude": 39.1179666, "longitude": 27.1973912, "source": "osm", "_tags": {"addr:city": "İzmir", "addr:district": "Bergama", "addr:housenumber": "No : 223", "addr:neighbourhood": "İslamsaray Mahallesi", "addr:postcode": "35700", "addr:street": "Adnan Menderes Bulvarı", "amenity": "hospital", "barrier": "wall", "email": "bergamadh.bilgi@saglik.gov.tr", "emergency": "yes", "healthcare": "hospital", "name": "İzmir Bergama Necla - Mithat Öztüre Devlet Hastanesi", "operator": "Sağlık Bakanlığı", "operator:type": "government", "operator:wikidata": "Q4294365", "phone": "+90 (232) 631 28 94", "website": "https://bergamadh.saglik.gov.tr/"}}, {"name": "Bakırçay Üniversitesi Çiğli Bölge Eğitim ve Araştırma Hastanesi", "latitude": 38.5000881, "longitude": 27.0495902, "source": "osm", "_tags": {"addr:city": "İzmir", "addr:district": "Çiğli", "addr:neighbourhood": "Yeni Mahalle", "amenity": "hospital", "healthcare": "hospital", "name": "Bakırçay Üniversitesi Çiğli Bölge Eğitim ve Araştırma Hastanesi", "operator": "Sağlık Bakanlığı", "operator:type": "government", "operator:wikidata": "Q4294365", "type": "multipolygon", "wikidata": "Q135639755"}}, {"name": "Savaştepe Devlet Hastanesi", "latitude": 39.385514, "longitude": 27.6607761, "source": "osm", "_tags": {"amenity": "hospital", "healthcare": "hospital", "name": "Savaştepe Devlet Hastanesi", "type": "multipolygon"}}, {"name": "Merkezefendi Devlet Hastanesi", "latitude": 38.6153341, "longitude": 27.4079806, "source": "osm", "_tags": {"amenity": "hospital", "building": "hospital;yes;roof", "healthcare": "hospital", "layer": "1", "name": "Merkezefendi Devlet Hastanesi", "type": "multipolygon"}}, {"name": "Celal Bayar Üniversitesi Hafsa Sultan Eğitim ve Araştırma Hastanesi", "latitude": 38.610083, "longitude": 27.3775501, "source": "osm", "_tags": {"addr:city": "Manisa", "addr:district": "Yunusemre", "addr:neighbourhood": "Uncubozköy Mahallesi", "addr:street": "Celal Bayar Ünv.", "amenity": "hospital", "building": "hospital", "building:levels": "11", "healthcare": "hospital", "name": "Celal Bayar Üniversitesi Hafsa Sultan Eğitim ve Araştırma Hastanesi", "type": "multipolygon"}}, {"name": "Tepecik Eğitim ve Araştırma Hastanesi", "latitude": 38.4228995, "longitude": 27.1662448, "source": "osm", "_tags": {"addr:street": "Gaziler Caddesi", "amenity": "hospital", "emergency": "yes", "healthcare": "hospital", "name": "Tepecik Eğitim ve Araştırma Hastanesi", "operator": "Sağlık Bakanlığı", "operator:type": "government", "operator:wikidata": "Q4294365", "type": "multipolygon", "wikidata": "Q30280232"}}]