[{"name": "Centro de salud y urgencias", "latitude": 38.4653567, "longitude": -4.0708706, "source": "osm", "_tags": {"amenity": "hospital", "healthcare": "hospital", "name": "Centro de salud y urgencias"}}, {"name": "Centro de salud", "latitude": 38.9893124, "longitude": -4.9458231, "source": "osm", "_tags": {"amenity": "hospital", "building": "yes", "name": "Centro de salud"}}, {"name": "consultorio medico", "latitude": 38.6147832, "longitude": -4.1409023, "source": "osm", "_tags": {"addr:city": "Hinojosas de Calatrava", "addr:postcode": "13590", "addr:street": "Avenida Plaza del Pilar", "amenity": "hospital", "healthcare": "hospital", "name": "consultorio medico"}}, {"name": "Hospital Santa Bárbara", "latitude": 38.7052911, "longitude": -4.1115639, "source": "osm", "_tags": {"addr:city": "Puertollano", "addr:postcode": "13500", "addr:street": "Calle Malagón", "amenity": "hospital", "emergency": "yes", "healthcare": "hospital", "name": "Hospital Santa Bárbara", "operator:type": "public", "wall": "yes", "wikidata": "Q87761707"}}]