[{"name": "Hospital Centro Médico Acuario", "latitude": 38.8230715, "longitude": -0.0015408, "source": "osm", "_tags": {"amenity": "hospital", "name": "Hospital Centro Médico Acuario", "operator": "cemcínicas", "operator:type": "private", "wikidata": "Q87761426"}}, {"name": "Hospital HLA San Carlos", "latitude": 38.8379709, "longitude": 0.0930578, "source": "osm", "_tags": {"amenity": "hospital", "building": "yes", "emergency": "yes", "healthcare": "hospital", "name": "Hospital HLA San Carlos", "opening_hours:visitors": "24/7", "phone": "+34 965 78 15 50", "website": "https://www.grupohla.com/es/hospitales-clinicas/hospital-san-carlos/", "wheelchair": "yes"}}, {"name": "Hospital de Dénia", "latitude": 38.8338329, "longitude": 0.0603315, "source": "osm", "_tags": {"addr:city": "Dénia", "addr:postcode": "03700", "addr:street": "Partida Beniatlà", "amenity": "hospital", "emergency": "yes", "healthcare": "hospital", "name": "Hospital de Dénia", "name:ca": "Hospital de Dénia", "opening_hours:visitors": "24/7", "operator": "Generalitat Valenciana", "operator:2009--2024-02-01": "Marina Salud", "operator:type": "public", "operator:type:2009--2024-02-01": "private", "operator:wikidata": "Q2477285", "owner": "Generalitat Valenciana", "ownership": "county", "phone": "+34 966 42 90 00", "website": "https://denia.san.gva.es/ca", "wheelchair": "yes", "wikidata": "Q87761429"}}, {"name": "Hospital la Pedrera", "latitude": 38.8281212, "longitude": 0.0962473, "source": "osm", "_tags": {"addr:city": "Dénia", "addr:city:es": "Denia", "addr:country": "ES", "addr:housenumber": "4", "addr:place": "Partida Plana Est", "addr:postcode": "03700", "amenity": "hospital", "email": "direccion_hlapedrera@gva.es", "healthcare": "hospital", "healthcare:speciality": "pall", "name": "Hospital la Pedrera", "name:ca": "Hospital la Pedrera", "official_name": "Hospital d'Atenció a pacients Crònics i de Llarga Estada la Pedrera", "official_name:short": "HACLE la Pedrera", "operator": "Generalitat Valenciana", "operator:type": "public", "operator:wikidata": "Q2477285", "phone": "+34 966 46 71 70", "website": "https://denia.san.gva.es/es/csi-denia-1", "wheelchair": "yes"}}, {"name": "HCB Dénia", "latitude": 38.8427676, "longitude": 0.0925162, "source": "osm", "_tags": {"amenity": "hospital", "emergency": "yes", "healthcare": "hospital", "name": "HCB Dénia", "opening_hours:visitors": "24/7", "operator": "Grupo HCB", "operator:type": "private", "website": "https://hcbhospitales.com/denia/", "wheelchair": "yes"}}]