[{"name": "ASP", "latitude": 39.0842738, "longitude": 17.1134307, "source": "osm", "_tags": {"amenity": "hospital", "emergency": "no", "healthcare": "hospital", "name": "ASP"}}, {"name": "ASL", "latitude": 39.0641104, "longitude": 17.1172608, "source": "osm", "_tags": {"amenity": "hospital", "emergency": "no", "healthcare": "hospital", "name": "ASL"}}, {"name": "Ospedale Civile San Giovanni di Dio", "latitude": 39.0786368, "longitude": 17.1175719, "source": "osm", "_tags": {"amenity": "hospital", "check_date": "2025-09-07", "emergency": "yes", "healthcare": "hospital", "name": "Ospedale Civile San Giovanni di Dio"}}, {"name": "Casa di Cura Sant'Anna", "latitude": 39.0615554, "longitude": 17.1306702, "source": "osm", "_tags": {"amenity": "hospital", "emergency": "yes", "healthcare": "hospital", "name": "Casa di Cura Sant'Anna"}}, {"name": "Casa di Cura Sant'Anna", "latitude": 39.0565258, "longitude": 17.0899904, "source": "osm", "_tags": {"amenity": "hospital", "emergency": "no", "name": "Casa di Cura Sant'Anna"}}, {"name": "ASP", "latitude": 39.0580321, "longitude": 17.1145649, "source": "osm", "_tags": {"amenity": "hospital", "emergency": "no", "healthcare": "hospital", "name": "ASP"}}, {"name": "ASL Cirò Marina", "latitude": 39.3652297, "longitude": 17.1251385, "source": "osm", "_tags": {"addr:city": "Cirò Marina", "addr:postcode": "88811", "addr:street": "Via Palmiro Togliatti", "alt_name": "Azienda Sanitaria Locale", "amenity": "hospital", "healthcare": "hospital", "name": "ASL Cirò Marina", "operator": "ASP Crotone"}}, {"name": "Marrelli Hospital", "latitude": 39.0770797, "longitude": 17.1099648, "source": "osm", "_tags": {"amenity": "hospital", "emergency": "no", "healthcare": "hospital", "name": "Marrelli Hospital"}}, {"name": "San Dionigi Hospital", "latitude": 39.0531941, "longitude": 17.0859169, "source": "osm", "_tags": {"amenity": "hospital", "emergency": "no", "healthcare": "hospital", "name": "San Dionigi Hospital"}}, {"name": "Romolo Hospital", "latitude": 39.1810859, "longitude": 16.9871215, "source": "osm", "_tags": {"amenity": "hospital", "emergency": "no", "name": "Romolo Hospital"}}, {"name": "Madonna dello Scoglio", "latitude": 39.050825, "longitude": 17.1373606, "source": "osm", "_tags": {"amenity": "hospital", "healthcare": "hospital", "name": "Madonna dello Scoglio"}}]