[{"name": "Κέντρο Υγείας Άνω Καλεντίνης", "latitude": 39.2446588, "longitude": 21.1598526, "source": "osm", "_tags": {"addr:city": "Άνω Καλεντίνη", "addr:postcode": "47044", "amenity": "hospital", "healthcare": "hospital", "name": "Κέντρο Υγείας Άνω Καλεντίνης", "phone": "+30 2681360600"}}, {"name": "Κέντρο Υγείας Γρανίτσας", "latitude": 39.1008691, "longitude": 21.5112214, "source": "osm", "_tags": {"amenity": "hospital", "name": "Κέντρο Υγείας Γρανίτσας"}}, {"name": "ΚΕΝΤΡΟ ΥΓΕΙΑΣ ΑΡΤΑΣ", "latitude": 39.1569074, "longitude": 20.9805519, "source": "osm", "_tags": {"amenity": "hospital", "healthcare": "hospital", "name": "ΚΕΝΤΡΟ ΥΓΕΙΑΣ ΑΡΤΑΣ", "operator": "6η ΥΠΕ", "operator:type": "government"}}, {"name": "Κέντρο Υγείας Αμφιλοχίας", "latitude": 38.8611682, "longitude": 21.1653776, "source": "osm", "_tags": {"addr:city": "Αμφιλοχία", "addr:housenumber": "34", "addr:postcode": "30500", "addr:street": "Νικολάου Στράτου", "amenity": "hospital", "emergency": "yes", "healthcare": "hospital", "int_name": "Amfilochia Health Center", "name": "Κέντρο Υγείας Αμφιλοχίας", "name:el": "Κέντρο Υγείας Αμφιλοχίας", "name:en": "Amfilochia Health Center", "phone": "+30 2642360000", "source": "wikimapia"}}, {"name": "Κέντρο Αποθεραπείας - Αποκατάστασης και Κοινωνικής Υποστήριξης Ατόμων με Αναπηρίες", "latitude": 39.1569675, "longitude": 20.9809615, "source": "osm", "_tags": {"amenity": "hospital", "barrier": "fence", "healthcare": "hospital", "name": "Κέντρο Αποθεραπείας - Αποκατάστασης και Κοινωνικής Υποστήριξης Ατόμων με Αναπηρίες", "short_name": "Κ.Α.Α.Κ.Υ.Α.ΜΕ.Α."}}, {"name": "Ιδιωτικό Μαιευτήριο \"Μητέρα\"", "latitude": 39.1572344, "longitude": 20.9818478, "source": "osm", "_tags": {"amenity": "hospital", "healthcare": "hospital", "name": "Ιδιωτικό Μαιευτήριο \"Μητέρα\"", "name:el": "Ιδιωτικό Μαιευτήριο \"Μητέρα\""}}, {"name": "Γενικό Νοσοκομείο Άρτας", "latitude": 39.1477385, "longitude": 20.9946301, "source": "osm", "_tags": {"amenity": "hospital", "emergency": "yes", "healthcare": "hospital", "name": "Γενικό Νοσοκομείο Άρτας", "name:el": "Γενικό Νοσοκομείο Άρτας", "name:en": "General Hospital of Arta", "website": "https://www.gnartas.gr/", "wheelchair": "yes", "wikidata": "Q12874940", "wikipedia": "el:Γενικό Νοσοκομείο Άρτας"}}, {"name": "Γενικό Νοσοκομείο Καρπενησίου", "latitude": 38.9140264, "longitude": 21.7897148, "source": "osm", "_tags": {"amenity": "hospital", "healthcare": "hospital", "name": "Γενικό Νοσοκομείο Καρπενησίου", "wikidata": "Q112290040"}}, {"name": "Κέντρο Υγείας Άνω χώρας", "latitude": 38.5947762, "longitude": 21.9248323, "source": "osm", "_tags": {"amenity": "hospital", "healthcare": "hospital", "name": "Κέντρο Υγείας Άνω χώρας", "wikidata": "Q112269557"}}, {"name": "Γενικό Νομαρχειακό Νοσοκομείο Καρδίτσας", "latitude": 39.3516964, "longitude": 21.9052935, "source": "osm", "_tags": {"addr:city": "Καρδίτσα", "addr:country": "GR", "addr:postcode": "43100", "addr:street": "Καρδίτσα - Μητρόπολη", "amenity": "hospital", "emergency": "yes", "healthcare": "hospital", "name": "Γενικό Νομαρχειακό Νοσοκομείο Καρδίτσας", "name:el": "Γενικό Νομαρχειακό Νοσοκομείο Καρδίτσας", "name:en": "General Hospital of Karditsa", "phone": "+30 2441 351555", "website": "https://www.noskard.gr/", "wikidata": "Q21626605"}}, {"name": "", "latitude": 38.6015033, "longitude": 21.7916212, "source": "osm", "_tags": {"amenity": "hospital", "building": "yes", "healthcare": "hospital"}}, {"name": "Νοσοκομείο Αγρινίου", "latitude": 38.5900364, "longitude": 21.4173312, "source": "osm", "_tags": {"addr:housenumber": "3ο χλμ", "addr:postcode": "30133", "addr:street": "Αντίρριο - Ιωάννινα", "amenity": "hospital", "emergency": "yes", "healthcare": "hospital", "name": "Νοσοκομείο Αγρινίου", "name:el": "Νοσοκομείο Αγρινίου", "name:en": "Agrinio Hospital", "phone": "+302641361570", "website": "https://hospital-agrinio.gr/", "wikidata": "Q21626718"}}, {"name": "ΤΟ.Μ.Υ. ΑΡΤΑΣ", "latitude": 39.1569475, "longitude": 20.9803522, "source": "osm", "_tags": {"amenity": "hospital", "healthcare": "hospital", "name": "ΤΟ.Μ.Υ. ΑΡΤΑΣ", "operator": "6η ΥΠΕ", "operator:type": "government"}}, {"name": "Κέντρο Υγείας Αιτωλικού", "latitude": 38.4324873, "longitude": 21.3373075, "source": "osm", "_tags": {"addr:city": "Αιτωλικό", "addr:postcode": "30400", "addr:street": "Κωνσταντίνου Λάσκαρη", "amenity": "hospital", "emergency": "no", "healthcare": "hospital", "healthcare:speciality": "general", "name": "Κέντρο Υγείας Αιτωλικού"}}, {"name": "Κέντρο Υγείας Κατούνας", "latitude": 38.782185, "longitude": 21.1180743, "source": "osm", "_tags": {"amenity": "hospital", "healthcare": "hospital", "name": "Κέντρο Υγείας Κατούνας"}}, {"name": "Κέντρο Υγείας Χαλκιόπουλου", "latitude": 38.9751768, "longitude": 21.3239299, "source": "osm", "_tags": {"amenity": "hospital", "healthcare": "hospital", "name": "Κέντρο Υγείας Χαλκιόπουλου"}}, {"name": "Κέντρο Υγείας Θέρμου", "latitude": 38.5705639, "longitude": 21.6639003, "source": "osm", "_tags": {"amenity": "hospital", "healthcare": "hospital", "name": "Κέντρο Υγείας Θέρμου"}}, {"name": "", "latitude": 38.6698104, "longitude": 20.9478561, "source": "osm", "_tags": {"amenity": "hospital", "healthcare": "hospital"}}]