[{"name": "First Aid", "latitude": 39.3686384, "longitude": 26.1747433, "source": "osm", "_tags": {"amenity": "hospital", "emergency": "yes", "healthcare": "hospital", "name": "First Aid"}}, {"name": "ΕΠΕΙΓΟΝΤΑ", "latitude": 39.0919135, "longitude": 26.5493107, "source": "osm", "_tags": {"amenity": "hospital", "emergency": "yes", "healthcare": "hospital", "name": "ΕΠΕΙΓΟΝΤΑ"}}, {"name": "Covid Vaccination center", "latitude": 38.9774569, "longitude": 26.3759717, "source": "osm", "_tags": {"addr:city": "Πλωμάρι", "addr:postcode": "81200", "amenity": "hospital", "healthcare": "hospital", "healthcare:speciality": "general;dentist;pediatrics", "name": "Covid Vaccination center", "phone": "+302252031111"}}, {"name": "Ίδρυμα Θεομήτωρ", "latitude": 39.0870446, "longitude": 26.3697076, "source": "osm", "_tags": {"addr:city": "Αγιάσος", "addr:postcode": "81101", "amenity": "hospital", "description": "Κέντρο Κοινωνικής Πρόνοιας Περιφέρειας Βορείου Αιγαίου. Το Κέντρο Κοινωνικής Προνοίας Περιφέρειας Βορείου Αιγαίου στην Αγιάσο της Λέσβου είναι ο μεγαλύτερος δημόσιος φορέας κοινωνικής φροντίδας για άτομα με αναπηρίες στην Περιφέρεια του Βορείου Αιγαίου.", "healthcare": "hospital", "name": "Ίδρυμα Θεομήτωρ", "name:el": "Ίδρυμα Θεομήτωρ", "name:en": "Theomitor Foundation", "phone": "+3022520 22234", "website": "http://www.kkppva.gr/"}}, {"name": "Unisef", "latitude": 39.1217962, "longitude": 26.4656682, "source": "osm", "_tags": {"amenity": "hospital", "healthcare": "hospital", "name": "Unisef"}}, {"name": "", "latitude": 39.0919678, "longitude": 26.5489342, "source": "osm", "_tags": {"amenity": "hospital", "healthcare": "hospital", "note": "COVID Vaccination center (closed)"}}, {"name": "COVID Vaccination center", "latitude": 39.2338496, "longitude": 26.2101636, "source": "osm", "_tags": {"amenity": "hospital", "healthcare": "hospital", "name": "COVID Vaccination center"}}, {"name": "COVID Vaccination center", "latitude": 39.1118624, "longitude": 26.5565155, "source": "osm", "_tags": {"amenity": "hospital", "healthcare": "hospital", "name": "COVID Vaccination center"}}, {"name": "Covid Vaccination center", "latitude": 39.0775073, "longitude": 26.1877711, "source": "osm", "_tags": {"amenity": "hospital", "healthcare": "hospital", "name": "Covid Vaccination center"}}, {"name": "Αγροτικό Ιατρείο Στύψης", "latitude": 39.3108537, "longitude": 26.220184, "source": "osm", "_tags": {"amenity": "hospital", "healthcare": "hospital", "name": "Αγροτικό Ιατρείο Στύψης"}}, {"name": "ΕΚΑΒ", "latitude": 39.0981526, "longitude": 26.5483317, "source": "osm", "_tags": {"amenity": "hospital", "healthcare": "hospital", "name": "ΕΚΑΒ"}}, {"name": "", "latitude": 39.0905937, "longitude": 26.5470901, "source": "osm", "_tags": {"amenity": "hospital", "healthcare": "hospital"}}, {"name": "Dikili Devlet Hastanesi", "latitude": 39.064934, "longitude": 26.8924426, "source": "osm", "_tags": {"amenity": "hospital", "healthcare": "hospital", "name": "Dikili Devlet Hastanesi"}}, {"name": "", "latitude": 39.2338148, "longitude": 26.210236, "source": "osm", "_tags": {"amenity": "hospital", "healthcare": "hospital"}}, {"name": "Foça Devlet Hastanesi", "latitude": 38.6574689, "longitude": 26.7635712, "source": "osm", "_tags": {"amenity": "hospital", "healthcare": "hospital", "name": "Foça Devlet Hastanesi"}}, {"name": "Foça Devlet Hastanesi Yenifoça Semt Polikliniği", "latitude": 38.7418135, "longitude": 26.8370153, "source": "osm", "_tags": {"amenity": "hospital", "healthcare": "hospital", "name": "Foça Devlet Hastanesi Yenifoça Semt Polikliniği"}}, {"name": "Gömeç İlçe Devlet Hastanesi", "latitude": 39.3939395, "longitude": 26.8436948, "source": "osm", "_tags": {"amenity": "hospital", "healthcare": "hospital", "name": "Gömeç İlçe Devlet Hastanesi", "operator": "Sağlık Bakanlığı", "operator:type": "government", "operator:wikidata": "Q4294365"}}, {"name": "Gömeç İlçe Devlet Hastanesi", "latitude": 39.393992, "longitude": 26.8437246, "source": "osm", "_tags": {"addr:city": "Balıkesir", "addr:district": "Gömeç", "addr:housenumber": "No : 14", "addr:neighbourhood": "Kemalpaşa Mahallesi", "addr:postcode": "10715", "addr:street": "Ayanoğlu Sokak", "amenity": "hospital", "building": "hospital", "emergency": "yes", "healthcare": "hospital", "name": "Gömeç İlçe Devlet Hastanesi", "operator": "Sağlık Bakanlığı", "operator:type": "government", "operator:wikidata": "Q4294365", "phone": "+90 (266) 357 10 27", "website": "https://gomecdh.saglik.gov.tr/"}}, {"name": "İzmir Dikili 1 Nolu Aile Sağlığı Merkezi", "latitude": 39.0713035, "longitude": 26.8880465, "source": "osm", "_tags": {"amenity": "hospital", "building": "hospital", "healthcare": "hospital", "name": "İzmir Dikili 1 Nolu Aile Sağlığı Merkezi", "operator": "Sağlık Bakanlığı", "operator:type": "government", "operator:wikidata": "Q4294365"}}, {"name": "Ayvalık İlçe Devlet Hastanesi", "latitude": 39.3209842, "longitude": 26.7083261, "source": "osm", "_tags": {"addr:district": "Ayvalık", "amenity": "hospital", "emergency": "yes", "healthcare": "hospital", "name": "Ayvalık İlçe Devlet Hastanesi", "operator": "Sağlık Bakanlığı", "operator:type": "government", "operator:wikidata": "Q4294365"}}, {"name": "Βοστάνειο Νοσοκομείο", "latitude": 39.0912374, "longitude": 26.5488415, "source": "osm", "_tags": {"addr:city": "Μυτιλήνη", "addr:housenumber": "48", "addr:postcode": "81132", "addr:street": "Ευστρατίου Βοστάνη", "amenity": "hospital", "healthcare": "hospital", "name": "Βοστάνειο Νοσοκομείο", "phone": "+3022510 57700", "type": "multipolygon", "website": "https://www.vostanio.gr/", "wikidata": "Q21626668"}}]