[{"name": "Hospital \"Siberia-Serena\"", "latitude": 39.0309922, "longitude": -5.2236959, "source": "osm", "_tags": {"amenity": "hospital", "emergency": "yes", "healthcare": "hospital", "name": "Hospital \"Siberia-Serena\"", "network": "Servicio Extreme침o de Salud", "network:short": "SES", "operator:type": "public", "wikidata": "Q87761454"}}, {"name": "", "latitude": 38.6524709, "longitude": -5.6553164, "source": "osm", "_tags": {"amenity": "hospital", "healthcare": "hospital"}}, {"name": "Centro de Salud", "latitude": 38.4946725, "longitude": -5.1415453, "source": "osm", "_tags": {"amenity": "hospital", "building": "hospital", "building:levels": "2", "healthcare": "hospital", "healthcare:speciality": "emergency;general", "name": "Centro de Salud"}}, {"name": "Centro de Salud de Zorita", "latitude": 39.279117, "longitude": -5.7034988, "source": "osm", "_tags": {"addr:city": "Zorita", "addr:housenumber": "106", "addr:postcode": "10130", "addr:street": "Avenida de la Constituci칩n", "amenity": "hospital", "emergency": "yes", "fax": "+34 927 340 009", "healthcare": "hospital", "healthcare:speciality": "general", "name": "Centro de Salud de Zorita", "phone": "+34 927 340 801", "source": "https://www.areasaludcaceres.es/organigrama/centros/81-centros-de-salud/43-centro-de-salud-de-zorita.html"}}, {"name": "Hospital Don Benito-Villanueva", "latitude": 38.9626997, "longitude": -5.8274938, "source": "osm", "_tags": {"addr:city": "Don Benito", "addr:postcode": "06400", "addr:street": "Avenida de las Vegas Altas", "amenity": "hospital", "email": "gerent.hdbv@ses.juntaex.es", "emergency": "yes", "fax": "+34 924 38 68 01", "healthcare": "hospital", "name": "Hospital Don Benito-Villanueva", "network": "Servicio Extreme침o de Salud", "network:short": "SES", "operator": "Servicio Extreme침o de Salud-SES", "operator:type": "public", "phone": "+34 924 38 68 00", "wikidata": "Q87761445"}}, {"name": "Hospital Parque Vegas Altas", "latitude": 38.9626717, "longitude": -5.8562838, "source": "osm", "_tags": {"addr:city": "Don Benito", "addr:housenumber": "12", "addr:postcode": "06400", "addr:street": "Avenida de Madrid", "amenity": "hospital", "building": "hospital", "emergency": "yes", "healthcare": "hospital", "name": "Hospital Parque Vegas Altas", "operator:type": "private", "phone": "+34924805050", "website": "https://www.hospitalesparque.es/don-benito", "wikidata": "Q87761460"}}, {"name": "Hospita Comarcall Don Benito-Villanueva de la Serena", "latitude": 38.9691567, "longitude": -5.8205545, "source": "osm", "_tags": {"addr:city": "Don Benito", "addr:postcode": "06400", "addr:street": "Carretera de Don Benito-Villanueva de la Serena", "amenity": "hospital", "beds": "277", "emergency": "yes", "name": "Hospita Comarcall Don Benito-Villanueva de la Serena", "phone": "+34 924 38 68 00", "short_name": "HDBV"}}]