[{"name": "Κέντρο Υγείας Αμφίκλειας", "latitude": 38.6377723, "longitude": 22.5923159, "source": "osm", "_tags": {"addr:city": "Αμφίκλεια", "addr:postcode": "35002", "amenity": "hospital", "healthcare": "hospital", "name": "Κέντρο Υγείας Αμφίκλειας", "name:el": "Κέντρο Υγείας Αμφίκλειας", "name:en": "Amfikleia health center", "phone": "+302234350000"}}, {"name": "Κέντρο Υγείας Σοφάδων", "latitude": 39.3325618, "longitude": 22.1003619, "source": "osm", "_tags": {"amenity": "hospital", "emergency": "yes", "healthcare": "hospital", "name": "Κέντρο Υγείας Σοφάδων", "operator": "Ε.Σ.Υ."}}, {"name": "Αγροτικό ιατρείο", "latitude": 38.6917199, "longitude": 22.41795, "source": "osm", "_tags": {"amenity": "hospital", "healthcare": "hospital", "healthcare:speciality": "general", "name": "Αγροτικό ιατρείο", "operator": "Γεν. Νοσ. Άμφισσας", "operator:type": "government"}}, {"name": "Γενικό Νοσοκομέιο Άμφισσας", "latitude": 38.5209818, "longitude": 22.3758945, "source": "osm", "_tags": {"addr:postcode": "33100", "amenity": "hospital", "contact:email": "gnnamfis@otenet.gr", "contact:fax": "+30 2265022086", "contact:phone": "+30 2265022222", "contact:website": "www.gnamfissas.gr", "emergency": "yes", "healthcare": "hospital", "int_name": "General Hospital of Amfissa", "name": "Γενικό Νοσοκομέιο Άμφισσας", "wikidata": "Q30265267"}}, {"name": "Γενικό Νοσοκομείο Λαμίας", "latitude": 38.9286331, "longitude": 22.4234608, "source": "osm", "_tags": {"amenity": "hospital", "email": "grammateia@hosplam.gr", "emergency": "yes", "healthcare": "hospital", "image": "https://www.ilamia.gr/wp-content/uploads/2020/04/nosokomeio-1.jpg", "name": "Γενικό Νοσοκομείο Λαμίας", "name:el": "Γενικό Νοσοκομείο Λαμίας", "name:en": "Lamia General Hospital", "operator": "ΕΣΥ", "operator:type": "government", "phone": "+302231356000", "website": "https://www.hosplam.gr/", "wikidata": "Q112290307"}}, {"name": "ΚΕΝΤΡΟ ΥΓΕΙΑΣ ΜΑΚΡΑΚΩΜΗΣ", "latitude": 38.9458982, "longitude": 22.1212509, "source": "osm", "_tags": {"amenity": "hospital", "healthcare": "hospital", "name": "ΚΕΝΤΡΟ ΥΓΕΙΑΣ ΜΑΚΡΑΚΩΜΗΣ"}}, {"name": "ΕΡΥΘΡΟΣ ΣΤΑΥΡΟΣ", "latitude": 38.8909106, "longitude": 22.4348046, "source": "osm", "_tags": {"amenity": "hospital", "healthcare": "hospital", "name": "ΕΡΥΘΡΟΣ ΣΤΑΥΡΟΣ"}}, {"name": "ΚΛΙΝΙΚΗ ΛΑΜΙΑΣ", "latitude": 38.9251736, "longitude": 22.4013553, "source": "osm", "_tags": {"amenity": "hospital", "healthcare": "hospital", "name": "ΚΛΙΝΙΚΗ ΛΑΜΙΑΣ"}}, {"name": "ΙΑΣΗ", "latitude": 38.8931647, "longitude": 22.4141353, "source": "osm", "_tags": {"amenity": "hospital", "healthcare": "hospital", "name": "ΙΑΣΗ"}}, {"name": "ΠΕΡΙΦΕΡΕΙΑΚΟ ΙΑΤΡΕΙΟ ΑΡΧΑΝΙΟΥ", "latitude": 38.971957, "longitude": 22.1658551, "source": "osm", "_tags": {"amenity": "hospital", "name": "ΠΕΡΙΦΕΡΕΙΑΚΟ ΙΑΤΡΕΙΟ ΑΡΧΑΝΙΟΥ"}}, {"name": "Κέντρο Υγείας Καινούργιου", "latitude": 38.78288, "longitude": 22.7102925, "source": "osm", "_tags": {"amenity": "hospital", "healthcare": "hospital", "name": "Κέντρο Υγείας Καινούργιου"}}, {"name": "ΚΕΝΤΡΟ ΥΓΕΙΑΣ ΔΟΜΟΚΟΥ", "latitude": 39.1180533, "longitude": 22.3097604, "source": "osm", "_tags": {"amenity": "hospital", "healthcare": "hospital", "name": "ΚΕΝΤΡΟ ΥΓΕΙΑΣ ΔΟΜΟΚΟΥ"}}, {"name": "Κέντρο Υγείας Σοφάδων", "latitude": 39.3325976, "longitude": 22.1002281, "source": "osm", "_tags": {"addr:city": "Σοφάδες", "addr:country": "GR", "addr:postcode": "43300", "amenity": "hospital", "healthcare": "hospital", "name": "Κέντρο Υγείας Σοφάδων"}}, {"name": "Κέντρο Υγείας Λιδορικίου", "latitude": 38.5278689, "longitude": 22.1988706, "source": "osm", "_tags": {"amenity": "hospital", "healthcare": "hospital", "name": "Κέντρο Υγείας Λιδορικίου"}}, {"name": "Κέντρο Υγείας Στυλίδας", "latitude": 38.9167435, "longitude": 22.6054492, "source": "osm", "_tags": {"addr:city": "Στυλίδα", "addr:housenumber": "τέρμα", "addr:postcode": "35300", "addr:street": "25ης Μαρτίου", "amenity": "hospital", "healthcare": "hospital", "name": "Κέντρο Υγείας Στυλίδας", "phone": "+30 2238350000"}}, {"name": "Κέντρο Υγείας Φαρσάλων", "latitude": 39.293515, "longitude": 22.3888406, "source": "osm", "_tags": {"addr:city": "Φάρσαλα", "addr:postcode": "40300", "addr:street": "Στρατηγού Νικολάου Πλαστήρα", "amenity": "hospital", "emergency": "yes", "healthcare": "hospital", "name": "Κέντρο Υγείας Φαρσάλων", "name:el": "Κέντρο Υγείας Φαρσάλων", "name:en": "Farsala Health Center", "phone": "+30 2491350000"}}, {"name": "", "latitude": 38.6916853, "longitude": 22.4180092, "source": "osm", "_tags": {"amenity": "hospital", "healthcare": "hospital"}}, {"name": "Γενικό Νοσοκομείο Λιβαδειάς", "latitude": 38.4462567, "longitude": 22.8829245, "source": "osm", "_tags": {"addr:city": "Λιβαδειά", "addr:postcode": "32131", "addr:street": "Αγίου Βλάσιου", "amenity": "hospital", "healthcare": "hospital", "name": "Γενικό Νοσοκομείο Λιβαδειάς", "name:el": "Γενικό Νοσοκομείο Λιβαδειάς", "name:en": "Livadia Hospital", "phone": "+30 2261 084100", "wikidata": "Q112290646"}}]