[{"name": "Hospital de Mérida", "latitude": 38.9122351, "longitude": -6.3635321, "source": "osm", "_tags": {"addr:city": "Mérida", "addr:postcode": "06800", "addr:street": "Polígono Nueva Ciudad", "amenity": "hospital", "email": "antonio.sanz@ses.juntadeextremadura.net", "emergency": "yes", "fax": "+34 924 38 10 12", "healthcare": "hospital", "healthcare:speciality": "gynaecology;dermatology;cardiology;surgery;digestive;endocrinology;anesthesia;nursing;pharmacy;management;hematology;homotherapy;neurology;otolaryngology;paediatrics;psychiatry;radiology;ophthalmology;urology;trauma;rheumatology;emergency", "internet_access": "wlan", "name": "Hospital de Mérida", "operator": "Servicio Extremeño de Salud", "operator:type": "public", "phone": "+924 38 10 00", "website": "https://clinicahospital.com/badajoz/hospital-de-merida", "wheelchair": "yes", "wikidata": "Q21901245"}}, {"name": "Cruz Roja Española", "latitude": 38.4266504, "longitude": -6.4086512, "source": "osm", "_tags": {"amenity": "hospital", "healthcare": "hospital", "name": "Cruz Roja Española", "operator": "Cruz Roja", "operator:type": "ngo", "operator:wikidata": "Q7178"}}, {"name": "área de ambulacias", "latitude": 38.6112071, "longitude": -6.625321, "source": "osm", "_tags": {"amenity": "hospital", "healthcare": "hospital", "healthcare:speciality": "emergency", "name": "área de ambulacias"}}, {"name": "área de emergencias", "latitude": 38.6111547, "longitude": -6.6253156, "source": "osm", "_tags": {"amenity": "hospital", "healthcare": "hospital", "healthcare:speciality": "emergency", "name": "área de emergencias"}}, {"name": "información", "latitude": 38.6110079, "longitude": -6.6254792, "source": "osm", "_tags": {"amenity": "hospital", "healthcare": "hospital", "name": "información"}}, {"name": "Centro de salud de Alcazaba", "latitude": 38.952974, "longitude": -6.7404889, "source": "osm", "_tags": {"addr:city": "Alcazaba", "addr:postcode": "06182", "addr:street": "Calle Plaza Mayor", "amenity": "hospital", "fax": "+34 924474852", "healthcare": "hospital", "healthcare:speciality": "general", "name": "Centro de salud de Alcazaba", "nohousenumber": "yes", "operator": "SES", "operator:type": "public", "phone": "+34 924474100"}}, {"name": "Tanatorio", "latitude": 38.5089726, "longitude": -6.8531587, "source": "osm", "_tags": {"amenity": "hospital", "healthcare": "hospital", "name": "Tanatorio"}}, {"name": "Hospital de Zafra", "latitude": 38.430436, "longitude": -6.4219783, "source": "osm", "_tags": {"addr:city": "Zafra", "addr:postcode": "06300", "addr:street": "N-432", "amenity": "hospital", "building": "yes", "emergency": "yes", "healthcare": "hospital", "name": "Hospital de Zafra", "operator": "Servicio Extremeño de Salud", "operator:type": "public", "wheelchair": "yes", "wikidata": "Q87761452"}}, {"name": "Hospital Parque Vía de la Plata", "latitude": 38.4268284, "longitude": -6.4082371, "source": "osm", "_tags": {"amenity": "hospital", "building": "hospital", "healthcare": "hospital", "name": "Hospital Parque Vía de la Plata", "phone": "+34 924552755", "website": "https://www.hospitalesparque.es/zafra"}}, {"name": "Hospital Perpetuo Socorro", "latitude": 38.866501, "longitude": -6.9715031, "source": "osm", "_tags": {"addr:city": "Badajoz", "addr:postcode": "06010", "addr:street": "Avenida Damián Téllez Lafuente", "amenity": "hospital", "building": "yes", "emergency": "yes", "healthcare": "hospital", "name": "Hospital Perpetuo Socorro", "operator:type": "public", "wikidata": "Q87828923"}}, {"name": "Hospital Tierra de Barros", "latitude": 38.6557858, "longitude": -6.3770168, "source": "osm", "_tags": {"amenity": "hospital", "emergency": "yes", "healthcare": "hospital", "lit": "yes", "name": "Hospital Tierra de Barros", "operator:type": "public", "phone": "+34 924 699 200", "website": "https://www.areadesaludmerida.es/hospital-tierra-de-barros/", "wheelchair": "yes", "wikidata": "Q87761455"}}, {"name": "Hospital Materno Infantil", "latitude": 38.865979, "longitude": -6.9714332, "source": "osm", "_tags": {"addr:city": "Badajoz", "addr:housenumber": "1", "addr:postcode": "06010", "addr:street": "Calle La Violeta", "amenity": "hospital", "building": "yes", "emergency": "yes", "healthcare": "hospital", "name": "Hospital Materno Infantil", "operator:type": "public", "wikidata": "Q87828810"}}, {"name": "Centro de Salud \"Víctor Caballero Núñez\"", "latitude": 38.6110012, "longitude": -6.6254773, "source": "osm", "_tags": {"amenity": "hospital", "emergency": "yes", "healthcare": "hospital", "healthcare:speciality": "paediatrics;emergency;radiology;maternity;physiatry;consultas_externas;aparcamiento", "name": "Centro de Salud \"Víctor Caballero Núñez\"", "wheelchair": "yes"}}, {"name": "Centro de día", "latitude": 38.5576306, "longitude": -6.3394442, "source": "osm", "_tags": {"amenity": "social_facility", "description": "Dedicado al cuidado de mayores dependientes", "healthcare": "hospital", "name": "Centro de día", "social_facility": "nursing_home"}}, {"name": "Complejo Hospitalario Perpetuo Socorro - Materno Infantil", "latitude": 38.8665824, "longitude": -6.9706687, "source": "osm", "_tags": {"amenity": "hospital", "healthcare": "hospital", "name": "Complejo Hospitalario Perpetuo Socorro - Materno Infantil"}}, {"name": "Centro de Salud", "latitude": 38.8189024, "longitude": -6.2162348, "source": "osm", "_tags": {"addr:city": "La Zarza", "addr:housenumber": "26", "addr:postcode": "06830", "addr:street": "Calle Cerratos", "addr:unit": "1", "amenity": "hospital", "building": "yes", "emergency": "yes", "fax": "+34 924 36 72 19", "healthcare": "hospital", "healthcare:speciality": "general;paediatrics;emergency", "internet_access": "yes", "name": "Centro de Salud", "operator": "Teléfono de Consulta y citas: 924 36 72 62", "operator:type": "public", "phone": "+34 924 36 72 62", "website": "https://lazarza.net/categoria/la-zarza/instalaciones-municipales-1/centro-de-salud/", "wheelchair": "yes"}}, {"name": "Quironsalud Clideba", "latitude": 38.8712013, "longitude": -6.9903053, "source": "osm", "_tags": {"addr:city": "Badajoz", "addr:housenumber": "6", "addr:postcode": "06011", "addr:street": "Calle Eladio Salinero Santos", "amenity": "hospital", "healthcare": "hospital", "name": "Quironsalud Clideba", "operator": "Quironsalud", "phone": "+34 924 22 90 50", "website": "https://www.quironsalud.com/clideba", "wikidata": "Q87761449"}}, {"name": "Hospital Casa Verde", "latitude": 38.9072746, "longitude": -6.3688809, "source": "osm", "_tags": {"amenity": "hospital", "building": "hospital", "name": "Hospital Casa Verde", "phone": "+34 924380330", "website": "https://casaverdeneuro.com/"}}, {"name": "casa chalet", "latitude": 38.8113613, "longitude": -7.031833, "source": "osm", "_tags": {"amenity": "hospital", "healthcare": "hospital", "name": "casa chalet"}}, {"name": "Hospital Universitario de Badajoz", "latitude": 38.8844678, "longitude": -7.0010389, "source": "osm", "_tags": {"addr:city": "Badajoz", "addr:postcode": "06080", "addr:street": "Avenida de Elvas", "amenity": "hospital", "building": "yes", "building:levels": "7", "description": "Anteriormente conocido como Hospital Infanta Cristina", "emergency": "yes", "healthcare": "hospital", "name": "Hospital Universitario de Badajoz", "operator": "Servicio Extremeño de Salud", "operator:type": "public", "roof:shape": "many", "type": "multipolygon", "wikidata": "Q87761443"}}]