[{"name": "Salihli Devlet Hastanesi", "latitude": 38.4781772, "longitude": 28.1408997, "source": "osm", "_tags": {"addr:city": "Salihli/Manisa", "amenity": "hospital", "email": "manisadhs10@saglik.gov.tr", "emergency": "yes", "healthcare": "hospital", "name": "Salihli Devlet Hastanesi", "name:en": "Salihli State Hospital", "opening_hours": "24/7", "operator": "Sağlık Bakanlığı", "operator:wikidata": "Q4294365", "operator:wikipedia": "tr:Türkiye Cumhuriyeti Sağlık Bakanlığı", "phone": "(0236) 713 15 00", "website": "https://salihlidh.saglik.gov.tr/"}}, {"name": "Özel Medigüneş Hastanesi", "latitude": 38.4842497, "longitude": 28.1301414, "source": "osm", "_tags": {"addr:city": "Salihli/Manisa", "amenity": "hospital", "name": "Özel Medigüneş Hastanesi"}}, {"name": "Özel Salihli Hastanesi", "latitude": 38.4832336, "longitude": 28.1503645, "source": "osm", "_tags": {"addr:city": "Salihli/Manisa", "amenity": "hospital", "building": "yes", "check_date": "2025-07-27", "emergency": "yes", "name": "Özel Salihli Hastanesi"}}, {"name": "Özel Can Hastanesi", "latitude": 38.4788644, "longitude": 28.1620022, "source": "osm", "_tags": {"addr:city": "Salihli/Manisa", "addr:housenumber": "123", "addr:street": "Avar Caddesi", "amenity": "hospital", "building": "yes", "building:levels": "6", "emergency": "yes", "healthcare": "hospital", "name": "Özel Can Hastanesi", "phone": "0236 715 4000", "website": "https://www.salihlican.com/", "wheelchair": "yes"}}, {"name": "Demirci Devlet Hastanesi", "latitude": 39.0276254, "longitude": 28.6416465, "source": "osm", "_tags": {"addr:city": "Manisa", "addr:district": "Demirci", "amenity": "hospital", "emergency": "yes", "healthcare": "hospital", "name": "Demirci Devlet Hastanesi", "operator": "Sağlık Bakanlığı", "operator:type": "government", "operator:wikidata": "Q4294365", "phone": "+90 236 462 13 08"}}, {"name": "Selendi Devlet Hastanesi", "latitude": 38.7465257, "longitude": 28.8683361, "source": "osm", "_tags": {"amenity": "hospital", "emergency": "yes", "healthcare": "hospital", "name": "Selendi Devlet Hastanesi", "operator": "Sağlık Bakanlığı", "operator:type": "government", "operator:wikidata": "Q4294365"}}, {"name": "Bigadiç Devlet Hastanesi", "latitude": 39.3999886, "longitude": 28.1266753, "source": "osm", "_tags": {"addr:city": "Balıkesir", "addr:district": "Bigadiç", "amenity": "hospital", "emergency": "yes", "healthcare": "hospital", "name": "Bigadiç Devlet Hastanesi", "operator": "Sağlık Bakanlığı", "operator:type": "government", "operator:wikidata": "Q4294365", "phone": "+90 266 614 13 00"}}, {"name": "Gördes Devlet Hastanesi", "latitude": 38.9403244, "longitude": 28.2797577, "source": "osm", "_tags": {"amenity": "hospital", "emergency": "yes", "healthcare": "hospital", "name": "Gördes Devlet Hastanesi", "operator": "Sağlık Bakanlığı", "operator:wikidata": "Q4294365", "operator:wikipedia": "tr:Türkiye Cumhuriyeti Sağlık Bakanlığı"}}, {"name": "Sındırgı Devlet Hastanesi", "latitude": 39.246313, "longitude": 28.1764689, "source": "osm", "_tags": {"amenity": "hospital", "emergency": "yes", "healthcare": "hospital", "name": "Sındırgı Devlet Hastanesi", "operator": "Sağlık Bakanlığı", "operator:wikidata": "Q4294365"}}]