[{"name": "Pronto Soccorso", "latitude": 39.2945396, "longitude": 16.2483181, "source": "osm", "_tags": {"amenity": "hospital", "emergency": "yes", "healthcare": "hospital", "name": "Pronto Soccorso"}}, {"name": "Guardia Medica - Servizio di continuità assistenziale", "latitude": 38.474684, "longitude": 16.4533559, "source": "osm", "_tags": {"addr:city": "Pazzano", "addr:postcode": "89040", "addr:street": "Via Preiato", "amenity": "hospital", "emergency": "yes", "healthcare": "hospital", "healthcare:speciality": "general", "name": "Guardia Medica - Servizio di continuità assistenziale", "wheelchair": "yes"}}, {"name": "", "latitude": 39.4123899, "longitude": 16.8291751, "source": "osm", "_tags": {"amenity": "hospital"}}, {"name": "Ambulatorio Medico", "latitude": 38.8887683, "longitude": 16.4076752, "source": "osm", "_tags": {"amenity": "hospital", "name": "Ambulatorio Medico", "wheelchair": "limited"}}, {"name": "Postazione di continuità assistenziale / Guardia Medica", "latitude": 38.8264346, "longitude": 16.6198165, "source": "osm", "_tags": {"addr:city": "Catanzaro", "addr:housenumber": "41a", "addr:postcode": "88100", "addr:street": "Viale Crotone", "amenity": "hospital", "healthcare": "hospital", "name": "Postazione di continuità assistenziale / Guardia Medica", "operator": "Azienda Sanitaria Provinciale ASP Catanzaro", "phone": "+39 0961737562"}}, {"name": "Casa di cura Villa Igea", "latitude": 39.3443572, "longitude": 16.1544632, "source": "osm", "_tags": {"amenity": "hospital", "name": "Casa di cura Villa Igea"}}, {"name": "asl", "latitude": 39.009464, "longitude": 16.728881, "source": "osm", "_tags": {"amenity": "hospital", "healthcare": "hospital", "name": "asl"}}, {"name": "Ospedale", "latitude": 39.1739154, "longitude": 16.3152956, "source": "osm", "_tags": {"amenity": "hospital", "healthcare": "hospital", "name": "Ospedale"}}, {"name": "Guardia Medica", "latitude": 39.3377154, "longitude": 16.3144332, "source": "osm", "_tags": {"amenity": "hospital", "emergency": "yes", "healthcare": "hospital", "name": "Guardia Medica"}}, {"name": "Casa di cura Sacro Cuore", "latitude": 39.3039827, "longitude": 16.2523672, "source": "osm", "_tags": {"amenity": "hospital", "healthcare": "hospital", "name": "Casa di cura Sacro Cuore"}}, {"name": "Clinica La Madonnina", "latitude": 39.3061191, "longitude": 16.2437105, "source": "osm", "_tags": {"amenity": "hospital", "healthcare": "hospital", "name": "Clinica La Madonnina"}}, {"name": "Casa Di Cura Madonna Della Catena", "latitude": 39.2784361, "longitude": 16.2398632, "source": "osm", "_tags": {"amenity": "hospital", "healthcare": "hospital", "name": "Casa Di Cura Madonna Della Catena"}}, {"name": "Casa di Cura Scarnati", "latitude": 39.2960402, "longitude": 16.2484615, "source": "osm", "_tags": {"amenity": "hospital", "healthcare": "hospital", "name": "Casa di Cura Scarnati"}}, {"name": "Poliambulatorio", "latitude": 39.3559795, "longitude": 16.0358512, "source": "osm", "_tags": {"amenity": "hospital", "healthcare": "hospital", "name": "Poliambulatorio", "operator": "ASL", "operator:type": "public", "operator:wikidata": "Q3631467"}}, {"name": "ASL", "latitude": 39.3054462, "longitude": 16.235134, "source": "osm", "_tags": {"amenity": "hospital", "healthcare": "hospital", "name": "ASL", "operator": "ASL", "operator:type": "public", "operator:wikidata": "Q3631467"}}, {"name": "Villa del Sole", "latitude": 39.3091486, "longitude": 16.2419064, "source": "osm", "_tags": {"amenity": "hospital", "healthcare": "hospital", "name": "Villa del Sole"}}, {"name": "Reparto Malattie infettive-ematologia", "latitude": 39.2930538, "longitude": 16.2470982, "source": "osm", "_tags": {"amenity": "hospital", "healthcare": "hospital", "healthcare:speciality": "haematology;infectious_diseases", "name": "Reparto Malattie infettive-ematologia"}}, {"name": "I. N. R. C. A.", "latitude": 39.2924213, "longitude": 16.2403883, "source": "osm", "_tags": {"amenity": "hospital", "healthcare": "hospital", "name": "I. N. R. C. A."}}, {"name": "Azienda Ospedaliera di Cosenza \"SS. Annunziata\"", "latitude": 39.2941705, "longitude": 16.2486588, "source": "osm", "_tags": {"addr:city": "Cosenza", "addr:postcode": "87100", "addr:street": "Via Felice Migliori", "amenity": "hospital", "emergency": "yes", "healthcare": "hospital", "name": "Azienda Ospedaliera di Cosenza \"SS. Annunziata\"", "website": "https://www.aocosenza.it/", "wheelchair": "yes", "wikidata": "Q30279754"}}, {"name": "Ospedale Pugliese Ciaccio", "latitude": 38.9204729, "longitude": 16.5828719, "source": "osm", "_tags": {"amenity": "hospital", "emergency": "yes", "healthcare": "hospital", "name": "Ospedale Pugliese Ciaccio"}}, {"name": "", "latitude": 38.9127936, "longitude": 16.5704414, "source": "osm", "_tags": {"amenity": "hospital", "healthcare": "hospital"}}, {"name": "Ospedale Civile di San Giovanni in Fiore", "latitude": 39.2508428, "longitude": 16.6974735, "source": "osm", "_tags": {"amenity": "hospital", "emergency": "yes", "healthcare": "hospital", "name": "Ospedale Civile di San Giovanni in Fiore"}}, {"name": "Ospedale San Bruno", "latitude": 38.5766674, "longitude": 16.3216622, "source": "osm", "_tags": {"addr:postcode": "89822", "addr:street": "Via Alfonso Scrivo", "amenity": "hospital", "building": "hospital", "name": "Ospedale San Bruno", "phone": "0963 962051", "website": "https://www.aspvv.it/index.php/servizi-sanitari/ospedali/serra-san-bruno"}}, {"name": "Ospedale Civile", "latitude": 38.6906168, "longitude": 16.5414757, "source": "osm", "_tags": {"amenity": "hospital", "building": "yes", "healthcare": "hospital", "name": "Ospedale Civile", "source": "http://www.asp.cz.it/?q=node/88"}}, {"name": "Poliambulatorio \"G. De Maio\"", "latitude": 39.3587163, "longitude": 16.2418113, "source": "osm", "_tags": {"amenity": "hospital", "building": "yes", "building:levels": "1", "healthcare": "hospital", "name": "Poliambulatorio \"G. De Maio\"", "operator": "ASL", "operator:type": "public", "operator:wikidata": "Q3631467"}}, {"name": "Presidio Ospedaliero Giovanni Paolo II", "latitude": 38.9605858, "longitude": 16.3023836, "source": "osm", "_tags": {"addr:city": "Lamezia Terme", "addr:postcode": "88046", "addr:street": "Via Senatore Arturo Perugini", "amenity": "hospital", "emergency": "yes", "healthcare": "hospital", "name": "Presidio Ospedaliero Giovanni Paolo II", "phone": "+39 0968 2081", "website": "https://www.asp.cz.it/?q=node/120"}}, {"name": "Presidio ospedaliero di Soriano Calabro", "latitude": 38.5990509, "longitude": 16.2222745, "source": "osm", "_tags": {"addr:city": "Soriano Calabro", "addr:postcode": "89831", "addr:street": "Via Amendola", "amenity": "hospital", "emergency": "yes", "healthcare": "hospital", "name": "Presidio ospedaliero di Soriano Calabro"}}, {"name": "San Francesco di Paola", "latitude": 39.3540962, "longitude": 16.0404343, "source": "osm", "_tags": {"amenity": "hospital", "emergency": "yes", "healthcare": "hospital", "name": "San Francesco di Paola"}}, {"name": "Ospedale di Campizzi", "latitude": 39.0929479, "longitude": 16.7909247, "source": "osm", "_tags": {"amenity": "hospital", "name": "Ospedale di Campizzi", "operator": "A.S.L. Mesoraca"}}, {"name": "ASL", "latitude": 39.1146102, "longitude": 16.7833222, "source": "osm", "_tags": {"amenity": "hospital", "building": "yes", "emergency": "no", "healthcare": "hospital", "name": "ASL", "operator": "ASL", "operator:type": "public", "operator:wikidata": "Q3631467"}}, {"name": "", "latitude": 38.6680158, "longitude": 16.0841349, "source": "osm", "_tags": {"amenity": "hospital", "healthcare": "hospital"}}, {"name": "", "latitude": 38.679343, "longitude": 16.1036464, "source": "osm", "_tags": {"addr:postcode": "89900", "addr:street": "Piazza Fleming", "amenity": "hospital", "emergency": "yes", "healthcare": "hospital", "phone": "+39 0963 962111", "wheelchair": "yes"}}, {"name": "", "latitude": 39.0925106, "longitude": 16.7908497, "source": "osm", "_tags": {"amenity": "hospital"}}, {"name": "", "latitude": 39.0925147, "longitude": 16.7905704, "source": "osm", "_tags": {"amenity": "hospital"}}, {"name": "", "latitude": 39.0928275, "longitude": 16.7903945, "source": "osm", "_tags": {"amenity": "hospital"}}, {"name": "Ospedale di Soveria Mannelli", "latitude": 39.0787694, "longitude": 16.381464, "source": "osm", "_tags": {"amenity": "hospital", "name": "Ospedale di Soveria Mannelli"}}, {"name": "", "latitude": 38.8248309, "longitude": 16.4501568, "source": "osm", "_tags": {"amenity": "hospital", "healthcare": "hospital"}}, {"name": "Avis sezione di Platania", "latitude": 39.007005, "longitude": 16.3214767, "source": "osm", "_tags": {"amenity": "hospital", "name": "Avis sezione di Platania"}}, {"name": "Guardia Medica", "latitude": 39.0044112, "longitude": 16.3187667, "source": "osm", "_tags": {"amenity": "hospital", "name": "Guardia Medica"}}, {"name": "Presidio Ospedaliero Ciaccio - De Lellis", "latitude": 38.9237357, "longitude": 16.5773251, "source": "osm", "_tags": {"amenity": "hospital", "emergency": "yes", "healthcare": "hospital", "name": "Presidio Ospedaliero Ciaccio - De Lellis", "operator": "Azienda Ospedaliera \"Pugliese Ciaccio\"", "operator:type": "public"}}, {"name": "", "latitude": 38.8685382, "longitude": 16.5784613, "source": "osm", "_tags": {"amenity": "hospital", "building": "yes", "healthcare": "hospital"}}, {"name": "Sant'Anna Hospital", "latitude": 38.9271122, "longitude": 16.5801448, "source": "osm", "_tags": {"addr:city": "Catanzaro", "addr:housenumber": "111", "addr:postcode": "88100", "addr:street": "Viale Papa Pio X", "amenity": "hospital", "email": "info@santannahospital.it", "emergency": "no", "fax": "+39 0961 5070765", "healthcare": "hospital", "name": "Sant'Anna Hospital", "phone": "+39 0961 5070111", "website": "https://www.santannahospital.com/"}}, {"name": "", "latitude": 38.8178648, "longitude": 16.4255272, "source": "osm", "_tags": {"amenity": "hospital", "healthcare": "hospital", "wikidata": "Q48838856", "wikipedia": "it:Ospedale psichiatrico di Girifalco"}}, {"name": "Azienda Sanitaria Provinciale di Cosenza - Distretto Rogliano", "latitude": 39.1802143, "longitude": 16.3208049, "source": "osm", "_tags": {"amenity": "hospital", "healthcare": "hospital", "name": "Azienda Sanitaria Provinciale di Cosenza - Distretto Rogliano", "operator": "ASL", "operator:wikidata": "Q3631467"}}, {"name": "Distretto Socio-Sanitario / Polo Sanitario Territoriale / ASL Catanzaro Lido", "latitude": 38.8316344, "longitude": 16.63114, "source": "osm", "_tags": {"addr:city": "Catanzaro", "addr:postcode": "88100", "addr:street": "Viale Crotone", "amenity": "hospital", "healthcare": "hospital", "name": "Distretto Socio-Sanitario / Polo Sanitario Territoriale / ASL Catanzaro Lido", "operator": "A.S.P. Catanzaro", "phone": "+39 09617033950", "website": "https://www.asp.cz.it/"}}, {"name": "Azienda Sanitaria Provinciale", "latitude": 38.4867353, "longitude": 15.9822105, "source": "osm", "_tags": {"amenity": "hospital", "building": "yes", "healthcare": "hospital", "name": "Azienda Sanitaria Provinciale", "operator": "ASL", "operator:wikidata": "Q3631467"}}, {"name": "", "latitude": 39.1226086, "longitude": 16.0793391, "source": "osm", "_tags": {"addr:city": "Amantea", "addr:housenumber": "1", "addr:postcode": "87032", "addr:street": "Via Santa Maria", "amenity": "hospital", "building": "yes", "healthcare": "hospital"}}, {"name": "", "latitude": 39.1738741, "longitude": 16.3154497, "source": "osm", "_tags": {"amenity": "hospital", "healthcare": "hospital"}}, {"name": "Ospedale Mariano Santo", "latitude": 39.2902968, "longitude": 16.2431074, "source": "osm", "_tags": {"amenity": "hospital", "healthcare": "hospital", "name": "Ospedale Mariano Santo"}}, {"name": "", "latitude": 38.4805801, "longitude": 15.9853297, "source": "osm", "_tags": {"amenity": "hospital", "healthcare": "hospital"}}]