[{"name": "", "latitude": 38.9598883, "longitude": 1.3098177, "source": "osm", "_tags": {"amenity": "hospital", "healthcare": "hospital"}}, {"name": "", "latitude": 38.9601183, "longitude": 1.3100495, "source": "osm", "_tags": {"amenity": "hospital", "healthcare": "hospital"}}, {"name": "Centre de Salut Sant Jordi", "latitude": 38.8928842, "longitude": 1.3968206, "source": "osm", "_tags": {"amenity": "hospital", "emergency": "no", "healthcare": "hospital", "healthcare:speciality": "general", "name": "Centre de Salut Sant Jordi", "operator": "Conselleria de Salut i Consum"}}, {"name": "Hospital Can Misses", "latitude": 38.9161334, "longitude": 1.4197345, "source": "osm", "_tags": {"addr:city": "Eivissa", "addr:postcode": "07800", "addr:street": "Carrer de Corona", "amenity": "hospital", "healthcare": "hospital", "internet_access": "wlan", "name": "Hospital Can Misses", "wikidata": "Q30280014"}}, {"name": "Hospital de Formentera", "latitude": 38.7073959, "longitude": 1.4349131, "source": "osm", "_tags": {"amenity": "hospital", "healthcare": "hospital", "name": "Hospital de Formentera", "phone": "+34 971 321212", "website": "https://www.ibsalut.es/servei/recursos-i-centres-sanitaris/centres-sanitaris/hospitals/hospital-de-formentera", "wikidata": "Q87761476"}}]