[{"name": "118", "latitude": 39.9263311, "longitude": 8.5275371, "source": "osm", "_tags": {"amenity": "doctors", "emergency": "ambulance_station", "healthcare": "hospital", "name": "118"}}, {"name": "Pronto Soccorso Ospedale \"San Martino\"", "latitude": 39.8985053, "longitude": 8.5845613, "source": "osm", "_tags": {"addr:city": "Oristano", "addr:housenumber": "1a", "addr:postcode": "09170", "addr:street": "Viale Fondazione Rockefeller", "amenity": "hospital", "emergency": "yes", "healthcare": "hospital", "name": "Pronto Soccorso Ospedale \"San Martino\""}}, {"name": "Pronto Soccorso Ospedale \"G.P. Delogu\"", "latitude": 40.1206415, "longitude": 8.8349166, "source": "osm", "_tags": {"addr:city": "Ilartzi/Ghilarza", "amenity": "hospital", "emergency": "yes", "healthcare": "hospital", "name": "Pronto Soccorso Ospedale \"G.P. Delogu\""}}, {"name": "Pronto Soccorso Ospedale \"Nostra Signora di Bonaria\"", "latitude": 39.5577695, "longitude": 8.7938478, "source": "osm", "_tags": {"addr:city": "San Gavino Monreale", "amenity": "hospital", "emergency": "yes", "healthcare": "hospital", "name": "Pronto Soccorso Ospedale \"Nostra Signora di Bonaria\""}}, {"name": "Reparto Medicina", "latitude": 39.8974668, "longitude": 8.5849558, "source": "osm", "_tags": {"addr:city": "Oristano", "addr:housenumber": "1a", "addr:postcode": "09170", "addr:street": "Viale Fondazione Rockefeller", "amenity": "hospital", "healthcare": "hospital", "healthcare:speciality": "internal", "name": "Reparto Medicina"}}, {"name": "Reparto Radiologia", "latitude": 39.8984587, "longitude": 8.5849471, "source": "osm", "_tags": {"addr:city": "Oristano", "addr:housenumber": "1a", "addr:postcode": "09170", "addr:street": "Viale Fondazione Rockefeller", "amenity": "hospital", "healthcare": "laboratory", "healthcare:speciality": "diagnostic_radiology", "name": "Reparto Radiologia"}}, {"name": "AVIS", "latitude": 39.4639342, "longitude": 8.7465259, "source": "osm", "_tags": {"addr:city": "Villacidro", "addr:postcode": "09039", "addr:street": "Via Guido Rossa", "amenity": "hospital", "healthcare": "hospital", "healthcare_1": "blood_donation", "name": "AVIS"}}, {"name": "", "latitude": 39.4635957, "longitude": 8.7463779, "source": "osm", "_tags": {"addr:city": "Villacidro", "addr:postcode": "09039", "addr:street": "Via Guido Rossa", "amenity": "doctors", "emergency": "yes", "healthcare": "hospital"}}, {"name": "ADMO", "latitude": 39.4639988, "longitude": 8.7465555, "source": "osm", "_tags": {"addr:city": "Villacidro", "addr:postcode": "09039", "addr:street": "Via Guido Rossa", "amenity": "hospital", "healthcare": "hospital", "name": "ADMO"}}, {"name": "Ospedale civile San Martino", "latitude": 39.8978602, "longitude": 8.5854333, "source": "osm", "_tags": {"amenity": "hospital", "healthcare": "hospital", "name": "Ospedale civile San Martino", "wheelchair": "yes"}}, {"name": "Ospedale Gian Pietro Delogu", "latitude": 40.1204945, "longitude": 8.8344729, "source": "osm", "_tags": {"addr:housenumber": "176", "addr:street": "Corso Umberto Primo", "amenity": "hospital", "healthcare": "hospital", "name": "Ospedale Gian Pietro Delogu"}}, {"name": "Italian Red Cross volunteers", "latitude": 40.289186, "longitude": 8.48366, "source": "osm", "_tags": {"amenity": "doctors", "emergency": "no", "healthcare": "hospital", "name": "Italian Red Cross volunteers", "operator": "Italian Red Cross"}}, {"name": "Consultorio Familiare", "latitude": 39.5485997, "longitude": 8.7867646, "source": "osm", "_tags": {"amenity": "hospital", "building": "yes", "healthcare": "hospital", "name": "Consultorio Familiare"}}, {"name": "Guardia Medica", "latitude": 40.3962798, "longitude": 8.6575684, "source": "osm", "_tags": {"amenity": "doctors", "building": "yes", "emergency": "no", "healthcare": "hospital", "name": "Guardia Medica"}}, {"name": "Ospedale Nostra Signora di Bonaria", "latitude": 39.5580578, "longitude": 8.7936539, "source": "osm", "_tags": {"amenity": "hospital", "name": "Ospedale Nostra Signora di Bonaria"}}, {"name": "", "latitude": 39.4638406, "longitude": 8.7464084, "source": "osm", "_tags": {"addr:city": "Villacidro", "addr:postcode": "09039", "addr:street": "Via Guido Rossa", "amenity": "hospital", "healthcare": "hospital", "healthcare_1": "blood_donation", "operator": "A.S.L. Sanluri"}}, {"name": "Presidio ospedaliero di Macomer", "latitude": 40.2761431, "longitude": 8.7707108, "source": "osm", "_tags": {"addr:city": "Macomer", "addr:postcode": "08015", "alt_name": "Ospedale Macomer", "amenity": "hospital", "healthcare": "hospital", "name": "Presidio ospedaliero di Macomer", "wikidata": "Q30262673"}}, {"name": "Ospedale A. G. Mastino", "latitude": 40.3008483, "longitude": 8.4958282, "source": "osm", "_tags": {"amenity": "hospital", "healthcare": "hospital", "name": "Ospedale A. G. Mastino"}}, {"name": "ASL di Sanluri", "latitude": 39.5562392, "longitude": 8.9006739, "source": "osm", "_tags": {"amenity": "hospital", "healthcare": "hospital", "name": "ASL di Sanluri", "operator": "ASL", "operator:type": "public", "operator:wikidata": "Q3631467"}}]