[{"name": "Κέντρο Υγειας Φιλιατών", "latitude": 39.5987213, "longitude": 20.3147365, "source": "osm", "_tags": {"addr:city": "Φιλιάτες", "addr:housenumber": "10", "addr:postcode": "46300", "addr:street": "Πέτρου Μπέπη", "amenity": "hospital", "healthcare": "hospital", "name": "Κέντρο Υγειας Φιλιατών", "phone": "+302664360222", "website": "http://www.gnfiliaton.gr/", "wikidata": "Q50036613"}}, {"name": "Urgjencë", "latitude": 39.874496, "longitude": 20.000612, "source": "osm", "_tags": {"amenity": "hospital", "emergency": "yes", "healthcare": "hospital", "name": "Urgjencë", "name:en": "Emergency Room"}}, {"name": "", "latitude": 39.8745989, "longitude": 20.0006499, "source": "osm", "_tags": {"amenity": "hospital", "healthcare": "hospital", "name:en": "Maternity Center"}}, {"name": "Spitali Amerikan Gjirokastër", "latitude": 40.0830576, "longitude": 20.1404627, "source": "osm", "_tags": {"addr:city": "Gjirokastër", "addr:postcode": "6001", "addr:street": "Rruga Zeman Haska", "amenity": "hospital", "healthcare": "hospital", "name": "Spitali Amerikan Gjirokastër", "name:en": "Amercian Hospital Gjirokastër", "operator": "Spitali Amerikan", "operator:type": "private", "phone": "084820400"}}, {"name": "Γενικό Πανεπιστημιακό Νοσοκομείο Ιωαννίνων", "latitude": 39.6216016, "longitude": 20.8412249, "source": "osm", "_tags": {"amenity": "hospital", "barrier": "fence", "emergency": "yes", "fence_type": "chain_link", "healthcare": "hospital", "name": "Γενικό Πανεπιστημιακό Νοσοκομείο Ιωαννίνων", "name:de": "Universitätsklinikum Ioannina", "name:el": "Γενικό Πανεπιστημιακό Νοσοκομείο Ιωαννίνων", "name:en": "Ioannina University Hospital", "name:fr": "Hôpital Universitaire d'Ioannina", "url": "http://www.uhi.gr/", "wikidata": "Q21626795"}}, {"name": "Κέντρο Υγείας - ΕΚΑΒ Ηγουμενίτσας", "latitude": 39.5122832, "longitude": 20.2587753, "source": "osm", "_tags": {"amenity": "hospital", "building": "yes", "emergency": "yes", "healthcare": "hospital", "int_name": "Health Center of Igoumenitsa", "name": "Κέντρο Υγείας - ΕΚΑΒ Ηγουμενίτσας"}}, {"name": "Γενικό Νοσοκομείο Ιωαννίνων Γεωργίου Χατζηκωστα", "latitude": 39.6818686, "longitude": 20.8261671, "source": "osm", "_tags": {"amenity": "hospital", "healthcare": "hospital", "name": "Γενικό Νοσοκομείο Ιωαννίνων Γεωργίου Χατζηκωστα", "name:el": "Γενικό Νοσοκομείο Ιωαννίνων Γεωργίου Χατζηκωστα", "name:en": "Chatzikosta General Hospital"}}, {"name": "Τ.Ε.Π. Γ.Ν. Φιλιατών - Ηγουμενίτσας", "latitude": 39.5189108, "longitude": 20.2579354, "source": "osm", "_tags": {"amenity": "hospital", "healthcare": "hospital", "name": "Τ.Ε.Π. Γ.Ν. Φιλιατών - Ηγουμενίτσας"}}, {"name": "", "latitude": 39.6708972, "longitude": 20.8541713, "source": "osm", "_tags": {"amenity": "hospital", "healthcare": "hospital"}}, {"name": "Spitali Kolonjë Shaniko Jupasi", "latitude": 40.3368991, "longitude": 20.6813071, "source": "osm", "_tags": {"addr:city": "Ersekë", "addr:postcode": "7401", "addr:street": "Rruga Dhori Qirjazi", "amenity": "hospital", "healthcare": "hospital", "name": "Spitali Kolonjë Shaniko Jupasi"}}, {"name": "Spitali i Sarandës", "latitude": 39.874302, "longitude": 20.0006543, "source": "osm", "_tags": {"amenity": "hospital", "emergency": "no", "healthcare": "hospital", "name": "Spitali i Sarandës", "name:en": "Sarandë Hospital"}}, {"name": "", "latitude": 40.1510754, "longitude": 20.5992558, "source": "osm", "_tags": {"amenity": "hospital", "healthcare": "hospital"}}, {"name": "Spitali i Tepelenës", "latitude": 40.2952963, "longitude": 20.0146793, "source": "osm", "_tags": {"amenity": "hospital", "emergency": "yes", "healthcare": "hospital", "name": "Spitali i Tepelenës"}}, {"name": "", "latitude": 40.2363486, "longitude": 20.350294, "source": "osm", "_tags": {"amenity": "hospital", "healthcare": "hospital"}}, {"name": "Spitali Rajonal \"Omer Nishani\"", "latitude": 40.0839276, "longitude": 20.141783, "source": "osm", "_tags": {"amenity": "hospital", "emergency": "yes", "healthcare": "hospital", "name": "Spitali Rajonal \"Omer Nishani\""}}, {"name": "Materniteti", "latitude": 39.8734269, "longitude": 20.0042912, "source": "osm", "_tags": {"amenity": "hospital", "healthcare": "hospital", "name": "Materniteti"}}]