[{"name": "Hospital Provincial de la Misericordia", "latitude": 39.8603465, "longitude": -4.0139837, "source": "osm", "_tags": {"amenity": "hospital", "healthcare": "hospital", "name": "Hospital Provincial de la Misericordia"}}, {"name": "Clínica Dental Dionisio", "latitude": 39.8604991, "longitude": -4.0211326, "source": "osm", "_tags": {"addr:city": "Toledo", "addr:housenumber": "17", "addr:postcode": "45001", "addr:street": "Calle de las Armas", "amenity": "hospital", "emergency": "no", "name": "Clínica Dental Dionisio", "phone": "+34925216425"}}, {"name": "Hermanas Hospitalarias", "latitude": 40.2844789, "longitude": -3.9087598, "source": "osm", "_tags": {"addr:city": "Arroyomolinos", "addr:housenumber": "2", "addr:postcode": "28939", "addr:street": "Calle de la Guardia", "amenity": "hospital", "name": "Hermanas Hospitalarias"}}, {"name": "Farmacia Carmen Chacón", "latitude": 40.1582052, "longitude": -3.8768949, "source": "osm", "_tags": {"addr:city": "Ugena", "addr:housenumber": "13", "addr:postcode": "45217", "addr:street": "Calle del Puerto", "amenity": "pharmacy", "healthcare": "hospital", "name": "Farmacia Carmen Chacón"}}, {"name": "Urgencias Severo Ochoa", "latitude": 40.3194528, "longitude": -3.7691763, "source": "osm", "_tags": {"addr:city": "Leganés", "amenity": "hospital", "healthcare": "hospital", "name": "Urgencias Severo Ochoa"}}, {"name": "Urgencias (Infantil) Severo Ochoa", "latitude": 40.3196696, "longitude": -3.7702062, "source": "osm", "_tags": {"addr:city": "Leganés", "amenity": "hospital", "healthcare": "hospital", "name": "Urgencias (Infantil) Severo Ochoa"}}, {"name": "RB Dental", "latitude": 39.8823109, "longitude": -4.0301911, "source": "osm", "_tags": {"addr:city": "Toledo", "addr:housenumber": "24", "addr:postcode": "45005", "addr:street": "Avenida de Irlanda", "amenity": "hospital", "healthcare": "dentist", "healthcare:speciality": "dentist", "name": "RB Dental", "opening_hours": "Mo-Fr 10:00-14:00,16:00-20:00", "operator": "Rb Dental", "operator:type": "private", "phone": "+34 925 28 10 08", "website": "https://www.rbdental.es/clinica-toledo"}}, {"name": "HOSPITAL SOLIMAT", "latitude": 39.8693797, "longitude": -4.040736, "source": "osm", "_tags": {"addr:city": "Toledo", "addr:housenumber": "35", "addr:postcode": "45004", "addr:street": "Calle de San Pedro el Verde", "amenity": "hospital", "emergency": "yes", "healthcare": "hospital", "name": "HOSPITAL SOLIMAT", "operator": "Mutua Colaboradora", "wheelchair": "yes"}}, {"name": "Farmacia la Concordia", "latitude": 40.158627, "longitude": -3.6150593, "source": "osm", "_tags": {"addr:city": "Ciempozuelos", "addr:postcode": "28350", "addr:street": "Calle de la Concordia", "amenity": "hospital", "healthcare": "hospital", "name": "Farmacia la Concordia"}}, {"name": "Hospital Montepríncipe", "latitude": 40.414349, "longitude": -3.8449123, "source": "osm", "_tags": {"amenity": "hospital", "barrier": "fence", "healthcare": "hospital", "name": "Hospital Montepríncipe", "toilets:wheelchair": "yes", "wheelchair": "yes"}}, {"name": "Hospital Universitario 12 de Octubre", "latitude": 40.3762219, "longitude": -3.6984678, "source": "osm", "_tags": {"amenity": "hospital", "emergency": "yes", "healthcare": "hospital", "name": "Hospital Universitario 12 de Octubre", "operator": "Comunidad de Madrid", "operator:type": "government", "operator:wikidata": "Q578788", "wikidata": "Q5902531", "wikipedia": "es:Hospital 12 de Octubre"}}, {"name": "CHUMED - Hospital Universitario de la UCJC", "latitude": 40.4151079, "longitude": -3.8436986, "source": "osm", "_tags": {"amenity": "hospital", "barrier": "fence", "name": "CHUMED - Hospital Universitario de la UCJC", "wheelchair": "yes"}}, {"name": "Centro de Salud Mejorada del Campo", "latitude": 40.396861, "longitude": -3.4822982, "source": "osm", "_tags": {"addr:housenumber": "22", "addr:street": "Calle de la Ciudad de París", "amenity": "hospital", "building": "yes", "name": "Centro de Salud Mejorada del Campo", "opening_hours": "Mo-Fr 08:30-20:30; Sa-Su", "source": "PNOA"}}, {"name": "Hospital Universitario de Getafe", "latitude": 40.3126577, "longitude": -3.7426086, "source": "osm", "_tags": {"amenity": "hospital", "healthcare": "hospital", "name": "Hospital Universitario de Getafe", "operator": "Comunidad de Madrid", "wikidata": "Q5903026", "wikipedia": "es:Hospital de Getafe"}}, {"name": "Ambulatorio de Aguacate", "latitude": 40.372557, "longitude": -3.7479305, "source": "osm", "_tags": {"amenity": "hospital", "healthcare": "clinic", "name": "Ambulatorio de Aguacate", "wheelchair": "yes"}}, {"name": "Fundación Instituto San José", "latitude": 40.3633029, "longitude": -3.773536, "source": "osm", "_tags": {"addr:city": "Madrid", "addr:housenumber": "98", "addr:postcode": "28054", "addr:street": "Calle del Pinar de San José", "amenity": "hospital", "healthcare": "hospital", "healthcare:speciality": "geriatrics;psychiatry", "name": "Fundación Instituto San José", "url": "http://www.fundacioninstitutosanjose.es/", "wikidata": "Q87762040"}}, {"name": "Hospital Universitario de Móstoles", "latitude": 40.3158052, "longitude": -3.8775275, "source": "osm", "_tags": {"amenity": "hospital", "emergency": "yes", "healthcare": "hospital", "name": "Hospital Universitario de Móstoles", "operator": "Comunidad de Madrid", "operator:type": "government", "operator:wikidata": "Q578788", "url": "http://www.madrid.org/cs/Satellite?pagename=HospitalMostoles/Page/HMOS_home", "wheelchair": "yes", "wikidata": "Q120484359"}}, {"name": "Centro de Salud Miguel Servet", "latitude": 40.3476728, "longitude": -3.8337749, "source": "osm", "_tags": {"amenity": "hospital", "building": "yes", "emergency": "no", "healthcare": "hospital", "name": "Centro de Salud Miguel Servet"}}, {"name": "Hospital Universitario de Fuenlabrada.", "latitude": 40.2870104, "longitude": -3.8160024, "source": "osm", "_tags": {"addr:city": "Fuenlabrada", "addr:country": "ES", "addr:housenumber": "2", "addr:street": "Camino del Molino", "amenity": "hospital", "barrier": "fence", "emergency": "yes", "healthcare": "hospital", "name": "Hospital Universitario de Fuenlabrada.", "operator": "Comunidad de Madrid.", "source": "PNOA", "source:date": "2009", "wikidata": "Q30253911"}}, {"name": "Hospital de la Venerable Orden Tercera de San Francisco", "latitude": 40.4087477, "longitude": -3.7140882, "source": "osm", "_tags": {"alt_name": "Hospital VOT", "amenity": "hospital", "contact:phone": "910791516", "contact:whatsapp": "600852696", "healthcare": "hospital", "name": "Hospital de la Venerable Orden Tercera de San Francisco", "website": "https://www.hospitalvot.org/"}}, {"name": "Centro de Salud Sánchez Morate", "latitude": 40.3131693, "longitude": -3.7228613, "source": "osm", "_tags": {"amenity": "hospital", "emergency": "no", "healthcare": "hospital", "name": "Centro de Salud Sánchez Morate"}}, {"name": "Centro de Cuidados paliativos Laguna", "latitude": 40.400721, "longitude": -3.7471455, "source": "osm", "_tags": {"amenity": "hospital", "healthcare": "hospital", "name": "Centro de Cuidados paliativos Laguna"}}, {"name": "Centro de Especialidades Avenida de Portugal", "latitude": 40.4109266, "longitude": -3.7379254, "source": "osm", "_tags": {"alt_name": "Ambulatorio Avda. Portugal", "amenity": "hospital", "healthcare": "hospital", "name": "Centro de Especialidades Avenida de Portugal", "website": "https://www.comunidad.madrid/centros/centro-especialidades-periferico-avenida-portugal"}}, {"name": "Hospital Infanta Elena", "latitude": 40.1991997, "longitude": -3.6977082, "source": "osm", "_tags": {"amenity": "hospital", "designation": "Public hospital", "emergency": "yes", "healthcare": "hospital", "name": "Hospital Infanta Elena", "operator": "Comunidad de Madrid.", "url": "http://www.capiosanidad.es/centros/valdemoro/", "wikidata": "Q5902699", "wikipedia": "es:Hospital Infanta Elena (Valdemoro)"}}, {"name": "Centro de Salud Loranca-Nuevos Versalles", "latitude": 40.2972862, "longitude": -3.8363381, "source": "osm", "_tags": {"amenity": "hospital", "emergency": "no", "healthcare": "hospital", "name": "Centro de Salud Loranca-Nuevos Versalles"}}, {"name": "Hospital Universitario de Toledo", "latitude": 39.8594495, "longitude": -3.9608333, "source": "osm", "_tags": {"amenity": "hospital", "healthcare": "hospital", "name": "Hospital Universitario de Toledo", "wikidata": "Q88372754"}}, {"name": "Hospital Rey Juan Carlos I", "latitude": 40.339198, "longitude": -3.8702237, "source": "osm", "_tags": {"addr:city": "Móstoles", "addr:postcode": "28933", "addr:street": "Calle Gladiolo", "amenity": "hospital", "emergency": "yes", "healthcare": "hospital", "name": "Hospital Rey Juan Carlos I", "operator": "Comunidad de Madrid", "operator:type": "government", "operator:wikidata": "Q578788"}}, {"name": "Hospital Virgen del Valle", "latitude": 39.8436211, "longitude": -4.0212666, "source": "osm", "_tags": {"amenity": "hospital", "building": "yes", "emergency": "yes", "healthcare": "hospital", "name": "Hospital Virgen del Valle", "wikidata": "Q30254330"}}, {"name": "Sanatorio Psiquiátrico Esquerdo", "latitude": 40.3818534, "longitude": -3.7593246, "source": "osm", "_tags": {"amenity": "hospital", "barrier": "fence", "healthcare": "hospital", "healthcare:speciality": "psychiatry", "name": "Sanatorio Psiquiátrico Esquerdo", "website": "http://www.sanatorioesquerdo.com/", "wheelchair": "yes"}}, {"name": "Instituto Psiquiátrico José Germain.", "latitude": 40.3269939, "longitude": -3.7669083, "source": "osm", "_tags": {"amenity": "hospital", "healthcare": "hospital", "name": "Instituto Psiquiátrico José Germain.", "operator": "Comunidad de Madrid", "operator:type": "government", "operator:wikidata": "Q578788", "wikidata": "Q87762140", "wikipedia": "es:Hospital psiquiátrico de Leganés"}}, {"name": "Centro de Salud de Torrejón de Velasco", "latitude": 40.1870877, "longitude": -3.7803151, "source": "osm", "_tags": {"addr:city": "Torrejón de Velasco", "addr:country": "ES", "addr:postcode": "28990", "addr:street": "Calle del Hospital", "amenity": "hospital", "building": "yes", "name": "Centro de Salud de Torrejón de Velasco", "nohousenumber": "yes"}}, {"name": "Hospital Beata María Ana", "latitude": 40.4181212, "longitude": -3.6679977, "source": "osm", "_tags": {"amenity": "hospital", "barrier": "wall", "healthcare": "hospital", "name": "Hospital Beata María Ana", "operator": "Hermanas Hospitalarias", "wikidata": "Q87762029"}}, {"name": "Hospital General Universitario Gregorio Marañón.", "latitude": 40.4196605, "longitude": -3.6711734, "source": "osm", "_tags": {"amenity": "hospital", "emergency": "yes", "healthcare": "hospital", "name": "Hospital General Universitario Gregorio Marañón.", "old_name": "Ciudad Sanitaria Provincial Francisco Franco", "operator": "Comunidad de Madrid", "wikidata": "Q30253672", "wikipedia": "es:Hospital General Universitario Gregorio Marañón"}}, {"name": "Hospital Infantil Universitario del Niño Jesús.", "latitude": 40.4142916, "longitude": -3.676131, "source": "osm", "_tags": {"amenity": "hospital", "healthcare": "hospital", "name": "Hospital Infantil Universitario del Niño Jesús.", "name:etymology:wikidata": "Q5902707", "operator": "Comunidad de Madrid", "website": "https://www.comunidad.madrid/hospital/ninojesus/", "wikidata": "Q5902707", "wikipedia": "es:Hospital Infantil Universitario Niño Jesús"}}, {"name": "Centro de Salud El Greco", "latitude": 40.298488, "longitude": -3.7368132, "source": "osm", "_tags": {"amenity": "hospital", "healthcare": "hospital", "name": "Centro de Salud El Greco", "wikidata": "Q5761974", "wikipedia": "es:Centro de Salud El Greco (Getafe)"}}, {"name": "Centro San Juan de Dios", "latitude": 40.1617975, "longitude": -3.6145099, "source": "osm", "_tags": {"amenity": "hospital", "name": "Centro San Juan de Dios", "wikidata": "Q87762069"}}, {"name": "Complejo Asistencial Benito Menni", "latitude": 40.1565332, "longitude": -3.6175432, "source": "osm", "_tags": {"amenity": "hospital", "healthcare": "hospital", "name": "Complejo Asistencial Benito Menni", "wikidata": "Q28733411"}}, {"name": "Centro de Salud Dos de Mayo", "latitude": 40.3189566, "longitude": -3.8718407, "source": "osm", "_tags": {"amenity": "hospital", "building": "hospital", "emergency": "no", "healthcare": "hospital", "name": "Centro de Salud Dos de Mayo", "opening_hours": "Mo-Fr 08:30-20:00; Sa,Su 08:00-15:00; PH off"}}, {"name": "Centro de Especialidades Coronel de Palma", "latitude": 40.318747, "longitude": -3.87173, "source": "osm", "_tags": {"amenity": "hospital", "building": "hospital", "emergency": "no", "healthcare": "hospital", "name": "Centro de Especialidades Coronel de Palma", "opening_hours": "Mo-Fr 08:30-20:00; Sa,Su 08:00-15:00; PH off"}}, {"name": "Complejo Hopitaliario Provincial de Toledo", "latitude": 39.8604645, "longitude": -4.0132739, "source": "osm", "_tags": {"amenity": "hospital", "emergency": "yes", "healthcare": "hospital", "name": "Complejo Hopitaliario Provincial de Toledo"}}, {"name": "Centro de Salud de Serranillos del Valle", "latitude": 40.2043687, "longitude": -3.880796, "source": "osm", "_tags": {"amenity": "hospital", "healthcare": "hospital", "name": "Centro de Salud de Serranillos del Valle"}}, {"name": "Hospital Universitario HM Puerta del Sur", "latitude": 40.3150012, "longitude": -3.8598804, "source": "osm", "_tags": {"addr:city": "Móstoles", "addr:housenumber": "70", "addr:postcode": "28938", "addr:street": "Avenida de Carlos V", "amenity": "hospital", "emergency": "yes", "healthcare": "hospital", "name": "Hospital Universitario HM Puerta del Sur", "operator": "HM hospitales", "operator:type": "private", "toilets:wheelchair": "yes", "wheelchair": "yes", "wikidata": "Q43896364"}}, {"name": "Hospital Universitario Infanta Leonor", "latitude": 40.3863562, "longitude": -3.6176778, "source": "osm", "_tags": {"addr:housenumber": "80", "addr:postcode": "28031", "addr:street": "Avenida de la Gran Vía del Este", "amenity": "hospital", "healthcare": "hospital", "name": "Hospital Universitario Infanta Leonor", "opening_hours": "24/7", "phone": "+34 911 91 80 00", "website": "http://www.madrid.org/cs/Satellite?language=es&pagename=HospitalInfantaLeonor%2FPage%2FHVLL_home", "wheelchair": "yes", "wikidata": "Q30280177"}}, {"name": "Hospital Infanta Cristina.", "latitude": 40.2181567, "longitude": -3.7829913, "source": "osm", "_tags": {"amenity": "hospital", "emergency": "yes", "healthcare": "hospital", "name": "Hospital Infanta Cristina.", "operator": "Comunidad de Madrid", "operator:type": "government", "phone": "+34 91 191 30 00", "website": "https://www.comunidad.madrid/hospital/infantacristina/", "wikidata": "Q5902694", "wikipedia": "es:Hospital Infanta Cristina (Parla)"}}, {"name": "Hospital del Sureste", "latitude": 40.2970137, "longitude": -3.456786, "source": "osm", "_tags": {"amenity": "hospital", "emergency": "yes", "healthcare": "hospital", "name": "Hospital del Sureste", "operator": "Comunidad de Madrid", "wikidata": "Q43896420"}}, {"name": "Hospital del Henares", "latitude": 40.4185224, "longitude": -3.5328963, "source": "osm", "_tags": {"addr:city": "Coslada", "addr:housenumber": "0", "addr:postcode": "28822", "addr:street": "Avenida de Marie Curie", "amenity": "hospital", "healthcare": "hospital", "name": "Hospital del Henares", "operator": "Comunidad de Madrid.", "phone": "+34 911912000", "website": "http://www.madrid.org/cs/Satellite?pagename=HospitalHenares/Page/HHEN_home", "wheelchair": "yes", "wikidata": "Q5903185", "wikipedia": "es:Hospital del Henares"}}, {"name": "Hospital Virgen de la Torre", "latitude": 40.3810134, "longitude": -3.6192683, "source": "osm", "_tags": {"addr:city": "Madrid", "addr:housenumber": "5", "addr:postcode": "28031", "addr:street": "Calle del Puerto de Lumbreras", "amenity": "hospital", "check_date": "2024-08-22", "healthcare": "hospital", "name": "Hospital Virgen de la Torre", "operator": "Comunidad de Madrid", "operator:type": "government", "operator:wikidata": "Q578788", "website": "http://www.madrid.org/cs/Satellite?pagename=HospitalVirgenTorre/Page/HVTO_home", "wikidata": "Q30254322"}}, {"name": "Hospital Fundación Alcorcón", "latitude": 40.3488659, "longitude": -3.8374118, "source": "osm", "_tags": {"amenity": "hospital", "healthcare": "hospital", "name": "Hospital Fundación Alcorcón", "operator": "Comunidad de Madrid", "operator:type": "government", "operator:wikidata": "Q578788"}}, {"name": "Hospital Severo Ochoa", "latitude": 40.3207341, "longitude": -3.7698934, "source": "osm", "_tags": {"amenity": "hospital", "healthcare": "hospital", "name": "Hospital Severo Ochoa", "operator": "Comunidad de Madrid", "operator:type": "government", "operator:wikidata": "Q578788", "wikidata": "Q30253926"}}, {"name": "Hospital del Tajo", "latitude": 40.0575951, "longitude": -3.6103539, "source": "osm", "_tags": {"amenity": "hospital", "emergency": "yes", "healthcare": "hospital", "name": "Hospital del Tajo", "opening_hours": "24/7", "operator": "Comunidad de Madrid", "operator:wikidata": "Q578788", "source": "catastro", "source:date": "2015-01", "wikidata": "Q5903194", "wikipedia": "es:Hospital del Tajo"}}, {"name": "Quirón Hospital Universitario", "latitude": 40.4027249, "longitude": -3.7833792, "source": "osm", "_tags": {"addr:city": "Madrid", "addr:housenumber": "1", "addr:postcode": "28223", "addr:street": "Calle Diego de Velázquez", "alt_name": "Quirónsalud", "amenity": "hospital", "healthcare": "hospital", "internet_access": "wlan", "name": "Quirón Hospital Universitario", "opening_hours": "Mo-Su 08:00-22:00", "phone": "+34 902 151 016", "website": "http://www.quironsalud.es/", "wheelchair": "yes"}}, {"name": "", "latitude": 40.3822514, "longitude": -3.7772282, "source": "osm", "_tags": {"amenity": "hospital", "healthcare": "hospital"}}, {"name": "Hospital Quironsalud Sur", "latitude": 40.3431512, "longitude": -3.8491064, "source": "osm", "_tags": {"amenity": "hospital", "healthcare": "hospital", "name": "Hospital Quironsalud Sur", "phone": "+34 91 649 66 00", "website": "https://www.quironsalud.es/hospital-sur", "wikidata": "Q87762118"}}, {"name": "Centro de Salud Las Ciudades", "latitude": 40.3143996, "longitude": -3.7141888, "source": "osm", "_tags": {"amenity": "hospital", "emergency": "yes", "healthcare": "hospital", "name": "Centro de Salud Las Ciudades"}}, {"name": "Residencia Casa Quinta", "latitude": 40.1604824, "longitude": -3.61161, "source": "osm", "_tags": {"amenity": "hospital", "healthcare": "hospital", "name": "Residencia Casa Quinta"}}, {"name": "Centro de Protonterapia de Quirónsalud", "latitude": 40.3970226, "longitude": -3.7905932, "source": "osm", "_tags": {"amenity": "hospital", "healthcare": "hospital", "healthcare:speciality": "radiology;radiotherapy", "man_made": "particle_accelerator", "name": "Centro de Protonterapia de Quirónsalud", "name:en": "Quirónsalud Proton Therapy Center", "particle_accelerator": "circular", "phone": "+34 914 52 19 00", "substance": "proton", "website": "https://www.quironsalud.es/es/protonterapia"}}, {"name": "Centro de Salud La Paz", "latitude": 40.3645006, "longitude": -3.5494115, "source": "osm", "_tags": {"addr:city": "Rivas-Vaciamadrid", "addr:postcode": "28523", "addr:street": "Avenida del Parque de Asturias", "amenity": "hospital", "building": "hospital", "healthcare": "hospital", "name": "Centro de Salud La Paz", "phone": "+34 91 666 17 11;+34 91 666 18 12"}}, {"name": "Hospital HM Rivas", "latitude": 40.3431019, "longitude": -3.5249872, "source": "osm", "_tags": {"amenity": "hospital", "healthcare": "hospital", "name": "Hospital HM Rivas", "operator": "HM Hospitales", "phone": "+34 800 088 050", "website": "https://www.hmrivas.com/"}}, {"name": "", "latitude": 40.3643395, "longitude": -3.5494683, "source": "osm", "_tags": {"amenity": "hospital", "building:levels": "1", "healthcare": "hospital"}}, {"name": "Hospital Quirónsalud Toledo", "latitude": 39.8837769, "longitude": -4.0416562, "source": "osm", "_tags": {"addr:city": "Toledo", "addr:country": "ES", "addr:hamlet": "Urbanización Tres Culturas", "addr:postcode": "45005", "addr:province": "Toledo", "amenity": "hospital", "name": "Hospital Quirónsalud Toledo", "phone": "+34 925 26 61 00", "website": "https://www.quironsalud.es/toledo", "wikidata": "Q87762599"}}, {"name": "Hospital Nacional de Parapléjicos de Toledo", "latitude": 39.8746062, "longitude": -4.0530526, "source": "osm", "_tags": {"addr:city": "Toledo", "addr:street": "Carretera de la Peraleda", "amenity": "hospital", "healthcare": "hospital", "healthcare:speciality": "orthopaedics;osteopathy", "name": "Hospital Nacional de Parapléjicos de Toledo", "wikidata": "Q9004896"}}, {"name": "Centro De Salud Parque Miraflores", "latitude": 40.3139091, "longitude": -3.8384528, "source": "osm", "_tags": {"amenity": "hospital", "building": "apartments", "emergency": "no", "healthcare": "hospital", "name": "Centro De Salud Parque Miraflores"}}, {"name": "Hospital Los Madroños", "latitude": 40.3987802, "longitude": -3.9991359, "source": "osm", "_tags": {"amenity": "hospital", "healthcare": "hospital", "name": "Hospital Los Madroños", "wikidata": "Q87762121"}}, {"name": "", "latitude": 40.4072891, "longitude": -3.7197978, "source": "osm", "_tags": {"amenity": "hospital", "healthcare": "hospital"}}, {"name": "Centro de Salud Doctor Aguilar", "latitude": 40.1868134, "longitude": -3.838945, "source": "osm", "_tags": {"amenity": "hospital", "building": "hospital", "healthcare": "hospital", "name": "Centro de Salud Doctor Aguilar", "type": "multipolygon"}}, {"name": "Asamblea Comarcal de Cruz Roja Española en Corredor del Henares Sur (sede Coslada)", "latitude": 40.4200409, "longitude": -3.5666881, "source": "osm", "_tags": {"addr:city": "Coslada", "addr:housenumber": "3", "addr:postcode": "28821", "addr:street": "Calle del Océano Pacífico", "amenity": "hospital", "building": "yes", "healthcare": "hospital", "name": "Asamblea Comarcal de Cruz Roja Española en Corredor del Henares Sur (sede Coslada)", "operator": "Cruz Roja", "operator:wikidata": "Q7178", "phone": "+34 913609607", "type": "multipolygon", "website": "http://cruzroja.es", "wheelchair": "yes"}}, {"name": "Hospital Universitario Santa Cristina", "latitude": 40.4217993, "longitude": -3.6710207, "source": "osm", "_tags": {"amenity": "hospital", "healthcare": "hospital", "name": "Hospital Universitario Santa Cristina", "name:etymology:wikidata": "Q5902906", "type": "multipolygon", "wikidata": "Q5902906", "wikipedia": "es:Hospital Santa Cristina"}}, {"name": "Instituto Psiquiátrico José Germain - Complejo de Santa Teresa", "latitude": 40.330311, "longitude": -3.7764902, "source": "osm", "_tags": {"amenity": "hospital", "healthcare": "hospital", "healthcare:speciality": "psychiatry", "landuse": "forest", "name": "Instituto Psiquiátrico José Germain - Complejo de Santa Teresa", "operator": "Salud Madrid", "type": "multipolygon", "website": "http://www.madrid.org/cs/Satellite?language=es&pagename=HospitalJoseGermain%2FPage%2FHGER_home"}}]