[{"name": "Guardia Medica", "latitude": 40.0948555, "longitude": 15.4056887, "source": "osm", "_tags": {"amenity": "hospital", "name": "Guardia Medica"}}, {"name": "Guardia Medica", "latitude": 40.2699374, "longitude": 15.6222271, "source": "osm", "_tags": {"amenity": "hospital", "name": "Guardia Medica"}}, {"name": "Guardia Medica Torchiara", "latitude": 40.3179104, "longitude": 15.0609385, "source": "osm", "_tags": {"amenity": "hospital", "emergency": "no", "healthcare": "hospital", "name": "Guardia Medica Torchiara"}}, {"name": "Pronto Soccorso", "latitude": 39.5310986, "longitude": 15.9175882, "source": "osm", "_tags": {"amenity": "hospital", "healthcare": "hospital", "name": "Pronto Soccorso"}}, {"name": "118", "latitude": 39.5310138, "longitude": 15.9174085, "source": "osm", "_tags": {"amenity": "hospital", "healthcare": "hospital", "name": "118"}}, {"name": "SERT", "latitude": 39.8243567, "longitude": 15.7812768, "source": "osm", "_tags": {"amenity": "hospital", "healthcare": "hospital", "name": "SERT"}}, {"name": "Guardia Medica", "latitude": 39.8239956, "longitude": 15.7821263, "source": "osm", "_tags": {"amenity": "hospital", "healthcare": "hospital", "name": "Guardia Medica"}}, {"name": "118", "latitude": 39.8240955, "longitude": 15.7821666, "source": "osm", "_tags": {"amenity": "hospital", "healthcare": "hospital", "name": "118"}}, {"name": "Presidio ospedaliero Agropoli", "latitude": 40.3412435, "longitude": 14.9970222, "source": "osm", "_tags": {"amenity": "hospital", "building": "yes", "emergency": "yes", "healthcare": "hospital", "name": "Presidio ospedaliero Agropoli", "official_name": "PSAUT di Agropoli", "operator": "PSAUT di Agropoli", "wheelchair": "yes"}}, {"name": "Presidio Ospedaliero dell'Immacolata", "latitude": 40.0696719, "longitude": 15.6179039, "source": "osm", "_tags": {"amenity": "hospital", "building": "hospital", "emergency": "yes", "healthcare": "hospital", "name": "Presidio Ospedaliero dell'Immacolata", "wheelchair": "yes"}}, {"name": "Ospedale San Luca", "latitude": 40.2258134, "longitude": 15.2624825, "source": "osm", "_tags": {"addr:city": "Vallo della Lucania", "addr:housename": "Ospedale San Luca", "addr:housenumber": "1", "addr:postcode": "84078", "addr:street": "Via Francesco Cammarota", "amenity": "hospital", "building": "yes", "building:levels": "11", "emergency": "yes", "name": "Ospedale San Luca", "phone": "+39 0974 7111111", "wheelchair": "yes"}}, {"name": "Guardia Medica", "latitude": 40.2322165, "longitude": 15.2704829, "source": "osm", "_tags": {"amenity": "hospital", "building": "yes", "name": "Guardia Medica"}}, {"name": "Casa di Cura Cobellis", "latitude": 40.231332, "longitude": 15.2428487, "source": "osm", "_tags": {"addr:city": "Vallo della Lucania", "addr:country": "IT", "addr:place": "Badia", "addr:postcode": "84078", "addr:province": "Salerno", "addr:street": "Contrada Badia", "amenity": "hospital", "building": "hospital", "building:levels": "5", "email": "info@clinicacobellis.it", "fax": "+39 0974 75042", "name": "Casa di Cura Cobellis", "phone": "+39 0974 75888", "website": "https://www.clinicacobellis.it/"}}, {"name": "", "latitude": 40.126488, "longitude": 15.76056, "source": "osm", "_tags": {"amenity": "hospital", "emergency": "yes", "healthcare": "hospital"}}, {"name": "Ospedale Domenico Lentini", "latitude": 40.0518302, "longitude": 15.8385086, "source": "osm", "_tags": {"amenity": "hospital", "emergency": "yes", "healthcare": "hospital", "name": "Ospedale Domenico Lentini"}}, {"name": "Ospedale di Villa d'Agri", "latitude": 40.361472, "longitude": 15.825685, "source": "osm", "_tags": {"addr:city": "Marsicovetere", "addr:postcode": "85050", "addr:street": "Viale San Pio da Pietrelcina", "amenity": "hospital", "emergency": "yes", "healthcare": "hospital", "healthcare:speciality": "general", "name": "Ospedale di Villa d'Agri", "operator": "ASP", "operator:type": "government", "phone": "+39 0975 312111", "website": "https://www.aspbasilicata.it/servizi/ospedale-di-villa-dagri"}}, {"name": "Ospedale di Cetraro \"Giovanni Iannelli\"", "latitude": 39.5307626, "longitude": 15.9190203, "source": "osm", "_tags": {"addr:city": "Cetraro", "addr:postcode": "87022", "addr:street": "Localit√† Testa", "amenity": "hospital", "emergency": "yes", "healthcare": "hospital", "healthcare:speciality": "general", "name": "Ospedale di Cetraro \"Giovanni Iannelli\""}}, {"name": "Tirrenia Hospital", "latitude": 39.6229486, "longitude": 15.8477823, "source": "osm", "_tags": {"addr:city": "Belvedere Marittimo", "addr:housenumber": "14", "addr:postcode": "87021", "addr:street": "Via Capo Tirone", "alt_name": "Ex Casa di Cura Tricarico", "amenity": "hospital", "email": "clinicservicesrl@gmail.com", "emergency": "yes", "healthcare": "hospital", "healthcare:speciality": "cardiology;internal;surgery", "name": "Tirrenia Hospital", "phone": "+39 0985 230770", "website": "https://www.tirreniahospital.it/"}}, {"name": "Distretto Santario Vallo della Lucania/Agropoli", "latitude": 40.343896, "longitude": 14.9970173, "source": "osm", "_tags": {"addr:city": "Agropoli", "addr:street": "Via Salvo D'Acquisto", "amenity": "hospital", "healthcare": "hospital", "name": "Distretto Santario Vallo della Lucania/Agropoli", "operator": "ASL", "operator:wikidata": "Q3631467", "operator:wikipedia": "it:Azienda sanitaria locale", "wheelchair": "yes"}}, {"name": "", "latitude": 40.3468094, "longitude": 14.9907592, "source": "osm", "_tags": {"amenity": "hospital", "healthcare": "hospital"}}, {"name": "Ospedale di Maratea", "latitude": 39.9975086, "longitude": 15.7190238, "source": "osm", "_tags": {"alt_name": "Presidio Ospedaliero di Maratea", "amenity": "hospital", "emergency": "yes", "healthcare": "hospital", "healthcare:speciality": "general", "name": "Ospedale di Maratea", "operator": "ASP Basilicata", "operator:type": "public", "phone": "+39 0971 310111", "website": "https://www.aspbasilicata.it/organizzazione/azienda/presidi-ospedalieri-distrettuali/ospedale-di-maratea/"}}, {"name": "Poliambulatorio di Scalea", "latitude": 39.8240541, "longitude": 15.7810042, "source": "osm", "_tags": {"amenity": "hospital", "healthcare": "hospital", "name": "Poliambulatorio di Scalea"}}, {"name": "Ospedale di Praia a Mare", "latitude": 39.917397, "longitude": 15.7799763, "source": "osm", "_tags": {"addr:city": "Praia a Mare", "addr:postcode": "87028", "addr:street": "Contrada Santo Stefano", "amenity": "hospital", "emergency": "yes", "healthcare": "hospital", "name": "Ospedale di Praia a Mare", "operator": "ASP Cosenza", "operator:type": "public", "phone": "0985704218"}}]