[{"name": "Hospital de Son Espases", "latitude": 39.6071613, "longitude": 2.6446596, "source": "osm", "_tags": {"amenity": "hospital", "healthcare": "hospital", "loc_name": "Son Espases", "name": "Hospital de Son Espases", "name:ca": "Hospital de Son Espases", "official_name": "Hospital Universitari de Son Espases", "operator": "Govern de les Illes Balears", "website": "http://www.hospitalsonespases.es", "wikidata": "Q5902974", "wikimedia_commons": "Category:Hospital de Son Espases", "wikipedia": "ca:Hospital Universitari Son Espases"}}, {"name": "Hospital de Son Llàtzer", "latitude": 39.5735805, "longitude": 2.7034719, "source": "osm", "_tags": {"amenity": "hospital", "building": "yes", "healthcare": "hospital", "name": "Hospital de Son Llàtzer", "name:ca": "Hospital de Son Llàtzer", "operator": "Govern de les Illes Balears", "wikidata": "Q5903125", "wikimedia_commons": "Category:Hospital de Son Llàtzer", "wikipedia": "es:Hospital de Son Llàtzer"}}, {"name": "Hospital de Caubet", "latitude": 39.6790892, "longitude": 2.6893309, "source": "osm", "_tags": {"amenity": "hospital", "healthcare": "hospital", "name": "Hospital de Caubet"}}, {"name": "Clínica Rotger", "latitude": 39.5755089, "longitude": 2.6468991, "source": "osm", "_tags": {"amenity": "hospital", "building": "yes", "healthcare": "hospital", "name": "Clínica Rotger", "name:ca": "Clínica Rotger", "wheelchair": "yes", "wikidata": "Q56582960"}}, {"name": "Sant Joan de Déu", "latitude": 39.5467558, "longitude": 2.6991154, "source": "osm", "_tags": {"amenity": "hospital", "healthcare": "hospital", "name": "Sant Joan de Déu", "name:ca": "Sant Joan de Déu", "name:es": "San Juan de Dios", "wikidata": "Q64442914", "wikimedia_commons": "Category:Hospital Sant Joan de Déu (Mallorca)"}}, {"name": "Quirónsalud Palmaplanas", "latitude": 39.5986794, "longitude": 2.6441824, "source": "osm", "_tags": {"amenity": "hospital", "emergency": "yes", "healthcare": "hospital", "name": "Quirónsalud Palmaplanas", "operator": "Quirónsalud", "operator:wikidata": "Q5886225", "wikidata": "Q87761475"}}, {"name": "Clínica Juaneda", "latitude": 39.5774356, "longitude": 2.6272395, "source": "osm", "_tags": {"amenity": "hospital", "check_date": "2024-11-20", "healthcare": "hospital", "name": "Clínica Juaneda", "wikidata": "Q87761466"}}, {"name": "hospital de Sant Joan de Déu", "latitude": 39.721074, "longitude": 2.9184661, "source": "osm", "_tags": {"amenity": "hospital", "healthcare": "hospital", "name": "hospital de Sant Joan de Déu"}}, {"name": "Hospital Comarcal d'Inca", "latitude": 39.7157693, "longitude": 2.9218168, "source": "osm", "_tags": {"addr:street": "Camí vell de Llubí", "amenity": "hospital", "emergency": "yes", "healthcare": "hospital", "name": "Hospital Comarcal d'Inca", "name:ca": "Hospital Comarcal d'Inca", "wheelchair": "yes", "wikidata": "Q388490", "wikimedia_commons": "Category:Hospital d'Inca", "wikipedia": "ca:Hospital Comarcal d'Inca"}}, {"name": "Quirón Son Verí", "latitude": 39.4906464, "longitude": 2.7405677, "source": "osm", "_tags": {"amenity": "hospital", "healthcare": "hospital", "name": "Quirón Son Verí", "phone": "+34 971443030"}}, {"name": "Policlínica Juaneda Miramar", "latitude": 39.5846662, "longitude": 2.6309844, "source": "osm", "_tags": {"amenity": "hospital", "healthcare": "hospital", "name": "Policlínica Juaneda Miramar"}}, {"name": "Cruz Roja", "latitude": 39.5841174, "longitude": 2.6534578, "source": "osm", "_tags": {"addr:city": "Palma", "addr:housenumber": "90", "addr:postcode": "07004", "addr:street": "Carrer Pons i Gallarza", "amenity": "hospital", "healthcare": "hospital", "name": "Cruz Roja", "operator": "Cruz Roja", "operator:type": "ngo", "operator:wikidata": "Q7178", "phone": "+34 971 75 14 45", "website": "http://www.hcrpalma.es"}}, {"name": "Psiquiàtric", "latitude": 39.5844038, "longitude": 2.6429822, "source": "osm", "_tags": {"amenity": "hospital", "healthcare": "hospital", "healthcare:speciality": "psychiatry", "name": "Psiquiàtric", "name:ca": "Psiquiàtric", "phone": "+34 871205000", "type": "multipolygon", "wikidata": "Q87761463"}}]