[{"name": "Hospital Obispo Polanco", "latitude": 40.3330986, "longitude": -1.107251, "source": "osm", "_tags": {"amenity": "hospital", "check_date": "2024-05-11", "emergency": "yes", "healthcare": "hospital", "name": "Hospital Obispo Polanco", "wheelchair": "yes"}}, {"name": "Hospital General", "latitude": 39.4884146, "longitude": -1.0893361, "source": "osm", "_tags": {"amenity": "hospital", "building": "yes", "emergency": "yes", "healthcare": "hospital", "name": "Hospital General"}}, {"name": "Hospital San Jose", "latitude": 40.3477068, "longitude": -1.1152782, "source": "osm", "_tags": {"amenity": "hospital", "building": "yes", "building:levels": "3", "designation": "Hospital San Jose", "name": "Hospital San Jose", "wikidata": "Q64576252"}}, {"name": "Centro de Rehabilitación San Juan de Dios", "latitude": 40.345359, "longitude": -1.1133155, "source": "osm", "_tags": {"amenity": "hospital", "building": "yes", "name": "Centro de Rehabilitación San Juan de Dios"}}, {"name": "", "latitude": 39.4883681, "longitude": -1.0894239, "source": "osm", "_tags": {"amenity": "clinic", "healthcare": "hospital"}}, {"name": "Centro de Salud Iniesta", "latitude": 39.4470942, "longitude": -1.7530931, "source": "osm", "_tags": {"addr:city": "Iniesta", "addr:housenumber": "9", "addr:postcode": "16235", "addr:street": "Calle Era Pareja", "amenity": "clinic", "healthcare": "hospital", "name": "Centro de Salud Iniesta", "phone": "+34 967 491098", "website": "https://sanidad.castillalamancha.es/ciudadanos/centros/iniesta#zoom=15&lat=39.44736&lon=-1.7526&layers=BT"}}, {"name": "", "latitude": 39.4884146, "longitude": -1.0893361, "source": "osm", "_tags": {"amenity": "hospital", "healthcare": "hospital", "type": "multipolygon"}}]