[{"name": "Pronto Soccorso Ospedale \"San Francesco\"", "latitude": 40.3244306, "longitude": 9.3158377, "source": "osm", "_tags": {"addr:city": "Nuoro", "amenity": "hospital", "emergency": "yes", "healthcare": "hospital", "name": "Pronto Soccorso Ospedale \"San Francesco\""}}, {"name": "", "latitude": 39.8773179, "longitude": 9.5487503, "source": "osm", "_tags": {"addr:city": "Lanusei", "amenity": "hospital", "emergency": "yes", "healthcare": "hospital", "operator": "Pronto Soccorso Ospedale \"Nostra Signora della Mercede\""}}, {"name": "Pronto Soccorso Ospedale \"San Giuseppe\"", "latitude": 39.7425766, "longitude": 9.1096328, "source": "osm", "_tags": {"addr:city": "Isili", "amenity": "hospital", "emergency": "yes", "healthcare": "hospital", "name": "Pronto Soccorso Ospedale \"San Giuseppe\""}}, {"name": "Ospedale San Francesco", "latitude": 40.324826, "longitude": 9.31647, "source": "osm", "_tags": {"addr:city": "Nuoro", "addr:postcode": "08100", "addr:street": "Via Salvatore Mannironi", "amenity": "hospital", "emergency": "yes", "healthcare": "hospital", "name": "Ospedale San Francesco", "phone": "+39 0784 240237", "website": "http://www.aslnuoro.it/index.php?xsl=21&s=3&v=9&c=625&esn=Primo+piano&na=1&n=50"}}, {"name": "Ospedale Cesare Zonchello", "latitude": 40.3217355, "longitude": 9.3181166, "source": "osm", "_tags": {"amenity": "hospital", "check_date": "2025-01-04", "emergency": "no", "healthcare": "hospital", "leisure": "park", "name": "Ospedale Cesare Zonchello", "phone": "+39 0784 240237", "website": "http://www.aslnuoro.it/index.php?xsl=21&s=3&v=9&c=626&esn=Primo+piano&na=1&n=50"}}, {"name": "Ospedale San Camillo", "latitude": 40.0215139, "longitude": 9.0999124, "source": "osm", "_tags": {"addr:city": "Sorgono", "amenity": "hospital", "building": "yes", "emergency": "yes", "healthcare": "hospital", "name": "Ospedale San Camillo"}}, {"name": "Ospedale Nostra Signora della Mercede", "latitude": 39.8770534, "longitude": 9.549052, "source": "osm", "_tags": {"amenity": "hospital", "name": "Ospedale Nostra Signora della Mercede"}}, {"name": "", "latitude": 39.9269594, "longitude": 9.673905, "source": "osm", "_tags": {"amenity": "hospital", "building": "yes", "emergency": "yes", "healthcare": "hospital"}}, {"name": "", "latitude": 39.9269938, "longitude": 9.6739524, "source": "osm", "_tags": {"amenity": "hospital", "healthcare": "hospital"}}, {"name": "", "latitude": 39.6981387, "longitude": 9.5778894, "source": "osm", "_tags": {"addr:city": "Tertenia", "addr:postcode": "08047", "addr:street": "Via Casula", "amenity": "doctors", "building": "yes", "healthcare": "hospital"}}, {"name": "", "latitude": 39.7427424, "longitude": 9.1101941, "source": "osm", "_tags": {"amenity": "hospital", "healthcare": "hospital"}}, {"name": "", "latitude": 40.0214416, "longitude": 9.0999068, "source": "osm", "_tags": {"amenity": "hospital", "emergency": "yes", "healthcare": "hospital"}}]