[{"name": "Karacabey Eski Devlet Hastanesi", "latitude": 40.2147015, "longitude": 28.3545438, "source": "osm", "_tags": {"amenity": "hospital", "emergency": "yes", "healthcare": "hospital", "name": "Karacabey Eski Devlet Hastanesi"}}, {"name": "Dörtçelik Çocuk Hastanesi", "latitude": 40.2185237, "longitude": 28.9207083, "source": "osm", "_tags": {"amenity": "hospital", "healthcare": "hospital", "name": "Dörtçelik Çocuk Hastanesi", "phone": "+90 224 275 20 00", "social_facility:for": "child", "website": "http://www.bch.gov.tr"}}, {"name": "Susurluk Eski Devlet Hastanesi", "latitude": 39.9162893, "longitude": 28.1512192, "source": "osm", "_tags": {"amenity": "hospital", "healthcare": "hospital", "name": "Susurluk Eski Devlet Hastanesi", "operator": "Sağlık Bakanlığı", "operator:type": "government", "operator:wikidata": "Q4294365"}}, {"name": "Mustafakemalpaşa Devlet Hastanesi", "latitude": 40.0290772, "longitude": 28.3633554, "source": "osm", "_tags": {"amenity": "hospital", "emergency": "yes", "healthcare": "hospital", "name": "Mustafakemalpaşa Devlet Hastanesi", "operator": "Sağlık Bakanlığı", "operator:type": "government", "operator:wikidata": "Q4294365", "operator:wikipedia": "tr:Türkiye Cumhuriyeti Sağlık Bakanlığı"}}, {"name": "Karacabey Devlet Hastanesi", "latitude": 40.2082437, "longitude": 28.3476694, "source": "osm", "_tags": {"addr:city": "Karacabey/Bursa", "addr:district": "Karacabey", "addr:housenumber": "2", "addr:neighbourhood": "Mecidiye Mh.", "addr:postcode": "16700", "addr:street": "Şifa Sk.", "amenity": "hospital", "emergency": "yes", "healthcare": "hospital", "healthcare:speciality": "general", "name": "Karacabey Devlet Hastanesi", "operator": "Sağlık Bakanlığı", "operator:type": "government", "operator:wikidata": "Q4294365", "operator:wikipedia": "tr:Türkiye Cumhuriyeti Sağlık Bakanlığı"}}, {"name": "Tıp Fakültesi", "latitude": 40.2216233, "longitude": 28.8697988, "source": "osm", "_tags": {"amenity": "hospital", "emergency": "yes", "healthcare": "hospital", "name": "Tıp Fakültesi", "name:en": "Med School Hospital"}}, {"name": "Mudanya Devlet Hastanesi", "latitude": 40.3231137, "longitude": 28.9293027, "source": "osm", "_tags": {"amenity": "hospital", "healthcare": "hospital", "name": "Mudanya Devlet Hastanesi"}}, {"name": "Kepsut Devlet Hastanesi", "latitude": 39.688535, "longitude": 28.1572106, "source": "osm", "_tags": {"amenity": "hospital", "emergency": "yes", "healthcare": "hospital", "name": "Kepsut Devlet Hastanesi", "operator": "Sağlık Bakanlığı", "operator:wikidata": "Q4294365"}}, {"name": "Bursa Şehir Hastanesi", "latitude": 40.2689006, "longitude": 28.9090974, "source": "osm", "_tags": {"addr:city": "Bursa", "addr:district": "Nilüfer", "addr:housenumber": "No : 1", "addr:neighbourhood": "Doğanköy Mahallesi", "addr:postcode": "16250", "addr:street": "Şifa Caddesi", "amenity": "hospital", "check_date": "2025-03-01", "email": "bursasehir@saglik.gov.tr", "emergency": "yes", "healthcare": "hospital", "name": "Bursa Şehir Hastanesi", "operator": "Sağlık Bakanlığı", "operator:type": "government", "operator:wikidata": "Q4294365", "phone": "+90 (224) 975 00 00", "wikidata": "Q64412760"}}, {"name": "Dursunbey Devlet Hastanesi", "latitude": 39.5920245, "longitude": 28.6312521, "source": "osm", "_tags": {"addr:city": "Balıkesir", "addr:district": "Dursunbey", "amenity": "hospital", "emergency": "yes", "healthcare": "hospital", "name": "Dursunbey Devlet Hastanesi", "phone": "+90 266 662 10 40", "website": "https://dursunbeydh.saglik.gov.tr/"}}, {"name": "Bandırma Ağız ve Diş Sağlığı Merkezi", "latitude": 40.3408647, "longitude": 27.9688634, "source": "osm", "_tags": {"addr:district": "Bandırma", "amenity": "hospital", "healthcare": "hospital", "healthcare:speciality": "dentistry", "name": "Bandırma Ağız ve Diş Sağlığı Merkezi", "wikidata": "Q30329627"}}, {"name": "Özel Bandırma Royal Hastanesi", "latitude": 40.3407129, "longitude": 27.9662106, "source": "osm", "_tags": {"addr:city": "Balıkesir", "addr:district": "Bandırma", "addr:housenumber": "4", "addr:neighbourhood": "Paşakonak Mahallesi", "addr:postcode": "10200", "addr:street": "Sağlık Caddesi", "amenity": "hospital", "building": "hospital", "emergency": "yes", "healthcare": "hospital", "name": "Özel Bandırma Royal Hastanesi", "roof:colour": "#a1634f", "roof:material": "roof_tiles", "roof:shape": "hipped", "website": "https://www.royalhastanesi.com.tr/", "wikidata": "Q30329703"}}, {"name": "Yüksek Güvenlikli Adli Psikiyatri Hastanesi", "latitude": 40.2620206, "longitude": 28.9040042, "source": "osm", "_tags": {"amenity": "hospital", "healthcare": "hospital", "healthcare:speciality": "psychiatry", "name": "Yüksek Güvenlikli Adli Psikiyatri Hastanesi"}}, {"name": "Bursa Yüksek İhtisas Eğitim ve Araştırma Hastanesi", "latitude": 40.2184925, "longitude": 28.8238602, "source": "osm", "_tags": {"amenity": "hospital", "healthcare": "hospital", "name": "Bursa Yüksek İhtisas Eğitim ve Araştırma Hastanesi"}}, {"name": "Manyas Devlet Hastanesi", "latitude": 40.0425577, "longitude": 27.9721543, "source": "osm", "_tags": {"amenity": "hospital", "name": "Manyas Devlet Hastanesi", "wikidata": "Q31156663"}}, {"name": "", "latitude": 40.2147257, "longitude": 28.3545828, "source": "osm", "_tags": {"amenity": "hospital", "building": "yes", "healthcare": "hospital"}}, {"name": "", "latitude": 40.2145912, "longitude": 28.355047, "source": "osm", "_tags": {"amenity": "hospital", "building": "yes", "healthcare": "hospital"}}, {"name": "", "latitude": 40.2145287, "longitude": 28.3541181, "source": "osm", "_tags": {"amenity": "hospital", "building": "yes", "healthcare": "hospital"}}, {"name": "Susurluk Devlet Hastanesi", "latitude": 39.9010964, "longitude": 28.1602385, "source": "osm", "_tags": {"amenity": "hospital", "emergency": "yes", "healthcare": "hospital", "name": "Susurluk Devlet Hastanesi", "operator": "Sağlık Bakanlığı", "operator:type": "government", "operator:wikidata": "Q4294365"}}, {"name": "Balıkesir Üniversitesi Sağlık Uygulama ve Araştırma Hastanesi", "latitude": 39.5489207, "longitude": 27.9999527, "source": "osm", "_tags": {"addr:city": "Balıkesir", "addr:postcode": "10145", "amenity": "hospital", "emergency": "yes", "healthcare:speciality": "general;acupuncture;cardiology;neurology;internal;surgery;dermatology;emergency;psychiatry;radiology", "name": "Balıkesir Üniversitesi Sağlık Uygulama ve Araştırma Hastanesi", "operator": "Balıkesir Üniversitesi", "phone": "+90 266 612 10 10", "website": "http://hastane.balikesir.edu.tr/"}}, {"name": "Uludağ Üniversitesi Hastanesi", "latitude": 40.2216282, "longitude": 28.8698127, "source": "osm", "_tags": {"amenity": "hospital", "healthcare": "hospital", "name": "Uludağ Üniversitesi Hastanesi", "name:en": "Uludag University Hospital", "type": "multipolygon"}}]