[{"name": "ÇOMÜ Tıp Fakültesi Hastanesi", "latitude": 40.1154569, "longitude": 26.4135683, "source": "osm", "_tags": {"amenity": "hospital", "emergency": "yes", "healthcare": "hospital", "name": "ÇOMÜ Tıp Fakültesi Hastanesi", "name:el": "Πανεπιστημιακό Νοσοκομείο του Τσανάκκαλε", "name:en": "ÇOMÜ Medical Faculty Hospital", "name:tr": "ÇOMÜ Tıp Fakültesi Hastanesi", "wikidata": "Q5013386", "wikipedia": "en:COMU Hospital"}}, {"name": "Askeri Hastane", "latitude": 40.1588118, "longitude": 26.409384, "source": "osm", "_tags": {"amenity": "hospital", "healthcare": "hospital", "name": "Askeri Hastane", "name:en": "Military Hospital"}}, {"name": "Edremit Narlı Sağlık Evi", "latitude": 39.5775418, "longitude": 26.6780777, "source": "osm", "_tags": {"amenity": "hospital", "name": "Edremit Narlı Sağlık Evi"}}, {"name": "Çanakkale Devlet Hastanesi", "latitude": 40.1493119, "longitude": 26.4079658, "source": "osm", "_tags": {"addr:city": "Çanakkale", "amenity": "hospital", "emergency": "yes", "healthcare": "hospital", "name": "Çanakkale Devlet Hastanesi", "name:el": "Κρατικό Νοσοκομείο Τσανάκαλε", "name:en": "Çanakkale State Hospital", "name:tr": "Çanakkale Devlet Hastanesi", "wikidata": "Q133484313"}}, {"name": "Çanakkale Devlet Hastanesi", "latitude": 40.1586029, "longitude": 26.4201983, "source": "osm", "_tags": {"addr:city": "Çanakkale", "amenity": "hospital", "emergency": "yes", "healthcare": "hospital", "name": "Çanakkale Devlet Hastanesi", "name:en": "Çanakkale State Hospital"}}, {"name": "Çanakkale 18 Mart Üniversitesi Araştırma ve Uygulama Hastanesi", "latitude": 40.0961273, "longitude": 26.390701, "source": "osm", "_tags": {"amenity": "hospital", "healthcare": "hospital", "name": "Çanakkale 18 Mart Üniversitesi Araştırma ve Uygulama Hastanesi", "name:en": "Çanakkale 18 March University Research and Practice Hospital"}}, {"name": "Eceabat Aile Sağlığı Merkezi", "latitude": 40.1814383, "longitude": 26.3587834, "source": "osm", "_tags": {"amenity": "hospital", "building": "yes", "name": "Eceabat Aile Sağlığı Merkezi"}}, {"name": "Atlas Tıp Merkez", "latitude": 40.1459213, "longitude": 26.4063022, "source": "osm", "_tags": {"addr:city": "Çanakkale", "addr:country": "TR", "addr:housenumber": "23", "addr:postcode": "17000", "addr:province": "Çanakkale", "addr:street": "Eski Havra Sokak", "amenity": "hospital", "building": "hospital", "healthcare": "hospital", "name": "Atlas Tıp Merkez", "phone": "(0286) 213 44 55", "website": "https://atlastip.com.tr"}}, {"name": "Çanakkale Mehmet Akif Ersoy Çanakkale Devlet Hastanesi", "latitude": 40.0989146, "longitude": 26.417277, "source": "osm", "_tags": {"addr:city": "Çanakkale", "amenity": "hospital", "emergency": "yes", "healthcare": "hospital", "name": "Çanakkale Mehmet Akif Ersoy Çanakkale Devlet Hastanesi", "phone": "+90 286 217 10 98", "website": "https://canakkaleism.saglik.gov.tr/"}}, {"name": "Bayramiç Devlet Hastanesi", "latitude": 39.8110413, "longitude": 26.6123621, "source": "osm", "_tags": {"amenity": "hospital", "emergency": "yes", "healthcare": "hospital", "name": "Bayramiç Devlet Hastanesi"}}, {"name": "Ezine Devlet Hastanesi", "latitude": 39.7762979, "longitude": 26.3508716, "source": "osm", "_tags": {"amenity": "hospital", "healthcare": "hospital", "name": "Ezine Devlet Hastanesi"}}, {"name": "Ezine Devlet Hastanesi", "latitude": 39.7761381, "longitude": 26.3511004, "source": "osm", "_tags": {"amenity": "hospital", "healthcare": "hospital", "name": "Ezine Devlet Hastanesi"}}, {"name": "Ezine Devlet Hastanesi", "latitude": 39.7759248, "longitude": 26.3513912, "source": "osm", "_tags": {"amenity": "hospital", "healthcare": "hospital", "name": "Ezine Devlet Hastanesi"}}, {"name": "Ezine Devlet Hastanesi", "latitude": 39.7758409, "longitude": 26.3507328, "source": "osm", "_tags": {"amenity": "hospital", "healthcare": "hospital", "name": "Ezine Devlet Hastanesi"}}, {"name": "Ezine Devlet Hastanesi", "latitude": 39.7757651, "longitude": 26.3510973, "source": "osm", "_tags": {"amenity": "hospital", "healthcare": "hospital", "name": "Ezine Devlet Hastanesi"}}, {"name": "Ezine Devlet Hastanesi", "latitude": 39.7759409, "longitude": 26.3509669, "source": "osm", "_tags": {"amenity": "hospital", "healthcare": "hospital", "name": "Ezine Devlet Hastanesi"}}, {"name": "Ezine Devlet Hastanesi", "latitude": 39.7756183, "longitude": 26.3513387, "source": "osm", "_tags": {"amenity": "hospital", "healthcare": "hospital", "name": "Ezine Devlet Hastanesi"}}, {"name": "Lapseki Devlet Hastanesi", "latitude": 40.3304079, "longitude": 26.6634029, "source": "osm", "_tags": {"amenity": "hospital", "building": "hospital", "healthcare": "hospital", "name": "Lapseki Devlet Hastanesi"}}, {"name": "Balıkesir Edremit 19 No'lu Sadi Topluoğlu Aile Sağlığı Merkezi", "latitude": 39.5809046, "longitude": 26.8638238, "source": "osm", "_tags": {"amenity": "hospital", "building": "hospital", "name": "Balıkesir Edremit 19 No'lu Sadi Topluoğlu Aile Sağlığı Merkezi"}}, {"name": "Edremit 5 Nolu Güre Sabriye Çelik Aile Sağlığı Merkezi", "latitude": 39.6087651, "longitude": 26.8923502, "source": "osm", "_tags": {"amenity": "hospital", "building": "hospital", "healthcare": "hospital", "name": "Edremit 5 Nolu Güre Sabriye Çelik Aile Sağlığı Merkezi"}}, {"name": "Anadolu Hastanesi (Medical Park)", "latitude": 40.1308281, "longitude": 26.4118183, "source": "osm", "_tags": {"amenity": "hospital", "building": "hospital", "emergency": "yes", "healthcare": "hospital", "name": "Anadolu Hastanesi (Medical Park)"}}, {"name": "Mehmet Akif Ersoy Devlet Hastanesi", "latitude": 40.0990278, "longitude": 26.4170682, "source": "osm", "_tags": {"building": "hospital", "healthcare": "hospital", "name": "Mehmet Akif Ersoy Devlet Hastanesi", "operator": "Sağlık Bakanlığı", "operator:type": "government", "operator:wikidata": "Q4294365"}}, {"name": "Gelibolu Devlet Hastanesi", "latitude": 40.4181476, "longitude": 26.6753063, "source": "osm", "_tags": {"amenity": "hospital", "emergency": "yes", "healthcare": "hospital", "name": "Gelibolu Devlet Hastanesi", "operator": "Sağlık Bakanlığı", "operator:type": "government", "operator:wikidata": "Q4294365"}}, {"name": "Gelibolu Devlet Hastanesi Ek Binası", "latitude": 40.4162524, "longitude": 26.6764928, "source": "osm", "_tags": {"addr:city": "Gelibolu", "addr:postcode": "17500", "amenity": "hospital", "healthcare": "hospital", "name": "Gelibolu Devlet Hastanesi Ek Binası", "old_name": "Gelibolu Askeri Hastanesi", "operator": "Sağlık Bakanlığı", "operator:type": "government", "operator:wikidata": "Q4294365"}}]