[{"name": "Urgencias 'Hospital Nuestra Señor de la Montaña'", "latitude": 39.473037, "longitude": -6.3779559, "source": "osm", "_tags": {"amenity": "hospital", "healthcare": "hospital", "name": "Urgencias 'Hospital Nuestra Señor de la Montaña'", "wheelchair": "yes"}}, {"name": "Hospital de Día", "latitude": 39.4762476, "longitude": -6.3287364, "source": "osm", "_tags": {"amenity": "hospital", "healthcare": "hospital", "name": "Hospital de Día", "operator": "Servicio Extremeño de Salud (SES)"}}, {"name": "Urgencias Hospital Universitario de Cáceres", "latitude": 39.476676, "longitude": -6.3285653, "source": "osm", "_tags": {"amenity": "hospital", "emergency": "yes", "healthcare": "hospital", "name": "Urgencias Hospital Universitario de Cáceres", "operator": "Servicio Extremeño de SAlud (SES)"}}, {"name": "Centro de Salud Zona Centro", "latitude": 39.4731666, "longitude": -6.3772066, "source": "osm", "_tags": {"amenity": "hospital", "healthcare": "hospital", "name": "Centro de Salud Zona Centro"}}, {"name": "DESA", "latitude": 40.2378569, "longitude": -6.596159, "source": "osm", "_tags": {"amenity": "hospital", "healthcare": "hospital", "name": "DESA"}}, {"name": "Hospital Nuestra Señora de la Montaña", "latitude": 39.4728402, "longitude": -6.377523, "source": "osm", "_tags": {"amenity": "hospital", "building": "yes", "healthcare": "hospital", "name": "Hospital Nuestra Señora de la Montaña", "operator": "Junta de Extremadura"}}, {"name": "Hospital San Pedro de Alcántara", "latitude": 39.4655559, "longitude": -6.368213, "source": "osm", "_tags": {"addr:postcode": "10003", "addr:street": "Ronda de San Francisco", "amenity": "hospital", "building": "yes", "emergency": "yes", "healthcare": "hospital", "name": "Hospital San Pedro de Alcántara", "network": "Servicio Extremeño de Salud", "network:short": "SES", "operator": "Junta de Extremadura", "operator:type": "public", "wikidata": "Q30254264"}}, {"name": "Clínica Quirúrgica Cacereña San Francisco", "latitude": 39.4688406, "longitude": -6.3682558, "source": "osm", "_tags": {"amenity": "hospital", "building": "yes", "name": "Clínica Quirúrgica Cacereña San Francisco", "phone": "+34 927 01 22 40", "website": "https://www.cqcsanfrancisco.es/", "wheelchair": "yes", "wikidata": "Q87761662"}}, {"name": "Centro de Salud San Antonio", "latitude": 39.4557116, "longitude": -6.3772261, "source": "osm", "_tags": {"addr:city": "Cáceres", "addr:housenumber": "1", "addr:postcode": "10005", "addr:street": "Calle Juan Solano Pedrero", "building": "hospital", "healthcare": "hospital", "name": "Centro de Salud San Antonio"}}, {"name": "Caurium", "latitude": 39.988912, "longitude": -6.5306565, "source": "osm", "_tags": {"addr:city": "Coria", "addr:housenumber": "1", "addr:postcode": "10800", "addr:street": "Calle Brasil", "amenity": "hospital", "building:levels": "3", "healthcare": "hospital", "name": "Caurium"}}, {"name": "Ciudad de la Salud y la Innovación", "latitude": 39.4754716, "longitude": -6.3301833, "source": "osm", "_tags": {"amenity": "hospital", "healthcare": "hospital", "name": "Ciudad de la Salud y la Innovación"}}, {"name": "Hospital Quirónsalud Cáceres", "latitude": 39.4822134, "longitude": -6.3636873, "source": "osm", "_tags": {"addr:city": "Cáceres", "addr:country": "ES", "addr:housenumber": "5", "addr:street": "Avenida de la Universidad", "amenity": "hospital", "building": "hospital", "name": "Hospital Quirónsalud Cáceres", "phone": "+34 927181360", "website": "https://www.quironsalud.com/caceres", "wikidata": "Q87761660"}}, {"name": "Hospital Ciudad de Coria", "latitude": 39.9910301, "longitude": -6.5423893, "source": "osm", "_tags": {"addr:city": "Coria", "addr:housenumber": "75", "addr:postcode": "10800", "addr:street": "Calle Cervantes", "amenity": "hospital", "emergency": "yes", "healthcare": "hospital", "image": "https://commons.wikimedia.org/wiki/File:20221105_180937_Hospital_Coria.jpg", "name": "Hospital Ciudad de Coria", "network": "Serviio Extremeño de Salud", "network:short": "SES", "operator:type": "public", "wikidata": "Q87761649", "wikimedia_commons": "File:20221105_180937_Hospital_Coria.jpg"}}, {"name": "Hospital Psiquiátrico de Plasencia", "latitude": 40.0035362, "longitude": -6.1108636, "source": "osm", "_tags": {"amenity": "hospital", "healthcare": "hospital", "healthcare:speciality": "psychiatry", "name": "Hospital Psiquiátrico de Plasencia"}}, {"name": "Hospital Virgen del Puerto de Plasencia", "latitude": 40.0491214, "longitude": -6.0873847, "source": "osm", "_tags": {"amenity": "hospital", "emergency": "yes", "healthcare": "hospital", "name": "Hospital Virgen del Puerto de Plasencia", "operator:type": "public"}}]