[{"name": "Ospedale \"Sacro Cuore\"", "latitude": 40.0564461, "longitude": 18.0151121, "source": "osm", "_tags": {"amenity": "hospital", "emergency": "yes", "name": "Ospedale \"Sacro Cuore\""}}, {"name": "Pronto Soccorso Ospedale Santa Caterina Novella", "latitude": 40.1759983, "longitude": 18.1584471, "source": "osm", "_tags": {"addr:city": "Galatina", "addr:street": "Via Roma", "amenity": "hospital", "emergency": "yes", "healthcare": "hospital", "level": "0", "name": "Pronto Soccorso Ospedale Santa Caterina Novella"}}, {"name": "Ospedale Santa Caterina Novella", "latitude": 40.1761025, "longitude": 18.1576966, "source": "osm", "_tags": {"amenity": "hospital", "emergency": "yes", "name": "Ospedale Santa Caterina Novella"}}, {"name": "Azienda Ospedaliera Cardinale Giovanni Panico", "latitude": 39.9361775, "longitude": 18.356219, "source": "osm", "_tags": {"amenity": "hospital", "name": "Azienda Ospedaliera Cardinale Giovanni Panico", "url": "https://www.piafondazionepanico.it/", "wikidata": "Q51787510"}}, {"name": "Casa di Betania Onlus", "latitude": 39.9371884, "longitude": 18.35859, "source": "osm", "_tags": {"amenity": "hospital", "name": "Casa di Betania Onlus", "website": "https://www.piafondazionepanico.it/hospice"}}, {"name": "Ospedale San Giuseppe da Copertino", "latitude": 40.2784532, "longitude": 18.047313, "source": "osm", "_tags": {"amenity": "hospital", "emergency": "yes", "healthcare": "hospital", "name": "Ospedale San Giuseppe da Copertino", "source": "Bing"}}, {"name": "Ospedale A. Galateo Di San Cesario", "latitude": 40.3052026, "longitude": 18.1575632, "source": "osm", "_tags": {"amenity": "hospital", "name": "Ospedale A. Galateo Di San Cesario"}}, {"name": "Vito Fazzi", "latitude": 40.3296626, "longitude": 18.1586742, "source": "osm", "_tags": {"amenity": "hospital", "emergency": "yes", "name": "Vito Fazzi", "wikidata": "Q43329695"}}, {"name": "ASL Lecce Distretto Socio Sanitario di Maglie", "latitude": 40.1203976, "longitude": 18.2931553, "source": "osm", "_tags": {"amenity": "hospital", "name": "ASL Lecce Distretto Socio Sanitario di Maglie", "website": "https://www.sanita.puglia.it/web/asl-lecce/distretti-socio-sanitari_det/-/journal_content/56/25176/distretto-socio-sanitario-di-maglie"}}, {"name": "", "latitude": 40.0585505, "longitude": 18.3739003, "source": "osm", "_tags": {"amenity": "hospital"}}, {"name": "Ospedale Civile Giuseppe Sambiasi", "latitude": 40.1714384, "longitude": 18.0351235, "source": "osm", "_tags": {"amenity": "hospital", "healthcare": "hospital", "name": "Ospedale Civile Giuseppe Sambiasi", "wheelchair": "yes"}}, {"name": "ASL Lecce", "latitude": 40.3475119, "longitude": 18.1778099, "source": "osm", "_tags": {"amenity": "hospital", "check_date": "2024-08-20", "healthcare": "hospital", "name": "ASL Lecce", "operator": "ASL", "operator:type": "public", "operator:wikidata": "Q3631467"}}, {"name": "Presidio Territoriale di Assistenza ASL LE", "latitude": 40.4029132, "longitude": 18.0128256, "source": "osm", "_tags": {"amenity": "hospital", "healthcare": "hospital", "name": "Presidio Territoriale di Assistenza ASL LE"}}, {"name": "Ospedale Ignazio Veris Delli Ponti", "latitude": 40.0940398, "longitude": 18.302025, "source": "osm", "_tags": {"amenity": "hospital", "name": "Ospedale Ignazio Veris Delli Ponti", "type": "multipolygon"}}, {"name": "Ospedale Civile \"Francesco Ferrari\"", "latitude": 40.0182339, "longitude": 18.1565612, "source": "osm", "_tags": {"amenity": "hospital", "emergency": "yes", "name": "Ospedale Civile \"Francesco Ferrari\"", "type": "multipolygon"}}, {"name": "Ospedale Sacro Cuore", "latitude": 40.0564748, "longitude": 18.0153001, "source": "osm", "_tags": {"amenity": "hospital", "emergency": "yes", "healthcare": "hospital", "name": "Ospedale Sacro Cuore", "type": "multipolygon"}}]