[{"name": "Ιατρείο Αχαράβης", "latitude": 39.790742, "longitude": 19.8155635, "source": "osm", "_tags": {"amenity": "hospital", "healthcare": "hospital", "name": "Ιατρείο Αχαράβης", "name:el": "Ιατρείο Αχαράβης", "phone": "+ 30 26630 64444"}}, {"name": "Περιφερειακό Ιατρείο Μαθρακίου", "latitude": 39.7763714, "longitude": 19.5178426, "source": "osm", "_tags": {"amenity": "hospital", "building": "yes", "healthcare": "hospital", "name": "Περιφερειακό Ιατρείο Μαθρακίου", "name:el": "Περιφερειακό Ιατρείο Μαθρακίου", "name:en": "Regional Medical Center of Mathraki", "phone": "+30 2663 071676", "roof:colour": "maroon"}}, {"name": "Περιφερειακό Ιατρείο Οθωνών", "latitude": 39.8429037, "longitude": 19.4072029, "source": "osm", "_tags": {"amenity": "hospital", "building": "yes", "name": "Περιφερειακό Ιατρείο Οθωνών", "phone": "+30 2663 071550"}}, {"name": "", "latitude": 39.7907398, "longitude": 19.8155425, "source": "osm", "_tags": {"amenity": "hospital", "healthcare": "hospital"}}, {"name": "Spitali i Himarës", "latitude": 40.1020113, "longitude": 19.7446967, "source": "osm", "_tags": {"amenity": "hospital", "barrier": "fence", "fixme": "border approximate", "healthcare": "hospital", "name": "Spitali i Himarës"}}, {"name": "Γενικό Νοσοκομείο Κέρκυρας", "latitude": 39.6436277, "longitude": 19.8508036, "source": "osm", "_tags": {"addr:place": "Κοντόκαλι", "addr:postcode": "49100", "amenity": "hospital", "email": "contact@gnkerkyras.gr", "emergency": "yes", "healthcare": "hospital", "healthcare:speciality": "general;psychiatry;paediatrics;dentistry;ophthalmology;orthodontics;orthopaedics;gynaecology;emergency;intensive", "image": "https://www.intrakat.gr/wp-content/uploads/2010/04/130131_HOS_6334-600x400.jpg", "internet_access": "yes", "internet_access:ssid": "gn_kerkyras", "name": "Γενικό Νοσοκομείο Κέρκυρας", "name:el": "Γενικό Νοσοκομείο Κέρκυρας", "name:en": "General Hospital of Corfu", "operator": "Εθνικό Σύστημα Υγείας", "operator:type": "government", "phone": "+302661360400", "website": "gnkerkyras.gr", "wheelchair": "yes", "wikidata": "Q21626760"}}, {"name": "Γενικό Νοσοκομείο Κέρκυρας", "latitude": 39.6436277, "longitude": 19.8508036, "source": "osm", "_tags": {"addr:place": "Κοντόκαλι", "addr:postcode": "49100", "amenity": "hospital", "email": "contact@gnkerkyras.gr", "emergency": "yes", "healthcare": "hospital", "healthcare:speciality": "general;psychiatry;paediatrics;dentistry;ophthalmology;orthodontics;orthopaedics;gynaecology;emergency;intensive", "image": "https://www.intrakat.gr/wp-content/uploads/2010/04/130131_HOS_6334-600x400.jpg", "internet_access": "yes", "internet_access:ssid": "gn_kerkyras", "name": "Γενικό Νοσοκομείο Κέρκυρας", "name:el": "Γενικό Νοσοκομείο Κέρκυρας", "name:en": "General Hospital of Corfu", "operator": "Εθνικό Σύστημα Υγείας", "operator:type": "government", "phone": "+302661360400", "site": "hospital", "type": "site", "website": "gnkerkyras.gr", "wheelchair": "yes"}}]