[{"name": "Atatürk Devlet Hastanesi Ek Hizmet Binası", "latitude": 39.6411922, "longitude": 27.8825996, "source": "osm", "_tags": {"amenity": "hospital", "healthcare": "hospital", "name": "Atatürk Devlet Hastanesi Ek Hizmet Binası"}}, {"name": "Balıkesir Devlet Hastanesi Turgut Solak Hizmet Binası", "latitude": 39.6450003, "longitude": 27.8753345, "source": "osm", "_tags": {"addr:city": "Balıkesir", "addr:district": "Karesi", "addr:neighbourhood": "Dinkçiler Mahallesi", "addr:postcode": "10010", "addr:street": "Ali Hikmet Paşa Caddesi", "amenity": "hospital", "healthcare": "hospital", "name": "Balıkesir Devlet Hastanesi Turgut Solak Hizmet Binası"}}, {"name": "Atatürk Devlet Hastanesi Hemodiyaliz Ünitesi", "latitude": 39.6414673, "longitude": 27.8829032, "source": "osm", "_tags": {"amenity": "hospital", "healthcare": "hospital", "name": "Atatürk Devlet Hastanesi Hemodiyaliz Ünitesi"}}, {"name": "Ortaoba Köyü Sağlık Evi", "latitude": 39.6282828, "longitude": 26.9856043, "source": "osm", "_tags": {"amenity": "hospital", "healthcare": "hospital", "name": "Ortaoba Köyü Sağlık Evi"}}, {"name": "Balıkesir Devlet Hastanesi", "latitude": 39.6539222, "longitude": 27.8920989, "source": "osm", "_tags": {"addr:city": "Balıkesir", "addr:district": "Karesi", "addr:neighbourhood": "Atatürk Mah.", "addr:street": "Turgut Reis Caddesi", "amenity": "hospital", "emergency": "yes", "healthcare": "hospital", "name": "Balıkesir Devlet Hastanesi", "operator": "Sağlık Bakanlığı", "operator:type": "government", "operator:wikidata": "Q4294365", "phone": "+90 266 245 9020", "website": "https://balikesirdh.saglik.gov.tr/"}}, {"name": "Havran Devlet Hastanesi", "latitude": 39.5622903, "longitude": 27.0979997, "source": "osm", "_tags": {"amenity": "hospital", "healthcare": "hospital", "name": "Havran Devlet Hastanesi"}}, {"name": "Havran İlçe Devlet Hastanesi", "latitude": 39.5517858, "longitude": 27.0970224, "source": "osm", "_tags": {"addr:city": "Balıkesir", "addr:district": "Havran", "addr:neighbourhood": "Mescit Mahallesi", "addr:postcode": "10560", "addr:street": "293. Sokak", "amenity": "hospital", "email": "balikesirdhs11@saglik.gov.tr", "emergency": "yes", "healthcare": "hospital", "name": "Havran İlçe Devlet Hastanesi", "operator": "Sağlık Bakanlığı", "operator:type": "government", "operator:wikidata": "Q4294365", "phone": "+90 (266) 432 15 67", "website": "https://havrandh.saglik.gov.tr/"}}, {"name": "Bandırma Devlet Hastanesi", "latitude": 40.339382, "longitude": 27.9356095, "source": "osm", "_tags": {"addr:district": "Bandırma", "amenity": "hospital", "emergency": "yes", "healthcare": "hospital", "healthcare:speciality": "general", "name": "Bandırma Devlet Hastanesi", "toilets:wheelchair": "yes", "wheelchair": "yes", "wikidata": "Q30329577"}}, {"name": "Özel Sevgi Hastanesi", "latitude": 39.6652945, "longitude": 27.9090939, "source": "osm", "_tags": {"addr:city": "Balıkesir", "addr:district": "Karesi", "addr:housenumber": "11", "addr:neighbourhood": "Paşaalanı Mahallesi", "addr:street": "128. Sokak", "amenity": "hospital", "emergency": "yes", "healthcare": "hospital", "name": "Özel Sevgi Hastanesi", "phone": "+90 266 246 33 10", "website": "http://www.ozelsevgihastanesi.com/"}}, {"name": "Balıkesir Şehir Hastanesi", "latitude": 39.6113857, "longitude": 27.8899002, "source": "osm", "_tags": {"addr:city": "Balıkesir", "addr:district": "Altıeylül", "addr:housenumber": "26", "addr:neighbourhood": "Gaziosmanpaşa Mahallesi", "addr:postcode": "10050", "addr:street": "209. Sokak", "alt_name": "Atatürk Devlet Hastanesi;Atatürk City Hospital", "amenity": "hospital", "email": "balikesirdhs14@saglik.gov.tr", "emergency": "yes", "fax": "+90 266 460 40 45", "healthcare": "hospital", "healthcare:speciality": "general;surgery;emergency;internal;cardiology", "name": "Balıkesir Şehir Hastanesi", "name:en": "Balıkesir City Hospital", "opening_hours": "24/7", "operator": "Sağlık Bakanlığı", "operator:type": "government", "operator:wikidata": "Q4294365", "phone": "+90 266 460 40 00", "website": "https://balikesirataturkdh.saglik.gov.tr/"}}, {"name": "Gönen Devlet Hastanesi", "latitude": 40.1015134, "longitude": 27.6779445, "source": "osm", "_tags": {"amenity": "hospital", "emergency": "yes", "healthcare": "hospital", "name": "Gönen Devlet Hastanesi", "wikidata": "Q31160676"}}, {"name": "Biga Devlet Hastanesi", "latitude": 40.2397307, "longitude": 27.265061, "source": "osm", "_tags": {"addr:city": "Biga", "addr:country": "TR", "addr:district": "Biga", "addr:hamlet": "Şirintepe Mahallesi", "addr:housenumber": "146", "addr:postcode": "17200", "addr:province": "Çanakkale", "addr:street": "Kıbrıs Şehitleri Caddesi", "amenity": "hospital", "emergency": "yes", "healthcare": "hospital", "name": "Biga Devlet Hastanesi", "operator": "Sağlık Bakanlığı", "operator:type": "government", "operator:wikidata": "Q4294365", "phone": "+902863161006", "website": "https://bigadh.saglik.gov.tr"}}, {"name": "Arda Diyaliz Merkezi", "latitude": 40.2218991, "longitude": 27.2324185, "source": "osm", "_tags": {"amenity": "hospital", "building": "hospital", "healthcare": "hospital", "name": "Arda Diyaliz Merkezi"}}, {"name": "Özel Edremit Körfez Hastanesi", "latitude": 39.5991571, "longitude": 26.9934724, "source": "osm", "_tags": {"addr:city": "Balıkesir", "addr:district": "Edremit", "addr:neighbourhood": "Kadıköy Mahallesi", "addr:street": "İzmir Çanakkale Yolu", "amenity": "hospital", "building": "hospital", "building:levels": "8", "email": "info@korfezhastanesi.com", "emergency": "yes", "healthcare": "hospital", "name": "Özel Edremit Körfez Hastanesi", "opening_hours": "24/7", "phone": "+09 266 372 00 00", "website": "https://www.korfezhastanesi.com.tr"}}, {"name": "Burhaniye Devlet Hastanesi", "latitude": 39.4978289, "longitude": 26.9650937, "source": "osm", "_tags": {"addr:city": "Balıkesir", "addr:district": "Burhaniye", "addr:housenumber": "106", "addr:neighbourhood": "Hürriyet Mahallesi", "addr:postcode": "10700", "addr:street": "İzmir Çanakkale Yolu", "amenity": "hospital", "ele": "6", "email": "balikesirdhs5@saglik.gov.tr", "emergency": "yes", "fax": "+90 266 412 56 06", "healthcare": "hospital", "healthcare:speciality": "general;dentistry;emergency;paediatrics;orthopaedics;internal;psychiatry", "name": "Burhaniye Devlet Hastanesi", "operator": "Sağlık Bakanlığı", "operator:wikidata": "Q4294365", "operator:wikipedia": "tr:Türkiye Cumhuriyeti Sağlık Bakanlığı", "phone": "+90 266 412 69 99", "website": "https://burhaniyedh.saglik.gov.tr/"}}, {"name": "Balıkesir Göğüs Hastalıkları Hastanesi", "latitude": 39.63045, "longitude": 27.8795304, "source": "osm", "_tags": {"amenity": "hospital", "healthcare": "hospital", "name": "Balıkesir Göğüs Hastalıkları Hastanesi"}}, {"name": "Özel Sevgi Hastanesi", "latitude": 39.6186081, "longitude": 27.8893879, "source": "osm", "_tags": {"addr:city": "Balıkesir", "addr:district": "Altıeylül", "addr:housenumber": "180", "addr:neighbourhood": "Gaziosmapaşa Mahallesi", "addr:postcode": "10100", "addr:street": "Yeni İzmir Yolu", "amenity": "hospital", "email": "info@ozelsevgihastanesi.com", "emergency": "yes", "healthcare": "hospital", "healthcare:speciality": "emergency;general", "name": "Özel Sevgi Hastanesi", "phone": "+90 266 243 14 34", "website": "http://www.ozelsevgihastanesi.com/"}}, {"name": "Havran İlçe Devlet Hastanesi", "latitude": 39.5517331, "longitude": 27.0969683, "source": "osm", "_tags": {"addr:city": "Balıkesir", "addr:district": "Havran", "addr:housenumber": "No : 12", "addr:neighbourhood": "Mescit Mahallesi", "addr:postcode": "10560", "addr:street": "293. Sokak", "amenity": "hospital", "building": "hospital", "email": "balikesirdhs11@saglik.gov.tr", "emergency": "yes", "healthcare": "hospital", "name": "Havran İlçe Devlet Hastanesi", "operator": "Sağlık Bakanlığı", "operator:type": "government", "operator:wikidata": "Q4294365", "phone": "+90 (266) 432 15 67", "website": "https://havrandh.saglik.gov.tr/"}}, {"name": "Edremit Devlet Hastanesi Ek Bina", "latitude": 39.5872705, "longitude": 27.0242203, "source": "osm", "_tags": {"addr:city": "Balıkesir", "addr:district": "Edremit", "addr:housenumber": "7", "addr:neighbourhood": "Cennetayağı", "addr:street": "781. Sokak", "amenity": "hospital", "emergency": "no", "healthcare": "hospital", "name": "Edremit Devlet Hastanesi Ek Bina"}}, {"name": "Erdek Neyyire Sıtkı Devlet Hastanesi", "latitude": 40.3956935, "longitude": 27.7921242, "source": "osm", "_tags": {"addr:city": "Balıkesir", "addr:district": "Erdek", "addr:housenumber": "1", "addr:neighbourhood": "Yalı Mahallesi", "addr:postcode": "10500", "addr:street": "Hükümet Caddesi", "amenity": "hospital", "building": "yes", "emergency": "yes", "healthcare": "hospital", "name": "Erdek Neyyire Sıtkı Devlet Hastanesi", "operator": "Sağlık Bakanlığı", "operator:type": "government", "operator:wikidata": "Q4294365", "website": "https://erdekdh.saglik.gov.tr/", "wheelchair": "yes"}}, {"name": "Özel Biga Can Hastanesi", "latitude": 40.2334105, "longitude": 27.2598451, "source": "osm", "_tags": {"addr:district": "Biga", "addr:housenumber": "3", "addr:postcode": "17200", "addr:street": "Şehit Uzman Onbaşı Ulaş Açıkgöz Caddesi", "amenity": "hospital", "emergency": "yes", "healthcare": "hospital", "name": "Özel Biga Can Hastanesi", "phone": "+904444417", "website": "http://bigacan.com.tr"}}, {"name": "Balya Entegre Devlet Hastanesi", "latitude": 39.7491251, "longitude": 27.5781908, "source": "osm", "_tags": {"amenity": "hospital", "healthcare": "hospital", "name": "Balya Entegre Devlet Hastanesi"}}, {"name": "İvrindi İlçe Devlet Hastanesi", "latitude": 39.5945756, "longitude": 27.4947835, "source": "osm", "_tags": {"amenity": "hospital", "building": "hospital", "healthcare": "hospital", "name": "İvrindi İlçe Devlet Hastanesi", "operator": "Sağlık Bakanlığı", "operator:type": "government", "operator:wikidata": "Q4294365"}}, {"name": "İvrindi İlçe Devlet Hastanesi", "latitude": 39.5945005, "longitude": 27.494646, "source": "osm", "_tags": {"amenity": "hospital", "healthcare": "hospital", "name": "İvrindi İlçe Devlet Hastanesi", "operator": "Sağlık Bakanlığı", "operator:type": "government", "operator:wikidata": "Q4294365"}}, {"name": "Edremit Devlet Hastanesi", "latitude": 39.5766318, "longitude": 27.0430004, "source": "osm", "_tags": {"addr:city": "Balıkesir", "addr:district": "Edremit", "addr:housenumber": "1", "addr:neighbourhood": "Cenne Tayağı Mahallesi", "amenity": "hospital", "emergency": "yes", "healthcare": "hospital", "healthcare:speciality": "general;emergency;surgery;neurology;cardiology;internal;pediatrics", "name": "Edremit Devlet Hastanesi", "operator": "Sağlık Bakanlığı", "operator:type": "government", "operator:wikidata": "Q4294365", "phone": "+90 266 373 4004", "web": "https://edremitdh.saglik.gov.tr/"}}]