[{"name": "", "latitude": 40.2400793, "longitude": 23.2923549, "source": "osm", "_tags": {"amenity": "hospital", "healthcare": "hospital"}}, {"name": "ΚΕΝΤΡΟ ΥΓΕΙΑΣ ΚΑΣΣΑΝΔΡΕΙΑΣ", "latitude": 40.0514763, "longitude": 23.4119607, "source": "osm", "_tags": {"amenity": "hospital", "healthcare": "hospital", "name": "ΚΕΝΤΡΟ ΥΓΕΙΑΣ ΚΑΣΣΑΝΔΡΕΙΑΣ", "wheelchair": "yes"}}, {"name": "", "latitude": 39.4416928, "longitude": 23.1032006, "source": "osm", "_tags": {"amenity": "hospital", "healthcare": "hospital"}}, {"name": "AED POINT", "latitude": 39.9884417, "longitude": 23.613566, "source": "osm", "_tags": {"addr:city": "Πευκοχώρι Κασσάνδρας Χαλκιδικής", "addr:postcode": "63085", "amenity": "hospital", "check_date": "2025-08-10", "healthcare": "yes", "healthcare:speciality": "general", "name": "AED POINT"}}, {"name": "Aegean Medical Centre", "latitude": 40.092039, "longitude": 23.7871982, "source": "osm", "_tags": {"amenity": "hospital", "name": "Aegean Medical Centre", "opening_hours": "Mo-Su 10:00-14:00, 18:00-22:00", "website": "https://www.aegeanmedical.gr/medical-network/neos-marmaras/"}}, {"name": "Γενικό Νοσοκομείο Χαλκιδικής", "latitude": 40.3844624, "longitude": 23.4451544, "source": "osm", "_tags": {"addr:city": "Πολύγυρος", "addr:postcode": "63100", "addr:street": "Ιπποκράτους", "amenity": "hospital", "date": "20101229", "emergency": "yes", "healthcare": "hospital", "healthcare:speciality": "paediatrics;general;psychiatry;gynaecology;orthopaedics;emergency;intensive;vaccination;dialysis;surgery;cardiology;nephrology;anaesthetics;clinical_pathology;otolaryngology;urology;pulmonology;gastroenterology;geriatrics;diagnostic_radiology;proctology;t", "name": "Γενικό Νοσοκομείο Χαλκιδικής", "name:de": "Allgemeines Krankenhaus Chalkidiki", "name:el": "Γενικό Νοσοκομείο Χαλκιδικής", "name:en": "Chalkidiki General Hospital", "name:fr": "Hôpital Generale de Chalkidiki", "note": "remap ZoomL18", "source": "survey", "wikidata": "Q112293504"}}, {"name": "Κέντρο Υγείας Αγ. Νικολάου", "latitude": 40.2489239, "longitude": 23.6992446, "source": "osm", "_tags": {"addr:city": "Άγιος Νικόλαος", "addr:municipality": "Σιθωνία", "addr:postcode": "63078", "addr:province": "Χαλκιδική", "addr:region": "Κεντρική Μακεδονία", "addr:street": "Οδός Παυλούδη Παύλου", "amenity": "hospital", "building": "yes", "check_date": "2023-08-16", "emergency": "yes", "healthcare": "hospital", "int_name": "Health Center Agios Nikolaos", "name": "Κέντρο Υγείας Αγ. Νικολάου", "name:de": "Gesundheitszentrum (Poliklinik) Agios Nikolaos", "name:el": "Κέντρο Υγείας Αγίου Νικολάου", "name:en": "Health Center Agios Nikolaos", "opening_hours": "24/7", "operator": "ESY", "operator:type": "public", "phone": "+30-2375-031", "ref": "Κέντρο Υγείας Αγίου Νικολάου Χαλκιδικής", "source": "local knowledge;aerial imagery;survey", "wheelchair": "yes"}}, {"name": "Κέντρο αποκατάστασης Ευεξία", "latitude": 40.3597213, "longitude": 23.0556069, "source": "osm", "_tags": {"amenity": "hospital", "name": "Κέντρο αποκατάστασης Ευεξία", "name:el": "Κέντρο αποκατάστασης Ευεξία", "name:en": "Evexia Rehabilitation Center"}}]