[{"name": "Olympiaki Medical Point", "latitude": 40.2408446, "longitude": 22.586937, "source": "osm", "_tags": {"amenity": "hospital", "emergency": "no", "healthcare": "hospital", "name": "Olympiaki Medical Point"}}, {"name": "Κέντρο Υγείας Τυρνάβου", "latitude": 39.7400627, "longitude": 22.2760301, "source": "osm", "_tags": {"addr:city": "Τύρναβος", "addr:housenumber": "35", "addr:postcode": "40100", "addr:street": "Προέδρου Χασιώτου", "amenity": "hospital", "healthcare": "hospital", "name": "Κέντρο Υγείας Τυρνάβου"}}, {"name": "Παθολογικό ιατρείο", "latitude": 39.6108307, "longitude": 22.4298445, "source": "osm", "_tags": {"addr:city": "Λάρισα", "addr:housenumber": "6", "addr:postcode": "41335", "addr:street": "Επισκοπής", "amenity": "hospital", "email": "skrimpasstergios@gmail.com", "emergency": "yes", "healthcare": "hospital", "healthcare:speciality": "internal", "name": "Παθολογικό ιατρείο", "operator": "Ιατρός Σκρίμπας Στέργιος", "operator:type": "private", "phone": "+302410663075"}}, {"name": "Πανεπιστημιακό Γενικό Νοσοκομείο Λάρισας", "latitude": 39.6119489, "longitude": 22.3865784, "source": "osm", "_tags": {"amenity": "hospital", "barrier": "fence", "emergency": "yes", "fence_type": "metal", "healthcare": "hospital", "height": "3", "name": "Πανεπιστημιακό Γενικό Νοσοκομείο Λάρισας", "name:el": "Πανεπιστημιακό Γενικό Νοσοκομείο Λάρισας", "name:en": "General University Hospital of Larissa", "url": "http://www.uhl.gr/", "wikidata": "Q21626608"}}, {"name": "Γενικό Νοσοκομείο Λάρισας", "latitude": 39.6425178, "longitude": 22.4216358, "source": "osm", "_tags": {"addr:city": "Λάρισα", "addr:country": "GR", "addr:housenumber": "1", "addr:postcode": "41221", "addr:street": "Τσακάλωφ", "amenity": "hospital", "barrier": "wall", "healthcare": "hospital", "layer": "1", "name": "Γενικό Νοσοκομείο Λάρισας", "operator": "Γενικό Νοσοκομείο Λάρισας", "wikidata": "Q21626606"}}, {"name": "Αρωγή (Θεσσαλικό Κέντρο Αποκατάστασης)", "latitude": 39.5715169, "longitude": 22.4478034, "source": "osm", "_tags": {"addr:city": "Νίκαια", "addr:postcode": "41500", "amenity": "hospital", "healthcare": "hospital", "name": "Αρωγή (Θεσσαλικό Κέντρο Αποκατάστασης)", "operator": "Euromedica", "operator:type": "private", "phone": "+30 2410922110"}}, {"name": "Ιπποκράτειο Θεραπευτήριο", "latitude": 39.7034275, "longitude": 22.374386, "source": "osm", "_tags": {"addr:postcode": "40011", "addr:street": "Γιάννουλη - Αμπελώνας", "amenity": "hospital", "healthcare": "hospital", "name": "Ιπποκράτειο Θεραπευτήριο", "phone": "+302410942077"}}, {"name": "Γενικό Νοσοκομείο Κατερίνης", "latitude": 40.2940565, "longitude": 22.4451095, "source": "osm", "_tags": {"addr:city": "Νέο Κεραμίδι", "addr:postcode": "601 50", "amenity": "hospital", "emergency": "yes", "healthcare": "hospital", "name": "Γενικό Νοσοκομείο Κατερίνης", "name:el": "Γενικό Νοσοκομείο Κατερίνης", "operator": "3η Υγειονομική Περιφέρεια (Μακεδονίας)", "operator:type": "government", "wikidata": "Q12881930"}}, {"name": "Κέντρο Υγείας Λιτοχώρου", "latitude": 40.1332079, "longitude": 22.5435235, "source": "osm", "_tags": {"addr:city": "Λιτόχωρο", "addr:postcode": "60063", "addr:street": "Παράπλευρη Οδός", "amenity": "hospital", "building": "yes", "building:levels": "1", "emergency": "yes", "healthcare": "hospital", "name": "Κέντρο Υγείας Λιτοχώρου", "opening_hours": "24/7", "phone": "+30 2352 350000", "roof:colour": "#9A6C55", "roof:shape": "hipped"}}, {"name": "ΙΑΣΩ", "latitude": 39.5876796, "longitude": 22.4690504, "source": "osm", "_tags": {"amenity": "hospital", "healthcare": "hospital", "name": "ΙΑΣΩ", "wikidata": "Q112280564"}}, {"name": "Κέντρο Υγείας Σερβίων", "latitude": 40.1866288, "longitude": 22.0089698, "source": "osm", "_tags": {"amenity": "hospital", "healthcare": "hospital", "name": "Κέντρο Υγείας Σερβίων"}}, {"name": "", "latitude": 39.6123926, "longitude": 22.4117063, "source": "osm", "_tags": {"amenity": "hospital", "healthcare": "hospital"}}]