[{"name": "Γενικό Νοσοκομείο Γρεβενών", "latitude": 40.0882799, "longitude": 21.4370084, "source": "osm", "_tags": {"addr:city": "Γρεβενά", "addr:postcode": "51100", "amenity": "hospital", "emergency": "yes", "healthcare": "hospital", "name": "Γενικό Νοσοκομείο Γρεβενών", "phone": "+30 2462 3 50100", "website": "https://www.nosgrevenon.gr/", "wikidata": "Q21626662"}}, {"name": "Κέντρο υγείας Μετσόβου", "latitude": 39.7705453, "longitude": 21.1769513, "source": "osm", "_tags": {"addr:city": "Μετσόβου", "addr:country": "GR", "addr:postcode": "44200", "amenity": "hospital", "healthcare": "hospital", "name": "Κέντρο υγείας Μετσόβου", "name:el": "Κέντρο υγείας Μετσόβου", "name:en": "Health Center of Metsovo", "name:fr": "Centre Médical de Metsovo", "phone": "2656041111"}}, {"name": "Κέντρο Υγείας Σιάτιστας", "latitude": 40.2574055, "longitude": 21.5542737, "source": "osm", "_tags": {"addr:city": "Σιάτιστα", "addr:postcode": "50300", "amenity": "hospital", "healthcare": "hospital", "name": "Κέντρο Υγείας Σιάτιστας", "name:el": "Κέντρο Υγείας Σιάτιστας", "name:mk": "Здравствен дом - Сачишта", "phone": "+302465350000"}}, {"name": "IKA", "latitude": 40.2982046, "longitude": 21.7927022, "source": "osm", "_tags": {"amenity": "hospital", "healthcare": "hospital", "name": "IKA"}}, {"name": "ΙΑΤΡΕΙΟ ΟΡΥΧΕΙΟΥ", "latitude": 40.4074692, "longitude": 21.8035228, "source": "osm", "_tags": {"amenity": "hospital", "healthcare": "hospital", "name": "ΙΑΤΡΕΙΟ ΟΡΥΧΕΙΟΥ"}}, {"name": "Μαιευτήριο Τρικάλων", "latitude": 39.5578913, "longitude": 21.760851, "source": "osm", "_tags": {"amenity": "hospital", "healthcare": "hospital", "healthcare:speciality": "gynaecology", "name": "Μαιευτήριο Τρικάλων", "name:el": "Μαιευτήριο Τρικάλων", "name:en": "Maternity Hospital of Trikala"}}, {"name": "Γενικό Νοσοκομείο Τρικάλων", "latitude": 39.5468778, "longitude": 21.7723161, "source": "osm", "_tags": {"addr:street": "Καρδίτσης", "amenity": "hospital", "emergency": "yes", "healthcare": "hospital", "name": "Γενικό Νοσοκομείο Τρικάλων", "name:el": "Γενικό Νοσοκομείο Τρικάλων", "name:en": "General Hospital of Trikala", "wikidata": "Q21626609"}}, {"name": "Μαμάτσειο Νοσοκομείο", "latitude": 40.3070653, "longitude": 21.7861303, "source": "osm", "_tags": {"addr:city": "Κοζάνη", "addr:country": "GR", "addr:housenumber": "1", "addr:postcode": "50100", "addr:street": "Μαμάτσιου Κωνσταντίνου", "amenity": "hospital", "fax": "2461352618", "healthcare": "hospital", "name": "Μαμάτσειο Νοσοκομείο", "official_name": "Μαμάτσειο Γενικό Νοσοκομείο Κοζάνης", "phone": "2461352600", "website": "http://www.mamatsio.gr/", "wikidata": "Q21626650"}}, {"name": "Κέντρο Υγείας Καλαμπάκας", "latitude": 39.7034752, "longitude": 21.614864, "source": "osm", "_tags": {"amenity": "hospital", "building": "yes", "healthcare": "hospital", "name": "Κέντρο Υγείας Καλαμπάκας"}}, {"name": "Θεραπευτήριο Χρόνιων Παθήσεων Νομού Τρικάλων", "latitude": 39.5855681, "longitude": 21.7243249, "source": "osm", "_tags": {"amenity": "hospital", "healthcare": "hospital", "name": "Θεραπευτήριο Χρόνιων Παθήσεων Νομού Τρικάλων"}}, {"name": "Νοσοκομείο Τσοτυλίου", "latitude": 40.2572122, "longitude": 21.3218975, "source": "osm", "_tags": {"amenity": "hospital", "healthcare": "hospital", "name": "Νοσοκομείο Τσοτυλίου"}}, {"name": "Euromedica Ζωοδόχος Πηγή", "latitude": 40.3023029, "longitude": 21.7956373, "source": "osm", "_tags": {"addr:city": "Κοζάνη", "addr:housenumber": "4", "addr:postcode": "50131", "addr:street": "Μαργαρίτη Δήμτσα", "amenity": "hospital", "building": "hospital", "name": "Euromedica Ζωοδόχος Πηγή", "website": "https://euromedica-kozani.gr/"}}]