[{"name": "Poliambulatorio", "latitude": 39.4485466, "longitude": 16.2869891, "source": "osm", "_tags": {"amenity": "hospital", "name": "Poliambulatorio"}}, {"name": "Presidio ospedalaliere Beato Angelo", "latitude": 39.4914873, "longitude": 16.3893333, "source": "osm", "_tags": {"amenity": "hospital", "emergency": "yes", "healthcare": "hospital", "name": "Presidio ospedalaliere Beato Angelo"}}, {"name": "ASL", "latitude": 40.147868, "longitude": 16.2891252, "source": "osm", "_tags": {"amenity": "hospital", "healthcare": "hospital", "name": "ASL"}}, {"name": "Farmacia Santa Lucia", "latitude": 39.8450475, "longitude": 16.4550118, "source": "osm", "_tags": {"addr:city": "Villapiana", "addr:housenumber": "1", "addr:postcode": "87076", "addr:street": "Via Marsala", "amenity": "hospital", "healthcare": "hospital", "name": "Farmacia Santa Lucia"}}, {"name": "Guardia Medica", "latitude": 40.2490072, "longitude": 16.6997932, "source": "osm", "_tags": {"addr:city": "Scanzano Jonico", "addr:postcode": "75020", "addr:street": "Corso Alcide De Gasperi", "amenity": "hospital", "emergency": "yes", "name": "Guardia Medica", "phone": "+39 0835 953003"}}, {"name": "", "latitude": 39.4915201, "longitude": 16.3893483, "source": "osm", "_tags": {"amenity": "hospital", "healthcare": "hospital"}}, {"name": "Presidio Ospedaliero di Trebisacce", "latitude": 39.8736415, "longitude": 16.53574, "source": "osm", "_tags": {"amenity": "hospital", "building": "yes", "name": "Presidio Ospedaliero di Trebisacce"}}, {"name": "Ospedale Civile Nicola Giannettasio", "latitude": 39.596389, "longitude": 16.6375796, "source": "osm", "_tags": {"amenity": "hospital", "healthcare": "hospital", "name": "Ospedale Civile Nicola Giannettasio"}}, {"name": "", "latitude": 40.2140592, "longitude": 16.6707673, "source": "osm", "_tags": {"amenity": "hospital", "emergency": "yes", "healthcare": "hospital"}}, {"name": "Ambulatorio Medico", "latitude": 39.8287931, "longitude": 16.3138753, "source": "osm", "_tags": {"amenity": "hospital", "building": "yes", "emergency": "no", "name": "Ambulatorio Medico"}}, {"name": "Casa della Salute", "latitude": 39.7282454, "longitude": 16.1428612, "source": "osm", "_tags": {"addr:city": "Lungro", "addr:postcode": "87010", "addr:street": "Piazzale P. Vaccaro e G. Laurito", "amenity": "hospital", "description": "ex Ospedale di Lungro", "healthcare": "hospital", "name": "Casa della Salute"}}, {"name": "Ospedale Civile \"Ferrari\"", "latitude": 39.8179444, "longitude": 16.2099516, "source": "osm", "_tags": {"addr:city": "Castrovillari", "amenity": "hospital", "emergency": "yes", "healthcare": "hospital", "name": "Ospedale Civile \"Ferrari\"", "wheelchair": "yes"}}, {"name": "Ospedale Guido Compagna", "latitude": 39.5910519, "longitude": 16.5208511, "source": "osm", "_tags": {"amenity": "hospital", "healthcare": "hospital", "name": "Ospedale Guido Compagna"}}, {"name": "Ospedale San Giovanni", "latitude": 40.1233782, "longitude": 16.2161019, "source": "osm", "_tags": {"amenity": "hospital", "contact:phone": "+39 0973 641111", "name": "Ospedale San Giovanni", "website": "http://www.aspbasilicata.it/servizi-nei-comuni/chiaromonte-attivit%C3%A0-ospedaliere"}}, {"name": "Ospedale di Tinchi", "latitude": 40.3598125, "longitude": 16.6480892, "source": "osm", "_tags": {"amenity": "hospital", "landuse": "residential", "name": "Ospedale di Tinchi"}}, {"name": "", "latitude": 40.3999144, "longitude": 16.2346724, "source": "osm", "_tags": {"amenity": "hospital", "healthcare": "hospital"}}, {"name": "Ospedale Distrettuale Salvatore Peragine", "latitude": 40.3997591, "longitude": 16.2344611, "source": "osm", "_tags": {"amenity": "hospital", "building": "yes", "name": "Ospedale Distrettuale Salvatore Peragine"}}, {"name": "", "latitude": 40.2553797, "longitude": 16.2592091, "source": "osm", "_tags": {"amenity": "hospital", "healthcare": "hospital"}}, {"name": "", "latitude": 40.2925017, "longitude": 16.5660234, "source": "osm", "_tags": {"amenity": "hospital"}}, {"name": "Ospedale V. Minervini", "latitude": 39.8989563, "longitude": 15.9934146, "source": "osm", "_tags": {"amenity": "hospital", "name": "Ospedale V. Minervini"}}, {"name": "", "latitude": 39.6726356, "longitude": 16.3042079, "source": "osm", "_tags": {"amenity": "hospital", "healthcare": "hospital"}}, {"name": "Guardia Medica", "latitude": 39.6148151, "longitude": 16.1681404, "source": "osm", "_tags": {"amenity": "hospital", "healthcare": "hospital", "name": "Guardia Medica"}}, {"name": "", "latitude": 39.981685, "longitude": 16.0766979, "source": "osm", "_tags": {"amenity": "hospital"}}, {"name": "", "latitude": 39.5607861, "longitude": 16.1250728, "source": "osm", "_tags": {"amenity": "hospital", "healthcare": "hospital"}}, {"name": "", "latitude": 39.6034458, "longitude": 16.6417618, "source": "osm", "_tags": {"amenity": "hospital", "healthcare": "hospital"}}]