[{"name": "Clínica Juaneda Menorca", "latitude": 40.0048071, "longitude": 3.8418321, "source": "osm", "_tags": {"addr:housenumber": "1", "addr:street": "Carrer de Canonge Moll", "amenity": "hospital", "emergency": "yes", "name": "Clínica Juaneda Menorca", "phone": "+34 971 480 505", "website": "https://www.juaneda.es/centro/6/clinica-juaneda-menorca", "wikidata": "Q87761471"}}, {"name": "Hospital de Manacor", "latitude": 39.5786938, "longitude": 3.2077416, "source": "osm", "_tags": {"amenity": "hospital", "healthcare": "hospital", "name": "Hospital de Manacor", "wikidata": "Q87761474"}}, {"name": "Centre de Salut", "latitude": 39.4282628, "longitude": 3.016412, "source": "osm", "_tags": {"amenity": "clinic", "healthcare": "hospital", "name": "Centre de Salut", "name:ca": "Centre de Salut"}}, {"name": "Muro", "latitude": 39.8135909, "longitude": 3.1075896, "source": "osm", "_tags": {"addr:city": "Muro", "addr:housenumber": "1", "addr:postcode": "07458", "addr:street": "carrer Veler", "amenity": "hospital", "emergency": "yes", "healthcare": "hospital", "name": "Muro", "operator": "Juaneda", "phone": "+34 971891900"}}, {"name": "Hospital de Llevant", "latitude": 39.5451455, "longitude": 3.329537, "source": "osm", "_tags": {"amenity": "hospital", "healthcare": "hospital", "name": "Hospital de Llevant", "wikidata": "Q87761477"}}]