[{"name": "Nossa Senhora da Assunção", "latitude": 40.4213308, "longitude": -7.6955084, "source": "osm", "_tags": {"amenity": "hospital", "emergency": "yes", "healthcare": "hospital", "name": "Nossa Senhora da Assunção"}}, {"name": "Fundação Aurélio Amaro Dinis", "latitude": 40.3585594, "longitude": -7.8554929, "source": "osm", "_tags": {"amenity": "hospital", "healthcare": "hospital", "name": "Fundação Aurélio Amaro Dinis"}}, {"name": "Hospital Nossa Senhora da Assunção", "latitude": 40.4208829, "longitude": -7.6957099, "source": "osm", "_tags": {"amenity": "hospital", "healthcare": "hospital", "name": "Hospital Nossa Senhora da Assunção"}}, {"name": "Unidade Local de Saúde de Castelo Branco, EPE - Hospital Amato Lusitano", "latitude": 39.8228284, "longitude": -7.4999151, "source": "osm", "_tags": {"amenity": "hospital", "emergency": "yes", "healthcare": "hospital", "name": "Unidade Local de Saúde de Castelo Branco, EPE - Hospital Amato Lusitano", "operator": "SNS"}}, {"name": "Departamento de Psiquiatria e Saúde Mental", "latitude": 40.2666114, "longitude": -7.4940213, "source": "osm", "_tags": {"amenity": "hospital", "email": "info@chcbeira.min-saude.pt", "healthcare": "hospital", "healthcare:speciality": "psychiatry;child_psychiatry", "healthcare_facility:type": "department", "name": "Departamento de Psiquiatria e Saúde Mental", "old_name": "Centro de Saúde Mental da Covilhã;Departamento de Saúde Mental da Covilhã", "operator": "Centro Hospitalar Universitário da Cova da Beira, E. P. E.", "operator:type": "public", "phone": "+351 275 330 000"}}, {"name": "Hospital Doutor Aprigio Meireles", "latitude": 39.9250138, "longitude": -7.2406923, "source": "osm", "_tags": {"amenity": "hospital", "building": "yes", "name": "Hospital Doutor Aprigio Meireles"}}, {"name": "Hospital Pêro da Covilhã", "latitude": 40.2665694, "longitude": -7.4923933, "source": "osm", "_tags": {"amenity": "hospital", "email": "info@chcbeira.min-saude.pt", "emergency": "yes", "healthcare": "hospital", "healthcare:speciality": "general", "name": "Hospital Pêro da Covilhã", "old_name": "Hospital Distrital da Covilhã;Hospital da Misericórdia da Covilhã", "operator": "Centro Hospitalar Universitário da Cova da Beira, E. P. E.", "operator:type": "public", "phone": "+351 275 330 000"}}, {"name": "Hospital da Misericórdia de Tábua - Centro de Cuidados Continuados", "latitude": 40.3585831, "longitude": -8.0228319, "source": "osm", "_tags": {"amenity": "hospital", "healthcare": "hospital", "name": "Hospital da Misericórdia de Tábua - Centro de Cuidados Continuados", "operator": "Santa Casa da Misericórdia", "wheelchair": "yes"}}, {"name": "Hospital Doutor Fernando Valle", "latitude": 40.2164187, "longitude": -8.0541909, "source": "osm", "_tags": {"addr:city": "Arganil", "addr:postcode": "3300-034", "addr:street": "Rua Comendador da Cruz Pereira", "amenity": "hospital", "building": "yes", "healthcare": "hospital", "healthcare:speciality": "geriatrics", "name": "Hospital Doutor Fernando Valle", "official_name": "Unidade de Cuidados Continuados Integrados Hospital Doutor Fernando Valle", "operator": "Santa Casa da Misericórdia de Arganil", "phone": "235 200 110"}}, {"name": "Hospital do Fundão", "latitude": 40.1351183, "longitude": -7.5014572, "source": "osm", "_tags": {"amenity": "hospital", "email": "info@chcbeira.min-saude.pt", "healthcare": "hospital", "healthcare:speciality": "general", "name": "Hospital do Fundão", "old_name": "Hospital Distrital do Fundão", "operator": "Centro Hospitalar Universitário da Cova da Beira, E. P. E.", "operator:type": "public", "phone": "+351 275 330 000"}}]