[{"name": "Centro de Salud La Algodonera", "latitude": 39.9607895, "longitude": -4.8429297, "source": "osm", "_tags": {"addr:city": "Talavera de la Reina", "addr:postcode": "45600", "addr:street": "Calle Don Rosendo Bravo García", "amenity": "hospital", "healthcare": "hospital", "healthcare:speciality": "general;paediatrics;consultas médicas", "name": "Centro de Salud La Algodonera", "nohousenumber": "yes"}}, {"name": "Centro de Salud San Martín de Valdeiglesias", "latitude": 40.3646634, "longitude": -4.4010628, "source": "osm", "_tags": {"amenity": "hospital", "building": "yes", "emergency": "yes", "healthcare": "hospital", "name": "Centro de Salud San Martín de Valdeiglesias", "operator": "Comunidad de Madrid", "operator:type": "government", "operator:wikidata": "Q578788"}}, {"name": "Hospital Geriátrico Virgen de la Poveda", "latitude": 40.247886, "longitude": -4.2763685, "source": "osm", "_tags": {"amenity": "hospital", "description": "Hospital de Media y Larga Estancia", "name": "Hospital Geriátrico Virgen de la Poveda", "operator": "Comunidad de Madrid.", "website": "http://www.madrid.org/cs/Satellite?cid=1155118437892&language=es&pagename=HospitalVirgenPoveda%2FPage%2FHVPO_pintarContenidoFinal"}}, {"name": "Centro de Especialidades de Torrijos", "latitude": 39.9892865, "longitude": -4.2780834, "source": "osm", "_tags": {"addr:city": "Torrijos", "addr:housenumber": "21", "addr:postcode": "45500", "addr:street": "Camino Torrijos", "amenity": "hospital", "emergency": "no", "healthcare": "hospital", "healthcare:speciality": "general", "name": "Centro de Especialidades de Torrijos"}}, {"name": "Hospital Nuestra Señora del Prado", "latitude": 39.9647059, "longitude": -4.8073603, "source": "osm", "_tags": {"addr:city": "Talavera de la Reina", "addr:country": "ES", "addr:housenumber": "114", "addr:postcode": "45600", "addr:province": "Toledo", "addr:street": "Avenida de Madrid", "amenity": "hospital", "beds": "312", "emergency": "yes", "healthcare": "hospital", "healthcare:speciality": "allergology;cardiology;digestive;dermatology;emergency;radiology;neurology;paediatrics;transplant", "name": "Hospital Nuestra Señora del Prado", "name:etymology": "Nuestra Señora del Prado", "name:etymology:wikidata": "Q6046497", "name:etymology:wikipedia": "es:Nuestra Señora del Prado (Talavera de la Reina)", "official_name": "Hospital General Universitario Nuestra Señora del Prado", "operator": "SESCAM", "operator:type": "public", "phone": "+34 925 80 36 00", "short_name": "Nuestra Señora del Prado", "website": "https://sanidad.castillalamancha.es/", "wikidata": "Q26991265", "wikipedia": "es:Hospital General Universitario Nuestra Señora del Prado"}}, {"name": "Centro Salud Portillo", "latitude": 40.0650161, "longitude": -4.2292324, "source": "osm", "_tags": {"addr:city": "Portillo de Toledo", "addr:housenumber": "7", "addr:postcode": "45512", "addr:street": "Calle del Prado", "amenity": "hospital", "building": "yes", "healthcare": "hospital", "healthcare:speciality": "general", "name": "Centro Salud Portillo", "phone": "+34 925 73 06 72"}}, {"name": "", "latitude": 39.7617469, "longitude": -4.948958, "source": "osm", "_tags": {"amenity": "hospital", "healthcare": "doctor"}}, {"name": "Cruz Roja", "latitude": 40.047204, "longitude": -4.2103607, "source": "osm", "_tags": {"amenity": "hospital", "healthcare": "hospital", "name": "Cruz Roja", "operator": "Cruz Roja", "operator:wikidata": "Q7178", "operator:wikipedia": "es:Cruz Roja"}}]