[{"name": "Anadolu Hastanesi", "latitude": 40.2109163, "longitude": 28.9755935, "source": "osm", "_tags": {"amenity": "hospital", "healthcare": "hospital", "name": "Anadolu Hastanesi"}}, {"name": "Özel Jimer Hastanesi", "latitude": 40.2062437, "longitude": 28.9937293, "source": "osm", "_tags": {"amenity": "hospital", "healthcare": "hospital", "name": "Özel Jimer Hastanesi"}}, {"name": "Halk Hastanesi", "latitude": 39.6321871, "longitude": 29.397682, "source": "osm", "_tags": {"amenity": "hospital", "name": "Halk Hastanesi"}}, {"name": "Ceylan International Hospital", "latitude": 40.2568622, "longitude": 28.9532245, "source": "osm", "_tags": {"amenity": "hospital", "healthcare": "hospital", "name": "Ceylan International Hospital"}}, {"name": "Özel PembeMavi Hastanesi", "latitude": 40.2327279, "longitude": 28.9801761, "source": "osm", "_tags": {"amenity": "hospital", "emergency": "yes", "healthcare": "hospital", "healthcare:speciality": "gynaecology;paediatrics;surgery;internal", "name": "Özel PembeMavi Hastanesi", "operator": "Özel PembeMavi Hastanesi"}}, {"name": "Diş Hekimi Anıl Aslan", "latitude": 40.2075068, "longitude": 28.9906163, "source": "osm", "_tags": {"addr:city": "Bursa", "addr:district": "Nilüfer", "addr:housenumber": "No:18", "addr:neighbourhood": "Konak mh", "addr:postcode": "16110", "addr:street": "Yıldırım Caddesi", "amenity": "hospital", "email": "dtanilaslan@gmail.com", "healthcare": "hospital", "healthcare:speciality": "dentist", "mobile": "+905326019416", "name": "Diş Hekimi Anıl Aslan", "operator": "Diş Hekimi Anıl Aslan"}}, {"name": "Çekirge Devlet Hastanesi", "latitude": 40.2022893, "longitude": 29.0139942, "source": "osm", "_tags": {"amenity": "hospital", "healthcare": "hospital", "name": "Çekirge Devlet Hastanesi"}}, {"name": "Özel Pedmer Çocuk Sağlığı Tıp Merkezi", "latitude": 40.2213534, "longitude": 28.9598904, "source": "osm", "_tags": {"amenity": "hospital", "healthcare": "hospital", "name": "Özel Pedmer Çocuk Sağlığı Tıp Merkezi", "website": "https://www.pedmer.com.tr/"}}, {"name": "Acıbadem Bursa Hastanesi", "latitude": 40.2128212, "longitude": 28.976127, "source": "osm", "_tags": {"amenity": "hospital", "emergency": "yes", "healthcare": "hospital", "name": "Acıbadem Bursa Hastanesi", "operator": "Acıbadem", "operator:wikidata": "Q19610384", "phone": "444 55 44", "website": "https://www.acibadem.com.tr/danisma/Hastaneler/40/13/bursa-hastanesi"}}, {"name": "Yüksek İhtisas Eğitim ve Araştırma Hastanesi", "latitude": 40.1848421, "longitude": 29.1286432, "source": "osm", "_tags": {"amenity": "hospital", "emergency": "yes", "healthcare": "hospital", "name": "Yüksek İhtisas Eğitim ve Araştırma Hastanesi"}}, {"name": "Bursa Devlet Hastanesi", "latitude": 40.1871492, "longitude": 29.0521536, "source": "osm", "_tags": {"amenity": "hospital", "emergency": "yes", "healthcare": "hospital", "name": "Bursa Devlet Hastanesi", "not:operator:wikidata": "Q4294365", "operator": "Sağlık Bakanlığı"}}, {"name": "VM Medical Park", "latitude": 40.1935077, "longitude": 29.0604788, "source": "osm", "_tags": {"amenity": "hospital", "building": "hospital", "emergency": "yes", "healthcare": "hospital", "name": "VM Medical Park", "operator": "Medical Park", "operator:type": "private", "operator:wikidata": "Q6073312", "website": "https://www.medicalpark.com.tr/bursa"}}, {"name": "Medikabil Hastanesi", "latitude": 40.2333184, "longitude": 28.9789528, "source": "osm", "_tags": {"amenity": "hospital", "emergency": "yes", "healthcare": "hospital", "name": "Medikabil Hastanesi"}}, {"name": "Bursa Devlet Hastanesi", "latitude": 40.1957852, "longitude": 29.0559757, "source": "osm", "_tags": {"amenity": "hospital", "building": "hospital", "healthcare": "hospital", "name": "Bursa Devlet Hastanesi", "source": "Esri Luftbilder"}}, {"name": "İlker Çelikcan Fizik Tedavi ve Rehabilitasyon Hastanesi", "latitude": 40.2018884, "longitude": 29.017615, "source": "osm", "_tags": {"amenity": "hospital", "healthcare": "hospital", "name": "İlker Çelikcan Fizik Tedavi ve Rehabilitasyon Hastanesi"}}, {"name": "Doruk Yıldırım Hastanesi", "latitude": 40.1919633, "longitude": 29.109899, "source": "osm", "_tags": {"amenity": "hospital", "building": "hospital", "emergency": "yes", "healthcare": "hospital", "name": "Doruk Yıldırım Hastanesi"}}, {"name": "Doruk Tıp Merkezi", "latitude": 40.1918401, "longitude": 29.1094214, "source": "osm", "_tags": {"amenity": "hospital", "building": "hospital", "healthcare": "hospital", "name": "Doruk Tıp Merkezi"}}, {"name": "Medicabil Hastanesi", "latitude": 40.191166, "longitude": 29.1148832, "source": "osm", "_tags": {"amenity": "hospital", "building": "hospital", "emergency": "yes", "healthcare": "hospital", "name": "Medicabil Hastanesi"}}, {"name": "Yıldırım Belediyesi Tıp Merkezi", "latitude": 40.1789904, "longitude": 29.1097454, "source": "osm", "_tags": {"amenity": "hospital", "building": "hospital", "healthcare": "hospital", "name": "Yıldırım Belediyesi Tıp Merkezi"}}, {"name": "Bursa Dr. Ayten Bozkaya Spastik Çocuklar Hastanesi Ve Rehabilitasyon Merkezi", "latitude": 40.2146865, "longitude": 29.06761, "source": "osm", "_tags": {"addr:city": "Bursa", "addr:district": "Osmangazi", "addr:neighbourhood": "Altınova", "addr:postcode": "16250", "addr:street": "2. Altınova Sk", "amenity": "hospital", "healthcare": "hospital", "name": "Bursa Dr. Ayten Bozkaya Spastik Çocuklar Hastanesi Ve Rehabilitasyon Merkezi"}}, {"name": "Çocuk Hastanesi", "latitude": 40.2052938, "longitude": 29.0215999, "source": "osm", "_tags": {"amenity": "hospital", "healthcare": "hospital", "name": "Çocuk Hastanesi"}}, {"name": "Doruk Hastanesi", "latitude": 40.2042341, "longitude": 29.0202803, "source": "osm", "_tags": {"amenity": "hospital", "building": "hospital", "healthcare": "hospital", "name": "Doruk Hastanesi"}}, {"name": "Konur Tıp Merkezi", "latitude": 40.2050864, "longitude": 29.0203687, "source": "osm", "_tags": {"amenity": "hospital", "building": "hospital", "healthcare": "hospital", "name": "Konur Tıp Merkezi"}}, {"name": "Kalp ve Aritmi Hastanesi", "latitude": 40.2050477, "longitude": 29.0210491, "source": "osm", "_tags": {"amenity": "hospital", "healthcare": "hospital", "name": "Kalp ve Aritmi Hastanesi"}}, {"name": "Orhaneli Devlet Hastanesi", "latitude": 39.9104446, "longitude": 28.9865497, "source": "osm", "_tags": {"amenity": "hospital", "emergency": "yes", "healthcare": "hospital", "name": "Orhaneli Devlet Hastanesi", "operator": "Sağlık Bakanlığı", "operator:wikidata": "Q4294365", "website": "https://orhanelidh.saglik.gov.tr/"}}, {"name": "Yüksek İhtisas Eğitim ve Araştırma Hastanesi", "latitude": 40.2316876, "longitude": 28.9799179, "source": "osm", "_tags": {"amenity": "hospital", "healthcare": "hospital", "name": "Yüksek İhtisas Eğitim ve Araştırma Hastanesi"}}, {"name": "Gürsu Cüneyt Yıldız Devlet Hastanesi", "latitude": 40.2255624, "longitude": 29.173127, "source": "osm", "_tags": {"amenity": "hospital", "healthcare": "hospital", "name": "Gürsu Cüneyt Yıldız Devlet Hastanesi"}}, {"name": "Özel Hayat Hastanesi", "latitude": 40.191826, "longitude": 29.0770907, "source": "osm", "_tags": {"addr:city": "Bursa", "addr:district": "Osmangazi", "addr:neighbourhood": "Elmasbahçeler", "addr:street": "1. Atan Sokak", "amenity": "hospital", "emergency": "yes", "healthcare": "hospital", "height": "6", "level": "1", "name": "Özel Hayat Hastanesi", "operator": "Hayat", "operator:type": "private", "source": "microsoft/BuildingFootprints"}}, {"name": "Harmancık Devlet Hastanesi", "latitude": 39.6798002, "longitude": 29.1554254, "source": "osm", "_tags": {"amenity": "hospital", "healthcare": "hospital", "name": "Harmancık Devlet Hastanesi", "operator": "Sağlık Bakanlığı", "operator:type": "government", "operator:wikidata": "Q4294365"}}, {"name": "Harmancık Devlet Hastanesi", "latitude": 39.6796883, "longitude": 29.1554578, "source": "osm", "_tags": {"amenity": "hospital", "building": "yes", "healthcare": "hospital", "name": "Harmancık Devlet Hastanesi"}}, {"name": "Doruk Nilüfer Hastanesi", "latitude": 40.2090419, "longitude": 28.9918328, "source": "osm", "_tags": {"amenity": "hospital", "building": "hospital", "healthcare": "hospital", "name": "Doruk Nilüfer Hastanesi"}}, {"name": "Keles Devlet Hastanesi", "latitude": 39.9127244, "longitude": 29.2306493, "source": "osm", "_tags": {"amenity": "hospital", "emergency": "yes", "healthcare": "hospital", "healthcare:speciality": "general", "name": "Keles Devlet Hastanesi", "toilets:wheelchair": "yes", "wheelchair": "yes", "wikidata": "Q30329577"}}]