[{"name": "Özel Star Medica Hospital", "latitude": 40.9784959, "longitude": 27.5118297, "source": "osm", "_tags": {"amenity": "hospital", "healthcare": "hospital", "name": "Özel Star Medica Hospital"}}, {"name": "Vatan Hastanesi", "latitude": 41.1503954, "longitude": 27.8492859, "source": "osm", "_tags": {"amenity": "hospital", "healthcare": "hospital", "name": "Vatan Hastanesi", "name:en": "Vatan Hospital", "opening_hours": "Mo-Fr 08:00-17:00"}}, {"name": "Vatan Hastanesi Acil", "latitude": 41.1502033, "longitude": 27.8492073, "source": "osm", "_tags": {"amenity": "hospital", "healthcare": "hospital", "name": "Vatan Hastanesi Acil", "name:en": "Vatan Hospital Emergency", "opening_hours": "24/7"}}, {"name": "Özel Yaşam Polikliniği", "latitude": 41.0025336, "longitude": 27.8472452, "source": "osm", "_tags": {"amenity": "hospital", "name": "Özel Yaşam Polikliniği"}}, {"name": "Özel Derman Hastanesi", "latitude": 41.4036983, "longitude": 27.3551443, "source": "osm", "_tags": {"addr:city": "Lüleburgaz", "addr:country": "TR", "addr:district": "Lüleburgaz", "addr:neighbourhood": "Kocasinan Mahallesi", "addr:province": "Kırklareli", "addr:street": "Okullar Caddesi", "amenity": "hospital", "emergency": "yes", "healthcare": "hospital", "name": "Özel Derman Hastanesi"}}, {"name": "Askent Aile Sağlığı Merkezi", "latitude": 41.1524163, "longitude": 27.7982085, "source": "osm", "_tags": {"amenity": "hospital", "building": "hospital", "healthcare": "clinic", "name": "Askent Aile Sağlığı Merkezi"}}, {"name": "Yanıkağıl Aile Sağlığı Merkezi", "latitude": 41.2924008, "longitude": 27.9069666, "source": "osm", "_tags": {"addr:country": "TR", "addr:district": "Kapaklı", "addr:postcode": "59510", "addr:province": "Tekirdağ", "addr:subdistrict": "Yanıkağıl Mahallesi", "amenity": "hospital", "name": "Yanıkağıl Aile Sağlığı Merkezi"}}, {"name": "Bahçeağıl Köy Sağlık Evi", "latitude": 41.3492665, "longitude": 27.8841409, "source": "osm", "_tags": {"amenity": "hospital", "name": "Bahçeağıl Köy Sağlık Evi"}}, {"name": "Alpullu Aile Sağlığı Merkezi", "latitude": 41.3735147, "longitude": 27.1468178, "source": "osm", "_tags": {"amenity": "hospital", "healthcare": "hospital", "name": "Alpullu Aile Sağlığı Merkezi", "operator": "Sağlık Bakanlığı", "operator:wikidata": "Q4294365"}}, {"name": "Özel Dünyagöz Tıp Merkezi", "latitude": 41.1562495, "longitude": 27.8167942, "source": "osm", "_tags": {"amenity": "hospital", "healthcare": "hospital", "name": "Özel Dünyagöz Tıp Merkezi"}}, {"name": "Dünyagöz Acil Emergency", "latitude": 41.1559947, "longitude": 27.8182902, "source": "osm", "_tags": {"amenity": "hospital", "healthcare": "hospital", "name": "Dünyagöz Acil Emergency"}}, {"name": "Vega Hospital", "latitude": 41.1561191, "longitude": 27.8184342, "source": "osm", "_tags": {"amenity": "hospital", "healthcare": "hospital", "name": "Vega Hospital", "phone": "+904444469"}}, {"name": "Optimed International Çorlu Hastanesi", "latitude": 41.1506804, "longitude": 27.8298725, "source": "osm", "_tags": {"amenity": "hospital", "healthcare": "hospital", "name": "Optimed International Çorlu Hastanesi"}}, {"name": "Özel Lüleburgaz Tıp Merkezi", "latitude": 41.400153, "longitude": 27.364433, "source": "osm", "_tags": {"addr:city": "Lüleburgaz", "addr:district": "Lüleburgaz", "addr:housenumber": "3", "addr:neighbourhood": "Yıldız Mahallesi", "addr:postcode": "39750", "addr:street": "Cermen Caddesi", "amenity": "hospital", "emergency": "yes", "healthcare": "hospital", "name": "Özel Lüleburgaz Tıp Merkezi"}}, {"name": "Kaşıkçı Sağlık Evi", "latitude": 41.0233155, "longitude": 27.2314298, "source": "osm", "_tags": {"amenity": "hospital", "name": "Kaşıkçı Sağlık Evi"}}, {"name": "Fatih ASM", "latitude": 41.1475943, "longitude": 27.8117893, "source": "osm", "_tags": {"amenity": "hospital", "building": "hospital", "healthcare": "hospital", "name": "Fatih ASM"}}, {"name": "Mevlana ASM", "latitude": 41.1482682, "longitude": 27.7818519, "source": "osm", "_tags": {"amenity": "hospital", "building": "hospital", "healthcare": "hospital", "name": "Mevlana ASM"}}, {"name": "Çorlu Ağız ve Diş Sağlığı Merkezi", "latitude": 41.1500602, "longitude": 27.8476731, "source": "osm", "_tags": {"addr:city": "Çorlu", "addr:district": "Çorlu", "addr:neighbourhood": "Esentepe Mahallesi", "addr:street": "Eski Bağlar Caddesi", "amenity": "hospital", "emergency": "yes", "healthcare": "hospital", "healthcare:speciality": "dentist", "name": "Çorlu Ağız ve Diş Sağlığı Merkezi"}}, {"name": "Tekirdağ Doktor İsmail Fehmi Cumalıoğlu Şehir Hastanesi Acil", "latitude": 41.0083859, "longitude": 27.5245198, "source": "osm", "_tags": {"addr:district": "Süleymanpaşa", "amenity": "hospital", "emergency": "yes", "healthcare": "hospital", "healthcare:speciality": "emergency", "name": "Tekirdağ Doktor İsmail Fehmi Cumalıoğlu Şehir Hastanesi Acil", "name:tr": "Tekirdağ Şehir Hastanesi Acil", "operator": "Sağlık Bakanlığı", "operator:type": "government", "operator:wikidata": "Q4294365"}}, {"name": "Tekirdağ Devlet Hastanesi", "latitude": 40.9674026, "longitude": 27.5015249, "source": "osm", "_tags": {"amenity": "hospital", "healthcare": "hospital", "name": "Tekirdağ Devlet Hastanesi", "operator": "Sağlık Bakanlığı", "operator:wikidata": "Q4294365"}}, {"name": "Özel Reyap Hastanesi", "latitude": 41.1534421, "longitude": 27.8286567, "source": "osm", "_tags": {"addr:city": "Çorlu", "addr:country": "TR", "addr:province": "Tekirdağ", "amenity": "hospital", "building": "hospital", "emergency": "yes", "healthcare": "hospital", "healthcare:speciality": "emergency;paediatrics", "name": "Özel Reyap Hastanesi", "operator": "Reyap Sağlık Grubu", "operator:type": "private", "phone": "+9 0 282 684 02 00"}}, {"name": "Özel Çorlu Vatan Hastanesi", "latitude": 41.1616576, "longitude": 27.8012419, "source": "osm", "_tags": {"amenity": "hospital", "building": "hospital", "emergency": "yes", "healthcare": "hospital", "name": "Özel Çorlu Vatan Hastanesi"}}, {"name": "Çorlu Devlet Hastanesi Şehit Münür Alkan Binası", "latitude": 41.1570894, "longitude": 27.8070512, "source": "osm", "_tags": {"addr:city": "Çorlu", "addr:country": "TR", "addr:province": "Tekirdağ", "amenity": "hospital", "building": "hospital", "emergency": "no", "healthcare": "hospital", "name": "Çorlu Devlet Hastanesi Şehit Münür Alkan Binası"}}, {"name": "Sağlık Ocağı", "latitude": 41.4217552, "longitude": 27.0899168, "source": "osm", "_tags": {"amenity": "hospital", "building": "yes", "healthcare": "hospital", "name": "Sağlık Ocağı"}}, {"name": "Kıvanç Aile Sağlık Merkezi", "latitude": 41.1541852, "longitude": 27.7930558, "source": "osm", "_tags": {"addr:city": "Çorlu", "addr:country": "TR", "addr:province": "Tekirdağ", "amenity": "hospital", "building": "hospital", "healthcare": "hospital", "name": "Kıvanç Aile Sağlık Merkezi"}}, {"name": "Tekirdağ Ağız ve Diş Sağlığı Hastanesi", "latitude": 41.0085122, "longitude": 27.5272692, "source": "osm", "_tags": {"amenity": "hospital", "building": "hospital", "healthcare": "hospital", "healthcare:speciality": "dentistry", "name": "Tekirdağ Ağız ve Diş Sağlığı Hastanesi", "operator": "Sağlık Bakanlığı", "operator:type": "government", "operator:wikidata": "Q4294365"}}, {"name": "Muratlı Devlet Hastanesi", "latitude": 41.1573757, "longitude": 27.4929987, "source": "osm", "_tags": {"addr:city": "Muratlı", "addr:district": "Muratlı", "amenity": "hospital", "barrier": "wall", "healthcare": "hospital", "name": "Muratlı Devlet Hastanesi", "operator": "Sağlık Bakanlığı", "operator:wikidata": "Q4294365"}}, {"name": "Yaşam Hastanesi", "latitude": 40.9830257, "longitude": 27.5701908, "source": "osm", "_tags": {"addr:street": "Fatih Sultan Mehmet Blv.", "amenity": "hospital", "building": "hospital", "emergency": "yes", "healthcare": "hospital", "name": "Yaşam Hastanesi"}}, {"name": "Yenibağlar ASM", "latitude": 41.1505861, "longitude": 27.8077685, "source": "osm", "_tags": {"addr:city": "Çorlu", "addr:country": "TR", "addr:province": "Tekirdağ", "amenity": "hospital", "building": "hospital", "healthcare": "hospital", "name": "Yenibağlar ASM"}}, {"name": "Çobançeşme ASM", "latitude": 41.1515286, "longitude": 27.7969824, "source": "osm", "_tags": {"addr:city": "Çorlu", "addr:country": "TR", "addr:province": "Tekirdağ", "amenity": "hospital", "building": "hospital", "healthcare": "hospital", "name": "Çobançeşme ASM"}}, {"name": "Kumyol ASM", "latitude": 41.1591335, "longitude": 27.7954032, "source": "osm", "_tags": {"addr:city": "Çorlu", "addr:country": "TR", "addr:province": "Tekirdağ", "amenity": "hospital", "building": "hospital", "healthcare": "hospital", "name": "Kumyol ASM"}}, {"name": "Mandıracı ASM", "latitude": 41.1570455, "longitude": 27.8037632, "source": "osm", "_tags": {"addr:city": "Çorlu", "addr:country": "TR", "addr:province": "Tekirdağ", "amenity": "hospital", "building": "hospital", "healthcare": "hospital", "name": "Mandıracı ASM"}}, {"name": "Muhittin ASM", "latitude": 41.153349, "longitude": 27.814307, "source": "osm", "_tags": {"addr:city": "Çorlu", "addr:country": "TR", "addr:province": "Tekirdağ", "amenity": "hospital", "building": "hospital", "healthcare": "hospital", "name": "Muhittin ASM"}}, {"name": "Askent aile sağlık merkezi", "latitude": 41.1524127, "longitude": 27.7981894, "source": "osm", "_tags": {"addr:city": "Çorlu", "addr:country": "TR", "addr:province": "Tekirdağ", "amenity": "hospital", "building": "hospital", "healthcare": "hospital", "name": "Askent aile sağlık merkezi"}}, {"name": "Havuzlar ASM", "latitude": 41.1402612, "longitude": 27.8005052, "source": "osm", "_tags": {"addr:city": "Çorlu", "addr:country": "TR", "addr:province": "Tekirdağ", "amenity": "hospital", "building": "hospital", "healthcare": "hospital", "name": "Havuzlar ASM"}}, {"name": "Nusratiye ASM", "latitude": 41.1616667, "longitude": 27.8147854, "source": "osm", "_tags": {"addr:city": "Çorlu", "addr:country": "TR", "addr:province": "Tekirdağ", "amenity": "hospital", "building": "hospital", "healthcare": "hospital", "name": "Nusratiye ASM"}}, {"name": "Fidanlık ASM", "latitude": 41.1651614, "longitude": 27.8011044, "source": "osm", "_tags": {"addr:city": "Çorlu", "addr:country": "TR", "addr:province": "Tekirdağ", "amenity": "hospital", "building": "hospital", "healthcare": "hospital", "name": "Fidanlık ASM"}}, {"name": "Bağlariçi Aile Sağlığı Merkezi", "latitude": 41.1541249, "longitude": 27.8132376, "source": "osm", "_tags": {"addr:city": "Çorlu", "addr:country": "TR", "addr:province": "Tekirdağ", "alt_name": "Bağlariçi ASM", "amenity": "hospital", "building": "hospital", "healthcare": "hospital", "healthcare:speciality": "general;family", "name": "Bağlariçi Aile Sağlığı Merkezi", "operator": "Tekirdağ İl Sağlık Müdürlüğü"}}, {"name": "Namık Kemal Üniversitesi Araştırma ve Uygulama Hastanesi", "latitude": 40.9548355, "longitude": 27.4910475, "source": "osm", "_tags": {"addr:city": "Tekirdağ", "addr:district": "Süleymanpaşa", "addr:neighbourhood": "100. Yıl Mahaallesi", "addr:postcode": "59100", "addr:street": "Barbaros Caddesi", "amenity": "hospital", "healthcare": "hospital", "name": "Namık Kemal Üniversitesi Araştırma ve Uygulama Hastanesi"}}, {"name": "Marmaraereğlisi İlçe Hastanesi", "latitude": 40.9729727, "longitude": 27.9318039, "source": "osm", "_tags": {"amenity": "hospital", "healthcare": "hospital", "name": "Marmaraereğlisi İlçe Hastanesi"}}, {"name": "Çırakbayırı ASM", "latitude": 41.1628789, "longitude": 27.7907404, "source": "osm", "_tags": {"addr:city": "Çorlu", "addr:country": "TR", "addr:province": "Tekirdağ", "amenity": "hospital", "building": "hospital", "healthcare": "hospital", "name": "Çırakbayırı ASM"}}, {"name": "Tekirdağ Doktor İsmail Fehmi Cumalıoğlu Şehir Hastanesi", "latitude": 41.0073214, "longitude": 27.5252839, "source": "osm", "_tags": {"addr:city": "Tekirdağ", "addr:district": "Süleymanpaşa", "addr:housenumber": "13", "addr:neighbourhood": "İstiklal", "addr:postcode": "59200", "addr:street": "Yemen Sokak", "alt_name": "Tekirdağ Şehir Hastanesi", "amenity": "hospital", "email": "tekirdag.sh@saglik.gov.tr", "emergency": "yes", "healthcare": "hospital", "name": "Tekirdağ Doktor İsmail Fehmi Cumalıoğlu Şehir Hastanesi", "name:en": "Tekirdağ Doktor İsmail Fehmi Cumalıoğlu City Hospital", "operator": "Sağlık Bakanlığı", "operator:type": "government", "operator:wikidata": "Q4294365", "phone": "+90 282 204 0900", "start_date": "2020-11-13", "website": "https://tekirdagsehir.saglik.gov.tr/"}}, {"name": "Çorlu Ağız ve Diş sağlığı merkezi", "latitude": 41.1526425, "longitude": 27.8335875, "source": "osm", "_tags": {"amenity": "hospital", "building": "hospital", "healthcare": "hospital", "name": "Çorlu Ağız ve Diş sağlığı merkezi"}}, {"name": "Uzunhacı Sağlık Evi", "latitude": 41.3450003, "longitude": 27.8358102, "source": "osm", "_tags": {"addr:country": "TR", "addr:district": "Kapaklı", "addr:province": "Tekirdağ", "amenity": "hospital", "building": "yes", "name": "Uzunhacı Sağlık Evi", "operator": "T.C. Sağlık Bakanlığı"}}, {"name": "Muratlı Devlet Hastanesi", "latitude": 41.1570639, "longitude": 27.4938098, "source": "osm", "_tags": {"addr:city": "Muratlı", "addr:district": "Muratlı", "amenity": "hospital", "healthcare": "hospital", "name": "Muratlı Devlet Hastanesi", "operator": "Sağlık Bakanlığı", "operator:wikidata": "Q4294365"}}, {"name": "Özel Balkan Hastanesi", "latitude": 41.4069499, "longitude": 27.2839783, "source": "osm", "_tags": {"addr:district": "Lüleburgaz", "addr:neighbourhood": "Ayvalı", "amenity": "hospital", "healthcare": "hospital", "name": "Özel Balkan Hastanesi", "phone": "+902884170707"}}, {"name": "Özel Medikent Hastanesi", "latitude": 41.4078856, "longitude": 27.3325902, "source": "osm", "_tags": {"addr:city": "Kırklareli", "addr:country": "TR", "addr:district": "Lüleburgaz", "addr:neighbourhood": "Dere Mahallesi", "addr:postcode": "39750", "addr:province": "Kırklareli", "addr:street": "Edirne Bayırı - Lüleburgaz", "addr:subdistrict": "Ayvalı", "amenity": "hospital", "email": "info@medikent.com.tr", "emergency": "yes", "fax": "0902884124600", "healthcare": "hospital", "healthcare:speciality": "general", "internet_access": "wlan", "name": "Özel Medikent Hastanesi", "phone": "0902884175050", "source": "bing", "website": "http://www.medikent.com.trv", "wheelchair": "yes"}}, {"name": "Sedat Uysalcan Aile Sağlığı Merkezi", "latitude": 41.1452778, "longitude": 27.8304488, "source": "osm", "_tags": {"amenity": "hospital", "building": "hospital", "healthcare": "hospital", "healthcare:speciality": "general", "name": "Sedat Uysalcan Aile Sağlığı Merkezi", "operator": "T.C. Sağlık Bakanlığı"}}, {"name": "Şarköy Devlet Hastanesi", "latitude": 40.6199953, "longitude": 27.0941499, "source": "osm", "_tags": {"addr:city": "Tekirdağ", "addr:district": "Şarköy", "addr:housenumber": "2", "addr:neighbourhood": "İstiklal", "addr:postcode": "59800", "addr:street": "Tavşan Pınar Mevkii Sokak", "amenity": "hospital", "email": "tekirdagdhs10@saglik.gov.tr", "emergency": "yes", "fax": "+90 282 518 1886", "healthcare": "hospital", "name": "Şarköy Devlet Hastanesi", "name:el": "Κρατικό Νοσοκομείο Σάρκιοϊ", "name:en": "Şarköy State Hospital", "opening_hours": "24/7", "operator": "Sağlık Bakanlığı", "operator:wikidata": "Q4294365", "operator:wikipedia": "tr:Türkiye Cumhuriyeti Sağlık Bakanlığı", "phone": "+90 282 518 1343", "website": "https://sarkoydh.saglik.gov.tr/"}}, {"name": "Lüleburgaz Devlet Hastanesi", "latitude": 41.3981345, "longitude": 27.3731418, "source": "osm", "_tags": {"addr:city": "Lüleburgaz", "addr:district": "Lüleburgaz", "addr:housenumber": "170", "addr:neighbourhood": "İstiklal Mahallesi", "addr:street": "İstanbul Caddesi", "amenity": "hospital", "emergency": "yes", "healthcare": "hospital", "healthcare:speciality": "general", "name": "Lüleburgaz Devlet Hastanesi", "operator": "Sağlık Bakanlığı", "operator:type": "government", "operator:wikidata": "Q4294365"}}, {"name": "Lüleburgaz Yeni Devlet Hastanesi", "latitude": 41.3981969, "longitude": 27.3736903, "source": "osm", "_tags": {"addr:city": "Lüleburgaz", "addr:district": "Lüleburgaz", "addr:neighbourhood": "İstiklal Mahallesi", "addr:street": "İstanbul Caddesi", "amenity": "hospital", "emergency": "yes", "healthcare": "hospital", "name": "Lüleburgaz Yeni Devlet Hastanesi", "operator": "Sağlık Bakanlığı", "operator:type": "government", "operator:wikidata": "Q4294365", "operator:wikipedia": "tr:Türkiye Cumhuriyeti Sağlık Bakanlığı"}}, {"name": "MAVİ VETERİNER KLİNİĞİ", "latitude": 41.1465095, "longitude": 27.8160715, "source": "osm", "_tags": {"addr:city": "TEKİRDAĞ", "addr:district": "ÇORLU", "addr:housenumber": "54/B", "addr:neighbourhood": "RUMELİ MALLESİ", "addr:postcode": "59850", "addr:street": "İsmet Paşa Bulvarı", "building": "apartments", "healthcare": "hospital", "healthcare:speciality": "general", "name": "MAVİ VETERİNER KLİNİĞİ", "operator": "VETERİNER", "phone": "05335001059", "start_date": "2022*2*6", "wikipedia": "tr:Mavi veteriner kliniği"}}, {"name": "Çorlu Ağız ve Diş Sağlığı Merkezi", "latitude": 41.1503734, "longitude": 27.8475098, "source": "osm", "_tags": {"addr:city": "Çorlu", "addr:district": "Çorlu", "amenity": "hospital", "healthcare": "hospital", "healthcare:speciality": "dentistry", "name": "Çorlu Ağız ve Diş Sağlığı Merkezi"}}, {"name": "Çorlu Devlet Hastanesi", "latitude": 41.1413897, "longitude": 27.8414113, "source": "osm", "_tags": {"amenity": "hospital", "healthcare": "hospital", "name": "Çorlu Devlet Hastanesi"}}, {"name": "Marmara İlçe Hastanesi", "latitude": 40.587991, "longitude": 27.5571754, "source": "osm", "_tags": {"amenity": "hospital", "healthcare": "hospital", "name": "Marmara İlçe Hastanesi"}}, {"name": "Uçmakdere Sağlık Evi", "latitude": 40.7981725, "longitude": 27.3659092, "source": "osm", "_tags": {"amenity": "hospital", "building": "hospital", "name": "Uçmakdere Sağlık Evi"}}, {"name": "Tekirdağ Namık Kemal Üniversitesi Hastanesi", "latitude": 40.9969185, "longitude": 27.5872456, "source": "osm", "_tags": {"amenity": "hospital", "emergency": "yes", "healthcare": "hospital", "name": "Tekirdağ Namık Kemal Üniversitesi Hastanesi", "opening_hours": "24/7", "operator": "Tekirdağ Namık Kemal Üniversitesi", "operator:type": "public", "operator:wikidata": "Q1964403", "operator:wikipedia": "tr:Tekirdağ Namık Kemal Üniversitesi", "phone": "+90 282 250 50 50", "website": "https://hastane.nku.edu.tr/", "wheelchair": "yes"}}, {"name": "Özel Bir Nefes Hastanesi", "latitude": 41.3931613, "longitude": 27.3589761, "source": "osm", "_tags": {"addr:city": "Lüleburgaz", "addr:district": "Lüleburgaz", "addr:neighbourhood": "Siteler Mahallesi", "addr:postcode": "39750", "addr:street": "Nazif Balkan Caddesi", "amenity": "hospital", "emergency": "yes", "healthcare": "hospital", "name": "Özel Bir Nefes Hastanesi", "phone": "(0288) 415 74 74", "type": "multipolygon", "website": "https://www.birnefes.com.tr/"}}]