[{"name": "ΙΚΑ", "latitude": 40.6046629, "longitude": 22.9534869, "source": "osm", "_tags": {"amenity": "hospital", "healthcare": "hospital", "name": "ΙΚΑ"}}, {"name": "Ε.Κ.Α.Β.", "latitude": 40.6036702, "longitude": 22.9680334, "source": "osm", "_tags": {"amenity": "hospital", "healthcare": "hospital", "name": "Ε.Κ.Α.Β."}}, {"name": "", "latitude": 40.5482527, "longitude": 23.1658621, "source": "osm", "_tags": {"amenity": "hospital", "healthcare": "hospital"}}, {"name": "Νοσοκομείο Γεώργιος Γεννηματάς", "latitude": 40.6339478, "longitude": 22.9553897, "source": "osm", "_tags": {"addr:city": "Θεσσαλονίκη", "addr:street": "Αγίου Δημητρίου", "amenity": "hospital", "healthcare": "hospital", "name": "Νοσοκομείο Γεώργιος Γεννηματάς", "name:de": "Georgios Gennimatas Krankenhaus", "name:el": "Νοσοκομείο Γεώργιος Γεννηματάς", "name:el:en": "Nosokomio Georgios Giannimatas", "name:en": "Georgios Gennimatas Hospital", "name:etymology:wikidata": "Q3561313", "wikidata": "Q21626619"}}, {"name": "Γενικό Νοσοκομείο Άγιος Δημήτριος", "latitude": 40.6370598, "longitude": 22.9585037, "source": "osm", "_tags": {"alt_name": "Νοσοκομείο Άγιος Δημήτριος", "amenity": "hospital", "healthcare": "hospital", "name": "Γενικό Νοσοκομείο Άγιος Δημήτριος", "name:de": "Allgemeines Krankenhaus Agios Dimitrios", "name:el": "Γενικό Νοσοκομείο Άγιος Δημήτριος", "name:el:en": "Geniko Nosokomio Agios Dimitrios", "name:en": "Agios Dimitrios General Hospital", "short_name": "Γ.Ν. Άγιος Δημήτριος", "wikidata": "Q21626622"}}, {"name": "Πανεπιστημιακό Νοσοκομείο ΑΧΕΠΑ", "latitude": 40.6292653, "longitude": 22.9609362, "source": "osm", "_tags": {"amenity": "hospital", "healthcare": "hospital", "name": "Πανεπιστημιακό Νοσοκομείο ΑΧΕΠΑ", "name:el": "Πανεπιστημιακό Νοσοκομείο ΑΧΕΠΑ", "name:en": "Achepa University Hospital", "wikidata": "Q1089471", "wikipedia": "el:Νοσοκομείο ΑΧΕΠΑ"}}, {"name": "Κλινική Θέρμη", "latitude": 40.5287753, "longitude": 23.0108575, "source": "osm", "_tags": {"addr:city": "Θέρμη", "addr:postcode": "57001", "amenity": "hospital", "healthcare": "hospital", "name": "Κλινική Θέρμη", "phone": "+30 2310 024800", "website": "https://www.klinikithermi.gr/"}}, {"name": "Γενικό Νοσοκομείο Θεσσαλονίκης - \"Ιπποκράτειο\"", "latitude": 40.6129385, "longitude": 22.9620401, "source": "osm", "_tags": {"addr:city": "Θεσσαλονίκη", "addr:street": "Κωνσταντίνου Καραμανλή", "amenity": "hospital", "healthcare": "hospital", "name": "Γενικό Νοσοκομείο Θεσσαλονίκης - \"Ιπποκράτειο\"", "wikidata": "Q21626617", "wikipedia": "el:Ιπποκράτειο (Θεσσαλονίκη)"}}, {"name": "Δερματικών και Αφροδισίων", "latitude": 40.6056483, "longitude": 22.9575101, "source": "osm", "_tags": {"amenity": "hospital", "building": "yes", "description": "Dermatological and STD Hospital", "healthcare": "hospital", "name": "Δερματικών και Αφροδισίων", "name:el:en": "Dermatikon & Afrodision", "wikidata": "Q30280932"}}, {"name": "Ψυχιατρικό Νοσοκομείο Θεσσαλονίκης", "latitude": 40.6662839, "longitude": 22.9403365, "source": "osm", "_tags": {"amenity": "hospital", "barrier": "wall", "emergency": "yes", "health_facility:type": "hospital", "healthcare": "hospital", "healthcare:speciality": "psychiatry", "name": "Ψυχιατρικό Νοσοκομείο Θεσσαλονίκης", "wikidata": "Q21626627"}}, {"name": "Νοσοκομείο Παπανικολάου", "latitude": 40.6313222, "longitude": 23.0442266, "source": "osm", "_tags": {"amenity": "hospital", "emergency": "yes", "healthcare": "hospital", "int_name": "Nosokomeio Papanikolaou", "name": "Νοσοκομείο Παπανικολάου", "name:el": "Νοσοκομείο Παπανικολάου", "name:en": "Papanikolaou Hospital", "wikidata": "Q21626614"}}, {"name": "Γενικό Νοσοκομείο Θεσσαλονίκης Άγιος Παύλος", "latitude": 40.5775915, "longitude": 22.9705614, "source": "osm", "_tags": {"addr:city": "Θεσσαλονίκη", "addr:country": "GR", "addr:housenumber": "161", "addr:postcode": "55134", "addr:street": "Εθνικής Αντιστάσεως", "amenity": "hospital", "healthcare": "hospital", "name": "Γενικό Νοσοκομείο Θεσσαλονίκης Άγιος Παύλος", "name:el": "Γενικό Νοσοκομείο Θεσσαλονίκης Άγιος Παύλος", "name:en": "St. Paul General Hospital of Thessaloniki", "wikidata": "Q4692654", "wikipedia": "en:Agios Pavlos General Hospital"}}, {"name": "Αρωγή", "latitude": 40.6044826, "longitude": 23.001646, "source": "osm", "_tags": {"addr:city": "Πυλαία", "addr:postcode": "555 35", "addr:street": "17ης Νοεμβρίου", "amenity": "hospital", "emergency": "no", "full_name": "Κέντρο Αποκατάστασης", "healthcare": "hospital", "healthcare:speciality": "physiatry", "name": "Αρωγή", "name:el": "Αρωγή", "website": "https://euromedica-arogi.gr/"}}, {"name": "Γένεσις", "latitude": 40.6050082, "longitude": 23.0037849, "source": "osm", "_tags": {"addr:city": "Πυλαία", "addr:postcode": "555 35", "addr:street": "17ης Νοεμβρίου", "amenity": "hospital", "emergency": "yes", "healthcare": "hospital", "healthcare:speciality": "gynaecology;plastic_surgery;surgery;intensive", "name": "Γένεσις", "name:el": "Γένεσις", "name:en": "Genesis", "phone": "+30 2310984000", "website": "https://genesishospital.gr/"}}, {"name": "Θεαγένειο Αντικαρκινικό Νοσοκομείο Θεσσαλονίκης", "latitude": 40.6177705, "longitude": 22.9600721, "source": "osm", "_tags": {"addr:city": "Θεσσαλονίκη", "addr:housenumber": "2", "addr:postcode": "546 39", "addr:street": "Αλεξάνδρου Συμεωνίδη", "amenity": "hospital", "beds": "318", "building": "yes", "contact:phone": "+30 2313301848", "emergency": "no", "health_amenity:type": "dialysis;imaging_equipment;intensive_care_unit;laboratory;mri;operating_theater;ultrasound;x_ray", "healthcare": "hospital", "healthcare:speciality": "oncology", "insurance:health": "public", "int_name": "Theagenio Hospital", "name": "Θεαγένειο Αντικαρκινικό Νοσοκομείο Θεσσαλονίκης", "name:de": "Antikrebskrankenhaus Thessaloniki \"Theagenio\"", "name:el": "Θεαγένειο Αντικαρκινικό Νοσοκομείο Θεσσαλονίκης", "name:en": "Anticancer Hospital of Thessaloniki \"Theagenio\"", "name:fr": "Hôpital contre le cancer Thessalonique \"Theagenio\"", "operational_status": "operational", "operator:type": "government", "part_time_beds": "41", "url": "https://theageneio.gov.gr/", "wheelchair": "yes", "wikidata": "Q21626146"}}, {"name": "Γενικό Νοσοκομείο Σερρών", "latitude": 41.0899819, "longitude": 23.5826677, "source": "osm", "_tags": {"amenity": "hospital", "healthcare": "hospital", "name": "Γενικό Νοσοκομείο Σερρών", "name:el": "Γενικό Νοσοκομείο Σερρών", "wikidata": "Q21626632"}}, {"name": "Ιατρικό Διαβαλκανικό Θεσσαλονίκης", "latitude": 40.5474946, "longitude": 22.9876052, "source": "osm", "_tags": {"addr:city": "Πυλαία", "addr:housenumber": "10", "addr:postcode": "57001", "addr:street": "Ασκληπιού", "alt_name": "Ιατρικό Διαβαλκανικό Κέντρο Θεσσαλονίκης", "amenity": "hospital", "emergency": "yes", "fax": "+30 2310 471056", "healthcare": "hospital", "name": "Ιατρικό Διαβαλκανικό Θεσσαλονίκης", "opening_hours": "24/7", "phone": "+30 2310 400000", "website": "https://www.iatriko.gr/el/iatriko-diavalkaniko?cl=614"}}, {"name": "МБАЛ Рокфелер", "latitude": 41.397662, "longitude": 23.2045602, "source": "osm", "_tags": {"amenity": "hospital", "emergency": "yes", "healthcare": "hospital", "name": "МБАЛ Рокфелер"}}, {"name": "ΓΝΠ - Επείγοντα Περιστατικά", "latitude": 40.6763902, "longitude": 22.9629693, "source": "osm", "_tags": {"addr:city": "Ευκαρπία", "addr:postcode": "56403", "addr:street": "Περιφερειακή Οδός Θεσσαλονίκης", "building": "hospital", "emergency": "yes", "healthcare": "hospital", "name": "ΓΝΠ - Επείγοντα Περιστατικά", "name:el": "ΓΝΠ  - Επείγοντα Περιστατικά", "name:en": "PGH - Emergency Department"}}, {"name": "Μονάδα Ημερήσιας Νοσηλείας Νίκος Κούρκουλος", "latitude": 40.5906259, "longitude": 22.9816763, "source": "osm", "_tags": {"addr:street": "Ερατούς", "amenity": "hospital", "healthcare": "hospital", "name": "Μονάδα Ημερήσιας Νοσηλείας Νίκος Κούρκουλος"}}, {"name": "Άγιος Λουκάς", "latitude": 40.5939128, "longitude": 23.0148242, "source": "osm", "_tags": {"addr:city": "Πανόραμα", "addr:postcode": "55236", "amenity": "hospital", "healthcare": "hospital", "int_name": "Agios Loukas", "name": "Άγιος Λουκάς", "name:el": "Άγιος Λουκάς", "name:en": "St Luke's Hospital", "phone": "+302310380000", "website": "https://www.klinikiagiosloukas.gr/", "wikidata": "Q30281021"}}, {"name": "NHPO", "latitude": 40.7132175, "longitude": 23.3789458, "source": "osm", "_tags": {"amenity": "hospital", "healthcare": "hospital", "name": "NHPO"}}, {"name": "Κέντρο Υγείας Ζαγκλιβερίου", "latitude": 40.5740882, "longitude": 23.2845272, "source": "osm", "_tags": {"amenity": "hospital", "healthcare": "hospital", "name": "Κέντρο Υγείας Ζαγκλιβερίου"}}, {"name": "Κέντρο Υγείας Λαγκαδά", "latitude": 40.7470388, "longitude": 23.0708514, "source": "osm", "_tags": {"addr:city": "Λαγκαδάς", "addr:housenumber": "20", "addr:postcode": "57200", "addr:street": "Λουτρών", "amenity": "hospital", "building": "yes", "healthcare": "hospital", "name": "Κέντρο Υγείας Λαγκαδά", "phone": "+30 2394330700", "source": "microsoft/BuildingFootprints"}}, {"name": "Γενικό Νοσοκομείο Παπαγεωργίου", "latitude": 40.6759526, "longitude": 22.9630121, "source": "osm", "_tags": {"addr:city": "Ευκαρπία", "addr:postcode": "56403", "addr:street": "Περιφερειακή Οδός Θεσσαλονίκης", "amenity": "hospital", "emergency": "yes", "healthcare": "hospital", "name": "Γενικό Νοσοκομείο Παπαγεωργίου", "name:el": "Γενικό Νοσοκομείο Παπαγεωργίου", "name:en": "Papageorgiou General Hospital", "website": "https://www.papageorgiou-hospital.gr", "wikidata": "Q21626616"}}, {"name": "Κέντρο Υγείας Θέρμης", "latitude": 40.5385029, "longitude": 23.0071129, "source": "osm", "_tags": {"addr:city": "Θέρμη", "addr:postcode": "570 01", "addr:street": "13ο χλμ Θεσσαλονίκης-Μουδανιών", "email": "ky.thermis@4ype-pfy.gr", "healthcare": "hospital", "name": "Κέντρο Υγείας Θέρμης", "phone": "+30 2313 310800", "website": "https://www.facebook.com/kentro.Ygeias.Thermhs"}}, {"name": "424 Γενικό Στρατιωτικό Νοσοκομείο Εκπαιδεύσεως", "latitude": 40.6730346, "longitude": 22.9641017, "source": "osm", "_tags": {"addr:city": "Ευκαρπία", "addr:postcode": "56403", "addr:street": "Περιφερειακή Οδός Θεσσαλονίκης", "amenity": "hospital", "building": "hospital", "emergency": "no", "healthcare": "hospital", "name": "424 Γενικό Στρατιωτικό Νοσοκομείο Εκπαιδεύσεως", "name:el": "424 Γενικό Στρατιωτικό Νοσοκομείο Εκπαιδεύσεως", "name:en": "424 Army General Hospital", "type": "multipolygon", "url": "http://armyold.army.gr/structure/eg/dieuthinseis/DYG/424_Web/424/index.html", "wikidata": "Q21626628"}}, {"name": "ΓΝΠ - Τακτικά Εξωτερικά Ιατρεία", "latitude": 40.6759492, "longitude": 22.9626154, "source": "osm", "_tags": {"addr:city": "Ευκαρπία", "addr:postcode": "56403", "addr:street": "Περιφερειακή Οδός Θεσσαλονίκης", "building": "hospital", "emergency": "no", "healthcare": "hospital", "name": "ΓΝΠ - Τακτικά Εξωτερικά Ιατρεία", "name:el": "ΓΝΠ - Τακτικά Εξωτερικά Ιατρεία", "name:en": "PGH - Outpatient Department", "type": "multipolygon"}}]