[{"name": "Hospital Evangèlic", "latitude": 41.4111635, "longitude": 2.1590499, "source": "osm", "_tags": {"amenity": "hospital", "name": "Hospital Evangèlic", "wheelchair": "yes"}}, {"name": "Centre de Salut Mental Infantil i Juvenil Sant Boi", "latitude": 41.3464296, "longitude": 2.0381879, "source": "osm", "_tags": {"addr:city": "Sant Boi de Llobregat", "addr:housenumber": "21", "addr:postcode": "08830", "addr:street": "Carrer de Lluís Castells", "amenity": "hospital", "description": "Centre de Salut Mental Infantil i Juvenil depenent del Pla de Salut Mental de la Generalitat de Catalunya", "healthcare": "hospital", "healthcare:speciality": "physiotherapy;psychiatry", "name": "Centre de Salut Mental Infantil i Juvenil Sant Boi", "operator": "Fundació Orienta", "operator:type": "public", "short_name": "CSMIJ Sant Boi", "website": "https://www.fundacioorienta.com/", "wheelchair": "yes"}}, {"name": "Hospital de Nens de Barcelona", "latitude": 41.3970879, "longitude": 2.1733003, "source": "osm", "_tags": {"amenity": "hospital", "check_date": "2025-09-21", "for": "children", "healthcare": "hospital", "healthcare:speciality": "paediatrics", "name": "Hospital de Nens de Barcelona", "wikidata": "Q50036655"}}, {"name": "", "latitude": 41.3126044, "longitude": 2.0142445, "source": "osm", "_tags": {"amenity": "hospital", "healthcare": "hospital"}}, {"name": "", "latitude": 41.3216302, "longitude": 2.018367, "source": "osm", "_tags": {"amenity": "hospital", "healthcare": "hospital"}}, {"name": "", "latitude": 41.3233325, "longitude": 2.0143356, "source": "osm", "_tags": {"amenity": "hospital", "healthcare": "centre"}}, {"name": "", "latitude": 41.3205026, "longitude": 2.0089699, "source": "osm", "_tags": {"amenity": "hospital", "healthcare": "dentist"}}, {"name": "", "latitude": 41.3174899, "longitude": 2.0094311, "source": "osm", "_tags": {"amenity": "hospital", "healthcare": "rehabilitation"}}, {"name": "", "latitude": 41.32205, "longitude": 2.0186832, "source": "osm", "_tags": {"amenity": "hospital", "healthcare": "centre"}}, {"name": "Fundació Eulàlia Torras de Beà", "latitude": 41.400939, "longitude": 2.1636033, "source": "osm", "_tags": {"addr:housenumber": "11", "addr:street": "Carrer de Santa Eulàlia", "amenity": "hospital", "check_date": "2024-10-22", "description": "Entitat proveïdora del Sistema Català de Serveis Socials", "healthcare": "yes", "name": "Fundació Eulàlia Torras de Beà", "wheelchair": "yes"}}, {"name": "Hospital de Nens de Barcelona", "latitude": 41.397336, "longitude": 2.173848, "source": "osm", "_tags": {"amenity": "hospital", "name": "Hospital de Nens de Barcelona"}}, {"name": "Hispital Cima. Sanitas", "latitude": 41.3913113, "longitude": 2.123309, "source": "osm", "_tags": {"addr:housenumber": "29", "addr:street": "Passeig de Manuel Girona", "amenity": "hospital", "name": "Hispital Cima. Sanitas"}}, {"name": "Unitat Cirurgia sense ingrés Vall d'Hebron", "latitude": 41.4160141, "longitude": 2.1407119, "source": "osm", "_tags": {"amenity": "hospital", "building": "yes", "building:levels": "5", "building:name": "Tramuntana - Gregal", "name": "Unitat Cirurgia sense ingrés Vall d'Hebron", "name:ca": "Unitat Cirurgia sense ingrés Vall d'Hebron", "ref": "2,3"}}, {"name": "Hospital Vall d'Hebron. Edifici Garbí", "latitude": 41.4146719, "longitude": 2.1404962, "source": "osm", "_tags": {"amenity": "hospital", "building": "hospital", "building:name": "Garbí", "healthcare": "hospital", "name": "Hospital Vall d'Hebron. Edifici Garbí", "operator": "Vall Hebron Barcelona Hospital Campus", "operator:type": "public", "ref": "8"}}, {"name": "Clínica Diagonal", "latitude": 41.3789601, "longitude": 2.0977163, "source": "osm", "_tags": {"amenity": "hospital", "building": "yes", "emergency": "yes", "healthcare": "hospital", "name": "Clínica Diagonal", "wikidata": "Q50037252"}}, {"name": "Hospital El Pilar", "latitude": 41.4001334, "longitude": 2.1482111, "source": "osm", "_tags": {"amenity": "hospital", "healthcare": "hospital", "name": "Hospital El Pilar", "operator": "Grupo Quiron Salud", "phone": "+34 93 236 05 00", "website": "https://www.quironsalud.es/pilar", "wikidata": "Q87761487", "wikimedia_commons": "Category:Hospital el Pilar"}}, {"name": "Clínica Teknon", "latitude": 41.4063869, "longitude": 2.1278903, "source": "osm", "_tags": {"addr:postcode": "08022", "amenity": "hospital", "emergency": "yes", "healthcare": "hospital", "name": "Clínica Teknon", "name:ca": "Clínica Teknon"}}, {"name": "Hospital General de l'Hospitalet", "latitude": 41.3741705, "longitude": 2.107182, "source": "osm", "_tags": {"amenity": "hospital", "emergency": "yes", "healthcare": "hospital", "name": "Hospital General de l'Hospitalet", "name:ca": "Hospital General de l'Hospitalet", "wikidata": "Q87668614"}}, {"name": "Hospital Evangelic", "latitude": 41.4013987, "longitude": 2.1944986, "source": "osm", "_tags": {"amenity": "hospital", "name": "Hospital Evangelic"}}, {"name": "Parc Sanitari Sant Joan de Déu", "latitude": 41.3527576, "longitude": 2.0344361, "source": "osm", "_tags": {"amenity": "hospital", "healthcare": "hospital", "landuse": "healthcare", "name": "Parc Sanitari Sant Joan de Déu", "name:ca": "Parc Sanitari Sant Joan de Déu", "source": "Catastro;AMB", "source:date": "2017-01", "wikidata": "Q30263898"}}, {"name": "Hospital de l'Esperança", "latitude": 41.41066, "longitude": 2.1545767, "source": "osm", "_tags": {"addr:postcode": "08024", "amenity": "hospital", "emergency": "yes", "healthcare": "hospital", "name": "Hospital de l'Esperança", "name:ca": "Hospital de l'Esperança", "wheelchair": "yes", "wikidata": "Q23687329"}}, {"name": "Hospital Universitari de Bellvitge", "latitude": 41.3452979, "longitude": 2.1046476, "source": "osm", "_tags": {"amenity": "hospital", "emergency": "yes", "healthcare": "hospital", "name": "Hospital Universitari de Bellvitge", "name:ca": "Hospital Universitari de Bellvitge", "name:en": "University Hospital of Bellvitge", "website": "https://bellvitgehospital.cat/", "wikidata": "Q9004934", "wikimedia_commons": "Category:Hospital de Bellvitge", "wikipedia": "ca:Hospital Universitari de Bellvitge"}}, {"name": "Eudona Barcelona", "latitude": 41.3880133, "longitude": 2.1383423, "source": "osm", "_tags": {"addr:city": "Barcelona", "addr:housenumber": "82, 84", "addr:postcode": "08029", "addr:street": "Carrer de l'Equador", "amenity": "doctors", "building": "yes", "healthcare": "hospital", "healthcare:speciality": "gynaecology", "name": "Eudona Barcelona", "phone": "+34 900507097", "source": "Ajuntament de Barcelona - CartoBCN (@2013-11-10)", "website": "https://www.eudona.com/"}}, {"name": "Hospital de la Santa Creu i Sant Pau", "latitude": 41.4150661, "longitude": 2.1743117, "source": "osm", "_tags": {"alt_name": "Hospital de Sant Pau", "building": "hospital", "building:levels": "5", "check_date": "2024-09-18", "emergency": "yes", "healthcare": "hospital", "name": "Hospital de la Santa Creu i Sant Pau", "name:ca": "Hospital de la Santa Creu i Sant Pau", "name:zh": "聖十字、聖保羅醫院", "panoramax": "eb524c4b-624f-48cf-8abd-a5ca458b9d9f", "panoramax:0": "acc4adeb-2ce9-48f6-ba6e-d4c69c05f22f", "panoramax:1": "b520abfc-8825-4af3-98f4-e20af22d1d72", "panoramax:2": "a017af39-9fc2-4ae7-97a4-00988962004c", "wikidata": "Q507282", "wikimedia_commons": "Category:Hospital de la Santa Creu i Sant Pau", "wikipedia": "ca:Hospital de la Santa Creu i Sant Pau"}}, {"name": "Fundació Puigvert - Iuna", "latitude": 41.4129259, "longitude": 2.1727758, "source": "osm", "_tags": {"amenity": "hospital", "building": "public", "building:levels": "5", "building:levels:underground": "1", "name": "Fundació Puigvert - Iuna", "phone": "+34 934 16 97 00", "website": "https://www.fundacio-puigvert.es/", "wheelchair": "yes", "wikidata": "Q87761494"}}, {"name": "Clínica Sagrada Família", "latitude": 41.4004669, "longitude": 2.1341745, "source": "osm", "_tags": {"amenity": "hospital", "contact:email": "info@clinicasagradafamilia.com", "contact:fax": "+34 932124050", "contact:phone": "+34 932122300", "contact:website": "http://csf.com.es/", "healthcare": "hospital", "name": "Clínica Sagrada Família", "name:ca": "Clínica Sagrada Família", "wikidata": "Q27903898", "wikipedia": "ca:Clínica Sagrada Família"}}, {"name": "Hospital del Mar-urgències", "latitude": 41.3836763, "longitude": 2.1933174, "source": "osm", "_tags": {"building": "hospital", "building:levels": "2", "emergency": "yes", "healthcare": "hospital", "name": "Hospital del Mar-urgències"}}, {"name": "Hospital Clínic de Barcelona. Seu Plató", "latitude": 41.401314, "longitude": 2.1422817, "source": "osm", "_tags": {"addr:street": "Carrer de Plató", "amenity": "hospital", "building": "yes", "healthcare": "hospital", "internet_access": "wlan", "name": "Hospital Clínic de Barcelona. Seu Plató", "name:ca": "Hospital Clínic de Barcelona. Seu Plató", "name:es": "Hospital Clínic de Barcelona. Seu Plató", "wheelchair": "yes"}}, {"name": "Consorci Mar Parc de Salut de Barcelona", "latitude": 41.4127594, "longitude": 2.2185082, "source": "osm", "_tags": {"amenity": "hospital", "building": "public", "building:levels": "7", "building:levels:underground": "1", "healthcare": "hospital", "name": "Consorci Mar Parc de Salut de Barcelona", "name:ca": "Consorci Mar Parc de Salut de Barcelona"}}, {"name": "Hospital Sant Joan de Déu", "latitude": 41.3843723, "longitude": 2.1018898, "source": "osm", "_tags": {"amenity": "hospital", "emergency": "yes", "healthcare": "hospital", "name": "Hospital Sant Joan de Déu", "name:ca": "Hospital Sant Joan de Déu", "wheelchair": "yes", "wikidata": "Q11926104", "wikimedia_commons": "Category:Hospital Sant Joan de Déu", "wikipedia": "ca:Hospital Sant Joan de Déu Barcelona"}}, {"name": "Sant Honorat", "latitude": 41.412223, "longitude": 2.1360949, "source": "osm", "_tags": {"amenity": "clinic", "building": "yes", "healthcare": "hospital", "healthcare:speciality": "traumatologia", "name": "Sant Honorat", "wheelchair": "yes"}}, {"name": "Fundació sanitaria Sant Pere Claver", "latitude": 41.3730597, "longitude": 2.1733834, "source": "osm", "_tags": {"amenity": "hospital", "building": "public", "building:levels": "3", "healthcare": "hospital", "name": "Fundació sanitaria Sant Pere Claver"}}, {"name": "Complex Assistencial en Salut Mental Benito Menni", "latitude": 41.3497068, "longitude": 2.0369672, "source": "osm", "_tags": {"amenity": "hospital", "barrier": "wall", "description": "Serveis de salut mental Sagrat Cor de Jesús", "email": "hospital.hbmenni@hospitalarias.es", "fax": "+34 93 640 02 68", "landuse": "healthcare", "name": "Complex Assistencial en Salut Mental Benito Menni", "name:es": "Complejo Asistencial en Salud Mental Benito Menni", "operator": "Germanes Hospitalàries del Sagrat Cor de Jesús", "phone": "+34 93 652 99 99", "website": "https://www.hospitalbenitomenni.org/ca/complex-assistencial/benito-menni-complex-assitencial-en-salut-mental.html"}}, {"name": "Hospital de Sant Joan Despí Moisès Broggi", "latitude": 41.3733236, "longitude": 2.0724737, "source": "osm", "_tags": {"addr:city": "Sant Joan Despí", "addr:housenumber": "90", "addr:postcode": "08970", "addr:street": "Carrer de Jacint Verdaguer", "amenity": "hospital", "check_date": "2024-08-23", "emergency": "yes", "name": "Hospital de Sant Joan Despí Moisès Broggi", "name:ca": "Hospital de Sant Joan Despí Moisès Broggi", "wheelchair": "yes", "wikidata": "Q50036657", "wikimedia_commons": "Category:Hospital de Sant Joan Despí Moisès Broggi", "wikipedia": "ca:Hospital de Sant Joan Despí Moisès Broggi"}}, {"name": "Clínica de Molins de Rei", "latitude": 41.4179541, "longitude": 2.0107777, "source": "osm", "_tags": {"addr:housenumber": "97", "addr:postcode": "08750", "addr:street": "Passeig del Terraplè", "amenity": "clinic", "designation": "Clínica", "emergency": "no", "healthcare": "hospital", "name": "Clínica de Molins de Rei"}}, {"name": "CAP 3", "latitude": 41.3237273, "longitude": 2.0195064, "source": "osm", "_tags": {"amenity": "clinic", "healthcare": "hospital", "name": "CAP 3"}}, {"name": "Capio Hospital Universitari Sagrat Cor", "latitude": 41.3889427, "longitude": 2.1456033, "source": "osm", "_tags": {"addr:city": "Barcelona", "addr:housenumber": "288-302", "addr:postcode": "08029", "addr:street": "Carrer de Viladomat", "amenity": "hospital", "building": "yes", "building:levels": "12", "height": "44", "name": "Capio Hospital Universitari Sagrat Cor"}}, {"name": "Hospital Universitari Quirón Dexeus", "latitude": 41.3848057, "longitude": 2.1257795, "source": "osm", "_tags": {"amenity": "hospital", "name": "Hospital Universitari Quirón Dexeus", "name:ca": "Hospital Universitari Quirón Dexeus", "phone": "+34932274747", "website": "https://www.quironsalud.es/dexeus-barcelona", "wikidata": "Q20102153", "wikimedia_commons": "Category:Hospital Universitari Deixeus", "wikipedia": "ca:Hospital Universitari Dexeus"}}, {"name": "Hospital Casa Maternitat", "latitude": 41.3852022, "longitude": 2.123552, "source": "osm", "_tags": {"addr:housename": "Pavelló Blau", "addr:street": "Carrer de Sabino Arana", "amenity": "hospital", "building": "hospital", "building:levels": "6", "building:levels:underground": "1", "emergency": "yes", "name": "Hospital Casa Maternitat", "wheelchair": "yes"}}, {"name": "Hospital de Barcelona", "latitude": 41.3898885, "longitude": 2.1297441, "source": "osm", "_tags": {"addr:housenumber": "658", "addr:postcode": "08034", "addr:street": "Avinguda Diagonal", "amenity": "hospital", "building": "hospital", "building:levels": "18", "building:levels:underground": "3", "check_date": "2025-09-29", "emergency": "yes", "name": "Hospital de Barcelona", "name:ca": "Hospital de Barcelona", "wikidata": "Q31270980", "wikimedia_commons": "Category:Hospital de Barcelona (Diagonal 656)", "wikipedia": "ca:Hospital de Barcelona"}}, {"name": "Fremap", "latitude": 41.4015346, "longitude": 2.1503727, "source": "osm", "_tags": {"amenity": "hospital", "building:levels": "8", "building:levels:underground": "1", "emergency": "yes", "name": "Fremap", "wikidata": "Q87761481"}}, {"name": "Hospital del Mar", "latitude": 41.3838677, "longitude": 2.1938899, "source": "osm", "_tags": {"amenity": "hospital", "emergency": "yes", "healthcare": "hospital", "name": "Hospital del Mar", "name:ca": "Hospital del Mar", "website": "https://www.parcdesalutmar.cat/hospitals/hospital-del-mar/index.html", "wheelchair": "yes", "wikidata": "Q9004969", "wikimedia_commons": "Category:Hospital del Mar", "wikipedia": "ca:Hospital del Mar"}}, {"name": "Hospital Duran i Reynals", "latitude": 41.3452981, "longitude": 2.1114594, "source": "osm", "_tags": {"addr:city": "l'Hospitalet de Llobregat", "addr:housenumber": "199-203", "addr:postcode": "08908", "addr:street": "Avinguda de la Granvia de l'Hospitalet", "alt_name": "Institut Català d'Oncologia l'Hospitalet", "amenity": "hospital", "email": "ico@iconcologia.net", "healthcare": "hospital", "healthcare:speciality": "oncology", "name": "Hospital Duran i Reynals", "name:ca": "Hospital Duran i Reynals", "operator": "Departament de Salut de la Generalitat de Catalunya", "phone": "+34 93 260 77 33", "website": "https://ico.gencat.cat/ca/l_institut/centres/ico_l_hospitalet/", "wheelchair": "yes", "wikidata": "Q30280136", "wikipedia": "ca:Hospital Duran i Reynals"}}, {"name": "Hospital Quironsalud", "latitude": 41.4158262, "longitude": 2.1387446, "source": "osm", "_tags": {"addr:housenumber": "5,7", "addr:postcode": "08023", "addr:street": "Plaça d'Alfonso Comín", "amenity": "hospital", "name": "Hospital Quironsalud", "name:ca": "Hospital Quironsalut", "name:es": "Hospital Quirónsalud Barcelona", "opening_hours": "24/7", "phone": "+34902444446", "website": "https://www.quironsalud.es/", "wheelchair": "yes", "wikidata": "Q64442905", "wikimedia_commons": "Category:Hospital Quirónsalud Barcelona"}}, {"name": "Hospital de Sant LLorenç", "latitude": 41.3125938, "longitude": 2.0143661, "source": "osm", "_tags": {"amenity": "hospital", "emergency": "yes", "healthcare": "hospital", "name": "Hospital de Sant LLorenç", "wheelchair": "yes"}}, {"name": "Hospital Clínic", "latitude": 41.3895177, "longitude": 2.1522834, "source": "osm", "_tags": {"amenity": "hospital", "check_date": "2024-08-06", "contact:instagram": "hospital_clinic", "emergency": "yes", "healthcare": "hospital", "name": "Hospital Clínic", "name:ca": "Hospital Clínic", "name:etymology:wikidata": "Q2371388", "website": "https://www.hospitalclinic.org/", "wikidata": "Q2371388", "wikimedia_commons": "Category:Hospital Clínic de Barcelona", "wikipedia": "ca:Hospital Clínic de Barcelona"}}, {"name": "HM Nou Delfos", "latitude": 41.4137224, "longitude": 2.1421645, "source": "osm", "_tags": {"addr:housenumber": "151", "addr:postcode": "08023", "addr:street": "Avinguda de Vallcarca", "amenity": "hospital", "check_date": "2023-09-07", "email": "atencionalpaciente@mail.hmhospitales.com", "emergency": "yes", "fax": "+34 934 179 536", "healthcare": "hospital", "name": "HM Nou Delfos", "opening_hours": "Mo-Fr 07:30-21:00; Sa-Su 08:00-20:00; PH 08:00-20:00", "operator": "HM Hospitales", "operator:type": "private", "phone": "+34932545000;+34935230555"}}, {"name": "", "latitude": 41.3562321, "longitude": 2.0266784, "source": "osm", "_tags": {"amenity": "hospital", "healthcare": "hospital"}}, {"name": "Hospital del Mar", "latitude": 41.383781, "longitude": 2.1940114, "source": "osm", "_tags": {"addr:housenumber": "25-29", "addr:street": "Passeig Marítim de la Barceloneta", "building": "hospital", "building:levels": "1", "emergency": "yes", "healthcare": "hospital", "name": "Hospital del Mar", "name:ca": "Hospital del Mar", "type": "multipolygon"}}, {"name": "Hospital de la Santa Creu i Sant Pau", "latitude": 41.413977, "longitude": 2.1742203, "source": "osm", "_tags": {"amenity": "hospital", "healthcare": "hospital", "heritage": "1", "heritage:operator": "whc", "historic": "heritage", "name": "Hospital de la Santa Creu i Sant Pau", "name:ca": "Hospital de la Santa Creu i Sant Pau", "name:en": "Hospital de Sant Pau", "name:ja": "サンパウ病院", "name:ko": "산파우 병원", "name:ru": "Госпиталь Сан-Пау", "name:zh": "聖十字和聖保羅醫院", "tourism": "attraction", "type": "multipolygon", "wikidata": "Q507282", "wikipedia": "ca:Hospital de la Santa Creu i Sant Pau"}}, {"name": "Unitat Cures Paliatives - Unitat d'Atenció Intermèdia Oncològica", "latitude": 41.4150006, "longitude": 2.1413296, "source": "osm", "_tags": {"amenity": "hospital", "building": "yes", "building:levels": "6", "building:name": "xaloc", "name": "Unitat Cures Paliatives - Unitat d'Atenció Intermèdia Oncològica", "ref": "6,7", "type": "multipolygon"}}]