[{"name": "Centro de especialidades Emigrantes", "latitude": 40.4685882, "longitude": -3.6364048, "source": "osm", "_tags": {"amenity": "hospital", "healthcare": "hospital", "name": "Centro de especialidades Emigrantes", "wheelchair": "yes"}}, {"name": "Centro de Especialidades", "latitude": 40.4645362, "longitude": -3.4728958, "source": "osm", "_tags": {"amenity": "hospital", "emergency": "no", "name": "Centro de Especialidades"}}, {"name": "Centro de salud primaria El Zulema", "latitude": 40.4491236, "longitude": -3.3759529, "source": "osm", "_tags": {"amenity": "hospital", "emergency": "no", "name": "Centro de salud primaria El Zulema", "wheelchair": "yes"}}, {"name": "Gerencia SERMAS", "latitude": 40.4681204, "longitude": -3.7267737, "source": "osm", "_tags": {"amenity": "hospital", "healthcare": "hospital", "name": "Gerencia SERMAS"}}, {"name": "Urgencias", "latitude": 40.4648143, "longitude": -3.4727526, "source": "osm", "_tags": {"amenity": "hospital", "emergency": "yes", "name": "Urgencias"}}, {"name": "Centro médico Costa Rica", "latitude": 40.4592666, "longitude": -3.6689294, "source": "osm", "_tags": {"addr:city": "Madrid", "addr:housenumber": "7", "addr:postcode": "28016", "addr:street": "Plaza de José María Soler", "alt_name": "Milenium Centro Médico Costa Rica", "amenity": "hospital", "healthcare": "hospital", "name": "Centro médico Costa Rica", "operator": "Sanitas", "website": "https://centromedicomilenium-costarica.sanitas.es/"}}, {"name": "Instituto Anatómico Forense", "latitude": 40.4437878, "longitude": -3.7229335, "source": "osm", "_tags": {"addr:housenumber": "9", "addr:street": "Calle del Doctor Severo Ochoa", "amenity": "hospital", "contact:fax": "+34 915 495 474", "contact:phone": "+34 915 441 131", "entrance": "yes", "name": "Instituto Anatómico Forense", "source": "survey", "wheelchair": "no"}}, {"name": "Hospital HM Vallés", "latitude": 40.4829946, "longitude": -3.367335, "source": "osm", "_tags": {"addr:city": "Alcalá de Henares (Madrid)", "addr:housenumber": "14", "addr:street": "Calle de Santiago", "amenity": "hospital", "check_date": "2025-08-29", "healthcare": "hospital", "name": "Hospital HM Vallés", "phone": "+34 91 737 43 53", "website": "https://www.hmhospitales.com/sobre-hm/hospitales-madrid-galicia/hospital-valles-alcala-de-henares", "wikidata": "Q87762133"}}, {"name": "SUMMA112 - SUAP Colmenar Viejo Sur", "latitude": 40.660293, "longitude": -3.7617935, "source": "osm", "_tags": {"amenity": "hospital", "healthcare": "hospital", "name": "SUMMA112 - SUAP Colmenar Viejo Sur"}}, {"name": "Centro de Especialidades González Bueno", "latitude": 40.4234652, "longitude": -3.6271467, "source": "osm", "_tags": {"addr:city": "Madrid", "addr:housenumber": "89", "addr:postcode": "28037", "addr:street": "Calle de los Hermanos García Noblejas", "amenity": "hospital", "healthcare": "hospital", "name": "Centro de Especialidades González Bueno", "operator": "Comunidad de Madrid", "operator:type": "government", "operator:wikidata": "Q578788", "wheelchair": "yes"}}, {"name": "Clínica del Dolor de Madrid", "latitude": 40.4325782, "longitude": -3.7086334, "source": "osm", "_tags": {"addr:city": "Madrid", "addr:country": "ES", "addr:housenumber": "26", "addr:postcode": "28015", "addr:street": "Calle de Vallehermoso", "addr:unit": "bajo derecha", "amenity": "hospital", "healthcare": "hospital", "name": "Clínica del Dolor de Madrid"}}, {"name": "Consultorio Médico de Camarma de Esteruelas", "latitude": 40.548336, "longitude": -3.378612, "source": "osm", "_tags": {"amenity": "hospital", "healthcare": "hospital", "name": "Consultorio Médico de Camarma de Esteruelas"}}, {"name": "Clínica del Pie Argüelles", "latitude": 40.4320277, "longitude": -3.7180067, "source": "osm", "_tags": {"addr:city": "Madrid", "addr:housenumber": "5", "addr:postcode": "28008", "addr:street": "Calle de Benito Gutiérrez", "amenity": "hospital", "healthcare": "podiatrist", "healthcare:speciality": "podiatrist;podologist", "name": "Clínica del Pie Argüelles", "website": "https://www.clinicadelpiearguelles.es/", "wheelchair": "yes"}}, {"name": "Clínica Madrid Vascular", "latitude": 40.424623, "longitude": -3.6739591, "source": "osm", "_tags": {"addr:city": "Madrid", "addr:housenumber": "16", "addr:postcode": "28009", "addr:street": "Avenida de Felipe II", "amenity": "hospital", "description": "Clínica Madrid Vascular cuenta con unidad vascular, unidad láser y unidad médico estética. Especialistas en tratamientos de varices y tratamientos médico estéticos corporales y faciales.", "healthcare": "centre", "healthcare:speciality": "cirujano_vascular;tratamiento_varices;tratamiento_ulceras_varicoas;tratamientos_estéticos;estética_médica_facial_y_corporal;angiologia", "name": "Clínica Madrid Vascular", "operator": "Clínica Vascular y Médico Estética", "operator:type": "private"}}, {"name": "Centro de Vacunación Internacional", "latitude": 40.4287642, "longitude": -3.6719726, "source": "osm", "_tags": {"check_date": "2025-07-01", "email": "msconsultadelviajero@madrid.es", "healthcare": "hospital", "healthcare:speciality": "vaccination", "name": "Centro de Vacunación Internacional", "website": "https://www.madrid.es/portales/munimadrid/es/Inicio/Servicios-sociales-y-salud/Direcciones-y-telefonos/Centro-Madrid-Salud-Internacional-Centro-de-Vacunacion-Internacional"}}, {"name": "Cruz Roja Ofic. Territorial Hortaleza-Madrid", "latitude": 40.4622031, "longitude": -3.6291778, "source": "osm", "_tags": {"amenity": "hospital", "healthcare": "hospital", "name": "Cruz Roja Ofic. Territorial Hortaleza-Madrid", "operator": "Cruz Roja", "operator:type": "ngo", "operator:wikidata": "Q7178", "operator:wikipedia": "es:Cruz Roja"}}, {"name": "Unidad de donación de sangre del Hospital Puerta de Hierro Majadahonda", "latitude": 40.4499988, "longitude": -3.8722667, "source": "osm", "_tags": {"addr:city": "Majadahonda", "addr:housenumber": "1", "addr:postcode": "28222", "addr:street": "Calle Manuel de Falla", "check_date": "2025-07-21", "healthcare": "hospital", "name": "Unidad de donación de sangre del Hospital Puerta de Hierro Majadahonda", "operator": "Comunidad de Madrid", "phone": "+34 911916428", "website": "https://www.comunidad.madrid/hospital/puertadehierro/"}}, {"name": "Rehabilitación unidad del dolor", "latitude": 40.4499213, "longitude": -3.8757921, "source": "osm", "_tags": {"addr:city": "Majadahonda", "addr:housenumber": "1", "addr:postcode": "28222", "addr:street": "Calle Joaquín Rodrigo", "check_date": "2025-07-21", "description": "El Servicio de Rehabilitación del Hospital Universitario Puerta de Hierro inició su andadura en 1964. Tiene como objetivo devolver a las personas el máximo grado posible de capacidad funcional e independencia, mediante el diagnóstico, evaluación...", "healthcare": "hospital", "name": "Rehabilitación unidad del dolor", "operator": "Comunidad de Madrid", "phone": "+34 911916428", "website": "https://www.comunidad.madrid/hospital/puertadehierro/profesionales/area-medica/rehabilitacion"}}, {"name": "Hospital Policlínico La Paloma", "latitude": 40.4595028, "longitude": -3.4783586, "source": "osm", "_tags": {"amenity": "hospital", "name": "Hospital Policlínico La Paloma", "source": "survey"}}, {"name": "", "latitude": 40.4441592, "longitude": -3.7139113, "source": "osm", "_tags": {"addr:housenumber": "8", "amenity": "hospital"}}, {"name": "Centro de salud Segre", "latitude": 40.4512567, "longitude": -3.6853522, "source": "osm", "_tags": {"amenity": "hospital", "healthcare": "hospital", "name": "Centro de salud Segre", "operator": "Comunidad de Madrid", "operator:type": "government", "operator:wikidata": "Q578788"}}, {"name": "Centro de Salud Mental Majadahonda", "latitude": 40.4764191, "longitude": -3.8680057, "source": "osm", "_tags": {"addr:city": "Majadahonda", "addr:housenumber": "1", "addr:postcode": "28220", "addr:street": "Calle Costa Rica", "amenity": "clinic", "check_date:opening_hours": "2025-05-20", "healthcare": "hospital", "healthcare:speciality": "psychiatry", "mapillary": "2040137816478941", "name": "Centro de Salud Mental Majadahonda", "opening_hours:signed": "no", "operator": "Comunidad de Madrid", "operator:type": "government", "operator:wikidata": "Q578788", "phone": "+34 91 634 71 54", "website": "https://www.comunidad.madrid/centros/centro-salud-mental-majadahonda", "wheelchair": "yes", "wikidata": "Q578788"}}, {"name": "Villafranca dental", "latitude": 40.4656639, "longitude": -3.9494963, "source": "osm", "_tags": {"addr:city": "Villanueva de la Cañada", "addr:housenumber": "1", "addr:postcode": "28692", "addr:street": "Calle del Valle de Esteribar", "amenity": "hospital", "currency:ETH": "yes", "currency:USDT": "yes", "currency:XBT": "yes", "description": "Dentista en Villafranca del Castillo. Clinica dental en Villafranca del Castillo. Ortodoncia, Estetica dental, Endodoncia e Implantologia dental.", "emergency": "yes", "healthcare": "hospital", "healthcare:speciality": "dentist;orthodontics;general", "internet_access": "wlan", "name": "Villafranca dental", "opening_hours": "Mo-Su 10:00-22:00", "payment:american_express": "yes", "payment:cash": "yes", "payment:contactless": "yes", "payment:credit_cards": "yes", "payment:debit_cards": "yes", "payment:lightning": "yes", "payment:maestro": "yes", "payment:mastercard": "yes", "payment:mastercard_contactless": "yes", "payment:onchain": "yes", "payment:visa": "yes", "payment:visa_debit": "yes", "payment:visa_electron": "yes", "phone": "+34918102628", "survey:date": "2025-02-19", "website": "https://www.villafrancadental.es", "wheelchair": "yes"}}, {"name": "Hospital Sanitas Valdebebas", "latitude": 40.4928222, "longitude": -3.606016, "source": "osm", "_tags": {"addr:housenumber": "66", "addr:postcode": "28055", "addr:street": "Calle de Gustavo Pérez Puig", "amenity": "hospital", "name": "Hospital Sanitas Valdebebas", "opening_hours": "24/7", "website": "https://sanitas.es"}}, {"name": "Centro de salud Los Alpes", "latitude": 40.4279038, "longitude": -3.6041263, "source": "osm", "_tags": {"amenity": "clinic", "healthcare": "hospital", "name": "Centro de salud Los Alpes"}}, {"name": "Hospital Carlos III", "latitude": 40.4750989, "longitude": -3.6963786, "source": "osm", "_tags": {"amenity": "hospital", "healthcare": "hospital", "name": "Hospital Carlos III", "operator": "Comunidad de Madrid", "operator:type": "government", "phone": "+34 91 453 25 00", "website": "https://www.comunidad.madrid/hospital/lapaz/nosotros/hospital-carlos-iii", "wikidata": "Q18200522", "wikipedia": "es:Hospital Carlos III"}}, {"name": "Clínica Ruber Internacional", "latitude": 40.489705, "longitude": -3.7155905, "source": "osm", "_tags": {"amenity": "hospital", "healthcare": "hospital", "name": "Clínica Ruber Internacional"}}, {"name": "Clínica Cemtro", "latitude": 40.4939962, "longitude": -3.7169567, "source": "osm", "_tags": {"amenity": "hospital", "healthcare": "hospital", "name": "Clínica Cemtro", "wikidata": "Q87762112"}}, {"name": "Hospital de la Zarzuela", "latitude": 40.4625907, "longitude": -3.7851664, "source": "osm", "_tags": {"amenity": "hospital", "healthcare": "hospital", "name": "Hospital de la Zarzuela"}}, {"name": "Hospital San Rafael", "latitude": 40.45246, "longitude": -3.6818172, "source": "osm", "_tags": {"amenity": "hospital", "building": "hospital", "healthcare": "hospital", "name": "Hospital San Rafael", "name:etymology:wikidata": "Q5902892", "phone": "+34 915 649 944", "website": "https://www.hospitalsanrafael.es/", "wikidata": "Q5902892", "wikipedia": "es:Hospital San Rafael (Madrid)"}}, {"name": "Centro de Salud San Juan de la Cruz", "latitude": 40.4305663, "longitude": -3.8144506, "source": "osm", "_tags": {"addr:postcode": "28223", "addr:street": "Calle San Juan de la Cruz", "amenity": "hospital", "healthcare": "hospital", "name": "Centro de Salud San Juan de la Cruz", "opening_hours": "Mo-Fr 08:00-21:00", "phone": "+34 913 52 47 47", "source": "PNOA", "source:date": "2009", "website": "http://madrid.org/", "wheelchair": "yes"}}, {"name": "Clínica Ruber Juan Bravo", "latitude": 40.4330232, "longitude": -3.6760599, "source": "osm", "_tags": {"amenity": "hospital", "building": "hospital", "healthcare": "hospital", "name": "Clínica Ruber Juan Bravo", "phone": "+34 910 68 79 99", "website": "https://www.ruber.es/", "wheelchair": "yes"}}, {"name": "Centro de Salud de Paracuellos de Jarama", "latitude": 40.5065002, "longitude": -3.5320642, "source": "osm", "_tags": {"addr:country": "ES", "amenity": "hospital", "emergency": "yes", "emergency_telephone_code": "112", "healthcare": "hospital", "name": "Centro de Salud de Paracuellos de Jarama", "wheelchair": "yes"}}, {"name": "Hospital Universitario Príncipe de Asturias", "latitude": 40.510273, "longitude": -3.3475898, "source": "osm", "_tags": {"amenity": "hospital", "barrier": "fence", "emergency": "yes", "healthcare": "hospital", "name": "Hospital Universitario Príncipe de Asturias", "name:etymology:wikidata": "Q5902957", "operator": "Comunidad de Madrid", "operator:type": "government", "source": "PNOA", "source:date": "2009", "wikidata": "Q5902957", "wikipedia": "es:Hospital Universitario Príncipe de Asturias"}}, {"name": "Hospital de Majadahonda FREMAP", "latitude": 40.4506228, "longitude": -3.8508908, "source": "osm", "_tags": {"addr:city": "Majadahonda", "addr:housenumber": "61", "addr:postcode": "28221", "addr:street": "Carretera de Pozuelo a Majadahonda", "amenity": "hospital", "emergency": "yes", "healthcare": "hospital", "name": "Hospital de Majadahonda FREMAP", "opening_hours": "24/7", "operator": "FREMAP", "operator:type": "private", "phone": "+34 91 626 56 80", "website": "https://www.fremap.es/Conocenos/CentrosInstalaciones/Paginas/DetalleCentro.aspx?idCentro=1057", "wheelchair": "yes"}}, {"name": "Centro de Salud Cerro del Aire", "latitude": 40.4768223, "longitude": -3.8681379, "source": "osm", "_tags": {"amenity": "clinic", "building": "yes", "check_date": "2024-07-25", "description": "Presta atención continuada como centro de continuidad de cuidados de enfermería sábados, domingos y festivos de 9 a 21 horas. El centro está autorizado para el otorgamiento y solicitud de registro del documento de Instrucciones Previas.", "healthcare": "hospital", "healthcare:speciality": "general;psychiatry;paediatrics;blood_check", "mapillary": "2236190063504124", "name": "Centro de Salud Cerro del Aire", "opening_hours": "Mo-Fr 08:00-21:00; Sa-Su off", "operator": "Comunidad de Madrid", "operator:type": "government", "operator:wikidata": "Q578788", "phone": "+34 91 639 03 19", "website": "https://www.comunidad.madrid/centros/centro-salud-cerro-aire", "wheelchair": "yes", "wikidata": "Q578788"}}, {"name": "Clínica MAZ", "latitude": 40.4345238, "longitude": -3.629822, "source": "osm", "_tags": {"addr:city": "Madrid", "addr:country": "ES", "addr:housenumber": "25", "addr:postcode": "28037", "addr:street": "Calle de Julián Camarillo", "amenity": "hospital", "building": "hospital", "healthcare": "hospital", "name": "Clínica MAZ"}}, {"name": "Ciudad Sanitaria La Paz", "latitude": 40.4814638, "longitude": -3.6873012, "source": "osm", "_tags": {"addr:city": "Madrid", "addr:housenumber": "261", "addr:postcode": "28046", "addr:street": "Paseo de la Castellana", "alt_name": "Hospital Universitario La Paz", "amenity": "hospital", "emergency": "yes", "healthcare": "hospital", "name": "Ciudad Sanitaria La Paz", "operator": "Comunidad de Madrid", "operator:type": "government", "operator:wikidata": "Q578788", "phone": "+34 91 727 70 00", "website": "https://www.comunidad.madrid/hospital/lapaz/", "wikidata": "Q5902951", "wikipedia": "es:Hospital Universitario La Paz"}}, {"name": "Hospital Madrid - Torrelodones", "latitude": 40.5705564, "longitude": -3.9260981, "source": "osm", "_tags": {"amenity": "hospital", "building": "hospital", "building:levels": "4", "emergency": "yes", "healthcare": "hospital", "name": "Hospital Madrid - Torrelodones", "operator": "HM Hospitales", "operator:type": "private", "operator:wikidata": "Q30287140", "wikidata": "Q5903040", "wikipedia": "es:Hospital de Madrid Torrelodones"}}, {"name": "Hospital Provincial Ortiz de Zárate", "latitude": 40.6402566, "longitude": -3.1715115, "source": "osm", "_tags": {"amenity": "hospital", "emergency": "yes", "healthcare": "hospital", "name": "Hospital Provincial Ortiz de Zárate"}}, {"name": "Clínica Asepeyo", "latitude": 40.4361658, "longitude": -3.5314989, "source": "osm", "_tags": {"amenity": "hospital", "building": "yes", "emergency": "yes", "name": "Clínica Asepeyo"}}, {"name": "Hospital Universitario de Guadalajara", "latitude": 40.6202087, "longitude": -3.1525368, "source": "osm", "_tags": {"amenity": "hospital", "emergency": "yes", "healthcare": "hospital", "name": "Hospital Universitario de Guadalajara", "operator": "SESCAM", "operator:type": "public", "phone": "+34 949 209 200", "website": "https://hugu.sescam.jccm.es/", "wheelchair": "yes", "wikidata": "Q5902992", "wikipedia": "es:Hospital Universitario de Guadalajara"}}, {"name": "Hospital Universitario HM Madrid", "latitude": 40.4312748, "longitude": -3.7066322, "source": "osm", "_tags": {"addr:housenumber": "16", "addr:street": "Plaza del Conde del Valle de Suchil", "amenity": "hospital", "building": "hospital", "healthcare": "hospital", "name": "Hospital Universitario HM Madrid", "old_name": "Hospital de San Pedro", "website": "https://www.hmmadrid.com/"}}, {"name": "Centro de Salud Oficios", "latitude": 40.6063845, "longitude": -3.712478, "source": "osm", "_tags": {"addr:city": "Tres Cantos", "addr:housenumber": "12", "addr:postcode": "28760", "addr:street": "Sector Oficios", "amenity": "hospital", "healthcare": "hospital", "name": "Centro de Salud Oficios", "wheelchair": "yes"}}, {"name": "Hospital Universitario HM Sanchinarro", "latitude": 40.4905558, "longitude": -3.6671613, "source": "osm", "_tags": {"amenity": "hospital", "healthcare": "hospital", "name": "Hospital Universitario HM Sanchinarro", "phone": "+34 91 756 78 00", "website": "https://www.hmhospitales.com/sobre-hm/hospitales-madrid-galicia/hospital-sanchinarro-madrid", "wikidata": "Q43896419"}}, {"name": "Centro de Salud Arroyo de la Vega", "latitude": 40.5379458, "longitude": -3.631183, "source": "osm", "_tags": {"amenity": "hospital", "healthcare": "hospital", "name": "Centro de Salud Arroyo de la Vega", "source": "Catastro"}}, {"name": "Sede Cruz Roja Española", "latitude": 40.4475574, "longitude": -3.709241, "source": "osm", "_tags": {"addr:city": "Madrid", "addr:country": "ES", "addr:postcode": "28003", "addr:street": "Avenida de la Reina Victoria", "amenity": "hospital", "check_date": "2024-09-19", "healthcare": "hospital", "name": "Sede Cruz Roja Española", "operator": "Cruz Roja Española", "source": "local_knowledge"}}, {"name": "Centro de Salud Marqués de la Valdavia", "latitude": 40.5447967, "longitude": -3.6457966, "source": "osm", "_tags": {"amenity": "hospital", "healthcare": "hospital", "name": "Centro de Salud Marqués de la Valdavia"}}, {"name": "Hospital Universitario San Rafael", "latitude": 40.4511129, "longitude": -3.6801174, "source": "osm", "_tags": {"addr:city": "Madrid", "addr:country": "ES", "addr:housenumber": "199", "addr:postcode": "28016", "addr:street": "Calle de Serrano", "amenity": "hospital", "disused:amenity": "school", "healthcare": "hospital", "name": "Hospital Universitario San Rafael", "old_name": "Colegio Alemán de Madrid", "old_name:de": "Deutsche Schule Madrid", "operator": "Orden Hospitalaria de San Juan de Dios", "operator:type": "private_non_profit", "operator:wikidata": "Q808386", "phone": "+34 91 564 99 43", "website": "https://www.hospitalsanrafael.es/", "wikidata": "Q5902892", "wikipedia": "es:Hospital San Rafael (Madrid)"}}, {"name": "Instituto Galene de Psicoterapia", "latitude": 40.4594075, "longitude": -3.6536821, "source": "osm", "_tags": {"addr:city": "Madrid", "addr:housenumber": "17", "addr:postcode": "28043", "addr:street": "Calle del Alba", "amenity": "hospital", "building": "yes", "healthcare": "hospital", "name": "Instituto Galene de Psicoterapia", "phone": "+34 913 000 645"}}, {"name": "Hospital La Luz", "latitude": 40.4441425, "longitude": -3.7137323, "source": "osm", "_tags": {"addr:city": "Madrid", "addr:housenumber": "8", "addr:postcode": "28003", "addr:street": "Calle del Maestro Ángel Llorca", "addr:ward": "Vallehermoso", "alt_name": "Clínica La Luz;Hospital Universitario La Luz", "amenity": "hospital", "building": "hospital", "emergency": "yes", "name": "Hospital La Luz", "phone": "+34 91 453 03 03", "website": "https://www.quironsalud.es/hospital-la-luz", "wheelchair": "yes", "wikidata": "Q30280196"}}, {"name": "Hospital Central de la Cruz Roja San José y Santa Adela", "latitude": 40.4479879, "longitude": -3.7076708, "source": "osm", "_tags": {"addr:city": "Madrid", "addr:country": "ES", "addr:housenumber": "22", "addr:postcode": "28003", "addr:street": "Avenida de la Reina Victoria", "amenity": "hospital", "healthcare": "hospital", "name": "Hospital Central de la Cruz Roja San José y Santa Adela", "name:etymology:wikidata": "Q12176313", "operator": "Comunidad de Madrid", "operator:type": "government", "phone": "+34 914538300", "website": "https://www.comunidad.madrid/hospital/cruzroja/", "wikidata": "Q12176313", "wikipedia": "es:Hospital Central de la Cruz Roja San José y Santa Adela"}}, {"name": "Hospital Universitario La Moraleja Sanitas", "latitude": 40.4923127, "longitude": -3.6630331, "source": "osm", "_tags": {"addr:city": "Madrid", "addr:housenumber": "81", "addr:postcode": "28050", "addr:street": "Avenida de Francisco Pi y Margall", "amenity": "hospital", "check_date": "2024-09-19", "emergency": "yes", "healthcare": "hospital", "name": "Hospital Universitario La Moraleja Sanitas", "operator": "Sanitas", "operator:type": "private", "website": "https://www.hospitallamoraleja.es/es/"}}, {"name": "Hospital de Cantoblanco", "latitude": 40.5395105, "longitude": -3.6931283, "source": "osm", "_tags": {"amenity": "hospital", "barrier": "wall", "healthcare": "hospital", "height": "3", "name": "Hospital de Cantoblanco", "operator": "Comunidad de Madrid", "operator:type": "government", "phone": "+34 91 586 75 56", "website": "https://www.comunidad.madrid/hospital/lapaz/hospital-cantoblanco", "wikidata": "Q87762013"}}, {"name": "Centro de Salud Miraflores", "latitude": 40.5476252, "longitude": -3.6372184, "source": "osm", "_tags": {"amenity": "hospital", "healthcare": "hospital", "name": "Centro de Salud Miraflores"}}, {"name": "Centro de Salud \"La Chopera\"", "latitude": 40.5406135, "longitude": -3.6397977, "source": "osm", "_tags": {"alt_name": "Centro de Salud La Chopera", "amenity": "hospital", "building": "yes", "healthcare": "hospital", "name": "Centro de Salud \"La Chopera\""}}, {"name": "Centro de Salud \"Rosa Luxemburgo\"", "latitude": 40.5591286, "longitude": -3.6324298, "source": "osm", "_tags": {"amenity": "hospital", "check_date": "2024-07-15", "healthcare": "hospital", "name": "Centro de Salud \"Rosa Luxemburgo\""}}, {"name": "Quirón San José", "latitude": 40.4402708, "longitude": -3.6744495, "source": "osm", "_tags": {"addr:city": "Madrid", "addr:housenumber": "111", "addr:postcode": "28002", "addr:street": "Calle de Cartagena", "amenity": "hospital", "building": "hospital", "check_date": "2024-04-16", "healthcare": "hospital", "name": "Quirón San José", "operator": "Quirónsalud", "operator:wikidata": "Q5886225", "phone": "+34 902 02 47 47", "website": "http://www.quiron.es/es/madrid_san_jose"}}, {"name": "Hospital Ruber Juan Bravo", "latitude": 40.432746, "longitude": -3.6776665, "source": "osm", "_tags": {"addr:housenumber": "39", "addr:street": "Calle de Juan Bravo", "amenity": "hospital", "building": "hospital", "building:levels": "8", "healthcare": "hospital", "name": "Hospital Ruber Juan Bravo", "phone": "+34 914 026 100", "website": "https://www.ruber.es/", "wheelchair": "yes"}}, {"name": "Hospital Vithas Madrid Aravaca", "latitude": 40.4671554, "longitude": -3.7837398, "source": "osm", "_tags": {"addr:city": "Madrid", "addr:housenumber": "12", "addr:postcode": "28023", "addr:street": "Calle de la Salle", "amenity": "hospital", "barrier": "fence", "emergency": "yes", "healthcare": "hospital", "name": "Hospital Vithas Madrid Aravaca", "operator": "Vithas", "operator:type": "private", "wheelchair": "yes"}}, {"name": "Asepeyo", "latitude": 40.4365555, "longitude": -3.6771195, "source": "osm", "_tags": {"amenity": "hospital", "building": "yes", "healthcare": "hospital", "name": "Asepeyo", "wheelchair": "yes"}}, {"name": "Consultorio Local", "latitude": 40.587582, "longitude": -3.2989176, "source": "osm", "_tags": {"addr:city": "Villanueva de la Torre", "addr:housenumber": "2", "addr:postcode": "19209", "addr:street": "Calle Acacias", "amenity": "clinic", "healthcare": "hospital", "name": "Consultorio Local", "operator": "Sescam", "phone": "+34 949265533", "website": "http://sescam.castillalamancha.es/ciudadanos/centros/villanueva-de-la-torre"}}, {"name": "", "latitude": 40.4401828, "longitude": -3.6965448, "source": "osm", "_tags": {"amenity": "hospital", "healthcare": "hospital"}}, {"name": "Clínica López Ibor", "latitude": 40.4688122, "longitude": -3.7250759, "source": "osm", "_tags": {"amenity": "hospital", "healthcare": "hospital", "name": "Clínica López Ibor"}}, {"name": "Hospital San Francisco de Asís", "latitude": 40.4426392, "longitude": -3.6837791, "source": "osm", "_tags": {"addr:city": "Madrid", "addr:housenumber": "28", "addr:postcode": "28002", "addr:street": "Calle de Joaquín Costa", "amenity": "hospital", "healthcare": "hospital", "name": "Hospital San Francisco de Asís", "wikidata": "Q87798347"}}, {"name": "Clínica Fuensanta", "latitude": 40.4400668, "longitude": -3.6402773, "source": "osm", "_tags": {"addr:city": "Madrid", "addr:country": "ES", "addr:housenumber": "17", "addr:street": "Calle de Arturo Soria", "alt_name": "Hospital Viamed Fuensanta", "amenity": "hospital", "healthcare": "hospital", "name": "Clínica Fuensanta", "website": "https://www.viamedsalud.com/hospital-fuensanta/"}}, {"name": "Instituto Provincial de Oftalmología", "latitude": 40.4321232, "longitude": -3.6930276, "source": "osm", "_tags": {"addr:city": "Madrid", "addr:housenumber": "17", "addr:postcode": "28010", "addr:street": "Calle del General Arrando", "amenity": "hospital", "building": "hospital", "emergency": "yes", "healthcare": "hospital", "healthcare:speciality": "ophthalmology", "name": "Instituto Provincial de Oftalmología", "operator": "Hospital General Universitario Gregorio Marañón", "operator:type": "government"}}, {"name": "Clinica Mutualidad Deportiva", "latitude": 40.7884354, "longitude": -4.0023375, "source": "osm", "_tags": {"amenity": "hospital", "building": "hospital", "building:levels": "2", "healthcare": "hospital", "name": "Clinica Mutualidad Deportiva"}}, {"name": "Hospital Ambulatorio Virgen del Mar", "latitude": 40.4645289, "longitude": -3.6851488, "source": "osm", "_tags": {"addr:city": "Madrid", "addr:housenumber": "10", "addr:postcode": "28036", "addr:street": "Calle del General López Pozas", "amenity": "hospital", "building": "yes", "health_facility:type": "office", "healthcare": "hospital", "name": "Hospital Ambulatorio Virgen del Mar", "opening_hours": "Mo-Fr 08:00-22:00", "phone": "+34 91 353 95 00", "website": "https://www.hospitalvirgendelmar.es/pacientes-consultas-externas"}}, {"name": "Hospital Virgen de la Paloma", "latitude": 40.4453417, "longitude": -3.7162157, "source": "osm", "_tags": {"amenity": "hospital", "building": "hospital", "name": "Hospital Virgen de la Paloma", "phone": "+34 915 34 82 07", "website": "https://www.hospitalvpaloma.com/", "wikidata": "Q87762050"}}, {"name": "Hospital Universitario Ramón y Cajal.", "latitude": 40.487355, "longitude": -3.693846, "source": "osm", "_tags": {"amenity": "hospital", "emergency": "yes", "healthcare": "hospital", "name": "Hospital Universitario Ramón y Cajal.", "operator": "Comunidad de Madrid", "operator:type": "government", "operator:wikidata": "Q578788", "phone": "+34  91 336 80 00", "website": "https://www.comunidad.madrid/hospital/ramonycajal/", "wikidata": "Q5902966", "wikipedia": "es:Hospital Universitario Ramón y Cajal"}}, {"name": "Hospital Dr. Rodríguez Lafora (Psiquiátrico)", "latitude": 40.5318173, "longitude": -3.6912632, "source": "osm", "_tags": {"amenity": "hospital", "healthcare": "hospital", "healthcare:speciality": "psychiatry", "name": "Hospital Dr. Rodríguez Lafora (Psiquiátrico)", "operator": "Comunidad de Madrid", "operator:type": "government", "operator:wikidata": "Q578788", "phone": "+34 91 586 75 00", "website": "https://www.comunidad.madrid/hospital/rlafora/"}}, {"name": "Hospital Universitario Infanta Sofía", "latitude": 40.5578403, "longitude": -3.6105529, "source": "osm", "_tags": {"amenity": "hospital", "healthcare": "hospital", "name": "Hospital Universitario Infanta Sofía", "operator": "Comunidad de Madrid", "phone": "+34 91 191 40 00", "website": "https://www.comunidad.madrid/hospital/infantasofia/", "wikidata": "Q2892251", "wikipedia": "es:Hospital Infanta Sofía"}}, {"name": "Hospital Fundación Jiménez Díaz", "latitude": 40.4389164, "longitude": -3.7191824, "source": "osm", "_tags": {"addr:city": "Madrid", "addr:housenumber": "2", "addr:postcode": "28040", "addr:street": "Avenida de los Reyes Católicos", "amenity": "hospital", "healthcare": "hospital", "name": "Hospital Fundación Jiménez Díaz", "operator": "Quirón Salud", "website": "http://www.fjd.es/", "wheelchair": "yes", "wikidata": "Q10946560", "wikipedia": "es:Hospital Universitario Fundación Jiménez Díaz"}}, {"name": "Hospital Universitario Clínico San Carlos", "latitude": 40.4406677, "longitude": -3.7200099, "source": "osm", "_tags": {"addr:city": "Madrid", "addr:postcode": "28040", "addr:street": "Calle Profesor Martín Lagos", "amenity": "hospital", "emergency": "yes", "healthcare": "hospital", "name": "Hospital Universitario Clínico San Carlos", "operator": "Comunidad de Madrid", "phone": "+34 913 30 30 00; +34 913 30 30 01", "wikidata": "Q6673106", "wikipedia": "es:Hospital Clínico San Carlos"}}, {"name": "Hospital Universitario de la Princesa", "latitude": 40.4340327, "longitude": -3.6757552, "source": "osm", "_tags": {"amenity": "hospital", "healthcare": "hospital", "name": "Hospital Universitario de la Princesa", "operator": "Comunidad de Madrid", "wheelchair": "yes", "wikidata": "Q29024890"}}, {"name": "Hospital General de Collado Villalba.", "latitude": 40.6543094, "longitude": -4.0013911, "source": "osm", "_tags": {"amenity": "hospital", "emergency": "yes", "healthcare": "hospital", "name": "Hospital General de Collado Villalba.", "operator": "Comunidad de Madrid.", "operator:type": "government", "phone": "+34 91 090 81 02", "phone_1": "+34 900 606 058", "website": "http://www.hgvillalba.es/"}}, {"name": "Instituto Provincial de Rehabilitación", "latitude": 40.433284, "longitude": -3.6725207, "source": "osm", "_tags": {"addr:city": "Madrid", "addr:country": "ES", "addr:housenumber": "40", "addr:postcode": "28028", "addr:street": "Calle de Francisco Silvela", "amenity": "hospital", "building": "civic", "healthcare": "hospital", "name": "Instituto Provincial de Rehabilitación", "wikidata": "Q87762018"}}, {"name": "Centro de Especialidades Periférico de Peñagrande.", "latitude": 40.4746543, "longitude": -3.7252954, "source": "osm", "_tags": {"addr:street": "Calle de la Isla de Cerdeña", "amenity": "hospital", "healthcare": "hospital", "name": "Centro de Especialidades Periférico de Peñagrande.", "short_name": "C. E. P Peñagrande"}}, {"name": "Instituto de Enfermedades Neurológicas de Castilla-La Mancha", "latitude": 40.6413405, "longitude": -3.1725971, "source": "osm", "_tags": {"amenity": "hospital", "healthcare": "hospital", "name": "Instituto de Enfermedades Neurológicas de Castilla-La Mancha", "wikidata": "Q87761828"}}, {"name": "SUMA 112. Centro Urgencias Extrahospitalarias El Molar", "latitude": 40.7379356, "longitude": -3.5821913, "source": "osm", "_tags": {"amenity": "hospital", "emergency": "yes", "healthcare": "hospital", "name": "SUMA 112. Centro Urgencias Extrahospitalarias El Molar", "operator": "Comunidad de Madrid", "operator:type": "government", "operator:wikidata": "Q578788", "phone": "+34 91 841 11 11", "short_name": "CUE El Molar", "website": "https://www.comunidad.madrid/hospital/summa112/ciudadanos/centro-urgencias-extrahospitalarias-molar"}}, {"name": "Clínica San Miguel (Hermanas Hospitalarias)", "latitude": 40.4600755, "longitude": -3.6601449, "source": "osm", "_tags": {"addr:city": "Madrid", "addr:country": "ES", "addr:housenumber": "204", "addr:street": "Calle de Arturo Soria", "amenity": "hospital", "description": "Hospitalización de personas con enfermedad mental", "healthcare": "hospital", "name": "Clínica San Miguel (Hermanas Hospitalarias)", "website": "http://www.lrhbhsc.org/opencms/opencms/menu_vertical/hospitalizacion/nuestro_centro.html"}}, {"name": "Hospital Virgen del Mar", "latitude": 40.4593464, "longitude": -3.678591, "source": "osm", "_tags": {"addr:city": "Madrid", "addr:housenumber": "14", "addr:street": "Calle de Honduras", "amenity": "hospital", "emergency": "yes", "healthcare": "hospital", "name": "Hospital Virgen del Mar", "wikidata": "Q87762042"}}, {"name": "Sanitas Mirasierra", "latitude": 40.4932047, "longitude": -3.7067316, "source": "osm", "_tags": {"addr:city": "Madrid", "addr:housenumber": "40", "addr:street": "Calle de Nuria", "amenity": "hospital", "healthcare": "hospital", "name": "Sanitas Mirasierra", "operator": "Sanitas"}}, {"name": "Clínica Santa Elena", "latitude": 40.4456438, "longitude": -3.7166534, "source": "osm", "_tags": {"addr:city": "Madrid", "addr:country": "ES", "addr:housenumber": "8", "addr:postcode": "28003", "addr:street": "Calle de la Granja", "amenity": "hospital", "name": "Clínica Santa Elena", "phone": "914539400;912991299", "website": "https://www.viamedsalud.com/hospital-santa-elena/", "wikidata": "Q87762031"}}, {"name": "", "latitude": 40.4320128, "longitude": -3.6803013, "source": "osm", "_tags": {"amenity": "hospital", "emergency": "yes", "healthcare": "hospital"}}, {"name": "Hospital de Día Pio XII", "latitude": 40.4659825, "longitude": -3.670635, "source": "osm", "_tags": {"addr:housenumber": "4", "addr:street": "Cuesta del Sagrado Corazón", "amenity": "hospital", "building": "yes", "healthcare": "hospital", "name": "Hospital de Día Pio XII"}}, {"name": "Centro Clínico ATAM", "latitude": 40.4433537, "longitude": -3.8279734, "source": "osm", "_tags": {"amenity": "hospital", "healthcare": "hospital", "name": "Centro Clínico ATAM", "operator": "ATAM", "website": "https://equipoclinico.atam.es/"}}, {"name": "Mini-residencia Cobeña", "latitude": 40.5612042, "longitude": -3.5086272, "source": "osm", "_tags": {"addr:postcode": "28863", "addr:street": "Camino de Madrid", "amenity": "social_facility", "barrier": "fence", "healthcare": "hospital", "name": "Mini-residencia Cobeña", "nohousenumber": "yes", "old_name": "CETEVA", "operator": "Grupo 5", "operator:type": "private", "social_facility": "assisted_living", "social_facility:for": "mental_health"}}, {"name": "", "latitude": 40.4659652, "longitude": -3.6706395, "source": "osm", "_tags": {"amenity": "hospital", "healthcare": "hospital"}}, {"name": "Centro Médico Quirónsalud Valle del Henares", "latitude": 40.4976103, "longitude": -3.3855815, "source": "osm", "_tags": {"addr:city": "Alcalá de Henares", "addr:housenumber": "6", "addr:postcode": "28806", "addr:street": "Calle de la República Dominicana", "amenity": "hospital", "building": "yes", "healthcare": "hospital", "name": "Centro Médico Quirónsalud Valle del Henares", "phone": "+34 918 77 57 80", "website": "https://www.quironsalud.es/alcala-henares"}}, {"name": "Hospital Universitario Puerta de Hierro Majadahonda", "latitude": 40.4502608, "longitude": -3.8738374, "source": "osm", "_tags": {"addr:city": "Majadahonda", "addr:housenumber": "1", "addr:postcode": "28222", "addr:street": "Calle Joaquín Rodrigo", "amenity": "hospital", "description": "El Hospital Universitario Puerta de Hierro está situado en la calle Manuel de Falla nº 1 del municipio de Majadahonda, 28222 de Madrid. Es el hospital de referencia de Atención Especializada del Área 6 de Salud de la Comunidad de Madrid.", "emergency": "yes", "healthcare": "hospital", "internet_access": "yes", "name": "Hospital Universitario Puerta de Hierro Majadahonda", "operator": "Comunidad de Madrid", "operator:type": "government", "operator:wikidata": "Q578788", "website": "https://www.comunidad.madrid/hospital/puertadehierro/", "wheelchair": "yes"}}, {"name": "Hospital Universitario La Moraleja - Ana de Austria", "latitude": 40.4928118, "longitude": -3.6672775, "source": "osm", "_tags": {"addr:city": "Madrid", "addr:housenumber": "5", "addr:postcode": "28050", "addr:street": "Calle del Arroyo de Valdebebas", "amenity": "hospital", "emergency": "no", "healthcare": "hospital", "name": "Hospital Universitario La Moraleja - Ana de Austria", "phone": "+34 917 679 470", "website": "https://www.hospitallamoraleja.es/es/"}}, {"name": "Sanatorio de Alcohete", "latitude": 40.5804993, "longitude": -3.1129462, "source": "osm", "_tags": {"amenity": "hospital", "healthcare": "hospital", "name": "Sanatorio de Alcohete", "wikidata": "Q6119799", "wikipedia": "es:Sanatorio de Alcohete"}}, {"name": "Hospital Universitario Vithas Madrid Arturo Soria", "latitude": 40.4496542, "longitude": -3.6520719, "source": "osm", "_tags": {"addr:city": "Madrid", "addr:country": "ES", "addr:housenumber": "103", "addr:street": "Calle de Arturo Soria", "amenity": "hospital", "healthcare": "hospital", "name": "Hospital Universitario Vithas Madrid Arturo Soria", "phone": "+34 914 130 061", "website": "https://www.vithas.es/Madrid/detalle-centro/vithas-madrid-arturo-soria-/20", "wikidata": "Q87762048"}}, {"name": "", "latitude": 40.4928306, "longitude": -3.606025, "source": "osm", "_tags": {"amenity": "hospital", "healthcare": "hospital"}}, {"name": "Centro de Salud Embarcaciones", "latitude": 40.5991377, "longitude": -3.7035624, "source": "osm", "_tags": {"amenity": "hospital", "emergency": "yes", "healthcare": "hospital", "name": "Centro de Salud Embarcaciones"}}, {"name": "Hospital de Día Puerta de Hierro", "latitude": 40.4767221, "longitude": -3.3821288, "source": "osm", "_tags": {"amenity": "hospital", "barrier": "fence", "emergency": "no", "healthcare": "hospital", "name": "Hospital de Día Puerta de Hierro", "phone": "+34 918 77 15 06", "type": "multipolygon", "website": "https://www.comunidad.madrid/centros/centro-salud-mental-alcala-henares-iii-puerta-madrid"}}, {"name": "Hospital HLA Universitario Moncloa", "latitude": 40.433108, "longitude": -3.7343745, "source": "osm", "_tags": {"addr:city": "Madrid", "addr:country": "ES", "addr:housenumber": "83", "addr:postcode": "28008", "addr:street": "Avenida de Valladolid", "amenity": "hospital", "building": "hospital", "emergency": "yes", "healthcare": "hospital", "layer": "1", "name": "Hospital HLA Universitario Moncloa", "phone": "+34 917 581 196", "type": "multipolygon", "website": "https://www.grupohla.com/es/hospitales-clinicas/hospital-moncloa", "wheelchair": "yes", "wikidata": "Q87762110"}}, {"name": "Antiguo Hospital Benéfico de Nuestra Señora de la Misericordia", "latitude": 40.4824688, "longitude": -3.3668732, "source": "osm", "_tags": {"addr:city": "Alcalá de Henares", "addr:housenumber": "46", "addr:postcode": "28801", "addr:street": "Calle Mayor", "amenity": "hospital", "building": "yes", "building:levels": "2", "emergency": "no", "healthcare": "hospital", "historic": "yes", "name": "Antiguo Hospital Benéfico de Nuestra Señora de la Misericordia", "operator": "Fundación de Antezana", "tourism": "attraction", "type": "multipolygon", "wikidata": "Q5903017", "wikipedia": "es:Hospital de Antezana"}}, {"name": "Hospital La Milagrosa", "latitude": 40.4370779, "longitude": -3.6956893, "source": "osm", "_tags": {"addr:housenumber": "14", "addr:postcode": "28010", "addr:street": "Calle de Modesto Lafuente", "alt_name": "Clínica La Milagrosa", "amenity": "hospital", "contact:fax": "+34 91 447 34 49", "contact:phone": "+34 91 447 21 00", "healthcare": "hospital", "name": "Hospital La Milagrosa", "type": "multipolygon", "website": "http://www.lamilagrosa.com/index.php", "wheelchair": "yes", "wikidata": "Q87762055"}}, {"name": "Hospital Universitario de Torrejón", "latitude": 40.4650943, "longitude": -3.435444, "source": "osm", "_tags": {"amenity": "hospital", "building": "hospital", "building:levels": "3", "contact:phone": "+34 91 626 26 00", "emergency": "yes", "healthcare": "hospital", "name": "Hospital Universitario de Torrejón", "nohousenumber": "yes", "operator": "Comunidad de Madrid", "operator:type": "government", "type": "multipolygon", "website": "https://www.hospitaldetorrejon.es/", "wikidata": "Q5903127", "wikipedia": "es:Hospital de Torrejón"}}, {"name": "Hospital Quirónsalud Valle del Henares", "latitude": 40.4663614, "longitude": -3.4407021, "source": "osm", "_tags": {"addr:housenumber": "249", "addr:street": "Avenida de la Constitución", "amenity": "hospital", "building": "hospital", "email": "torrejon.vallehenares@quironsalud.es", "healthcare": "hospital", "name": "Hospital Quirónsalud Valle del Henares", "phone": "+34 913 333 444", "start_date": "2021-10-04", "type": "multipolygon", "website": "https://www.quironsalud.es/valle-henares/es/centro"}}, {"name": "Hospital Fraternidad-Muprespa Habana", "latitude": 40.4569697, "longitude": -3.6816739, "source": "osm", "_tags": {"addr:city": "Madrid", "addr:housenumber": "83-85", "addr:postcode": "28036", "addr:street": "Paseo de La Habana", "amenity": "hospital", "building": "hospital", "building:levels": "4", "healthcare": "hospital", "name": "Hospital Fraternidad-Muprespa Habana", "phone": "+34 914 183 240", "source:geometry": "Imagen de Catastro de España", "type": "multipolygon", "website": "https://www.fraternidad.com/hospital-habana"}}, {"name": "Hospital de Emergencias Enfermera Isabel Zendal", "latitude": 40.4835178, "longitude": -3.6062934, "source": "osm", "_tags": {"addr:city": "Madrid", "addr:housenumber": "2", "addr:postcode": "28055", "addr:street": "Avenida de Manuel Fraga Iribarne", "amenity": "hospital", "beds": "1056", "emergency": "yes", "healthcare": "hospital", "name": "Hospital de Emergencias Enfermera Isabel Zendal", "name:etymology": "Isabel Zendal Gómez", "name:etymology:wikidata": "Q20536263", "name:etymology:wikipedia": "gl:Isabel Zendal", "official_name": "Hospital de Emergencias \"Enfermera Isabel Zendal\"", "operator": "Comunidad de Madrid", "operator:type": "government", "phone": "+34 91 799 63 00", "short_name": "Zendal", "type": "multipolygon", "website": "https://www.comunidad.madrid/centros/hospital-emergencias-enfermera-isabel-zendal", "wikidata": "Q103190997", "wikipedia": "es:Hospital de Emergencias Enfermera Isabel Zendal"}}]