[{"name": "Ospedale Civile Albano Francescano", "latitude": 40.7605783, "longitude": 14.020801, "source": "osm", "_tags": {"amenity": "hospital", "name": "Ospedale Civile Albano Francescano"}}, {"name": "Campolongo Hospital", "latitude": 40.5241118, "longitude": 14.9216431, "source": "osm", "_tags": {"amenity": "hospital", "name": "Campolongo Hospital"}}, {"name": "Casa di cura Trusso", "latitude": 40.848373, "longitude": 14.4705152, "source": "osm", "_tags": {"amenity": "hospital", "emergency": "yes", "healthcare": "hospital", "name": "Casa di cura Trusso"}}, {"name": "Clinica Santa Lucia", "latitude": 40.8329738, "longitude": 14.4998189, "source": "osm", "_tags": {"amenity": "hospital", "healthcare": "hospital", "name": "Clinica Santa Lucia"}}, {"name": "Clinica Pineta Grande", "latitude": 41.0177389, "longitude": 13.9530254, "source": "osm", "_tags": {"amenity": "hospital", "name": "Clinica Pineta Grande"}}, {"name": "Ospedale della costa", "latitude": 40.6383861, "longitude": 14.6122789, "source": "osm", "_tags": {"amenity": "hospital", "emergency": "yes", "healthcare": "hospital", "name": "Ospedale della costa", "name:en": "Amalfi Coast Hospital"}}, {"name": "Guardia medica", "latitude": 40.8150572, "longitude": 14.3444962, "source": "osm", "_tags": {"amenity": "hospital", "healthcare": "hospital", "name": "Guardia medica"}}, {"name": "Guardia Medica", "latitude": 40.6305121, "longitude": 14.5402099, "source": "osm", "_tags": {"amenity": "hospital", "name": "Guardia Medica"}}, {"name": "Casa di cura La Madonnina", "latitude": 40.8602336, "longitude": 14.5274927, "source": "osm", "_tags": {"amenity": "hospital", "name": "Casa di cura La Madonnina"}}, {"name": "Covermark Point camouflage", "latitude": 41.1923528, "longitude": 14.5483632, "source": "osm", "_tags": {"amenity": "hospital", "healthcare": "hospital", "name": "Covermark Point camouflage"}}, {"name": "Guardia Medica", "latitude": 41.1946705, "longitude": 14.5507274, "source": "osm", "_tags": {"amenity": "hospital", "healthcare": "hospital", "name": "Guardia Medica"}}, {"name": "Centro Traumatologico Ortopedico", "latitude": 40.8688625, "longitude": 14.2462918, "source": "osm", "_tags": {"amenity": "hospital", "name": "Centro Traumatologico Ortopedico"}}, {"name": "Ospedale Pediatrico Santobono-Pausillipon", "latitude": 40.8489388, "longitude": 14.2316169, "source": "osm", "_tags": {"amenity": "hospital", "healthcare": "hospital", "name": "Ospedale Pediatrico Santobono-Pausillipon"}}, {"name": "Ospedale Civile Gaetanina Scotto", "latitude": 40.7497699, "longitude": 14.0130908, "source": "osm", "_tags": {"amenity": "hospital", "healthcare": "hospital", "name": "Ospedale Civile Gaetanina Scotto", "operator": "ASL Napoli 2 Nord", "operator:type": "public"}}, {"name": "Pronto Soccorso Ospedale \"Sant'Anna e San Sebastiano\"", "latitude": 41.0862114, "longitude": 14.3352137, "source": "osm", "_tags": {"addr:city": "Caserta", "addr:postcode": "81100", "amenity": "hospital", "emergency": "yes", "healthcare": "hospital", "name": "Pronto Soccorso Ospedale \"Sant'Anna e San Sebastiano\""}}, {"name": "Azienda Sanitaria Locale NA1 - Distr. 52", "latitude": 40.8306985, "longitude": 14.3122439, "source": "osm", "_tags": {"addr:city": "Napoli", "addr:housenumber": "2", "addr:postcode": "80146", "addr:street": "Via Bernardo Quaranta", "amenity": "hospital", "healthcare": "hospital", "name": "Azienda Sanitaria Locale NA1 - Distr. 52", "website": "https://www.aslnapoli1centro.it/uopc32/"}}, {"name": "Ospedale Santa Maria del Popolo degli Incurabili", "latitude": 40.8540895, "longitude": 14.2549082, "source": "osm", "_tags": {"addr:city": "Napoli", "addr:housenumber": "50", "addr:postcode": "80138", "addr:street": "Via Maria Longo", "amenity": "hospital", "healthcare": "hospital", "name": "Ospedale Santa Maria del Popolo degli Incurabili", "wikidata": "Q1030158", "wikipedia": "it:Complesso degli Incurabili"}}, {"name": "ex Ospedale Clinico Gesù e Maria", "latitude": 40.8512633, "longitude": 14.2437395, "source": "osm", "_tags": {"addr:city": "Napoli", "addr:housenumber": "1", "addr:postcode": "80135", "addr:street": "Via Domenico Cotugno", "amenity": "hospital", "healthcare": "hospital", "name": "ex Ospedale Clinico Gesù e Maria", "operator": "Azienda Sanitaria Locale Napoli 1 centro"}}, {"name": "Ospedale Marines USA", "latitude": 40.9934992, "longitude": 14.2538888, "source": "osm", "_tags": {"access": "private", "amenity": "hospital", "healthcare": "hospital", "name": "Ospedale Marines USA", "name:en": "Hospital Marines USA"}}, {"name": "Ospedale di Caserta - LATO NUOVO", "latitude": 41.0867935, "longitude": 14.3348283, "source": "osm", "_tags": {"amenity": "hospital", "healthcare": "hospital", "name": "Ospedale di Caserta - LATO NUOVO"}}, {"name": "PSAUT Primo soccorso", "latitude": 41.2797938, "longitude": 14.5660592, "source": "osm", "_tags": {"amenity": "hospital", "healthcare": "hospital", "name": "PSAUT Primo soccorso"}}, {"name": "Ospedale Civile \"Palasciano\"", "latitude": 41.1063947, "longitude": 14.2125145, "source": "osm", "_tags": {"addr:city": "Capua", "addr:street": "Via Edoardo Palasciano", "healthcare": "hospital", "name": "Ospedale Civile \"Palasciano\""}}, {"name": "Azienda Sanitaria Locale Bn 1-Sportello C.U.P.", "latitude": 41.1196996, "longitude": 14.7746608, "source": "osm", "_tags": {"addr:city": "Benevento", "addr:postcode": "82100", "addr:street": "Via Marco Minghetti", "amenity": "hospital", "healthcare": "hospital", "name": "Azienda Sanitaria Locale Bn 1-Sportello C.U.P.", "operator": "ASL", "operator:wikidata": "Q3631467"}}, {"name": "ASL Napoli 2 Nord - Distretto Sanitario 37 di Giugliano in Campania", "latitude": 40.9288609, "longitude": 14.1963549, "source": "osm", "_tags": {"amenity": "hospital", "contact:housenumber": "316", "contact:street": "Corso Campano", "email": "distretto37@aslnapoli2nord.it", "emergency": "yes", "healthcare": "centre", "internet_access": "wlan", "name": "ASL Napoli 2 Nord - Distretto Sanitario 37 di Giugliano in Campania", "not:operator:wikidata": "Q3631467", "operator": "ASL Napoli 2 Nord", "operator:type": "public", "phone": "+3908118840748;+3908118840730;+390818955250;+390813340117", "vaccination": "yes", "website": "https://www.aslnapoli2nord.it/strutture/luoghi/distretto-sanitario-37/", "wheelchair": "yes"}}, {"name": "ASL Napoli 1 Centro", "latitude": 40.8775836, "longitude": 14.2708869, "source": "osm", "_tags": {"addr:city": "Napoli", "addr:housenumber": "232", "addr:postcode": "80141", "addr:street": "Calata Capodichino", "amenity": "hospital", "healthcare": "hospital", "name": "ASL Napoli 1 Centro", "operator": "ASL", "operator:wikidata": "Q3631467"}}, {"name": "Checkpoint®", "latitude": 41.0703192, "longitude": 14.3494854, "source": "osm", "_tags": {"addr:city": "Caserta", "addr:housenumber": "6", "addr:postcode": "81100", "addr:street": "Via San Gennaro", "addr:unit": "Centro LGBTI+ di Caserta", "amenity": "hospital", "emergency": "no", "healthcare": "hospital", "healthcare:speciality": "hiv", "name": "Checkpoint®", "operator": "Rain Arcigay Caserta ODV", "operator:type": "community", "website": "http://checkpoint.lgbt", "wheelchair": "yes"}}, {"name": "ASL Arienzo 1 - Distretto Caserta", "latitude": 41.0237551, "longitude": 14.4954858, "source": "osm", "_tags": {"addr:city": "Arienzo", "addr:street": "Trav. I Corso Europa", "amenity": "hospital", "emergency": "no", "healthcare": "hospital", "name": "ASL Arienzo 1 - Distretto Caserta", "operator": "ASL", "operator:type": "public", "operator:wikidata": "Q3631467"}}, {"name": "ASL Caserta Teano", "latitude": 41.250114, "longitude": 14.066682, "source": "osm", "_tags": {"addr:city": "Teano", "addr:street": "Via Roma", "amenity": "hospital", "emergency": "no", "healthcare": "hospital", "name": "ASL Caserta Teano", "operator": "ASL", "operator:wikidata": "Q3631467"}}, {"name": "Azienda Sanitaria Locale BN-1", "latitude": 41.2356612, "longitude": 14.5010355, "source": "osm", "_tags": {"amenity": "hospital", "healthcare": "hospital", "name": "Azienda Sanitaria Locale BN-1", "operator": "ASL", "operator:wikidata": "Q3631467", "wheelchair": "yes"}}, {"name": "A.S.L Napoli 1 Centro - Distretto 45 - Centro Clinico \"La piramide\" U.O S.E.R.T.", "latitude": 40.8258193, "longitude": 14.1929243, "source": "osm", "_tags": {"addr:city": "Napoli", "addr:postcode": "80125", "addr:street": "P.Le Tecchio", "amenity": "hospital", "healthcare": "hospital", "name": "A.S.L Napoli 1 Centro - Distretto 45 - Centro Clinico \"La piramide\" U.O S.E.R.T.", "operator": "ASL", "operator:type": "public", "operator:wikidata": "Q3631467", "website": "https://www.aslnapoli1centro.it/"}}, {"name": "ASL Napoli 2 Nord - Distretto Sanitario 39 di Villaricca", "latitude": 40.9175627, "longitude": 14.1855252, "source": "osm", "_tags": {"addr:city": "Villaricca", "addr:housenumber": "618", "addr:postcode": "80010", "addr:street": "Corso Italia", "amenity": "hospital", "email": "distretto39@aslnapoli2nord.it", "emergency": "yes", "healthcare": "centre", "internet_access": "wlan", "name": "ASL Napoli 2 Nord - Distretto Sanitario 39 di Villaricca", "not:operator:wikidata": "Q3631467", "operator": "ASL Napoli 2 Nord", "operator:type": "public", "vaccination": "yes", "website": "https://www.aslnapoli2nord.it/strutture/luoghi/distretto-sanitario-39/", "wheelchair": "yes"}}, {"name": "Misericordia di Guardia Sanframondi", "latitude": 41.2566264, "longitude": 14.6031291, "source": "osm", "_tags": {"amenity": "hospital", "healthcare": "hospital", "name": "Misericordia di Guardia Sanframondi"}}, {"name": "CDSA BlunAuti - Centro Disturbo dello Spettro Autistico", "latitude": 40.9135119, "longitude": 14.1476439, "source": "osm", "_tags": {"addr:city": "Qualiano", "addr:street": "Via Corigliano", "amenity": "hospital", "emergency": "no", "healthcare": "hospital", "healthcare:speciality": "spettro_autistico", "name": "CDSA BlunAuti - Centro Disturbo dello Spettro Autistico", "operator": "ASL", "operator:type": "public", "operator:wikidata": "Q3631467"}}, {"name": "Guardia Medica Pagani", "latitude": 40.7474524, "longitude": 14.6226951, "source": "osm", "_tags": {"amenity": "hospital", "healthcare": "hospital", "name": "Guardia Medica Pagani"}}, {"name": "Pronto Soccorso", "latitude": 40.8155738, "longitude": 14.1999352, "source": "osm", "_tags": {"amenity": "hospital", "emergency": "emergency_ward_entrance", "healthcare": "hospital", "name": "Pronto Soccorso"}}, {"name": "", "latitude": 40.7451202, "longitude": 14.6513205, "source": "osm", "_tags": {"amenity": "hospital", "building": "yes", "emergency": "yes"}}, {"name": "Ospedale Umberto I", "latitude": 40.7450803, "longitude": 14.6510755, "source": "osm", "_tags": {"addr:street": "Via Alfonso De Nicola", "amenity": "hospital", "healthcare": "hospital", "name": "Ospedale Umberto I", "opening_hours": "24/7"}}, {"name": "Ospedale Monaldi", "latitude": 40.8702166, "longitude": 14.2099823, "source": "osm", "_tags": {"amenity": "hospital", "building": "yes", "name": "Ospedale Monaldi", "wikidata": "Q3886614", "wikipedia": "it:Ospedale Monaldi"}}, {"name": "Azienda Ospedaliera Universitaria Federico II", "latitude": 40.8703264, "longitude": 14.2190953, "source": "osm", "_tags": {"addr:street": "Via Gaetano Quagliarello", "alt_name": "Policlinico Federico II", "amenity": "hospital", "emergency": "yes", "healthcare": "hospital", "healthcare:speciality": "general", "loc_name": "Nuovo Policlinico", "name": "Azienda Ospedaliera Universitaria Federico II", "wikidata": "Q3631448", "wikipedia": "it:Azienda Ospedaliera Universitaria Federico II"}}, {"name": "Presidio Ospedaliero Santa Maria dell'Olmo", "latitude": 40.6945811, "longitude": 14.7108099, "source": "osm", "_tags": {"amenity": "hospital", "emergency": "yes", "healthcare": "hospital", "name": "Presidio Ospedaliero Santa Maria dell'Olmo"}}, {"name": "Ospedale San Giovanni Bosco", "latitude": 40.8728311, "longitude": 14.2770927, "source": "osm", "_tags": {"amenity": "hospital", "emergency": "yes", "name": "Ospedale San Giovanni Bosco"}}, {"name": "Cantiere Nuovo Policlinico", "latitude": 41.0602256, "longitude": 14.3576079, "source": "osm", "_tags": {"addr:city": "Caserta", "addr:street": "Via Sossietta Scialla", "construction:amenity": "hospital", "healthcare": "hospital", "healthcare:speciality": "general", "landuse": "construction", "name": "Cantiere Nuovo Policlinico"}}, {"name": "Casa di Cura Montevergine", "latitude": 40.9224208, "longitude": 14.7461017, "source": "osm", "_tags": {"amenity": "hospital", "building": "yes", "healthcare": "hospital", "name": "Casa di Cura Montevergine"}}, {"name": "O.O. R.R. S. Giovanni di Dio e Ruggi D'Aragona", "latitude": 40.6820253, "longitude": 14.7660647, "source": "osm", "_tags": {"amenity": "hospital", "healthcare": "hospital", "name": "O.O. R.R. S. Giovanni di Dio e Ruggi D'Aragona"}}, {"name": "Ospedale Mauro Scarlato", "latitude": 40.7548762, "longitude": 14.5261996, "source": "osm", "_tags": {"addr:city": "Scafati", "addr:housenumber": "1", "addr:postcode": "84018", "addr:street": "Via Passanti", "amenity": "hospital", "healthcare": "hospital", "name": "Ospedale Mauro Scarlato"}}, {"name": "", "latitude": 40.8918361, "longitude": 14.2838126, "source": "osm", "_tags": {"amenity": "hospital"}}, {"name": "A.S.L.", "latitude": 40.6467504, "longitude": 14.8751889, "source": "osm", "_tags": {"amenity": "hospital", "healthcare": "hospital", "name": "A.S.L.", "operator": "ASL", "operator:wikidata": "Q3631467"}}, {"name": "ASL Caserta Palazzo della salute", "latitude": 41.0555982, "longitude": 14.3423529, "source": "osm", "_tags": {"amenity": "hospital", "building": "yes", "emergency": "no", "healthcare": "hospital", "name": "ASL Caserta Palazzo della salute", "operator": "ASL", "operator:wikidata": "Q3631467", "operator:wikipedia": "it:Azienda sanitaria locale"}}, {"name": "Ospedale San Leonardo", "latitude": 40.702341, "longitude": 14.4900747, "source": "osm", "_tags": {"addr:city": "Castellammare di Stabia", "addr:postcode": "80053", "addr:street": "Viale Europa", "amenity": "hospital", "emergency": "yes", "healthcare": "hospital", "name": "Ospedale San Leonardo", "operator": "ASL Napoli 3 Sud", "operator:type": "public"}}, {"name": "Clinica Villa Stabia", "latitude": 40.7032068, "longitude": 14.4898848, "source": "osm", "_tags": {"amenity": "hospital", "emergency": "no", "healthcare": "hospital", "name": "Clinica Villa Stabia"}}, {"name": "Ospedale De Luca e Rossano", "latitude": 40.6607989, "longitude": 14.4261576, "source": "osm", "_tags": {"amenity": "hospital", "name": "Ospedale De Luca e Rossano"}}, {"name": "Ospedale Gaetano Rummo-San Pio", "latitude": 41.1196587, "longitude": 14.7963239, "source": "osm", "_tags": {"addr:city": "Benevento", "addr:housenumber": "53", "addr:postcode": "82100", "addr:street": "Via Pacevecchia", "amenity": "hospital", "email": "protocollo@pec.ao-rummo.it", "emergency": "yes", "fax": "0824.312439", "healthcare": "hospital", "healthcare:speciality": "chiropractic;orthodontics;emergency;psychiatry;dermatology;nephrology;radiology;biology;cardiology;surgery;paediatrics;oncology;general;internal;vaccination;intensive;ophthalmology;abortion;osteopathy;physiatry;acupuncture;angiology;allergology;orthopaedi", "name": "Ospedale Gaetano Rummo-San Pio", "phone": "0824.57111 (Centralino)", "website": "http://ao-rummo.it/", "wheelchair": "yes"}}, {"name": "Azienda Ospedaliera di Caserta Sant'Anna e San Sebastiano", "latitude": 41.0870719, "longitude": 14.3336875, "source": "osm", "_tags": {"addr:city": "Caserta", "addr:housenumber": "1", "addr:postcode": "81100", "addr:street": "Via Ferdinando Palasciano", "amenity": "hospital", "email": "protocollogenerale@ospedalecasertapec.it", "emergency": "yes", "healthcare": "hospital", "healthcare:speciality": "general;emergency;paediatrics;intensive;cardiology;dermatology;oncology;radiology;surgery;covid19;ophthalmology;biology;community;gynaecology;internal;orthodontics;vaccination;chiropractic;nephrology;geriatrics;dialysis;pathology;infectious_diseases;bioch", "internet_access": "yes", "name": "Azienda Ospedaliera di Caserta Sant'Anna e San Sebastiano", "operator:type": "public", "payment:apple_pay": "yes", "payment:cash": "yes", "payment:coins": "yes", "payment:credit_cards": "yes", "payment:debit_cards": "yes", "payment:google_pay": "yes", "payment:mastercard": "yes", "payment:nfc": "yes", "payment:visa": "yes", "phone": "+390823232111", "ref:vatin": "02201130610", "source": "Regione Campania", "website": "https://www.ospedale.caserta.it", "wheelchair": "yes"}}, {"name": "Villa Esther", "latitude": 40.9064358, "longitude": 14.7991468, "source": "osm", "_tags": {"addr:city": "Avellino", "addr:housenumber": "169", "addr:postcode": "83100", "addr:street": "Via Due Principati", "amenity": "hospital", "building": "hospital", "email": "info@villaesther.com", "fax": "+39 0825 760980", "healthcare": "hospital", "name": "Villa Esther", "operator": "Pineta Grande S.p.A.", "phone": "+39 0825 772111", "website": "http://www.villaesther.com/"}}, {"name": "Casa di Cura Malzoni - Villa dei Platani", "latitude": 40.9117287, "longitude": 14.7747086, "source": "osm", "_tags": {"addr:city": "Avellino", "addr:housenumber": "2", "addr:postcode": "83100", "addr:street": "Via Carmelo Errico", "amenity": "hospital", "building": "yes", "email": "info@malzoni.it", "fax": "+39 0825 7961", "name": "Casa di Cura Malzoni - Villa dei Platani", "phone": "+39 0825 7961", "website": "http://www.malzoni.it/"}}, {"name": "Ospedale Santa Maria di Loreto Mare", "latitude": 40.8469743, "longitude": 14.2718081, "source": "osm", "_tags": {"amenity": "hospital", "building": "yes", "emergency": "yes", "name": "Ospedale Santa Maria di Loreto Mare"}}, {"name": "Sanatorio", "latitude": 40.819321, "longitude": 14.6169846, "source": "osm", "_tags": {"amenity": "hospital", "name": "Sanatorio"}}, {"name": "ASL NA1 - Poliambulatorio", "latitude": 40.8311939, "longitude": 14.1983552, "source": "osm", "_tags": {"amenity": "hospital", "building": "yes", "emergency": "no", "name": "ASL NA1 - Poliambulatorio"}}, {"name": "Ospedale San Giuseppe e Melorio", "latitude": 41.0765546, "longitude": 14.2626786, "source": "osm", "_tags": {"amenity": "hospital", "building": "yes", "emergency": "yes", "healthcare": "hospital", "name": "Ospedale San Giuseppe e Melorio"}}, {"name": "Clinica San Michele", "latitude": 41.0393451, "longitude": 14.3747335, "source": "osm", "_tags": {"amenity": "hospital", "building": "yes", "emergency": "yes", "healthcare": "hospital", "name": "Clinica San Michele"}}, {"name": "Ospedale Sant'Alfonso Maria de' Liguori", "latitude": 41.1053567, "longitude": 14.509193, "source": "osm", "_tags": {"addr:city": "Sant'Agata de' Goti", "addr:street": "Strada Provinciale 117", "amenity": "hospital", "building": "yes", "healthcare": "hospital", "name": "Ospedale Sant'Alfonso Maria de' Liguori"}}, {"name": "Asl Salerno Via Leucosia", "latitude": 40.6530475, "longitude": 14.8076828, "source": "osm", "_tags": {"amenity": "hospital", "building": "yes", "emergency": "no", "healthcare": "hospital", "healthcare:speciality": "general", "name": "Asl Salerno Via Leucosia", "operator": "ASL", "operator:type": "public", "operator:wikidata": "Q3631467"}}, {"name": "Ospedale dei Pellegrini", "latitude": 40.8471672, "longitude": 14.2469338, "source": "osm", "_tags": {"addr:city": "Napoli", "addr:housenumber": "41", "addr:postcode": "80134", "addr:street": "Via Portamedina alla Pignasecca", "amenity": "hospital", "building": "hospital", "healthcare": "hospital", "name": "Ospedale dei Pellegrini", "phone": "+39 081 2543410", "website": "https://www.aslnapoli1centro.it/751/", "wikidata": "Q30281193"}}, {"name": "Ospedale Martiri di Villa Malta", "latitude": 40.8118017, "longitude": 14.6009277, "source": "osm", "_tags": {"amenity": "hospital", "building": "hospital", "emergency": "yes", "healthcare": "hospital", "name": "Ospedale Martiri di Villa Malta"}}, {"name": "Ospedale La Schiana", "latitude": 40.8493163, "longitude": 14.0727361, "source": "osm", "_tags": {"amenity": "hospital", "name": "Ospedale La Schiana"}}, {"name": "ASL NA 1 - Poliambulatorio", "latitude": 40.8201323, "longitude": 14.1915186, "source": "osm", "_tags": {"amenity": "hospital", "building": "yes", "emergency": "no", "name": "ASL NA 1 - Poliambulatorio"}}, {"name": "Clinic Center", "latitude": 40.8367681, "longitude": 14.186925, "source": "osm", "_tags": {"amenity": "hospital", "building": "yes", "emergency": "no", "name": "Clinic Center"}}, {"name": "", "latitude": 41.085821, "longitude": 14.3371324, "source": "osm", "_tags": {"amenity": "hospital", "healthcare": "hospital", "operator": "ASL", "operator:wikidata": "Q3631467", "operator:wikipedia": "it:Azienda sanitaria locale"}}, {"name": "Guardia Medica", "latitude": 41.0628016, "longitude": 14.5600996, "source": "osm", "_tags": {"addr:postcode": "82011", "addr:street": "Via Sannita", "amenity": "hospital", "building": "yes", "emergency": "no", "healthcare": "hospital", "name": "Guardia Medica"}}, {"name": "Casa di Cura Villa Cintia", "latitude": 40.8449717, "longitude": 14.2045746, "source": "osm", "_tags": {"amenity": "hospital", "building": "yes", "emergency": "no", "name": "Casa di Cura Villa Cintia"}}, {"name": "Ospedale dei Pellegrini", "latitude": 40.8473436, "longitude": 14.2474994, "source": "osm", "_tags": {"amenity": "hospital", "building": "yes", "emergency": "yes", "name": "Ospedale dei Pellegrini"}}, {"name": "Ospedale Sacro Cuore di Gesù Fatebenefratelli", "latitude": 41.1360849, "longitude": 14.7736104, "source": "osm", "_tags": {"addr:city": "Benevento", "addr:housenumber": "14a", "addr:postcode": "82100", "addr:street": "Viale Principe di Napoli", "amenity": "hospital", "emergency": "no", "healthcare": "hospital", "healthcare:speciality": "general;surgery;emergency", "name": "Ospedale Sacro Cuore di Gesù Fatebenefratelli", "operator": "Provincia romana - Ordine ospedaliero di San Giovanni di Dio"}}, {"name": "Università SUN - Policlinico", "latitude": 40.8512259, "longitude": 14.2531144, "source": "osm", "_tags": {"amenity": "hospital", "building": "yes", "healthcare": "hospital", "name": "Università SUN - Policlinico"}}, {"name": "Università SUN - Policlinico", "latitude": 40.8507344, "longitude": 14.253282, "source": "osm", "_tags": {"amenity": "hospital", "building": "yes", "healthcare": "hospital", "name": "Università SUN - Policlinico"}}, {"name": "Università SUN - Policlinico", "latitude": 40.8531348, "longitude": 14.253143, "source": "osm", "_tags": {"amenity": "hospital", "building": "public", "name": "Università SUN - Policlinico"}}, {"name": "", "latitude": 40.8542777, "longitude": 14.2549565, "source": "osm", "_tags": {"amenity": "hospital", "building": "yes"}}, {"name": "", "latitude": 40.8538672, "longitude": 14.2552432, "source": "osm", "_tags": {"amenity": "hospital", "building": "yes"}}, {"name": "Università SUN - Poliambulatorio", "latitude": 40.8518105, "longitude": 14.2532175, "source": "osm", "_tags": {"amenity": "hospital", "building": "public", "healthcare": "hospital", "name": "Università SUN - Poliambulatorio"}}, {"name": "ASL NA1 - Poliambulatorio", "latitude": 40.8417018, "longitude": 14.2020392, "source": "osm", "_tags": {"amenity": "hospital", "building": "public", "emergency": "no", "name": "ASL NA1 - Poliambulatorio"}}, {"name": "Clinica Santo Stefano", "latitude": 40.8352563, "longitude": 14.2028091, "source": "osm", "_tags": {"amenity": "hospital", "description": "Era una clinica privata, adesso in disuso", "healthcare": "hospital", "name": "Clinica Santo Stefano"}}, {"name": "Guardia medica", "latitude": 41.3550623, "longitude": 14.3757958, "source": "osm", "_tags": {"addr:city": "Piedimonte Matese", "addr:postcode": "81016", "addr:street": "Via G. G. D'Amore", "amenity": "hospital", "name": "Guardia medica", "phone": "+39 0823 911196"}}, {"name": "Villa Chiarugi", "latitude": 40.741128, "longitude": 14.6319911, "source": "osm", "_tags": {"addr:housenumber": "283", "addr:street": "Via Giuseppe Atzori", "amenity": "hospital", "check_date": "2025-03-14", "name": "Villa Chiarugi"}}, {"name": "Clinica San Felice", "latitude": 40.9138365, "longitude": 14.4022662, "source": "osm", "_tags": {"amenity": "hospital", "healthcare": "hospital", "name": "Clinica San Felice"}}, {"name": "ASL Montesarchio", "latitude": 41.0567051, "longitude": 14.6252333, "source": "osm", "_tags": {"addr:city": "Montesarchio", "addr:street": "Via Napoli", "amenity": "hospital", "healthcare": "hospital", "name": "ASL Montesarchio", "operator": "ASL", "operator:wikidata": "Q3631467", "operator:wikipedia": "it:Azienda sanitaria locale"}}, {"name": "Villa dei fiori", "latitude": 40.9108118, "longitude": 14.1962623, "source": "osm", "_tags": {"amenity": "hospital", "name": "Villa dei fiori"}}, {"name": "Iatropolis \"Città della Medicina\"", "latitude": 41.0857357, "longitude": 14.3388055, "source": "osm", "_tags": {"addr:city": "Caserta", "addr:postcode": "81100", "addr:street": "Via Giuseppe de Falco", "amenity": "hospital", "emergency": "no", "healthcare:speciality": "gynaecology;radiology;paediatrics;chiropractic", "name": "Iatropolis \"Città della Medicina\"", "operator": "Iatropolis"}}, {"name": "ASL NA1 - Poliambulatorio", "latitude": 40.8306196, "longitude": 14.2467332, "source": "osm", "_tags": {"amenity": "hospital", "building": "public", "emergency": "no", "name": "ASL NA1 - Poliambulatorio"}}, {"name": "Ospedale del Mare", "latitude": 40.8537994, "longitude": 14.3443845, "source": "osm", "_tags": {"amenity": "hospital", "emergency": "yes", "healthcare": "hospital", "name": "Ospedale del Mare"}}, {"name": "Ospedale del Mare", "latitude": 40.8516377, "longitude": 14.3452066, "source": "osm", "_tags": {"amenity": "hospital", "emergency": "yes", "healthcare": "hospital", "name": "Ospedale del Mare"}}, {"name": "ASL Salerno - Distretto Sanitario 61", "latitude": 40.731464, "longitude": 14.5609537, "source": "osm", "_tags": {"addr:city": "Angri", "addr:street": "Via dei Goti", "amenity": "hospital", "building": "yes", "building:levels": "4", "healthcare": "hospital", "name": "ASL Salerno - Distretto Sanitario 61", "operator": "ASL", "operator:wikidata": "Q3631467", "operator:wikipedia": "it:Azienda sanitaria locale"}}, {"name": "ASL NA1 Poliambulatorio", "latitude": 40.8587463, "longitude": 14.2724787, "source": "osm", "_tags": {"amenity": "hospital", "building": "yes", "emergency": "no", "healthcare": "hospital", "name": "ASL NA1 Poliambulatorio", "operator": "ASL", "operator:wikidata": "Q3631467"}}, {"name": "Presidio Sanitario Raffaele Apicella", "latitude": 40.8523233, "longitude": 14.3742702, "source": "osm", "_tags": {"amenity": "hospital", "healthcare": "hospital", "name": "Presidio Sanitario Raffaele Apicella"}}, {"name": "Azienda Sanitaria-Ex Ospedale Civile", "latitude": 40.7579408, "longitude": 14.4450038, "source": "osm", "_tags": {"addr:city": "Torre Annunziata", "addr:housenumber": "26", "addr:postcode": "80058", "addr:street": "Piazza Ernesto Cesaro", "amenity": "hospital", "building": "hospital", "building:levels": "3", "emergency": "no", "healthcare": "hospital", "healthcare:speciality": "psychiatry", "layer": "1", "name": "Azienda Sanitaria-Ex Ospedale Civile", "operator": "Azienda Sanitaria Locale Napoli 3 Sud", "source": "survey", "source:geometry": "bing"}}, {"name": "Casa di Cura Ospedale Internazionale Villa Benti", "latitude": 40.8365662, "longitude": 14.2276039, "source": "osm", "_tags": {"amenity": "hospital", "building": "yes", "healthcare": "hospital", "name": "Casa di Cura Ospedale Internazionale Villa Benti"}}, {"name": "Ospedale Fatebenefratelli", "latitude": 40.8154091, "longitude": 14.1995584, "source": "osm", "_tags": {"amenity": "hospital", "check_date": "2024-09-21", "healthcare": "hospital", "name": "Ospedale Fatebenefratelli"}}, {"name": "Presidio Ospedaliero Pausillipon", "latitude": 40.8125955, "longitude": 14.2060473, "source": "osm", "_tags": {"amenity": "hospital", "emergency": "no", "healthcare": "hospital", "healthcare:speciality": "oncology", "name": "Presidio Ospedaliero Pausillipon"}}, {"name": "Distretto Sanitario 59", "latitude": 40.6322422, "longitude": 14.3985187, "source": "osm", "_tags": {"amenity": "hospital", "name": "Distretto Sanitario 59", "operator": "ASL Napoli 3 Sud"}}, {"name": "Villa dei Fiori", "latitude": 40.9358275, "longitude": 14.3676854, "source": "osm", "_tags": {"addr:city": "Acerra", "addr:housenumber": "157", "addr:postcode": "80011", "addr:street": "Corso Italia", "amenity": "hospital", "email": "info@villadeifioriacerra.it", "emergency": "yes", "fax": "+39 081 8857805", "healthcare": "hospital", "name": "Villa dei Fiori", "phone": "+39 081 3190111", "website": "www.villadeifioriacerra.it"}}, {"name": "ASL NA 2 NORD - Distretto 46 Acerra", "latitude": 40.9466598, "longitude": 14.3791915, "source": "osm", "_tags": {"amenity": "hospital", "name": "ASL NA 2 NORD - Distretto 46 Acerra"}}, {"name": "Ospedale Civile di Boscotrecase", "latitude": 40.766619, "longitude": 14.4522089, "source": "osm", "_tags": {"addr:city": "Boscotrecase", "addr:street": "Via Lenze", "alt_name": "Ospedale Sant'Anna e Maria S.S. della Neve", "amenity": "hospital", "emergency": "yes", "healthcare": "hospital", "healthcare:speciality": "general", "name": "Ospedale Civile di Boscotrecase", "operator": "asl napoli 3 sud", "phone": "+39 081 535 21 11", "website": "http://www.chirurgiaboscotrecase.it"}}, {"name": "P.O. Maresca", "latitude": 40.8018182, "longitude": 14.3845807, "source": "osm", "_tags": {"amenity": "hospital", "emergency": "yes", "name": "P.O. Maresca"}}, {"name": "San Giuliano", "latitude": 40.9232241, "longitude": 14.1991507, "source": "osm", "_tags": {"amenity": "hospital", "description": "Il cancello del pronto soccorso è DOPO il cancello dell'ospedale (sono ingressi diversi).", "description:en": "The emergency ward gate is AFTER the hospital main gate.", "emergency": "yes", "healthcare": "hospital", "name": "San Giuliano"}}, {"name": "Ospedale Antonio Cardarelli", "latitude": 40.8652618, "longitude": 14.2242962, "source": "osm", "_tags": {"addr:city": "Napoli", "addr:housenumber": "9", "addr:postcode": "80131", "addr:street": "Via Antonio Cardarelli", "amenity": "hospital", "email": "aocardarelli@pec.it", "emergency": "yes", "name": "Ospedale Antonio Cardarelli", "official_name": "Azienda Ospedaliera di Rilievo Nazionale Antonio Cardarelli", "phone": "+39 081 7471111", "website": "https://www.ospedalecardarelli.it/", "wikidata": "Q3886593", "wikimedia_commons": "Category:Cardarelli Hospital (Naples)", "wikipedia": "it:Ospedale Antonio Cardarelli"}}, {"name": "Ospedale di Maddaloni", "latitude": 41.043102, "longitude": 14.3803657, "source": "osm", "_tags": {"addr:street": "Via della Libertà", "amenity": "hospital", "building": "hospital", "emergency": "yes", "healthcare": "hospital", "name": "Ospedale di Maddaloni"}}, {"name": "Ospedale Capilupi", "latitude": 40.5499038, "longitude": 14.2365656, "source": "osm", "_tags": {"amenity": "hospital", "healthcare": "hospital", "name": "Ospedale Capilupi"}}, {"name": "Ospedale Andrea Tortora", "latitude": 40.7479206, "longitude": 14.6213825, "source": "osm", "_tags": {"amenity": "hospital", "check_date": "2023-07-18", "healthcare": "hospital", "name": "Ospedale Andrea Tortora"}}, {"name": "Casa di Cura Tortorella", "latitude": 40.6813191, "longitude": 14.7685911, "source": "osm", "_tags": {"addr:city": "Salerno", "addr:housenumber": "1", "addr:postcode": "84124", "addr:street": "Via Nicola Aversano", "amenity": "hospital", "building": "yes", "email": "amministrazione@casadicuratortorella.it", "fax": "+39 089 237081", "name": "Casa di Cura Tortorella", "phone": "+39 089 2578111", "website": "https://www.tortorellaspa.com/"}}, {"name": "Villa delle Magnolie", "latitude": 41.1213029, "longitude": 14.384323, "source": "osm", "_tags": {"addr:city": "Castel Morrone", "addr:housenumber": "37", "addr:postcode": "81020", "addr:street": "Via Ciummiento", "addr:unit": "4", "amenity": "hospital", "emergency": "yes", "healthcare": "hospital", "name": "Villa delle Magnolie", "phone": "+390823391111", "website": "https://www.villadellemagnolie.it/"}}, {"name": "Azienda Sanitaria Locale Napoli 2 Nord- Dipartimento di Salute Mentale", "latitude": 40.9141767, "longitude": 14.2755005, "source": "osm", "_tags": {"amenity": "hospital", "healthcare": "hospital", "healthcare:speciality": "child_psychiatry;neuropsychiatry;psicologia", "name": "Azienda Sanitaria Locale Napoli 2 Nord- Dipartimento di Salute Mentale", "operator": "ASL", "operator:type": "public", "operator:wikidata": "Q3631467"}}, {"name": "Ospedale Civile di Frattamaggiore \"San Giovanni di Dio\"", "latitude": 40.9481623, "longitude": 14.271616, "source": "osm", "_tags": {"addr:city": "Frattamaggiore", "addr:postcode": "80027", "addr:street": "Via Giovanni XXIII", "alt_name": "Ospedale di Frattamaggiore", "amenity": "hospital", "email": "ospedalefrattamaggiore@pec.aslnapoli2nord.it", "emergency": "ambulance_station", "healthcare": "hospital", "loc_name": "Ospedale di Fratta", "name": "Ospedale Civile di Frattamaggiore \"San Giovanni di Dio\"", "name:etymology:wikidata": "Q320171", "phone": "+39 081 889 11 11", "short_name": "Ospedale di Frattamaggiore;Ospedale San Giovanni di Dio", "website": "https://www.aslnapoli2nord.it/strutture/presidi-ospedalieri/san-giovanni-di-dio-frattamaggiore/"}}, {"name": "San Giovanni di Dio Ruggi d'Aragona", "latitude": 40.6490182, "longitude": 14.8277734, "source": "osm", "_tags": {"alt_name": "Ospedali Riuniti San Giovanni di Dio e Ruggi d'Aragona", "amenity": "hospital", "emergency": "yes", "healthcare": "hospital", "long_name": "OO.RR. San Giovanni di Dio Ruggi d'Aragona - Scuola Medica Salernitana", "name": "San Giovanni di Dio Ruggi d'Aragona", "website": "https://www.sangiovannieruggi.it/", "wikidata": "Q3886686", "wikipedia": "it:Ospedali Riuniti San Giovanni di Dio e Ruggi d'Aragona"}}, {"name": "Villa del Sole - Casa di Cura", "latitude": 40.7001478, "longitude": 14.7755557, "source": "osm", "_tags": {"addr:city": "Salerno", "addr:housenumber": "1", "addr:postcode": "84135", "addr:street": "Via dei Greci", "amenity": "hospital", "healthcare": "hospital", "name": "Villa del Sole - Casa di Cura"}}, {"name": "Clinica Hera", "latitude": 40.939573, "longitude": 14.2037316, "source": "osm", "_tags": {"addr:housenumber": "36", "addr:street": "Via Santa Caterina da Siena", "amenity": "hospital", "healthcare": "hospital", "healthcare:speciality": "gynaecology;urology;plastic_surgery;cardiology;endocrinology", "name": "Clinica Hera", "opening_hours": "Mo-Fr 09:00-18:00", "phone": "+39 081 5067919", "website": "https://clinicahera.it/"}}, {"name": "ASL Napoli 3", "latitude": 40.9395102, "longitude": 14.2475946, "source": "osm", "_tags": {"amenity": "hospital", "healthcare": "hospital", "name": "ASL Napoli 3", "operator": "ASL", "operator:wikidata": "Q3631467"}}, {"name": "Distretto Sanitario di Villaricca (DS 39)", "latitude": 40.9175827, "longitude": 14.1855526, "source": "osm", "_tags": {"addr:city": "Villaricca", "addr:housenumber": "168", "addr:postcode": "80010", "addr:street": "Corso Italia", "amenity": "hospital", "emergency": "yes", "healthcare": "hospital", "name": "Distretto Sanitario di Villaricca (DS 39)", "operator": "ASL", "operator:type": "public", "operator:wikidata": "Q3631467"}}, {"name": "Ospedale Civile \"Ave Gratia Plena\"", "latitude": 41.3537518, "longitude": 14.3559528, "source": "osm", "_tags": {"addr:city": "Piedimonte Matese", "addr:postcode": "81016", "addr:street": "Via Matese", "amenity": "hospital", "healthcare": "hospital", "name": "Ospedale Civile \"Ave Gratia Plena\"", "phone": "+39 0823 544111", "website": "https://www.aslcaserta.it/index.php/p-o-piedimonte-matese/"}}, {"name": "Distretto Sanitario", "latitude": 40.6438624, "longitude": 14.4142068, "source": "osm", "_tags": {"amenity": "hospital", "building": "yes", "emergency": "no", "name": "Distretto Sanitario"}}, {"name": "Ospedale Civile di Teano", "latitude": 41.2499548, "longitude": 14.0671862, "source": "osm", "_tags": {"amenity": "hospital", "healthcare": "hospital", "name": "Ospedale Civile di Teano"}}, {"name": "Casa di Cura Villa Fiorita", "latitude": 41.1189664, "longitude": 14.1989949, "source": "osm", "_tags": {"addr:city": "Capua", "addr:place": "Località Camarelle - Strada Statale Appia km 199,00", "addr:postcode": "81043", "amenity": "hospital", "fax": "+39 0823 969072", "healthcare": "hospital", "name": "Casa di Cura Villa Fiorita", "phone": "+39 0823 997211", "website": "http://www.villafioritacapua.it/"}}, {"name": "Clinica Villa del Sole", "latitude": 41.0720155, "longitude": 14.316512, "source": "osm", "_tags": {"addr:city": "Caserta", "addr:housenumber": "35", "addr:postcode": "81100", "addr:street": "Via Nazionale Appia", "amenity": "hospital", "email": "segreteria@clinicavilladelsole.it", "healthcare": "hospital", "name": "Clinica Villa del Sole", "phone": "+39 0823 251111", "website": "https://www.clinicavilladelsole.it/"}}, {"name": "Ospedale Santa Maria della Pietà", "latitude": 40.9047085, "longitude": 14.2932136, "source": "osm", "_tags": {"addr:city": "Casoria", "addr:housenumber": "9", "addr:postcode": "80026", "addr:street": "Via San Rocco", "amenity": "hospital", "email": "info@ospedalecamilliani.it", "fax": "+39 081 5408291", "healthcare": "hospital", "name": "Ospedale Santa Maria della Pietà", "operator": "Ordine dei Ministri degli Infermi (Religiosi Camilliani)", "phone": "+39 081 5408111", "website": "https://www.ospedalecamilliani.it/"}}, {"name": "Ospedale Evangelico Villa Betania", "latitude": 40.8589329, "longitude": 14.3317136, "source": "osm", "_tags": {"addr:city": "Napoli", "addr:housenumber": "604", "addr:postcode": "80147", "addr:street": "Via Argine", "amenity": "hospital", "email": "informazioni@ospedalebetania.org", "emergency": "yes", "healthcare": "hospital", "name": "Ospedale Evangelico Villa Betania", "operator": "Fondazione Evangelica Betania", "phone": "+39 081 5912159", "website": "https://www.ospedalebetania.org/"}}, {"name": "Casa di Cura  Athena - Villa dei Pini", "latitude": 41.3536766, "longitude": 14.3659314, "source": "osm", "_tags": {"addr:city": "Piedimonte Matese", "addr:housenumber": "90", "addr:postcode": "81016", "addr:street": "Via Matese", "amenity": "hospital", "building": "hospital", "email": "info@clinicathena.it", "emergency": "no", "healthcare": "hospital", "name": "Casa di Cura  Athena - Villa dei Pini", "phone": "+39 0823 786053", "website": "https://www.clinicathena.it/"}}, {"name": "Casa di Cura Gepos", "latitude": 41.2176507, "longitude": 14.5320672, "source": "osm", "_tags": {"addr:city": "Telese Terme", "addr:housenumber": "29", "addr:postcode": "82037", "addr:street": "Via Roma", "amenity": "hospital", "building": "yes", "email": "gruppodevizia@gmail.com", "healthcare": "hospital", "name": "Casa di Cura Gepos", "phone": "+39 0824 949111", "wheelchair": "yes"}}, {"name": "ASL Caserta", "latitude": 41.0719909, "longitude": 14.3410442, "source": "osm", "_tags": {"addr:city": "Caserta", "addr:housenumber": "28", "addr:postcode": "81100", "addr:street": "Via Unità Italiana", "amenity": "hospital", "building": "yes", "emergency": "no", "healthcare": "hospital", "name": "ASL Caserta", "operator": "ASL", "operator:type": "government", "operator:wikidata": "Q3631467", "operator:wikipedia": "it:Azienda sanitaria locale", "phone": "+39800984043", "website": "https://www.aslcaserta.it/Pagine/HomePage.aspx"}}, {"name": "Ospedale Nuovo di Gragnano", "latitude": 40.6954334, "longitude": 14.5225965, "source": "osm", "_tags": {"addr:city": "Gragnano", "addr:postcode": "80054", "addr:street": "Via Marianna Spagnuolo", "amenity": "hospital", "healthcare": "hospital", "name": "Ospedale Nuovo di Gragnano", "operator": "ASL Napoli 3 Sud"}}, {"name": "", "latitude": 41.1742073, "longitude": 14.6482048, "source": "osm", "_tags": {"addr:city": "Vitulano", "addr:housenumber": "19", "addr:postcode": "82038", "addr:street": "Viale San Pietro", "amenity": "hospital", "healthcare": "hospital"}}, {"name": "ASL", "latitude": 41.005598, "longitude": 14.7774449, "source": "osm", "_tags": {"addr:street": "Viale San Francesco", "amenity": "hospital", "building": "service", "healthcare": "hospital", "healthcare:speciality": "general", "name": "ASL", "operator": "ASL", "operator:wikidata": "Q3631467"}}, {"name": "Guardia Medica", "latitude": 41.0038383, "longitude": 14.7768951, "source": "osm", "_tags": {"addr:street": "Viale San Francesco", "amenity": "hospital", "healthcare": "hospital", "name": "Guardia Medica"}}, {"name": "Casa di Cura di Riabilitazione G. F. Montesano", "latitude": 40.7652367, "longitude": 14.6926328, "source": "osm", "_tags": {"amenity": "hospital", "emergency": "no", "healthcare": "hospital", "name": "Casa di Cura di Riabilitazione G. F. Montesano"}}, {"name": "", "latitude": 41.3389751, "longitude": 14.6943002, "source": "osm", "_tags": {"addr:city": "Morcone", "addr:postcode": "82026", "addr:street": "Contrada Piana", "amenity": "hospital", "emergency": "no", "healthcare": "hospital"}}, {"name": "Casa di Cura Villa Giovanna", "latitude": 41.3584491, "longitude": 14.0385203, "source": "osm", "_tags": {"amenity": "hospital", "healthcare": "hospital", "name": "Casa di Cura Villa Giovanna"}}, {"name": "ASL Napoli 3 Sud - Distretto 51", "latitude": 40.9121018, "longitude": 14.3949354, "source": "osm", "_tags": {"addr:city": "Pomigliano d'Arco", "addr:postcode": "80038", "amenity": "hospital", "healthcare": "hospital", "name": "ASL Napoli 3 Sud - Distretto 51", "operator": "ASL", "operator:type": "public", "operator:wikidata": "Q3631467", "operator:wikipedia": "it:Azienda sanitaria locale"}}, {"name": "ASL Napoli 3 Sud - Distretto 48", "latitude": 40.9223139, "longitude": 14.4463484, "source": "osm", "_tags": {"addr:city": "Marigliano", "addr:street": "via San Luca", "amenity": "hospital", "healthcare": "hospital", "name": "ASL Napoli 3 Sud - Distretto 48", "operator": "ASL", "operator:type": "public", "operator:wikidata": "Q3631467", "operator:wikipedia": "it:Azienda sanitaria locale"}}, {"name": "Ospedale di Sorrento", "latitude": 40.6248316, "longitude": 14.3688242, "source": "osm", "_tags": {"addr:city": "Sorrento", "addr:country": "IT", "addr:housenumber": "2", "addr:postcode": "80067", "addr:street": "Corso Italia", "amenity": "hospital", "check_date": "2025-05-31", "emergency": "yes", "healthcare": "hospital", "name": "Ospedale di Sorrento", "official_name": "Presidio Ospedaliero Santa Maria Della Misericordia"}}, {"name": "Ospedale di Marcianise “Anastasia Guerriero ”", "latitude": 41.0284415, "longitude": 14.315228, "source": "osm", "_tags": {"addr:city": "Marcianise", "addr:postcode": "81020", "addr:street": "Viale Sossietta Scialla", "amenity": "hospital", "email": "ospmarcianise.dirsan@aslcaserta.it", "emergency": "yes", "healthcare": "hospital", "healthcare:speciality": "general", "name": "Ospedale di Marcianise “Anastasia Guerriero ”", "phone": "+39 082 3690614", "website": "https://www.aslcaserta.it/index.php/p-o-marcianise/", "wheelchair": "yes"}}, {"name": "Ospedale San Giuseppe Moscati", "latitude": 40.9580945, "longitude": 14.2093043, "source": "osm", "_tags": {"addr:city": "Aversa", "addr:country": "IT", "addr:housenumber": "1", "addr:street": "Via Antonio Gramsci", "amenity": "hospital", "healthcare": "hospital", "name": "Ospedale San Giuseppe Moscati", "operator": "Azienda Sanitaria Locale Caserta", "phone": "+39 081 5001111", "website": "https://www.aslcaserta.it/index.php/p-o-aversa/"}}, {"name": "Ospedale Santa Maria delle Grazie", "latitude": 40.8487224, "longitude": 14.0737091, "source": "osm", "_tags": {"amenity": "hospital", "emergency": "yes", "healthcare": "hospital", "name": "Ospedale Santa Maria delle Grazie", "operator": "ASL Napoli 2 Nord", "operator:type": "public", "website": "https://www.aslnapoli2nord.it/strutture/presidi-ospedalieri/santa-maria-delle-grazie-pozzuoli-2/"}}, {"name": "Ospedale COVID-19 Caserta", "latitude": 41.0870077, "longitude": 14.336343, "source": "osm", "_tags": {"addr:city": "Caserta", "addr:postcode": "81100", "addr:street": "Via Giorgio La Pira", "amenity": "hospital", "emergency": "yes", "healthcare": "hospital", "healthcare:speciality": "covid-19", "name": "Ospedale COVID-19 Caserta", "note": "Ospedale COVID-19 del Comune di Caserta, in via G. La Pira nell'ospedale di San Sebastiano e Sant Anna di Caserta.", "operator": "Azienda Ospedaliera di Caserta Sant'Anna e San Sebastiano", "operator:type": "public", "wikidata": "Q84104992", "wikipedia": "it:Pandemia di COVID-19 in Italia"}}, {"name": "ASL Maddaloni - Distretto 13", "latitude": 41.0280113, "longitude": 14.3744905, "source": "osm", "_tags": {"addr:city": "Maddaloni", "addr:postcode": "81024", "addr:street": "Via Napoli", "amenity": "hospital", "building": "yes", "healthcare": "hospital", "healthcare:speciality": "general", "name": "ASL Maddaloni - Distretto 13", "operator": "ASL", "operator:type": "public", "operator:wikidata": "Q3631467", "operator:wikipedia": "it:Azienda sanitaria locale", "wheelchair": "limited"}}, {"name": "ASL Napoli 2 NORD Distretto Sanitario 42 Poliambulatorio", "latitude": 40.9111306, "longitude": 14.2600252, "source": "osm", "_tags": {"amenity": "hospital", "healthcare": "hospital", "name": "ASL Napoli 2 NORD Distretto Sanitario 42 Poliambulatorio", "operator": "ASL", "operator:type": "public", "operator:wikidata": "Q3631467", "operator:wikipedia": "it:Azienda sanitaria locale"}}, {"name": "Azienda Sanitaria Locale Avellino", "latitude": 41.0423406, "longitude": 14.6636056, "source": "osm", "_tags": {"addr:city": "Crocevia-Innocenzi", "addr:street": "Via Sala-Tedeschi", "amenity": "hospital", "healthcare": "hospital", "name": "Azienda Sanitaria Locale Avellino", "operator": "ASL", "operator:wikidata": "Q3631467"}}, {"name": "", "latitude": 40.9395622, "longitude": 14.2476224, "source": "osm", "_tags": {"amenity": "hospital", "healthcare": "hospital"}}, {"name": "", "latitude": 40.9725298, "longitude": 14.1782132, "source": "osm", "_tags": {"amenity": "hospital", "healthcare": "hospital", "operator": "ASL", "operator:wikidata": "Q3631467", "source": "microsoft/BuildingFootprints"}}, {"name": "ex Ospedale psichiatrico \"Leonardo Bianchi\"", "latitude": 40.8774344, "longitude": 14.2728285, "source": "osm", "_tags": {"addr:city": "Napoli", "addr:street": "Calata Capodichino", "amenity": "hospital", "healthcare": "hospital", "name": "ex Ospedale psichiatrico \"Leonardo Bianchi\""}}, {"name": "ASL BN - Distretto Sant'Agata de' Goti", "latitude": 41.0911125, "longitude": 14.4998444, "source": "osm", "_tags": {"addr:city": "Sant'Agata de' Goti", "addr:postcode": "82030", "addr:street": "Strada Provinciale 121 Caudina", "amenity": "hospital", "building": "yes", "building:levels": "1", "healthcare": "hospital", "name": "ASL BN - Distretto Sant'Agata de' Goti", "operator": "ASL", "operator:type": "public", "operator:wikidata": "Q3631467"}}, {"name": "", "latitude": 40.8698084, "longitude": 14.2139697, "source": "osm", "_tags": {"amenity": "hospital"}}, {"name": "", "latitude": 40.9248392, "longitude": 14.5411804, "source": "osm", "_tags": {"amenity": "hospital", "healthcare": "hospital"}}, {"name": "Ospedale Cotugno", "latitude": 40.8699685, "longitude": 14.2141257, "source": "osm", "_tags": {"amenity": "hospital", "building": "yes", "name": "Ospedale Cotugno"}}, {"name": "", "latitude": 41.0617634, "longitude": 14.2782713, "source": "osm", "_tags": {"amenity": "hospital", "healthcare": "hospital"}}, {"name": "ASL AV2 di Atripalda", "latitude": 40.9236868, "longitude": 14.8326172, "source": "osm", "_tags": {"addr:city": "Atripalda", "addr:postcode": "83042", "addr:street": "Via Manfredi", "amenity": "hospital", "building": "residential", "healthcare": "hospital", "name": "ASL AV2 di Atripalda", "operator": "ASL", "operator:type": "public", "operator:wikidata": "Q3631467"}}, {"name": "ASL Dipartimento U.O.S.D. Alcologia", "latitude": 41.0758665, "longitude": 14.2614073, "source": "osm", "_tags": {"addr:city": "Santa Maria Capua Vetere", "addr:postcode": "81055", "addr:street": "Via Carfora", "amenity": "hospital", "building": "yes", "emergency": "no", "healthcare": "hospital", "name": "ASL Dipartimento U.O.S.D. Alcologia", "operator": "ASL", "operator:wikidata": "Q3631467"}}, {"name": "Ambulatorio medico", "latitude": 41.237588, "longitude": 14.1571331, "source": "osm", "_tags": {"addr:city": "Rocchetta e Croce", "addr:postcode": "81042", "addr:street": "Via Giuseppe Mazzini", "amenity": "hospital", "emergency": "no", "healthcare": "doctor", "name": "Ambulatorio medico"}}, {"name": "ASL NAP 1 Presidio Sanitario Polifunzionale", "latitude": 40.8344025, "longitude": 14.2202469, "source": "osm", "_tags": {"amenity": "hospital", "emergency": "no", "healthcare": "hospital", "healthcare:speciality": "general", "name": "ASL NAP 1 Presidio Sanitario Polifunzionale", "operator": "ASL", "operator:type": "public", "operator:wikidata": "Q3631467"}}, {"name": "Ospedale San Giuseppe Moscati", "latitude": 40.9255868, "longitude": 14.8000013, "source": "osm", "_tags": {"addr:city": "Avellino", "addr:postcode": "83100", "addr:street": "Contrada Amoretta", "amenity": "hospital", "building": "yes", "email": "protocollo.generale@pec.aornmoscati.it;info@aornmoscati.it", "emergency": "yes", "healthcare": "hospital", "healthcare:speciality": "general;chiropractic;paediatrics;orthopaedics;nephrology;dermatology;radiology;orthodontics;ophthalmology;intensive;community;ayurveda;cardiology;biology;internal;oncology;emergency;vaccination;osteopathy;acupuncture;psychiatry;abortion;angiology;body;gyn", "name": "Ospedale San Giuseppe Moscati", "note": "Per vedere i reparti è necessario consultare il sito dell'azienda ospedaliera \"San Giuseppe Moscati\" di Avellino.", "opening_hours": "24/7", "phone": "0825203111", "type": "multipolygon", "website": "https://www.aornmoscati.it/", "wheelchair": "yes"}}, {"name": "Ospedale San Paolo", "latitude": 40.8273744, "longitude": 14.1820495, "source": "osm", "_tags": {"amenity": "hospital", "building": "yes", "emergency": "yes", "name": "Ospedale San Paolo", "type": "multipolygon"}}, {"name": "Presidio Ospedaliero Card.Ascalesi", "latitude": 40.8500171, "longitude": 14.2641319, "source": "osm", "_tags": {"amenity": "hospital", "building": "yes", "emergency": "no", "healthcare": "hospital", "name": "Presidio Ospedaliero Card.Ascalesi", "type": "multipolygon"}}, {"name": "Università SUN - Policlinico", "latitude": 40.852686, "longitude": 14.2533316, "source": "osm", "_tags": {"amenity": "hospital", "building": "office", "healthcare": "hospital", "name": "Università SUN - Policlinico", "type": "multipolygon"}}, {"name": "Università SUN - Policlinico", "latitude": 40.8522585, "longitude": 14.2534319, "source": "osm", "_tags": {"amenity": "hospital", "building": "yes", "healthcare": "hospital", "name": "Università SUN - Policlinico", "type": "multipolygon"}}, {"name": "Ospedale Santa Maria degli Incurabili", "latitude": 40.8538235, "longitude": 14.2545022, "source": "osm", "_tags": {"amenity": "hospital", "building": "yes", "name": "Ospedale Santa Maria degli Incurabili", "type": "multipolygon"}}, {"name": "Presidio Ospedaliero \"SS.Annunziata\"", "latitude": 40.8510067, "longitude": 14.265417, "source": "osm", "_tags": {"amenity": "hospital", "building": "yes", "emergency": "no", "healthcare": "hospital", "name": "Presidio Ospedaliero \"SS.Annunziata\"", "type": "multipolygon"}}, {"name": "Villa dei Fiori", "latitude": 40.7367556, "longitude": 14.626375, "source": "osm", "_tags": {"addr:city": "Nocera Inferiore", "addr:street": "Via Poggio San Pantaleone", "amenity": "hospital", "name": "Villa dei Fiori", "type": "multipolygon"}}, {"name": "ASL BN 1", "latitude": 41.1302876, "longitude": 14.7839364, "source": "osm", "_tags": {"amenity": "hospital", "building": "yes", "healthcare": "hospital", "name": "ASL BN 1", "operator": "ASL", "operator:type": "public", "operator:wikidata": "Q3631467", "type": "multipolygon"}}, {"name": "Poliambulatorio \"Stefania Bellone\"", "latitude": 40.8993334, "longitude": 14.2628523, "source": "osm", "_tags": {"addr:city": "Napoli", "addr:housenumber": "22", "addr:postcode": "80144", "addr:street": "Piazzetta del Casale di Secondigliano", "amenity": "hospital", "healthcare": "hospital", "name": "Poliambulatorio \"Stefania Bellone\"", "not:operator:wikidata": "Q3631467", "type": "multipolygon"}}, {"name": "Azienda Sanitaria Locale Napoli 3 Sud", "latitude": 40.9074577, "longitude": 14.3687451, "source": "osm", "_tags": {"amenity": "hospital", "healthcare": "hospital", "name": "Azienda Sanitaria Locale Napoli 3 Sud", "operator": "ASL", "operator:wikidata": "Q3631467", "operator:wikipedia": "it:Azienda sanitaria locale", "type": "multipolygon"}}]