[{"name": "Hospital Türk", "latitude": 41.0259618, "longitude": 29.0218119, "source": "osm", "_tags": {"amenity": "hospital", "healthcare": "hospital", "name": "Hospital Türk", "name:ar": "مشفى تورك", "wheelchair": "limited"}}, {"name": "", "latitude": 41.0336496, "longitude": 28.9641454, "source": "osm", "_tags": {"amenity": "hospital", "healthcare": "hospital"}}, {"name": "", "latitude": 41.0111084, "longitude": 29.0190475, "source": "osm", "_tags": {"amenity": "hospital", "healthcare": "hospital", "wheelchair": "yes"}}, {"name": "Baltalimanı Hastanesi", "latitude": 41.0964088, "longitude": 29.0535611, "source": "osm", "_tags": {"amenity": "hospital", "emergency": "yes", "healthcare": "hospital", "name": "Baltalimanı Hastanesi", "name:ar": "مشفى بالات ليماني"}}, {"name": "Florence Nightingale", "latitude": 41.0632063, "longitude": 29.0042388, "source": "osm", "_tags": {"addr:city": "Beşiktaş/İstanbul", "addr:housenumber": "8", "addr:neighbourhood": "Gayrettepe", "addr:postcode": "34349", "addr:street": "Cemil Aslan Güder Sokak", "amenity": "hospital", "emergency": "yes", "healthcare": "hospital", "internet_access": "wlan", "name": "Florence Nightingale", "phone": "+90 212 288 34 00", "website": "https://www.florence.com.tr/", "wikidata": "Q6058058", "wikipedia": "tr:Grup Florence Nightingale Hastaneleri"}}, {"name": "Özel Küplüce Tıp Merkez", "latitude": 41.0396776, "longitude": 29.0522183, "source": "osm", "_tags": {"amenity": "hospital", "healthcare": "hospital", "name": "Özel Küplüce Tıp Merkez"}}, {"name": "Özel Remedy Hospital", "latitude": 40.8787769, "longitude": 29.2368748, "source": "osm", "_tags": {"amenity": "hospital", "healthcare": "hospital", "name": "Özel Remedy Hospital"}}, {"name": "Çevre Hastanesi", "latitude": 41.0672214, "longitude": 29.0013232, "source": "osm", "_tags": {"addr:housenumber": "2", "amenity": "hospital", "emergency": "yes", "healthcare": "hospital", "name": "Çevre Hastanesi", "opening_hours": "Mo-Fr 09:00-04:30; Sa 09:00-12:00", "phone": "444 2 593", "website": "https://www.cevrehastanesi.com.tr/"}}, {"name": "Aksoy Hastanesi", "latitude": 41.0673508, "longitude": 29.0013661, "source": "osm", "_tags": {"amenity": "hospital", "healthcare": "hospital", "name": "Aksoy Hastanesi"}}, {"name": "Amerikan Hastanesi", "latitude": 41.0533806, "longitude": 28.9952948, "source": "osm", "_tags": {"amenity": "hospital", "emergency": "yes", "healthcare": "hospital", "name": "Amerikan Hastanesi", "wikidata": "Q20476459", "wikipedia": "en:American Hospital (Istanbul)"}}, {"name": "Acıbadem Fulya Hastanesi", "latitude": 41.0557195, "longitude": 28.9995499, "source": "osm", "_tags": {"addr:city": "İstanbul", "addr:district": "Beşiktaş", "addr:housenumber": "23", "addr:neighbourhood": "Dikilitaş Mahallesi", "addr:postcode": "34349", "addr:province": "İstanbul", "addr:street": "Yeşilçimen Sokak", "addr:subdistrict": "Dikilitaş", "amenity": "hospital", "emergency": "yes", "healthcare": "hospital", "name": "Acıbadem Fulya Hastanesi", "name:de": "Acibadem-Krankenhaus Fulya", "name:en": "Fulya Acibadem Hospital", "operator": "Acıbadem", "operator:type": "private", "operator:wikidata": "Q19610384", "website": "https://www.acibadem.com.tr/hastane/fulya-hastanesi/"}}, {"name": "İstanbul Tüpbebek", "latitude": 41.0554676, "longitude": 28.9983966, "source": "osm", "_tags": {"amenity": "hospital", "healthcare": "hospital", "name": "İstanbul Tüpbebek"}}, {"name": "Kasım Paşa Asker Hastanesi", "latitude": 41.0327835, "longitude": 28.964016, "source": "osm", "_tags": {"amenity": "hospital", "healthcare": "hospital", "name": "Kasım Paşa Asker Hastanesi", "name:tr": "Kasım Paşa Asker Hastanesi"}}, {"name": "Mecidiyeköy KBB ve Vertigo Kliniği", "latitude": 41.06524, "longitude": 28.995985, "source": "osm", "_tags": {"addr:city": "İstanbul", "addr:housenumber": "5/A", "addr:postcode": "34346", "addr:street": "Ortaklar Caddesi", "amenity": "hospital", "emergency": "no", "healthcare": "hospital", "name": "Mecidiyeköy KBB ve Vertigo Kliniği", "operator": "Prof. Dr. Burak Ömür Çakır", "website": "http://www.mecidiyekoykbb.com"}}, {"name": "Acıbadem Taksim", "latitude": 41.0412184, "longitude": 28.9820377, "source": "osm", "_tags": {"amenity": "hospital", "healthcare": "hospital", "name": "Acıbadem Taksim", "name:en": "Acibadem Taksim", "operator": "Acıbadem", "operator:type": "private", "operator:wikidata": "Q19610384", "operator:wikipedia": "en:Acıbadem Healthcare Group"}}, {"name": "Beyoğlu Göz Hastanesi", "latitude": 41.0245743, "longitude": 28.9742012, "source": "osm", "_tags": {"amenity": "hospital", "healthcare": "hospital", "name": "Beyoğlu Göz Hastanesi", "opening_hours": "Mo-Fr 09:00-13:00, 13:30-17:00"}}, {"name": "Beyoglu", "latitude": 41.0314549, "longitude": 28.974911, "source": "osm", "_tags": {"amenity": "hospital", "healthcare": "hospital", "name": "Beyoglu"}}, {"name": "Medipol Üniversitesi Fındıkzade Hastanesi", "latitude": 41.0125315, "longitude": 28.9400268, "source": "osm", "_tags": {"addr:city": "Istanbul", "addr:district": "Fatih", "addr:street": "Fındıkzade Sokak", "amenity": "hospital", "fee": "yes", "healthcare": "hospital", "healthcare:speciality": "general", "name": "Medipol Üniversitesi Fındıkzade Hastanesi", "name:ar": "مشفى ميديبول فندق زاده", "opening_hours": "24/7", "operator:type": "private", "phone": "02125346667"}}, {"name": "Özel Fatih Hastanesi", "latitude": 41.0156766, "longitude": 28.9507717, "source": "osm", "_tags": {"addr:city": "Istanbul", "addr:district": "Fatih", "addr:street": "Kıztaşı Caddesi", "amenity": "hospital", "emergency": "yes", "fee": "yes", "healthcare": "hospital", "healthcare:speciality": "general", "name": "Özel Fatih Hastanesi", "name:ar": "مشفى فاتح الخاص", "opening_hours": "24/7", "operator:type": "private", "phone": "02124446513", "website": "https://www.ozelfatihhastanesi.com/"}}, {"name": "İstanbul Cerrahi Hastanesi", "latitude": 41.0555721, "longitude": 28.9980027, "source": "osm", "_tags": {"amenity": "hospital", "emergency": "yes", "healthcare": "hospital", "name": "İstanbul Cerrahi Hastanesi", "name:de": "Cerrahi-Krankenhaus Istanbul", "name:en": "Istanbul Cerrahi Hospital"}}, {"name": "istanbul Eğitim ve Araştırma Hastanesi Poliklinikleri", "latitude": 41.0092457, "longitude": 28.9457972, "source": "osm", "_tags": {"addr:city": "Istanbul", "addr:district": "Fatih", "addr:postcode": "34096", "addr:street": "Doktor Adnan Adıvar Caddesi", "amenity": "hospital", "fee": "no", "healthcare": "hospital", "name": "istanbul Eğitim ve Araştırma Hastanesi Poliklinikleri", "name:ar": "مديرية الصحة حسكة", "operator": "Sağlık Bakanlığı", "operator:type": "government", "operator:wikidata": "Q4294365"}}, {"name": "İstanbul Üniversitesi Kardiyoloji enistitusu", "latitude": 41.0091541, "longitude": 28.9432435, "source": "osm", "_tags": {"addr:city": "Istanbul", "addr:district": "Fatih", "addr:street": "Haseki Caddesi", "amenity": "hospital", "fee": "no", "healthcare": "hospital", "name": "İstanbul Üniversitesi Kardiyoloji enistitusu", "name:ar": "معهد الأمراض القلبية جامعة اسطنبول", "operator": "İstanbul Üniversitesi", "operator:type": "government"}}, {"name": "HOSPİTAL PARK", "latitude": 40.7921304, "longitude": 29.3672996, "source": "osm", "_tags": {"amenity": "hospital", "healthcare": "hospital", "name": "HOSPİTAL PARK"}}, {"name": "Dora Hospital", "latitude": 41.0589817, "longitude": 29.0010012, "source": "osm", "_tags": {"amenity": "hospital", "healthcare": "hospital", "name": "Dora Hospital", "name:en": "Dora Hospital"}}, {"name": "Saygı Hastanesi Ayak Sağlığı Birimi", "latitude": 40.969457, "longitude": 29.257738, "source": "osm", "_tags": {"addr:city": "Istanbul", "addr:district": "Sultanbeyli", "addr:neighbourhood": "Abdurrahmangazi Mahallesi", "addr:street": "Baltaşı Sokak", "amenity": "hospital", "fee": "yes", "healthcare": "hospital", "name": "Saygı Hastanesi Ayak Sağlığı Birimi", "name:ar": "العيادة التخصصية في امراض الاقدام", "opening_hours": "24/7", "operator": "Özel Saygı Hastanesi", "operator:type": "private", "phone": "0 850 321 50 21", "source": "YC"}}, {"name": "Saygı Hastanesi", "latitude": 40.9697567, "longitude": 29.2581715, "source": "osm", "_tags": {"addr:city": "İstanbul", "addr:district": "Sultanbeyli", "addr:housenumber": "75", "addr:neighbourhood": "Abdurrahmangazi Mahallesi", "addr:street": "Fatih Bulvarı", "amenity": "hospital", "andymkg": "saglik", "emergency": "yes", "fee": "yes", "healthcare": "hospital", "name": "Saygı Hastanesi", "opening_hours": "24/7", "operator": "Sağlık Bakanlığı", "operator:type": "government", "operator:wikidata": "Q4294365", "operator:wikipedia": "tr:Türkiye Cumhuriyeti Sağlık Bakanlığı", "phone": "0 850 321 50 00", "source": "YC"}}, {"name": "Sultanbeyli Dünyagöz Hastanesi", "latitude": 40.9685018, "longitude": 29.2534249, "source": "osm", "_tags": {"addr:city": "İstanbul", "addr:district": "Sultanbeyli", "addr:housenumber": "41", "addr:neighbourhood": "Hasanpaşa Mahallesi", "addr:street": "Fatih Bulvarı", "amenity": "hospital", "description": "طب عيون", "emergency": "yes", "fee": "yes", "healthcare": "hospital", "healthcare:speciality": "ophthalmology", "name": "Sultanbeyli Dünyagöz Hastanesi", "name:ar": "دونيا غوز", "opening_hours": "08:30-18:30", "operator": "Dünyagöz", "operator:type": "private", "phone": "444 4 469", "source": "YC"}}, {"name": "Neolife", "latitude": 41.0704006, "longitude": 29.0200903, "source": "osm", "_tags": {"amenity": "hospital", "healthcare": "hospital", "name": "Neolife"}}, {"name": "T.C. Sağlık Bakanlığı İstanbul Tacirler Eğitim Vakfı Sultanbeyli İlçe Devlet Hastanesi Merkez Polikliniği", "latitude": 40.9636827, "longitude": 29.265783, "source": "osm", "_tags": {"addr:city": "İstanbul", "addr:district": "Sultanbeyli", "addr:housenumber": "3", "addr:neighbourhood": "Mehmet Akif Mahallesi", "addr:street": "Kuran Kursu Caddesi", "amenity": "hospital", "andymkg": "saglik", "fee": "no", "healthcare": "hospital", "healthcare:speciality": "general", "name": "T.C. Sağlık Bakanlığı İstanbul Tacirler Eğitim Vakfı Sultanbeyli İlçe Devlet Hastanesi Merkez Polikliniği", "note": "All of Syrians who have TPİD 99 and 98 (ony emergency)/ -99'luların hepsi ve 98'de sadece acil olanlar", "opening_hours": "Mo-Fr 00:00-24:00", "operator": "Sağlık Bakanlığı", "operator:type": "government", "operator:wikidata": "Q4294365", "operator:wikipedia": "tr:Türkiye Cumhuriyeti Sağlık Bakanlığı", "phone": "(0216) 564 24 00", "refugee": "yes", "source": "YC"}}, {"name": "Ersoy Hastanesi", "latitude": 40.966572, "longitude": 29.2694043, "source": "osm", "_tags": {"addr:city": "İstanbul", "addr:district": "Sultanbeyli", "addr:housenumber": "175", "addr:neighbourhood": "Mehmet Akif Mahallesi", "addr:street": "Fatih Bulvarı", "amenity": "hospital", "andymkg": "saglik", "emergency": "yes", "fee": "yes", "healthcare": "hospital", "name": "Ersoy Hastanesi", "opening_hours": "24/7", "operator": "Sağlık Bakanlığı", "operator:type": "government", "operator:wikidata": "Q4294365", "operator:wikipedia": "tr:Türkiye Cumhuriyeti Sağlık Bakanlığı", "source": "YC"}}, {"name": "İstanbul Tacirler Eğitim Vakfı T.E.V. Sultanbeyli İlçe Devlet Hastanesi", "latitude": 40.965177, "longitude": 29.2659788, "source": "osm", "_tags": {"addr:city": "İstanbul", "addr:district": "Sultanbeyli", "addr:housenumber": "3", "addr:neighbourhood": "Mehmet Akif Mahallesi", "addr:street": "Cami Caddesi", "amenity": "hospital", "andymkg": "saglik", "emergency": "no", "fee": "no", "healthcare": "hospital", "name": "İstanbul Tacirler Eğitim Vakfı T.E.V. Sultanbeyli İlçe Devlet Hastanesi", "operator": "Sağlık Bakanlığı", "operator:type": "government", "operator:wikidata": "Q4294365", "operator:wikipedia": "tr:Türkiye Cumhuriyeti Sağlık Bakanlığı", "phone": "(0216) 564 24 00", "source": "YC"}}, {"name": "Sultanbeyli Avrupa Göz Hastanesi", "latitude": 40.9670638, "longitude": 29.2612337, "source": "osm", "_tags": {"addr:city": "İstanbul", "addr:district": "Sultanbeyli", "addr:housenumber": "70", "addr:neighbourhood": "Abdurrahman Gazi Mahallesi", "addr:street": "Şanlıurfa Caddesi", "amenity": "hospital", "fee": "yes", "healthcare": "hospital", "healthcare:speciality": "optician", "name": "Sultanbeyli Avrupa Göz Hastanesi", "operator": "Sağlık Bakanlığı", "operator:type": "government", "operator:wikidata": "Q4294365", "operator:wikipedia": "tr:Türkiye Cumhuriyeti Sağlık Bakanlığı", "operator_type": "Private", "phone": "(0216) 398 27 27", "source": "YC"}}, {"name": "Haydarpaşa Numune Eğitim ve Araştırma Hastanesi Tıbbiye Binası", "latitude": 41.0043457, "longitude": 29.0257508, "source": "osm", "_tags": {"amenity": "hospital", "healthcare": "hospital", "name": "Haydarpaşa Numune Eğitim ve Araştırma Hastanesi Tıbbiye Binası"}}, {"name": "", "latitude": 41.0648209, "longitude": 28.9803363, "source": "osm", "_tags": {"amenity": "hospital", "healthcare": "hospital", "name:en": "Kolan International Hospital"}}, {"name": "Özel Pendik Şifa Hastanesi", "latitude": 40.88302, "longitude": 29.2361908, "source": "osm", "_tags": {"addr:city": "İstanbul", "addr:district": "Pendik", "addr:housenumber": "10", "addr:neighbourhood": "Bahçelievler Mahallesi", "addr:street": "Zıpkın Sokak", "amenity": "hospital", "healthcare": "hospital", "name": "Özel Pendik Şifa Hastanesi", "phone": "+90 216 390 9243", "website": "https://www.pendiksifa.com.tr"}}, {"name": "Dünya Göz Hastanesi", "latitude": 40.8788795, "longitude": 29.2362412, "source": "osm", "_tags": {"addr:city": "İstanbul", "addr:district": "Pendik", "addr:housenumber": "79", "addr:neighbourhood": "Doğu Mahallesi", "addr:postcode": "34890", "addr:street": "Ortanca Caddesi", "amenity": "hospital", "emergency": "yes", "healthcare": "hospital", "name": "Dünya Göz Hastanesi", "phone": "444 4 469", "website": "https://www.dunyagoz.com/tr/merkezlerimiz/yurt-ici/istanbul-pendik/genel-tanitim"}}, {"name": "Haydarpaşa Numune Hastanesi", "latitude": 41.0044482, "longitude": 29.0227593, "source": "osm", "_tags": {"alt_name": "Haydarpaşa Numune Eğitim ve Araştırma Hastanesi", "amenity": "hospital", "healthcare": "hospital", "name": "Haydarpaşa Numune Hastanesi"}}, {"name": "Tempo OSGB - İşe Giriş Sağlık Raporu", "latitude": 41.0270348, "longitude": 29.0929142, "source": "osm", "_tags": {"addr:city": "istanbul", "addr:district": "ümraniye", "addr:housenumber": "14-16/b", "addr:neighbourhood": "Atatürk mah.", "addr:postcode": "34764", "addr:street": "Bahçevanlar sk.", "amenity": "hospital", "emergency": "no", "healthcare": "hospital", "healthcare:speciality": "iş_güvenliği;iş_sağlığı;sağlık_raporu", "name": "Tempo OSGB - İşe Giriş Sağlık Raporu", "operator": "Tempo ortak sağlık güvenlik birimi"}}, {"name": "Özel Üsküdar Anadolu Hastanesi", "latitude": 41.0214296, "longitude": 29.0158947, "source": "osm", "_tags": {"amenity": "hospital", "healthcare": "hospital", "name": "Özel Üsküdar Anadolu Hastanesi"}}, {"name": "Doktor Levent Polikliniği", "latitude": 41.0624452, "longitude": 28.9864126, "source": "osm", "_tags": {"addr:city": "istanbul", "addr:district": "Şişli", "addr:housenumber": "100", "addr:neighbourhood": "Merkez Mahallesi", "addr:postcode": "34381", "addr:street": "Hanımefendi Sokak", "amenity": "hospital", "healthcare": "hospital", "healthcare:speciality": "general", "name": "Doktor Levent Polikliniği", "operator": "Doktor Levent Polikliniği", "operator:type": "private"}}, {"name": "Alpha Hair Central", "latitude": 41.0613263, "longitude": 28.992022, "source": "osm", "_tags": {"addr:city": "İstanbul", "addr:district": "Şişli", "addr:neighbourhood": "19 Mayıs Mahallesi", "addr:postcode": "34360", "addr:street": "dr.hüsnü ismet öztürk sokak", "amenity": "hospital", "emergency": "no", "healthcare": "hospital", "healthcare:speciality": "clinic", "name": "Alpha Hair Central", "operator": "Alpha hair", "operator:type": "business", "phone": "+905432574201"}}, {"name": "Merkez Aile Sağlık Merkezi", "latitude": 40.9306407, "longitude": 29.1349981, "source": "osm", "_tags": {"amenity": "hospital", "healthcare": "hospital", "name": "Merkez Aile Sağlık Merkezi", "operator": "government", "operator:type": "government", "operator:wikidata": "Q4294365"}}, {"name": "Şişli Hamidiye Etfal Eğitim ve Araştırma Hastanesi Gümüşsuyu Binası", "latitude": 41.0375948, "longitude": 28.9900446, "source": "osm", "_tags": {"addr:city": "istanbul", "addr:district": "Beyoğlu", "addr:housenumber": "61", "addr:neighbourhood": "İnönü Cad. No:61 Gümüşsuyu/Beyoğlu", "addr:street": "Gümüşsuyu İnönü Cad.", "amenity": "hospital", "healthcare": "hospital", "name": "Şişli Hamidiye Etfal Eğitim ve Araştırma Hastanesi Gümüşsuyu Binası", "operator": "Sağlık Bakanlığı", "operator:type": "government", "operator:wikidata": "Q4294365", "operator:wikipedia": "tr:Türkiye Cumhuriyeti Sağlık Bakanlığı", "phone": "(0212) 251 85 00"}}, {"name": "Hasanpaşa Aile Sağlığı Merkezi", "latitude": 40.9973977, "longitude": 29.0428574, "source": "osm", "_tags": {"addr:city": "İstanbul", "addr:district": "Kadiköy", "addr:housenumber": "2", "addr:neighbourhood": "Hasanpaşa Mahallesi", "addr:street": "Uhuvvet Sokak", "amenity": "hospital", "emergency": "no", "healthcare": "hospital", "healthcare:speciality": "family_medicine", "name": "Hasanpaşa Aile Sağlığı Merkezi"}}, {"name": "Kartal Dr. Lütfi Kırdar Eğitim ve Araştırma Hastanesi KADİR REZZAN HAS ADATEPE POLİKLİNİĞİ", "latitude": 40.9332716, "longitude": 29.1239632, "source": "osm", "_tags": {"amenity": "hospital", "healthcare": "hospital", "name": "Kartal Dr. Lütfi Kırdar Eğitim ve Araştırma Hastanesi KADİR REZZAN HAS ADATEPE POLİKLİNİĞİ"}}, {"name": "fsm tıp merkezi", "latitude": 41.0229665, "longitude": 29.218531, "source": "osm", "_tags": {"amenity": "hospital", "healthcare": "hospital", "name": "fsm tıp merkezi"}}, {"name": "Op.Dr.Alper Tuncel", "latitude": 41.0516267, "longitude": 28.9910859, "source": "osm", "_tags": {"addr:city": "İSTANBUL", "addr:district": "Şişli", "addr:housenumber": "91-93/2", "addr:neighbourhood": "Halaskargazi Mahallesi", "addr:postcode": "34371", "addr:street": "Valikonağı Caddesi", "amenity": "hospital", "ele": "Asansör mevcut", "email": "dralpertuncel@gmail.com", "emergency": "no", "healthcare": "hospital", "healthcare:speciality": "plastic_surgery;clinic", "internet_access": "wlan", "name": "Op.Dr.Alper Tuncel", "operator": "Muayenehane", "operator:type": "private", "phone": "+905323038255", "source": "gps"}}, {"name": "Medient", "latitude": 40.9826542, "longitude": 29.0927912, "source": "osm", "_tags": {"amenity": "hospital", "healthcare": "hospital", "name": "Medient"}}, {"name": "Bahceci", "latitude": 41.0221279, "longitude": 29.0418888, "source": "osm", "_tags": {"amenity": "hospital", "healthcare": "hospital", "name": "Bahceci"}}, {"name": "Özel Avusturya Sen Jorj Hastanesi", "latitude": 41.0242924, "longitude": 28.9743145, "source": "osm", "_tags": {"addr:city": "İstanbul", "addr:district": "Beyoğlu", "addr:housenumber": "12/A", "addr:neighbourhood": "Bereketzade Mahallesi", "addr:street": "Felek Sokağı", "ambulance": "yes", "amenity": "hospital", "beds": "48", "emergency": "yes", "healthcare": "hospital", "name": "Özel Avusturya Sen Jorj Hastanesi", "operator:type": "private", "phone": "+90212 292 62 20"}}, {"name": "Maltepe 4 Nolu Aile Hekimliği", "latitude": 40.9410585, "longitude": 29.1167634, "source": "osm", "_tags": {"amenity": "hospital", "healthcare": "hospital", "name": "Maltepe 4 Nolu Aile Hekimliği"}}, {"name": "ARES Psikolojik Danışmanlık Merkezi", "latitude": 40.9227011, "longitude": 29.133854, "source": "osm", "_tags": {"addr:city": "İstanbul", "addr:district": "Maltepe", "addr:housenumber": "24", "addr:neighbourhood": "Bağlarbaşı Mahallesi", "addr:postcode": "34844", "addr:street": "Mor Lale Sokağı", "amenity": "hospital", "description": "Maltepe psikolog hizmetleri, Psikoterapi hizmetleri, Uzm. Klinik Psikolog Tamer KARAOKÇU", "email": "tamerkaraokcu@gmail.com", "emergency": "no", "healthcare": "hospital", "healthcare:speciality": "clinical_pathology;psychology;psychotherapy;distance_learning;education;clinic", "image": "https://ibb.co/cx9Tz4p", "internet_access": "no", "name": "ARES Psikolojik Danışmanlık Merkezi", "operator": "ARES Psikolojik Danışmanlık & Eğitim Merkezi", "operator:type": "business", "phone": "+90 555 164 7860", "source": "local knowledge;gps", "start_date": "2019-04-13"}}, {"name": "Küçükbakkalköy Aile Sağlığı Merkezi", "latitude": 40.9804944, "longitude": 29.1255715, "source": "osm", "_tags": {"amenity": "hospital", "healthcare": "hospital", "name": "Küçükbakkalköy Aile Sağlığı Merkezi"}}, {"name": "", "latitude": 40.8179994, "longitude": 29.3528851, "source": "osm", "_tags": {"amenity": "hospital", "name:en": "Anadolu hospital"}}, {"name": "Op.Dr.Alper TUNCEL", "latitude": 41.0517202, "longitude": 28.9910831, "source": "osm", "_tags": {"addr:city": "İstanbul", "addr:district": "Şişli", "addr:housenumber": "91-93", "addr:neighbourhood": "Halaskargazi Mahallesi", "addr:postcode": "34371", "addr:street": "Valikonağı Caddesi", "amenity": "hospital", "building:levels": "2", "description": "Estetik Plastik ve Rekonstrüktif Cerrahi Uzmanı", "healthcare": "hospital", "name": "Op.Dr.Alper TUNCEL", "operator": "Op.Dr.Alper TUNCEL Muayenehanesi", "website": "https://www.dralpertuncel.com/"}}, {"name": "Üsküdar Üniversitesi Diş Hastanesi", "latitude": 41.0276144, "longitude": 29.1157001, "source": "osm", "_tags": {"amenity": "hospital", "healthcare": "hospital", "healthcare:speciality": "dentist", "name": "Üsküdar Üniversitesi Diş Hastanesi", "operator": "Üsküdar Üniversitesi", "operator:type": "private", "website": "https://uskudardishastanesi.com", "wikidata": "Q116508012"}}, {"name": "Özel Medipoint Tıp Merkezi", "latitude": 40.9823877, "longitude": 29.0713318, "source": "osm", "_tags": {"addr:city": "İstanbul", "addr:district": "Kadıköy", "addr:housenumber": "6", "addr:neighbourhood": "Merdivenköy  Mahallesi", "addr:postcode": "34732", "addr:street": "Şair Arşi Caddesi", "amenity": "hospital", "healthcare": "hospital", "name": "Özel Medipoint Tıp Merkezi", "website": "https://www.medipoint.com.tr/"}}, {"name": "Dr Ezgi Özkur", "latitude": 41.0492903, "longitude": 28.9909873, "source": "osm", "_tags": {"addr:city": "İstanbul", "addr:district": "Şişli", "addr:housenumber": "12", "addr:neighbourhood": "Harbiye Mahallesi", "addr:postcode": "34378", "addr:street": "Mim Kemal Öke Caddesi", "amenity": "hospital", "email": "ezgi.ozkur@trustmedclinic.com", "emergency": "no", "healthcare": "hospital", "healthcare:speciality": "dermatology", "name": "Dr Ezgi Özkur", "opening_hours": "Mo-Sa 09:00-18:00", "operator": "Dr Ezgi Özkur", "operator:type": "public", "phone": "+90532 254 08 22", "website": "https://www.drezgiozkur.com"}}, {"name": "Özel Baydent Ağız ve Diş Sağlığı Polikliniği", "latitude": 40.8829325, "longitude": 29.2367531, "source": "osm", "_tags": {"amenity": "hospital", "emergency": "no", "healthcare": "hospital", "healthcare:speciality": "dentist", "name": "Özel Baydent Ağız ve Diş Sağlığı Polikliniği", "operator": "Baydent", "operator:type": "private"}}, {"name": "Bayındır Levent Tıp Merkezi", "latitude": 41.0730408, "longitude": 29.0179686, "source": "osm", "_tags": {"addr:city": "İstanbul", "addr:district": "Beşiktaş", "addr:housenumber": "8", "addr:neighbourhood": "Nisbetiye Mahallesi", "addr:postcode": "34340", "addr:street": "Aydın Sokağı", "amenity": "hospital", "healthcare": "hospital", "name": "Bayındır Levent Tıp Merkezi", "website": "https://www.bayindirhastanesi.com.tr/Admin/Content/Photos/Hastaneler/1272018101425-1112017193238_levent.jpg"}}, {"name": "Özel Etiler Hastanesi", "latitude": 41.0726109, "longitude": 29.0183816, "source": "osm", "_tags": {"addr:city": "İstanbul", "addr:district": "Beşiktaş", "addr:neighbourhood": "Nisbetiye Mahallesi", "addr:postcode": "34340", "amenity": "hospital", "healthcare": "hospital", "name": "Özel Etiler Hastanesi", "website": "https://www.etilerhastanesi.com.tr/"}}, {"name": "Marmara Mobil Sağlık", "latitude": 40.9307338, "longitude": 29.1444794, "source": "osm", "_tags": {"addr:housenumber": "2D", "addr:street": "Kumru Sokak", "amenity": "hospital", "healthcare": "hospital", "name": "Marmara Mobil Sağlık", "opening_hours": "Mo-Fr 08:30-18:00", "phone": "+90 533 811 09 82"}}, {"name": "Sağlık Ocağı", "latitude": 40.6753096, "longitude": 29.3938056, "source": "osm", "_tags": {"amenity": "hospital", "name": "Sağlık Ocağı"}}, {"name": "Aktif International Hospital", "latitude": 41.0230164, "longitude": 29.0174216, "source": "osm", "_tags": {"amenity": "hospital", "healthcare": "hospital", "name": "Aktif International Hospital"}}, {"name": "Marmara Tıp Merkezi", "latitude": 40.9840765, "longitude": 29.0584553, "source": "osm", "_tags": {"addr:city": "İstanbul", "addr:district": "Kadıköy", "addr:housenumber": "150", "addr:neighbourhood": "Göztepe Mahallesi", "addr:postcode": "34730", "addr:street": "Fahrettin Kerim Gökay Caddesi", "amenity": "hospital", "contact:facebook": "https://www.facebook.com/ozelmarmaratipmerkezi", "description": "Ağız ve Diş Sağlığı, İç Hastalıkları, Göz, Enfeksiyon Hastalıkları, KBB, Genel Cerrahi, Kadın Doğum, Ortopedi, Cildiye, Nöroloji, Psikiyatri, Akupunktur, Diyetisyen, Psikolog, Check-up, Evde Sağlık Hizmeti, Ultrason, Doppler, Epilasyon, Botoks, Dolgu", "email": "info@marmaratip.com.tr", "emergency": "no", "healthcare": "hospital", "healthcare:speciality": "dentist;orthopaedics;chiropractic;psychiatry;dermatology;internal;otolaryngology;osteopathy;paediatric_surgery;allergology;clinical_pathology", "image": "https://www.marmaratip.com.tr/iletisim", "internet_access": "yes", "internet_access:fee": "no", "mobile": "+90  0544 394 10 47", "name": "Marmara Tıp Merkezi", "opening_hours": "Mo-Fr 09:00-19:00 - Sa-09:16 - Su-Close", "payment:cash": "yes", "payment:debit_cards": "yes", "payment:mastercard": "yes", "payment:visa": "yes", "phone": "+90 216 567 56 71", "ref:vatin": "6850057699", "website": "https://www.marmaratip.com.tr/", "wheelchair": "yes"}}, {"name": "Medicana Zincirlikuyu Hastanesi", "latitude": 41.0714522, "longitude": 29.0151774, "source": "osm", "_tags": {"addr:city": "İstanbul", "addr:district": "Şişli", "addr:housenumber": "No: 165", "addr:neighbourhood": "Esentepe", "addr:postcode": "34394", "addr:street": "Büyükdere Caddesi", "amenity": "hospital", "emergency": "yes", "healthcare": "hospital", "healthcare:speciality": "general", "name": "Medicana Zincirlikuyu Hastanesi", "name:en": "Medicana Zincirlikuyu Hospital", "operator": "Medicana Sağlık Grubu", "operator:type": "private"}}, {"name": "Erdem Hastanesi", "latitude": 41.021568, "longitude": 29.1198759, "source": "osm", "_tags": {"amenity": "hospital", "healthcare": "hospital", "name": "Erdem Hastanesi"}}, {"name": "Atakent cerrahi tıp merkezi", "latitude": 40.4925711, "longitude": 29.3116351, "source": "osm", "_tags": {"amenity": "hospital", "name": "Atakent cerrahi tıp merkezi"}}, {"name": "Çekmeköy Devlet Hastanesi", "latitude": 41.0373376, "longitude": 29.2352315, "source": "osm", "_tags": {"amenity": "hospital", "healthcare": "hospital", "name": "Çekmeköy Devlet Hastanesi", "opening_hours": "24/7", "operator": "Sağlık Bakanlığı", "operator:type": "government", "operator:wikidata": "Q4294365"}}, {"name": "Şehit Prof. İlhan Varank Eğitim ve Araştırma Hastanesi - Çekmeköy Ek Hizmet Binası", "latitude": 41.0378066, "longitude": 29.2351897, "source": "osm", "_tags": {"amenity": "hospital", "healthcare": "hospital", "name": "Şehit Prof. İlhan Varank Eğitim ve Araştırma Hastanesi - Çekmeköy Ek Hizmet Binası", "opening_hours": "24/7", "operator": "Sağlık Bakanlığı", "operator:type": "government", "operator:wikidata": "Q4294365"}}, {"name": "Özel Okmeydanı hastanesi", "latitude": 41.0525054, "longitude": 28.959974, "source": "osm", "_tags": {"amenity": "hospital", "healthcare": "hospital", "name": "Özel Okmeydanı hastanesi"}}, {"name": "ENT Clinic-Dr. Selcuk Guney", "latitude": 41.0550656, "longitude": 28.9852615, "source": "osm", "_tags": {"addr:city": "İstanbul", "addr:district": "Şişli", "addr:housenumber": "No:12/4", "addr:neighbourhood": "Cumhuriyet Mahallesi", "addr:postcode": "34380", "addr:street": "Abide-i Hürriyet Caddesi", "amenity": "hospital", "healthcare": "hospital", "healthcare:speciality": "otolaryngology", "mobile": "+905552366855", "name": "ENT Clinic-Dr. Selcuk Guney", "operator": "ENT Interactive Clinic", "operator:type": "private", "payment:cash": "yes", "payment:credit_cards": "yes", "payment:debit_cards": "yes"}}, {"name": "Şişli Hamidiye Etfal Eğitim ve Araştırma Hastanesi", "latitude": 41.0375952, "longitude": 28.9900615, "source": "osm", "_tags": {"addr:postcode": "34437", "amenity": "hospital", "healthcare": "hospital", "name": "Şişli Hamidiye Etfal Eğitim ve Araştırma Hastanesi", "name:ar": "مشفى حميدية للاطفال في شيشلي", "operator": "Sağlık Bakanlığı", "operator:type": "government", "operator:wikidata": "Q4294365", "operator:wikipedia": "tr:Türkiye Cumhuriyeti Sağlık Bakanlığı", "website": "https://sislietfaleah.saglik.gov.tr/"}}, {"name": "İstanbul Esnaf Hastanesi", "latitude": 41.0140112, "longitude": 28.9621912, "source": "osm", "_tags": {"amenity": "hospital", "building": "yes", "fee": "yes", "healthcare": "hospital", "name": "İstanbul Esnaf Hastanesi", "name:ar": "مشفى اصناف الخاص", "name:en": "İstanbul Esnaf Hospital", "name:fa": "بیمارستان اصناف استانبول", "name:ru": "Больница «Истанбул Эснаф»", "operator": "T.C. İstanbul Üniversitesi", "operator:type": "private", "source": "yercizenler"}}, {"name": "İstanbul Eğitim ve Araştırma Hastanesi", "latitude": 41.0032691, "longitude": 28.9380405, "source": "osm", "_tags": {"addr:city": "İstanbul", "addr:district": "Fatih", "amenity": "hospital", "emergency": "yes", "fee": "no", "healthcare": "hospital", "name": "İstanbul Eğitim ve Araştırma Hastanesi", "name:en": "Istanbul Samatya Education and Research Hospital", "operator": "Sağlık Bakanlığı", "operator:type": "government", "operator:wikidata": "Q4294365", "operator:wikipedia": "tr:Türkiye Cumhuriyeti Sağlık Bakanlığı", "phone": "+90 212 459 60 00", "website": "http://www.istanbuleah.saglik.gov.tr/", "wheelchair": "limited", "wikidata": "Q6098740", "wikimedia_commons": "Category:İstanbul Eğitim ve Araştırma Hospital", "wikipedia": "tr:İstanbul Eğitim ve Araştırma Hastanesi"}}, {"name": "SBÜ Sultan Abdülhamid Han Eğitim ve Araştırma Hastanesi", "latitude": 41.0011021, "longitude": 29.0206857, "source": "osm", "_tags": {"addr:postcode": "34668", "alt_name": "GATA", "amenity": "hospital", "barrier": "wall", "emergency": "yes", "healthcare": "hospital", "name": "SBÜ Sultan Abdülhamid Han Eğitim ve Araştırma Hastanesi", "website": "https://sultanabdulhamidhaneah.saglik.gov.tr/", "wheelchair": "yes"}}, {"name": "Şişli Etfal Eğitim ve Araştırma Hastanesi", "latitude": 41.0578908, "longitude": 28.9906883, "source": "osm", "_tags": {"alt_name": "Şişli Etfal EAH Hastanesi", "amenity": "hospital", "emergency": "yes", "healthcare": "hospital", "name": "Şişli Etfal Eğitim ve Araştırma Hastanesi", "name:ar": "مشفى الاطفال في شيشلي", "website": "http://www.sislietfal.gov.tr/", "wikidata": "Q6055935", "wikimedia_commons": "Category:Şişli Etfal Hospital", "wikipedia": "tr:Şişli Etfal Hastanesi"}}, {"name": "Haydarpaşa Numune Eğitim ve Araştırma Hastanesi", "latitude": 41.004774, "longitude": 29.0229597, "source": "osm", "_tags": {"alt_name": "Haydarpaşa Numune Eğitim ve Araştırma Hastanesi", "amenity": "hospital", "barrier": "wall", "emergency": "yes", "healthcare": "hospital", "name": "Haydarpaşa Numune Eğitim ve Araştırma Hastanesi", "website": "http://www.haydarpasanumune.gov.tr/"}}, {"name": "Dr. Lütfi Kırdar Kartal Eğitim ve Araştırma Hastanesi", "latitude": 40.9151429, "longitude": 29.1739112, "source": "osm", "_tags": {"addr:city": "İstanbul", "addr:district": "Kartal", "addr:neighbourhood": "Cevizli Mahallesi", "addr:postcode": "34890", "addr:street": "Şemsi Denizer Caddesi", "alt_name": "Kartal Lütfi Kırdar EAH Hastanes", "amenity": "hospital", "emergency": "yes", "healthcare": "hospital", "name": "Dr. Lütfi Kırdar Kartal Eğitim ve Araştırma Hastanesi", "operator": "Sağlık Bakanlığı", "operator:type": "government", "operator:wikidata": "Q4294365", "operator:wikipedia": "tr:Türkiye Cumhuriyeti Sağlık Bakanlığı", "operator_type": "government", "source": "YC", "website": "http://www.sbkeah.gov.tr", "wikidata": "Q30279895", "wikipedia": "tr:Kartal Dr. Lütfi Kırdar Şehir Hastanesi"}}, {"name": "Okmeydanı Profesör Doktor Cemil Taşçıoğlu Şehir Hastanesi", "latitude": 41.0645108, "longitude": 28.9749829, "source": "osm", "_tags": {"addr:city": "İstanbul", "addr:district": "Şişli", "addr:housenumber": "27", "addr:neighbourhood": "Kaptanpaşa", "addr:postcode": "34384", "addr:street": "Darülacaze Caddesi", "alt_name": "İstanbul Prof. Dr. Cemil Taşcıoğlu Şehir Hastanesi", "amenity": "hospital", "emergency": "yes", "fax": "+90 212 221 7800", "healthcare": "hospital", "name": "Okmeydanı Profesör Doktor Cemil Taşçıoğlu Şehir Hastanesi", "name:ar": "مشفى اوكميدان الحكومي", "operator": "Sağlık Bakanlığı", "operator:type": "government", "operator:wikidata": "Q4294365", "phone": "+90 212 314 5555;+90 212 221 7777", "ref:vatin": "6380589238", "url": "http://www.okmeydani.gov.tr/", "website": "https://cemiltascioglush.saglik.gov.tr/", "wikidata": "Q6090690", "wikipedia": "tr:Prof. Dr. Cemil Taşcıoğlu Şehir Hastanesi"}}, {"name": "Göztepe Prof. Dr. Süleyman Yalçın Şehir Hastanesi", "latitude": 40.9867224, "longitude": 29.0570969, "source": "osm", "_tags": {"alt_name": "Göztepe EAH Hastanesi", "amenity": "hospital", "barrier": "wall", "emergency": "yes", "healthcare": "hospital", "name": "Göztepe Prof. Dr. Süleyman Yalçın Şehir Hastanesi", "name:ar": "مشفى غوستبه الحكومي", "website": "https://suleymanyalcinsh.saglik.gov.tr/", "wikidata": "Q30254226"}}, {"name": "Maltepe Üniversitesi Hastanesi", "latitude": 40.925514, "longitude": 29.1351134, "source": "osm", "_tags": {"amenity": "hospital", "emergency": "yes", "healthcare": "hospital", "name": "Maltepe Üniversitesi Hastanesi", "name:ar": "مشفى مالتبه الجامعي"}}, {"name": "", "latitude": 41.0840953, "longitude": 29.0532212, "source": "osm", "_tags": {"amenity": "hospital", "building": "yes", "healthcare": "hospital"}}, {"name": "Fransız Lape Hastanesi", "latitude": 41.0619103, "longitude": 28.9905843, "source": "osm", "_tags": {"addr:city": "İstanbul", "addr:district": "Şişli", "addr:housenumber": "18", "addr:neighbourhood": "19 Mayıs Mahallesi", "addr:postcode": "34360", "addr:street": "Büyükdere Caddesi", "amenity": "hospital", "emergency": "no", "healthcare": "hospital", "name": "Fransız Lape Hastanesi", "name:en": "La Paix Hospital", "operator": "Fransız Lape Hastanesi", "operator:type": "private", "website": "https://www.fransizlape.com/"}}, {"name": "Erenköy Polikliniği", "latitude": 40.972152, "longitude": 29.0763939, "source": "osm", "_tags": {"addr:city": "İstanbul", "addr:district": "Kadıköy", "addr:housenumber": "28", "addr:neighbourhood": "Erenköy Mahallesi", "addr:postcode": "34738", "addr:street": "Hatboyu Sokağı", "amenity": "hospital", "building": "hospital", "emergency": "yes", "healthcare": "hospital", "name": "Erenköy Polikliniği", "name:ar": "مجمع إرينكوي الطبي", "website": "https://siyamiersekeah.saglik.gov.tr/TR,83021/erenkoy-semt-poliklinigi.html"}}, {"name": "Fatih Sultan Mehmet Eğitim ve Araştırma Hastanesi", "latitude": 40.9710632, "longitude": 29.1048837, "source": "osm", "_tags": {"addr:city": "İstanbul", "addr:district": "Ataşehir", "addr:housenumber": "1", "addr:neighbourhood": "İçerenköy Mahallesi", "addr:postcode": "34752", "addr:street": "Hastahane Sokağı", "amenity": "hospital", "emergency": "yes", "healthcare": "hospital", "healthcare:speciality": "emergency;neurology;orthopaedics;intensive;internal;surgery;infectious_diseases;neurosurgery;urology;otolaryngology;ophthalmology", "name": "Fatih Sultan Mehmet Eğitim ve Araştırma Hastanesi", "old_name": "PTT Hastanesi", "website": "https://fsmeah.saglik.gov.tr/", "wikidata": "Q30280180", "wikipedia": "tr:PTT Hastanesi"}}, {"name": "Yeditepe Üniversitesi Kozyatağı Hastanesi", "latitude": 40.968911, "longitude": 29.103692, "source": "osm", "_tags": {"addr:postcode": "34752", "amenity": "hospital", "healthcare": "hospital", "name": "Yeditepe Üniversitesi Kozyatağı Hastanesi", "name:ar": "مشفى يادي تبه الجامعي", "name:en": "Yeditepe University Kozyatağı Hospital", "website": "http://www.yeditepehastanesi.com.tr/iletisim"}}, {"name": "Avicenna Hastanesi", "latitude": 40.9793026, "longitude": 29.108622, "source": "osm", "_tags": {"amenity": "hospital", "building": "yes", "emergency": "yes", "healthcare": "hospital", "name": "Avicenna Hastanesi", "name:ar": "مشفى افي جنّة"}}, {"name": "", "latitude": 40.9712866, "longitude": 29.1076328, "source": "osm", "_tags": {"amenity": "hospital", "healthcare": "hospital"}}, {"name": "Erenköy Ruh ve Sinir Hastalıkları Eğitim ve Araştırma Hastanesi", "latitude": 40.9750143, "longitude": 29.0887569, "source": "osm", "_tags": {"addr:city": "İstanbul", "addr:district": "Kadıköy", "addr:housenumber": "23", "addr:neighbourhood": "19 Mayıs Mahallesi", "addr:postcode": "34736", "addr:street": "Sinan Ercan Caddesi", "amenity": "hospital", "barrier": "wall", "email": "erenkoytrsm.hh@saglik.gov.tr", "emergency": "no", "fax": "90 216 356 04 96", "healthcare": "hospital", "name": "Erenköy Ruh ve Sinir Hastalıkları Eğitim ve Araştırma Hastanesi", "operator": "Sağlık Bakanlığı", "operator:type": "government", "operator:wikidata": "Q4294365", "phone": "90 216 302 59 59", "website": "https://erenkoyruhsinireah.saglik.gov.tr/"}}, {"name": "Emsey Hastanesi", "latitude": 40.9237898, "longitude": 29.2888718, "source": "osm", "_tags": {"amenity": "hospital", "check_date": "2025-05-27", "emergency": "yes", "healthcare": "hospital", "name": "Emsey Hastanesi", "name:en": "Emsey Hospital", "payment:cash": "yes", "payment:credit_cards": "yes", "payment:debit_cards": "yes", "website": "https://www.emseyhospital.com.tr/", "wheelchair": "limited"}}, {"name": "Haydarpaşa Numune Hastanesi Yeldeğirmeni Semt Polikliniği", "latitude": 40.9930708, "longitude": 29.0290091, "source": "osm", "_tags": {"amenity": "hospital", "building": "yes", "emergency": "no", "healthcare": "hospital", "name": "Haydarpaşa Numune Hastanesi Yeldeğirmeni Semt Polikliniği", "name:ar": "مجمع ومشفى حيدر باشا"}}, {"name": "Fatih Medical Park Hastanesi", "latitude": 41.0148015, "longitude": 28.9522605, "source": "osm", "_tags": {"addr:city": "İstanbul", "addr:district": "Fatih", "addr:street": "Horhor Caddesi", "amenity": "hospital", "emergency": "yes", "fee": "yes", "healthcare": "hospital", "healthcare:speciality": "general", "name": "Fatih Medical Park Hastanesi", "opening_hours": "24/7", "operator": "Medical Park", "operator:type": "private", "operator:wikidata": "Q6073312", "phone": "02124531000", "wheelchair": "limited"}}, {"name": "İstanbul Tıp Merkezi", "latitude": 41.0710651, "longitude": 28.9991949, "source": "osm", "_tags": {"amenity": "hospital", "emergency": "no", "healthcare": "hospital", "name": "İstanbul Tıp Merkezi"}}, {"name": "Karakoy Sahil Saglik Denetleme Merkezi", "latitude": 41.0220362, "longitude": 28.9766321, "source": "osm", "_tags": {"amenity": "hospital", "healthcare": "hospital", "name": "Karakoy Sahil Saglik Denetleme Merkezi"}}, {"name": "Anadolu Sağlık Merkezi", "latitude": 40.8180298, "longitude": 29.3528761, "source": "osm", "_tags": {"amenity": "hospital", "healthcare": "hospital", "name": "Anadolu Sağlık Merkezi", "website": "https://www.anadolusaglik.org/gebze-anadolu-saglik-merkezi"}}, {"name": "Florence Nightingale Hastanesi", "latitude": 40.9816285, "longitude": 29.0417135, "source": "osm", "_tags": {"addr:city": "İstanbul", "addr:district": "Kadıköy", "addr:housenumber": "63", "addr:neighbourhood": "Feneryolu Mahallesi", "addr:postcode": "34724", "addr:street": "Bağdat Caddesi", "amenity": "hospital", "building": "yes", "emergency": "yes", "healthcare": "hospital", "name": "Florence Nightingale Hastanesi", "name:en": "Florence Nightingale Hospital", "website": "https://www.florence.com.tr/kadikoy-florence-nightingale-hastanesi"}}, {"name": "Dünyagöz", "latitude": 40.9768426, "longitude": 29.0480034, "source": "osm", "_tags": {"addr:city": "Kadıköy/İstanbul", "addr:housenumber": "150", "addr:postcode": "34726", "addr:street": "Bağdat Caddesi", "amenity": "hospital", "building": "yes", "healthcare": "hospital", "name": "Dünyagöz", "website": "https://www.dunyagoz.com/tr/merkezlerimiz/yurt-ici/istanbul-feneryolu/genel-tanitim"}}, {"name": "Tepe Özel Kliniği", "latitude": 41.0365277, "longitude": 29.0615651, "source": "osm", "_tags": {"amenity": "hospital", "building": "yes", "healthcare": "hospital", "name": "Tepe Özel Kliniği"}}, {"name": "Erenköy Fizik Tedavi ve Rehabilitasyon Hastanesi", "latitude": 40.9748394, "longitude": 29.083684, "source": "osm", "_tags": {"addr:city": "İstanbul", "addr:district": "Kadıköy", "addr:housenumber": "14", "addr:neighbourhood": "19 Mayıs Mahallesi", "addr:postcode": "34736", "addr:street": "Sultan Sokağı", "amenity": "hospital", "healthcare": "hospital", "name": "Erenköy Fizik Tedavi ve Rehabilitasyon Hastanesi", "website": "https://erenkoyftr.saglik.gov.tr/"}}, {"name": "Dr. Siyami Ersek Göğüs Kalp ve Damar Cerrahisi Eğitim ve Araştırma Hastanesi", "latitude": 41.0039903, "longitude": 29.0243116, "source": "osm", "_tags": {"addr:city": "İstanbul", "addr:district": "Üsküdar", "addr:housenumber": "25", "addr:neighbourhood": "Selimiye Mahallesi", "addr:postcode": "34668", "addr:street": "Tıbbiye Caddesi", "amenity": "hospital", "barrier": "wall", "healthcare": "hospital", "name": "Dr. Siyami Ersek Göğüs Kalp ve Damar Cerrahisi Eğitim ve Araştırma Hastanesi", "name:en": "Siyami Ersek Hospital", "operator": "Sağlık Bakanlığı", "operator:type": "government", "operator:wikidata": "Q4294365", "operator:wikipedia": "tr:Türkiye Cumhuriyeti Sağlık Bakanlığı", "website": "https://siyamiersekeah.saglik.gov.tr/", "wikidata": "Q30279901", "wikimedia_commons": "Category:Siyami Ersek Hospital"}}, {"name": "Erenköy Fizik Tedavi ve Reahabilitasyon Hastanesi", "latitude": 40.9860653, "longitude": 29.0656466, "source": "osm", "_tags": {"addr:city": "İstanbul", "addr:district": "Kadıköy", "addr:housenumber": "21", "addr:neighbourhood": "Merdivenköy Mahallesi", "addr:postcode": "34732", "addr:street": "Ressam Salih Ermez Caddesi", "amenity": "hospital", "barrier": "wall", "healthcare": "hospital", "healthcare:speciality": "physiatry;urology;rheumatology;psychiatry;neurology;radiology;biochemistry", "name": "Erenköy Fizik Tedavi ve Reahabilitasyon Hastanesi", "website": "https://erenkoyftr.saglik.gov.tr/"}}, {"name": "Acıbadem Kadıköy Hastanesi", "latitude": 41.0071868, "longitude": 29.0430509, "source": "osm", "_tags": {"addr:city": "İstanbul", "addr:district": "Kadıköy", "addr:housenumber": "8", "addr:neighbourhood": "Acıbadem", "addr:postcode": "34718", "addr:street": "Tekin Sokağı", "amenity": "hospital", "barrier": "fence", "beds": "138", "emergency": "yes", "healthcare": "hospital", "name": "Acıbadem Kadıköy Hastanesi", "operator": "Acıbadem", "operator:type": "private", "operator:wikidata": "Q19610384", "phone": "+90 216 544 4444", "toilets:wheelchair": "yes", "website": "https://www.acibadem.com.tr/hastane/kadikoy-hastanesi/", "wheelchair": "yes", "wikidata": "Q30254218"}}, {"name": "Medipol", "latitude": 41.0048304, "longitude": 29.0340717, "source": "osm", "_tags": {"addr:postcode": "34718", "amenity": "hospital", "barrier": "fence", "healthcare": "hospital", "name": "Medipol", "website": "https://medipol.com.tr/hastanelerimiz/medipol-kosuyolu"}}, {"name": "Özel Intermed Çiftehavuzlar Polikliniği", "latitude": 40.9692906, "longitude": 29.053565, "source": "osm", "_tags": {"addr:city": "İstanbul", "addr:district": "Kadıköy", "addr:housenumber": "46", "addr:neighbourhood": "Caddebostan Mahallesi", "addr:postcode": "34728", "addr:street": "Operatör Cemil Topuzlu Caddesi", "amenity": "hospital", "building": "yes", "emergency": "no", "healthcare": "hospital", "name": "Özel Intermed Çiftehavuzlar Polikliniği", "operator:type": "private", "phone": "+90216 444 16 33", "website": "https://www.intermed.gen.tr/tr/ciftehavuzlar-poliklinigi"}}, {"name": "İtalyan Hastanesi - Giovanni Alberto Agnelli", "latitude": 41.028438, "longitude": 28.98111, "source": "osm", "_tags": {"addr:city": "İstanbul", "addr:district": "Beyoğlu", "addr:housenumber": "17", "addr:postcode": "34425", "addr:street": "Defterdar Yokuşu", "amenity": "hospital", "emergency": "yes", "healthcare": "hospital", "name": "İtalyan Hastanesi - Giovanni Alberto Agnelli", "name:en": "Italian Hospital", "operator": "Universal Hospitals Group", "phone": "+90 212 292 3501", "website": "https://uhgl-gh.com/"}}, {"name": "Eski Yalova Devlet Hastanesi", "latitude": 40.6629231, "longitude": 29.3075682, "source": "osm", "_tags": {"addr:city": "Yalova", "addr:district": "Merkez", "amenity": "hospital", "emergency": "yes", "healthcare": "hospital", "name": "Eski Yalova Devlet Hastanesi", "operator": "Sağlık Bakanlığı", "operator:wikidata": "Q4294365", "operator:wikipedia": "tr:Türkiye Cumhuriyeti Sağlık Bakanlığı", "phone": "0226 811 52 00"}}, {"name": "Sağlık Merkezi", "latitude": 41.2035674, "longitude": 29.0701352, "source": "osm", "_tags": {"addr:housename": "Sağlık Merkezi", "amenity": "hospital", "building": "yes", "emergency": "yes", "healthcare": "hospital", "name": "Sağlık Merkezi", "name:en": "Health Center"}}, {"name": "", "latitude": 41.2050646, "longitude": 29.0414563, "source": "osm", "_tags": {"amenity": "hospital", "healthcare": "hospital"}}, {"name": "Delta Hospital", "latitude": 40.9461699, "longitude": 29.1251189, "source": "osm", "_tags": {"addr:housenumber": "95", "amenity": "hospital", "building": "hospital", "healthcare": "hospital", "name": "Delta Hospital"}}, {"name": "Maltepe Üniversitesi Kadın Doğum ve Çocuk Hastanesi", "latitude": 40.9260352, "longitude": 29.1333182, "source": "osm", "_tags": {"amenity": "hospital", "building": "yes", "emergency": "yes", "healthcare": "hospital", "name": "Maltepe Üniversitesi Kadın Doğum ve Çocuk Hastanesi"}}, {"name": "Pendik Devlet Hastanesi Kurtköy Semt Polikliniği", "latitude": 40.9253697, "longitude": 29.3078803, "source": "osm", "_tags": {"addr:city": "İstanbul", "addr:district": "Pendik", "addr:housenumber": "28", "addr:neighbourhood": "Yenişehir Mahallesi", "addr:postcode": "34912", "addr:street": "Millet Caddesi", "amenity": "hospital", "building": "yes", "healthcare": "hospital", "image": "https://pendikdh.saglik.gov.tr/Resim/176097/0/kurtkoy-semt-poliklinigipng.png", "name": "Pendik Devlet Hastanesi Kurtköy Semt Polikliniği", "website": "https://pendikdh.saglik.gov.tr/TR-603877/kurtkoy-semt-poliklinigi.html"}}, {"name": "Marmara Üniversitesi Pendik Eğitim ve Araştırma Hastanesi", "latitude": 40.8867609, "longitude": 29.2626952, "source": "osm", "_tags": {"addr:city": "İstanbul", "addr:district": "Pendik", "addr:housenumber": "10", "addr:postcode": "34899", "addr:street": "Muhsin Yazıcıoğlu Caddesi", "amenity": "hospital", "emergency": "yes", "healthcare": "hospital", "name": "Marmara Üniversitesi Pendik Eğitim ve Araştırma Hastanesi", "website": "https://marmaraeah.saglik.gov.tr/", "wikidata": "Q30271985"}}, {"name": "Ümraniye Eğitim ve Araştırma Hastanesi", "latitude": 41.0323422, "longitude": 29.101272, "source": "osm", "_tags": {"addr:city": "Ümraniye/İstanbul", "addr:housenumber": "1", "addr:postcode": "34764", "addr:street": "Adem Yavuz Caddesi", "amenity": "hospital", "emergency": "yes", "healthcare": "hospital", "name": "Ümraniye Eğitim ve Araştırma Hastanesi", "website": "https://umraniyeah.saglik.gov.tr/", "wikidata": "Q30281119"}}, {"name": "Beykoz Devlet Hastanesi Tepeüstü Ek Binası", "latitude": 41.1106214, "longitude": 29.0862207, "source": "osm", "_tags": {"amenity": "hospital", "healthcare": "hospital", "name": "Beykoz Devlet Hastanesi Tepeüstü Ek Binası"}}, {"name": "", "latitude": 41.09016, "longitude": 29.0050086, "source": "osm", "_tags": {"amenity": "hospital", "healthcare": "hospital"}}, {"name": "Çayırova Semt Polikliniği", "latitude": 40.8251212, "longitude": 29.3840061, "source": "osm", "_tags": {"amenity": "hospital", "healthcare": "hospital", "name": "Çayırova Semt Polikliniği"}}, {"name": "Zeynep Kamil Kadın Ve Çocuk Hastalıkları Eğitim Ve Araştırma Hastanesi", "latitude": 41.0150762, "longitude": 29.0259684, "source": "osm", "_tags": {"addr:city": "İstanbul", "addr:housenumber": "15", "addr:street": "Opr. Dr. Burhanettin Üstünel Cad", "amenity": "hospital", "contact:email": "info@zeynepkamil.gov.tr", "contact:fax": "+90 216 391 06 90", "contact:phone": "+90 216 391 0680", "contact:website": "http://zeynepkamil.gov.tr/", "healthcare": "hospital", "name": "Zeynep Kamil Kadın Ve Çocuk Hastalıkları Eğitim Ve Araştırma Hastanesi", "wikidata": "Q30281282"}}, {"name": "Acıbadem Kozyatağı Hastanesi", "latitude": 40.9766754, "longitude": 29.0930673, "source": "osm", "_tags": {"addr:city": "Kadıköy/İstanbul", "addr:postcode": "34736", "addr:street": "Okur Sokağı", "amenity": "hospital", "emergency": "yes", "healthcare": "hospital", "name": "Acıbadem Kozyatağı Hastanesi", "operator": "Acıbadem", "operator:type": "private", "operator:wikidata": "Q19610384", "operator:wikipedia": "en:Acıbadem Healthcare Group", "phone": "+90 216 571 44 44", "website": "https://www.acibadem.com.tr/hastane/kozyatagi-hastanesi/"}}, {"name": "Memorial Şişli Hastanesi", "latitude": 41.0616543, "longitude": 28.9727332, "source": "osm", "_tags": {"addr:city": "İstanbul", "addr:district": "Şişli", "addr:housenumber": "4", "addr:neighbourhood": "Kaptanpaşa", "addr:postcode": "34385", "addr:street": "Piyalepaşa Blv.", "amenity": "hospital", "emergency": "yes", "healthcare": "hospital", "healthcare:speciality": "radiology;general;emergency;orthopaedics;cardiology", "name": "Memorial Şişli Hastanesi", "operator": "Memorial", "operator:type": "private", "phone": "0212 314 6666", "website": "https://www.memorial.com.tr/"}}, {"name": "Yakacık Kadın, Doğum ve Çocuk Hastalıkları Hastanesi", "latitude": 40.9177778, "longitude": 29.219018, "source": "osm", "_tags": {"amenity": "hospital", "healthcare": "hospital", "name": "Yakacık Kadın, Doğum ve Çocuk Hastalıkları Hastanesi"}}, {"name": "Bezmialem Üniversitesi Dragos Hastanesi", "latitude": 40.9099953, "longitude": 29.1379765, "source": "osm", "_tags": {"amenity": "hospital", "healthcare": "hospital", "image": "https://bezmialem.com.tr/Lists/HospitalList/Attachments/3/hastane-dragos.jpg", "name": "Bezmialem Üniversitesi Dragos Hastanesi", "name:en": "Bezmialem University Dragos Hospital", "website": "https://bezmialem.com.tr/Pages/hospital-detail/3/Bezmialem-Dragos-Hastanesi"}}, {"name": "Ataşehir Memorial Hastanesi", "latitude": 40.9842318, "longitude": 29.1070501, "source": "osm", "_tags": {"amenity": "hospital", "emergency": "yes", "healthcare": "hospital", "name": "Ataşehir Memorial Hastanesi", "wikidata": "Q6023157", "wikipedia": "tr:Memorial Sağlık Grubu"}}, {"name": "Liv Hospital Ulus", "latitude": 41.0608579, "longitude": 29.0284965, "source": "osm", "_tags": {"addr:city": "İstanbul", "addr:district": "Beşiktaş", "addr:postcode": "34340", "addr:street": "Canan Sokağı", "amenity": "hospital", "building": "yes", "emergency": "yes", "healthcare": "hospital", "name": "Liv Hospital Ulus", "operator": "Liv", "operator:type": "private", "website": "https://www.livhospital.com/liv-hastaneleri/liv-hospital-ulus"}}, {"name": "Üsküdar Devlet Hastanesi", "latitude": 41.0159143, "longitude": 29.0389618, "source": "osm", "_tags": {"addr:city": "Üsküdar/İstanbul", "amenity": "hospital", "emergency": "yes", "healthcare": "hospital", "name": "Üsküdar Devlet Hastanesi", "website": "https://uskudardh.saglik.gov.tr/", "wikidata": "Q131350574"}}, {"name": "Özel Diyabet Hastanesi", "latitude": 40.9982377, "longitude": 29.0334085, "source": "osm", "_tags": {"addr:city": "Kadıköy/İstanbul", "amenity": "hospital", "healthcare": "hospital", "name": "Özel Diyabet Hastanesi"}}, {"name": "Özel Ataşehir Hastanesi", "latitude": 40.9860818, "longitude": 29.1756358, "source": "osm", "_tags": {"amenity": "hospital", "building": "yes", "emergency": "yes", "healthcare": "hospital", "name": "Özel Ataşehir Hastanesi"}}, {"name": "Avicenna Umut Hastanesi", "latitude": 40.8907056, "longitude": 29.1776524, "source": "osm", "_tags": {"addr:city": "İstanbul", "addr:district": "Kartal", "addr:housenumber": "45", "addr:neighbourhood": "Petroliş Mahallesi", "addr:street": "Üsküdar Caddesi", "ambulance": "yes", "amenity": "hospital", "beds": "58", "emergency": "yes", "healthcare": "hospital", "name": "Avicenna Umut Hastanesi", "operator:type": "private", "website": "www.umuthastanesi.com"}}, {"name": "Or-Ayahim Özel Balat Hastanesi", "latitude": 41.038504, "longitude": 28.9456088, "source": "osm", "_tags": {"addr:city": "Istanbul", "addr:district": "Fatih", "addr:postcode": "34087", "addr:street": "Ayvansaray Caddesi", "amenity": "hospital", "fee": "yes", "healthcare": "hospital", "name": "Or-Ayahim Özel Balat Hastanesi", "name:ar": "مستشفى أوزيل بالات هاستانيسي", "operator:type": "private", "website": "https://balathastanesi.com.tr/", "wikidata": "Q6867698", "wikimedia_commons": "Category:Balat Or-Ahayim Hospital", "wikipedia": "tr:Balat Or-Ahayim Hastanesi"}}, {"name": "SBÜ Süreyyapaşa Göğüs Hastalıkları Hastanesi", "latitude": 40.9505754, "longitude": 29.1405496, "source": "osm", "_tags": {"amenity": "hospital", "healthcare": "hospital", "name": "SBÜ Süreyyapaşa Göğüs Hastalıkları Hastanesi"}}, {"name": "Veni Vidi Göz", "latitude": 40.9701598, "longitude": 29.0630206, "source": "osm", "_tags": {"addr:city": "İstanbul", "addr:district": "Kadıköy", "addr:housenumber": "257", "addr:neighbourhood": "Caddebostan Mahallesi", "addr:postcode": "34728", "addr:street": "Bağdat Caddesi", "amenity": "hospital", "building": "hospital", "building:levels": "5", "healthcare": "hospital", "name": "Veni Vidi Göz", "website": "https://venividigoz.com/"}}, {"name": "Medical Park Göztepe", "latitude": 40.9900002, "longitude": 29.0773176, "source": "osm", "_tags": {"amenity": "hospital", "emergency": "yes", "healthcare": "hospital", "name": "Medical Park Göztepe", "operator": "Medical Park", "operator:type": "private", "operator:wikidata": "Q6073312", "website": "https://www.medicalpark.com.tr/goztepe-hastanesi/h-8"}}, {"name": "Liv Hospital", "latitude": 41.0607957, "longitude": 29.0284265, "source": "osm", "_tags": {"amenity": "hospital", "healthcare": "hospital", "name": "Liv Hospital", "operator": "Liv Hospital Group - Ulus Mahallesi", "phone": "+90212 999 80 99", "website": "https://www.livhospital.com", "wikidata": "Q19611822", "wikipedia": "tr:Liv Hospital"}}, {"name": "Medicana Böbrek Nakil Merkezi", "latitude": 41.0246551, "longitude": 29.0829288, "source": "osm", "_tags": {"addr:country": "TR", "amenity": "hospital", "building": "hospital", "healthcare": "hospital", "name": "Medicana Böbrek Nakil Merkezi", "name:ar": "مستشفى مديكانا"}}, {"name": "Acıbadem Altunizade Hastanesi", "latitude": 41.0189968, "longitude": 29.0463435, "source": "osm", "_tags": {"addr:postcode": "34662", "amenity": "hospital", "healthcare": "hospital", "name": "Acıbadem Altunizade Hastanesi", "name:en": "Acıbadem Hospital", "operator": "Acıbadem", "operator:type": "private", "operator:wikidata": "Q19610384", "operator:wikipedia": "en:Acıbadem Healthcare Group", "website": "https://www.acibadem.com.tr/hastane/altunizade-hastanesi/"}}, {"name": "Çınarcık Devlet Hastanesi", "latitude": 40.6432026, "longitude": 29.1188405, "source": "osm", "_tags": {"addr:city": "Çınarcık", "addr:district": "Merkez", "addr:neighbourhood": "Harmanlar Mh.", "addr:postcode": "77300", "addr:street": "Belediye Sk.", "amenity": "hospital", "building": "yes", "emergency": "yes", "healthcare": "hospital", "name": "Çınarcık Devlet Hastanesi"}}, {"name": "Academic Hospital", "latitude": 41.0197099, "longitude": 29.0350121, "source": "osm", "_tags": {"addr:city": "İstanbul", "addr:district": "Üsküdar", "addr:housenumber": "94", "addr:neighbourhood": "Bağlarbaşı", "addr:postcode": "34664", "addr:street": "Nuh Kuyusu Caddesi", "amenity": "hospital", "emergency": "yes", "healthcare": "hospital", "name": "Academic Hospital", "opening_hours": "24/7", "phone": "0216 554 98 00", "website": "https://www.academichospital.com.tr/tr/"}}, {"name": "Cerrahpaşa Tıp Fakültesi", "latitude": 41.0040181, "longitude": 28.9415822, "source": "osm", "_tags": {"addr:city": "Istanbul", "addr:district": "Fatih", "addr:postcode": "34098", "amenity": "hospital", "emergency": "yes", "fee": "no", "healthcare": "hospital", "name": "Cerrahpaşa Tıp Fakültesi", "name:ar": "مستشفى جراح باشا الجامعي", "name:ku": "Cerrahpaşa Fakulteya Tipê", "operator": "T.C. İstanbul Üniversitesi", "operator:type": "government", "website": "https://hastanecerrahpasa.iuc.edu.tr"}}, {"name": "Pendik Devlet Hastanesi", "latitude": 40.8771069, "longitude": 29.2295481, "source": "osm", "_tags": {"addr:city": "İstanbul", "addr:district": "Pendik", "addr:housenumber": "17", "addr:neighbourhood": "Batı Mahallesi", "addr:street": "Dr.Orhan Maltepe Caddesi", "amenity": "hospital", "healthcare": "hospital", "name": "Pendik Devlet Hastanesi", "phone": "+90 216 491 2937", "website": "https://pendikdh.saglik.gov.tr"}}, {"name": "Medicana Kadıköy", "latitude": 40.98532, "longitude": 29.0381654, "source": "osm", "_tags": {"addr:city": "İstanbul", "addr:district": "Kadıköy", "addr:housenumber": "11", "addr:neighbourhood": "Zühtüpaşa Mah.", "addr:postcode": "34724", "addr:street": "Recep Peker Caddesi", "amenity": "hospital", "building": "hospital", "healthcare": "hospital", "name": "Medicana Kadıköy", "phone": "+90 216 9704970", "website": "https://www.medicana.com.tr/kadikoy"}}, {"name": "Kaynarca Devlet Hastanesi", "latitude": 40.8734534, "longitude": 29.2532498, "source": "osm", "_tags": {"amenity": "hospital", "building": "hospital", "healthcare": "hospital", "name": "Kaynarca Devlet Hastanesi"}}, {"name": "Özel Pendik Bölge Hastanesi", "latitude": 40.8827896, "longitude": 29.2458524, "source": "osm", "_tags": {"addr:city": "İstanbul", "addr:district": "Pendik", "addr:housenumber": "1", "addr:neighbourhood": "Doğu Mahallesi", "addr:street": "Nevbahar Sokak", "amenity": "hospital", "barrier": "fence", "healthcare": "hospital", "name": "Özel Pendik Bölge Hastanesi", "phone": "+90 216 585 3200", "website": "https://www.bolgehastanesi.com/"}}, {"name": "Pendik Hospital", "latitude": 40.8835693, "longitude": 29.2443562, "source": "osm", "_tags": {"addr:city": "İstanbul", "addr:district": "Pendik", "addr:housenumber": "1", "addr:neighbourhood": "Doğu Mahallesi", "addr:street": "Bilge Sokak", "amenity": "hospital", "building": "hospital", "email": "info@pendikhospital.com.tr", "healthcare": "hospital", "name": "Pendik Hospital", "phone": "444 88 54", "website": "http://www.pendikhospital.com.tr"}}, {"name": "Diş Sağlık Merkezi", "latitude": 41.0971677, "longitude": 29.0912527, "source": "osm", "_tags": {"amenity": "hospital", "healthcare": "hospital", "name": "Diş Sağlık Merkezi"}}, {"name": "Sancaktepe Şehit Prof.Dr. İlhan Varank Eğitim Ve Araştırma Hastanesi", "latitude": 41.0053544, "longitude": 29.1962203, "source": "osm", "_tags": {"amenity": "hospital", "emergency": "yes", "healthcare": "hospital", "name": "Sancaktepe Şehit Prof.Dr. İlhan Varank Eğitim Ve Araştırma Hastanesi", "operator": "Sağlık Bakanlığı", "operator:type": "government", "operator:wikidata": "Q4294365"}}, {"name": "İstanbul Beykoz (Paşabahçe) Devlet Hastanesi", "latitude": 41.1176714, "longitude": 29.0981565, "source": "osm", "_tags": {"amenity": "hospital", "healthcare": "hospital", "name": "İstanbul Beykoz (Paşabahçe) Devlet Hastanesi", "operator": "Sağlık Bakanlığı", "operator:wikidata": "Q4294365"}}, {"name": "Tuzla Devlet Hastahanesi", "latitude": 40.8443897, "longitude": 29.3032558, "source": "osm", "_tags": {"addr:postcode": "34947", "amenity": "hospital", "check_date": "2025-05-14", "emergency": "yes", "healthcare": "hospital", "healthcare:speciality": "emergency;general;community", "name": "Tuzla Devlet Hastahanesi", "name:tr": "Tuzla Devlet Hastahanesi", "opening_hours": "24/7", "operator": "Sağlık Bakanlığı", "operator:type": "government", "operator:wikidata": "Q4294365", "website": "https://tuzladh.saglik.gov.tr/", "wheelchair": "yes"}}, {"name": "Yakacık Tıp Merkezi", "latitude": 40.9200673, "longitude": 29.2243537, "source": "osm", "_tags": {"amenity": "hospital", "building": "yes", "emergency": "yes", "healthcare": "hospital", "name": "Yakacık Tıp Merkezi"}}, {"name": "İstinye Devlet Hastanesi", "latitude": 41.1151361, "longitude": 29.0557561, "source": "osm", "_tags": {"addr:city": "İstanbul", "addr:district": "Sarıyer", "addr:housenumber": "54", "addr:neighbourhood": "İstinye", "addr:street": "Doktor Nurettin Cankat Sokağı", "ambulance": "no", "amenity": "hospital", "beds": "134", "building": "hospital", "healthcare": "hospital", "name": "İstinye Devlet Hastanesi", "operator": "Sağlık Bakanlığı", "operator:type": "government", "operator:wikidata": "Q4294365", "phone": "+90 212 3234444", "website": "www.idh.gov.tr"}}, {"name": "İstinye Devlet Hastanesi", "latitude": 41.1149992, "longitude": 29.0554118, "source": "osm", "_tags": {"addr:city": "İstanbul", "addr:district": "Sarıyer", "addr:housenumber": "54", "addr:neighbourhood": "İstinye", "addr:street": "Doktor Nurettin Cankat Sokağı", "ambulance": "no", "amenity": "hospital", "beds": "134", "building": "hospital", "emergency": "yes", "healthcare": "hospital", "name": "İstinye Devlet Hastanesi", "operator": "Sağlık Bakanlığı", "operator:type": "government", "operator:wikidata": "Q4294365", "phone": "+90 212 3234444", "website": "www.idh.gov.tr"}}, {"name": "Okan Üniversitesi Diş Hastanesi", "latitude": 40.859123, "longitude": 29.3017045, "source": "osm", "_tags": {"addr:postcode": "34947", "amenity": "hospital", "healthcare": "hospital", "healthcare:speciality": "dentistry", "name": "Okan Üniversitesi Diş Hastanesi", "website": "https://okandis.com/iletisim.php"}}, {"name": "Okan Üniversitesi Hastanesi", "latitude": 40.849257, "longitude": 29.3018773, "source": "osm", "_tags": {"addr:postcode": "34947", "amenity": "hospital", "healthcare": "hospital", "name": "Okan Üniversitesi Hastanesi", "name:en": "Okan University Hospital", "website": "https://www.okanhastanesi.com.tr/"}}, {"name": "Tuzla Termal Tesisleri", "latitude": 40.844869, "longitude": 29.2946489, "source": "osm", "_tags": {"addr:city": "Istanbul", "addr:district": "Tuzla", "addr:housenumber": "6", "addr:neighbourhood": "Evliya Çelebi Mahallesi", "addr:postcode": "34944", "addr:street": "Mustafa Kemal Caddesi", "amenity": "hospital", "healthcare": "hospital", "name": "Tuzla Termal Tesisleri"}}, {"name": "Özel Gisbir Hastanesi", "latitude": 40.8476335, "longitude": 29.2944151, "source": "osm", "_tags": {"addr:city": "İstanbul", "addr:district": "Tuzla", "addr:housenumber": "2", "addr:neighbourhood": "Evliya Çelebi Mahallesi", "addr:postcode": "34944", "addr:street": "Sahil Bulvarı", "amenity": "hospital", "healthcare": "hospital", "name": "Özel Gisbir Hastanesi"}}, {"name": "Şişli Florence Nightingale Hastanesi", "latitude": 41.0692652, "longitude": 28.9836808, "source": "osm", "_tags": {"addr:neighbourhood": "Hürriyet Mahallesi", "addr:street": "Abide-i Hürriyet Caddesi", "amenity": "hospital", "area": "yes", "emergency": "yes", "healthcare": "hospital", "healthcare:speciality": "general", "name": "Şişli Florence Nightingale Hastanesi", "operator": "Florance Nightingale Hastanesi", "phone": "+90216 450 03 03", "website": "https://www.florence.com.tr/"}}, {"name": "Lokman Hekim Hastanesi", "latitude": 40.9252625, "longitude": 29.2911887, "source": "osm", "_tags": {"addr:city": "İstanbul", "addr:district": "Pendik", "addr:housenumber": "2", "addr:neighbourhood": "Yenişehir Mahallesi", "addr:postcode": "34912", "addr:street": "Kardelen Sokağı", "amenity": "hospital", "check_date": "2025-05-04", "emergency": "no", "healthcare": "hospital", "name": "Lokman Hekim Hastanesi", "old_name": "Özel Adatıp İstanbul Hastanesi", "website": "https://lokmanhekim.com.tr/hastane/lokman-hekim-istanbul-hastanesi/"}}, {"name": "Marmara Üniversitesi Prof. Dr. Asaf Ataseven Hastanesi", "latitude": 40.9506146, "longitude": 29.1382554, "source": "osm", "_tags": {"amenity": "hospital", "building": "hospital", "emergency": "yes", "healthcare": "hospital", "image": "https://www.trhastane.com/resim/buyuk/marmara-universitesi-prof-dr-asaf-ataseven-hastanesi-989.jpg", "name": "Marmara Üniversitesi Prof. Dr. Asaf Ataseven Hastanesi"}}, {"name": "", "latitude": 40.9491836, "longitude": 29.1389922, "source": "osm", "_tags": {"addr:district": "Maltepe", "addr:housenumber": "5", "addr:province": "İstanbul", "addr:street": "Başıbüyük Caddesi", "amenity": "hospital", "building": "yes", "healthcare": "hospital", "type": "multipolygon"}}, {"name": "", "latitude": 40.9491486, "longitude": 29.1394911, "source": "osm", "_tags": {"addr:district": "Maltepe", "addr:housenumber": "5", "addr:province": "İstanbul", "addr:street": "Başıbüyük Caddesi", "amenity": "hospital", "building": "yes", "healthcare": "hospital", "type": "multipolygon"}}, {"name": "VM Medical Park Pendik", "latitude": 40.8806305, "longitude": 29.2565215, "source": "osm", "_tags": {"alt_name": "Berhayat Hastanesi", "amenity": "hospital", "email": "pendik@medicalpark.com.tr", "emergency": "yes", "healthcare": "hospital", "name": "VM Medical Park Pendik", "name:tr": "VM Medikal Park Pendik", "phone": "+90 216 275 40 00", "website": "https://www.medicalpark.com.tr"}}, {"name": "Özel Pendik Yüzyıl Hastanesi", "latitude": 40.8792473, "longitude": 29.2612978, "source": "osm", "_tags": {"addr:city": "İstanbul", "addr:district": "Pendik", "addr:housenumber": "105", "addr:neighbourhood": "Fevzi Çakmak Mahallesi", "addr:street": "Tevfik İleri Caddesi", "amenity": "hospital", "emergency": "yes", "healthcare": "hospital", "name": "Özel Pendik Yüzyıl Hastanesi", "phone": "+90 216 397 5900", "website": "https://www.yuzyilhastanesi.com/"}}, {"name": "Darıca Farabi Eğitim ve Araştırma Hastanesi", "latitude": 40.7706952, "longitude": 29.4065948, "source": "osm", "_tags": {"amenity": "hospital", "healthcare": "hospital", "name": "Darıca Farabi Eğitim ve Araştırma Hastanesi", "name:en": "Darıca Farabi State Hospital"}}, {"name": "Kurtköy Ersoy Hastanesi", "latitude": 40.9106189, "longitude": 29.2980185, "source": "osm", "_tags": {"addr:city": "İstanbul", "addr:district": "Pendik", "addr:neighbourhood": "Kurtköy Mahallesi", "addr:postcode": "34912", "addr:street": "Kahraman Sokak", "amenity": "hospital", "healthcare": "hospital", "name": "Kurtköy Ersoy Hastanesi", "panoramax": "d621464f-dfc6-4b51-807a-1000489a3871", "website": "https://www.ersoyhastanesi.com.tr/tr-TR/hastane/2"}}, {"name": "Yeditepe Üniversitesi İhtisas Hastanesi", "latitude": 41.0040968, "longitude": 29.0312823, "source": "osm", "_tags": {"amenity": "hospital", "healthcare": "hospital", "name": "Yeditepe Üniversitesi İhtisas Hastanesi"}}, {"name": "Medicana Ataşehir Hastanesi", "latitude": 40.9835442, "longitude": 29.1069977, "source": "osm", "_tags": {"addr:postcode": "34750", "amenity": "hospital", "healthcare": "hospital", "name": "Medicana Ataşehir Hastanesi", "operator": "Medicana", "website": "https://www.medicana.com.tr/atasehir"}}, {"name": "Maltepe Altayçeşme Devlet Hastanesi", "latitude": 40.9368707, "longitude": 29.1349905, "source": "osm", "_tags": {"amenity": "hospital", "healthcare": "hospital", "name": "Maltepe Altayçeşme Devlet Hastanesi"}}, {"name": "Ersoy Hastanesi", "latitude": 40.9331521, "longitude": 29.1347045, "source": "osm", "_tags": {"amenity": "hospital", "healthcare": "hospital", "name": "Ersoy Hastanesi"}}, {"name": "Mehmet Toprak Hastanesi", "latitude": 40.9172107, "longitude": 29.1456292, "source": "osm", "_tags": {"amenity": "hospital", "healthcare": "hospital", "name": "Mehmet Toprak Hastanesi"}}, {"name": "İstanbul Onkoloji Hastanesi", "latitude": 40.9224101, "longitude": 29.1536688, "source": "osm", "_tags": {"addr:city": "İstanbul", "addr:district": "Maltepe", "addr:housenumber": "86", "addr:neighbourhood": "Cevizli Mahallesi", "addr:postcode": "34846", "addr:street": "Toros Caddesi", "amenity": "hospital", "email": "bilgi@istanbulonko.com", "emergency": "yes", "healthcare": "hospital", "healthcare:speciality": "general;petct;oncology;cancer", "internet_access": "yes", "name": "İstanbul Onkoloji Hastanesi", "operator": "İstanbul Onkoloji Hastanesi", "phone": "+90 216 457 37 37", "start_date": "2008", "website": "https://istanbulonkoloji.com/", "wheelchair": "yes"}}, {"name": "Yavuz Selim Devlet Hastanesi Poliklinikleri", "latitude": 40.9015866, "longitude": 29.2045142, "source": "osm", "_tags": {"amenity": "hospital", "healthcare": "hospital", "name": "Yavuz Selim Devlet Hastanesi Poliklinikleri"}}, {"name": "Dünyagöz", "latitude": 40.9843915, "longitude": 29.1114634, "source": "osm", "_tags": {"amenity": "hospital", "healthcare": "hospital", "name": "Dünyagöz"}}, {"name": "Moodist Psikiyatri ve Nöroloji Hastanesi", "latitude": 41.0023482, "longitude": 29.0534145, "source": "osm", "_tags": {"addr:housenumber": "52", "addr:postcode": "34660", "addr:street": "Çeçen Sokağı", "amenity": "hospital", "healthcare": "hospital", "healthcare:speciality": "psychiatry;neurology", "name": "Moodist Psikiyatri ve Nöroloji Hastanesi", "website": "https://moodisthastanesi.com"}}, {"name": "Acıbadem Ataşehir Hastanesi", "latitude": 40.9945826, "longitude": 29.1270666, "source": "osm", "_tags": {"addr:postcode": "34758", "amenity": "hospital", "healthcare": "hospital", "name": "Acıbadem Ataşehir Hastanesi", "operator": "Acıbadem", "operator:type": "private", "operator:wikidata": "Q19610384", "operator:wikipedia": "en:Acıbadem Healthcare Group", "phone": "+90 216 5124444", "website": "https://www.acibadem.com.tr/hastane/acibadem-atasehir-hastanesi/"}}, {"name": "Ataşehir Ağız ve Diş Sağlığı Hastanesi", "latitude": 40.9906871, "longitude": 29.109163, "source": "osm", "_tags": {"addr:city": "İstanbul", "addr:district": "Ataşehir", "addr:housenumber": "6", "addr:neighbourhood": "Barbaros Mahallesi", "addr:postcode": "34746", "addr:street": "Fesleğen Sokak", "amenity": "hospital", "healthcare": "hospital", "healthcare:speciality": "dentistry", "name": "Ataşehir Ağız ve Diş Sağlığı Hastanesi", "phone": "+90 216 469 77 40", "website": "https://atasehiradsh.saglik.gov.tr/"}}, {"name": "Acıbadem Ataşehir Cerrahi Tıp Merkezi", "latitude": 40.9856026, "longitude": 29.1086871, "source": "osm", "_tags": {"addr:housenumber": "36", "addr:postcode": "34750", "addr:street": "Vedat Günyol Caddesi", "amenity": "hospital", "healthcare": "hospital", "name": "Acıbadem Ataşehir Cerrahi Tıp Merkezi", "operator": "Acıbadem", "operator:type": "private", "operator:wikidata": "Q19610384", "operator:wikipedia": "en:Acıbadem Healthcare Group", "website": "https://www.acibadem.com.tr/tip-merkezi/atasehir-tip-merkezi/"}}, {"name": "Özel Aktif Hastanesi", "latitude": 40.6643033, "longitude": 29.3202807, "source": "osm", "_tags": {"addr:city": "Yalova", "addr:district": "Merkez", "amenity": "hospital", "building": "hospital", "emergency": "yes", "healthcare": "hospital", "name": "Özel Aktif Hastanesi", "phone": "0226 352 66 66", "website": "https://www.aktifhastanesi.com.tr/"}}, {"name": "Özel Atakent Hastanesi", "latitude": 40.642513, "longitude": 29.2582845, "source": "osm", "_tags": {"addr:city": "Yalova", "addr:district": "Merkez", "addr:housenumber": "7", "addr:neighbourhood": "Adnan Menderes Mah.", "addr:street": "Ufuk Sokak", "amenity": "hospital", "emergency": "yes", "healthcare": "hospital", "name": "Özel Atakent Hastanesi", "phone": "444 1 677"}}, {"name": "Özel Yalova Hastanesi", "latitude": 40.6541137, "longitude": 29.2751275, "source": "osm", "_tags": {"addr:city": "Yalova", "addr:district": "Merkez", "amenity": "hospital", "building": "hospital", "emergency": "yes", "healthcare": "hospital", "name": "Özel Yalova Hastanesi", "name:ar": "مستشفى يالوفا الخاص", "name:en": "Yalova hospital special", "phone": "0226 811 22 44"}}, {"name": "Devlet Hastanesi Ek Hizmet Binası", "latitude": 40.6631443, "longitude": 29.3209131, "source": "osm", "_tags": {"addr:city": "Yalova", "addr:district": "Merkez", "addr:neighbourhood": "Çiftlikköy", "amenity": "hospital", "building": "hospital", "healthcare": "hospital", "name": "Devlet Hastanesi Ek Hizmet Binası"}}, {"name": "Medicana Çamlıca Hastanesi", "latitude": 41.0247113, "longitude": 29.0834597, "source": "osm", "_tags": {"amenity": "hospital", "healthcare": "hospital", "name": "Medicana Çamlıca Hastanesi"}}, {"name": "Medicana", "latitude": 41.0243078, "longitude": 29.0825509, "source": "osm", "_tags": {"amenity": "hospital", "healthcare": "hospital", "name": "Medicana"}}, {"name": "Sultantepe ASM", "latitude": 41.0283814, "longitude": 29.0211295, "source": "osm", "_tags": {"addr:city": "İstanbul", "addr:district": "Üsküdar", "addr:housenumber": "2/1", "addr:neighbourhood": "Sultantepe", "addr:street": "Hızal Sokağı", "amenity": "hospital", "healthcare": "hospital", "name": "Sultantepe ASM", "operator": "public"}}, {"name": "Gemlik Devlet Hastanesi", "latitude": 40.4329732, "longitude": 29.1856234, "source": "osm", "_tags": {"amenity": "hospital", "healthcare": "hospital", "name": "Gemlik Devlet Hastanesi"}}, {"name": "Taksim Eğitim ve Araştırma Hastanesi", "latitude": 41.0330912, "longitude": 28.9831326, "source": "osm", "_tags": {"addr:city": "İstanbul", "addr:district": "Beyoğlu", "addr:housenumber": "48", "addr:neighbourhood": "Katip Mustafa Çelebi Mahallesi", "addr:postcode": "34433", "addr:street": "Sıraselviler Cad.", "amenity": "hospital", "emergency": "yes", "healthcare": "hospital", "name": "Taksim Eğitim ve Araştırma Hastanesi", "operator": "Sağlık Bakanlığı", "operator:type": "government", "operator:wikidata": "Q4294365", "operator:wikipedia": "tr:Türkiye Cumhuriyeti Sağlık Bakanlığı", "website": "https://taksimeah.saglik.gov.tr/", "wikidata": "Q117355183", "wikimedia_commons": "Category:Taksim Training and Research Hospital", "wikipedia": "tr:Taksim Eğitim ve Araştırma Hastanesi"}}, {"name": "Beykoz Devlet Hastanesi Toplum Ruh Sağlığı Merkezi", "latitude": 41.1539266, "longitude": 29.0934474, "source": "osm", "_tags": {"amenity": "hospital", "beds": "0", "emergency": "no", "healthcare": "hospital", "name": "Beykoz Devlet Hastanesi Toplum Ruh Sağlığı Merkezi", "operator": "Sağlık Bakanlığı", "operator:type": "public", "operator:wikidata": "Q4294365", "website": "http://www.pasabahcedh.gov.tr/"}}, {"name": "İstinye Devlet Hastanesi", "latitude": 41.1150367, "longitude": 29.0558821, "source": "osm", "_tags": {"addr:city": "İstanbul", "addr:district": "Sarıyer", "addr:housenumber": "54", "addr:neighbourhood": "İstinye", "addr:street": "Doktor Nurettin Cankat Sokağı", "ambulance": "no", "beds": "134", "building": "hospital", "emergency": "yes", "healthcare": "hospital", "name": "İstinye Devlet Hastanesi", "operator": "T.C. Sağlık Bakanlığı", "operator:type": "government", "phone": "+90 212 3234444", "website": "www.idh.gov.tr"}}, {"name": "Sancaktepe Prof. Dr. Feriha Öz Acil Durum Hastanesi", "latitude": 41.0002128, "longitude": 29.2105858, "source": "osm", "_tags": {"amenity": "hospital", "construction": "service", "emergency": "yes", "healthcare": "hospital", "name": "Sancaktepe Prof. Dr. Feriha Öz Acil Durum Hastanesi", "name:en": "Sancaktepe Prof. Dr. Feriha Öz Emergency Hospital", "name:fr": "Sancaktepe Prof. Dr. Feriha Öz Hôpital d'urgence", "operator": "Sağlık Bakanlığı", "operator:type": "government", "operator:wikidata": "Q4294365", "wikidata": "Q96404912", "wikipedia": "en:Sancaktepe Prof. Dr. Feriha Öz Emergency Hospital"}}, {"name": "Kartal Dr Lütfi Kırdar Eğitim ve Araştırma Hastane Polİklİnİklerİ", "latitude": 40.9170247, "longitude": 29.1710033, "source": "osm", "_tags": {"amenity": "hospital", "healthcare": "hospital", "name": "Kartal Dr Lütfi Kırdar Eğitim ve Araştırma Hastane Polİklİnİklerİ"}}, {"name": "Sarıyer İsmail Akgün Devlet Hastanesi", "latitude": 41.1694193, "longitude": 29.0567119, "source": "osm", "_tags": {"amenity": "hospital", "building": "hospital", "healthcare": "hospital", "name": "Sarıyer İsmail Akgün Devlet Hastanesi"}}, {"name": "", "latitude": 40.9867227, "longitude": 29.1116086, "source": "osm", "_tags": {"amenity": "hospital", "healthcare": "hospital"}}, {"name": "Orhangazi Devlet Hastanesi", "latitude": 40.4971601, "longitude": 29.2993124, "source": "osm", "_tags": {"amenity": "hospital", "healthcare": "hospital", "name": "Orhangazi Devlet Hastanesi", "name:en": "Orhangazi State Hospital"}}, {"name": "Acıbadem Dr. Şinasi Can (Kadıköy) Hastanesi", "latitude": 41.00716, "longitude": 29.0429132, "source": "osm", "_tags": {"addr:city": "İstanbul", "addr:district": "Kadıköy", "addr:housenumber": "8", "addr:neighbourhood": "Acıbadem", "addr:postcode": "34718", "addr:street": "Tekin Sokağı", "amenity": "hospital", "beds": "138", "building": "hospital", "emergency": "yes", "healthcare": "hospital", "name": "Acıbadem Dr. Şinasi Can (Kadıköy) Hastanesi", "operator": "Acıbadem", "operator:type": "private", "operator:wikidata": "Q19610384", "phone": "+90 216 544 4444", "website": "https://www.acibadem.com.tr/hastane/kadikoy-hastanesi/"}}, {"name": "", "latitude": 40.8323291, "longitude": 29.3167298, "source": "osm", "_tags": {"amenity": "hospital", "healthcare": "hospital"}}, {"name": "AsMed", "latitude": 40.9921016, "longitude": 29.1160537, "source": "osm", "_tags": {"addr:city": "Istanbul", "addr:district": "Ataşehir", "addr:neighbourhood": "Atatürk Mahallesi", "addr:postcode": "34758", "amenity": "hospital", "contact:instagram": "asmedhairtransplant", "contact:twitter": "Asmed_Hair", "healthcare": "hospital", "name": "AsMed", "website": "https://www.hairtransplantfue.org/"}}, {"name": "Ataşehir Florence Nightingale", "latitude": 40.9845488, "longitude": 29.1092707, "source": "osm", "_tags": {"addr:city": "İstanbul", "addr:district": "Ataşehir", "addr:neighbourhood": "Küçükbakkalköy Mahallesi", "addr:postcode": "34750", "addr:street": "Şenlik Sokağı", "amenity": "hospital", "building": "hospital", "healthcare": "hospital", "image": "https://www.florence.com.tr/uploads/hospital/dINUwg9K.jpg", "name": "Ataşehir Florence Nightingale", "website": "https://www.florence.com.tr/atasehir-florence-nightingale-hastanesi"}}, {"name": "Özel Ataşehir Florence Nightingale Hastanesi", "latitude": 40.9847776, "longitude": 29.1087713, "source": "osm", "_tags": {"addr:city": "İstanbul", "addr:district": "Ataşehir", "addr:housenumber": "35/A", "addr:neighbourhood": "Küçükbakkalköy Mahallesi", "addr:postcode": "34750", "addr:street": "Işıklar Caddesi", "amenity": "hospital", "building": "hospital", "healthcare": "hospital", "image": "https://www.florence.com.tr/uploads/hospital/dINUwg9K.jpg", "name": "Özel Ataşehir Florence Nightingale Hastanesi", "website": "https://www.florence.com.tr/atasehir-florence-nightingale-hastanesi"}}, {"name": "Esthetica", "latitude": 40.985173, "longitude": 29.1100045, "source": "osm", "_tags": {"addr:city": "İstanbul", "addr:district": "Ataşehir", "addr:housenumber": "28", "addr:neighbourhood": "Küçükbakkalköy Mahallesi", "addr:postcode": "34750", "addr:street": "Işıklar Caddesi", "amenity": "hospital", "healthcare": "hospital", "healthcare:speciality": "plastic_surgery", "name": "Esthetica", "website": "https://estethica.com.tr"}}, {"name": "", "latitude": 40.9981356, "longitude": 29.0329813, "source": "osm", "_tags": {"amenity": "hospital", "healthcare": "hospital"}}, {"name": "Çağıner Hastanesi", "latitude": 40.9962043, "longitude": 29.0451688, "source": "osm", "_tags": {"amenity": "hospital", "healthcare": "hospital", "name": "Çağıner Hastanesi"}}, {"name": "Central Hospital", "latitude": 40.9659307, "longitude": 29.1003003, "source": "osm", "_tags": {"addr:city": "İstanbul", "addr:district": "Kadıköy", "addr:housenumber": "19", "addr:neighbourhood": "Kozyatağı", "addr:postcode": "34724", "addr:street": "Kozyatağı Sokağı", "amenity": "hospital", "building": "yes", "emergency": "yes", "healthcare": "hospital", "name": "Central Hospital", "operator:type": "private", "phone": "+90 4447799", "website": "http://centralhospital.com/"}}, {"name": "Erdem Hastanesi", "latitude": 41.0251616, "longitude": 29.0822238, "source": "osm", "_tags": {"amenity": "hospital", "healthcare": "hospital", "name": "Erdem Hastanesi"}}, {"name": "Sultanbeyli Devlet Hastanesi", "latitude": 40.9853747, "longitude": 29.2837113, "source": "osm", "_tags": {"addr:city": "İstanbul", "addr:district": "Sultanbeyli", "amenity": "hospital", "emergency": "yes", "healthcare": "hospital", "name": "Sultanbeyli Devlet Hastanesi", "name:ar": "مشفى سلطان بيلي العام", "operator": "Sağlık Bakanlığı", "operator:type": "government", "operator:wikidata": "Q4294365", "phone": "+90 216 564 2400"}}, {"name": "Sarıyer Hamidiye Etfal Eğitim ve Araştırma Hastanesi", "latitude": 41.1578154, "longitude": 29.0275609, "source": "osm", "_tags": {"amenity": "hospital", "healthcare": "hospital", "name": "Sarıyer Hamidiye Etfal Eğitim ve Araştırma Hastanesi", "operator": "Sağlık Bakanlığı", "operator:wikidata": "Q4294365"}}, {"name": "Girne Aile Sağlığı Merkezi", "latitude": 40.9428437, "longitude": 29.1392549, "source": "osm", "_tags": {"amenity": "hospital", "healthcare": "hospital", "name": "Girne Aile Sağlığı Merkezi", "not:operator:wikidata": "Q4294365", "operator": "TC. Sağlık Bakanlığı", "operator:type": "government", "wheelchair": "yes"}}, {"name": "Kartal Kızılay Hastanesi", "latitude": 40.890892, "longitude": 29.1819778, "source": "osm", "_tags": {"addr:city": "İstanbul", "addr:district": "Kartal", "addr:housenumber": "30", "addr:neighbourhood": "Yukarı Mahallesi", "addr:street": "Kızılay Bulvarı", "amenity": "hospital", "email": "info@kizilaysaglik.com.tr", "emergency": "yes", "healthcare": "hospital", "image": "https://www.kizilaysaglik.com.tr/media/1nzirypn/kartal.png", "name": "Kartal Kızılay Hastanesi", "operator": "Kızılay", "operator:type": "private", "phone": "+90 216 473 20 50", "website": "https://www.kizilaysaglik.com.tr/hastanelerimiz/turk-kizilay-ozel-kartal-hastanesi/"}}, {"name": "Kadıköy Verem Savaş Dispanseri", "latitude": 40.992901, "longitude": 29.0333551, "source": "osm", "_tags": {"addr:city": "İstanbul", "addr:district": "Kadıköy", "addr:housenumber": "7", "addr:neighbourhood": "Kasımpaşa Mahallesi", "addr:street": "Kızılay Sokağı", "amenity": "hospital", "healthcare": "hospital", "healthcare:speciality": "radiology;tüberküloz", "image": "https://1.bp.blogspot.com/-pob7tpb3FAs/Wq6vSDTZFoI/AAAAAAAAEuI/TGuHXJ0C9cY5X1Mf4mf4I_ecYMPRNnjrACLcBGAs/s1600/dispanser.jpg", "name": "Kadıköy Verem Savaş Dispanseri", "not:operator:wikidata": "Q4294365", "operator": "TC. Sağlık Bakanlığı", "operator:type": "government", "phone": "+90 216 336 02 29", "website": "http://www.istveremsavder.org", "wikidata": "Q6072506", "wikipedia": "tr:Verem Savaş Dispanseri"}}, {"name": "Çekmeköy İlçe Sağlık Müdürlüğü", "latitude": 41.0368674, "longitude": 29.1757999, "source": "osm", "_tags": {"addr:city": "İstanbul", "addr:district": "Çekmeköy", "addr:housenumber": "21", "addr:neighbourhood": "Merkez Mahallesi", "addr:street": "Yunus Emre Caddesi", "amenity": "hospital", "healthcare": "hospital", "name": "Çekmeköy İlçe Sağlık Müdürlüğü", "not:operator:wikidata": "Q4294365", "operator": "TC Sağlık Bakanlığı", "operator:type": "government"}}, {"name": "Üsküdar Cezmi Or Verem Savaş Dispanseri", "latitude": 41.0180087, "longitude": 29.012179, "source": "osm", "_tags": {"addr:city": "İstanbul", "addr:district": "Uskudar", "addr:housenumber": "17", "addr:neighbourhood": "salacak Mahallesi", "addr:street": "Bestekar Selahattin Pınar Sokağı", "amenity": "hospital", "healthcare": "hospital", "healthcare:speciality": "radiology;tüberküloz", "name": "Üsküdar Cezmi Or Verem Savaş Dispanseri", "not:operator:wikidata": "Q4294365", "operator": "Sağlık Bakanlığı", "operator:type": "government", "phone": "+90 216 553 13 02", "website": "http://www.istveremsavder.org/", "wikidata": "Q6072506", "wikipedia": "tr:Verem Savaş Dispanseri"}}, {"name": "Ümraniye Verem Savaş Dispanseri", "latitude": 41.0299978, "longitude": 29.0894173, "source": "osm", "_tags": {"addr:city": "İstanbul", "addr:district": "Ümraniye", "addr:housenumber": "4", "addr:neighbourhood": "Atatürk Mahallesi", "addr:postcode": "34764", "addr:street": "Burgaz Sokağı", "amenity": "hospital", "healthcare": "hospital", "healthcare:speciality": "radiology", "name": "Ümraniye Verem Savaş Dispanseri", "not:operator:wikidata": "Q4294365", "operator": "Sağlık Bakanlığı", "operator:type": "government", "phone": "+9216 316 24 18", "website": "http://www.istveremsavder.org", "wikidata": "Q6072506", "wikipedia": "tr:Verem Savaş Dispanseri"}}, {"name": "Kartal Dr. Lütfi Kırdar Eğitim ve Araştırma Hastanesi Büyükada Ek Hizmet Binası", "latitude": 40.8699817, "longitude": 29.1278961, "source": "osm", "_tags": {"amenity": "hospital", "healthcare": "hospital", "name": "Kartal Dr. Lütfi Kırdar Eğitim ve Araştırma Hastanesi Büyükada Ek Hizmet Binası"}}, {"name": "Seyrantepe Hamidiye Etfal Eğitim ve Araştırma Hastanesi", "latitude": 41.1036639, "longitude": 28.996234, "source": "osm", "_tags": {"addr:city": "İstanbul", "addr:district": "Sarıyer", "addr:housenumber": "1", "addr:neighbourhood": "Huzur", "addr:postcode": "34396", "addr:street": "Cumhuriyet ve Demokrasi Caddesi", "amenity": "hospital", "emergency": "yes", "fax": "+90 212 373 5252", "healthcare": "hospital", "name": "Seyrantepe Hamidiye Etfal Eğitim ve Araştırma Hastanesi", "name:en": "Seyrantepe Hamidiye Etfal Training and Research Hospital", "operator": "Sağlık Bakanlığı", "operator:type": "government", "operator:wikidata": "Q4294365", "phone": "+90 212 373 5000"}}, {"name": "Eyüpsultan Devlet Hastanesi", "latitude": 41.0574382, "longitude": 28.9407454, "source": "osm", "_tags": {"addr:city": "İstanbul", "addr:district": "Eyüpsultan", "addr:housenumber": "57", "addr:neighbourhood": "Merkez", "addr:postcode": "34050", "addr:street": "Silahtarağa Caddesi", "alt_name": "Eyüpsultan Hastanesi Merkez Polikliniği", "amenity": "hospital", "email": "istanbuldhs7@saglik.gov.tr", "emergency": "yes", "fax": "+90 212 417 2915", "healthcare": "hospital", "name": "Eyüpsultan Devlet Hastanesi", "operator": "Sağlık Bakanlığı", "operator:wikidata": "Q4294365", "phone": "+90 212 417 2900", "website": "https://eyupdh.saglik.gov.tr/"}}, {"name": "Mercan Hastanesi", "latitude": 40.8283994, "longitude": 29.307574, "source": "osm", "_tags": {"addr:housenumber": "52", "amenity": "hospital", "building": "hospital", "building:material": "concrete", "email": "info@mercanhastanesi.com", "healthcare": "hospital", "name": "Mercan Hastanesi", "phone": "444 0 704", "website": "https://www.mercanhastanesi.com/"}}, {"name": "Altıntepe Kızılay", "latitude": 40.954997, "longitude": 29.1045676, "source": "osm", "_tags": {"amenity": "hospital", "healthcare": "hospital", "healthcare:speciality": "general", "name": "Altıntepe Kızılay", "operator": "Kızılay"}}, {"name": "Özel Bölge Hastanesi", "latitude": 41.0056524, "longitude": 29.2154685, "source": "osm", "_tags": {"amenity": "hospital", "emergency": "yes", "healthcare": "hospital", "name": "Özel Bölge Hastanesi", "wheelchair": "yes"}}, {"name": "", "latitude": 40.9818746, "longitude": 29.2209746, "source": "osm", "_tags": {"amenity": "hospital", "healthcare": "hospital", "operator": "Sağlık Bakanlığı", "operator:type": "government", "operator:wikidata": "Q4294365", "wheelchair": "yes"}}, {"name": "", "latitude": 40.9820771, "longitude": 29.2219547, "source": "osm", "_tags": {"amenity": "hospital", "healthcare": "hospital", "wheelchair": "yes"}}, {"name": "Medical Park Hastanesi Ataşehir", "latitude": 40.9878142, "longitude": 29.1443658, "source": "osm", "_tags": {"addr:city": "İstanbul", "addr:district": "Ataşehir", "addr:housenumber": "1", "addr:neighbourhood": "Kayışdağı Mahallesi", "addr:postcode": "34755", "addr:street": "Raci Sokağı", "amenity": "hospital", "building": "hospital", "email": "atasehir@medarhastanesi.com.tr", "healthcare": "hospital", "image": "https://www.medicalpark.com.tr/uploads/2024-08-26%20(1).jpg", "name": "Medical Park Hastanesi Ataşehir", "operator": "Medical Park", "operator:type": "private", "operator:wikidata": "Q6073312", "website": "https://www.medicalpark.com.tr/atasehir-hastanesi/h-79"}}, {"name": "Kadıköy Florence Nightingale Tıp Merkezi", "latitude": 40.9809893, "longitude": 29.0424148, "source": "osm", "_tags": {"addr:city": "İstanbul", "addr:district": "Kadıköy", "addr:housenumber": "69", "addr:neighbourhood": "Feneryolu Mahallesi", "addr:postcode": "34724", "addr:street": "Bağdat Caddesi", "amenity": "hospital", "building": "hospital", "building:levels": "5", "healthcare": "hospital", "name": "Kadıköy Florence Nightingale Tıp Merkezi", "website": "https://www.florence.com.tr/kadikoy-florence-nightingale-tip-merkezi"}}, {"name": "Kadıköy Belediyesi Dr. Rana Beşe Sağlık Polikinliği", "latitude": 40.987952, "longitude": 29.0482827, "source": "osm", "_tags": {"amenity": "hospital", "healthcare": "hospital", "name": "Kadıköy Belediyesi Dr. Rana Beşe Sağlık Polikinliği", "operator": "Kadıköy Belediyesi", "operator:type": "government", "website": "https://www.saglikpoliklinigi.org/"}}, {"name": "Bayındır Hastanesi İçerenköy", "latitude": 40.9669337, "longitude": 29.1105579, "source": "osm", "_tags": {"amenity": "hospital", "building": "no", "emergency": "yes", "healthcare": "hospital", "name": "Bayındır Hastanesi İçerenköy"}}, {"name": "Dünya Göz Suadiye", "latitude": 40.9611153, "longitude": 29.0750201, "source": "osm", "_tags": {"amenity": "hospital", "building": "hospital", "healthcare": "hospital", "healthcare:speciality": "ophthalmology", "name": "Dünya Göz Suadiye", "website": "https://www.dunyagoz.com/tr/merkezlerimiz/yurt-ici/istanbul-suadiye/genel-tanitim"}}, {"name": "Başkent Üniversitesi İstanbul Sağlık Uygulama ve Araştırma Merkezi Hastanesi", "latitude": 41.0249082, "longitude": 29.0411947, "source": "osm", "_tags": {"addr:city": "İstanbul", "addr:district": "Üsküdar", "addr:housenumber": "7", "addr:neighbourhood": "Altunizade Mahallesi", "addr:postcode": "34662", "addr:street": "Oymacı Sokağı", "amenity": "hospital", "healthcare": "hospital", "name": "Başkent Üniversitesi İstanbul Sağlık Uygulama ve Araştırma Merkezi Hastanesi", "website": "https://istanbulbaskentuniversitesi.com/", "wikidata": "Q113991174", "wikimedia_commons": "Category:Başkent University Istanbul Hospital"}}, {"name": "Tuzla Ağız ve Diş Sağlığı Polikliniği", "latitude": 40.8236993, "longitude": 29.3539059, "source": "osm", "_tags": {"addr:city": "İstanbul - Kocaeli İl Sınırı", "addr:housenumber": "1", "addr:neighbourhood": "Şifa Mahallesi", "addr:postcode": "34950", "addr:street": "Hanzade Sokağı", "amenity": "hospital", "emergency": "no", "healthcare": "hospital", "healthcare:speciality": "dentistry", "name": "Tuzla Ağız ve Diş Sağlığı Polikliniği", "operator": "Pendik Ağız ve Diş Sağlığı Hastanesi", "operator:type": "public"}}, {"name": "", "latitude": 40.9725306, "longitude": 29.2454335, "source": "osm", "_tags": {"amenity": "hospital", "healthcare": "hospital"}}, {"name": "", "latitude": 41.0956766, "longitude": 29.0535718, "source": "osm", "_tags": {"amenity": "hospital", "healthcare": "hospital"}}, {"name": "", "latitude": 41.0956719, "longitude": 29.0539131, "source": "osm", "_tags": {"amenity": "hospital", "healthcare": "hospital"}}, {"name": "", "latitude": 41.09542, "longitude": 29.053424, "source": "osm", "_tags": {"amenity": "hospital", "healthcare": "hospital"}}, {"name": "", "latitude": 41.0953878, "longitude": 29.0536062, "source": "osm", "_tags": {"amenity": "hospital", "healthcare": "hospital"}}, {"name": "", "latitude": 41.0953666, "longitude": 29.0537957, "source": "osm", "_tags": {"amenity": "hospital", "healthcare": "hospital"}}, {"name": "", "latitude": 41.0963888, "longitude": 29.0536187, "source": "osm", "_tags": {"amenity": "hospital", "healthcare": "hospital"}}, {"name": "Yalova Eğitim ve Araştırma Hastanesi", "latitude": 40.6317697, "longitude": 29.2658406, "source": "osm", "_tags": {"addr:city": "Yalova", "amenity": "hospital", "emergency": "yes", "healthcare": "hospital", "name": "Yalova Eğitim ve Araştırma Hastanesi", "operator": "Sağlık Bakanlığı", "operator:wikidata": "Q4294365", "website": "https://yalovadh.saglik.gov.tr/"}}, {"name": "Kağıthane Kızılay Hastanesi", "latitude": 41.0826748, "longitude": 28.9708833, "source": "osm", "_tags": {"amenity": "hospital", "building": "hospital", "healthcare": "hospital", "name": "Kağıthane Kızılay Hastanesi", "name:ar": "مستشفى قزل اي عملية", "operator": "Kızılay"}}, {"name": "Acıbadem Maslak Hastanesi", "latitude": 41.127429, "longitude": 29.0251976, "source": "osm", "_tags": {"amenity": "hospital", "emergency": "yes", "healthcare": "hospital", "name": "Acıbadem Maslak Hastanesi", "operator": "Acıbadem", "operator:wikidata": "Q19610384"}}, {"name": "", "latitude": 41.0024779, "longitude": 29.0453681, "source": "osm", "_tags": {"amenity": "hospital", "healthcare": "hospital"}}, {"name": "İstanbul Meslek Hastalıkları Hastanesi", "latitude": 40.9490102, "longitude": 29.1387126, "source": "osm", "_tags": {"amenity": "hospital", "healthcare": "hospital", "name": "İstanbul Meslek Hastalıkları Hastanesi"}}, {"name": "Acıbadem Ataşehir Hastanesi", "latitude": 40.9944105, "longitude": 29.1268805, "source": "osm", "_tags": {"amenity": "hospital", "healthcare": "hospital", "name": "Acıbadem Ataşehir Hastanesi", "operator": "Acıbadem", "operator:type": "private", "operator:wikidata": "Q19610384"}}, {"name": "", "latitude": 40.8735847, "longitude": 29.2535365, "source": "osm", "_tags": {"amenity": "hospital", "healthcare": "hospital"}}, {"name": "Bursa Gemlik Muammer Ağım Devlet Hastanesi", "latitude": 40.4397277, "longitude": 29.1511086, "source": "osm", "_tags": {"amenity": "hospital", "healthcare": "hospital", "name": "Bursa Gemlik Muammer Ağım Devlet Hastanesi", "operator": "Sağlık Bakanlığı", "operator:type": "government", "operator:wikidata": "Q4294365"}}, {"name": "Acıbadem Kartal Hastanesi", "latitude": 40.886381, "longitude": 29.2072506, "source": "osm", "_tags": {"addr:city": "İstanbul", "addr:district": "Kartal", "addr:housenumber": "1", "addr:neighbourhood": "Çavuşoğlu", "addr:postcode": "34873", "addr:street": "Sanayi Caddesi", "amenity": "hospital", "emergency": "yes", "healthcare": "hospital", "name": "Acıbadem Kartal Hastanesi", "operator": "Acıbadem", "operator:type": "private", "operator:wikidata": "Q19610384"}}, {"name": "Medipol Üniversitesi Çamlıca Hastanesi", "latitude": 41.0233174, "longitude": 29.082057, "source": "osm", "_tags": {"addr:city": "istanbul", "addr:district": "üsküdar", "addr:housenumber": "100", "addr:neighbourhood": "bulgurlu", "addr:postcode": "34696", "addr:street": "Alemdağ Caddesi", "amenity": "hospital", "emergency": "yes", "healthcare": "hospital", "name": "Medipol Üniversitesi Çamlıca Hastanesi", "operator": "Medipol Üniversitesi", "operator:type": "private"}}, {"name": "Megapol Hastanesi", "latitude": 40.9161211, "longitude": 29.1994761, "source": "osm", "_tags": {"amenity": "hospital", "healthcare": "hospital", "name": "Megapol Hastanesi", "website": "https://megapolhastanesi.com.tr/"}}, {"name": "Aksu Özel Göztepe Hastanesi", "latitude": 40.9877901, "longitude": 29.061993, "source": "osm", "_tags": {"addr:city": "İstanbul", "addr:district": "Kadıköy", "addr:housenumber": "32", "addr:neighbourhood": "Merdivenköy Mahallesi", "addr:postcode": "34732", "addr:street": "Şahika Sokağı", "amenity": "hospital", "healthcare": "hospital", "name": "Aksu Özel Göztepe Hastanesi", "website": "https://aksugoztepehastanesi.com.tr"}}, {"name": "Pendik Medipol Üniversitesi Hastanesi", "latitude": 40.8845604, "longitude": 29.2351303, "source": "osm", "_tags": {"amenity": "hospital", "emergency": "yes", "healthcare": "hospital", "name": "Pendik Medipol Üniversitesi Hastanesi"}}, {"name": "", "latitude": 40.9792562, "longitude": 29.1107195, "source": "osm", "_tags": {"amenity": "hospital", "healthcare": "hospital"}}, {"name": "", "latitude": 40.9879012, "longitude": 29.1444194, "source": "osm", "_tags": {"amenity": "hospital", "healthcare": "hospital"}}, {"name": "", "latitude": 40.9333566, "longitude": 29.1240497, "source": "osm", "_tags": {"amenity": "hospital", "healthcare": "hospital"}}, {"name": "İbni Sina Hastanesi", "latitude": 40.9008762, "longitude": 29.1672073, "source": "osm", "_tags": {"amenity": "hospital", "healthcare": "hospital", "name": "İbni Sina Hastanesi"}}, {"name": "", "latitude": 41.0375519, "longitude": 29.2350859, "source": "osm", "_tags": {"amenity": "hospital", "healthcare": "hospital", "operator": "Sağlık Bakanlığı", "operator:type": "government", "operator:wikidata": "Q4294365"}}, {"name": "Op. Dr. Arash Jafari", "latitude": 41.0762069, "longitude": 29.012872, "source": "osm", "_tags": {"addr:city": "İstanbul", "addr:district": "Levent", "addr:housenumber": "171/82", "addr:neighbourhood": "Esentepe", "addr:postcode": "34394", "addr:street": "Büyükdere Caddesi", "amenity": "hospital", "contact:facebook": "https://www.facebook.com/profile.php?id=61571894429050", "emergency": "no", "healthcare": "hospital", "healthcare:speciality": "plastic_surgery", "name": "Op. Dr. Arash Jafari", "opening_hours": "Mo-Su 10:00-18:00", "operator:type": "public"}}, {"name": "Validebağ Devlet Hastanesi", "latitude": 41.0122162, "longitude": 29.0408363, "source": "osm", "_tags": {"addr:city": "Üsküdar/İstanbul", "amenity": "hospital", "emergency": "yes", "healthcare": "hospital", "name": "Validebağ Devlet Hastanesi", "name:en": "Validebag State Hospital", "type": "multipolygon"}}, {"name": "Orion Surgery Center", "latitude": 41.0901207, "longitude": 28.9819751, "source": "osm", "_tags": {"amenity": "hospital", "healthcare": "hospital", "name": "Orion Surgery Center", "type": "multipolygon"}}]