[{"name": "", "latitude": 40.7220494, "longitude": 19.5619361, "source": "osm", "_tags": {"amenity": "hospital", "emergency": "yes"}}, {"name": "Farmaci", "latitude": 41.3946196, "longitude": 19.6552766, "source": "osm", "_tags": {"amenity": "hospital", "name": "Farmaci"}}, {"name": "Qendra dentare Vini", "latitude": 41.393604, "longitude": 19.6545088, "source": "osm", "_tags": {"amenity": "hospital", "name": "Qendra dentare Vini"}}, {"name": "Qender Dentare", "latitude": 41.3928555, "longitude": 19.6553456, "source": "osm", "_tags": {"amenity": "hospital", "name": "Qender Dentare"}}, {"name": "Qender veterianre", "latitude": 41.3892034, "longitude": 19.6569673, "source": "osm", "_tags": {"amenity": "hospital", "name": "Qender veterianre"}}, {"name": "Klinika private Ana", "latitude": 41.3970859, "longitude": 19.6523013, "source": "osm", "_tags": {"amenity": "hospital", "name": "Klinika private Ana"}}, {"name": "Qendra Spitalore Marqinet", "latitude": 41.4017561, "longitude": 19.6492485, "source": "osm", "_tags": {"amenity": "hospital", "name": "Qendra Spitalore Marqinet"}}, {"name": "Diamond Dental", "latitude": 41.326121, "longitude": 19.8036474, "source": "osm", "_tags": {"addr:street": "Rruga e Kavajës", "amenity": "hospital", "emergency": "no", "healthcare": "hospital", "name": "Diamond Dental"}}, {"name": "Spitali Psikiatrik Ali Mihali", "latitude": 40.4523051, "longitude": 19.4975627, "source": "osm", "_tags": {"amenity": "hospital", "name": "Spitali Psikiatrik Ali Mihali"}}, {"name": "Klinika Eltion", "latitude": 41.3389343, "longitude": 19.803127, "source": "osm", "_tags": {"addr:street": "Rruga Don Bosko", "amenity": "hospital", "healthcare": "hospital", "name": "Klinika Eltion"}}, {"name": "Ambulanca Qendrore \"Dimal\"", "latitude": 40.7725529, "longitude": 19.8778813, "source": "osm", "_tags": {"addr:street": "Rruga \"Trifon Goga\"", "amenity": "hospital", "healthcare": "hospital", "name": "Ambulanca Qendrore \"Dimal\"", "name:en": "Central Ambulance of Dimal", "name:sq": "Ambulanca Qendrore \"Dimal\""}}, {"name": "Psikiatria Infantile", "latitude": 41.3388588, "longitude": 19.8362655, "source": "osm", "_tags": {"amenity": "clinic", "healthcare": "hospital", "healthcare:speciality": "child_psychiatry", "name": "Psikiatria Infantile"}}, {"name": "Psikiatria", "latitude": 41.3385891, "longitude": 19.83709, "source": "osm", "_tags": {"amenity": "clinic", "healthcare": "hospital", "healthcare:speciality": "child_psychiatry;psychiatry", "name": "Psikiatria"}}, {"name": "Qëndra Shendetsore \"Thoma Rrudha\"", "latitude": 40.6842951, "longitude": 19.6185463, "source": "osm", "_tags": {"addr:postcode": "9307", "addr:street": "Thoma Rrudha", "amenity": "hospital", "healthcare": "hospital", "name": "Qëndra Shendetsore \"Thoma Rrudha\"", "name:en": "Health Center \"Thoma Rrudha\"", "opening_hours": "24/7"}}, {"name": "Ambulanca Cfir", "latitude": 40.6338263, "longitude": 19.8180878, "source": "osm", "_tags": {"addr:city": "Cfir", "addr:street": "Rruga Cfir - Aranitas.", "amenity": "hospital", "healthcare": "hospital", "name": "Ambulanca Cfir"}}, {"name": "Kryqi i Kuq", "latitude": 41.3276164, "longitude": 19.4534554, "source": "osm", "_tags": {"amenity": "hospital", "healthcare": "hospital", "name": "Kryqi i Kuq"}}, {"name": "Qëndra shëndetësore", "latitude": 40.7138017, "longitude": 19.8304859, "source": "osm", "_tags": {"amenity": "hospital", "emergency": "yes", "healthcare": "hospital", "name": "Qëndra shëndetësore"}}, {"name": "Spitali i Zemres", "latitude": 41.3275138, "longitude": 19.8052715, "source": "osm", "_tags": {"addr:city": "Tirana", "addr:street": "Rruga Naim Frashëri", "amenity": "hospital", "healthcare": "hospital", "name": "Spitali i Zemres"}}, {"name": "", "latitude": 41.3423825, "longitude": 19.8334855, "source": "osm", "_tags": {"addr:postcode": "1001", "addr:street": "Rruga e Dibrës", "amenity": "hospital", "email": "infor@yourmedicalclinic.al", "healthcare": "hospital", "name:en": "Your Medical Clinic", "phone": "+355696277162", "website": "https://yourmedicalclinic.al/"}}, {"name": "Dentisti a Tirana", "latitude": 41.3215032, "longitude": 19.8138269, "source": "osm", "_tags": {"addr:city": "Tiranë", "addr:housenumber": "30", "addr:postcode": "1019", "addr:street": "Rruga Sami Frashëri", "amenity": "hospital", "healthcare": "hospital", "healthcare:speciality": "general;dental_oral_maxillo_facial_surgery;dentist", "name": "Dentisti a Tirana"}}, {"name": "Spitali Gjerman", "latitude": 41.3263577, "longitude": 19.8062561, "source": "osm", "_tags": {"addr:city": "Tirana", "addr:street": "Rruga Nikolla Llena", "amenity": "hospital", "building": "yes", "healthcare": "hospital", "name": "Spitali Gjerman", "name:en": "German Hospital", "website": "https://www.spitaligjerman.com/", "wikidata": "Q5551124", "wikipedia": "en:German Hospital in Tirana"}}, {"name": "Spitali Kavajë", "latitude": 41.1826407, "longitude": 19.5479589, "source": "osm", "_tags": {"addr:street": "Rruga Qazim Kariqi", "amenity": "hospital", "healthcare": "hospital", "name": "Spitali Kavajë", "wheelchair": "yes"}}, {"name": "Spitali Rajonal Fier", "latitude": 40.7239167, "longitude": 19.5606532, "source": "osm", "_tags": {"amenity": "hospital", "building": "yes", "name": "Spitali Rajonal Fier"}}, {"name": "Spitali Amerikan Fier", "latitude": 40.7236881, "longitude": 19.5599263, "source": "osm", "_tags": {"addr:city": "Fier", "addr:street": "Rr Çameria", "amenity": "hospital", "building": "hospital", "healthcare": "hospital", "healthcare:speciality": "general;gynaecology;surgery;cardiology;oncology", "name": "Spitali Amerikan Fier", "operator": "Spitali Amerikan sh.a", "operator:type": "private", "phone": "+35534 232 123", "wikidata": "Q13046317", "wikipedia": "sq:Spitali amerikan"}}, {"name": "MediCare Hospital", "latitude": 41.3337295, "longitude": 19.8040587, "source": "osm", "_tags": {"addr:city": "Tirana", "addr:street": "Sheshi Karl Topia", "amenity": "hospital", "building": "yes", "building:levels": "2", "healthcare": "hospital", "name": "MediCare Hospital"}}, {"name": "Qendra Spitalore Vorë", "latitude": 41.391747, "longitude": 19.6586778, "source": "osm", "_tags": {"addr:city": "Vorë", "addr:street": "Rruga Shaqo Derja", "amenity": "hospital", "healthcare": "hospital", "name": "Qendra Spitalore Vorë"}}, {"name": "Qendra Komunitare e Shëndetit Mendor nr.1", "latitude": 41.3200938, "longitude": 19.827975, "source": "osm", "_tags": {"addr:city": "Tiranë", "addr:street": "Stavro Vinaju", "amenity": "hospital", "building": "hospital", "healthcare": "hospital", "level": "2", "name": "Qendra Komunitare e Shëndetit Mendor nr.1"}}, {"name": "Qendra Spitalore Universitare \"Nënë Teresa\"", "latitude": 41.3403651, "longitude": 19.8330444, "source": "osm", "_tags": {"addr:housenumber": "372", "addr:street": "Rruga e Dibrës", "amenity": "hospital", "barrier": "fence", "email": "info@qsut.gov.al", "emergency": "yes", "fence_type": "wire", "healthcare": "hospital", "name": "Qendra Spitalore Universitare \"Nënë Teresa\"", "phone": "+35542349233;+35542222235;08002828;+35542349217", "website": "https://www.qsut.gov.al/", "wikidata": "Q6917439", "wikipedia": "sq:Qendra Spitalore Universitare \"Nënë Tereza\""}}, {"name": "Spitali", "latitude": 40.4781059, "longitude": 19.5008215, "source": "osm", "_tags": {"addr:city": "Vlorë", "addr:housenumber": "1", "addr:street": "Mitaq Sallata", "amenity": "hospital", "emergency": "yes", "healthcare": "hospital", "name": "Spitali", "source:outline": "Bing"}}, {"name": "", "latitude": 40.8636867, "longitude": 19.7067921, "source": "osm", "_tags": {"amenity": "hospital"}}, {"name": "Spitali Amerikan 2", "latitude": 41.3421069, "longitude": 19.8324628, "source": "osm", "_tags": {"addr:city": "Tirana", "addr:postcode": "1000", "addr:street": "Rruga e Dibrës", "amenity": "hospital", "building": "hospital", "check_date": "2024-07-15", "emergency": "yes", "healthcare": "hospital", "healthcare:speciality": "general;gynaecology;surgery;cardiology;oncology", "name": "Spitali Amerikan 2", "operator": "Spitali Amerikan sh.a", "operator:type": "private", "phone": "04 235 7535", "website": "https://spitaliamerikan.com/", "wheelchair": "yes", "wikidata": "Q13046317", "wikipedia": "sq:Spitali Amerikan"}}, {"name": "Spitali Gjerman 2", "latitude": 41.3370881, "longitude": 19.8318623, "source": "osm", "_tags": {"addr:city": "Tirana", "addr:street": "Rruga Kongresi i Manastirit", "amenity": "hospital", "building": "yes", "healthcare": "hospital", "name": "Spitali Gjerman 2", "name:en": "German Hospital 2", "website": "https://spitaligjerman.com"}}, {"name": "Spitali Universitar i Traumës (SUT)", "latitude": 41.3431709, "longitude": 19.7953117, "source": "osm", "_tags": {"addr:city": "Tirana", "addr:street": "Rruga Lord Bajroni", "amenity": "hospital", "email": "info.trauma@sut.gov.al", "healthcare": "hospital", "name": "Spitali Universitar i Traumës (SUT)", "phone": "+35544330470", "short_name": "SUT", "website": "https://sut.gov.al/", "wikidata": "Q13046315", "wikipedia": "sq:Spitali Ushtarak në Tiranë"}}, {"name": "Spitali Amerikan 1", "latitude": 41.3435766, "longitude": 19.7958292, "source": "osm", "_tags": {"addr:city": "Tiranë", "addr:street": "Rruga Lord Bajron", "amenity": "hospital", "building": "hospital", "building:levels": "2", "healthcare": "hospital", "healthcare:speciality": "general;gynaecology;surgery;cardiology;oncology", "name": "Spitali Amerikan 1", "operator": "Spitali Amerikan sh.a", "operator:type": "private", "phone": "04 235 7535", "wikidata": "Q13046317", "wikipedia": "sq:Spitali Amerikan"}}, {"name": "Spitali Universitar Obstetrik-Gjinekologjik \"Mbretëresha Geraldinë\"", "latitude": 41.3346811, "longitude": 19.8173994, "source": "osm", "_tags": {"alt_name": "Materniteti \"Mbretëresha Geraldinë\"", "amenity": "hospital", "email": "info@suogjgeraldine.gov.al", "fence_type": "wire", "healthcare": "hospital", "name": "Spitali Universitar Obstetrik-Gjinekologjik \"Mbretëresha Geraldinë\"", "phone": "+35542222609;+35542225516", "website": "https://www.suogjgeraldine.gov.al/", "wheelchair": "limited", "wikidata": "Q64549062", "wikimedia_commons": "Category:Mbretëresha Geraldinë Maternity"}}, {"name": "Spitali Amerikan Laboratori Qendror", "latitude": 41.3340958, "longitude": 19.8171337, "source": "osm", "_tags": {"addr:city": "Tirana", "addr:housenumber": "40", "addr:street": "Bulevardi Zogu i Parë", "amenity": "hospital", "building": "yes", "building:levels": "3", "healthcare": "laboratory", "name": "Spitali Amerikan Laboratori Qendror", "operator": "Spitali Amerikan sh.a", "operator:type": "private", "wikidata": "Q13046317", "wikipedia": "sq:Spitali Amerikan"}}, {"name": "Ish Spitali", "latitude": 40.4940292, "longitude": 19.2814521, "source": "osm", "_tags": {"addr:city": "Sazan", "amenity": "hospital", "building": "yes", "name": "Ish Spitali", "name:en": "Old Hospital", "name:mk": "Стара болница"}}, {"name": "Spitali Amavita", "latitude": 41.3213854, "longitude": 19.8295549, "source": "osm", "_tags": {"addr:city": "Tirana", "addr:country": "AL", "addr:postcode": "1000", "addr:street": "Rruga Pjetër Budi", "amenity": "hospital", "building": "yes", "building:levels": "4", "healthcare": "hospital", "name": "Spitali Amavita", "website": "https://www.spitaliamavita.al/"}}, {"name": "Spitali Amerikan Durrës", "latitude": 41.3257674, "longitude": 19.4458644, "source": "osm", "_tags": {"addr:city": "Durrës", "addr:postcode": "2000", "addr:street": "Ahmet Ramzoti", "amenity": "hospital", "building": "hospital", "building:levels": "4", "healthcare": "hospital", "healthcare:speciality": "general;gynaecology;surgery;cardiology;oncology", "name": "Spitali Amerikan Durrës", "operator": "Spitali Amerikan sh.a", "operator:type": "private", "phone": "052 222 333", "wikidata": "Q13046317", "wikipedia": "sq:Spitali Amerikan"}}, {"name": "Spitali Iniversitar Shefqet Ndroqi", "latitude": 41.3138433, "longitude": 19.8441868, "source": "osm", "_tags": {"amenity": "hospital", "barrier": "fence", "fence_type": "wire", "healthcare": "hospital", "name": "Spitali Iniversitar Shefqet Ndroqi"}}, {"name": "Salus", "latitude": 41.344375, "longitude": 19.7621716, "source": "osm", "_tags": {"addr:city": "Tirana", "addr:housenumber": "16", "addr:street": "Rruga Vidhëgjat", "amenity": "hospital", "barrier": "wall", "healthcare": "hospital", "name": "Salus", "wall": "dry_stone", "website": "https://www.salus.al/"}}, {"name": "Spitali Rajonal Memorial Fier", "latitude": 40.7470084, "longitude": 19.5546907, "source": "osm", "_tags": {"amenity": "hospital", "check_date": "2024-05-04", "emergency": "yes", "healthcare": "hospital", "name": "Spitali Rajonal Memorial Fier", "website": "https://srmemorial-fier.al/"}}, {"name": "Spitali i Ballshit", "latitude": 40.5963926, "longitude": 19.7308171, "source": "osm", "_tags": {"addr:city": "Ballsh", "addr:street": "Zenel Hekali", "amenity": "hospital", "emergency": "yes", "healthcare": "hospital", "name": "Spitali i Ballshit", "operator": "public"}}, {"name": "Spital Universitar Obstetrik Gjinekolgjik Koço Gliozheni", "latitude": 41.3313277, "longitude": 19.8381773, "source": "osm", "_tags": {"amenity": "hospital", "check_date": "2024-05-24", "healthcare": "hospital", "internet_access": "no", "name": "Spital Universitar Obstetrik Gjinekolgjik Koço Gliozheni", "wheelchair": "limited"}}, {"name": "ASHR - Autoriteti Shendetësor Rajonal, Tiranë", "latitude": 41.3219049, "longitude": 19.826548, "source": "osm", "_tags": {"addr:city": "Tirana", "addr:street": "Qamil Guranjaku", "amenity": "hospital", "healthcare": "hospital", "name": "ASHR - Autoriteti Shendetësor Rajonal, Tiranë", "name:en": "ASHR - Regional Health Authority, Tirana", "note": "ASHR eshte institucion shendetesor kerkimor. Po keshtu edhe porta e pare e pritjes se pacienteve ne Tirane."}}, {"name": "", "latitude": 41.3389036, "longitude": 19.8368165, "source": "osm", "_tags": {"addr:city": "Tirana", "amenity": "hospital", "healthcare": "hospital"}}, {"name": "Spitali Amerikan 3", "latitude": 41.3207584, "longitude": 19.7843001, "source": "osm", "_tags": {"addr:city": "Tirana", "addr:street": "Rruga Sabaudin Gabrani", "amenity": "hospital", "healthcare": "hospital", "name": "Spitali Amerikan 3", "name:en": "American Hospital 3", "opening_hours": "24/7", "operator": "Spitali Amerikan sh.a", "phone": "+355 (0) 42 35 75 35", "website": "https://spitaliamerikan.com/", "wikidata": "Q7893976", "wikipedia": "sq:Spitali Amerikan"}}, {"name": "Hygeia Hospital", "latitude": 41.3444877, "longitude": 19.7743087, "source": "osm", "_tags": {"addr:city": "Tirana", "addr:housenumber": "4", "addr:street": "Rruga Prishtina", "amenity": "hospital", "emergency": "yes", "healthcare": "hospital", "name": "Hygeia Hospital", "phone": "+35542390000", "website": "https://hygeia.al/"}}, {"name": "Spitali Durres", "latitude": 41.3264623, "longitude": 19.4443809, "source": "osm", "_tags": {"amenity": "hospital", "healthcare": "hospital", "healthcare:speciality": "emergency;urology;neurology;orthopaedics;trauma;anaesthetics;pathology;oncology;cardiology;gynaecology;paediatrics", "name": "Spitali Durres", "wheelchair": "yes"}}, {"name": "Spitali Continental", "latitude": 41.331659, "longitude": 19.8485802, "source": "osm", "_tags": {"addr:city": "Tirana", "addr:street": "Rruga Saimir Duçkollari", "amenity": "hospital", "building": "yes", "healthcare": "hospital", "name": "Spitali Continental", "website": "https://spitalicontinental.com/"}}, {"name": "", "latitude": 40.8005335, "longitude": 19.922186, "source": "osm", "_tags": {"amenity": "hospital", "healthcare": "hospital"}}, {"name": "Belsh Hospital", "latitude": 40.9794422, "longitude": 19.8888696, "source": "osm", "_tags": {"amenity": "hospital", "healthcare": "hospital", "name": "Belsh Hospital"}}, {"name": "Qendra Shëndetësore Shijak", "latitude": 41.3427135, "longitude": 19.5670656, "source": "osm", "_tags": {"amenity": "hospital", "healthcare": "hospital", "name": "Qendra Shëndetësore Shijak"}}, {"name": "Qendra Shëndetësore Rrogozhinë", "latitude": 41.077366, "longitude": 19.6670308, "source": "osm", "_tags": {"amenity": "hospital", "healthcare": "hospital", "name": "Qendra Shëndetësore Rrogozhinë"}}, {"name": "", "latitude": 41.0503897, "longitude": 19.7511715, "source": "osm", "_tags": {"amenity": "hospital", "healthcare": "hospital"}}, {"name": "Spitali Lushnjes", "latitude": 40.9339172, "longitude": 19.7113471, "source": "osm", "_tags": {"amenity": "hospital", "emergency": "yes", "healthcare": "hospital", "name": "Spitali Lushnjes"}}, {"name": "Qendra Shëndetësore Roskovec", "latitude": 40.7360423, "longitude": 19.7096627, "source": "osm", "_tags": {"amenity": "hospital", "healthcare": "hospital", "name": "Qendra Shëndetësore Roskovec"}}, {"name": "Infektivi", "latitude": 40.4779199, "longitude": 19.4996475, "source": "osm", "_tags": {"amenity": "hospital", "healthcare": "hospital", "name": "Infektivi"}}, {"name": "Spitali GVM Tiranë (Villa Maria)", "latitude": 41.3684801, "longitude": 19.7028983, "source": "osm", "_tags": {"addr:city": "Tirana", "addr:street": "Rruga Manush Peshkëpia", "amenity": "hospital", "healthcare": "hospital", "name": "Spitali GVM Tiranë (Villa Maria)", "operator": "Gruppo Villa Maria S.p.a"}}]