[{"name": "Distretto ASL SA3 di Roccadaspide", "latitude": 40.4256661, "longitude": 15.1921281, "source": "osm", "_tags": {"amenity": "hospital", "healthcare": "hospital", "name": "Distretto ASL SA3 di Roccadaspide"}}, {"name": "Santa Maria della Speranza", "latitude": 40.6150379, "longitude": 14.9726498, "source": "osm", "_tags": {"amenity": "hospital", "healthcare": "hospital", "name": "Santa Maria della Speranza"}}, {"name": "Misericordia di Montella", "latitude": 40.8401872, "longitude": 15.0269671, "source": "osm", "_tags": {"addr:city": "Montella", "addr:housenumber": "12", "addr:postcode": "83048", "addr:street": "Via Scipione Capone", "emergency": "ambulance_station", "healthcare": "hospital", "name": "Misericordia di Montella", "operator": "Fraternita di Misericordia di Montella"}}, {"name": "Pronto Soccorso", "latitude": 40.8566761, "longitude": 15.859678, "source": "osm", "_tags": {"amenity": "hospital", "emergency": "yes", "healthcare": "hospital", "name": "Pronto Soccorso"}}, {"name": "Guardia medica", "latitude": 40.5327462, "longitude": 15.3732292, "source": "osm", "_tags": {"amenity": "hospital", "emergency": "no", "name": "Guardia medica"}}, {"name": "Croce Rossa Italiana", "latitude": 40.6483516, "longitude": 15.8286253, "source": "osm", "_tags": {"amenity": "hospital", "name": "Croce Rossa Italiana"}}, {"name": "", "latitude": 41.2629345, "longitude": 15.9111099, "source": "osm", "_tags": {"access": "private", "amenity": "hospital", "healthcare": "hospital", "note": "FIXME: Clinica medica privata (convenzionata con SSN)"}}, {"name": "Polo Sanitario 'Madre Teresa di Calcutta'", "latitude": 40.633647, "longitude": 15.787191, "source": "osm", "_tags": {"addr:city": "Potenza", "addr:housenumber": "100", "addr:postcode": "85100", "addr:street": "Via del Gallitello", "amenity": "hospital", "email": "http://www.aspbasilicata.it/servizi/potenza-polo-sanitario-madre-teresa-di-calcutta", "emergency": "no", "healthcare": "hospital", "name": "Polo Sanitario 'Madre Teresa di Calcutta'", "operator": "ASP", "phone": "+39 0971 310111"}}, {"name": "Guardia Medica di Albanella", "latitude": 40.477916, "longitude": 15.1157929, "source": "osm", "_tags": {"addr:city": "Albanella", "addr:housenumber": "116", "addr:postcode": "84044", "addr:street": "Via Roma", "amenity": "hospital", "description": "Punto importante donde puede pedir consejo m√©dico", "healthcare": "hospital", "healthcare:speciality": "general", "name": "Guardia Medica di Albanella"}}, {"name": "Pietra del Sole", "latitude": 40.4930955, "longitude": 15.4148184, "source": "osm", "_tags": {"amenity": "hospital", "healthcare": "hospital", "name": "Pietra del Sole"}}, {"name": "", "latitude": 40.6387511, "longitude": 15.8361092, "source": "osm", "_tags": {"amenity": "hospital"}}, {"name": "Centro Servizi", "latitude": 41.3322804, "longitude": 15.7062624, "source": "osm", "_tags": {"addr:city": "Orta Nova", "addr:postcode": "71045", "addr:street": "Largo Mezzana", "amenity": "hospital", "healthcare": "hospital", "name": "Centro Servizi"}}, {"name": "Punto vaccinale", "latitude": 41.0674372, "longitude": 15.0585824, "source": "osm", "_tags": {"addr:city": "Grottaminarda", "addr:postcode": "83035", "addr:street": "Via Flammia", "amenity": "hospital", "healthcare": "hospital", "healthcare:speciality": "vaccination", "image": "https://www.aslavellino.it/images/2019/12/03/presidio-sanitario-di-grottaminarda-.png", "name": "Punto vaccinale", "operator": "ASL", "operator:type": "public"}}, {"name": "P.S.A.U.T. Capaccio ASL SA3", "latitude": 40.454478, "longitude": 15.004606, "source": "osm", "_tags": {"addr:city": "Capaccio Scalo", "addr:street": "Piazza Santini Carlo", "alt_name": "Guardia Medica di Capaccio", "amenity": "hospital", "healthcare": "hospital", "name": "P.S.A.U.T. Capaccio ASL SA3", "official_name": "Guardia Medica di Capaccio", "operator": "ASL", "operator:wikidata": "Q3631467", "operator:wikipedia": "it:Azienda sanitaria locale"}}, {"name": "", "latitude": 41.2721699, "longitude": 15.9188125, "source": "osm", "_tags": {"amenity": "hospital", "emergency": "yes", "healthcare": "hospital", "landuse": "orchard", "trees": "olive_trees"}}, {"name": "Azienda Ospedialiera San Carlo", "latitude": 40.8345145, "longitude": 15.3946969, "source": "osm", "_tags": {"amenity": "hospital", "name": "Azienda Ospedialiera San Carlo", "name:it": "Azienda Ospedialiera San Carlo"}}, {"name": "", "latitude": 40.6145263, "longitude": 14.9728533, "source": "osm", "_tags": {"amenity": "hospital", "healthcare": "hospital"}}, {"name": "Presidio Ospedaliero \"Maria SS. Addolorata\"", "latitude": 40.6188296, "longitude": 15.050459, "source": "osm", "_tags": {"addr:city": "Eboli", "addr:country": "IT", "addr:street": "Piazza Scuola medica Salernitana", "amenity": "hospital", "email": "poeboli@pec.aslsalerno.it", "healthcare": "hospital", "name": "Presidio Ospedaliero \"Maria SS. Addolorata\"", "phone": "+39 0828 362111"}}, {"name": "Azienda Sanitaria Locale", "latitude": 40.6032323, "longitude": 15.0477993, "source": "osm", "_tags": {"amenity": "hospital", "building": "yes", "healthcare": "hospital", "name": "Azienda Sanitaria Locale", "operator": "ASL", "operator:wikidata": "Q3631467"}}, {"name": "Azienda Sanitaria Locale", "latitude": 40.6677773, "longitude": 15.1014896, "source": "osm", "_tags": {"amenity": "hospital", "building": "yes", "name": "Azienda Sanitaria Locale"}}, {"name": "Azienda Sanitaria Locale", "latitude": 40.6148926, "longitude": 15.0673872, "source": "osm", "_tags": {"amenity": "hospital", "building": "yes", "healthcare": "hospital", "name": "Azienda Sanitaria Locale", "operator": "ASL", "operator:wikidata": "Q3631467"}}, {"name": "Ospedale G. Criscuoli", "latitude": 40.9309116, "longitude": 15.16171, "source": "osm", "_tags": {"amenity": "hospital", "healthcare": "hospital", "name": "Ospedale G. Criscuoli"}}, {"name": "Villa Maria", "latitude": 41.0481785, "longitude": 15.0265489, "source": "osm", "_tags": {"amenity": "hospital", "healthcare": "hospital", "name": "Villa Maria"}}, {"name": "ASL", "latitude": 41.1583514, "longitude": 15.3260681, "source": "osm", "_tags": {"amenity": "hospital", "healthcare": "hospital", "name": "ASL", "operator": "ASL", "operator:wikidata": "Q3631467"}}, {"name": "ASL SA Distretto Sanitario Primario", "latitude": 40.4550869, "longitude": 15.0108504, "source": "osm", "_tags": {"amenity": "hospital", "building": "yes", "healthcare": "hospital", "name": "ASL SA Distretto Sanitario Primario", "operator": "ASL", "operator:wikidata": "Q3631467", "operator:wikipedia": "it:Azienda sanitaria locale"}}, {"name": "Poliambulatorio di Muro Lucano", "latitude": 40.7559039, "longitude": 15.4953032, "source": "osm", "_tags": {"addr:city": "Muro Lucano", "addr:housenumber": "116", "addr:postcode": "85054", "addr:street": "Via San Biagio", "amenity": "hospital", "emergency": "yes", "name": "Poliambulatorio di Muro Lucano"}}, {"name": "Ospedale San Carlo", "latitude": 40.6520471, "longitude": 15.8051522, "source": "osm", "_tags": {"addr:city": "Potenza", "addr:postcode": "85100", "addr:street": "Via Potito Petrone", "alt_name": "San Carlo Azienda Ospedaliera Regionale", "amenity": "hospital", "contact:phone": "+39 0971 61111", "emergency": "yes", "healthcare": "hospital", "name": "Ospedale San Carlo", "website": "https://www.ospedalesancarlo.it/", "wikidata": "Q3886632", "wikipedia": "it:Ospedale San Carlo"}}, {"name": "Istituto di ricovero e cura a carattere scientifico - Centro regionale oncologico Basilicata", "latitude": 40.9311593, "longitude": 15.6747776, "source": "osm", "_tags": {"amenity": "hospital", "contact:phone": "+39 0972 726111", "healthcare": "hospital", "healthcare:speciality": "oncology", "name": "Istituto di ricovero e cura a carattere scientifico - Centro regionale oncologico Basilicata", "start_date": "1989", "website": "https://www.crob.it/", "wikidata": "Q3788792", "wikipedia": "it:IRCCS - CROB"}}, {"name": "", "latitude": 40.8566742, "longitude": 15.8595169, "source": "osm", "_tags": {"amenity": "hospital", "emergency": "yes", "healthcare": "hospital"}}, {"name": "", "latitude": 41.2635197, "longitude": 15.9047253, "source": "osm", "_tags": {"amenity": "hospital", "healthcare": "hospital"}}, {"name": "", "latitude": 40.9602533, "longitude": 15.8080009, "source": "osm", "_tags": {"amenity": "hospital", "healthcare": "hospital"}}, {"name": "ASL Avellino, Presidio Ospedaliero Sant'Ottone Frangipane", "latitude": 41.1485005, "longitude": 15.0844834, "source": "osm", "_tags": {"amenity": "hospital", "healthcare": "hospital", "healthcare:speciality": "Medicina_Generale;Cardiologia;Chirurgia_Generale;Ortopedia_e_traumatologia;Ostetricia_e_ginecologia", "name": "ASL Avellino, Presidio Ospedaliero Sant'Ottone Frangipane", "operator": "ASL", "operator:wikidata": "Q3631467"}}, {"name": "Ospedale Sant'Ottone Frangipane", "latitude": 41.1484382, "longitude": 15.0837499, "source": "osm", "_tags": {"amenity": "hospital", "healthcare": "hospital", "name": "Ospedale Sant'Ottone Frangipane", "wikidata": "Q54972754"}}, {"name": "Ospedale Di Gugliemo", "latitude": 41.0077232, "longitude": 15.3563024, "source": "osm", "_tags": {"amenity": "hospital", "healthcare": "hospital", "name": "Ospedale Di Gugliemo"}}, {"name": "San Francesco D'Assisi", "latitude": 40.6910424, "longitude": 15.2365623, "source": "osm", "_tags": {"amenity": "hospital", "name": "San Francesco D'Assisi"}}, {"name": "Ospedale Luigi Curto", "latitude": 40.5178086, "longitude": 15.500132, "source": "osm", "_tags": {"addr:city": "Polla", "addr:housename": "Ospedale Luigi Curto", "addr:housenumber": "84035", "addr:street": "Via Luigi Curto", "amenity": "hospital", "emergency": "yes", "healthcare": "hospital", "name": "Ospedale Luigi Curto", "phone": "+39 0975 373111"}}, {"name": "Ospedale San Giovanni di Dio", "latitude": 40.9969605, "longitude": 15.6410671, "source": "osm", "_tags": {"amenity": "hospital", "emergency": "yes", "healthcare": "hospital", "name": "Ospedale San Giovanni di Dio"}}, {"name": "Poliambulatorio", "latitude": 41.0444528, "longitude": 15.7834374, "source": "osm", "_tags": {"amenity": "hospital", "building": "yes", "emergency": "no", "name": "Poliambulatorio"}}, {"name": "", "latitude": 41.0460716, "longitude": 15.0008687, "source": "osm", "_tags": {"amenity": "hospital", "building": "yes", "emergency": "no", "healthcare": "hospital", "operator": "ASL", "operator:type": "public", "operator:wikidata": "Q3631467"}}, {"name": "Presidio Ospedaliero Polla Sant'Arsenio", "latitude": 40.4653431, "longitude": 15.4786122, "source": "osm", "_tags": {"amenity": "hospital", "name": "Presidio Ospedaliero Polla Sant'Arsenio"}}, {"name": "Ospedale San Giovanni di Dio", "latitude": 40.9967922, "longitude": 15.6414715, "source": "osm", "_tags": {"addr:city": "Melfi", "addr:housenumber": "10", "addr:postcode": "85025", "addr:street": "Via Foggia", "building": "hospital", "healthcare": "hospital", "healthcare:speciality": "general", "name": "Ospedale San Giovanni di Dio", "operator": "ASP Potenza", "operator:type": "public", "type": "multipolygon"}}]