[{"name": "Ospedale Civile", "latitude": 41.0922843, "longitude": 16.0763594, "source": "osm", "_tags": {"amenity": "hospital", "name": "Ospedale Civile"}}, {"name": "First Aid - university", "latitude": 41.1200707, "longitude": 16.8687365, "source": "osm", "_tags": {"amenity": "hospital", "healthcare": "hospital", "name": "First Aid - university"}}, {"name": "Centro Nazionale Riabilitativo per Hanseniani", "latitude": 40.7423361, "longitude": 16.8217375, "source": "osm", "_tags": {"amenity": "hospital", "name": "Centro Nazionale Riabilitativo per Hanseniani"}}, {"name": "Pronto Soccorso", "latitude": 40.8170747, "longitude": 16.4207353, "source": "osm", "_tags": {"amenity": "hospital", "name": "Pronto Soccorso"}}, {"name": "Guardia Medica", "latitude": 40.8169898, "longitude": 16.4209533, "source": "osm", "_tags": {"amenity": "hospital", "name": "Guardia Medica"}}, {"name": "Diagnostica s.r.l.", "latitude": 41.1183678, "longitude": 16.4847086, "source": "osm", "_tags": {"addr:city": "Ruvo di Puglia", "addr:housenumber": "10", "addr:postcode": "70037", "addr:street": "Via Pietro Gobetti", "amenity": "hospital", "name": "Diagnostica s.r.l."}}, {"name": "", "latitude": 40.6182355, "longitude": 16.1489476, "source": "osm", "_tags": {"amenity": "hospital"}}, {"name": "", "latitude": 40.9736923, "longitude": 16.0842144, "source": "osm", "_tags": {"amenity": "hospital"}}, {"name": "Pronto Soccorso", "latitude": 41.1835536, "longitude": 16.6804357, "source": "osm", "_tags": {"amenity": "hospital", "healthcare": "hospital", "name": "Pronto Soccorso"}}, {"name": "Pronto Soccorso Ospedale San Paolo", "latitude": 41.1175263, "longitude": 16.7808797, "source": "osm", "_tags": {"addr:city": "Bari", "addr:street": "Strada Capo Scardicchio", "amenity": "hospital", "emergency": "yes", "healthcare": "hospital", "name": "Pronto Soccorso Ospedale San Paolo"}}, {"name": "Pronto Soccorso Ospedale Pediatrico Giovanni XXIII", "latitude": 41.0992406, "longitude": 16.887796, "source": "osm", "_tags": {"addr:city": "Bari", "addr:street": "Via Giovanni Amendola", "amenity": "hospital", "emergency": "yes", "healthcare": "hospital", "name": "Pronto Soccorso Ospedale Pediatrico Giovanni XXIII"}}, {"name": "Pronto Soccorso Ospedale \"Francesca Fallacara\"", "latitude": 41.0669672, "longitude": 16.9268806, "source": "osm", "_tags": {"addr:city": "Triggiano", "addr:street": "Viale Aldo Moro", "amenity": "hospital", "emergency": "yes", "healthcare": "hospital", "name": "Pronto Soccorso Ospedale \"Francesca Fallacara\""}}, {"name": "Pronto Soccorso Ospedale Don Tonino Bello", "latitude": 41.1918528, "longitude": 16.5911565, "source": "osm", "_tags": {"addr:city": "Molfetta", "addr:street": "Via Terlizzi", "amenity": "hospital", "emergency": "yes", "healthcare": "hospital", "name": "Pronto Soccorso Ospedale Don Tonino Bello"}}, {"name": "Pronto Soccorso Ospedale Umberto I", "latitude": 41.1466885, "longitude": 16.4237894, "source": "osm", "_tags": {"addr:city": "Corato", "addr:street": "Via Ruvo", "amenity": "hospital", "emergency": "yes", "healthcare": "hospital", "name": "Pronto Soccorso Ospedale Umberto I"}}, {"name": "", "latitude": 40.8196698, "longitude": 16.4701042, "source": "osm", "_tags": {"addr:city": "Altamura", "addr:postcode": "70022", "emergency": "emergency_ward_entrance", "entrance": "yes", "healthcare": "hospital"}}, {"name": "Pronto Soccorso Ospedale Lorenzo Bonomo", "latitude": 41.2295848, "longitude": 16.3035808, "source": "osm", "_tags": {"addr:city": "Andria", "amenity": "hospital", "emergency": "yes", "healthcare": "hospital", "name": "Pronto Soccorso Ospedale Lorenzo Bonomo"}}, {"name": "Oftalmologia (Oculistica)", "latitude": 41.1113484, "longitude": 16.8582065, "source": "osm", "_tags": {"healthcare": "hospital", "name": "Oftalmologia (Oculistica)"}}, {"name": "asl vaccini", "latitude": 41.0740447, "longitude": 16.8641819, "source": "osm", "_tags": {"amenity": "hospital", "healthcare": "hospital", "name": "asl vaccini", "operator": "ASL", "operator:wikidata": "Q3631467"}}, {"name": "Guardia Medica", "latitude": 41.0535498, "longitude": 16.6970664, "source": "osm", "_tags": {"amenity": "hospital", "healthcare": "hospital", "name": "Guardia Medica"}}, {"name": "Poliambulatorio", "latitude": 41.0570021, "longitude": 16.7074298, "source": "osm", "_tags": {"amenity": "hospital", "healthcare": "hospital", "name": "Poliambulatorio"}}, {"name": "Guardia Medica - Poliambulatrorio", "latitude": 40.4291782, "longitude": 16.8896233, "source": "osm", "_tags": {"addr:city": "Marina di Ginosa", "addr:postcode": "74025", "addr:street": "Piazza D'Indipendenza", "amenity": "hospital", "emergency": "yes", "healthcare": "hospital", "healthcare:speciality": "general;otolaryngology", "name": "Guardia Medica - Poliambulatrorio", "nohousenumber": "yes", "operator": "ASL TA1", "operator:type": "government", "phone": "099 8277411", "website": "https://www.sanita.puglia.it/ricerca_det/-/journal_content/56/36057/otorinolaringoiatria"}}, {"name": "L'INAM ASL", "latitude": 40.7975916, "longitude": 16.9171959, "source": "osm", "_tags": {"addr:city": "Gioia del Colle", "addr:housenumber": "50", "addr:street": "Via Ludovico Ariosto", "amenity": "hospital", "description": "ASL (azienda sanitaria locale) , distretto socio-sanitario n.13, poliambulatorio , prenotazione vaccini, consultorio, fisioterapia", "email": "distretto13aslbari@pec.rupar.puglia.it", "emergency": "yes", "healthcare": "physiotherapist", "healthcare:speciality": "vaccination;blood_check;covid19", "healthcare:speciality:de": "consull", "internet_access": "yes", "name": "L'INAM ASL", "source": "local knowledge;streetlevel imagery;aerial imagery", "wheelchair": "yes"}}, {"name": "Hsc", "latitude": 40.8209924, "longitude": 16.4249565, "source": "osm", "_tags": {"amenity": "hospital", "healthcare": "hospital", "name": "Hsc"}}, {"name": "Centro Salute Mentale", "latitude": 41.0823071, "longitude": 16.7861593, "source": "osm", "_tags": {"addr:city": "Modugno", "addr:housenumber": "43", "addr:postcode": "70026", "addr:street": "Via Dieci Marzo", "amenity": "hospital", "healthcare": "hospital", "name": "Centro Salute Mentale", "operator": "ASL", "operator:type": "public", "operator:wikidata": "Q3631467"}}, {"name": "ASL Bari - Ufficio Patenti speciali", "latitude": 41.1067171, "longitude": 16.9044569, "source": "osm", "_tags": {"addr:city": "Bari", "addr:housenumber": "16", "addr:postcode": "70126", "addr:street": "Via Giuseppe Papalia", "amenity": "hospital", "healthcare": "hospital", "name": "ASL Bari - Ufficio Patenti speciali", "operator": "ASL", "operator:type": "public", "operator:wikidata": "Q3631467", "website": "https://www.sanita.puglia.it/web/asl-bari/patenti-speciali-commissione-medica-locale"}}, {"name": "Hospice - EX Ospedale", "latitude": 41.0142287, "longitude": 16.7130971, "source": "osm", "_tags": {"addr:housenumber": "33", "addr:street": "Via Repubblica", "amenity": "hospital", "email": "dss.grumo.hospice@asl.bari.it", "healthcare": "hospital", "name": "Hospice - EX Ospedale", "phone": "080 5848162", "website": "https://www.sanita.puglia.it/web/asl-bari/hospice-cure-palliative_det/-/journal_content/56/25619/hospice-grumo-appula"}}, {"name": "Ospedale \"Michele Sarcone\"", "latitude": 41.1312073, "longitude": 16.5350566, "source": "osm", "_tags": {"addr:city": "Terlizzi", "addr:postcode": "70038", "addr:street": "Via Pasquale Fiore", "amenity": "hospital", "emergency": "yes", "healthcare": "hospital", "name": "Ospedale \"Michele Sarcone\""}}, {"name": "Policlinico di Bari", "latitude": 41.1116444, "longitude": 16.8590398, "source": "osm", "_tags": {"addr:city": "Bari", "addr:housenumber": "11", "addr:postcode": "70124", "addr:street": "Piazza Giulio Cesare", "amenity": "hospital", "emergency": "yes", "healthcare": "hospital", "name": "Policlinico di Bari", "official_name": "Azienda Ospedaliero-Universitaria Consorziale Policlinico di Bari", "wikidata": "Q3907282", "wikipedia": "it:Azienda ospedaliero-universitaria consorziale policlinico di Bari"}}, {"name": "Ospedale Pediatrico Giovanni XXIII", "latitude": 41.0986757, "longitude": 16.8877842, "source": "osm", "_tags": {"amenity": "hospital", "healthcare": "hospital", "name": "Ospedale Pediatrico Giovanni XXIII", "operator": "Azienda ospedaliero-universitaria consorziale policlinico di Bari", "operator:wikidata": "Q3907282"}}, {"name": "Istituto Oncologico \"Giovanni Paolo II\"", "latitude": 41.1065442, "longitude": 16.8580222, "source": "osm", "_tags": {"amenity": "hospital", "healthcare": "hospital", "name": "Istituto Oncologico \"Giovanni Paolo II\"", "official_name": "IRCCS Istituto Tumori \"Giovanni Paolo II\"", "website": "https://www.sanita.puglia.it/web/irccs"}}, {"name": "Anthea", "latitude": 41.1039867, "longitude": 16.8564318, "source": "osm", "_tags": {"addr:city": "Bari", "addr:postcode": "70124", "addr:street": "Via Camillo Rosalba", "amenity": "hospital", "emergency": "no", "healthcare": "hospital", "name": "Anthea", "operator": "GVM", "operator:type": "private"}}, {"name": "Ospedale Di Venere", "latitude": 41.0759119, "longitude": 16.8628682, "source": "osm", "_tags": {"amenity": "hospital", "emergency": "yes", "first_aid": "yes", "healthcare": "hospital", "name": "Ospedale Di Venere", "postal_code": "70131"}}, {"name": "Ospedale Lorenzo Bonomo", "latitude": 41.2293687, "longitude": 16.3035291, "source": "osm", "_tags": {"amenity": "hospital", "emergency": "yes", "healthcare": "hospital", "name": "Ospedale Lorenzo Bonomo", "wheelchair": "yes"}}, {"name": "Ospedale Umberto I", "latitude": 41.146208, "longitude": 16.4240949, "source": "osm", "_tags": {"amenity": "hospital", "name": "Ospedale Umberto I"}}, {"name": "Ospedale Monsignor Dimiccoli", "latitude": 41.3137705, "longitude": 16.2536778, "source": "osm", "_tags": {"addr:city": "Barletta", "addr:country": "IT", "addr:housenumber": "15", "addr:postcode": "76121", "addr:province": "Barletta-Andria-Trani", "addr:street": "Viale Ippocrate", "amenity": "hospital", "emergency": "yes", "name": "Ospedale Monsignor Dimiccoli", "operator": "Azienda Sanitaria Locale BT", "phone": "+39 0883 577111", "wheelchair": "yes"}}, {"name": "Ospedale \"Francesca Fallacara\"", "latitude": 41.066536, "longitude": 16.9267156, "source": "osm", "_tags": {"amenity": "hospital", "healthcare": "hospital", "name": "Ospedale \"Francesca Fallacara\""}}, {"name": "ASL Bari", "latitude": 41.1360638, "longitude": 16.8430753, "source": "osm", "_tags": {"alt_name": "Ex C.T.O.", "amenity": "uffi", "barrier": "fence", "emergency": "no", "healthcare": "hospital", "name": "ASL Bari", "operator": "ASL", "operator:wikidata": "Q3631467"}}, {"name": "Ospedale Madonna delle Grazie", "latitude": 40.6532389, "longitude": 16.6116674, "source": "osm", "_tags": {"addr:city": "Matera", "addr:postcode": "75100", "amenity": "hospital", "name": "Ospedale Madonna delle Grazie", "start_date": "2002", "wheelchair": "yes", "wikidata": "Q3886606", "wikipedia": "it:Ospedale Madonna delle Grazie"}}, {"name": "La Madonnina Life&Care", "latitude": 41.1126634, "longitude": 16.8518909, "source": "osm", "_tags": {"amenity": "hospital", "email": "info@lamadonninabari.it", "healthcare": "hospital", "healthcare:speciality": "cardiology;pulmonology;neurology;physiatry;gastroenterology;endocrinology;urology;radiology;haematology", "name": "La Madonnina Life&Care", "operator": "La Madonnina Life&Care S.r.l.", "operator:type": "private", "phone": "+39 0809736111"}}, {"name": "Casa di cura Santa Rita", "latitude": 41.0876372, "longitude": 16.8663873, "source": "osm", "_tags": {"amenity": "hospital", "emergency": "no", "name": "Casa di cura Santa Rita"}}, {"name": "Casa di cura Santa Rita", "latitude": 41.0876464, "longitude": 16.8664651, "source": "osm", "_tags": {"amenity": "hospital", "emergency": "no", "name": "Casa di cura Santa Rita"}}, {"name": "Ospedale Civile \"Monte Iacoviello\"", "latitude": 40.7956062, "longitude": 16.7580284, "source": "osm", "_tags": {"amenity": "hospital", "emergency": "no", "healthcare": "hospital", "name": "Ospedale Civile \"Monte Iacoviello\"", "operator": "r", "operator:type": "public/government"}}, {"name": "", "latitude": 40.4350837, "longitude": 16.868309, "source": "osm", "_tags": {"amenity": "hospital", "emergency": "no", "healthcare": "hospital"}}, {"name": "Casa di Cura - Padre Pio", "latitude": 41.001727, "longitude": 16.8601005, "source": "osm", "_tags": {"amenity": "hospital", "emergency": "no", "name": "Casa di Cura - Padre Pio"}}, {"name": "Ospedale Umberto I", "latitude": 40.8326632, "longitude": 16.5520676, "source": "osm", "_tags": {"amenity": "hospital", "emergency": "yes", "name": "Ospedale Umberto I"}}, {"name": "Ospedale Don Tonino Bello", "latitude": 41.1913076, "longitude": 16.5912705, "source": "osm", "_tags": {"amenity": "hospital", "barrier": "fence", "healthcare": "hospital", "name": "Ospedale Don Tonino Bello"}}, {"name": "Ex Ospedale di Toritto", "latitude": 40.9999644, "longitude": 16.678511, "source": "osm", "_tags": {"amenity": "hospital", "name": "Ex Ospedale di Toritto"}}, {"name": "Ospedale", "latitude": 40.8167721, "longitude": 16.4207483, "source": "osm", "_tags": {"amenity": "hospital", "name": "Ospedale", "name:en": "Hospital"}}, {"name": "Ospedale San Paolo", "latitude": 41.1188948, "longitude": 16.7808429, "source": "osm", "_tags": {"amenity": "hospital", "barrier": "fence", "healthcare": "hospital", "name": "Ospedale San Paolo"}}, {"name": "Ospedale Santa Maria", "latitude": 41.1085868, "longitude": 16.8622888, "source": "osm", "_tags": {"amenity": "hospital", "barrier": "fence", "healthcare": "hospital", "name": "Ospedale Santa Maria"}}, {"name": "Ospedale Civile di Canosa di Puglia", "latitude": 41.2263219, "longitude": 16.07224, "source": "osm", "_tags": {"amenity": "hospital", "emergency": "yes", "healthcare": "hospital", "name": "Ospedale Civile di Canosa di Puglia"}}, {"name": "Obitorio", "latitude": 41.1474906, "longitude": 16.4238816, "source": "osm", "_tags": {"amenity": "hospital", "name": "Obitorio"}}, {"name": "Don Gnocchi", "latitude": 40.6181146, "longitude": 16.1486868, "source": "osm", "_tags": {"amenity": "hospital", "building": "hospital", "name": "Don Gnocchi"}}, {"name": "", "latitude": 41.1065907, "longitude": 16.8506277, "source": "osm", "_tags": {"amenity": "hospital", "building": "hospital"}}, {"name": "", "latitude": 41.1834869, "longitude": 16.6803302, "source": "osm", "_tags": {"amenity": "hospital", "barrier": "fence", "healthcare": "hospital"}}, {"name": "Ospedale Vittorio Emanuele II", "latitude": 41.2425958, "longitude": 16.4887101, "source": "osm", "_tags": {"amenity": "hospital", "emergency": "yes", "healthcare": "hospital", "name": "Ospedale Vittorio Emanuele II"}}, {"name": "Casa della Divina Provvidenza", "latitude": 41.2450766, "longitude": 16.5000189, "source": "osm", "_tags": {"amenity": "hospital", "healthcare": "hospital", "name": "Casa della Divina Provvidenza"}}, {"name": "Dipartimento Dipendenze Patologiche", "latitude": 41.0836063, "longitude": 16.798127, "source": "osm", "_tags": {"amenity": "hospital", "healthcare": "hospital", "name": "Dipartimento Dipendenze Patologiche", "operator": "ASL", "operator:type": "public", "operator:wikidata": "Q3631467"}}, {"name": "", "latitude": 41.2209295, "longitude": 16.2989103, "source": "osm", "_tags": {"amenity": "hospital", "barrier": "fence", "healthcare": "hospital"}}, {"name": "Pronto Soccorso 118", "latitude": 40.6537878, "longitude": 16.6125677, "source": "osm", "_tags": {"amenity": "hospital", "building": "hospital", "building:use": "service", "emergency": "yes", "healthcare": "hospital", "name": "Pronto Soccorso 118"}}, {"name": "Ospedale Mater Dei", "latitude": 41.0977121, "longitude": 16.8858469, "source": "osm", "_tags": {"amenity": "hospital", "healthcare": "hospital", "name": "Ospedale Mater Dei", "website": "https://www.materdeihospital.it/"}}, {"name": "Ospedale della Murgia \"Fabio Perinei\"", "latitude": 40.8203096, "longitude": 16.4699747, "source": "osm", "_tags": {"addr:city": "Gravina in Puglia", "addr:housenumber": "Km 73,800", "addr:postcode": "70022", "addr:street": "Strada Statale 96 Altamura â€“ Gravina in Puglia", "amenity": "hospital", "emergency": "yes", "healthcare": "hospital", "name": "Ospedale della Murgia \"Fabio Perinei\""}}, {"name": "Poliambulatorio di Ruvo di Puglia", "latitude": 41.1201809, "longitude": 16.4878565, "source": "osm", "_tags": {"addr:city": "Ruvo di Puglia", "addr:housenumber": "80", "addr:postcode": "70037", "addr:street": "Corso Piave", "amenity": "hospital", "emergency": "no", "healthcare": "hospital", "name": "Poliambulatorio di Ruvo di Puglia", "operator": "ASL Bari", "operator:type": "public", "website": "https://www.sanita.puglia.it/web/asl-bari/poliambulatori_det/-/journal_content/56/25619/poliambulatorio-ruvo-di-puglia"}}, {"name": "Ente Ecclesiastico Ospedale Generale Regionale \"Francesco Miulli\"", "latitude": 40.8628905, "longitude": 16.8031067, "source": "osm", "_tags": {"addr:city": "Acquaviva delle Fonti", "addr:milestone": "4.1", "addr:postcode": "70021", "addr:street": "Strada Provinciale Acquaviva - Santeramo", "amenity": "hospital", "beds": "670", "contact:pec": "protocollo.miulli@legalmail.it", "emergency": "yes", "healthcare": "hospital", "name": "Ente Ecclesiastico Ospedale Generale Regionale \"Francesco Miulli\"", "operator": "Ente Ecclesiastico Ospedale \"Francesco Miulli\"", "operator:type": "religious", "phone": "+39 080 3054111", "website": "https://www.miulli.it/", "wheelchair": "yes", "wikidata": "Q3886602", "wikipedia": "it:Ospedale generale regionale Francesco Miulli"}}, {"name": "Istituto Clinico Scientifico Maugeri", "latitude": 41.1064652, "longitude": 16.8498536, "source": "osm", "_tags": {"amenity": "hospital", "healthcare": "hospital", "name": "Istituto Clinico Scientifico Maugeri", "website": "https://www.icsmaugeri.it/"}}, {"name": "Ospedale \"Francesca Fallacara\" Padiglione Nord", "latitude": 41.0676399, "longitude": 16.9259211, "source": "osm", "_tags": {"amenity": "hospital", "healthcare": "hospital", "name": "Ospedale \"Francesca Fallacara\" Padiglione Nord", "type": "multipolygon"}}]