[{"name": "Centro de salud", "latitude": 40.9857931, "longitude": 0.0879631, "source": "osm", "_tags": {"addr:city": "Valdeltormo", "addr:housenumber": "3", "addr:postcode": "44620", "addr:street": "Carretera Estación", "addr:unit": "Carretera", "amenity": "clinic", "healthcare": "hospital", "name": "Centro de salud"}}, {"name": "Mutua Universal", "latitude": 40.8037029, "longitude": 0.5213739, "source": "osm", "_tags": {"amenity": "hospital", "emergency": "no", "healthcare": "hospital", "healthcare:speciality": "general", "name": "Mutua Universal"}}, {"name": "Hospital de la Santa Creu", "latitude": 40.827839, "longitude": 0.5095964, "source": "osm", "_tags": {"amenity": "hospital", "emergency": "yes", "name": "Hospital de la Santa Creu", "name:ca": "Hospital de la Santa Creu"}}, {"name": "Creu Roja", "latitude": 40.9983565, "longitude": 0.9348013, "source": "osm", "_tags": {"emergency": "lifeguard", "healthcare": "hospital", "lifeguard": "base", "name": "Creu Roja"}}, {"name": "Hospital de Tortosa Verge de la Cinta", "latitude": 40.8111476, "longitude": 0.5242702, "source": "osm", "_tags": {"amenity": "hospital", "building": "public", "building:levels": "6", "building:levels:underground": "1", "emergency": "yes", "name": "Hospital de Tortosa Verge de la Cinta", "name:ca": "Hospital de Tortosa Verge de la Cinta", "phone": "+34977519100", "wikidata": "Q19257349", "wikipedia": "ca:Residència Sanitària Verge de la Cinta"}}, {"name": "Hospital Comarcal d'Amposta", "latitude": 40.7089471, "longitude": 0.5783117, "source": "osm", "_tags": {"amenity": "hospital", "healthcare": "hospital", "healthcare:speciality": "general", "name": "Hospital Comarcal d'Amposta", "operator": "ICS", "operator:type": "public", "wikidata": "Q87762574"}}, {"name": "Hospital comarcal de Móra d'Ebre", "latitude": 41.09534, "longitude": 0.6388677, "source": "osm", "_tags": {"amenity": "hospital", "name": "Hospital comarcal de Móra d'Ebre", "name:ca": "Hospital comarcal de Móra d'Ebre", "wikidata": "Q87666248", "wikipedia": "ca:Hospital Comarcal de Móra d'Ebre"}}, {"name": "Hospital Comarcal de Vinaròs", "latitude": 40.4640782, "longitude": 0.450081, "source": "osm", "_tags": {"amenity": "hospital", "emergency": "yes", "healthcare": "hospital", "name": "Hospital Comarcal de Vinaròs", "name:es": "Hospital Comarcal de Vinaroz", "wikidata": "Q87761692"}}]