[{"name": "Croce Rossa", "latitude": 40.7902604, "longitude": 13.4184783, "source": "osm", "_tags": {"amenity": "hospital", "healthcare": "hospital", "name": "Croce Rossa"}}, {"name": "Pronto Soccorso Ospedale \"Alfredo Fiorini\"", "latitude": 41.2989468, "longitude": 13.2321477, "source": "osm", "_tags": {"addr:city": "Terracina", "amenity": "hospital", "emergency": "yes", "healthcare": "hospital", "name": "Pronto Soccorso Ospedale \"Alfredo Fiorini\""}}, {"name": "Pronto Soccorso Ospedale \"San Giovanni di Dio\"", "latitude": 41.3617406, "longitude": 13.4154706, "source": "osm", "_tags": {"addr:city": "Fondi", "amenity": "hospital", "emergency": "yes", "healthcare": "hospital", "name": "Pronto Soccorso Ospedale \"San Giovanni di Dio\""}}, {"name": "", "latitude": 41.4075419, "longitude": 13.0466703, "source": "osm", "_tags": {"addr:city": "Pontinia", "addr:postcode": "04014", "addr:street": "Via Fratelli Bandiera", "amenity": "hospital", "healthcare": "hospital", "operator": "ASL", "operator:type": "public", "operator:wikidata": "Q3631467", "operator:wikipedia": "it:Azienda sanitaria locale"}}, {"name": "San Giovanni di Dio", "latitude": 41.3612571, "longitude": 13.4154469, "source": "osm", "_tags": {"amenity": "hospital", "building": "yes", "emergency": "yes", "name": "San Giovanni di Dio", "wheelchair": "yes"}}, {"name": "Villa Azzurra - Hospice Poliambulatorio", "latitude": 41.2861828, "longitude": 13.256421, "source": "osm", "_tags": {"amenity": "hospital", "building": "yes", "healthcare": "hospital", "name": "Villa Azzurra - Hospice Poliambulatorio", "phone": "+39 0773 7971", "website": "https://www.mosaicoadi.com/?page_id=306"}}, {"name": "Casa del Sole", "latitude": 41.2530886, "longitude": 13.5889872, "source": "osm", "_tags": {"amenity": "hospital", "email": "info@casadelsole.it", "emergency": "no", "healthcare": "hospital", "name": "Casa del Sole", "phone": "+39 0771 324901", "website": "http://www.casadelsole.it"}}, {"name": "Istituto Fisioterapico di Riabilitazione Clara Franceschini", "latitude": 41.2523651, "longitude": 13.0515288, "source": "osm", "_tags": {"addr:city": "Sabaudia", "addr:housenumber": "2", "addr:postcode": "04016", "addr:street": "Strada di Selvapiana", "amenity": "hospital", "fax": "+39 0773 596175", "healthcare": "hospital", "name": "Istituto Fisioterapico di Riabilitazione Clara Franceschini", "phone": "+39 0773 5941", "website": "https://www.istitutofranceschini.it"}}, {"name": "Punto di assistenza territoriale", "latitude": 41.3032059, "longitude": 13.0199685, "source": "osm", "_tags": {"amenity": "hospital", "building": "yes", "healthcare": "hospital", "name": "Punto di assistenza territoriale", "operator": "ASL", "operator:type": "public", "operator:wikidata": "Q3631467"}}, {"name": "Clinica Padre Pio", "latitude": 41.1364567, "longitude": 13.8652209, "source": "osm", "_tags": {"addr:city": "Mondragone", "addr:housenumber": "12", "addr:postcode": "81034", "addr:street": "Via Appia Antica", "amenity": "hospital", "name": "Clinica Padre Pio", "phone": "+39 0823 779111", "website": "http://www.clinicapadrepio.it/"}}, {"name": "Ospedale \"Luigi di Liegro\" Gaeta", "latitude": 41.2214914, "longitude": 13.5667463, "source": "osm", "_tags": {"addr:city": "Gaeta", "addr:postcode": "04024", "addr:street": "Salita dei Cappuccini", "amenity": "hospital", "emergency": "yes", "healthcare": "hospital", "healthcare:speciality": "vaccination;general", "name": "Ospedale \"Luigi di Liegro\" Gaeta", "operator": "ASL Latina", "operator:type": "public", "phone": "+3907717791", "website": "http://www.asl.latina.it/index.php/presidi-ospedalieri"}}, {"name": "Ospedale A. Rizzoli", "latitude": 40.7503463, "longitude": 13.8957785, "source": "osm", "_tags": {"amenity": "hospital", "healthcare": "hospital", "name": "Ospedale A. Rizzoli", "type": "multipolygon"}}, {"name": "Residenza Sanitaria San Raffaele", "latitude": 41.3949262, "longitude": 13.0020021, "source": "osm", "_tags": {"amenity": "hospital", "healthcare": "hospital", "name": "Residenza Sanitaria San Raffaele", "type": "multipolygon"}}, {"name": "Ospedale \"Alfredo Fiorini\"", "latitude": 41.2986003, "longitude": 13.2328751, "source": "osm", "_tags": {"addr:city": "Terracina", "addr:housenumber": "1", "addr:postcode": "04019", "addr:street": "Via Firenze", "amenity": "hospital", "healthcare": "hospital", "name": "Ospedale \"Alfredo Fiorini\"", "type": "multipolygon"}}, {"name": "Asl azienda sanitaria di Pontinia", "latitude": 41.4073346, "longitude": 13.0466794, "source": "osm", "_tags": {"addr:city": "Pontinia", "addr:postcode": "04014", "amenity": "hospital", "building": "yes", "healthcare": "hospital", "name": "Asl azienda sanitaria di Pontinia", "operator": "ASL", "operator:wikidata": "Q3631467", "operator:wikipedia": "it:Azienda sanitaria locale", "type": "multipolygon"}}]