[{"name": "Здравствен дом Ресен", "latitude": 41.0899619, "longitude": 21.0073455, "source": "osm", "_tags": {"amenity": "hospital", "name": "Здравствен дом Ресен", "name:mk": "Здравствен дом Ресен"}}, {"name": "Диагностички центар св.Спас", "latitude": 40.9990844, "longitude": 21.3702482, "source": "osm", "_tags": {"addr:city": "Битола", "addr:postcode": "7000", "amenity": "hospital", "emergency": "no", "name": "Диагностички центар св.Спас"}}, {"name": "", "latitude": 41.0422922, "longitude": 21.4559663, "source": "osm", "_tags": {"amenity": "hospital"}}, {"name": "ЈЗУ „Д-р Хаим Абраванел“ - Уредот", "latitude": 41.0328679, "longitude": 21.3353422, "source": "osm", "_tags": {"amenity": "hospital", "building": "yes", "healthcare": "hospital", "int_name": "Zdravstven Dom", "name": "ЈЗУ „Д-р Хаим Абраванел“ - Уредот"}}, {"name": "Плодност", "latitude": 41.0213074, "longitude": 21.316255, "source": "osm", "_tags": {"amenity": "hospital", "emergency": "no", "healthcare": "hospital", "name": "Плодност"}}, {"name": "Γενικό Νοσοκομείο Καστοριάς", "latitude": 40.5049054, "longitude": 21.2807584, "source": "osm", "_tags": {"addr:city": "Καστοριά", "addr:housenumber": "33", "addr:postcode": "52100", "addr:street": "Μαυριωτίσσης", "amenity": "hospital", "emergency": "yes", "int_name": "Kastoria General Hospital", "name": "Γενικό Νοσοκομείο Καστοριάς", "name:de": "Allgemeine Krankenhaus von Kastoria", "name:el": "Γενικό Νοσοκομείο Καστοριάς", "name:en": "General Hospital of Kastoria", "name:mk": "Општа болница Костур", "wikidata": "Q21626656"}}, {"name": "ЈЗУ Клиничка Болница Др. Трифун Пановски", "latitude": 41.0229535, "longitude": 21.3184883, "source": "osm", "_tags": {"amenity": "hospital", "emergency": "yes", "healthcare": "hospital", "name": "ЈЗУ Клиничка Болница Др. Трифун Пановски"}}, {"name": "Здравствен дом Крушево", "latitude": 41.3674663, "longitude": 21.2491112, "source": "osm", "_tags": {"building": "hospital", "emergency": "yes", "healthcare": "hospital", "name": "Здравствен дом Крушево", "name:en": "Kruševo Hospital", "phone": "+38948477925", "website": "https://zdkrusevo.mk/"}}, {"name": "Κέντρο Υγείας Άργους Ορεστικού", "latitude": 40.4570175, "longitude": 21.2544799, "source": "osm", "_tags": {"amenity": "hospital", "building": "yes", "healthcare": "hospital", "name": "Κέντρο Υγείας Άργους Ορεστικού"}}, {"name": "Spitali Devoll", "latitude": 40.6246827, "longitude": 20.9878935, "source": "osm", "_tags": {"amenity": "hospital", "healthcare": "hospital", "name": "Spitali Devoll"}}, {"name": "Γενικό Νοσοκομείο Πτολεμαΐδας \"Μποδοσάκειο\"", "latitude": 40.5441619, "longitude": 21.6560631, "source": "osm", "_tags": {"addr:city": "Πτολεμαϊδα", "addr:place": "Κιουρή", "addr:postcode": "50200", "alt_name": "Μποδοσάκειο Νοσοκομείο", "amenity": "hospital", "emergency": "yes", "healthcare": "hospital", "name": "Γενικό Νοσοκομείο Πτολεμαΐδας \"Μποδοσάκειο\"", "name:de": "Allgemeines Krankenhaus Bodosakios", "name:el": "Γενικό Νοσοκομείο Πτολεμαΐδας \"Μποδοσάκειο\"", "name:en": "Bosodaskio General Hospital of Ptolemaida", "name:fr": "Hôpital General Bodosakio", "phone": "+30 2463351100", "source": "Maxar Premium Imagery (2019-10-05)", "website": "https://mpodosakeio.gr/", "wikidata": "Q21626652"}}, {"name": "ГОБ Народен Херој Борка Талески-Црниот", "latitude": 41.3431, "longitude": 21.5631096, "source": "osm", "_tags": {"amenity": "hospital", "email": "bolnicapp@yahoo.com", "healthcare": "hospital", "name": "ГОБ Народен Херој Борка Талески-Црниот", "name:en": "People's hero Borka Taleski-Crniot GCH", "name:mk": "ГОБ Народен Херој Борка Талески-Црниот", "phone": "+38948422430;+38948407000", "wikidata": "Q57911493", "wikipedia": "mk:ЈЗУ Општа болница „Борка Талески“-Прилеп"}}, {"name": "Γενικό Νοσοκομείο Φλώρινας", "latitude": 40.7851704, "longitude": 21.4093282, "source": "osm", "_tags": {"addr:city": "Φλώρινα", "addr:housenumber": "9", "addr:postcode": "53100", "addr:street": "Εγνατίας", "amenity": "hospital", "email": "gramatia@nosflorinas.gr", "emergency": "yes", "healthcare": "hospital", "name": "Γενικό Νοσοκομείο Φλώρινας", "name:de": "Allgemeines Krankenhaus Florina", "name:el": "Γενικό Νοσοκομείο Φλώρινας", "name:en": "Florina General Hospital", "name:fr": "Hôpital Generale de Florina", "name:mk": "Општа болница - Лерин", "official_name": "Γενικό Νοσοκομείο Φλώρινας \"Ελένη Θ. Δημητρίου\"", "phone": "+30 23853 50100", "website": "http://florinahospital.gr/", "wikidata": "Q21626649"}}, {"name": "Κέντρο Υγείας Μεσοποταμίας", "latitude": 40.5006386, "longitude": 21.1641746, "source": "osm", "_tags": {"amenity": "hospital", "healthcare": "hospital", "name": "Κέντρο Υγείας Μεσοποταμίας", "source": "microsoft/BuildingFootprints"}}, {"name": "Здравствен дом", "latitude": 41.2173794, "longitude": 21.2034034, "source": "osm", "_tags": {"addr:city": "Демир Хисар", "addr:postcode": "7240", "addr:street": "Битолска", "building": "yes", "contact:facebook": "zdravstvendom.demirhisar", "email": "zdravstvendom_dh@yahoo.com", "healthcare": "hospital", "name": "Здравствен дом", "name:en": "Health center", "name:mk": "Здравствен дом", "phone": "+38947276144", "roof:colour": "#ff0000", "type": "multipolygon"}}]