[{"name": "", "latitude": 41.3830349, "longitude": 22.812032, "source": "osm", "_tags": {"amenity": "hospital", "emergency": "no"}}, {"name": "", "latitude": 41.3848054, "longitude": 22.75237, "source": "osm", "_tags": {"amenity": "hospital"}}, {"name": "Κεντρο υγείας Αιγινίου", "latitude": 40.4946278, "longitude": 22.5372149, "source": "osm", "_tags": {"addr:city": "Αιγίνιο", "addr:postcode": "60300", "amenity": "hospital", "emergency": "yes", "healthcare": "hospital", "healthcare:speciality": "general;psychiatry;microbiology;gynaecology", "name": "Κεντρο υγείας Αιγινίου", "phone": "+30 2353350000"}}, {"name": "Ambulanta", "latitude": 41.408624, "longitude": 22.2415389, "source": "osm", "_tags": {"amenity": "hospital", "emergency": "yes", "healthcare": "hospital", "name": "Ambulanta"}}, {"name": "", "latitude": 41.1450708, "longitude": 22.5066705, "source": "osm", "_tags": {"amenity": "hospital", "healthcare": "hospital"}}, {"name": "Негорски Бањи", "latitude": 41.1717857, "longitude": 22.4907252, "source": "osm", "_tags": {"addr:postcode": "1480", "amenity": "hospital", "email": "info@negorskibanji.com.mk", "internet_access": "wlan", "name": "Негорски Бањи", "name:en": "Negorski Spa", "name:mk": "Негорски Бањи", "opening_hours": "24/7", "phone": "0038934231174", "website": "https://www.negorskibanji.com.mk/"}}, {"name": "", "latitude": 41.3156008, "longitude": 22.5564969, "source": "osm", "_tags": {"addr:city": "Valandovo", "amenity": "hospital", "emergency": "yes", "healthcare": "hospital"}}, {"name": "Κέντρο Υγείας Κουφαλίων", "latitude": 40.7789356, "longitude": 22.5749519, "source": "osm", "_tags": {"addr:city": "Κουφάλια", "addr:postcode": "57100", "addr:street": "Γεωργίου Γεννηματά", "amenity": "hospital", "healthcare": "hospital", "name": "Κέντρο Υγείας Κουφαλίων", "phone": "+30 2391330300"}}, {"name": "Κέντρο Υγείας Αριδαίας", "latitude": 40.9697945, "longitude": 22.0607369, "source": "osm", "_tags": {"addr:city": "Αριδαία", "addr:housenumber": "9", "addr:postcode": "58400", "addr:street": "Παύλου Μελά", "amenity": "hospital", "healthcare": "hospital", "name": "Κέντρο Υγείας Αριδαίας", "name:el": "Κέντρο Υγείας Αριδαίας", "name:en": "Aridaia health center", "phone": "+30 2384350000"}}, {"name": "Ψυχιατρικό Νοσοκομείο Θεσσαλονίκης", "latitude": 40.6662839, "longitude": 22.9403365, "source": "osm", "_tags": {"amenity": "hospital", "barrier": "wall", "emergency": "yes", "health_facility:type": "hospital", "healthcare": "hospital", "healthcare:speciality": "psychiatry", "name": "Ψυχιατρικό Νοσοκομείο Θεσσαλονίκης", "wikidata": "Q21626627"}}, {"name": "Πολυϊατρείο ΙΚΑ-ΕΤΑΜ Κιλκίς", "latitude": 40.992053, "longitude": 22.8665134, "source": "osm", "_tags": {"amenity": "hospital", "building": "yes", "healthcare": "hospital", "name": "Πολυϊατρείο ΙΚΑ-ΕΤΑΜ Κιλκίς"}}, {"name": "Γενικό Νοσοκομείο Κιλκίς", "latitude": 40.9901585, "longitude": 22.8661983, "source": "osm", "_tags": {"addr:city": "Κιλκίς", "addr:housenumber": "1", "addr:postcode": "611 00", "addr:street": "Νοσοκομείου", "amenity": "hospital", "email": "info@ghkilkis.gr", "emergency": "yes", "healthcare": "hospital", "name": "Γενικό Νοσοκομείο Κιλκίς", "name:el": "Γενικό Νοσοκομείο Κιλκίς", "name:en": "General Hospital of Kilkis", "phone": "+3023413 51400", "website": "https://ghkilkis.gr/", "wikidata": "Q21626630"}}, {"name": "", "latitude": 41.4122803, "longitude": 22.8796829, "source": "osm", "_tags": {"amenity": "hospital"}}, {"name": "", "latitude": 41.4121094, "longitude": 22.8799099, "source": "osm", "_tags": {"amenity": "hospital"}}, {"name": "Κέντρο Υγείας Πολυκάστρου", "latitude": 40.9974634, "longitude": 22.5777642, "source": "osm", "_tags": {"addr:city": "Πολύκαστρο", "addr:country": "GR", "addr:postcode": "61200", "amenity": "hospital", "healthcare": "hospital", "name": "Κέντρο Υγείας Πολυκάστρου"}}, {"name": "Психијатриска болница “Негорци”", "latitude": 41.1974925, "longitude": 22.4802671, "source": "osm", "_tags": {"amenity": "hospital", "is_in": "Негорци", "name": "Психијатриска болница “Негорци”"}}, {"name": "Γενικό Νοσοκομείο Έδεσσας", "latitude": 40.7909087, "longitude": 22.0424246, "source": "osm", "_tags": {"addr:city": "Έδεσσα", "addr:postcode": "58200", "amenity": "hospital", "date": "20120721", "emergency": "yes", "healthcare": "hospital", "int_name": "Edessa General Hospital", "name": "Γενικό Νοσοκομείο Έδεσσας", "name:el": "Γενικό Νοσοκομείο Έδεσσας", "source": "Bing Aerial Imagery Zoom Level 18", "wikidata": "Q112293054"}}, {"name": "Ιατρείο Ποντοηράκλειας", "latitude": 41.1033867, "longitude": 22.6182183, "source": "osm", "_tags": {"amenity": "hospital", "healthcare": "hospital", "name": "Ιατρείο Ποντοηράκλειας"}}, {"name": "", "latitude": 40.7789237, "longitude": 22.574969, "source": "osm", "_tags": {"addr:city": "Κουφάλια", "addr:postcode": "57100", "addr:street": "Γεωργίου Γεννηματά", "amenity": "hospital", "healthcare": "hospital", "phone": "+30 2391330300"}}, {"name": "", "latitude": 41.2612139, "longitude": 22.8382142, "source": "osm", "_tags": {"amenity": "hospital", "healthcare": "hospital"}}, {"name": "", "latitude": 41.4163822, "longitude": 22.7543572, "source": "osm", "_tags": {"amenity": "hospital"}}, {"name": "", "latitude": 40.6868681, "longitude": 22.2930623, "source": "osm", "_tags": {"amenity": "hospital", "healthcare": "hospital"}}, {"name": "", "latitude": 40.686791, "longitude": 22.2930621, "source": "osm", "_tags": {"amenity": "hospital", "building": "yes", "healthcare": "hospital"}}, {"name": "Κέντρο Υγείας Σκύδρας", "latitude": 40.760489, "longitude": 22.1476794, "source": "osm", "_tags": {"addr:city": "Σκύδρα", "addr:housenumber": "1ο χλμ.", "addr:postcode": "58500", "addr:street": "ΣΣ Νάουσας - Σκύδρα", "amenity": "hospital", "emergency": "no", "fax": "+30 23823 51050", "healthcare": "hospital", "name": "Κέντρο Υγείας Σκύδρας", "phone": "+30 23823 51000"}}, {"name": "Γενικό Νοσοκομείο Βέροιας", "latitude": 40.5035037, "longitude": 22.216064, "source": "osm", "_tags": {"addr:city": "Βέροια", "addr:postcode": "59132", "amenity": "hospital", "emergency": "yes", "healthcare": "hospital", "name": "Γενικό Νοσοκομείο Βέροιας", "wikidata": "Q21626634"}}, {"name": "Κέντρο Υγείας Νέας Μηχανιώνας", "latitude": 40.4587357, "longitude": 22.8622721, "source": "osm", "_tags": {"addr:city": "Νέα Μηχανιώνα", "addr:postcode": "57004", "amenity": "hospital", "fax": "+30 23920 32502", "healthcare": "hospital", "name": "Κέντρο Υγείας Νέας Μηχανιώνας", "phone": "+30 23923 30401"}}, {"name": "Γενικό Νοσοκομείο Νάουσας", "latitude": 40.6279603, "longitude": 22.0736897, "source": "osm", "_tags": {"addr:city": "Νάουσα", "addr:postcode": "59200", "amenity": "hospital", "healthcare": "hospital", "name": "Γενικό Νοσοκομείο Νάουσας", "name:el": "Γενικό Νοσοκομείο Νάουσας", "name:en": "Naousa Hospital", "phone": "+302332059100", "website": "https://www.gnnaousas.gr/", "wikidata": "Q21626635"}}, {"name": "", "latitude": 41.4086376, "longitude": 22.2417547, "source": "osm", "_tags": {"amenity": "hospital", "healthcare": "hospital"}}, {"name": "Γενικό Νοσοκομείο Γιαννιτσών", "latitude": 40.790825, "longitude": 22.4215471, "source": "osm", "_tags": {"amenity": "hospital", "healthcare": "hospital", "name": "Γενικό Νοσοκομείο Γιαννιτσών", "name:el": "Γενικό Νοσοκομείο Γιαννιτσών", "name:en": "Giannitsa General Hospital", "wikidata": "Q112293227"}}, {"name": "", "latitude": 41.261247, "longitude": 22.8382604, "source": "osm", "_tags": {"amenity": "hospital", "healthcare": "hospital"}}, {"name": "Νοσοκομείο Γουμένισσας", "latitude": 40.947357, "longitude": 22.4456184, "source": "osm", "_tags": {"amenity": "hospital", "healthcare": "hospital", "name": "Νοσοκομείο Γουμένισσας", "name:el": "Νοσοκομείο Γουμένισσας", "name:en": "Goumenissa Hospital", "official_name": "Γενικό Νοσοκομείο – Κέντρο Υγείας Γουμένισσας", "operator": "ΕΣΥ", "short_name": "Νοσοκομείο Γουμένισσας", "wikidata": "Q21626631"}}, {"name": "Περιφερειακό Ιατρείο Βορεινού", "latitude": 41.0283374, "longitude": 22.0808822, "source": "osm", "_tags": {"amenity": "hospital", "emergency": "no", "healthcare": "hospital", "healthcare:speciality": "general", "name": "Περιφερειακό Ιατρείο Βορεινού"}}]