[{"name": "Доктор", "latitude": 41.3806044, "longitude": 25.2550793, "source": "osm", "_tags": {"amenity": "doctors", "healthcare": "hospital", "name": "Доктор"}}, {"name": "216 ΚΙΧΝΕ", "latitude": 40.8527402, "longitude": 25.8629468, "source": "osm", "_tags": {"amenity": "hospital", "healthcare": "hospital", "name": "216 ΚΙΧΝΕ", "wikidata": "Q21626646"}}, {"name": "Νοσοκομείο Κομοτηνής", "latitude": 41.1137921, "longitude": 25.31685, "source": "osm", "_tags": {"addr:city": "Κομοτηνή", "addr:postcode": "691 00", "amenity": "hospital", "building:architecture": "modern", "healthcare": "hospital", "name": "Νοσοκομείο Κομοτηνής", "name:bg": "Gradska Bolnica", "name:de": "Bürgerspital", "name:el": "Νοσοκομείο Κομοτηνής", "name:en": "Hospital of Komotini", "name:tr": "Şehir Hastânesi", "start_date": "2025", "website": "https://komotini-hospital.gr", "wheelchair": "yes"}}, {"name": "Спешна Медицинска Помощ  - Филиал Бенковски", "latitude": 41.3766439, "longitude": 25.2563635, "source": "osm", "_tags": {"amenity": "hospital", "healthcare": "hospital", "name": "Спешна Медицинска Помощ  - Филиал Бенковски"}}, {"name": "МБАЛ проф. д-р. Асен Шопов", "latitude": 41.3781307, "longitude": 25.0961341, "source": "osm", "_tags": {"amenity": "hospital", "name": "МБАЛ проф. д-р. Асен Шопов"}}, {"name": "Παλιό Νοσοκομείο Αλεξανδρούπολης", "latitude": 40.8506887, "longitude": 25.8671832, "source": "osm", "_tags": {"addr:city": "Αλεξανδρούπολη", "amenity": "hospital", "healthcare": "hospital", "name": "Παλιό Νοσοκομείο Αλεξανδρούπολης"}}, {"name": "Πανεπιστημιακό Γενικό Νοσοκομείο Αλεξανδρούπολης", "latitude": 40.8617394, "longitude": 25.8025168, "source": "osm", "_tags": {"addr:city": "Αλεξανδρούπολη", "addr:country": "GR", "addr:postcode": "68100", "addr:street": "Δραγάνα", "amenity": "hospital", "healthcare": "hospital", "name": "Πανεπιστημιακό Γενικό Νοσοκομείο Αλεξανδρούπολης", "name:el": "Πανεπιστημιακό Γενικό Νοσοκομείο Αλεξανδρούπολης", "name:en": "University Hospital Alexandroupolis", "phone": "2551351000", "website": "https://www.pgna.gr/", "wikidata": "Q21626643"}}, {"name": "Νοσηλευτικό Κέντρο \"Άγιος Γεώργιος\"", "latitude": 41.0953963, "longitude": 25.4700426, "source": "osm", "_tags": {"amenity": "hospital", "healthcare": "hospital", "int_name": "Agios Georgios", "name": "Νοσηλευτικό Κέντρο \"Άγιος Γεώργιος\""}}, {"name": "Νοσηλευτικό Κέντρο \"Άγία Μαρίνα\"", "latitude": 41.096802, "longitude": 25.4725209, "source": "osm", "_tags": {"amenity": "hospital", "healthcare": "hospital", "int_name": "Agia Marina", "name": "Νοσηλευτικό Κέντρο \"Άγία Μαρίνα\""}}, {"name": "Γενικό Νοσοκομείο Κομοτηνής \"Σισμανόγλειο\"", "latitude": 41.1123543, "longitude": 25.4131697, "source": "osm", "_tags": {"addr:city": "Κομοτηνή", "addr:housenumber": "45", "addr:postcode": "69100", "addr:street": "Σισμάνογλου", "amenity": "hospital", "emergency": "yes", "healthcare": "hospital", "int_name": "General Hospital of Komotini \"Sismanogleio\"", "name": "Γενικό Νοσοκομείο Κομοτηνής \"Σισμανόγλειο\"", "name:el": "Γενικό Νοσοκομείο Κομοτηνής \"Σισμανόγλειο\"", "name:en": "General Hospital of Komotini \"Sismanogleio\"", "name:ro": "Spitalul General „Sismanogleio” Komotini", "phone": "+30 253 135 1100", "type": "multipolygon", "website": "http://www.komotini-hospital.gr"}}]