[{"name": "", "latitude": 40.718204, "longitude": 8.554714, "source": "osm", "_tags": {"addr:city": "Sassari", "addr:postcode": "07100", "emergency": "emergency_ward_entrance", "emergency_ward_entrance": "all", "entrance": "yes", "healthcare": "hospital"}}, {"name": "Lazzaretto di Cala Reale", "latitude": 41.0619414, "longitude": 8.2957633, "source": "osm", "_tags": {"amenity": "hospital", "emergency": "no", "healthcare": "hospital", "name": "Lazzaretto di Cala Reale"}}, {"name": "Ospedale Civile Santissima Annunziata", "latitude": 40.718587, "longitude": 8.5541306, "source": "osm", "_tags": {"amenity": "hospital", "emergency": "yes", "healthcare": "hospital", "landuse": "healthcare", "name": "Ospedale Civile Santissima Annunziata", "operator": "Azienda Ospedaliera Universitaria Sassari", "operator:short": "AOU Sassari"}}, {"name": "Struttura sanitaria San Camillo", "latitude": 40.7623474, "longitude": 8.569086, "source": "osm", "_tags": {"addr:city": "Sassari", "addr:postcode": "07100", "addr:street": "Strada Statale 200 dell'Anglona", "amenity": "hospital", "emergency": "no", "healthcare": "hospital", "landuse": "healthcare", "name": "Struttura sanitaria San Camillo", "operator": "ASL Sassari"}}, {"name": "Ospedale G.A. Alivesi", "latitude": 40.5999701, "longitude": 8.5656999, "source": "osm", "_tags": {"amenity": "hospital", "healthcare": "hospital", "name": "Ospedale G.A. Alivesi"}}, {"name": "Ospedale Civile di Thiesi", "latitude": 40.522978, "longitude": 8.7141908, "source": "osm", "_tags": {"amenity": "hospital", "name": "Ospedale Civile di Thiesi"}}, {"name": "Ospedale Marino Regina Margherita", "latitude": 40.5802575, "longitude": 8.3112031, "source": "osm", "_tags": {"addr:city": "Alghero", "addr:housenumber": "2", "addr:postcode": "07041", "addr:street": "Viale Primo Maggio", "amenity": "hospital", "emergency": "yes", "healthcare": "hospital", "healthcare:speciality": "orthopaedics", "name": "Ospedale Marino Regina Margherita", "operator": "ATS Sardegna"}}, {"name": "Ospedale Civile", "latitude": 40.5801577, "longitude": 8.3198522, "source": "osm", "_tags": {"amenity": "hospital", "check_date": "2025-07-01", "emergency": "yes", "healthcare": "hospital", "name": "Ospedale Civile", "operator": "ATS Sardegna"}}, {"name": "", "latitude": 40.8224984, "longitude": 8.4076401, "source": "osm", "_tags": {"amenity": "hospital", "building": "yes", "healthcare": "hospital", "type": "multipolygon"}}]