[{"name": "Vera Tıp Merkezi", "latitude": 41.0060255, "longitude": 28.7968486, "source": "osm", "_tags": {"amenity": "hospital", "healthcare": "hospital", "name": "Vera Tıp Merkezi"}}, {"name": "Özel Bağcılar Tekden Hastanesi", "latitude": 41.0479666, "longitude": 28.8449942, "source": "osm", "_tags": {"amenity": "hospital", "designation": "sağlık, hastane", "emergency": "yes", "healthcare": "hospital", "name": "Özel Bağcılar Tekden Hastanesi"}}, {"name": "Acıbadem Hospital", "latitude": 40.977664, "longitude": 28.8730593, "source": "osm", "_tags": {"amenity": "hospital", "emergency": "yes", "healthcare": "hospital", "int_name": "Acibadam Bakirkoy Hospital", "name": "Acıbadem Hospital", "name:en": "Acıbadem Bakirkoy Hospital", "name:ku": "ئاجی بادام بەکیرکۆی هۆسپیتەڵ", "operator": "Acıbadem", "operator:type": "private", "operator:wikidata": "Q19610384", "operator:wikipedia": "en:Acıbadem Healthcare Group"}}, {"name": "Birinci Göz Hastanesi Beylikdüzü", "latitude": 41.0112282, "longitude": 28.6428053, "source": "osm", "_tags": {"amenity": "hospital", "healthcare": "hospital", "name": "Birinci Göz Hastanesi Beylikdüzü"}}, {"name": "Dünya Göz Hastanesi Beykent", "latitude": 41.019077, "longitude": 28.6274846, "source": "osm", "_tags": {"amenity": "hospital", "healthcare": "hospital", "name": "Dünya Göz Hastanesi Beykent"}}, {"name": "Belde Tıp Merkezi", "latitude": 41.057449, "longitude": 28.9158289, "source": "osm", "_tags": {"amenity": "hospital", "emergency": "no", "healthcare": "hospital", "name": "Belde Tıp Merkezi"}}, {"name": "Alataş Polikliniği", "latitude": 41.0347149, "longitude": 28.6806966, "source": "osm", "_tags": {"amenity": "hospital", "healthcare": "hospital", "name": "Alataş Polikliniği"}}, {"name": "Özel Avcılar Anadolu Hastanesi", "latitude": 41.0054462, "longitude": 28.7061163, "source": "osm", "_tags": {"amenity": "hospital", "emergency": "yes", "healthcare": "hospital", "name": "Özel Avcılar Anadolu Hastanesi"}}, {"name": "Özel Avcılar Hospital", "latitude": 40.9947818, "longitude": 28.709593, "source": "osm", "_tags": {"addr:city": "istanbul", "addr:district": "avcılar", "addr:neighbourhood": "Üniversite Mahallesi", "addr:postcode": "34320", "addr:street": "Uran Caddesi", "amenity": "hospital", "emergency": "yes", "healthcare": "hospital", "name": "Özel Avcılar Hospital", "operator": "Özel Hastane", "operator:type": "private"}}, {"name": "Özel Medicana Hastanesi", "latitude": 40.9812753, "longitude": 28.7211479, "source": "osm", "_tags": {"amenity": "hospital", "emergency": "yes", "healthcare": "hospital", "name": "Özel Medicana Hastanesi"}}, {"name": "Alibey Hastanesi", "latitude": 41.0789994, "longitude": 28.9270647, "source": "osm", "_tags": {"addr:street": "ATATÜRK caddesi", "amenity": "hospital", "healthcare": "hospital", "name": "Alibey Hastanesi", "wheelchair": "limited"}}, {"name": "Koç Üniversitesi Hastanesi", "latitude": 41.0241414, "longitude": 28.9166504, "source": "osm", "_tags": {"amenity": "hospital", "emergency": "yes", "healthcare": "hospital", "image": "https://kuhcdn.azureedge.net/getmedia/88ab84d2-3604-4c13-82f9-ff8db4acdeee/kurumsal-slider-kuh.jpg.aspx?width=1920&height=1080&ext=.jpg", "name": "Koç Üniversitesi Hastanesi", "name:en": "Koc University Hospital", "website": "https://www.kuh.ku.edu.tr/", "wikimedia_commons": "File:Koc University Hospital.jpg", "wikipedia": "tr:Koç Üniversitesi Hastanesi"}}, {"name": "Özel Mediplus Tıp Merkezi", "latitude": 41.0178075, "longitude": 28.6608987, "source": "osm", "_tags": {"amenity": "hospital", "emergency": "yes", "healthcare": "hospital", "name": "Özel Mediplus Tıp Merkezi"}}, {"name": "Bakırköy Dr. Sadi Konuk Eğitim ve Araştırma Hastanesi Bahçelievler Polikliniği", "latitude": 40.9970758, "longitude": 28.8560596, "source": "osm", "_tags": {"amenity": "hospital", "healthcare": "hospital", "name": "Bakırköy Dr. Sadi Konuk Eğitim ve Araştırma Hastanesi Bahçelievler Polikliniği"}}, {"name": "Özel Akgün Tem Hastanesi", "latitude": 41.0614165, "longitude": 28.8016254, "source": "osm", "_tags": {"amenity": "hospital", "healthcare": "hospital", "name": "Özel Akgün Tem Hastanesi"}}, {"name": "", "latitude": 41.0113498, "longitude": 28.6451328, "source": "osm", "_tags": {"amenity": "hospital", "healthcare": "hospital", "name:ar": "مديكانا اسطنبول"}}, {"name": "Güney Hastanesi", "latitude": 41.0437273, "longitude": 28.8796744, "source": "osm", "_tags": {"amenity": "hospital", "healthcare": "hospital", "name": "Güney Hastanesi"}}, {"name": "Surp Pırgiç Ermeni Hastanesi", "latitude": 40.9939323, "longitude": 28.9146943, "source": "osm", "_tags": {"alt_name": "Yedikule Surp Pırgiç Ermeni Hastanesi Vakfı", "amenity": "hospital", "healthcare": "hospital", "name": "Surp Pırgiç Ermeni Hastanesi", "wikipedia": "tr:Surp Pırgiç Ermeni Hastanesi"}}, {"name": "Bağcılar Eğitim ve Araştırma Hastanesi", "latitude": 41.0301322, "longitude": 28.8712404, "source": "osm", "_tags": {"addr:city": "Istanbul", "addr:district": "Bağcılar", "addr:street": "dr Ahmet sadık caddesi", "amenity": "hospital", "contact:phone": "(0212) 440 40 00", "emergency": "yes", "fee": "no", "healthcare": "hospital", "healthcare:speciality": "general", "name": "Bağcılar Eğitim ve Araştırma Hastanesi", "opening_hours": "Mo-Fr 08:00-17:00", "wikidata": "Q50036413"}}, {"name": "Özel İstanbul Şafak Hastahanesi", "latitude": 41.0656093, "longitude": 28.8999746, "source": "osm", "_tags": {"amenity": "hospital", "emergency": "yes", "healthcare": "hospital", "name": "Özel İstanbul Şafak Hastahanesi"}}, {"name": "Özel gop Yaşam Diyaliz Merkezi", "latitude": 41.1049081, "longitude": 28.8645332, "source": "osm", "_tags": {"amenity": "hospital", "healthcare": "hospital", "name": "Özel gop Yaşam Diyaliz Merkezi"}}, {"name": "İstanbulum Tıp Merkezi", "latitude": 41.1034186, "longitude": 28.8616773, "source": "osm", "_tags": {"amenity": "hospital", "healthcare": "hospital", "name": "İstanbulum Tıp Merkezi"}}, {"name": "Özel Marmara Ereğlisi Polikliniği", "latitude": 40.9731244, "longitude": 27.9491812, "source": "osm", "_tags": {"amenity": "hospital", "healthcare": "hospital", "name": "Özel Marmara Ereğlisi Polikliniği"}}, {"name": "balıklı rum hastanesi vakfı", "latitude": 40.9996039, "longitude": 28.9175398, "source": "osm", "_tags": {"addr:city": "Istanbul", "addr:district": "Zeytinburnu", "amenity": "hospital", "emergency": "yes", "fee": "yes", "healthcare": "hospital", "healthcare:speciality": "general", "name": "balıklı rum hastanesi vakfı", "name:ar": "مستشفى بالكلي روم"}}, {"name": "Yedikule Göğüş Hastalıkları Hastanesi", "latitude": 41.0021036, "longitude": 28.9152374, "source": "osm", "_tags": {"addr:city": "Istanbul", "addr:district": "Zeytinburnu", "amenity": "hospital", "description": "امراض صدرية", "emergency": "yes", "fee": "no", "healthcare": "hospital", "healthcare:speciality": "women;emergency;general", "name": "Yedikule Göğüş Hastalıkları Hastanesi", "name:ar": "مستشفى يدي كولي للأمراض الصدرية", "opening_hours": "24/7"}}, {"name": "Yedikule Surp PIRGIÇ ERMENI Hastanesi", "latitude": 40.9938689, "longitude": 28.9152516, "source": "osm", "_tags": {"addr:city": "Istanbul", "addr:district": "Zeytinburnu", "amenity": "hospital", "emergency": "yes", "fee": "yes", "healthcare": "hospital", "healthcare:speciality": "emergency;general", "name": "Yedikule Surp PIRGIÇ ERMENI Hastanesi", "name:ar": "مستشفى سورب بيرقيج ارمني", "opening_hours": "24/7"}}, {"name": "SÜLEYMANİYE KADIN DOĞUM VE ÇOCUK HASTANESİ", "latitude": 40.9956164, "longitude": 28.9148279, "source": "osm", "_tags": {"addr:city": "Istanbul", "addr:district": "Zeytinburnu", "amenity": "hospital", "emergency": "yes", "fee": "no", "healthcare": "hospital", "healthcare:speciality": "emergency", "name": "SÜLEYMANİYE KADIN DOĞUM VE ÇOCUK HASTANESİ", "name:ar": "مستشفى السليمانية للولادة والاطفال"}}, {"name": "MEDILIFE HASTANESİ", "latitude": 41.048796, "longitude": 28.8595084, "source": "osm", "_tags": {"addr:city": "Istanbul", "addr:district": "Bağcılar", "addr:street": "Osmangazi Cadesi", "amenity": "hospital", "emergency": "yes", "fee": "yes", "healthcare": "hospital", "healthcare:speciality": "community", "name": "MEDILIFE HASTANESİ", "name:ar": "مستشفى ماديليف", "opening_hours": "24/7"}}, {"name": "Aksa", "latitude": 41.0314854, "longitude": 28.826181, "source": "osm", "_tags": {"addr:city": "Istanbul", "addr:district": "Bağcılar", "addr:street": "kocman caddesi", "amenity": "hospital", "healthcare": "hospital", "healthcare:speciality": "emergency", "name": "Aksa", "name:ar": "اقصى"}}, {"name": "Özel Hospitalist Hastanesi", "latitude": 41.0345832, "longitude": 28.8550884, "source": "osm", "_tags": {"addr:city": "Istanbul", "addr:district": "Bağcılar", "addr:street": "Birlik Caddesi", "amenity": "hospital", "emergency": "yes", "fee": "yes", "healthcare": "hospital", "healthcare:speciality": "general", "name": "Özel Hospitalist Hastanesi", "name:ar": "أوزال هوسبيتاليست"}}, {"name": "İstanbul Eğitim ve Araştırma Hastanesi Osmaniye Semt Poliklinği", "latitude": 40.9920204, "longitude": 28.8813608, "source": "osm", "_tags": {"addr:housenumber": "34146", "addr:street": "Fabrikalar Cd.", "amenity": "hospital", "healthcare": "hospital", "name": "İstanbul Eğitim ve Araştırma Hastanesi Osmaniye Semt Poliklinği", "opening_hours": "Mo-Fr 09:00-17:00", "phone": "(0212) 660 86 57", "website": "https://istanbuleah.saglik.gov.tr"}}, {"name": "Gaziosmanpaşa Özel Başarı Hastanesi", "latitude": 41.0797533, "longitude": 28.9066811, "source": "osm", "_tags": {"amenity": "hospital", "healthcare": "hospital", "name": "Gaziosmanpaşa Özel Başarı Hastanesi"}}, {"name": "Dayıoğlu Tıp Merkezi", "latitude": 41.0633215, "longitude": 28.746725, "source": "osm", "_tags": {"amenity": "hospital", "healthcare": "hospital", "name": "Dayıoğlu Tıp Merkezi"}}, {"name": "İstanbullu OSGB", "latitude": 41.0800511, "longitude": 28.8059014, "source": "osm", "_tags": {"amenity": "hospital", "healthcare": "hospital", "name": "İstanbullu OSGB"}}, {"name": "Küçükyoncalı Köyü Aile Sağlığı Merkezi", "latitude": 41.4077734, "longitude": 27.970619, "source": "osm", "_tags": {"amenity": "hospital", "healthcare": "hospital", "name": "Küçükyoncalı Köyü Aile Sağlığı Merkezi"}}, {"name": "Özel 2000 Tıp Merkezi", "latitude": 41.0205828, "longitude": 28.5809717, "source": "osm", "_tags": {"amenity": "hospital", "healthcare": "hospital", "name": "Özel 2000 Tıp Merkezi"}}, {"name": "Özel Elitium", "latitude": 41.0603661, "longitude": 28.6760478, "source": "osm", "_tags": {"addr:city": "İstanbul", "addr:district": "Esenyurt", "addr:neighbourhood": "Aşık Veysel Mahallesi", "addr:street": "Süleyman Demirel Caddesi", "amenity": "hospital", "healthcare": "hospital", "name": "Özel Elitium", "operator": "Özel Elitium", "operator:type": "private", "wheelchair": "yes"}}, {"name": "İstanbul Tema Hastanesi", "latitude": 41.0600854, "longitude": 28.7739432, "source": "osm", "_tags": {"amenity": "hospital", "healthcare": "hospital", "name": "İstanbul Tema Hastanesi"}}, {"name": "Infinity Smiles Ağız ve Diş Sağlığı Polikliniği", "latitude": 41.1144624, "longitude": 28.7685369, "source": "osm", "_tags": {"addr:city": "istanbul", "addr:district": "başakşehir", "addr:housenumber": "D Blok", "addr:neighbourhood": "kayabaşı mahallesi Başakşehir Evleri 1.Etap 2.Kısım", "addr:postcode": "34494", "addr:street": "Evliya Çelebi Caddesi", "amenity": "clinic", "email": "info@infinitysmiles.net", "healthcare": "hospital", "healthcare:speciality": "dentist;dental;implantology;orthodontics;clinic", "name": "Infinity Smiles Ağız ve Diş Sağlığı Polikliniği", "name:ar": "مركز عيادات انفينيتي سمايلز لطب الأسنان", "name:en": "Infinity Smiles Dental Clinic in Istanbul. Implants, Orthodontics, Invisalign, Veneers", "phone": "+902126719999", "website": "https://www.infinitysmiles.net/"}}, {"name": "Bayrampaşa 1 Nolu Yabancı Uyruklular Polikliniği", "latitude": 41.0303249, "longitude": 28.9070788, "source": "osm", "_tags": {"addr:city": "İstanbul", "addr:district": "Bayrampaşa", "addr:housenumber": "44", "addr:street": "Hayat Sokağı", "amenity": "hospital", "healthcare": "hospital", "name": "Bayrampaşa 1 Nolu Yabancı Uyruklular Polikliniği"}}, {"name": "Bağcılar 28 Nolu Aile Sağlığı Merkezi", "latitude": 41.0431277, "longitude": 28.8201612, "source": "osm", "_tags": {"addr:city": "İstanbul", "addr:district": "Bağcılar", "addr:housenumber": "8/A", "addr:street": "1424. Sokak", "amenity": "hospital", "healthcare": "hospital", "name": "Bağcılar 28 Nolu Aile Sağlığı Merkezi", "operator": "Sağlık Bakanlığı", "operator:type": "public", "operator:wikidata": "Q4294365", "operator:wikipedia": "tr:Türkiye Cumhuriyeti Sağlık Bakanlığı"}}, {"name": "Acil Tıp Kliniği", "latitude": 41.0028506, "longitude": 28.9370757, "source": "osm", "_tags": {"amenity": "hospital", "healthcare": "hospital", "name": "Acil Tıp Kliniği"}}, {"name": "Bezmialem Vakıf Üniversitesi Tıp Fakültesi Acil Tıp", "latitude": 41.0199922, "longitude": 28.9348553, "source": "osm", "_tags": {"amenity": "hospital", "emergency": "yes", "healthcare": "hospital", "healthcare:speciality": "emergency", "name": "Bezmialem Vakıf Üniversitesi Tıp Fakültesi Acil Tıp", "operator": "Bezmialem Vakfı", "operator:type": "association", "website": "http://acil.bezmialemhastanesi.com/tr/Sayfalar/index.aspx"}}, {"name": "Bakırköy 4 Nolu Aile Sağlığı Merkezi", "latitude": 40.9785089, "longitude": 28.8718638, "source": "osm", "_tags": {"addr:city": "İstanbul", "addr:district": "Bakırköy", "addr:housenumber": "1", "addr:neighbourhood": "Zeytinlik Mahallesi", "addr:street": "Milliyetçi Sokak", "amenity": "hospital", "healthcare": "hospital", "healthcare:speciality": "family_medicine", "name": "Bakırköy 4 Nolu Aile Sağlığı Merkezi", "operator": "Sağlık Bakanlığı", "operator:type": "government", "operator:wikidata": "Q4294365", "phone": "+90212 663 28 33"}}, {"name": "Büyükçekmece Aile Sağlığı Merkezi", "latitude": 41.0203306, "longitude": 28.5786177, "source": "osm", "_tags": {"amenity": "hospital", "healthcare": "hospital", "name": "Büyükçekmece Aile Sağlığı Merkezi"}}, {"name": "Sağlık Ocağı", "latitude": 41.0168104, "longitude": 28.6041953, "source": "osm", "_tags": {"amenity": "hospital", "healthcare": "hospital", "name": "Sağlık Ocağı"}}, {"name": "İstanbul Üniversitesi Tıp Fakültesi Hastanesi", "latitude": 41.0168625, "longitude": 28.9339596, "source": "osm", "_tags": {"addr:city": "Istanbul", "addr:district": "Fatih", "addr:neighbourhood": "Topkapı", "ambulance": "yes", "amenity": "hospital", "emergency": "yes", "healthcare": "hospital", "name": "İstanbul Üniversitesi Tıp Fakültesi Hastanesi", "operator:type": "university"}}, {"name": "Medihaus", "latitude": 41.0133418, "longitude": 28.6568742, "source": "osm", "_tags": {"addr:housenumber": "9", "addr:street": "Sultan Murat Caddesi", "amenity": "hospital", "healthcare": "hospital", "name": "Medihaus", "name:tr": "Medihaus Surgery Center"}}, {"name": "Hürriyet Aile Sağlığı Merkezi", "latitude": 41.3347351, "longitude": 27.9807384, "source": "osm", "_tags": {"addr:street": "Erbay Caddesi", "amenity": "hospital", "name": "Hürriyet Aile Sağlığı Merkezi"}}, {"name": "Özel Asya Hastanesi", "latitude": 41.073873, "longitude": 28.9038241, "source": "osm", "_tags": {"addr:city": "İstanbul", "addr:district": "Gaziosmanpaşa", "addr:housenumber": "5", "addr:neighbourhood": "Yeni Mahalle", "addr:postcode": "34250", "addr:street": "537. Sokak", "amenity": "hospital", "emergency": "yes", "fax": "+90 212 537 0767", "healthcare": "hospital", "name": "Özel Asya Hastanesi", "phone": "+90 850 474 1616", "website": "https://asyahastanesi.com/"}}, {"name": "Özel Bilge Hastanesi", "latitude": 41.0695422, "longitude": 28.9073845, "source": "osm", "_tags": {"addr:city": "İstanbul", "addr:district": "Gaziosmanpaşa", "addr:neighbourhood": "Şemsipaşa", "addr:postcode": "34250", "addr:street": "56. Sokak", "amenity": "hospital", "email": "bilgi@bilgehastanesi.com", "emergency": "yes", "healthcare": "hospital", "name": "Özel Bilge Hastanesi", "phone": "+90 850 460 9575", "start_date": "2000"}}, {"name": "Avrupa Özel Şafak Hastanesi", "latitude": 41.0596967, "longitude": 28.9123842, "source": "osm", "_tags": {"addr:city": "İstanbul", "addr:district": "Gaziosmanpaşa", "addr:housenumber": "2-4/B", "addr:neighbourhood": "Merkez", "addr:postcode": "34245", "addr:street": "Hastane Sokağı", "amenity": "hospital", "email": "info@avrupasafak.com", "emergency": "yes", "fax": "+90 212 417 0020", "healthcare": "hospital", "name": "Avrupa Özel Şafak Hastanesi", "phone": "+90 212 417 0000", "start_date": "1998-12-10"}}, {"name": "Diş Hekimi Aygul Abubekerova", "latitude": 41.0026384, "longitude": 28.6261883, "source": "osm", "_tags": {"addr:city": "Beylikdüzü/İstanbul", "addr:housenumber": "31/3", "addr:neighbourhood": "Adnan Kahveci Mahallesi", "addr:postcode": "34550", "addr:street": "Yavuz Sultan Selim Bulvarı", "amenity": "hospital", "description": "Русскоязычный стоматолог в Стамбуле", "email": "info@ngymed.com", "healthcare": "hospital", "healthcare:speciality": "denturist;paediatric_dentistry;dental_oral_maxillo_facial_surgery;dentistry;dental;dentist", "name": "Diş Hekimi Aygul Abubekerova", "phone": "+905527119111", "website": "https://dentistaygul.com/"}}, {"name": "NGY Med Dental Clinic", "latitude": 41.0025741, "longitude": 28.6261789, "source": "osm", "_tags": {"addr:city": "Beylikdüzü/İstanbul", "addr:housenumber": "31/3", "addr:neighbourhood": "Adnan Kahveci Mahallesi", "addr:postcode": "34550", "addr:street": "Yavuz Sultan Selim Bulvarı", "amenity": "hospital", "email": "info@ngymed.com", "healthcare": "hospital", "healthcare:speciality": "dentist;dental_oral_maxillo_facial_surgery;denturist;dentistry;dental;paediatric_dentistry", "name": "NGY Med Dental Clinic", "phone": "+905527119111", "website": "https://ngymed.com/"}}, {"name": "Gaziosmanpaşa Sile Sağlığı Merkezi", "latitude": 41.2860523, "longitude": 27.9967343, "source": "osm", "_tags": {"amenity": "hospital", "name": "Gaziosmanpaşa Sile Sağlığı Merkezi"}}, {"name": "Acıbadem", "latitude": 41.1797497, "longitude": 28.8860229, "source": "osm", "_tags": {"amenity": "hospital", "healthcare": "hospital", "name": "Acıbadem", "operator": "Acıbadem", "operator:wikidata": "Q19610384"}}, {"name": "Patológia", "latitude": 41.003674, "longitude": 28.9383347, "source": "osm", "_tags": {"amenity": "hospital", "healthcare": "hospital", "name": "Patológia", "name:en": "Pathology"}}, {"name": "Selimpaşa Aile Sağlığı Merkezi", "latitude": 41.0554262, "longitude": 28.3671171, "source": "osm", "_tags": {"amenity": "hospital", "healthcare": "hospital", "name": "Selimpaşa Aile Sağlığı Merkezi"}}, {"name": "Eyüp Kemerburgaz Aile Sağlığı Merkezi", "latitude": 41.159064, "longitude": 28.91162, "source": "osm", "_tags": {"amenity": "hospital", "healthcare": "hospital", "name": "Eyüp Kemerburgaz Aile Sağlığı Merkezi"}}, {"name": "Bağcılar İşitme Engelli Rehabilitasyon Merkezi", "latitude": 41.0254232, "longitude": 28.8487524, "source": "osm", "_tags": {"amenity": "hospital", "healthcare": "hospital", "name": "Bağcılar İşitme Engelli Rehabilitasyon Merkezi"}}, {"name": "Özel Belde Tıp Merkezi", "latitude": 41.0567006, "longitude": 28.9153423, "source": "osm", "_tags": {"addr:city": "İstanbul", "addr:district": "Gaziosmanpaşa", "addr:neighbourhood": "Merkez", "addr:postcode": "34245", "amenity": "hospital", "emergency": "yes", "healthcare": "hospital", "name": "Özel Belde Tıp Merkezi"}}, {"name": "Gültepe Aile Sağlığı Merkezi", "latitude": 41.2723236, "longitude": 27.9757857, "source": "osm", "_tags": {"amenity": "hospital", "name": "Gültepe Aile Sağlığı Merkezi"}}, {"name": "İstinye Üniversite Hastanesi", "latitude": 41.0562343, "longitude": 28.6719772, "source": "osm", "_tags": {"amenity": "hospital", "name": "İstinye Üniversite Hastanesi"}}, {"name": "Özel Lilyum Tıp Merkezi", "latitude": 41.1577165, "longitude": 28.6273395, "source": "osm", "_tags": {"addr:city": "İstanbul", "addr:housenumber": "4-6", "addr:neighbourhood": "Hadımköy Mahallesi", "addr:street": "Yaşar Doğu Caddesi", "amenity": "hospital", "healthcare": "hospital", "name": "Özel Lilyum Tıp Merkezi", "website": "https://www.lilyumtipmerkezi.com.tr/"}}, {"name": "Sevgi Aile Sağlığı Merkezi", "latitude": 41.2909587, "longitude": 27.9951194, "source": "osm", "_tags": {"amenity": "hospital", "name": "Sevgi Aile Sağlığı Merkezi"}}, {"name": "Çapa Tıp Fakültesi Hastanesi", "latitude": 41.0169569, "longitude": 28.9339536, "source": "osm", "_tags": {"alt_name": "İstanbul Tıp Fakültesi Hastanesi", "amenity": "hospital", "emergency": "yes", "fee": "no", "healthcare": "hospital", "name": "Çapa Tıp Fakültesi Hastanesi", "name:ar": "مستشفى تشابا الجامعي", "operator": "T.C. İstanbul Üniversitesi", "operator:type": "government", "website": "https://istanbultip.istanbul.edu.tr/", "wheelchair": "limited", "wikidata": "Q6065437", "wikimedia_commons": "Category:Istanbul Faculty of Medicine", "wikipedia": "tr:İstanbul Tıp Fakültesi"}}, {"name": "Özel Çapa Hastanesi", "latitude": 41.0133216, "longitude": 28.9341763, "source": "osm", "_tags": {"addr:city": "Istanbul", "addr:district": "Turkey", "addr:street": "Necip Asım Sokağı", "amenity": "hospital", "building": "yes", "emergency": "yes", "fee": "yes", "healthcare": "hospital", "healthcare:speciality": "general", "name": "Özel Çapa Hastanesi", "name:ar": "مشفى تشابا الخاص", "opening_hours": "24/7", "operator:type": "private"}}, {"name": "İstanbul Bezmialem Vakıf Üniversitesi Valide Sultan Gureba Hastanesi", "latitude": 41.0186346, "longitude": 28.9359844, "source": "osm", "_tags": {"amenity": "hospital", "emergency": "yes", "fee": "yes", "healthcare": "hospital", "name": "İstanbul Bezmialem Vakıf Üniversitesi Valide Sultan Gureba Hastanesi", "operator": "İstanbul Bezm-i alem Vakfı", "operator:type": "private", "wheelchair": "yes"}}, {"name": "Medilife Çapa Hastanesi", "latitude": 41.0148299, "longitude": 28.9334617, "source": "osm", "_tags": {"addr:city": "İstanbul", "addr:district": "Fatih", "addr:neighbourhood": "Şehremini Mahallesi", "addr:street": "Necip Asım Sokak", "amenity": "hospital", "building": "yes", "emergency": "yes", "fee": "yes", "healthcare": "hospital", "name": "Medilife Çapa Hastanesi", "name:ar": "مشفى ميدي لايف", "opening_hours": "24/7", "operator": "Medilife", "operator:type": "private", "wheelchair": "yes"}}, {"name": "İstanbul Eğitim ve Araştırma Hastanesi", "latitude": 41.0032691, "longitude": 28.9380405, "source": "osm", "_tags": {"addr:city": "İstanbul", "addr:district": "Fatih", "amenity": "hospital", "emergency": "yes", "fee": "no", "healthcare": "hospital", "name": "İstanbul Eğitim ve Araştırma Hastanesi", "name:en": "Istanbul Samatya Education and Research Hospital", "operator": "Sağlık Bakanlığı", "operator:type": "government", "operator:wikidata": "Q4294365", "operator:wikipedia": "tr:Türkiye Cumhuriyeti Sağlık Bakanlığı", "phone": "+90 212 459 60 00", "website": "http://www.istanbuleah.saglik.gov.tr/", "wheelchair": "limited", "wikidata": "Q6098740", "wikimedia_commons": "Category:İstanbul Eğitim ve Araştırma Hospital", "wikipedia": "tr:İstanbul Eğitim ve Araştırma Hastanesi"}}, {"name": "Acıbadem International Hospital", "latitude": 40.9589216, "longitude": 28.8355416, "source": "osm", "_tags": {"addr:city": "İstanbul", "addr:country": "TR", "addr:housenumber": "82", "addr:street": "İstanbul Caddesi", "amenity": "hospital", "building": "yes", "healthcare": "hospital", "name": "Acıbadem International Hospital", "name:ar": "مشفى اجابيدم الدولي", "operator": "Acıbadem", "operator:wikidata": "Q19610384", "toilets:wheelchair": "yes", "website": "https://www.internationalhospital.com.tr/", "wheelchair": "yes"}}, {"name": "Kolan Hospital-Beylikdüzü", "latitude": 41.0066704, "longitude": 28.6296259, "source": "osm", "_tags": {"addr:city": "İstanbul", "addr:district": "Beylikdüzü", "addr:street": "Osmanlı Caddesi", "amenity": "hospital", "emergency": "yes", "healthcare": "hospital", "name": "Kolan Hospital-Beylikdüzü", "name:ar": "مشفى كولان في بيليك دوزو"}}, {"name": "Esenyurt Necmi Kadıoğlu Devlet Hastanesi", "latitude": 41.0286914, "longitude": 28.6683609, "source": "osm", "_tags": {"amenity": "hospital", "emergency": "yes", "healthcare": "hospital", "name": "Esenyurt Necmi Kadıoğlu Devlet Hastanesi", "wheelchair": "yes"}}, {"name": "Büyükçekmece Devlet Hastanesi Gürpınar Poliklinikleri", "latitude": 40.9964703, "longitude": 28.6075927, "source": "osm", "_tags": {"amenity": "hospital", "emergency": "no", "healthcare": "hospital", "name": "Büyükçekmece Devlet Hastanesi Gürpınar Poliklinikleri"}}, {"name": "Özel Gazi Hastanesi", "latitude": 41.1010032, "longitude": 28.8985811, "source": "osm", "_tags": {"amenity": "hospital", "building": "yes", "emergency": "yes", "healthcare": "hospital", "name": "Özel Gazi Hastanesi"}}, {"name": "Esenyurt Devlet Hastanesi (Ek Binası)", "latitude": 41.0325033, "longitude": 28.6830154, "source": "osm", "_tags": {"amenity": "hospital", "healthcare": "hospital", "name": "Esenyurt Devlet Hastanesi (Ek Binası)"}}, {"name": "Beylikdüzü Devlet Hastanesi", "latitude": 41.0147199, "longitude": 28.6244577, "source": "osm", "_tags": {"amenity": "hospital", "emergency": "yes", "healthcare": "hospital", "name": "Beylikdüzü Devlet Hastanesi"}}, {"name": "Medihaus Tıp Merkezi", "latitude": 41.0133707, "longitude": 28.6569108, "source": "osm", "_tags": {"addr:housenumber": "9", "addr:postcode": "34515", "addr:street": "Sultan Ahmet Caddesi", "amenity": "hospital", "building": "yes", "email": "info@medihaus.com.tr", "healthcare": "hospital", "internet_access": "wlan", "name": "Medihaus Tıp Merkezi", "name:en": "Medihaus Medical Center", "opening_hours": "24/7", "phone": "444 5 748", "website": "https://www.medihaus.com.tr/"}}, {"name": "Başakşehir Tıp Merkezi", "latitude": 41.1055494, "longitude": 28.7934497, "source": "osm", "_tags": {"amenity": "hospital", "building": "yes", "emergency": "yes", "healthcare": "hospital", "name": "Başakşehir Tıp Merkezi", "phone": "+90 212 485 57 80", "website": "https://basaksehirtipmerkezi.com/", "wheelchair": "yes"}}, {"name": "Çerkezköy Devlet Hastanesi", "latitude": 41.2844779, "longitude": 28.011958, "source": "osm", "_tags": {"amenity": "hospital", "emergency": "yes", "healthcare": "hospital", "name": "Çerkezköy Devlet Hastanesi", "operator": "Sağlık Bakanlığı", "operator:wikidata": "Q4294365", "operator:wikipedia": "tr:Türkiye Cumhuriyeti Sağlık Bakanlığı"}}, {"name": "Acıbadem Hospital", "latitude": 41.0035592, "longitude": 28.6559044, "source": "osm", "_tags": {"amenity": "hospital", "healthcare": "hospital", "name": "Acıbadem Hospital", "operator": "Acıbadem", "operator:wikidata": "Q19610384", "operator:wikipedia": "en:Acıbadem Healthcare Group"}}, {"name": "Memorial Hizmet Hastanesi", "latitude": 41.0010816, "longitude": 28.8802222, "source": "osm", "_tags": {"addr:city": "Bahçelievler/İstanbul", "amenity": "hospital", "emergency": "yes", "healthcare": "hospital", "name": "Memorial Hizmet Hastanesi"}}, {"name": "İlgi Hastanesi", "latitude": 41.0209094, "longitude": 28.8666912, "source": "osm", "_tags": {"addr:housenumber": "77", "addr:street": "Soganli Cd.", "amenity": "hospital", "emergency": "yes", "healthcare": "hospital", "name": "İlgi Hastanesi", "wheelchair": "yes"}}, {"name": "Aile Hastanesi", "latitude": 40.9974037, "longitude": 28.8669638, "source": "osm", "_tags": {"amenity": "hospital", "emergency": "yes", "healthcare": "hospital", "name": "Aile Hastanesi"}}, {"name": "Memorial Bahçelievler Hastanesi", "latitude": 40.993276, "longitude": 28.8527432, "source": "osm", "_tags": {"addr:city": "İstanbul", "addr:district": "Bahçelievler", "addr:housenumber": "227", "addr:neighbourhood": "Bahçelievler", "addr:postcode": "34476", "addr:street": "Adnan Kahveci Bulvarı", "amenity": "hospital", "building:levels": "3", "emergency": "yes", "healthcare": "hospital", "name": "Memorial Bahçelievler Hastanesi", "operator": "Memorial", "operator:type": "private", "website": "https://www.memorial.com.tr/hastane-ve-tip-merkezleri/bahcelievler/"}}, {"name": "Acıbadem Üniversitesi Hastanesi", "latitude": 41.0349134, "longitude": 28.7786592, "source": "osm", "_tags": {"addr:city": "İstasyon Mh.  Küçükçekmece/İstanbul", "addr:street": "Turgut Özal Bulvarı", "amenity": "hospital", "emergency": "yes", "healthcare": "hospital", "name": "Acıbadem Üniversitesi Hastanesi", "operator": "Acıbadem", "operator:type": "private", "operator:wikidata": "Q19610384", "wikidata": "Q43896349"}}, {"name": "Mehmet Akif Ersoy Göğüs Kalp Ve Damar Cerrahisi Eğitim Ve Araştırma Hastanesi", "latitude": 41.0333565, "longitude": 28.7770266, "source": "osm", "_tags": {"addr:city": "Istasyon Mah. Bezirgan Bahçe Mevkii Atakent Küçükçekmece/ ISTANBUL", "addr:postcode": "34303", "amenity": "hospital", "emergency": "yes", "healthcare": "hospital", "name": "Mehmet Akif Ersoy Göğüs Kalp Ve Damar Cerrahisi Eğitim Ve Araştırma Hastanesi", "phone": "+90212 692 20 00", "website": "http://www.imaeh.gov.tr/"}}, {"name": "Kanuni Sultan Süleyman Eğitim ve Araştırma Hastanesi", "latitude": 41.0546445, "longitude": 28.7595861, "source": "osm", "_tags": {"addr:city": "Atakent Mah. Altınşehir / Küçükçekmece/İstanbul", "addr:housenumber": "1", "addr:postcode": "34303", "addr:street": "Turgut Özal Cd", "amenity": "hospital", "emergency": "yes", "healthcare": "hospital", "name": "Kanuni Sultan Süleyman Eğitim ve Araştırma Hastanesi", "phone": "+90 212 404 1500 ‎", "website": "http://kanunieah.gov.tr", "wikidata": "Q30260515"}}, {"name": "Özel Avrasya Hastanesi", "latitude": 41.0032497, "longitude": 28.9066589, "source": "osm", "_tags": {"addr:city": "Istanbul", "addr:district": "Zeytinburnu", "addr:housenumber": "107", "addr:neighbourhood": "Beştelsiz", "addr:postcode": "34020", "addr:street": "101. Sokak", "amenity": "hospital", "contact:phone": "+90 212 665 50 50", "email": "info@avrasyahospital.com.tr", "emergency": "yes", "fee": "yes", "healthcare": "hospital", "healthcare:speciality": "emergency;paediatrics;orthopaedics;vaccination;gynaecology;dermatology;general;surgery;oncology;radiology;cardiology;internal", "internet_access": "wlan", "internet_access:fee": "no", "name": "Özel Avrasya Hastanesi", "name:ar": "مستشفى اوراسيا", "name:en": "Private Avrasya Hospital", "opening_hours": "24/7", "operator": "Avrasya Hospital Zeytinburnu", "operator:type": "public", "website": "https://www.avrasyahospital.com.tr/", "wheelchair": "yes"}}, {"name": "Çatalca İlyas Çokay Devlet Hastanesi", "latitude": 41.1353012, "longitude": 28.4666491, "source": "osm", "_tags": {"addr:city": "Çatalca/İstanbul", "amenity": "hospital", "emergency": "yes", "healthcare": "hospital", "name": "Çatalca İlyas Çokay Devlet Hastanesi"}}, {"name": "Bakırköy Dr. Sadi Konuk Eğitim ve Araştırma Hastanesi", "latitude": 40.9937465, "longitude": 28.8653937, "source": "osm", "_tags": {"amenity": "hospital", "emergency": "yes", "healthcare": "hospital", "name": "Bakırköy Dr. Sadi Konuk Eğitim ve Araştırma Hastanesi", "wheelchair": "yes"}}, {"name": "Ethica Hastanesi", "latitude": 40.9972327, "longitude": 28.8726251, "source": "osm", "_tags": {"addr:city": "Bakırköy/İstanbul", "amenity": "hospital", "building": "yes", "emergency": "yes", "healthcare": "hospital", "name": "Ethica Hastanesi", "phone": "0212 414 37 37"}}, {"name": "Özel Güngören Hastanesi", "latitude": 41.0268791, "longitude": 28.8717621, "source": "osm", "_tags": {"addr:city": "Istanbul", "addr:district": "Güngören", "addr:neighbourhood": "Güneştepe", "addr:street": "Doğanbey Caddesi", "ambulance": "yes", "amenity": "hospital", "beds": "102", "emergency": "yes", "fee": "yes", "healthcare": "hospital", "name": "Özel Güngören Hastanesi", "name:ar": "مشفر غونغورين الخاصة", "opening_hours": "24/7", "operator:type": "private", "phone": "+90212 461 91 91", "website": "https://www.gungorenhastanesi.com.tr/"}}, {"name": "Medical Park", "latitude": 40.9958281, "longitude": 28.8630524, "source": "osm", "_tags": {"amenity": "hospital", "emergency": "yes", "healthcare": "hospital", "name": "Medical Park", "operator": "Medical Park", "operator:wikidata": "Q6073312"}}, {"name": "Çerkezköy Kapaklı 82. Yıl Devlet Hastanesi", "latitude": 41.3144518, "longitude": 27.9728644, "source": "osm", "_tags": {"alt_name": "Çerkezköy Devlet Hastanesi Kapaklı Kampüsü", "amenity": "hospital", "emergency": "yes", "name": "Çerkezköy Kapaklı 82. Yıl Devlet Hastanesi"}}, {"name": "Medipol Üniversitesi Sefaköy Sağlık Uygulama Merkezi Hastanesi", "latitude": 41.014852, "longitude": 28.7983106, "source": "osm", "_tags": {"addr:housenumber": "30", "addr:postcode": "34295", "addr:street": "Maslak Çeşme Caddesi", "amenity": "hospital", "healthcare": "hospital", "name": "Medipol Üniversitesi Sefaköy Sağlık Uygulama Merkezi Hastanesi"}}, {"name": "Arnavutköy Devlet Hastanesi", "latitude": 41.1776057, "longitude": 28.7469279, "source": "osm", "_tags": {"amenity": "hospital", "healthcare": "hospital", "name": "Arnavutköy Devlet Hastanesi", "wikidata": "Q30269479"}}, {"name": "Gökjet Özel Havacılık Mesleki ve Teknik Anadolu Lisesi", "latitude": 41.0106268, "longitude": 28.532515, "source": "osm", "_tags": {"amenity": "hospital", "building": "yes", "healthcare": "hospital", "name": "Gökjet Özel Havacılık Mesleki ve Teknik Anadolu Lisesi", "name:en": "Gokjet Flight Academy"}}, {"name": "Özel Çamlık Hastanesi", "latitude": 40.9893869, "longitude": 28.8700885, "source": "osm", "_tags": {"addr:city": "Bakırköy/İstanbul", "addr:district": "Bakırköy", "addr:housenumber": "46", "addr:neighbourhood": "Zuhuratbaba Mahallesi", "addr:street": "Yüce Tarla Caddesi", "amenity": "hospital", "beds": "45", "emergency": "yes", "healthcare": "hospital", "name": "Özel Çamlık Hastanesi", "phone": "+90212 543 56 10", "website": "https://www.camlikhastanesi.com.tr/"}}, {"name": "Yaşar Hastanesi", "latitude": 40.9837641, "longitude": 28.8728374, "source": "osm", "_tags": {"addr:city": "Bakırköy/İstanbul", "addr:housenumber": "22", "addr:street": "İncirli Caddesi", "amenity": "hospital", "building": "hospital", "building:levels": "6", "healthcare": "hospital", "name": "Yaşar Hastanesi"}}, {"name": "Medipol Mega Hastaneler Kompleksi", "latitude": 41.058238, "longitude": 28.8433746, "source": "osm", "_tags": {"addr:city": "İstanbul", "addr:district": "Bağcılar", "addr:housenumber": "6", "addr:neighbourhood": "Göztepe Mahallesi", "addr:street": "2309. Sokak", "amenity": "hospital", "beds": "515", "emergency": "yes", "healthcare": "hospital", "name": "Medipol Mega Hastaneler Kompleksi", "phone": "+902124607777"}}, {"name": "Bahçelievler Devlet Hastanesi", "latitude": 41.0062437, "longitude": 28.844367, "source": "osm", "_tags": {"amenity": "hospital", "emergency": "yes", "healthcare": "hospital", "name": "Bahçelievler Devlet Hastanesi", "operator": "Sağlık Bakanlığı", "operator:type": "government", "operator:wikidata": "Q4294365"}}, {"name": "Bayrampaşa Devlet Hastanesi", "latitude": 41.0420205, "longitude": 28.9020521, "source": "osm", "_tags": {"addr:city": "İstanbul", "addr:district": "Bayrampaşa", "addr:housenumber": "6", "addr:neighbourhood": "İsmet Paşa", "addr:postcode": "34040", "addr:street": "Kenar Caddesi", "amenity": "hospital", "email": "istbayrampasadh.ozlk@saglik.gov.tr", "emergency": "yes", "healthcare": "hospital", "name": "Bayrampaşa Devlet Hastanesi", "name:en": "Bayrampaşa State Hospital", "operator": "Sağlık Bakanlığı", "operator:type": "government", "operator:wikidata": "Q4294365", "phone": "+90 212 567 6774"}}, {"name": "Özel Küçükçekmece Hastanesi", "latitude": 40.9996163, "longitude": 28.7805256, "source": "osm", "_tags": {"amenity": "hospital", "healthcare": "hospital", "name": "Özel Küçükçekmece Hastanesi"}}, {"name": "Cerrahpaşa Tıp Fakültesi", "latitude": 41.0040181, "longitude": 28.9415822, "source": "osm", "_tags": {"addr:city": "Istanbul", "addr:district": "Fatih", "addr:postcode": "34098", "amenity": "hospital", "emergency": "yes", "fee": "no", "healthcare": "hospital", "name": "Cerrahpaşa Tıp Fakültesi", "name:ar": "مستشفى جراح باشا الجامعي", "name:ku": "Cerrahpaşa Fakulteya Tipê", "operator": "T.C. İstanbul Üniversitesi", "operator:type": "government", "website": "https://hastanecerrahpasa.iuc.edu.tr"}}, {"name": "Nisa Hastanesi Acil", "latitude": 40.9989607, "longitude": 28.8294908, "source": "osm", "_tags": {"amenity": "hospital", "healthcare": "hospital", "name": "Nisa Hastanesi Acil"}}, {"name": "Nisa Hastanesi", "latitude": 40.9994231, "longitude": 28.8302433, "source": "osm", "_tags": {"amenity": "hospital", "healthcare": "hospital", "name": "Nisa Hastanesi"}}, {"name": "Sante Plus Hastanesi", "latitude": 40.9984177, "longitude": 28.8943472, "source": "osm", "_tags": {"addr:city": "istanbul", "addr:district": "Zeytinburnu", "addr:housenumber": "117", "addr:neighbourhood": "çırpıcı", "addr:street": "Prof. Dr.turan Güneş Caddesi", "amenity": "hospital", "building": "yes", "building:levels": "4", "emergency": "yes", "healthcare": "hospital", "name": "Sante Plus Hastanesi", "name:en": "Sante Plus Hospital", "phone": "0212 664 65 55", "smoking": "isolated"}}, {"name": "Eyüpsultan Devlet Hastanesi", "latitude": 41.0563473, "longitude": 28.9118182, "source": "osm", "_tags": {"addr:city": "İstanbul", "addr:district": "Gaziosmanpaşa", "addr:housenumber": "52", "addr:neighbourhood": "Merkez", "addr:postcode": "34245", "addr:street": "Salihpaşa Caddesi", "branch": "Aliya İzzetbegoviç Semt Polikliniği", "building": "hospital", "building:levels": "6", "healthcare": "hospital", "name": "Eyüpsultan Devlet Hastanesi", "operator": "Sağlık Bakanlığı", "operator:wikidata": "Q4294365", "roof:colour": "#855f44"}}, {"name": "Bahat Özel Hastanesi", "latitude": 41.106122, "longitude": 28.860323, "source": "osm", "_tags": {"amenity": "hospital", "building": "hospital", "emergency": "yes", "healthcare": "hospital", "name": "Bahat Özel Hastanesi"}}, {"name": "Yedikule Göğüs Hastalıkları ve Göğüs Cerrahisi Eğitim ve Araştırma Hastanesi", "latitude": 41.0020121, "longitude": 28.9152757, "source": "osm", "_tags": {"addr:city": "İstanbul", "addr:district": "Zeytinburnu", "addr:neighbourhood": "Telsiz Mahallesi", "amenity": "hospital", "healthcare": "hospital", "name": "Yedikule Göğüs Hastalıkları ve Göğüs Cerrahisi Eğitim ve Araştırma Hastanesi"}}, {"name": "Bezmialem Üniversitesi İlhan Varank Yerleşkesi", "latitude": 41.0949834, "longitude": 28.8648036, "source": "osm", "_tags": {"amenity": "hospital", "healthcare": "hospital", "name": "Bezmialem Üniversitesi İlhan Varank Yerleşkesi"}}, {"name": "Bahçeşehir Aile Sağlığı Merkezi", "latitude": 41.0661042, "longitude": 28.6781658, "source": "osm", "_tags": {"building": "yes", "healthcare": "hospital", "name": "Bahçeşehir Aile Sağlığı Merkezi"}}, {"name": "Bahçeşehir Semt Polikliniği", "latitude": 41.0624876, "longitude": 28.683931, "source": "osm", "_tags": {"amenity": "hospital", "healthcare": "hospital", "name": "Bahçeşehir Semt Polikliniği"}}, {"name": "İstanbul Gaziosmanpaşa Eğitim ve Araştırma Hastanesi", "latitude": 41.0864654, "longitude": 28.8980769, "source": "osm", "_tags": {"addr:city": "İstanbul", "addr:district": "Gaziosmanpaşa", "addr:neighbourhood": "Karayolları", "addr:postcode": "34255", "amenity": "hospital", "email": "gopeah.info@saglik.gov.tr", "emergency": "yes", "fax": "+90 212 945 31 78", "healthcare": "hospital", "name": "İstanbul Gaziosmanpaşa Eğitim ve Araştırma Hastanesi", "operator": "Sağlık Bakanlığı", "operator:wikidata": "Q4294365", "phone": "+90 212 945 30 00", "website": "https://gopeah.saglik.gov.tr/"}}, {"name": "Cemal Pamuk Aile Sağlığı Merkezi", "latitude": 40.9991399, "longitude": 28.7854371, "source": "osm", "_tags": {"addr:city": "İstanbul", "addr:district": "Küçükçekmece", "addr:housenumber": "9", "addr:neighbourhood": "Yeşilova", "addr:street": "Emsal Sokağı", "amenity": "hospital", "healthcare": "hospital", "healthcare:speciality": "clinic", "name": "Cemal Pamuk Aile Sağlığı Merkezi"}}, {"name": "Haseki Eğitim Ve Araştırma Hastanesi", "latitude": 41.0097389, "longitude": 28.8993122, "source": "osm", "_tags": {"addr:city": "Istanbul", "addr:district": "Zeytinburnu", "addr:street": "Çırpıcı Çıkmazı", "amenity": "hospital", "building": "yes", "emergency": "no", "fee": "no", "healthcare": "hospital", "name": "Haseki Eğitim Ve Araştırma Hastanesi", "name:ar": "مشفى هاسكي للأبحاث الطبية والوراثية", "opening_hours": "Mo-Su 07:00-20:00", "operator": "Sağlık Bakanlığı", "operator:type": "government", "operator:wikidata": "Q4294365", "operator:wikipedia": "tr:Türkiye Cumhuriyeti Sağlık Bakanlığı", "phone": "02124814111"}}, {"name": "Özel Safa Hastanesi", "latitude": 41.022723, "longitude": 28.8572036, "source": "osm", "_tags": {"addr:city": "Istanbul", "addr:district": "Bağcılar", "addr:street": "Bağcılar Caddesi", "amenity": "hospital", "building": "yes", "emergency": "yes", "fee": "yes", "healthcare": "hospital", "healthcare:speciality": "emergency", "name": "Özel Safa Hastanesi", "name:ar": "مشفى صفا الخاص", "operator:type": "private"}}, {"name": "Özel Yaman Cerrahi Tıp Merkezi", "latitude": 41.027416, "longitude": 28.8296398, "source": "osm", "_tags": {"addr:city": "Istanbul", "addr:district": "Bağcılar", "addr:street": "Atatürk Caddesi", "amenity": "hospital", "building": "yes", "emergency": "yes", "fee": "yes", "healthcare": "hospital", "name": "Özel Yaman Cerrahi Tıp Merkezi", "name:ar": "المركز الطبي الخاص الجراح يامان"}}, {"name": "", "latitude": 41.0678716, "longitude": 28.8523489, "source": "osm", "_tags": {"amenity": "hospital", "healthcare": "hospital"}}, {"name": "Özel Akkuş Ağız ve Diş Sağlığı Polikliniği", "latitude": 41.0384251, "longitude": 28.8271052, "source": "osm", "_tags": {"addr:city": "İstanbul", "addr:district": "Bağcılar", "addr:housenumber": "1", "addr:street": "1356. Sokak", "amenity": "hospital", "healthcare": "hospital", "healthcare:speciality": "dentistry", "name": "Özel Akkuş Ağız ve Diş Sağlığı Polikliniği", "phone": "0212 474 09 67", "website": "www.akkusdis.com"}}, {"name": "Gaziosmanpaşa Fizik Tedavi Rehabilitasyon Eğitim ve Araştırma Hastanesi", "latitude": 41.0890621, "longitude": 28.9083256, "source": "osm", "_tags": {"addr:city": "İstanbul", "addr:district": "Gaziosmanpaşa", "addr:neighbourhood": "Mevlana", "addr:postcode": "34255", "addr:street": "885. Sokak", "amenity": "hospital", "email": "gopeah.info@saglik.gov.tr", "emergency": "yes", "fax": "+90 212 945 3178", "healthcare": "hospital", "name": "Gaziosmanpaşa Fizik Tedavi Rehabilitasyon Eğitim ve Araştırma Hastanesi", "operator": "Sağlık Bakanlığı", "operator:wikidata": "Q4294365", "phone": "+90 212 945 3000", "website": "https://gopeah.saglik.gov.tr/?_Dil=1"}}, {"name": "", "latitude": 41.2944919, "longitude": 27.9985332, "source": "osm", "_tags": {"addr:city": "Çerkezköy", "addr:country": "TR", "addr:district": "Çerkezköy", "addr:neighbourhood": "Gazi Mustafa Kemalpaşa Mahallesi", "addr:postcode": "59500", "addr:province": "Tekirdağ", "amenity": "hospital", "building": "yes", "emergency": "yes", "phone": "+90 282 726 05 55", "source": "bing", "website": "https://optimedhastanesi.com/tr/"}}, {"name": "Özel Optimed Hastanesi", "latitude": 41.2946807, "longitude": 27.9981047, "source": "osm", "_tags": {"addr:city": "Çerkezköy", "addr:country": "TR", "addr:district": "Çerkezköy", "addr:housenumber": "118", "addr:neighbourhood": "Gazi Mustafa Kemalpaşa Mahallesi", "addr:postcode": "59500", "addr:province": "Tekirdağ", "addr:street": "Atatürk Caddesi", "amenity": "hospital", "building": "yes", "emergency": "yes", "name": "Özel Optimed Hastanesi", "phone": "+902827260555", "source": "bing", "website": "https://optimedhastanesi.com/tr/"}}, {"name": "Bolluca Sağlık Ocağı", "latitude": 41.1999813, "longitude": 28.7623185, "source": "osm", "_tags": {"amenity": "hospital", "building:levels": "1", "healthcare": "hospital", "name": "Bolluca Sağlık Ocağı", "operator": "Sağlık Bakanlığı", "operator:type": "government", "operator:wikidata": "Q4294365"}}, {"name": "Büyükçekmece Mimar Sinan Devlet Hastanesi", "latitude": 41.0171073, "longitude": 28.5551838, "source": "osm", "_tags": {"amenity": "hospital", "emergency": "yes", "healthcare": "hospital", "name": "Büyükçekmece Mimar Sinan Devlet Hastanesi", "phone": "+902129099000", "website": "https://buyukcekmecemimarsinandh.saglik.gov.tr/"}}, {"name": "Özel Baypark Hospital", "latitude": 41.0630229, "longitude": 28.8910763, "source": "osm", "_tags": {"addr:city": "İstanbul", "addr:district": "Bayrampaşa", "addr:housenumber": "112-114", "addr:neighbourhood": "Yıldırım Mahallesi", "addr:street": "Ali Fuat Başgil Caddesi", "amenity": "hospital", "beds": "77", "building": "hospital", "emergency": "yes", "healthcare": "hospital", "name": "Özel Baypark Hospital", "website": "https://www.baypark.com.tr/"}}, {"name": "Özel Medicine Hospital Güneşli", "latitude": 41.0301511, "longitude": 28.8385022, "source": "osm", "_tags": {"amenity": "hospital", "healthcare": "hospital", "name": "Özel Medicine Hospital Güneşli"}}, {"name": "Optimed Kapaklı", "latitude": 41.325433, "longitude": 27.9793959, "source": "osm", "_tags": {"addr:city": "Kapaklı", "addr:country": "TR", "addr:district": "Kapaklı", "addr:housenumber": "13-15", "addr:postcode": "59510", "addr:province": "Tekirdağ", "addr:street": "Mithatpaşa Caddesi", "addr:subdistrict": "Cumhuriyet Mahallesi", "amenity": "hospital", "building": "yes", "name": "Optimed Kapaklı", "operator": "Optimed"}}, {"name": "Acıbadem Bahçeşehir Hastanesi", "latitude": 41.0626694, "longitude": 28.6883906, "source": "osm", "_tags": {"addr:city": "İstanbul", "addr:district": "Başakşehir", "addr:housenumber": "6", "addr:neighbourhood": "Bahçeşehir 1. Kısım Mahallesi", "addr:street": "Kemal Sunal Caddesi", "amenity": "hospital", "emergency": "yes", "healthcare": "hospital", "name": "Acıbadem Bahçeşehir Hastanesi", "operator": "Acıbadem", "operator:type": "private", "operator:wikidata": "Q19610384", "operator:wikipedia": "en:Acıbadem Healthcare Group", "phone": "+902125931111"}}, {"name": "Özel İlke Hastanesi", "latitude": 40.9976279, "longitude": 28.8348558, "source": "osm", "_tags": {"addr:city": "İstanbul", "addr:district": "Bahçelievler", "addr:housenumber": "46", "addr:neighbourhood": "Zafer Mahallesi", "addr:street": "Yıldırım Beyazıd Caddesi", "amenity": "hospital", "building": "hospital", "contact:phone": "+90 212 652 52 00", "healthcare": "hospital", "name": "Özel İlke Hastanesi"}}, {"name": "Ataköy Hastanesi", "latitude": 40.9925302, "longitude": 28.8406431, "source": "osm", "_tags": {"amenity": "hospital", "emergency": "yes", "healthcare": "hospital", "name": "Ataköy Hastanesi"}}, {"name": "Özel Yıldız Academia Hastanesi", "latitude": 41.0624334, "longitude": 28.928863, "source": "osm", "_tags": {"addr:city": "İstanbul", "addr:district": "Gaziosmanpaşa", "addr:housenumber": "77-79A", "addr:neighbourhood": "Yıldıztabya Mahallesi", "addr:street": "Yıldıztabya Alibeyköy Caddesi", "amenity": "hospital", "beds": "57", "building": "yes", "emergency": "yes", "healthcare": "hospital", "name": "Özel Yıldız Academia Hastanesi", "phone": "+90212 417 74 74"}}, {"name": "Başakşehir Çam ve Sakura Şehir Hastanesi", "latitude": 41.1045261, "longitude": 28.7764267, "source": "osm", "_tags": {"addr:city": "İstanbul", "addr:district": "Başakşehir", "addr:postcode": "34480", "amenity": "hospital", "beds": "2682", "email": "ist.camsakurash@saglik.gov.tr", "emergency": "yes", "healthcare": "hospital", "healthcare:speciality": "general;oncology;emergency;gynaecology", "name": "Başakşehir Çam ve Sakura Şehir Hastanesi", "operator": "Sağlık Bakanlığı", "operator:type": "government", "operator:wikidata": "Q4294365", "phone": "+90 212 909 60 00", "website": "https://camsakurasehir.saglik.gov.tr/", "wikidata": "Q94997604", "wikimedia_commons": "Category:Başakşehir City Hospital", "wikipedia": "en:Başakşehir Çam and Sakura City Hospital"}}, {"name": "Özel Avrupa Tıp Merkezi", "latitude": 41.0257045, "longitude": 28.6851857, "source": "osm", "_tags": {"addr:city": "İstanbul", "addr:district": "Esenyurt", "addr:housenumber": "114", "addr:neighbourhood": "İnönü Mahallesi", "addr:street": "Doğan Araslı Bulvarı", "amenity": "hospital", "emergency": "yes", "healthcare": "hospital", "name": "Özel Avrupa Tıp Merkezi", "operator": "private", "operator:type": "private"}}, {"name": "SBÜ Bağcılar Eğitim ve Araştırma Hastanesi Güneşli Semt Polikliniğ", "latitude": 41.0356583, "longitude": 28.8322844, "source": "osm", "_tags": {"addr:city": "Istanbul", "addr:district": "Bağcılar", "addr:housenumber": "17", "addr:neighbourhood": "Güneşli", "addr:street": "1275. Sokak", "amenity": "hospital", "building": "hospital", "healthcare": "hospital", "name": "SBÜ Bağcılar Eğitim ve Araştırma Hastanesi Güneşli Semt Polikliniğ"}}, {"name": "Mehmet Remzi Önecek Aile Sağlığı Merkezi", "latitude": 41.0406038, "longitude": 28.6714, "source": "osm", "_tags": {"addr:city": "İstanbul", "addr:district": "Esenyurt", "addr:housenumber": "21", "addr:neighbourhood": "Çınar Mahallesi", "addr:street": "1408. Sokak", "amenity": "hospital", "emergency": "no", "healthcare": "hospital", "name": "Mehmet Remzi Önecek Aile Sağlığı Merkezi", "operator": "Sağlık Bakanlığı", "operator:type": "government", "operator:wikidata": "Q4294365", "phone": "+902125964531"}}, {"name": "İstanbul Fizik Tedavi ve Rehabilitasyon Eğitim Ve Araştırma Hastanesi", "latitude": 40.995288, "longitude": 28.8546085, "source": "osm", "_tags": {"amenity": "hospital", "healthcare": "hospital", "name": "İstanbul Fizik Tedavi ve Rehabilitasyon Eğitim Ve Araştırma Hastanesi"}}, {"name": "", "latitude": 40.9935763, "longitude": 28.6693097, "source": "osm", "_tags": {"amenity": "hospital", "building": "hospital", "healthcare": "hospital"}}, {"name": "Büyük Çavuşlu Aile Sağlığı Mer. (Medical Clinic)", "latitude": 41.2391277, "longitude": 28.0644948, "source": "osm", "_tags": {"amenity": "hospital", "name": "Büyük Çavuşlu Aile Sağlığı Mer. (Medical Clinic)"}}, {"name": "Silivri Kolan Hastanesi", "latitude": 41.0720807, "longitude": 28.2584369, "source": "osm", "_tags": {"amenity": "hospital", "building": "hospital", "emergency": "yes", "healthcare": "hospital", "name": "Silivri Kolan Hastanesi", "name:en": "Silivri Kolan Hospital", "phone": "+90 212 727 4848", "website": "https://kolanhastanesi.com.tr/"}}, {"name": "Yedikule Surp Pırgiç Ermeni Hastanesi", "latitude": 40.9939031, "longitude": 28.9154024, "source": "osm", "_tags": {"addr:city": "Istanbul", "addr:district": "Fatih", "addr:housenumber": "32", "addr:neighbourhood": "Yedikule", "addr:postcode": "34020", "addr:street": "Zakirbaşı Sokak", "amenity": "hospital", "emergency": "yes", "healthcare": "hospital", "name": "Yedikule Surp Pırgiç Ermeni Hastanesi", "phone": "0850 811 50 52", "website": "https://www.surppirgic.com/"}}, {"name": "Özel Cenk Teker Tıp Merkezi", "latitude": 41.0788129, "longitude": 28.2561204, "source": "osm", "_tags": {"amenity": "hospital", "building": "hospital", "healthcare": "hospital", "name": "Özel Cenk Teker Tıp Merkezi"}}, {"name": "Beykent Üniversitesi Hastanesi", "latitude": 41.017533, "longitude": 28.6262768, "source": "osm", "_tags": {"addr:city": "İstanbul", "addr:district": "Büyükçekmece", "addr:housenumber": "1", "addr:neighbourhood": "Cumhuriyet Mah.", "addr:postcode": "34500", "addr:street": "Gürpınar Yolu Caddesi", "amenity": "hospital", "emergency": "yes", "healthcare": "hospital", "name": "Beykent Üniversitesi Hastanesi", "operator": "Beykent Üniversitesi", "operator:type": "university"}}, {"name": "Küçükçekmece Ağız ve Diş Sağlığı Merkezi", "latitude": 41.0218049, "longitude": 28.7902957, "source": "osm", "_tags": {"addr:city": "İstanbul", "addr:district": "Küçükçekmece", "addr:housenumber": "22", "addr:neighbourhood": "Söğütlüçeşme", "addr:street": "Kazım Karabekir Sokağı", "amenity": "hospital", "building": "yes", "building:levels": "5", "email": "istanbul.adsm5@saglik.gov.tr", "emergency": "yes", "fax": "+90 212 471 06 53", "healthcare": "hospital", "healthcare:speciality": "dentistry", "name": "Küçükçekmece Ağız ve Diş Sağlığı Merkezi", "operator": "Sağlık Bakanlığı", "operator:type": "government", "operator:wikidata": "Q4294365", "phone": "+90 212 471 06 49"}}, {"name": "Sultangazi Haseki Eğitim ve Araştırma Hastanesi", "latitude": 41.1047476, "longitude": 28.8731196, "source": "osm", "_tags": {"amenity": "hospital", "healthcare": "hospital", "name": "Sultangazi Haseki Eğitim ve Araştırma Hastanesi"}}, {"name": "Silivri Devlet Hastanesi", "latitude": 41.0779119, "longitude": 28.2500858, "source": "osm", "_tags": {"addr:city": "İstanbul", "addr:district": "Silivri", "addr:housenumber": "4", "addr:neighbourhood": "Yeni Mahalle", "addr:postcode": "34570", "addr:street": "Nedim Beyazgül Sokak", "amenity": "hospital", "emergency": "yes", "healthcare": "hospital", "name": "Silivri Devlet Hastanesi", "operator": "Sağlık Bakanlığı", "operator:wikidata": "Q4294365", "phone": "+90 212 727 2100", "website": "https://silivridh.saglik.gov.tr/"}}, {"name": "Zeytinburnu Yesiltepe Aile Sağlık Merkezi", "latitude": 40.9911705, "longitude": 28.8978596, "source": "osm", "_tags": {"addr:city": "istanbul", "addr:district": "zeytınburnu", "addr:neighbourhood": "Yeşiltepe mahallesi", "addr:street": "56. Sokak", "amenity": "hospital", "healthcare": "clinic", "name": "Zeytinburnu Yesiltepe Aile Sağlık Merkezi"}}, {"name": "ÇOSB Kapaklı Devlet Hastanesi", "latitude": 41.3365779, "longitude": 27.9922323, "source": "osm", "_tags": {"amenity": "hospital", "name": "ÇOSB Kapaklı Devlet Hastanesi", "operator": "T.C. Sağlık Bakanlığı"}}, {"name": "Medical Park", "latitude": 41.0824558, "longitude": 28.2244311, "source": "osm", "_tags": {"amenity": "hospital", "emergency": "yes", "healthcare": "hospital", "name": "Medical Park", "operator": "Medical Park", "operator:wikidata": "Q6073312", "operator:wikipedia": "tr:Medical Park", "phone": "+90 850 222 50 58", "website": "https://www.medicalpark.com.tr/silivri"}}, {"name": "Medistanbul Hastanesi", "latitude": 41.0927904, "longitude": 28.9047945, "source": "osm", "_tags": {"amenity": "hospital", "building": "hospital", "healthcare": "hospital", "name": "Medistanbul Hastanesi"}}, {"name": "Özel Abat Cerrahi Tıp Merkezi", "latitude": 40.9888677, "longitude": 28.6604582, "source": "osm", "_tags": {"addr:city": "İstanbul", "addr:district": "Beylikdüzü", "addr:neighbourhood": "Kavaklı Mahallesi", "addr:postcode": "34520", "addr:street": "İbrahim Müteferrika Caddesi", "amenity": "hospital", "emergency": "yes", "healthcare": "hospital", "name": "Özel Abat Cerrahi Tıp Merkezi", "operator": "Özel Abat Cerrahi Tıp Merkezi", "operator:type": "private", "phone": "4446097"}}, {"name": "Bayrampaşa Göz Hastanesi", "latitude": 41.0394626, "longitude": 28.911972, "source": "osm", "_tags": {"building": "hospital", "healthcare": "hospital", "name": "Bayrampaşa Göz Hastanesi", "name:en": "Bayrampaşa Eye Hospital"}}, {"name": "Yeşilköy Prof. Dr. Murat Dilmener Acil Durum Hastanesi", "latitude": 40.9701116, "longitude": 28.8080941, "source": "osm", "_tags": {"amenity": "hospital", "construction": "service", "emergency": "yes", "healthcare": "hospital", "name": "Yeşilköy Prof. Dr. Murat Dilmener Acil Durum Hastanesi", "name:en": "Yeşilköy Prof. Dr. Murat Dilmener Emergency Hospital", "name:fr": "Yeşilköy Prof. Dr. Murat Dilmener Hôpital d'urgence", "operator": "Sağlık Bakanlığı", "operator:type": "government", "operator:wikidata": "Q4294365", "operator:wikipedia": "tr:Türkiye Cumhuriyeti Sağlık Bakanlığı", "wikidata": "Q96415799", "wikimedia_commons": "Category:Yeşilköy Emergency Hospital", "wikipedia": "en:Yeşilköy Prof. Dr. Murat Dilmener Emergency Hospital"}}, {"name": "Özel Esencan Hastanesi", "latitude": 41.033385, "longitude": 28.6765436, "source": "osm", "_tags": {"amenity": "hospital", "healthcare": "hospital", "name": "Özel Esencan Hastanesi"}}, {"name": "Özel Bahçelievler Medicana Hastanesi", "latitude": 41.0064677, "longitude": 28.8700779, "source": "osm", "_tags": {"addr:housenumber": "1", "amenity": "hospital", "building": "commercial", "building:levels": "6", "emergency": "yes", "healthcare": "hospital", "height": "17.0", "name": "Özel Bahçelievler Medicana Hastanesi"}}, {"name": "İstanbul Göz Hastanesi", "latitude": 41.0011575, "longitude": 28.8711105, "source": "osm", "_tags": {"amenity": "hospital", "building": "commercial", "building:levels": "5", "height": "15.0", "name": "İstanbul Göz Hastanesi", "wikidata": "Q30281942"}}, {"name": "Özel Bahçelievler Medicana Hastanesi", "latitude": 41.0067451, "longitude": 28.8698718, "source": "osm", "_tags": {"addr:housenumber": "1/1", "amenity": "hospital", "building": "commercial", "building:levels": "5", "emergency": "yes", "healthcare": "hospital", "height": "16.2", "name": "Özel Bahçelievler Medicana Hastanesi"}}, {"name": "Vital Hospital", "latitude": 41.0071667, "longitude": 28.8695876, "source": "osm", "_tags": {"addr:housenumber": "2", "amenity": "hospital", "building": "residential", "building:levels": "5", "emergency": "yes", "healthcare": "hospital", "height": "14.7", "name": "Vital Hospital"}}, {"name": "", "latitude": 40.9958306, "longitude": 28.8630572, "source": "osm", "_tags": {"amenity": "hospital", "building": "commercial", "building:levels": "18", "healthcare": "hospital", "height": "52.3"}}, {"name": "GAZİOSMANPAŞA 24 NOLU ASM", "latitude": 41.0606279, "longitude": 28.9077623, "source": "osm", "_tags": {"addr:city": "İstanbul", "addr:district": "Gaziosmanpaşa", "addr:housenumber": "1", "addr:neighbourhood": "Merkez Mahallesi", "addr:postcode": "34245", "addr:street": "3. Selvi Çıkmazı", "building": "yes", "healthcare": "hospital", "layer": "1", "name": "GAZİOSMANPAŞA 24 NOLU ASM"}}, {"name": "Lema Clinic", "latitude": 41.0525878, "longitude": 28.7960453, "source": "osm", "_tags": {"addr:city": "İstanbul", "addr:district": "Küçükçekmece", "addr:housenumber": "140", "addr:neighbourhood": "Atatürk Mahallesi", "addr:postcode": "34307", "addr:street": "İkitelli Caddesi", "amenity": "hospital", "emergency": "yes", "healthcare": "hospital", "healthcare:speciality": "dentistry", "internet_access": "yes", "name": "Lema Clinic", "opening_hours": "Mo-Sa 08:00-20:00", "operator": "Klinik", "operator:type": "business", "phone": "+90 542 107 16 32", "website": "https://lemaclinic.com/"}}, {"name": "İrmet Hastanesi", "latitude": 41.2936194, "longitude": 27.9951153, "source": "osm", "_tags": {"amenity": "hospital", "emergency": "yes", "healthcare": "hospital", "name": "İrmet Hastanesi", "opening_hours": "24/7", "phone": "+90 282 725 44 44", "start_date": "2014-06-02", "website": "https://irmethospital.com"}}, {"name": "Bayrampaşa İlçe Sağlık Müdürlüğü", "latitude": 41.0679997, "longitude": 28.8842035, "source": "osm", "_tags": {"addr:city": "İstanbul", "addr:district": "Bayrampaşa", "addr:housenumber": "9", "addr:neighbourhood": "Cevatpaşa", "addr:postcode": "34045", "addr:street": "Kıyı Sokağı", "amenity": "hospital", "building": "yes", "healthcare": "hospital", "name": "Bayrampaşa İlçe Sağlık Müdürlüğü", "operator": "Sağlık Bakanlığı", "operator:wikidata": "Q4294365", "phone": "0212 535 05 92", "website": "https://bayrampasa.istanbulsaglik.gov.tr/"}}, {"name": "Başakşehir Devlet Hastanesi", "latitude": 41.118463, "longitude": 28.8086678, "source": "osm", "_tags": {"addr:city": "İstanbul", "addr:district": "Başakşehir", "amenity": "hospital", "emergency": "yes", "healthcare": "hospital", "name": "Başakşehir Devlet Hastanesi", "operator": "Sağlık Bakanlığı", "operator:type": "government", "operator:wikidata": "Q4294365"}}, {"name": "Medipol Üniversitesi Esenler Hastanesi", "latitude": 41.0512585, "longitude": 28.8662941, "source": "osm", "_tags": {"amenity": "hospital", "building": "hospital", "healthcare": "hospital", "name": "Medipol Üniversitesi Esenler Hastanesi"}}, {"name": "Medipol Üniversitesi Esenler Hastanesi", "latitude": 41.051388, "longitude": 28.8661983, "source": "osm", "_tags": {"amenity": "hospital", "healthcare": "hospital", "name": "Medipol Üniversitesi Esenler Hastanesi"}}, {"name": "Avicenna Hastanesi", "latitude": 41.0408327, "longitude": 28.8810195, "source": "osm", "_tags": {"amenity": "hospital", "building": "hospital", "healthcare": "hospital", "name": "Avicenna Hastanesi"}}, {"name": "T.C. Sağlık Bakanlığı Esenler 8 No'lu Aile Sağlığı Merkezi", "latitude": 41.0435902, "longitude": 28.8630193, "source": "osm", "_tags": {"amenity": "hospital", "healthcare": "hospital", "name": "T.C. Sağlık Bakanlığı Esenler 8 No'lu Aile Sağlığı Merkezi", "operator": "Sağlık Bakanlığı", "operator:wikidata": "Q4294365", "operator:wikipedia": "tr:Türkiye Cumhuriyeti Sağlık Bakanlığı"}}, {"name": "", "latitude": 41.055544, "longitude": 28.8691309, "source": "osm", "_tags": {"amenity": "hospital", "building": "hospital", "healthcare": "hospital"}}, {"name": "Esenler Kadın Doğum ve Çocuk Hastalıkları Hastanesi", "latitude": 41.0559779, "longitude": 28.8691109, "source": "osm", "_tags": {"amenity": "hospital", "building": "hospital", "healthcare": "hospital", "name": "Esenler Kadın Doğum ve Çocuk Hastalıkları Hastanesi"}}, {"name": "", "latitude": 41.0556066, "longitude": 28.8691202, "source": "osm", "_tags": {"amenity": "hospital", "building": "hospital", "healthcare": "hospital", "layer": "1"}}, {"name": "", "latitude": 41.0597948, "longitude": 28.7742208, "source": "osm", "_tags": {"amenity": "hospital", "healthcare": "hospital"}}, {"name": "", "latitude": 41.006642, "longitude": 28.8698985, "source": "osm", "_tags": {"amenity": "hospital", "healthcare": "hospital"}}, {"name": "S life hastanesi", "latitude": 41.0398546, "longitude": 28.6521867, "source": "osm", "_tags": {"amenity": "hospital", "building": "hospital", "emergency": "yes", "healthcare": "hospital", "name": "S life hastanesi", "name:en": "S life hospital", "wheelchair": "yes"}}, {"name": "Erdem Hastanesi", "latitude": 41.0401293, "longitude": 28.8254441, "source": "osm", "_tags": {"addr:city": "Istanbul", "addr:district": "Bağcılar", "addr:street": "Favziçakmak Caddesi", "amenity": "hospital", "emergency": "yes", "fee": "yes", "healthcare": "hospital", "healthcare:speciality": "emergency", "name": "Erdem Hastanesi", "opening_hours": "24/7", "operator:type": "private"}}, {"name": "Bakırköy Prof. Dr. Mazhar Osman Ruh Sağlığı ve Sinir Hastalıkları Eğitim ve Araştırma Hastanesi", "latitude": 40.9890179, "longitude": 28.8619676, "source": "osm", "_tags": {"addr:city": "İstanbul", "addr:district": "Bakırköy", "addr:housenumber": "No:22", "addr:neighbourhood": "Zuhuratbaba Mahallesi", "addr:postcode": "34147", "addr:street": "Dr. Tevfik Sağlam Caddesi", "amenity": "hospital", "emergency": "yes", "healthcare": "hospital", "healthcare:speciality": "psychiatry;neurology;neurosurgery", "name": "Bakırköy Prof. Dr. Mazhar Osman Ruh Sağlığı ve Sinir Hastalıkları Eğitim ve Araştırma Hastanesi", "operator": "Bakırköy Prof. Dr. Mazhar Osman Ruh Sağlığı ve Sinir Hastalıkları Eğitim ve Araştırma Hastanesi", "operator:type": "public"}}, {"name": "Özel Florya Hastanesi", "latitude": 40.9799506, "longitude": 28.7475964, "source": "osm", "_tags": {"amenity": "hospital", "healthcare": "hospital", "name": "Özel Florya Hastanesi"}}, {"name": "Avcılar Murat Kölük Devlet Hastanesi", "latitude": 40.9847531, "longitude": 28.7312802, "source": "osm", "_tags": {"amenity": "hospital", "healthcare": "hospital", "name": "Avcılar Murat Kölük Devlet Hastanesi"}}, {"name": "Esenler Kadın Doğum Hastanesi", "latitude": 41.0558065, "longitude": 28.8691387, "source": "osm", "_tags": {"addr:city": "İstanbul", "addr:district": "Esenler", "addr:neighbourhood": "Atışalanı mahallesi", "addr:street": "Taşocağı Caddesi", "amenity": "hospital", "emergency": "yes", "healthcare": "hospital", "healthcare:speciality": "paediatrics", "name": "Esenler Kadın Doğum Hastanesi", "operator": "Sağlık Bakanlığı", "operator:type": "government", "operator:wikidata": "Q4294365", "wheelchair": "yes"}}, {"name": "", "latitude": 41.0587691, "longitude": 28.9075777, "source": "osm", "_tags": {"amenity": "hospital", "healthcare": "hospital"}}, {"name": "", "latitude": 41.0580075, "longitude": 28.9071402, "source": "osm", "_tags": {"amenity": "hospital", "healthcare": "hospital"}}, {"name": "Armutlu İlçe Devlet Hastanesi", "latitude": 40.5265502, "longitude": 28.8275682, "source": "osm", "_tags": {"amenity": "hospital", "healthcare": "hospital", "name": "Armutlu İlçe Devlet Hastanesi", "operator": "Sağlık Bakanlığı", "operator:type": "government", "operator:wikidata": "Q4294365"}}, {"name": "Armutlu İlçe Entegre Devlet Hastanesi", "latitude": 40.5265625, "longitude": 28.8275146, "source": "osm", "_tags": {"amenity": "hospital", "healthcare": "hospital", "name": "Armutlu İlçe Entegre Devlet Hastanesi", "operator": "Sağlık Bakanlığı", "operator:type": "government", "operator:wikidata": "Q4294365"}}, {"name": "", "latitude": 40.9984324, "longitude": 28.82999, "source": "osm", "_tags": {"amenity": "hospital", "healthcare": "hospital"}}, {"name": "", "latitude": 40.9972548, "longitude": 28.9169288, "source": "osm", "_tags": {"amenity": "hospital", "healthcare": "hospital"}}, {"name": "Koç Üniversitesi Hastanesi", "latitude": 41.0240376, "longitude": 28.9167571, "source": "osm", "_tags": {"amenity": "hospital", "healthcare": "hospital", "name": "Koç Üniversitesi Hastanesi"}}, {"name": "Hadımköy Dr. İsmail Niyazi Kurtulmuş Hastanesi", "latitude": 41.1552143, "longitude": 28.6194859, "source": "osm", "_tags": {"addr:city": "İstanbul", "addr:district": "Arnavutköy", "addr:neighbourhood": "Hastane Mahallesi", "addr:postcode": "34555", "alt_name": "Yedikule Göğüs Hastalıkları Hastanesi Hadımköy Ek Hizmet Binası", "amenity": "hospital", "building": "hospital", "healthcare": "hospital", "name": "Hadımköy Dr. İsmail Niyazi Kurtulmuş Hastanesi", "note": "https://www.saglik.gov.tr/TR,65790/hadimkoy-dr-ismail-niyazi-kurtulmus-hastanesinin-acilisi-yapildi.html", "type": "multipolygon", "wikimedia_commons": "Category:Hadımköy Hospital"}}, {"name": "Özel Yaşar Hastanesi", "latitude": 40.9837641, "longitude": 28.8728374, "source": "osm", "_tags": {"addr:city": "Bakırköy/İstanbul", "addr:street": "İncirli Caddesi", "amenity": "hospital", "emergency": "yes", "healthcare": "hospital", "name": "Özel Yaşar Hastanesi", "operator": "Özel", "operator:type": "private", "type": "multipolygon"}}]