[{"name": "Unidade de Cuidados Continuados", "latitude": 41.4022052, "longitude": -7.455149, "source": "osm", "_tags": {"amenity": "hospital", "emergency": "no", "name": "Unidade de Cuidados Continuados"}}, {"name": "Unidade Local de Saúde da Guarda", "latitude": 40.5306059, "longitude": -7.2755376, "source": "osm", "_tags": {"addr:city": "Guarda", "addr:postcode": "6300-749", "addr:street": "Avenida Rainha Dona Amélia", "amenity": "hospital", "healthcare": "hospital", "name": "Unidade Local de Saúde da Guarda"}}, {"name": "", "latitude": 40.6756111, "longitude": -7.6990811, "source": "osm", "_tags": {"amenity": "hospital"}}, {"name": "Hospital CUF Viseu", "latitude": 40.6452362, "longitude": -7.9113839, "source": "osm", "_tags": {"addr:city": "Viseu", "addr:housenumber": "12 e 14", "addr:postcode": "3500-612", "addr:street": "Rua Belo Horizonte", "amenity": "hospital", "healthcare": "hospital", "name": "Hospital CUF Viseu", "operator": "José de Mello Saúde", "operator:type": "private"}}, {"name": "Centro de Saúde do Pinhão", "latitude": 41.1936964, "longitude": -7.5434085, "source": "osm", "_tags": {"addr:city": "Pinhão", "addr:country": "PT", "addr:postcode": "5085-038", "addr:street": "EM 585", "amenity": "clinic", "healthcare": "hospital", "name": "Centro de Saúde do Pinhão", "name:en": "Pinhão health center", "name:es": "Centro de salud Pinhão", "name:fr": "Centre de santé de Pinhão", "name:pt": "Centro de Saúde do Pinhão", "phone": "+351 254 730 400", "wikidata": "Q65651587", "wikimedia_commons": "File:Extensão de Saúde do Pinhão 02.jpg"}}, {"name": "Evidente - Clínica Médica de Trancoso", "latitude": 40.7758913, "longitude": -7.3481447, "source": "osm", "_tags": {"amenity": "hospital", "healthcare": "hospital", "name": "Evidente - Clínica Médica de Trancoso"}}, {"name": "A Toca do Urso", "latitude": 40.6665707, "longitude": -7.9160316, "source": "osm", "_tags": {"addr:city": "Viseu", "addr:housenumber": "Lote H", "addr:postcode": "3515-146", "addr:street": "Avenida da Europa", "addr:unit": "Fração A", "amenity": "hospital", "description": "A Toca do Urso é uma clínica Pediátrica, com diversos serviços relacionados com o desenvolvimento Infantil.\n\nPara além de diversas especialidades, dispõe de um Estúdio de Pilates Clínico, Spa para Bebés e Hidroterapia.", "email": "geral@atocadourso.pt", "healthcare": "hospital", "healthcare:speciality": "paediatrics;psychiatry;osteopathy;general;physiatry;hydrotherapy;depth", "mobile": "+351928148070", "name": "A Toca do Urso", "payment:cash": "yes", "payment:credit_cards": "yes", "payment:debit_cards": "yes", "payment:visa": "yes", "phone": "+351928148070", "website": "https://atocadourso.pt", "wheelchair": "yes"}}, {"name": "", "latitude": 40.4924829, "longitude": -7.597049, "source": "osm", "_tags": {"amenity": "hospital"}}, {"name": "Hospital Dom Luís I", "latitude": 41.1659478, "longitude": -7.7926502, "source": "osm", "_tags": {"addr:city": "Peso da Régua", "addr:postcode": "5050", "amenity": "hospital", "building": "yes", "emergency": "yes", "healthcare": "hospital", "name": "Hospital Dom Luís I"}}, {"name": "Casa de Saúde São Mateus Hospital", "latitude": 40.6566426, "longitude": -7.9047796, "source": "osm", "_tags": {"amenity": "hospital", "emergency": "yes", "healthcare": "hospital", "name": "Casa de Saúde São Mateus Hospital"}}, {"name": "Unidade de Cuidados Continuados", "latitude": 40.6135845, "longitude": -8.016742, "source": "osm", "_tags": {"addr:city": "Farminhão", "addr:postcode": "3510-643", "addr:street": "Rua da Escola", "amenity": "hospital", "name": "Unidade de Cuidados Continuados"}}, {"name": "Unidade Hospitalar de Lamego - Unidade Local de Saúde de Trás-os-Montes e Alto Douro", "latitude": 41.0832997, "longitude": -7.7956874, "source": "osm", "_tags": {"amenity": "hospital", "emergency": "no", "healthcare": "hospital", "name": "Unidade Hospitalar de Lamego - Unidade Local de Saúde de Trás-os-Montes e Alto Douro", "operator": "Unidade Local de Saúde de Trás-os-Montes e Alto Douro, EPE"}}, {"name": "Centro de Saúde de Baião", "latitude": 41.160521, "longitude": -8.0370669, "source": "osm", "_tags": {"amenity": "clinic", "healthcare": "hospital", "name": "Centro de Saúde de Baião"}}, {"name": "Hospital de São Teotónio", "latitude": 40.6503244, "longitude": -7.9063603, "source": "osm", "_tags": {"addr:city": "União das Freguesias de Viseu", "addr:postcode": "3504-509", "addr:street": "Avenida Rei Dom Duarte", "amenity": "hospital", "emergency": "yes", "healthcare": "hospital", "healthcare:speciality": "general;chiropractic;paediatrics;orthopaedics;gynaecology;ophthalmology", "name": "Hospital de São Teotónio", "operator": "Unidade Local de Saúde de Viseu Dão-Lafões, E.P.E.", "operator:type": "public"}}, {"name": "Centro Hospitalar Tondela-Viseu (Psiquiatria)", "latitude": 40.6810953, "longitude": -7.9185932, "source": "osm", "_tags": {"amenity": "hospital", "healthcare": "hospital", "name": "Centro Hospitalar Tondela-Viseu (Psiquiatria)"}}, {"name": "Centro de Saúde de Viseu III", "latitude": 40.6450639, "longitude": -7.914384, "source": "osm", "_tags": {"amenity": "clinic", "healthcare": "hospital", "name": "Centro de Saúde de Viseu III"}}, {"name": "Hospital de Mondim de Basto", "latitude": 41.4115996, "longitude": -7.9639212, "source": "osm", "_tags": {"amenity": "hospital", "emergency": "no", "healthcare": "hospital", "name": "Hospital de Mondim de Basto"}}, {"name": "Hospital da Luz - Vila Real", "latitude": 41.2958537, "longitude": -7.7466962, "source": "osm", "_tags": {"addr:city": "Vila Real", "addr:housenumber": "55", "addr:postcode": "5000-657", "addr:street": "Avenida Carvalho Araújo", "amenity": "hospital", "building": "yes", "email": "geral.vilareal@hospitaldaluz.pt", "emergency": "yes", "fax": "+351 259 043 979", "healthcare": "hospital", "healthcare:speciality": "cardiology;dermatology;gynaecology;maternity;ophthalmology;orthopaedics;paediatrics;urology;anaesthetics;surgery;paediatric_surgery;plastic_surgery;endocrinology;gastroenterology;haematology;general;internal;neurosurgery;oncology;pulmonology;psychiatry", "name": "Hospital da Luz - Vila Real", "operator": "Grupo Luz Saúde", "operator:type": "private", "phone": "+351 259 043 970", "start_date": "2018-09-10", "website": "https://www.hospitaldaluz.pt/vila-real/pt/"}}, {"name": "Unidade Local de Saúde de Trás-os-Montes e Alto Douro", "latitude": 41.309838, "longitude": -7.7605273, "source": "osm", "_tags": {"addr:city": "Vila Real", "addr:postcode": "5000-508", "addr:street": "Avenida da Noruega", "alt_name": "Hospital de São Pedro;Hospital de Vila Real", "amenity": "hospital", "email": "geral@chtmad.min-saude.pt", "emergency": "yes", "fax": "+351 259 300 503", "healthcare": "hospital", "name": "Unidade Local de Saúde de Trás-os-Montes e Alto Douro", "operator": "Unidade Local de Saúde de Trás-os-Montes e Alto Douro, EPE", "operator:type": "public/government", "phone": "+351 259 300 500", "short_name": "ULSTMAD", "start_date": "1980", "website": "https://www.chtmad.min-saude.pt/", "wheelchair": "yes"}}, {"name": "Trofa Saúde Hospital Vila Real", "latitude": 41.296268, "longitude": -7.7360719, "source": "osm", "_tags": {"addr:city": "Vila Real", "addr:housenumber": "3", "addr:postcode": "5000-198", "addr:street": "Rua Baden-Powell", "amenity": "hospital", "emergency": "yes", "healthcare": "hospital", "name": "Trofa Saúde Hospital Vila Real", "operator": "Trofa Saúde", "operator:type": "private", "phone": "+351 259 247000", "website": "https://www.trofasaude.pt/vilareal"}}, {"name": "", "latitude": 40.7757857, "longitude": -7.3478538, "source": "osm", "_tags": {"amenity": "hospital", "healthcare": "hospital"}}, {"name": "Hospital da Misericórdia de Alijó", "latitude": 41.2769547, "longitude": -7.4732645, "source": "osm", "_tags": {"amenity": "hospital", "healthcare": "hospital", "name": "Hospital da Misericórdia de Alijó"}}, {"name": "Hospital de Resende", "latitude": 41.1054586, "longitude": -7.9687083, "source": "osm", "_tags": {"amenity": "hospital", "healthcare": "hospital", "name": "Hospital de Resende", "old_name": "Hospital de Rezende", "operator": "Santa Casa da Misericórdia de Resende"}}, {"name": "Parque da Saúde da Guarda", "latitude": 40.5317469, "longitude": -7.276186, "source": "osm", "_tags": {"alt_name": "Hospital Sousa Martins;Hospital da Guarda", "amenity": "hospital", "emergency": "yes", "healthcare": "hospital", "name": "Parque da Saúde da Guarda", "type": "multipolygon"}}, {"name": "Centro de Saúde de Vila Nova de Paiva", "latitude": 40.8499121, "longitude": -7.7272201, "source": "osm", "_tags": {"amenity": "hospital", "emergency": "no", "name": "Centro de Saúde de Vila Nova de Paiva", "type": "multipolygon"}}]