[{"name": "Creu Roja", "latitude": 41.2902807, "longitude": 1.246444, "source": "osm", "_tags": {"amenity": "hospital", "healthcare": "hospital", "name": "Creu Roja", "name:ca": "Creu Roja"}}, {"name": "Hospital Lleuger Antoni de Gimbernat", "latitude": 41.0715397, "longitude": 1.0574966, "source": "osm", "_tags": {"amenity": "hospital", "healthcare": "hospital", "name": "Hospital Lleuger Antoni de Gimbernat"}}, {"name": "C.A.P. Salou", "latitude": 41.0835335, "longitude": 1.1329811, "source": "osm", "_tags": {"amenity": "hospital", "healthcare": "hospital", "name": "C.A.P. Salou"}}, {"name": "Hospital Sociosanitari Francolí", "latitude": 41.1249493, "longitude": 1.2393135, "source": "osm", "_tags": {"amenity": "hospital", "building": "hospital", "emergency": "no", "healthcare": "hospital", "name": "Hospital Sociosanitari Francolí", "wikidata": "Q87762544"}}, {"name": "Hospital Universitari de Tarragona Joan XXIII", "latitude": 41.1246068, "longitude": 1.2383768, "source": "osm", "_tags": {"amenity": "hospital", "building": "hospital", "check_date": "2024-11-17", "emergency": "yes", "healthcare": "hospital", "name": "Hospital Universitari de Tarragona Joan XXIII", "name:ca": "Hospital Joan XXIII", "website": "https://icscampdetarragona.cat/es/hj23-servicios/", "wikidata": "Q17137115", "wikipedia": "ca:Hospital Joan XXIII"}}, {"name": "Hospital Casa Blanca", "latitude": 41.1213944, "longitude": 1.2636481, "source": "osm", "_tags": {"abandoned:amenity": "hospital", "building": "yes", "healthcare": "hospital", "name": "Hospital Casa Blanca", "name:ca": "Hospital Casa Blanca"}}, {"name": "Institut Pere Mata", "latitude": 41.165961, "longitude": 1.0853343, "source": "osm", "_tags": {"amenity": "hospital", "barrier": "wall", "healthcare": "hospital", "name": "Institut Pere Mata", "name:ca": "Institut Pere Mata", "wikidata": "Q6745206", "wikipedia": "ca:Institut Pere Mata"}}, {"name": "Hospital del Vendrell", "latitude": 41.227101, "longitude": 1.5537401, "source": "osm", "_tags": {"amenity": "hospital", "emergency": "yes", "healthcare": "hospital", "name": "Hospital del Vendrell", "wikidata": "Q87762582"}}, {"name": "Hospital de Sant Pau i Santa tecla", "latitude": 41.1162354, "longitude": 1.2548005, "source": "osm", "_tags": {"amenity": "hospital", "building": "hospital", "check_date": "2024-11-30", "name": "Hospital de Sant Pau i Santa tecla", "name:ca": "Hospital de Sant Pau i Santa Tecla", "wheelchair": "yes", "wikidata": "Q64443856", "wikipedia": "ca:Hospital de Sant Pau i Santa Tecla"}}, {"name": "Hospital Residència Sant Camil", "latitude": 41.253637, "longitude": 1.7663871, "source": "osm", "_tags": {"alt_name": "els Camils", "amenity": "hospital", "healthcare": "hospital", "name": "Hospital Residència Sant Camil", "name:ca": "Hospital Residència Sant Camil", "operator": "Consorci Sanitari del Garraf", "wikidata": "Q87696133"}}, {"name": "Centre d'Atenció Primària Vilafranca Nord", "latitude": 41.3531285, "longitude": 1.7068611, "source": "osm", "_tags": {"amenity": "clinic", "building": "yes", "healthcare": "hospital", "healthcare:speciality": "general;paediatrics", "name": "Centre d'Atenció Primària Vilafranca Nord", "operator": "CatSalut", "short_name": "CAP Vilafranca Nord"}}, {"name": "Hospital Universitari Sant Joan", "latitude": 41.1449593, "longitude": 1.1233642, "source": "osm", "_tags": {"amenity": "hospital", "emergency": "yes", "healthcare": "hospital", "name": "Hospital Universitari Sant Joan", "name:ca": "Hospital Universitari Sant Joan", "website": "http://www.hospitalsantjoan.cat/", "wikidata": "Q30253902"}}, {"name": "Hospital Comarcal de Sant Antoni Abat", "latitude": 41.2287946, "longitude": 1.7223936, "source": "osm", "_tags": {"addr:housenumber": "23", "addr:postcode": "08800", "addr:street": "Carrer de Sant Josep", "amenity": "hospital", "email": "gerencia@fhcsaa.net", "healthcare": "hospital", "name": "Hospital Comarcal de Sant Antoni Abat", "phone": "+34 938931616"}}, {"name": "Pius Hospital de Valls", "latitude": 41.2831724, "longitude": 1.2512049, "source": "osm", "_tags": {"addr:housenumber": "1", "addr:street": "Plaça Sant Francesc", "amenity": "hospital", "building": "hospital", "building:levels": "6", "emergency": "yes", "healthcare": "hospital", "name": "Pius Hospital de Valls", "name:ca": "Pius Hospital de Valls", "website": "https://www.piushospital.cat/", "wheelchair": "yes", "wikidata": "Q30270242"}}, {"name": "Centre d'Atenció Primària Vallirana", "latitude": 41.3825989, "longitude": 1.9325385, "source": "osm", "_tags": {"amenity": "hospital", "building": "public", "building:levels": "2", "healthcare": "hospital", "name": "Centre d'Atenció Primària Vallirana", "short_name": "CAP Vallirana"}}, {"name": "Centre d'Atenció Primària La Granja", "latitude": 41.1228192, "longitude": 1.214088, "source": "osm", "_tags": {"amenity": "hospital", "healthcare": "hospital", "name": "Centre d'Atenció Primària La Granja", "short_name": "CAP La Granja", "wheelchair": "yes"}}, {"name": "", "latitude": 41.35643, "longitude": 1.7050417, "source": "osm", "_tags": {"amenity": "hospital"}}, {"name": "STS Ciutat de Reus", "latitude": 41.1534548, "longitude": 1.1128019, "source": "osm", "_tags": {"addr:city": "Reus", "addr:housenumber": "12", "addr:postcode": "43204", "addr:street": "Camí de Tarragona", "amenity": "hospital", "emergency": "no", "fixme": "Es tracta d'un Centre Sociosanitari (no se si l'etiquetatge és realment aquest)", "healthcare": "hospital", "name": "STS Ciutat de Reus", "operator": "Colisee Group", "operator:type": "private", "wheelchair": "yes"}}, {"name": "Clínica Psiquiàtrica Universitària", "latitude": 41.1656981, "longitude": 1.0881459, "source": "osm", "_tags": {"addr:city": "Reus", "addr:postcode": "43006", "addr:street": "Carretera de l'Institut Pere Mata", "amenity": "hospital", "healthcare": "hospital", "healthcare:speciality": "psychiatry", "name": "Clínica Psiquiàtrica Universitària", "name:ca": "Clínica Psiquiàtrica Universitària", "nohousenumber": "yes", "operator": "Institut Pere Mata", "operator:type": "public"}}, {"name": "Hospital Joan XXIII", "latitude": 41.1252153, "longitude": 1.238281, "source": "osm", "_tags": {"amenity": "hospital", "healthcare": "hospital", "name": "Hospital Joan XXIII", "wikidata": "Q17137115", "wikipedia": "ca:Hospital Joan XXIII"}}, {"name": "Hospital Viamed Tarragona", "latitude": 41.1251156, "longitude": 1.2003857, "source": "osm", "_tags": {"amenity": "hospital", "construction:amenity": "hospital", "construction:healthcare": "hospital", "healthcare": "hospital", "name": "Hospital Viamed Tarragona", "operator": "Viamed Salud", "operator:type": "private", "operator:website": "https://www.viamedsalud.com"}}, {"name": "Hospital Viamed Monegal", "latitude": 41.1188367, "longitude": 1.2514677, "source": "osm", "_tags": {"addr:city": "Tarragona", "addr:housenumber": "15-17", "addr:postcode": "43002", "addr:street": "Carrer López Peláez", "amenity": "hospital", "building": "yes", "emergency": "yes", "fixme": "Especialitats extretes des de \"https://www.viamedsalud.com/hospital-monegal/especialitats/\". No he aconseguit trobar cap tag per a aquestes especialitats: \"UNITAT DE BIOMECÀNICA DE LA MARXA\" i \"UNITAT DE FACTORS DE CREIXEMENT\"", "healthcare": "hospital", "healthcare:speciality:1": "allergology;anatomical_pathology;anesthesiology;angiology;cardiology;cardiothoracic_surgery;clinical_analysis;clinical_neurophysiology;clinical_nutrition;dermatology;dietician;digestive_system;digestive_system_surgery;emergency;endocrinology;endoscopy", "healthcare:speciality:2": "family_medicine;general;gynaecology;haematology;hemotherapy;internal_medicine;lithotripsy;maxillofacial_surgery;medical_imaging;neurology;neurosurgery;nutritionism;obstetrical_nursing;obstetrics;ophthalmology;orthopedic_surgery;otorhinolaryngology", "healthcare:speciality:3": "paediatrics;pain_management;pediatric_surgery;physiotherapy;plastic_surgery;podiatry;psicology;pulmonology;rehabilitation;retina_surgery;rheumatology;sleep_medicine;surgery;traumatology;urology;vascular_surgery;vitreoretinal_surgery", "healthcare:speciality:check_date": "2025-01-02", "healthcare:speciality:source": "https://www.viamedsalud.com/hospital-monegal/especialitats/", "name": "Hospital Viamed Monegal", "operator": "Viamed Salud", "operator:type": "private", "operator:website": "https://www.viamedsalud.com", "phone": "+34 977 225 012", "website": "https://www.viamedsalud.com/hospital-monegal/", "wheelchair": "yes", "wikidata": "Q87762545"}}, {"name": "Hospital comarcal de l'Alt Penedès", "latitude": 41.3565909, "longitude": 1.704741, "source": "osm", "_tags": {"addr:city": "Vilafranca del Penedès", "addr:postcode": "08720", "addr:street": "Carrer de l'Espirall", "amenity": "hospital", "building": "yes", "email": "csap@csap.cat", "emergency": "yes", "healthcare": "hospital", "name": "Hospital comarcal de l'Alt Penedès", "name:ca": "Hospital comarcal de l'Alt Penedès", "nohousenumber": "yes", "phone": "+34 938 180 440", "type": "multipolygon", "website": "https://www.csap.cat/", "wikidata": "Q87761551"}}]