[{"name": "Punto di primo intervento", "latitude": 40.9932633, "longitude": 17.2253764, "source": "osm", "_tags": {"amenity": "hospital", "name": "Punto di primo intervento"}}, {"name": "Ospedale Militare Marittimo", "latitude": 40.473025, "longitude": 17.2478859, "source": "osm", "_tags": {"amenity": "hospital", "emergency": "no", "name": "Ospedale Militare Marittimo"}}, {"name": "guardia medica", "latitude": 40.5499291, "longitude": 17.7138412, "source": "osm", "_tags": {"addr:city": "Latiano", "addr:housenumber": "1", "addr:postcode": "72022", "addr:street": "Viale Cotrino", "amenity": "hospital", "healthcare": "hospital", "name": "guardia medica"}}, {"name": "Guardia Medica", "latitude": 40.8912006, "longitude": 16.9536636, "source": "osm", "_tags": {"addr:street": "Via Michelangelo Buonarroti", "amenity": "hospital", "emergency": "yes", "name": "Guardia Medica", "phone": "+39 080 8917330", "wheelchair": "yes"}}, {"name": "ASL", "latitude": 40.5462671, "longitude": 17.436926, "source": "osm", "_tags": {"amenity": "hospital", "check_date": "2025-08-17", "emergency": "no", "healthcare": "hospital", "name": "ASL"}}, {"name": "Azienda Sanitaria Locale TA/1", "latitude": 40.4739042, "longitude": 17.2452949, "source": "osm", "_tags": {"addr:city": "Taranto", "addr:housenumber": "2", "addr:postcode": "74123", "addr:street": "Via Vincenzo Pupino", "amenity": "hospital", "emergency": "no", "name": "Azienda Sanitaria Locale TA/1", "operator": "Azienda Sanitaria Locale", "operator:type": "government", "phone": "+39 099 4585078", "website": "https://www.sanita.puglia.it/web/asl-taranto", "wheelchair": "yes"}}, {"name": "Pronto Soccorso", "latitude": 40.8325766, "longitude": 17.3566113, "source": "osm", "_tags": {"amenity": "hospital", "emergency": "yes", "healthcare": "hospital", "name": "Pronto Soccorso"}}, {"name": "Ospedale Santa Maria Degli Angeli", "latitude": 40.8521875, "longitude": 17.1183389, "source": "osm", "_tags": {"amenity": "hospital", "healthcare": "hospital", "name": "Ospedale Santa Maria Degli Angeli"}}, {"name": "Pronto Soccorso Ospedale S. M. Angeli", "latitude": 40.8517813, "longitude": 17.116985, "source": "osm", "_tags": {"addr:city": "Putignano", "addr:postcode": "70017", "addr:street": "Piazza Padre Pio", "amenity": "hospital", "emergency": "yes", "healthcare": "hospital", "name": "Pronto Soccorso Ospedale S. M. Angeli"}}, {"name": "Pronto Soccorso Ospedale San Giacomo", "latitude": 40.9491684, "longitude": 17.2969903, "source": "osm", "_tags": {"addr:city": "Monopoli", "addr:street": "Via Guglielmo Oberdan", "amenity": "hospital", "emergency": "yes", "healthcare": "hospital", "name": "Pronto Soccorso Ospedale San Giacomo"}}, {"name": "Pronto Soccorso Ospedale Francavilla Fontana", "latitude": 40.539555, "longitude": 17.5768919, "source": "osm", "_tags": {"addr:city": "Francavilla Fontana", "addr:postcode": "72021", "addr:street": "Viale Monsignore Armando Franco", "amenity": "hospital", "emergency": "yes", "healthcare": "hospital", "name": "Pronto Soccorso Ospedale Francavilla Fontana", "opening_hours": "24/7", "phone": "+39 0831851111", "website": "https://www.sanita.puglia.it/web/asl-brindisi/ospedali_det/-/journal_content/56/36031/presidio-di-francavilla-fontana-ceglie-messapica", "wheelchair": "yes"}}, {"name": "Guardia medica presidio estivo", "latitude": 40.4658933, "longitude": 16.9393893, "source": "osm", "_tags": {"amenity": "hospital", "emergency": "yes", "healthcare": "hospital", "healthcare:speciality": "general", "name": "Guardia medica presidio estivo", "operator": "Azienda Unità sanitaria locale", "operator:type": "public", "phone": "800713931", "website": "https://castellaneta.gov.it/pubblicazioni/item/18581-servizio-di-guardia-medica-turistica-estate-2019"}}, {"name": "Cittadella della Carita'", "latitude": 40.5216216, "longitude": 17.2830675, "source": "osm", "_tags": {"addr:city": "Taranto", "addr:postcode": "74123", "addr:street": "Piazzale Cittadella della Carita'", "amenity": "hospital", "healthcare": "hospital", "healthcare:speciality": "general", "name": "Cittadella della Carita'", "phone": "+39 099 473 2111", "website": "https://www.cittadelladellacarita.it/"}}, {"name": "Pronto Soccorso Ostuni", "latitude": 40.7259367, "longitude": 17.5739145, "source": "osm", "_tags": {"amenity": "hospital", "emergency": "yes", "healthcare": "hospital", "name": "Pronto Soccorso Ostuni", "wheelchair": "yes"}}, {"name": "Centro Vaccinale anti-Covid19 Putignano - Monte Laureto", "latitude": 40.8232153, "longitude": 17.108757, "source": "osm", "_tags": {"addr:city": "Putignano", "addr:housenumber": "4", "addr:postcode": "70017", "addr:street": "Strada Comunale La Russa", "amenity": "hospital", "emergency": "no", "healthcare": "hospital", "healthcare:speciality": "vaccination", "name": "Centro Vaccinale anti-Covid19 Putignano - Monte Laureto", "operator": "ASL Bari", "operator:type": "public", "wheelchair": "yes"}}, {"name": "", "latitude": 40.7056208, "longitude": 17.6527025, "source": "osm", "_tags": {"amenity": "hospital", "healthcare": "hospital"}}, {"name": "Dipartimento dimsalute mentale", "latitude": 40.4710045, "longitude": 17.2417217, "source": "osm", "_tags": {"addr:city": "Taranto", "addr:postcode": "74123", "addr:street": "Piazza Santissima Annunziata", "amenity": "hospital", "emergency": "yes", "healthcare": "hospital", "healthcare:speciality": "psychiatry;neurology", "name": "Dipartimento dimsalute mentale", "operator": "ASL Taranto", "operator:type": "public", "phone": "099 4786614", "website": "https://www.sanita.puglia.it/web/asl-taranto/dipartimenti_det/-/journal_content/56/36057/dipartimento-di-salute-mentale"}}, {"name": "Guardia medica - Servizio di Continuità Assistenziale", "latitude": 40.5212625, "longitude": 17.2726551, "source": "osm", "_tags": {"addr:city": "Taranto", "addr:housenumber": "snc", "addr:postcode": "74123", "addr:street": "Piazza Brodolini", "amenity": "hospital", "healthcare": "hospital", "healthcare:speciality": "general", "name": "Guardia medica - Servizio di Continuità Assistenziale", "note": "Gli orari di apertura/chiusura del Sabato e della Domenica sono 10-13; 15.00-22.30", "opening_hours": "Mo-Fr 20:00-22:30", "operator": "Sanità Puglia", "operator:type": "public", "phone": "0994721404", "website": "https://www.paginegialle.it/taranto-ta/azienda-sanitaria-locale-ta_6"}}, {"name": "Croce Verde", "latitude": 40.4569471, "longitude": 17.5061718, "source": "osm", "_tags": {"addr:city": "San Marzano di San Giuseppe", "addr:housenumber": "109", "addr:postcode": "74020", "addr:street": "Via Piave", "email": "info@croceverdesanmarzano.it", "fax": "(39) 099-9576003", "healthcare": "hospital", "name": "Croce Verde", "phone": "+39 3455834762", "website": "https://www.croceverdesanmarzano.it/", "wheelchair": "yes"}}, {"name": "Ospedale \"A. Di Summa\"", "latitude": 40.6358644, "longitude": 17.931977, "source": "osm", "_tags": {"amenity": "hospital", "healthcare": "hospital", "healthcare:speciality": "general", "name": "Ospedale \"A. Di Summa\""}}, {"name": "Guardia Medica", "latitude": 40.6353109, "longitude": 17.932736, "source": "osm", "_tags": {"amenity": "hospital", "healthcare": "hospital", "name": "Guardia Medica"}}, {"name": "Ospedale di Ostuni", "latitude": 40.725711, "longitude": 17.5737099, "source": "osm", "_tags": {"addr:city": "Ostuni", "addr:postcode": "72017", "addr:street": "Via Villafranca", "amenity": "hospital", "check_date": "2025-04-08", "emergency": "yes", "healthcare": "hospital", "healthcare:speciality": "general", "name": "Ospedale di Ostuni", "wheelchair": "yes"}}, {"name": "Guardia medica estiva", "latitude": 40.7898924, "longitude": 17.587343, "source": "osm", "_tags": {"addr:housenumber": "8", "addr:street": "Viale Conte Tancredi", "amenity": "hospital", "emergency": "yes", "healthcare": "hospital", "healthcare:speciality": "emergency;general", "name": "Guardia medica estiva"}}, {"name": "Ospedale SS. Annunziata", "latitude": 40.4644433, "longitude": 17.2485793, "source": "osm", "_tags": {"addr:city": "Taranto", "addr:housenumber": "1", "addr:postcode": "74123", "addr:street": "Via Francesco Bruno", "amenity": "hospital", "check_date": "2025-07-20", "emergency": "yes", "healthcare": "hospital", "name": "Ospedale SS. Annunziata", "operator": "ASL Taranto", "operator:type": "public"}}, {"name": "Matteo Pagliari", "latitude": 40.5831023, "longitude": 17.1227873, "source": "osm", "_tags": {"amenity": "hospital", "emergency": "yes", "healthcare": "hospital", "name": "Matteo Pagliari", "operator": "ASL Taranto", "operator:type": "public", "phone": "+39 099 8801512"}}, {"name": "presidio ospedaliero Fiorenzo Jaia", "latitude": 40.9653816, "longitude": 17.1106618, "source": "osm", "_tags": {"amenity": "hospital", "name": "presidio ospedaliero Fiorenzo Jaia", "wheelchair": "yes"}}, {"name": "Ospedale San Giacomo", "latitude": 40.9488566, "longitude": 17.2966907, "source": "osm", "_tags": {"amenity": "hospital", "name": "Ospedale San Giacomo", "wheelchair": "yes"}}, {"name": "Ospedale S. M. Angeli", "latitude": 40.8519756, "longitude": 17.1174256, "source": "osm", "_tags": {"amenity": "hospital", "emergency": "yes", "healthcare": "hospital", "name": "Ospedale S. M. Angeli"}}, {"name": "Distretto socio sanitario n°6 area sud", "latitude": 41.053629, "longitude": 17.0778477, "source": "osm", "_tags": {"amenity": "hospital", "name": "Distretto socio sanitario n°6 area sud", "operator": "Regione Puglia"}}, {"name": "Ospedale San Giuseppe Moscati", "latitude": 40.5396396, "longitude": 17.2770652, "source": "osm", "_tags": {"addr:city": "Statte", "addr:street": "Via per Martina Franca", "amenity": "hospital", "emergency": "yes", "name": "Ospedale San Giuseppe Moscati", "operator": "Azienda Sanitaria Locale di Taranto", "phone": "+39 099 458 5111", "website": "https://www.sanita.puglia.it/web/asl-taranto"}}, {"name": "Presidio Territoriale Assistenziale - ex \"Ospedale Civile\"", "latitude": 40.6438188, "longitude": 17.5177183, "source": "osm", "_tags": {"addr:city": "Ceglie Messapica", "addr:postcode": "72013", "addr:street": "Largo Cappuccini", "amenity": "hospital", "ele": "288", "name": "Presidio Territoriale Assistenziale - ex \"Ospedale Civile\"", "phone": "+039 0831 389111", "website": "https://www.sanita.puglia.it/web/asl-brindisi/distretti-socio-sanitari_det/-/journal_content/56/36031/dss-n-3-francavilla-fontana"}}, {"name": "Presidio Ospedaliero di Riabilitazione - Fondazione San Raffele", "latitude": 40.6447319, "longitude": 17.5365016, "source": "osm", "_tags": {"addr:city": "Ceglie Messapica", "addr:postcode": "72013", "addr:street": "S. S. Ceglie- San Michele", "amenity": "hospital", "emergency": "no", "name": "Presidio Ospedaliero di Riabilitazione - Fondazione San Raffele", "website": "https://www.fondazionesanraffaele.com/"}}, {"name": "San Camillo", "latitude": 40.9449604, "longitude": 17.2982617, "source": "osm", "_tags": {"amenity": "hospital", "building": "yes", "name": "San Camillo"}}, {"name": "ASL Brindisi", "latitude": 40.6315595, "longitude": 17.9388736, "source": "osm", "_tags": {"addr:city": "Brindisi", "addr:housenumber": "3", "addr:postcode": "72100", "addr:street": "Via Dalmazia", "amenity": "hospital", "building": "public", "email": "distretto_ss1@asl.brindisi.", "healthcare": "hospital", "name": "ASL Brindisi", "opening_hours": "Mo-Fr 08:00-18:00; Sa-Su off", "operator": "ASL", "operator:type": "public", "operator:wikidata": "Q3631467", "phone": "0831 536111", "website": "https://www.sanita.puglia.it/web/asl-brindisi/distretti-socio-sanitari_det/-/journal_content/56/36031/dss-n-1-brindisi"}}, {"name": "Presidio Ospedaliero Valle d'Itria", "latitude": 40.7058184, "longitude": 17.3437611, "source": "osm", "_tags": {"amenity": "hospital", "building": "yes", "healthcare": "hospital", "name": "Presidio Ospedaliero Valle d'Itria"}}, {"name": "Casa di cura \"Villa Verde\"", "latitude": 40.4476899, "longitude": 17.2753138, "source": "osm", "_tags": {"addr:city": "Taranto", "addr:housenumber": "22", "addr:postcode": "74121", "addr:street": "Via Golfo di Taranto", "amenity": "hospital", "building": "yes", "emergency": "yes", "healthcare": "hospital", "name": "Casa di cura \"Villa Verde\"", "phone": "099 772 7111", "website": "https://www.villaverdetaranto.it/", "wheelchair": "yes"}}, {"name": "Ospedale Umberto I", "latitude": 40.6353251, "longitude": 17.0273056, "source": "osm", "_tags": {"amenity": "hospital", "name": "Ospedale Umberto I"}}, {"name": "Pubblica Assistenza Fratellanza Popolare San Vito dei Normanni", "latitude": 40.6577016, "longitude": 17.71365, "source": "osm", "_tags": {"amenity": "hospital", "emergency": "ambulance_station", "name": "Pubblica Assistenza Fratellanza Popolare San Vito dei Normanni", "website": "http://www.fratellanzapopolaresanvito.org/"}}, {"name": "Presidio ospedaliero Dario Camberlingo", "latitude": 40.5396672, "longitude": 17.5772717, "source": "osm", "_tags": {"amenity": "hospital", "healthcare": "hospital", "name": "Presidio ospedaliero Dario Camberlingo"}}, {"name": "Ospedale Civile Umberto I", "latitude": 40.8327883, "longitude": 17.3568895, "source": "osm", "_tags": {"amenity": "hospital", "emergency": "yes", "healthcare": "hospital", "name": "Ospedale Civile Umberto I"}}, {"name": "Casa di cura Monte Imperatore", "latitude": 40.7484177, "longitude": 17.0210318, "source": "osm", "_tags": {"amenity": "hospital", "name": "Casa di cura Monte Imperatore", "phone": "+39 080 4978616"}}, {"name": "Presidio Ospedaliero \"San Marco\"", "latitude": 40.5388803, "longitude": 17.4259535, "source": "osm", "_tags": {"addr:city": "Grottaglie", "addr:postcode": "74023", "addr:street": "Viale Gaspare Pignatelli", "amenity": "hospital", "emergency": "yes", "healthcare": "hospital", "name": "Presidio Ospedaliero \"San Marco\""}}, {"name": "Regione Puglia - ARPA", "latitude": 40.4853025, "longitude": 17.2002138, "source": "osm", "_tags": {"amenity": "hospital", "healthcare": "hospital", "name": "Regione Puglia - ARPA"}}, {"name": "", "latitude": 40.600174, "longitude": 17.2360179, "source": "osm", "_tags": {"amenity": "hospital"}}, {"name": "", "latitude": 40.4565297, "longitude": 17.5097138, "source": "osm", "_tags": {"amenity": "hospital", "healthcare": "hospital"}}, {"name": "Presidio Ospedaliero \"Antonio Perrino\"", "latitude": 40.6244066, "longitude": 17.9134788, "source": "osm", "_tags": {"alt_name": "Ospedale Antonio Perrino", "amenity": "hospital", "emergency": "yes", "healthcare": "hospital", "name": "Presidio Ospedaliero \"Antonio Perrino\"", "operator": "ASL Brindisi", "operator:type": "public", "short_name": "Ospedale Perrino", "website": "https://www.sanita.puglia.it/web/asl-brindisi/ospedali_det/-/journal_content/56/36031/presidio-di-brindisi-di-summa-perrino-", "wheelchair": "yes", "wikidata": "Q30281363"}}, {"name": "Presidio Ospedaliero Dario Camberlingo", "latitude": 40.5395476, "longitude": 17.5772027, "source": "osm", "_tags": {"amenity": "hospital", "emergency": "yes", "healthcare": "hospital", "name": "Presidio Ospedaliero Dario Camberlingo"}}, {"name": "IRCCS Saverio De Bellis", "latitude": 40.883775, "longitude": 17.1555217, "source": "osm", "_tags": {"amenity": "hospital", "emergency": "yes", "healthcare": "hospital", "name": "IRCCS Saverio De Bellis", "type": "multipolygon"}}, {"name": "Azienda Sanitaria Locale", "latitude": 40.8910534, "longitude": 16.9538135, "source": "osm", "_tags": {"addr:street": "Via Michelangelo Buonarroti", "amenity": "hospital", "building": "yes", "emergency": "no", "name": "Azienda Sanitaria Locale", "phone": "+39 080 4610877", "type": "multipolygon", "wheelchair": "yes"}}, {"name": "ASL BARI - Distretto 11", "latitude": 41.0625195, "longitude": 17.0870031, "source": "osm", "_tags": {"amenity": "hospital", "healthcare": "hospital", "name": "ASL BARI - Distretto 11", "type": "multipolygon"}}]