[{"name": "Centro Polivalente Santa Teresa Zona Norte", "latitude": 40.6481004, "longitude": -4.6824576, "source": "osm", "_tags": {"addr:city": "Ávila", "addr:postcode": "05003", "addr:street": "Calle de Agustín Rodríguez Sahagún", "amenity": "clinic", "healthcare": "hospital", "healthcare:speciality": "gynaecology;general;neurology", "name": "Centro Polivalente Santa Teresa Zona Norte", "phone": "+34920257810", "wheelchair": "yes"}}, {"name": "Hospital Provincial de Ávila", "latitude": 40.6498866, "longitude": -4.6926328, "source": "osm", "_tags": {"addr:housenumber": "24", "addr:postcode": "05003", "addr:street": "Calle Jesús del Gran Poder", "amenity": "hospital", "emergency": "yes", "healthcare": "hospital", "name": "Hospital Provincial de Ávila", "opening_hours": "24/7", "operator": "SACYL", "operator:type": "public", "operator:wikidata": "Q6116740", "operator:wikipedia": "es:Sacyl", "phone": "+34 920 358 000", "wikidata": "Q5902797", "wikipedia": "es:Hospital Nuestra Señora de Sonsoles"}}, {"name": "Hospital Nuestra Señora de Sonsoles", "latitude": 40.6658039, "longitude": -4.6666608, "source": "osm", "_tags": {"addr:city": "Ávila", "addr:country": "ES", "addr:housenumber": "31", "addr:postcode": "05071", "addr:street": "Avenida de Juan Carlos I", "amenity": "hospital", "emergency": "yes", "healthcare": "hospital", "name": "Hospital Nuestra Señora de Sonsoles", "opening_hours": "24/7", "operator": "Sacyl", "operator:type": "public", "operator:wikidata": "Q6116740", "operator:wikipedia": "es:Sacyl", "phone": "+34 920 358 027", "wikidata": "Q5902797", "wikipedia": "es:Hospital Nuestra Señora de Sonsoles"}}, {"name": "Hospital de Guadarrama.", "latitude": 40.6694125, "longitude": -4.0860551, "source": "osm", "_tags": {"addr:city": "Guadarrama", "addr:housenumber": "2", "addr:postcode": "28440", "addr:street": "Paseo Molino del Rey", "amenity": "hospital", "barrier": "fence", "healthcare": "hospital", "name": "Hospital de Guadarrama.", "operator": "Comunidad de Madrid.", "operator:type": "government", "phone": "+34 918 56 20 03", "website": "https://www.comunidad.madrid/hospital/guadarrama/", "wikidata": "Q28735075"}}, {"name": "Hospital General de Segovia", "latitude": 40.9427329, "longitude": -4.1289102, "source": "osm", "_tags": {"addr:city": "Segovia", "addr:postcode": "40002", "addr:street": "Calle Erik Clavería “Neurólogo”", "air_conditioning": "yes", "amenity": "hospital", "emergency": "yes", "healthcare": "hospital", "healthcare:speciality": "general;paediatrics;orthopaedics;intensive;surgery", "name": "Hospital General de Segovia", "old_name": "Residencia Sanitaria de la Seguridad Social Licinio de la Fuente", "opening_hours": "24/7", "operator": "SACYL", "operator:type": "public", "operator:wikidata": "Q6116740", "phone": "+34 921 419 100", "website": "https://www.saludcastillayleon.es/CASegovia/es/complejo-asistencial-segovia/hospital-general", "wheelchair": "yes", "wikidata": "Q30280488", "wikipedia": "es:Hospital General de Segovia"}}, {"name": "Hospital de El Escorial", "latitude": 40.6083239, "longitude": -4.1208218, "source": "osm", "_tags": {"amenity": "hospital", "healthcare": "hospital", "name": "Hospital de El Escorial", "operator": "Comunidad de Madrid", "operator:type": "government", "operator:wikidata": "Q578788", "phone": "+34 918973000 ; +34 918973066", "website": "https://www.comunidad.madrid/hospital/elescorial/", "wikidata": "Q5688366", "wikipedia": "es:Hospital de El Escorial"}}, {"name": "Hospital de la Fuenfría", "latitude": 40.7599106, "longitude": -4.0739808, "source": "osm", "_tags": {"addr:city": "Las Dehesas", "addr:postcode": "28479", "addr:street": "Camino de los Campamentos", "alt_name": "Hospital La Fuenfría", "amenity": "hospital", "check_date": "2024-05-17", "emergency": "no", "healthcare": "hospital", "image": "https://upload.wikimedia.org/wikipedia/commons/3/3a/Atervaperdines_Sierte_de_la_Fuenfr%C3%ADa.jpg", "name": "Hospital de la Fuenfría", "old_name": "Hotel-Sanatorio de la Fuenfría;Sanatorio de la Fuenfría", "operator": "Servicio Madrileño de Salud", "operator:type": "government", "wheelchair": "yes", "wikidata": "Q87762066", "wikimedia_commons": "File:Atervaperdines_Sierte_de_la_Fuenfría.jpg", "wikipedia": "es:Hospital de la Fuenfría"}}, {"name": "Hospital Comarcal de Medina del Campo", "latitude": 41.2950383, "longitude": -4.9116826, "source": "osm", "_tags": {"amenity": "hospital", "emergency": "yes", "healthcare": "hospital", "name": "Hospital Comarcal de Medina del Campo", "wikidata": "Q87762649"}}, {"name": "Clínica de Salud Mental Arévalo", "latitude": 41.0531315, "longitude": -4.7207741, "source": "osm", "_tags": {"amenity": "hospital", "email": "direccion.arevalo@mentaliasalud.es", "healthcare": "hospital", "healthcare:speciality": "psychiatry", "name": "Clínica de Salud Mental Arévalo", "operator": "Mentalia Salud", "phone": "+34 920301400", "website": "https://www.mentaliasalud.es/centro/mentalia-arevalo/"}}, {"name": "Hospital Recoletas", "latitude": 40.953008, "longitude": -4.1240513, "source": "osm", "_tags": {"addr:city": "Segovia", "addr:housenumber": "21-23", "addr:postcode": "40003", "addr:street": "Calle del Doctor Velasco", "alt_name": "Hospital de la Misericordia;Hospital de Nuestra Señora de la Misericordia", "amenity": "hospital", "emergency": "yes", "healthcare": "hospital", "name": "Hospital Recoletas", "opening_hours": "24/7", "operator": "Grupo Recoletas", "operator:type": "private", "phone": "+34 921 46 01 15", "website": "https://www.gruporecoletas.com/hospitales/hospital-recoletas-segovia/", "wheelchair": "yes", "wikidata": "Q118237171", "wikipedia": "es:Hospital de Nuestra Señora de la Misericordia (Segovia)"}}]