[{"name": "Κέντρο Υγείας Σταυρούπολης", "latitude": 41.1956103, "longitude": 24.7038598, "source": "osm", "_tags": {"addr:city": "Σταυρούπολη", "addr:postcode": "67062", "amenity": "hospital", "healthcare": "hospital", "name": "Κέντρο Υγείας Σταυρούπολης", "name:el": "Κέντρο Υγείας Σταυρούπολης", "name:en": "Stavroupoli Health Center", "phone": "+302542350000"}}, {"name": "Κέντρο αποκατάστασης \"Αναβίωση\"", "latitude": 41.1078998, "longitude": 24.0197223, "source": "osm", "_tags": {"addr:city": "Σιταγροί", "addr:postcode": "66100", "addr:street": "Σερρών - Δράμας", "amenity": "hospital", "healthcare": "hospital", "name": "Κέντρο αποκατάστασης \"Αναβίωση\"", "phone": "+302521095001"}}, {"name": "Thassos Med", "latitude": 40.6310373, "longitude": 24.5749943, "source": "osm", "_tags": {"amenity": "hospital", "name": "Thassos Med"}}, {"name": "Ερυθρός Σταυρός", "latitude": 41.1497788, "longitude": 24.1395259, "source": "osm", "_tags": {"amenity": "hospital", "healthcare": "hospital", "name": "Ερυθρός Σταυρός"}}, {"name": "Γενικό Νοσοκομείο Δράμας", "latitude": 41.1587816, "longitude": 24.1489175, "source": "osm", "_tags": {"amenity": "hospital", "healthcare": "hospital", "name": "Γενικό Νοσοκομείο Δράμας", "name:el": "Γενικό Νοσοκομείο Δράμας", "wikidata": "Q21626641"}}, {"name": "Κέντρο Υγείας Χρυσούπολης", "latitude": 40.982331, "longitude": 24.7041159, "source": "osm", "_tags": {"amenity": "hospital", "emergency": "yes", "healthcare": "hospital", "name": "Κέντρο Υγείας Χρυσούπολης", "phone": "+302591350000"}}, {"name": "Θεραπευτήριο Χρονίων Παθήσεων Δράμας", "latitude": 41.155059, "longitude": 24.1443712, "source": "osm", "_tags": {"amenity": "hospital", "healthcare": "hospital", "name": "Θεραπευτήριο Χρονίων Παθήσεων Δράμας"}}, {"name": "Γενικό Νοσοκομείο Καβάλας", "latitude": 40.9384334, "longitude": 24.3778847, "source": "osm", "_tags": {"amenity": "hospital", "healthcare": "hospital", "int_name": "General Hospital of Kavala", "name": "Γενικό Νοσοκομείο Καβάλας", "name:el": "Γενικό Νοσοκομείο Καβάλας", "name:en": "Kavala Hospital", "wikidata": "Q62633075"}}, {"name": "Γενικό Νοσοκομείο Ξάνθης", "latitude": 41.1237703, "longitude": 24.8679856, "source": "osm", "_tags": {"addr:postcode": "67100", "addr:street": "Εθελοντή Αιμοδότη", "amenity": "hospital", "email": "contact_us@hosp-xanthi.gr", "healthcare": "hospital", "internet_access": "wlan", "name": "Γενικό Νοσοκομείο Ξάνθης", "phone": "25413 51100", "website": "https://www.hosp-xanthi.gr/", "wikidata": "Q21626638"}}, {"name": "Κέντρο Υγείας Πρίνου", "latitude": 40.7386963, "longitude": 24.575049, "source": "osm", "_tags": {"addr:postcode": "64010", "addr:street": "Πρίνου - Μικρού Πρίνου", "amenity": "hospital", "building": "yes", "emergency": "yes", "healthcare": "hospital", "name": "Κέντρο Υγείας Πρίνου", "phone": "+302593350000", "type": "multipolygon"}}]