[{"name": "Unidade Cuidados Continuados de Ribeira de Pena", "latitude": 41.5250692, "longitude": -7.7935542, "source": "osm", "_tags": {"amenity": "hospital", "building": "yes", "name": "Unidade Cuidados Continuados de Ribeira de Pena"}}, {"name": "Complexo Hospitalario Universitario de Ourense", "latitude": 42.3260209, "longitude": -7.859979, "source": "osm", "_tags": {"addr:city": "Ourense", "addr:country": "ES", "addr:housenumber": "52", "addr:postcode": "32005", "addr:street": "Rúa Ramón Puga Noguerol", "amenity": "hospital", "emergency": "yes", "healthcare": "hospital", "healthcare:speciality": "general;emergency", "name": "Complexo Hospitalario Universitario de Ourense", "network": "Servizo Galego de Saúde", "network:short": "SERGAS", "network:wikidata": "Q3393183", "operator": "Servizo Galego de Saúde", "operator:short": "SERGAS", "operator:type": "public", "operator:wikidata": "Q3393183", "phone": "+34988385500", "short_name": "CHUO", "wikidata": "Q30281894"}}, {"name": "Unidade Hospitalar de Chaves - Unidade Local de Saúde de Trás-os-Montes e Alto Douro", "latitude": 41.7442216, "longitude": -7.4773099, "source": "osm", "_tags": {"addr:city": "Chaves", "addr:postcode": "5400-249", "addr:street": "Avenida Doutor Francisco de Sá Carneiro", "amenity": "hospital", "emergency": "yes", "healthcare": "hospital", "name": "Unidade Hospitalar de Chaves - Unidade Local de Saúde de Trás-os-Montes e Alto Douro", "old_name": "Hospital Distrital de Chaves", "operator": "Unidade Local de Saúde de Trás-os-Montes e Alto Douro, EPE", "phone": "+351 276 300 900"}}, {"name": "Hospital de Mirandela", "latitude": 41.4850946, "longitude": -7.189729, "source": "osm", "_tags": {"addr:city": "Mirandela", "addr:postcode": "5370-210", "addr:street": "Avenida Nossa Senhora do Amparo", "amenity": "hospital", "emergency": "yes", "healthcare": "hospital", "name": "Hospital de Mirandela"}}, {"name": "Hospital Terra Quente", "latitude": 41.4808677, "longitude": -7.1796512, "source": "osm", "_tags": {"amenity": "hospital", "building": "hospital", "healthcare": "hospital", "name": "Hospital Terra Quente"}}, {"name": "Hospital Privado de Chaves", "latitude": 41.7425504, "longitude": -7.4813234, "source": "osm", "_tags": {"addr:city": "Chaves", "addr:postcode": "5400-086", "addr:street": "Avenida Padre António Vieira", "amenity": "hospital", "contact:facebook": "https://www.facebook.com/pg/HospitalPrivadodeChaves/", "email": "geral@hpchaves.pt", "healthcare": "hospital", "name": "Hospital Privado de Chaves", "opening_hours": "Mo-Sa 08:00-20:00", "phone": "+351 276 400 200", "website": "https://hpchaves.pt/"}}, {"name": "Hospital da Misericórdia de Valpaços", "latitude": 41.6097082, "longitude": -7.3140513, "source": "osm", "_tags": {"amenity": "hospital", "healthcare": "hospital", "name": "Hospital da Misericórdia de Valpaços", "operator": "Santa Casa da Misericórdia de Valpaços"}}, {"name": "Hospital Público de Verín", "latitude": 41.953898, "longitude": -7.4302719, "source": "osm", "_tags": {"addr:city": "Verín", "addr:country": "ES", "addr:postcode": "32600", "addr:street": "Estrada de Laza", "amenity": "hospital", "emergency": "yes", "healthcare": "hospital", "name": "Hospital Público de Verín", "network": "Servizo Galego de Saúde", "network:short": "SERGAS", "network:wikidata": "Q3393183", "nohousenumber": "yes", "operator": "Servizo Galego de Saúde", "operator:short": "SERGAS", "operator:type": "public", "operator:wikidata": "Q3393183", "phone": "+34 988413636", "short_name": "Hospital de Verín", "wikidata": "Q87762264"}}]