[{"name": "ДКЦ 1", "latitude": 41.9301849, "longitude": 25.5575052, "source": "osm", "_tags": {"amenity": "hospital", "name": "ДКЦ 1"}}, {"name": "МБАЛ \"Живот плюс\"", "latitude": 41.4654734, "longitude": 25.6467517, "source": "osm", "_tags": {"amenity": "hospital", "name": "МБАЛ \"Живот плюс\""}}, {"name": "Здравна служба", "latitude": 42.2619299, "longitude": 25.3225668, "source": "osm", "_tags": {"amenity": "hospital", "name": "Здравна служба"}}, {"name": "", "latitude": 42.2953588, "longitude": 25.2088877, "source": "osm", "_tags": {"amenity": "hospital"}}, {"name": "", "latitude": 42.0625321, "longitude": 25.5806447, "source": "osm", "_tags": {"amenity": "hospital", "wheelchair": "limited"}}, {"name": "ДКЦ 2", "latitude": 41.9364518, "longitude": 25.5540285, "source": "osm", "_tags": {"amenity": "hospital", "emergency": "no", "name": "ДКЦ 2"}}, {"name": "Трета поликлиника", "latitude": 41.9366201, "longitude": 25.5540295, "source": "osm", "_tags": {"addr:housenumber": "9", "addr:street": "Рила", "amenity": "hospital", "name": "Трета поликлиника"}}, {"name": "Здравна служба", "latitude": 42.1471228, "longitude": 25.2025686, "source": "osm", "_tags": {"amenity": "hospital", "name": "Здравна служба"}}, {"name": "Здравна служба", "latitude": 42.0592126, "longitude": 25.263757, "source": "osm", "_tags": {"amenity": "hospital", "description": "Здравна служба", "healthcare": "hospital", "name": "Здравна служба"}}, {"name": "Здравна служба", "latitude": 42.0166327, "longitude": 25.2955209, "source": "osm", "_tags": {"amenity": "hospital", "healthcare": "hospital", "name": "Здравна служба"}}, {"name": "МБАЛ”Д-р Ат.Дафовски”АД", "latitude": 41.6457495, "longitude": 25.3753297, "source": "osm", "_tags": {"addr:city": "Кърджали", "addr:housenumber": "53", "addr:postcode": "6600", "addr:street": "бул.”Беломорски”", "amenity": "hospital", "emergency": "yes", "healthcare": "hospital", "name": "МБАЛ”Д-р Ат.Дафовски”АД"}}, {"name": "Окръжна болница \"Проф. Стоян Киркович\"", "latitude": 42.4239321, "longitude": 25.6116942, "source": "osm", "_tags": {"amenity": "hospital", "emergency": "yes", "healthcare": "hospital", "name": "Окръжна болница \"Проф. Стоян Киркович\""}}, {"name": "АГО Хасково", "latitude": 41.936867, "longitude": 25.5659202, "source": "osm", "_tags": {"addr:street": "Единство", "amenity": "hospital", "building": "yes", "building:levels": "4", "emergency": "no", "name": "АГО Хасково", "note:cadastre:id": "737.1.7"}}, {"name": "Медицински център Чирпан", "latitude": 42.1982392, "longitude": 25.3289217, "source": "osm", "_tags": {"amenity": "hospital", "building": "yes", "name": "Медицински център Чирпан"}}, {"name": "МБАЛ - Чирпан", "latitude": 42.2037089, "longitude": 25.3445115, "source": "osm", "_tags": {"amenity": "hospital", "healthcare": "hospital", "name": "МБАЛ - Чирпан"}}, {"name": "ДКЦ \"Д-р Николай Тошев\"", "latitude": 42.2002674, "longitude": 25.3278592, "source": "osm", "_tags": {"amenity": "hospital", "building": "yes", "name": "ДКЦ \"Д-р Николай Тошев\""}}, {"name": "Ветеринарна лечебница", "latitude": 42.2585186, "longitude": 25.3296665, "source": "osm", "_tags": {"amenity": "hospital", "name": "Ветеринарна лечебница"}}, {"name": "Медицински център \"Берое\"", "latitude": 42.4137459, "longitude": 25.6248547, "source": "osm", "_tags": {"amenity": "hospital", "healthcare": "hospital", "name": "Медицински център \"Берое\""}}, {"name": "Държавна психиатрична болница \"Д-р Георги Кисьов\"", "latitude": 42.2861088, "longitude": 25.9228991, "source": "osm", "_tags": {"amenity": "hospital", "healthcare": "hospital", "name": "Държавна психиатрична болница \"Д-р Георги Кисьов\""}}, {"name": "МБАЛ", "latitude": 42.1409032, "longitude": 25.8582778, "source": "osm", "_tags": {"amenity": "hospital", "name": "МБАЛ"}}, {"name": "МБАЛ", "latitude": 42.1411157, "longitude": 25.858711, "source": "osm", "_tags": {"amenity": "hospital", "name": "МБАЛ"}}, {"name": "Многопрофилна болница за АЛ", "latitude": 42.2878638, "longitude": 24.954076, "source": "osm", "_tags": {"amenity": "hospital", "name": "Многопрофилна болница за АЛ"}}, {"name": "Атанас Дафовски", "latitude": 41.6461291, "longitude": 25.3751254, "source": "osm", "_tags": {"addr:city": "Кърджали", "addr:postcode": "6600", "amenity": "hospital", "healthcare": "hospital", "name": "Атанас Дафовски", "name:en": "Atanas Dafovski"}}, {"name": "СБАЛХ-Кърджали", "latitude": 41.645498, "longitude": 25.3718372, "source": "osm", "_tags": {"addr:city": "Кърджали", "addr:country": "BG", "addr:housenumber": "19", "addr:postcode": "6600", "addr:street": "бул. Тракия", "amenity": "hospital", "healthcare": "hospital", "name": "СБАЛХ-Кърджали"}}, {"name": "МБАЛ Хасково", "latitude": 41.9332325, "longitude": 25.5664758, "source": "osm", "_tags": {"amenity": "hospital", "healthcare": "hospital", "name": "МБАЛ Хасково", "website": "https://www.mbalhaskovo.com/"}}, {"name": "Военна болница", "latitude": 41.9326363, "longitude": 25.5640763, "source": "osm", "_tags": {"amenity": "hospital", "healthcare": "hospital", "name": "Военна болница"}}, {"name": "МБАЛ", "latitude": 41.5799353, "longitude": 25.1347589, "source": "osm", "_tags": {"amenity": "hospital", "building": "yes", "name": "МБАЛ"}}, {"name": "МБАЛ \"Света Екатерина\"", "latitude": 42.0514457, "longitude": 25.5888467, "source": "osm", "_tags": {"amenity": "hospital", "healthcare": "hospital", "name": "МБАЛ \"Света Екатерина\""}}, {"name": "МБАЛ \"Д-р Сергей Ростовцев\"", "latitude": 41.5306383, "longitude": 25.4123614, "source": "osm", "_tags": {"addr:city": "Момчилград", "addr:housenumber": "1", "addr:postcode": "6800", "addr:street": "Стефан Караджа", "amenity": "hospital", "healthcare": "hospital", "name": "МБАЛ \"Д-р Сергей Ростовцев\"", "website": "https://www.momchilgrad.bg/bg/zdraveopazvane/161-zdravni-zavedeniya-i-organizatzii.html"}}, {"name": "МБАЛ-Първомай", "latitude": 42.0916692, "longitude": 25.2145708, "source": "osm", "_tags": {"addr:housenumber": "51", "addr:street": "ул. Княз Борис І", "amenity": "hospital", "healthcare": "hospital", "name": "МБАЛ-Първомай", "website": "https://mbal-parvomay.com/"}}, {"name": "МБАЛ-Харманли", "latitude": 41.9230748, "longitude": 25.9004005, "source": "osm", "_tags": {"amenity": "hospital", "healthcare": "hospital", "name": "МБАЛ-Харманли", "website": "http://www.mbal-harmanli.org"}}, {"name": "Специализирана болница за рехабилитация", "latitude": 41.6148209, "longitude": 25.007719, "source": "osm", "_tags": {"amenity": "hospital", "building": "yes", "name": "Специализирана болница за рехабилитация", "type": "multipolygon"}}]