[{"name": "Ambulanca Medizinale për Familje", "latitude": 41.991036, "longitude": 20.706698, "source": "osm", "_tags": {"amenity": "hospital", "name": "Ambulanca Medizinale për Familje", "name:mk": "Амбуланта за семејна медицина", "name:sr": "Амбуланта породичне медицине"}}, {"name": "Qendra e Mjekësisë Familjare", "latitude": 42.2130061, "longitude": 20.7433207, "source": "osm", "_tags": {"addr:city": "Prizren", "addr:housename": "Qendra e Mjekësisë Familjare", "addr:postcode": "20000", "addr:street": "Rr. Emin Pasha", "amenity": "hospital", "healthcare": "hospital", "name": "Qendra e Mjekësisë Familjare"}}, {"name": "Qedra Mjeksore", "latitude": 42.2247049, "longitude": 20.7415273, "source": "osm", "_tags": {"amenity": "hospital", "name": "Qedra Mjeksore"}}, {"name": "Mjeksia Familjare 'Jeta e Re'", "latitude": 42.2237798, "longitude": 20.7116767, "source": "osm", "_tags": {"amenity": "hospital", "emergency": "yes", "name": "Mjeksia Familjare 'Jeta e Re'"}}, {"name": "QMF BREKOC / nr 3", "latitude": 42.3668081, "longitude": 20.4172308, "source": "osm", "_tags": {"amenity": "hospital", "emergency": "yes", "name": "QMF BREKOC / nr 3"}}, {"name": "Dom Zdravlja", "latitude": 42.0543984, "longitude": 20.6952872, "source": "osm", "_tags": {"amenity": "hospital", "emergency": "yes", "name": "Dom Zdravlja", "name:sr": "Дом здравља"}}, {"name": "QMF Tusuz", "latitude": 42.2002468, "longitude": 20.7142713, "source": "osm", "_tags": {"amenity": "hospital", "emergency": "yes", "healthcare": "hospital", "name": "QMF Tusuz"}}, {"name": "Instituti i Shëndetit Mendor", "latitude": 42.3722023, "longitude": 20.4369482, "source": "osm", "_tags": {"amenity": "hospital", "emergency": "no", "internet_access": "wlan", "name": "Instituti i Shëndetit Mendor"}}, {"name": "Qendra e mjekësisë familjare", "latitude": 42.3198067, "longitude": 20.6346891, "source": "osm", "_tags": {"amenity": "hospital", "name": "Qendra e mjekësisë familjare"}}, {"name": "Instituti i Mjekësis së Punës", "latitude": 42.3979405, "longitude": 20.4194589, "source": "osm", "_tags": {"amenity": "hospital", "emergency": "no", "healthcare": "hospital", "healthcare:speciality": "occupational", "name": "Instituti i Mjekësis së Punës"}}, {"name": "Hospital", "latitude": 41.8353984, "longitude": 20.8824258, "source": "osm", "_tags": {"addr:postcode": "1238", "amenity": "hospital", "name": "Hospital"}}, {"name": "Spitali Fati im", "latitude": 42.3706195, "longitude": 20.4291145, "source": "osm", "_tags": {"addr:housenumber": "N 114", "addr:postcode": "50000", "addr:street": "Deshmoret Dervishdana", "amenity": "hospital", "healthcare": "hospital", "name": "Spitali Fati im", "name:en": "Fati-im Hospital", "name:sq": "Spitali Fati-im", "opening_hours": "Mo-Sa 07:30-20:00", "phone": "+383390325353", "website": "http://www.fati-im.com"}}, {"name": "Bolnica Kamenjane", "latitude": 41.9441196, "longitude": 20.9253281, "source": "osm", "_tags": {"addr:postcode": "1221", "addr:street": "101", "amenity": "hospital", "name": "Bolnica Kamenjane", "name:en": "Hospital Kamenjane", "name:mk": "Bolnica Kamenjane", "name:sq": "Spitali Kamjan"}}, {"name": "QMF ÇABRATI Nr. 1", "latitude": 42.3854964, "longitude": 20.4219991, "source": "osm", "_tags": {"amenity": "hospital", "healthcare": "hospital", "name": "QMF ÇABRATI Nr. 1"}}, {"name": "QMF EMIN DURAKU / Nr 2", "latitude": 42.381596, "longitude": 20.4372158, "source": "osm", "_tags": {"amenity": "hospital", "healthcare": "hospital", "name": "QMF EMIN DURAKU / Nr 2"}}, {"name": "AMF DOLI ", "latitude": 42.3473278, "longitude": 20.4635441, "source": "osm", "_tags": {"amenity": "hospital", "emergency": "yes", "name": "AMF DOLI "}}, {"name": "AMF GUSKA / Nr. 03", "latitude": 42.3624504, "longitude": 20.3921906, "source": "osm", "_tags": {"amenity": "hospital", "name": "AMF GUSKA / Nr. 03", "name:sq": "AMF GUSKË / Nr. 03"}}, {"name": "AMF BABAJ I BOKES / Nr. 04", "latitude": 42.3606059, "longitude": 20.3316765, "source": "osm", "_tags": {"addr:housenumber": "41", "addr:street": "Vëllezërit Bukolla", "amenity": "hospital", "name": "AMF BABAJ I BOKES / Nr. 04"}}, {"name": "AMF Blinisht / Nr. 14", "latitude": 42.3119954, "longitude": 20.478138, "source": "osm", "_tags": {"addr:city": "Gjakova", "addr:street": "Shaban Lushaj", "amenity": "hospital", "healthcare": "doctor", "healthcare:speciality": "general", "name": "AMF Blinisht / Nr. 14"}}, {"name": "AMF BISTRAZHIN / Nr. 15", "latitude": 42.3591964, "longitude": 20.5144636, "source": "osm", "_tags": {"amenity": "hospital", "name": "AMF BISTRAZHIN / Nr. 15"}}, {"name": "AMF nr. 16 Demjan", "latitude": 42.2969855, "longitude": 20.5223808, "source": "osm", "_tags": {"amenity": "hospital", "emergency": "no", "health_facility:type": "dispensary", "healthcare:speciality": "general", "name": "AMF nr. 16 Demjan"}}, {"name": "AMF Korenice - Nr. 02", "latitude": 42.3747414, "longitude": 20.3670976, "source": "osm", "_tags": {"addr:housenumber": "10", "addr:street": "Besëlidhja", "amenity": "hospital", "name": "AMF Korenice - Nr. 02"}}, {"name": "MIM SPITALI", "latitude": 42.3667545, "longitude": 20.4638878, "source": "osm", "_tags": {"addr:postcode": "50009", "addr:street": "Megzun Boshnjaku", "amenity": "hospital", "email": "nrexha@yahoo.com", "internet_access": "wlan", "name": "MIM SPITALI", "name:en": "MIM HOSPITAL", "name:sq": "MIM SPITALI", "opening_hours": "24/7", "phone": "+38344129169", "website": "https://www.mim-ks.com/"}}, {"name": "Qëndra e Mjekësisë Familjare", "latitude": 42.1084389, "longitude": 20.7245578, "source": "osm", "_tags": {"amenity": "hospital", "healthcare": "hospital", "name": "Qëndra e Mjekësisë Familjare"}}, {"name": "otorinola", "latitude": 42.2195532, "longitude": 20.7276137, "source": "osm", "_tags": {"addr:postcode": "20000", "addr:street": "rruga 11 Marsi ( te semaforat) , ortakoll , prizren", "amenity": "hospital", "email": "dr.syla@hotmail.com", "name": "otorinola", "name:en": "ORL - Dr.Sylejman Nishori", "name:sq": "ORL - Dr. Sylejman Nishori", "phone": "+38344159740"}}, {"name": "Meti-Dent", "latitude": 42.2196171, "longitude": 20.7275261, "source": "osm", "_tags": {"amenity": "hospital", "name": "Meti-Dent", "phone": "+38344213493"}}, {"name": "Болница Ферид Мурад", "latitude": 41.7929628, "longitude": 20.903526, "source": "osm", "_tags": {"addr:postcode": "1230", "amenity": "hospital", "name": "Болница Ферид Мурад", "name:tr": "Ferid Murad Hastanesi"}}, {"name": "Qendra Shendetsore Helshan", "latitude": 42.2154933, "longitude": 20.279759, "source": "osm", "_tags": {"addr:postcode": "8660", "addr:street": "Vas Pas", "amenity": "hospital", "name": "Qendra Shendetsore Helshan", "opening_hours": "Mo-Sa 00:00-24:00"}}, {"name": "QMF- Qender e Mjeksisë Familjare", "latitude": 41.9803706, "longitude": 20.6398676, "source": "osm", "_tags": {"addr:city": "Kruševo - Krushevë", "addr:housenumber": "38", "addr:street": "Dof Dželof", "amenity": "hospital", "healthcare": "hospital", "healthcare:speciality": "general", "name": "QMF- Qender e Mjeksisë Familjare"}}, {"name": "AMF- Ambulancë e mjeksisë Familjare", "latitude": 41.9458372, "longitude": 20.6675268, "source": "osm", "_tags": {"addr:city": "Dragash", "addr:housenumber": "57", "addr:street": "Lisićina Dupka", "amenity": "hospital", "healthcare": "hospital", "healthcare:speciality": "general", "name": "AMF- Ambulancë e mjeksisë Familjare"}}, {"name": "QMF- Qendër e Mjeksisë Familjare", "latitude": 42.2146469, "longitude": 20.7364798, "source": "osm", "_tags": {"addr:city": "Prizren", "addr:street": "Besnik Belloda", "amenity": "hospital", "emergency": "no", "healthcare": "hospital", "healthcare:speciality": "general", "name": "QMF- Qendër e Mjeksisë Familjare"}}, {"name": "AMF- Ambulancë e Mjeksisë Familjare", "latitude": 42.2823652, "longitude": 20.6611499, "source": "osm", "_tags": {"addr:city": "Krajk", "addr:street": "Tafë Përvizi", "amenity": "hospital", "healthcare": "hospital", "healthcare:speciality": "general", "name": "AMF- Ambulancë e Mjeksisë Familjare"}}, {"name": "AMF- Ambulancë e Mjeksisë Fmiljare", "latitude": 42.3352769, "longitude": 20.8433658, "source": "osm", "_tags": {"addr:city": "Sopijë", "addr:street": "Muharrem Balia", "amenity": "hospital", "healthcare": "doctor", "healthcare:speciality": "general", "name": "AMF- Ambulancë e Mjeksisë Fmiljare"}}, {"name": "AMF- Ambulancë e Mjeksisë Familjare", "latitude": 42.146138, "longitude": 20.8607331, "source": "osm", "_tags": {"addr:city": "Gornje Ljubinje", "addr:street": "Pazhiku", "amenity": "hospital", "healthcare": "hospital", "healthcare:speciality": "general", "name": "AMF- Ambulancë e Mjeksisë Familjare"}}, {"name": "AMF- Ambulancë e Mjeksisë Familjare", "latitude": 42.2558599, "longitude": 20.5753514, "source": "osm", "_tags": {"addr:city": "Lubizhda e hasit", "addr:street": "Tafë Zeneli", "amenity": "hospital", "healthcare": "doctor", "healthcare:speciality": "general", "name": "AMF- Ambulancë e Mjeksisë Familjare"}}, {"name": "AMF- Ambulancë e Mjeksisë Familjare", "latitude": 42.4195381, "longitude": 20.8023307, "source": "osm", "_tags": {"addr:city": "Nishori", "addr:street": "Skënder Bytyçi", "amenity": "hospital", "healthcare": "doctor", "healthcare:speciality": "general", "name": "AMF- Ambulancë e Mjeksisë Familjare"}}, {"name": "AMF- Ambulancë e Mjeksisë Familjare", "latitude": 42.2840496, "longitude": 20.8344796, "source": "osm", "_tags": {"addr:city": "Grejkoc", "addr:street": "Vesel Selimaj", "amenity": "hospital", "healthcare": "doctor", "healthcare:speciality": "general", "name": "AMF- Ambulancë e Mjeksisë Familjare"}}, {"name": "AMF- Ambulancë e Mjeksisë Familjare", "latitude": 42.1740888, "longitude": 20.8932415, "source": "osm", "_tags": {"addr:city": "Mushnikova", "addr:street": "Zagrebi", "amenity": "hospital", "emergency": "yes", "healthcare": "doctor", "healthcare:speciality": "general", "name": "AMF- Ambulancë e Mjeksisë Familjare"}}, {"name": "AMF Kosavca", "latitude": 42.0936923, "longitude": 20.6981489, "source": "osm", "_tags": {"addr:city": "Dragash", "addr:street": "Hasan Efendi Nahi", "amenity": "hospital", "healthcare": "hospital", "healthcare:speciality": "general", "name": "AMF Kosavca"}}, {"name": "QKMF Korishë", "latitude": 42.2577969, "longitude": 20.7943736, "source": "osm", "_tags": {"amenity": "hospital", "emergency": "no", "healthcare": "hospital", "name": "QKMF Korishë"}}, {"name": "Spitali Tropojë", "latitude": 42.3634956, "longitude": 20.0747123, "source": "osm", "_tags": {"addr:postcode": "8701", "addr:street": "Agim Ramadani", "amenity": "hospital", "name": "Spitali Tropojë"}}, {"name": "", "latitude": 42.4092555, "longitude": 20.8712828, "source": "osm", "_tags": {"amenity": "hospital", "healthcare": "hospital"}}, {"name": "Qendra e Mjekësisë Familjare", "latitude": 42.3660569, "longitude": 20.7426278, "source": "osm", "_tags": {"amenity": "hospital", "healthcare": "hospital", "name": "Qendra e Mjekësisë Familjare"}}, {"name": "", "latitude": 42.3832001, "longitude": 20.4345813, "source": "osm", "_tags": {"amenity": "hospital", "healthcare": "hospital"}}, {"name": "", "latitude": 42.2069691, "longitude": 20.7372741, "source": "osm", "_tags": {"amenity": "hospital"}}, {"name": "Emergjenca", "latitude": 42.2155499, "longitude": 20.7265955, "source": "osm", "_tags": {"amenity": "hospital", "healthcare": "hospital", "name": "Emergjenca"}}, {"name": "European Clinic Kosova", "latitude": 42.3701039, "longitude": 20.4335593, "source": "osm", "_tags": {"addr:city": "Gjakova", "addr:housenumber": "39", "addr:postcode": "50000", "addr:street": "Mic Sokoli", "amenity": "hospital", "check_date": "2023-09-24", "healthcare": "hospital", "healthcare:speciality": "gynaecology", "name": "European Clinic Kosova", "opening_hours": "Mo-Sa 07:30-19:00", "wheelchair": "yes"}}, {"name": "Poliklinika “AVA” - dental & medical clinic", "latitude": 42.2067224, "longitude": 20.720553, "source": "osm", "_tags": {"addr:housenumber": "1", "addr:postcode": "20000", "addr:street": "Ema Residence, Rruga Kukësi", "amenity": "hospital", "email": "albanhoti1997@gmail.com", "healthcare": "hospital", "internet_access": "wlan", "name": "Poliklinika “AVA” - dental & medical clinic", "opening_hours": "Mo-Fr 10:00-18:00; Sa 10:00-16:00", "phone": "049108215"}}, {"name": "Dental Praxis", "latitude": 42.3638475, "longitude": 20.8336428, "source": "osm", "_tags": {"addr:city": "Suharekë", "addr:housenumber": "7", "addr:postcode": "23000", "addr:street": "Luigj Nikolla", "amenity": "hospital", "contact:facebook": "https://www.facebook.com/dental.praxis04", "description": "Saving Teeth is our daily ROOT-ine", "email": "drblediberisha@gmail.com", "healthcare": "hospital", "healthcare:speciality": "stomatology", "level": "0", "mobile": "+38348154111", "name": "Dental Praxis", "opening_hours": "Mo-Fr 13:00-20:00", "operator": "Bledi Berisha", "operator:type": "private", "payment:cash": "yes", "wheelchair": "yes"}}, {"name": "Spitali Rajonal i Prizrenit", "latitude": 42.2037239, "longitude": 20.7297208, "source": "osm", "_tags": {"addr:city": "Prizren", "addr:postcode": "20000", "addr:street": "Rr. Sheh Emini", "amenity": "hospital", "name": "Spitali Rajonal i Prizrenit", "name:en": "Regional Hospital of Prizren"}}, {"name": "Qendra e Mjekësisë Familjare", "latitude": 42.3542143, "longitude": 20.8248438, "source": "osm", "_tags": {"amenity": "hospital", "emergency": "ambulance_station", "healthcare": "hospital", "name": "Qendra e Mjekësisë Familjare"}}, {"name": "Spitali Rajonal \"Isa Grezda\"", "latitude": 42.3690941, "longitude": 20.4298375, "source": "osm", "_tags": {"addr:city": "Gjakova", "addr:postcode": "50000", "amenity": "hospital", "emergency": "yes", "healthcare": "hospital", "name": "Spitali Rajonal \"Isa Grezda\""}}, {"name": "QMF ÇABRATI Nr. 1", "latitude": 42.3855145, "longitude": 20.4219549, "source": "osm", "_tags": {"amenity": "hospital", "name": "QMF ÇABRATI Nr. 1"}}, {"name": "Qendra Kryesore e Mjekësisë Familjare \"Dr. Fahredin Hoti\"", "latitude": 42.4022045, "longitude": 20.6501913, "source": "osm", "_tags": {"amenity": "hospital", "healthcare": "hospital", "name": "Qendra Kryesore e Mjekësisë Familjare \"Dr. Fahredin Hoti\""}}, {"name": "QMF Nr. 1", "latitude": 42.3800091, "longitude": 20.4282731, "source": "osm", "_tags": {"addr:city": "Gjakovë", "addr:postcode": "50000", "addr:street": "Vellezerit Frasheri", "amenity": "hospital", "building": "yes", "building:levels": "2", "building:material": "plaster", "check_date": "2024-10-12", "healthcare": "hospital", "healthcare:speciality": "general", "name": "QMF Nr. 1", "operator:type": "public", "payment:cash": "yes", "roof:shape": "hipped"}}, {"name": "Spitali \"Haxhi Derri\"", "latitude": 42.1961694, "longitude": 20.4116762, "source": "osm", "_tags": {"amenity": "hospital", "healthcare": "hospital", "name": "Spitali \"Haxhi Derri\""}}, {"name": "QMF-8 Zhur", "latitude": 42.1633932, "longitude": 20.6176487, "source": "osm", "_tags": {"addr:city": "Zhur", "addr:postcode": "20520", "addr:street": "Hume Hoxhaj", "amenity": "hospital", "healthcare": "hospital", "healthcare:speciality": "general", "name": "QMF-8 Zhur"}}, {"name": "", "latitude": 41.6874583, "longitude": 20.4262149, "source": "osm", "_tags": {"amenity": "hospital", "healthcare": "hospital"}}, {"name": "QMF- Qender e Mjeksisë Familjare", "latitude": 41.9803803, "longitude": 20.6398703, "source": "osm", "_tags": {"addr:city": "Kruševo - Krushevë", "addr:street": "Dof Dželof", "amenity": "hospital", "healthcare": "hospital", "healthcare:speciality": "general", "name": "QMF- Qender e Mjeksisë Familjare"}}, {"name": "AMF- Ambulancë e Mjeksisë Familjare", "latitude": 42.0049867, "longitude": 20.6266834, "source": "osm", "_tags": {"addr:city": "Globočica", "addr:housenumber": "4", "addr:street": "Podzit", "amenity": "hospital", "healthcare": "hospital", "healthcare:speciality": "general", "name": "AMF- Ambulancë e Mjeksisë Familjare"}}, {"name": "AMF- Ambulancë e Mjeksisë Familjare", "latitude": 42.146131, "longitude": 20.8606888, "source": "osm", "_tags": {"addr:city": "Gornje Ljubinje", "addr:street": "Pazhiku", "amenity": "hospital", "healthcare": "hospital", "healthcare:speciality": "general", "name": "AMF- Ambulancë e Mjeksisë Familjare"}}, {"name": "AMF- Ambulancë e Mjeksisë Familjare", "latitude": 41.9458544, "longitude": 20.6675074, "source": "osm", "_tags": {"addr:city": "Dragash", "addr:housenumber": "57", "addr:street": "Lisićina Dupka", "amenity": "hospital", "healthcare": "hospital", "healthcare:speciality": "general", "name": "AMF- Ambulancë e Mjeksisë Familjare"}}, {"name": "AMF- Ambulancë E mjeksisë Familjare", "latitude": 42.2823646, "longitude": 20.6611494, "source": "osm", "_tags": {"addr:city": "Krajk", "addr:street": "Tafë Përvizi", "amenity": "hospital", "healthcare": "doctor", "healthcare:speciality": "general", "name": "AMF- Ambulancë E mjeksisë Familjare"}}, {"name": "AMF- Ambulnacë e Mjkesisë Familjare", "latitude": 42.3352728, "longitude": 20.8433725, "source": "osm", "_tags": {"addr:city": "Sopijë", "addr:street": "Muharrem Balia", "amenity": "hospital", "healthcare": "doctor", "healthcare:speciality": "general", "name": "AMF- Ambulnacë e Mjkesisë Familjare"}}, {"name": "AMF- Ambulancë e Mjeksisë Familjare", "latitude": 42.2840288, "longitude": 20.834485, "source": "osm", "_tags": {"addr:city": "Grejkoc", "addr:street": "Brahë Zeqiri", "amenity": "hospital", "healthcare": "doctor", "healthcare:speciality": "general", "name": "AMF- Ambulancë e Mjeksisë Familjare"}}, {"name": "AMF- Ambulancë e Mjeksisë Familjare", "latitude": 42.1740872, "longitude": 20.89323, "source": "osm", "_tags": {"addr:city": "Mushnikova", "addr:street": "Zagrebi", "amenity": "hospital", "healthcare": "doctor", "healthcare:speciality": "general", "name": "AMF- Ambulancë e Mjeksisë Familjare"}}, {"name": "QMF nr. 9 Rogovë", "latitude": 42.3336458, "longitude": 20.5755809, "source": "osm", "_tags": {"building": "yes", "health_facility:type": "health_centre", "healthcare": "hospital", "healthcare:speciality": "general", "name": "QMF nr. 9 Rogovë"}}, {"name": "AMF Muhlani", "latitude": 42.3711649, "longitude": 20.9051143, "source": "osm", "_tags": {"addr:housenumber": "21", "addr:street": "Fazli Kabashi", "amenity": "hospital", "emergency": "yes", "healthcare": "doctor", "healthcare:speciality": "general", "name": "AMF Muhlani"}}, {"name": "Qendra e Mjekësisë Familjare", "latitude": 42.2136081, "longitude": 20.7315097, "source": "osm", "_tags": {"amenity": "hospital", "healthcare": "hospital", "name": "Qendra e Mjekësisë Familjare"}}, {"name": "shtepia e shendetit", "latitude": 42.3866169, "longitude": 20.7479292, "source": "osm", "_tags": {"addr:city": "Dobërdelan", "addr:postcode": "23000", "addr:street": "Zeqir Sherifi", "amenity": "hospital", "healthcare": "hospital", "name": "shtepia e shendetit"}}, {"name": "Qendra e Shendetit", "latitude": 42.4091601, "longitude": 20.8718125, "source": "osm", "_tags": {"amenity": "hospital", "healthcare": "hospital", "healthcare:speciality": "dentistry;vaccination", "name": "Qendra e Shendetit"}}, {"name": "", "latitude": 41.6069721, "longitude": 20.6034802, "source": "osm", "_tags": {"amenity": "hospital", "healthcare": "hospital"}}, {"name": "QMF PONOSHECI / Nr. 6", "latitude": 42.4050293, "longitude": 20.2859773, "source": "osm", "_tags": {"amenity": "hospital", "name": "QMF PONOSHECI / Nr. 6"}}, {"name": "", "latitude": 41.4909069, "longitude": 20.2139588, "source": "osm", "_tags": {"amenity": "hospital", "healthcare": "hospital"}}, {"name": "", "latitude": 42.0821131, "longitude": 20.4160859, "source": "osm", "_tags": {"amenity": "hospital", "healthcare": "hospital"}}, {"name": "Urgjenca-Burrel", "latitude": 41.6138856, "longitude": 20.0123367, "source": "osm", "_tags": {"addr:city": "Burrel", "addr:housenumber": "11", "addr:street": "Ibrahim Temo", "amenity": "hospital", "healthcare": "hospital", "name": "Urgjenca-Burrel"}}, {"name": "", "latitude": 41.6146797, "longitude": 20.0124463, "source": "osm", "_tags": {"amenity": "hospital", "healthcare": "hospital"}}]