[{"name": "Aurelia Hospital", "latitude": 41.8870757, "longitude": 12.3983943, "source": "osm", "_tags": {"amenity": "hospital", "emergency": "yes", "fixme": "should better be a polygon", "healthcare": "hospital", "name": "Aurelia Hospital", "url": "http://www.aureliahospital.com/", "wheelchair": "yes", "wikidata": "Q30279876"}}, {"name": "San Salvatore", "latitude": 42.0688096, "longitude": 12.7624968, "source": "osm", "_tags": {"amenity": "hospital", "emergency": "ambulance_station", "name": "San Salvatore"}}, {"name": "I.F.O. Istituto Regina Elena e Istituto San Gallicano", "latitude": 41.8023637, "longitude": 12.4486445, "source": "osm", "_tags": {"addr:housenumber": "23", "addr:postcode": "00144", "addr:street": "Via Fermo Ognibene", "amenity": "hospital", "healthcare": "hospital", "name": "I.F.O. Istituto Regina Elena e Istituto San Gallicano", "name:it": "Istituto San Gallicano", "opening_hours": "Mo-Fr; Sa 08:00-01:00"}}, {"name": "Centro formazione Valmontone", "latitude": 41.7751867, "longitude": 12.9209545, "source": "osm", "_tags": {"addr:city": "Valmontone", "addr:housenumber": "8", "addr:postcode": "00038", "addr:street": "Via Porta Napoletana", "amenity": "hospital", "healthcare": "hospital", "healthcare:speciality": "blood_check", "name": "Centro formazione Valmontone", "old_name": "Palazzo Termini"}}, {"name": "Villa delle Querce", "latitude": 41.7123558, "longitude": 12.7170153, "source": "osm", "_tags": {"amenity": "hospital", "name": "Villa delle Querce"}}, {"name": "Pronto Soccorso Ospedale Oftalmico", "latitude": 41.9080048, "longitude": 12.4490492, "source": "osm", "_tags": {"addr:city": "Roma", "addr:housenumber": "23", "addr:postcode": "00136", "addr:street": "Via Vittor Pisani", "amenity": "hospital", "emergency": "yes", "healthcare": "hospital", "name": "Pronto Soccorso Ospedale Oftalmico"}}, {"name": "Ospedale \"SS Gonfalone\"", "latitude": 42.0504267, "longitude": 12.6214304, "source": "osm", "_tags": {"amenity": "hospital", "healthcare": "hospital", "name": "Ospedale \"SS Gonfalone\""}}, {"name": "ASL", "latitude": 41.7595966, "longitude": 12.7081994, "source": "osm", "_tags": {"amenity": "hospital", "name": "ASL"}}, {"name": "Croce Rossa Morlupo", "latitude": 42.1450363, "longitude": 12.4936349, "source": "osm", "_tags": {"addr:city": "Morlupo", "addr:postcode": "00067", "addr:street": "Via Giuseppe di Vittorio", "amenity": "hospital", "emergency": "no", "name": "Croce Rossa Morlupo"}}, {"name": "POSTAZIONE 118", "latitude": 41.9333374, "longitude": 12.1269583, "source": "osm", "_tags": {"amenity": "hospital", "name": "POSTAZIONE 118"}}, {"name": "", "latitude": 41.5875208, "longitude": 12.6480248, "source": "osm", "_tags": {"amenity": "hospital", "emergency": "yes"}}, {"name": "Farmacia", "latitude": 42.1641094, "longitude": 12.8437782, "source": "osm", "_tags": {"amenity": "hospital", "name": "Farmacia"}}, {"name": "Istituti Fisioterapici Ospedalieri", "latitude": 41.8021119, "longitude": 12.4479814, "source": "osm", "_tags": {"addr:city": "Roma", "addr:housenumber": "53", "addr:postcode": "00144", "addr:street": "Via Elio Chianesi", "amenity": "hospital", "healthcare": "hospital", "name": "Istituti Fisioterapici Ospedalieri", "opening_hours": "Mo-Su 06:15-21:00"}}, {"name": "Casa Di Cura Villa Tiberia", "latitude": 42.0371774, "longitude": 12.6338272, "source": "osm", "_tags": {"addr:street": "Via Emilio Praga", "amenity": "hospital", "name": "Casa Di Cura Villa Tiberia"}}, {"name": "Pronto Soccorso Policlinico Tor Vergata", "latitude": 41.8583344, "longitude": 12.6303253, "source": "osm", "_tags": {"addr:city": "Roma", "addr:housenumber": "81", "addr:postcode": "00133", "addr:street": "Viale Oxford", "amenity": "hospital", "emergency": "yes", "healthcare": "hospital", "name": "Pronto Soccorso Policlinico Tor Vergata"}}, {"name": "Pronto Soccorso Ospedale \"Cristo Re\"", "latitude": 41.9181286, "longitude": 12.4206845, "source": "osm", "_tags": {"addr:city": "Roma", "addr:housenumber": "25", "addr:postcode": "00167", "addr:street": "Via delle Calasanziane", "amenity": "hospital", "emergency": "yes", "healthcare": "hospital", "name": "Pronto Soccorso Ospedale \"Cristo Re\""}}, {"name": "Pronto Soccorso Ospadale \"Giovanni Battista Grassi\"", "latitude": 41.7291983, "longitude": 12.2992769, "source": "osm", "_tags": {"addr:city": "Roma", "addr:housenumber": "28", "addr:postcode": "00122", "addr:street": "Via Giancarlo Passeroni", "amenity": "hospital", "emergency": "yes", "healthcare": "hospital", "name": "Pronto Soccorso Ospadale \"Giovanni Battista Grassi\""}}, {"name": "Pronto soccorso Ospedale Madre Giuseppina Vannini", "latitude": 41.8814374, "longitude": 12.5433268, "source": "osm", "_tags": {"addr:city": "Roma", "addr:housenumber": "22", "addr:postcode": "00177", "addr:street": "Via di Acqua Bullicante", "emergency": "emergency_ward_entrance", "entrance": "yes", "healthcare": "hospital", "name": "Pronto soccorso Ospedale Madre Giuseppina Vannini", "phone": "+39 06 24291255", "website": "https://roma.figliedisancamillo.it/struttura/servizi/pronto-soccorso/"}}, {"name": "Pronto Soccorso Ospedali Riuniti di Anzio e Nettuno", "latitude": 41.4607863, "longitude": 12.6365331, "source": "osm", "_tags": {"addr:city": "Anzio", "addr:postcode": "00042", "addr:street": "Via Cupa dei Marmi", "amenity": "hospital", "emergency": "yes", "healthcare": "hospital", "name": "Pronto Soccorso Ospedali Riuniti di Anzio e Nettuno"}}, {"name": "Pronto Soccorso Ospedale \"San Giovanni Evangelista\"", "latitude": 41.9603697, "longitude": 12.802126, "source": "osm", "_tags": {"addr:city": "Tivoli", "addr:postcode": "00019", "amenity": "hospital", "emergency": "yes", "healthcare": "hospital", "name": "Pronto Soccorso Ospedale \"San Giovanni Evangelista\""}}, {"name": "Pronto Soccorso Ospedale \"San Sebastiano\"", "latitude": 41.8089998, "longitude": 12.6756557, "source": "osm", "_tags": {"addr:city": "Frascati", "addr:postcode": "00044", "amenity": "hospital", "entrance": "yes", "healthcare": "hospital", "name": "Pronto Soccorso Ospedale \"San Sebastiano\""}}, {"name": "Pronto Soccorso Ospedale \"Santa Maria Goretti\"", "latitude": 41.4618111, "longitude": 12.9090106, "source": "osm", "_tags": {"addr:city": "Latina", "addr:postcode": "04100", "amenity": "hospital", "emergency": "yes", "healthcare": "hospital", "name": "Pronto Soccorso Ospedale \"Santa Maria Goretti\""}}, {"name": "Pronto Soccorso Ospedale", "latitude": 42.0504488, "longitude": 12.6210631, "source": "osm", "_tags": {"addr:city": "Monterotondo", "amenity": "hospital", "emergency": "yes", "healthcare": "hospital", "name": "Pronto Soccorso Ospedale"}}, {"name": "Pronto Soccorso Ospedale \"Santo Spirito in Sassia\"", "latitude": 41.9006565, "longitude": 12.4625854, "source": "osm", "_tags": {"addr:city": "Roma", "addr:street": "Lungotevere in Sassia", "amenity": "hospital", "emergency": "yes", "healthcare": "hospital", "name": "Pronto Soccorso Ospedale \"Santo Spirito in Sassia\""}}, {"name": "NCL", "latitude": 41.8662194, "longitude": 12.5407757, "source": "osm", "_tags": {"amenity": "hospital", "emergency": "no", "healthcare": "hospital", "healthcare:speciality": "neurology", "name": "NCL", "name:en": "Neurological Center of Latium", "website": "https://www.nclroma.it/"}}, {"name": "Casa di Cura \"San Domenico\"", "latitude": 41.9086684, "longitude": 12.5124122, "source": "osm", "_tags": {"addr:housenumber": "5", "addr:street": "Piazza Sassari", "amenity": "hospital", "healthcare": "hospital", "name": "Casa di Cura \"San Domenico\"", "website": "https://sandomeniconline.it/"}}, {"name": "Casa di cura Sant'Anna", "latitude": 41.672162, "longitude": 12.4962357, "source": "osm", "_tags": {"amenity": "hospital", "healthcare": "hospital", "name": "Casa di cura Sant'Anna"}}, {"name": "AISPS Roma - Centro di Sessuologia", "latitude": 41.9017366, "longitude": 12.4396529, "source": "osm", "_tags": {"addr:city": "Roma", "addr:housenumber": "330", "addr:postcode": "00167", "addr:street": "Via Baldo degli Ubaldi", "amenity": "hospital", "healthcare": "hospital", "name": "AISPS Roma - Centro di Sessuologia"}}, {"name": "Studio Odontoiatrico Dominici", "latitude": 41.8296386, "longitude": 12.4890698, "source": "osm", "_tags": {"addr:city": "Roma", "addr:housenumber": "22", "addr:postcode": "00142", "addr:street": "Via Duccio di Buoninsegna", "amenity": "hospital", "email": "segreteria@studiodontoiatricodominici.com", "healthcare": "hospital", "healthcare:speciality": "dentist", "internet_access": "yes", "name": "Studio Odontoiatrico Dominici", "operator": "Studio Medico Odontoiatrico Dominici", "operator:type": "private", "phone": "+39 06 503 0773", "website": "http://www.studiodontoiatricodominici.com/it", "wheelchair": "yes"}}, {"name": "Ospedale Pediatrico Bambino Gesù - Sede di via Baldelli", "latitude": 41.8568665, "longitude": 12.4744766, "source": "osm", "_tags": {"amenity": "hospital", "healthcare": "hospital", "healthcare:speciality": "paediatrics", "name": "Ospedale Pediatrico Bambino Gesù - Sede di via Baldelli", "operator": "Ospedale Pediatrico Bambino Gesù", "operator:type": "religious", "phone": "+390668591", "website": "https://www.ospedalebambinogesu.it/sede-roma-baldelli"}}, {"name": "Pronto Soccorso", "latitude": 41.7707516, "longitude": 12.4670727, "source": "osm", "_tags": {"amenity": "hospital", "emergency": "yes", "healthcare": "hospital", "name": "Pronto Soccorso"}}, {"name": "ASL Roma 6 - Distretto H5 Pomezia", "latitude": 41.6786992, "longitude": 12.5021226, "source": "osm", "_tags": {"addr:housenumber": "2", "addr:street": "Via dei Castelli Romani", "addr:unit": "p", "amenity": "hospital", "healthcare": "hospital", "name": "ASL Roma 6 - Distretto H5 Pomezia", "operator": "ASL", "operator:wikidata": "Q3631467", "operator:wikipedia": "it:Azienda sanitaria locale", "phone": "+39 0693271", "website": "https://www.aslroma6.it/distretti/dh4-pomezia/uoc-direzione-sanitaria-di-pomezia"}}, {"name": "Gemelli CURAE", "latitude": 41.9333079, "longitude": 12.4315372, "source": "osm", "_tags": {"amenity": "hospital", "healthcare": "hospital", "name": "Gemelli CURAE"}}, {"name": "ASL Roma 6", "latitude": 41.7266222, "longitude": 12.6607558, "source": "osm", "_tags": {"amenity": "hospital", "healthcare": "hospital", "name": "ASL Roma 6", "operator": "ASL", "operator:wikidata": "Q3631467"}}, {"name": "Biologo Nutrizionista", "latitude": 41.8175394, "longitude": 12.7150242, "source": "osm", "_tags": {"addr:city": "Monte Porzio Catone", "addr:housenumber": "30", "addr:postcode": "00078", "addr:street": "Via Quattro Novembre", "amenity": "hospital", "healthcare": "yes", "healthcare:speciality": "biology", "name": "Biologo Nutrizionista", "operator": "Dr. Ludovico Palma", "operator:type": "private", "website": "https://ludovicopalma.it/"}}, {"name": "Villa Paola", "latitude": 42.2590699, "longitude": 12.1725793, "source": "osm", "_tags": {"addr:city": "Capranica", "addr:country": "IT", "addr:housenumber": "1", "addr:street": "Piazzale Madonna del Piano", "amenity": "hospital", "healthcare": "hospital", "name": "Villa Paola", "operator": "IDI"}}, {"name": "Ospedale Sandro Pertini", "latitude": 41.9205767, "longitude": 12.5404562, "source": "osm", "_tags": {"addr:city": "Roma", "addr:housename": "Ospedale Sandro Pertini", "addr:housenumber": "385", "addr:postcode": "00157", "addr:street": "via dei Monti Tiburtini", "amenity": "hospital", "emergency": "yes", "healthcare": "hospital", "name": "Ospedale Sandro Pertini", "operator": "ASL Roma B", "phone": "+39 06 41431", "website": "http://www.aslromab.it/cittadini/ospedali/pertini/index.php"}}, {"name": "Ospedale Sant'Anna", "latitude": 42.2923881, "longitude": 12.2121956, "source": "osm", "_tags": {"addr:city": "Ronciglione", "addr:housenumber": "17", "addr:street": "Via dell'Ospedale Consorziale", "amenity": "hospital", "email": "dirsanronc@asl.vt.it", "emergency": "yes", "healthcare": "hospital", "name": "Ospedale Sant'Anna", "operator": "ASL Viterbo", "phone": "+39 0761 651 254; 800 692 911", "website": "http://www.asl.vt.it/Ospedaliera/Ospedali/baseOspedali.php"}}, {"name": "Policlinico Umberto I", "latitude": 41.9065618, "longitude": 12.5120467, "source": "osm", "_tags": {"addr:city": "Roma", "addr:housenumber": "155", "addr:postcode": "00161", "addr:street": "Viale del Policlinico", "amenity": "hospital", "description": "Complesso ospedaliero Umberto I", "emergency": "yes", "healthcare": "hospital", "name": "Policlinico Umberto I", "operator": "Azienda ospedaliero-universitaria Policlinico Umberto I", "operator:type": "university", "start_date": "1903", "website": "https://www.policlinicoumberto1.it/", "wikidata": "Q500377", "wikimedia_commons": "Category:Policlinico Umberto I (Rome)", "wikipedia": "it:Policlinico Umberto I"}}, {"name": "Centro Medicina Nucleare Italiano Villa Bianca", "latitude": 41.9252601, "longitude": 12.5125358, "source": "osm", "_tags": {"access": "private", "amenity": "hospital", "healthcare": "hospital", "leisure": "park", "name": "Centro Medicina Nucleare Italiano Villa Bianca"}}, {"name": "Policlinico Italia", "latitude": 41.9162373, "longitude": 12.523399, "source": "osm", "_tags": {"amenity": "hospital", "building": "yes", "healthcare": "hospital", "name": "Policlinico Italia", "name:etymology:wikidata": "Q38"}}, {"name": "Istituto San Giovanni Di Dio", "latitude": 41.6994777, "longitude": 12.6747265, "source": "osm", "_tags": {"addr:city": "Genzano di Roma", "addr:housenumber": "2", "addr:postcode": "00045", "addr:street": "via Fatebenefratelli", "amenity": "hospital", "area": "yes", "healthcare": "hospital", "name": "Istituto San Giovanni Di Dio", "phone": "+39 06 937381", "website": "https://www.istitutosangiovannididio.it/"}}, {"name": "Ospedale San Giuseppe", "latitude": 41.7289, "longitude": 12.6444507, "source": "osm", "_tags": {"building": "hospital", "emergency": "yes", "healthcare": "hospital", "name": "Ospedale San Giuseppe"}}, {"name": "Punto di Primo Soccorso", "latitude": 41.8581546, "longitude": 12.2016474, "source": "osm", "_tags": {"amenity": "hospital", "building": "yes", "emergency": "yes", "healthcare": "hospital", "name": "Punto di Primo Soccorso", "wheelchair": "yes"}}, {"name": "Ospedale provinciale Camillo de Lellis", "latitude": 42.4225909, "longitude": 12.9079333, "source": "osm", "_tags": {"addr:city": "Rieti", "addr:postcode": "02100", "addr:state": "Lazio", "addr:street": "Kennedy", "amenity": "hospital", "emergency": "yes", "healthcare": "hospital", "name": "Ospedale provinciale Camillo de Lellis", "operator": "Sistema Sanitario Nazionale", "phone": "+39 0746 2781", "website": "https://www.asl.rieti.it/"}}, {"name": "Ospedale San Filippo Neri", "latitude": 41.9477845, "longitude": 12.4136631, "source": "osm", "_tags": {"addr:city": "Roma", "addr:housenumber": "20", "addr:postcode": "00135", "addr:street": "Via Giovanni Martinotti", "amenity": "hospital", "email": "urpsfn@aslroma1.it", "emergency": "yes", "healthcare": "hospital", "healthcare:speciality": "cardiology;surgery;orthopaedics;gynaecology;oncology;emergency;maternity", "name": "Ospedale San Filippo Neri", "opening_hours": "24/7", "operator": "ASL Roma 1", "operator:type": "public", "phone": "+390633062676", "website": "https://www.aslroma1.it/presidi-ospedalieri/presidio-ospedaliero-san-filippo-neri", "wikidata": "Q3886634", "wikipedia": "it:Ospedale San Filippo Neri"}}, {"name": "Ospedale San Camillo", "latitude": 41.868994, "longitude": 12.4564115, "source": "osm", "_tags": {"addr:city": "Roma", "addr:housenumber": "87", "addr:postcode": "00152", "addr:street": "Circonvallazione Gianicolense", "amenity": "hospital", "emergency": "yes", "healthcare": "hospital", "healthcare:speciality": "neurology;dermatology;psychology;cardiology;intensive;gynaecology;general;oncology;radiology;physiatry", "name": "Ospedale San Camillo", "name:it": "Ospedale San Camillo", "opening_hours": "24/7", "operator": "Azienda ospedaliera San Camillo-Forlanini", "operator:type": "public", "phone": "+390658703011", "website": "https://www.scamilloforlanini.rm.it/", "wikidata": "Q24941324", "wikipedia": "it:Azienda ospedaliera San Camillo-Forlanini"}}, {"name": "Villa Albani", "latitude": 41.4496016, "longitude": 12.6275284, "source": "osm", "_tags": {"amenity": "hospital", "barrier": "wall", "name": "Villa Albani"}}, {"name": "Ospedale Oftalmico", "latitude": 41.9080718, "longitude": 12.4482271, "source": "osm", "_tags": {"amenity": "hospital", "building": "yes", "check_date": "2024-09-10", "name": "Ospedale Oftalmico"}}, {"name": "Posto di Primo Soccorso", "latitude": 41.9692575, "longitude": 12.0809096, "source": "osm", "_tags": {"amenity": "hospital", "building": "yes", "healthcare": "hospital", "name": "Posto di Primo Soccorso"}}, {"name": "European Hospital", "latitude": 41.8533402, "longitude": 12.4363277, "source": "osm", "_tags": {"addr:city": "Roma", "addr:housenumber": "700", "addr:postcode": "00149", "addr:street": "Via Portuense", "amenity": "hospital", "check_date": "2024-03-16", "email": "europeanhospitalspa@legalmail.it", "emergency": "no", "healthcare": "hospital", "healthcare:speciality": "cardiology;intensive;radiology", "name": "European Hospital", "operator": "European Hospital S.p.A.", "operator:type": "private", "phone": "+3906659759", "website": "https://www.europeanhospital.it/", "wikidata": "Q30280130"}}, {"name": "Ospedale CTO Andrea Alesini", "latitude": 41.8580874, "longitude": 12.4868587, "source": "osm", "_tags": {"addr:city": "Roma", "addr:postcode": "00145", "addr:street": "Via San Nemesio", "amenity": "hospital", "emergency": "yes", "healthcare": "hospital", "loc_name": "CTO", "name": "Ospedale CTO Andrea Alesini", "operator": "ASL Roma 2", "operator:type": "public"}}, {"name": "Clinica Villa Benedetta", "latitude": 41.9005771, "longitude": 12.4256819, "source": "osm", "_tags": {"amenity": "hospital", "barrier": "wall", "healthcare": "hospital", "name": "Clinica Villa Benedetta"}}, {"name": "Ospedale San Raffaele", "latitude": 41.7034814, "longitude": 12.7576035, "source": "osm", "_tags": {"amenity": "hospital", "name": "Ospedale San Raffaele"}}, {"name": "Ospedale De Santis", "latitude": 41.7041978, "longitude": 12.6784941, "source": "osm", "_tags": {"amenity": "hospital", "healthcare": "hospital", "name": "Ospedale De Santis", "phone": "06 93271"}}, {"name": "Policlinico Universitario Agostino Gemelli", "latitude": 41.931765, "longitude": 12.429715, "source": "osm", "_tags": {"addr:city": "Roma", "addr:housenumber": "8", "addr:postcode": "00168", "addr:street": "Largo Agostino Gemelli", "amenity": "hospital", "check_date": "2022-12-14", "email": "urp@policlinicogemelli.it", "email:pec": "protocollo.generale.gemelli@pec.it", "emergency": "yes", "healthcare": "hospital", "healthcare:speciality": "general", "internet_access": "yes", "internet_access:fee": "no", "internet_access:ssid": "FPG-Wifi-Free", "name": "Policlinico Universitario Agostino Gemelli", "opening_hours": "24/7", "operator": "Fondazione Policlinico Universitario Agostino Gemelli IRCCS", "operator:type": "private", "payment:cash": "yes", "payment:credit_cards": "yes", "payment:maestro": "yes", "payment:mastercard": "yes", "payment:visa": "yes", "phone": "+39 06 30151;+39 06 88805560", "ref:vatin": "IT13109681000", "start_date": "1964", "website": "https://www.policlinicogemelli.it/", "wheelchair": "yes", "wikidata": "Q1501084", "wikimedia_commons": "Category:Policlinico Agostino Gemelli", "wikipedia": "it:Policlinico Agostino Gemelli"}}, {"name": "Ospedale San Pietro Fatebenefratelli", "latitude": 41.9635875, "longitude": 12.4507113, "source": "osm", "_tags": {"addr:city": "Roma", "addr:housenumber": "600", "addr:postcode": "00189", "addr:street": "Via Cassia", "amenity": "hospital", "email": "info.urp@fbfrm.it", "emergency": "yes", "healthcare": "hospital", "healthcare:speciality": "intensive;cardiology;surgery;paediatrics;gynaecology;psychiatry;oncology;orthopaedics;radiology;ophthalmology", "name": "Ospedale San Pietro Fatebenefratelli", "opening_hours": "24/7", "operator": "Ordine Ospedaliero di san Giovanni di Dio", "operator:type": "private", "phone": "+390633581", "website": "https://www.ospedalesanpietro.it/web/guest"}}, {"name": "Azienda Unità Sanitaria Locale Roma H", "latitude": 41.8052229, "longitude": 12.6027311, "source": "osm", "_tags": {"amenity": "hospital", "building": "yes", "healthcare": "hospital", "name": "Azienda Unità Sanitaria Locale Roma H", "operator": "ASL", "operator:wikidata": "Q3631467"}}, {"name": "Policlinico Casilino", "latitude": 41.8687548, "longitude": 12.5895875, "source": "osm", "_tags": {"addr:city": "Roma", "addr:housenumber": "1049", "addr:postcode": "00169", "addr:street": "Via Casilina", "amenity": "hospital", "emergency": "yes", "healthcare": "hospital", "name": "Policlinico Casilino", "phone": "+39 06 231881", "website": "https://policlinicocasilino.it/", "wikidata": "Q30296383"}}, {"name": "Istituto Dermopatico dell'Immacolata", "latitude": 41.9012638, "longitude": 12.4302671, "source": "osm", "_tags": {"addr:city": "Roma", "addr:housenumber": "104", "addr:postcode": "00167", "addr:street": "Via dei Monti di Creta", "amenity": "hospital", "building": "no", "contact:facebook": "https://www.facebook.com/IDIcuraEricerca", "contact:instagram": "https://www.instagram.com/idicuraericerca/", "contact:linkedin": "https://www.linkedin.com/company/idi-istituto-dermopatico-immacolata/", "contact:youtube": "https://www.youtube.com/@idiospedale-irccs4343", "healthcare": "hospital", "name": "Istituto Dermopatico dell'Immacolata", "operator": "Fondazione Luigi Maria Monti", "phone": "+39 06 66464094", "short_name": "IDI", "website": "https://www.idi.it/", "wheelchair": "yes"}}, {"name": "Complesso Integrato Columbus", "latitude": 41.9269618, "longitude": 12.429917, "source": "osm", "_tags": {"amenity": "hospital", "healthcare": "hospital", "name": "Complesso Integrato Columbus"}}, {"name": "", "latitude": 41.9285753, "longitude": 12.4164597, "source": "osm", "_tags": {"amenity": "hospital", "wheelchair": "yes"}}, {"name": "Hospice Villa Speranza", "latitude": 41.9313146, "longitude": 12.426725, "source": "osm", "_tags": {"amenity": "hospital", "healthcare": "hospital", "name": "Hospice Villa Speranza"}}, {"name": "ASL RME", "latitude": 41.9204267, "longitude": 12.4148066, "source": "osm", "_tags": {"amenity": "hospital", "healthcare": "hospital", "name": "ASL RME", "operator": "ASL", "operator:wikidata": "Q3631467"}}, {"name": "Ospedale Cristo Re", "latitude": 41.9178972, "longitude": 12.4207855, "source": "osm", "_tags": {"amenity": "hospital", "healthcare": "hospital", "name": "Ospedale Cristo Re"}}, {"name": "San Carlo di Nancy", "latitude": 41.8976333, "longitude": 12.4386628, "source": "osm", "_tags": {"amenity": "hospital", "healthcare": "hospital", "name": "San Carlo di Nancy"}}, {"name": "Pronto Soccorso Ospedale \"San Giuseppe\"", "latitude": 41.7289674, "longitude": 12.6439665, "source": "osm", "_tags": {"addr:city": "Albano Laziale", "building": "hospital", "healthcare": "hospital", "name": "Pronto Soccorso Ospedale \"San Giuseppe\""}}, {"name": "", "latitude": 41.7045239, "longitude": 12.7577328, "source": "osm", "_tags": {"amenity": "hospital"}}, {"name": "", "latitude": 41.6411935, "longitude": 12.9167401, "source": "osm", "_tags": {"amenity": "hospital", "building": "yes"}}, {"name": "ASL Latina", "latitude": 41.4693789, "longitude": 12.9020797, "source": "osm", "_tags": {"building": "hospital", "emergency": "no", "healthcare": "hospital", "name": "ASL Latina"}}, {"name": "Ospedale San Sebastiano di Frascati", "latitude": 41.8117546, "longitude": 12.6739238, "source": "osm", "_tags": {"amenity": "hospital", "building": "yes", "building:levels": "5", "name": "Ospedale San Sebastiano di Frascati", "note": "Centro Analisi", "wheelchair": "yes"}}, {"name": "Ospedale Pediatrico Bambino Gesù - Sede di San Paolo", "latitude": 41.8576341, "longitude": 12.4753637, "source": "osm", "_tags": {"addr:city": "Roma", "addr:housenumber": "15", "addr:postcode": "00146", "addr:street": "Viale di San Paolo", "amenity": "hospital", "building": "hospital", "cafeteria": "yes", "healthcare": "hospital", "healthcare:speciality": "paediatrics", "name": "Ospedale Pediatrico Bambino Gesù - Sede di San Paolo", "operator": "Ospedale Pediatrico Bambino Gesù", "operator:type": "religious"}}, {"name": "Policlinico militare Celio", "latitude": 41.8866856, "longitude": 12.4981244, "source": "osm", "_tags": {"access": "permissive", "amenity": "hospital", "fixme": "is this really permissive access?", "healthcare": "hospital", "landuse": "military", "name": "Policlinico militare Celio", "wikidata": "Q16591171", "wikipedia": "it:Policlinico militare Celio"}}, {"name": "Ospedale San Giovanni Battista", "latitude": 41.8410144, "longitude": 12.8291481, "source": "osm", "_tags": {"amenity": "hospital", "building": "yes", "name": "Ospedale San Giovanni Battista"}}, {"name": "Ospedale Nuovo Regina Margherita", "latitude": 41.8859054, "longitude": 12.4709115, "source": "osm", "_tags": {"amenity": "hospital", "building": "hospital", "healthcare": "hospital", "name": "Ospedale Nuovo Regina Margherita", "source": "Bing, Local knowledge", "wheelchair": "yes"}}, {"name": "Clinica San Marco", "latitude": 41.4619503, "longitude": 12.9028683, "source": "osm", "_tags": {"addr:city": "Latina", "addr:housenumber": "2", "addr:postcode": "04100", "addr:street": "Viale Ventuno Aprile", "amenity": "hospital", "check_date": "2022-11-01", "email": "info@clinicasanmarco.com", "fax": "+39 0773 466007", "healthcare": "hospital", "healthcare:speciality": "general", "name": "Clinica San Marco", "opening_hours": "Mo-Sa 07:00-19:30; Su 07:30-19:30", "operator:type": "private", "payment:cash": "yes", "payment:credit_cards": "yes", "phone": "+39 0773 466060", "website": "https://www.clinicasanmarco.it", "wheelchair": "yes"}}, {"name": "Presidio Marzio Marini", "latitude": 42.3716613, "longitude": 12.491267, "source": "osm", "_tags": {"amenity": "hospital", "building": "yes", "healthcare": "hospital", "name": "Presidio Marzio Marini"}}, {"name": "Casa di Cura Nuova ITOR", "latitude": 41.9244288, "longitude": 12.54258, "source": "osm", "_tags": {"amenity": "hospital", "building": "yes", "name": "Casa di Cura Nuova ITOR", "toilets:wheelchair": "yes", "wheelchair": "yes"}}, {"name": "Ospedale San Sebastiano di Frascati", "latitude": 41.8091692, "longitude": 12.6751904, "source": "osm", "_tags": {"addr:city": "Frascati", "addr:country": "IT", "addr:housenumber": "2", "addr:postcode": "00044", "addr:street": "Via Tuscolana", "amenity": "hospital", "emergency": "yes", "name": "Ospedale San Sebastiano di Frascati", "website": "http://www.aslromah.it/cittadino/ospedali/frascati.php"}}, {"name": "Policlinico Universitario Campus Bio-Medico", "latitude": 41.7703465, "longitude": 12.4697832, "source": "osm", "_tags": {"amenity": "hospital", "emergency": "yes", "healthcare": "hospital", "name": "Policlinico Universitario Campus Bio-Medico", "wikidata": "Q43896498"}}, {"name": "Fondazione Santa Lucia", "latitude": 41.841172, "longitude": 12.5150833, "source": "osm", "_tags": {"amenity": "hospital", "healthcare": "hospital", "name": "Fondazione Santa Lucia"}}, {"name": "Ospedale Santa Maria Goretti", "latitude": 41.4612681, "longitude": 12.909419, "source": "osm", "_tags": {"amenity": "hospital", "check_date": "2022-11-01", "entrance:wheelchair": "yes", "healthcare": "hospital", "name": "Ospedale Santa Maria Goretti", "name:etymology:wikidata": "Q234697", "opening_hours": "24/7", "operator:type": "public", "phone": "+39 0773 6551", "website": "https://www.ausl.latina.it/gs-serviziospedalieri/gs-presidionord/gs-goretti", "wheelchair": "yes"}}, {"name": "Ospedale Civico \"Coniugi Bernardini\"", "latitude": 41.8364416, "longitude": 12.8868017, "source": "osm", "_tags": {"addr:city": "Palestrina", "addr:housenumber": "42", "addr:postcode": "00036", "addr:street": "Viale Pio XII", "amenity": "hospital", "email": "urppalestrinah@aslroma5.it", "emergency": "yes", "fax": "+39 06 95322001", "healthcare": "hospital", "healthcare:speciality": "general;cardiology;surgery;orthopaedics;paediatrics;intensive;gynaecology;emergency;dialysis;radiology;internal;maternity", "name": "Ospedale Civico \"Coniugi Bernardini\"", "operator": "ASL Roma 5", "operator:type": "public", "phone": "+39 06 95321", "website": "https://www.aslroma5.info/web/ospedali-e-distretti/ospedali-e-case-della-salute/ospedale-di-palestrina", "wheelchair": "yes"}}, {"name": "Ospedale Specializzato \"Luigi Spolverini\"", "latitude": 41.7227373, "longitude": 12.6761553, "source": "osm", "_tags": {"addr:city": "Ariccia", "addr:housenumber": "2", "addr:postcode": "00040", "addr:street": "Via delle Cerquette", "amenity": "hospital", "building": "yes", "name": "Ospedale Specializzato \"Luigi Spolverini\"", "opening_hours": "Mo-Su 09:00-17:00", "phone": "+39 06 932 71"}}, {"name": "Ospedale Sant'Eugenio", "latitude": 41.821307, "longitude": 12.4720454, "source": "osm", "_tags": {"addr:city": "Roma", "addr:housenumber": "10", "addr:postcode": "00144", "addr:street": "Piazzale dell'Umanesimo", "amenity": "hospital", "emergency": "yes", "name": "Ospedale Sant'Eugenio", "name:it": "Sant'Eugenio", "wikidata": "Q19678501"}}, {"name": "Clinica Guarnieri", "latitude": 41.882442, "longitude": 12.5628437, "source": "osm", "_tags": {"addr:city": "Roma", "addr:housenumber": "139", "addr:postcode": "00172", "addr:street": "Via Tor de' Schiavi", "amenity": "hospital", "emergency": "no", "healthcare": "hospital", "name": "Clinica Guarnieri", "operator": "Clinica Guarnieri S.p.a.", "operator:type": "private", "website": "https://www.clinicaguarnieri.it/"}}, {"name": "ASL", "latitude": 42.2711843, "longitude": 12.6867002, "source": "osm", "_tags": {"amenity": "hospital", "name": "ASL"}}, {"name": "Casa di Cura Città di Aprilia", "latitude": 41.5876621, "longitude": 12.6484735, "source": "osm", "_tags": {"addr:street": "Via delle Palme", "amenity": "hospital", "emergency": "yes", "healthcare": "hospital", "name": "Casa di Cura Città di Aprilia"}}, {"name": "Ospedale generale Madre Giuseppina Vannini", "latitude": 41.8810075, "longitude": 12.5434335, "source": "osm", "_tags": {"addr:city": "Roma", "addr:housenumber": "4", "addr:postcode": "00177", "addr:street": "Via di Acqua Bullicante", "alt_name": "Ospedale Figlie di San Camillo", "amenity": "hospital", "emergency": "yes", "healthcare": "hospital", "name": "Ospedale generale Madre Giuseppina Vannini", "operator": "Istituto delle Figlie di San Camillo", "operator:type": "religious", "website": "https://roma.figliedisancamillo.it/"}}, {"name": "Istituto nazionale per le malattie infettive Lazzaro Spallanzani", "latitude": 41.8660939, "longitude": 12.4577518, "source": "osm", "_tags": {"addr:city": "Roma", "addr:housenumber": "292", "addr:postcode": "00149", "addr:street": "Via Portuense", "amenity": "hospital", "emergency": "yes", "healthcare": "hospital", "healthcare:speciality": "infectious_diseases;intensive;surgery;cardiology", "name": "Istituto nazionale per le malattie infettive Lazzaro Spallanzani", "operator": "IRCCS INMI Lazzaro Spallanzani", "operator:type": "public", "phone": "+3906551701", "website": "https://www.inmi.it/", "wikidata": "Q3803781", "wikimedia_commons": "Category:Istituto nazionale per le malattie infettive Lazzaro Spallanzani", "wikipedia": "it:Istituto nazionale per le malattie infettive"}}, {"name": "Clinica Valle Giulia", "latitude": 41.9199791, "longitude": 12.4802788, "source": "osm", "_tags": {"addr:city": "Roma", "addr:housenumber": "2b", "addr:postcode": "00197", "addr:street": "Via Giuseppe De Notaris", "amenity": "hospital", "building": "yes", "email": "info@clinicavallegiulia.it", "emergency": "no", "healthcare": "hospital", "name": "Clinica Valle Giulia", "operator": "Clinica Valle Giulia Casa di Cura Spa", "operator:type": "private", "phone": "+39 06 324791", "website": "https://www.clinicavallegiulia.it/", "wikidata": "Q41568650"}}, {"name": "Clinica Parioli", "latitude": 41.9228473, "longitude": 12.4877648, "source": "osm", "_tags": {"addr:city": "Roma", "addr:housenumber": "8", "addr:postcode": "00197", "addr:street": "Via Felice Giordano", "amenity": "hospital", "building": "yes", "email": "info@clinicaparioli.it", "emergency": "no", "healthcare": "hospital", "name": "Clinica Parioli", "operator": "Fenice Parioli S.r.l", "operator:type": "private", "phone": "+39 06 807771", "website": "https://www.clinicaparioli.it/"}}, {"name": "Clinica Mater Dei", "latitude": 41.9239284, "longitude": 12.4879029, "source": "osm", "_tags": {"amenity": "hospital", "name": "Clinica Mater Dei", "religion": "christian"}}, {"name": "Villa Von Siebenthal", "latitude": 41.7140442, "longitude": 12.6907357, "source": "osm", "_tags": {"amenity": "hospital", "building": "public", "emergency": "no", "healthcare": "hospital", "name": "Villa Von Siebenthal"}}, {"name": "Clinica Sanatrix", "latitude": 41.9303335, "longitude": 12.5136608, "source": "osm", "_tags": {"amenity": "hospital", "name": "Clinica Sanatrix"}}, {"name": "Casa di Cura Città di Roma", "latitude": 41.8748795, "longitude": 12.4564571, "source": "osm", "_tags": {"addr:city": "Roma", "addr:housenumber": "20", "addr:postcode": "00152", "addr:street": "Via Francesco Maidalchini", "amenity": "hospital", "building": "yes", "healthcare": "hospital", "name": "Casa di Cura Città di Roma", "phone": "+39 06 58471", "source": "PCN", "website": "http://www.casadicuracittadiroma.com/", "wheelchair": "yes"}}, {"name": "", "latitude": 41.9404347, "longitude": 12.4692201, "source": "osm", "_tags": {"amenity": "hospital", "healthcare": "hospital"}}, {"name": "Casa della Salute", "latitude": 41.9957897, "longitude": 12.4814231, "source": "osm", "_tags": {"amenity": "hospital", "healthcare": "hospital", "name": "Casa della Salute", "roof:shape": "flat"}}, {"name": "San Raffaele Flaminia - Residenza Sanitaria Assitenziale", "latitude": 41.9890826, "longitude": 12.4913587, "source": "osm", "_tags": {"addr:housenumber": "121", "addr:street": "Via del Labaro", "amenity": "hospital", "level": "4", "name": "San Raffaele Flaminia - Residenza Sanitaria Assitenziale", "roof": "flat"}}, {"name": "Casa di cura Sant'Alessandro", "latitude": 41.9656529, "longitude": 12.5993698, "source": "osm", "_tags": {"amenity": "hospital", "email": "info@clinicasantalessandro.it", "fax": "+39 06 41400343", "healthcare": "hospital", "name": "Casa di cura Sant'Alessandro", "phone": "+39 06 41400356", "website": "http://www.clinicasantalessandro.it/"}}, {"name": "Ospedale San Giovanni Evangelista", "latitude": 41.9605146, "longitude": 12.8023925, "source": "osm", "_tags": {"addr:city": "Tivoli", "addr:housenumber": "3", "addr:postcode": "00019", "addr:street": "Via Antonio Parrozzani", "amenity": "hospital", "emergency": "yes", "healthcare": "hospital", "name": "Ospedale San Giovanni Evangelista", "phone": "+39 07743164332"}}, {"name": "ASL Roma 5 – Sede di Palestrina", "latitude": 41.8389368, "longitude": 12.8883512, "source": "osm", "_tags": {"addr:city": "Palestrina", "addr:housenumber": "38", "addr:postcode": "00036", "addr:street": "Via Porta San Martino", "amenity": "hospital", "email": "urppalestrinah@aslromag.it", "emergency": "no", "healthcare": "hospital", "name": "ASL Roma 5 – Sede di Palestrina", "operator": "ASL", "operator:wikidata": "Q3631467", "phone": "+39 06 95322211", "website": "https://www.aslroma5.it/distretti/distretto-di-palestrina/", "wheelchair": "yes"}}, {"name": "Croce Rossa Italiana – Palestrina", "latitude": 41.8391258, "longitude": 12.8877859, "source": "osm", "_tags": {"addr:city": "Palestrina", "addr:housenumber": "38", "addr:postcode": "00036", "addr:street": "Viale Alcide De Gasperi", "amenity": "hospital", "check_date": "2023-04-02", "email": "montiprenestini@cri.it", "healthcare": "yes", "name": "Croce Rossa Italiana – Palestrina", "phone": "+39 06 9535021", "website": "http://www.crimontiprenestini.it/", "wheelchair": "yes"}}, {"name": "Ospedale Santa Rosa", "latitude": 42.3931762, "longitude": 12.1236757, "source": "osm", "_tags": {"addr:city": "Viterbo", "addr:country": "IT", "addr:postcode": "01100", "addr:street": "Strada Sammartinese", "amenity": "hospital", "emergency": "yes", "fax": "+39 0761 3381", "name": "Ospedale Santa Rosa", "old_name": "Ospedale Belcolle", "operator": "ASL Viterbo", "phone": "+39 0761 3391", "website": "http://www.asl.vt.it"}}, {"name": "San Raffaele Montecompatri", "latitude": 41.8047379, "longitude": 12.7372231, "source": "osm", "_tags": {"addr:city": "Montecompatri", "addr:country": "IT", "addr:housenumber": "67", "addr:postcode": "00040", "addr:street": "Via di S. Silvestro", "amenity": "hospital", "description": "Casa di cura privata accreditata", "email": "info.mcompatri@sanraffaele.it", "name": "San Raffaele Montecompatri", "phone": "+39 06947811", "website": "https://sanraffaele.it/assistenza/strutture-sanitarie/6/san-raffaele-montecompatri"}}, {"name": "Presidio Ospedaliero San Giuseppe Albano", "latitude": 41.728968, "longitude": 12.6444412, "source": "osm", "_tags": {"amenity": "hospital", "healthcare": "hospital", "name": "Presidio Ospedaliero San Giuseppe Albano"}}, {"name": "Policlinico Tor Vergata", "latitude": 41.8576287, "longitude": 12.6309789, "source": "osm", "_tags": {"addr:city": "Roma", "addr:country": "IT", "addr:housenumber": "81", "addr:postcode": "00133", "addr:province": "RM", "addr:street": "Viale Oxford", "amenity": "hospital", "check_date": "2025-02-01", "contact:facebook": "https://facebook.com/policlinicotorvergata", "contact:instagram": "https://www.instagram.com/policlinicotorvergata", "contact:twitter": "https://twitter.com/ptvonline2001", "contact:youtube": "https://www.youtube.com/ptvweb", "email": "info@ptvonline.it", "healthcare": "hospital", "name": "Policlinico Tor Vergata", "phone": "+39 06 20901", "ref:vatin": "IT10110821005", "website": "https://www.ptvonline.it", "wikidata": "Q30254147"}}, {"name": "Ospedale Antonio e Carlo Cartoni", "latitude": 41.7948764, "longitude": 12.7568788, "source": "osm", "_tags": {"amenity": "hospital", "healthcare": "hospital", "name": "Ospedale Antonio e Carlo Cartoni"}}, {"name": "Salvator Mundi international Hospital", "latitude": 41.8833417, "longitude": 12.4625024, "source": "osm", "_tags": {"addr:city": "Roma", "addr:housenumber": "67", "addr:postcode": "00152", "addr:street": "Viale delle Mura Gianicolensi", "amenity": "hospital", "email": "info@salvatormundi.it", "healthcare": "hospital", "name": "Salvator Mundi international Hospital", "phone": "+39 06 588961", "website": "https://www.salvatormundi.it/"}}, {"name": "Casa di cura \"Il Pigneto\"", "latitude": 41.6909826, "longitude": 12.7905983, "source": "osm", "_tags": {"amenity": "hospital", "building": "yes", "name": "Casa di cura \"Il Pigneto\""}}, {"name": "Villa Tiberia", "latitude": 41.946119, "longitude": 12.5579795, "source": "osm", "_tags": {"addr:city": "Roma", "addr:housenumber": "26", "addr:postcode": "00137", "addr:street": "Via Emilio Praga", "amenity": "hospital", "building": "yes", "building:levels": "4", "emergency": "no", "healthcare": "hospital", "name": "Villa Tiberia", "phone": "+39 06 82098040", "website": "http://www.villatiberiahospital.it/"}}, {"name": "Nuova Villa Claudia", "latitude": 41.952484, "longitude": 12.4738961, "source": "osm", "_tags": {"addr:city": "Roma", "addr:country": "IT", "addr:housenumber": "280", "addr:postcode": "00191", "addr:street": "Via Flaminia Nuova", "amenity": "hospital", "email": "segreteria@nuovavillaclaudia.it", "healthcare": "hospital", "name": "Nuova Villa Claudia", "phone": "+39 06 367971", "website": "https://www.nuovavillaclaudia.it/"}}, {"name": "Villa Stuart", "latitude": 41.9276598, "longitude": 12.4505964, "source": "osm", "_tags": {"addr:city": "Roma", "addr:housenumber": "5952", "addr:postcode": "00135", "addr:street": "Via Trionfale", "amenity": "hospital", "building": "yes", "healthcare": "hospital", "name": "Villa Stuart", "phone": "+39 06 35528500", "website": "https://www.villastuart.it/"}}, {"name": "Pronto Soccorso", "latitude": 41.5893796, "longitude": 12.8306475, "source": "osm", "_tags": {"amenity": "hospital", "building": "yes", "building:levels": "2", "emergency": "yes", "healthcare": "hospital", "name": "Pronto Soccorso", "operator:type": "public"}}, {"name": "San Michele Hospital", "latitude": 41.5951383, "longitude": 12.6314401, "source": "osm", "_tags": {"amenity": "hospital", "healthcare": "hospital", "name": "San Michele Hospital", "website": "https://www.sanmichelehospital.it/"}}, {"name": "Ospedale Andosilla di Civita Castellana", "latitude": 42.2904961, "longitude": 12.4204826, "source": "osm", "_tags": {"amenity": "hospital", "emergency": "yes", "healthcare": "hospital", "name": "Ospedale Andosilla di Civita Castellana"}}, {"name": "Residenza Sanitaria Teresiana", "latitude": 41.4529085, "longitude": 12.624856, "source": "osm", "_tags": {"amenity": "hospital", "building": "yes", "healthcare": "hospital", "name": "Residenza Sanitaria Teresiana"}}, {"name": "Casa di Cura Villa dei Pini", "latitude": 41.4635248, "longitude": 12.6161653, "source": "osm", "_tags": {"amenity": "hospital", "building": "yes", "healthcare": "hospital", "name": "Casa di Cura Villa dei Pini"}}, {"name": "Nuovo Ospedale dei Castelli Romani", "latitude": 41.6773532, "longitude": 12.6483395, "source": "osm", "_tags": {"addr:city": "Ariccia", "addr:postcode": "00072", "addr:street": "Via Nettunense", "amenity": "hospital", "check_date": "2025-07-27", "emergency": "yes", "healthcare": "hospital", "name": "Nuovo Ospedale dei Castelli Romani", "phone": "+39 06 93278888", "website": "http://ospedaledeicastelliromani.it/"}}, {"name": "ICC - Istituto Clinico Casalpalocco", "latitude": 41.7463075, "longitude": 12.3491411, "source": "osm", "_tags": {"addr:city": "Roma", "addr:housenumber": "382", "addr:postcode": "00124", "addr:street": "Viale Alessandro Magno", "amenity": "hospital", "emergency": "no", "healthcare": "hospital", "name": "ICC - Istituto Clinico Casalpalocco", "operator": "Gruppo Villa Maria S.p.A", "phone": "+39 06 50173411", "website": "https://www.gvmnet.it/strutture/icc-istituto-clinico-casalpalocco-roma"}}, {"name": "Rome American Hospital", "latitude": 41.8994855, "longitude": 12.6028298, "source": "osm", "_tags": {"addr:city": "Roma", "addr:housenumber": "83", "addr:postcode": "00155", "addr:street": "Via Emilio Longoni", "amenity": "hospital", "email": "servizioclienti.rah@hcir.it", "emergency": "no", "healthcare": "hospital", "name": "Rome American Hospital", "operator": "Health Care Italia Roma", "operator:type": "private", "phone": "+39 06 22551", "website": "https://hcir.it/rome-american-hospital"}}, {"name": "Ospedale Israelitico", "latitude": 41.835746, "longitude": 12.4284157, "source": "osm", "_tags": {"addr:city": "Roma", "addr:housenumber": "14", "addr:postcode": "00148", "addr:street": "Via Fulda", "amenity": "hospital", "emergency": "no", "healthcare": "hospital", "healthcare:speciality": "surgery;cardiology;gynaecology;oncology;ophthalmology;dermatology;orthopaedics", "name": "Ospedale Israelitico", "opening_hours": "24/7", "operator": "Network Ospedale Israelitico", "operator:type": "private", "phone": "+39 06 655891", "website": "https://ospedaleisraelitico.it"}}, {"name": "Villa Sandra", "latitude": 41.8502764, "longitude": 12.4209269, "source": "osm", "_tags": {"addr:city": "Roma", "addr:country": "IT", "addr:housenumber": "798", "addr:postcode": "00148", "addr:street": "Via Portuense", "amenity": "hospital", "contact:facebook": "https://www.facebook.com/casadicuravillasandra", "contact:linkedin": "https://www.linkedin.com/company/casa-di-cura-privata-a-roma-villa-sandra/", "email": "info@villasandra.it", "emergency": "no", "fax": "+39 06 65595240", "healthcare": "hospital", "healthcare:speciality": "general", "name": "Villa Sandra", "opening_hours": "24/7", "operator": "Villa Sandra Casa di Cura Privata S.p.A.", "operator:type": "private", "phone": "+39 06 655951", "ref:vatin": "IT00893071001", "website": "https://casadicuravillasandraconvenzionataconserviziosanitario.roma.it/", "wikidata": "Q105578197"}}, {"name": "Policlinico Luigi di Liegro", "latitude": 41.8538942, "longitude": 12.4236974, "source": "osm", "_tags": {"addr:city": "Roma", "addr:housenumber": "5", "addr:postcode": "00148", "addr:street": "Via dei Badoer", "amenity": "hospital", "emergency": "no", "healthcare": "hospital", "healthcare:speciality": "general;surgery;radiology", "name": "Policlinico Luigi di Liegro", "operator": "Policlinico Portuense SpA", "operator:type": "private", "phone": "+3906656565", "website": "https://www.policlinicodiliegro.it/"}}, {"name": "Casa di Cura \"Assunzione di Maria Santissima\"", "latitude": 41.9184819, "longitude": 12.5131676, "source": "osm", "_tags": {"addr:city": "Roma", "addr:housenumber": "311", "addr:postcode": "00162", "addr:street": "Via Nomentana", "amenity": "hospital", "email": "info@amss.it", "emergency": "no", "fax": "+39 06 8542432", "healthcare": "hospital", "name": "Casa di Cura \"Assunzione di Maria Santissima\"", "operator": "Congregazione delle Serve di Maria Riparatrici", "operator:type": "private", "phone": "+39 06 8537231", "website": "http://www.amss.it/"}}, {"name": "Nuova Clinica Annunziatella", "latitude": 41.8554316, "longitude": 12.5059714, "source": "osm", "_tags": {"addr:city": "Roma", "addr:housenumber": "124", "addr:postcode": "00147", "addr:street": "Via Meropia", "amenity": "hospital", "email": "info@annunziatella.com", "emergency": "no", "healthcare": "hospital", "name": "Nuova Clinica Annunziatella", "operator": "Nuova Clinica Annunziatella", "operator:type": "private", "phone": "+39 06 51058500", "website": "https://www.nuovaclinicaannunziatella.com/"}}, {"name": "San Raffaele Pisana", "latitude": 41.8779244, "longitude": 12.4165523, "source": "osm", "_tags": {"addr:city": "Roma", "addr:housenumber": "235", "addr:postcode": "00163", "addr:street": "Via della Pisana", "alt_name": "IRCCS San Raffaele Pisana", "amenity": "hospital", "email": "IRCCS@sanraffaele.it", "healthcare": "hospital", "name": "San Raffaele Pisana", "phone": "+39 06 660581", "ref:vatin": "IT08253151008", "website": "https://sanraffaele.it/strutture/irccs-san-raffaele/"}}, {"name": "", "latitude": 41.7277406, "longitude": 12.2938904, "source": "osm", "_tags": {"amenity": "hospital", "healthcare": "hospital"}}, {"name": "Fondazione Don Gnocchi - Centro Santa Maria della Pace", "latitude": 41.9387465, "longitude": 12.4623921, "source": "osm", "_tags": {"addr:city": "Roma", "addr:housenumber": "30", "addr:postcode": "00194", "addr:street": "Via Maresciallo Caviglia", "amenity": "hospital", "healthcare": "rehabilitation", "healthcare:speciality": "psychiatry;physiatry", "name": "Fondazione Don Gnocchi - Centro Santa Maria della Pace", "operator": "Fondazione Don Carlo Gnocchi ONLUS", "website": "https://www.dongnocchi.it/@strutture/centro-s-maria-della-pace"}}, {"name": "Policlinico Umberto I - Clinica di Neuropsichiatria infantile", "latitude": 41.8986301, "longitude": 12.5189656, "source": "osm", "_tags": {"addr:city": "Roma", "addr:housenumber": "108", "addr:postcode": "00185", "addr:street": "Via dei Sabelli", "amenity": "hospital", "healthcare": "hospital", "healthcare:speciality": "child_psychiatry", "name": "Policlinico Umberto I - Clinica di Neuropsichiatria infantile", "operator": "Policlinico Umberto I", "operator:type": "university", "phone": "+390649972910", "website": "https://www.policlinicoumberto1.it/unita/neuropsichiatria-infantile/"}}, {"name": "Presidio ospedaliero George Eastman", "latitude": 41.9073599, "longitude": 12.5144364, "source": "osm", "_tags": {"addr:city": "Roma", "addr:housenumber": "287b", "addr:postcode": "00161", "addr:street": "Viale Regina Elena", "amenity": "hospital", "description": "Storico ospedale odontoiatrico di Roma. Ora ospita anche alcuni reparti e servizi del Policlinico Umberto I.", "emergency": "yes", "healthcare": "hospital", "healthcare:speciality": "ophthalmology;oncology;dental_oral_maxillo_facial_surgery", "name": "Presidio ospedaliero George Eastman", "operator": "Policlinico Umberto I", "operator:type": "university"}}, {"name": "Ospedale San Giovanni - Presidio Addolorata", "latitude": 41.8851497, "longitude": 12.4987159, "source": "osm", "_tags": {"addr:city": "Roma", "addr:housenumber": "4", "addr:postcode": "00184", "addr:street": "Via di Santo Stefano Rotondo", "amenity": "hospital", "emergency": "no", "healthcare": "hospital", "name": "Ospedale San Giovanni - Presidio Addolorata", "operator": "Azienda ospedaliera San Giovanni-Addolorata", "operator:type": "public", "phone": "+39 06 7705 4503", "website": "https://hsangiovanni.roma.it/", "wikidata": "Q3145226", "wikimedia_commons": "Category:Azienda ospedaliera san Giovanni-Addolorata (Rome)", "wikipedia": "it:Azienda ospedaliera San Giovanni Addolorata"}}, {"name": "Ospedale Britannico", "latitude": 41.88428, "longitude": 12.4972929, "source": "osm", "_tags": {"addr:city": "Roma", "addr:housenumber": "6", "addr:postcode": "00184", "addr:street": "Via di Santo Stefano Rotondo", "amenity": "hospital", "emergency": "no", "healthcare": "hospital", "healthcare:speciality": "ophthalmology", "name": "Ospedale Britannico", "operator": "Fondazione IRCCS G.B. Bietti", "operator:type": "private_non_profit", "phone": "+39 06 7705 2834", "website": "https://www.fondazionebietti.it/"}}, {"name": "Ospedale Regina Apostolorum", "latitude": 41.7309027, "longitude": 12.6653404, "source": "osm", "_tags": {"addr:city": "Albano Laziale", "addr:housenumber": "50", "addr:postcode": "00041", "addr:street": "Via San Francesco d'Assisi", "amenity": "hospital", "email": "info@reginaapostolorum.it", "healthcare": "hospital", "internet_access": "wlan", "internet_access:fee": "customers", "internet_access:ssid": "OspedaleReginaApostolorum", "name": "Ospedale Regina Apostolorum", "operator": "Ospedale Regina Apostolorum Srl", "phone": "06 932989", "website": "https://www.ospedalereginapostolorum.it/", "wheelchair": "yes"}}, {"name": "Casa di cura Villa Mendicini", "latitude": 41.8781445, "longitude": 12.5762434, "source": "osm", "_tags": {"addr:city": "Roma", "addr:housenumber": "55", "addr:postcode": "00172", "addr:street": "Via degli Olmi", "amenity": "hospital", "email": "amministrazione@villamendicini.it", "emergency": "no", "healthcare": "rehabilitation", "healthcare:speciality": "psychiatry", "name": "Casa di cura Villa Mendicini", "phone": "+39 06 2307444", "ref:vatin": "IT01093511002", "website": "https://www.villamendicini.it"}}, {"name": "Casa di cura Quisisana", "latitude": 41.9286376, "longitude": 12.4890777, "source": "osm", "_tags": {"addr:city": "Roma", "addr:housenumber": "5", "addr:postcode": "00197", "addr:street": "Via Gian Giacomo Porro", "amenity": "hospital", "healthcare": "hospital", "name": "Casa di cura Quisisana", "phone": "+39 06 809581", "website": "https://www.clinicaquisisana.it"}}, {"name": "", "latitude": 41.8867526, "longitude": 12.3987006, "source": "osm", "_tags": {"amenity": "hospital", "healthcare": "hospital"}}, {"name": "Casa di Cura Pio XI", "latitude": 41.8955364, "longitude": 12.4201891, "source": "osm", "_tags": {"addr:postcode": "00165", "amenity": "hospital", "healthcare": "hospital", "internet_access": "wlan", "name": "Casa di Cura Pio XI", "operator:type": "private", "phone": "+39 06 664 941", "website": "http://www.casadicurapioxi.it"}}, {"name": "Ospedale Santo Spirito in Sassia", "latitude": 41.9010592, "longitude": 12.4623577, "source": "osm", "_tags": {"alt_name": "Ospedale Santo Spirito in Saxia", "amenity": "hospital", "building": "yes", "healthcare": "hospital", "name": "Ospedale Santo Spirito in Sassia", "name:fr": "Hôpital Santo Spirito in Saxia", "tourism": "attraction", "type": "multipolygon", "wikidata": "Q3621743"}}, {"name": "Ospedale S.Anna - A.S.L. Roma A", "latitude": 41.919649, "longitude": 12.5001542, "source": "osm", "_tags": {"amenity": "hospital", "building": "yes", "name": "Ospedale S.Anna - A.S.L. Roma A", "type": "multipolygon"}}, {"name": "Fatebenefratelli", "latitude": 41.8909089, "longitude": 12.4769649, "source": "osm", "_tags": {"addr:city": "Roma", "addr:housenumber": "39", "addr:postcode": "00186", "addr:street": "Via di Ponte Quattro Capi", "amenity": "hospital", "building": "yes", "emergency": "yes", "healthcare": "hospital", "name": "Fatebenefratelli", "type": "multipolygon", "website": "https://www.fatebenefratelli-isolatiberina.it/", "wikidata": "Q27961004", "wikimedia_commons": "Category:Ospedale San Giovanni Calibita Fatebenefratelli", "wikipedia": "en:Fatebenefratelli Hospital"}}, {"name": "Ospedale San Giovanni – Presidio Santa Maria", "latitude": 41.8880633, "longitude": 12.503272, "source": "osm", "_tags": {"addr:city": "Roma", "addr:housenumber": "155", "addr:postcode": "00184", "addr:street": "Via di San Giovanni in Laterano", "amenity": "hospital", "emergency": "no", "healthcare": "hospital", "hgv": "permissive", "name": "Ospedale San Giovanni – Presidio Santa Maria", "operator": "Azienda ospedaliera San Giovanni-Addolorata", "operator:type": "public", "type": "multipolygon", "website": "https://hsangiovanni.roma.it/", "wikidata": "Q3145226", "wikipedia": "it:Azienda ospedaliera San Giovanni Addolorata"}}, {"name": "Ospedale San Giovanni", "latitude": 41.8861493, "longitude": 12.5022197, "source": "osm", "_tags": {"access": "permissive", "addr:city": "Roma", "addr:housenumber": "4", "addr:postcode": "00184", "addr:street": "Via dell'Amba Aradam", "amenity": "hospital", "emergency": "yes", "healthcare": "hospital", "name": "Ospedale San Giovanni", "operator": "Azienda ospedaliera San Giovanni-Addolorata", "operator:type": "public", "type": "multipolygon", "website": "https://hsangiovanni.roma.it/", "wikidata": "Q3145226", "wikipedia": "it:Azienda ospedaliera San Giovanni Addolorata"}}, {"name": "Policlinico militare Celio", "latitude": 41.8857295, "longitude": 12.5003722, "source": "osm", "_tags": {"access": "private", "amenity": "hospital", "healthcare": "hospital", "landuse": "military", "name": "Policlinico militare Celio", "operator": "Ministero della Difesa", "type": "multipolygon", "wikidata": "Q16591171", "wikipedia": "it:Policlinico militare Celio"}}, {"name": "Casa di Cura Santa Famiglia", "latitude": 41.909054, "longitude": 12.4651132, "source": "osm", "_tags": {"addr:city": "Roma", "addr:housenumber": "134", "addr:postcode": "00192", "addr:street": "Via dei Gracchi", "amenity": "hospital", "contact:facebook": "https://www.facebook.com/ClinicaSantaFamiglia/", "contact:instagram": "https://www.instagram.com/casadicurasantafamiglia", "contact:twitter": "https://twitter.com/santafamiglia", "contact:youtube": "https://www.youtube.com/channel/UCQr4y8w8pyC_6JMyVSFle1A", "email": "info@santafamiglia.it", "fax": "+39 06 3216658", "healthcare": "clinic", "healthcare:speciality": "gynaecology", "name": "Casa di Cura Santa Famiglia", "phone": "+39 06 328331", "start_date": "1950", "type": "multipolygon", "website": "http://www.santafamiglia.it"}}, {"name": "Ospedale San Sebastiano di Frascati", "latitude": 41.8103962, "longitude": 12.6748456, "source": "osm", "_tags": {"amenity": "hospital", "emergency": "yes", "name": "Ospedale San Sebastiano di Frascati", "site": "hospital", "type": "site"}}, {"name": "I.N.I. Istituto Traumatologico", "latitude": 41.7776297, "longitude": 12.6630517, "source": "osm", "_tags": {"amenity": "hospital", "emergency": "no", "name": "I.N.I. Istituto Traumatologico", "type": "multipolygon"}}, {"name": "Ospedale San Giuseppe", "latitude": 41.7689158, "longitude": 12.6681857, "source": "osm", "_tags": {"amenity": "hospital", "healthcare": "hospital", "name": "Ospedale San Giuseppe", "type": "multipolygon"}}, {"name": "Ospedale Civile Paolo Colombo", "latitude": 41.6875691, "longitude": 12.7814117, "source": "osm", "_tags": {"amenity": "hospital", "emergency": "yes", "healthcare": "hospital", "name": "Ospedale Civile Paolo Colombo", "type": "multipolygon"}}, {"name": "Clinica Madonna delle Grazie", "latitude": 41.6734353, "longitude": 12.7766557, "source": "osm", "_tags": {"amenity": "hospital", "emergency": "no", "name": "Clinica Madonna delle Grazie", "type": "multipolygon"}}, {"name": "Casa di Cura Villa Clara", "latitude": 41.5760311, "longitude": 12.6647847, "source": "osm", "_tags": {"amenity": "hospital", "healthcare": "hospital", "name": "Casa di Cura Villa Clara", "type": "multipolygon"}}, {"name": "Casa di Cura Villa Silvana", "latitude": 41.5786743, "longitude": 12.6650289, "source": "osm", "_tags": {"amenity": "hospital", "healthcare": "hospital", "name": "Casa di Cura Villa Silvana", "type": "multipolygon"}}, {"name": "Ospedali Riuniti di Anzio e Nettuno", "latitude": 41.4608037, "longitude": 12.6367125, "source": "osm", "_tags": {"amenity": "hospital", "healthcare": "hospital", "name": "Ospedali Riuniti di Anzio e Nettuno", "type": "multipolygon"}}, {"name": "Policlinico Dipartimento Militare di lungodegenza “M.O.V.M. Federico Bocchetti”", "latitude": 41.4484341, "longitude": 12.6228606, "source": "osm", "_tags": {"addr:city": "Anzio", "addr:postcode": "00042", "addr:street": "Via Roma", "amenity": "hospital", "barrier": "wall", "healthcare": "hospital", "landuse": "military", "name": "Policlinico Dipartimento Militare di lungodegenza “M.O.V.M. Federico Bocchetti”", "operator": "Esercito Italiano", "type": "multipolygon"}}, {"name": "Valmontone Hospital", "latitude": 41.7669109, "longitude": 12.9189269, "source": "osm", "_tags": {"addr:city": "Valmontone", "addr:postcode": "00038", "addr:street": "Via dei Lecci", "amenity": "hospital", "contact:facebook": "https://www.facebook.com/ValmontoneHospital/", "email": "prenotazioni@valmontonehospital.it", "emergency": "no", "healthcare": "hospital", "name": "Valmontone Hospital", "opening_hours": "Mo-Sa 07:30-20:00", "phone": "+39 06 951951", "type": "multipolygon", "website": "https://www.valmontonehospital.it", "wikidata": "Q50037124"}}, {"name": "", "latitude": 42.3926229, "longitude": 12.1236297, "source": "osm", "_tags": {"amenity": "hospital", "emergency": "ambulance_station", "type": "multipolygon"}}, {"name": "Ospedale Padre Pio", "latitude": 42.0962482, "longitude": 12.172243, "source": "osm", "_tags": {"addr:city": "Bracciano", "addr:country": "IT", "addr:postcode": "00062", "addr:street": "Via Santa Lucia", "amenity": "hospital", "emergency": "yes", "healthcare": "hospital", "healthcare:speciality": "ophthalmology;dentistry;dermatology;urology;surgery;orthopaedics;dialysis;cardiology;gynaecology;neurology", "name": "Ospedale Padre Pio", "operator": "ASL RM4", "operator:type": "public", "phone": "+3906998901", "type": "multipolygon", "website": "https://www.aslroma4.it/strutture-sanitarie/ospedale-padre-pio-di-bracciano"}}, {"name": "Ospedale Giovanni Battista Grassi", "latitude": 41.7283572, "longitude": 12.3000548, "source": "osm", "_tags": {"addr:city": "Ostia Lido", "addr:housenumber": "28", "addr:postcode": "00122", "addr:street": "Via Giancarlo Passeroni", "amenity": "hospital", "building": "hospital", "building:levels": "3", "email": "dsgrassi@aslroma3.it", "emergency": "yes", "healthcare": "hospital", "name": "Ospedale Giovanni Battista Grassi", "operator": "Azienda USL Roma 3", "phone": "+39 06 56481", "type": "multipolygon", "website": "http://www.aslromad.it/Presidio.aspx?Organizzazione=9&Section=4&Page=1", "wheelchair": "yes"}}, {"name": "Cittadella della Salute", "latitude": 42.4098502, "longitude": 12.1092329, "source": "osm", "_tags": {"addr:city": "Viterbo", "addr:country": "IT", "addr:housenumber": "15", "addr:postcode": "01100", "addr:street": "Via Enrico Fermi", "amenity": "hospital", "building": "public", "healthcare": "hospital", "name": "Cittadella della Salute", "opening_hours": "Mo-Fr 08:00-18:00", "operator": "ASL", "operator:wikidata": "Q3631467", "phone": "+39 0761 3391", "type": "multipolygon", "website": "http://www.asl.vt.it/", "wheelchair": "yes"}}, {"name": "ICOT", "latitude": 41.4409155, "longitude": 12.9012269, "source": "osm", "_tags": {"addr:city": "Latina", "addr:country": "IT", "addr:housenumber": "1668", "addr:postcode": "04100", "addr:street": "Via Franco Faggiana", "alt_name": "ICOT Giomi", "amenity": "hospital", "healthcare": "hospital", "name": "ICOT", "official_name": "Istituto Marco Pasquali", "operator": "Giomi S.p.A.", "type": "multipolygon", "website": "https://www.giomi.com/"}}, {"name": "Ospedale Sant'Andrea", "latitude": 41.983225, "longitude": 12.4704798, "source": "osm", "_tags": {"addr:city": "Roma", "addr:country": "IT", "addr:housenumber": "1035", "addr:postcode": "00189", "addr:street": "Via di Grottarossa", "amenity": "hospital", "name": "Ospedale Sant'Andrea", "operator": "Azienda ospedaliero-universitaria Sant'Andrea", "type": "multipolygon", "website": "https://www.ospedalesantandrea.it", "wikidata": "Q16530334", "wikipedia": "it:Azienda ospedaliera Sant'Andrea"}}, {"name": "Ospedale Pediatrico Bambino Gesù", "latitude": 41.9191311, "longitude": 12.1414422, "source": "osm", "_tags": {"addr:place": "Palidoro", "addr:postcode": "00050", "addr:street": "Via della Torre di Palidoro", "amenity": "hospital", "healthcare": "hospital", "healthcare:speciality": "paediatrics", "name": "Ospedale Pediatrico Bambino Gesù", "operator": "Santa Sede", "operator:type": "religious", "phone": "+390668591", "type": "multipolygon", "website": "https://www.ospedalebambinogesu.it/"}}, {"name": "Poliambulatorio Casalbernocchi", "latitude": 41.7845803, "longitude": 12.3801902, "source": "osm", "_tags": {"amenity": "hospital", "building": "public", "healthcare": "hospital", "name": "Poliambulatorio Casalbernocchi", "operator": "ASL", "operator:wikidata": "Q3631467", "type": "multipolygon"}}, {"name": "ASL Roma 3 - Casal Bernocchi", "latitude": 41.7842928, "longitude": 12.3808177, "source": "osm", "_tags": {"amenity": "hospital", "building": "public", "healthcare": "hospital", "name": "ASL Roma 3 - Casal Bernocchi", "operator": "ASL", "operator:wikidata": "Q3631467", "type": "multipolygon"}}, {"name": "Ospedale San Giovanni Battista", "latitude": 41.8282404, "longitude": 12.4178738, "source": "osm", "_tags": {"addr:city": "Roma", "addr:housenumber": "13", "addr:postcode": "00148", "addr:street": "Via Luigi Ercole Morselli", "amenity": "hospital", "email": "info.ambulatori@acismom.it", "emergency": "no", "healthcare": "hospital", "healthcare:speciality": "neurology;rehab", "name": "Ospedale San Giovanni Battista", "operator": "Associazione dei Cavalieri Italiani del Sovrano Ordine di Malta", "operator:type": "private", "phone": "+3906655961", "type": "multipolygon", "website": "https://sanita.acismom.it/ospedale-san-giovanni-battista/"}}, {"name": "Ospedale Pediatrico Bambino Gesù", "latitude": 41.8970501, "longitude": 12.4606114, "source": "osm", "_tags": {"addr:city": "Roma", "addr:housenumber": "4", "addr:postcode": "00165", "addr:street": "Piazza di Sant'Onofrio", "amenity": "hospital", "denomination": "roman_catholic", "emergency": "yes", "health_specialty:paediatrics": "yes", "healthcare": "hospital", "healthcare:speciality": "paediatrics", "name": "Ospedale Pediatrico Bambino Gesù", "name:en": "Bambino Gesù Hospital", "name:fr": "Hôpital Bambino Gesù", "name:it": "Ospedale Bambino Gesù", "operator": "Ospedale Pediatrico Bambino Gesù", "operator:type": "religious", "phone": "+390668591", "type": "multipolygon", "website": "https://www.ospedalebambinogesu.it/sede-roma-gianicolo", "wikidata": "Q3886684", "wikimedia_commons": "Category:Bambino Gesù Hospital (Rome)", "wikipedia": "it:Ospedale pediatrico Bambino Gesù"}}]