[{"name": "Centre Hospitalier de Sartène", "latitude": 41.6063257, "longitude": 8.9357163, "source": "osm", "_tags": {"amenity": "hospital", "email": "contact@hopitalsartene.com", "name": "Centre Hospitalier de Sartène", "website": "https://ch-sartene.fr/"}}, {"name": "Centre Hospitalier Spécialisé de Castelluccio", "latitude": 41.9353487, "longitude": 8.7140365, "source": "osm", "_tags": {"amenity": "hospital", "healthcare": "centre", "healthcare:speciality": "psychiatry;child_psychiatry", "name": "Centre Hospitalier Spécialisé de Castelluccio", "ref:UAI": "6200655T", "type:FR:FINESS": "292", "website": "https://www.ch-castelluccio.fr/"}}, {"name": "Clinisud", "latitude": 41.9235893, "longitude": 8.735026, "source": "osm", "_tags": {"amenity": "hospital", "healthcare": "hospital", "name": "Clinisud"}}, {"name": "Centre hospitalier d'Ajaccio", "latitude": 41.9449056, "longitude": 8.7697717, "source": "osm", "_tags": {"addr:city": "Ajaccio", "addr:housenumber": "1180", "addr:street": "Route À Madunuccia", "alt_name": "Centre hospitalier Notre-Dame de la Miséricorde - Site du Stilettu", "amenity": "hospital", "emergency": "yes", "end_date": "2023", "fax": "+33 4 95 29 94 60", "healthcare": "hospital", "healthcare:speciality": "intensive;ophthalmology;orthopaedics;surgery;cardiothoracic_surgery;neurology;oncology;pulmonology;cardiology;infectious_diseases;endocrinology;gynaecology;radiology;paediatrics;anaesthetics;geriatrics", "name": "Centre hospitalier d'Ajaccio", "name:co": "Centru Uspitalieru d'Aiacciu", "name:fr": "Centre hospitalier d'Ajaccio", "operator:type": "public", "phone": "+33 4 95 29 90 90", "ref:FR:FINESS": "2A0000022", "ref:UAI": "6200053N", "type:FR:FINESS": "355", "website": "https://www.ch-ajaccio.fr/"}}]