[{"name": "Centro de atención primaria", "latitude": 41.6315084, "longitude": -0.7491805, "source": "osm", "_tags": {"addr:housenumber": "1", "addr:postcode": "50171", "addr:street": "Calle Del Sindicato", "amenity": "hospital", "healthcare": "hospital", "name": "Centro de atención primaria", "phone": "+34 976107494"}}, {"name": "Cruz Roja", "latitude": 41.8756823, "longitude": -0.7704704, "source": "osm", "_tags": {"amenity": "hospital", "brand": "Cruz Roja", "healthcare": "hospital", "name": "Cruz Roja", "operator": "Cruz Roja", "operator:wikidata": "Q7178"}}, {"name": "Hospital de Día Quirónsalud Zaragoza", "latitude": 41.6400553, "longitude": -0.918556, "source": "osm", "_tags": {"addr:housenumber": "82", "addr:street": "Avenida del Alcalde Gómez Laguna", "amenity": "hospital", "name": "Hospital de Día Quirónsalud Zaragoza"}}, {"name": "Hospital Clínico Universitario Lozano Blesa", "latitude": 41.6432141, "longitude": -0.9034061, "source": "osm", "_tags": {"amenity": "hospital", "building": "yes", "healthcare": "hospital", "loc_name": "El Clínico", "name": "Hospital Clínico Universitario Lozano Blesa", "website": "http://www.hcuz.es/web/guest", "wheelchair": "yes", "wikidata": "Q5902581"}}, {"name": "Hospital Universitario Miguel Servet", "latitude": 41.6345531, "longitude": -0.8996445, "source": "osm", "_tags": {"amenity": "hospital", "building": "yes", "emergency": "yes", "healthcare": "hospital", "name": "Hospital Universitario Miguel Servet", "name:en": "University Hospital of Miguel Servet", "toilets:wheelchair": "yes", "website": "https://sectorzaragozados.salud.aragon.es/", "wheelchair": "yes", "wikidata": "Q5902953"}}, {"name": "Clínica Montpellier", "latitude": 41.6359077, "longitude": -0.9134758, "source": "osm", "_tags": {"addr:housenumber": "37", "addr:street": "Vía Hispanidad", "amenity": "hospital", "building": "hospital", "emergency": "yes", "healthcare": "hospital", "name": "Clínica Montpellier", "operator": "Grupo Montpellier", "operator:type": "private", "wheelchair": "yes", "wikidata": "Q54811200"}}, {"name": "Sagrado Corazón de Jesus", "latitude": 42.1423039, "longitude": -0.4012303, "source": "osm", "_tags": {"amenity": "hospital", "building": "hospital", "building:levels": "5", "healthcare": "hospital", "name": "Sagrado Corazón de Jesus", "wikidata": "Q87761896"}}, {"name": "Centro Neuropsiquiátrico Nuestra Señora del Carmen", "latitude": 41.6774492, "longitude": -0.9868122, "source": "osm", "_tags": {"amenity": "hospital", "name": "Centro Neuropsiquiátrico Nuestra Señora del Carmen", "wikidata": "Q87762677"}}, {"name": "Hospital Viamed Montecanal", "latitude": 41.6388477, "longitude": -0.9492715, "source": "osm", "_tags": {"addr:housenumber": "2", "addr:postcode": "50012", "addr:street": "Calle Franz Schubert", "amenity": "hospital", "building": "yes", "email": "admi@viamedmontecanal.com", "healthcare": "hospital", "name": "Hospital Viamed Montecanal", "phone": "+34 876241818", "website": "https://www.viamedmontecanal.com/", "wikidata": "Q87762690"}}, {"name": "Hospital Universitario San Jorge", "latitude": 42.1317303, "longitude": -0.4201721, "source": "osm", "_tags": {"amenity": "hospital", "check_date": "2022-07-20", "emergency": "yes", "healthcare": "hospital", "internet_access": "wlan", "internet_access:fee": "yes", "name": "Hospital Universitario San Jorge", "network": "Servicio Aragonés de Salud", "network:short": "SALUD", "operator:type": "public", "wheelchair": "yes"}}, {"name": "Hospital Materno Infantil Zaragoza", "latitude": 41.6358269, "longitude": -0.899576, "source": "osm", "_tags": {"amenity": "hospital", "building": "hospital", "building:levels": "5", "healthcare": "hospital", "name": "Hospital Materno Infantil Zaragoza", "roof:levels": "0", "toilets:wheelchair": "yes", "wheelchair": "yes", "wikidata": "Q54833665"}}, {"name": "HC Miraflores", "latitude": 41.6423721, "longitude": -0.8805096, "source": "osm", "_tags": {"addr:city": "Zaragoza", "addr:country": "ES", "addr:housenumber": "51-53", "addr:postcode": "50008", "addr:street": "Camino de las Torres", "amenity": "hospital", "building": "hospital", "building:levels": "2", "emergency": "yes", "name": "HC Miraflores", "operator": "Grupo Hospitalario Hernán Cortés", "short_name": "HCM"}}, {"name": "Centro de Salud Santa Isabel", "latitude": 41.6667804, "longitude": -0.8362401, "source": "osm", "_tags": {"amenity": "clinic", "description": "Centro de salud de día", "emergency": "yes", "healthcare": "hospital", "healthcare:speciality": "general;paediatrics", "name": "Centro de Salud Santa Isabel", "opening_hours": "Mo-Fr 08:30-18:40; Sa 09:15-14:30; Su,PH off", "phone": "+34976572101"}}, {"name": "Hospital MAZ de Zaragoza", "latitude": 41.6856601, "longitude": -0.8691086, "source": "osm", "_tags": {"amenity": "hospital", "check_date": "2024-11-10", "name": "Hospital MAZ de Zaragoza", "phone": "+34 976748000", "website": "https://www.maz.es/MediosAsistenciales/Paginas/Cl%C3%ADnicas%20y%20hospitales%20propios/Hospital%20MAZ%20Zaragoza/hospital-maz-zaragoza-inicio.aspx"}}, {"name": "Prisma: Finca El Cantal: Centro Hospitalario de Recuperación Psiquiátrica", "latitude": 41.7195332, "longitude": -0.834746, "source": "osm", "_tags": {"amenity": "hospital", "emergency": "no", "healthcare": "hospital", "healthcare:speciality": "psychiatry", "name": "Prisma: Finca El Cantal: Centro Hospitalario de Recuperación Psiquiátrica"}}, {"name": "Hospital Royo Villanova", "latitude": 41.6920979, "longitude": -0.8609989, "source": "osm", "_tags": {"amenity": "hospital", "emergency": "yes", "name": "Hospital Royo Villanova", "operator": "Servicio Aragonés de Salud", "phone": "+34 976 466 910", "website": "https://www.zaragoza.es/ciudad/centros/detalle_Centro?id=9043"}}, {"name": "Centro de Rehabilitación Psicosocial Nuestra Señora del Pilar", "latitude": 41.6472971, "longitude": -0.9091645, "source": "osm", "_tags": {"amenity": "hospital", "emergency": "no", "healthcare": "hospital", "name": "Centro de Rehabilitación Psicosocial Nuestra Señora del Pilar", "source": "Ortofoto PNOA", "type": "multipolygon", "wikidata": "Q87762674"}}, {"name": "Hospital Provincial Nuestra Sra. de Gracia", "latitude": 41.6521527, "longitude": -0.8874675, "source": "osm", "_tags": {"addr:housenumber": "60", "addr:postcode": "50004", "addr:street": "Calle Santiago Ramón y Cajal", "alt_name": "Hospital Provincial", "amenity": "hospital", "building": "hospital", "healthcare": "hospital", "healthcare:speciality": "general;geriatrics", "name": "Hospital Provincial Nuestra Sra. de Gracia", "operator": "Gobierno de Aragón", "phone": "+34976440022", "type": "multipolygon", "wikidata": "Q5902819"}}, {"name": "Hospital San Juan de Dios", "latitude": 41.6341993, "longitude": -0.8880048, "source": "osm", "_tags": {"addr:city": "Zaragoza", "addr:housenumber": "14", "addr:postcode": "50006", "addr:street": "Paseo de Colón", "amenity": "hospital", "contact:website": "https://www.hsjdzaragoza.es/", "healthcare": "hospital", "name": "Hospital San Juan de Dios", "source:addr": "Ayuntamiento de Zaragoza", "type": "multipolygon", "wikidata": "Q28664124"}}, {"name": "Hospital Militar Zaragoza", "latitude": 41.629975, "longitude": -0.9044963, "source": "osm", "_tags": {"addr:housenumber": "1", "addr:street": "Vía Ibérica", "amenity": "hospital", "emergency": "yes", "healthcare": "hospital", "landuse": "military", "name": "Hospital Militar Zaragoza", "official_name": "Hospital General Militar de la Defensa Orad y Gajías", "opening_hours": "24/7", "operator": "Ministerio de Defensa;Gobierno de Aragón", "type": "multipolygon", "wheelchair": "yes", "wikidata": "Q28662781"}}, {"name": "CME San José", "latitude": 41.6380966, "longitude": -0.8722975, "source": "osm", "_tags": {"addr:city": "Zaragoza", "addr:postcode": "50013", "addr:street": "Calle de Luis Aula", "amenity": "hospital", "emergency": "no", "healthcare": "hospital", "name": "CME San José", "nohousenumber": "yes", "type": "multipolygon"}}, {"name": "Hospital de Día Quirónsalud La Floresta", "latitude": 41.6399038, "longitude": -0.9185341, "source": "osm", "_tags": {"addr:city": "Zaragoza", "addr:housenumber": "82", "addr:postcode": "50012", "addr:street": "Avenida del Alcalde Gómez Laguna", "amenity": "hospital", "building": "hospital", "healthcare": "hospital", "name": "Hospital de Día Quirónsalud La Floresta", "phone": "+34 976579000", "type": "multipolygon", "website": "https://www.quironsalud.es", "wheelchair": "yes", "wikidata": "Q54811209"}}, {"name": "Consultas Externas Miguel Servet", "latitude": 41.6335986, "longitude": -0.9016545, "source": "osm", "_tags": {"amenity": "hospital", "building": "yes", "emergency": "no", "healthcare": "hospital", "name": "Consultas Externas Miguel Servet", "source": "catastro", "type": "multipolygon"}}, {"name": "Hospital Quironsalud Zaragoza", "latitude": 41.6367077, "longitude": -0.8937449, "source": "osm", "_tags": {"addr:postcode": "50006", "addr:street": "Paseo de Mariano Renovales", "amenity": "hospital", "brand": "Quirónsalud", "brand:wikidata": "Q5886225", "brand:wikipedia": "Quirónsalud", "healthcare": "hospital", "name": "Hospital Quironsalud Zaragoza", "phone": "+34 976720000", "type": "multipolygon", "wheelchair": "yes", "wikidata": "Q5851556"}}]