[{"name": "CAP", "latitude": 41.8521561, "longitude": 3.1311335, "source": "osm", "_tags": {"addr:city": "Palamós", "addr:housenumber": "17", "addr:postcode": "17230", "addr:street": "Carrer de l'Hospital", "amenity": "hospital", "healthcare": "hospital", "healthcare:speciality": "medicina_familiar_i_comunitariamedicina_general;physiotherapy", "name": "CAP", "operator": "Centre d'Atenció Primaria", "operator:type": "public"}}, {"name": "Creu Roja", "latitude": 41.7887962, "longitude": 3.0406876, "source": "osm", "_tags": {"amenity": "hospital", "healthcare": "hospital", "name": "Creu Roja", "name:ca": "Creu Roja", "operator": "Cruz Roja", "operator:type": "ngo", "operator:wikidata": "Q7178", "wheelchair": "yes"}}, {"name": "Hospital de Figueres", "latitude": 42.2683318, "longitude": 2.9537706, "source": "osm", "_tags": {"amenity": "hospital", "healthcare": "hospital", "name": "Hospital de Figueres", "name:ca": "Hospital de Figueres", "name:es": "Hospital de Figueres", "wikidata": "Q19256768", "wikipedia": "ca:Hospital de Figueres"}}, {"name": "Hospital de Palamós", "latitude": 41.8528043, "longitude": 3.1316865, "source": "osm", "_tags": {"amenity": "hospital", "building": "yes", "emergency": "yes", "healthcare": "hospital", "name": "Hospital de Palamós", "name:ca": "Hospital de Palamós", "website": "https://www.ssibe.cat/index.php?pagina=44", "wikidata": "Q17137118", "wikipedia": "ca:Hospital de Palamós"}}, {"name": "Hospital de Figueres", "latitude": 42.2684311, "longitude": 2.9539158, "source": "osm", "_tags": {"addr:housenumber": "10", "addr:postcode": "17600", "addr:street": "Ronda del Rector Arolas", "amenity": "hospital", "building": "public", "building:levels": "3", "building:levels:underground": "1", "name": "Hospital de Figueres"}}]