[{"name": "D.Z. Budo Tomovic", "latitude": 41.9291424, "longitude": 19.2193098, "source": "osm", "_tags": {"amenity": "hospital", "emergency": "yes", "name": "D.Z. Budo Tomovic"}}, {"name": "", "latitude": 41.7796641, "longitude": 19.6501435, "source": "osm", "_tags": {"addr:city": "Lezhë", "amenity": "hospital", "emergency": "yes", "healthcare": "hospital", "operator": "Urgjenca"}}, {"name": "Amblulanta Katerkoll", "latitude": 42.0018429, "longitude": 19.2992616, "source": "osm", "_tags": {"addr:street": "Vladimir Sas bb", "amenity": "hospital", "name": "Amblulanta Katerkoll"}}, {"name": "emergency 1", "latitude": 41.4257951, "longitude": 19.7570548, "source": "osm", "_tags": {"amenity": "hospital", "name": "emergency 1", "note": "check this"}}, {"name": "emergency 2", "latitude": 41.4305744, "longitude": 19.7748887, "source": "osm", "_tags": {"amenity": "hospital", "name": "emergency 2"}}, {"name": "Theth", "latitude": 42.3946644, "longitude": 19.7764246, "source": "osm", "_tags": {"addr:city": "Theth", "addr:country": "AL", "addr:postcode": "4009", "amenity": "hospital", "name": "Theth", "phone": "129"}}, {"name": "Spital Privat", "latitude": 42.062397, "longitude": 19.5118852, "source": "osm", "_tags": {"amenity": "hospital", "emergency": "yes", "name": "Spital Privat"}}, {"name": "Opšta bolnica Bar", "latitude": 42.0892133, "longitude": 19.1312402, "source": "osm", "_tags": {"addr:city": "Stari Bar", "amenity": "hospital", "healthcare": "hospital", "healthcare:speciality": "intensive;surgery;anaesthetics", "name": "Opšta bolnica Bar", "name:sr": "Општа болница Бар", "name:sr-Latn": "Opšta bolnica Bar"}}, {"name": "Дом Здравля", "latitude": 42.3562764, "longitude": 19.0218638, "source": "osm", "_tags": {"amenity": "hospital", "healthcare": "hospital", "name": "Дом Здравля"}}, {"name": "", "latitude": 42.2078954, "longitude": 18.9417947, "source": "osm", "_tags": {"amenity": "hospital", "building": "yes", "healthcare": "hospital"}}, {"name": "Qendra shendetsore Shen Scalabrini", "latitude": 42.0229273, "longitude": 19.5755517, "source": "osm", "_tags": {"addr:city": "Juban", "addr:postcode": "4016", "amenity": "hospital", "healthcare": "hospital", "name": "Qendra shendetsore Shen Scalabrini"}}, {"name": "Spitali Rajonal Shkoder", "latitude": 42.0740665, "longitude": 19.524826, "source": "osm", "_tags": {"addr:city": "Shkoder", "addr:country": "AL", "addr:housenumber": "11", "addr:street": "Kolë Heqimi", "amenity": "hospital", "barrier": "fence", "emergency": "yes", "fence_type": "wire", "healthcare": "hospital", "height": "2", "name": "Spitali Rajonal Shkoder", "name:en": "Hospital of Shkodra District", "name:sq": "Spitali Rajonal Shkoder", "phone": "127", "source": "bing;mapbox-satellite;survey;gps;knowledge;local-info", "source_ref:url": "https://www.flickr.com/photos/openstreetmap-albania", "website": "http://srsh.gov.al/"}}, {"name": "Qendra Shendetsore Lezhe", "latitude": 41.7786212, "longitude": 19.6443788, "source": "osm", "_tags": {"amenity": "hospital", "building": "yes", "emergency": "no", "healthcare": "hospital", "name": "Qendra Shendetsore Lezhe"}}, {"name": "", "latitude": 41.7798012, "longitude": 19.650251, "source": "osm", "_tags": {"amenity": "hospital", "healthcare": "hospital"}}, {"name": "Spitali Obstetrik Gjinekologjik", "latitude": 41.7769798, "longitude": 19.643536, "source": "osm", "_tags": {"amenity": "hospital", "healthcare": "hospital", "name": "Spitali Obstetrik Gjinekologjik"}}, {"name": "Spitali", "latitude": 42.0430548, "longitude": 19.899139, "source": "osm", "_tags": {"addr:city": "Pukë", "addr:postcode": "4400", "amenity": "hospital", "healthcare": "hospital", "name": "Spitali"}}, {"name": "Shërbimi i Shëndetit Mendor me Shtretër", "latitude": 42.0733149, "longitude": 19.5260011, "source": "osm", "_tags": {"addr:country": "AL", "amenity": "hospital", "barrier": "fence", "fence_type": "wire", "healthcare": "hospital", "healthcare:speciality": "psychiatry", "name": "Shërbimi i Shëndetit Mendor me Shtretër", "name:en": "Psychiatric Hospital", "source": "bing;mapbox-satellite;survey;gps;knowledge;local-info", "source_ref:url": "https://www.flickr.com/photos/openstreetmap-albania", "wheelchair": "limited"}}, {"name": "Spitali Shkodër", "latitude": 42.0736812, "longitude": 19.5233319, "source": "osm", "_tags": {"addr:city": "Shkoder", "addr:country": "AL", "addr:housenumber": "11", "addr:street": "Kolë Heqimi", "amenity": "hospital", "barrier": "wall", "emergency": "yes", "height": "2", "name": "Spitali Shkodër", "name:sq": "Spitali Shkodër", "phone": "127", "source": "survey", "website": "http://srsh.gov.al/"}}, {"name": "Sanatoriumi Shkoder", "latitude": 42.0752251, "longitude": 19.5213203, "source": "osm", "_tags": {"amenity": "hospital", "barrier": "wall", "height": "3", "name": "Sanatoriumi Shkoder"}}, {"name": "Spitali Mirditë", "latitude": 41.7702537, "longitude": 19.8741288, "source": "osm", "_tags": {"amenity": "hospital", "healthcare": "hospital", "name": "Spitali Mirditë"}}, {"name": "", "latitude": 41.6387417, "longitude": 19.7137435, "source": "osm", "_tags": {"amenity": "hospital", "healthcare": "hospital"}}, {"name": "Spitali Krujë", "latitude": 41.5159238, "longitude": 19.7900664, "source": "osm", "_tags": {"amenity": "hospital", "name": "Spitali Krujë", "operator": "Albanian State", "type": "multipolygon"}}]