[{"name": "Unidade Local de Saúde do Nordeste", "latitude": 41.8029444, "longitude": -6.7673769, "source": "osm", "_tags": {"addr:city": "Bragança", "addr:postcode": "5300-068", "addr:street": "Avenida Abade de Baçal", "amenity": "hospital", "emergency": "yes", "healthcare": "hospital", "name": "Unidade Local de Saúde do Nordeste", "official_name": "Unidade Local de Saúde do Nordeste, EPE", "phone": "+351 273 310 800"}}, {"name": "Centro Hospitalar do Nordeste - Hospital Psiquiátrico", "latitude": 41.8172872, "longitude": -6.7491308, "source": "osm", "_tags": {"amenity": "hospital", "healthcare": "hospital", "name": "Centro Hospitalar do Nordeste - Hospital Psiquiátrico"}}, {"name": "Hospital Privado de Bragança - Clínica", "latitude": 41.8090533, "longitude": -6.7712068, "source": "osm", "_tags": {"amenity": "hospital", "healthcare": "hospital", "name": "Hospital Privado de Bragança - Clínica"}}, {"name": "ULS do Nordeste - Unidade Hospitalar de Macedo de Cavaleiros", "latitude": 41.5350294, "longitude": -6.960374, "source": "osm", "_tags": {"amenity": "hospital", "healthcare": "hospital", "name": "ULS do Nordeste - Unidade Hospitalar de Macedo de Cavaleiros", "official_name": "Unidade Local de Saúde do Nordeste, EPE - Unidade Hospitalar de Macedo de Cavaleiros"}}]