[{"name": "Fundació Hospital Asil de Granollers", "latitude": 41.6134098, "longitude": 2.2959097, "source": "osm", "_tags": {"addr:city": "Granollers", "addr:postcode": "08402", "addr:street": "Avinguda Francesc Ribas s/n", "amenity": "hospital", "emergency": "yes", "healthcare": "hospital", "name": "Fundació Hospital Asil de Granollers", "name:ca": "Fundació Hospital Asil de Granollers", "phone": "+34 938425000", "website": "http://www.fhag.es"}}, {"name": "Hospital comarcal de la Selva", "latitude": 41.6873345, "longitude": 2.802138, "source": "osm", "_tags": {"amenity": "hospital", "name": "Hospital comarcal de la Selva", "name:ca": "Hospital comarcal de la Selva", "wikidata": "Q19974285", "wikipedia": "ca:Hospital Comarcal de la Selva"}}, {"name": "Hospital Asil Sant Jaume", "latitude": 41.6761848, "longitude": 2.7870169, "source": "osm", "_tags": {"amenity": "hospital", "name": "Hospital Asil Sant Jaume", "name:ca": "Hospital Asil de Sant Jaume", "wheelchair": "yes", "wikidata": "Q11926097", "wikipedia": "ca:Hospital Asil de Sant Jaume"}}, {"name": "Hospital d'Olot i comarcal de la Garrotxa", "latitude": 42.1874622, "longitude": 2.4675162, "source": "osm", "_tags": {"addr:city": "Olot", "addr:housenumber": "86", "addr:postcode": "17800", "addr:street": "Avinguda dels Països Catalans", "amenity": "hospital", "emergency": "yes", "healthcare": "hospital", "name": "Hospital d'Olot i comarcal de la Garrotxa", "name:ca": "Hospital d'Olot i comarcal de la Garrotxa", "phone": "+34 972 26 18 00", "website": "https://hospiolot.com", "wikidata": "Q87652606", "wikipedia": "ca:Hospital d’Olot i Comarcal de la Garrotxa"}}, {"name": "Santa Fe", "latitude": 41.5575722, "longitude": 2.1108773, "source": "osm", "_tags": {"amenity": "doctors", "healthcare": "hospital", "healthcare:speciality": "Psiquiatria;Oftalmología;Salud_Laboral;Cirugía_Maxilofacial;Dermatología", "name": "Santa Fe", "name:ca": "Santa Fe"}}, {"name": "UDIAT", "latitude": 41.5574738, "longitude": 2.1115158, "source": "osm", "_tags": {"amenity": "doctors", "healthcare": "hospital", "healthcare:speciality": "Radiología;Microbiología;Laboratorio;Immunoogía;Medicina_Nuclear", "name": "UDIAT"}}, {"name": "la Salut", "latitude": 41.5571466, "longitude": 2.1120457, "source": "osm", "_tags": {"amenity": "doctors", "healthcare": "hospital", "name": "la Salut", "name:ca": "la Salut"}}, {"name": "VII Centenari", "latitude": 41.556491, "longitude": 2.1131522, "source": "osm", "_tags": {"amenity": "doctors", "healthcare": "hospital", "healthcare:speciality": "Geriatría;Reumatología;Traumatología;Cirugía_General;Facultad_Medicina_UAB", "name": "VII Centenari"}}, {"name": "Albada", "latitude": 41.5561307, "longitude": 2.1131198, "source": "osm", "_tags": {"amenity": "doctors", "healthcare": "hospital", "name": "Albada"}}, {"name": "Centre d'Atenció Primària Viladecavalls", "latitude": 41.5564268, "longitude": 1.955244, "source": "osm", "_tags": {"addr:city": "Viladecavalls", "addr:postcode": "08232", "addr:street": "Carrer de Sant Joan", "amenity": "clinic", "healthcare": "hospital", "healthcare:speciality": "general", "name": "Centre d'Atenció Primària Viladecavalls", "short_name": "CAP Viladecavalls"}}, {"name": "Urgencias Taulí", "latitude": 41.5567733, "longitude": 2.1099775, "source": "osm", "_tags": {"amenity": "clinic", "healthcare": "hospital", "name": "Urgencias Taulí", "name:ca": "Urgències Taulí"}}, {"name": "Clínica del Vallès", "latitude": 41.532514, "longitude": 2.1177936, "source": "osm", "_tags": {"amenity": "hospital", "healthcare": "hospital", "name": "Clínica del Vallès"}}, {"name": "Centre d'Atenció Primària de Palau-solità i Plegamans", "latitude": 41.583384, "longitude": 2.1750835, "source": "osm", "_tags": {"addr:city": "Palau-solità i Plegamans", "addr:postcode": "08184", "addr:street": "Carrer de Can Cortés", "amenity": "hospital", "emergency": "no", "healthcare": "clinic", "healthcare:speciality": "general", "name": "Centre d'Atenció Primària de Palau-solità i Plegamans", "opening_hours": "Mo-Sa 08:00-20:00", "phone": "+34 938 64 98 98", "short_name": "CAP de Palau-solità i Plegamans"}}, {"name": "Cruz Roja Sabadell", "latitude": 41.5450226, "longitude": 2.1162827, "source": "osm", "_tags": {"amenity": "hospital", "healthcare": "hospital", "name": "Cruz Roja Sabadell"}}, {"name": "Antic Hospital de S. Jaume i Sta. Magdalena", "latitude": 41.5396821, "longitude": 2.4489569, "source": "osm", "_tags": {"addr:city": "Mataró", "addr:street": "Carrer de l'Hospital", "amenity": "hospital", "healthcare": "hospital", "name": "Antic Hospital de S. Jaume i Sta. Magdalena", "name:ca": "Antic Hospital de S. Jaume i Sta. Magdalena"}}, {"name": "Centro médico Illa de Salut", "latitude": 41.8105471, "longitude": 2.742676, "source": "osm", "_tags": {"addr:city": "Sils", "addr:housenumber": "3", "addr:postcode": "17410", "addr:street": "Carrer d'Argimon", "amenity": "hospital", "healthcare": "hospital", "healthcare:speciality": "general", "name": "Centro médico Illa de Salut", "operator": "Illa de Salut", "operator:type": "private", "phone": "+34 972 16 87 50", "website": "https://www.illadesalut.com/es/illa-de-salut-sils", "wheelchair": "yes"}}, {"name": "Centre d'Atenció Primària de Sils", "latitude": 41.8100954, "longitude": 2.74296, "source": "osm", "_tags": {"addr:city": "Sils", "addr:postcode": "17410", "addr:street": "Eix Olot-Lloret de Mar C-63", "amenity": "hospital", "email": "eap_sils.girona.ics@gencat.cat", "emergency": "yes", "fax": "+34 972168492", "healthcare": "hospital", "healthcare:speciality": "general", "name": "Centre d'Atenció Primària de Sils", "name:ca": "Centre d'Atenció Primària de Sils", "name:es": "Centro de Atención Primaria de Sils", "nohousenumber": "yes", "operator": "Generalitat de Catalunya", "operator:type": "public", "phone": "+34 972168492", "short_name": "CAP de Sils", "wheelchair": "yes"}}, {"name": "Centre d'Atenció Primària Avinyó", "latitude": 41.8655131, "longitude": 1.970583, "source": "osm", "_tags": {"amenity": "hospital", "healthcare": "hospital", "name": "Centre d'Atenció Primària Avinyó", "short_name": "CAP Avinyó"}}, {"name": "Clínica Bofill", "latitude": 42.1800696, "longitude": 2.4893466, "source": "osm", "_tags": {"amenity": "hospital", "name": "Clínica Bofill"}}, {"name": "Hospital Creu Blanca", "latitude": 41.5326468, "longitude": 2.4319885, "source": "osm", "_tags": {"amenity": "hospital", "healthcare": "hospital", "name": "Hospital Creu Blanca", "wheelchair": "yes"}}, {"name": "Mutua", "latitude": 41.6860008, "longitude": 2.4868785, "source": "osm", "_tags": {"amenity": "hospital", "healthcare": "hospital", "name": "Mutua"}}, {"name": "CLINICFISIO Fisioteràpia i Osteopatia", "latitude": 41.5502449, "longitude": 2.0994157, "source": "osm", "_tags": {"addr:city": "Sabadell", "addr:housenumber": "153", "addr:postcode": "08201", "addr:street": "Ronda de Zamenhof", "amenity": "hospital", "email": "clinicfisiosabadell@gmail.com", "healthcare": "hospital", "healthcare:speciality": "physiotherapy;osteopathy;chiropractic", "name": "CLINICFISIO Fisioteràpia i Osteopatia", "opening_hours": "Mo-Su 07:30-21:00", "phone": "+34600417156", "website": "https://fisioterapia-sabadell.com/", "wheelchair": "yes"}}, {"name": "Nau PZ VDD", "latitude": 41.5150376, "longitude": 2.3673134, "source": "osm", "_tags": {"amenity": "hospital", "healthcare": "hospital", "name": "Nau PZ VDD"}}, {"name": "Hospital de Terrassa", "latitude": 41.5567863, "longitude": 2.0527683, "source": "osm", "_tags": {"amenity": "hospital", "building": "yes", "healthcare": "hospital", "layer": "1", "name": "Hospital de Terrassa", "name:ca": "Hospital de Terrassa", "wikidata": "Q30280099"}}, {"name": "Hospital Mútua de Terrassa", "latitude": 41.5638299, "longitude": 2.0171772, "source": "osm", "_tags": {"amenity": "hospital", "building": "hospital", "building:levels": "17", "healthcare": "hospital", "height": "70", "name": "Hospital Mútua de Terrassa", "name:ca": "Hospital Mútua de Terrassa", "wikidata": "Q11938285", "wikipedia": "ca:Mútua de Terrassa"}}, {"name": "Hospital Mútua de Terrassa", "latitude": 41.5649487, "longitude": 2.0175179, "source": "osm", "_tags": {"amenity": "hospital", "building": "hospital", "healthcare": "hospital", "name": "Hospital Mútua de Terrassa", "name:ca": "Hospital Mútua de Terrassa"}}, {"name": "Hospital de Mataró i Maresme", "latitude": 41.5556209, "longitude": 2.4301522, "source": "osm", "_tags": {"amenity": "hospital", "name": "Hospital de Mataró i Maresme", "wheelchair": "yes"}}, {"name": "Hospital Sant Rafael", "latitude": 41.4257913, "longitude": 2.1409654, "source": "osm", "_tags": {"amenity": "hospital", "building": "yes", "healthcare": "hospital", "name": "Hospital Sant Rafael", "name:ca": "Hospital Sant Rafael", "wheelchair": "yes", "wikidata": "Q87761488", "wikimedia_commons": "Category:Hospital Sant Rafael (Barcelona)"}}, {"name": "1- Hospital General Vall d'Hebron", "latitude": 41.4277017, "longitude": 2.1417504, "source": "osm", "_tags": {"building": "hospital", "building:levels": "13,12,5", "building:material": "brick", "emergency": "yes", "healthcare": "hospital", "name": "1- Hospital General Vall d'Hebron", "name:ca": "1- Hospital General Vall d'Hebron", "name:en": "1- General Hospital Vall Hebron", "name:es": "1- Hospital General Vall Hebron", "operator": "Vall hebron", "operator:type": "government", "wheelchair": "yes"}}, {"name": "Hospital de l'Esperit Sant", "latitude": 41.4378737, "longitude": 2.2128933, "source": "osm", "_tags": {"addr:city": "Santa Coloma de Gramenet", "addr:postcode": "08923", "addr:street": "Avinguda de Mossèn Pons i Rabadà", "amenity": "hospital", "emergency": "yes", "healthcare": "hospital", "name": "Hospital de l'Esperit Sant", "name:ca": "Hospital de l'Esperit Sant", "name:es": "Hospital del Espíritu Santo", "nohousenumber": "yes", "phone": "+34933860202", "toilets": "yes", "toilets:access": "yes", "website": "https://www.hospitalesperitsant.com/", "wheelchair": "yes", "wikidata": "Q11946861", "wikimedia_commons": "Category:Sanatori de l'Esperit Sant", "wikipedia": "ca:Sanatori de l'Esperit Sant"}}, {"name": "Hospital Dr. Josep Trueta", "latitude": 41.997625, "longitude": 2.8201258, "source": "osm", "_tags": {"addr:city": "Girona", "addr:postcode": "17007", "addr:street": "Avinguda de França", "amenity": "hospital", "building": "hospital", "emergency": "yes", "healthcare": "hospital", "local_code": "7288", "name": "Hospital Dr. Josep Trueta", "name:ca": "Hospital Dr. Josep Trueta", "network": "Institut Català de la Salut", "network:short": "ICS", "nohousenumber": "yes", "operator:type": "public", "source": "Ajuntament de Girona", "website": "https://icsgirona.cat/", "wikidata": "Q17137112", "wikipedia": "ca:Hospital Universitari de Girona Dr. Josep Trueta"}}, {"name": "Hospital-Asil de Granollers", "latitude": 41.6137875, "longitude": 2.2962584, "source": "osm", "_tags": {"amenity": "hospital", "healthcare": "hospital", "name": "Hospital-Asil de Granollers", "name:ca": "Hospital-Asil de Granollers"}}, {"name": "Hospital General de Catalunya", "latitude": 41.4749104, "longitude": 2.0446332, "source": "osm", "_tags": {"amenity": "hospital", "building": "yes", "check_date": "2024-08-06", "healthcare": "hospital", "height": "30", "name": "Hospital General de Catalunya", "name:ca": "Hospital General de Catalunya", "wheelchair": "yes", "wikidata": "Q27493190", "wikimedia_commons": "Category:Hospital General de Catalunya", "wikipedia": "ca:Hospital General de Catalunya"}}, {"name": "Asepeyo", "latitude": 41.4901025, "longitude": 2.0784329, "source": "osm", "_tags": {"amenity": "hospital", "healthcare": "hospital", "name": "Asepeyo"}}, {"name": "Hospital de Dia Sant Jordi", "latitude": 41.5553252, "longitude": 2.0042708, "source": "osm", "_tags": {"amenity": "hospital", "building": "yes", "name": "Hospital de Dia Sant Jordi", "source": "Bing Sat"}}, {"name": "Hospital Universitari Parc Taulí", "latitude": 41.5570445, "longitude": 2.1110756, "source": "osm", "_tags": {"amenity": "hospital", "emergency": "yes", "healthcare": "hospital", "name": "Hospital Universitari Parc Taulí", "wikidata": "Q17043932", "wikimedia_commons": "Category:Hospital de Sabadell", "wikipedia": "ca:Hospital de Sabadell"}}, {"name": "Hospital de Campdevànol", "latitude": 42.222657, "longitude": 2.1667129, "source": "osm", "_tags": {"amenity": "hospital", "healthcare": "hospital", "name": "Hospital de Campdevànol", "name:ca": "Hospital de Campdevànol", "wikidata": "Q87761772"}}, {"name": "Salus XXI Medical Group", "latitude": 41.4811493, "longitude": 2.0608001, "source": "osm", "_tags": {"addr:housenumber": "22", "addr:postcode": "08174", "addr:street": "Carrer d'Amposta", "amenity": "hospital", "building": "yes", "emergency": "no", "name": "Salus XXI Medical Group", "website": "http://www.salusxxi.com/"}}, {"name": "Hospital de Sant Llàtzer", "latitude": 41.5626134, "longitude": 2.0172054, "source": "osm", "_tags": {"amenity": "hospital", "building": "yes", "name": "Hospital de Sant Llàtzer", "name:ca": "Hospital de Sant Llàtzer", "wikidata": "Q17137107", "wikimedia_commons": "Category:Hospital de Sant Llàtzer", "wikipedia": "ca:Hospital de Sant Llàtzer"}}, {"name": "Clínica Salus Infirmorum", "latitude": 42.1147776, "longitude": 2.761239, "source": "osm", "_tags": {"addr:housenumber": "130", "addr:street": "Passeig de Mossèn Lluís Constans", "amenity": "hospital", "building": "yes", "healthcare": "hospital", "name": "Clínica Salus Infirmorum", "source": "PNOA", "wikidata": "Q87761769"}}, {"name": "Hospital de Mollet", "latitude": 41.5438271, "longitude": 2.2024802, "source": "osm", "_tags": {"amenity": "hospital", "emergency": "yes", "healthcare": "hospital", "name": "Hospital de Mollet", "phone": "+34 935636100", "wikidata": "Q87761521"}}, {"name": "", "latitude": 41.5397306, "longitude": 2.4494063, "source": "osm", "_tags": {"amenity": "hospital", "healthcare": "hospital"}}, {"name": "Hospital de Sant Miquel. Fundació Alba", "latitude": 41.4355012, "longitude": 2.1456184, "source": "osm", "_tags": {"amenity": "hospital", "building": "yes", "name": "Hospital de Sant Miquel. Fundació Alba"}}, {"name": "Hospital Sociosanitari de Mollet", "latitude": 41.5411404, "longitude": 2.2110255, "source": "osm", "_tags": {"addr:housenumber": "39-41", "addr:street": "Carrer de Sant Llorenç", "amenity": "hospital", "building": "hospital", "building:levels": "3", "healthcare": "hospital", "height": "8", "name": "Hospital Sociosanitari de Mollet", "name:es": "hospital sociosanitario de Mollet", "phone": "+34 935636100", "wikidata": "Q87761624"}}, {"name": "Hospital Mútua de Terrassa", "latitude": 41.5637262, "longitude": 2.0165076, "source": "osm", "_tags": {"amenity": "hospital", "building": "hospital", "emergency": "yes", "healthcare": "hospital", "name": "Hospital Mútua de Terrassa", "name:ca": "Hospital Mútua de Terrassa"}}, {"name": "", "latitude": 41.6148387, "longitude": 2.6572204, "source": "osm", "_tags": {"amenity": "hospital", "building": "yes", "emergency": "yes"}}, {"name": "Hospital Comarcal Sant Jaume de Calella", "latitude": 41.6151659, "longitude": 2.6572159, "source": "osm", "_tags": {"addr:city": "Calella", "addr:housenumber": "209", "addr:postcode": "08370", "addr:street": "Carrer de Sant Jaume", "amenity": "hospital", "building:part": "yes", "emergency": "yes", "healthcare": "hospital", "name": "Hospital Comarcal Sant Jaume de Calella", "name:pl": "Szpital regionalny Sant Jaume w Calella"}}, {"name": "8- (CEMCAT) Centre d'Esclerosi Múltiple de Catalunya", "latitude": 41.4292442, "longitude": 2.1388628, "source": "osm", "_tags": {"amenity": "hospital", "building": "yes", "healthcare": "hospital", "name": "8- (CEMCAT) Centre d'Esclerosi Múltiple de Catalunya", "name:ca": "8- (CEMCAT) Centre d'Esclerosi Múltiple de Catalunya", "name:en": "8- (CEMCAT) Multiple Sclerosis Center of Catalonia", "name:es": "8- (CEMCAT) Centro de Esclerosis Múltiple de Cataluña", "operator": "Vall d'Hebron Barcelona Hospital Campus", "operator:type": "public/government", "short_name": "Cemcat", "website": "https://www.cem-cat.org/", "wheelchair": "yes"}}, {"name": "Ambulatorio CAP Nord", "latitude": 41.5720704, "longitude": 2.0832248, "source": "osm", "_tags": {"amenity": "clinic", "healthcare": "hospital", "name": "Ambulatorio CAP Nord"}}, {"name": "2- Hospital Infantil / 3- Hospital de la Dona Vall Hebron", "latitude": 41.4288718, "longitude": 2.1431984, "source": "osm", "_tags": {"building": "hospital", "building:levels": "17", "emergency": "yes", "healthcare": "hospital", "healthcare:speciality": "maternity;child_psychiatry", "name": "2- Hospital Infantil / 3- Hospital de la Dona Vall Hebron", "name:ca": "2- Hospital Infantil / 3- Hospital de la Dona Vall Hebron", "name:en": "2- Children's Hospital / 3- Women's Hospital Vall Hebron", "name:es": "2- Hospital Infantil / 3- Hospital de la Mujer Vall Hebron", "operator": "Vall Hebron Barcelona Hospital Campus", "operator:type": "government", "wheelchair": "yes"}}, {"name": "Hospital Comarcal Sant Jaume", "latitude": 41.6150417, "longitude": 2.6566387, "source": "osm", "_tags": {"amenity": "hospital", "emergency": "yes", "name": "Hospital Comarcal Sant Jaume"}}, {"name": "Hospital Universitari de Vic", "latitude": 41.9369327, "longitude": 2.2601748, "source": "osm", "_tags": {"addr:city": "Vic", "addr:housenumber": "1", "addr:postcode": "08500", "addr:street": "Carrer d'en Francesc Pla \"El Vigatà\"", "amenity": "hospital", "building": "hospital", "building:levels": "10", "check_date": "2024-08-29", "emergency": "yes", "healthcare": "hospital", "name": "Hospital Universitari de Vic", "name:ca": "Hospital Universitari de Vic", "operator": "Consorci Hospitalari de Vic", "phone": "+34 93 889 11 11", "roof:levels": "0", "roof:shape": "flat", "wikidata": "Q30269042"}}, {"name": "Hospital Universitari de la Santa Creu", "latitude": 41.9277345, "longitude": 2.2513565, "source": "osm", "_tags": {"amenity": "hospital", "healthcare": "hospital", "name": "Hospital Universitari de la Santa Creu", "name:ca": "Hospital Universitari de la Santa Creu de Vic", "operator": "Fundació Hospital de la Santa Creu de Vic", "wikidata": "Q11926107", "wikipedia": "ca:Hospital de la Santa Creu de Vic"}}, {"name": "Hospital Municipal de Badalona", "latitude": 41.4507885, "longitude": 2.2456401, "source": "osm", "_tags": {"addr:city": "Badalona", "addr:housenumber": "9-13", "addr:postcode": "08911", "addr:street": "Carrer de la Via Augusta", "amenity": "hospital", "building": "hospital", "building:levels": "6", "building:levels:underground": "1", "building:material": "brick", "emergency": "yes", "name": "Hospital Municipal de Badalona", "name:ca": "Hospital Municipal de Badalona", "operator": "Badalona Serveis Assistencials", "phone": "+34 934648300", "wikidata": "Q20876048", "wikipedia": "ca:Hospital Municipal de Badalona"}}, {"name": "Centre d'Atenció Primària Can Rull", "latitude": 41.5533056, "longitude": 2.0852111, "source": "osm", "_tags": {"amenity": "clinic", "emergency": "no", "healthcare": "hospital", "name": "Centre d'Atenció Primària Can Rull", "short_name": "CAP Can Rull"}}, {"name": "Centre d'Atenció Primària Turó de Can Mates", "latitude": 41.476603, "longitude": 2.0683217, "source": "osm", "_tags": {"amenity": "clinic", "healthcare": "hospital", "name": "Centre d'Atenció Primària Turó de Can Mates", "short_name": "CAP Turó de Can Mates"}}, {"name": "Centre d'Atenció Primària I Ripollet", "latitude": 41.4952846, "longitude": 2.1599689, "source": "osm", "_tags": {"amenity": "clinic", "building": "yes", "healthcare": "hospital", "healthcare:speciality": "general", "name": "Centre d'Atenció Primària I Ripollet", "short_name": "CAP I Ripollet"}}, {"name": "Hospital Sant Jaume de Manlleu", "latitude": 42.002003, "longitude": 2.2874595, "source": "osm", "_tags": {"access": "yes", "amenity": "hospital", "healthcare": "hospital", "name": "Hospital Sant Jaume de Manlleu", "name:ca": "Hospital Sant Jaume de Manlleu", "wikidata": "Q87761513"}}, {"name": "Centre d'Atenció Primària del Barri Cotet", "latitude": 41.4995561, "longitude": 2.3597699, "source": "osm", "_tags": {"amenity": "hospital", "healthcare": "hospital", "name": "Centre d'Atenció Primària del Barri Cotet", "short_name": "CAP del Barri Cotet"}}, {"name": "Centre d'Atenció Primària Arenys de Munt", "latitude": 41.610117, "longitude": 2.538747, "source": "osm", "_tags": {"addr:city": "Arenys de Munt", "addr:postcode": "08358", "addr:street": "Carrer Verge del Remei", "amenity": "hospital", "emergency": "yes", "healthcare": "hospital", "healthcare:speciality": "general", "name": "Centre d'Atenció Primària Arenys de Munt", "nohousenumber": "yes", "opening_hours": "Mo-Fr 08:00-14:00,15:00-20:00", "phone": "+34 93 795 02 41", "short_name": "CAP Arenys de Munt", "wheelchair": "yes"}}, {"name": "Residència Sant Martí - Fundació Vella Terra", "latitude": 41.6099086, "longitude": 2.5399589, "source": "osm", "_tags": {"amenity": "hospital", "emergency": "no", "name": "Residència Sant Martí - Fundació Vella Terra"}}, {"name": "Residència Verge del Remei", "latitude": 41.6079669, "longitude": 2.5399673, "source": "osm", "_tags": {"amenity": "hospital", "emergency": "no", "name": "Residència Verge del Remei", "name:ca": "Residència Verge del Remei"}}, {"name": "Hospital Universitari Vall d'Hebron", "latitude": 41.4280237, "longitude": 2.1408552, "source": "osm", "_tags": {"amenity": "hospital", "emergency": "yes", "healthcare": "hospital", "name": "Hospital Universitari Vall d'Hebron", "name:ca": "Hospital Universitari Vall d'Hebron", "operator": "CatSalut", "operator:type": "public", "wikidata": "Q3826080", "wikimedia_commons": "Category:Hospital Vall d'Hebron", "wikipedia": "ca:Hospital Universitari Vall d'Hebron"}}, {"name": "4- Hospital Traumatología, Rehabilitació Cremats Vall Hebron", "latitude": 41.4273607, "longitude": 2.13983, "source": "osm", "_tags": {"building": "hospital", "building:levels": "10", "emergency": "yes", "healthcare": "hospital", "healthcare:speciality": "traumatologiaortopèdia", "name": "4- Hospital Traumatología, Rehabilitació Cremats Vall Hebron", "name:ca": "4-  Hospital Traumatología, Rehabilitació Cremats Vall Hebron", "name:en": "4- Traumatology Hospital, Rehabilitation, Burns Vall Hebron", "name:es": "4- Hospital Traumatologia, Rehabilitación Quemados Vall Hebron", "operator": "Vall Hebron Barcelona Hospital Campus", "operator:type": "government"}}, {"name": "", "latitude": 41.550229, "longitude": 2.0994876, "source": "osm", "_tags": {"amenity": "hospital", "building:levels": "9", "healthcare": "hospital"}}, {"name": "Centre d'Atenció Primària Est", "latitude": 41.5666427, "longitude": 2.0407648, "source": "osm", "_tags": {"addr:city": "Terrassa", "addr:housenumber": "19", "addr:postcode": "08227", "addr:street": "Carrer de Ciudad Real", "amenity": "hospital", "healthcare": "hospital", "name": "Centre d'Atenció Primària Est", "short_name": "CAP Est"}}, {"name": "Hospital Universitari Germans Trias i Pujol", "latitude": 41.4811794, "longitude": 2.237608, "source": "osm", "_tags": {"addr:city": "Badalona", "addr:postcode": "08916", "addr:street": "Carretera de Canyet", "alt_name": "Hospital de Can Ruti", "amenity": "hospital", "emergency": "yes", "health_facility:type": "hospital", "medical_system:western": "yes", "name": "Hospital Universitari Germans Trias i Pujol", "name:ca": "Hospital Universitari Germans Trias i Pujol", "operator": "Institut Català de la Salut", "website": "http://www.gencat.cat/ics/germanstrias/", "wikidata": "Q17137104", "wikimedia_commons": "Category:Hospital de Can Ruti", "wikipedia": "ca:Hospital Germans Trias i Pujol"}}, {"name": "Institut Guttmann", "latitude": 41.4785368, "longitude": 2.2369638, "source": "osm", "_tags": {"addr:city": "Badalona", "addr:postcode": "08916", "addr:street": "Camí de Can Ruti", "amenity": "hospital", "emergency": "no", "healthcare": "hospital", "healthcare:speciality": "neurology", "internet_access": "wlan", "name": "Institut Guttmann", "name:ca": "Institut Guttmann", "nohousenumber": "yes", "wikidata": "Q2037791", "wikimedia_commons": "Category:Institut Guttmann", "wikipedia": "ca:Institut Guttmann"}}, {"name": "Residència disminuits psíquics profunds Can Ruti", "latitude": 41.4757582, "longitude": 2.238925, "source": "osm", "_tags": {"amenity": "hospital", "healthcare": "hospital", "name": "Residència disminuits psíquics profunds Can Ruti"}}, {"name": "Clinique Soleil Cerdan", "latitude": 42.4159709, "longitude": 1.9758539, "source": "osm", "_tags": {"addr:city": "Osséja", "addr:housenumber": "21", "addr:postcode": "66340", "addr:street": "Avenue du Docteur Cunnac", "amenity": "hospital", "healthcare": "hospital", "name": "Clinique Soleil Cerdan", "operator": "EMEIS"}}, {"name": "Clinique du Soffle La Solane", "latitude": 42.4194626, "longitude": 1.9807126, "source": "osm", "_tags": {"addr:city": "Osséja", "addr:housenumber": "19", "addr:postcode": "66340", "addr:street": "Rue des Casteillets", "amenity": "hospital", "healthcare": "hospital", "name": "Clinique du Soffle La Solane", "operator": "Inicea"}}, {"name": "Clinique Sensevia", "latitude": 42.4171003, "longitude": 1.9748558, "source": "osm", "_tags": {"addr:city": "Osséja", "addr:housenumber": "22", "addr:postcode": "66340", "addr:street": "Rue des Jardins", "amenity": "hospital", "healthcare": "hospital", "name": "Clinique Sensevia", "operator": "EMEIS"}}, {"name": "Hospital de Santa Caterina", "latitude": 41.9695703, "longitude": 2.7970654, "source": "osm", "_tags": {"amenity": "hospital", "building": "hospital", "building:colour": "gray", "building:levels": "2", "emergency": "yes", "healthcare": "hospital", "name": "Hospital de Santa Caterina", "name:ca": "Hospital de Santa Caterina", "network": "Institut Català de la Salut", "network:short": "ICS", "operator:type": "public", "type": "multipolygon", "wikidata": "Q21192855", "wikipedia": "ca:Hospital de Santa Caterina (Salt)"}}, {"name": "Parc hospitalari Martí i Julià", "latitude": 41.9705243, "longitude": 2.7965972, "source": "osm", "_tags": {"amenity": "hospital", "healthcare": "hospital", "loc_name": "Hospital de Salt", "name": "Parc hospitalari Martí i Julià", "name:ca": "Parc hospitalari Martí i Julià", "type": "multipolygon"}}, {"name": "Hospital de Sant Celoni - Baix Montseny", "latitude": 41.687856, "longitude": 2.4858797, "source": "osm", "_tags": {"addr:city": "Sant Celoni", "addr:housenumber": "19", "addr:postcode": "08470", "addr:street": "Avinguda de l'Hospital", "amenity": "hospital", "building": "yes", "emergency": "yes", "healthcare": "hospital", "name": "Hospital de Sant Celoni - Baix Montseny", "type": "multipolygon", "wheelchair": "yes"}}, {"name": "Clínica Girona", "latitude": 41.9636051, "longitude": 2.8113062, "source": "osm", "_tags": {"addr:street": "Carrer de Barcelona", "amenity": "hospital", "contact:phone": "+34 972 010 300", "contact:website": "https://clinicagirona.cat/", "healthcare": "hospital", "name": "Clínica Girona", "name:ca": "Clínica Girona", "name:es": "Clinica Girona", "type": "multipolygon", "wikidata": "Q30266991", "wikipedia": "ca:Clínica Girona"}}, {"name": "La República", "latitude": 41.9694152, "longitude": 2.7952861, "source": "osm", "_tags": {"amenity": "hospital", "building": "yes", "name": "La República", "type": "multipolygon"}}]