[{"name": "Dom zdravlja Cetinje", "latitude": 42.389641, "longitude": 18.9274974, "source": "osm", "_tags": {"amenity": "hospital", "check_date": "2024-04-11", "healthcare": "hospital", "name": "Dom zdravlja Cetinje", "name:sr": "Дом здравља Цетиње", "wheelchair": "yes"}}, {"name": "Bolnica \"Danilo I\"", "latitude": 42.3887994, "longitude": 18.9284174, "source": "osm", "_tags": {"addr:city": "Cetinje", "amenity": "hospital", "building": "yes", "check_date": "2024-04-11", "emergency": "yes", "healthcare": "hospital", "name": "Bolnica \"Danilo I\"", "name:sr": "Болница Дамило I"}}, {"name": "Dom zdravlja", "latitude": 42.2896995, "longitude": 18.8402364, "source": "osm", "_tags": {"addr:street": "Popa Jola Zeca", "amenity": "hospital", "building": "hospital", "building:colour": "white", "building:levels": "2", "contact:facebook": "https://www.facebook.com/domzdravljabudva", "contact:instagram": "https://www.instagram.com/domzdravljabudva/?hl=en", "direction": "https://www.google.com/maps/place/Budva+Health+Centre/data=!4m2!3m1!1s0x0:0xb49fb888910a7f8a?sa=X&ved=1t:2428&ictx=111", "ele": "2", "healthcare": "hospital", "height": "7.60", "image": "https://encrypted-tbn0.gstatic.com/images?q=tbn:ANd9GcSX5ASIgB4WiQsAZPPKHpHBosPq7haJyQxQOA&s", "mobile": "033 - 427/200", "name": "Dom zdravlja", "name:sr": "Дом здравља", "opening_hours": "19:00-21:00", "website": "https://www.dzbudva.me/"}}, {"name": "Opšta bolnica Kotor", "latitude": 42.4207814, "longitude": 18.7635779, "source": "osm", "_tags": {"addr:city": "Kotor", "addr:postcode": "85330", "addr:street": "Škaljari", "amenity": "hospital", "emergency": "yes", "healthcare": "hospital", "name": "Opšta bolnica Kotor", "name:sr": "Општа болница Котор", "name:sr-Latn": "Opšta bolnica Kotor"}}]