[{"name": "Clinique de l'Ospedale", "latitude": 41.5986994, "longitude": 9.2769934, "source": "osm", "_tags": {"amenity": "hospital", "emergency": "yes", "fax": "+33 4 95 70 15 54", "healthcare": "hospital", "landuse": "healthcare", "name": "Clinique de l'Ospedale", "operator:type": "private", "phone": "+33 4 95 73 80 00", "ref:FR:FINESS": "2A0000154", "type:FR:FINESS": "365", "website": "https://www.cliniqueospedale.com/"}}, {"name": "Centre Hospitalier Intercommunal Corte Tattone", "latitude": 42.3018545, "longitude": 9.1543195, "source": "osm", "_tags": {"amenity": "hospital", "email": "direction@chi-corte-tattone.fr", "fax": "+33 4 95 45 05 08", "healthcare": "yes", "name": "Centre Hospitalier Intercommunal Corte Tattone", "phone": "+33 4 95 45 05 00", "ref:FR:FINESS": "2B0000038", "type:FR:FINESS": "355", "website": "https://www.chi-corte-tattone.fr/"}}, {"name": "Centre d'Imagerie De La Plaine Orientale", "latitude": 41.9914148, "longitude": 9.4013783, "source": "osm", "_tags": {"addr:city": "Prunelli-di-Fiumorbu", "addr:postcode": "20243", "addr:street": "Marfisola", "amenity": "hospital", "healthcare": "hospital", "healthcare:speciality": "diagnostic_radiology", "name": "Centre d'Imagerie De La Plaine Orientale", "payment:credit_cards": "yes", "payment:visa": "yes", "phone": "04 95 56 53 50", "website": "https://cim-albizzias.com/contact/", "wheelchair": "yes"}}]