[{"name": "Fundació Sant Hospital", "latitude": 42.3548545, "longitude": 1.4609585, "source": "osm", "_tags": {"addr:city": "La Seu d'Urgell", "addr:full": "Passeig Joan Brudieu 8. 25700 La Seu d'Urgell (Lleida)", "addr:housenumber": "8", "addr:postcode": "25700", "addr:street": "Passeig Joan Brudieu", "amenity": "hospital", "email": "hospital@fsh.cat", "healthcare": "hospital", "name": "Fundació Sant Hospital", "name:ca": "Fundació Sant Hospital", "phone": "+34 973 35 00 50", "website": "http://www.fsh.cat/", "wikidata": "Q11923281", "wikipedia": "ca:Fundació Sant Hospital de la Seu d'Urgell"}}, {"name": "Centre mèdic N25", "latitude": 41.7228705, "longitude": 1.8425474, "source": "osm", "_tags": {"addr:city": "Manresa", "addr:housenumber": "6", "addr:postcode": "08243", "addr:street": "Carrer de Joan Fuster", "amenity": "hospital", "email": "info@n25.es", "emergency": "no", "healthcare": "hospital", "healthcare:speciality": "certificados_médicos;certificats_mèdics;revisió_mèdica_carnet_de_conduir;revisión_médica_carnet_de_conducir", "image": "https://www.n25.es/wp-content/uploads/2019/10/LogoN25normBlanco.png", "mobile": "+ 34 654246103", "name": "Centre mèdic N25", "opening_hours": "Mo-Sa 09:00-14:00", "payment:cash": "yes", "payment:coins": "yes", "payment:contactless": "yes", "payment:credit_cards": "yes", "payment:debit_cards": "yes", "payment:mastercard": "yes", "payment:visa": "yes", "phone": "93 874 17 44", "website": "https://www.n25.es", "wheelchair": "yes"}}, {"name": "Unitat d'Hospitalització de la FSSJ", "latitude": 41.5826044, "longitude": 1.6187203, "source": "osm", "_tags": {"addr:city": "Igualada", "addr:housenumber": "54", "addr:postcode": "08700", "addr:street": "Carrer de Carme Verdaguer", "amenity": "hospital", "check_date": "2024-10-10", "description": "Unitats d’atenció geriàtrica i sociosanitària per a persones amb malaltia crònica que necessiten cures continuades, amb gran dependència i / o problemàtica familiar.\nTambé disposa d’una unitat psicogeriàtrica per a malalts d’Alzheimer o altres demències.", "email": "info@fssj.es", "emergency": "yes", "healthcare": "hospital", "healthcare:speciality": "geriatrics;physiatry;physiotherapy;psychiatry", "name": "Unitat d'Hospitalització de la FSSJ", "name:ca": "Unitat d'Hospitalització de la FSSJ", "operator": "Fundació Sanitària Sant Josep", "operator:type": "public/government", "phone": "+34 938 032 650", "website": "https://fssj.es/services/unitats-dhospitalitzacio/", "wheelchair": "yes"}}, {"name": "Hospital Neuropsiquiàtric Sagrat Cor", "latitude": 41.4946006, "longitude": 1.9095689, "source": "osm", "_tags": {"amenity": "hospital", "name": "Hospital Neuropsiquiàtric Sagrat Cor"}}, {"name": "Hospital Sant Bernabé", "latitude": 42.1066474, "longitude": 1.8521532, "source": "osm", "_tags": {"addr:city": "Berga", "addr:postcode": "08600", "addr:street": "Carretera de Ribes", "amenity": "hospital", "building": "yes", "emergency": "yes", "healthcare": "hospital", "name": "Hospital Sant Bernabé", "name:ca": "Hospital Sant Bernabé", "network": "Institut Catalá de la Salut", "network:short": "ICS", "nohousenumber": "yes", "operator:type": "public", "phone": "+34 938243400", "wikidata": "Q42155502", "wikipedia": "ca:Hospital Sant Bernabé"}}, {"name": "Centre d'Atenció Primària Tuixent", "latitude": 42.231724, "longitude": 1.5672329, "source": "osm", "_tags": {"amenity": "hospital", "emergency": "yes", "healthcare": "hospital", "healthcare:speciality": "medicina_familiar_i_comunitariamedicina_general", "name": "Centre d'Atenció Primària Tuixent", "short_name": "CAP Tuixent", "wheelchair": "yes"}}, {"name": "Sant Joan de Déu", "latitude": 41.4717117, "longitude": 1.9203655, "source": "osm", "_tags": {"addr:city": "Martorell", "addr:housenumber": "1-3", "addr:postcode": "08760", "addr:street": "Avinguda de les Mancomunitats Comarcals", "amenity": "hospital", "check_date": "2024-08-06", "healthcare": "hospital", "name": "Sant Joan de Déu", "name:ca": "Sant Joan de Déu", "phone": "+34 93 774 20 20", "website": "https://fhsjdm.cat/", "wikidata": "Q87761519", "wikipedia": "ca:Hospital Sant Joan de Déu de Martorell"}}, {"name": "Hospital Universitari d'Igualada", "latitude": 41.5886921, "longitude": 1.6200718, "source": "osm", "_tags": {"amenity": "hospital", "emergency": "yes", "healthcare": "hospital", "name": "Hospital Universitari d'Igualada", "operator": "Consorci Sanitri de l'Anoia", "operator:type": "public/government", "wikidata": "Q42148568", "wikipedia": "ca:Hospital Universitari d'Igualada"}}, {"name": "Clínica Sant Josep", "latitude": 41.722664, "longitude": 1.8324917, "source": "osm", "_tags": {"amenity": "hospital", "healthcare": "hospital", "name": "Clínica Sant Josep", "name:ca": "Clínica Sant Josep", "operator": "Althaia", "wikidata": "Q42149753", "wikipedia": "ca:Clínica Sant Josep de Manresa"}}, {"name": "Consultori local de Ger", "latitude": 42.410708, "longitude": 1.8455946, "source": "osm", "_tags": {"addr:city": "Ger", "addr:housenumber": "2", "addr:postcode": "17539", "addr:street": "Carrer del Rec", "amenity": "hospital", "emergency": "no", "healthcare": "centre", "name": "Consultori local de Ger", "operator": "CATSALUT", "operator:type": "public/government"}}, {"name": "Hospital Sant Joan de Déu de Manresa", "latitude": 41.7206577, "longitude": 1.8377411, "source": "osm", "_tags": {"amenity": "hospital", "emergency": "yes", "name": "Hospital Sant Joan de Déu de Manresa", "name:ca": "Hospital Sant Joan de Déu de Manresa", "type": "multipolygon", "wikidata": "Q42907531", "wikipedia": "ca:Hospital de Sant Joan de Déu de Manresa"}}]