[{"name": "Стоматология", "latitude": 41.5766087, "longitude": 24.7071675, "source": "osm", "_tags": {"amenity": "hospital", "healthcare": "hospital", "name": "Стоматология", "name:en": "Stomatology"}}, {"name": "2-ро ДКЦ", "latitude": 42.1478223, "longitude": 24.7328545, "source": "osm", "_tags": {"amenity": "hospital", "check_date": "2025-06-19", "emergency": "yes", "healthcare": "hospital", "name": "2-ро ДКЦ", "toilets:wheelchair": "yes", "wheelchair": "yes"}}, {"name": "ДКЦ Свети Георги", "latitude": 42.1394325, "longitude": 24.736981, "source": "osm", "_tags": {"amenity": "hospital", "healthcare": "hospital", "name": "ДКЦ Свети Георги", "wheelchair": "yes"}}, {"name": "Торакс", "latitude": 42.1508178, "longitude": 24.7432272, "source": "osm", "_tags": {"amenity": "hospital", "healthcare": "hospital", "name": "Торакс", "wheelchair": "yes"}}, {"name": "", "latitude": 42.3543232, "longitude": 24.730613, "source": "osm", "_tags": {"amenity": "hospital"}}, {"name": "4D Medical Д-р Троянчев Фетална морфология", "latitude": 42.1490659, "longitude": 24.7501551, "source": "osm", "_tags": {"amenity": "hospital", "emergency": "yes", "name": "4D Medical Д-р Троянчев Фетална морфология"}}, {"name": "МБАЛ Св. Каридад", "latitude": 42.122214, "longitude": 24.7466939, "source": "osm", "_tags": {"amenity": "hospital", "name": "МБАЛ Св. Каридад"}}, {"name": "НАМЛИЕВ - ДЕНТАЛ ЕООД", "latitude": 42.1453188, "longitude": 24.7657531, "source": "osm", "_tags": {"addr:city": "Пловдив", "addr:housenumber": "4", "addr:street": "Братя Свещарови", "amenity": "hospital", "description": "Стоматологичен кабинет Д-р Намлиев приемане по спешност", "emergency": "yes", "name": "НАМЛИЕВ - ДЕНТАЛ ЕООД"}}, {"name": "Поликлиника", "latitude": 41.9885907, "longitude": 24.0922715, "source": "osm", "_tags": {"addr:housenumber": "5", "addr:postcode": "4640", "addr:street": "Георги Георгиев", "amenity": "hospital", "healthcare": "hospital", "name": "Поликлиника"}}, {"name": "", "latitude": 41.7261502, "longitude": 24.6845689, "source": "osm", "_tags": {"amenity": "hospital", "healthcare": "hospital"}}, {"name": "Д-р Димитър А. Йончев", "latitude": 42.1366309, "longitude": 24.7427265, "source": "osm", "_tags": {"addr:city": "Пловдив", "addr:housenumber": "78", "addr:street": "Иван Вазов", "amenity": "hospital", "description": "Специализиран АГ кабинет с екип д-р Димитър Йончев и д-р Бонка Йончева Д-р Йончев е Началник на Отделение по Акушерство и гинекология към УМБАЛ \"Пловдив\" АД гр. Пловдив.", "healthcare": "hospital", "name": "Д-р Димитър А. Йончев", "phone": "+359 32 627 140"}}, {"name": "", "latitude": 42.1375514, "longitude": 24.5343262, "source": "osm", "_tags": {"addr:city": "Стамболийски", "addr:postcode": "4210", "amenity": "hospital", "healthcare": "hospital"}}, {"name": "Ортодонт Д-р Стоянка Ангелова", "latitude": 42.1867177, "longitude": 24.3242836, "source": "osm", "_tags": {"addr:city": "Пазарджик", "addr:housenumber": "60", "addr:street": "бул. България", "amenity": "hospital", "description": "Д-р Стоянка Ангелова е специалист по обща дентална медицина и има 40 години стаж в областта на ортодонтията.", "healthcare": "hospital", "name": "Ортодонт Д-р Стоянка Ангелова", "phone": "+359 88 990 9748", "website": "http://zdravenportal.com/%D0%B4-%D1%80-%D1%81%D1%82%D0%BE%D1%8F%D0%BD%D0%BA%D0%B0-%D0%B0%D0%BD%D0%B3%D0%B5%D0%BB%D0%BE%D0%B2%D0%B0-%D0%BE%D1%80%D1%82%D0%BE%D0%B4%D0%BE%D0%BD%D1%82-%D0%B3%D1%80-%D0%BF%D0%B0%D0%B7%D0%B0"}}, {"name": "СБАЛ Св,Анна", "latitude": 42.1201335, "longitude": 24.7309866, "source": "osm", "_tags": {"addr:city": "Пловдив", "addr:postcode": "4004", "amenity": "hospital", "healthcare": "hospital", "name": "СБАЛ Св,Анна"}}, {"name": "Раредис", "latitude": 42.1299421, "longitude": 24.7811222, "source": "osm", "_tags": {"amenity": "hospital", "healthcare": "hospital", "name": "Раредис", "website": "https://medical.raredis.org/"}}, {"name": "МЦ \"Димед\"", "latitude": 42.1343719, "longitude": 24.7925109, "source": "osm", "_tags": {"amenity": "hospital", "emergency": "no", "name": "МЦ \"Димед\"", "phone": "+359 32 294 936", "website": "http://www.dimed.org"}}, {"name": "Д-р Юрий Асенов - Пластичен Хирург", "latitude": 42.150767, "longitude": 24.7432498, "source": "osm", "_tags": {"addr:city": "Пловдив", "addr:housenumber": "5", "addr:street": "Димитър Цончев", "amenity": "hospital", "description": "Д-р Юрий Асенов има 26 годишен трудов стаж, от които 21 години (1990 – 2011г.), посветени на пластичната хирургия. Завършил през 1984г. “Медицина” в Пловдивския медицинки институт.", "healthcare": "hospital", "name": "Д-р Юрий Асенов - Пластичен Хирург", "phone": "+359 88 820 4506", "website": "https://dr-asenov.business.site/"}}, {"name": "Еврохоспитал", "latitude": 42.111024, "longitude": 24.7094697, "source": "osm", "_tags": {"amenity": "hospital", "name": "Еврохоспитал"}}, {"name": "Работническа поликлиника", "latitude": 41.8331847, "longitude": 24.8261605, "source": "osm", "_tags": {"amenity": "hospital", "name": "Работническа поликлиника"}}, {"name": "ВМА МБАЛ Пловдив (Военна болница)", "latitude": 42.1369077, "longitude": 24.757087, "source": "osm", "_tags": {"amenity": "hospital", "name": "ВМА МБАЛ Пловдив (Военна болница)", "wheelchair": "yes"}}, {"name": "5-то ДКЦ", "latitude": 42.132311, "longitude": 24.7938387, "source": "osm", "_tags": {"amenity": "hospital", "building": "yes", "name": "5-то ДКЦ"}}, {"name": "", "latitude": 42.1474302, "longitude": 24.7907124, "source": "osm", "_tags": {"amenity": "hospital"}}, {"name": "Медицински университет", "latitude": 42.1383914, "longitude": 24.7361796, "source": "osm", "_tags": {"amenity": "hospital", "healthcare": "hospital", "name": "Медицински университет"}}, {"name": "4 ДКЦ", "latitude": 42.1303897, "longitude": 24.7147963, "source": "osm", "_tags": {"addr:city": "Пловдив", "amenity": "hospital", "healthcare": "hospital", "name": "4 ДКЦ"}}, {"name": "МБАЛ Свети Мина", "latitude": 42.1363792, "longitude": 24.7430579, "source": "osm", "_tags": {"amenity": "hospital", "building": "yes", "emergency": "no", "healthcare": "hospital", "name": "МБАЛ Свети Мина"}}, {"name": "Хигия", "latitude": 42.1899955, "longitude": 24.3331086, "source": "osm", "_tags": {"amenity": "hospital", "building": "yes", "emergency": "no", "healthcare": "hospital", "name": "Хигия", "wheelchair": "limited"}}, {"name": "3 ДКЦ", "latitude": 42.1685472, "longitude": 24.7465751, "source": "osm", "_tags": {"amenity": "hospital", "name": "3 ДКЦ"}}, {"name": "Св. Пантелеймон", "latitude": 42.1215474, "longitude": 24.7502027, "source": "osm", "_tags": {"amenity": "hospital", "building": "yes", "name": "Св. Пантелеймон"}}, {"name": "", "latitude": 42.1578619, "longitude": 24.3101332, "source": "osm", "_tags": {"amenity": "hospital", "building": "yes"}}, {"name": "Медицински център", "latitude": 42.1392986, "longitude": 24.7396351, "source": "osm", "_tags": {"amenity": "hospital", "building": "yes", "healthcare": "hospital", "name": "Медицински център"}}, {"name": "Бивш ДКЦ 6", "latitude": 42.1399181, "longitude": 24.7408311, "source": "osm", "_tags": {"abandoned:building": "yes", "amenity": "hospital", "building": "yes", "healthcare": "hospital", "name": "Бивш ДКЦ 6"}}, {"name": "МБАЛ \"Света Екатерина\"", "latitude": 42.2014835, "longitude": 24.338083, "source": "osm", "_tags": {"amenity": "hospital", "emergency": "no", "healthcare": "hospital", "name": "МБАЛ \"Света Екатерина\"", "name:bg": "МБАЛ \"Света Екатерина\"", "wheelchair": "yes"}}, {"name": "", "latitude": 42.184028, "longitude": 24.3419635, "source": "osm", "_tags": {"amenity": "hospital", "fenced": "yes", "healthcare": "hospital", "wheelchair": "limited"}}, {"name": "МБАЛ Central", "latitude": 42.1381856, "longitude": 24.7396883, "source": "osm", "_tags": {"amenity": "hospital", "building": "yes", "name": "МБАЛ Central"}}, {"name": "Medline", "latitude": 42.1384351, "longitude": 24.7398842, "source": "osm", "_tags": {"amenity": "hospital", "building": "yes", "name": "Medline", "website": "http://sindbad-bg.com"}}, {"name": "Св. Иван Рилски", "latitude": 42.1679555, "longitude": 24.7480186, "source": "osm", "_tags": {"amenity": "hospital", "building": "yes", "emergency": "yes", "name": "Св. Иван Рилски"}}, {"name": "Диспансер за психични заболявания със стационар", "latitude": 41.5721173, "longitude": 24.7859778, "source": "osm", "_tags": {"addr:housenumber": "12", "addr:street": "Хаджи Христо Попгеоргиев", "amenity": "hospital", "building": "yes", "name": "Диспансер за психични заболявания със стационар", "note": "+359301640 50 +359301645 56", "phone": "+359 301 64 366"}}, {"name": "", "latitude": 41.5720773, "longitude": 24.7864172, "source": "osm", "_tags": {"amenity": "hospital", "building": "yes"}}, {"name": "Dr Georgi Nichev", "latitude": 42.0321794, "longitude": 24.3040286, "source": "osm", "_tags": {"addr:city": "Пещера", "addr:housenumber": "6a", "addr:postcode": "4550", "addr:street": "Георги Кьосеиванов", "amenity": "hospital", "currency:XBT": "yes", "healthcare": "hospital", "healthcare:speciality": "dentistry", "name": "Dr Georgi Nichev", "payment:lightning": "yes", "survey:date": "2025-07-28"}}, {"name": "МБАЛ проф.Димитър Ранев", "latitude": 42.038547, "longitude": 24.3108451, "source": "osm", "_tags": {"amenity": "hospital", "name": "МБАЛ проф.Димитър Ранев"}}, {"name": "", "latitude": 42.0302566, "longitude": 24.3007459, "source": "osm", "_tags": {"amenity": "hospital", "building": "yes", "emergency": "yes"}}, {"name": "СБАЛ АГ „Селена“", "latitude": 42.1346595, "longitude": 24.7094693, "source": "osm", "_tags": {"amenity": "hospital", "building": "yes", "name": "СБАЛ АГ „Селена“"}}, {"name": "УМБАЛ \"Каспела\"", "latitude": 42.130192, "longitude": 24.7160025, "source": "osm", "_tags": {"amenity": "hospital", "building": "hospital", "name": "УМБАЛ \"Каспела\""}}, {"name": "Областен диспансер за кожно-венерически заболявания", "latitude": 42.1307964, "longitude": 24.7467157, "source": "osm", "_tags": {"alt_name": "ОДКВЗС Пловдив", "amenity": "hospital", "name": "Областен диспансер за кожно-венерически заболявания"}}, {"name": "АГ \"Весела\"", "latitude": 42.1540276, "longitude": 24.756002, "source": "osm", "_tags": {"amenity": "hospital", "building": "yes", "name": "АГ \"Весела\"", "url": "www.agvesela.com"}}, {"name": "МБАЛ Асеновград", "latitude": 42.016018, "longitude": 24.8803741, "source": "osm", "_tags": {"amenity": "hospital", "healthcare": "hospital", "name": "МБАЛ Асеновград"}}, {"name": "МБАЛ \"Д-р Братан Шукеров\"", "latitude": 41.5734434, "longitude": 24.7187479, "source": "osm", "_tags": {"addr:city": "Смолян", "addr:housenumber": "2", "addr:postcode": "4700", "addr:street": "бул. България", "amenity": "hospital", "emergency": "yes", "healthcare": "hospital", "name": "МБАЛ \"Д-р Братан Шукеров\"", "phone": "+359 301 62 666", "website": "http://www.mbal-smolyan.com/"}}, {"name": "Регионална ветиранаро медицинска служба", "latitude": 41.570429, "longitude": 24.7569291, "source": "osm", "_tags": {"amenity": "hospital", "name": "Регионална ветиранаро медицинска служба"}}, {"name": "", "latitude": 42.0484041, "longitude": 24.4685591, "source": "osm", "_tags": {"amenity": "hospital", "building": "yes"}}, {"name": "", "latitude": 42.1363111, "longitude": 24.7116476, "source": "osm", "_tags": {"amenity": "hospital", "healthcare": "hospital"}}, {"name": "", "latitude": 42.0997554, "longitude": 24.7616214, "source": "osm", "_tags": {"addr:housenumber": "52", "addr:street": "Кукленско шосе", "amenity": "hospital", "building": "yes", "phone": "+359 89 998 3564", "website": "http://www.eurohospital.bg/"}}, {"name": "УМБАЛ Пълмед", "latitude": 42.1384001, "longitude": 24.7174627, "source": "osm", "_tags": {"addr:city": "Пловдив", "addr:housenumber": "1", "addr:postcode": "4000", "addr:street": "Перущица", "amenity": "hospital", "healthcare": "hospital", "layer": "1", "name": "УМБАЛ Пълмед", "name:en": "University Hospital \"Pulmed\"", "operator": "о", "operator:type": "private", "phone": "+359 32 607 300", "website": "https://www.hospitalpulmed.bg/"}}, {"name": "МБАЛ \"Пловдив\"", "latitude": 42.1583871, "longitude": 24.7175766, "source": "osm", "_tags": {"amenity": "hospital", "healthcare": "hospital", "name": "МБАЛ \"Пловдив\""}}, {"name": "МБАЛ Велинград", "latitude": 42.0190069, "longitude": 23.9873806, "source": "osm", "_tags": {"amenity": "hospital", "healthcare": "hospital", "name": "МБАЛ Велинград"}}, {"name": "МБАЛ \"Здраве\"", "latitude": 42.0195068, "longitude": 23.9882081, "source": "osm", "_tags": {"amenity": "hospital", "healthcare": "hospital", "name": "МБАЛ \"Здраве\"", "website": "https://www.hospitalvelingrad.bg"}}, {"name": "МБАЛ \"Проф. Константин Чилов\"", "latitude": 41.5028772, "longitude": 24.9385734, "source": "osm", "_tags": {"amenity": "hospital", "healthcare": "hospital", "name": "МБАЛ \"Проф. Константин Чилов\""}}, {"name": "", "latitude": 41.5765624, "longitude": 24.7068849, "source": "osm", "_tags": {"amenity": "hospital", "healthcare": "hospital"}}, {"name": "", "latitude": 42.0321005, "longitude": 23.964733, "source": "osm", "_tags": {"amenity": "hospital", "healthcare": "hospital"}}, {"name": "МТБ Пловдив", "latitude": 42.1267822, "longitude": 24.7170344, "source": "osm", "_tags": {"amenity": "hospital", "healthcare": "hospital", "name": "МТБ Пловдив", "name:ru": "Многопрофильная транспортная больница"}}, {"name": "", "latitude": 41.5869553, "longitude": 24.0261865, "source": "osm", "_tags": {"amenity": "hospital", "healthcare": "hospital"}}, {"name": "Здраве", "latitude": 42.1907951, "longitude": 24.3233345, "source": "osm", "_tags": {"amenity": "hospital", "building": "public", "emergency": "no", "healthcare": "hospital", "name": "Здраве", "type": "multipolygon"}}, {"name": "ДКЦ 1", "latitude": 42.1450698, "longitude": 24.7533721, "source": "osm", "_tags": {"amenity": "hospital", "building": "yes", "building:levels": "4", "name": "ДКЦ 1", "type": "multipolygon"}}, {"name": "УМБАЛ Свети Георги", "latitude": 42.1383199, "longitude": 24.7130769, "source": "osm", "_tags": {"addr:city": "Пловдив", "addr:housenumber": "66", "addr:street": "бул. Пещерско шосе", "amenity": "hospital", "emergency": "yes", "healthcare": "hospital", "name": "УМБАЛ Свети Георги", "name:en": "University Hospital \"St George\"", "phone": "+359 32 602 211", "type": "multipolygon", "website": "https://www.unihosp.com/", "wheelchair": "yes"}}]