[{"name": "Eye Center VIZIA", "latitude": 42.006422, "longitude": 21.3825263, "source": "osm", "_tags": {"amenity": "hospital", "healthcare": "hospital", "healthcare:speciality": "ophthalmology", "name": "Eye Center VIZIA"}}, {"name": "", "latitude": 42.0374713, "longitude": 21.4252136, "source": "osm", "_tags": {"amenity": "hospital"}}, {"name": "Ambulanca e Fshatit", "latitude": 42.3239009, "longitude": 21.295711, "source": "osm", "_tags": {"addr:city": "VITI", "addr:street": "Sadovina e Jerlive", "amenity": "hospital", "emergency": "yes", "name": "Ambulanca e Fshatit"}}, {"name": "", "latitude": 42.3555513, "longitude": 21.7462104, "source": "osm", "_tags": {"amenity": "hospital"}}, {"name": "", "latitude": 42.3116526, "longitude": 21.6512568, "source": "osm", "_tags": {"amenity": "hospital", "name:sq": "Ordinanca Stomatologjike \"DODAdent\""}}, {"name": "", "latitude": 42.3005489, "longitude": 21.6809864, "source": "osm", "_tags": {"amenity": "hospital"}}, {"name": "", "latitude": 42.0080827, "longitude": 21.338885, "source": "osm", "_tags": {"amenity": "hospital"}}, {"name": "", "latitude": 42.007708, "longitude": 21.3381661, "source": "osm", "_tags": {"amenity": "hospital"}}, {"name": "", "latitude": 42.0087603, "longitude": 21.3394643, "source": "osm", "_tags": {"amenity": "hospital"}}, {"name": "Болница за зависности", "latitude": 41.9703449, "longitude": 21.442001, "source": "osm", "_tags": {"amenity": "hospital", "name": "Болница за зависности"}}, {"name": "", "latitude": 41.986065, "longitude": 21.4331367, "source": "osm", "_tags": {"amenity": "hospital"}}, {"name": "Манолеви", "latitude": 42.0601589, "longitude": 21.4501059, "source": "osm", "_tags": {"amenity": "hospital", "healthcare": "hospital", "name": "Манолеви"}}, {"name": "Poliklinika \"Goce Delcev\"", "latitude": 42.1197425, "longitude": 21.7343791, "source": "osm", "_tags": {"amenity": "hospital", "name": "Poliklinika \"Goce Delcev\""}}, {"name": "Центар за ментално здравје", "latitude": 42.0009982, "longitude": 21.4128098, "source": "osm", "_tags": {"addr:city": "Cкoпje", "addr:postcode": "1000", "addr:street": "Булевар Партизански Одреди", "amenity": "hospital", "healthcare": "hospital", "name": "Центар за ментално здравје", "name:en": "Center for mental health", "operator": "Министерство за здравство"}}, {"name": "ПЗУ „Д-р Горица“", "latitude": 42.0010726, "longitude": 21.4130411, "source": "osm", "_tags": {"addr:city": "Cкoпje", "addr:postcode": "1000", "addr:street": "Булевар Партизански Одреди", "amenity": "hospital", "name": "ПЗУ „Д-р Горица“", "name:en": "PZU \"D-r Gorica\""}}, {"name": "Неуромедика", "latitude": 42.0005964, "longitude": 21.4145316, "source": "osm", "_tags": {"amenity": "hospital", "name": "Неуромедика", "name:en": "Neuromedika"}}, {"name": "Медика Центар", "latitude": 42.0179859, "longitude": 21.3825697, "source": "osm", "_tags": {"addr:housenumber": "10", "addr:postcode": "1000", "addr:street": "Skupi22", "amenity": "hospital", "email": "medikacentar@yahoo.com", "internet_access": "wlan", "name": "Медика Центар", "name:en": "Medica Centar", "name:mk": "Медика Центар", "opening_hours": "24/7", "phone": "+38970206097"}}, {"name": "ONE Hospital - Tetovo", "latitude": 42.0030792, "longitude": 20.9773702, "source": "osm", "_tags": {"addr:housenumber": "1-1/3", "addr:postcode": "1200", "addr:street": "Видое Смилевски Бато", "amenity": "hospital", "emergency": "yes", "healthcare": "hospital", "healthcare:speciality": "general", "name": "ONE Hospital - Tetovo", "name:en": "ONE Hospital - Tetovo", "name:mk": "ОНЕ Хоспитал - Тетово", "name:sq": "ONE Hospital - Tetovë", "opening_hours": "Mo-Sa 00:00-00:00", "phone": "+38978822777", "website": "https://www.onehospital.mk/"}}, {"name": "Gjinekologjia Jeta", "latitude": 42.3224702, "longitude": 21.3538964, "source": "osm", "_tags": {"addr:city": "Viti", "addr:housenumber": "11", "addr:postcode": "61000", "addr:street": "Mustaf Shema", "amenity": "hospital", "email": "info@gjinekologjia-jeta.com", "healthcare": "hospital", "name": "Gjinekologjia Jeta", "name:sq": "Gjinekologjia Jeta", "name:sr": "Gjinekologjia Jeta", "opening_hours": "Mo-Sa 08:00-19:00", "website": "http://www.gjinekologjia-jeta.com"}}, {"name": "Здравствен дом „Железничар“", "latitude": 41.9933702, "longitude": 21.4271939, "source": "osm", "_tags": {"amenity": "hospital", "name": "Здравствен дом „Железничар“", "name:en": "Železničar Health Centre"}}, {"name": "", "latitude": 42.0319727, "longitude": 21.4333393, "source": "osm", "_tags": {"amenity": "hospital", "name:en": "bioenergy"}}, {"name": "Euroitalia", "latitude": 41.9389005, "longitude": 21.6155055, "source": "osm", "_tags": {"amenity": "hospital", "name": "Euroitalia"}}, {"name": "Hitna Pomos", "latitude": 42.1369857, "longitude": 21.7104934, "source": "osm", "_tags": {"addr:street": "11-ти Ноември", "amenity": "hospital", "healthcare": "hospital", "name": "Hitna Pomos", "name:en": "Ambulance", "name:mk": "Brza Pomos"}}, {"name": "Стоматолошка Ординација", "latitude": 41.9919437, "longitude": 21.4235554, "source": "osm", "_tags": {"amenity": "hospital", "name": "Стоматолошка Ординација", "name:en": "Dentist"}}, {"name": "", "latitude": 42.2469319, "longitude": 21.2180259, "source": "osm", "_tags": {"addr:city": "Biqec", "addr:housenumber": "169", "addr:street": "Baki Dullovi", "amenity": "hospital", "healthcare": "hospital"}}, {"name": "", "latitude": 42.2980687, "longitude": 21.2291941, "source": "osm", "_tags": {"addr:city": "Kaçanik i Vjetër", "addr:housenumber": "8", "addr:street": "Din Hoxha", "amenity": "hospital", "healthcare": "hospital"}}, {"name": "AMF- Ambulancë e Mjeksisë Familjare", "latitude": 42.3153387, "longitude": 21.2474129, "source": "osm", "_tags": {"addr:city": "Begracë", "addr:housenumber": "2", "addr:street": "Flamuri", "amenity": "hospital", "healthcare": "doctor", "healthcare:speciality": "general", "name": "AMF- Ambulancë e Mjeksisë Familjare"}}, {"name": "", "latitude": 42.2710052, "longitude": 21.1857531, "source": "osm", "_tags": {"addr:city": "Doganaj", "addr:housenumber": "1", "addr:street": "Luftëtarët e Lirisë", "amenity": "hospital", "healthcare": "hospital"}}, {"name": "", "latitude": 42.1932261, "longitude": 21.2343303, "source": "osm", "_tags": {"addr:city": "Ivajë", "addr:housenumber": "15", "addr:street": "Sabit Loku", "amenity": "hospital", "healthcare": "hospital"}}, {"name": "", "latitude": 42.2718014, "longitude": 21.2494254, "source": "osm", "_tags": {"addr:city": "Stagovë", "addr:housenumber": "10", "addr:street": "Tahir Jaha", "amenity": "hospital", "healthcare": "hospital"}}, {"name": "QMF- Qendër e Mjeksisë Familjare", "latitude": 42.3556329, "longitude": 21.2887117, "source": "osm", "_tags": {"addr:city": "Viti", "addr:street": "Endrit Kavaja", "amenity": "hospital", "emergency": "yes", "healthcare": "hospital", "healthcare:speciality": "general", "name": "QMF- Qendër e Mjeksisë Familjare"}}, {"name": "AMF- Ambulancë e Mjeksisë Familjare", "latitude": 42.3777125, "longitude": 21.2760571, "source": "osm", "_tags": {"addr:city": "Dardani", "addr:street": "Bondstill", "amenity": "hospital", "healthcare": "doctor", "healthcare:speciality": "general", "name": "AMF- Ambulancë e Mjeksisë Familjare"}}, {"name": "PZU \"Deona MM\"", "latitude": 41.9398219, "longitude": 21.5158516, "source": "osm", "_tags": {"addr:city": "Драчево", "addr:housenumber": "28", "addr:postcode": "1000", "addr:street": "Димитар Гуштанов", "amenity": "hospital", "emergency": "no", "healthcare": "hospital", "healthcare:speciality": "general", "name": "PZU \"Deona MM\"", "operator": "Dr. Mira Miloseska", "operator:type": "private", "phone": "+389 2 2796-952"}}, {"name": "Uro-Med", "latitude": 42.3811219, "longitude": 21.1535989, "source": "osm", "_tags": {"addr:city": "Ferizaj", "addr:postcode": "70000", "addr:street": "Fatmir Ratkoceri", "amenity": "hospital", "emergency": "no", "healthcare": "hospital", "healthcare:speciality": "urology", "name": "Uro-Med", "operator": "Driton", "operator:type": "private"}}, {"name": "dr Boban Spasić", "latitude": 42.2996752, "longitude": 21.6793395, "source": "osm", "_tags": {"amenity": "hospital", "healthcare": "hospital", "healthcare:speciality": "cardiology", "name": "dr Boban Spasić"}}, {"name": "Dream Hospital - Dr. Bajrami", "latitude": 42.3759063, "longitude": 21.1585734, "source": "osm", "_tags": {"addr:housenumber": "5", "addr:street": "Tajar Hatipi", "amenity": "hospital", "check_date": "2023-07-19", "healthcare": "hospital", "healthcare:speciality": "gynaecology", "name": "Dream Hospital - Dr. Bajrami", "operator:type": "private"}}, {"name": "Qendra e Mjekësisë Familjare në Bob", "latitude": 42.2274016, "longitude": 21.2524343, "source": "osm", "_tags": {"addr:city": "Bob", "addr:housenumber": "76", "addr:street": "Muhamet Zeneli", "amenity": "hospital", "healthcare": "hospital", "name": "Qendra e Mjekësisë Familjare në Bob"}}, {"name": "", "latitude": 42.2090818, "longitude": 21.1963931, "source": "osm", "_tags": {"addr:city": "Shtrazë", "addr:street": "Murat Lika", "amenity": "hospital", "healthcare": "hospital"}}, {"name": "", "latitude": 42.2808182, "longitude": 21.180489, "source": "osm", "_tags": {"addr:city": "Elezaj", "addr:street": "Nazmi Osmani", "amenity": "hospital", "healthcare": "hospital"}}, {"name": "Анчевски Д-р.", "latitude": 41.9952798, "longitude": 21.4237414, "source": "osm", "_tags": {"addr:city": "Cкoпje", "addr:housenumber": "28", "addr:street": "Митрополит Теодосиј Гологанов", "amenity": "hospital", "healthcare": "hospital", "name": "Анчевски Д-р."}}, {"name": "Acibadem", "latitude": 41.99847, "longitude": 21.4249674, "source": "osm", "_tags": {"amenity": "hospital", "check_date": "2024-10-04", "healthcare": "hospital", "name": "Acibadem"}}, {"name": "ПроМедика", "latitude": 41.9929587, "longitude": 21.4258828, "source": "osm", "_tags": {"amenity": "hospital", "check_date": "2025-05-31", "healthcare": "hospital", "name": "ПроМедика", "payment:cash": "yes", "payment:credit_cards": "yes", "payment:debit_cards": "yes", "wheelchair": "yes"}}, {"name": "Поликлиника Букурешт", "latitude": 42.0029032, "longitude": 21.4025586, "source": "osm", "_tags": {"amenity": "hospital", "healthcare": "hospital", "name": "Поликлиника Букурешт"}}, {"name": "ГОБ „8-ми Септември“", "latitude": 42.0057642, "longitude": 21.4037835, "source": "osm", "_tags": {"addr:city": "Cкoпje", "addr:housenumber": "бб", "addr:postcode": "1020", "addr:street": "Бледски Договор", "amenity": "hospital", "email": "info@bolnica.org.mk", "emergency": "yes", "fax": "+389 2 3072125", "full_name": "Градска општа болница „8 Септември\"", "healthcare": "hospital", "healthcare:speciality": "general", "name": "ГОБ „8-ми Септември“", "old_name": "Воена Болница", "operator": "Министерство за Здравство", "operator:type": "government", "phone": "+389 2 3087400", "website": "https://bolnica.org.mk/", "wheelchair": "yes"}}, {"name": "Неуромедика", "latitude": 42.0064272, "longitude": 21.3794289, "source": "osm", "_tags": {"addr:city": "Cкoпje", "addr:city:en": "Skopje", "addr:country": "MK", "addr:housenumber": "87", "addr:postcode": "1000", "addr:street": "Влае", "amenity": "hospital", "building": "yes", "name": "Неуромедика"}}, {"name": "ЈЗУ Психијатриска болница „Скопје“", "latitude": 42.0193191, "longitude": 21.3722859, "source": "osm", "_tags": {"addr:city": "Cкoпje", "addr:housenumber": "бб", "addr:postcode": "1000", "addr:street": "Пролетерска", "amenity": "hospital", "email": "pbskopje@pbskopje.org.mk", "fax": "+38923095601", "healthcare": "hospital", "healthcare:speciality": "psychiatry", "name": "ЈЗУ Психијатриска болница „Скопје“", "phone": "+38923095607", "website": "https://pbskopje.org.mk/"}}, {"name": "Клинички центар - Државна болница", "latitude": 41.9886481, "longitude": 21.422304, "source": "osm", "_tags": {"addr:street": "Булевар Мајка Тереза", "amenity": "hospital", "emergency": "yes", "healthcare": "hospital", "name": "Клинички центар - Државна болница", "opening_hours": "24/7"}}, {"name": "Поликлиника Јане Сандански", "latitude": 41.9850723, "longitude": 21.4572961, "source": "osm", "_tags": {"addr:city": "Cкoпje", "addr:city:en": "Skopje", "addr:country": "MK", "addr:postcode": "1000", "amenity": "hospital", "building": "yes", "healthcare": "hospital", "int_name": "Poliklinika Jane Sandaski", "name": "Поликлиника Јане Сандански", "name:en": "Polyclinic Jane Sandaski"}}, {"name": "Здравствен Дом", "latitude": 41.5127881, "longitude": 21.2171034, "source": "osm", "_tags": {"addr:city": "Makedonski Brod", "addr:postcode": "6530", "amenity": "hospital", "healthcare": "hospital", "name": "Здравствен Дом", "name:en": "Hospital"}}, {"name": "Здравствена Станица \"Маџари I\"", "latitude": 41.9954511, "longitude": 21.5038069, "source": "osm", "_tags": {"amenity": "hospital", "building": "yes", "healthcare": "hospital", "int_name": "Zdravstvena Stanica \"Madžari I\"", "name": "Здравствена Станица \"Маџари I\""}}, {"name": "Институт по белодробни заболувања кај децата - Козле", "latitude": 41.9900835, "longitude": 21.4051873, "source": "osm", "_tags": {"addr:city": "Cкoпje", "addr:city:en": "Skopje", "addr:country": "MK", "addr:postcode": "1000", "amenity": "hospital", "building": "yes", "check_date": "2025-04-30", "name": "Институт по белодробни заболувања кај децата - Козле"}}, {"name": "Мајчин Дом", "latitude": 41.9890402, "longitude": 21.4621383, "source": "osm", "_tags": {"addr:city": "Skopje", "addr:postcode": "1000", "addr:street": "Булевар Јане Сандански", "amenity": "hospital", "emergency": "no", "healthcare": "hospital", "int_name": "Majchin Dom", "name": "Мајчин Дом"}}, {"name": "Рес Хумана ординација", "latitude": 41.9948975, "longitude": 21.4049758, "source": "osm", "_tags": {"addr:city": "Cкoпje", "addr:city:en": "Skopje", "addr:country": "MK", "addr:housenumber": "44", "addr:postcode": "1000", "addr:street": "Миле Поп Јорданов", "addr:street:en": "Mile Pop Jordanov", "amenity": "hospital", "building": "yes", "check_date": "2025-05-29", "name": "Рес Хумана ординација"}}, {"name": "Клиничка Болница Аџибадем Систина", "latitude": 42.014056, "longitude": 21.4045033, "source": "osm", "_tags": {"alt_name": "Систина", "amenity": "hospital", "name": "Клиничка Болница Аџибадем Систина", "name:en": "Acibadem Sistina Hospital"}}, {"name": "Инвалидска комисија", "latitude": 41.9997232, "longitude": 21.4002245, "source": "osm", "_tags": {"addr:city": "Cкoпje", "addr:city:en": "Skopje", "addr:country": "MK", "addr:postcode": "1000", "addr:street": "Букурешка", "addr:street:en": "Bukureshka", "amenity": "hospital", "healthcare": "hospital", "name": "Инвалидска комисија"}}, {"name": "", "latitude": 41.7151566, "longitude": 21.7757809, "source": "osm", "_tags": {"amenity": "hospital", "healthcare": "hospital"}}, {"name": "Болница", "latitude": 42.1370014, "longitude": 21.7090381, "source": "osm", "_tags": {"amenity": "hospital", "emergency": "yes", "int_name": "Bolnica", "layer": "1", "name": "Болница"}}, {"name": "Ургентен Центар", "latitude": 42.1362235, "longitude": 21.7082219, "source": "osm", "_tags": {"amenity": "hospital", "building": "yes", "emergency": "yes", "int_name": "Urgenten Centar", "layer": "2", "name": "Ургентен Центар"}}, {"name": "Болница", "latitude": 42.1363726, "longitude": 21.7087297, "source": "osm", "_tags": {"amenity": "hospital", "building": "yes", "int_name": "Bolnica", "name": "Болница"}}, {"name": "Здравствен дом", "latitude": 42.1352181, "longitude": 21.7169355, "source": "osm", "_tags": {"amenity": "hospital", "int_name": "Zdravstven Dom", "name": "Здравствен дом"}}, {"name": "Студентска Амбуланта", "latitude": 41.9956821, "longitude": 21.4234575, "source": "osm", "_tags": {"addr:city": "Cкoпje", "addr:city:en": "Skopje", "addr:country": "MK", "addr:postcode": "1000", "addr:street": "Коста Шахов", "amenity": "hospital", "building": "yes", "healthcare": "hospital", "name": "Студентска Амбуланта", "opening_hours": "Mo-Fr 08:00-20:00; Sa 07:00-12:00", "phone": "071 392 991;023130159", "wheelchair": "yes"}}, {"name": "Амбуланта Авткоманда", "latitude": 42.0049712, "longitude": 21.4660475, "source": "osm", "_tags": {"addr:city": "Cкoпje", "addr:city:en": "Skopje", "addr:country": "MK", "addr:postcode": "1000", "amenity": "hospital", "building": "office", "healthcare": "hospital", "name": "Амбуланта Авткоманда"}}, {"name": "Ремедика", "latitude": 42.0081845, "longitude": 21.459654, "source": "osm", "_tags": {"addr:city": "Cкoпje", "addr:city:en": "Skopje", "addr:country": "MK", "addr:housenumber": "18", "addr:postcode": "1000", "addr:street": "16-та Македонска бригада", "amenity": "hospital", "building": "yes", "healthcare": "hospital", "name": "Ремедика", "name:en": "ReMedica", "website": "https://remedika.com.mk/"}}, {"name": "Поликлиника Железара", "latitude": 42.0086409, "longitude": 21.4594253, "source": "osm", "_tags": {"addr:city": "Cкoпje", "addr:city:en": "Skopje", "addr:country": "MK", "addr:postcode": "1000", "amenity": "hospital", "building": "yes", "healthcare": "hospital", "int_name": "Poliklinika Zhelezara", "name": "Поликлиника Железара", "name:en": "Polyclinic Železara"}}, {"name": "Поликлиника „Бит Пазар“", "latitude": 42.0035428, "longitude": 21.4408996, "source": "osm", "_tags": {"addr:city": "Cкoпje", "addr:city:en": "Skopje", "addr:country": "MK", "addr:postcode": "1000", "amenity": "hospital", "building": "hospital", "healthcare": "hospital", "name": "Поликлиника „Бит Пазар“", "name:sq": "Poliklinika Bit Pazar"}}, {"name": "Поликлиника Идадија", "latitude": 41.9951591, "longitude": 21.4205342, "source": "osm", "_tags": {"addr:city": "Cкoпje", "addr:city:en": "Skopje", "addr:country": "MK", "addr:postcode": "1000", "addr:street": "Митрополит Теодосиј Гологанов", "alt_name": "Поликлиника Идадија - Млин Балкан", "amenity": "hospital", "building": "yes", "emergency": "yes", "healthcare": "hospital", "int_name": "Poliklinika Idadija", "name": "Поликлиника Идадија"}}, {"name": "Поликлиника Чаир", "latitude": 42.0208785, "longitude": 21.4444085, "source": "osm", "_tags": {"addr:city": "Cкoпje", "addr:city:en": "Skopje", "addr:country": "MK", "addr:housenumber": "5", "addr:postcode": "1000", "addr:street": "Втора Македонска Бригада", "amenity": "hospital", "healthcare": "hospital", "int_name": "Poliklinika Chair", "name": "Поликлиника Чаир", "name:en": "Polyclinic Chair", "opening_hours": "24/7", "phone": "02 2611506"}}, {"name": "Гинеколошко акушерска болница-Чаир ''Мајка Тереза'''", "latitude": 42.0108228, "longitude": 21.4396926, "source": "osm", "_tags": {"addr:city": "Cкoпje", "addr:city:en": "Skopje", "addr:country": "MK", "addr:housenumber": "3", "addr:postcode": "1000", "addr:street": "Коста Абрашевиќ", "alt_name": "Гинекологија Чаир", "amenity": "hospital", "building": "yes", "contact:phone": "+38922600801", "healthcare": "hospital", "name": "Гинеколошко акушерска болница-Чаир ''Мајка Тереза'''"}}, {"name": "Acibadem Sistina Hospital", "latitude": 42.0140243, "longitude": 21.4039776, "source": "osm", "_tags": {"addr:city": "Cкoпje", "addr:city:en": "Skopje", "addr:country": "MK", "addr:postcode": "1000", "addr:street": "Скупи", "amenity": "hospital", "building": "yes", "building:levels": "6", "email": "callcenter@acibademsistina.mk", "healthcare": "hospital", "name": "Acibadem Sistina Hospital", "name:en": "Acibadem Sistina Hospital", "name:sq": "spitali sistina", "operator": "Acıbadem", "operator:wikidata": "Q19610384", "operator:wikipedia": "en:Acıbadem Healthcare Group", "phone": "+389 2 3099500", "website": "https://www.acibademsistina.mk/"}}, {"name": "Завод за физикална медицина и рехабилитација", "latitude": 41.991511, "longitude": 21.4134912, "source": "osm", "_tags": {"amenity": "hospital", "name": "Завод за физикална медицина и рехабилитација"}}, {"name": "Амбуланта Бутел", "latitude": 42.0306965, "longitude": 21.4456894, "source": "osm", "_tags": {"amenity": "hospital", "name": "Амбуланта Бутел"}}, {"name": "Центар за медицинска рехабилитација Катлановска Бања", "latitude": 41.897801, "longitude": 21.6936415, "source": "osm", "_tags": {"addr:city": "Скопје", "addr:place": "Катланово", "amenity": "hospital", "emergency": "no", "name": "Центар за медицинска рехабилитација Катлановска Бања", "website": "https://www.katlanovskaspa.com"}}, {"name": "Поликлиника Ченто", "latitude": 42.0055027, "longitude": 21.5043272, "source": "osm", "_tags": {"amenity": "hospital", "building": "yes", "healthcare": "hospital", "name": "Поликлиника Ченто"}}, {"name": "Центар за Јавно Здравје Скопје - Пролет", "latitude": 41.9875112, "longitude": 21.4414967, "source": "osm", "_tags": {"addr:city": "Cкoпje", "addr:housenumber": "18", "addr:postcode": "1000", "addr:street": "Трета македонска бригада", "amenity": "hospital", "healthcare": "hospital", "int_name": "Centar za Javno Zdravje Skopje - Prolet", "name": "Центар за Јавно Здравје Скопје - Пролет", "phone": "02 3298 667", "website": "http://www.cph.mk/"}}, {"name": "Амбуланта Влае", "latitude": 42.0074094, "longitude": 21.375309, "source": "osm", "_tags": {"addr:city": "Cкoпje", "addr:city:en": "Skopje", "addr:country": "MK", "addr:housenumber": "56", "addr:postcode": "1000", "addr:street": "Петар Чаулев", "amenity": "hospital", "building": "public", "emergency": "ambulance_station", "name": "Амбуланта Влае"}}, {"name": "Специјална Болница за белодробни заболувања и туберкулоза Јасеново“", "latitude": 41.5159891, "longitude": 21.7218657, "source": "osm", "_tags": {"addr:city": "Jasenovo", "addr:postcode": "1400", "amenity": "hospital", "emergency": "yes", "healthcare": "hospital", "healthcare:speciality": "internal;pulmonology", "int_name": "Specijalna bolnica za belodrobni zaboluvanja i tuberkuloaza Jasenovo", "name": "Специјална Болница за белодробни заболувања и туберкулоза Јасеново“", "name:en": "Special Hospital for Pulmonary Diseases and Tuberculosis Jasenovo", "phone": "+389 43 245 322", "website": "https://zk.mk/jasenovo-belodrobni-zaboluvanja-i-tuberkuloza"}}, {"name": "Болница", "latitude": 42.1367567, "longitude": 21.7102302, "source": "osm", "_tags": {"amenity": "hospital", "building": "yes", "int_name": "Болница", "name": "Болница"}}, {"name": "", "latitude": 41.5079033, "longitude": 20.9620281, "source": "osm", "_tags": {"amenity": "hospital", "building": "yes", "healthcare": "hospital"}}, {"name": "Болница Тетово", "latitude": 42.0050954, "longitude": 20.9713384, "source": "osm", "_tags": {"amenity": "hospital", "name": "Болница Тетово", "name:en": "Hospital", "name:sq": "Spitali i Tetovës", "opening_hours": "24/7"}}, {"name": "Клиника Болница Жан Митрев", "latitude": 42.0041317, "longitude": 21.4034577, "source": "osm", "_tags": {"addr:city": "Cкoпje", "addr:housenumber": "8", "addr:postcode": "1020", "addr:street": "Бледски Договор", "amenity": "hospital", "building": "hospital", "email": "infosalter@zmc.mk", "emergency": "yes", "healthcare": "hospital", "healthcare:speciality": "cardiology", "name": "Клиника Болница Жан Митрев", "name:en": "Zan Mitrev Clinic", "phone": "+389 2 3091 484", "website": "https://zmc.mk/"}}, {"name": "Болница „Аџибадем Систина“", "latitude": 42.014502, "longitude": 21.4038348, "source": "osm", "_tags": {"addr:city": "Cкoпje", "addr:city:en": "Skopje", "addr:country": "MK", "addr:postcode": "1000", "addr:street": "Скупи", "amenity": "hospital", "building": "yes", "building:levels": "6", "email": "callcenter@acibademsistina.mk", "name": "Болница „Аџибадем Систина“", "name:en": "Acibadem Sistina Hospital", "operator": "Acibadem", "phone": "+389 2 3099500", "website": "https://www.acibademsistina.mk/"}}, {"name": "", "latitude": 42.0085183, "longitude": 21.4597733, "source": "osm", "_tags": {"amenity": "hospital", "healthcare": "hospital"}}, {"name": "QKMF - Dëshmorët e Lirisë", "latitude": 42.2348588, "longitude": 21.2561191, "source": "osm", "_tags": {"addr:city": "Kaçanik", "addr:housenumber": "196", "addr:postcode": "71000", "addr:street": "Ismail Raka", "amenity": "hospital", "building": "yes", "emergency": "yes", "healthcare": "hospital", "healthcare:speciality": "general", "name": "QKMF - Dëshmorët e Lirisë", "name:sq": "Q.K..M.F.  Qendra Kryesore e Mjekësisë Familjare", "operator": "http://www.qkmf-pr.org", "operator:type": "government"}}, {"name": "Здравствен дом Велес", "latitude": 41.7171975, "longitude": 21.7794859, "source": "osm", "_tags": {"amenity": "hospital", "building": "yes", "healthcare": "hospital", "name": "Здравствен дом Велес"}}, {"name": "QMF- Qendër e Mjeksisë Familjare", "latitude": 42.3556334, "longitude": 21.2886936, "source": "osm", "_tags": {"addr:city": "Viti", "addr:street": "Endrit Kavaja", "amenity": "hospital", "emergency": "no", "healthcare": "hospital", "healthcare:speciality": "general", "name": "QMF- Qendër e Mjeksisë Familjare"}}, {"name": "AMF Stublla e Epërme", "latitude": 42.3218169, "longitude": 21.464344, "source": "osm", "_tags": {"addr:housenumber": "128", "addr:street": "Martirët e Karadakut", "building": "yes", "health_facility:type": "dispensary", "healthcare": "hospital", "healthcare:speciality": "general", "name": "AMF Stublla e Epërme"}}, {"name": "AMF Jerli Sadovina", "latitude": 42.3238734, "longitude": 21.2957154, "source": "osm", "_tags": {"addr:city": "VITI", "addr:postcode": "61000", "addr:street": "Sylejmani e Hajdini", "amenity": "hospital", "healthcare": "hospital", "name": "AMF Jerli Sadovina"}}, {"name": "QMF-III Greme", "latitude": 42.3283979, "longitude": 21.1534329, "source": "osm", "_tags": {"addr:city": "Ferizaj", "addr:street": "Shaban Viça", "amenity": "hospital", "healthcare": "clinic", "name": "QMF-III Greme"}}, {"name": "AMF- Ambulancë e Mjeksisë Familjare", "latitude": 42.3153334, "longitude": 21.2474298, "source": "osm", "_tags": {"addr:city": "Begracë", "addr:street": "Flamuri", "amenity": "hospital", "healthcare": "doctor", "healthcare:speciality": "general", "name": "AMF- Ambulancë e Mjeksisë Familjare"}}, {"name": "Општа Болница Кичево", "latitude": 41.5093373, "longitude": 20.9625622, "source": "osm", "_tags": {"amenity": "hospital", "healthcare": "hospital", "name": "Општа Болница Кичево"}}, {"name": "Qendra e Mjeksisë Familjare - Pozhoran", "latitude": 42.36862, "longitude": 21.3305421, "source": "osm", "_tags": {"amenity": "hospital", "healthcare": "hospital", "name": "Qendra e Mjeksisë Familjare - Pozhoran"}}, {"name": "Нова амбуланта", "latitude": 41.8680197, "longitude": 21.9368935, "source": "osm", "_tags": {"addr:city": "Свети Николе", "addr:housenumber": "82", "addr:postcode": "2220", "addr:street": "Карпошева", "amenity": "hospital", "healthcare": "hospital", "name": "Нова амбуланта"}}, {"name": "Примариус Др. Ѓорѓи Гаврилски", "latitude": 41.8605963, "longitude": 21.9400907, "source": "osm", "_tags": {"addr:city": "Свети Николе", "addr:housenumber": "39", "addr:postcode": "2220", "addr:street": "Септемвриска", "amenity": "hospital", "healthcare": "hospital", "name": "Примариус Др. Ѓорѓи Гаврилски", "name:en": "Primarius Dr. Gjorgji Gavrilski"}}, {"name": "", "latitude": 42.3715928, "longitude": 21.1457733, "source": "osm", "_tags": {"amenity": "hospital", "healthcare": "hospital"}}, {"name": "", "latitude": 42.3053877, "longitude": 21.6529898, "source": "osm", "_tags": {"addr:housenumber": "86", "addr:street": "15. новембар", "amenity": "hospital", "building": "yes", "emergency": "yes", "ref:RS:kucni_broj": "6146395"}}, {"name": "Санте Плус", "latitude": 42.0045326, "longitude": 21.3441436, "source": "osm", "_tags": {"addr:city": "skopje", "addr:postcode": "1000", "addr:street": "Алекса Демниевски", "amenity": "hospital", "email": "nmk@santeplusgroup.com", "healthcare": "hospital", "name": "Санте Плус", "name:en": "Sante Plus", "phone": "+38925112016", "website": "https://www.santeplusgroup.com/sante-plus-n-macedonia-1"}}, {"name": "Специјализирана болница за белодробни заболувања и туберкулоза", "latitude": 42.0655954, "longitude": 21.0267553, "source": "osm", "_tags": {"amenity": "hospital", "barrier": "fence", "email": "bolnicaleshok@t.mk", "fax": "+38944384814", "healthcare": "hospital", "name": "Специјализирана болница за белодробни заболувања и туберкулоза", "name:en": "Specialized hospital for lung diseases and tuberculosis", "name:mk": "Специјализирана болница за белодробни заболувања и туберкулоза", "phone": "+38944384414"}}, {"name": "", "latitude": 42.3781843, "longitude": 21.6991771, "source": "osm", "_tags": {"amenity": "hospital", "healthcare": "hospital", "healthcare:speciality": "general"}}, {"name": "Стоматолошка ординација Estetic dentamed", "latitude": 42.0302593, "longitude": 21.3501594, "source": "osm", "_tags": {"addr:city": "Скопје", "addr:housenumber": "1 59Б", "addr:place": "Ново Село", "addr:postcode": "1000", "amenity": "hospital", "healthcare": "hospital", "name": "Стоматолошка ординација Estetic dentamed"}}, {"name": "Поликлиника Сарај", "latitude": 42.0032862, "longitude": 21.3292391, "source": "osm", "_tags": {"amenity": "hospital", "healthcare": "hospital", "name": "Поликлиника Сарај", "name:en": "Saraj Polyclinic"}}, {"name": "Поликлиника Ѓорче Петров", "latitude": 42.0094759, "longitude": 21.3627697, "source": "osm", "_tags": {"amenity": "hospital", "building": "yes", "name": "Поликлиника Ѓорче Петров", "type": "multipolygon"}}, {"name": "Градска болница", "latitude": 41.992683, "longitude": 21.4343082, "source": "osm", "_tags": {"addr:city": "Cкoпje", "addr:city:en": "Skopje", "addr:country": "MK", "addr:housenumber": "53", "addr:postcode": "1000", "addr:street": "11-ти Октомври", "amenity": "hospital", "building": "yes", "building:levels": "3", "full_name": "ЈЗУ Универзитетска клиника по хируршки болести „Св. Наум Охридски“", "healthcare": "hospital", "int_name": "Gradska Bolnica", "name": "Градска болница", "name:en": "City Hospital", "name:mk": "Градска болница", "phone": "+3892 323 5020", "type": "multipolygon", "website": "http://www.gradskahirurgija.org.mk"}}]