[{"name": "Поликлиника", "latitude": 42.2675883, "longitude": 27.7535503, "source": "osm", "_tags": {"amenity": "hospital", "name": "Поликлиника", "name:etymology:wikidata": "Q695416"}}, {"name": "Бърза помощ", "latitude": 42.4126772, "longitude": 27.6979718, "source": "osm", "_tags": {"addr:city": "Созопол", "addr:country": "BG", "addr:postcode": "8030", "addr:street": "Республиканска", "amenity": "hospital", "emergency": "yes", "healthcare": "hospital", "name": "Бърза помощ", "wheelchair": "yes"}}, {"name": "Pazarcık Aile Sağlığı Merkezi", "latitude": 41.4494855, "longitude": 27.932099, "source": "osm", "_tags": {"amenity": "hospital", "name": "Pazarcık Aile Sağlığı Merkezi"}}, {"name": "", "latitude": 42.411116, "longitude": 27.6782659, "source": "osm", "_tags": {"amenity": "hospital", "opening_hours": "24/7"}}, {"name": "Derman Diyaliz Merkezi", "latitude": 41.7186471, "longitude": 27.2147763, "source": "osm", "_tags": {"amenity": "hospital", "healthcare": "hospital", "name": "Derman Diyaliz Merkezi"}}, {"name": "", "latitude": 42.2427798, "longitude": 27.7742196, "source": "osm", "_tags": {"addr:city": "Китен", "addr:housenumber": "46", "addr:postcode": "8183", "addr:street": "Атлиман", "amenity": "hospital", "healthcare": "hospital"}}, {"name": "Edirköy Köy Sağlık Evi", "latitude": 41.4765348, "longitude": 27.8705257, "source": "osm", "_tags": {"amenity": "hospital", "name": "Edirköy Köy Sağlık Evi"}}, {"name": "", "latitude": 42.240775, "longitude": 27.7705315, "source": "osm", "_tags": {"amenity": "hospital", "emergency": "no", "healthcare": "doctor", "healthcare:speciality": "emergency"}}, {"name": "Sebahat Mehmet Perver Aile Sağlığı Merkezi", "latitude": 41.4440128, "longitude": 27.9155193, "source": "osm", "_tags": {"amenity": "hospital", "name": "Sebahat Mehmet Perver Aile Sağlığı Merkezi"}}, {"name": "Vize Devlet Hastanesi", "latitude": 41.5841943, "longitude": 27.7537747, "source": "osm", "_tags": {"addr:district": "Vize", "addr:neighbourhood": "Namık Kemal Mahallesi", "addr:street": "Sağlık Sokak", "amenity": "hospital", "emergency": "yes", "healthcare": "hospital", "name": "Vize Devlet Hastanesi", "operator": "Sağlık Bakanlığı", "operator:wikidata": "Q4294365"}}, {"name": "Demirköy İlçe Devlet Hastanesi", "latitude": 41.8250971, "longitude": 27.7711113, "source": "osm", "_tags": {"addr:city": "Demirköy", "addr:district": "Demirköy", "amenity": "hospital", "healthcare": "hospital", "name": "Demirköy İlçe Devlet Hastanesi", "operator": "Sağlık Bakanlığı", "operator:type": "government", "operator:wikidata": "Q4294365"}}, {"name": "Merkez 10 No'lu Aile Sağlığı Merkezi", "latitude": 41.7436089, "longitude": 27.2099255, "source": "osm", "_tags": {"amenity": "hospital", "name": "Merkez 10 No'lu Aile Sağlığı Merkezi"}}, {"name": "", "latitude": 42.1665922, "longitude": 27.8448022, "source": "osm", "_tags": {"amenity": "hospital", "building": "yes", "fax": "+359 590 52 986", "name:bg": "Медицински център", "phone": "+359 590 52 023"}}, {"name": "Saray Devlet Hastanesi", "latitude": 41.4378511, "longitude": 27.9303648, "source": "osm", "_tags": {"amenity": "hospital", "barrier": "wall", "healthcare": "hospital", "name": "Saray Devlet Hastanesi"}}, {"name": "", "latitude": 41.4430892, "longitude": 27.9021075, "source": "osm", "_tags": {"amenity": "hospital"}}, {"name": "", "latitude": 42.3409434, "longitude": 27.1817555, "source": "osm", "_tags": {"amenity": "hospital", "healthcare": "hospital"}}, {"name": "Pınarhisar Devlet Hastanesi", "latitude": 41.6303659, "longitude": 27.5162002, "source": "osm", "_tags": {"amenity": "hospital", "healthcare": "hospital", "name": "Pınarhisar Devlet Hastanesi"}}, {"name": "Kırklareli Eğitim ve Araştırma Hastanesi", "latitude": 41.7444495, "longitude": 27.2255344, "source": "osm", "_tags": {"amenity": "hospital", "emergency": "yes", "healthcare": "hospital", "name": "Kırklareli Eğitim ve Araştırma Hastanesi"}}, {"name": "Babaeski Devlet Hastanesi", "latitude": 41.4404031, "longitude": 27.0631993, "source": "osm", "_tags": {"amenity": "hospital", "healthcare": "hospital", "name": "Babaeski Devlet Hastanesi", "operator": "Sağlık Bakanlığı", "operator:type": "government", "operator:wikidata": "Q4294365"}}, {"name": "Районна болница Иван Башев", "latitude": 41.977231, "longitude": 27.5219631, "source": "osm", "_tags": {"amenity": "hospital", "healthcare": "hospital", "name": "Районна болница Иван Башев", "name:hu": "Ivan Basev körzeti kórház"}}, {"name": "Çakıllı Aile Sağlığı Merkezi", "latitude": 41.5134771, "longitude": 27.8833886, "source": "osm", "_tags": {"amenity": "hospital", "name": "Çakıllı Aile Sağlığı Merkezi", "operator": "T.C. Milli Eğitim Bakanlığı"}}, {"name": "", "latitude": 41.584317, "longitude": 27.7535851, "source": "osm", "_tags": {"addr:district": "Vize", "addr:neighbourhood": "Namık Kemal Mahallesi", "addr:street": "Sağlık Sokak", "amenity": "hospital", "healthcare": "hospital"}}, {"name": "Vize Devlet Hastanesi", "latitude": 41.584371, "longitude": 27.7537548, "source": "osm", "_tags": {"addr:district": "Vize", "addr:neighbourhood": "Namık Kemal Mahallesi", "addr:street": "Sağlık Sokak", "amenity": "hospital", "building": "yes", "emergency": "yes", "healthcare": "hospital", "layer": "-1", "name": "Vize Devlet Hastanesi", "operator": "Sağlık Bakanlığı", "operator:type": "public", "operator:wikidata": "Q4294365"}}]