[{"name": "Urgencias", "latitude": 41.6299846, "longitude": -4.712354, "source": "osm", "_tags": {"addr:city": "Valladolid", "addr:housenumber": "2", "addr:postcode": "47012", "addr:street": "Calle de la Dulzaina", "healthcare": "hospital", "healthcare:speciality": "emergency", "name": "Urgencias", "operator": "HospitalUniversitario Río Hortega", "wheelchair": "yes"}}, {"name": "Hospital Clínico Universitario de Valladolid", "latitude": 41.655962, "longitude": -4.7187083, "source": "osm", "_tags": {"addr:city": "Valladolid", "addr:housenumber": "3", "addr:postcode": "47003", "addr:street": "Avenida de Ramón y Cajal", "amenity": "hospital", "emergency": "yes", "healthcare": "hospital", "healthcare:speciality": "general;paediatrics;orthopaedics;surgery;ophthalmology;emergency;gynaecology;oncology;radiology;dermatology;cardiology;physiatry;maternity;internal;otolaryngology;osteopathy;psychiatry;intensive;nephrology;allergology", "internet_access": "no", "name": "Hospital Clínico Universitario de Valladolid", "opening_hours": "24/7", "operator": "SACyL", "operator:type": "public", "operator:wikidata": "Q6116740", "website": "https://www.saludcastillayleon.es/HCUValladolid/es", "wheelchair": "yes", "wikidata": "Q5902588", "wikipedia": "es:Hospital Clínico Universitario de Valladolid"}}, {"name": "Hospital Río Carrión", "latitude": 42.0008235, "longitude": -4.5396198, "source": "osm", "_tags": {"addr:city": "Palencia", "addr:postcode": "34005", "addr:street": "Avenida de los Donantes de Sangre", "amenity": "hospital", "emergency": "yes", "healthcare": "hospital", "name": "Hospital Río Carrión", "network": "Sanidad de Castilla y León", "network:short": "SACYL", "nohousenumber": "yes", "opening_hours": "24/7", "operator": "Sacyl", "operator:type": "public", "operator:wikidata": "Q6116740", "operator:wikipedia": "es:Sacyl", "phone": "+34 979 167 000", "wikidata": "Q20741305", "wikipedia": "es:Hospital Río Carrión"}}, {"name": "Hospital Recoletas Salud Campo Grande", "latitude": 41.6437191, "longitude": -4.7281923, "source": "osm", "_tags": {"addr:city": "Valladolid", "addr:postcode": "47007", "addr:street": "Calle de la Estación del Norte", "amenity": "hospital", "building": "yes", "emergency": "yes", "healthcare": "hospital", "healthcare:speciality": "general;paediatrics;surgery;emergency;maternity;oncology;radiology;gynaecology;neurology;internal;ophthalmology;otolaryngology;cardiology", "internet_access": "wlan", "internet_access:fee": "customers", "name": "Hospital Recoletas Salud Campo Grande", "opening_hours": "24/7", "operator": "Grupo Recoletas", "operator:type": "private", "phone": "+34 983135555", "website": "https://www.gruporecoletas.com/centros-medicos/hospital-recoletas-campo-grande/", "wheelchair": "yes", "wikidata": "Q5902550", "wikipedia": "es:Hospital Campo Grande"}}, {"name": "Hospital Recoletas Salud Felipe II", "latitude": 41.6553159, "longitude": -4.7258374, "source": "osm", "_tags": {"addr:housenumber": "9", "addr:postcode": "47003", "addr:street": "Calle Felipe II", "amenity": "hospital", "building": "yes", "building:levels": "6", "emergency": "yes", "healthcare": "hospital", "name": "Hospital Recoletas Salud Felipe II", "opening_hours": "24/7", "operator": "Grupo Recoletas", "phone": "+34 983358000", "website": "https://www.gruporecoletas.com/hospitales/hospital-recoletas-felipe-ii/", "wikidata": "Q5643818", "wikipedia": "es:Hospital Felipe II"}}, {"name": "Hospital Sagrado Corazón", "latitude": 41.649733, "longitude": -4.7203527, "source": "osm", "_tags": {"addr:city": "Valladolid", "addr:housenumber": "1", "addr:postcode": "47002", "addr:street": "Calle de Fidel Recio", "alt_name": "Sanatorio Sagrado Corazón", "amenity": "hospital", "building": "hospital", "building:levels": "7", "emergency": "yes", "healthcare": "hospital", "name": "Hospital Sagrado Corazón", "phone": "+34 983299000", "website": "http://sscvalladolid.com/", "wikidata": "Q87762645"}}, {"name": "Hospital Recoletas Palencia", "latitude": 42.0157528, "longitude": -4.5400712, "source": "osm", "_tags": {"addr:city": "Palencia", "addr:country": "ES", "addr:housenumber": "31,34", "addr:postcode": "34005", "addr:street": "Avenida Simón Nieto", "amenity": "hospital", "email": "admision.hrp@gruporecoletas.com", "fax": "+34 979 703 329", "healthcare": "hospital", "name": "Hospital Recoletas Palencia", "old_name": "Virgen de la Salud", "phone": "+34 979 747 700", "website": "http://www.hospitalrecoletaspalencia.es/", "wikidata": "Q87762340"}}, {"name": "Hospital San Telmo", "latitude": 41.9972062, "longitude": -4.5188926, "source": "osm", "_tags": {"amenity": "hospital", "barrier": "wall", "emergency": "yes", "healthcare": "hospital", "name": "Hospital San Telmo", "operator": "Sacyl", "operator:type": "public", "operator:wikidata": "Q6116740", "operator:wikipedia": "es:Sacyl", "phone": "+34 979 77 28 20", "wikidata": "Q87762334"}}, {"name": "Centro Sociosanitario Hermanas Hospitalarias", "latitude": 41.9934563, "longitude": -4.5065558, "source": "osm", "_tags": {"amenity": "hospital", "healthcare": "yes", "healthcare:speciality": "psychiatry", "name": "Centro Sociosanitario Hermanas Hospitalarias", "old_name": "Hospital Psiquiátrico San Luis", "phone": "+34 979 16 53 24", "website": "https://hospitalariaspalencia.es/", "wikidata": "Q87762336"}}, {"name": "Centro Hospitalario Benito Menni", "latitude": 41.6280097, "longitude": -4.7224847, "source": "osm", "_tags": {"amenity": "hospital", "barrier": "fence", "healthcare": "physiotherapist", "name": "Centro Hospitalario Benito Menni", "operator": "Hermanas Hospitalarias del Sagrado Corazón de Jesús", "phone": "+34 983272600", "website": "http://www.benitomenni.org/", "wikidata": "Q87762647"}}, {"name": "Hospital Universitario Río Hortega", "latitude": 41.6296598, "longitude": -4.7136713, "source": "osm", "_tags": {"addr:city": "Valladolid", "addr:housenumber": "2", "addr:postcode": "47012", "addr:street": "Calle de la Dulzaina", "amenity": "hospital", "emergency": "yes", "healthcare": "hospital", "healthcare:speciality": "general;psychiatry;paediatrics;ophthalmology;gynaecology;emergency;surgery;oncology;cardiology;orthopaedics;dialysis;dermatology;radiology;internal;maternity;biology", "internet_access": "no", "name": "Hospital Universitario Río Hortega", "name:en": "University Hospital Río Hortega", "name:es": "Hospital Universitario Río Hortega", "operator": "SACyL", "operator:type": "public", "operator:wikidata": "Q6116740", "phone": "+34 983420400", "website": "https://www.saludcastillayleon.es/HRHortega/es", "wheelchair": "yes", "wikidata": "Q5902969", "wikipedia": "es:Hospital Universitario Río Hortega"}}, {"name": "Hospital Casaverde Valladolid", "latitude": 41.6523198, "longitude": -4.6974354, "source": "osm", "_tags": {"addr:city": "Valladolid", "addr:housenumber": "2", "addr:postcode": "47011", "addr:street": "Calle del Universo", "amenity": "hospital", "healthcare": "hospital", "healthcare:speciality": "neurology", "name": "Hospital Casaverde Valladolid", "phone": "+34 983226422", "website": "https://casaverdeneuro.com/centros/valladolid/hospital-casaverde-valladolid/"}}, {"name": "Hospital Clínico - Edificio Rondilla", "latitude": 41.6587365, "longitude": -4.7266937, "source": "osm", "_tags": {"addr:city": "Valladolid", "addr:postcode": "47010", "addr:street": "Calle del Cardenal Torquemada", "amenity": "hospital", "building": "public", "building:levels": "10", "emergency": "no", "healthcare": "hospital", "name": "Hospital Clínico - Edificio Rondilla", "old_name": "Hospital Universitario \"Del Río Hortega\"", "phone": "+34 983420000", "type": "multipolygon"}}]