[{"name": "ЈЗУ Општа Болница", "latitude": 41.4439681, "longitude": 22.0202441, "source": "osm", "_tags": {"amenity": "hospital", "name": "ЈЗУ Општа Болница", "name:en": "Jzu Opsta Bolnica"}}, {"name": "", "latitude": 41.4403058, "longitude": 22.6440256, "source": "osm", "_tags": {"amenity": "hospital"}}, {"name": "Bolnica Primarius D-r. Dimitar Arsov", "latitude": 42.19562, "longitude": 22.3213986, "source": "osm", "_tags": {"amenity": "hospital", "name": "Bolnica Primarius D-r. Dimitar Arsov"}}, {"name": "Asklepij", "latitude": 41.4334419, "longitude": 22.0143343, "source": "osm", "_tags": {"amenity": "hospital", "name": "Asklepij"}}, {"name": "", "latitude": 41.8845005, "longitude": 22.3340659, "source": "osm", "_tags": {"amenity": "hospital"}}, {"name": "", "latitude": 42.4110319, "longitude": 21.9714067, "source": "osm", "_tags": {"amenity": "hospital"}}, {"name": "Bolnica Vinica", "latitude": 41.8872494, "longitude": 22.510037, "source": "osm", "_tags": {"amenity": "hospital", "name": "Bolnica Vinica"}}, {"name": "Здравствен Дом Струмица", "latitude": 41.4391693, "longitude": 22.6436156, "source": "osm", "_tags": {"amenity": "hospital", "designation": "Здравствен дом", "emergency": "no", "healthcare": "hospital", "name": "Здравствен Дом Струмица", "source": "surway"}}, {"name": "Стара Градска болница", "latitude": 41.435179, "longitude": 22.6393219, "source": "osm", "_tags": {"amenity": "hospital", "name": "Стара Градска болница"}}, {"name": "", "latitude": 42.0191328, "longitude": 22.5899086, "source": "osm", "_tags": {"amenity": "hospital"}}, {"name": "Пензионерски здравствен дом", "latitude": 42.2050632, "longitude": 22.3340869, "source": "osm", "_tags": {"addr:city": "Kriva Palanka", "addr:postcode": "1330", "addr:street": "Illidenska", "amenity": "hospital", "emergency": "yes", "int_name": "Penzionerski zdravsten dom", "name": "Пензионерски здравствен дом", "name:en": "Retirement Health Clinic"}}, {"name": "ЦСМП", "latitude": 42.2552504, "longitude": 22.8535621, "source": "osm", "_tags": {"amenity": "hospital", "healthcare": "hospital", "name": "ЦСМП"}}, {"name": "Партизанска болница", "latitude": 41.7613575, "longitude": 22.4646543, "source": "osm", "_tags": {"amenity": "hospital", "healthcare": "hospital", "name": "Партизанска болница"}}, {"name": "МБАЛ \"Св. Иван Рилски\"", "latitude": 42.2687569, "longitude": 22.6763687, "source": "osm", "_tags": {"amenity": "hospital", "name": "МБАЛ \"Св. Иван Рилски\""}}, {"name": "Здравствен Дом Виница", "latitude": 41.8880143, "longitude": 22.5105001, "source": "osm", "_tags": {"amenity": "hospital", "healthcare": "hospital", "name": "Здравствен Дом Виница"}}, {"name": "ЈЗУ Општа Болница", "latitude": 41.9169924, "longitude": 22.4070275, "source": "osm", "_tags": {"amenity": "hospital", "healthcare": "hospital", "int_name": "JZU Opšta Bolnica", "name": "ЈЗУ Општа Болница", "name:en": "City General Hospital"}}, {"name": "Здравствен Дом Неготино", "latitude": 41.4790394, "longitude": 22.0829219, "source": "osm", "_tags": {"amenity": "hospital", "healthcare": "hospital", "name": "Здравствен Дом Неготино"}}, {"name": "Здравствен дом Гоце Делчев", "latitude": 41.9655341, "longitude": 22.7807069, "source": "osm", "_tags": {"addr:city": "Делчево", "addr:postcode": "2320", "addr:street": "М.М. Брицо", "amenity": "hospital", "healthcare": "hospital", "name": "Здравствен дом Гоце Делчев", "name:en": "Goce Delchev"}}, {"name": "МБАЛ Доктор Никола Василиев", "latitude": 42.2789476, "longitude": 22.7011555, "source": "osm", "_tags": {"addr:city": "Кюстендил", "addr:housenumber": "1", "addr:place": "пл. 17 януари", "addr:postcode": "2500", "amenity": "hospital", "healthcare": "hospital", "name": "МБАЛ Доктор Никола Василиев"}}, {"name": "Стар Здраствен Дом", "latitude": 41.7356272, "longitude": 22.1917518, "source": "osm", "_tags": {"amenity": "hospital", "name": "Стар Здраствен Дом"}}, {"name": "Здравствен дом Панче Караѓозов", "latitude": 41.7386161, "longitude": 22.1986351, "source": "osm", "_tags": {"amenity": "hospital", "healthcare": "hospital", "name": "Здравствен дом Панче Караѓозов"}}, {"name": "Клиничка Болница Штип", "latitude": 41.7342181, "longitude": 22.1991799, "source": "osm", "_tags": {"amenity": "hospital", "healthcare:speciality": "general;paediatrics;ophthalmology;surgery;cardiology;emergency;oncology;radiology;dermatology;internal;psychiatry;orthopaedics;gynaecology;otolaryngology", "name": "Клиничка Болница Штип", "opening_hours": "24/7"}}, {"name": "", "latitude": 41.7455699, "longitude": 22.1842805, "source": "osm", "_tags": {"amenity": "hospital", "healthcare": "hospital", "healthcare:speciality": "gynaecology;maternity"}}, {"name": "Партизанска Болница", "latitude": 41.7611708, "longitude": 22.4647113, "source": "osm", "_tags": {"amenity": "hospital", "healthcare": "hospital", "name": "Партизанска Болница"}}, {"name": "Дом здравља Трговиште", "latitude": 42.3643105, "longitude": 22.0809347, "source": "osm", "_tags": {"alt_name": "Дом здравља Вељко Влаховић", "amenity": "hospital", "email": "dztrgoviste@mts.rs", "emergency": "yes", "emergency:phone": "+38117452294", "healthcare": "hospital", "int_name": "Dom zdravlja Trgoviste", "name": "Дом здравља Трговиште", "name:sr": "Дом здравља Трговиште", "name:sr-Latn": "Dom zdravlja Trgovište", "operator:type": "government", "phone": "+38117452210", "website": "http://www.domzdravljatrgoviste.rs/", "wheelchair": "yes"}}, {"name": "Примариус Др. Ѓорѓи Гаврилски", "latitude": 41.8605963, "longitude": 21.9400907, "source": "osm", "_tags": {"addr:city": "Свети Николе", "addr:housenumber": "39", "addr:postcode": "2220", "addr:street": "Септемвриска", "amenity": "hospital", "healthcare": "hospital", "name": "Примариус Др. Ѓорѓи Гаврилски", "name:en": "Primarius Dr. Gjorgji Gavrilski"}}, {"name": "", "latitude": 41.6357965, "longitude": 22.4650899, "source": "osm", "_tags": {"amenity": "hospital", "healthcare": "hospital"}}, {"name": "Здравствен Дом Кратово", "latitude": 42.0789207, "longitude": 22.1688065, "source": "osm", "_tags": {"addr:city": "Кратово", "addr:housenumber": "4", "addr:street": "Никола Тесла", "amenity": "hospital", "healthcare": "hospital", "name": "Здравствен Дом Кратово", "name:en": "General Hospital Kratovo"}}, {"name": "Оддел за Психијатрија", "latitude": 41.734972, "longitude": 22.1865942, "source": "osm", "_tags": {"amenity": "hospital", "building:levels": "3", "healthcare": "hospital", "name": "Оддел за Психијатрија", "operator": "Клиничка Болница Штип", "type": "multipolygon"}}]