[{"name": "", "latitude": 41.880256, "longitude": 23.526144, "source": "osm", "_tags": {"amenity": "hospital"}}, {"name": "", "latitude": 42.3705388, "longitude": 23.002284, "source": "osm", "_tags": {"amenity": "hospital", "healthcare": "hospital"}}, {"name": "", "latitude": 42.3358865, "longitude": 23.5522987, "source": "osm", "_tags": {"amenity": "hospital", "healthcare": "hospital"}}, {"name": "", "latitude": 42.3353238, "longitude": 23.5520895, "source": "osm", "_tags": {"amenity": "hospital", "healthcare": "hospital"}}, {"name": "МБАЛ Самоков", "latitude": 42.3357895, "longitude": 23.5520712, "source": "osm", "_tags": {"addr:housenumber": "49", "addr:street": "Македония", "amenity": "hospital", "healthcare": "hospital", "name": "МБАЛ Самоков"}}, {"name": "Поликлиника", "latitude": 41.8351431, "longitude": 23.4915288, "source": "osm", "_tags": {"amenity": "hospital", "healthcare": "hospital", "name": "Поликлиника"}}, {"name": "ДМСГД-Благоевград", "latitude": 42.0259097, "longitude": 23.0918582, "source": "osm", "_tags": {"amenity": "hospital", "building": "yes", "healthcare": "hospital", "internet_access": "wlan", "name": "ДМСГД-Благоевград"}}, {"name": "ДМСГД-Благоевград", "latitude": 42.025982, "longitude": 23.0921978, "source": "osm", "_tags": {"amenity": "hospital", "building": "yes", "healthcare": "hospital", "name": "ДМСГД-Благоевград"}}, {"name": "", "latitude": 42.3306657, "longitude": 23.871911, "source": "osm", "_tags": {"amenity": "hospital"}}, {"name": "ДМСГД-Благоевград", "latitude": 42.0258794, "longitude": 23.0928458, "source": "osm", "_tags": {"addr:housenumber": "60", "addr:street": "Славянска", "amenity": "hospital", "healthcare": "hospital", "name": "ДМСГД-Благоевград"}}, {"name": "", "latitude": 42.3071666, "longitude": 23.8620876, "source": "osm", "_tags": {"addr:housenumber": "56", "addr:street": "Цариградско шосе", "amenity": "hospital", "healthcare": "hospital"}}, {"name": "", "latitude": 41.5759525, "longitude": 23.7324995, "source": "osm", "_tags": {"amenity": "hospital", "healthcare": "hospital"}}, {"name": "МБАЛ-Благоевград", "latitude": 42.0233638, "longitude": 23.0903251, "source": "osm", "_tags": {"addr:city": "Благоевград", "addr:housenumber": "60", "addr:postcode": "2700", "addr:street": "Славянска", "amenity": "hospital", "building": "hospital", "healthcare": "hospital", "name": "МБАЛ-Благоевград", "name:en": "Hospital Blagoevgrad"}}, {"name": "Болница ПУЛС", "latitude": 42.0234052, "longitude": 23.0896684, "source": "osm", "_tags": {"amenity": "hospital", "building": "hospital", "healthcare": "hospital", "name": "Болница ПУЛС", "name:en": "Hospital Pulse"}}, {"name": "", "latitude": 42.0232535, "longitude": 23.0899342, "source": "osm", "_tags": {"amenity": "hospital", "healthcare": "hospital"}}, {"name": "", "latitude": 42.024149, "longitude": 23.0924515, "source": "osm", "_tags": {"amenity": "hospital", "healthcare": "hospital"}}, {"name": "СБАЛПФЗ Благоевград", "latitude": 42.0260806, "longitude": 23.0992105, "source": "osm", "_tags": {"amenity": "hospital", "building": "hospital", "name": "СБАЛПФЗ Благоевград", "official_name": "Специализирана болница за активно лечение на пневмо-фтициатрични заболявания – Благоевград ЕООД", "source": "local knowledge", "website": "http://sbalpfz-blg.com/"}}, {"name": "", "latitude": 41.8352385, "longitude": 23.4918705, "source": "osm", "_tags": {"amenity": "hospital", "healthcare": "hospital"}}, {"name": "МБАЛ", "latitude": 41.8909165, "longitude": 23.4690419, "source": "osm", "_tags": {"amenity": "hospital", "healthcare": "hospital", "name": "МБАЛ"}}, {"name": "МБАЛ „Югозападна болница“", "latitude": 41.5706979, "longitude": 23.2852427, "source": "osm", "_tags": {"amenity": "hospital", "healthcare": "hospital", "name": "МБАЛ „Югозападна болница“", "old_name": "МБАЛ „Свети Врач“"}}, {"name": "МБАЛ \"Св. Иван Рилски\", Дупница", "latitude": 42.2618612, "longitude": 23.1139548, "source": "osm", "_tags": {"amenity": "hospital", "healthcare": "hospital", "name": "МБАЛ \"Св. Иван Рилски\", Дупница"}}, {"name": "МБАЛ \"Св. Иван Рилски 2003\", Дупница", "latitude": 42.2674449, "longitude": 23.114379, "source": "osm", "_tags": {"amenity": "hospital", "healthcare": "hospital", "name": "МБАЛ \"Св. Иван Рилски 2003\", Дупница", "website": "https://www.mbal2003.com/"}}, {"name": "Специализирана болница за рехабилитация - Марикостиново", "latitude": 41.4387588, "longitude": 23.3174847, "source": "osm", "_tags": {"amenity": "hospital", "building": "yes", "healthcare": "hospital", "name": "Специализирана болница за рехабилитация - Марикостиново"}}, {"name": "Калолечебница", "latitude": 41.4377269, "longitude": 23.315815, "source": "osm", "_tags": {"amenity": "hospital", "building": "yes", "emergency": "no", "healthcare": "hospital", "healthcare:speciality": "osteopathy;orthopaedics", "name": "Калолечебница"}}, {"name": "Здравен цетнър", "latitude": 41.4309556, "longitude": 23.3384261, "source": "osm", "_tags": {"addr:city": "Марикостиново", "amenity": "hospital", "building": "hospital", "building:levels": "2", "emergency": "no", "healthcare": "hospital", "name": "Здравен цетнър"}}, {"name": "Специализирана болница за рехабилитация \"Сандански\"", "latitude": 41.5789229, "longitude": 23.2847259, "source": "osm", "_tags": {"amenity": "hospital", "emergency": "no", "healthcare": "hospital", "name": "Специализирана болница за рехабилитация \"Сандански\""}}]