[{"name": "Bayezıd Ünitesi", "latitude": 41.6855268, "longitude": 26.5432238, "source": "osm", "_tags": {"amenity": "hospital", "emergency": "no", "healthcare": "hospital", "name": "Bayezıd Ünitesi", "source": "Local knowledge"}}, {"name": "Κέντρο Υγείας Ορεστιάδας", "latitude": 41.4957505, "longitude": 26.5345972, "source": "osm", "_tags": {"amenity": "hospital", "healthcare": "hospital", "name": "Κέντρο Υγείας Ορεστιάδας", "name:el": "Κέντρο Υγείας Ορεστιάδας"}}, {"name": "Спешна помощ Свиленград", "latitude": 41.765492, "longitude": 26.2045983, "source": "osm", "_tags": {"access": "permissive", "emergency": "emergency_ward_entrance", "emergency_ward_entrance": "all", "entrance": "yes", "healthcare": "hospital", "name": "Спешна помощ Свиленград", "name:en": "Emergency Healthcare Svilengrad", "wheelchair": "yes"}}, {"name": "Спешна помощ Свиленград", "latitude": 41.7788855, "longitude": 26.2035477, "source": "osm", "_tags": {"access": "permissive", "emergency": "emergency_ward_entrance", "emergency_ward_entrance": "all", "entrance": "yes", "healthcare": "hospital", "name": "Спешна помощ Свиленград", "name:en": "Emergency Healthcare Svilengrad", "wheelchair": "yes"}}, {"name": "МБАЛ д-р Димитър Чакмаков", "latitude": 42.2917167, "longitude": 25.9448093, "source": "osm", "_tags": {"amenity": "hospital", "name": "МБАЛ д-р Димитър Чакмаков"}}, {"name": "МБАЛ \"Свети Иван Рилски\"", "latitude": 42.1764208, "longitude": 26.5816929, "source": "osm", "_tags": {"amenity": "hospital", "name": "МБАЛ \"Свети Иван Рилски\""}}, {"name": "Спешен медицински център", "latitude": 42.1499922, "longitude": 26.8122181, "source": "osm", "_tags": {"addr:city": "Болярово", "addr:housenumber": "10А", "addr:postcode": "8720", "addr:street": "Васил Левски", "amenity": "hospital", "emergency": "yes", "healthcare": "hospital", "name": "Спешен медицински център", "name:en": "Emergency Medical Center"}}, {"name": "Edirne Sultan 1. Murat Devlet Hastanesi", "latitude": 41.6543999, "longitude": 26.6048386, "source": "osm", "_tags": {"amenity": "hospital", "building": "yes", "check_date": "2025-03-24", "healthcare": "hospital", "name": "Edirne Sultan 1. Murat Devlet Hastanesi"}}, {"name": "Özel Ekol Hastanesi", "latitude": 41.652247, "longitude": 26.593721, "source": "osm", "_tags": {"addr:housenumber": "4", "addr:neighbourhood": "Koca Sinan Mah.", "addr:street": "Muammer Aksoy Caddesi", "amenity": "hospital", "building": "yes", "building:levels": "6", "check_date": "2025-03-24", "emergency": "yes", "healthcare": "hospital", "healthcare:speciality": "general;paediatrics;internal;orthopaedics;biology;radiology;surgery;urology;neurology;cardiology", "name": "Özel Ekol Hastanesi", "phone": "+90 284 236 1010", "website": "https://www.ekolhastanesi.com.tr/"}}, {"name": "МБАЛ Свиленград", "latitude": 41.7789469, "longitude": 26.2043895, "source": "osm", "_tags": {"amenity": "hospital", "emergency": "no", "fenced": "yes", "healthcare": "hospital", "healthcare:speciality": "general", "name": "МБАЛ Свиленград"}}, {"name": "TOKİ Aile Sağlığı Merkezi", "latitude": 41.6913392, "longitude": 26.5777437, "source": "osm", "_tags": {"amenity": "hospital", "building": "hospital", "name": "TOKİ Aile Sağlığı Merkezi"}}, {"name": "", "latitude": 42.0839709, "longitude": 26.3301754, "source": "osm", "_tags": {"amenity": "hospital", "healthcare": "hospital"}}, {"name": "Havsa İlçe Devlet Hastanesi", "latitude": 41.5506927, "longitude": 26.8099827, "source": "osm", "_tags": {"amenity": "hospital", "emergency": "yes", "healthcare": "hospital", "name": "Havsa İlçe Devlet Hastanesi", "operator": "Sağlık Bakanlığı", "operator:wikidata": "Q4294365", "operator:wikipedia": "tr:Türkiye Cumhuriyeti Sağlık Bakanlığı"}}, {"name": "Trakya Üniversitesi Tıp Fakültesi Sağlık Araştırma ve Uygulama Merkezi", "latitude": 41.6393481, "longitude": 26.6150595, "source": "osm", "_tags": {"amenity": "hospital", "healthcare": "hospital", "name": "Trakya Üniversitesi Tıp Fakültesi Sağlık Araştırma ve Uygulama Merkezi"}}, {"name": "Edirne Devlet Hastanesi Merkez Ünitesi", "latitude": 41.6746354, "longitude": 26.5607894, "source": "osm", "_tags": {"amenity": "hospital", "healthcare": "hospital", "name": "Edirne Devlet Hastanesi Merkez Ünitesi"}}, {"name": "Edirne D.H. Diyaliz Ünitesi", "latitude": 41.677793, "longitude": 26.5657425, "source": "osm", "_tags": {"amenity": "hospital", "healthcare": "hospital", "name": "Edirne D.H. Diyaliz Ünitesi"}}, {"name": "Lalapaşa İlçe Devlet Hastanesi", "latitude": 41.8394608, "longitude": 26.7315737, "source": "osm", "_tags": {"amenity": "hospital", "emergency": "yes", "healthcare": "hospital", "name": "Lalapaşa İlçe Devlet Hastanesi", "operator": "Sağlık Bakanlığı", "operator:wikidata": "Q4294365"}}, {"name": "Karakasım Aile Sağlığı Merkezi", "latitude": 41.5201553, "longitude": 26.6442647, "source": "osm", "_tags": {"amenity": "hospital", "building": "hospital", "name": "Karakasım Aile Sağlığı Merkezi"}}]