[{"name": "", "latitude": 41.513907, "longitude": 15.3318254, "source": "osm", "_tags": {"amenity": "hospital", "fixme": "should be turned into an area", "healthcare": "hospital"}}, {"name": "Pronto Soccorso Estivo", "latitude": 41.9079112, "longitude": 15.3374535, "source": "osm", "_tags": {"amenity": "hospital", "emergency": "yes", "healthcare": "hospital", "name": "Pronto Soccorso Estivo"}}, {"name": "a.s.l.fg", "latitude": 41.8316439, "longitude": 15.5765802, "source": "osm", "_tags": {"amenity": "hospital", "healthcare": "hospital", "name": "a.s.l.fg", "operator": "ASL", "operator:type": "public", "operator:wikidata": "Q3631467"}}, {"name": "Ospedale di San Marco in Lamis", "latitude": 41.712051, "longitude": 15.6410544, "source": "osm", "_tags": {"amenity": "hospital", "healthcare": "hospital", "name": "Ospedale di San Marco in Lamis"}}, {"name": "Ortopedia D'Avena", "latitude": 41.6893657, "longitude": 15.3837803, "source": "osm", "_tags": {"amenity": "hospital", "description": "Titolare Cristina D'Avena", "healthcare": "hospital", "name": "Ortopedia D'Avena"}}, {"name": "Pronto Soccorso", "latitude": 41.6904206, "longitude": 15.3865688, "source": "osm", "_tags": {"amenity": "hospital", "healthcare": "hospital", "name": "Pronto Soccorso"}}, {"name": "Dipartimento Dipendenze Patologiche", "latitude": 41.4698976, "longitude": 15.5394218, "source": "osm", "_tags": {"addr:city": "Foggia", "addr:housenumber": "54", "addr:postcode": "71121", "addr:street": "Via San Severo", "amenity": "hospital", "healthcare": "hospital", "name": "Dipartimento Dipendenze Patologiche", "operator": "ASL"}}, {"name": "ASL FG", "latitude": 41.4577649, "longitude": 15.5671561, "source": "osm", "_tags": {"amenity": "hospital", "name": "ASL FG"}}, {"name": "Polyambulatorio", "latitude": 41.8281425, "longitude": 15.7734269, "source": "osm", "_tags": {"amenity": "hospital", "healthcare": "hospital", "name": "Polyambulatorio"}}, {"name": "Ospedali Riuniti di Foggia", "latitude": 41.455593, "longitude": 15.5243654, "source": "osm", "_tags": {"addr:city": "Foggia", "addr:housenumber": "1", "addr:postcode": "71122", "addr:street": "Viale Luigi Pinto", "amenity": "hospital", "email": "direzionegenerale.segreteria@ospedaliriunitifoggia.it", "healthcare": "hospital", "healthcare:speciality": "general;paediatrics;nephrology;dermatology;emergency;orthodontics;radiology;cardiology;biology;surgery;oncology;community;intensive;biochemistry;orthopaedics;maternity;physiatry;vaccination;haematology;diabetology;fertility;dialysis;internal;neurology;chi", "name": "Ospedali Riuniti di Foggia", "opening_hours": "24/7", "phone": "0881 731111;+390881732441 (segreteria)", "ref:vatin": "02218910715", "website": "https://www.sanita.puglia.it/web/ospedaliriunitifoggia", "wheelchair": "yes", "wikidata": "Q30270204"}}, {"name": "Ospedali Riuniti di Foggia", "latitude": 41.4579087, "longitude": 15.5233868, "source": "osm", "_tags": {"amenity": "hospital", "emergency": "yes", "healthcare": "hospital", "name": "Ospedali Riuniti di Foggia", "website": "https://www.sanita.puglia.it/web/ospedaliriunitifoggia/", "wikidata": "Q30270204"}}, {"name": "Ospedale San Camillo De Lellis", "latitude": 41.6333743, "longitude": 15.9188883, "source": "osm", "_tags": {"amenity": "hospital", "emergency": "yes", "healthcare": "hospital", "name": "Ospedale San Camillo De Lellis"}}, {"name": "Ospedale Civile \"San Timoteo\"", "latitude": 41.9884091, "longitude": 14.9914181, "source": "osm", "_tags": {"amenity": "hospital", "building": "yes", "healthcare": "hospital", "name": "Ospedale Civile \"San Timoteo\"", "name:etymology:wikidata": "Q212647"}}, {"name": "Casa della Divina Provvidenza Ospedale \"Don Uva\"", "latitude": 41.4696406, "longitude": 15.5278252, "source": "osm", "_tags": {"amenity": "hospital", "healthcare": "hospital", "name": "Casa della Divina Provvidenza Ospedale \"Don Uva\""}}, {"name": "Casa di Cura \"Maria Grazia Barone\"", "latitude": 41.4556355, "longitude": 15.5471352, "source": "osm", "_tags": {"amenity": "hospital", "healthcare": "hospital", "name": "Casa di Cura \"Maria Grazia Barone\""}}, {"name": "ASL Foggia", "latitude": 41.4446839, "longitude": 15.5608815, "source": "osm", "_tags": {"amenity": "hospital", "healthcare": "hospital", "name": "ASL Foggia", "operator": "ASL", "operator:wikidata": "Q3631467"}}, {"name": "Ospedale Teresa Masselli Mascia", "latitude": 41.690307, "longitude": 15.3848945, "source": "osm", "_tags": {"amenity": "hospital", "healthcare": "hospital", "name": "Ospedale Teresa Masselli Mascia"}}, {"name": "Casa Sollievo della Sofferenza", "latitude": 41.7092743, "longitude": 15.707468, "source": "osm", "_tags": {"amenity": "hospital", "healthcare": "hospital", "name": "Casa Sollievo della Sofferenza", "start_date": "1956-05-05", "wheelchair": "yes", "wikidata": "Q1213805", "wikipedia": "it:Casa Sollievo della Sofferenza"}}, {"name": "Clinica S. Francesco", "latitude": 41.4436244, "longitude": 15.5445281, "source": "osm", "_tags": {"amenity": "hospital", "name": "Clinica S. Francesco"}}, {"name": "Medicina Universitaria", "latitude": 41.4546043, "longitude": 15.5221165, "source": "osm", "_tags": {"amenity": "hospital", "healthcare": "hospital", "name": "Medicina Universitaria"}}, {"name": "Studio dentistico", "latitude": 41.8330692, "longitude": 15.5740237, "source": "osm", "_tags": {"amenity": "hospital", "healthcare": "hospital", "healthcare:speciality": "dentistry", "name": "Studio dentistico", "operator": "Dr. Costantino Ciavarella"}}, {"name": "", "latitude": 41.7084383, "longitude": 15.7023547, "source": "osm", "_tags": {"amenity": "hospital", "healthcare": "hospital"}}, {"name": "ASL", "latitude": 41.6950254, "longitude": 15.2926377, "source": "osm", "_tags": {"alt_name": "Continuit√† Assistenziale di Torremaggiore", "amenity": "hospital", "emergency": "yes", "healthcare": "hospital", "name": "ASL", "operator": "ASL", "operator:type": "public", "operator:wikidata": "Q3631467"}}, {"name": "Asl", "latitude": 41.7343996, "longitude": 15.2619923, "source": "osm", "_tags": {"addr:city": "San Paolo di Civitate", "addr:postcode": "71010", "addr:street": "Via C. A. Della Chiesa", "amenity": "hospital", "healthcare": "hospital", "medical_supply": "yes", "name": "Asl", "operator": "ASL", "operator:type": "public", "operator:wikidata": "Q3631467"}}]