[{"name": "Casa della salute di Sezze", "latitude": 41.5002213, "longitude": 13.0620967, "source": "osm", "_tags": {"addr:housenumber": "1", "addr:postcode": "04018", "addr:street": "Via San Bartolomeo", "amenity": "hospital", "check_date": "2022-12-13", "name": "Casa della salute di Sezze", "opening_hours": "Mo-Fr 08:00-20:00", "operator:type": "public", "phone": "+39 0773 801500"}}, {"name": "Croce Verde", "latitude": 42.0958986, "longitude": 13.8715157, "source": "osm", "_tags": {"amenity": "hospital", "name": "Croce Verde"}}, {"name": "La Città Bianca", "latitude": 41.6740971, "longitude": 13.4275585, "source": "osm", "_tags": {"amenity": "hospital", "name": "La Città Bianca"}}, {"name": "Casa Di Cura Santa Maria Teresa", "latitude": 41.6758691, "longitude": 13.5768035, "source": "osm", "_tags": {"addr:housenumber": "23", "addr:street": "Via Nazionale", "amenity": "hospital", "name": "Casa Di Cura Santa Maria Teresa", "phone": "+39 0776 80291", "website": "casadicurasteresa.com"}}, {"name": "Istituto Neurotraumatologico Italiano", "latitude": 41.9329767, "longitude": 13.4091215, "source": "osm", "_tags": {"amenity": "hospital", "healthcare:speciality": "neurotraumatology", "name": "Istituto Neurotraumatologico Italiano"}}, {"name": "Pronto Soccorso Ospedale \"Arnaldo Angelucci\"", "latitude": 41.9322074, "longitude": 13.0862927, "source": "osm", "_tags": {"addr:city": "Subiaco", "amenity": "hospital", "emergency": "yes", "healthcare": "hospital", "name": "Pronto Soccorso Ospedale \"Arnaldo Angelucci\""}}, {"name": "Pronto Soccorso Ospedale Spaziani", "latitude": 41.6384261, "longitude": 13.3261536, "source": "osm", "_tags": {"addr:city": "Frosinone", "amenity": "hospital", "emergency": "yes", "healthcare": "hospital", "name": "Pronto Soccorso Ospedale Spaziani"}}, {"name": "Pronto Soccorso Ospedale \"Leopoldo Parodi Delfino\"", "latitude": 41.7281693, "longitude": 13.0040687, "source": "osm", "_tags": {"addr:city": "Colleferro", "addr:postcode": "00034", "amenity": "hospital", "healthcare": "hospital", "name": "Pronto Soccorso Ospedale \"Leopoldo Parodi Delfino\""}}, {"name": "Pronto Soccorso Ospedale \"San Benedetto\"", "latitude": 41.737609, "longitude": 13.3344057, "source": "osm", "_tags": {"addr:city": "Alatri", "amenity": "hospital", "emergency": "yes", "healthcare": "hospital", "name": "Pronto Soccorso Ospedale \"San Benedetto\""}}, {"name": "Croce Rossa Italiana Unità Territoriale Ovindoli", "latitude": 42.1380524, "longitude": 13.5176642, "source": "osm", "_tags": {"healthcare": "hospital", "name": "Croce Rossa Italiana Unità Territoriale Ovindoli", "operator": "Croce Rossa Italiana"}}, {"name": "Distretto sanitario di Barisciano", "latitude": 42.3266479, "longitude": 13.5908324, "source": "osm", "_tags": {"amenity": "hospital", "healthcare": "hospital", "name": "Distretto sanitario di Barisciano"}}, {"name": "Distretto sanitario di Capestrano", "latitude": 42.26567, "longitude": 13.7695661, "source": "osm", "_tags": {"amenity": "hospital", "healthcare": "hospital", "name": "Distretto sanitario di Capestrano"}}, {"name": "Aurora Hospital", "latitude": 41.7305195, "longitude": 13.0028905, "source": "osm", "_tags": {"amenity": "hospital", "name": "Aurora Hospital"}}, {"name": "Ambulatorio Medico", "latitude": 41.8891939, "longitude": 13.3244079, "source": "osm", "_tags": {"addr:street": "Via Aldo Moro", "amenity": "social_facility", "healthcare": "hospital", "name": "Ambulatorio Medico", "nohousenumber": "yes", "opening_hours": "Mo 10:39-12:00; Tu 09:00-10:15; We 18:00-20:00; Th 09:00-10:15; Fr 16:00-17:00", "social_facility": "ambulatory_care"}}, {"name": "ASL FROSINONE", "latitude": 41.6381564, "longitude": 13.3232447, "source": "osm", "_tags": {"amenity": "hospital", "healthcare": "hospital", "name": "ASL FROSINONE", "operator": "ASL", "operator:type": "public", "operator:wikidata": "Q3631467"}}, {"name": "Ospedale Civile Pasquale Del Prete Pontecorvo", "latitude": 41.4600713, "longitude": 13.667352, "source": "osm", "_tags": {"amenity": "hospital", "building": "yes", "name": "Ospedale Civile Pasquale Del Prete Pontecorvo"}}, {"name": "Arnaldo Angelucci", "latitude": 41.9321227, "longitude": 13.0870456, "source": "osm", "_tags": {"amenity": "hospital", "name": "Arnaldo Angelucci"}}, {"name": "Presidio sanitario Anagni", "latitude": 41.7413871, "longitude": 13.1626361, "source": "osm", "_tags": {"amenity": "hospital", "building": "hospital", "name": "Presidio sanitario Anagni"}}, {"name": "", "latitude": 41.7372689, "longitude": 13.3351207, "source": "osm", "_tags": {"amenity": "hospital"}}, {"name": "Ospedale Leopoldo Parodi Delfino", "latitude": 41.7276392, "longitude": 13.0047131, "source": "osm", "_tags": {"addr:city": "Colleferro", "addr:housenumber": "1", "addr:postcode": "00034", "addr:street": "Piazza Aldo Moro", "amenity": "hospital", "email": "urpcolleferroh@aslroma5.it", "emergency": "yes", "healthcare": "hospital", "name": "Ospedale Leopoldo Parodi Delfino", "phone": "+39 06 97221", "website": "https://www.aslroma5.it/ospedali-case-salute/ospedale-di-colleferro/"}}, {"name": "", "latitude": 41.4606104, "longitude": 13.6678876, "source": "osm", "_tags": {"amenity": "hospital", "building": "yes", "emergency": "yes"}}, {"name": "Ospedale Fabrizio Spaziani", "latitude": 41.6378992, "longitude": 13.3235074, "source": "osm", "_tags": {"amenity": "hospital", "emergency": "yes", "healthcare": "hospital", "name": "Ospedale Fabrizio Spaziani"}}, {"name": "Ospedale Santissima Trinità", "latitude": 41.7296269, "longitude": 13.6354076, "source": "osm", "_tags": {"amenity": "hospital", "emergency": "yes", "name": "Ospedale Santissima Trinità", "website": "https://www.asl.fr.it/strutture/presidi-ospedalieri/sora-ospedale-ss-trinit%C3%A0"}}, {"name": "Ospedale Civile \"SS. Annunziata\"", "latitude": 42.038647, "longitude": 13.9328207, "source": "osm", "_tags": {"amenity": "hospital", "emergency": "yes", "name": "Ospedale Civile \"SS. Annunziata\"", "wheelchair": "yes"}}, {"name": "Ospedale Civile di Tagliacozzo Umberto I", "latitude": 42.0715898, "longitude": 13.2550714, "source": "osm", "_tags": {"amenity": "hospital", "healthcare": "hospital", "name": "Ospedale Civile di Tagliacozzo Umberto I"}}, {"name": "ASL Roma 5 – Distretto di Colleferro", "latitude": 41.7302294, "longitude": 13.0002279, "source": "osm", "_tags": {"addr:city": "Colleferro", "addr:housenumber": "9", "addr:postcode": "00034", "addr:street": "Via degli Esplosivi", "amenity": "hospital", "building": "yes", "building:colour": "green", "building:levels": "2", "healthcare": "hospital", "name": "ASL Roma 5 – Distretto di Colleferro", "operator": "ASL", "operator:wikidata": "Q3631467", "website": "https://www.aslroma5.info/web/"}}, {"name": "ASL Roma 5 – Distretto di Colleferro", "latitude": 41.7298728, "longitude": 12.9995228, "source": "osm", "_tags": {"addr:city": "Colleferro", "addr:housenumber": "9", "addr:postcode": "00034", "addr:street": "Via degli Esplosivi", "amenity": "hospital", "building": "yes", "building:colour": "pink", "building:levels": "2", "healthcare": "hospital", "name": "ASL Roma 5 – Distretto di Colleferro", "operator": "ASL", "operator:wikidata": "Q3631467", "phone": "+39 06 97221", "website": "https://www.aslroma5.info/web/"}}, {"name": "ASL Roma 5 – Consultorio Familiare – UOS Prevenzione Età Pediatrica ed Evolutiva", "latitude": 41.7303479, "longitude": 13.0038864, "source": "osm", "_tags": {"amenity": "hospital", "building": "yes", "healthcare": "hospital", "name": "ASL Roma 5 – Consultorio Familiare – UOS Prevenzione Età Pediatrica ed Evolutiva", "operator": "ASL", "operator:wikidata": "Q3631467", "short_name": "Consultorio familiare"}}, {"name": "Croce Rossa Italiana - L'Aquila", "latitude": 42.357234, "longitude": 13.4047252, "source": "osm", "_tags": {"addr:city": "L'Aquila", "addr:housenumber": "14", "addr:postcode": "67100", "addr:street": "Viale della Croce Rossa", "amenity": "hospital", "building": "hospital", "contact:facebook": "https://www.facebook.com/cri.Laquila", "contact:instagram": "https://www.instagram.com/crocerossalaquila/", "email": "laquila@cri.it", "healthcare": "hospital", "name": "Croce Rossa Italiana - L'Aquila", "operator": "Croce Rossa Italiana", "operator:wikidata": "Q913903", "operator:wikipedia": "it:Croce Rossa Italiana", "phone": "+39 0862 26061", "website": "https://criaq.it/"}}, {"name": "Ospedale Civile FR5", "latitude": 41.5712279, "longitude": 13.3404833, "source": "osm", "_tags": {"amenity": "hospital", "healthcare": "hospital", "name": "Ospedale Civile FR5"}}, {"name": "Ospedale \"Santa Scolastica\"", "latitude": 41.5054749, "longitude": 13.8435392, "source": "osm", "_tags": {"addr:city": "Cassino", "amenity": "hospital", "emergency": "yes", "healthcare": "hospital", "name": "Ospedale \"Santa Scolastica\"", "phone": "+39 0776 39291"}}, {"name": "Casa di Cura Sant'Anna", "latitude": 41.4922615, "longitude": 13.8381454, "source": "osm", "_tags": {"addr:city": "Cassino", "addr:postcode": "03043", "addr:street": "Via Karl Herold", "amenity": "hospital", "building": "yes", "email": "info@santannacassino.it", "emergency": "no", "fax": "+39 0776 311147", "healthcare": "hospital", "name": "Casa di Cura Sant'Anna", "nohousenumber": "yes", "operator:type": "private", "phone": "+39 0776 311123", "website": "https://www.santannacassino.it/"}}, {"name": "Ospedale Serafino Rinaldi", "latitude": 42.0277611, "longitude": 13.6483249, "source": "osm", "_tags": {"addr:city": "Pescina", "addr:postcode": "67057", "addr:street": "Via Serafino Rinaldi", "amenity": "hospital", "healthcare": "hospital", "name": "Ospedale Serafino Rinaldi", "phone": "+39 0863 8991", "website": "https://www.asl1abruzzo.it/"}}, {"name": "", "latitude": 41.6352165, "longitude": 13.7817695, "source": "osm", "_tags": {"amenity": "hospital", "healthcare": "hospital"}}, {"name": "IPAB Ferrari", "latitude": 41.5450683, "longitude": 13.5187272, "source": "osm", "_tags": {"amenity": "hospital", "healthcare": "hospital", "name": "IPAB Ferrari"}}, {"name": "", "latitude": 41.6390646, "longitude": 13.3475199, "source": "osm", "_tags": {"amenity": "hospital", "healthcare": "hospital"}}, {"name": "", "latitude": 41.5449518, "longitude": 13.5189595, "source": "osm", "_tags": {"amenity": "hospital", "healthcare": "hospital"}}, {"name": "Presidio Ospedaliero di Collemaggio", "latitude": 42.3446464, "longitude": 13.4037575, "source": "osm", "_tags": {"amenity": "hospital", "healthcare": "hospital", "name": "Presidio Ospedaliero di Collemaggio", "wikidata": "Q65094911"}}, {"name": "Presidio sanitario Isola del Liri", "latitude": 41.6812588, "longitude": 13.5775697, "source": "osm", "_tags": {"addr:city": "Isola del Liri", "addr:postcode": "03036", "addr:street": "Via Ospedale", "amenity": "hospital", "healthcare": "hospital", "name": "Presidio sanitario Isola del Liri", "phone": "+39 0776814848", "type": "multipolygon", "website": "https://www.asl.fr.it/strutture/presidi-sanitari/isola-del-liri-presidio-sanitario-memoria-caduti"}}, {"name": "Poliambulatorio distrettuale di Paganica", "latitude": 42.336659, "longitude": 13.470292, "source": "osm", "_tags": {"addr:city": "Bazzano", "addr:postcode": "67100", "addr:street": "Via dell'Industria", "amenity": "hospital", "healthcare": "hospital", "name": "Poliambulatorio distrettuale di Paganica", "type": "multipolygon"}}, {"name": "Ospedale Regionale San Salvatore", "latitude": 42.3654197, "longitude": 13.3516764, "source": "osm", "_tags": {"amenity": "hospital", "emergency": "yes", "healthcare": "hospital", "loc_name": "San Salvatore", "name": "Ospedale Regionale San Salvatore", "short_name": "Ospedale San Salvatore", "type": "multipolygon"}}, {"name": "Distretto sanitario di Rocca di Mezzo", "latitude": 42.2101682, "longitude": 13.5185501, "source": "osm", "_tags": {"addr:city": "Rocca di Mezzo", "addr:postcode": "67048", "addr:street": "Strada Provinciale 38 Nuova Vestina", "amenity": "hospital", "healthcare": "hospital", "healthcare:speciality": "general", "name": "Distretto sanitario di Rocca di Mezzo", "operator": "ASL01 Avezzano-Sulmona-L'Aquila", "operator:type": "government", "phone": "+39 0862 917338", "type": "multipolygon"}}, {"name": "Distretto sanitario di San Demetrio ne' Vestini", "latitude": 42.2869786, "longitude": 13.5582751, "source": "osm", "_tags": {"addr:city": "San Demetrio ne' Vestini", "addr:postcode": "67028", "addr:street": "Via Ventiquattro Maggio", "amenity": "hospital", "healthcare": "hospital", "name": "Distretto sanitario di San Demetrio ne' Vestini", "type": "multipolygon"}}, {"name": "Distretto Sanitario di Tornimparte", "latitude": 42.3380006, "longitude": 13.2598116, "source": "osm", "_tags": {"addr:city": "Rocca Santo Stefano", "addr:postcode": "67049", "addr:street": "Via Testrina", "amenity": "hospital", "healthcare": "hospital", "healthcare:speciality": "general", "name": "Distretto Sanitario di Tornimparte", "operator": "ASL01 Avezzano-Sulmona-L'Aquila", "operator:type": "government", "phone": "+39 0862 729138", "type": "multipolygon"}}, {"name": "Ospedale Santissima Trinità", "latitude": 42.1758543, "longitude": 13.8273611, "source": "osm", "_tags": {"amenity": "hospital", "healthcare": "hospital", "name": "Ospedale Santissima Trinità", "operator:type": "public", "phone": "+39 085 98981", "type": "multipolygon", "website": "https://sanita.regione.abruzzo.it/canale-ospedali/ospedale-di-popoli"}}, {"name": "Casa di Cura \"San Raffaele\"", "latitude": 42.0720151, "longitude": 13.9131843, "source": "osm", "_tags": {"amenity": "hospital", "healthcare": "hospital", "name": "Casa di Cura \"San Raffaele\"", "type": "multipolygon", "wheelchair": "yes"}}, {"name": "RSA - Azienda Sanitaria Locale Di Pescara", "latitude": 42.2180693, "longitude": 13.9149992, "source": "osm", "_tags": {"amenity": "hospital", "healthcare": "hospital", "name": "RSA - Azienda Sanitaria Locale Di Pescara", "type": "multipolygon"}}]