[{"name": "Farmacia Lahoz", "latitude": 41.4449807, "longitude": -1.7058057, "source": "osm", "_tags": {"addr:street": "Plaza Antonino Peiró, 2, 50313 Aniñón, Zaragoza", "amenity": "pharmacy", "dispensing": "yes", "emergency": "no", "healthcare": "hospital", "healthcare:speciality": "pharmacie", "name": "Farmacia Lahoz"}}, {"name": "Hospital de Calahorra", "latitude": 42.313538, "longitude": -1.9804354, "source": "osm", "_tags": {"amenity": "hospital", "name": "Hospital de Calahorra"}}, {"name": "Cruz Roja Alagon", "latitude": 41.7741549, "longitude": -1.1259325, "source": "osm", "_tags": {"amenity": "hospital", "emergency": "ambulance_station", "healthcare": "hospital", "name": "Cruz Roja Alagon", "operator": "Cruz Roja", "operator:type": "ngo", "operator:wikidata": "Q7178", "operator:wikipedia": "es:Cruz Roja", "phone": "+34 976656263", "ref": "Bravo52.1"}}, {"name": "Cruz Roja", "latitude": 41.4764239, "longitude": -1.3691683, "source": "osm", "_tags": {"amenity": "hospital", "brand": "Cruz Roja", "building": "yes", "healthcare": "hospital", "name": "Cruz Roja", "not:operator:wikidata": "Q7178", "note": "Puesto de Cruz Roja en La almunia"}}, {"name": "Viamed de Calahorra", "latitude": 42.3145575, "longitude": -1.9804404, "source": "osm", "_tags": {"amenity": "hospital", "name": "Viamed de Calahorra"}}, {"name": "Centro Salud Valtierra", "latitude": 42.1956833, "longitude": -1.6305791, "source": "osm", "_tags": {"amenity": "hospital", "building": "yes", "healthcare": "hospital", "name": "Centro Salud Valtierra"}}, {"name": "Hospital Reina Sofía", "latitude": 42.0408596, "longitude": -1.6253213, "source": "osm", "_tags": {"amenity": "hospital", "building": "yes", "emergency": "yes", "healthcare": "hospital", "name": "Hospital Reina Sofía", "network": "Servicio Navarro de Salud-Osasunbidea", "network:short": "SNS-O", "operator:type": "public", "wikidata": "Q12266496"}}, {"name": "Centro médico", "latitude": 42.308831, "longitude": -1.8966886, "source": "osm", "_tags": {"addr:city": "Azagra", "addr:postcode": "31560", "addr:street": "Calle Ramón y Cajal", "amenity": "hospital", "emergency": "no", "healthcare": "hospital", "healthcare:speciality": "general", "name": "Centro médico"}}, {"name": "Hospital Cinco Villas", "latitude": 42.1257884, "longitude": -1.1304488, "source": "osm", "_tags": {"amenity": "hospital", "emergency": "yes", "healthcare": "hospital", "name": "Hospital Cinco Villas"}}, {"name": "", "latitude": 42.0408106, "longitude": -1.6249305, "source": "osm", "_tags": {"amenity": "hospital", "healthcare": "hospital"}}]