[{"name": "Farmacia - Ambulatorio Medico", "latitude": 41.8781305, "longitude": 14.2948523, "source": "osm", "_tags": {"amenity": "hospital", "healthcare": "hospital", "name": "Farmacia - Ambulatorio Medico"}}, {"name": "DSB Ortona", "latitude": 42.355146, "longitude": 14.4008953, "source": "osm", "_tags": {"addr:city": "Ortona", "addr:housenumber": "4", "addr:postcode": "66026", "addr:street": "Piazza San Francesco d'Assisi", "amenity": "hospital", "healthcare": "hospital", "name": "DSB Ortona"}}, {"name": "Croce Rossa Italiana Unità Territoriale Pianella", "latitude": 42.4010597, "longitude": 14.0521687, "source": "osm", "_tags": {"amenity": "hospital", "healthcare": "hospital", "name": "Croce Rossa Italiana Unità Territoriale Pianella"}}, {"name": "Distretto Sanitario di Base di Ortona", "latitude": 42.3551209, "longitude": 14.4005804, "source": "osm", "_tags": {"addr:city": "Ortona", "addr:housenumber": "4", "addr:postcode": "66026", "addr:street": "Piazza San Francesco d'Assisi", "amenity": "hospital", "healthcare": "hospital", "name": "Distretto Sanitario di Base di Ortona", "operator": "ASL 2 Chieti", "operator:type": "public"}}, {"name": "Ospedale Renzetti Lanciano Pronto Soccorso", "latitude": 42.2299483, "longitude": 14.3969912, "source": "osm", "_tags": {"addr:housenumber": "1", "addr:postcode": "66034", "addr:street": "Via del Mare", "amenity": "hospital", "name": "Ospedale Renzetti Lanciano Pronto Soccorso", "opening_hours": "24/7"}}, {"name": "Ex Ospedale Civile", "latitude": 42.3510417, "longitude": 14.1738749, "source": "osm", "_tags": {"amenity": "hospital", "healthcare": "hospital", "name": "Ex Ospedale Civile"}}, {"name": "Ex Ospedale S. Camillo de Lellis", "latitude": 42.3435264, "longitude": 14.1718415, "source": "osm", "_tags": {"addr:city": "Chieti", "addr:postcode": "66100", "addr:street": "Via Carlo Forlanini", "disused": "yes", "disused:amenity": "hospital", "healthcare": "hospital", "name": "Ex Ospedale S. Camillo de Lellis"}}, {"name": "Ospedale Clinicizzato Santissima Annunziata", "latitude": 42.3660087, "longitude": 14.1527189, "source": "osm", "_tags": {"addr:city": "Chieti", "addr:postcode": "66100", "addr:street": "Via dei Vestini", "amenity": "hospital", "contact:phone": "+39 0871 3571", "emergency": "yes", "healthcare": "hospital", "healthcare:speciality": "pathology;anaesthetics;intensive;haematology;cardiology;general;emergency;ophthalmology;orthodontics;orthopaedics;cardiothoracic_surgery;oncology;allergology;dermatology;geriatrics;nephrology;diagnostic_radiology;infectious_diseases;radiotherapy;nuclear", "name": "Ospedale Clinicizzato Santissima Annunziata", "opening_hours": "24/7", "website": "https://www.info.asl2abruzzo.it/ospedalechieti/direzione-sanitaria.html"}}, {"name": "Ospedale \"Floraspe Renzetti\"", "latitude": 42.2311541, "longitude": 14.3977849, "source": "osm", "_tags": {"addr:city": "Lanciano", "addr:housenumber": "1", "addr:postcode": "66034", "addr:street": "Via del Mare", "alt_name": "Ospedale di Lanciano", "amenity": "hospital", "healthcare": "hospital", "name": "Ospedale \"Floraspe Renzetti\"", "operator:type": "public"}}, {"name": "Casa di Cura Villa Esther", "latitude": 41.4880331, "longitude": 14.4732296, "source": "osm", "_tags": {"addr:city": "Bojano", "addr:country": "IT", "addr:housenumber": "18", "addr:postcode": "86021", "addr:street": "Via Gino Di Biase", "amenity": "hospital", "building": "hospital", "name": "Casa di Cura Villa Esther", "phone": "+39 0874 751001", "source": "Bing, Local knowledge"}}, {"name": "Ospedale Ferdinando Veneziale", "latitude": 41.58271, "longitude": 14.2220409, "source": "osm", "_tags": {"addr:city": "Isernia", "addr:housenumber": "1", "addr:postcode": "86170", "addr:street": "Via Sant'Ippolito", "amenity": "hospital", "emergency": "yes", "healthcare": "hospital", "name": "Ospedale Ferdinando Veneziale", "operator": "Asrem - Azienda Sanitaria Regionale del Molise", "phone": "+39 0965 4421", "website": "https://www.asrem.molise.it/lazienda/presidio-ospedaliero-unico-regionale/ospedale-di-isernia-spoke/"}}, {"name": "Guardia Medica", "latitude": 41.7400219, "longitude": 14.8516006, "source": "osm", "_tags": {"amenity": "hospital", "building": "yes", "healthcare": "hospital", "name": "Guardia Medica"}}, {"name": "Ospedale \"SS. Maria Immacolata\"", "latitude": 42.2008911, "longitude": 14.2170085, "source": "osm", "_tags": {"amenity": "hospital", "emergency": "yes", "healthcare": "hospital", "name": "Ospedale \"SS. Maria Immacolata\"", "website": "https://www.info.asl2abruzzo.it/ospedaleguardiagrele/"}}, {"name": "Presidio ospedaliero \"Caracciolo\"", "latitude": 41.810788, "longitude": 14.3771395, "source": "osm", "_tags": {"amenity": "hospital", "healthcare": "hospital", "name": "Presidio ospedaliero \"Caracciolo\"", "operator": "ASREM", "operator:type": "public"}}, {"name": "Distretto Sanitario di Base", "latitude": 42.3614546, "longitude": 14.2931052, "source": "osm", "_tags": {"addr:city": "Miglianico", "addr:housenumber": "21", "addr:postcode": "66010", "addr:street": "Costa della Forma", "amenity": "hospital", "healthcare": "hospital", "name": "Distretto Sanitario di Base"}}, {"name": "Casa di Cura Villa Maria", "latitude": 41.5534345, "longitude": 14.6593171, "source": "osm", "_tags": {"addr:city": "Campobasso", "addr:country": "IT", "addr:housenumber": "4", "addr:postcode": "86100", "addr:street": "Viale Principe di Piemonte", "amenity": "hospital", "email": "info@villa-maria.it", "emergency": "no", "healthcare": "hospital", "name": "Casa di Cura Villa Maria", "phone": "+39 0874 91723", "start_date": "1952", "website": "https://www.villa-maria.it/"}}, {"name": "Ospedale San Pio da Pietrelcina", "latitude": 42.117951, "longitude": 14.7102461, "source": "osm", "_tags": {"addr:city": "Vasto", "addr:postcode": "66054", "addr:street": "Via San Camillo de Lellis", "amenity": "hospital", "contact:phone": "+39 0873 3081", "emergency": "yes", "healthcare": "hospital", "name": "Ospedale San Pio da Pietrelcina", "operator": "ASL Lanciano-Vasto-Chieti", "operator:type": "public", "website": "https://www.info.asl2abruzzo.it/ospedalevasto/"}}, {"name": "Ospedale Antonio Cardarelli", "latitude": 41.5478109, "longitude": 14.6224944, "source": "osm", "_tags": {"amenity": "hospital", "healthcare": "hospital", "name": "Ospedale Antonio Cardarelli", "phone": "+39 0874 4091"}}, {"name": "Distretto socio-sanitario - Scafa", "latitude": 42.266942, "longitude": 13.9962515, "source": "osm", "_tags": {"addr:city": "Scafa", "addr:postcode": "65027", "addr:street": "Via della Stazione", "alt_name": "ASL Scafa", "amenity": "hospital", "check_date": "2025-07-23", "emergency": "yes", "healthcare": "hospital", "healthcare:speciality": "general", "name": "Distretto socio-sanitario - Scafa", "operator": "USL Pescara", "operator:type": "public"}}, {"name": "Ospedale \"Gaetano Bernabeo\"", "latitude": 42.350763, "longitude": 14.389367, "source": "osm", "_tags": {"addr:city": "Ortona", "addr:postcode": "66026", "addr:street": "Via Nicola Calipari", "amenity": "hospital", "emergency": "yes", "healthcare": "hospital", "name": "Ospedale \"Gaetano Bernabeo\"", "operator:type": "public", "website": "https://www.info.asl2abruzzo.it/ospedaleortona/"}}, {"name": "Responsible Research Hospital", "latitude": 41.5482946, "longitude": 14.6132209, "source": "osm", "_tags": {"addr:city": "Campobasso", "addr:housenumber": "1", "addr:postcode": "86100", "addr:street": "Largo Agostino Gemelli", "amenity": "hospital", "emergency": "yes", "healthcare": "hospital", "name": "Responsible Research Hospital", "old_name:1995-2010": "Centro di Ricerca e Formazione ad Alta Tecnologia nelle Scienze Biomediche “Giovanni Paolo II”", "old_name:2010-2019": "Fondazione di Ricerca e Cura “Giovanni Paolo II”", "old_name:2019-2023": "Gemelli Molise", "phone": "+39 0874 312312"}}, {"name": "IRCCS Neuromed", "latitude": 41.5146168, "longitude": 14.0605152, "source": "osm", "_tags": {"addr:city": "Pozzilli", "addr:housenumber": "18", "addr:postcode": "86077", "addr:street": "Via Atinense", "amenity": "hospital", "name": "IRCCS Neuromed", "phone": "+39 0865 9291"}}, {"name": "", "latitude": 42.4131208, "longitude": 14.201363, "source": "osm", "_tags": {"amenity": "hospital", "healthcare": "hospital"}}, {"name": "Ospedale Civile di Castel di Sangro", "latitude": 41.77602, "longitude": 14.116426, "source": "osm", "_tags": {"addr:city": "Castel di Sangro", "addr:postcode": "67031", "amenity": "hospital", "healthcare": "hospital", "name": "Ospedale Civile di Castel di Sangro", "phone": "+39 0864 8991", "website": "https://sanita.regione.abruzzo.it/canale-ospedali/ospedale-di-castel-di-sangro"}}, {"name": "San Camillo De Lellis", "latitude": 42.0729591, "longitude": 14.4480888, "source": "osm", "_tags": {"addr:city": "Atessa", "addr:housenumber": "4", "addr:postcode": "66041", "addr:street": "Via Antonio Gramsci", "building": "hospital", "contact:phone": "+39 0872 8641", "healthcare": "hospital", "name": "San Camillo De Lellis", "source": "microsoft/BuildingFootprints"}}, {"name": "ASL Cepagatti DSB", "latitude": 42.358756, "longitude": 14.0679188, "source": "osm", "_tags": {"addr:city": "Cepagatti", "addr:housenumber": "1", "addr:street": "Via Piano Ripa", "amenity": "hospital", "contact:phone": "+39 085 974535", "emergency": "yes", "fenced": "yes", "name": "ASL Cepagatti DSB"}}, {"name": "Ospedale di comunità SS. Rosario", "latitude": 41.4797183, "longitude": 14.0384127, "source": "osm", "_tags": {"amenity": "hospital", "healthcare": "hospital", "name": "Ospedale di comunità SS. Rosario", "operator": "ASREM"}}, {"name": "Ospedale civile G. Vietri", "latitude": 41.806211, "longitude": 14.923462, "source": "osm", "_tags": {"amenity": "hospital", "building": "roof", "healthcare": "hospital", "layer": "1", "name": "Ospedale civile G. Vietri", "type": "multipolygon"}}, {"name": "A.S.L. Pescara polisanitario di San Valentino A.C.", "latitude": 42.225825, "longitude": 13.9878823, "source": "osm", "_tags": {"addr:city": "San Valentino in Abruzzo Citeriore", "addr:street": "Via Giovanni Falcone", "amenity": "hospital", "emergency": "yes", "healthcare": "hospital", "name": "A.S.L. Pescara polisanitario di San Valentino A.C.", "operator": "ASL", "operator:type": "public", "operator:wikidata": "Q3631467", "operator:wikipedia": "it:Azienda sanitaria locale", "type": "multipolygon"}}]