[{"name": "", "latitude": 42.5144385, "longitude": 18.6986482, "source": "osm", "_tags": {"amenity": "hospital", "healthcare": "hospital"}}, {"name": "Institut Dr. Simo Milošević - II Faza", "latitude": 42.4573163, "longitude": 18.5089299, "source": "osm", "_tags": {"amenity": "hospital", "designation": "Igalo", "emergency": "yes", "healthcare": "hospital", "name": "Institut Dr. Simo Milošević - II Faza", "name:sr": "Институт Др. Симо Милошевић - II фаза"}}, {"name": "Vojna bolnica", "latitude": 42.4521485, "longitude": 18.5574348, "source": "osm", "_tags": {"amenity": "hospital", "healthcare": "hospital", "name": "Vojna bolnica", "name:sr": "Војна болница"}}, {"name": "", "latitude": 42.43352, "longitude": 18.6977565, "source": "osm", "_tags": {"amenity": "hospital", "healthcare": "hospital"}}, {"name": "Porodilište Meljine", "latitude": 42.4515472, "longitude": 18.5550552, "source": "osm", "_tags": {"amenity": "hospital", "emergency": "yes", "healthcare": "hospital", "healthcare:speciality": "maternity", "name": "Porodilište Meljine", "name:sr": "Породилиште Мељине"}}, {"name": "", "latitude": 42.4308893, "longitude": 18.6991473, "source": "osm", "_tags": {"addr:street": "II. Dalmatinske", "amenity": "hospital", "healthcare": "hospital", "name:en": "kids hospital", "name:ru": "детская клиника"}}, {"name": "", "latitude": 42.6483038, "longitude": 18.0763758, "source": "osm", "_tags": {"addr:city": "Dubrovnik", "addr:housenumber": "2", "addr:postcode": "20000", "addr:street": "Dr. Roka Mišetića", "building": "hospital", "emergency": "yes", "healthcare": "hospital"}}, {"name": "", "latitude": 42.4514769, "longitude": 18.5555653, "source": "osm", "_tags": {"amenity": "hospital", "healthcare": "hospital"}}, {"name": "Institut Dr. Simo Milošević", "latitude": 42.4585453, "longitude": 18.5132393, "source": "osm", "_tags": {"addr:city": "Igalo", "addr:housenumber": "5", "addr:postcode": "85347", "addr:street": "Sava Ilića", "amenity": "hospital", "designation": "Igalo", "emergency": "yes", "healthcare": "hospital", "name": "Institut Dr. Simo Milošević", "name:sr": "Институт Др. Симо Милошевић"}}, {"name": "Bolnica Trebinje", "latitude": 42.7101098, "longitude": 18.3520027, "source": "osm", "_tags": {"addr:city": "Trebinje", "addr:country": "BA", "addr:housenumber": "2", "addr:postcode": "89101", "addr:street": "Dr Levija", "amenity": "hospital", "building": "yes", "contact:email": "tb-hospit@teol.net", "contact:fax": "+387 59 261102", "contact:phone": "+387 59 223755", "contact:website": "http://bolnicatrebinje.com", "healthcare": "hospital", "name": "Bolnica Trebinje", "wheelchair": "limited"}}, {"name": "Brezovik", "latitude": 42.8190647, "longitude": 18.924178, "source": "osm", "_tags": {"amenity": "hospital", "contact:website": "http://www.brezovik.me/", "healthcare": "hospital", "name": "Brezovik"}}, {"name": "Opća bolnica Dubrovnik", "latitude": 42.6489182, "longitude": 18.0767131, "source": "osm", "_tags": {"addr:city": "Dubrovnik", "addr:housenumber": "2", "addr:postcode": "20000", "addr:street": "Ulica dr. Ante Šercera", "amenity": "hospital", "emergency": "yes", "healthcare": "hospital", "loc_name": "Medarevo", "name": "Opća bolnica Dubrovnik", "operator": "Opća bolnica Dubrovnik", "operator:type": "public", "website": "https://www.bolnica-du.hr/", "wikidata": "Q63790050", "wikimedia_commons": "Category:General Hospital Dubrovnik"}}, {"name": "Dom zdravlja Stolac", "latitude": 43.083778, "longitude": 17.9570067, "source": "osm", "_tags": {"addr:city": "Stolac", "addr:country": "BA", "addr:housenumber": "bb", "addr:street": "Mihajla Viševića", "amenity": "hospital", "healthcare": "hospital", "name": "Dom zdravlja Stolac"}}, {"name": "Specijalna bolnica za psihijatriju Kotor", "latitude": 42.4415452, "longitude": 18.7641766, "source": "osm", "_tags": {"addr:city": "Dobrota", "addr:housenumber": "b.b.", "addr:postcode": "85330", "addr:street": "Dobrota", "amenity": "hospital", "healthcare": "hospital", "healthcare:speciality": "psychiatry", "name": "Specijalna bolnica za psihijatriju Kotor", "name:en": "Kotor Psychiatric Hospital", "name:sr": "Специјална болница за психијатрију Котор", "phone": "+382 32 330 920"}}, {"name": "", "latitude": 43.26127, "longitude": 18.1144004, "source": "osm", "_tags": {"amenity": "hospital", "healthcare": "hospital"}}, {"name": "", "latitude": 42.7102397, "longitude": 18.3517454, "source": "osm", "_tags": {"amenity": "hospital", "healthcare": "hospital"}}, {"name": "", "latitude": 42.6990723, "longitude": 18.3404928, "source": "osm", "_tags": {"amenity": "hospital", "healthcare": "hospital"}}, {"name": "", "latitude": 42.4507852, "longitude": 18.6518059, "source": "osm", "_tags": {"amenity": "hospital", "healthcare": "hospital"}}, {"name": "", "latitude": 43.1687513, "longitude": 18.5272298, "source": "osm", "_tags": {"amenity": "hospital", "healthcare": "clinic"}}, {"name": "Dom zdravlja Herceg Novi", "latitude": 42.4586678, "longitude": 18.5274564, "source": "osm", "_tags": {"amenity": "hospital", "building": "hospital", "healthcare": "hospital", "name": "Dom zdravlja Herceg Novi", "name:sr": "Дом здравља Херцег Нови", "name:sr-Latn": "Dom zdravlja Herceg Novi", "type": "multipolygon", "website": "http://domzdravljahercegnovi.com/"}}, {"name": "", "latitude": 42.4586052, "longitude": 18.5273947, "source": "osm", "_tags": {"amenity": "hospital", "healthcare": "hospital", "type": "multipolygon"}}, {"name": "Bolnica Nevesinje", "latitude": 43.2612483, "longitude": 18.1145006, "source": "osm", "_tags": {"addr:city": "Nevesinje", "addr:country": "BA", "addr:housenumber": "bb", "addr:street": "Nemanjića", "amenity": "hospital", "contact:email": "obnev@teol.net", "contact:fax": "+378 59 601124", "contact:phone": "+387 59 601124", "healthcare": "hospital", "name": "Bolnica Nevesinje", "type": "multipolygon"}}]