[{"name": "Cotolino II", "latitude": 43.3708387, "longitude": -3.2052591, "source": "osm", "_tags": {"amenity": "hospital", "healthcare": "hospital", "name": "Cotolino II", "name:eu": "Kotolino"}}, {"name": "Farmacia Sierra Botiquin Zierbena", "latitude": 43.3482545, "longitude": -3.089732, "source": "osm", "_tags": {"amenity": "hospital", "healthcare": "pharmacy", "name": "Farmacia Sierra Botiquin Zierbena"}}, {"name": "Hospital de Laredo", "latitude": 43.4139981, "longitude": -3.4419034, "source": "osm", "_tags": {"amenity": "hospital", "emergency": "yes", "healthcare": "hospital", "name": "Hospital de Laredo", "network": "Servicio Cántabro de Salud", "network:short": "SCS", "operator:type": "public", "wheelchair": "yes"}}, {"name": "Centro Salud Camargo Costa", "latitude": 43.4211401, "longitude": -3.8414224, "source": "osm", "_tags": {"addr:city": "Maliaño", "addr:postcode": "39600", "addr:street": "Calle de Julio de Pablo", "amenity": "hospital", "building": "yes", "emergency": "yes", "healthcare": "hospital", "healthcare:speciality": "urgencias;general", "name": "Centro Salud Camargo Costa", "nohousenumber": "yes", "operator": "SCS", "operator:type": "government"}}, {"name": "Base de El Astillero del 061 Cantabria", "latitude": 43.4031232, "longitude": -3.8223211, "source": "osm", "_tags": {"amenity": "hospital", "healthcare": "hospital", "healthcare:speciality": "emergency", "name": "Base de El Astillero del 061 Cantabria", "operator": "061 Cantabria", "operator:type": "government_facility-public"}}, {"name": "Base de Laredo del 061 Cantabria", "latitude": 43.4134226, "longitude": -3.4410394, "source": "osm", "_tags": {"amenity": "hospital", "healthcare": "hospital", "healthcare:speciality": "emergency", "name": "Base de Laredo del 061 Cantabria", "operator": "061 Cantabria", "operator:type": "government"}}]