[{"name": "Clinique Saint-Christophe", "latitude": 42.7161184, "longitude": 2.8947379, "source": "osm", "_tags": {"amenity": "hospital", "healthcare": "hospital", "name": "Clinique Saint-Christophe", "ref:FR:FINESS": "660005166", "source": "cadastre-dgi-fr source : Direction Générale des Impôts - Cadastre ; mise à jour :2008", "type:FR:FINESS": "109"}}, {"name": "Centre médico-psychologique de Perpignan", "latitude": 42.6981418, "longitude": 2.8981486, "source": "osm", "_tags": {"addr:city": "Perpignan", "addr:housenumber": "11", "addr:postcode": "66000", "addr:street": "Rue Émile Zola", "amenity": "hospital", "healthcare": "hospital", "healthcare:speciality": "psychiatry", "name": "Centre médico-psychologique de Perpignan"}}, {"name": "Centre médico-psychologique de Céret", "latitude": 42.4867597, "longitude": 2.7521906, "source": "osm", "_tags": {"addr:city": "Céret", "addr:postcode": "66400", "addr:street": "Place Henri Guitard", "amenity": "hospital", "healthcare": "hospital", "healthcare:speciality": "psychiatry", "name": "Centre médico-psychologique de Céret"}}, {"name": "Centre hospitalier de Perpignan", "latitude": 42.7258246, "longitude": 2.8896841, "source": "osm", "_tags": {"alt_name": "Centre hospitalier Maréchal Joffre", "amenity": "hospital", "emergency": "yes", "fax": "+33 4 68 61 68 33", "healthcare": "hospital", "healthcare:speciality": "intensive", "name": "Centre hospitalier de Perpignan", "name:ca": "Hospital de Perpinyà", "operator:type": "public", "phone": "+33 4 68 61 66 33", "ref:FR:FINESS": "660000084", "source": "cadastre-dgi-fr source : Direction Générale des Impôts - Cadastre ; mise à jour : 2009", "type:FR:FINESS": "355", "website": "https://www.ch-perpignan.fr/accueil-3.html", "wikidata": "Q50037243"}}, {"name": "Centre hospitalier de Castelnaudary", "latitude": 43.3160143, "longitude": 1.9620409, "source": "osm", "_tags": {"alt_name": "Centre hospitalier Jean-Pierre Cassabel", "amenity": "hospital", "emergency": "yes", "fax": "+33 4 68 94 02 41", "healthcare": "hospital", "name": "Centre hospitalier de Castelnaudary", "operator:type": "public", "phone": "+33 4 68 94 57 52", "ref:FR:FINESS": "110000049", "source": "cadastre-dgi-fr source : Direction Générale des Impôts - Cadastre. Mise à jour : 2009", "type:FR:FINESS": "355", "website": "https://www.ch-castelnaudary.fr/", "wheelchair": "yes"}}, {"name": "Centre hospitalier de Lézignan-Corbières", "latitude": 43.1945915, "longitude": 2.7596106, "source": "osm", "_tags": {"amenity": "hospital", "emergency": "no", "name": "Centre hospitalier de Lézignan-Corbières", "ref:FR:FINESS": "110787223", "source": "cadastre-dgi-fr source : Direction Générale des Impôts - Cadastre. Mise à jour : 2009"}}, {"name": "Hôpital de Prades", "latitude": 42.6262857, "longitude": 2.4180573, "source": "osm", "_tags": {"amenity": "hospital", "healthcare": "hospital", "name": "Hôpital de Prades", "ref:FR:FINESS": "660000167", "source": "cadastre-dgi-fr source : Direction Générale des Impôts - Cadastre ; mise à jour : 2009", "type:FR:FINESS": "106", "wikidata": "Q87723594"}}, {"name": "Centre hospitalier Léon Jean Grégory", "latitude": 42.6268714, "longitude": 2.740966, "source": "osm", "_tags": {"amenity": "hospital", "healthcare": "hospital", "healthcare:speciality": "psychiatry", "name": "Centre hospitalier Léon Jean Grégory", "ref:FR:FINESS": "660000092", "type:FR:FINESS": "292", "wikidata": "Q87722155"}}, {"name": "Clinique de la Pinède", "latitude": 42.7235316, "longitude": 2.8469054, "source": "osm", "_tags": {"amenity": "hospital", "building": "yes", "healthcare": "hospital", "name": "Clinique de la Pinède", "ref:FR:FINESS": "660790163", "source": "cadastre-dgi-fr source : Direction Générale des Impôts - Cadastre. Mise à jour : 2010", "type:FR:FINESS": "109"}}, {"name": "Clinique du Sud", "latitude": 43.2199566, "longitude": 2.391625, "source": "osm", "_tags": {"amenity": "hospital", "building": "hospital", "fax": "+33 4 68 11 04 04", "healthcare": "hospital", "name": "Clinique du Sud", "operator": "Groupe Elsan", "operator:type": "private", "operator:wikidata": "Q48747106", "phone": "+33 8 26 30 04 11", "ref:FR:FINESS": "110003118", "source": "cadastre-dgi-fr source : Direction Générale des Impôts - Cadastre. Mise à jour : 2010", "type:FR:FINESS": "109", "website": "http://www.sud.groupe-elsan.com/"}}, {"name": "Centre Catalan d'Oncologie", "latitude": 42.6954695, "longitude": 2.8643312, "source": "osm", "_tags": {"amenity": "hospital", "building": "hospital", "fax": "+33 4 68 83 57 90", "healthcare": "hospital", "name": "Centre Catalan d'Oncologie", "phone": "+33 4 68 55 74 96", "ref:FR:FINESS": "660007246", "source": "cadastre-dgi-fr source : Direction Générale des Impôts - Cadastre. Mise à jour : 2010", "type:FR:FINESS": "698", "website": "https://www.cco-perpignan.fr/"}}, {"name": "Centre hospitalier de Limoux", "latitude": 43.0554241, "longitude": 2.2195177, "source": "osm", "_tags": {"amenity": "hospital", "healthcare": "hospital", "name": "Centre hospitalier de Limoux", "ref:FR:FINESS": "110000189", "source": "Le ministère des solidarités et de la santé - 03/2019", "wheelchair": "yes", "wikidata": "Q87823118"}}, {"name": "Polyclinique Médipôle Saint-Roch", "latitude": 42.6909675, "longitude": 2.9340168, "source": "osm", "_tags": {"amenity": "hospital", "email": "raq@medipole.fr", "emergency": "yes", "fax": "+33 4 68 66 10 11", "healthcare": "hospital", "name": "Polyclinique Médipôle Saint-Roch", "operator": "Elsan", "operator:type": "private", "operator:wikidata": "Q48747106", "operator:wikipedia": "fr:Elsan", "phone": "+33 4 28 63 10 10", "ref:FR:FINESS": "660790387", "source": "cadastre-dgi-fr source : Direction Générale des Impôts - Cadastre;mise à jour : 2011", "toilets:wheelchair": "yes", "type:FR:FINESS": "365", "website": "https://www.elsan.care/fr/medipole-saint-roch", "wheelchair": "yes", "wikidata": "Q87716522"}}, {"name": "Association Audoise Sociale et Médicale", "latitude": 43.055481, "longitude": 2.2215377, "source": "osm", "_tags": {"amenity": "hospital", "emergency": "no", "healthcare": "hospital", "name": "Association Audoise Sociale et Médicale", "ref:FR:FINESS": "110785516", "source": "Le ministère des solidarités et de la santé - 03/2019", "wheelchair": "yes"}}, {"name": "Clinique Saint-Michel", "latitude": 42.6169064, "longitude": 2.4169946, "source": "osm", "_tags": {"amenity": "hospital", "emergency": "yes", "fax": "+33 4 68 96 58 81", "name": "Clinique Saint-Michel", "operator": "Elsan", "operator:type": "private", "phone": "+33 8 26 30 03 16", "ref:FR:FINESS": "660780776", "source": "cadastre-dgi-fr source : Direction Générale des Impôts - Cadastre ; mise à jour : 2009", "type:FR:FINESS": "365", "website": "https://www.elsan.care/fr/clinique-saint-michel-prades"}}, {"name": "Clinique mutualiste Catalane", "latitude": 42.727531, "longitude": 2.8753515, "source": "osm", "_tags": {"amenity": "hospital", "healthcare": "hospital", "name": "Clinique mutualiste Catalane", "ref:FR:FINESS": "660006305", "type:FR:FINESS": "365"}}, {"name": "Centre hospitalier de Carcassonne", "latitude": 43.2201932, "longitude": 2.395562, "source": "osm", "_tags": {"amenity": "hospital", "check_date": "2025-02-22", "contact:facebook": "Centre Hospitalier de Carcassonne officiel", "email": "contact@chcarcassonne.fr", "emergency": "yes", "fax": "+33 4 68 24 20 06", "healthcare": "hospital", "healthcare:speciality": "intensive", "name": "Centre hospitalier de Carcassonne", "operator:type": "public", "phone": "+33 4 68 24 24 24", "ref:FR:FINESS": "110000023", "type:FR:FINESS": "355", "website": "https://www.ch-carcassonne.fr/"}}, {"name": "Polyclinique Montréal", "latitude": 43.2130529, "longitude": 2.3294713, "source": "osm", "_tags": {"amenity": "hospital", "emergency": "yes", "fax": "+33 4 68 11 18 73", "healthcare": "hospital", "name": "Polyclinique Montréal", "operator": "Elsan", "operator:type": "private", "operator:wikidata": "Q48747106", "phone": "+33 8 26 30 53 53", "ref:FR:FINESS": "110780483", "toilets:wheelchair": "no", "type:FR:FINESS": "365", "website": "http://www.carcassonne.groupe-elsan.com/", "wheelchair": "yes"}}, {"name": "Château de la Vernede - Centre de soin de suite et de réadaptation", "latitude": 43.2637412, "longitude": 2.4042937, "source": "osm", "_tags": {"amenity": "hospital", "healthcare": "hospital", "healthcare:speciality": "physiatry", "name": "Château de la Vernede - Centre de soin de suite et de réadaptation", "opening_hours": "Mo-Su 09:00-12:00, 14:00-18:00", "ref:FR:FINESS": "110780202", "ref:FR:SIRET": "66185014900013", "type:FR:FINESS": "109"}}, {"name": "Polyclinique Méditerranée", "latitude": 42.6821751, "longitude": 2.9114168, "source": "osm", "_tags": {"amenity": "hospital", "emergency": "no", "healthcare": "hospital", "name": "Polyclinique Méditerranée", "operator": "Elsan", "operator:wikidata": "Q48747106", "ref:FR:FINESS": "660780669", "type:FR:FINESS": "365", "website": "https://www.elsan.care/fr/polyclinique-mediterranee"}}, {"name": "Clinique Verdeau-Pailles", "latitude": 43.219035, "longitude": 2.398756, "source": "osm", "_tags": {"amenity": "hospital", "building": "hospital", "fax": "+33 4 68 10 87 57", "name": "Clinique Verdeau-Pailles", "operator": "Centre hospitalier de Carcassonne", "operator:type": "public", "phone": "+33 4 68 10 87 55", "ref:FR:FINESS": "110004397", "source": "cadastre-dgi-fr source : Direction Générale des Finances Publiques - Cadastre. Mise à jour : 2015", "type:FR:FINESS": "292"}}, {"name": "Maison de Santé d'Espéraza", "latitude": 42.9358765, "longitude": 2.221255, "source": "osm", "_tags": {"amenity": "hospital", "emergency": "no", "healthcare": "centre", "healthcare:speciality": "general", "name": "Maison de Santé d'Espéraza", "ref:FR:FINESS": "110007218", "type:FR:FINESS": "603"}}, {"name": "Centre Catalan d'Imagerie", "latitude": 42.6954474, "longitude": 2.8638901, "source": "osm", "_tags": {"amenity": "hospital", "building": "hospital", "healthcare": "hospital", "name": "Centre Catalan d'Imagerie", "phone": "+33 4 68 55 21 35", "ref:FR:FINESS": "660006032", "source": "cadastre-dgi-fr source : Direction Générale des Impôts - Cadastre. Mise à jour : 2010", "type:FR:FINESS": "698", "website": "http://www.radiologie-perpignan.fr/centre-catalan-dimagerie-radiologie/"}}, {"name": "Clinique SSR Supervaltech", "latitude": 42.7274794, "longitude": 2.8468494, "source": "osm", "_tags": {"amenity": "hospital", "healthcare": "hospital", "name": "Clinique SSR Supervaltech", "ref:FR:FINESS": "660780743", "type:FR:FINESS": "109", "wikidata": "Q87724480"}}, {"name": "Clinique Saint-Pierre", "latitude": 42.695914, "longitude": 2.8651977, "source": "osm", "_tags": {"amenity": "hospital", "emergency": "yes", "fax": "+33 4 68 55 51 08", "healthcare": "hospital", "healthcare:speciality": "intensive", "name": "Clinique Saint-Pierre", "operator": "Groupe Elsan", "operator:type": "private", "operator:wikidata": "Q48747106", "phone": "+33 8 26 30 26 26", "ref:FR:FINESS": "660780784", "source": "cadastre-dgi-fr source : Direction Générale des Impôts - Cadastre. Mise à jour : 2010", "type:FR:FINESS": "365", "website": "https://www.elsan.care/fr/clinique-saint-pierre", "wikidata": "Q87769268"}}, {"name": "USLD Les Patios d'Argent", "latitude": 42.4637113, "longitude": 2.6510899, "source": "osm", "_tags": {"amenity": "hospital", "building": "yes", "healthcare": "hospital", "name": "USLD Les Patios d'Argent", "source": "cadastre-dgi-fr source : Direction Générale des Finances Publiques - Cadastre. Mise à jour : 2019"}}, {"name": "SMUR Antenne de Quillan", "latitude": 42.881326, "longitude": 2.184336, "source": "osm", "_tags": {"amenity": "hospital", "healthcare": "hospital", "name": "SMUR Antenne de Quillan", "ref:FR:FINESS": "110007598", "type:FR:FINESS": "355", "wheelchair": "yes"}}, {"name": "Clinique de Miremont", "latitude": 43.2151068, "longitude": 2.5136765, "source": "osm", "_tags": {"addr:city": "Badens", "addr:postcode": "11800", "amenity": "hospital", "healthcare": "hospital", "healthcare:speciality": "psychiatry", "name": "Clinique de Miremont", "ref:FR:FINESS": "110780152", "source": "cadastre-dgi-fr source : Direction Générale des Impôts - Cadastre. Mise à jour : 2012", "type:FR:FINESS": "161"}}, {"name": "Clinique Les Oliviers", "latitude": 43.190223, "longitude": 2.7534325, "source": "osm", "_tags": {"amenity": "hospital", "name": "Clinique Les Oliviers", "ref:FR:FINESS": "110002946", "source": "Le ministère des solidarités et de la santé - 03/2019"}}, {"name": "Pôle Sanitaire Cerdan", "latitude": 42.4438062, "longitude": 2.0240572, "source": "osm", "_tags": {"amenity": "hospital", "building": "yes", "contact:website": "https://www.pole-sanitaire-cerdan.eu/accueil.php", "name": "Pôle Sanitaire Cerdan", "name:ca": "Àrea Sanitària Cerdana"}}, {"name": "Hôpital Privé du Grand Narbonne", "latitude": 43.187558, "longitude": 2.9066225, "source": "osm", "_tags": {"amenity": "hospital", "healthcare": "hospital", "name": "Hôpital Privé du Grand Narbonne", "opening_hours": "Mo-Su 07:00-20:00", "phone": "+33 4 34 27 48 00", "short_name": "HPGN", "start_date": "2021-06-07", "website": "https://www.elsan.care/fr/hopital-prive-grand-narbonne"}}, {"name": "I.M.E. La Solo", "latitude": 43.3283588, "longitude": 2.1191883, "source": "osm", "_tags": {"amenity": "hospital", "healthcare": "hospital", "name": "I.M.E. La Solo", "ref:FR:FINESS": "110780277"}}, {"name": "Centre de soins médicaux et de réadaptation - Le Vallespir", "latitude": 42.5131142, "longitude": 2.8326848, "source": "osm", "_tags": {"amenity": "hospital", "healthcare": "hospital", "name": "Centre de soins médicaux et de réadaptation - Le Vallespir", "operator": "UGECAM", "operator:type": "public", "phone": "+33 4 68 83 70 70", "website": "https://www.groupe-ugecam.fr/csmr-le-vallespir"}}, {"name": "Centre de Gérontologie du Roussillon", "latitude": 42.7292271, "longitude": 2.8682497, "source": "osm", "_tags": {"amenity": "hospital", "building": "hospital", "capacity": "302", "fixme": "cadastre", "name": "Centre de Gérontologie du Roussillon"}}, {"name": "Clinique psychiatrique du Roussillon", "latitude": 42.7204317, "longitude": 2.8857952, "source": "osm", "_tags": {"amenity": "hospital", "building": "yes", "healthcare": "hospital", "name": "Clinique psychiatrique du Roussillon", "ref:FR:FINESS": "660780735", "type": "multipolygon", "type:FR:FINESS": "365"}}]