[{"name": "Медицински Център за Репродуктивна Медицина", "latitude": 43.4027861, "longitude": 24.615323, "source": "osm", "_tags": {"amenity": "hospital", "healthcare": "hospital", "name": "Медицински Център за Репродуктивна Медицина"}}, {"name": "Здравен пункт", "latitude": 42.6372161, "longitude": 23.9452527, "source": "osm", "_tags": {"amenity": "hospital", "emergency": "no", "name": "Здравен пункт"}}, {"name": "", "latitude": 42.6923082, "longitude": 23.989325, "source": "osm", "_tags": {"amenity": "hospital", "healthcare": "hospital"}}, {"name": "Държавна психиатрична болница - Ловеч", "latitude": 43.1315213, "longitude": 24.7101242, "source": "osm", "_tags": {"addr:postcode": "5500", "addr:street": "ул. Княз Александър I Батемберг", "amenity": "hospital", "email": "dpblovech@abv.bg", "name": "Държавна психиатрична болница - Ловеч", "name:bg": "Държавна психиатрична болница - Ловеч", "phone": "+359 68 651 736", "website": "https://www.dpb-lovech.eu/"}}, {"name": "Многопрофилна болница за активно лечение Проф. Д-р. Параскев Стоянов - Ловеч", "latitude": 43.1326475, "longitude": 24.7063141, "source": "osm", "_tags": {"addr:city": "Ловеч", "addr:housenumber": "27", "addr:postcode": "5500", "addr:street": "Съйко Съев", "amenity": "hospital", "email": "mail@mbal-lovech.com;mbal_lovech@abv.bg", "healthcare": "hospital", "name": "Многопрофилна болница за активно лечение Проф. Д-р. Параскев Стоянов - Ловеч", "operator": "Ivaylo Kostovski", "source": "http://www.mbal-lovech.com", "website": "http://www.mbal-lovech.com", "wheelchair": "yes"}}, {"name": "Психолог Даниела Кръстева", "latitude": 43.4006568, "longitude": 24.6088739, "source": "osm", "_tags": {"addr:city": "Плевен", "addr:housenumber": "67", "addr:street": "Странджа", "amenity": "hospital", "description": "Работи с краткосрочните терапевтични методи на когнитивно-поведенческа психотерапия, класическа хипноза и Ериксонова хипнотерапия.", "healthcare": "hospital", "name": "Психолог Даниела Кръстева", "phone": "+359 87 651 3956", "website": "http://www.psihologbg.eu/"}}, {"name": "МБАЛ \"Сърце и мозък\"", "latitude": 43.4099923, "longitude": 24.607888, "source": "osm", "_tags": {"addr:city": "Плевен", "addr:housenumber": "2", "addr:postcode": "5800", "addr:street": "Пиер Кюри", "amenity": "hospital", "healthcare": "hospital", "healthcare:speciality": "cardiothoracic_surgery;neurosurgery;thoratic_surgery;vascular_surgery;surgery;cardiology;neurology;gastroenterology;oncology;pulmonology;endocrinology;physiatry;anaesthetics;intensive;orthopaedics;trauma;diagnostic_radiology;pathology;dialisys;haematology", "name": "МБАЛ \"Сърце и мозък\"", "note:healthcare:speciality": "also urology, reumathology and OBGYN", "operator": "Български кардиологичен институт", "operator:type": "public", "phone": "+359 64 678 400"}}, {"name": "Вита Мед", "latitude": 42.6409453, "longitude": 24.8047623, "source": "osm", "_tags": {"amenity": "hospital", "healthcare": "hospital", "name": "Вита Мед"}}, {"name": "Мама и аз", "latitude": 43.4105791, "longitude": 24.6079134, "source": "osm", "_tags": {"addr:city": "Плевен", "addr:housenumber": "2", "addr:postcode": "5800", "addr:street": "Пиер Кюри", "amenity": "hospital", "healthcare": "hospital", "healthcare:speciality": "gynaecology;neonatology;paediatrics;medical_genetics", "name": "Мама и аз", "operator": "Български кардиологичен институт", "operator:type": "public", "phone": "+359 64 678 400"}}, {"name": "ДКЦ-II", "latitude": 43.4065827, "longitude": 24.6199447, "source": "osm", "_tags": {"amenity": "hospital", "check_date": "2024-07-20", "healthcare": "hospital", "name": "ДКЦ-II", "opening_hours": "Mo-Fr 08:30-17:00", "payment:cards": "no", "payment:cash": "yes", "payment:credit_cards": "no", "payment:debit_cards": "no", "wheelchair": "yes"}}, {"name": "Втора Градска Поликлиника", "latitude": 43.4066735, "longitude": 24.6207199, "source": "osm", "_tags": {"amenity": "hospital", "building": "yes", "healthcare": "hospital", "name": "Втора Градска Поликлиника"}}, {"name": "Стоматология", "latitude": 43.4117946, "longitude": 24.6223871, "source": "osm", "_tags": {"addr:city": "Плевен", "addr:housenumber": "1", "addr:street": "бул. Русе", "amenity": "hospital", "building": "yes", "designation": "Stomatology", "healthcare": "hospital", "name": "Стоматология", "source": "maxar"}}, {"name": "Дом за медико-социални грижи за деца", "latitude": 43.4024239, "longitude": 24.6298307, "source": "osm", "_tags": {"amenity": "hospital", "building": "yes", "healthcare": "hospital", "name": "Дом за медико-социални грижи за деца"}}, {"name": "МБАЛ „Д-р Киро Попов“", "latitude": 42.6451704, "longitude": 24.7988519, "source": "osm", "_tags": {"alt_name:bg": "Многопрофилна болница за активно лечение „Д-р Киро Попов” - Карлово“ ЕООД", "amenity": "hospital", "building": "yes", "healthcare": "hospital", "name": "МБАЛ „Д-р Киро Попов“", "name:bg": "МБАЛ „Д-р Киро Попов“", "wheelchair": "yes"}}, {"name": "", "latitude": 42.6461749, "longitude": 24.7990703, "source": "osm", "_tags": {"amenity": "hospital", "building": "yes", "wheelchair": "yes"}}, {"name": "Вита Мед", "latitude": 42.642678, "longitude": 24.8047303, "source": "osm", "_tags": {"amenity": "hospital", "building": "yes", "name": "Вита Мед"}}, {"name": "", "latitude": 42.4988422, "longitude": 24.7091267, "source": "osm", "_tags": {"amenity": "hospital", "building": "yes", "healthcare": "hospital"}}, {"name": "МБАЛ \"Уни Хоспитал\"", "latitude": 42.4934623, "longitude": 24.185424, "source": "osm", "_tags": {"addr:city": "Панагюрище", "addr:country": "BG", "addr:housenumber": "100", "addr:postcode": "4500", "addr:street": "Георги Бенковски", "amenity": "hospital", "email": "uni@unihospitalbg.com", "healthcare": "hospital", "name": "МБАЛ \"Уни Хоспитал\"", "phone": "+359 357 88 581", "website": "https://www.unihospitalbg.com/"}}, {"name": "Специализирана болница за рехабилитация", "latitude": 42.5393462, "longitude": 24.8397776, "source": "osm", "_tags": {"amenity": "hospital", "building": "yes", "healthcare": "hospital", "name": "Специализирана болница за рехабилитация"}}, {"name": "МБАЛ - Троян ЕООД", "latitude": 42.8911046, "longitude": 24.7075473, "source": "osm", "_tags": {"amenity": "hospital", "healthcare": "hospital", "name": "МБАЛ - Троян ЕООД", "ref:bulstat": "110502461", "ref:mh_id": "1134211002"}}, {"name": "Балнео лечебница", "latitude": 42.5050065, "longitude": 24.3239331, "source": "osm", "_tags": {"amenity": "hospital", "healthcare": "hospital", "name": "Балнео лечебница"}}, {"name": "Медицински център", "latitude": 42.5052031, "longitude": 24.3229119, "source": "osm", "_tags": {"amenity": "hospital", "building": "yes", "healthcare": "hospital", "name": "Медицински център"}}, {"name": "Специализирана болница за активно лечение на белодробни болести - Троян", "latitude": 42.8975708, "longitude": 24.7114091, "source": "osm", "_tags": {"addr:city": "Троян", "addr:housenumber": "253", "addr:postcode": "5600", "addr:street": "Васил Левски", "amenity": "hospital", "healthcare": "hospital", "name": "Специализирана болница за активно лечение на белодробни болести - Троян"}}, {"name": "СБАЛ Св.Панталеймон", "latitude": 43.402009, "longitude": 24.6427373, "source": "osm", "_tags": {"amenity": "hospital", "building": "yes", "healthcare": "hospital", "name": "СБАЛ Св.Панталеймон"}}, {"name": "СБАЛ Св. Панталеймон", "latitude": 43.4022222, "longitude": 24.6428453, "source": "osm", "_tags": {"addr:city": "Плевен", "addr:housenumber": "19-24", "addr:postcode": "5800", "addr:street": "Трите Бора", "alt_name": "name=СБАЛ Свети Панталеймон", "amenity": "hospital", "building": "yes", "contact:email": "hospital@svetipantaleimon.com", "contact:phone": "+359 87 847 1334", "contact:website": "https://svetipantaleimon.com/", "healthcare": "hospital", "name": "СБАЛ Св. Панталеймон", "name:en": "Sv. Pantaleymon"}}, {"name": "Авис Медика", "latitude": 43.4114128, "longitude": 24.6167878, "source": "osm", "_tags": {"addr:housenumber": "9", "addr:street": "Коста Хаджипакев", "amenity": "hospital", "building": "yes", "building:levels": "1", "healthcare": "hospital", "name": "Авис Медика", "roof:shape": "flat"}}, {"name": "", "latitude": 42.6408372, "longitude": 24.8131625, "source": "osm", "_tags": {"addr:street": "бул. Освобождение", "amenity": "hospital", "building": "apartments", "healthcare": "hospital", "operator": "Евромед"}}, {"name": "", "latitude": 42.6507286, "longitude": 24.7508297, "source": "osm", "_tags": {"amenity": "hospital", "healthcare": "hospital"}}, {"name": "МБАЛ „Проф.д-р Ал.Герчев” Етрополе", "latitude": 42.8392417, "longitude": 23.9997538, "source": "osm", "_tags": {"amenity": "hospital", "healthcare": "hospital", "name": "МБАЛ „Проф.д-р Ал.Герчев” Етрополе", "toilets:wheelchair": "yes", "wheelchair": "yes"}}, {"name": "МБАЛ Червен бряг", "latitude": 43.2733267, "longitude": 24.0862792, "source": "osm", "_tags": {"amenity": "hospital", "name": "МБАЛ Червен бряг"}}, {"name": "УМБАЛ \"Георги Странски\"", "latitude": 43.4083271, "longitude": 24.6051911, "source": "osm", "_tags": {"amenity": "hospital", "check_date": "2025-04-29", "name": "УМБАЛ \"Георги Странски\""}}, {"name": "Военна болница", "latitude": 43.4154488, "longitude": 24.6317302, "source": "osm", "_tags": {"amenity": "hospital", "name": "Военна болница"}}, {"name": "Психиатрична клиника", "latitude": 43.4165103, "longitude": 24.5979797, "source": "osm", "_tags": {"addr:city": "Плевен", "addr:housenumber": "2", "addr:postcode": "5802", "addr:street": "Огражден", "amenity": "hospital", "check_date": "2024-11-29", "emergency": "no", "healthcare": "hospital", "healthcare:speciality": "psychiatry", "name": "Психиатрична клиника"}}, {"name": "МЦ \"Екзакта Медика\"", "latitude": 43.410207, "longitude": 24.6309903, "source": "osm", "_tags": {"addr:housenumber": "13", "addr:street": "Христо Ясенов", "amenity": "hospital", "healthcare": "hospital", "name": "МЦ \"Екзакта Медика\"", "name:en": "Exacta Medica - medical center", "phone": "064 986666", "website": "https://www.exacta-medica.com/"}}, {"name": "УМБАЛ \"Георги Странски\"", "latitude": 43.4166906, "longitude": 24.6279722, "source": "osm", "_tags": {"amenity": "hospital", "healthcare": "hospital", "name": "УМБАЛ \"Георги Странски\""}}, {"name": "МБАЛ Пирдоп", "latitude": 42.7015862, "longitude": 24.1691587, "source": "osm", "_tags": {"addr:housenumber": "24", "addr:street": "Георги Бенковски", "amenity": "hospital", "healthcare": "hospital", "name": "МБАЛ Пирдоп"}}, {"name": "МБАЛ Луковит", "latitude": 43.2127275, "longitude": 24.1612709, "source": "osm", "_tags": {"amenity": "hospital", "healthcare": "hospital", "name": "МБАЛ Луковит"}}, {"name": "Психиатрична болница Карлуково", "latitude": 43.180666, "longitude": 24.066914, "source": "osm", "_tags": {"amenity": "hospital", "healthcare": "hospital", "name": "Психиатрична болница Карлуково", "wikidata": "Q131700234", "wikipedia": "bg:Държавна психиатрична болница (Карлуково)"}}, {"name": "", "latitude": 43.1326705, "longitude": 24.7075114, "source": "osm", "_tags": {"amenity": "hospital", "healthcare": "hospital"}}, {"name": "", "latitude": 42.7361253, "longitude": 24.2608879, "source": "osm", "_tags": {"amenity": "hospital", "healthcare": "hospital"}}, {"name": "Авис Медика", "latitude": 43.3856474, "longitude": 24.6330777, "source": "osm", "_tags": {"amenity": "hospital", "name": "Авис Медика", "name:en": "Avis Medica"}}, {"name": "ДКЦ 1", "latitude": 43.4167173, "longitude": 24.609329, "source": "osm", "_tags": {"addr:city": "Плевен", "addr:housenumber": "28", "addr:postcode": "5800", "addr:street": "Панега", "amenity": "hospital", "building": "hospital", "contact:email": "info@dkc1-pleven.bg", "contact:phone": "+359 87 960 6036", "contact:website": "https://www.dkc1-pleven.bg/", "healthcare": "hospital", "name": "ДКЦ 1", "opening_hours": "Mo-Fr 06:00-19:00"}}, {"name": "", "latitude": 42.9200536, "longitude": 24.2551546, "source": "osm", "_tags": {"amenity": "hospital", "healthcare": "hospital"}}, {"name": "МБАЛ – Тетевен – д-р Ангел Пешев", "latitude": 42.9195912, "longitude": 24.2555311, "source": "osm", "_tags": {"amenity": "hospital", "building": "hospital", "healthcare": "hospital", "name": "МБАЛ – Тетевен – д-р Ангел Пешев", "type": "multipolygon", "website": "https://mbal-teteven.com"}}]