[{"name": "АГ ЕВА", "latitude": 42.6923014, "longitude": 26.3433267, "source": "osm", "_tags": {"amenity": "hospital", "name": "АГ ЕВА"}}, {"name": "МБАЛ Д-р \"Иван Селимински\" - инфекциозно отделение", "latitude": 42.6818376, "longitude": 26.3310085, "source": "osm", "_tags": {"amenity": "hospital", "emergency": "no", "healthcare": "hospital", "name": "МБАЛ Д-р \"Иван Селимински\" - инфекциозно отделение"}}, {"name": "СБАЛ по белодробни болести", "latitude": 42.6817981, "longitude": 26.3313755, "source": "osm", "_tags": {"amenity": "hospital", "emergency": "no", "healthcare": "hospital", "name": "СБАЛ по белодробни болести"}}, {"name": "Св. Анна", "latitude": 42.6925078, "longitude": 26.343841, "source": "osm", "_tags": {"amenity": "hospital", "name": "Св. Анна"}}, {"name": "Д-р. Жечкова", "latitude": 42.6847004, "longitude": 26.316727, "source": "osm", "_tags": {"addr:city": "Сливен", "addr:housenumber": "9", "addr:postcode": "8800", "addr:street": "Чайковски", "amenity": "hospital", "healthcare": "dentist", "healthcare:speciality": "dentist", "name": "Д-р. Жечкова", "name:de": "Zahnarztpraxis Zhechkova", "name:en": "Dental Practice Zhechkova", "name:fr": "Dentiste Zhechkova", "name:nl": "Tandarts Zhechkova", "name:ru": "Дентист Жечкова"}}, {"name": "БОДИЛАБ", "latitude": 42.6781473, "longitude": 26.3176016, "source": "osm", "_tags": {"amenity": "hospital", "healthcare": "hospital", "name": "БОДИЛАБ"}}, {"name": "Здравен дом", "latitude": 42.4797533, "longitude": 26.3970127, "source": "osm", "_tags": {"amenity": "hospital", "name": "Здравен дом"}}, {"name": "", "latitude": 43.272894, "longitude": 26.9265854, "source": "osm", "_tags": {"amenity": "hospital", "healthcare": "hospital"}}, {"name": "АГ Център Стима", "latitude": 43.2671533, "longitude": 26.9249798, "source": "osm", "_tags": {"amenity": "hospital", "healthcare": "centre", "name": "АГ Център Стима"}}, {"name": "ДКЦ 2", "latitude": 42.479957, "longitude": 26.500137, "source": "osm", "_tags": {"amenity": "hospital", "building": "yes", "building:levels": "1", "name": "ДКЦ 2"}}, {"name": "МБАЛ \"Проф.д-р Цончев\"", "latitude": 42.8830859, "longitude": 26.4490062, "source": "osm", "_tags": {"amenity": "hospital", "building": "yes", "check_date": "2025-09-25", "name": "МБАЛ \"Проф.д-р Цончев\""}}, {"name": "МБАЛ", "latitude": 43.1651959, "longitude": 26.8130422, "source": "osm", "_tags": {"amenity": "hospital", "building": "yes", "name": "МБАЛ", "wheelchair": "yes"}}, {"name": "Многопрофилна болница за активно лечение Търговище АД", "latitude": 43.2423723, "longitude": 26.5621432, "source": "osm", "_tags": {"amenity": "hospital", "building": "hospital", "healthcare": "hospital", "name": "Многопрофилна болница за активно лечение Търговище АД"}}, {"name": "МБАЛ \"Д-р Иван Селимински\"", "latitude": 42.6755201, "longitude": 26.3253792, "source": "osm", "_tags": {"addr:city": "Сливен", "addr:postcode": "8800", "addr:street": "Гео Милев", "amenity": "hospital", "healthcare": "hospital", "name": "МБАЛ \"Д-р Иван Селимински\""}}, {"name": "Света Анна", "latitude": 42.6925406, "longitude": 26.3438078, "source": "osm", "_tags": {"amenity": "hospital", "emergency": "no", "healthcare": "hospital", "name": "Света Анна"}}, {"name": "Ева", "latitude": 42.6923247, "longitude": 26.343427, "source": "osm", "_tags": {"amenity": "hospital", "emergency": "no", "healthcare": "hospital", "name": "Ева"}}, {"name": "МБАЛ \"Царица Йоанна\"", "latitude": 42.6836073, "longitude": 26.3067978, "source": "osm", "_tags": {"addr:city": "Сливен", "addr:postcode": "8800", "addr:street": "Булаир", "amenity": "hospital", "emergency": "no", "healthcare": "hospital", "name": "МБАЛ \"Царица Йоанна\""}}, {"name": "МБАЛ-Шумен", "latitude": 43.2755702, "longitude": 26.9165915, "source": "osm", "_tags": {"addr:city": "Шумен", "addr:housenumber": "63", "addr:postcode": "9705", "addr:street": "Васил Априлов", "amenity": "hospital", "emergency": "yes", "healthcare:speciality": "general", "name": "МБАЛ-Шумен", "phone": "+359 54 855 755", "website": "https://mbal-shumen.com/", "wheelchair": "yes"}}, {"name": "МБАЛ \"Хаджи Димитър\"", "latitude": 42.6805149, "longitude": 26.3114107, "source": "osm", "_tags": {"amenity": "hospital", "building": "hospital", "building:levels": "5", "emergency": "ambulance_station", "healthcare": "hospital", "name": "МБАЛ \"Хаджи Димитър\"", "wikidata": "Q50037267"}}, {"name": "￼Комплексен онкологичен център - Шумен", "latitude": 43.2766066, "longitude": 26.9181424, "source": "osm", "_tags": {"addr:city": "Шумен", "addr:housenumber": "611", "addr:postcode": "9705", "addr:street": "Васил Априлов", "amenity": "hospital", "building": "yes", "healthcare": "hospital", "healthcare:speciality": "oncology", "name": "￼Комплексен онкологичен център - Шумен"}}, {"name": "Изоставена болница (Бивша туберкулозна болница)", "latitude": 42.6805334, "longitude": 26.3316408, "source": "osm", "_tags": {"amenity": "hospital", "healthcare": "hospital", "name": "Изоставена болница (Бивша туберкулозна болница)", "note": "Ушаците могат да ви приберат ако ви хванат вътре ;) The cops can arrest you if they catch you in this.This is an restricted area. 1.3.1.2"}}, {"name": "МБАЛ Св. Пантелеймон", "latitude": 42.4878354, "longitude": 26.5165768, "source": "osm", "_tags": {"addr:city": "Ямбол", "addr:housenumber": "30", "addr:postcode": "8600", "addr:street": "Панйот Хитов", "amenity": "hospital", "emergency": "yes", "name": "МБАЛ Св. Пантелеймон"}}, {"name": "Специализирана болница за рехабилитация", "latitude": 42.892185, "longitude": 26.4356338, "source": "osm", "_tags": {"amenity": "hospital", "healthcare": "hospital", "name": "Специализирана болница за рехабилитация"}}, {"name": "МБАЛ Омуртаг", "latitude": 43.1002064, "longitude": 26.4162047, "source": "osm", "_tags": {"amenity": "hospital", "healthcare": "hospital", "name": "МБАЛ Омуртаг", "website": "https://mbal-omurtag.com"}}, {"name": "МБАЛ Попово", "latitude": 43.3415966, "longitude": 26.216586, "source": "osm", "_tags": {"amenity": "hospital", "emergency": "yes", "healthcare": "hospital", "name": "МБАЛ Попово", "website": "https://www.mbal-popovo.com"}}, {"name": "ВМА Сливен", "latitude": 42.6762287, "longitude": 26.336245, "source": "osm", "_tags": {"amenity": "hospital", "healthcare": "hospital", "name": "ВМА Сливен"}}, {"name": "МБАЛ \"Св. Петка Българска\"", "latitude": 42.4946527, "longitude": 26.0208961, "source": "osm", "_tags": {"addr:postcode": "8900", "amenity": "hospital", "healthcare": "hospital", "name": "МБАЛ \"Св. Петка Българска\""}}, {"name": "МБАЛ \"Д-р Иван Селимински\"", "latitude": 42.6817637, "longitude": 26.3315915, "source": "osm", "_tags": {"amenity": "hospital", "healthcare": "hospital", "name": "МБАЛ \"Д-р Иван Селимински\""}}, {"name": "II ДКЦ", "latitude": 42.6788339, "longitude": 26.3112838, "source": "osm", "_tags": {"amenity": "hospital", "healthcare": "hospital", "name": "II ДКЦ"}}]