[{"name": "Ospedale", "latitude": 43.2476802, "longitude": 13.5079439, "source": "osm", "_tags": {"addr:city": "Corridonia", "addr:postcode": "62014", "amenity": "hospital", "healthcare": "hospital", "name": "Ospedale"}}, {"name": "Casa di Cura San Giuseppe", "latitude": 42.8514698, "longitude": 13.6227292, "source": "osm", "_tags": {"addr:city": "Monticelli", "addr:housenumber": "6", "addr:postcode": "63100", "addr:street": "Via dei Girasoli", "amenity": "hospital", "check_date": "2025-01-03", "healthcare": "hospital", "name": "Casa di Cura San Giuseppe", "operator": "Suore Ospedaliere", "phone": "+39 0736 42325; +39 0736 42335", "website": "https://ascoli.ospedaliere.it/"}}, {"name": "Casa di Cura Villa San Marco", "latitude": 42.8492514, "longitude": 13.5881776, "source": "osm", "_tags": {"addr:city": "Ascoli Piceno", "addr:housenumber": "11", "addr:postcode": "63100", "addr:street": "Via Tre Ottobre", "amenity": "hospital", "healthcare": "hospital", "name": "Casa di Cura Villa San Marco", "phone": "+39 0736 43588", "website": "https://www.villasanmarco.it/"}}, {"name": "", "latitude": 43.2342658, "longitude": 13.6887546, "source": "osm", "_tags": {"amenity": "hospital", "healthcare": "hospital"}}, {"name": "", "latitude": 43.1416218, "longitude": 13.2228652, "source": "osm", "_tags": {"amenity": "hospital", "emergency": "no", "healthcare": "hospital"}}, {"name": "Ospedale Grifoni", "latitude": 42.6277677, "longitude": 13.2865189, "source": "osm", "_tags": {"amenity": "hospital", "emergency": "yes", "healthcare": "hospital", "name": "Ospedale Grifoni"}}, {"name": "Centro di emergenza sanitaria \"campo sportivo A. Sbardella” \"", "latitude": 42.6256236, "longitude": 13.2929307, "source": "osm", "_tags": {"addr:street": "Strada Statale 260 Picente", "amenity": "hospital", "name": "Centro di emergenza sanitaria \"campo sportivo A. Sbardella” \"", "operator": "Protezione civile"}}, {"name": "Associazione La Rugiada", "latitude": 43.0772783, "longitude": 13.4914792, "source": "osm", "_tags": {"addr:city": "Servigliano", "addr:country": "IT", "addr:housenumber": "12", "addr:postcode": "63839", "addr:province": "Fermo", "addr:street": "Via Amendola", "amenity": "hospital", "healthcare": "hospital", "name": "Associazione La Rugiada"}}, {"name": "Punto Primo Intervento P.A.S.S. Amatrice", "latitude": 42.6224855, "longitude": 13.3060316, "source": "osm", "_tags": {"amenity": "hospital", "check_date": "2025-09-15", "healthcare": "hospital", "name": "Punto Primo Intervento P.A.S.S. Amatrice"}}, {"name": "Ospedale \"San Massimo\"", "latitude": 42.4592797, "longitude": 13.9212865, "source": "osm", "_tags": {"amenity": "hospital", "healthcare": "hospital", "name": "Ospedale \"San Massimo\"", "old_name": "Convento delle Clarisse", "phone": "+39 085 82761", "source:name": "sign", "website": "https://www.asl.pe.it/DettaglioSede.jsp?id=29&idSezione=32"}}, {"name": "Ospedale Civitanova Marche", "latitude": 43.308499, "longitude": 13.6953553, "source": "osm", "_tags": {"amenity": "hospital", "emergency": "yes", "healthcare": "hospital", "name": "Ospedale Civitanova Marche"}}, {"name": "Ospedale \"Costanzo e Gaetano Mazzoni\"", "latitude": 42.8515651, "longitude": 13.6201675, "source": "osm", "_tags": {"addr:city": "Monticelli", "addr:housenumber": "6", "addr:postcode": "63100", "addr:street": "Via degli Iris", "amenity": "hospital", "check_date": "2025-02-11", "emergency": "yes", "healthcare": "hospital", "healthcare:speciality": "general", "name": "Ospedale \"Costanzo e Gaetano Mazzoni\"", "old_name": "Ospedale Generale Provinciale \"Costanzo e Gaetano Mazzoni\"", "operator": "AST Ascoli Piceno", "operator:type": "public", "start_date": "1980"}}, {"name": "Casa della salute", "latitude": 43.3074305, "longitude": 13.3155794, "source": "osm", "_tags": {"amenity": "hospital", "building": "hospital", "name": "Casa della salute", "operator": "ASUR 9"}}, {"name": "Villa Verde", "latitude": 43.1584656, "longitude": 13.7143755, "source": "osm", "_tags": {"amenity": "hospital", "building": "yes", "healthcare": "hospital", "name": "Villa Verde"}}, {"name": "Ospedale Civile Giuseppe Mazzini", "latitude": 42.6666919, "longitude": 13.7148392, "source": "osm", "_tags": {"amenity": "hospital", "emergency": "yes", "healthcare": "hospital", "name": "Ospedale Civile Giuseppe Mazzini", "phone": "+39 0861 4291", "website": "https://www.aslteramo.it/ospedale-g-mazzini-di-teramo/"}}, {"name": "Ospedale Val Vibrata", "latitude": 42.7926928, "longitude": 13.8013026, "source": "osm", "_tags": {"addr:city": "Sant'Omero", "addr:housenumber": "56", "addr:postcode": "64027", "addr:street": "Via Alla Salara", "amenity": "hospital", "emergency": "yes", "healthcare": "hospital", "name": "Ospedale Val Vibrata", "operator": "ASL Teramo", "phone": "+39 0861 8881", "start_date": "1985-05-05", "website": "https://www.aslteramo.it/ospedale-di-santomero/"}}, {"name": "ASL Dipartimento di prevenzione", "latitude": 42.6726166, "longitude": 13.7301749, "source": "osm", "_tags": {"amenity": "hospital", "emergency": "no", "name": "ASL Dipartimento di prevenzione"}}, {"name": "Casa di cura Stella Maris", "latitude": 42.9543963, "longitude": 13.8743575, "source": "osm", "_tags": {"addr:city": "San Benedetto del Tronto", "addr:housenumber": "1", "addr:postcode": "63074", "addr:street": "Via Augusto Murri", "amenity": "hospital", "contact:facebook": "https://www.facebook.com/profile.php?id=100081115742799", "email": "accettazione@casadicurastellamaris.it", "emergency": "no", "healthcare": "hospital", "name": "Casa di cura Stella Maris", "phone": "+39 0735 582525", "ref:vatin": "IT02286650441", "website": "https://www.casadicurastellamaris.it/"}}, {"name": "Centro di Riabilitazione Intensiva Ospedaliera \"Santa Rita da Cascia\"", "latitude": 42.7152296, "longitude": 13.0148025, "source": "osm", "_tags": {"amenity": "hospital", "emergency": "no", "name": "Centro di Riabilitazione Intensiva Ospedaliera \"Santa Rita da Cascia\"", "operator": "Azienda Unità Sanitaria Locale Umbria n. 2", "operator:type": "public"}}, {"name": "", "latitude": 42.6255317, "longitude": 13.2937451, "source": "osm", "_tags": {"amenity": "hospital", "fixme": "clarify weather it is camp site or medical amenity", "refugee": "yes"}}, {"name": "Centro di Riabilitazione Santo Stefano", "latitude": 43.2134251, "longitude": 13.2806065, "source": "osm", "_tags": {"addr:street": "Viale 30 giugno", "amenity": "hospital", "name": "Centro di Riabilitazione Santo Stefano", "operator": "Santo Stefano"}}, {"name": "Croce Rossa Italiana", "latitude": 42.932357, "longitude": 13.893741, "source": "osm", "_tags": {"amenity": "hospital", "brand": "Croce Rossa Italiana", "brand:wikidata": "Q913903", "emergency": "ambulance_station", "healthcare": "hospital", "name": "Croce Rossa Italiana", "operator": "Croce Rossa"}}, {"name": "Ospedale Bartolomeo Eustachio", "latitude": 43.2360871, "longitude": 13.1887743, "source": "osm", "_tags": {"addr:city": "San Severino Marche", "addr:housenumber": "8", "addr:postcode": "62027", "addr:street": "Via Glorioso", "amenity": "hospital", "emergency": "yes", "healthcare": "hospital", "name": "Ospedale Bartolomeo Eustachio", "phone": "+39 0733 6421"}}, {"name": "Ospedale di Norcia", "latitude": 42.7893578, "longitude": 13.0970859, "source": "osm", "_tags": {"amenity": "hospital", "emergency": "yes", "healthcare": "hospital", "name": "Ospedale di Norcia", "operator": "Azienda Unità Sanitaria Locale Umbria n. 2", "operator:type": "public", "phone": "+39 0743 8151", "website": "https://www.uslumbria2.it/pagine/ospedale-di-norcia-000"}}, {"name": "Ospedale Vittorio Emanuele II", "latitude": 42.9819232, "longitude": 13.3632145, "source": "osm", "_tags": {"amenity": "hospital", "healthcare": "hospital", "name": "Ospedale Vittorio Emanuele II", "status": "abandoned"}}, {"name": "Ospedale Santa Maria della Pietà di Camerino", "latitude": 43.1275179, "longitude": 13.0506769, "source": "osm", "_tags": {"amenity": "hospital", "emergency": "yes", "healthcare": "hospital", "name": "Ospedale Santa Maria della Pietà di Camerino"}}, {"name": "Ospedale Enrico Mattei", "latitude": 43.2455157, "longitude": 13.0088611, "source": "osm", "_tags": {"amenity": "hospital", "building": "hospital", "name": "Ospedale Enrico Mattei"}}, {"name": "ASL", "latitude": 42.4496897, "longitude": 13.9189576, "source": "osm", "_tags": {"amenity": "hospital", "name": "ASL"}}, {"name": "Centro di Riabilitazione Santo Stefano \"Venerabile Marcucci\"", "latitude": 42.8527171, "longitude": 13.6226318, "source": "osm", "_tags": {"addr:city": "Monticelli", "addr:housenumber": "5", "addr:postcode": "63100", "addr:street": "Via dei Narcisi", "amenity": "hospital", "check_date": "2025-07-09", "healthcare": "hospital", "name": "Centro di Riabilitazione Santo Stefano \"Venerabile Marcucci\"", "operator": "Kos Care", "phone": "+39 0736 6891", "website": "https://kosgroup.com/it/centri/centro-venerabile-marcucci"}}, {"name": "Istituto Santo Stefano", "latitude": 43.3707627, "longitude": 13.6929003, "source": "osm", "_tags": {"addr:city": "Porto Potenza Picena", "addr:postcode": "62018", "addr:street": "Via Aprutina", "amenity": "hospital", "name": "Istituto Santo Stefano"}}, {"name": "", "latitude": 43.0371773, "longitude": 13.295466, "source": "osm", "_tags": {"addr:city": "Sarnano", "addr:postcode": "62028", "amenity": "hospital", "emergency": "yes", "healthcare": "hospital"}}, {"name": "Ospedale Recanati Santa Lucia", "latitude": 43.3967271, "longitude": 13.5517679, "source": "osm", "_tags": {"amenity": "hospital", "emergency": "yes", "healthcare": "hospital", "name": "Ospedale Recanati Santa Lucia"}}, {"name": "Ospedale Macerata", "latitude": 43.2945725, "longitude": 13.4592995, "source": "osm", "_tags": {"amenity": "hospital", "emergency": "yes", "healthcare": "hospital", "name": "Ospedale Macerata"}}, {"name": "Ospedale di Cingoli", "latitude": 43.3717569, "longitude": 13.216717, "source": "osm", "_tags": {"amenity": "hospital", "emergency": "yes", "healthcare": "hospital", "name": "Ospedale di Cingoli", "phone": "+39 0733 601 755", "website": "https://www.agenziamedica.it/strutture/ospedale-di-cingoli-cingoli/"}}, {"name": "", "latitude": 43.1813248, "longitude": 13.7899456, "source": "osm", "_tags": {"amenity": "hospital", "healthcare": "hospital"}}, {"name": "Fondazione Il Cireneo - Onlus per l'Autismo.", "latitude": 42.7026424, "longitude": 13.7976224, "source": "osm", "_tags": {"amenity": "hospital", "healthcare": "hospital", "name": "Fondazione Il Cireneo - Onlus per l'Autismo."}}, {"name": "Casa di Cura Villa dei Pini", "latitude": 43.3128446, "longitude": 13.7199517, "source": "osm", "_tags": {"amenity": "hospital", "healthcare": "hospital", "healthcare:speciality": "cardiology;surgery;oncology;orthopaedics;internal", "name": "Casa di Cura Villa dei Pini", "phone": "+39 0733 7861", "website": "https://www.casadicuravillapini.it/"}}, {"name": "Ospedale dei Sibillini \"Beato Antonio di Amandola\"", "latitude": 42.9703394, "longitude": 13.3532214, "source": "osm", "_tags": {"amenity": "hospital", "construction:start_date": "2020-05", "name": "Ospedale dei Sibillini \"Beato Antonio di Amandola\"", "name:etymology:wikidata": "Q3619898", "operator": "AST Fermo", "start_date": "2024-12-14"}}, {"name": "Casa di cura \"Dottor Bruno Marchetti\"", "latitude": 43.2963231, "longitude": 13.4546931, "source": "osm", "_tags": {"addr:city": "Macerata", "addr:country": "IT", "addr:housenumber": "9", "addr:postcode": "62100", "addr:street": "Via Adriano Ariani", "alt_name": "Clinica Marchetti", "amenity": "hospital", "check_date": "2024-03-24", "emergency": "no", "healthcare:speciality": "clinic", "name": "Casa di cura \"Dottor Bruno Marchetti\"", "operator:type": "private", "payment:cash": "yes", "payment:credit_cards": "yes", "payment:debit_cards": "yes", "phone": "+39 0733 230227", "website": "https://www.casadicuramarchetti.it/", "wheelchair": "yes"}}, {"name": "Centro iperbarico polivalente e di ricerca", "latitude": 42.7030051, "longitude": 13.7968684, "source": "osm", "_tags": {"amenity": "hospital", "healthcare": "hospital", "name": "Centro iperbarico polivalente e di ricerca", "phone": "+39 0861 587679"}}, {"name": "", "latitude": 43.3048519, "longitude": 13.7342128, "source": "osm", "_tags": {"amenity": "hospital", "healthcare": "hospital"}}, {"name": "Ospedale Civile \"Augusto Murri\"", "latitude": 43.1623783, "longitude": 13.7055499, "source": "osm", "_tags": {"amenity": "hospital", "emergency": "yes", "healthcare": "hospital", "name": "Ospedale Civile \"Augusto Murri\"", "type": "multipolygon"}}, {"name": "Ospedale Civile \"Madonna del Soccorso\"", "latitude": 42.9478469, "longitude": 13.8769297, "source": "osm", "_tags": {"amenity": "hospital", "emergency": "yes", "healthcare": "hospital", "name": "Ospedale Civile \"Madonna del Soccorso\"", "type": "multipolygon", "wheelchair": "limited"}}, {"name": "Distretto Sanitario di Montereale", "latitude": 42.5194145, "longitude": 13.2493776, "source": "osm", "_tags": {"addr:city": "Piedicolle di Montereale", "addr:postcode": "67015", "addr:street": "Via della Molinella", "amenity": "hospital", "healthcare": "hospital", "healthcare:speciality": "general", "name": "Distretto Sanitario di Montereale", "operator": "ASL01 Avezzano-Sulmona-L'Aquila", "operator:type": "government", "phone": "+39 0862 901022", "type": "multipolygon"}}, {"name": "RSA", "latitude": 42.997445, "longitude": 13.7592753, "source": "osm", "_tags": {"amenity": "hospital", "healthcare": "hospital", "name": "RSA", "type": "multipolygon"}}, {"name": "", "latitude": 42.8188477, "longitude": 13.712251, "source": "osm", "_tags": {"amenity": "hospital", "emergency": "no", "healthcare": "hospital", "type": "multipolygon"}}]