[{"name": "Centro Salute Orte", "latitude": 42.4604088, "longitude": 12.3843922, "source": "osm", "_tags": {"amenity": "hospital", "name": "Centro Salute Orte"}}, {"name": "Pronto Soccorso Ospedale \"Camillo de Lellis\"", "latitude": 42.4223755, "longitude": 12.9067663, "source": "osm", "_tags": {"addr:city": "Rieti", "amenity": "hospital", "emergency": "yes", "healthcare": "hospital", "name": "Pronto Soccorso Ospedale \"Camillo de Lellis\""}}, {"name": "Casa della Salute", "latitude": 42.6255597, "longitude": 12.1008315, "source": "osm", "_tags": {"amenity": "hospital", "healthcare": "hospital", "healthcare:speciality": "ASL", "name": "Casa della Salute"}}, {"name": "Istituto Clinico Porta Sole", "latitude": 43.1139263, "longitude": 12.4029178, "source": "osm", "_tags": {"addr:city": "Perugia", "addr:housenumber": "49", "addr:postcode": "06122", "addr:street": "Via del Giochetto", "amenity": "hospital", "email": "info@porta-sole.it", "emergency": "no", "fax": "+39 075 5734147", "healthcare": "hospital", "name": "Istituto Clinico Porta Sole", "operator": "Istituto Clinico Porta Sole Srl", "operator:type": "private", "phone": "+39 075 575999", "website": "https://www.clinicaportasole.it/"}}, {"name": "U.S.L. Del Lago Trasimeno", "latitude": 42.9510023, "longitude": 12.0045216, "source": "osm", "_tags": {"addr:city": "Città della Pieve", "addr:housenumber": "1", "addr:postcode": "06062", "addr:street": "Via Beato Giacomo Villa", "amenity": "hospital", "healthcare": "hospital", "name": "U.S.L. Del Lago Trasimeno"}}, {"name": "Ospedale provinciale Camillo de Lellis", "latitude": 42.4225909, "longitude": 12.9079333, "source": "osm", "_tags": {"addr:city": "Rieti", "addr:postcode": "02100", "addr:state": "Lazio", "addr:street": "Kennedy", "amenity": "hospital", "emergency": "yes", "healthcare": "hospital", "name": "Ospedale provinciale Camillo de Lellis", "operator": "Sistema Sanitario Nazionale", "phone": "+39 0746 2781", "website": "https://www.asl.rieti.it/"}}, {"name": "Ospedale Civile di Montefiascone", "latitude": 42.5362827, "longitude": 12.0311772, "source": "osm", "_tags": {"addr:city": "Montefiascone", "addr:country": "IT", "addr:postcode": "01027", "addr:street": "Via Donatori di Sangue", "amenity": "hospital", "building": "yes", "email": "dirsanmon@asl.vt.it", "name": "Ospedale Civile di Montefiascone", "operator": "ASL Viterbo", "phone": "+39 0761 8331"}}, {"name": "Ospedale Engles Profili", "latitude": 43.3406614, "longitude": 12.9061267, "source": "osm", "_tags": {"amenity": "hospital", "check_date": "2024-12-04", "healthcare": "hospital", "name": "Ospedale Engles Profili", "wheelchair": "yes"}}, {"name": "Ospedale Santa Maria dei Laici", "latitude": 42.5592215, "longitude": 12.4120444, "source": "osm", "_tags": {"addr:city": "Amelia", "addr:housenumber": "18", "addr:postcode": "05022", "addr:street": "Via dell'Ospedale", "amenity": "hospital", "building": "yes", "building:levels": "4", "emergency": "no", "name": "Ospedale Santa Maria dei Laici", "operator": "Azienda Unità Sanitaria Locale Umbria n. 2", "operator:type": "public", "phone": "+39 0744 9011", "website": "https://www.uslumbria2.it/pagine/ospedale-di-amelia-000"}}, {"name": "Ospedale San Matteo degli Infermi", "latitude": 42.7324271, "longitude": 12.7255808, "source": "osm", "_tags": {"addr:city": "Spoleto", "addr:housenumber": "3", "addr:postcode": "06049", "addr:street": "Via Loreto", "amenity": "hospital", "email": "ospedale.spoleto@pec.uslumbria2.it", "emergency": "yes", "healthcare": "hospital", "name": "Ospedale San Matteo degli Infermi", "operator": "Azienda Unità Sanitaria Locale Umbria n. 2", "operator:type": "public", "phone": "+39 0743 2101", "website": "https://www.uslumbria2.it/pagine/ospedale-di-spoleto-000"}}, {"name": "Clinica Lami", "latitude": 43.0999742, "longitude": 12.3940297, "source": "osm", "_tags": {"amenity": "hospital", "building": "yes", "email": "urp@clinicalami.it", "healthcare": "hospital", "healthcare:speciality": "orthopaedics", "name": "Clinica Lami", "operator": "Casa di Cura Clinica Lami Spa", "operator:type": "private", "phone": "+39 075 582991", "website": "https://clinicalami.it/"}}, {"name": "Azienda Ospedaliera Santa Maria", "latitude": 42.5561544, "longitude": 12.6550695, "source": "osm", "_tags": {"addr:city": "Terni", "addr:postcode": "05100", "addr:street": "Viale Tristano di Joannuccio", "amenity": "hospital", "email": "info@aospterni.it", "email:pec": "aospterni@postacert.umbria.it", "emergency": "yes", "fax": "+39 0744 205006", "healthcare": "hospital", "healthcare:speciality": "psychiatry;paediatrics;orthodontics;chiropractic;nephrology;orthopaedics;dermatology;intensive;radiology;cardiology;oncology;vaccination;surgery;angiology;biology;emergency;neurology;gynaecology;ophthalmology;internal;acupuncture;physiatry;osteopathy;body", "name": "Azienda Ospedaliera Santa Maria", "operator": "Azienda Ospedaliera “Santa Maria” – Terni", "operator:type": "public", "phone": "+39 0744 2051 (Centralino9", "website": "https://www.aospterni.it/", "wheelchair": "yes"}}, {"name": "Casa di Cura Liotti", "latitude": 43.1131377, "longitude": 12.3808721, "source": "osm", "_tags": {"amenity": "hospital", "building": "hospital", "email": "info@casadicuraliotti.it", "emergency": "no", "healthcare": "hospital", "name": "Casa di Cura Liotti", "operator": "Casa di Cura Liotti s.p.a.", "operator:type": "private", "phone": "+39 075 5721647", "website": "https://www.casadicuraliotti.it/"}}, {"name": "CAsa di cura Villa Fiorita", "latitude": 43.1036696, "longitude": 12.3827006, "source": "osm", "_tags": {"amenity": "hospital", "building": "yes", "email": "segreteria@casadicuravillafiorita.it", "emergency": "no", "fax": "+39 075 5759842", "healthcare": "hospital", "name": "CAsa di cura Villa Fiorita", "operator": "Casa di Cura Villa Fiorita Srl", "operator:type": "private", "phone": "+39 075 575981", "website": "https://www.casadicuravillafiorita.it/"}}, {"name": "Ospedale Santa Maria della Stella", "latitude": 42.7321662, "longitude": 12.145217, "source": "osm", "_tags": {"addr:city": "Orvieto", "addr:place": "Località Ciconia", "addr:postcode": "05018", "amenity": "hospital", "emergency": "yes", "healthcare": "hospital", "name": "Ospedale Santa Maria della Stella", "operator": "Azienda Unità Sanitaria Locale Umbria n. 2", "operator:type": "public", "phone": "+39 0763 3071", "website": "https://www.uslumbria2.it/pagine/ospedale-di-orvieto"}}, {"name": "Ospedale di Assisi", "latitude": 43.0637262, "longitude": 12.6227917, "source": "osm", "_tags": {"addr:city": "Assisi", "addr:housenumber": "1", "addr:postcode": "06081", "addr:street": "Via Valentin Müller", "amenity": "hospital", "emergency": "yes", "healthcare": "hospital", "name": "Ospedale di Assisi", "operator": "Azienda Unità Sanitaria Locale Umbria 1", "operator:type": "public", "phone": "+39 075 54192", "website": "https://www.uslumbria1.it/pagine/direzione-001"}}, {"name": "Ospedale Civile Sant'Agostino", "latitude": 43.1272269, "longitude": 12.0547877, "source": "osm", "_tags": {"amenity": "hospital", "emergency": "yes", "healthcare": "hospital", "name": "Ospedale Civile Sant'Agostino", "operator": "Azienda Unità Sanitaria Locale Umbria 1", "operator:type": "public", "phone": "+39 075 95261", "toilets:wheelchair": "yes", "website": "https://www.uslumbria1.it/pagine/ospedale-castiglione-del-lago", "wheelchair": "yes"}}, {"name": "Ospedale di Umbertide", "latitude": 43.3095194, "longitude": 12.3266951, "source": "osm", "_tags": {"addr:city": "Umbertide", "addr:housenumber": "40", "addr:postcode": "06019", "addr:street": "Via Cavour", "amenity": "hospital", "building": "hospital", "emergency": "yes", "healthcare": "hospital", "name": "Ospedale di Umbertide", "operator": "Azienda Unità Sanitaria Locale Umbria 1", "operator:type": "public", "phone": "+39 075 85091", "website": "https://www.uslumbria1.it/pagine/ospedale-umbertide"}}, {"name": "Ospedale di Branca", "latitude": 43.267244, "longitude": 12.6863816, "source": "osm", "_tags": {"addr:city": "Gubbio", "addr:hamlet": "Branca", "addr:postcode": "06024", "addr:street": "Largo Unità d'Italia", "amenity": "hospital", "emergency": "yes", "healthcare": "hospital", "name": "Ospedale di Branca", "nohousenumber": "yes", "official_name": "Ospedale Gubbio - Gualdo Tadino", "operator": "Azienda Unità Sanitaria Locale Umbria 1", "operator:type": "public", "phone": "+39 075 9270801", "website": "http://www.uslumbria1.gov.it/pagine/direzione-medica-001"}}, {"name": "Ospedale Santa Maria della Misericordia", "latitude": 43.0791479, "longitude": 12.3553048, "source": "osm", "_tags": {"addr:city": "Perugia", "addr:housenumber": "3", "addr:postcode": "06156", "addr:street": "Piazzale Giorgio Menghini", "alt_name": "Silvestrini", "amenity": "hospital", "email": "ufficio.informazioni@ospedale.perugia.it", "emergency": "yes", "fax": "+39 075 5783531", "healthcare": "hospital", "healthcare:speciality": "psychiatry;paediatrics;orthodontics;nephrology;biology;cardiology;orthopaedics;ophthalmology;dentistry;radiology;surgery;oncology;acupuncture;body;blood_check;haematology;diabetology;chiropractic;dermatology;general;intensive;angiology;neurology;osteopath", "name": "Ospedale Santa Maria della Misericordia", "operator": "Azienda Ospedaliera di Perugia", "operator:type": "public", "phone": "+39 075 5781", "website": "https://www.ospedale.perugia.it/"}}, {"name": "Casa di Cura Villa Aurora", "latitude": 42.9567953, "longitude": 12.7163769, "source": "osm", "_tags": {"amenity": "hospital", "building": "public", "email": "info@villaurora.com", "emergency": "no", "healthcare": "hospital", "healthcare:speciality": "orthopaedics", "name": "Casa di Cura Villa Aurora", "operator": "Casa di Cura Villa Aurora Srl", "operator:type": "private", "phone": "+39 0742 351405", "website": "http://villaurora.com/index.html"}}, {"name": "Struttura Complessa di Riabilitazione Intensiva Neuromotoria", "latitude": 42.8785348, "longitude": 12.749189, "source": "osm", "_tags": {"amenity": "hospital", "email": "riabilitazione.trevi@uslumbria2.it", "emergency": "no", "healthcare": "hospital", "healthcare:speciality": "rehabilitation", "name": "Struttura Complessa di Riabilitazione Intensiva Neuromotoria", "operator": "Azienda Unità Sanitaria Locale Umbria n. 2", "phone": "+39 0742 339810", "website": "https://www.uslumbria2.it/pagine/ospedale-di-trevi"}}, {"name": "Ospedale degli Infermi", "latitude": 42.5170267, "longitude": 12.5218029, "source": "osm", "_tags": {"addr:city": "Narni", "addr:housenumber": "3", "addr:postcode": "05035", "addr:street": "Via dei Cappuccini Nuovi", "amenity": "hospital", "emergency": "yes", "name": "Ospedale degli Infermi", "operator": "Azienda Unità Sanitaria Locale Umbria n. 2", "operator:type": "public", "phone": "+39 0744 7401", "website": "https://www.uslumbria2.it/pagine/ospedale-di-narni-000"}}, {"name": "", "latitude": 42.5557061, "longitude": 12.6555077, "source": "osm", "_tags": {"building": "hospital", "healthcare": "hospital"}}, {"name": "", "latitude": 42.5555963, "longitude": 12.6557129, "source": "osm", "_tags": {"building": "hospital", "healthcare": "hospital"}}, {"name": "Azienda USL Umbria 1", "latitude": 42.9096113, "longitude": 12.3343953, "source": "osm", "_tags": {"amenity": "hospital", "healthcare": "hospital", "name": "Azienda USL Umbria 1"}}, {"name": "Ospedale Media Valle del Tevere", "latitude": 42.8779106, "longitude": 12.4039557, "source": "osm", "_tags": {"addr:city": "Todi", "addr:place": "Pantalla", "addr:postcode": "06059", "amenity": "hospital", "emergency": "yes", "healthcare": "hospital", "name": "Ospedale Media Valle del Tevere", "operator": "Azienda Unità Sanitaria Locale Umbria 1", "operator:type": "public", "phone": "+39 075 54193", "type": "multipolygon", "website": "https://www.uslumbria1.it/pagine/direzione-medica-000"}}, {"name": "Nuovo Ospedale San Giovanni Battista", "latitude": 42.9586828, "longitude": 12.6874984, "source": "osm", "_tags": {"addr:city": "Foligno", "addr:postcode": "06034", "addr:street": "Via Massimo Arcamone", "amenity": "hospital", "emergency": "yes", "healthcare": "hospital", "name": "Nuovo Ospedale San Giovanni Battista", "operator": "Azienda Unità Sanitaria Locale Umbria n. 2", "operator:type": "public", "phone": "+39 0742 3391", "type": "multipolygon", "website": "https://www.uslumbria2.it/pagine/ospedale-di-foligno-000"}}]