[{"name": "Ospedale Santa Maria della Scala", "latitude": 42.7458734, "longitude": 11.8653758, "source": "osm", "_tags": {"addr:city": "Acquapendente", "addr:country": "IT", "addr:housenumber": "68", "addr:postcode": "01021", "addr:street": "Via Cesare Battisti", "amenity": "hospital", "name": "Ospedale Santa Maria della Scala"}}, {"name": "Rugani Hospital", "latitude": 43.3601104, "longitude": 11.3126568, "source": "osm", "_tags": {"addr:city": "Siena", "addr:postcode": "53035", "addr:street": "Via Chiantigiana", "amenity": "hospital", "emergency": "no", "healthcare": "hospital", "healthcare:speciality": "radiology", "name": "Rugani Hospital", "phone": "+39 0577 578311", "website": "https:// ruganihospital.it"}}, {"name": "Pronto Soccorso Ospedale \"Santa Maria della Scala\"", "latitude": 42.7459289, "longitude": 11.8648716, "source": "osm", "_tags": {"addr:city": "Acquapendente", "addr:postcode": "01021", "addr:street": "Via Cantorrivo", "amenity": "hospital", "emergency": "yes", "healthcare": "hospital", "name": "Pronto Soccorso Ospedale \"Santa Maria della Scala\""}}, {"name": "Punto di Primo Soccorso", "latitude": 42.6872147, "longitude": 11.332441, "source": "osm", "_tags": {"alt_name": "Pronto Soccorso", "amenity": "hospital", "healthcare": "hospital", "healthcare:speciality": "emergency", "name": "Punto di Primo Soccorso", "operator": "Azienda USL Toscana Sud Est", "short_name": "PPS"}}, {"name": "LILT Siena", "latitude": 43.3106803, "longitude": 11.3589955, "source": "osm", "_tags": {"addr:city": "Siena", "addr:housenumber": "15", "addr:postcode": "53100", "addr:street": "Viale Europa", "amenity": "hospital", "healthcare": "hospital", "name": "LILT Siena", "operator": "Lega Italiana Per La Lotta Contro I Tumori", "phone": "+39 0577 247259", "website": "https://www.liltsiena.it/"}}, {"name": "Centro riabilitativo Il Tamburino", "latitude": 43.3150335, "longitude": 11.3369055, "source": "osm", "_tags": {"amenity": "hospital", "healthcare": "hospital", "name": "Centro riabilitativo Il Tamburino"}}, {"name": "Policlinico Santa Maria alle Scotte", "latitude": 43.3435576, "longitude": 11.3301106, "source": "osm", "_tags": {"addr:city": "Siena", "addr:housenumber": "16", "addr:postcode": "53100", "addr:street": "Viale Mario Bracci", "alt_name": "Ospedale di Siena", "alt_name_1": "Ospedale Santa Maria alle Scotte", "amenity": "hospital", "emergency": "yes", "healthcare": "hospital", "name": "Policlinico Santa Maria alle Scotte", "name:it": "Policlinico Santa Maria alle Scotte", "opening_hours": "24/7", "operator": "Azienda Ospedaliera di Siena", "phone": "+39 0577 585111", "wikidata": "Q30280376"}}, {"name": "Ospedale di Montalcino", "latitude": 43.0597801, "longitude": 11.4925714, "source": "osm", "_tags": {"addr:city": "Montalcino", "addr:postcode": "53024", "amenity": "hospital", "healthcare": "hospital", "name": "Ospedale di Montalcino"}}, {"name": "USL Colle di Val d'Elsa", "latitude": 43.4110124, "longitude": 11.1359923, "source": "osm", "_tags": {"addr:city": "Colle di Val d'Elsa", "addr:housenumber": "25", "addr:postcode": "53034", "addr:street": "Viale Marco Polo", "addr:suburb": "Campolungo", "amenity": "hospital", "healthcare": "hospital", "landuse": "residential", "name": "USL Colle di Val d'Elsa", "operator": "ASL", "operator:wikidata": "Q3631467", "phone": "+39 0577 994111", "wheelchair": "yes"}}, {"name": "Casa Riposo Emmaus", "latitude": 43.3492713, "longitude": 11.3112455, "source": "osm", "_tags": {"addr:city": "Siena", "addr:postcode": "53035", "addr:street": "Via Montarioso", "amenity": "social_facility", "building": "religious", "emergency": "no", "healthcare": "hospital", "healthcare:speciality": "geriatrics", "name": "Casa Riposo Emmaus", "social_facility": "nursing_home", "social_facility:for": "senior"}}, {"name": "Ospedale Petruccioli", "latitude": 42.6354837, "longitude": 11.6744515, "source": "osm", "_tags": {"addr:city": "Pitigliano", "addr:postcode": "58013", "amenity": "hospital", "healthcare": "hospital", "name": "Ospedale Petruccioli"}}, {"name": "Presidio Ospedaliero Amiata Grossetana", "latitude": 42.8901098, "longitude": 11.5347496, "source": "osm", "_tags": {"amenity": "hospital", "emergency": "yes", "healthcare": "hospital", "name": "Presidio Ospedaliero Amiata Grossetana"}}, {"name": "Presidio Ospedaliero Amiata Val d'Orcia", "latitude": 42.8826497, "longitude": 11.6742774, "source": "osm", "_tags": {"addr:city": "Abbadia San Salvatore", "addr:housenumber": "9", "addr:postcode": "53021", "addr:street": "Via Bolzano", "alt_name": "Ospedale di Abbadia San Salvatore", "amenity": "hospital", "emergency": "yes", "healthcare": "hospital", "name": "Presidio Ospedaliero Amiata Val d'Orcia", "opening_hours": "24/7", "phone": "+39 0577 7821", "website": "https://www.uslsudest.toscana.it/ospedali/amiata-abbadia-san-salvatore"}}, {"name": "Ospedale della Valdichiana \"Santa Margherita\"", "latitude": 43.2786782, "longitude": 11.9242899, "source": "osm", "_tags": {"amenity": "hospital", "name": "Ospedale della Valdichiana \"Santa Margherita\""}}, {"name": "Misericordia di Sinalunga", "latitude": 43.2121464, "longitude": 11.760611, "source": "osm", "_tags": {"addr:city": "Sinalunga", "addr:housenumber": "115", "addr:postcode": "53048", "addr:street": "Via Voltella", "amenity": "social_facility", "email": "misericordia@misericordiasinalunga.it", "healthcare": "hospital", "name": "Misericordia di Sinalunga", "phone": "+39 0577 630367", "website": "http://www.misericordiasinalunga.it/it/index.html", "wheelchair": "yes"}}, {"name": "Ospedali Riuniti della Valdichiana Senese", "latitude": 43.1188589, "longitude": 11.8256181, "source": "osm", "_tags": {"addr:street": "Localit√† Nottola", "alt_name": "Ospedale di Montepulciano", "alt_name_1": "Ospedale di Nottola", "amenity": "hospital", "emergency": "yes", "healthcare": "hospital", "name": "Ospedali Riuniti della Valdichiana Senese", "opening_hours": "24/7", "operator": "Ospedali Riuniti Valdichiana Senese", "phone": "+39 0578 713111", "website": "https://www.uslsudest.toscana.it/ospedali/valdichiana-nottola"}}, {"name": "ASL Sarteano", "latitude": 42.9946562, "longitude": 11.8623511, "source": "osm", "_tags": {"addr:city": "Sarteano", "addr:housenumber": "8", "addr:postcode": "53047", "addr:street": "Via Aldo Moro", "amenity": "hospital", "building": "yes", "emergency": "yes", "healthcare": "hospital", "name": "ASL Sarteano", "opening_hours": "24/7", "operator": "ASL", "operator:type": "public", "operator:wikidata": "Q3631467", "website": "https://www.uslsudest.toscana.it/"}}, {"name": "Ospedale San Giovanni di Dio", "latitude": 42.4462868, "longitude": 11.2378263, "source": "osm", "_tags": {"amenity": "hospital", "healthcare": "hospital", "name": "Ospedale San Giovanni di Dio", "type": "multipolygon"}}, {"name": "Ospedale Misericordia di Grosseto", "latitude": 42.7767831, "longitude": 11.1268676, "source": "osm", "_tags": {"addr:city": "Grosseto", "addr:country": "IT", "addr:housenumber": "161", "addr:postcode": "58100", "addr:street": "Via Senese", "amenity": "hospital", "beds": "445", "emergency": "yes", "healthcare": "hospital", "name": "Ospedale Misericordia di Grosseto", "operator": "ASL 9 Toscana Sud Est", "operator:type": "public", "phone": "+39 0564 485111", "type": "multipolygon", "url": "https://www.uslsudest.toscana.it/ospedali/grosseto-misericordia", "wikidata": "Q3886613", "wikipedia": "it:Ospedale Misericordia di Grosseto"}}]