[{"name": "Zumarragako Ospitalea", "latitude": 43.0836702, "longitude": -2.3128803, "source": "osm", "_tags": {"addr:city": "Zumarraga", "addr:full": "Argixao auzoa z.g.", "addr:housenumber": "6", "addr:postcode": "20700", "addr:province": "Gipuzkoa", "addr:street": "Argixao auzoa", "amenity": "hospital", "email": "info.hospitalzumarraga@osakidetza.eus", "emergency": "yes", "fax": "+34 943035063", "healthcare": "hospital", "name": "Zumarragako Ospitalea", "name:eu": "Zumarragako Ospitalea", "network": "Mendebalde", "note": "osasun-zentroaren ordutegitik kanpo eta premiaz artatu beharreko kasu arinetarako, begiratu <a href=\"https://www.osakidetza.euskadi.eus/informazioa/etengabeko-arretako-guneak-eag/ab84-oskcon/eu/\">hemen</a>ea zein EAG duzun hurbilen", "operator": "Osakidetza", "operator:type": "public", "operator:wikidata": "Q3822645", "operator:wikipedia": "es:Osakidetza-Servicio Vasco de Salud", "phone": "+34 943035000", "ref:osakidetza": "hospit_zumrraga", "source": "Open Data Euskadi", "wikidata": "Q17634320", "wikipedia": "eu:Zumarragako Ospitalea"}}, {"name": "IMQ", "latitude": 43.2643051, "longitude": -2.9363533, "source": "osm", "_tags": {"addr:city": "Bilbao", "addr:housename": "IMQ", "addr:housenumber": "45", "addr:postcode": "48008", "addr:street": "Calle Colón de Larreategui / Colon de Larreategui kalea", "amenity": "hospital", "designation": "Consultorio Médico", "emergency": "no", "healthcare": "hospital", "name": "IMQ"}}, {"name": "Centro de Salud de Navarrete", "latitude": 42.4273966, "longitude": -2.5611839, "source": "osm", "_tags": {"amenity": "hospital", "healthcare": "hospital", "name": "Centro de Salud de Navarrete"}}, {"name": "Centro de Salud de Saralegi", "latitude": 43.2540412, "longitude": -2.9257236, "source": "osm", "_tags": {"amenity": "clinic", "healthcare": "hospital", "name": "Centro de Salud de Saralegi", "name:eu": "Saralegiko Osasun Zentroa"}}, {"name": "Cruz Roja", "latitude": 43.261228, "longitude": -2.9422335, "source": "osm", "_tags": {"amenity": "hospital", "brand": "Cruz Roja", "brand:wikidata": "Q7178", "brand:wikipedia": "es:Cruz Roja", "healthcare": "hospital", "name": "Cruz Roja", "operator": "Cruz Roja", "operator:wikidata": "Q7178", "wheelchair": "yes"}}, {"name": "Cruz Roja Durangaldea", "latitude": 43.223767, "longitude": -2.7320954, "source": "osm", "_tags": {"addr:city": "Amorebieta-Etxano", "addr:housenumber": "31", "addr:postcode": "48340", "addr:street": "Karmen kalea", "addr:unit": "4", "amenity": "hospital", "healthcare": "hospital", "name": "Cruz Roja Durangaldea", "operator": "Cruz Roja", "operator:wikidata": "Q7178", "operator:wikipedia": "es:Cruz Roja", "phone": "+34 946309498", "website": "https://www.cruzrojabizkaia.org/"}}, {"name": "Barakaldo-2 Eguneko Ospitalea", "latitude": 43.2936362, "longitude": -2.9838901, "source": "osm", "_tags": {"addr:city": "BARAKALDO", "addr:full": "Etxatxu 31, -1 eta -2 solairuak", "addr:postcode": "48902", "addr:province": "BIZKAIA", "amenity": "clinic", "fax": "+34 946552074", "healthcare": "hospital", "name": "Barakaldo-2 Eguneko Ospitalea", "name:es": "Hospital de Día Barakaldo 2", "name:eu": "Barakaldo-2 Eguneko Ospitalea", "network": "Bizkaiko Osasun Mentaleko Sarea", "note": "osasun-zentroaren ordutegitik kanpo eta premiaz artatu beharreko kasu arinetarako, begiratu <a href=\"https://www.osakidetza.euskadi.eus/informazioa/etengabeko-arretako-guneak-eag/ab84-oskcon/eu/\">hemen</a>ea zein EAG duzun hurbilen", "opening_hours": "Mo-Fr 09:30-16:30", "operator": "Osakidetza", "operator:type": "public", "operator:wikidata": "Q3822645", "operator:wikipedia": "es:Osakidetza-Servicio Vasco de Salud", "phone": "+34 946552575", "ref:osakidetza": "rsmb_hd_barakaldo_2", "source": "Open Data Euskadi"}}, {"name": "Barakaldo-1 Eguneko Ospitalea", "latitude": 43.2936022, "longitude": -2.9838932, "source": "osm", "_tags": {"addr:city": "BARAKALDO", "addr:full": "Etxatxu 31, 3. solairua", "addr:postcode": "48902", "addr:province": "BIZKAIA", "amenity": "clinic", "email": "HD.BARAKALDO@osakidetza.eus", "fax": "+34 946552077", "healthcare": "hospital", "name": "Barakaldo-1 Eguneko Ospitalea", "name:es": "Hospital de Día Barakaldo 1", "name:eu": "Barakaldo-1 Eguneko Ospitalea", "network": "Bizkaiko Osasun Mentaleko Sarea", "note": "osasun-zentroaren ordutegitik kanpo eta premiaz artatu beharreko kasu arinetarako, begiratu <a href=\"https://www.osakidetza.euskadi.eus/informazioa/etengabeko-arretako-guneak-eag/ab84-oskcon/eu/\">hemen</a>ea zein EAG duzun hurbilen", "opening_hours": "Mo-Fr 08:00-15:00", "operator": "Osakidetza", "operator:type": "public", "operator:wikidata": "Q3822645", "operator:wikipedia": "es:Osakidetza-Servicio Vasco de Salud", "phone": "+34 946552575", "ref:osakidetza": "rsmb_hd_barakaldo_1", "source": "Open Data Euskadi"}}, {"name": "Erandioko Eguneko Ospitalea", "latitude": 43.3047437, "longitude": -2.9710277, "source": "osm", "_tags": {"addr:city": "Erandio", "addr:full": "Ibarrondo z.g.", "addr:postcode": "48950", "addr:province": "BIZKAIA", "addr:street": "Ibarrondo kalea", "amenity": "hospital", "email": "HD.ERANDIO@osakidetza.eus", "fax": "+34 946007147", "healthcare": "hospital", "name": "Erandioko Eguneko Ospitalea", "name:es": "Hospital de Día de Erandio", "name:eu": "Erandioko Eguneko Ospitalea", "network": "Bizkaiko Osasun Mentaleko Sarea", "nohousenumber": "yes", "note": "osasun-zentroaren ordutegitik kanpo eta premiaz artatu beharreko kasu arinetarako, begiratu <a href=\"https://www.osakidetza.euskadi.eus/informazioa/etengabeko-arretako-guneak-eag/ab84-oskcon/eu/\">hemen</a>ea zein EAG duzun hurbilen", "opening_hours": "Mo-Fr 09:30-16:30", "operator": "Osakidetza", "operator:type": "public", "operator:wikidata": "Q3822645", "operator:wikipedia": "es:Osakidetza-Servicio Vasco de Salud", "phone": "+34 946007149", "ref:osakidetza": "rsmb_hd_erandio", "source": "Open Data Euskadi"}}, {"name": "San Jose Ospitalea/Hospital San Jose", "latitude": 42.8497322, "longitude": -2.6766455, "source": "osm", "_tags": {"amenity": "hospital", "healthcare": "hospital", "name": "San Jose Ospitalea/Hospital San Jose", "name:es": "Hospital San Jose", "name:eu": "San Jose Ospitalea"}}, {"name": "Uribeko Eguneko Ospitalea", "latitude": 43.3526513, "longitude": -3.0145079, "source": "osm", "_tags": {"addr:city": "GETXO", "addr:full": "San Nikolas 2", "addr:postcode": "48990", "addr:province": "BIZKAIA", "amenity": "hospital", "email": "CSM.URIBE@osakidetza.eus", "fax": "+34 944603222", "healthcare": "hospital", "name": "Uribeko Eguneko Ospitalea", "name:es": "Hospital de Día de Uribe", "name:eu": "Uribeko Eguneko Ospitalea", "network": "Bizkaiko Osasun Mentaleko Sarea", "note": "osasun-zentroaren ordutegitik kanpo eta premiaz artatu beharreko kasu arinetarako, begiratu <a href=\"https://www.osakidetza.euskadi.eus/informazioa/etengabeko-arretako-guneak-eag/ab84-oskcon/eu/\">hemen</a>ea zein EAG duzun hurbilen", "opening_hours": "Mo-Fr 08:00-15:00", "operator": "Osakidetza", "operator:type": "public", "operator:wikidata": "Q3822645", "operator:wikipedia": "es:Osakidetza-Servicio Vasco de Salud", "phone": "+34 944911555", "ref:osakidetza": "rsmb_hd_uribe", "source": "Open Data Euskadi"}}, {"name": "Uribe-Areetako Eguneko Ospitalea", "latitude": 43.3247774, "longitude": -3.0162923, "source": "osm", "_tags": {"addr:city": "GETXO", "addr:full": "Paulino Mendibil 3", "addr:postcode": "48930", "addr:province": "BIZKAIA", "amenity": "hospital", "email": "HD.URIBE-LASARENAS@osakidetza.eus", "fax": "+34 944801324", "healthcare": "hospital", "name": "Uribe-Areetako Eguneko Ospitalea", "name:es": "Hospital de Día de Uribe-Las Arenas", "name:eu": "Uribe-Areetako Eguneko Ospitalea", "network": "Bizkaiko Osasun Mentaleko Sarea", "note": "osasun-zentroaren ordutegitik kanpo eta premiaz artatu beharreko kasu arinetarako, begiratu <a href=\"https://www.osakidetza.euskadi.eus/informazioa/etengabeko-arretako-guneak-eag/ab84-oskcon/eu/\">hemen</a>ea zein EAG duzun hurbilen", "opening_hours": "Mo-Fr 08:00-15:00", "operator": "Osakidetza", "operator:type": "public", "operator:wikidata": "Q3822645", "operator:wikipedia": "es:Osakidetza-Servicio Vasco de Salud", "phone": "+34 944315896", "ref:osakidetza": "rsmb_hd_uribe_las_arenas", "source": "Open Data Euskadi"}}, {"name": "Manueneko Eguneko Ospitalea - Adikzioak", "latitude": 43.2572342, "longitude": -2.7842521, "source": "osm", "_tags": {"addr:city": "LARRABETZU", "addr:full": "Basara auzoa 29", "addr:postcode": "48195", "addr:province": "BIZKAIA", "amenity": "hospital", "email": "HD.MANUENE@osakidetza.eus", "fax": "+34 944557002", "healthcare": "hospital", "name": "Manueneko Eguneko Ospitalea - Adikzioak", "name:es": "Hospital de Día de Adicciones de Manuene", "name:eu": "Manueneko Eguneko Ospitalea - Adikzioak", "network": "Bizkaiko Osasun Mentaleko Sarea", "note": "osasun-zentroaren ordutegitik kanpo eta premiaz artatu beharreko kasu arinetarako, begiratu <a href=\"https://www.osakidetza.euskadi.eus/informazioa/etengabeko-arretako-guneak-eag/ab84-oskcon/eu/\">hemen</a>ea zein EAG duzun hurbilen", "opening_hours:note": "astelehenetik ostiralera 09:00etatik 20:00etara", "operator": "Osakidetza", "operator:type": "public", "operator:wikidata": "Q3822645", "operator:wikipedia": "es:Osakidetza-Servicio Vasco de Salud", "phone": "+34 944558169", "ref:osakidetza": "rsmb_hd_adicciones_manuene", "source": "Open Data Euskadi"}}, {"name": "Santiagoko ospitalea/Hospital de Santiago", "latitude": 42.8465073, "longitude": -2.6667353, "source": "osm", "_tags": {"addr:city": "Vitoria-Gasteiz", "addr:housenumber": "29", "addr:postcode": "01004", "addr:province": "Araba/Álava", "addr:street": "Olagibel kalea/Calle Olaguíbel", "amenity": "hospital", "email": "sapu.hospitalsantiago@osakidetza.eus", "emergency": "yes", "fax": "+34 945007896", "healthcare": "hospital", "name": "Santiagoko ospitalea/Hospital de Santiago", "name:es": "Hospital de Santiago", "name:eu": "Santiagoko ospitalea", "network": "Araba/Álava", "note": "osasun-zentroaren ordutegitik kanpo eta premiaz artatu beharreko kasu arinetarako, begiratu <a href=\"https://www.osakidetza.euskadi.eus/informazioa/etengabeko-arretako-guneak-eag/ab84-oskcon/eu/\">hemen</a>ea zein EAG duzun hurbilen", "official_name:es": "Hospital Universitario de Araba - sede Santiago", "official_name:eu": "Arabako Unibertsitate Ospitalea - Santiago egoitza", "operator": "Osakidetza", "operator:type": "government", "operator:wikidata": "Q3822645", "operator:wikipedia": "es:Osakidetza-Servicio Vasco de Salud", "phone": "+34 945007600", "ref:osakidetza": "hospit_santiago_apostol", "source": "Open Data Euskadi", "wikidata": "Q30254290"}}, {"name": "Santa Marina Ospitalea", "latitude": 43.2623416, "longitude": -2.8823039, "source": "osm", "_tags": {"addr:city": "BILBAO", "addr:full": "Santa Marina errepidea 41", "addr:postcode": "48004", "addr:province": "BIZKAIA", "amenity": "hospital", "building": "hospital", "email": "hsmarina@hmar.osakidetza.eus", "emergency": "no", "fax": "+34 944006916", "healthcare": "hospital", "name": "Santa Marina Ospitalea", "name:es": "Hospital Santa Marina", "name:eu": "Santa Marina Ospitalea", "network": "Bilbo-Basurtuko ESI", "note": "osasun-zentroaren ordutegitik kanpo eta premiaz artatu beharreko kasu arinetarako, begiratu <a href=\"https://www.osakidetza.euskadi.eus/informazioa/etengabeko-arretako-guneak-eag/ab84-oskcon/eu/\">hemen</a>ea zein EAG duzun hurbilen", "operator": "Osakidetza", "operator:type": "public", "operator:wikidata": "Q3822645", "operator:wikipedia": "es:Osakidetza-Servicio Vasco de Salud", "phone": "+34 944006900", "ref:osakidetza": "hospit_santa_marina", "source": "Open Data Euskadi", "wikidata": "Q12267004"}}, {"name": "Clínica Virgen Blanca", "latitude": 43.2583111, "longitude": -2.9155359, "source": "osm", "_tags": {"amenity": "hospital", "building": "hospital", "healthcare": "hospital", "name": "Clínica Virgen Blanca", "name:en": "Virgen Blanca Clinic", "name:eu": "Virgen Blanca klinika", "wheelchair": "yes"}}, {"name": "Asunción klinika", "latitude": 43.1409922, "longitude": -2.0690258, "source": "osm", "_tags": {"amenity": "hospital", "building": "yes", "healthcare": "hospital", "name": "Asunción klinika", "wikidata": "Q25476848"}}, {"name": "Gorlizko Ospitalea", "latitude": 43.4173775, "longitude": -2.9431282, "source": "osm", "_tags": {"addr:city": "GORLIZ", "addr:full": "Urezarantza ibiltokia 1", "addr:postcode": "48630", "addr:province": "BIZKAIA", "amenity": "hospital", "email": "hospital.gorliz@osakidetza.eus", "fax": "+34 944006627", "healthcare": "hospital", "name": "Gorlizko Ospitalea", "name:es": "Hospital de Górliz", "name:eu": "Gorlizko Ospitalea", "network": "Hospital de Gorliz", "note": "osasun-zentroaren ordutegitik kanpo eta premiaz artatu beharreko kasu arinetarako, begiratu <a href=\"https://www.osakidetza.euskadi.eus/informazioa/etengabeko-arretako-guneak-eag/ab84-oskcon/eu/\">hemen</a>ea zein EAG duzun hurbilen", "operator": "Osakidetza", "operator:type": "public", "operator:wikidata": "Q3822645", "operator:wikipedia": "es:Osakidetza-Servicio Vasco de Salud", "phone": "+34 944006600", "ref:osakidetza": "hospit_grliz", "source": "Open Data Euskadi", "wikidata": "Q9004939", "wikipedia": "eu:Gorlizko Ospitalea"}}, {"name": "Aita Menni ospitalea", "latitude": 43.0624077, "longitude": -2.5299457, "source": "osm", "_tags": {"amenity": "hospital", "building": "hospital", "healthcare": "hospital", "healthcare:speciality": "psychiatry;geriatrics", "name": "Aita Menni ospitalea", "source": "b5m", "wikidata": "Q8200937"}}, {"name": "San Eloy Ospitalea", "latitude": 43.2966586, "longitude": -2.9935416, "source": "osm", "_tags": {"addr:city": "BARAKALDO", "addr:full": "Miranda etorbidea 5", "addr:housenumber": "5", "addr:postcode": "48902", "addr:province": "BIZKAIA", "addr:street": "Avenida Miranda", "amenity": "hospital", "building": "public", "email": "g31265-DireccionSanEloy@osakidetza.eus", "fax": "+34 944006727", "healthcare": "hospital", "name": "San Eloy Ospitalea", "name:es": "Hospital San Eloy", "name:eu": "San Eloy Ospitalea", "network": "Barakaldo-Sestaoko ESI", "note": "osasun-zentroaren ordutegitik kanpo eta premiaz artatu beharreko kasu arinetarako, begiratu <a href=\"https://www.osakidetza.euskadi.eus/informazioa/etengabeko-arretako-guneak-eag/ab84-oskcon/eu/\">hemen</a>ea zein EAG duzun hurbilen", "operator": "Osakidetza", "operator:type": "government", "operator:wikidata": "Q3822645", "operator:wikipedia": "es:Osakidetza-Servicio Vasco de Salud", "phone": "+34 944006700", "ref:osakidetza": "hospit_san_eloy", "source": "Open Data Euskadi", "start_date": "1974", "wikidata": "Q12266850"}}, {"name": "Basurtuko Unibertsitate Ospitalea", "latitude": 43.2616664, "longitude": -2.9530983, "source": "osm", "_tags": {"addr:city": "BILBAO", "addr:full": "Montevideo etorbidea 18", "addr:postcode": "48013", "addr:province": "BIZKAIA", "amenity": "hospital", "email": "sapu.basurto@osakidetza.eus", "fax": "+34 944006180", "healthcare": "hospital", "name": "Basurtuko Unibertsitate Ospitalea", "name:es": "Hospital Universitario de Basurto", "name:eu": "Basurtuko Unibertsitate Ospitalea", "network": "Bilbo-Basurtuko ESI", "note": "osasun-zentroaren ordutegitik kanpo eta premiaz artatu beharreko kasu arinetarako, begiratu <a href=\"https://www.osakidetza.euskadi.eus/informazioa/etengabeko-arretako-guneak-eag/ab84-oskcon/eu/\">hemen</a>ea zein EAG duzun hurbilen", "operator": "Osakidetza", "operator:type": "public", "operator:wikidata": "Q3822645", "operator:wikipedia": "es:Osakidetza-Servicio Vasco de Salud", "phone": "+34 944006000", "ref:osakidetza": "hospit_basurto", "source": "Open Data Euskadi", "wikidata": "Q11682611"}}, {"name": "Sanatorio Neuropsiquiátrico San Ignacio de Loyola", "latitude": 43.3352359, "longitude": -2.9859066, "source": "osm", "_tags": {"addr:city": "Leioa - Lejona", "addr:housenumber": "4", "addr:postcode": "48940", "addr:street": "Peruri", "amenity": "hospital", "healthcare": "hospital", "healthcare:speciality": "psychiatry", "name": "Sanatorio Neuropsiquiátrico San Ignacio de Loyola"}}, {"name": "Galdakao-Usansoloko Ospitalea", "latitude": 43.2235638, "longitude": -2.817914, "source": "osm", "_tags": {"addr:city": "GALDAKAO", "addr:full": "Labeaga auzoa 46A", "addr:housenumber": "46A", "addr:postcode": "48960", "addr:province": "BIZKAIA", "addr:street": "Barrio Labeaga", "alt_name": "Hospital de Galdakao-Usansolo", "amenity": "hospital", "email": "hospital.galdakao-usansolo@osakidetza.eus", "fax": "+34 944007109", "healthcare": "hospital", "name": "Galdakao-Usansoloko Ospitalea", "name:es": "Hospital Universitario de Galdakao-Usansolo", "name:eu": "Galdakao-Usansoloko Ospitalea", "network": "Barrualde-Galdakaoko ESI", "note": "osasun-zentroaren ordutegitik kanpo eta premiaz artatu beharreko kasu arinetarako, begiratu <a href=\"https://www.osakidetza.euskadi.eus/informazioa/etengabeko-arretako-guneak-eag/ab84-oskcon/eu/\">hemen</a>ea zein EAG duzun hurbilen", "operator": "Osakidetza", "operator:type": "public", "operator:wikidata": "Q3822645", "operator:wikipedia": "es:Osakidetza-Servicio Vasco de Salud", "phone": "+34 944007000", "ref:osakidetza": "hospit_galdakao", "source": "Open Data Euskadi", "website": "https://www.osakidetza.euskadi.eus/osi-barrualde-galdakao-hospital-presentacion/webosk00-bagalcon/es/", "wikidata": "Q12258116", "wikimedia_commons": "Category:Galdakao-Usansolo Ospitalea", "wikipedia": "eu:Galdakao-Usansolo Ospitalea"}}, {"name": "Hospital Quirón Bizkaia", "latitude": 43.3295974, "longitude": -2.9534667, "source": "osm", "_tags": {"amenity": "hospital", "building": "yes", "name": "Hospital Quirón Bizkaia"}}, {"name": "Gurutzetako Unibertsitate Ospitalea", "latitude": 43.2824629, "longitude": -2.9844289, "source": "osm", "_tags": {"addr:city": "BARAKALDO", "addr:full": "Gurutzetako plaza z.g.", "addr:postcode": "48903", "addr:province": "BIZKAIA", "amenity": "hospital", "email": "hospitalde.cruces@osakidetza.eus", "emergency": "yes", "fax": "+34 946006076", "healthcare": "hospital", "name": "Gurutzetako Unibertsitate Ospitalea", "name:en": "Cruces University Hospital", "name:es": "Hospital Universitario de Cruces", "name:eu": "Gurutzetako Unibertsitate Ospitalea", "network": "Ezkerralde-Enkarterri-Gurutzetako ESI", "note": "osasun-zentroaren ordutegitik kanpo eta premiaz artatu beharreko kasu arinetarako, begiratu <a href=\"https://www.osakidetza.euskadi.eus/informazioa/etengabeko-arretako-guneak-eag/ab84-oskcon/eu/\">hemen</a>ea zein EAG duzun hurbilen", "operator": "Osakidetza", "operator:type": "public", "operator:wikidata": "Q3822645", "operator:wikipedia": "es:Osakidetza-Servicio Vasco de Salud", "phone": "+34 946006000", "ref:osakidetza": "hospit_universitario_cruces", "source": "Open Data Euskadi", "start_date": "1955-07-20", "website": "https://www.hospitalcruces.com", "wheelchair": "yes", "wikidata": "Q9004937", "wikipedia": "es:Hospital de Cruces"}}, {"name": "IMQ Zorrotzaurre", "latitude": 43.2678712, "longitude": -2.9524742, "source": "osm", "_tags": {"amenity": "hospital", "building": "hospital", "emergency": "yes", "healthcare": "hospital", "name": "IMQ Zorrotzaurre", "wheelchair": "yes", "wikidata": "Q50035445", "wikimedia_commons": "Category:Clínica IMQ Zorrotzaurre"}}, {"name": "Bermeoko Ospitalea", "latitude": 43.4221853, "longitude": -2.7215605, "source": "osm", "_tags": {"addr:city": "BERMEO", "addr:full": "Tonpoi bidea 2", "addr:postcode": "48370", "addr:province": "BIZKAIA", "amenity": "hospital", "building": "hospital", "email": "admision.hbermeo@osakidetza.eus", "fax": "+34 946029020", "healthcare": "hospital", "name": "Bermeoko Ospitalea", "name:es": "Hospital de Bermeo", "name:eu": "Bermeoko Ospitalea", "network": "Bizkaiko Osasun Mentaleko Sarea", "note": "osasun-zentroaren ordutegitik kanpo eta premiaz artatu beharreko kasu arinetarako, begiratu <a href=\"https://www.osakidetza.euskadi.eus/informazioa/etengabeko-arretako-guneak-eag/ab84-oskcon/eu/\">hemen</a>ea zein EAG duzun hurbilen", "opening_hours": "Mo-Fr 08:00-15:00", "operator": "Osakidetza", "operator:type": "government", "operator:wikidata": "Q3822645", "operator:wikipedia": "es:Osakidetza-Servicio Vasco de Salud", "phone": "+34 946029000", "ref:osakidetza": "rsmb_hospital_bermeo", "source": "Open Data Euskadi"}}, {"name": "Bermeoko Ospitale Psikiatrikoa", "latitude": 43.4222228, "longitude": -2.7209551, "source": "osm", "_tags": {"amenity": "hospital", "building": "yes", "healthcare": "hospital", "name": "Bermeoko Ospitale Psikiatrikoa"}}, {"name": "Kanpañanea", "latitude": 43.1005461, "longitude": -2.0985231, "source": "osm", "_tags": {"addr:city": "Alegia", "addr:country": "ES", "addr:housenumber": "50", "addr:postcode": "20260", "addr:street": "San Juan Kalea", "b5m:id": "D_542", "b5m:url": "http://b5m.gipuzkoa.net/b5map/r1/eu/mapa/lekutu/D_542", "b5m:urlOrto": "http://b5m.gipuzkoa.net/url5000/index.php?id=D_542&lengua=1&actu=0&categoria=VITO_FOTO", "building": "house", "healthcare": "hospital", "name": "Kanpañanea", "source": "b5m"}}, {"name": "Debagoieneko Ospitalea", "latitude": 43.0632532, "longitude": -2.4828108, "source": "osm", "_tags": {"addr:city": "Arrasate", "addr:full": "Nafarroa etorbidea 16", "addr:postcode": "20500", "addr:province": "Gipuzkoa", "amenity": "hospital", "email": "sac.haltodeba@osakidetza.net", "fax": "+34 943035314", "healthcare": "hospital", "name": "Debagoieneko Ospitalea", "name:eu": "Debagoieneko Ospitalea", "network": "OSI Alto Deba", "note": "osasun-zentroaren ordutegitik kanpo eta premiaz artatu beharreko kasu arinetarako, begiratu <a href=\"https://www.osakidetza.euskadi.eus/informazioa/etengabeko-arretako-guneak-eag/ab84-oskcon/eu/\">hemen</a>ea zein EAG duzun hurbilen", "operator": "Osakidetza", "operator:type": "public", "operator:wikidata": "Q3822645", "operator:wikipedia": "es:Osakidetza-Servicio Vasco de Salud", "phone": "+34 943035300", "ref:osakidetza": "hospit_alto_deba", "source": "Open Data Euskadi", "wikidata": "Q12256112", "wikipedia": "eu:Debagoieneko Ospitalea"}}, {"name": "Hospital Viamed los Manzanos", "latitude": 42.4375999, "longitude": -2.4481839, "source": "osm", "_tags": {"amenity": "hospital", "healthcare": "hospital", "name": "Hospital Viamed los Manzanos", "old_name": "Clínica Los Manzanos", "phone": "+34941499490", "website": "https://www.viamedlosmanzanos.com/visita", "wikidata": "Q87761989"}}, {"name": "Consultorio Médico", "latitude": 42.4293902, "longitude": -2.4593228, "source": "osm", "_tags": {"addr:city": "Lardero", "addr:housenumber": "3", "addr:postcode": "26140", "addr:street": "Calle de los Donantes de Sangre", "amenity": "hospital", "emergency": "yes", "name": "Consultorio Médico"}}, {"name": "Gernika-Lumoko Ospitalea", "latitude": 43.3187027, "longitude": -2.671512, "source": "osm", "_tags": {"addr:city": "GERNIKA-LUMO", "addr:full": "Aita Luis Villasante 8-10", "addr:postcode": "48300", "addr:province": "BIZKAIA", "amenity": "hospital", "building": "hospital", "email": "SAPU.HOSPITALGERNIKA-LUMO@osakidetza.eus", "emergency": "yes", "fax": "+34 946277404", "healthcare": "hospital", "name": "Gernika-Lumoko Ospitalea", "name:es": "Hospital de Gernika-Lumo", "name:eu": "Gernika-Lumoko Ospitalea", "network": "OSI Barrualde-Galdakao", "note": "osasun-zentroaren ordutegitik kanpo eta premiaz artatu beharreko kasu arinetarako, begiratu <a href=\"https://www.osakidetza.euskadi.eus/informazioa/etengabeko-arretako-guneak-eag/ab84-oskcon/eu/\">hemen</a>ea zein EAG duzun hurbilen", "opening_hours": "Mo-Fr 08:00-15:00", "operator": "Osakidetza", "operator:type": "public", "operator:wikidata": "Q3822645", "operator:wikipedia": "es:Osakidetza-Servicio Vasco de Salud", "phone": "+34 946274000", "ref:osakidetza": "hosp_gernika_lumo", "source": "Open Data Euskadi"}}, {"name": "Complejo Hospitalario Quirón Bizkaia", "latitude": 43.3292864, "longitude": -2.9524811, "source": "osm", "_tags": {"amenity": "hospital", "name": "Complejo Hospitalario Quirón Bizkaia"}}, {"name": "Centro Psiquiatrico Zamudio", "latitude": 43.2890155, "longitude": -2.8568282, "source": "osm", "_tags": {"amenity": "hospital", "healthcare": "hospital", "healthcare:speciality": "psychiatry", "name": "Centro Psiquiatrico Zamudio"}}, {"name": "Mentalia Usurbil Osasun Mentaleko Ospitalea", "latitude": 43.2726376, "longitude": -2.0611436, "source": "osm", "_tags": {"addr:city": "Usurbil", "addr:country": "ES", "addr:housenumber": "48", "addr:postcode": "20170", "addr:street": "Urdaiaga", "amenity": "hospital", "b5m:id": "D_48004", "b5m:url": "http://b5m.gipuzkoa.net/b5map/r1/eu/mapa/lekutu/D_48004", "b5m:urlOrto": "http://b5m.gipuzkoa.net/url5000/index.php?id=D_48004&lengua=1&actu=0&categoria=VITO_FOTO", "healthcare": "hospital", "healthcare:speciality": "psychiatry", "name": "Mentalia Usurbil Osasun Mentaleko Ospitalea", "name:es": "Hospital de Salud Mental Mentalia Usurbil", "name:eu": "Mentalia Usurbil Osasun Mentaleko Ospitalea", "source": "b5m", "wikidata": "Q87761876"}}, {"name": "Centro de Salud de Ortuella", "latitude": 43.3093525, "longitude": -3.0519564, "source": "osm", "_tags": {"amenity": "clinic", "healthcare": "hospital", "healthcare:speciality": "general;emergency;paediatrics;gynaecology;dermatology;cardiology", "name": "Centro de Salud de Ortuella", "operator": "Osakidetza", "operator:type": "public", "operator:wikidata": "Q3822645", "operator:wikipedia": "es:Osakidetza-Servicio Vasco de Salud"}}, {"name": "Hospital Urduliz-Alfredo Espinosa", "latitude": 43.3752133, "longitude": -2.9599928, "source": "osm", "_tags": {"amenity": "hospital", "healthcare": "hospital", "name": "Hospital Urduliz-Alfredo Espinosa", "name:es": "Urduliz-Alfredo Espinosa Ospitalea", "operator": "Osakidetza", "operator:wikidata": "Q3822645", "wikidata": "Q12253177"}}, {"name": "Arabako Ospitale Psikiatrikoa/Hospital Psiquiátrico de Álava", "latitude": 42.8356117, "longitude": -2.6785475, "source": "osm", "_tags": {"addr:city": "Vitoria-Gasteiz", "addr:country": "ES", "addr:housenumber": "43", "addr:postcode": "01006", "addr:province": "Araba/Álava", "addr:street": "Araba kalea/Calle Álava", "amenity": "hospital", "email": "SECRETARIAGERENCIA.SMA@OSAKIDETZA.EUS", "fax": "+34 945006587", "healthcare": "hospital", "name": "Arabako Ospitale Psikiatrikoa/Hospital Psiquiátrico de Álava", "name:es": "Hospital Psiquiátrico de Álava", "name:eu": "Arabako Ospitale Psikiatrikoa", "network": "Araba/Álava", "note": "osasun-zentroaren ordutegitik kanpo eta premiaz artatu beharreko kasu arinetarako, begiratu <a href=\"https://www.osakidetza.euskadi.eus/informazioa/etengabeko-arretako-guneak-eag/ab84-oskcon/eu/\">hemen</a>ea zein EAG duzun hurbilen", "opening_hours:note": "24 ordu", "operator": "Osakidetza", "operator:type": "government", "operator:wikidata": "Q3822645", "operator:wikipedia": "es:Osakidetza-Servicio Vasco de Salud", "phone": "+34 945006555", "ref:osakidetza": "hospital_psiq_araba", "source": "Open Data Euskadi", "wikidata": "Q12253770", "wikipedia": "eu:Arabako Ospitale Psikiatrikoa"}}, {"name": "Mutualia", "latitude": 42.8497325, "longitude": -2.677059, "source": "osm", "_tags": {"amenity": "hospital", "building": "yes", "healthcare": "hospital", "name": "Mutualia", "operator": "Mutualia"}}, {"name": "San Juan de Dios ospitalea", "latitude": 43.3250945, "longitude": -3.0255235, "source": "osm", "_tags": {"amenity": "hospital", "healthcare": "hospital", "name": "San Juan de Dios ospitalea", "name:eu": "San Juan de Dios ospitalea", "wikidata": "Q24199484"}}, {"name": "Lezako Ospitalea", "latitude": 42.5757264, "longitude": -2.6384662, "source": "osm", "_tags": {"addr:city": "Biasteri", "addr:full": "Logroño-Gazteiz errepidea 59. km", "addr:postcode": "01309", "addr:province": "Araba", "amenity": "hospital", "email": "Hospital@hlez.osakidetza.eus", "fax": "+34 945006901", "healthcare": "hospital", "name": "Lezako Ospitalea", "name:es": "Hospital de Leza", "name:eu": "Lezako Ospitalea", "network": "Araba/Álava", "note": "osasun-zentroaren ordutegitik kanpo eta premiaz artatu beharreko kasu arinetarako, begiratu <a href=\"https://www.osakidetza.euskadi.eus/informazioa/etengabeko-arretako-guneak-eag/ab84-oskcon/eu/\">hemen</a>ea zein EAG duzun hurbilen", "opening_hours": "Mo-Fr 08:00-15:00", "operator": "Osakidetza", "operator:type": "government", "operator:wikidata": "Q3822645", "operator:wikipedia": "es:Osakidetza-Servicio Vasco de Salud", "phone": "+34 945006900", "ref:osakidetza": "hospit_leza", "source": "Open Data Euskadi", "wikidata": "Q28479662"}}, {"name": "Hospital Comarcal Santiago Apóstol", "latitude": 42.669655, "longitude": -2.9892368, "source": "osm", "_tags": {"addr:postcode": "09200", "addr:street": "Carretera Orón-Hospital", "amenity": "hospital", "emergency": "yes", "healthcare": "hospital", "image": "https://commons.wikimedia.org/wiki/File:Orón_(Miranda_de_Ebro)_-_Hospital_de_Santiago_Apóstol_1.jpg", "name": "Hospital Comarcal Santiago Apóstol", "nohousenumber": "yes", "opening_hours": "24/7", "operator": "SACYL", "operator:type": "public", "operator:wikidata": "Q6116740", "operator:wikipedia": "es:Sacyl", "phone": "+34 947 34 90 14", "website": "https://www.saludcastillayleon.es/ciudadanos/es/mapa-centros-salud-castilla-leon/141800", "wikimedia_commons": "File:Orón_(Miranda_de_Ebro)_-_Hospital_de_Santiago_Apóstol_1.jpg"}}, {"name": "Hospital San Juan Bautista", "latitude": 43.3220651, "longitude": -3.0253043, "source": "osm", "_tags": {"amenity": "hospital", "barrier": "wall", "healthcare": "hospital", "name": "Hospital San Juan Bautista"}}, {"name": "San Juan de Dios ospitalea", "latitude": 43.0651926, "longitude": -2.5300348, "source": "osm", "_tags": {"addr:city": "Arrasate / Mondragon", "addr:housenumber": "14", "addr:postcode": "20509", "addr:street": "Gesalibar auzoa", "amenity": "hospital", "emergency": "no", "healthcare": "hospital", "healthcare:speciality": "psychiatry", "name": "San Juan de Dios ospitalea", "wikidata": "Q87761873", "wikipedia": "eu:San Joan Jainkoarena Ospitalea (Arrasate)"}}, {"name": "Hospital General de La Rioja", "latitude": 42.4686157, "longitude": -2.442077, "source": "osm", "_tags": {"amenity": "hospital", "healthcare": "hospital", "name": "Hospital General de La Rioja", "wikidata": "Q30280076", "wikipedia": "es:Hospital General de La Rioja"}}, {"name": "Hospital San Pedro", "latitude": 42.4509505, "longitude": -2.4270369, "source": "osm", "_tags": {"amenity": "hospital", "healthcare": "hospital", "name": "Hospital San Pedro"}}, {"name": "Eibarko Ospitalea", "latitude": 43.1823513, "longitude": -2.4827229, "source": "osm", "_tags": {"addr:city": "Eibar", "addr:housenumber": "6-8", "addr:postcode": "20600", "addr:province": "Gipuzkoa", "addr:street": "Otaola hiribidea", "amenity": "hospital", "check_date": "2024-11-07", "healthcare": "hospital", "name": "Eibarko Ospitalea", "name:es": "Hospital de Eibar", "name:eu": "Eibarko Ospitalea", "network": "Debabarreneko ESI", "note": "osasun-zentroaren ordutegitik kanpo eta premiaz artatu beharreko kasu arinetarako, begiratu <a href=\"https://www.osakidetza.euskadi.eus/informazioa/etengabeko-arretako-guneak-eag/ab84-oskcon/eu/\">hemen</a>ea zein EAG duzun hurbilen", "operator": "Osakidetza", "operator:type": "public", "operator:wikidata": "Q3822645", "operator:wikipedia": "es:Osakidetza-Servicio Vasco de Salud", "phone": "+34 943449000", "ref:osakidetza": "hospit_eibar", "source": "Open Data Euskadi", "wikidata": "Q95127741"}}, {"name": "Area Hospitalaria de la Duquesa de La Victoria", "latitude": 42.46207, "longitude": -2.4312081, "source": "osm", "_tags": {"amenity": "hospital", "healthcare": "hospital", "name": "Area Hospitalaria de la Duquesa de La Victoria"}}, {"name": "Mendaroko Ospitalea", "latitude": 43.2503219, "longitude": -2.3852461, "source": "osm", "_tags": {"addr:city": "Mendaro", "addr:full": "Mendarozabal auzoa z.g.", "addr:housenumber": "1", "addr:postcode": "20850", "addr:province": "Gipuzkoa", "addr:street": "Mendarozabal-idiazabaltxo", "amenity": "hospital", "b5m:id": "D_54867", "b5m:url": "http://b5m.gipuzkoa.net/b5map/r1/eu/mapa/lekutu/D_54867", "b5m:urlOrto": "http://b5m.gipuzkoa.net/url5000/index.php?id=D_54867&lengua=1&actu=0&categoria=VITO_FOTO", "building": "yes", "building:levels": "3", "check_date": "2024-07-17", "emergency": "yes", "fax": "+34 943032888", "healthcare": "hospital", "name": "Mendaroko Ospitalea", "name:eu": "Mendaroko Ospitalea", "note": "osasun-zentroaren ordutegitik kanpo eta premiaz artatu beharreko kasu arinetarako, begiratu <a href=\"https://www.osakidetza.euskadi.eus/informazioa/etengabeko-arretako-guneak-eag/ab84-oskcon/eu/\">hemen</a>ea zein EAG duzun hurbilen", "operator": "Osakidetza", "operator:type": "public", "operator:wikidata": "Q3822645", "operator:wikipedia": "es:Osakidetza-Servicio Vasco de Salud", "phone": "+34 943032800", "ref:osakidetza": "hospital_mendaro", "roof:levels": "0", "roof:shape": "flat", "source": "Open Data Euskadi", "type": "multipolygon", "wikidata": "Q12263371"}}, {"name": "Txagorritxuko ospitalea/Hospital de Txagorritxu", "latitude": 42.8548517, "longitude": -2.6905762, "source": "osm", "_tags": {"addr:city": "Vitoria-Gasteiz", "addr:country": "ES", "addr:postcode": "01009", "addr:province": "Araba/Álava", "addr:street": "Jose Atxotegi kalea/Calle José Achótegui", "amenity": "hospital", "email": "sapu.txagorritxu@osakidetza.eus", "emergency": "yes", "fax": "+34 945007359", "healthcare": "hospital", "name": "Txagorritxuko ospitalea/Hospital de Txagorritxu", "name:es": "Hospital de Txagorritxu", "name:eu": "Txagorritxuko ospitalea", "network": "Araba/Álava", "nohousenumber": "yes", "note": "osasun-zentroaren ordutegitik kanpo eta premiaz artatu beharreko kasu arinetarako, begiratu <a href=\"https://www.osakidetza.euskadi.eus/informazioa/etengabeko-arretako-guneak-eag/ab84-oskcon/eu/\">hemen</a>ea zein EAG duzun hurbilen", "official_name:es": "Hospital Universitario de Araba - sede Txagorritxu", "official_name:eu": "Arabako Unibertsitate Ospitalea - Txagorritxuko egoitza", "operator": "Osakidetza", "operator:type": "government", "operator:wikidata": "Q3822645", "operator:wikipedia": "es:Osakidetza-Servicio Vasco de Salud", "phone": "+34 945007000", "ref:osakidetza": "hospit_txagorritxu", "source": "Open Data Euskadi", "type": "multipolygon", "wikidata": "Q12268313"}}]