[{"name": "Hospital de Sierrallana", "latitude": 43.3623063, "longitude": -4.0757629, "source": "osm", "_tags": {"addr:city": "Ganzo", "addr:postcode": "39300", "addr:street": "Calle de Manuel Teira Fernández", "amenity": "hospital", "check_date": "2024-07-18", "emergency": "yes", "name": "Hospital de Sierrallana", "network": "Servicio Cántabro de Salud", "network:short": "SCS", "operator:type": "public", "wheelchair": "yes", "wikidata": "Q5495845", "wikipedia": "es:Hospital Sierrallana"}}, {"name": "Hospital Campoo Los Valles", "latitude": 43.0065507, "longitude": -4.1321451, "source": "osm", "_tags": {"amenity": "hospital", "building": "yes", "healthcare": "hospital", "name": "Hospital Campoo Los Valles", "wikidata": "Q5902930", "wikipedia": "es:Hospital Tres Mares"}}, {"name": "Consultorio de Panes", "latitude": 43.3224502, "longitude": -4.58415, "source": "osm", "_tags": {"addr:city": "Panes", "addr:postcode": "33570", "addr:street": "La Plaza", "amenity": "hospital", "building": "yes", "emergency": "yes", "name": "Consultorio de Panes", "nohousenumber": "yes", "phone": "+34 985 414 043"}}]