[{"name": "Общинска болница Др. Стамен Григоров", "latitude": 42.8347151, "longitude": 22.6548696, "source": "osm", "_tags": {"amenity": "hospital", "healthcare": "hospital", "name": "Общинска болница Др. Стамен Григоров"}}, {"name": "Дом здравља", "latitude": 42.8911772, "longitude": 22.0756152, "source": "osm", "_tags": {"amenity": "hospital", "healthcare": "hospital", "int_name": "Dom zdravlja", "name": "Дом здравља", "name:sr": "Дом здравља", "name:sr-Latn": "Dom zdravlja"}}, {"name": "Специјална болница за плућне болести", "latitude": 42.679994, "longitude": 22.1673817, "source": "osm", "_tags": {"addr:city": "Сурдулица", "addr:country": "RS", "addr:housenumber": "бб", "addr:postcode": "17530", "addr:street": "Српских Владара", "amenity": "hospital", "email": "sanatsurd@gmail.com", "healthcare": "hospital", "int_name": "Specijalna bolnica za plucne bolesti", "name": "Специјална болница за плућне болести", "name:sr": "Специјална болница за плућне болести", "name:sr-Latn": "Specijalna bolnica za plućne bolesti", "operator:type": "government", "phone": "+38117815202", "website": "https://www.sbpsurdulica.rs/"}}, {"name": "Болница", "latitude": 43.3849909, "longitude": 22.8746081, "source": "osm", "_tags": {"amenity": "hospital", "check_date": "2023-09-17", "healthcare": "hospital", "name": "Болница", "wheelchair": "yes"}}, {"name": "", "latitude": 42.960402, "longitude": 22.1269938, "source": "osm", "_tags": {"amenity": "hospital", "healthcare": "hospital"}}, {"name": "Општа болница Лесковац", "latitude": 42.9953163, "longitude": 21.9382879, "source": "osm", "_tags": {"addr:city": "Лесковац", "addr:country": "RS", "addr:housenumber": "110", "addr:postcode": "16000", "addr:street": "Светозара Марковића", "amenity": "hospital", "email": "uprava.bolnice@bolnicaleskovac.org", "fax": "+381163444501", "healthcare": "hospital", "int_name": "Opsta bolnica Leskovac", "name": "Општа болница Лесковац", "name:sr": "Општа болница Лесковац", "name:sr-Latn": "Opšta bolnica Leskovac", "operator:type": "government", "phone": "+38116252500", "ref:RS:kucni_broj": "6003431", "website": "https://www.bolnicaleskovac.org/"}}, {"name": "Медицински център", "latitude": 42.9179386, "longitude": 22.9280355, "source": "osm", "_tags": {"addr:housenumber": "19", "addr:street": "Христо Ботев", "amenity": "hospital", "healthcare": "hospital", "name": "Медицински център"}}, {"name": "", "latitude": 43.3685792, "longitude": 21.9909792, "source": "osm", "_tags": {"amenity": "hospital", "healthcare": "hospital", "operator": "Klinički centar Niš"}}, {"name": "Општа болница Пирот", "latitude": 43.1595406, "longitude": 22.5649819, "source": "osm", "_tags": {"amenity": "hospital", "healthcare": "hospital", "int_name": "Opsta bolnica Pirot", "name": "Општа болница Пирот", "name:sr": "Општа болница Пирот", "name:sr-Latn": "Opšta bolnica Pirot", "operator:type": "government", "phone": "+38110312822", "website": "www.pibolnica.rs"}}, {"name": "Завод за јавно здравље Пирот", "latitude": 43.1579536, "longitude": 22.589456, "source": "osm", "_tags": {"amenity": "hospital", "healthcare": "hospital", "int_name": "Zavod za javno zdravlje Pirot", "name": "Завод за јавно здравље Пирот", "name:sr": "Завод за јавно здравље Пирот", "name:sr-Latn": "Zavod za javno zdravlje Pirot", "operator:type": "government", "phone": "+38110343994", "website": "www.zzjzpirot.org.rs"}}, {"name": "Болница Власотинце", "latitude": 42.9601677, "longitude": 22.1277173, "source": "osm", "_tags": {"addr:housenumber": "4", "addr:street": "Моше Пијаде", "amenity": "hospital", "building": "hospital", "healthcare": "hospital", "int_name": "Bolnica Vlasotince", "name": "Болница Власотинце", "ref:RS:kucni_broj": "5911439"}}, {"name": "Дом здравља Власотинце", "latitude": 42.9605332, "longitude": 22.1276285, "source": "osm", "_tags": {"addr:city": "Власотинце", "addr:country": "RS", "addr:housenumber": "2", "addr:postcode": "16210", "addr:street": "Моше Пијаде", "amenity": "hospital", "building": "public", "email": "office@dzvlasotince.rs", "emergency": "yes", "fax": "+38116875270", "healthcare": "hospital", "int_name": "Dom zdravlja Vlasotince", "name": "Дом здравља Власотинце", "name:sr": "Дом здравља Власотинце", "name:sr-Latn": "Dom zdravlja Vlasotince", "operator:type": "government", "phone": "+38116875270", "ref:RS:kucni_broj": "5911437", "website": "https://www.dzvlasotince.rs/", "wheelchair": "yes"}}, {"name": "Дом здравља Лесковац", "latitude": 42.9936592, "longitude": 21.938702, "source": "osm", "_tags": {"addr:city": "Лесковац", "addr:country": "RS", "addr:housenumber": "116", "addr:postcode": "16000", "addr:street": "Светозара Марковића", "amenity": "clinic", "email": "uprava@dzleskovac.com", "emergency": "yes", "fax": "+38116233701", "healthcare": "hospital", "int_name": "Dom zdravlja Leskovac", "name": "Дом здравља Лесковац", "name:sr": "Дом здравља Лесковац", "name:sr-Latn": "Dom zdravlja", "operator:type": "government", "phone": "+38116251244;+38116252383;+38116250508", "website": "https://www.dzleskovac.com/", "wheelchair": "yes"}}, {"name": "Дом здравља Владичин Хан", "latitude": 42.7056479, "longitude": 22.0647485, "source": "osm", "_tags": {"addr:city": "Владичин Хан", "addr:country": "RS", "addr:postcode": "17510", "amenity": "hospital", "email": "dzvladhan@gmail.com", "emergency": "yes", "fax": "+38117473054", "healthcare": "hospital", "int_name": "Dom zdravlja Vladicin Han", "name": "Дом здравља Владичин Хан", "name:sr": "Дом здравља Владичин Хан", "name:sr-Latn": "Dom zdravlja Vladičin Han", "operator:type": "government", "phone": "+38117472678", "website": "https://www.dzvladicinhan.rs/"}}, {"name": "Дом здравља „Др Јован Ристић” Бабушница", "latitude": 43.0619286, "longitude": 22.4055835, "source": "osm", "_tags": {"alt_name": "Дом здравља „Др Јован Ристић” са стационаром", "alt_name:sr": "Дом здравља „Др Јован Ристић” са стационаром", "alt_name:sr-Latn": "Dom zdravlja \"Dr Jovan Ristić\" sa stacionarom", "amenity": "hospital", "healthcare": "hospital", "int_name": "Dom zdravlja „Dr Jovan Ristic” Babusnica", "name": "Дом здравља „Др Јован Ристић” Бабушница", "name:sr": "Дом здравља „Др Јован Ристић” Бабушница", "name:sr-Latn": "Dom zdravlja „Dr Jovan Ristić” Babušnica", "operator:type": "government", "phone": "+38110385013"}}, {"name": "Дом здравља Сурдулица", "latitude": 42.6841697, "longitude": 22.1686672, "source": "osm", "_tags": {"amenity": "hospital", "beds": "145", "email": "zc.surdulica@mts.rs", "healthcare": "hospital", "int_name": "Dom zdravlja Surdulica", "name": "Дом здравља Сурдулица", "name:sr": "Дом здравља Сурдулица", "name:sr-Latn": "Dom zdravlja Surdulica", "operator:type": "government", "phone": "+38117825182", "website": "https://zcsurdulica.rs/", "wheelchair": "yes"}}, {"name": "", "latitude": 42.9924452, "longitude": 21.9458293, "source": "osm", "_tags": {"amenity": "hospital", "healthcare": "hospital"}}, {"name": "", "latitude": 42.9917666, "longitude": 21.9467526, "source": "osm", "_tags": {"amenity": "hospital", "healthcare": "hospital"}}, {"name": "Бивша болница", "latitude": 42.6654054, "longitude": 22.5820052, "source": "osm", "_tags": {"amenity": "hospital", "healthcare": "hospital", "name": "Бивша болница"}}]