[{"name": "Ambulatorio de Sariego", "latitude": 43.4105081, "longitude": -5.5579701, "source": "osm", "_tags": {"addr:city": "Vega de Sariego", "amenity": "hospital", "healthcare": "hospital", "name": "Ambulatorio de Sariego"}}, {"name": "Cruz Roja", "latitude": 43.365424, "longitude": -5.8403971, "source": "osm", "_tags": {"addr:city": "Oviedo", "amenity": "hospital", "brand": "Cruz Roja", "emergency": "no", "healthcare": "hospital", "name": "Cruz Roja", "operator": "Cruz Roja", "operator:wikidata": "Q7178"}}, {"name": "Entrada Oncología Radioterápica", "latitude": 43.3763235, "longitude": -5.8300616, "source": "osm", "_tags": {"amenity": "hospital", "healthcare": "hospital", "healthcare:speciality": "radiotherapy", "name": "Entrada Oncología Radioterápica", "operator": "Hospital Universitario Central de Asturias"}}, {"name": "Hospital HM Regla", "latitude": 42.6005795, "longitude": -5.5670738, "source": "osm", "_tags": {"addr:city": "León", "addr:housenumber": "2", "addr:postcode": "24003", "addr:street": "Calle Cardenal Landázuri", "amenity": "hospital", "building": "hospital", "building:levels": "3", "check_date": "2025-08-18", "emergency": "yes", "fax": "+34 987 22 00 02", "healthcare": "hospital", "name": "Hospital HM Regla", "operator": "HM Hospitales", "phone": "+34 987 83 00 83", "source": "ITACyL", "website": "https://www.hmregla.com/", "wikidata": "Q64443045"}}, {"name": "Hospital del Oriente - Francisco Grande Covián", "latitude": 43.3817545, "longitude": -5.1847754, "source": "osm", "_tags": {"addr:city": "Arriondas / Les Arriondes", "amenity": "hospital", "building": "hospital", "emergency": "yes", "healthcare": "hospital", "name": "Hospital del Oriente - Francisco Grande Covián", "network": "Servicio de Salud del Principado de  Asturias", "network:short": "SESPA", "operator:type": "publico", "wikidata": "Q87762318"}}, {"name": "Hospital del Oriente - Salud Mental", "latitude": 43.382724, "longitude": -5.1853942, "source": "osm", "_tags": {"addr:city": "Arriondas / Les Arriondes", "amenity": "hospital", "building": "yes", "name": "Hospital del Oriente - Salud Mental"}}, {"name": "San Juan de Dios", "latitude": 42.6074987, "longitude": -5.59498, "source": "osm", "_tags": {"addr:city": "San Andrés del Rabanedo", "addr:country": "ES", "addr:housenumber": "73", "addr:postcode": "24010", "addr:street": "Avenida San Ignacio de Loyola", "amenity": "hospital", "emergency": "yes", "healthcare": "hospital", "name": "San Juan de Dios", "opening_hours": "24/7", "phone": "+34 987 232 500", "website": "https://www.hospitalsanjuandedios.es/"}}, {"name": "HM San Francisco", "latitude": 42.5900154, "longitude": -5.5723352, "source": "osm", "_tags": {"amenity": "hospital", "building": "hospital", "healthcare": "hospital", "name": "HM San Francisco", "operator": "HM Hospitales", "phone": "+34 987 251012", "website": "http://www.clinicasanfrancisco.es/", "wikidata": "Q87761923"}}, {"name": "Hospital Valle del Nalón", "latitude": 43.32811, "longitude": -5.7217846, "source": "osm", "_tags": {"amenity": "hospital", "building": "yes", "check_date": "2025-01-09", "emergency": "yes", "healthcare": "hospital", "healthcare:speciality": "general", "name": "Hospital Valle del Nalón", "network": "Servicio de Salud del Principado de Asturias", "network:short": "SESPA", "operator": "Sespa", "operator:type": "public", "source": "PNOA", "wheelchair": "yes", "wikidata": "Q16576165"}}, {"name": "Ambulatorio Vallobín", "latitude": 43.3688403, "longitude": -5.8655738, "source": "osm", "_tags": {"addr:city": "Uviéu/Oviedo", "amenity": "doctors", "building": "apartments", "emergency": "yes", "healthcare": "hospital", "name": "Ambulatorio Vallobín"}}, {"name": "Hospital Santa Isabel", "latitude": 42.5750465, "longitude": -5.5454991, "source": "osm", "_tags": {"addr:housenumber": "118", "addr:postcode": "24005", "addr:street": "Carretera Madrid", "amenity": "hospital", "emergency": "no", "healthcare": "hospital", "name": "Hospital Santa Isabel", "phone": "+34 987 203 760", "source": "Survey", "website": "https://www.saludcastillayleon.es/CHLeon/es/hospital-santa-isabel", "wikidata": "Q87761925"}}, {"name": "Hospital Álvarez Buylla", "latitude": 43.226462, "longitude": -5.781451, "source": "osm", "_tags": {"amenity": "hospital", "building": "yes", "emergency": "yes", "healthcare": "hospital", "healthcare:speciality": "general;psychiatry;paediatrics;ophthalmology;gynaecology", "name": "Hospital Álvarez Buylla", "network": "Servicio de Salud del Principado de Asturias", "network:short": "SESPA", "operator": "SESPA", "operator:type": "government", "wikidata": "Q5903199", "wikipedia": "es:Hospital Vital Álvarez-Buylla"}}, {"name": "Instituto Nacional de Silicosis", "latitude": 43.3740598, "longitude": -5.8275602, "source": "osm", "_tags": {"addr:city": "Oviedo / Uviéu", "amenity": "hospital", "building": "yes", "healthcare": "hospital", "name": "Instituto Nacional de Silicosis", "wikidata": "Q50040253"}}, {"name": "Ambulatorio de La Lila", "latitude": 43.3650212, "longitude": -5.8479084, "source": "osm", "_tags": {"addr:city": "Oviedo / Uviéu", "addr:housenumber": "2", "addr:postcode": "33002", "addr:street": "Calle la Lila", "amenity": "doctors", "building": "hospital", "check_date": "2023-05-26", "healthcare": "hospital", "name": "Ambulatorio de La Lila", "phone": "+34 985 10 89 00", "toilets:wheelchair": "yes", "wheelchair": "yes"}}, {"name": "Clínica Asturias", "latitude": 43.3678508, "longitude": -5.8561791, "source": "osm", "_tags": {"addr:city": "Oviedo / Uviéu", "addr:housenumber": "4", "addr:postcode": "33012", "addr:street": "Calle Naranjo de Bulnes", "amenity": "hospital", "building": "hospital", "healthcare": "hospital", "name": "Clínica Asturias", "phone": "+34 985 28 60 00", "wikidata": "Q87762270"}}, {"name": "Hospital Monte Naranco", "latitude": 43.3701552, "longitude": -5.8728157, "source": "osm", "_tags": {"amenity": "hospital", "healthcare": "hospital", "name": "Hospital Monte Naranco", "wikidata": "Q30280213"}}, {"name": "Complejo Asistencial Universitario de León", "latitude": 42.6187338, "longitude": -5.5727012, "source": "osm", "_tags": {"addr:place": "Altos de Nava", "addr:postcode": "24071", "amenity": "hospital", "emergency": "yes", "fax": "+34 987 233 322", "healthcare": "hospital", "name": "Complejo Asistencial Universitario de León", "network": "Sanidad de Castilla y León", "network:short": "SACYL", "nohousenumber": "yes", "opening_hours": "24/7", "operator": "SACYL", "operator:type": "public", "operator:wikidata": "Q6116740", "phone": "+34 987 237 400", "wikidata": "Q5903037", "wikipedia": "es:Hospital de León"}}, {"name": "Hospital Monte San Isidro", "latitude": 42.6393915, "longitude": -5.5938726, "source": "osm", "_tags": {"amenity": "hospital", "healthcare": "hospital", "name": "Hospital Monte San Isidro", "operator": "SACYL", "operator:type": "public", "operator:wikidata": "Q6116740", "phone": "+34 987 227 850", "wikidata": "Q87761921"}}, {"name": "Hospital Universitario Central de Asturias", "latitude": 43.3759903, "longitude": -5.8277423, "source": "osm", "_tags": {"addr:city": "Oviedo / Uviéu", "amenity": "hospital", "building": "hospital", "emergency": "yes", "healthcare": "hospital", "height": "35", "multipolygon": "yes", "name": "Hospital Universitario Central de Asturias", "name:en": "Asturias Central University Hospital", "network": "Servicio de Salud del Principado de Asturias", "network:short": "SESPA", "operator:type": "publico", "short_name": "HUCA", "type": "multipolygon", "website": "http://www.hca.es", "wikidata": "Q7724411"}}, {"name": "Centro Médico de Asturias", "latitude": 43.3419043, "longitude": -5.874219, "source": "osm", "_tags": {"addr:street": "Calle Richard Grandío", "amenity": "hospital", "building": "hospital", "building:levels": "4", "healthcare": "hospital", "name": "Centro Médico de Asturias", "nohousenumber": "yes", "phone": "+34 985 23 03 00", "type": "multipolygon", "website": "https://www.centromedicodeasturias.com/", "wikidata": "Q87762268"}}, {"name": "Fundación Sanatorio Adaro", "latitude": 43.2922635, "longitude": -5.675175, "source": "osm", "_tags": {"amenity": "hospital", "building": "yes", "name": "Fundación Sanatorio Adaro", "phone": "+34 985 69 21 11", "type": "multipolygon", "website": "https://www.sanatorioadaro.com/", "wikidata": "Q21003611"}}]