[{"name": "Hôpital de jour Elise Saunier", "latitude": 43.1797455, "longitude": 2.9980257, "source": "osm", "_tags": {"amenity": "hospital", "check_date": "2024-06-15", "healthcare": "hospital", "name": "Hôpital de jour Elise Saunier", "ref:FR:FINESS": "110787256", "ref:FR:SIRET": "26110010100102", "source": "Le ministère des solidarités et de la santé - 03/2019"}}, {"name": "Hôpital de jour pour Patients Alcooliques", "latitude": 43.185976, "longitude": 2.9967775, "source": "osm", "_tags": {"amenity": "hospital", "healthcare": "hospital", "name": "Hôpital de jour pour Patients Alcooliques", "ref:FR:FINESS": "110006996", "source": "Le ministère des solidarités et de la santé - 03/2019"}}, {"name": "Hôpital de jour pour Adultes Psychotique", "latitude": 43.1860174, "longitude": 2.9967262, "source": "osm", "_tags": {"amenity": "hospital", "healthcare": "hospital", "name": "Hôpital de jour pour Adultes Psychotique", "ref:FR:FINESS": "110002953", "source": "Le ministère des solidarités et de la santé - 03/2019"}}, {"name": "Hôpital de jour Brossolette", "latitude": 43.1821875, "longitude": 2.9893676, "source": "osm", "_tags": {"amenity": "hospital", "healthcare": "hospital", "name": "Hôpital de jour Brossolette", "ref:FR:FINESS": "110788114", "source": "Le ministère des solidarités et de la santé - 03/2019"}}, {"name": "Clinique Via Domitia", "latitude": 43.1595939, "longitude": 2.9658469, "source": "osm", "_tags": {"amenity": "hospital", "description": "Centre Hospitalier Spécialisé lutte Maladies Mentales", "name": "Clinique Via Domitia", "ref:FR:FINESS": "110005279", "source": "Le ministère des solidarités et de la santé - 03/2019"}}, {"name": "Centre médico-psychologique La Canetoise", "latitude": 42.6961335, "longitude": 3.0297818, "source": "osm", "_tags": {"addr:city": "Canet-en-Roussillon", "addr:postcode": "66140", "addr:street": "Avenue Eugène Sauvy", "amenity": "hospital", "email": "canet.cmp@ch-thuir.fr", "fax": "+33 4 68 73 07 95", "healthcare": "hospital", "healthcare:speciality": "psychiatry", "name": "Centre médico-psychologique La Canetoise", "phone": "+33 4 30 53 12 52", "website": "https://www.ch-thuir.fr/"}}, {"name": "Centre médico-psychologique d'Elne", "latitude": 42.6007244, "longitude": 2.9659103, "source": "osm", "_tags": {"addr:city": "Elne", "addr:housenumber": "4", "addr:postcode": "66200", "addr:street": "Rue du Mas Latrobe", "amenity": "hospital", "email": "elne.cmp@ch-thuir.fr", "fax": "+33 4 68 37 89 95", "healthcare": "hospital", "healthcare:speciality": "psychiatry", "name": "Centre médico-psychologique d'Elne", "phone": "+33 4 68 22 22 96", "website": "https://www.ch-thuir.fr/"}}, {"name": "Maison de santé de Port La Nouvelle", "latitude": 43.0067031, "longitude": 3.0422992, "source": "osm", "_tags": {"addr:city": "Port La Nouvelle", "addr:housenumber": "90", "addr:postcode": "11210", "addr:street": "Rue des Statices", "amenity": "hospital", "emergency": "yes", "healthcare": "hospital", "healthcare:speciality": "general", "internet_access": "wlan", "internet_access:fee": "customers", "name": "Maison de santé de Port La Nouvelle", "wheelchair": "yes"}}, {"name": "Elsa Ibanes Diététicienne - Nutritionniste", "latitude": 43.3535109, "longitude": 3.2399496, "source": "osm", "_tags": {"addr:city": "Béziers", "addr:housenumber": "21", "addr:postcode": "34500", "addr:street": "Rue Alfred Cortot", "amenity": "hospital", "healthcare": "hospital", "healthcare:speciality": "diététicienne;nutritionniste", "name": "Elsa Ibanes Diététicienne - Nutritionniste", "opening_hours": "Mo-Tu 08:30-19:00; We 09:00-19:00; Th-Fr 08:30-19:00; Sa 09:00-13:00", "operator": "Elsa Ibanes Chadburn", "operator:type": "business", "phone": "+33448140132", "ref:FR:SIRET": "50963911800033", "website": "https://www.dieteticienne-beziers.fr/", "wheelchair": "yes"}}, {"name": "Fanny Busque Chiropracteur", "latitude": 43.3512963, "longitude": 3.2316822, "source": "osm", "_tags": {"addr:city": "Béziers", "addr:housenumber": "7", "addr:postcode": "34500", "addr:street": "Rue Ferdinand de Lesseps", "amenity": "hospital", "healthcare": "hospital", "healthcare:speciality": "chiropractic", "level": "1", "name": "Fanny Busque Chiropracteur", "opening_hours": "Tu-Sa 09:45-20:00", "operator": "Fanny Busque", "operator:type": "private", "wheelchair": "yes"}}, {"name": "Espace Perréal", "latitude": 43.3457749, "longitude": 3.2319889, "source": "osm", "_tags": {"addr:city": "Béziers", "addr:housenumber": "2", "addr:postcode": "34500", "addr:street": "Boulevard Docteur Mourrut", "amenity": "hospital", "fax": "+33 4 67 01 45 74", "healthcare": "hospital", "name": "Espace Perréal", "operator": "Centre hospitalier de Béziers", "operator:type": "public", "phone": "+33 4 67 35 76 08", "ref:FR:FINESS": "340016732", "type:FR:FINESS": "355", "website": "https://www.ch-beziers.fr"}}, {"name": "Centre psychothérapique Camille Claudel", "latitude": 43.3439975, "longitude": 3.2408232, "source": "osm", "_tags": {"amenity": "hospital", "name": "Centre psychothérapique Camille Claudel", "ref:FR:FINESS": "340782622", "source": "cadastre-dgi-fr source : Direction Générale des Impôts - Cadastre;mise à jour : 2009"}}, {"name": "Centre hospitalier Montimaran", "latitude": 43.3399156, "longitude": 3.2546494, "source": "osm", "_tags": {"addr:housenumber": "2", "addr:street": "Rue Valentin Haüy", "amenity": "hospital", "capacity": "460", "email": "communication@ch-beziers.fr", "emergency": "yes", "fax": "+33 4 67 35 72 00", "healthcare": "hospital", "healthcare:speciality": "intensive", "name": "Centre hospitalier Montimaran", "phone": "+33 4 67 35 70 35", "ref:FR:FINESS": "340000033", "ref:FR:NAF": "8610Z", "ref:FR:SIRET": "26340011100013", "source": "cadastre-dgi-fr source : Direction Générale des Impôts - Cadastre;mise à jour : 2009", "type:FR:FINESS": "355", "website": "https://www.ch-beziers.fr", "wikidata": "Q50036409"}}, {"name": "Centre Bouffard Vercelli", "latitude": 42.4579751, "longitude": 3.1604627, "source": "osm", "_tags": {"amenity": "hospital", "building": "yes", "healthcare": "hospital", "name": "Centre Bouffard Vercelli", "ref:FR:FINESS": "660000605", "source": "cadastre-dgi-fr source : Direction Générale des Impôts - Cadastre. Mise à jour : 2010", "type:FR:FINESS": "109"}}, {"name": "Polyclinique Sainte-Thérèse", "latitude": 43.4082194, "longitude": 3.7040045, "source": "osm", "_tags": {"amenity": "hospital", "building": "yes", "healthcare": "hospital", "name": "Polyclinique Sainte-Thérèse", "ref:FR:FINESS": "340780741", "source": "cadastre-dgi-fr source : Direction Générale des Impôts - Cadastre. Mise à jour : 2010"}}, {"name": "Clinique Psychatrique Sainte-Thérèse", "latitude": 43.185245, "longitude": 2.9967855, "source": "osm", "_tags": {"amenity": "hospital", "building": "yes", "healthcare": "hospital", "name": "Clinique Psychatrique Sainte-Thérèse", "ref:FR:FINESS": "110781291", "source": "Le ministère des solidarités et de la santé - 03/2019"}}, {"name": "Centre d'imagerie Le Rabelais", "latitude": 43.3545925, "longitude": 3.227206, "source": "osm", "_tags": {"addr:housenumber": "5", "addr:street": "Avenue du Docteur Jean-Marie Fabre", "amenity": "hospital", "building": "yes", "healthcare": "centre", "healthcare:speciality": "radiology", "name": "Centre d'imagerie Le Rabelais", "opening_hours": "Mo-Fr 08:00-12:00,14:00-18:30", "source": "cadastre-dgi-fr source : Direction Générale des Impôts - Cadastre. Mise à jour : 2011"}}, {"name": "Polyclinique Saint-Privat", "latitude": 43.3672413, "longitude": 3.2547578, "source": "osm", "_tags": {"amenity": "hospital", "emergency": "yes", "fax": "+33 4 67 35 46 64", "healthcare": "hospital", "name": "Polyclinique Saint-Privat", "operator:type": "private", "phone": "+33 4 67 35 46 00", "ref:FR:FINESS": "340015965", "source": "cadastre-dgi-fr source : Direction Générale des Impôts - Cadastre ; mise à jour : 2011", "type:FR:FINESS": "365", "website": "https://www.polyclinique-saintprivat.fr/"}}, {"name": "Centre hospitalier Francis Vals", "latitude": 43.0067358, "longitude": 3.0437968, "source": "osm", "_tags": {"amenity": "hospital", "healthcare": "hospital", "name": "Centre hospitalier Francis Vals", "ref:FR:FINESS": "110000262", "source": "Le ministère des solidarités et de la santé - 03/2019", "wheelchair": "yes"}}, {"name": "Clinique du Pré", "latitude": 42.6301591, "longitude": 2.9462721, "source": "osm", "_tags": {"amenity": "hospital", "healthcare": "hospital", "name": "Clinique du Pré", "ref:FR:FINESS": "660780248", "type:FR:FINESS": "161"}}, {"name": "Pech d'Alcy USLD de l'Hôpital de Narbonne", "latitude": 43.1592396, "longitude": 2.9673212, "source": "osm", "_tags": {"amenity": "hospital", "fax": "+33468426100", "name": "Pech d'Alcy USLD de l'Hôpital de Narbonne", "phone": "+33468426000", "ref:FR:FINESS": "110005246", "ref:FR:SIRET": "26110010100227", "social_facility": "assisted_living", "source": "Le ministère des solidarités et de la santé - 03/2019", "type:FR:FINESS": "355"}}, {"name": "Centre hospitalier du Bassin de Thau", "latitude": 43.4074988, "longitude": 3.6698949, "source": "osm", "_tags": {"alt_name": "Hôpital Saint-Clair", "amenity": "hospital", "contact:facebook": "Hôpitaux du Bassin de Thau", "emergency": "yes", "fax": "+33 4 67 46 57 99", "healthcare": "hospital", "healthcare:speciality": "intensive", "name": "Centre hospitalier du Bassin de Thau", "operator": "Hôpitaux du Bassin de Thau", "operator:type": "public", "phone": "+33 4 67 46 57 57", "ref:FR:FINESS": "340000223", "twitter": "chbassindethau", "type:FR:FINESS": "355", "website": "https://ch-bassindethau.fr/"}}, {"name": "Clinique Champeau Méditerranée", "latitude": 43.3457497, "longitude": 3.2274483, "source": "osm", "_tags": {"addr:city": "Béziers", "addr:postcode": "34500", "addr:street": "Avenue Enseigne Albertini", "amenity": "hospital", "email": "contact@clinique-champeau.fr", "name": "Clinique Champeau Méditerranée", "operator": "Champeau", "operator:type": "private", "phone": "+33 4 67 09 19 20", "ref:FR:FINESS": "340009885", "type:FR:FINESS": "365", "website": "https://clinique-champeau.fr"}}, {"name": "Clinique Jean Causse", "latitude": 43.3137824, "longitude": 3.1462044, "source": "osm", "_tags": {"amenity": "hospital", "healthcare": "hospital", "name": "Clinique Jean Causse", "phone": "+33 4 67 35 63 21", "ref:FR:FINESS": "340780139", "type:FR:FINESS": "128"}}, {"name": "Clinique Pech du Soleil", "latitude": 43.3666125, "longitude": 3.248721, "source": "osm", "_tags": {"addr:city": "Boujan-sur-Libron", "addr:postcode": "34760", "addr:street": "Avenue Pech Estève", "amenity": "hospital", "healthcare": "hospital", "name": "Clinique Pech du Soleil"}}, {"name": "Clinique Le Val d'Orb", "latitude": 43.3659486, "longitude": 3.2473491, "source": "osm", "_tags": {"addr:city": "Boujan-sur-Libron", "addr:postcode": "34760", "addr:street": "Mail Philippe Lamour", "amenity": "hospital", "fax": "+33467496799", "healthcare": "hospital", "name": "Clinique Le Val d'Orb", "phone": "+33467496749", "ref:FR:FINESS": "340780196", "ref:FR:SIRET": "69292061400025", "source": "Le ministère des solidarités et de la santé - 03/2019", "type:FR:FINESS": "109"}}, {"name": "Hôpital Saint-Loup", "latitude": 43.2984399, "longitude": 3.4831609, "source": "osm", "_tags": {"addr:city": "Agde", "addr:postcode": "34300", "addr:street": "Boulevard des Hellènes", "amenity": "hospital", "fax": "+33 4 99 44 20 06", "name": "Hôpital Saint-Loup", "operator": "Hôpitaux du Bassin de Thau", "operator:type": "public", "phone": "+33 4 67 46 57 57", "ref:FR:FINESS": "340780436", "source": "BDOrtho IGN", "type:FR:FINESS": "355", "website": "https://ch-bassindethau.fr/"}}, {"name": "Maison de santé pluriprofessionnelle", "latitude": 42.8595502, "longitude": 3.0387508, "source": "osm", "_tags": {"amenity": "hospital", "healthcare": "centre", "name": "Maison de santé pluriprofessionnelle", "start_date": "2022-04-01", "type:FR:FINESS": "603", "website": "https://leucatemsp.site-sante.fr/"}}, {"name": "Clinique La Pergola", "latitude": 43.3510203, "longitude": 3.2307341, "source": "osm", "_tags": {"addr:city": "Béziers", "addr:postcode": "34500", "addr:street": "Avenue Jean Moulin", "amenity": "hospital", "name": "Clinique La Pergola"}}, {"name": "Unité de dialyse Aider Santé", "latitude": 43.3165576, "longitude": 3.2783539, "source": "osm", "_tags": {"amenity": "hospital", "building": "yes", "name": "Unité de dialyse Aider Santé", "source": "cadastre-dgi-fr source : Direction Générale des Finances Publiques - Cadastre. Mise à jour : 2023"}}, {"name": "Centre hospitalier de Narbonne", "latitude": 43.1808467, "longitude": 3.0001448, "source": "osm", "_tags": {"addr:postcode": "11100", "addr:street": "Boulevard du Docteur Lacroix", "alt_name": "Hôtel-Dieu", "amenity": "hospital", "emergency": "yes", "fax": "+33 4 68 42 61 00", "healthcare": "hospital", "healthcare:speciality": "intensive", "heritage": "2", "heritage:operator": "mhs", "mhs:inscription_date": "1984-12-28", "name": "Centre hospitalier de Narbonne", "operator:type": "public", "phone": "+33 4 68 42 60 00", "ref:FR:FINESS": "110000056", "ref:mhs": "PA00102808", "roof:levels": "0", "source:heritage": "data.gouv.fr, Ministère de la Culture - 2016", "start_date": "C17", "type": "multipolygon", "type:FR:FINESS": "355", "website": "https://www.ch-narbonne.fr/", "wheelchair": "yes", "wikidata": "Q22953460"}}]