[{"name": "Здравен център Лечител", "latitude": 42.700216, "longitude": 23.331046, "source": "osm", "_tags": {"amenity": "hospital", "healthcare": "hospital", "name": "Здравен център Лечител"}}, {"name": "2-ри ДКЦ", "latitude": 42.6913656, "longitude": 23.3240667, "source": "osm", "_tags": {"addr:city": "София", "addr:housenumber": "1", "addr:street": "Хан Крум", "amenity": "hospital", "email": "gmateeva@abv.bg", "healthcare": "hospital", "name": "2-ри ДКЦ", "note": "Д-р Габриела Матеева 07:30 - 19:30 Почивни дни Събота и Неделя", "phone": "+359 2 988 2868;+359 2 987 3402;+359 2 987 3403", "website": "https://sofia.myhealth.bg/centers/6/dkts-2", "wheelchair": "yes"}}, {"name": "Медицински център", "latitude": 42.694409, "longitude": 23.28312, "source": "osm", "_tags": {"amenity": "hospital", "healthcare": "hospital", "name": "Медицински център"}}, {"name": "Национален център по физикално лечение и рехабилитация", "latitude": 42.676759, "longitude": 23.2699979, "source": "osm", "_tags": {"addr:housenumber": "2В", "addr:street": "бул. Овча купел", "amenity": "hospital", "contact:phone": "+359 2 955 5273", "healthcare": "hospital", "name": "Национален център по физикално лечение и рехабилитация", "website": "http://www.rehabilitacia-ovchakupel.com/"}}, {"name": "МБАЛ \"Царица Йоанна\" - обслужване на дипломати и чужденци", "latitude": 42.700561, "longitude": 23.338996, "source": "osm", "_tags": {"amenity": "hospital", "healthcare": "hospital", "name": "МБАЛ \"Царица Йоанна\" - обслужване на дипломати и чужденци"}}, {"name": "ЦПЗ \"Проф. Н.Шипковенски\"", "latitude": 42.7007202, "longitude": 23.3272293, "source": "osm", "_tags": {"addr:city": "София", "addr:housenumber": "59", "addr:postcode": "1377", "addr:street": "Екзарх Йосиф", "amenity": "hospital", "contact:facebook": "PsihichnoZdraveZaSocialnoVkluchvane", "email": "cpz_ns@abv.bg", "healthcare": "hospital", "healthcare:speciality": "psychiatry", "name": "ЦПЗ \"Проф. Н.Шипковенски\"", "opening_hours": "Mo-Fr 07:30-19:30", "phone": "+359 2 939 9038;+359879220555", "website": "https://cpz-ns.com/", "wheelchair": "limited"}}, {"name": "Втора Акушеро - гинекологична болница Шейново", "latitude": 42.6926447, "longitude": 23.3400561, "source": "osm", "_tags": {"addr:city": "София", "addr:housenumber": "19", "addr:postcode": "1504", "addr:street": "Шейново", "amenity": "hospital", "healthcare": "hospital", "name": "Втора Акушеро - гинекологична болница Шейново", "phone": "+359 2 965 9481", "short_name": "II Акушера Шейново", "sorting_name": "Шейново", "website": "https://sheynovo-ag.eu/", "wheelchair": "no"}}, {"name": "IV Работническа болница", "latitude": 42.660728, "longitude": 23.417155, "source": "osm", "_tags": {"amenity": "hospital", "healthcare": "hospital", "name": "IV Работническа болница"}}, {"name": "Институтска СБАЛ по ортопедия Проф. Бойчо Бойчев", "latitude": 42.6744574, "longitude": 23.2473008, "source": "osm", "_tags": {"amenity": "hospital", "healthcare": "hospital", "name": "Институтска СБАЛ по ортопедия Проф. Бойчо Бойчев"}}, {"name": "IV МБАЛ", "latitude": 42.6931112, "longitude": 23.311373, "source": "osm", "_tags": {"addr:housenumber": "38", "addr:street": "бул. Македония", "alt_name": "4-та МБАЛ", "amenity": "hospital", "healthcare": "hospital", "name": "IV МБАЛ", "phone": "+359 2 953 2485", "website": "https://4mbal.bg", "wheelchair": "limited"}}, {"name": "17-ти ДКЦ", "latitude": 42.6971274, "longitude": 23.3476634, "source": "osm", "_tags": {"addr:city": "София", "addr:housenumber": "108", "addr:street": "бул. Евлоги и Христо Георгиеви", "amenity": "hospital", "contact:phone": "+359 2 944 4149", "healthcare": "hospital", "name": "17-ти ДКЦ", "website": "http://dkc17.com/"}}, {"name": "Републикански център по протезиране и възстановителна хирургия", "latitude": 42.6763014, "longitude": 23.2486397, "source": "osm", "_tags": {"amenity": "hospital", "healthcare": "hospital", "name": "Републикански център по протезиране и възстановителна хирургия"}}, {"name": "Диагностичен център Пансанус", "latitude": 42.7024947, "longitude": 23.3048305, "source": "osm", "_tags": {"amenity": "hospital", "healthcare": "hospital", "name": "Диагностичен център Пансанус"}}, {"name": "Централна консултативна поликлиника", "latitude": 42.700623, "longitude": 23.339289, "source": "osm", "_tags": {"amenity": "hospital", "healthcare": "hospital", "name": "Централна консултативна поликлиника"}}, {"name": "Областен диспансер за онкологични заболявания със стационар - София област ЕООД", "latitude": 42.7129763, "longitude": 23.3127421, "source": "osm", "_tags": {"amenity": "hospital", "fixme": "This is not it's exact location, SBAL Yoan Pavel is here", "healthcare": "hospital", "name": "Областен диспансер за онкологични заболявания със стационар - София област ЕООД"}}, {"name": "МБАЛ \"Вита\" ЕООД", "latitude": 42.6960164, "longitude": 23.3543932, "source": "osm", "_tags": {"addr:housenumber": "9", "addr:postcode": "1505", "addr:street": "Драговица", "amenity": "hospital", "healthcare": "hospital", "name": "МБАЛ \"Вита\" ЕООД", "name:en": "Vita hospital", "phone": "+359 2 960 4950", "website": "https://www.vita.bg/", "wheelchair": "limited"}}, {"name": "Медицинска лаборатория Сана", "latitude": 42.7013021, "longitude": 23.3064428, "source": "osm", "_tags": {"amenity": "hospital", "healthcare": "hospital", "name": "Медицинска лаборатория Сана"}}, {"name": "Здравен пункт", "latitude": 42.5667051, "longitude": 23.1809862, "source": "osm", "_tags": {"amenity": "hospital", "emergency": "no", "healthcare": "hospital", "name": "Здравен пункт"}}, {"name": "Институтска СБАЛ по белодробни болести Св. София", "latitude": 42.68158, "longitude": 23.306037, "source": "osm", "_tags": {"amenity": "hospital", "healthcare": "hospital", "name": "Институтска СБАЛ по белодробни болести Св. София"}}, {"name": "СБАЛГАР - д-р Малинов ООД", "latitude": 42.675219, "longitude": 23.2894374, "source": "osm", "_tags": {"addr:housenumber": "46", "addr:postcode": "1620", "addr:street": "бул. Гоце Делчев", "amenity": "hospital", "check_date": "2024-10-14", "contact:facebook": "klinika.Malinov", "contact:instagram": "malinov_clinic", "eik": "131187321", "email": "info@malinov-clinic.com", "healthcare": "hospital", "mh_id": "2201212059", "name": "СБАЛГАР - д-р Малинов ООД", "name:en": "Malinov Clinic", "phone": "+359 2 965 5711", "website": "https://malinov-clinic.com/"}}, {"name": "УМБАЛ Св. Екатерина", "latitude": 42.6848177, "longitude": 23.3125857, "source": "osm", "_tags": {"amenity": "hospital", "healthcare": "hospital", "name": "УМБАЛ Св. Екатерина", "old_name": "УМБАЛ проф. д-р. Александър Чирков", "website": "https://svetaekaterina.eu/", "wheelchair": "yes", "wikidata": "Q104003652", "wikipedia": "bg:УМБАЛ „Света Екатерина“"}}, {"name": "31 ДКЦ", "latitude": 42.8024514, "longitude": 23.341984, "source": "osm", "_tags": {"amenity": "hospital", "check_date": "2025-02-05", "name": "31 ДКЦ", "toilets:wheelchair": "no", "wheelchair": "limited"}}, {"name": "СБАЛ на деца с онкохематологични заболявания", "latitude": 42.7006912, "longitude": 23.3391503, "source": "osm", "_tags": {"amenity": "hospital", "healthcare": "hospital", "name": "СБАЛ на деца с онкохематологични заболявания"}}, {"name": "СБАЛ Йоан Павел", "latitude": 42.7129631, "longitude": 23.3127639, "source": "osm", "_tags": {"addr:housenumber": "67А", "addr:postcode": "1233", "addr:street": "бул. Ген. Столетов", "amenity": "hospital", "contact:phone": "+359 2 832 0044", "healthcare": "hospital", "name": "СБАЛ Йоан Павел", "website": "http://joan-pavel.blogspot.co.uk/"}}, {"name": "СОБАЛ Акад. Пашев", "latitude": 42.7019048, "longitude": 23.3695513, "source": "osm", "_tags": {"amenity": "hospital", "healthcare": "hospital", "name": "СОБАЛ Акад. Пашев"}}, {"name": "СБАЛДБ Клинико-рехабилитационни отделения", "latitude": 42.709269, "longitude": 23.1501033, "source": "osm", "_tags": {"amenity": "hospital", "name": "СБАЛДБ Клинико-рехабилитационни отделения"}}, {"name": "3-то ДКЦ", "latitude": 42.6995877, "longitude": 23.3284419, "source": "osm", "_tags": {"amenity": "hospital", "check_date": "2024-12-20", "healthcare": "hospital", "name": "3-то ДКЦ", "wheelchair": "no"}}, {"name": "", "latitude": 43.0198533, "longitude": 23.2120131, "source": "osm", "_tags": {"amenity": "hospital"}}, {"name": "", "latitude": 42.7708749, "longitude": 23.4040518, "source": "osm", "_tags": {"amenity": "hospital"}}, {"name": "ЦСМП", "latitude": 42.7066932, "longitude": 23.1422068, "source": "osm", "_tags": {"amenity": "hospital", "name": "ЦСМП"}}, {"name": "", "latitude": 42.8222504, "longitude": 23.2822234, "source": "osm", "_tags": {"amenity": "hospital"}}, {"name": "Медицински център", "latitude": 42.5994245, "longitude": 23.1698437, "source": "osm", "_tags": {"amenity": "hospital", "healthcare": "hospital", "name": "Медицински център"}}, {"name": "Медицински център", "latitude": 42.5430675, "longitude": 23.4941658, "source": "osm", "_tags": {"amenity": "hospital", "healthcare": "hospital", "name": "Медицински център"}}, {"name": "", "latitude": 42.7726764, "longitude": 23.2418613, "source": "osm", "_tags": {"amenity": "hospital"}}, {"name": "МЦ Св. Богородица - Възвестителка", "latitude": 42.6328989, "longitude": 23.3118535, "source": "osm", "_tags": {"addr:city": "София", "addr:housenumber": "7", "addr:street": "Папрат", "amenity": "hospital", "check_date": "2022-11-24", "contact:mobile": "+359 88 793 6323", "contact:phone": "+359 2 967 3161", "contact:website": "https://mc-svbogorodica.com/", "healthcare": "hospital", "name": "МЦ Св. Богородица - Възвестителка", "opening_hours": "Mo-Th 08:00-18:00; Fr 08:00-15:00"}}, {"name": "", "latitude": 42.5766018, "longitude": 23.4142385, "source": "osm", "_tags": {"amenity": "hospital"}}, {"name": "", "latitude": 42.6811007, "longitude": 23.4659558, "source": "osm", "_tags": {"amenity": "hospital"}}, {"name": "", "latitude": 42.7001686, "longitude": 23.4927862, "source": "osm", "_tags": {"amenity": "hospital"}}, {"name": "СТУДЕНТСКА ПОЛИКЛИНИКА 5 поликлиника – 5 ДКЦ", "latitude": 42.6523648, "longitude": 23.3468217, "source": "osm", "_tags": {"amenity": "hospital", "check_date": "2025-04-14", "emergency": "no", "healthcare": "hospital", "name": "СТУДЕНТСКА ПОЛИКЛИНИКА 5 поликлиника – 5 ДКЦ", "wheelchair": "designated"}}, {"name": "Спешна медицинска помощ", "latitude": 42.6643574, "longitude": 23.6008309, "source": "osm", "_tags": {"addr:city": "Елин Пелин", "amenity": "hospital", "emergency": "yes", "healthcare": "hospital", "name": "Спешна медицинска помощ"}}, {"name": "Специализирана хирургична болница „Скин Системс”", "latitude": 42.6324225, "longitude": 23.6889812, "source": "osm", "_tags": {"addr:city": "Доганово", "addr:housenumber": "32", "addr:street": "1-ва", "amenity": "hospital", "healthcare": "hospital", "healthcare:speciality": "orthopaedics;plastic_surgery;trauma;blood_check;radiology;physiatry", "mobile": "+359 89 444 1080", "name": "Специализирана хирургична болница „Скин Системс”", "website": "https://skinsystems.bg"}}, {"name": "", "latitude": 43.342423, "longitude": 23.8472158, "source": "osm", "_tags": {"amenity": "hospital"}}, {"name": "Здравето", "latitude": 42.681331, "longitude": 23.27076, "source": "osm", "_tags": {"addr:housenumber": "7", "addr:street": "Маестро Кънев", "amenity": "hospital", "contact:facebook": "bolnicazdraveto", "contact:instagram": "mbalzdraveto", "email": "info@zdraveto.com", "healthcare": "hospital", "name": "Здравето", "name:en": "Zdraveto", "opening_hours": "24/7", "phone": "+35924911719;+359888906811", "website": "https://zdraveto.com/", "wheelchair": "yes"}}, {"name": "Специализирана белодробна клинка \"Цар Фердинанд\"", "latitude": 42.985286, "longitude": 23.275654, "source": "osm", "_tags": {"amenity": "hospital", "healthcare": "hospital", "name": "Специализирана белодробна клинка \"Цар Фердинанд\""}}, {"name": "Център Психично здраве", "latitude": 43.1944856, "longitude": 23.5558454, "source": "osm", "_tags": {"amenity": "hospital", "healthcare": "hospital", "healthcare:speciality": "psychiatry;physiotherapy", "name": "Център Психично здраве", "operator": "МБАЛ „Христо Ботев\""}}, {"name": "", "latitude": 42.8931961, "longitude": 23.9167696, "source": "osm", "_tags": {"amenity": "hospital", "healthcare": "hospital"}}, {"name": "СБАЛТОСМ - проф. д-р Димитър Шойлев", "latitude": 42.6644386, "longitude": 23.344287, "source": "osm", "_tags": {"addr:city": "София", "addr:housenumber": "1", "addr:postcode": "1172", "addr:street": "Никола Габровски", "addr:suburb": "ж.к. Дианабад", "amenity": "hospital", "contact:phone": "+359 2 962 0453", "healthcare": "hospital", "healthcare:speciality": "orthopaedics", "name": "СБАЛТОСМ - проф. д-р Димитър Шойлев", "name:en": "Thraumatology Hospital \"Prof. Dr. Dimitar Shoilev\"", "name:ro": "SBALTOSM - Prof. Dr. Dimităr Șoilev", "note": "Специализирана болница за активно лечение по травматология, ортопедия и спортна медицина „Проф. доктор Димитър Шойлев“", "website": "https://www.sbaltosm.com/"}}, {"name": "", "latitude": 43.2364941, "longitude": 23.1316735, "source": "osm", "_tags": {"amenity": "hospital", "healthcare": "hospital"}}, {"name": "Бърза помощ", "latitude": 43.016293, "longitude": 23.0426577, "source": "osm", "_tags": {"amenity": "hospital", "healthcare": "hospital", "name": "Бърза помощ"}}, {"name": "Поликлиника", "latitude": 43.016087, "longitude": 23.0429554, "source": "osm", "_tags": {"amenity": "hospital", "healthcare": "hospital", "name": "Поликлиника"}}, {"name": "1-ви ДКЦ филиал", "latitude": 43.2115592, "longitude": 23.5581283, "source": "osm", "_tags": {"amenity": "hospital", "healthcare": "hospital", "name": "1-ви ДКЦ филиал"}}, {"name": "", "latitude": 43.3717488, "longitude": 23.4818505, "source": "osm", "_tags": {"amenity": "hospital", "healthcare": "hospital"}}, {"name": "Therapeutic community \"Phoenix\"", "latitude": 43.0602668, "longitude": 23.1567585, "source": "osm", "_tags": {"addr:city": "Бракьовци", "addr:housenumber": "16", "addr:street": "Рилски Езера", "amenity": "hospital", "description": "Терапевтична общност Феникс е първата професионална дългосрочна рехабилитационна програма за зависимости в България, основана през юни 2001 г. от д-р Петър Василев.", "healthcare": "hospital", "name": "Therapeutic community \"Phoenix\"", "phone": "+359 89 820 9175", "website": "https://phoenixhouse.bg/"}}, {"name": "МБАЛ Сердика", "latitude": 42.6818754, "longitude": 23.2453939, "source": "osm", "_tags": {"addr:city": "София", "addr:housenumber": "128", "addr:street": "бул. Президент Линкълн", "amenity": "hospital", "branch": "Второ отделение", "healthcare": "hospital", "name": "МБАЛ Сердика", "website": "https://www.mbalserdika.com/"}}, {"name": "ДКЦ “Д-р Грийнберг”", "latitude": 42.6511328, "longitude": 23.4049477, "source": "osm", "_tags": {"addr:housenumber": "23-А", "addr:postcode": "1582", "addr:street": "бул. Копенхаген", "amenity": "hospital", "email": "dccgreenberg@gmail.com", "healthcare": "hospital", "name": "ДКЦ “Д-р Грийнберг”", "phone": "+359 89 877 6812", "website": "https://greenberg.bg/"}}, {"name": "ТИЙМКОД", "latitude": 42.6394103, "longitude": 23.398605, "source": "osm", "_tags": {"addr:city": "София", "addr:housenumber": "17", "addr:street": "Инж. Георги Белов", "amenity": "hospital", "description": "За нас няма никакви тайни в областта на ЗБУТ. Предлагаме на работодателя всички възможни дейности и услуги по ЗБУТ.", "healthcare": "hospital", "name": "ТИЙМКОД", "phone": "+359 2 884 8469", "website": "https://www.team-code.org/"}}, {"name": "ЗФ Свети Георги - ОХХ Груп АД", "latitude": 42.6714627, "longitude": 23.3869332, "source": "osm", "_tags": {"addr:city": "София", "addr:housenumber": "3", "addr:street": "Капитан Димитър Списаревски", "amenity": "hospital", "description": "http://www.zfsvg-stm.com/", "healthcare": "hospital", "name": "ЗФ Свети Георги - ОХХ Груп АД", "phone": "+359 88 655 5373"}}, {"name": "Първа частна МБАЛ - Враца", "latitude": 43.1936769, "longitude": 23.5700431, "source": "osm", "_tags": {"addr:city": "Враца", "addr:country": "BG", "addr:housenumber": "96А", "addr:postcode": "3000", "addr:street": "бул. Втори юни", "amenity": "hospital", "description": "The First Private Specialized Hospital for Active Treatment of Orthopedy and Traumatology", "emergency": "yes", "healthcare": "hospital", "healthcare:speciality": "orthopaedics", "internet_access": "yes", "internet_access:ssid": "Vivacom Land", "name": "Първа частна МБАЛ - Враца", "operator:type": "private", "phone": "+359 89 680 4779", "source": "local knowledge", "start_date": "2007", "website": "https://orthopedic-clinic-vr.com/en/home", "wheelchair": "yes"}}, {"name": "Медицински Център Хармония", "latitude": 42.6630225, "longitude": 23.3753112, "source": "osm", "_tags": {"addr:city": "София", "addr:housenumber": "125", "addr:street": "бул. Цариградско шосе", "amenity": "hospital", "healthcare": "hospital", "healthcare:speciality": "general;gynaecology;otolaryngology;urology;ophthalmology;orthopaedics;cardiology", "name": "Медицински Център Хармония", "operator": "Медицински Център Хармония ООД", "operator:type": "private"}}, {"name": "Отделение по лъчетерапия", "latitude": 43.1979451, "longitude": 23.5596851, "source": "osm", "_tags": {"amenity": "hospital", "ele": "1", "emergency": "no", "healthcare": "hospital", "healthcare:speciality": "radiology", "name": "Отделение по лъчетерапия", "operator:type": "public", "parking": "yes", "phone": "+35992 669 140;+35992 669 139", "source_type_GPS": "43.197884 23.559498", "website": "http://www.onko-vratsa.bg/отделение-по-лъчелечение/", "wheelchair": "yes"}}, {"name": "Д-р Румяна Анастасова", "latitude": 42.717954, "longitude": 23.2707313, "source": "osm", "_tags": {"addr:city": "София", "addr:housenumber": "123", "addr:street": "Ялта", "amenity": "hospital", "healthcare": "hospital", "healthcare:speciality": "dentist", "name": "Д-р Румяна Анастасова", "name:en": "Dr. Rumiana Anastasova", "opening_hours": "Mo, We, Fr 14:00-20:00; Tu, Th 09:00-14:00", "phone": "+359 88 636 4593", "website": "https://dr-anastasova.business.site"}}, {"name": "Солна къща", "latitude": 42.6576512, "longitude": 23.2764912, "source": "osm", "_tags": {"amenity": "hospital", "healthcare": "hospital", "name": "Солна къща", "website": "https://salthouse.bg"}}, {"name": "Сапфир Лазер България", "latitude": 42.6723076, "longitude": 23.275207, "source": "osm", "_tags": {"addr:city": "София", "addr:housenumber": "5", "addr:postcode": "1618", "addr:street": "Майор Горталов", "amenity": "hospital", "healthcare": "hospital", "healthcare:speciality": "general", "name": "Сапфир Лазер България"}}, {"name": "Д-р Мария Саздова", "latitude": 42.7095726, "longitude": 23.351582, "source": "osm", "_tags": {"addr:city": "София", "addr:housenumber": "50", "addr:postcode": "1510", "addr:street": "Найден Георгиев", "amenity": "hospital", "healthcare": "hospital", "healthcare:speciality": "general;paediatrics", "name": "Д-р Мария Саздова", "operator": "Общопрактикуващ лекар"}}, {"name": "МЦ Пирогов", "latitude": 42.689556, "longitude": 23.3074711, "source": "osm", "_tags": {"amenity": "hospital", "check_date": "2024-12-20", "healthcare": "hospital", "name": "МЦ Пирогов"}}, {"name": "Очна Болница “Зора”", "latitude": 42.6624822, "longitude": 23.3803513, "source": "osm", "_tags": {"amenity": "hospital", "check_date": "2024-01-13", "healthcare": "hospital", "name": "Очна Болница “Зора”", "name:cs": "“Zora” očna bolnica", "name:en": "Eyecare hospital “Zora”"}}, {"name": "МЦ Афродита", "latitude": 42.6589914, "longitude": 23.315418, "source": "osm", "_tags": {"amenity": "hospital", "healthcare": "hospital", "healthcare:speciality": "fertility", "name": "МЦ Афродита"}}, {"name": "УМБАЛ \"Свети Иван Рилски\"", "latitude": 42.6824181, "longitude": 23.302159, "source": "osm", "_tags": {"addr:city": "София", "addr:housenumber": "15", "addr:street": "бул. Акад. Иван Евстратиев Гешов", "amenity": "hospital", "email": "admin@rilski.com", "healthcare": "hospital", "name": "УМБАЛ \"Свети Иван Рилски\"", "website": "https://rilski.com", "wikidata": "Q125621346"}}, {"name": "Beta clinic", "latitude": 42.676086, "longitude": 23.3213051, "source": "osm", "_tags": {"amenity": "hospital", "healthcare": "hospital", "name": "Beta clinic"}}, {"name": "Medical Center Salvebis", "latitude": 42.6770682, "longitude": 23.3325593, "source": "osm", "_tags": {"amenity": "hospital", "healthcare": "hospital", "healthcare:speciality": "dental_oral_maxillo_facial_surgery;gynaecology", "name": "Medical Center Salvebis", "name:bg": "Медицински Център Салвебис", "opening_hours": "Mo-Fr 08:00-20:00", "website": "https://www.salvebis.bg/"}}, {"name": "СБАЛББ Св. Панталеймон", "latitude": 42.5837753, "longitude": 23.0208662, "source": "osm", "_tags": {"amenity": "hospital", "name": "СБАЛББ Св. Панталеймон"}}, {"name": "23-ти ДКЦ", "latitude": 42.7071563, "longitude": 23.3531387, "source": "osm", "_tags": {"addr:housenumber": "20", "addr:street": "Клисура", "amenity": "hospital", "building": "hospital", "healthcare": "hospital", "name": "23-ти ДКЦ", "wheelchair": "limited"}}, {"name": "НМТБ-микробиологична лаборатория", "latitude": 42.712848, "longitude": 23.3180246, "source": "osm", "_tags": {"addr:housenumber": "104", "addr:street": "бул. Княгиня Мария Луиза", "amenity": "hospital", "building": "hospital", "healthcare": "hospital", "name": "НМТБ-микробиологична лаборатория"}}, {"name": "НМТБ-клинична лаборатория, имунология и хормони", "latitude": 42.7130443, "longitude": 23.3176502, "source": "osm", "_tags": {"addr:housenumber": "106", "addr:street": "бул. Княгиня Мария Луиза", "amenity": "hospital", "building": "hospital", "healthcare": "hospital", "name": "НМТБ-клинична лаборатория, имунология и хормони"}}, {"name": "Транспортен медицински институт", "latitude": 42.7131385, "longitude": 23.3167205, "source": "osm", "_tags": {"addr:housenumber": "108", "addr:street": "бул. Княгиня Мария Луиза", "amenity": "hospital", "building": "hospital", "healthcare": "hospital", "name": "Транспортен медицински институт"}}, {"name": "Национална многопрофилна транспортна болница Цар Борис III", "latitude": 42.7129578, "longitude": 23.3173971, "source": "osm", "_tags": {"addr:housenumber": "106", "addr:street": "бул. Княгиня Мария Луиза", "amenity": "hospital", "building": "hospital", "healthcare": "hospital", "name": "Национална многопрофилна транспортна болница Цар Борис III", "wikidata": "Q30281224"}}, {"name": "Университетска многопрофилна болница за активно лечение и спешна медицина \"Н. И. Пирогов\"", "latitude": 42.6903055, "longitude": 23.3083961, "source": "osm", "_tags": {"addr:housenumber": "21", "addr:street": "бул. Ген. Тотлебен", "alt_name": "МБАЛ и спешна медицина Пирогов", "amenity": "hospital", "contact:facebook": "%D0%A3%D0%9C%D0%91%D0%90%D0%9B%D0%A1%D0%9C-%D0%9D-%D0%98-%D0%9F%D0%B8%D1%80%D0%BE%D0%B3%D0%BE%D0%B2-280817848628824", "email": "pirogov@pirogov.bg", "emergency": "yes", "healthcare": "hospital", "name": "Университетска многопрофилна болница за активно лечение и спешна медицина \"Н. И. Пирогов\"", "phone": "+359 2 915 4411", "short_name": "УМБАЛСМ Пирогов", "website": "https://pirogov.eu/", "wheelchair": "yes", "wikidata": "Q7198064", "wikipedia": "bg:Пирогов (болница)"}}, {"name": "СБАЛ по белодробни болести \"Св. София\"", "latitude": 42.6820654, "longitude": 23.3027501, "source": "osm", "_tags": {"addr:city": "София", "addr:housenumber": "15", "addr:street": "бул. Акад. Иван Евстратиев Гешов", "amenity": "hospital", "building": "hospital", "building:levels": "3", "healthcare": "hospital", "name": "СБАЛ по белодробни болести \"Св. София\"", "wikidata": "Q103840146"}}, {"name": "СБАЛ по детски болести \"проф. ИВан Митев\"", "latitude": 42.683989, "longitude": 23.3020673, "source": "osm", "_tags": {"addr:city": "София", "addr:housenumber": "11", "addr:postcode": "1606", "addr:street": "бул. Акад. Иван Евстратиев Гешов", "alt_name": "Специализирана болница по Педиатрия", "amenity": "hospital", "building": "yes", "building:levels": "5", "healthcare": "hospital", "name": "СБАЛ по детски болести \"проф. ИВан Митев\"", "phone": "+359 2 815 4211", "website": "https://usbaldb.com/", "wikidata": "Q43896626"}}, {"name": "Болница за репродуктивна медицина София", "latitude": 42.6574867, "longitude": 23.3528216, "source": "osm", "_tags": {"addr:city": "София", "addr:housenumber": "5Б", "addr:street": "Баку", "amenity": "hospital", "building": "hospital", "healthcare": "hospital", "name": "Болница за репродуктивна медицина София", "opening_hours": "Mo-Fr 08:30-17:00"}}, {"name": "САГБАЛ Св. Лазар", "latitude": 42.6594085, "longitude": 23.3363618, "source": "osm", "_tags": {"amenity": "hospital", "building": "yes", "building:levels": "4", "healthcare": "hospital", "name": "САГБАЛ Св. Лазар", "name:en": "Hospital Saint Lazar", "wikidata": "Q131783384", "wikimedia_commons": "File:СБАЛ „Свети Лазар“.jpg"}}, {"name": "МБАЛ \"Света София\"", "latitude": 42.6599164, "longitude": 23.2847076, "source": "osm", "_tags": {"addr:city": "София", "addr:housenumber": "104", "addr:postcode": "1618", "addr:street": "бул. България", "amenity": "hospital", "building": "hospital", "check_date": "2024-10-31", "healthcare": "hospital", "name": "МБАЛ \"Света София\"", "payment:cash": "yes", "payment:credit_cards": "yes", "payment:debit_cards": "yes", "phone": "+359 2 818 4600", "website": "https://www.mbal-sofia.com/", "wheelchair": "yes"}}, {"name": "Частна хирургична болница Света Богородица", "latitude": 42.698765, "longitude": 23.3437901, "source": "osm", "_tags": {"addr:city": "София", "addr:housenumber": "46", "addr:street": "Тракия", "amenity": "hospital", "building": "yes", "healthcare": "hospital", "name": "Частна хирургична болница Света Богородица"}}, {"name": "ДКЦ 30", "latitude": 42.7438737, "longitude": 23.2766065, "source": "osm", "_tags": {"amenity": "hospital", "building": "clinic", "healthcare": "hospital", "name": "ДКЦ 30"}}, {"name": "СБ", "latitude": 42.7092727, "longitude": 23.1501128, "source": "osm", "_tags": {"amenity": "hospital", "building": "hospital", "healthcare": "hospital", "name": "СБ"}}, {"name": "16 ДКЦ", "latitude": 42.7381054, "longitude": 23.507965, "source": "osm", "_tags": {"amenity": "hospital", "building": "hospital", "emergency": "yes", "healthcare": "hospital", "name": "16 ДКЦ"}}, {"name": "МЦ-1", "latitude": 42.8125137, "longitude": 23.2149251, "source": "osm", "_tags": {"amenity": "hospital", "building": "yes", "healthcare": "hospital", "name": "МЦ-1"}}, {"name": "Медицински център и Община", "latitude": 42.7866115, "longitude": 23.5193866, "source": "osm", "_tags": {"addr:housenumber": "47", "addr:street": "Стара планина", "amenity": "hospital", "building": "office", "name": "Медицински център и Община"}}, {"name": "МЦ 1", "latitude": 42.7066869, "longitude": 23.1413844, "source": "osm", "_tags": {"amenity": "hospital", "name": "МЦ 1"}}, {"name": "Болница за долекуване, продължително лечение и рехабилитация", "latitude": 42.7033637, "longitude": 23.1447305, "source": "osm", "_tags": {"amenity": "hospital", "name": "Болница за долекуване, продължително лечение и рехабилитация"}}, {"name": "Медицински център", "latitude": 42.6559921, "longitude": 23.4645071, "source": "osm", "_tags": {"amenity": "hospital", "building": "yes", "name": "Медицински център"}}, {"name": "НКБ - отделение по кардиологична рехабилитация", "latitude": 42.7080719, "longitude": 23.1490061, "source": "osm", "_tags": {"amenity": "hospital", "building": "yes", "healthcare": "hospital", "name": "НКБ - отделение по кардиологична рехабилитация"}}, {"name": "\"ЗДРАВНА СЛУЖБА - с. Герман\"", "latitude": 42.6139656, "longitude": 23.4148145, "source": "osm", "_tags": {"addr:housenumber": "69", "addr:street": "Патриарх Герман", "amenity": "hospital", "building": "hospital", "building:levels": "1", "healthcare": "hospital", "name": "\"ЗДРАВНА СЛУЖБА - с. Герман\""}}, {"name": "Медицински център", "latitude": 42.7842911, "longitude": 23.2747615, "source": "osm", "_tags": {"amenity": "hospital", "building": "yes", "name": "Медицински център"}}, {"name": "", "latitude": 42.5337768, "longitude": 23.3655686, "source": "osm", "_tags": {"amenity": "hospital", "building": "hospital"}}, {"name": "Специализирана болница за рехабилитация Здраве", "latitude": 42.7100427, "longitude": 23.146704, "source": "osm", "_tags": {"amenity": "hospital", "building": "yes", "name": "Специализирана болница за рехабилитация Здраве"}}, {"name": "СБАЛ на детски болести", "latitude": 42.7099923, "longitude": 23.1510449, "source": "osm", "_tags": {"amenity": "hospital", "building": "hospital", "healthcare": "hospital", "name": "СБАЛ на детски болести"}}, {"name": "", "latitude": 42.7084208, "longitude": 23.1494537, "source": "osm", "_tags": {"amenity": "hospital", "building": "yes", "healthcare": "hospital"}}, {"name": "МИ на МВР - Филиал", "latitude": 42.7101112, "longitude": 23.1527555, "source": "osm", "_tags": {"amenity": "hospital", "building": "hospital", "name": "МИ на МВР - Филиал"}}, {"name": "", "latitude": 42.709755, "longitude": 23.1529576, "source": "osm", "_tags": {"amenity": "hospital", "building": "hospital"}}, {"name": "Медицински център", "latitude": 42.6279385, "longitude": 23.1990361, "source": "osm", "_tags": {"amenity": "hospital", "building": "yes", "healthcare": "hospital", "name": "Медицински център"}}, {"name": "", "latitude": 42.8088003, "longitude": 23.2033401, "source": "osm", "_tags": {"amenity": "hospital", "building": "yes", "wheelchair": "yes"}}, {"name": "", "latitude": 42.5931188, "longitude": 23.4157304, "source": "osm", "_tags": {"amenity": "hospital", "building": "hospital"}}, {"name": "Св. Спас", "latitude": 42.7960874, "longitude": 23.4513124, "source": "osm", "_tags": {"amenity": "hospital", "healthcare": "hospital", "name": "Св. Спас"}}, {"name": "Бившa рехабилитационна база \"Драгалевци\"", "latitude": 42.6127659, "longitude": 23.3150074, "source": "osm", "_tags": {"amenity": "hospital", "building": "yes", "description": "Специализирана болница по вътрешни болести за долекуване и продължително лечение.\nСанаториум Драгалевци\nСобственик: Васил Божков\nСъстояние: Запуснато\nЦена на придобиване: 1.06 млн. лв. 2016 от Столична община", "healthcare": "hospital", "name": "Бившa рехабилитационна база \"Драгалевци\"", "operator": "Васил Божков", "operator:type": "private"}}, {"name": "Аджибадем Сити Клиник УМБАЛ Младост", "latitude": 42.65521, "longitude": 23.3855704, "source": "osm", "_tags": {"addr:city": "София", "addr:housenumber": "66А", "addr:postcode": "1784", "addr:street": "бул. Цариградско шосе", "amenity": "hospital", "building": "office", "building:levels": "7", "contact:phone": "+359 700 13127", "healthcare": "hospital", "name": "Аджибадем Сити Клиник УМБАЛ Младост", "operator": "Acıbadem", "operator:type": "private", "operator:wikidata": "Q19610384", "website": "https://acibademcityclinic.bg/mladost/"}}, {"name": "", "latitude": 42.6671944, "longitude": 23.265272, "source": "osm", "_tags": {"addr:housenumber": "227", "addr:street": "бул. Цар Борис III", "amenity": "hospital", "building": "yes", "building:levels": "5", "healthcare": "hospital"}}, {"name": "здравна служба", "latitude": 43.3424337, "longitude": 23.8472046, "source": "osm", "_tags": {"addr:city": "Тлачене", "addr:housename": "здравна служба", "addr:housenumber": "1", "addr:street": "Васил Левски", "amenity": "hospital", "building": "yes", "name": "здравна служба"}}, {"name": "Аджибадем Сити Клиник УМБАЛ Ортопедия", "latitude": 42.6400443, "longitude": 23.3181043, "source": "osm", "_tags": {"addr:housenumber": "127", "addr:street": "Околовръстен път", "amenity": "hospital", "building": "yes", "check_date": "2025-05-27", "healthcare": "hospital", "name": "Аджибадем Сити Клиник УМБАЛ Ортопедия", "name:en": "Acibadem City Clinic Orthopaedic", "old_name": "Аджибадем Сити Клиник Сърдечно-съдов център", "old_name:en": "Acibadem City Clinic Cardivascular Center", "operator": "Acıbadem", "operator:type": "private", "operator:wikidata": "Q19610384", "website": "https://acibademcityclinic.bg/cardio/"}}, {"name": "Втора Многопрофилна Болница за Активно Лечение", "latitude": 42.7061114, "longitude": 23.3185894, "source": "osm", "_tags": {"addr:city": "София", "addr:housenumber": "120", "addr:postcode": "1202", "addr:street": "бул. Христо Ботев", "amenity": "hospital", "emergency": "no", "healthcare": "hospital", "name": "Втора Многопрофилна Болница за Активно Лечение", "name:bg": "Втора многопрофилна болница за активно лечение – София ЕАД", "name:en": "Second MBAL Sofia", "old_name": "Втора градска болница", "phone": "+359 2 931 4024", "website": "https://www.vtorambal.com/"}}, {"name": "Специализирана болница за активно лечение на онкологични заболявания „Проф. д-р Марин Мушмов“ ЕООД", "latitude": 42.6555953, "longitude": 23.3714957, "source": "osm", "_tags": {"addr:city": "София", "addr:housenumber": "22", "addr:postcode": "1784", "addr:street": "бул. Андрей Сахаров", "amenity": "hospital", "healthcare": "hospital", "name": "Специализирана болница за активно лечение на онкологични заболявания „Проф. д-р Марин Мушмов“ ЕООД", "name:bg": "Специализирана болница за активно лечение на онкологични заболявания „Проф. д-р Марин Мушмов“ ЕООД", "old_name:bg": "Онкологичен диспансер", "short_name": "СБАЛОЗ „Проф. д-р Марин Мушмов“", "source": "https://council.sofia.bg/documents/20182/767450/R.572.pdf/d9d2832f-c1ed-4c9f-83a5-481791a05e90"}}, {"name": "СДПЛР", "latitude": 42.5816064, "longitude": 23.425585, "source": "osm", "_tags": {"amenity": "hospital", "name": "СДПЛР"}}, {"name": "Болница \"Люлин\"", "latitude": 42.7083563, "longitude": 23.2492511, "source": "osm", "_tags": {"addr:housenumber": "81", "addr:street": "бул. Д-р Петър Дертлиев", "amenity": "hospital", "building": "hospital", "email": "registratura@lyulinhospital.com", "healthcare": "hospital", "name": "Болница \"Люлин\"", "name:en": "Lyulin Hospital", "phone": "+35928927400", "website": "https://lyulinhospital.com/"}}, {"name": "Санаториум за белодробни заболявания", "latitude": 43.1587176, "longitude": 23.9234043, "source": "osm", "_tags": {"amenity": "hospital", "healthcare": "hospital", "name": "Санаториум за белодробни заболявания"}}, {"name": "Спешна помощ", "latitude": 43.1597165, "longitude": 23.9220148, "source": "osm", "_tags": {"amenity": "hospital", "name": "Спешна помощ"}}, {"name": "Здравен център \"ОЛИМП\"", "latitude": 42.9614402, "longitude": 23.345082, "source": "osm", "_tags": {"amenity": "hospital", "name": "Здравен център \"ОЛИМП\""}}, {"name": "", "latitude": 43.1824021, "longitude": 23.2751213, "source": "osm", "_tags": {"amenity": "hospital"}}, {"name": "Медицински институт на МВР", "latitude": 42.6934745, "longitude": 23.3086991, "source": "osm", "_tags": {"addr:city": "София", "addr:housenumber": "79", "addr:postcode": "1606", "addr:street": "бул. Ген. Скобелев", "alt_name": "МВР Болница", "amenity": "hospital", "healthcare": "hospital", "name": "Медицински институт на МВР", "phone": "+359 2 982 1300", "website": "http://www.mi.mvr.bg"}}, {"name": "СБАЛ по ендокринология \"Акад. Ив. Пенчев\"", "latitude": 42.6966839, "longitude": 23.314659, "source": "osm", "_tags": {"amenity": "hospital", "building": "yes", "building:levels": "6", "healthcare": "hospital", "name": "СБАЛ по ендокринология \"Акад. Ив. Пенчев\""}}, {"name": "MБАЛНП “Св. Наум”", "latitude": 42.6671731, "longitude": 23.3622021, "source": "osm", "_tags": {"addr:housenumber": "1", "addr:postcode": "1113", "addr:street": "Д-р Любен Русев", "amenity": "hospital", "healthcare": "hospital", "name": "MБАЛНП “Св. Наум”", "name:en": "MHATNP \"St. Naum\"", "phone": "+359 2 970 2300", "website": "https://svnaum.com/", "wikidata": "Q12285494", "wikipedia": "bg:МБАЛНП „Свети Наум“"}}, {"name": "Софиямед", "latitude": 42.6671683, "longitude": 23.3639234, "source": "osm", "_tags": {"addr:city": "София", "addr:housenumber": "16", "addr:postcode": "1797", "addr:street": "бул. Д-р Г. М. Димитров", "amenity": "hospital", "emergency": "yes", "healthcare": "hospital", "name": "Софиямед", "phone": "+359 2 465 0000", "website": "https://www.hospitalsofiamed.bg/", "wikidata": "Q81625498", "wikipedia": "bg:УМБАЛ „Софиямед“"}}, {"name": "УМБАЛ \"Царица Йоанна\"", "latitude": 42.7009058, "longitude": 23.3397174, "source": "osm", "_tags": {"alt_name": "ИСУЛ", "amenity": "hospital", "healthcare": "hospital", "name": "УМБАЛ \"Царица Йоанна\"", "name:etymology:wikidata": "Q235168", "website": "https://isul.eu", "wikidata": "Q7270400", "wikipedia": "en:Queen Giovanna Hospital"}}, {"name": "Първа САГБАЛ \"Света София\"", "latitude": 42.6991107, "longitude": 23.2890954, "source": "osm", "_tags": {"addr:housenumber": "2", "addr:postcode": "1330", "addr:street": "Манолаки Ташев", "amenity": "hospital", "contact:phone": "+359 2 447 0200", "healthcare": "hospital", "name": "Първа САГБАЛ \"Света София\"", "website": "http://www.1agb.com/", "wheelchair": "limited", "wikidata": "Q12291796", "wikipedia": "bg:Първа акушеро-гинекологична болница „Света София“"}}, {"name": "Шеста обединена районна болница", "latitude": 42.6827457, "longitude": 23.2545281, "source": "osm", "_tags": {"amenity": "hospital", "healthcare": "hospital", "name": "Шеста обединена районна болница"}}, {"name": "МБАЛ Надежда", "latitude": 42.688802, "longitude": 23.2744877, "source": "osm", "_tags": {"addr:housenumber": "3", "addr:street": "Блага вест", "amenity": "hospital", "contact:instagram": "nadezhda.hospital", "contact:twitter": "nadejdahospital", "healthcare": "hospital", "name": "МБАЛ Надежда", "phone": "+359882193970;+35924417970", "source": "Bing 2012 (locally calibrated by GPS tracks)", "website": "https://nadezhdahospital.com/", "wikidata": "Q117954164", "wikipedia": "bg:МБАЛ „Надежда“"}}, {"name": "20-ти ДКЦ", "latitude": 42.6724308, "longitude": 23.2834638, "source": "osm", "_tags": {"addr:city": "София", "addr:housenumber": "15-17", "addr:street": "Ген. Стефан Тошев", "amenity": "hospital", "check_date": "2025-02-04", "contact:phone": "+359 2 855 3059", "emergency": "no", "healthcare": "hospital", "name": "20-ти ДКЦ", "official_name": "20-ти Диагностично консултативен център", "old_name": "20-та поликлиника", "opening_hours": "Mo-Fr 07:30-19:00", "website": "http://www.20dkc-sofia.org/"}}, {"name": "УМБАЛ „Св. Анна“", "latitude": 42.6603077, "longitude": 23.3719287, "source": "osm", "_tags": {"addr:city": "София", "addr:housenumber": "1", "addr:postcode": "1750", "addr:street": "Димитър Моллов", "alt_name": "Окръжна болница \"Св. Анна\"", "amenity": "hospital", "emergency": "yes", "healthcare": "hospital", "name": "УМБАЛ „Св. Анна“", "name:bg": "УМБАЛ „Св. Анна“", "name:en": "UMBAL „Sv. Anna“", "official_name": "Университетска многопрофилна болница за активно лечение „Света Анна“ - София АД", "phone": "+359 2 975 9329", "website": "https://www.sveta-anna.eu/", "wheelchair": "yes", "wikidata": "Q103851433", "wikipedia": "bg:УМБАЛ „Света Анна“"}}, {"name": "Национална специализирана болница за активно лечение по онкология", "latitude": 42.6601017, "longitude": 23.3605808, "source": "osm", "_tags": {"addr:housenumber": "6", "addr:street": "Пловдивско поле", "alt_name": "Университетска специализирана болница за активно лечение по онкология", "amenity": "hospital", "contact:phone": "+359 2 807 6299", "healthcare": "hospital", "name": "Национална специализирана болница за активно лечение по онкология", "name:en": "National Oncology Hospital", "short_name": "НСБАЛ по онкология", "surface": "asphalt", "website": "https://www.sbaloncology.bg/"}}, {"name": "Национална кардиологична болница", "latitude": 42.7058959, "longitude": 23.2877307, "source": "osm", "_tags": {"addr:city": "София", "addr:housenumber": "65", "addr:postcode": "1309", "addr:street": "Коньовица", "amenity": "hospital", "contact:phone": "+359 2 921 1211", "emergency": "yes", "healthcare": "hospital", "name": "Национална кардиологична болница", "short_name": "НКБ", "website": "https://hearthospital.bg/", "wheelchair": "yes", "wikidata": "Q25477235"}}, {"name": "Национален център по хематология и трансфузиология", "latitude": 42.7086016, "longitude": 23.3199953, "source": "osm", "_tags": {"addr:housenumber": "112", "addr:street": "Братя Миладинови", "amenity": "hospital", "contact:phone": "+359 2 921 0417", "healthcare": "hospital", "name": "Национален център по хематология и трансфузиология", "website": "https://ncth.bg/"}}, {"name": "Правителствен санаториум", "latitude": 42.6366532, "longitude": 23.1801744, "source": "osm", "_tags": {"abandoned": "yes", "amenity": "hospital", "building": "public", "emergency": "no", "healthcare": "hospital", "name": "Правителствен санаториум"}}, {"name": "Аджибадем Сити Клиник УМБАЛ Токуда", "latitude": 42.6647698, "longitude": 23.3251494, "source": "osm", "_tags": {"addr:housenumber": "51Б", "addr:postcode": "1407", "addr:street": "бул. Никола Й. Вапцаров", "amenity": "hospital", "emergency": "yes", "healthcare": "hospital", "name": "Аджибадем Сити Клиник УМБАЛ Токуда", "name:en": "Acibadem City Clinic Tokuda Hospital", "operator": "Acıbadem", "operator:type": "private", "operator:wikidata": "Q19610384", "website": "https://www.acibademcityclinic.bg/tokuda/", "wheelchair": "yes", "wikidata": "Q7813707", "wikipedia": "bg:Аджибадем Сити Клиник Болница Токуда"}}, {"name": "Държавна психиатрична болница за лечение на наркомании и алкохолизъм", "latitude": 42.6730292, "longitude": 23.185876, "source": "osm", "_tags": {"amenity": "hospital", "name": "Държавна психиатрична болница за лечение на наркомании и алкохолизъм", "wikidata": "Q114066158", "wikipedia": "bg:Държавна психиатрична болница за лечение на наркомании и алкохолизъм"}}, {"name": "Серумен институт", "latitude": 42.6749091, "longitude": 23.1939516, "source": "osm", "_tags": {"amenity": "hospital", "emergency": "no", "name": "Серумен институт"}}, {"name": "Рехабилитационна болница Ясен", "latitude": 42.7112258, "longitude": 23.1512113, "source": "osm", "_tags": {"amenity": "hospital", "name": "Рехабилитационна болница Ясен"}}, {"name": "МБАЛ-Монтана „Д-р Стамен Илиев\"", "latitude": 43.4034468, "longitude": 23.2355119, "source": "osm", "_tags": {"amenity": "hospital", "name": "МБАЛ-Монтана „Д-р Стамен Илиев\""}}, {"name": "29-ти ДКЦ", "latitude": 42.6646171, "longitude": 23.297114, "source": "osm", "_tags": {"addr:city": "София", "addr:housenumber": "8", "addr:postcode": "1404", "addr:street": "Георги Измирлиев", "amenity": "hospital", "check_date": "2025-08-12", "contact:phone": "+359 2 958 2448", "healthcare": "hospital", "name": "29-ти ДКЦ", "website": "http://www.29dkc.com/", "wheelchair": "limited"}}, {"name": "лекарски кабинет", "latitude": 42.6322199, "longitude": 23.6851538, "source": "osm", "_tags": {"addr:city": "Доганово", "amenity": "hospital", "healthcare": "hospital", "name": "лекарски кабинет"}}, {"name": "МБАЛ Елин Пелин", "latitude": 42.6640802, "longitude": 23.600622, "source": "osm", "_tags": {"addr:city": "Елин Пелин", "addr:housenumber": "15", "addr:postcode": "2100", "addr:street": "Здравец", "amenity": "hospital", "building": "hospital", "healthcare": "hospital", "name": "МБАЛ Елин Пелин", "phone": "+359 725 60 153;+359 725 60 154;+359 725 60 156", "website": "https://mbal-elinpelin.com/"}}, {"name": "СБДПЛР Бухово", "latitude": 42.7614906, "longitude": 23.5592381, "source": "osm", "_tags": {"amenity": "hospital", "name": "СБДПЛР Бухово"}}, {"name": "UniHospital", "latitude": 42.6522829, "longitude": 23.2878759, "source": "osm", "_tags": {"addr:city": "София", "addr:housenumber": "27", "addr:postcode": "1404", "addr:street": "Околовръстен път", "amenity": "hospital", "building": "hotel", "building:levels": "10", "check_date": "2025-08-23", "healthcare": "hospital", "name": "UniHospital"}}, {"name": "Държавна психиатрична болница \"Св. Иван Рилски\"", "latitude": 42.8274528, "longitude": 23.3688372, "source": "osm", "_tags": {"addr:housenumber": "140", "addr:street": "ул. Христо Ботев", "amenity": "hospital", "emergency": "no", "name": "Държавна психиатрична болница \"Св. Иван Рилски\""}}, {"name": "Санаториум \"Свети Мина\"", "latitude": 43.1875616, "longitude": 23.2835975, "source": "osm", "_tags": {"amenity": "hospital", "building": "yes", "name": "Санаториум \"Свети Мина\"", "wheelchair": "yes"}}, {"name": "25 ДКЦ", "latitude": 42.640506, "longitude": 23.3825686, "source": "osm", "_tags": {"addr:city": "София", "addr:housenumber": "20", "addr:street": "Свето Преображение", "addr:suburb": "ж.к. Младост 3", "amenity": "hospital", "healthcare": "hospital", "name": "25 ДКЦ", "wheelchair": "limited"}}, {"name": "МБАЛ \"Доверие\"", "latitude": 42.6848375, "longitude": 23.2461155, "source": "osm", "_tags": {"amenity": "hospital", "healthcare": "hospital", "name": "МБАЛ \"Доверие\"", "name:bg": "МБАЛ „Доверие“", "name:en": "МБАЛ \"Doverie\""}}, {"name": "МБАЛ Своге", "latitude": 42.9641814, "longitude": 23.3401603, "source": "osm", "_tags": {"addr:housenumber": "4", "addr:street": "Староселска", "amenity": "hospital", "building": "hospital", "healthcare": "hospital", "name": "МБАЛ Своге", "website": "https://www.mbal-svoge.com/"}}, {"name": "", "latitude": 42.7062873, "longitude": 23.3335467, "source": "osm", "_tags": {"addr:city": "София", "addr:housenumber": "309", "addr:postcode": "1202", "addr:street": "бул. Сливница", "amenity": "hospital", "healthcare": "hospital"}}, {"name": "", "latitude": 42.9079995, "longitude": 23.8018817, "source": "osm", "_tags": {"amenity": "hospital", "healthcare": "hospital"}}, {"name": "Университетска детска клиника по белодробни болести", "latitude": 42.6698047, "longitude": 23.2533878, "source": "osm", "_tags": {"amenity": "hospital", "healthcare": "hospital", "name": "Университетска детска клиника по белодробни болести"}}, {"name": "СБДПЛР Сливница", "latitude": 42.8532725, "longitude": 23.0331522, "source": "osm", "_tags": {"addr:city": "Сливница", "amenity": "hospital", "healthcare": "hospital", "name": "СБДПЛР Сливница"}}, {"name": "Детско-юношеска психиатрична клиника", "latitude": 42.659875, "longitude": 23.255011, "source": "osm", "_tags": {"amenity": "hospital", "healthcare": "hospital", "name": "Детско-юношеска психиатрична клиника"}}, {"name": "Болница Рахила Ангелова", "latitude": 42.6112317, "longitude": 23.0363262, "source": "osm", "_tags": {"amenity": "hospital", "emergency": "yes", "name": "Болница Рахила Ангелова"}}, {"name": "МБАЛ", "latitude": 42.543791, "longitude": 22.9602157, "source": "osm", "_tags": {"amenity": "hospital", "name": "МБАЛ"}}, {"name": "", "latitude": 42.9857819, "longitude": 23.2764426, "source": "osm", "_tags": {"amenity": "hospital", "healthcare": "hospital"}}, {"name": "Скин системс", "latitude": 42.6321804, "longitude": 23.6890482, "source": "osm", "_tags": {"addr:city": "Доганово", "addr:housenumber": "32", "addr:street": "1-ва", "amenity": "hospital", "healthcare": "hospital", "name": "Скин системс"}}, {"name": "МБАЛ „Христо Ботев\"", "latitude": 43.1962482, "longitude": 23.5586046, "source": "osm", "_tags": {"addr:city": "Враца", "addr:country": "BG", "addr:housenumber": "66", "addr:postcode": "3001", "addr:street": "бул. Втори юни", "amenity": "hospital", "ele": "2", "email": "mbal_vratsa@mbalvratsa.org", "emergency": "yes", "fax": "+359 92 923 072", "healthcare": "hospital", "healthcare:speciality": "general;emergency;intesive_care;cardiovascular_disease", "name": "МБАЛ „Христо Ботев\"", "name:en": "MBAL Hristo Botev", "operator:type": "public", "parking": "yes", "phone": "+359 92 923 039", "source_type_GPS": "40.196495 23.558492", "start_date": "1888-09", "website": "https://www.mbalvratsa.org", "wheelchair": "yes"}}, {"name": "УБ \"Майчин дом\"", "latitude": 42.6834695, "longitude": 23.3119898, "source": "osm", "_tags": {"amenity": "hospital", "healthcare": "hospital", "name": "УБ \"Майчин дом\"", "wikidata": "Q104004205", "wikipedia": "bg:УАГБ „Майчин дом“"}}, {"name": "Болница Вита", "latitude": 42.6562873, "longitude": 23.3205444, "source": "osm", "_tags": {"addr:city": "София", "addr:housenumber": "10", "addr:street": "Филип Кутев", "amenity": "hospital", "branch": "База 2", "contact:phone": "+359 2 452 2000", "healthcare": "hospital", "healthcare:speciality": "surgery;laparascopic;urology;orthopaedics;anaesthetics;gynaecology;diagnostic_radiology", "name": "Болница Вита", "name:en": "Vita Hospital", "website": "https://vita.bg/", "wikidata": "Q124646567", "wikipedia": "bg:МБАЛ „Вита“"}}, {"name": "Дом за възрастни с умствена изостаналост", "latitude": 42.8147228, "longitude": 23.4091476, "source": "osm", "_tags": {"amenity": "hospital", "healthcare": "hospital", "healthcare:speciality": "psychiatry", "name": "Дом за възрастни с умствена изостаналост"}}, {"name": "МБАЛ Мездра", "latitude": 43.1479598, "longitude": 23.7089518, "source": "osm", "_tags": {"amenity": "hospital", "healthcare": "hospital", "name": "МБАЛ Мездра"}}, {"name": "", "latitude": 43.2356374, "longitude": 23.13525, "source": "osm", "_tags": {"amenity": "hospital", "healthcare": "hospital"}}, {"name": "Първа Частна МБАЛ-Враца", "latitude": 43.1966465, "longitude": 23.5625948, "source": "osm", "_tags": {"addr:city": "Враца", "addr:country": "BG", "addr:housenumber": "6", "addr:neighbourhood": "кв. Медковец", "addr:street": "Скакля", "amenity": "hospital", "building": "yes", "healthcare": "hospital", "healthcare:speciality": "orthopaedics;traumatology", "name": "Първа Частна МБАЛ-Враца", "opening_hours": "Mo-Fr 07:00-17:00", "phone": "+359 92 663 434", "source_type_GPS": "43.196796 23.562702", "website": "https://orthopedic-clinic-vr.com", "wheelchair": "yes"}}, {"name": "Специализирана болница за активно лечение на пневмо-фтизиатрични заболявания - Враца ЕООД", "latitude": 43.1984422, "longitude": 23.5626658, "source": "osm", "_tags": {"amenity": "hospital", "healthcare": "hospital", "name": "Специализирана болница за активно лечение на пневмо-фтизиатрични заболявания - Враца ЕООД"}}, {"name": "МБАЛ \"Сити Клиник Св. Георги\"", "latitude": 43.4017724, "longitude": 23.2388202, "source": "osm", "_tags": {"amenity": "hospital", "building": "yes", "healthcare": "hospital", "name": "МБАЛ \"Сити Клиник Св. Георги\""}}, {"name": "Многопрофилна болница по нервни болести \"Свети Георги\"", "latitude": 43.4017814, "longitude": 23.239308, "source": "osm", "_tags": {"amenity": "hospital", "building": "yes", "healthcare": "hospital", "name": "Многопрофилна болница по нервни болести \"Свети Георги\""}}, {"name": "ДКЦ Софиямед - Люлин", "latitude": 42.7142997, "longitude": 23.2570858, "source": "osm", "_tags": {"addr:city": "София", "addr:housenumber": "23", "addr:postcode": "1336", "addr:street": "бул. Джавахарлал Неру", "amenity": "hospital", "building": "hospital", "building:levels": "4", "email": "dkcsofiamed2@bulpharma.bg", "emergency": "no", "healthcare": "hospital", "healthcare:speciality": "gynaecology;gastroenterology;endocrinology;obstetrics;pediatrics;cardiology;dermatology;dermatovenereology;oncology;neurology;nephrology;orthopaedics;pulmonology;Otorhnolaryngology;urology;surgery;rheumatology;general", "name": "ДКЦ Софиямед - Люлин", "name:en": "DCC Sofiamed - Lylin", "operator": "Софиямед", "operator:type": "private", "phone": "+359 2 465 0003", "start_date": "2019-05-22", "website": "https://www.hospitalsofiamed.bg/%D0%97%D0%B0-%D0%BD%D0%B0%D1%81/%D0%94%D0%9A%D0%A6--%D0%A1%D0%BE%D1%84%D0%B8%D1%8F%D0%BC%D0%B5%D0%B4----%D0%9B%D1%8E%D0%BB%D0%B8%D0%BD/p36", "wheelchair": "yes"}}, {"name": "Specialized private eye clinic for active treatment Ralchovski EOOD", "latitude": 43.1955237, "longitude": 23.5621729, "source": "osm", "_tags": {"addr:city": "Враца", "addr:country": "BG", "addr:housenumber": "2 A", "addr:neighbourhood": "ж.к. Вежен", "addr:postcode": "3000", "addr:street": "Вежен", "amenity": "hospital", "description": "Specialized private eye clinic for active treatment Ralchovski EOOD", "ele": "1", "healthcare": "hospital", "name": "Specialized private eye clinic for active treatment Ralchovski EOOD", "note": "Dr. Ivo Kirilov Ralchovski - Specialist in Human diseases and Eye diseases.", "operator": "Dr. Ivo Kirilov Ralchovski", "parking": "yes", "phone": "+359 92 623 204", "smoking": "no", "source_type_GPS": "43.195696 23.562709", "website": "https://www.rating.hapche.bg/rating/bolnitsi/71/spetsializirana_ochna_bolnitsa_za_aktivno_lechenie_-_ralchovski_eood", "wheelchair": "yes"}}, {"name": "Дом за възрастни хора с психични разтройства", "latitude": 43.0968292, "longitude": 23.4216315, "source": "osm", "_tags": {"amenity": "hospital", "healthcare": "hospital", "name": "Дом за възрастни хора с психични разтройства"}}, {"name": "МБАЛ \"Света София\"", "latitude": 42.6594472, "longitude": 23.2842456, "source": "osm", "_tags": {"addr:city": "София", "addr:housenumber": "104", "addr:postcode": "1618", "addr:street": "бул. България", "amenity": "hospital", "building": "hospital", "building:levels": "8", "check_date": "2023-07-28", "healthcare": "hospital", "healthcare:speciality": "general", "internet_access": "no", "name": "МБАЛ \"Света София\"", "operator": "ДКЦ-Света София ЕООД", "operator:type": "private", "payment:mastercard": "yes", "payment:visa": "yes", "website": "https://www.mbal-sofia.com/", "wheelchair": "yes"}}, {"name": "Първа УМБАЛ \"Св. Йоан Кръстител\"", "latitude": 42.6882934, "longitude": 23.3225577, "source": "osm", "_tags": {"addr:city": "София", "addr:country": "BG", "addr:housenumber": "37", "addr:street": "бул. Патриарх Евтимий", "alt_name": "Първа градска болница", "amenity": "hospital", "check_date": "2025-09-16", "healthcare": "hospital", "name": "Първа УМБАЛ \"Св. Йоан Кръстител\"", "name:etymology:wikidata": "Q40662", "phone": "+359 2 805 9205", "website": "http://www.1mbal.com/", "wheelchair": "yes"}}, {"name": "МБАЛ Ихтиман", "latitude": 42.4336109, "longitude": 23.8249565, "source": "osm", "_tags": {"addr:housenumber": "30", "addr:street": "Шипка", "amenity": "hospital", "emergency": "yes", "healthcare": "hospital", "healthcare:speciality": "general;internal;neurology;cardiology;paediatrics;gynaecology;surgery;clinic", "name": "МБАЛ Ихтиман", "website": "https://www.mbalihtiman.com"}}, {"name": "Многопрофилна болница за долекуване, продължително лечение и рехабилитация - \"Профилакториум\"", "latitude": 42.5915628, "longitude": 23.030284, "source": "osm", "_tags": {"addr:city": "Перник", "addr:housenumber": "102", "addr:street": "Протожерица", "amenity": "hospital", "building": "hospital", "healthcare": "hospital", "name": "Многопрофилна болница за долекуване, продължително лечение и рехабилитация - \"Профилакториум\""}}, {"name": "Витоша СБАЛ по ортопедия и травматология", "latitude": 42.6423205, "longitude": 23.334234, "source": "osm", "_tags": {"amenity": "hospital", "check_date": "2022-11-27", "emergency": "yes", "healthcare": "hospital", "healthcare:speciality": "orthodontics;general", "name": "Витоша СБАЛ по ортопедия и травматология", "operator:type": "private", "wikidata": "Q12289355", "wikipedia": "bg:Ортопедична болница „Витоша“"}}, {"name": "УМБАЛ \"Александровска\"", "latitude": 42.6841803, "longitude": 23.309963, "source": "osm", "_tags": {"amenity": "hospital", "healthcare": "hospital", "name": "УМБАЛ \"Александровска\"", "operator": "УМБАЛ \"Александровска\" ЕАД", "website": "https://alexandrovska.com/", "wikidata": "Q3401296", "wikipedia": "en:Aleksandrovska University Hospital"}}, {"name": "САГБАЛ Репродуктивно Здраве \"Д-р Щерев\"", "latitude": 42.7000688, "longitude": 23.2876135, "source": "osm", "_tags": {"amenity": "hospital", "healthcare": "hospital", "name": "САГБАЛ Репродуктивно Здраве \"Д-р Щерев\""}}, {"name": "МБАЛ „Княгиня Клементина“ - София ЕАД", "latitude": 42.7131429, "longitude": 23.3120971, "source": "osm", "_tags": {"addr:city": "София", "addr:housenumber": "67А", "addr:postcode": "1233", "addr:street": "бул. Ген. Столетов", "amenity": "hospital", "emergency": "yes", "healthcare": "hospital", "int_name": "MBAL „Knyaginya Klementina“", "name": "МБАЛ „Княгиня Клементина“ - София ЕАД", "name:bg": "МБАЛ „Княгиня Клементина“", "official_name": "Многопрофилна болница за активно лечение „Княгиня Клементина” – София EАД", "old_alt_name": "V-та МБАЛ", "old_name": "Пета МБАЛ София", "old_name:bg": "5-та МБАЛ", "old_website": "http://www.5mbal-sofia.com/", "source": "https://council.sofia.bg/documents/20182/940898/R.145.pdf/c218cce7-195e-43b2-9b2e-d3968af149de", "website": "https://mbalklementina.com/"}}, {"name": "СБАЛ на инфекциозни и паразитни болести \"Проф. Иван Киров\"", "latitude": 42.6813018, "longitude": 23.3030704, "source": "osm", "_tags": {"addr:city": "София", "addr:housenumber": "17", "addr:postcode": "1431", "addr:street": "бул. Акад. Иван Евстратиев Гешов", "amenity": "hospital", "email": "sbalipb@abv.bg", "healthcare": "hospital", "healthcare:speciality": "infectious_diseases", "name": "СБАЛ на инфекциозни и паразитни болести \"Проф. Иван Киров\"", "name:etymology:wikidata": "Q12281263", "phone": "+359 2 90 23 700", "website": "https://neu.sbalipb.bg/"}}, {"name": "Медицински център", "latitude": 42.762959, "longitude": 23.2029105, "source": "osm", "_tags": {"amenity": "hospital", "healthcare": "hospital", "name": "Медицински център"}}, {"name": "Хоспис Блокс и Драгалевци вилидж", "latitude": 42.6377452, "longitude": 23.316971, "source": "osm", "_tags": {"addr:city": "София", "addr:housenumber": "3", "addr:postcode": "1415", "addr:street": "Константин Помянов", "amenity": "hospital", "healthcare": "hospital", "name": "Хоспис Блокс и Драгалевци вилидж", "name:bg": "Хоспис Блокс и Драгалевци вилидж", "name:en": "Hospice Blocks & Dragalevtsi Village", "source": "https://gradat.bg/content/blocks-otkriva-nay-modernata-bolnica-za-rehabilitaciya-v-yugoiztochna-evropa"}}, {"name": "", "latitude": 42.6961004, "longitude": 23.3388546, "source": "osm", "_tags": {"amenity": "hospital", "healthcare": "hospital"}}, {"name": "Аджибадем Сити Клиник УМБАЛ Витоша", "latitude": 42.6385359, "longitude": 23.3174425, "source": "osm", "_tags": {"amenity": "hospital", "healthcare": "hospital", "name": "Аджибадем Сити Клиник УМБАЛ Витоша", "name:en": "Acibadem City Clinic Vitosha", "operator": "Acıbadem", "operator:type": "private", "operator:wikidata": "Q19610384", "website": "https://acibademcityclinic.bg/cardio/"}}, {"name": "5-ти ДКЦ - студентска поликлиника", "latitude": 42.6526237, "longitude": 23.34655, "source": "osm", "_tags": {"amenity": "hospital", "building": "yes", "building:levels": "4", "emergency": "no", "healthcare": "hospital", "name": "5-ти ДКЦ - студентска поликлиника", "type": "multipolygon"}}, {"name": "Военномедицинска академия", "latitude": 42.6841192, "longitude": 23.3044396, "source": "osm", "_tags": {"addr:city": "София", "addr:housenumber": "3", "addr:postcode": "1606", "addr:street": "Св. Георги Софийски", "amenity": "hospital", "building": "hospital", "email": "vma@vma.bg", "emergency": "yes", "healthcare": "hospital", "name": "Военномедицинска академия", "name:bg": "Военномедицинска академия", "name:de": "Militärmedizinische Akademie", "name:en": "Military Medical Academy", "old_name": "Висш военномедицински институт", "opening_hours": "24/7", "phone": "+359 2 922 6000", "short_name": "ВМА;ВВМА", "short_name:de": "MMA", "start_date": "1891-12-01", "type": "multipolygon", "website": "https://www.vma.bg/", "wikidata": "Q99316744", "wikipedia": "bg:Военна болница (София)"}}, {"name": "", "latitude": 42.710111, "longitude": 23.1522705, "source": "osm", "_tags": {"amenity": "hospital", "building": "hospital", "type": "multipolygon"}}, {"name": "МБАЛ", "latitude": 42.9079535, "longitude": 23.8012576, "source": "osm", "_tags": {"addr:city": "Ботевград", "addr:housenumber": "1", "addr:street": "Божко Божилов", "amenity": "hospital", "building": "yes", "healthcare": "hospital", "name": "МБАЛ", "type": "multipolygon"}}, {"name": "7-ми ДКЦ", "latitude": 42.7123056, "longitude": 23.3158552, "source": "osm", "_tags": {"addr:housenumber": "191", "addr:street": "бул. Княгиня Мария Луиза", "amenity": "hospital", "building": "hospital", "emergency": "no", "healthcare": "hospital", "name": "7-ми ДКЦ", "opening_hours": "Mo-Fr 07:30-19:30", "type": "multipolygon"}}, {"name": "Болница Лозенец", "latitude": 42.6637697, "longitude": 23.3110717, "source": "osm", "_tags": {"addr:city": "София", "addr:housenumber": "1", "addr:postcode": "1407", "addr:street": "Козяк", "amenity": "hospital", "check_date": "2024-03-13", "email": "patients@lozenetz-hospital.bg", "healthcare": "hospital", "name": "Болница Лозенец", "name:bg": "Университетска болница „Лозенец“", "name:en": "Lozenets University Hospital", "opening_hours": "24/7", "operator": "МБАЛ Лозенец ЕАД", "phone": "+35970070085;+35929607682", "type": "multipolygon", "website": "https://www.lozenetz-hospital.bg/", "wikidata": "Q12297238", "wikipedia": "en:Lozenetz Hospital"}}]