[{"name": "QKMF Kamenica", "latitude": 42.5763475, "longitude": 21.580115, "source": "osm", "_tags": {"amenity": "hospital", "healthcare": "yes", "name": "QKMF Kamenica"}}, {"name": "Klinika Kirurgjike", "latitude": 42.6443638, "longitude": 21.1623712, "source": "osm", "_tags": {"amenity": "hospital", "healthcare": "hospital", "name": "Klinika Kirurgjike"}}, {"name": "Poliklinika GALAXY", "latitude": 42.653818, "longitude": 21.1517616, "source": "osm", "_tags": {"amenity": "hospital", "healthcare": "hospital", "name": "Poliklinika GALAXY"}}, {"name": "SPEBO medical", "latitude": 42.9922412, "longitude": 21.9346615, "source": "osm", "_tags": {"amenity": "hospital", "description": "fertility clinic", "healthcare": "hospital", "name": "SPEBO medical"}}, {"name": "Qendra e Mjekësisë Familjare \"28 Nëntori\"", "latitude": 42.467702, "longitude": 21.4672144, "source": "osm", "_tags": {"amenity": "hospital", "emergency": "yes", "healthcare": "centre", "name": "Qendra e Mjekësisë Familjare \"28 Nëntori\""}}, {"name": "QMF \"Dheu i Bardhë\"", "latitude": 42.4726819, "longitude": 21.4674629, "source": "osm", "_tags": {"amenity": "hospital", "emergency": "yes", "healthcare": "hospital", "name": "QMF \"Dheu i Bardhë\""}}, {"name": "Qendra e Mjekësisë Familjare", "latitude": 42.6675075, "longitude": 21.1674253, "source": "osm", "_tags": {"amenity": "hospital", "healthcare": "hospital", "name": "Qendra e Mjekësisë Familjare"}}, {"name": "Qendra e Mjekësisë Familjare", "latitude": 42.6705506, "longitude": 21.165047, "source": "osm", "_tags": {"amenity": "hospital", "healthcare": "hospital", "name": "Qendra e Mjekësisë Familjare"}}, {"name": "Instituti Kombëtar i Shëndetësisë Publike", "latitude": 42.6455482, "longitude": 21.1594896, "source": "osm", "_tags": {"alt_name": "IKSHPK", "amenity": "hospital", "healthcare": "hospital", "name": "Instituti Kombëtar i Shëndetësisë Publike"}}, {"name": "Fakulteti i Mjeksise - Institutet A", "latitude": 42.6462858, "longitude": 21.160886, "source": "osm", "_tags": {"amenity": "hospital", "healthcare": "hospital", "name": "Fakulteti i Mjeksise - Institutet A", "note": "19-FEB-13 7:48:38AM"}}, {"name": "Fakulteti i Mjeksise - Institutet B", "latitude": 42.6464288, "longitude": 21.159779, "source": "osm", "_tags": {"amenity": "hospital", "healthcare": "hospital", "name": "Fakulteti i Mjeksise - Institutet B", "note": "19-FEB-13 7:50:11AM"}}, {"name": "Fakulteti i Stomatologjise/Klinika e Stomatologjise", "latitude": 42.6458399, "longitude": 21.1617977, "source": "osm", "_tags": {"amenity": "hospital", "healthcare": "hospital", "name": "Fakulteti i Stomatologjise/Klinika e Stomatologjise", "note": "19-FEB-13 7:47:24AM"}}, {"name": "Klinika Interne", "latitude": 42.6448343, "longitude": 21.1620038, "source": "osm", "_tags": {"amenity": "hospital", "healthcare": "hospital", "name": "Klinika Interne", "note": "19-FEB-13 7:43:24AM"}}, {"name": "Klinika Psikiatrike 2(e vjeter)", "latitude": 42.6432019, "longitude": 21.1600412, "source": "osm", "_tags": {"amenity": "hospital", "healthcare": "hospital", "name": "Klinika Psikiatrike 2(e vjeter)", "note": "19-FEB-13 8:02:42AM"}}, {"name": "Klinika e Kirurgjise", "latitude": 42.6444757, "longitude": 21.1634351, "source": "osm", "_tags": {"amenity": "hospital", "healthcare": "hospital", "name": "Klinika e Kirurgjise", "note": "19-FEB-13 8:13:10AM"}}, {"name": "Klinika e Neurologjisë", "latitude": 42.6431303, "longitude": 21.1605899, "source": "osm", "_tags": {"amenity": "hospital", "healthcare": "hospital", "name": "Klinika e Neurologjisë", "note": "19-FEB-13 8:03:27AM"}}, {"name": "Klinika e Syve", "latitude": 42.6445863, "longitude": 21.1624228, "source": "osm", "_tags": {"amenity": "hospital", "healthcare": "hospital", "name": "Klinika e Syve", "note": "19-FEB-13 7:41:52AM"}}, {"name": "Klinika per Vesh,Fyt dhe Hunde", "latitude": 42.6445371, "longitude": 21.1631697, "source": "osm", "_tags": {"amenity": "hospital", "healthcare": "hospital", "name": "Klinika per Vesh,Fyt dhe Hunde", "note": "19-FEB-13 7:40:56AM"}}, {"name": "Qendra Obstetrike dhe Gjinekologjike", "latitude": 42.6445032, "longitude": 21.1642204, "source": "osm", "_tags": {"amenity": "hospital", "healthcare": "hospital", "name": "Qendra Obstetrike dhe Gjinekologjike", "note": "19-FEB-13 8:13:52AM"}}, {"name": "Fizioterapi", "latitude": 42.644001, "longitude": 21.1637001, "source": "osm", "_tags": {"amenity": "hospital", "healthcare": "hospital", "name": "Fizioterapi", "note": "19-FEB-13 7:50:34AM"}}, {"name": "Klinika e kirurgjise se femijeve", "latitude": 42.6441263, "longitude": 21.1636073, "source": "osm", "_tags": {"amenity": "hospital", "healthcare": "hospital", "name": "Klinika e kirurgjise se femijeve", "note": "19-FEB-13 7:49:02AM"}}, {"name": "Pediatria", "latitude": 42.6455841, "longitude": 21.164381, "source": "osm", "_tags": {"amenity": "hospital", "building": "hospital", "healthcare": "hospital", "name": "Pediatria", "note": "19-FEB-13 7:45:57AM"}}, {"name": "014", "latitude": 42.645874, "longitude": 21.1650448, "source": "osm", "_tags": {"amenity": "hospital", "healthcare": "hospital", "name": "014", "note": "19-FEB-13 7:43:20AM"}}, {"name": "Sheik Zahid", "latitude": 42.8247336, "longitude": 20.9644824, "source": "osm", "_tags": {"amenity": "hospital", "emergency": "yes", "name": "Sheik Zahid", "name:en": "Sheikh Zayed Hospital", "name:sq": "Spitali Sheikh Zayed"}}, {"name": "", "latitude": 42.5931089, "longitude": 21.1391561, "source": "osm", "_tags": {"addr:city": "Llapnasellë", "amenity": "hospital"}}, {"name": "Ambulanca", "latitude": 42.5675057, "longitude": 21.0737957, "source": "osm", "_tags": {"amenity": "hospital", "name": "Ambulanca", "name:sr": "Амбуланта"}}, {"name": "Хипократ дом здравља", "latitude": 43.3197444, "longitude": 21.9032913, "source": "osm", "_tags": {"amenity": "hospital", "healthcare": "hospital", "int_name": "Hipokrat dom zdravlja", "name": "Хипократ дом здравља"}}, {"name": "Qendra e Mjkesise Familjare IV", "latitude": 42.6503486, "longitude": 21.1713496, "source": "osm", "_tags": {"addr:postcode": "10000", "amenity": "hospital", "healthcare": "hospital", "name": "Qendra e Mjkesise Familjare IV"}}, {"name": "Klinika Amerikane - Dr Behar Kusari", "latitude": 42.6207507, "longitude": 21.1445445, "source": "osm", "_tags": {"amenity": "hospital", "internet_access": "wlan", "name": "Klinika Amerikane - Dr Behar Kusari", "name:en": "American Clinic - Dr Behar Kusari", "name:sq": "Klinika Amerikane - Dr Behar Kusari"}}, {"name": "Qendra e Mjeksise Familjare Sllatinë", "latitude": 42.5992204, "longitude": 21.0208851, "source": "osm", "_tags": {"addr:street": "R-120", "amenity": "hospital", "name": "Qendra e Mjeksise Familjare Sllatinë", "name:sq": "Qendra e Mjeksise Familjare Sllatinë"}}, {"name": "Специјална болница за психијатријске болести „Горња Топоница”", "latitude": 43.3981558, "longitude": 21.804024, "source": "osm", "_tags": {"addr:city": "Горња Топоница", "addr:country": "RS", "addr:housenumber": "39", "addr:postcode": "18202", "addr:street": "Горња Топоница", "amenity": "hospital", "email": "sekretarica@spbtoponica.rs", "fax": "+381184601699", "healthcare": "hospital", "int_name": "Specijalna bolnica za psihijatrijske bolesti „Gornja Toponica”", "name": "Специјална болница за психијатријске болести „Горња Топоница”", "name:sr": "Специјална болница за психијатријске болести „Горња Топоница”", "name:sr-Latn": "Specijalna psihijatrijska bolnica Gornja Toponica", "operator:type": "government", "website": "https://spbtoponica.rs/"}}, {"name": "QKMF Vushtri", "latitude": 42.8185689, "longitude": 20.9781495, "source": "osm", "_tags": {"amenity": "hospital", "name": "QKMF Vushtri", "name:sq": "QKMF Vushtri"}}, {"name": "Emergjenca", "latitude": 42.4580966, "longitude": 21.4629153, "source": "osm", "_tags": {"addr:postcode": "60010", "addr:street": "Rruga e Spitalit", "amenity": "hospital", "healthcare": "hospital", "internet_access": "wlan", "name": "Emergjenca", "name:en": "Emergency", "opening_hours": "24/7", "phone": "194", "website": "http://shskuk.org/spitali-i-pergjithshem-ne-gjilan/"}}, {"name": "Otrila Hospital", "latitude": 42.6094499, "longitude": 21.1358487, "source": "osm", "_tags": {"addr:city": "Çagllavicë", "addr:housenumber": "10", "addr:postcode": "10000", "addr:street": "Nebih Meha", "amenity": "hospital", "email": "spitaliotrila@outlook.com", "internet_access": "wlan", "name": "Otrila Hospital", "name:en": "Otrila", "name:sq": "Otrila", "opening_hours": "24/7", "phone": "+38344656363", "website": "http://www.spitaliotrila.com/"}}, {"name": "Qendra e Mjeksis Familjare Bare", "latitude": 42.9518026, "longitude": 20.9655488, "source": "osm", "_tags": {"amenity": "hospital", "name": "Qendra e Mjeksis Familjare Bare", "name:en": "Primary Hospital Center"}}, {"name": "Klinika AURA", "latitude": 42.6435674, "longitude": 21.1552789, "source": "osm", "_tags": {"addr:street": "Rruga Kalabria", "amenity": "hospital", "healthcare": "hospital", "name": "Klinika AURA"}}, {"name": "Spitali Amerikan Prishtine", "latitude": 42.6425643, "longitude": 21.1579683, "source": "osm", "_tags": {"addr:city": "Prishtina", "addr:postcode": "10000", "addr:street": "Shkupi", "amenity": "hospital", "emergency": "yes", "healthcare": "hospital", "healthcare:speciality": "general;gynaecology;otolaryngology", "name": "Spitali Amerikan Prishtine"}}, {"name": "Spitali Rajonal Graqanicë", "latitude": 42.5836695, "longitude": 21.2081857, "source": "osm", "_tags": {"addr:postcode": "10500", "addr:street": "Shashkovac", "amenity": "hospital", "name": "Spitali Rajonal Graqanicë", "name:sq": "Spitali Rajonal Graqanicë"}}, {"name": "Millenium Hospital", "latitude": 42.589907, "longitude": 21.1291379, "source": "osm", "_tags": {"amenity": "hospital", "internet_access": "wlan", "name": "Millenium Hospital"}}, {"name": "Spitali Aloka", "latitude": 42.6294691, "longitude": 21.1489558, "source": "osm", "_tags": {"amenity": "hospital", "contact:phone": "+383 44 930 330", "healthcare": "hospital", "name": "Spitali Aloka", "opening_hours": "24/7", "website": "https://www.spitalialoka.com/"}}, {"name": "Spitali Lindja", "latitude": 42.6290464, "longitude": 21.1565998, "source": "osm", "_tags": {"addr:postcode": "10000", "addr:street": "Mehmet Gjevori , Prishtinë 10000", "amenity": "hospital", "contact:phone": "+38344280787", "contact:website": "http://www.spitalilindja.com", "healthcare": "hospital", "name": "Spitali Lindja"}}, {"name": "American Hospital", "latitude": 42.6561315, "longitude": 21.1564376, "source": "osm", "_tags": {"addr:city": "Prishtinë", "addr:housenumber": "28", "addr:postcode": "10000", "addr:street": "Nazmi Mustafa", "amenity": "hospital", "healthcare": "hospital", "name": "American Hospital"}}, {"name": "Klinika Infektive", "latitude": 42.644702, "longitude": 21.1611097, "source": "osm", "_tags": {"amenity": "hospital", "healthcare": "hospital", "name": "Klinika Infektive", "name:en": "Infectious Clinic"}}, {"name": "Klinika Emergjente", "latitude": 42.6452032, "longitude": 21.1620699, "source": "osm", "_tags": {"amenity": "hospital", "healthcare": "hospital", "name": "Klinika Emergjente", "name:en": "Emergency Clinic"}}, {"name": "Dom zdravlja Donja Gusterica", "latitude": 42.5449135, "longitude": 21.1782112, "source": "osm", "_tags": {"addr:city": "Donja Gušterica", "addr:street": "Majke Jevrosime", "amenity": "hospital", "emergency": "yes", "healthcare": "hospital", "healthcare:speciality": "general", "name": "Dom zdravlja Donja Gusterica"}}, {"name": "Shtepia e shendetit Kolovice", "latitude": 42.6789166, "longitude": 21.1787227, "source": "osm", "_tags": {"amenity": "hospital", "name": "Shtepia e shendetit Kolovice", "name:sq": "Shtepia e shendetit - Kolovice"}}, {"name": "Spitali i Qytetit", "latitude": 42.9086059, "longitude": 21.1946172, "source": "osm", "_tags": {"addr:city": "Podujevë", "addr:postcode": "11000", "addr:street": "Bahri Fazliu", "amenity": "hospital", "healthcare": "hospital", "name": "Spitali i Qytetit"}}, {"name": "Qendra Kryesore e Mjekesise Familjare", "latitude": 42.9088589, "longitude": 21.1954354, "source": "osm", "_tags": {"amenity": "hospital", "healthcare": "hospital", "name": "Qendra Kryesore e Mjekesise Familjare"}}, {"name": "Qendra e Emergjences", "latitude": 42.9086398, "longitude": 21.1955375, "source": "osm", "_tags": {"amenity": "hospital", "healthcare": "hospital", "name": "Qendra e Emergjences"}}, {"name": "", "latitude": 42.9185016, "longitude": 21.1956977, "source": "osm", "_tags": {"amenity": "hospital", "healthcare": "hospital"}}, {"name": "QMF- Qender e Mjeksisë Familjare", "latitude": 42.6069214, "longitude": 21.0164466, "source": "osm", "_tags": {"addr:city": "Sllatinë e Madhe", "addr:housenumber": "23", "addr:street": "Elena Gjika", "amenity": "hospital", "healthcare": "doctor", "healthcare:speciality": "general", "name": "QMF- Qender e Mjeksisë Familjare"}}, {"name": "AMF- Ambulancë e Mjeksisë Familjare", "latitude": 42.4461358, "longitude": 21.1981179, "source": "osm", "_tags": {"addr:city": "Mirash i Ri", "addr:housenumber": "17", "addr:street": "Afërdita", "amenity": "hospital", "healthcare": "hospital", "healthcare:speciality": "general", "name": "AMF- Ambulancë e Mjeksisë Familjare"}}, {"name": "AMF- Ambulancë e Mjeksisë Familjare", "latitude": 42.9419406, "longitude": 21.1389442, "source": "osm", "_tags": {"addr:city": "Gramqeli", "addr:housenumber": "12", "addr:street": "Antika", "amenity": "hospital", "healthcare": "doctor", "healthcare:speciality": "general", "name": "AMF- Ambulancë e Mjeksisë Familjare"}}, {"name": "AMF- Ambulancë e Mjeksisë Familjare", "latitude": 42.6024886, "longitude": 21.6661778, "source": "osm", "_tags": {"addr:city": "Kamenicë", "addr:housenumber": "111", "addr:street": "Hasan Jashari", "amenity": "hospital", "emergency": "no", "healthcare": "hospital", "healthcare:speciality": "general", "name": "AMF- Ambulancë e Mjeksisë Familjare"}}, {"name": "", "latitude": 42.8469771, "longitude": 21.0559899, "source": "osm", "_tags": {"addr:city": "Ceceli", "addr:housenumber": "4", "addr:postcode": "42000", "addr:street": "Bujar Krasniqi", "amenity": "hospital", "healthcare": "hospital"}}, {"name": "Ambulancë e Mjeksisë Familjare", "latitude": 42.6565093, "longitude": 21.2880117, "source": "osm", "_tags": {"addr:city": "Prishtinë", "addr:street": "Rifat Batalli", "amenity": "hospital", "emergency": "yes", "healthcare": "hospital", "healthcare:speciality": "general", "name": "Ambulancë e Mjeksisë Familjare"}}, {"name": "QMF-Qender e Mjeksisë Familjare", "latitude": 42.8567198, "longitude": 21.2495247, "source": "osm", "_tags": {"addr:city": "Shajkoc", "addr:street": "Muharrem S. Rudari", "amenity": "hospital", "healthcare": "hospital", "healthcare:speciality": "general", "name": "QMF-Qender e Mjeksisë Familjare"}}, {"name": "AMF-Ambulancë e Mjeksisë Familjare", "latitude": 42.4912233, "longitude": 21.4635247, "source": "osm", "_tags": {"addr:city": "Stanishor", "addr:street": "R-213", "amenity": "hospital", "healthcare": "hospital", "healthcare:speciality": "general", "name": "AMF-Ambulancë e Mjeksisë Familjare"}}, {"name": "Qendra e Mjekesise Sportive", "latitude": 42.6615847, "longitude": 21.1564286, "source": "osm", "_tags": {"addr:city": "Prishtinë", "addr:postcode": "10000", "addr:street": "Rinia", "amenity": "hospital", "healthcare": "clinic", "name": "Qendra e Mjekesise Sportive"}}, {"name": "AMF Dabishec", "latitude": 42.735048, "longitude": 21.4408306, "source": "osm", "_tags": {"addr:city": "Dabishec", "addr:street": "Dushkaja", "amenity": "hospital", "healthcare": "hospital", "name": "AMF Dabishec"}}, {"name": "QMF- Qendër e Mjeksisë Familjare", "latitude": 42.8687892, "longitude": 20.9410733, "source": "osm", "_tags": {"addr:city": "Smrekovica", "addr:street": "Arif Ahmeti", "amenity": "hospital", "healthcare": "doctor", "healthcare:speciality": "general", "name": "QMF- Qendër e Mjeksisë Familjare"}}, {"name": "AMF Obranqe", "latitude": 42.9154586, "longitude": 21.1706988, "source": "osm", "_tags": {"addr:city": "Obrançë", "addr:postcode": "11000", "addr:street": "Azem Jashari", "amenity": "hospital", "healthcare": "hospital", "healthcare:speciality": "general", "name": "AMF Obranqe"}}, {"name": "Euromed", "latitude": 42.6398744, "longitude": 21.1026576, "source": "osm", "_tags": {"amenity": "hospital", "name": "Euromed"}}, {"name": "", "latitude": 42.6682816, "longitude": 21.1702447, "source": "osm", "_tags": {"addr:street": "Xheladin Kurbaliu", "amenity": "hospital", "healthcare": "hospital", "internet_access": "wlan", "name:en": "Qendra e Mjekësisë Familjare"}}, {"name": "Spitali FATI IM", "latitude": 42.6117869, "longitude": 21.141905, "source": "osm", "_tags": {"addr:city": "Çagllavicë", "addr:postcode": "10000", "addr:street": "Mirjane Dragović", "amenity": "hospital", "contact:facebook": "https://www.facebook.com/SpitaliFatiIm", "email": "poliklinika_fati_im@hotmail.com", "emergency": "yes", "healthcare": "hospital", "internet_access": "yes", "name": "Spitali FATI IM", "opening_hours": "24/7", "payment:cash": "yes", "payment:credit_cards": "yes", "payment:debit_cards": "yes", "phone": "+38345322250", "website": "https://fatiim.com/", "wheelchair": "yes"}}, {"name": "", "latitude": 42.4805209, "longitude": 21.7447141, "source": "osm", "_tags": {"amenity": "hospital", "emergency": "yes", "healthcare": "hospital"}}, {"name": "Klinika për Covid-19 (1)", "latitude": 42.6445538, "longitude": 21.1610674, "source": "osm", "_tags": {"amenity": "hospital", "healthcare": "hospital", "name": "Klinika për Covid-19 (1)"}}, {"name": "Hospital", "latitude": 42.4853806, "longitude": 21.2163652, "source": "osm", "_tags": {"amenity": "hospital", "name": "Hospital"}}, {"name": "Spitali Royal Medical", "latitude": 42.5994001, "longitude": 21.1302668, "source": "osm", "_tags": {"addr:city": "Preoce", "addr:postcode": "35000", "addr:street": "Prishtinë-Ferizaj", "amenity": "hospital", "email": "Email:info@spitaliortopedik.com", "healthcare:speciality": "orthopaedics", "name": "Spitali Royal Medical", "name:en": "Royal Medical Hospital", "phone": "+383 38 777 555", "website": "https://www.spitaliortopedik.com", "wheelchair": "yes"}}, {"name": "Ambulanta e Fshatit Breznicë", "latitude": 42.7778517, "longitude": 21.0893764, "source": "osm", "_tags": {"addr:housenumber": "15", "addr:postcode": "13000", "addr:street": "Koskoviku", "amenity": "hospital", "name": "Ambulanta e Fshatit Breznicë", "name:en": "Breznica Village Ambulance", "opening_hours": "Mo-Fr 08:00-15:00"}}, {"name": "Spitali Olive", "latitude": 42.5668551, "longitude": 21.1281367, "source": "osm", "_tags": {"amenity": "hospital", "healthcare": "hospital", "name": "Spitali Olive", "name:en": "Olive Hospital"}}, {"name": "Bahceci Hospital", "latitude": 42.5670532, "longitude": 21.1294215, "source": "osm", "_tags": {"amenity": "hospital", "healthcare": "hospital", "name": "Bahceci Hospital"}}, {"name": "QKMF Kryesore", "latitude": 42.4585843, "longitude": 21.4657071, "source": "osm", "_tags": {"amenity": "hospital", "emergency": "yes", "healthcare": "hospital", "name": "QKMF Kryesore", "operator": "Kumuna i gjilanit", "operator:type": "government"}}, {"name": "QMF Ranillugi", "latitude": 42.4934384, "longitude": 21.6001122, "source": "osm", "_tags": {"addr:street": "Grujića", "amenity": "hospital", "name": "QMF Ranillugi"}}, {"name": "Spitali i Çagllavicës", "latitude": 42.6175832, "longitude": 21.1469556, "source": "osm", "_tags": {"amenity": "hospital", "name": "Spitali i Çagllavicës"}}, {"name": "Qendra Kryesore e Mjekësisë Familjare", "latitude": 42.6841764, "longitude": 21.0737528, "source": "osm", "_tags": {"addr:city": "Obiliq", "addr:housenumber": "188", "amenity": "hospital", "contact:phone": "+38338561200", "emergency": "yes", "healthcare": "yes", "name": "Qendra Kryesore e Mjekësisë Familjare"}}, {"name": "Anaderm Aesthetic Surgery Hospital", "latitude": 42.6315001, "longitude": 21.1483692, "source": "osm", "_tags": {"amenity": "hospital", "healthcare": "hospital", "name": "Anaderm Aesthetic Surgery Hospital"}}, {"name": "Odeljenje za zdastvenu zastitu odraslih", "latitude": 43.1418946, "longitude": 21.2731143, "source": "osm", "_tags": {"amenity": "hospital", "healthcare": "hospital", "name": "Odeljenje za zdastvenu zastitu odraslih"}}, {"name": "Mjekësia Nukleare", "latitude": 42.6450947, "longitude": 21.1623041, "source": "osm", "_tags": {"amenity": "hospital", "healthcare": "hospital", "name": "Mjekësia Nukleare", "name:en": "Nuclear medicine"}}, {"name": "RADIX center", "latitude": 42.4433707, "longitude": 20.9740959, "source": "osm", "_tags": {"addr:housenumber": "H1", "addr:postcode": "10000", "addr:street": "Zija Shemsiu", "amenity": "hospital", "email": "qendraradix@gmail.com", "internet_access": "wlan", "name": "RADIX center", "phone": "+38344406994"}}, {"name": "Dr. Kushtrim Shala - Kardiokirurg", "latitude": 42.6427785, "longitude": 21.1578909, "source": "osm", "_tags": {"addr:city": "Prishtine", "addr:housenumber": "25", "addr:postcode": "10000", "addr:street": "Shkupi", "amenity": "hospital", "contact:facebook": "https://www.facebook.com/kardiokirurg.kardiolog", "description": "bajpasi Koronar (CABG)\nkirurgjia aortës  (aneurismat, çarje/diseksionet e aortës)\nzevendësimi i valvulës Mitrale \nzevendësimi i valvulës Aortale\nriparimi i valvulës Trikuspidale \nmbyllja e vrimave ne zemër (ASD)\nlargimi i tumorëve në zemër (Myxoma)", "ele": "759", "healthcare": "hospital", "healthcare:speciality": "cardiothoracic_surgery;cardiology;intensive", "mobile": "+38348587588", "name": "Dr. Kushtrim Shala - Kardiokirurg", "note": "Dr. Kushtrim Shala MD, PhDc Specialist Kardiokirurg\n\n• Herzzentrum Duisburg\n• Universitätsklinikum Bonn\n• Ankara Türkiye Yüksek İhtisas Eğitim Ve Araştırma Hastanesi\n• Ankara Şehir Hastanesi\n• American Hospital Kosova", "operator": "Kushtrim Shala", "operator:type": "private", "website": "https://www.kardiokirurg.com/"}}, {"name": "Дом здравља Бујановац", "latitude": 42.4646154, "longitude": 21.7736941, "source": "osm", "_tags": {"addr:city": "Бујановац", "addr:housenumber": "318", "addr:postcode": "17520", "addr:street": "Карађорђа Петровића", "amenity": "hospital", "building": "yes", "ele": "397", "email": "domzdravljabujanovac@gmail.com", "fax": "017 651 315", "healthcare": "hospital", "historic": "monument", "int_name": "Dom zdravlja Bujanovac", "name": "Дом здравља Бујановац", "name:sq": "Shtëpia e shendëtit Bujanoc", "name:sr": "Дом здравља Бујановац", "name:sr-Latn": "Dom zdravlja Bujanovac", "phone": "017 651 017", "ref:RS:kucni_broj": "6104363", "shop": "doityourself", "website": "http://www.dzbujanovac.org.rs"}}, {"name": "Medicus", "latitude": 42.6563118, "longitude": 21.1572121, "source": "osm", "_tags": {"addr:postcode": "10000", "addr:street": "Mbreti Zogu I", "amenity": "hospital", "building": "yes", "building:levels": "4", "healthcare": "hospital", "name": "Medicus", "name:en": "Rezonanca", "name:sq": "Rezonanca", "name:sr": "Rezonanca", "opening_hours": "Mo-Su 08:00-20:00", "phone": "+38338243801"}}, {"name": "Qendra Kombëtare e Transfuzionit të Gjakut", "latitude": 42.6451926, "longitude": 21.1621016, "source": "osm", "_tags": {"addr:city": "Prishtinë", "addr:postcode": "10000", "addr:street": "Tahir Uka", "amenity": "hospital", "building": "hospital", "emergency": "yes", "healthcare": "hospital", "name": "Qendra Kombëtare e Transfuzionit të Gjakut"}}, {"name": "Spitali Sheik Zahid", "latitude": 42.8248949, "longitude": 20.9645401, "source": "osm", "_tags": {"addr:city": "Vushtrri", "addr:postcode": "42000", "addr:street": "Çamëria", "amenity": "hospital", "building": "yes", "emergency": "yes", "healthcare": "yes", "healthcare:speciality": "general", "layer": "2", "name": "Spitali Sheik Zahid", "name:sq": "Spitali Sheikh Zayed", "operator": "Spitali Sheik Zahid", "operator:type": "public"}}, {"name": "KBC Pristina - Interna klinika", "latitude": 42.5930895, "longitude": 21.1391427, "source": "osm", "_tags": {"amenity": "hospital", "building": "yes", "name": "KBC Pristina - Interna klinika", "name:sq": "KBC Prishtinë - Klinika e Brëndshme", "name:sr-Latn": "KBC Pristina - Interna klinika"}}, {"name": "DZ Gracanica - Hitna pomoc", "latitude": 42.5958354, "longitude": 21.1403704, "source": "osm", "_tags": {"addr:city": "Laplje Selo", "amenity": "hospital", "building": "yes", "emergency": "yes", "name": "DZ Gracanica - Hitna pomoc", "name:sq": "Qendra Shëndetësore Graçanicë - Ambulancë", "name:sr-Latn": "DZ Gracanica - Hitna pomoc"}}, {"name": "Qendra Klinike Universitare e Kosovës (QKUK)", "latitude": 42.643967, "longitude": 21.1614889, "source": "osm", "_tags": {"addr:street": "Behar Begolli", "amenity": "hospital", "emergency": "yes", "healthcare": "hospital", "name": "Qendra Klinike Universitare e Kosovës (QKUK)", "name:de": "Universitätsklinikum der Republik Kosovo", "name:en": "University Clinic of the Republic of Kosovo", "name:sq": "Qendra Klinike Universitare e Kosovës (QKUK)", "name:sr": "Universitetski Klinički Centar za Republika Kosovo (UKCK)", "short_name": "QKUK", "source": "survey", "wikidata": "Q30254040", "wikimedia_commons": "Category:University Clinical Center of Kosovo", "wikipedia": "en:University Clinical Center of Kosovo"}}, {"name": "Војна болница Ниш", "latitude": 43.3126592, "longitude": 21.9215132, "source": "osm", "_tags": {"amenity": "hospital", "email": "info@mod.gov.rs", "emergency": "yes", "healthcare": "hospital", "int_name": "Vojna bolnica Nis", "name": "Војна болница Ниш", "name:sr": "Војна болница Ниш", "name:sr-Latn": "Vojna bolnica Niš", "operator:type": "government", "phone": "+38118508841", "website": "http://www.vbnis.mod.gov.rs/"}}, {"name": "Hitna pomoć", "latitude": 42.6021134, "longitude": 21.1924329, "source": "osm", "_tags": {"amenity": "hospital", "building": "yes", "healthcare": "hospital", "name": "Hitna pomoć", "name:sq": "Spitali i Graçanicës", "name:sr": "Хитна помоћ"}}, {"name": "Spitali", "latitude": 42.6010404, "longitude": 21.187706, "source": "osm", "_tags": {"amenity": "hospital", "name": "Spitali", "name:sr": "Болница"}}, {"name": "D.Z. Preoce-Gračanica", "latitude": 42.5987408, "longitude": 21.1213758, "source": "osm", "_tags": {"amenity": "hospital", "name": "D.Z. Preoce-Gračanica"}}, {"name": "Qendra e Mjekësisë së Punës", "latitude": 42.6768709, "longitude": 21.0986422, "source": "osm", "_tags": {"amenity": "hospital", "emergency": "yes", "healthcare": "hospital", "name": "Qendra e Mjekësisë së Punës"}}, {"name": "Dom zdravlja Niš", "latitude": 43.3226507, "longitude": 21.9079368, "source": "osm", "_tags": {"amenity": "hospital", "healthcare": "hospital", "name": "Dom zdravlja Niš"}}, {"name": "Ambulance", "latitude": 42.6752425, "longitude": 21.1697827, "source": "osm", "_tags": {"amenity": "hospital", "healthcare": "hospital", "name": "Ambulance"}}, {"name": "Општа болница Лесковац", "latitude": 42.9953163, "longitude": 21.9382879, "source": "osm", "_tags": {"addr:city": "Лесковац", "addr:country": "RS", "addr:housenumber": "110", "addr:postcode": "16000", "addr:street": "Светозара Марковића", "amenity": "hospital", "email": "uprava.bolnice@bolnicaleskovac.org", "fax": "+381163444501", "healthcare": "hospital", "int_name": "Opsta bolnica Leskovac", "name": "Општа болница Лесковац", "name:sr": "Општа болница Лесковац", "name:sr-Latn": "Opšta bolnica Leskovac", "operator:type": "government", "phone": "+38116252500", "ref:RS:kucni_broj": "6003431", "website": "https://www.bolnicaleskovac.org/"}}, {"name": "Shtëpia e Shëndetit \"Dr. Fatmir Krasniqi\" Fushë Kosovë", "latitude": 42.6320831, "longitude": 21.0921666, "source": "osm", "_tags": {"addr:housenumber": "9", "addr:street": "Rruga e Pejës", "amenity": "hospital", "building": "yes", "healthcare": "hospital", "name": "Shtëpia e Shëndetit \"Dr. Fatmir Krasniqi\" Fushë Kosovë"}}, {"name": "QMF '' Ramiz Cernica''", "latitude": 42.4602429, "longitude": 21.4502242, "source": "osm", "_tags": {"amenity": "hospital", "healthcare": "centre", "name": "QMF '' Ramiz Cernica''"}}, {"name": "Општа болница „Др Алекса Савић”", "latitude": 43.227387, "longitude": 21.5905103, "source": "osm", "_tags": {"amenity": "hospital", "healthcare": "hospital", "int_name": "Opsta bolnica „Dr Aleksa Savic”", "name": "Општа болница „Др Алекса Савић”", "name:sr": "Општа болница „Др Алекса Савић”", "name:sr-Latn": "Opšta bolnica „Dr Aleksa Savić”", "operator:type": "government", "phone": "+38127324000", "website": "www.bolnicaprokuplje.com"}}, {"name": "Градска болница Врање", "latitude": 42.5509323, "longitude": 21.9037283, "source": "osm", "_tags": {"amenity": "hospital", "healthcare": "hospital", "int_name": "Gradska bolnica Vranje", "name": "Градска болница Врање"}}, {"name": "", "latitude": 42.9002248, "longitude": 21.0190749, "source": "osm", "_tags": {"amenity": "hospital", "healthcare": "hospital"}}, {"name": "Завод за плућне болести и туберкулозу Ниш", "latitude": 43.3153036, "longitude": 21.9173723, "source": "osm", "_tags": {"addr:city": "Ниш", "addr:country": "RS", "addr:housenumber": "83", "addr:postcode": "18000", "addr:street": "Булевар др Зорана Ђинђића", "amenity": "hospital", "building": "public", "healthcare": "hospital", "int_name": "Zavod za plucne bolesti i tuberkulozu Nis", "name": "Завод за плућне болести и туберкулозу Ниш", "name:sr": "Завод за плућне болести и туберкулозу Ниш", "name:sr-Latn": "Zavod za plućne bolesti i tuberkulozu Niš", "operator:type": "government", "phone": "+38118233355", "ref:RS:kucni_broj": "5923731", "website": "www.zavodtb.org.rs"}}, {"name": "Spitali regjional i Gjilanit", "latitude": 42.4583141, "longitude": 21.4637066, "source": "osm", "_tags": {"amenity": "hospital", "healthcare": "hospital", "name": "Spitali regjional i Gjilanit"}}, {"name": "QMF Livoc", "latitude": 42.4303663, "longitude": 21.4514546, "source": "osm", "_tags": {"addr:city": "Livoç i Poshtëm", "addr:postcode": "60000", "amenity": "hospital", "healthcare": "hospital", "healthcare:speciality": "general", "name": "QMF Livoc"}}, {"name": "", "latitude": 42.9088346, "longitude": 21.1951417, "source": "osm", "_tags": {"amenity": "hospital", "healthcare": "hospital"}}, {"name": "", "latitude": 42.9185367, "longitude": 21.1956052, "source": "osm", "_tags": {"amenity": "hospital", "healthcare": "hospital"}}, {"name": "", "latitude": 42.4659779, "longitude": 21.4711618, "source": "osm", "_tags": {"amenity": "hospital", "building": "yes", "emergency": "no", "healthcare": "hospital"}}, {"name": "AMF- Ambulancë e Mjeksisë Familjare", "latitude": 42.6565104, "longitude": 21.2880318, "source": "osm", "_tags": {"addr:city": "Prishtinë", "addr:street": "Rifat Batalli", "amenity": "hospital", "building": "hospital", "emergency": "yes", "healthcare": "hospital", "healthcare:speciality": "general", "name": "AMF- Ambulancë e Mjeksisë Familjare"}}, {"name": "QMF- Qender e Mjeksisë Familjare", "latitude": 42.8567354, "longitude": 21.2495319, "source": "osm", "_tags": {"addr:city": "Shajkoc", "addr:street": "Muharrem S. Rudari", "amenity": "hospital", "healthcare": "hospital", "healthcare:speciality": "general", "name": "QMF- Qender e Mjeksisë Familjare"}}, {"name": "AMF Kishnapolë", "latitude": 42.4585486, "longitude": 21.3108166, "source": "osm", "_tags": {"building": "yes", "health_facility:type": "dispensary", "healthcare": "hospital", "healthcare:speciality": "general", "name": "AMF Kishnapolë"}}, {"name": "AMF- Ambulancë e Mjeksisë Familjare", "latitude": 42.4461401, "longitude": 21.1981074, "source": "osm", "_tags": {"addr:city": "Mirash i Ri", "addr:street": "Afërdita", "amenity": "hospital", "healthcare": "hospital", "healthcare:speciality": "general", "name": "AMF- Ambulancë e Mjeksisë Familjare"}}, {"name": "AMF-Ambulancë e Mjeksisë Familjare", "latitude": 42.4912183, "longitude": 21.4635368, "source": "osm", "_tags": {"addr:city": "Stanishor", "addr:street": "R-213", "amenity": "hospital", "healthcare": "hospital", "healthcare:speciality": "general", "name": "AMF-Ambulancë e Mjeksisë Familjare"}}, {"name": "AMF Lupç i Poshtëm", "latitude": 42.7948899, "longitude": 21.1527941, "source": "osm", "_tags": {"building": "yes", "healthcare": "hospital", "healthcare:speciality": "general", "name": "AMF Lupç i Poshtëm"}}, {"name": "QMF Magura", "latitude": 42.5391081, "longitude": 21.0117074, "source": "osm", "_tags": {"addr:city": "Magurë", "addr:postcode": "14060", "addr:street": "Ruzhdi Shabani", "amenity": "hospital", "healthcare": "hospital", "name": "QMF Magura"}}, {"name": "QMF- Qender e Mjeksisë Familjare", "latitude": 42.6069286, "longitude": 21.0164689, "source": "osm", "_tags": {"addr:city": "Sllatinë e Madhe", "addr:street": "Elena Gjika", "amenity": "hospital", "healthcare": "doctor", "healthcare:speciality": "general", "name": "QMF- Qender e Mjeksisë Familjare"}}, {"name": "QMF- Qender e Mjeksisë Familjare", "latitude": 42.8687892, "longitude": 20.9410612, "source": "osm", "_tags": {"addr:city": "Smrekovica", "addr:street": "Arif Ahmeti", "amenity": "hospital", "healthcare": "doctor", "healthcare:speciality": "general", "name": "QMF- Qender e Mjeksisë Familjare"}}, {"name": "AMF- Ambulancë e Mjeksisë Familjare", "latitude": 42.9419716, "longitude": 21.1389489, "source": "osm", "_tags": {"addr:city": "Gramqeli", "addr:street": "Antika", "amenity": "hospital", "healthcare": "doctor", "name": "AMF- Ambulancë e Mjeksisë Familjare"}}, {"name": "Qendra e shtespise se shendetit Janjeve", "latitude": 42.5739138, "longitude": 21.2463638, "source": "osm", "_tags": {"addr:city": "Janjevë", "addr:postcode": "14050", "addr:street": "Dardania", "amenity": "hospital", "emergency": "no", "healthcare": "hospital", "name": "Qendra e shtespise se shendetit Janjeve"}}, {"name": "Дом здравља Лесковац", "latitude": 42.9936592, "longitude": 21.938702, "source": "osm", "_tags": {"addr:city": "Лесковац", "addr:country": "RS", "addr:housenumber": "116", "addr:postcode": "16000", "addr:street": "Светозара Марковића", "amenity": "clinic", "email": "uprava@dzleskovac.com", "emergency": "yes", "fax": "+38116233701", "healthcare": "hospital", "int_name": "Dom zdravlja Leskovac", "name": "Дом здравља Лесковац", "name:sr": "Дом здравља Лесковац", "name:sr-Latn": "Dom zdravlja", "operator:type": "government", "phone": "+38116251244;+38116252383;+38116250508", "website": "https://www.dzleskovac.com/", "wheelchair": "yes"}}, {"name": "", "latitude": 42.818529, "longitude": 20.9779211, "source": "osm", "_tags": {"amenity": "hospital", "healthcare": "hospital"}}, {"name": "", "latitude": 42.8246968, "longitude": 20.9643907, "source": "osm", "_tags": {"amenity": "hospital", "healthcare": "hospital"}}, {"name": "Специјална болница Гејзер", "latitude": 42.7772363, "longitude": 21.6024157, "source": "osm", "_tags": {"addr:housenumber": "49", "addr:street": "Николе Тесле", "amenity": "hospital", "email": "gejzer.rec@gmail.com", "healthcare": "hospital", "healthcare:speciality": "physiatry", "int_name": "Specijalna bolnica Gejzer", "mobile": "+381 60 0895152", "name": "Специјална болница Гејзер", "name:sr": "Специјална болница Гејзер", "name:sr-Latn": "Specijalna bolnica Gejzer", "phone": "+381 16 3895152", "ref:RS:kucni_broj": "5932338", "website": "https://gejzer.rs"}}, {"name": "Qendra e Mjekësisë Familjare Veternik", "latitude": 42.6290801, "longitude": 21.1642576, "source": "osm", "_tags": {"amenity": "hospital", "baby_feeding": "yes", "healthcare": "hospital", "name": "Qendra e Mjekësisë Familjare Veternik", "operator": "QKMF Prishtinë"}}, {"name": "Дом здравља Куршумлија", "latitude": 43.1414655, "longitude": 21.2738163, "source": "osm", "_tags": {"addr:city": "Куршумлија", "addr:country": "RS", "addr:housenumber": "1", "addr:postcode": "18430", "addr:street": "др Мелгарда", "amenity": "hospital", "emergency": "yes", "healthcare": "hospital", "healthcare:speciality": "general;dentistry;emergency;vaccination", "int_name": "Dom zdravlja Kursumlija", "mobile": "+381648227060", "name": "Дом здравља Куршумлија", "name:sr": "Дом здравља Куршумлија", "name:sr-Latn": "Dom zdravlja Kuršumlija", "phone": "+38127380747", "website": "www.dzkursumlija.org.rs", "wheelchair": "yes"}}, {"name": "QMF-Mat Matiqan", "latitude": 42.6454816, "longitude": 21.1945715, "source": "osm", "_tags": {"amenity": "hospital", "healthcare": "centre", "healthcare:speciality": "general", "name": "QMF-Mat Matiqan"}}, {"name": "", "latitude": 42.6839821, "longitude": 21.0735328, "source": "osm", "_tags": {"amenity": "hospital"}}, {"name": "", "latitude": 42.6198348, "longitude": 21.1907776, "source": "osm", "_tags": {"amenity": "hospital", "barrier": "wall"}}, {"name": "QKMF \"Safet Idrizi\"", "latitude": 42.8215062, "longitude": 20.9593163, "source": "osm", "_tags": {"addr:city": "Vushtrri", "addr:postcode": "42000", "addr:street": "Hamit Hyseni", "amenity": "hospital", "healthcare": "hospital", "healthcare:speciality": "general", "name": "QKMF \"Safet Idrizi\"", "operator": "Ministria e Shëndetësisë", "operator:type": "public"}}, {"name": "", "latitude": 42.8954747, "longitude": 21.1973225, "source": "osm", "_tags": {"amenity": "hospital", "healthcare": "hospital"}}, {"name": "", "latitude": 43.3981345, "longitude": 21.8036983, "source": "osm", "_tags": {"amenity": "hospital", "healthcare": "hospital"}}, {"name": "", "latitude": 42.5481618, "longitude": 21.6825804, "source": "osm", "_tags": {"amenity": "hospital", "building": "yes"}}, {"name": "QKMF Druar", "latitude": 42.7702894, "longitude": 20.9868686, "source": "osm", "_tags": {"addr:city": "Druar", "addr:housenumber": "131", "addr:postcode": "42000", "addr:street": "Elbasani", "amenity": "hospital", "healthcare": "hospital", "name": "QKMF Druar"}}, {"name": "Универзитетски клинички центар Ниш", "latitude": 43.3157809, "longitude": 21.9129788, "source": "osm", "_tags": {"amenity": "hospital", "email": "cnissrb@gmail.com", "emergency": "no", "fax": "(018) 4235-186", "healthcare": "hospital", "int_name": "Univerzitetski klinicki centar Nis", "name": "Универзитетски клинички центар Ниш", "name:en": "Clinical Center Niš", "name:sr": "Универзитетски клинички центар Ниш", "name:sr-Latn": "Univerzitetski klinički centar Niš", "operator:type": "government", "phone": "(018) 506-906", "type": "multipolygon", "website": "http://www.kcnis.rs", "wikidata": "Q11109385", "wikipedia": "sr:Универзитетски Клинички центар Ниш"}}]