[{"name": "Dom za starije Betanija", "latitude": 43.1078074, "longitude": 17.7055971, "source": "osm", "_tags": {"amenity": "hospital", "healthcare": "hospice", "name": "Dom za starije Betanija"}}, {"name": "Specijalna bolnica Biokovka", "latitude": 43.3038723, "longitude": 17.0076438, "source": "osm", "_tags": {"addr:housenumber": "9", "addr:street": "Put Cvitačke", "amenity": "hospital", "healthcare": "hospital", "healthcare:speciality": "physiatry", "name": "Specijalna bolnica Biokovka", "operator": "Specijalna bolnica Biokovka", "operator:type": "public", "website": "https://www.biokovka.hr/"}}, {"name": "Sveučilišna Klinička Bolnica Mostar", "latitude": 43.3448788, "longitude": 17.7891548, "source": "osm", "_tags": {"amenity": "hospital", "healthcare": "clinic", "name": "Sveučilišna Klinička Bolnica Mostar", "name:he": "בית החולים הקליני האוניברסיטאי מוסטר", "name:hr": "Sveučilišna Klinička Bolnica Mostar", "short_name": "SKB Mostar", "website": "skbm.ba"}}, {"name": "Poliklinika Vitalis", "latitude": 43.3507827, "longitude": 17.7979322, "source": "osm", "_tags": {"addr:city": "Mostar", "addr:housenumber": "bb", "addr:postcode": "88000", "addr:street": "Vukovarska", "amenity": "clinic", "building": "yes", "building:levels": "4", "building:material": "glass", "healthcare": "hospital", "name": "Poliklinika Vitalis", "wheelchair": "yes"}}, {"name": "Dom zdravlja Čapljina", "latitude": 43.11083, "longitude": 17.7049245, "source": "osm", "_tags": {"amenity": "hospital", "healthcare": "hospital", "name": "Dom zdravlja Čapljina", "name:hr": "Dom zdravlja Čapljina"}}, {"name": "", "latitude": 43.3467834, "longitude": 17.80393, "source": "osm", "_tags": {"amenity": "hospital", "healthcare": "hospital", "operator": "SKB Mostar", "operator:type": "government"}}, {"name": "Dom zdravlja Korčula", "latitude": 42.9493956, "longitude": 17.1363207, "source": "osm", "_tags": {"addr:city": "Korčula", "addr:housenumber": "5", "addr:postcode": "20260", "addr:street": "Ulica 57", "amenity": "hospital", "email": "dz-korcula@du.t-com.hr", "fax": "+385 20 711700", "healthcare": "hospital", "healthcare:speciality": "general;diagnostic_radiology;biochemistry;stomatology;paediatrics;gynaecology;occupational;urology;neurology;internal;physiatry;psychiatry", "name": "Dom zdravlja Korčula", "operator": "Dom zdravlja Korčula", "operator:type": "public", "phone": "+385 20 711660", "type": "multipolygon", "website": "https://dom-zdravlja-korcula.hr"}}, {"name": "Kantonalna bolnica \"Dr. Safet Mujić\" Mostar", "latitude": 43.3236308, "longitude": 17.8234294, "source": "osm", "_tags": {"addr:city": "Mostar", "addr:country": "BA", "addr:housenumber": "294", "addr:postcode": "88000", "addr:street": "Maršala Tita", "alt_name_1": "RMC Mostar", "alt_name_2": "KB Mostar", "alt_name_3": "KB \"Safet Mujić\" Mostar", "amenity": "hospital", "contact:fax": "+387 36 576915", "contact:phone": "+387 36 503100", "contact:website": "http://www.kbmostar.ba", "healthcare": "hospital", "name": "Kantonalna bolnica \"Dr. Safet Mujić\" Mostar", "name:bs": "Kantonalna bolnica \"Dr. Safet Mujić\" Mostar", "name:he": "בית החולים המחוזי \"ד\"ר ספט מוג'יץ'\" מוסטר", "name:hr": "Županijska bolnica \"Dr. Safet Mujić\" Mostar", "name:sr": "Кантонална болница \"Др. Сафет Мујић\" Мостар", "type": "multipolygon"}}]