[{"name": "", "latitude": 42.5731928, "longitude": 1.4703799, "source": "osm", "_tags": {"amenity": "hospital", "healthcare": "hospital"}}, {"name": "", "latitude": 42.5489957, "longitude": 1.6468331, "source": "osm", "_tags": {"amenity": "hospital", "healthcare": "hospital"}}, {"name": "", "latitude": 42.5527445, "longitude": 1.6281598, "source": "osm", "_tags": {"amenity": "hospital", "healthcare": "hospital"}}, {"name": "", "latitude": 42.542566, "longitude": 1.6608472, "source": "osm", "_tags": {"amenity": "hospital", "healthcare": "hospital"}}, {"name": "", "latitude": 42.5544735, "longitude": 1.6533601, "source": "osm", "_tags": {"amenity": "hospital", "healthcare": "hospital"}}, {"name": "Hôpital local Saint-Louis", "latitude": 42.7195809, "longitude": 1.8402221, "source": "osm", "_tags": {"amenity": "hospital", "healthcare": "hospital", "name": "Hôpital local Saint-Louis", "ref:FR:FINESS": "090000019", "source": "Le ministère des solidarités et de la santé - 03/2019", "wikidata": "Q92062427"}}, {"name": "", "latitude": 42.469295, "longitude": 1.4928644, "source": "osm", "_tags": {"amenity": "hospital", "healthcare": "hospital"}}, {"name": "Hôpital Jules Rousse", "latitude": 42.851532, "longitude": 1.6080117, "source": "osm", "_tags": {"amenity": "hospital", "healthcare": "hospital", "name": "Hôpital Jules Rousse", "ref:FR:FINESS": "090000217", "source": "Le ministère des solidarités et de la santé - 03/2019", "wikidata": "Q92061571"}}, {"name": "Urgències del Pas", "latitude": 42.5454392, "longitude": 1.7305619, "source": "osm", "_tags": {"amenity": "hospital", "name": "Urgències del Pas", "name:ca": "Urgències del Pas"}}, {"name": "", "latitude": 42.439031, "longitude": 1.4918613, "source": "osm", "_tags": {"addr:city": "Juberri", "addr:housenumber": "22", "addr:postcode": "AD600", "addr:street": "Carrer de la Geneta", "description": "Luc Turell - magnothérapeuta, practicant Reiki i EFT", "emergency": "no", "healthcare": "hospital", "healthcare:speciality": "reiki"}}, {"name": "SSR", "latitude": 43.1120455, "longitude": 1.6081953, "source": "osm", "_tags": {"healthcare": "hospital", "name": "SSR"}}, {"name": "", "latitude": 42.9999899, "longitude": 1.1321613, "source": "osm", "_tags": {"amenity": "hospital", "healthcare": "hospital"}}, {"name": "Boîte de secours", "latitude": 43.1063333, "longitude": 0.9992235, "source": "osm", "_tags": {"addr:city": "Marsoulas", "addr:postcode": "31260", "addr:street": "Place des Platanes", "amenity": "hospital", "description": "Boîte de secours verte suspendue au mur en cas de problèmes cardiaques. Peut être utilisée par tous.\n(défibrillateur)", "healthcare": "hospital", "healthcare:speciality": "cardiology", "name": "Boîte de secours", "operator": "Tous", "operator:type": "public"}}, {"name": "Centre de Radiologie Docteur P. Humbert", "latitude": 43.2081001, "longitude": 1.0932446, "source": "osm", "_tags": {"addr:city": "Cazères", "addr:housenumber": "11", "addr:postcode": "31220", "addr:street": "Rue du Mont Vallier", "amenity": "hospital", "emergency": "no", "healthcare": "hospital", "healthcare:speciality": "radiology", "name": "Centre de Radiologie Docteur P. Humbert", "phone": "+33 5 61 97 18 21"}}, {"name": "", "latitude": 43.4117125, "longitude": 1.7341545, "source": "osm", "_tags": {"amenity": "hospital", "building": "yes", "source": "cadastre-dgi-fr source : Direction Générale des Impôts - Cadastre. Mise à jour : 2010"}}, {"name": "", "latitude": 43.4119848, "longitude": 1.7338194, "source": "osm", "_tags": {"amenity": "hospital", "building": "yes", "healthcare": "yes", "source": "cadastre-dgi-fr source : Direction Générale des Impôts - Cadastre. Mise à jour : 2010"}}, {"name": "", "latitude": 43.4115992, "longitude": 1.7337285, "source": "osm", "_tags": {"amenity": "hospital", "building": "yes", "healthcare": "yes", "source": "cadastre-dgi-fr source : Direction Générale des Impôts - Cadastre. Mise à jour : 2010"}}, {"name": "", "latitude": 43.4117, "longitude": 1.7345587, "source": "osm", "_tags": {"amenity": "hospital", "building": "yes", "healthcare": "yes", "source": "cadastre-dgi-fr source : Direction Générale des Impôts - Cadastre. Mise à jour : 2010"}}, {"name": "Centre hospitalier des Vallées de l’Ariège - Site de Foix", "latitude": 43.0258239, "longitude": 1.6198498, "source": "osm", "_tags": {"amenity": "hospital", "emergency": "yes", "fax": "+33 5 61 03 30 51", "healthcare": "hospital", "healthcare:speciality": "intensive", "name": "Centre hospitalier des Vallées de l’Ariège - Site de Foix", "operator:type": "public", "phone": "+33 5 61 03 30 30", "ref:FR:FINESS": "090000175", "short_name": "CHIVA", "type:FR:FINESS": "355", "website": "https://www.chiva-ariege.fr/", "wheelchair": "yes"}}, {"name": "Centre hospitalier Ariège Couserans", "latitude": 42.9995797, "longitude": 1.129091, "source": "osm", "_tags": {"amenity": "hospital", "emergency": "yes", "fax": "+33 5 61 66 61 71", "healthcare": "hospital", "name": "Centre hospitalier Ariège Couserans", "phone": "+33 5 61 96 20 20", "ref:FR:FINESS": "090000183", "type:FR:FINESS": "355", "website": "https://www.ch-ariege-couserans.fr/accueil-chac"}}, {"name": "Hospital de Cerdanya", "latitude": 42.4440626, "longitude": 1.9300879, "source": "osm", "_tags": {"addr:housenumber": "31", "addr:street": "Camí d'Ur", "amenity": "hospital", "building": "hospital", "ele": "1220", "emergency": "yes", "healthcare": "hospital", "name": "Hospital de Cerdanya", "name:ca": "Hospital de Cerdanya", "opening_hours": "24/7", "phone": "+34 972 65 77 77", "website": "https://hcerdanya.eu", "wikidata": "Q5474028", "wikipedia": "ca:Hospital de Cerdanya"}}, {"name": "Hospital de Nostra Senyora de Meritxell", "latitude": 42.5114677, "longitude": 1.5339333, "source": "osm", "_tags": {"addr:city": "Escaldes-Engordany", "addr:housenumber": "13", "addr:postcode": "AD700", "addr:street": "Avinguda Fiter i Rossell", "amenity": "hospital", "emergency": "yes", "healthcare": "hospital", "name": "Hospital de Nostra Senyora de Meritxell", "name:ca": "Hospital de Nostra Senyora de Meritxell", "name:en": "Hospital of Our Lady of Meritxell", "phone": "+376 871 000", "wikidata": "Q47993296", "wikipedia": "ca:Hospital Nostra Senyora de Meritxell"}}, {"name": "Hôpital de jour psy infanto-juvénile La Vergnière l'Herm", "latitude": 42.9775833, "longitude": 1.6723067, "source": "osm", "_tags": {"amenity": "hospital", "building": "yes", "healthcare": "hospital", "healthcare:speciality": "psychiatry", "name": "Hôpital de jour psy infanto-juvénile La Vergnière l'Herm", "ref:FR:FINESS": "090003799", "ref:FR:SIRET": "26090016200330", "source": "cadastre-dgi-fr source : Direction Générale des Finances Publiques - Cadastre. Mise à jour : 2014", "type:FR:FINESS": "355"}}, {"name": "", "latitude": 43.4119115, "longitude": 1.733312, "source": "osm", "_tags": {"amenity": "hospital", "building": "yes", "healthcare": "yes", "source": "cadastre-dgi-fr source : Direction Générale des Impôts - Cadastre. Mise à jour : 2014"}}, {"name": "Centre Mèdic Grau", "latitude": 42.5316095, "longitude": 1.6965494, "source": "osm", "_tags": {"amenity": "hospital", "healthcare": "hospital", "name": "Centre Mèdic Grau", "name:ca": "Centre Mèdic Grau"}}, {"name": "Centre médico-psychologique Lucien Clarac", "latitude": 42.9829534, "longitude": 1.1442789, "source": "osm", "_tags": {"amenity": "hospital", "building": "yes", "check_date": "2025-09-04", "healthcare": "hospital", "name": "Centre médico-psychologique Lucien Clarac", "ref:FR:FINESS": "090002932", "source": "Le ministère des solidarités et de la santé - 10/2018"}}, {"name": "Centre hospitalier en Pays d'Olmes", "latitude": 42.9285968, "longitude": 1.8608445, "source": "osm", "_tags": {"amenity": "hospital", "emergency": "yes", "fax": "+33 5 61 65 79 61", "healthcare": "hospital", "name": "Centre hospitalier en Pays d'Olmes", "note": "Construction futur hôpital Rue Beltrame. Ouverture 2025", "operator": "CHIVA", "operator:type": "public", "phone": "+33 5 61 65 78 78", "ref:FR:FINESS": "090001629", "type:FR:FINESS": "355", "website": "https://www.chiva-ariege.fr/accueil-chiva"}}, {"name": "Fundació Hospital de Puigcerdà", "latitude": 42.4323695, "longitude": 1.9260909, "source": "osm", "_tags": {"addr:city": "Puigcerdà", "addr:housenumber": "1", "addr:postcode": "17520", "addr:street": "Plaça de Santa Maria", "amenity": "hospital", "building": "yes", "emergency": "yes", "healthcare": "hospital", "name": "Fundació Hospital de Puigcerdà", "name:ca": "Fundació Hospital de Puigcerdà", "phone": "+34 972880150", "website": "https://www.hospitalpuigcerda.com/", "wheelchair": "yes", "wikidata": "Q5474028", "wikipedia": "ca:Hospital de Cerdanya"}}, {"name": "Clínica Verge de Meritxell", "latitude": 42.5121472, "longitude": 1.534143, "source": "osm", "_tags": {"amenity": "hospital", "healthcare": "hospital", "name": "Clínica Verge de Meritxell", "name:ca": "Clínica Verge de Meritxell"}}, {"name": "La Fontaine Salée", "latitude": 43.102378, "longitude": 0.955272, "source": "osm", "_tags": {"amenity": "hospital", "healthcare": "hospital", "name": "La Fontaine Salée", "ref:FR:FINESS": "310782339", "type": "multipolygon", "type:FR:FINESS": "101"}}]