[{"name": "Institut Helio Marin", "latitude": 43.0853581, "longitude": 6.1570109, "source": "osm", "_tags": {"amenity": "hospital", "healthcare": "hospital", "name": "Institut Helio Marin", "ref:FR:FINESS": "830100624", "type:FR:FINESS": "109", "wheelchair": "yes", "wheelchair:description": "Regality toon and reeducation clinic"}}, {"name": "Centre hospitalier de Hyères", "latitude": 43.1190492, "longitude": 6.1125418, "source": "osm", "_tags": {"addr:housenumber": "579", "addr:street": "Boulevard du Maréchal Juin", "alt_name": "Centre hospitalier Marie-José Treffot", "amenity": "hospital", "check_date": "2024-11-14", "emergency": "yes", "fax": "+33 4 94 00 24 80", "healthcare": "hospital", "name": "Centre hospitalier de Hyères", "operator:type": "public", "phone": "+33 4 94 00 24 00", "ref:FR:FINESS": "830000295", "source": "cadastre-dgi-fr source : Direction Générale des Impôts - Cadastre;mise à jour : 2008", "type:FR:FINESS": "355", "website": "http://www.ch-hyeres.fr", "wheelchair": "yes"}}, {"name": "Clinique Sainte-Marguerite", "latitude": 43.1147222, "longitude": 6.1241256, "source": "osm", "_tags": {"amenity": "hospital", "healthcare": "hospital", "name": "Clinique Sainte-Marguerite", "ref:FR:FINESS": "830100103", "source": "cadastre-dgi-fr source : Direction Générale des Impôts - Cadastre. Mise à jour : 2009", "type:FR:FINESS": "365"}}, {"name": "Centre hospitalier Henri Guérin", "latitude": 43.2339878, "longitude": 6.1482286, "source": "osm", "_tags": {"amenity": "hospital", "check_date": "2025-05-21", "healthcare": "hospital", "name": "Centre hospitalier Henri Guérin", "ref:FR:FINESS": "830000600", "type:FR:FINESS": "292"}}, {"name": "Hopital local départemental", "latitude": 43.3775719, "longitude": 6.2965542, "source": "osm", "_tags": {"amenity": "hospital", "healthcare": "hospital", "name": "Hopital local départemental", "ref:FR:FINESS": "830206983", "type:FR:FINESS": "106", "wikidata": "Q92063175"}}, {"name": "Hôpital Sainte-Musse", "latitude": 43.1239837, "longitude": 5.9756306, "source": "osm", "_tags": {"amenity": "hospital", "building": "hospital", "emergency": "yes", "fax": "+33 4 94 14 50 01", "healthcare": "hospital", "healthcare:speciality": "intensive", "name": "Hôpital Sainte-Musse", "operator": "Centre hospitalier intercommunal Toulon - La Seyne-sur-Mer", "operator:type": "public", "phone": "+33 4 94 14 50 00", "ref:FR:FINESS": "830000345", "source": "Direction Générale des Finances Publiques - Cadastre. Mise à jour : 2016", "type:FR:FINESS": "355", "website": "https://www.ch-toulon.fr/nous-connaitre/etablissements/hopital-sainte-musse-606.html"}}, {"name": "Hôpital San Salvadour", "latitude": 43.0849178, "longitude": 6.113189, "source": "osm", "_tags": {"amenity": "hospital", "emergency": "no", "fax": "+33 4 94 38 09 35", "healthcare": "hospital", "name": "Hôpital San Salvadour", "operator": "Assistance publique - Hôpitaux de Paris", "operator:short": "APHP", "operator:wikidata": "Q2867205", "phone": "+33 4 94 38 08 00", "ref:FR:FINESS": "830100012", "type:FR:FINESS": "101", "website": "https://www.aphp.fr/contenu/hopital-san-salvadour-2", "wikidata": "Q3145227"}}, {"name": "Centre de Gérontologie Riondet", "latitude": 43.121791, "longitude": 6.119359, "source": "osm", "_tags": {"amenity": "social_facility", "beds": "170", "building": "hospital", "capacity": "182", "fax": "+33494128122", "healthcare": "hospital", "name": "Centre de Gérontologie Riondet", "old_name": "Hôtel Dieu", "operator": "Centre hospitalier de Hyères", "phone": "+33494128112", "ref:FR:FINESS": "830213849;830013249", "ref:FR:SIRET": "30058617900784", "social_facility": "group_home", "social_facility:for": "disabled", "source": "cadastre-dgi-fr source : Direction Générale des Impôts - Cadastre. Mise à jour : 2013", "type:FR:FINESS": "449", "website": "http://www.ch-hyeres.fr/offre-de-soins/annuaire-des-services-324/centre-de-gerontologie-riondet-8.html?tx_stratishospital_services%5Baction%5D=show&tx_stratishospital_services%5Bcontroller%5D=Service&cHash=b69572fd4a387c097016cf0abc3a7c38", "wikidata": "Q112997083"}}, {"name": "Hôpital Clémenceau", "latitude": 43.1325033, "longitude": 6.0153793, "source": "osm", "_tags": {"amenity": "hospital", "emergency": "no", "fax": "+33 4 94 08 86 84", "healthcare": "hospital", "landuse": "healthcare", "name": "Hôpital Clémenceau", "operator": "Centre Hospitalier Intercommunal de Toulon La Seyne-sur-Mer", "operator:type": "public", "phone": "+33 4 94 08 86 86", "ref:FR:FINESS": "830202743", "type:FR:FINESS": "355", "website": "https://www.ch-toulon.fr/nous-connaitre/etablissements/hopital-clemenceau-la-garde-598.html?MP=594-504"}}, {"name": "Hôpital Privé Saint-Jean", "latitude": 43.1236539, "longitude": 5.9468746, "source": "osm", "_tags": {"addr:city": "Toulon", "addr:housenumber": "1", "addr:postcode": "83000", "addr:street": "Avenue Georges Bizet", "amenity": "hospital", "fax": "+33 4 94 16 30 58", "healthcare": "hospital", "name": "Hôpital Privé Saint-Jean", "phone": "+33 4 94 16 30 30", "ref:FR:FINESS": "830100434", "ref:FR:SIRET": "55950187900014", "type:FR:FINESS": "365", "website": "https://www.hpth-saint-jean.fr/", "wheelchair": "yes"}}, {"name": "Centre hospitaier de Saint-Tropez", "latitude": 43.2487126, "longitude": 6.5714593, "source": "osm", "_tags": {"addr:street": "Rond-Point du Général Diego Brosset", "amenity": "hospital", "check_date": "2024-11-11", "emergency": "yes", "fax": "+33 4 98 12 50 28", "healthcare": "hospital", "name": "Centre hospitaier de Saint-Tropez", "operator:type": "public", "phone": "+33 4 98 12 50 00", "ref:FR:FINESS": "830000337", "type:FR:FINESS": "355", "website": "https://www.ch-saint-tropez.fr/", "wheelchair": "yes", "wikidata": "Q63413581"}}, {"name": "Centre hospitalier de Brignoles", "latitude": 43.403525, "longitude": 6.0665875, "source": "osm", "_tags": {"alt_name": "Centre hospitalier Jean Marcel", "amenity": "hospital", "emergency": "yes", "fax": "+33 4 94 72 67 19", "healthcare": "hospital", "landuse": "haelthcare", "name": "Centre hospitalier de Brignoles", "operator:type": "public", "phone": "+33 4 94 72 66 00", "ref:FR:FINESS": "830000279", "type:FR:FINESS": "355", "website": "https://www.ch-brignoles.fr/"}}, {"name": "Clinique du Golfe Gasso-Saint-Tropez", "latitude": 43.2499377, "longitude": 6.5717897, "source": "osm", "_tags": {"addr:city": "Gassin", "addr:postcode": "83580", "addr:street": "Rond-Point du Général Diego Brosset", "amenity": "hospital", "healthcare": "hospital", "name": "Clinique du Golfe Gasso-Saint-Tropez", "ref:FR:FINESS": "830100368", "type:FR:FINESS": "128", "website": "https://www.clinique-golfe-saint-tropez.fr/"}}, {"name": "Hôpital de Jour de Psychatrie Infanto-Juvénile", "latitude": 43.2445792, "longitude": 6.531941, "source": "osm", "_tags": {"amenity": "hospital", "healthcare": "hospital", "name": "Hôpital de Jour de Psychatrie Infanto-Juvénile", "ref:FR:FINESS": "830017604", "source": "Le ministère des solidarités et de la santé - 03/2019"}}, {"name": "Hôpital Sainte-Musse", "latitude": 43.1239506, "longitude": 5.9763551, "source": "osm", "_tags": {"amenity": "hospital", "area": "yes", "barrier": "fence", "healthcare": "hospital", "name": "Hôpital Sainte-Musse"}}, {"name": "", "latitude": 43.3775346, "longitude": 6.2969614, "source": "osm", "_tags": {"amenity": "hospital"}}, {"name": "Bâtiment B", "latitude": 43.0879163, "longitude": 6.1177023, "source": "osm", "_tags": {"amenity": "hospital", "building": "yes", "building:colour": "#d5695c", "building:levels": "3", "date": "2021", "healthcare": "hospital", "name": "Bâtiment B", "roof:colour": "grey", "roof:shape": "flat"}}, {"name": "", "latitude": 43.0872435, "longitude": 6.1180486, "source": "osm", "_tags": {"amenity": "hospital", "building:colour": "beige", "building:levels": "1", "building:part": "yes", "emergency": "no", "healthcare": "hospital", "roof:colour": "lightgrey", "roof:shape": "flat"}}, {"name": "", "latitude": 43.1245421, "longitude": 6.1394675, "source": "osm", "_tags": {"amenity": "hospital", "emergency": "no", "healthcare": "hospital", "operator": "MGEN", "operator:wikidata": "Q3331039", "ref:FR:FINESS": "830100681", "wikidata": "Q125947370"}}, {"name": "", "latitude": 43.3936049, "longitude": 6.3374508, "source": "osm", "_tags": {"amenity": "hospital", "healthcare": "hospital"}}, {"name": "Hôpital Renée Sabran", "latitude": 43.0354589, "longitude": 6.1358916, "source": "osm", "_tags": {"amenity": "hospital", "emergency": "no", "healthcare": "hospital", "name": "Hôpital Renée Sabran", "ref:FR:FINESS": "830100558", "source": "Le ministère des solidarités et de la santé - 03/2019", "type": "multipolygon", "wheelchair": "yes", "wikidata": "Q24929510", "wikipedia": "fr:Hôpital Renée-Sabran"}}, {"name": "Centre médical Pierre Chevalier", "latitude": 43.1245421, "longitude": 6.1394675, "source": "osm", "_tags": {"amenity": "hospital", "name": "Centre médical Pierre Chevalier", "ref:FR:FINESS": "830100681", "ref:FR:SIRET": "44192191300048", "type": "site"}}, {"name": "Hôpital Léon Bérard", "latitude": 43.0872845, "longitude": 6.117822, "source": "osm", "_tags": {"amenity": "hospital", "name": "Hôpital Léon Bérard", "ref:FR:FINESS": "830000303", "site": "hospital", "type": "site"}}]