[{"name": "св.Георги", "latitude": 42.5589876, "longitude": 27.6369921, "source": "osm", "_tags": {"amenity": "hospital", "name": "св.Георги"}}, {"name": "Онкологична болница-Марко Антонов", "latitude": 43.1760942, "longitude": 27.9010985, "source": "osm", "_tags": {"amenity": "hospital", "name": "Онкологична болница-Марко Антонов"}}, {"name": "", "latitude": 42.8170911, "longitude": 27.8843909, "source": "osm", "_tags": {"amenity": "hospital"}}, {"name": "", "latitude": 42.8377969, "longitude": 27.5755748, "source": "osm", "_tags": {"amenity": "hospital"}}, {"name": "Очна клиника \"Св.Николай Чудотворец\"", "latitude": 43.217871, "longitude": 27.9233938, "source": "osm", "_tags": {"addr:housenumber": "12", "addr:street": "Никулицел", "amenity": "hospital", "name": "Очна клиника \"Св.Николай Чудотворец\""}}, {"name": "Олимед", "latitude": 43.2109335, "longitude": 27.9070714, "source": "osm", "_tags": {"amenity": "hospital", "emergency": "no", "name": "Олимед"}}, {"name": "Хирургическа Болница Проф. Темелков", "latitude": 43.2109401, "longitude": 27.9070448, "source": "osm", "_tags": {"addr:city": "Варна", "addr:country": "BG", "addr:housenumber": "3-5", "addr:postcode": "9000", "addr:street": "Алеко Константинов", "amenity": "hospital", "contact:email": "temelkov7@abv.bg", "contact:phone": "+359 52 600 126", "contact:website": "http://www.temelkov.com", "emergency": "no", "name": "Хирургическа Болница Проф. Темелков"}}, {"name": "", "latitude": 43.1649656, "longitude": 27.9382979, "source": "osm", "_tags": {"amenity": "hospital"}}, {"name": "ДКЦ Ел Масри", "latitude": 42.509493, "longitude": 27.469508, "source": "osm", "_tags": {"amenity": "hospital", "name": "ДКЦ Ел Масри"}}, {"name": "Профилакториум БМБ", "latitude": 42.610103, "longitude": 27.3898414, "source": "osm", "_tags": {"amenity": "hospital", "name": "Профилакториум БМБ", "website": "http://www.profibmb.fitnesvili.com"}}, {"name": "Медик Дент ЕООД", "latitude": 43.2141077, "longitude": 27.900347, "source": "osm", "_tags": {"addr:city": "Варна", "addr:housenumber": "130", "addr:street": "бул. Владислав Варненчик", "amenity": "hospital", "name": "Медик Дент ЕООД"}}, {"name": "ФАМИЛИЯ ДЕНТ ЕООД", "latitude": 43.230703, "longitude": 27.8789696, "source": "osm", "_tags": {"addr:city": "Варна", "addr:housenumber": "15", "addr:street": "бул. Република", "amenity": "hospital", "description": "Естетична дентална медицина, Циркониеви корони, керамични корони, Детски стоматолог, Адхезивни мостове Варна.", "name": "ФАМИЛИЯ ДЕНТ ЕООД"}}, {"name": "", "latitude": 42.5727729, "longitude": 27.2981896, "source": "osm", "_tags": {"amenity": "hospital"}}, {"name": "", "latitude": 42.4856262, "longitude": 27.3795613, "source": "osm", "_tags": {"amenity": "hospital"}}, {"name": "", "latitude": 42.561746, "longitude": 27.6381306, "source": "osm", "_tags": {"amenity": "hospital", "name:ru": "Детский доктор"}}, {"name": "", "latitude": 42.5626253, "longitude": 27.6380608, "source": "osm", "_tags": {"amenity": "hospital"}}, {"name": "МЦ Нова", "latitude": 43.2347498, "longitude": 27.8904111, "source": "osm", "_tags": {"amenity": "hospital", "check_date": "2024-09-19", "name": "МЦ Нова"}}, {"name": "", "latitude": 42.5178058, "longitude": 27.3707241, "source": "osm", "_tags": {"amenity": "hospital", "healthcare": "hospital"}}, {"name": "Педиатър - Златинка Радева", "latitude": 42.5151863, "longitude": 27.4654395, "source": "osm", "_tags": {"addr:city": "Бургас", "addr:housenumber": "6", "addr:street": "Св. Пантелеймон Лечител", "amenity": "hospital", "description": "Д-р Златина Радева е педиатър с дългогодишен опит в диагностицирането и лечението на детски заболявания, който практикува в собствен педиатричен кабинет в квартал Зорница, град Бургас.", "healthcare": "hospital", "level": "0", "name": "Педиатър - Златинка Радева", "phone": "+359 88 794 8445", "website": "https://pediatrician-586.business.site/"}}, {"name": "Очна клиника \"Св. Петка\"", "latitude": 43.2262847, "longitude": 27.9333361, "source": "osm", "_tags": {"addr:housenumber": "4", "addr:postcode": "9000", "addr:street": "Проф. д-р Георги Георгиев", "amenity": "hospital", "healthcare": "hospital", "name": "Очна клиника \"Св. Петка\"", "phone": "+359 52 611 130", "website": "https://st-petka-eyeclinic.bg/kontakti-2/"}}, {"name": "Лина", "latitude": 42.4966128, "longitude": 27.4648548, "source": "osm", "_tags": {"addr:street": "Княз Борис I", "amenity": "hospital", "healthcare": "hospital", "name": "Лина", "name:en": "Lina"}}, {"name": "IV ДКЦ", "latitude": 43.2278309, "longitude": 27.9344775, "source": "osm", "_tags": {"amenity": "hospital", "name": "IV ДКЦ"}}, {"name": "Психиатрична клиника и стационар към УМБАЛ \"Св. Марина\"", "latitude": 43.228995, "longitude": 27.9341345, "source": "osm", "_tags": {"amenity": "hospital", "healthcare": "hospital", "healthcare:speciality": "psychiatry;child_psychiatry", "name": "Психиатрична клиника и стационар към УМБАЛ \"Св. Марина\""}}, {"name": "УМБАЛ \"Св. Марина\"", "latitude": 43.2271303, "longitude": 27.9351848, "source": "osm", "_tags": {"addr:city": "Варна", "addr:housenumber": "1", "addr:street": "бул. Христо Смирненски", "healthcare": "hospital", "healthcare:speciality": "general;internal;vaccination;radiology;covid19;surgery;neurology;plastic_surgery;cardiology;orthopaedics;dermatology;paediatrics;physiotherapy", "name": "УМБАЛ \"Св. Марина\""}}, {"name": "МЦ Оксигена", "latitude": 43.1808798, "longitude": 27.8960498, "source": "osm", "_tags": {"amenity": "hospital", "healthcare": "hospital", "name": "МЦ Оксигена"}}, {"name": "II ДКЦ Св. Иван Рилски", "latitude": 43.1813295, "longitude": 27.8956754, "source": "osm", "_tags": {"amenity": "hospital", "healthcare": "hospital", "name": "II ДКЦ Св. Иван Рилски"}}, {"name": "СБАГАЛ \"Проф. д-р Д. Стаматов\"", "latitude": 43.215582, "longitude": 27.914115, "source": "osm", "_tags": {"amenity": "hospital", "healthcare": "hospital", "name": "СБАГАЛ \"Проф. д-р Д. Стаматов\""}}, {"name": "СБОБАЛ Варна", "latitude": 43.2165897, "longitude": 27.9135573, "source": "osm", "_tags": {"amenity": "hospital", "healthcare": "hospital", "name": "СБОБАЛ Варна"}}, {"name": "V ДКЦ \"Св. Екатерина\"", "latitude": 43.2088376, "longitude": 27.8953338, "source": "osm", "_tags": {"amenity": "hospital", "healthcare": "hospital", "name": "V ДКЦ \"Св. Екатерина\""}}, {"name": "ДКЦ Чайка – Курортна поликлиника", "latitude": 43.2129364, "longitude": 27.9353152, "source": "osm", "_tags": {"amenity": "hospital", "healthcare": "hospital", "name": "ДКЦ Чайка – Курортна поликлиника"}}, {"name": "МЦ ПроваМед", "latitude": 43.1779564, "longitude": 27.4439326, "source": "osm", "_tags": {"amenity": "hospital", "healthcare": "hospital", "name": "МЦ ПроваМед"}}, {"name": "ДКЦ Провадия", "latitude": 43.1752898, "longitude": 27.4371594, "source": "osm", "_tags": {"amenity": "hospital", "healthcare": "hospital", "name": "ДКЦ Провадия"}}, {"name": "ЦСМП Провадия", "latitude": 43.1742052, "longitude": 27.4371927, "source": "osm", "_tags": {"amenity": "hospital", "healthcare": "hospital", "name": "ЦСМП Провадия"}}, {"name": "ДКЦ Каспичан", "latitude": 43.3127543, "longitude": 27.1578043, "source": "osm", "_tags": {"amenity": "hospital", "healthcare": "hospital", "name": "ДКЦ Каспичан"}}, {"name": "ДКЦ Нови Пазар", "latitude": 43.3471193, "longitude": 27.2022268, "source": "osm", "_tags": {"amenity": "hospital", "healthcare": "hospital", "name": "ДКЦ Нови Пазар"}}, {"name": "ЦСМП", "latitude": 43.3473749, "longitude": 27.2036464, "source": "osm", "_tags": {"amenity": "hospital", "healthcare": "hospital", "name": "ЦСМП"}}, {"name": "ЦСМП Айтос", "latitude": 42.696786, "longitude": 27.2487125, "source": "osm", "_tags": {"amenity": "hospital", "healthcare": "hospital", "name": "ЦСМП Айтос"}}, {"name": "Медицински комплекс Зорница", "latitude": 42.5151547, "longitude": 27.4653266, "source": "osm", "_tags": {"amenity": "hospital", "healthcare": "hospital", "name": "Медицински комплекс Зорница"}}, {"name": "Областен диспансер за психични заболявания Проф. д-р Иван Темков", "latitude": 42.5141787, "longitude": 27.4740786, "source": "osm", "_tags": {"amenity": "hospital", "building": "yes", "name": "Областен диспансер за психични заболявания Проф. д-р Иван Темков", "name:bg": "Областен диспансер за психични заболявания Проф. д-р Иван Темков"}}, {"name": "УМБАЛ Бургас", "latitude": 42.5135674, "longitude": 27.4659001, "source": "osm", "_tags": {"alt_name": "Окръжна болница Бургас", "amenity": "hospital", "healthcare": "hospital", "name": "УМБАЛ Бургас", "name:bg": "УМБАЛ Бургас", "name:en": "UMBAL Burgas", "wheelchair": "yes"}}, {"name": "Специализирана болница за лечение на пневмо-фтизиатрични заболявания", "latitude": 42.5007069, "longitude": 27.4771321, "source": "osm", "_tags": {"alt_name": "Белодробна болница", "amenity": "hospital", "building": "hospital", "healthcare": "hospital", "name": "Специализирана болница за лечение на пневмо-фтизиатрични заболявания", "name:bg": "Специализирана болница за лечение на пневмо-фтизиатрични заболявания", "name:en": "Specialized Hospital for treatment of pneumo-physical diseases"}}, {"name": "МБАЛ Д-р Маджуров", "latitude": 42.5184461, "longitude": 27.4654598, "source": "osm", "_tags": {"amenity": "hospital", "building": "yes", "name": "МБАЛ Д-р Маджуров", "name:bg": "МБАЛ Д-р Маджуров", "name:en": "Private Surgical Hospital", "old_name": "Частна хирургическа болница"}}, {"name": "Военно-морска болница", "latitude": 43.2277466, "longitude": 27.9262894, "source": "osm", "_tags": {"amenity": "hospital", "barrier": "fence", "emergency": "yes", "fence_type": "metal", "name": "Военно-морска болница"}}, {"name": "Медицински център", "latitude": 43.2576051, "longitude": 27.8165995, "source": "osm", "_tags": {"amenity": "hospital", "building": "yes", "healthcare": "hospital", "name": "Медицински център"}}, {"name": "Аптека", "latitude": 43.2573796, "longitude": 27.8162851, "source": "osm", "_tags": {"amenity": "hospital", "building": "yes", "healthcare": "hospital", "name": "Аптека"}}, {"name": "Ветеринарна клиника", "latitude": 43.2568494, "longitude": 27.824902, "source": "osm", "_tags": {"amenity": "hospital", "name": "Ветеринарна клиника"}}, {"name": "ДКЦ 3", "latitude": 43.2481131, "longitude": 27.8468956, "source": "osm", "_tags": {"amenity": "hospital", "building": "hospital", "building:use": "hospital", "contact:phone": "+359 52 510 310", "healthcare": "hospital", "name": "ДКЦ 3", "name:bg": "ДКЦ III", "website": "http://dkc3.com"}}, {"name": "Viva Clinic", "latitude": 42.697088, "longitude": 27.7048884, "source": "osm", "_tags": {"amenity": "hospital", "building": "hospital", "healthcare": "hospital", "name": "Viva Clinic", "name:bg": "Вива Клиник", "name:en": "Viva Clinic", "opening_hours": "May-Sep: 24/7; Oct-Apr: Mo-Fr 09:00-17:00", "phone": "+359­ 554 95095", "website": "https://www.vivaclinic.bg/"}}, {"name": "Медико-социален комплекс \"Св. Лука\"", "latitude": 43.31406, "longitude": 27.6658769, "source": "osm", "_tags": {"amenity": "hospital", "building": "yes", "name": "Медико-социален комплекс \"Св. Лука\""}}, {"name": "Здравна служба", "latitude": 43.2531257, "longitude": 27.7083484, "source": "osm", "_tags": {"amenity": "hospital", "building": "yes", "emergency": "yes", "name": "Здравна служба"}}, {"name": "Транспортна болница", "latitude": 43.1977675, "longitude": 27.9134196, "source": "osm", "_tags": {"amenity": "hospital", "building": "yes", "healthcare": "hospital", "image": "https://photos.app.goo.gl/na85LtqCDavXEkFS8", "name": "Транспортна болница"}}, {"name": "Диспансер за белодробни заболявания", "latitude": 43.2097436, "longitude": 27.8907878, "source": "osm", "_tags": {"addr:city": "Варна", "addr:housenumber": "11A", "addr:postcode": "9009", "addr:street": "Mануш Войвода", "amenity": "hospital", "name": "Диспансер за белодробни заболявания", "name:en": "Lungs treating Dispensary"}}, {"name": "Здравна служба", "latitude": 43.2163148, "longitude": 27.8183073, "source": "osm", "_tags": {"amenity": "hospital", "building": "yes", "name": "Здравна служба"}}, {"name": "Поликлиника", "latitude": 42.8767299, "longitude": 27.8863855, "source": "osm", "_tags": {"amenity": "hospital", "building": "yes", "name": "Поликлиника"}}, {"name": "", "latitude": 42.6677801, "longitude": 27.706577, "source": "osm", "_tags": {"amenity": "hospital", "building": "yes", "healthcare": "hospital"}}, {"name": "Медицински комплекс \"Майчин дом\" - Варна", "latitude": 43.2200954, "longitude": 27.9265264, "source": "osm", "_tags": {"amenity": "hospital", "int_name": "Meditsinski kompleks \"Maychin dom\" - Varna", "name": "Медицински комплекс \"Майчин дом\" - Варна", "name:en": "Medical complex \"Maychin dom\" - Varna"}}, {"name": "Специализирана болница за рехабилитация Мари", "latitude": 42.6532823, "longitude": 27.6927367, "source": "osm", "_tags": {"addr:city": "Несебър", "addr:postcode": "8230", "addr:street": "Кипарис", "amenity": "hospital", "building": "yes", "healthcare": "hospital", "name": "Специализирана болница за рехабилитация Мари", "website": "https://www.sbr-mari.com/"}}, {"name": "Комплексен онкологичен център-Бургас ЕООД", "latitude": 42.5013792, "longitude": 27.4753518, "source": "osm", "_tags": {"amenity": "hospital", "building": "yes", "level": "3", "name": "Комплексен онкологичен център-Бургас ЕООД"}}, {"name": "Отделение УМБАЛ \"Света Марина\"", "latitude": 42.9615785, "longitude": 27.881907, "source": "osm", "_tags": {"amenity": "hospital", "name": "Отделение УМБАЛ \"Света Марина\""}}, {"name": "Лайф Хоспитал", "latitude": 42.5275291, "longitude": 27.4680125, "source": "osm", "_tags": {"addr:housenumber": "бл. 184", "addr:place": "ж.к. Изгрев", "amenity": "hospital", "building": "yes", "email": "medik@lifehospitalbg.com", "healthcare": "hospital", "int_name": "Life Hospital", "internet_access": "wlan", "name": "Лайф Хоспитал", "name:en": "Life Hospital", "opening_hours": "24/7", "phone": "+359 56 875 050;+359 89 467 9964", "website": "https://www.lifehospitalbg.com/"}}, {"name": "МБАЛ Дева Мария", "latitude": 42.6059159, "longitude": 27.3857904, "source": "osm", "_tags": {"amenity": "hospital", "building": "hospital", "healthcare": "hospital", "name": "МБАЛ Дева Мария", "website": "https://www.devamaria.com/bg/home2"}}, {"name": "Болница Слънчев Бряг", "latitude": 42.6677569, "longitude": 27.7065961, "source": "osm", "_tags": {"amenity": "hospital", "name": "Болница Слънчев Бряг", "name:en": "Sunny Beach Hospital"}}, {"name": "Хоспис Филаретова ЕООД", "latitude": 43.1684841, "longitude": 27.9213105, "source": "osm", "_tags": {"amenity": "hospital", "name": "Хоспис Филаретова ЕООД"}}, {"name": "Специализирана Болница за рехабилитация - Бургаски минерални бани", "latitude": 42.6108779, "longitude": 27.3917468, "source": "osm", "_tags": {"amenity": "hospital", "building": "yes", "name": "Специализирана Болница за рехабилитация - Бургаски минерални бани"}}, {"name": "МБАЛ Поморие", "latitude": 42.5644011, "longitude": 27.6374537, "source": "osm", "_tags": {"amenity": "hospital", "name": "МБАЛ Поморие", "name:ru": "Грязелечебница"}}, {"name": "МБАЛ Бургасмед", "latitude": 42.4633517, "longitude": 27.420723, "source": "osm", "_tags": {"amenity": "hospital", "emergency": "yes", "healthcare": "hospital", "name": "МБАЛ Бургасмед", "name:en": "Burgasmed", "website": "https://hospitalburgasmed.bg/"}}, {"name": "", "latitude": 43.2232825, "longitude": 27.5864842, "source": "osm", "_tags": {"amenity": "hospital", "healthcare": "hospital"}}, {"name": "", "latitude": 43.1919142, "longitude": 27.7107747, "source": "osm", "_tags": {"amenity": "hospital", "healthcare": "hospital"}}, {"name": "МБАЛ Карнобат", "latitude": 42.6499379, "longitude": 26.9960266, "source": "osm", "_tags": {"amenity": "hospital", "healthcare": "hospital", "name": "МБАЛ Карнобат"}}, {"name": "I ДКЦ", "latitude": 42.6968638, "longitude": 27.248811, "source": "osm", "_tags": {"amenity": "hospital", "healthcare": "hospital", "name": "I ДКЦ"}}, {"name": "", "latitude": 42.701281, "longitude": 27.2535506, "source": "osm", "_tags": {"amenity": "hospital", "healthcare": "hospital"}}, {"name": "", "latitude": 42.6977274, "longitude": 27.2635785, "source": "osm", "_tags": {"amenity": "hospital", "healthcare": "hospital"}}, {"name": "Аджибадем Сити Клиник", "latitude": 43.2173783, "longitude": 27.9160266, "source": "osm", "_tags": {"addr:housenumber": "1", "addr:street": "Брегалница", "amenity": "hospital", "building": "yes", "healthcare": "hospital", "name": "Аджибадем Сити Клиник", "name:en": "Acıbadem City Clinic", "operator": "Acıbadem", "operator:type": "private", "operator:wikidata": "Q19610384", "website": "https://acibademcityclinic.bg/varna/"}}, {"name": "Лайф хоспитал", "latitude": 42.7157294, "longitude": 27.7597403, "source": "osm", "_tags": {"amenity": "hospital", "healthcare": "hospital", "name": "Лайф хоспитал", "name:en": "Life Hospital"}}, {"name": "МБАЛ \"Д-р Добри Беров\"", "latitude": 43.3468905, "longitude": 27.2026874, "source": "osm", "_tags": {"amenity": "hospital", "healthcare": "hospital", "name": "МБАЛ \"Д-р Добри Беров\""}}, {"name": "Света София", "latitude": 42.4945255, "longitude": 27.4734968, "source": "osm", "_tags": {"amenity": "hospital", "building": "yes", "healthcare": "hospital", "name": "Света София"}}, {"name": "МБАЛ \"Сърце и мозък\"", "latitude": 42.5276865, "longitude": 27.445044, "source": "osm", "_tags": {"addr:city": "Бургас", "addr:housenumber": "1", "addr:postcode": "8000", "addr:street": "Здраве", "amenity": "hospital", "healthcare": "hospital", "healthcare:speciality": "cardiothoracic_surgery;neurosurgery;vascular_surgery;cardiology;neurology;gastroenterology;urology;physiatry;anaesthetics;intensive;trauma;orthopaedics;diagnostic_radiology", "name": "МБАЛ \"Сърце и мозък\"", "operator": "Български кардиологичен институт", "operator:type": "private", "phone": "+359 56 703 003"}}, {"name": "Градска болница", "latitude": 43.2063558, "longitude": 27.9091326, "source": "osm", "_tags": {"amenity": "hospital", "healthcare": "hospital", "name": "Градска болница"}}, {"name": "", "latitude": 43.1762671, "longitude": 27.9011414, "source": "osm", "_tags": {"amenity": "hospital", "healthcare": "hospital"}}, {"name": "МБАЛ \"Царица Йоанна\"", "latitude": 43.1743415, "longitude": 27.4366382, "source": "osm", "_tags": {"amenity": "hospital", "healthcare": "hospital", "name": "МБАЛ \"Царица Йоанна\""}}, {"name": "", "latitude": 43.2087073, "longitude": 27.8952491, "source": "osm", "_tags": {"amenity": "hospital", "healthcare": "hospital"}}, {"name": "Национална онкологична болница \"Дева Мария\"", "latitude": 42.606146, "longitude": 27.3855524, "source": "osm", "_tags": {"amenity": "hospital", "building": "yes", "healthcare": "hospital", "healthcare:speciality": "oncology", "name": "Национална онкологична болница \"Дева Мария\"", "website": "https://www.devamaria.com/bg/home"}}, {"name": "", "latitude": 43.2295001, "longitude": 27.8841643, "source": "osm", "_tags": {"amenity": "hospital", "barrier": "fence", "healthcare": "hospital", "type": "multipolygon"}}, {"name": "", "latitude": 42.6987699, "longitude": 27.7118099, "source": "osm", "_tags": {"amenity": "hospital", "building": "yes", "healthcare": "hospital", "type": "multipolygon"}}, {"name": "ДКЦ 1 Св. Клементина", "latitude": 43.206293, "longitude": 27.9091598, "source": "osm", "_tags": {"amenity": "hospital", "building": "yes", "description": "Градска болница", "healthcare": "hospital", "name": "ДКЦ 1 Св. Клементина", "type": "multipolygon"}}, {"name": "МБАЛ Света Анна", "latitude": 43.2139272, "longitude": 27.9177215, "source": "osm", "_tags": {"amenity": "hospital", "healthcare": "hospital", "name": "МБАЛ Света Анна", "name:de": "St.-Anna-Krankenhaus", "name:en": "St. Anna Hospital", "type": "multipolygon", "website": "https://www.svetamarina.com/", "wheelchair": "yes"}}, {"name": "ДКЦ 4 - Варна", "latitude": 43.2149034, "longitude": 27.9175765, "source": "osm", "_tags": {"amenity": "hospital", "building": "hospital", "healthcare": "hospital", "healthcare:speciality": "general", "name": "ДКЦ 4 - Варна", "operator": "МБАЛ \"Света Анна\"", "operator:type": "public", "type": "multipolygon"}}, {"name": "МБАЛ Света Марина", "latitude": 43.2272388, "longitude": 27.9365417, "source": "osm", "_tags": {"amenity": "hospital", "healthcare": "hospital", "healthcare:speciality": "general;intensive;emergency;surgery;oncology;dialysis;community", "name": "МБАЛ Света Марина", "type": "multipolygon", "wheelchair": "yes"}}]