[{"name": "Hitna pomoć", "latitude": 42.4456632, "longitude": 19.2626288, "source": "osm", "_tags": {"addr:street": "Vaka Đurovića", "amenity": "hospital", "emergency": "yes", "healthcare": "hospital", "name": "Hitna pomoć", "name:en": "Emergency Center", "name:sr": "Хитна помоћ", "name:sr-Latn": "Hitna pomoć"}}, {"name": "Dom zdravlja Konik", "latitude": 42.437135, "longitude": 19.2819026, "source": "osm", "_tags": {"addr:street": "Aleksandra Puškina", "amenity": "hospital", "check_date": "2024-11-07", "healthcare": "hospital", "name": "Dom zdravlja Konik", "name:sr": "Дом здравља Коник"}}, {"name": "Dom zdravlja Blok 5", "latitude": 42.4462195, "longitude": 19.2433933, "source": "osm", "_tags": {"addr:city": "Podgorica", "addr:housenumber": "6", "addr:postcode": "81000", "addr:street": "Trg Nikole Kovačevića", "amenity": "hospital", "healthcare": "hospital", "name": "Dom zdravlja Blok 5"}}, {"name": "Dom zdravlja", "latitude": 42.5639161, "longitude": 19.8312484, "source": "osm", "_tags": {"amenity": "hospital", "emergency": "no", "name": "Dom zdravlja"}}, {"name": "Institut za onkologiju i radioterapiju", "latitude": 42.4365125, "longitude": 19.2473278, "source": "osm", "_tags": {"addr:housenumber": "bb", "addr:street": "Ljubljanska", "healthcare": "hospital", "name": "Institut za onkologiju i radioterapiju", "operator": "Institut za onkologiju i radioterapiju"}}, {"name": "Institut za javno zdravlje CG", "latitude": 42.437775, "longitude": 19.247165, "source": "osm", "_tags": {"addr:city": "Podgorica", "addr:postcode": "81000", "addr:street": "Džona Džeksona", "healthcare": "hospital", "name": "Institut za javno zdravlje CG", "operator": "Institut za javno zdravlje CG"}}, {"name": "Dom Zdravlja", "latitude": 43.0355152, "longitude": 19.7513144, "source": "osm", "_tags": {"amenity": "hospital", "emergency": "yes", "healthcare": "hospital", "name": "Dom Zdravlja"}}, {"name": "", "latitude": 42.7517727, "longitude": 18.9567629, "source": "osm", "_tags": {"amenity": "hospital", "healthcare": "hospital"}}, {"name": "", "latitude": 42.9625704, "longitude": 19.5841464, "source": "osm", "_tags": {"amenity": "hospital", "name:en": "DOM ZDRAVLJA MOJKOVAC"}}, {"name": "Feniks Medika", "latitude": 42.4432487, "longitude": 19.2654957, "source": "osm", "_tags": {"addr:city": "Podgorica", "addr:housenumber": "58/3", "addr:postcode": "81000", "addr:street": "Bulevar Ivana Crnojevića", "amenity": "hospital", "healthcare": "hospital", "name": "Feniks Medika", "opening_hours": "Mo-Fr 07:30-20:00; Sa 07:30-14:00"}}, {"name": "Zdravstvena stanica Žabljak", "latitude": 43.1557874, "longitude": 19.1247991, "source": "osm", "_tags": {"amenity": "hospital", "name": "Zdravstvena stanica Žabljak"}}, {"name": "Dom zdravlja", "latitude": 42.7337004, "longitude": 19.79319, "source": "osm", "_tags": {"amenity": "hospital", "name": "Dom zdravlja", "name:en": "Hospital", "name:sr": "Дом здравља"}}, {"name": "Hipokrat", "latitude": 42.463232, "longitude": 19.2678298, "source": "osm", "_tags": {"amenity": "hospital", "name": "Hipokrat", "name:sr-Latn": "Hipokrat centar za magnentu rezonancu"}}, {"name": "Dom zdravlja Tološi", "latitude": 42.4524364, "longitude": 19.2245577, "source": "osm", "_tags": {"addr:city": "Podgorica", "addr:housenumber": "34", "addr:postcode": "81000", "addr:street": "Ivangradska", "amenity": "hospital", "healthcare": "hospital", "healthcare:speciality": "general", "name": "Dom zdravlja Tološi", "name:sr": "Дом здравља Толоши"}}, {"name": "Poliklinika DaVinci", "latitude": 42.4261677, "longitude": 19.2569442, "source": "osm", "_tags": {"healthcare": "hospital", "name": "Poliklinika DaVinci"}}, {"name": "Zavod Za Hitnu Medicinsku Pomoć Crne Gore", "latitude": 42.8241278, "longitude": 19.5263135, "source": "osm", "_tags": {"addr:housenumber": "8a", "addr:street": "Dunje Đokić", "amenity": "hospital", "healthcare": "hospital", "name": "Zavod Za Hitnu Medicinsku Pomoć Crne Gore", "name:en": "Emergency Room Kolašin"}}, {"name": "Dom Zdravlja Kolašin", "latitude": 42.8242801, "longitude": 19.5257597, "source": "osm", "_tags": {"amenity": "hospital", "healthcare": "hospital", "name": "Dom Zdravlja Kolašin"}}, {"name": "Klinički centar Crne Gore", "latitude": 42.4374505, "longitude": 19.2458921, "source": "osm", "_tags": {"addr:city": "Podgorica", "addr:postcode": "81000", "addr:street": "Ljubljanska", "building": "hospital", "emergency": "yes", "healthcare": "hospital", "name": "Klinički centar Crne Gore", "nohousenumber": "yes"}}, {"name": "Institut za bolesti djece", "latitude": 42.4365185, "longitude": 19.2437718, "source": "osm", "_tags": {"addr:city": "Podgorica", "addr:postcode": "81000", "addr:street": "Ljubljanska", "building": "hospital", "healthcare": "hospital", "name": "Institut za bolesti djece", "name:sr": "Институт за болести деце", "name:sr-Latn": "Institut za bolesti djece", "nohousenumber": "yes"}}, {"name": "Dom Zdravlja Plav", "latitude": 42.599905, "longitude": 19.939945, "source": "osm", "_tags": {"amenity": "hospital", "emergency": "no", "healthcare": "hospital", "name": "Dom Zdravlja Plav", "name:sr": "Дом здравља Плав"}}, {"name": "Klinički centar Crne Gore", "latitude": 42.4372064, "longitude": 19.2452163, "source": "osm", "_tags": {"addr:city": "Podgorica", "addr:housenumber": "bb", "addr:postcode": "81000", "addr:street": "Ljubljanska", "amenity": "hospital", "emergency": "yes", "healthcare": "hospital", "name": "Klinički centar Crne Gore"}}, {"name": "Dom zdravlja Pobrežje", "latitude": 42.4309569, "longitude": 19.2584836, "source": "osm", "_tags": {"amenity": "hospital", "building": "yes", "healthcare": "hospital", "name": "Dom zdravlja Pobrežje"}}, {"name": "Dom zdravlja", "latitude": 42.4401697, "longitude": 19.2684723, "source": "osm", "_tags": {"amenity": "hospital", "healthcare": "hospital", "name": "Dom zdravlja", "name:sr": "Дом здравља"}}, {"name": "Opšta bolnica Nikšić", "latitude": 42.7775209, "longitude": 18.9441989, "source": "osm", "_tags": {"amenity": "hospital", "emergency": "yes", "healthcare": "hospital", "name": "Opšta bolnica Nikšić", "name:sr": "Општа болница Никшић", "name:sr-Latn": "Opšta bolnica Nikšić"}}, {"name": "Centralni dom zdravlja Stari Aerodrom", "latitude": 42.4306867, "longitude": 19.2785121, "source": "osm", "_tags": {"amenity": "hospital", "building": "yes", "emergency": "no", "healthcare": "hospital", "name": "Centralni dom zdravlja Stari Aerodrom"}}, {"name": "Opšta Bolnica Bijelo Polje", "latitude": 43.0295641, "longitude": 19.7309236, "source": "osm", "_tags": {"amenity": "hospital", "building": "hospital", "emergency": "yes", "healthcare": "hospital", "name": "Opšta Bolnica Bijelo Polje"}}, {"name": "CODRA", "latitude": 42.4292989, "longitude": 19.2544768, "source": "osm", "_tags": {"addr:city": "Podgorica", "addr:street": "Radosava Burića", "amenity": "hospital", "building": "hospital", "healthcare": "hospital", "name": "CODRA", "website": "http://www.codrahospital.com"}}, {"name": "Centralni dom zdravlja Stari Aerodrom", "latitude": 42.4306926, "longitude": 19.2785688, "source": "osm", "_tags": {"addr:street": "Mirka Banjevića", "amenity": "hospital", "healthcare": "hospital", "name": "Centralni dom zdravlja Stari Aerodrom"}}, {"name": "Opšta bolnica Pljevlja", "latitude": 43.3599255, "longitude": 19.3508816, "source": "osm", "_tags": {"amenity": "hospital", "healthcare": "hospital", "name": "Opšta bolnica Pljevlja"}}, {"name": "Stomatološka poliklinika", "latitude": 42.4385274, "longitude": 19.2438917, "source": "osm", "_tags": {"addr:city": "Podgorica", "addr:postcode": "81000", "addr:street": "Ljubljanska", "building": "hospital", "healthcare": "hospital", "name": "Stomatološka poliklinika", "name:sr": "Стоматолошка поликлиника", "nohousenumber": "yes"}}, {"name": "Општа болница Пријепоље", "latitude": 43.3892764, "longitude": 19.6627472, "source": "osm", "_tags": {"amenity": "hospital", "healthcare": "hospital", "int_name": "Opsta bolnica Prijepolje", "name": "Општа болница Пријепоље", "name:sr": "Општа болница Пријепоље", "name:sr-Latn": "Opšta bolnica Prijepolje", "operator": "Zdravstveni centar Užice", "operator:type": "government", "phone": "+38133714163; +38133714166", "website": "http://www.zcue.rs/sr/op%C5%A1ta-bolnica-u-prijepolju"}}, {"name": "Dom zdravlja", "latitude": 42.8500618, "longitude": 19.8695602, "source": "osm", "_tags": {"addr:city": "Berane", "addr:postcode": "84300", "addr:street": "Miljana Tomičića", "amenity": "hospital", "building": "hospital", "healthcare": "hospital", "name": "Dom zdravlja", "type": "multipolygon"}}]