[{"name": "AMF SHEREMET / Nr. 05", "latitude": 42.4347732, "longitude": 20.3272679, "source": "osm", "_tags": {"amenity": "hospital", "name": "AMF SHEREMET / Nr. 05"}}, {"name": "Ambulanca (Tavnik)", "latitude": 42.8771349, "longitude": 20.8600576, "source": "osm", "_tags": {"amenity": "hospital", "name": "Ambulanca (Tavnik)", "wheelchair": "limited"}}, {"name": "Qendra e Mjeksise Familjare", "latitude": 42.6605649, "longitude": 20.2834918, "source": "osm", "_tags": {"amenity": "hospital", "emergency": "yes", "name": "Qendra e Mjeksise Familjare"}}, {"name": "Mitrovica Hospital South", "latitude": 42.8862018, "longitude": 20.873612, "source": "osm", "_tags": {"amenity": "hospital", "name": "Mitrovica Hospital South"}}, {"name": "Medical center", "latitude": 42.454556, "longitude": 20.7192701, "source": "osm", "_tags": {"amenity": "hospital", "emergency": "no", "name": "Medical center"}}, {"name": "Ordinanca Vitas", "latitude": 42.6237715, "longitude": 20.8867681, "source": "osm", "_tags": {"addr:city": "Drenas", "addr:housenumber": "13000", "addr:postcode": "13000", "addr:street": "R 102", "amenity": "hospital", "description": "Ambulance specialistike internistike gastroenterohepatologjike.", "ele": "pa rendesishem", "name": "Ordinanca Vitas", "operator": "vala"}}, {"name": "Qendra e Mjekesise Familjare - Strellc", "latitude": 42.5793295, "longitude": 20.2937103, "source": "osm", "_tags": {"addr:postcode": "51010", "amenity": "hospital", "name": "Qendra e Mjekesise Familjare - Strellc", "name:sq": "Qendra e Mjekesise Familjare - Strellc", "opening_hours": "Mo-Fr 08:30-02:30"}}, {"name": "Ambulanca Adem Ukehaxhaj", "latitude": 42.5327194, "longitude": 20.2945761, "source": "osm", "_tags": {"amenity": "hospital", "name": "Ambulanca Adem Ukehaxhaj"}}, {"name": "AMF MULLIQ / Nr. 06", "latitude": 42.4365188, "longitude": 20.2675984, "source": "osm", "_tags": {"amenity": "hospital", "emergency": "yes", "name": "AMF MULLIQ / Nr. 06"}}, {"name": "QMF CERMJANI / nr 7", "latitude": 42.4737895, "longitude": 20.4752761, "source": "osm", "_tags": {"amenity": "hospital", "name": "QMF CERMJANI / nr 7"}}, {"name": "AMF BEC / Nr. 07", "latitude": 42.4418743, "longitude": 20.4483588, "source": "osm", "_tags": {"amenity": "hospital", "emergency": "yes", "name": "AMF BEC / Nr. 07"}}, {"name": "AMF GERGOC / Nr. 09", "latitude": 42.5092436, "longitude": 20.4557605, "source": "osm", "_tags": {"amenity": "hospital", "emergency": "yes", "name": "AMF GERGOC / Nr. 09"}}, {"name": "AMF SHQIPONJE / Nr. 11", "latitude": 42.5431021, "longitude": 20.4806527, "source": "osm", "_tags": {"amenity": "hospital", "name": "AMF SHQIPONJE / Nr. 11"}}, {"name": "AMF NOVOSELLA / Nr. 13", "latitude": 42.462457, "longitude": 20.3929235, "source": "osm", "_tags": {"amenity": "hospital", "name": "AMF NOVOSELLA / Nr. 13"}}, {"name": "", "latitude": 43.4145924, "longitude": 20.4815821, "source": "osm", "_tags": {"amenity": "hospital", "healthcare": "hospital"}}, {"name": "QMF Zhabar", "latitude": 42.866404, "longitude": 20.8417108, "source": "osm", "_tags": {"amenity": "hospital", "name": "QMF Zhabar", "name:sq": "QMF Zhabar"}}, {"name": "QMF Komoran", "latitude": 42.5752273, "longitude": 20.8989745, "source": "osm", "_tags": {"amenity": "hospital", "name": "QMF Komoran", "name:sq": "QMF Komoran"}}, {"name": "Ambulanca e Çabrës", "latitude": 42.9019375, "longitude": 20.7790063, "source": "osm", "_tags": {"addr:street": "Rruga Artan H", "amenity": "hospital", "name": "Ambulanca e Çabrës"}}, {"name": "", "latitude": 42.8407162, "longitude": 20.1654182, "source": "osm", "_tags": {"addr:city": "Rožaje", "addr:postcode": "84310", "addr:street": "m-5", "amenity": "hospital", "emergency": "yes", "healthcare": "hospital", "name:sr-Latn": "Hitna pomoć", "shop": "convenience"}}, {"name": "Qendra Kryesore e Mjekësisë Familjare(QKMF)", "latitude": 42.7471727, "longitude": 20.7871748, "source": "osm", "_tags": {"amenity": "hospital", "healthcare": "hospital", "healthcare:speciality": "general", "name": "Qendra Kryesore e Mjekësisë Familjare(QKMF)", "operator": "Ministria e Shëndetësisë, Komuna Skënderaj"}}, {"name": "", "latitude": 42.6951629, "longitude": 20.3386382, "source": "osm", "_tags": {"addr:city": "Peje", "addr:postcode": "30090", "addr:street": "Ćamila Sijarića", "amenity": "hospital", "emergency": "yes", "healthcare": "hospital", "healthcare:speciality": "general;stomatology"}}, {"name": "Barnatore Joni-Med", "latitude": 42.7476495, "longitude": 20.7877544, "source": "osm", "_tags": {"amenity": "hospital", "healthcare": "hospital", "name": "Barnatore Joni-Med"}}, {"name": "QKMF- Qendër Kryesore e Mjeksisë Familjare", "latitude": 42.7472524, "longitude": 20.7870039, "source": "osm", "_tags": {"addr:city": "Skenderaj", "addr:housenumber": "47", "addr:street": "18 Qershori", "amenity": "hospital", "emergency": "yes", "healthcare": "hospital", "healthcare:speciality": "general", "name": "QKMF- Qendër Kryesore e Mjeksisë Familjare"}}, {"name": "QMF- Qendër e Mjeksisë Familjare", "latitude": 42.6642557, "longitude": 20.8471753, "source": "osm", "_tags": {"addr:city": "Terstenik", "addr:housenumber": "2", "addr:street": "Hamit Bylykbashi", "amenity": "hospital", "healthcare": "hospital", "healthcare:speciality": "general", "name": "QMF- Qendër e Mjeksisë Familjare"}}, {"name": "QMF- Qender e Mjeksisë Familjare", "latitude": 42.7161709, "longitude": 20.9005156, "source": "osm", "_tags": {"addr:city": "Qiriezi", "addr:housenumber": "24", "addr:street": "Ibish Rama", "amenity": "hospital", "healthcare": "doctor", "healthcare:speciality": "general", "name": "QMF- Qender e Mjeksisë Familjare"}}, {"name": "QMF- Qender e Mjeksisë Familjare", "latitude": 42.7227603, "longitude": 20.4731788, "source": "osm", "_tags": {"addr:city": "Gjurakufci", "addr:housenumber": "65", "addr:street": "Gurra e Kocit", "amenity": "hospital", "healthcare": "doctor", "healthcare:speciality": "general", "name": "QMF- Qender e Mjeksisë Familjare"}}, {"name": "AMF- Ambulancë e Mjeksisë Familjare", "latitude": 42.4391306, "longitude": 20.2708278, "source": "osm", "_tags": {"addr:city": "Molliq", "addr:housenumber": "45", "addr:street": "Dervish Syla", "amenity": "hospital", "healthcare": "hospital", "healthcare:speciality": "general", "name": "AMF- Ambulancë e Mjeksisë Familjare"}}, {"name": "AMF-Ambulancë e Mjeksisë Familjare", "latitude": 42.7248661, "longitude": 20.6631776, "source": "osm", "_tags": {"addr:city": "Izbica", "addr:housenumber": "103", "addr:street": "Shaban Rama", "amenity": "hospital", "healthcare": "hospital", "healthcare:speciality": "general", "name": "AMF-Ambulancë e Mjeksisë Familjare"}}, {"name": "AMF- Ambulancë e Mjeksisë Familjare", "latitude": 42.6500855, "longitude": 20.7169585, "source": "osm", "_tags": {"addr:city": "Araqevë", "addr:housenumber": "48", "addr:street": "Zene Veseli", "amenity": "hospital", "healthcare": "hospital", "healthcare:speciality": "general", "name": "AMF- Ambulancë e Mjeksisë Familjare"}}, {"name": "AMF- Ambulancë e Mjeksisë Familjare", "latitude": 42.5096477, "longitude": 20.455132, "source": "osm", "_tags": {"addr:city": "Gërgoc", "addr:housenumber": "9", "addr:street": "Fazli e Kamer Nimani", "amenity": "hospital", "healthcare": "doctor", "healthcare:speciality": "general", "name": "AMF- Ambulancë e Mjeksisë Familjare"}}, {"name": "AMF- Ambulancë e Mjeksisë Familjare", "latitude": 42.6054703, "longitude": 20.5210179, "source": "osm", "_tags": {"addr:city": "Drenoc", "addr:street": "Shaip Regjepi", "amenity": "hospital", "healthcare": "hospital", "healthcare:speciality": "general", "name": "AMF- Ambulancë e Mjeksisë Familjare"}}, {"name": "AMF- Ambulnacë e Mjeksisë Familjare", "latitude": 42.5863862, "longitude": 20.7335937, "source": "osm", "_tags": {"addr:city": "Ceroviki", "addr:street": "Brigada 113", "amenity": "hospital", "healthcare": "hospital", "healthcare:speciality": "general", "name": "AMF- Ambulnacë e Mjeksisë Familjare"}}, {"name": "AMF- Ambulancë e Mjeksisë Familjare", "latitude": 42.8357821, "longitude": 20.9185695, "source": "osm", "_tags": {"addr:city": "Pantinë", "addr:street": "Bislim Shaqiri", "amenity": "hospital", "healthcare": "hospital", "healthcare:speciality": "general", "name": "AMF- Ambulancë e Mjeksisë Familjare"}}, {"name": "QMF Loxhë", "latitude": 42.6333726, "longitude": 20.3232533, "source": "osm", "_tags": {"health_facility:type": "health_centre", "healthcare": "hospital", "healthcare:speciality": "general", "name": "QMF Loxhë"}}, {"name": "QMF Rizniqi", "latitude": 42.5206026, "longitude": 20.3497764, "source": "osm", "_tags": {"addr:city": "Decan", "amenity": "hospital", "healthcare": "hospital", "healthcare:speciality": "general", "name": "QMF Rizniqi"}}, {"name": "Ordinanca Gjinekologjike LINDA", "latitude": 42.4859018, "longitude": 20.7382933, "source": "osm", "_tags": {"amenity": "hospital", "healthcare": "hospital", "name": "Ordinanca Gjinekologjike LINDA"}}, {"name": "Bolnica Kosovska Mitrovica", "latitude": 42.8922909, "longitude": 20.8596024, "source": "osm", "_tags": {"amenity": "hospital", "healthcare": "hospital", "name": "Bolnica Kosovska Mitrovica", "name:en": "Mitrovica Hospital North", "name:sr-Latn": "Bolnica Kosovska Mitrovica"}}, {"name": "QMF", "latitude": 42.6167218, "longitude": 20.3047689, "source": "osm", "_tags": {"amenity": "hospital", "healthcare": "hospital", "name": "QMF"}}, {"name": "Specijalistička ordinacija „Dr Šačić”", "latitude": 43.144527, "longitude": 20.51888, "source": "osm", "_tags": {"addr:city": "Novi Pazar", "addr:housenumber": "23", "addr:postcode": "36300", "addr:street": "Мехмеда Алибашића", "amenity": "hospital", "email": "seadsacic@gmail.com", "healthcare": "hospital", "healthcare:speciality": "gynaecology;paediatrics", "image": "https://lh3.googleusercontent.com/p/AF1QipM7gWBS_RNRoyYftr1IAkT_k7aBJvsMJ44hmTdH=s680-w680-h510", "mobile": "+38163609098", "name": "Specijalistička ordinacija „Dr Šačić”", "operator": "Dr Sead Šačić", "operator:type": "private", "ref:RS:kucni_broj": "6530170"}}, {"name": "Dom Zdravlja Plav", "latitude": 42.599905, "longitude": 19.939945, "source": "osm", "_tags": {"amenity": "hospital", "emergency": "no", "healthcare": "hospital", "name": "Dom Zdravlja Plav", "name:sr": "Дом здравља Плав"}}, {"name": "", "latitude": 42.8407618, "longitude": 20.1650549, "source": "osm", "_tags": {"amenity": "hospital", "healthcare": "hospital"}}, {"name": "Regionalna bolnica Severna Mitrovica", "latitude": 42.8928928, "longitude": 20.8606069, "source": "osm", "_tags": {"amenity": "hospital", "healthcare": "hospital", "name": "Regionalna bolnica Severna Mitrovica", "name:de": "Regionalkrankenhaus Mitrovica-Norn", "name:en": "Regional Hospital of North Mitrovica", "name:sq": "Spitali Rajonal i Mitrovicës së Veriut", "name:sr": "Регионална болница Косовска Митровица", "name:sr-Latn": "Regionalna bolnica Kosovska Mitrovica"}}, {"name": "", "latitude": 42.8921072, "longitude": 20.8605193, "source": "osm", "_tags": {"addr:street": "Drvarska", "building": "yes", "healthcare": "hospital"}}, {"name": "AMF Novosella Eperme", "latitude": 42.4624523, "longitude": 20.3928929, "source": "osm", "_tags": {"addr:city": "Novoselle e Eperme", "addr:street": "Gjergj Kastrioti", "amenity": "hospital", "building": "yes", "emergency": "yes", "healthcare": "hospital", "name": "AMF Novosella Eperme"}}, {"name": "Q.M.F Vehbi Shamolli", "latitude": 42.5012848, "longitude": 20.9165468, "source": "osm", "_tags": {"amenity": "hospital", "building": "yes", "name": "Q.M.F Vehbi Shamolli"}}, {"name": "Spitali", "latitude": 42.7824483, "longitude": 20.4813764, "source": "osm", "_tags": {"addr:city": "Istog", "amenity": "hospital", "building": "no", "emergency": "no", "healthcare": "hospital", "name": "Spitali", "wheelchair": "no"}}, {"name": "Ambulanta Shëndetsore Kçiq i Madh", "latitude": 42.8614215, "longitude": 20.9250833, "source": "osm", "_tags": {"addr:city": "Mitrovicë", "addr:housename": "Ambulanta Shëndetsore Kçiq i Madh", "amenity": "hospital", "building": "yes", "healthcare:speciality": "general", "name": "Ambulanta Shëndetsore Kçiq i Madh"}}, {"name": "Qendra Kryesore e Mjeksisë Familiare", "latitude": 42.6608843, "longitude": 20.2869069, "source": "osm", "_tags": {"amenity": "hospital", "building": "yes", "name": "Qendra Kryesore e Mjeksisë Familiare", "name:en": "Main Family Health Center", "name:sq": "Qendra Kryesore e Mjeksisë Familiare", "name:sr-Latn": "Glavni Centar Porodnicne Medicine"}}, {"name": "", "latitude": 42.88001, "longitude": 20.8333767, "source": "osm", "_tags": {"amenity": "hospital", "emergency": "yes"}}, {"name": "", "latitude": 42.4742188, "longitude": 20.2749838, "source": "osm", "_tags": {"addr:city": "Junik", "amenity": "hospital", "emergency": "no", "healthcare": "hospital"}}, {"name": "Здравствени центар Нови Пазар", "latitude": 43.1329261, "longitude": 20.5118716, "source": "osm", "_tags": {"amenity": "hospital", "healthcare": "hospital", "int_name": "Zdravstveni centar Novi Pazar", "name": "Здравствени центар Нови Пазар", "name:sr": "Здравствени центар Нови Пазар", "name:sr-Latn": "Zdravstveni centar Novi Pazar", "operator:type": "government"}}, {"name": "Spitali Rajonal i Pejës", "latitude": 42.6622741, "longitude": 20.273158, "source": "osm", "_tags": {"amenity": "hospital", "emergency": "yes", "healthcare": "hospital", "name": "Spitali Rajonal i Pejës", "name:de": "Regionalkrankenhaus Peja", "name:en": "Regional Hospital of Peja", "name:sr": "Regionalna Bolnica Peć"}}, {"name": "Дом здравља", "latitude": 42.9896307, "longitude": 20.3392922, "source": "osm", "_tags": {"amenity": "hospital", "healthcare": "hospital", "int_name": "Dom zdravlja", "name": "Дом здравља"}}, {"name": "Дом здравља Рашка", "latitude": 43.2855931, "longitude": 20.6151263, "source": "osm", "_tags": {"addr:city": "Рашка", "addr:country": "RS", "addr:housenumber": "4", "addr:postcode": "36350", "addr:street": "Др Јовановића", "amenity": "hospital", "building": "yes", "healthcare": "hospital", "int_name": "Dom zdravlja Raska", "name": "Дом здравља Рашка", "name:sr": "Дом здравља Рашка", "name:sr-Latn": "Dom zdravlja Raška", "operator:type": "government", "phone": "+38136736127", "ref:RS:kucni_broj": "6629979", "website": "https://www.dzraska.rs/"}}, {"name": "QKMF- Qendër Krysore e Mjeksisë Familjare", "latitude": 42.7471524, "longitude": 20.7867953, "source": "osm", "_tags": {"addr:city": "Skenderaj", "addr:postcode": "41000", "addr:street": "18 Qershori", "amenity": "hospital", "emergency": "yes", "healthcare": "hospital", "healthcare:speciality": "general", "name": "QKMF- Qendër Krysore e Mjeksisë Familjare"}}, {"name": "", "latitude": 42.7134477, "longitude": 20.4312211, "source": "osm", "_tags": {"healthcare": "hospital"}}, {"name": "AMF- Ambulancë e Mjeksisë Familjare", "latitude": 42.605458, "longitude": 20.5210025, "source": "osm", "_tags": {"addr:city": "Drenoc", "addr:street": "Shaip Regjepi", "amenity": "hospital", "healthcare": "hospital", "healthcare:speciality": "general", "name": "AMF- Ambulancë e Mjeksisë Familjare"}}, {"name": "QMF Ilirida", "latitude": 42.87711, "longitude": 20.8603146, "source": "osm", "_tags": {"addr:city": "Mitrovica", "addr:postcode": "40000", "addr:street": "Murat Haliti", "amenity": "hospital", "healthcare": "hospital", "healthcare:speciality": "general", "name": "QMF Ilirida"}}, {"name": "AMF-Ambulancë e Mjeksisë Familjare", "latitude": 42.7248648, "longitude": 20.6632045, "source": "osm", "_tags": {"addr:city": "Izbica", "addr:street": "Shaban Rama", "amenity": "hospital", "healthcare": "hospital", "healthcare:speciality": "general", "name": "AMF-Ambulancë e Mjeksisë Familjare"}}, {"name": "QMF- Qendër e Mjeksisê Familjare", "latitude": 42.6642689, "longitude": 20.8471772, "source": "osm", "_tags": {"addr:city": "Terstenik", "addr:street": "Nasuf Bylykbashi", "amenity": "hospital", "healthcare": "hospital", "healthcare:speciality": "general", "name": "QMF- Qendër e Mjeksisê Familjare"}}, {"name": "AMF- Ambulancë e Mjeksisë Familjare", "latitude": 42.5863961, "longitude": 20.7335991, "source": "osm", "_tags": {"addr:city": "Ceroviki", "addr:street": "Brigada 113", "amenity": "hospital", "healthcare": "doctor", "healthcare:speciality": "general", "name": "AMF- Ambulancë e Mjeksisë Familjare"}}, {"name": "AMF Volljaka", "latitude": 42.5461041, "longitude": 20.5849843, "source": "osm", "_tags": {"addr:city": "Kline", "addr:street": "Shpend Berisha", "amenity": "hospital", "healthcare": "clinic", "name": "AMF Volljaka"}}, {"name": "AMF- Ambulancë e Mjeksisë Familjare", "latitude": 42.5096814, "longitude": 20.4551362, "source": "osm", "_tags": {"addr:city": "Gërgoc", "addr:street": "Fazli e Kamer Nimani", "amenity": "hospital", "healthcare": "doctor", "healthcare:speciality": "general", "name": "AMF- Ambulancë e Mjeksisë Familjare"}}, {"name": "AMF Llapçevë", "latitude": 42.5017744, "longitude": 20.5854468, "source": "osm", "_tags": {"area": "yes", "building:levels": "1", "check_date": "2024-01-21", "health_facility:type": "dispensary", "healthcare": "hospital", "healthcare:speciality": "general", "hospital": "yes", "name": "AMF Llapçevë"}}, {"name": "QMF- Qender e Mjeksisë Familjare", "latitude": 42.7162249, "longitude": 20.9005303, "source": "osm", "_tags": {"addr:city": "Qiriezi", "addr:street": "Ibish Rama", "amenity": "hospital", "healthcare": "doctor", "healthcare:speciality": "general", "name": "QMF- Qender e Mjeksisë Familjare"}}, {"name": "QMF- Qender e Mjeksisë Familjare", "latitude": 42.7227877, "longitude": 20.4731968, "source": "osm", "_tags": {"addr:city": "Gjurakofci", "addr:street": "Gurra e Kocit", "amenity": "hospital", "healthcare": "doctor", "healthcare:speciality": "general", "name": "QMF- Qender e Mjeksisë Familjare"}}, {"name": "AMF Sushica", "latitude": 42.8057947, "longitude": 20.5755603, "source": "osm", "_tags": {"addr:city": "Istog", "addr:street": "Isuf Sadikaj", "amenity": "hospital", "healthcare": "hospital", "healthcare:speciality": "general", "name": "AMF Sushica"}}, {"name": "Qendra e Mjekësisë Familjare", "latitude": 42.7190572, "longitude": 20.3862343, "source": "osm", "_tags": {"addr:city": "Banjë/Istog", "addr:housenumber": "30", "addr:postcode": "31010", "addr:street": "Myrvete Maksutaj", "amenity": "hospital", "emergency": "yes", "healthcare": "hospital", "name": "Qendra e Mjekësisë Familjare"}}, {"name": "QMF ne Rakosh", "latitude": 42.7853354, "longitude": 20.6098648, "source": "osm", "_tags": {"addr:city": "Rakosh", "addr:housenumber": "11", "addr:postcode": "31000", "addr:street": "Nak Berisha", "amenity": "hospital", "emergency": "yes", "healthcare": "hospital", "healthcare:speciality": "general", "name": "QMF ne Rakosh"}}, {"name": "Spitali Mitrovice", "latitude": 42.8861413, "longitude": 20.8732943, "source": "osm", "_tags": {"amenity": "hospital", "healthcare": "hospital", "name": "Spitali Mitrovice"}}, {"name": "Ordinanca Gjinekologjike LINDA", "latitude": 42.4859083, "longitude": 20.7382985, "source": "osm", "_tags": {"amenity": "hospital", "healthcare": "hospital", "name": "Ordinanca Gjinekologjike LINDA"}}, {"name": "QKMF Smrekonicë", "latitude": 42.8550877, "longitude": 20.9363856, "source": "osm", "_tags": {"amenity": "hospital", "building:levels": "2", "healthcare": "hospital", "healthcare:speciality": "general", "name": "QKMF Smrekonicë"}}, {"name": "", "latitude": 42.8945684, "longitude": 20.8638654, "source": "osm", "_tags": {"amenity": "hospital", "healthcare": "hospital"}}, {"name": "", "latitude": 43.2749154, "longitude": 19.9940677, "source": "osm", "_tags": {"amenity": "hospital", "healthcare": "hospital"}}, {"name": "Dom zdravlja Leposavić", "latitude": 43.1014896, "longitude": 20.8047081, "source": "osm", "_tags": {"addr:city": "Leposavić", "addr:postcode": "43500", "addr:street": "24 Novembar", "amenity": "hospital", "healthcare": "hospital", "name": "Dom zdravlja Leposavić", "opening_hours": "24/7"}}, {"name": "QKMF Mitrovicë", "latitude": 42.8886218, "longitude": 20.8683989, "source": "osm", "_tags": {"addr:city": "Mitrovica", "addr:postcode": "40000", "addr:street": "Kemal Ataturk", "amenity": "hospital", "building": "yes", "name": "QKMF Mitrovicë", "type": "multipolygon"}}]