[{"name": "Distretto Sanitario Di Base Giulianova", "latitude": 42.7622728, "longitude": 13.9634189, "source": "osm", "_tags": {"addr:city": "Giulianova", "addr:postcode": "64021", "addr:street": "Via Ospizio Marino", "amenity": "hospital", "healthcare": "hospital", "name": "Distretto Sanitario Di Base Giulianova", "operator": "ASL", "operator:type": "public", "operator:wikidata": "Q3631467"}}, {"name": "Guardia Medica Turistica", "latitude": 42.7622413, "longitude": 13.9634425, "source": "osm", "_tags": {"addr:city": "Giulianova", "addr:postcode": "64021", "addr:street": "Via Ospizio Marino", "amenity": "hospital", "healthcare": "hospital", "name": "Guardia Medica Turistica", "operator": "ASL", "operator:type": "public", "operator:wikidata": "Q3631467"}}, {"name": "Centro Nutrizionale Regionale", "latitude": 42.7624959, "longitude": 13.9624202, "source": "osm", "_tags": {"addr:city": "Giulianova", "addr:housenumber": "8", "addr:postcode": "64021", "addr:street": "Via Torquato Tasso", "amenity": "hospital", "healthcare": "hospital", "name": "Centro Nutrizionale Regionale", "operator": "ASL", "operator:type": "public", "operator:wikidata": "Q3631467"}}, {"name": "Azienda Sanitaria Locale ASL2 - Lanciano Vasto Chieti", "latitude": 42.4246062, "longitude": 14.2748933, "source": "osm", "_tags": {"addr:city": "Francavilla al Mare", "addr:postcode": "66023", "addr:street": "Strada Statale 649 di Fondo Valle Alento", "alt_name": "Distretto sanitario Francavilla al Mare - Area distrettuale 1", "amenity": "hospital", "contact:email": "areadistrettuale1@asl2abruzzo.it", "emergency": "no", "healthcare": "hospital", "healthcare:speciality": "blood_check;general;cardiology;dermatology;surgery;ophthalmology;dentistry;allergology;gynaecology;psychiatry;radiology;orthopaedics;urology;diabetology", "name": "Azienda Sanitaria Locale ASL2 - Lanciano Vasto Chieti", "opening_hours": "Mo,Th 08:00-12:00; Tu 14:30-16:30", "phone": "+39 085 491 7895;+39 085 917 4201", "website": "https://www.info.asl2abruzzo.it/assistenzaterritoriale/distretto-sanitario-di-francavilla-al-mare.html"}}, {"name": "Ospedale San Liberatore", "latitude": 42.5779904, "longitude": 13.9874152, "source": "osm", "_tags": {"addr:city": "Atri", "addr:housenumber": "1158", "addr:postcode": "64032", "addr:street": "Viale Del Risorgimento", "amenity": "hospital", "emergency": "yes", "healthcare": "hospital", "name": "Ospedale San Liberatore", "phone": "+39 085 87071", "website": "https://www.aslteramo.it/ospedale-di-atri/"}}, {"name": "", "latitude": 42.4638347, "longitude": 14.1971486, "source": "osm", "_tags": {"building": "hospital", "building:colour": "lightyellow", "building:levels": "9", "healthcare": "hospital", "height": "30", "layer": "1", "roof:colour": "grey", "roof:shape": "flat"}}, {"name": "Croce Rossa Italiana - 118", "latitude": 42.5757764, "longitude": 14.0954232, "source": "osm", "_tags": {"addr:city": "Silvi", "addr:housenumber": "8", "addr:postcode": "64028", "addr:street": "Strada Statale 16 Adriatica", "amenity": "hospital", "brand": "Croce Rossa Italiana", "brand:wikidata": "Q913903", "check_date": "2020-10-18", "colour": "white", "emergency": "ambulance_station", "healthcare": "hospital", "lit": "yes", "name": "Croce Rossa Italiana - 118", "operator": "Croce Rossa Italiana - Sede di Silvi", "operator:type": "private_non_profit", "phone": "+39 085 935 4118", "website": "https://www.comune.silvi.te.it/home/vivere/telefoni.html"}}, {"name": "Centro Erogazione Servizi (CERS) Pescara Sud", "latitude": 42.4494614, "longitude": 14.2133029, "source": "osm", "_tags": {"amenity": "hospital", "barrier": "fence", "healthcare": "hospital", "name": "Centro Erogazione Servizi (CERS) Pescara Sud"}}, {"name": "Ospedale Civile Santo Spirito", "latitude": 42.4638566, "longitude": 14.196947, "source": "osm", "_tags": {"addr:city": "Pescara", "addr:housenumber": "8", "addr:postcode": "65124", "addr:street": "Via Fonte Romana", "amenity": "hospital", "emergency": "yes", "healthcare": "hospital", "name": "Ospedale Civile Santo Spirito", "operator:type": "public", "phone": "+39 085 4251", "type": "multipolygon", "website": "https://www.ausl.pe.it/DettaglioSede.jsp?id=30&idSezione=32"}}, {"name": "Casa di Cura Privata “Villa Serena”", "latitude": 42.5180328, "longitude": 14.1148807, "source": "osm", "_tags": {"addr:city": "Città Sant'Angelo", "addr:housenumber": "42", "addr:postcode": "65013", "addr:street": "Via Leonardo Petruzzi", "amenity": "hospital", "contact:fax": "+39 085 959 0206", "contact:phone": "+39 085 95901", "healthcare": "hospital", "name": "Casa di Cura Privata “Villa Serena”", "opening_hours": "24/7", "operator": "Casa di Cura Privata VILLA SERENA del Dr. L. Petruzzi s.r.l.", "operator:type": "private", "ref:vatin": "IT01220790685", "type": "multipolygon", "website": "https://www.villaserena.it/", "wheelchair": "yes"}}, {"name": "Ospedale \"Maria Santissima dello Splendore\"", "latitude": 42.7460449, "longitude": 13.9625914, "source": "osm", "_tags": {"amenity": "hospital", "emergency": "yes", "healthcare": "hospital", "name": "Ospedale \"Maria Santissima dello Splendore\"", "phone": "+39 085 80201", "type": "multipolygon", "website": "https://www.aslteramo.it/ospedale-di-giulianova/", "wikidata": "Q118812830", "wikipedia": "it:Ospedale civile Maria Santissima dello Splendore"}}]