[{"name": "МБАЛ Д-р Стойчо Христов", "latitude": 43.0288479, "longitude": 25.0894146, "source": "osm", "_tags": {"amenity": "hospital", "healthcare": "hospital", "name": "МБАЛ Д-р Стойчо Христов"}}, {"name": "", "latitude": 43.0305561, "longitude": 25.1051859, "source": "osm", "_tags": {"amenity": "hospital", "created_by": "Potlatch 0.10f"}}, {"name": "Стоматологична поликлиника", "latitude": 42.4266658, "longitude": 25.6323264, "source": "osm", "_tags": {"amenity": "hospital", "healthcare": "hospital", "name": "Стоматологична поликлиника"}}, {"name": "Зъболекарски кабинет", "latitude": 42.4238643, "longitude": 25.627654, "source": "osm", "_tags": {"amenity": "hospital", "healthcare": "hospital", "name": "Зъболекарски кабинет"}}, {"name": "", "latitude": 43.2203126, "longitude": 25.7462079, "source": "osm", "_tags": {"amenity": "hospital", "healthcare": "hospital"}}, {"name": "МБАЛ Св. Иван Рилски", "latitude": 43.1163975, "longitude": 25.6987786, "source": "osm", "_tags": {"amenity": "hospital", "emergency": "yes", "name": "МБАЛ Св. Иван Рилски"}}, {"name": "партизанска мед. землянка-М.Палаузов", "latitude": 42.8309332, "longitude": 25.1690285, "source": "osm", "_tags": {"amenity": "hospital", "name": "партизанска мед. землянка-М.Палаузов", "name:bg": "партизанска мед. землянка-М.Палаузов"}}, {"name": "Поликлиника", "latitude": 43.3054263, "longitude": 25.0557697, "source": "osm", "_tags": {"amenity": "hospital", "healthcare": "hospital", "name": "Поликлиника"}}, {"name": "Дежурен кабинет | Д-р Митко Желязков", "latitude": 42.4301721, "longitude": 25.6266084, "source": "osm", "_tags": {"amenity": "hospital", "description": "Дежурен кабинет за първична медицинска помощ", "healthcare": "hospital", "name": "Дежурен кабинет | Д-р Митко Желязков", "phone": "+359 88 895 2486", "website": "https://emergency-care-physician-36.business.site/"}}, {"name": "ДКЦ", "latitude": 43.1608385, "longitude": 25.7378349, "source": "osm", "_tags": {"amenity": "hospital", "name": "ДКЦ"}}, {"name": "Служба по трудова медицина - ВАЛЖАН", "latitude": 42.4233933, "longitude": 25.6227432, "source": "osm", "_tags": {"addr:city": "Стара Загора", "addr:housenumber": "84", "addr:street": "бул. Цар Симеон Велики", "amenity": "hospital", "description": "Медико – диагностична лаборатория - Валжан ЕООД, наричана за краткост МДЛ - ВАЛЖАН, е лечебно заведение за специализирана извънболнична медицинска помощ, учредено в съответствие с изискванията на Търговския закон и Закона за лечебните заведения.", "healthcare": "laboratory", "name": "Служба по трудова медицина - ВАЛЖАН", "phone": "+359 42 602 023", "website": "http://valzhan.com/"}}, {"name": "Д-р Тотка Чукалова", "latitude": 42.6215535, "longitude": 25.3875371, "source": "osm", "_tags": {"addr:city": "Казанлък", "addr:housenumber": "12", "addr:street": "Стара планина", "amenity": "hospital", "description": "В кабинета можете да се възползвате от следните услуги: ботокс, уголемяване на устни, ететична дерматология, коригиране на мимимчески бръчки.", "healthcare": "hospital", "name": "Д-р Тотка Чукалова", "phone": "+359 89 474 9348", "website": "https://dr-chukalova.business.site/"}}, {"name": "Спешни кабинети при ОПЛ", "latitude": 42.422857, "longitude": 25.616354, "source": "osm", "_tags": {"amenity": "hospital", "emergency": "yes", "healthcare": "hospital", "name": "Спешни кабинети при ОПЛ"}}, {"name": "2ра поликлиника", "latitude": 42.4302126, "longitude": 25.6265909, "source": "osm", "_tags": {"amenity": "hospital", "emergency": "no", "healthcare": "hospital", "name": "2ра поликлиника"}}, {"name": "Окръжна болница \"Проф. Стоян Киркович\"", "latitude": 42.4239321, "longitude": 25.6116942, "source": "osm", "_tags": {"amenity": "hospital", "emergency": "yes", "healthcare": "hospital", "name": "Окръжна болница \"Проф. Стоян Киркович\""}}, {"name": "МБАЛ \"Тракия\" - Център", "latitude": 42.4233965, "longitude": 25.635543, "source": "osm", "_tags": {"amenity": "hospital", "building": "yes", "healthcare": "hospital", "name": "МБАЛ \"Тракия\" - Център", "name:en": "Hospital \"Trakia\" - Center", "wheelchair": "yes"}}, {"name": "Медицински център \"Здраве - 2000\"", "latitude": 42.4371137, "longitude": 25.6284035, "source": "osm", "_tags": {"amenity": "hospital", "healthcare": "hospital", "name": "Медицински център \"Здраве - 2000\""}}, {"name": "Медицински център", "latitude": 42.6988056, "longitude": 25.8951146, "source": "osm", "_tags": {"addr:housenumber": "17", "addr:postcode": "8890", "addr:street": "Заводска", "amenity": "hospital", "building": "public", "emergency": "no", "int_name": "Medicinski centar", "name": "Медицински център"}}, {"name": "", "latitude": 43.0850617, "longitude": 25.6320558, "source": "osm", "_tags": {"amenity": "hospital"}}, {"name": "МОБАЛ \"д-р Стефан Черкезов\" (база №1)", "latitude": 43.0757511, "longitude": 25.6129893, "source": "osm", "_tags": {"amenity": "hospital", "emergency": "yes", "name": "МОБАЛ \"д-р Стефан Черкезов\" (база №1)"}}, {"name": "МБАЛ Д-р Димитър Моллов", "latitude": 42.9334492, "longitude": 25.8761252, "source": "osm", "_tags": {"amenity": "hospital", "building": "yes", "name": "МБАЛ Д-р Димитър Моллов"}}, {"name": "Специализирана болница за белодробни заболявания", "latitude": 42.6799632, "longitude": 25.593434, "source": "osm", "_tags": {"amenity": "hospital", "name": "Специализирана болница за белодробни заболявания"}}, {"name": "Болница \"Петромар\" АД", "latitude": 42.6916173, "longitude": 25.3182842, "source": "osm", "_tags": {"amenity": "hospital", "building": "yes", "name": "Болница \"Петромар\" АД"}}, {"name": "Районна болница Д-р Теодоси Витанов", "latitude": 42.8682263, "longitude": 25.4870494, "source": "osm", "_tags": {"amenity": "hospital", "healthcare": "hospital", "name": "Районна болница Д-р Теодоси Витанов"}}, {"name": "", "latitude": 43.2368101, "longitude": 25.3149503, "source": "osm", "_tags": {"amenity": "hospital"}}, {"name": "ДКЦ", "latitude": 42.6216541, "longitude": 25.388393, "source": "osm", "_tags": {"addr:housenumber": "34", "addr:postcode": "6100", "addr:street": "Генерал Скобелев", "amenity": "hospital", "healthcare": "hospital", "name": "ДКЦ", "note": "part of relation 5989294, k: building, v: hospital", "source": "knowledge, aerial photography"}}, {"name": "СБНАЛ \"Свeти Лазар\"", "latitude": 42.6207951, "longitude": 25.3922224, "source": "osm", "_tags": {"addr:housenumber": "13", "addr:postcode": "6100", "addr:street": "Д-р Баев", "amenity": "hospital", "building": "civic", "healthcare": "hospital", "name": "СБНАЛ \"Свeти Лазар\"", "source": "knowledge, aerial photography"}}, {"name": "Детска специализирана болница за белодробни заболявания Царица Йоана", "latitude": 42.8669232, "longitude": 25.4771603, "source": "osm", "_tags": {"amenity": "hospital", "building": "yes", "healthcare": "hospital", "name": "Детска специализирана болница за белодробни заболявания Царица Йоана"}}, {"name": "СБАЛ по Белодробни Болести- Габрово-ПАРАХОДА", "latitude": 42.8438637, "longitude": 25.314653, "source": "osm", "_tags": {"addr:city": "Габрово", "addr:housenumber": "1", "addr:postcode": "5304", "addr:street": "Д-р Кирил Въгленов", "addr:street:en": "D-r Kiril Vaglenov", "addr:suburb": "Дядо Дянко", "addr:suburb:en": "Dyado Dyanko", "amenity": "hospital", "emergency": "no", "name": "СБАЛ по Белодробни Болести- Габрово-ПАРАХОДА", "name:en": "Specialized Hospital for Active Treatment of Pulmonary Diseases - Gabrovo", "website": "https://sbalbbgabrovo.eu/"}}, {"name": "МБАЛ \"Д-р Тота Венкова\"", "latitude": 42.8712531, "longitude": 25.3072341, "source": "osm", "_tags": {"amenity": "hospital", "check_date": "2025-07-05", "emergency": "yes", "healthcare": "hospital", "name": "МБАЛ \"Д-р Тота Венкова\"", "name:en": "MBAL \"D-r Tota Venkova\"", "website": "https://www.mbalgabrovo.com"}}, {"name": "МЦ „Апогей“", "latitude": 42.8827183, "longitude": 25.3206407, "source": "osm", "_tags": {"addr:city": "Габрово", "addr:housenumber": "1", "addr:postcode": "5302", "addr:street": "Ивайло", "amenity": "hospital", "building": "hospital", "healthcare": "hospital", "name": "МЦ „Апогей“"}}, {"name": "Специализирана болница за пневмо - фтизиатрични заболявания \"Д-р Трейман\"", "latitude": 43.0737022, "longitude": 25.643025, "source": "osm", "_tags": {"amenity": "hospital", "healthcare": "hospital", "name": "Специализирана болница за пневмо - фтизиатрични заболявания \"Д-р Трейман\""}}, {"name": "", "latitude": 43.1165232, "longitude": 25.6988292, "source": "osm", "_tags": {"amenity": "hospital", "healthcare": "hospital"}}, {"name": "МБАЛ Левски", "latitude": 43.3659162, "longitude": 25.1342516, "source": "osm", "_tags": {"addr:housenumber": "80", "addr:street": "Никола Вапцаров", "amenity": "hospital", "healthcare": "hospital", "name": "МБАЛ Левски"}}, {"name": "МБАЛ ”Д-р Христо Стамболски”", "latitude": 42.6207892, "longitude": 25.4033324, "source": "osm", "_tags": {"addr:city": "Казанлък", "addr:housenumber": "16", "addr:postcode": "6102", "addr:street": "Старозагорска", "amenity": "hospital", "healthcare": "hospital", "name": "МБАЛ ”Д-р Христо Стамболски”"}}, {"name": "МБАЛ \"Свети Иван Рилски\" – Габрово", "latitude": 42.8514349, "longitude": 25.3226848, "source": "osm", "_tags": {"addr:city": "Габрово", "addr:housenumber": "9", "addr:street": "бул. 3-ти Март", "amenity": "hospital", "healthcare": "hospital", "name": "МБАЛ \"Свети Иван Рилски\" – Габрово", "website": "https://mbal-ivanrilski.com/"}}, {"name": "", "latitude": 43.0394412, "longitude": 25.7434846, "source": "osm", "_tags": {"amenity": "hospital", "healthcare": "hospital"}}, {"name": "Частна МБАЛ \"НИА МЕД\"", "latitude": 42.4249268, "longitude": 25.6175504, "source": "osm", "_tags": {"addr:housenumber": "29", "addr:postcode": "6000", "addr:street": "Стефан Стамболов", "amenity": "hospital", "building": "hospital", "healthcare": "hospital", "name": "Частна МБАЛ \"НИА МЕД\""}}, {"name": "Частна болница \"Ритъм\"", "latitude": 42.4237192, "longitude": 25.628081, "source": "osm", "_tags": {"addr:city": "Стара Загора", "addr:housenumber": "12", "addr:postcode": "6000", "addr:street": "Васил Априлов", "amenity": "hospital", "healthcare": "hospital", "name": "Частна болница \"Ритъм\"", "wheelchair": "yes"}}, {"name": "Акушеро-гинекология", "latitude": 42.4284861, "longitude": 25.6273586, "source": "osm", "_tags": {"addr:city": "Стара Загора", "addr:housenumber": "115", "addr:postcode": "6000", "addr:street": "Генерал Столетов", "amenity": "hospital", "building": "hospital", "healthcare": "hospital", "name": "Акушеро-гинекология"}}, {"name": "Медицински център \"Св. Лука\"", "latitude": 42.4285971, "longitude": 25.6389822, "source": "osm", "_tags": {"addr:city": "Стара Загора", "addr:housenumber": "88", "addr:postcode": "6000", "addr:street": "Стефан Караджа", "amenity": "clinic", "building": "commercial", "emergency": "no", "healthcare": "hospital", "name": "Медицински център \"Св. Лука\""}}, {"name": "Болница \"Тракия\"", "latitude": 42.4361466, "longitude": 25.6128439, "source": "osm", "_tags": {"amenity": "hospital", "building": "hospital", "emergency": "yes", "healthcare": "hospital", "name": "Болница \"Тракия\"", "name:en": "Hospital Trakia"}}, {"name": "Градска Поликлиника", "latitude": 43.0785356, "longitude": 25.6304583, "source": "osm", "_tags": {"amenity": "hospital", "building": "hospital", "emergency": "no", "name": "Градска Поликлиника", "type": "multipolygon", "wheelchair": "yes"}}]