[{"name": "RSA del Santuario", "latitude": 44.3448296, "longitude": 8.4345954, "source": "osm", "_tags": {"amenity": "hospital", "name": "RSA del Santuario"}}, {"name": "Emergency Room", "latitude": 44.3193674, "longitude": 8.491168, "source": "osm", "_tags": {"amenity": "hospital", "name": "Emergency Room", "wheelchair": "yes"}}, {"name": "Croce Verde Finalborgo", "latitude": 44.1762482, "longitude": 8.3292618, "source": "osm", "_tags": {"addr:city": "Finale Ligure", "addr:housename": "P.A. Croce Verde Finalborgo", "addr:housenumber": "8", "addr:postcode": "17024", "addr:street": "Piazza Milite Ignoto", "amenity": "hospital", "emergency": "yes", "healthcare": "hospital", "name": "Croce Verde Finalborgo", "phone": "+39 019 691325", "website": "http://www.croceverde-finalborgo.it/"}}, {"name": "Croce Rossa Italiana - Cogoleto", "latitude": 44.3899979, "longitude": 8.6455346, "source": "osm", "_tags": {"addr:city": "Cogoleto", "addr:housenumber": "8", "addr:postcode": "16016", "addr:street": "Piazza Fosco Maggetti", "brand": "Croce Rossa Italiana", "brand:wikidata": "Q913903", "emergency": "ambulance_station", "healthcare": "hospital", "name": "Croce Rossa Italiana - Cogoleto", "operator": "Croce Rossa Italiana"}}, {"name": "Soccorso Cinofilo Liguria - Campo Addestramento Cani Da Soccorso", "latitude": 44.108102, "longitude": 8.1217112, "source": "osm", "_tags": {"amenity": "hospital", "name": "Soccorso Cinofilo Liguria - Campo Addestramento Cani Da Soccorso"}}, {"name": "Soccorso Cinofilo Liguria - Sede Operativa", "latitude": 44.1114074, "longitude": 8.115215, "source": "osm", "_tags": {"amenity": "hospital", "name": "Soccorso Cinofilo Liguria - Sede Operativa"}}, {"name": "Croce Rossa Italiana - Albenga", "latitude": 44.0429181, "longitude": 8.214555, "source": "osm", "_tags": {"addr:city": "Albenga", "addr:housenumber": "21", "addr:street": "Via Luigi Einaudi", "emergency": "ambulance_station", "healthcare": "hospital", "name": "Croce Rossa Italiana - Albenga"}}, {"name": "Croce Rossa Italiana - Cengio", "latitude": 44.3876925, "longitude": 8.2090188, "source": "osm", "_tags": {"addr:city": "Cengio", "addr:housenumber": "1", "addr:place": "Piazza Martiri Partigiani", "addr:postcode": "17056", "emergency": "ambulance_station", "healthcare": "hospital", "name": "Croce Rossa Italiana - Cengio"}}, {"name": "Croce Rossa Italiana - Ceriale-", "latitude": 44.0958085, "longitude": 8.2271304, "source": "osm", "_tags": {"addr:city": "Ceriale", "addr:housenumber": "93", "addr:street": "Via Tagliasacchi", "emergency": "ambulance_station", "healthcare": "hospital", "name": "Croce Rossa Italiana - Ceriale-"}}, {"name": "Croce Rossa Italiana - Alassio", "latitude": 44.0026149, "longitude": 8.1597138, "source": "osm", "_tags": {"addr:city": "Alassio", "addr:housenumber": "123", "addr:postcode": "17021", "addr:street": "Via Neghelli", "brand": "Croce Rossa Italiana", "brand:wikidata": "Q913903", "emergency": "ambulance_station", "healthcare": "hospital", "name": "Croce Rossa Italiana - Alassio"}}, {"name": "Croce Rossa - Diano Marina", "latitude": 43.9057187, "longitude": 8.0786104, "source": "osm", "_tags": {"addr:city": "Diano Marina", "addr:housenumber": "9", "addr:postcode": "18013", "addr:street": "Viale Venti Settembre", "emergency": "ambulance_station", "healthcare": "hospital", "name": "Croce Rossa - Diano Marina"}}, {"name": "Croce Rossa - Millesimo -", "latitude": 44.3658675, "longitude": 8.2054735, "source": "osm", "_tags": {"addr:city": "Millesimo", "addr:housenumber": "43", "addr:postcode": "17017", "addr:street": "Piazza della Libertà", "brand": "Croce Rossa Italiana", "brand:wikidata": "Q913903", "emergency": "ambulance_station", "healthcare": "hospital", "name": "Croce Rossa - Millesimo -"}}, {"name": "Ambulanze Pietra Soccorso", "latitude": 44.1542345, "longitude": 8.283932, "source": "osm", "_tags": {"addr:city": "Pietra Ligure", "addr:housenumber": "41", "addr:postcode": "17024", "addr:street": "Via Francesco Crispi", "amenity": "hospital", "healthcare": "hospital", "name": "Ambulanze Pietra Soccorso"}}, {"name": "Croce Bianca Borghetto S.S.", "latitude": 44.1098712, "longitude": 8.2415442, "source": "osm", "_tags": {"addr:city": "Borghetto Santo Spirito", "addr:housenumber": "6r", "addr:street": "Via Andreino Patrone", "amenity": "hospital", "healthcare": "hospital", "name": "Croce Bianca Borghetto S.S."}}, {"name": "Croce Bianca Altare", "latitude": 44.3373353, "longitude": 8.3335793, "source": "osm", "_tags": {"addr:city": "Altare", "addr:housenumber": "17", "addr:street": "Via 8 Marzo", "amenity": "hospital", "healthcare": "hospital", "name": "Croce Bianca Altare"}}, {"name": "Croce Verde Murialdo", "latitude": 44.3160928, "longitude": 8.1623331, "source": "osm", "_tags": {"addr:city": "Murialdo", "addr:housenumber": "54", "addr:street": "Borgata Piano", "amenity": "hospital", "check_date": "2025-06-08", "healthcare": "hospital", "name": "Croce Verde Murialdo"}}, {"name": "Croce Verde Bardineto", "latitude": 44.1929134, "longitude": 8.1342487, "source": "osm", "_tags": {"addr:city": "Bardineto", "addr:housenumber": "1", "addr:street": "Piazza G. Frascheri", "amenity": "hospital", "healthcare": "hospital", "name": "Croce Verde Bardineto"}}, {"name": "Asl 1 Imperiese", "latitude": 43.9056705, "longitude": 8.0785916, "source": "osm", "_tags": {"addr:city": "Diano Marina", "addr:housenumber": "9", "addr:postcode": "18013", "addr:street": "Viale Venti Settembre", "amenity": "hospital", "healthcare": "hospital", "name": "Asl 1 Imperiese"}}, {"name": "Ospedale Ruffini", "latitude": 44.1726387, "longitude": 8.3408305, "source": "osm", "_tags": {"amenity": "hospital", "name": "Ospedale Ruffini"}}, {"name": "Santa Maria di Misericordia", "latitude": 44.0547092, "longitude": 8.1994931, "source": "osm", "_tags": {"addr:city": "Albenga", "addr:street": "Via Martiri della Foce", "amenity": "hospital", "emergency": "yes", "name": "Santa Maria di Misericordia", "operator": "A.S.L. 2", "source": "local knowledge", "wheelchair": "yes"}}, {"name": "Ospedale San Paolo", "latitude": 44.3198402, "longitude": 8.4922032, "source": "osm", "_tags": {"amenity": "hospital", "name": "Ospedale San Paolo", "phone": "+39 019 84041", "toilets:wheelchair": "yes", "wheelchair": "yes", "wikidata": "Q28671422"}}, {"name": "Ospedale Galliera", "latitude": 44.3995944, "longitude": 8.9410234, "source": "osm", "_tags": {"addr:city": "Genova", "addr:housenumber": "8", "addr:postcode": "16128", "addr:street": "Via Alessandro Volta", "amenity": "hospital", "emergency": "yes", "healthcare": "hospital", "name": "Ospedale Galliera", "official_name": "Ente Ospedaliero Ospedali Galliera", "short_name": "EO Ospedali Galliera", "url": "http://www.galliera.it", "wheelchair": "yes", "wikidata": "Q1344478"}}, {"name": "Ospedale Villa Scassi", "latitude": 44.4147494, "longitude": 8.8974205, "source": "osm", "_tags": {"amenity": "hospital", "emergency": "yes", "healthcare": "hospital", "name": "Ospedale Villa Scassi"}}, {"name": "La Colletta", "latitude": 44.4003026, "longitude": 8.6636882, "source": "osm", "_tags": {"amenity": "hospital", "emergency": "no", "name": "La Colletta", "phone": "+39 010 84981", "website": "https://www.asl3.liguria.it/ospedali/la-colletta-arenzano.html", "wheelchair": "yes"}}, {"name": "", "latitude": 44.1282756, "longitude": 8.2584587, "source": "osm", "_tags": {"amenity": "hospital", "building": "yes", "source": "Regione Liguria"}}, {"name": "", "latitude": 44.1151883, "longitude": 8.2423749, "source": "osm", "_tags": {"amenity": "hospital", "building": "yes", "healthcare": "hospital", "source": "Regione Liguria"}}, {"name": "Presentazione", "latitude": 44.1240005, "longitude": 8.2504526, "source": "osm", "_tags": {"amenity": "hospital", "building": "yes", "name": "Presentazione", "source": "Regione Liguria"}}, {"name": "", "latitude": 44.1562699, "longitude": 8.2993357, "source": "osm", "_tags": {"amenity": "hospital", "building": "yes", "source": "Regione Liguria"}}, {"name": "Ricovero RSA Noceti", "latitude": 44.3467827, "longitude": 8.4362528, "source": "osm", "_tags": {"amenity": "hospital", "building": "yes", "name": "Ricovero RSA Noceti", "source": "Regione Liguria"}}, {"name": "Ospedale", "latitude": 43.8914609, "longitude": 8.0308516, "source": "osm", "_tags": {"amenity": "hospital", "emergency": "yes", "healthcare": "hospital", "name": "Ospedale"}}, {"name": "ANFASS Savona", "latitude": 44.3148476, "longitude": 8.4853659, "source": "osm", "_tags": {"amenity": "hospital", "building": "yes", "name": "ANFASS Savona", "source": "Regione Liguria"}}, {"name": "Casa di Riposo", "latitude": 44.3384847, "longitude": 8.5099321, "source": "osm", "_tags": {"amenity": "hospital", "building": "yes", "check_date": "2025-09-06", "name": "Casa di Riposo", "source": "Regione Liguria", "wheelchair": "yes"}}, {"name": "Area ed edifici Ex Ospedale Psichiatrico", "latitude": 44.3915197, "longitude": 8.6211361, "source": "osm", "_tags": {"amenity": "hospital", "disused": "yes", "emergency": "no", "healthcare": "hospital", "name": "Area ed edifici Ex Ospedale Psichiatrico", "operator": "FinTecna S.p.A."}}, {"name": "", "latitude": 44.3127535, "longitude": 8.4772063, "source": "osm", "_tags": {"amenity": "hospital"}}, {"name": "Centro Medico Dea Diana", "latitude": 43.9127518, "longitude": 8.0852828, "source": "osm", "_tags": {"addr:city": "Diano Marina", "addr:housenumber": "89", "addr:postcode": "18013", "addr:street": "Viale John Fitzgerald Kennedy", "amenity": "hospital", "healthcare": "hospital", "name": "Centro Medico Dea Diana", "source": "Regione Liguria"}}, {"name": "", "latitude": 44.007877, "longitude": 8.1678188, "source": "osm", "_tags": {"amenity": "hospital", "building": "yes", "healthcare": "hospital", "source": "Regione Liguria"}}, {"name": "", "latitude": 44.0081448, "longitude": 8.1674251, "source": "osm", "_tags": {"amenity": "hospital", "building": "yes", "healthcare": "hospital", "source": "Regione Liguria"}}, {"name": "", "latitude": 44.0074761, "longitude": 8.1681234, "source": "osm", "_tags": {"amenity": "hospital", "building": "yes", "healthcare": "hospital", "source": "Regione Liguria"}}, {"name": "Residenza Protetta Pra' Ellera, Comunità Terapeutica", "latitude": 44.4066039, "longitude": 8.3068552, "source": "osm", "_tags": {"addr:city": "Cairo Montenotte", "addr:housenumber": "17", "addr:postcode": "17014", "addr:street": "Strada Pra' Ellera", "amenity": "hospital", "building": "house", "name": "Residenza Protetta Pra' Ellera, Comunità Terapeutica", "operator": "SSN", "phone": "+39 019 500260", "source": "Struttura"}}, {"name": "Croce Bianca Laigueglia", "latitude": 43.979912, "longitude": 8.1580229, "source": "osm", "_tags": {"addr:city": "Laigueglia", "addr:housenumber": "1", "addr:street": "Piazza San Matteo", "amenity": "hospital", "emergency": "ambulance_station", "name": "Croce Bianca Laigueglia"}}, {"name": "Ospedale Santa Corona", "latitude": 44.1441819, "longitude": 8.2710696, "source": "osm", "_tags": {"addr:city": "Pietra Ligure", "addr:housenumber": "38", "addr:postcode": "17027", "addr:street": "Via 25 Aprile", "amenity": "hospital", "email": "dirsan.pietra@asl2.liguria.it", "emergency": "yes", "fax": "+39 019 6232060", "healthcare": "hospital", "name": "Ospedale Santa Corona", "operator": "Azienda sociosanitaria ligure 2", "phone": "+39 019 62301", "website": "https://www.asl2.liguria.it/ospedali/ospedale-pietra-ligure.html"}}, {"name": "Ospedale Poveri Infermi", "latitude": 44.3776746, "longitude": 8.0382397, "source": "osm", "_tags": {"addr:city": "Ceva", "addr:housenumber": "4", "addr:postcode": "12073", "addr:street": "Via San Bernardino", "amenity": "hospital", "emergency": "yes", "healthcare": "hospital", "name": "Ospedale Poveri Infermi", "operator": "ASL CN1"}}, {"name": "Ospedale San Giuseppe", "latitude": 44.4018183, "longitude": 8.2703823, "source": "osm", "_tags": {"addr:city": "Cairo Montenotte", "addr:housenumber": "29", "addr:postcode": "17014", "addr:street": "Corso Martiri della Libertà", "amenity": "hospital", "emergency": "yes", "healthcare": "hospital", "name": "Ospedale San Giuseppe", "operator": "ASL2 Liguria"}}, {"name": "Ospedale", "latitude": 43.8506978, "longitude": 7.9526803, "source": "osm", "_tags": {"abandoned:building": "yes", "access": "no", "amenity": "hospital", "healthcare": "hospital", "name": "Ospedale", "type": "multipolygon"}}]