[{"name": "Hôpital de Nyons", "latitude": 44.3595647, "longitude": 5.1370531, "source": "osm", "_tags": {"addr:housenumber": "11", "addr:street": "Rue Jules Bernard", "amenity": "hospital", "name": "Hôpital de Nyons", "ref:FR:FINESS": "260000237", "source": "Le ministère des solidarités et de la santé - 03/2019", "wikidata": "Q92062842"}}, {"name": "Hôpital de Gordes", "latitude": 43.9124723, "longitude": 5.2002779, "source": "osm", "_tags": {"amenity": "hospital", "name": "Hôpital de Gordes", "ref:FR:FINESS": "840000426", "wikidata": "Q92062596"}}, {"name": "Clinique Synergia Ventoux", "latitude": 44.0470805, "longitude": 5.0281709, "source": "osm", "_tags": {"amenity": "hospital", "fax": "+33 4 32 85 85 99", "fixme": "Localisation approximative dans le Pole Santé", "healthcare": "hospital", "name": "Clinique Synergia Ventoux", "operator:type": "private", "phone": "+33 4 32 85 85 85", "ref:FR:FINESS": "840017172", "type:FR:FINESS": "128", "website": "https://carpentras.clinique-synergia.com/"}}, {"name": "Centre médico-psychologique Valréas", "latitude": 44.3835061, "longitude": 4.9912057, "source": "osm", "_tags": {"amenity": "hospital", "fax": "+33490239858", "healthcare": "hospital", "name": "Centre médico-psychologique Valréas", "phone": "+33490038979", "ref:FR:FINESS": "840011175", "ref:FR:SIRET": "26840009000968", "source": "Le ministère des solidarités et de la santé - 2025-07", "type:FR:FINESS": "292"}}, {"name": "Centre hospitalier Montperrin", "latitude": 43.521186, "longitude": 5.4402622, "source": "osm", "_tags": {"amenity": "hospital", "healthcare": "hospital", "healthcare:speciality": "psychiatry", "name": "Centre hospitalier Montperrin", "phone": "+33 4 42 16 16 16", "ref:FR:FINESS": "130000433", "type:FR:FINESS": "292"}}, {"name": "Clinique du Château de Florans", "latitude": 43.7166753, "longitude": 5.3113156, "source": "osm", "_tags": {"amenity": "hospital", "building": "castle", "emergency": "no", "healthcare": "hospital", "healthcare:speciality": "physiatry", "historic": "castle", "name": "Clinique du Château de Florans", "phone": "+33 4 42 95 75 00", "ref:FR:FINESS": "130782444", "source": "cadastre-dgi-fr source : Direction Générale des Impôts - Cadastre ; mise à jour : 2009", "type:FR:FINESS": "109"}}, {"name": "Centre hospitalier du Pays d'Aix", "latitude": 43.5354691, "longitude": 5.4433612, "source": "osm", "_tags": {"addr:city": "Aix-en-Provence", "addr:street": "Avenue des Tamarys", "amenity": "hospital", "emergency": "yes", "fax": "+33 4 42 33 51 20", "healthcare": "hospital", "healthcare:speciality": "intensive", "landuse": "healthcare", "name": "Centre hospitalier du Pays d'Aix", "operator:type": "public", "phone": "+33 4 42 33 50 00", "ref:FR:FINESS": "130000409", "source": "BDOrtho IGN 2018, survey", "type:FR:FINESS": "355", "website": "https://www.ch-aix.fr/", "wikidata": "Q50036407"}}, {"name": "Centre hospitalier de Pertuis", "latitude": 43.6941047, "longitude": 5.4992721, "source": "osm", "_tags": {"amenity": "hospital", "emergency": "yes", "fax": "+33 4 90 09 43 23", "healthcare": "hospital", "name": "Centre hospitalier de Pertuis", "operator": "Centre hospitalier du Pays d'Aix", "operator:type": "public", "phone": "+33 4 42 33 50 00", "ref:FR:FINESS": "840000491", "source": "cadastre-dgi-fr source : Direction Générale des Impôts - Cadastre. Mise à jour : 2010", "type:FR:FINESS": "355", "website": "https://www.ch-aix.fr", "wikidata": "Q104875046"}}, {"name": "Centre hospitalier de Vaison-la-Romaine", "latitude": 44.239615, "longitude": 5.0751657, "source": "osm", "_tags": {"amenity": "hospital", "building": "hospital", "email": "direction@ch-vaison.fr", "emergency": "yes", "fax": "+33 4 90 36 29 48", "healthcare": "hospital", "name": "Centre hospitalier de Vaison-la-Romaine", "operator:type": "public", "phone": "+33 4 90 36 04 58", "ref:FR:FINESS": "840000525", "source": "cadastre-dgi-fr source : Direction Générale des Impôts - Cadastre. Mise à jour : 2010", "type:FR:FINESS": "355", "website": "https://www.ch-vaison.fr/"}}, {"name": "Centre de Santé de Manosque", "latitude": 43.8302523, "longitude": 5.7805769, "source": "osm", "_tags": {"addr:city": "Manosque", "addr:postcode": "04100", "addr:street": "Avenue du Majoral Mestre Raoul Arnaud", "amenity": "hospital", "building": "yes", "healthcare": "yes", "healthcare:speciality": "dentist;biology;radiology;nurse", "name": "Centre de Santé de Manosque", "phone": "+33 4 92 70 58 60", "ref:FR:FINESS": "040003816", "type:FR:FINESS": "124", "website": "http://www.cdsmanosque.fr/"}}, {"name": "Hôpitlal de Sault", "latitude": 44.0941778, "longitude": 5.4168132, "source": "osm", "_tags": {"addr:city": "Sault", "addr:postcode": "84390", "addr:street": "Quartier Mougne", "amenity": "hospital", "emergency": "no", "fax": "+33 4 90 64 19 01", "healthcare": "hospital", "landuse": "healthcare", "name": "Hôpitlal de Sault", "phone": "+33 4 90 64 19 00", "ref:FR:FINESS": "840000517", "type:FR:FINESS": "106", "wikidata": "Q92061597"}}, {"name": "Hôpital local", "latitude": 44.2772411, "longitude": 5.2710682, "source": "osm", "_tags": {"amenity": "hospital", "healthcare": "hospital", "name": "Hôpital local", "ref:FR:FINESS": "260000278", "type:FR:FINESS": "106", "wikidata": "Q92063099"}}, {"name": "Les Vallons", "latitude": 43.4209867, "longitude": 5.0373399, "source": "osm", "_tags": {"amenity": "hospital", "check_date": "2024-08-09", "healthcare": "hospital", "name": "Les Vallons", "phone": "+33 4 42 43 28 25", "ref:FR:FINESS": "130790157", "type:FR:FINESS": "355"}}, {"name": "Pôle santé CHS Montfavet", "latitude": 44.047339, "longitude": 5.0283982, "source": "osm", "_tags": {"amenity": "hospital", "healthcare": "hospital", "name": "Pôle santé CHS Montfavet", "ref:FR:FINESS": "840007413", "type:FR:FINESS": "292"}}, {"name": "Clinique Toutes Aures", "latitude": 43.8242372, "longitude": 5.781246, "source": "osm", "_tags": {"addr:housenumber": "393", "addr:street": "Avenue des Savels", "amenity": "hospital", "building": "yes", "healthcare": "hospital", "healthcare:speciality": "surgery", "name": "Clinique Toutes Aures", "ref:FR:FINESS": "040780470", "source": "cadastre-dgi-fr source : Direction Générale des Impôts - Cadastre. Mise à jour : 2010", "type:FR:FINESS": "128"}}, {"name": "Centre hospitalier du Pays d'Apt", "latitude": 43.8756843, "longitude": 5.3830262, "source": "osm", "_tags": {"amenity": "hospital", "email": "dir.apt@ch-apt.fr", "emergency": "yes", "fax": "+33 4 90 04 34 98", "healthcare": "hospital", "landuse": "healthcare", "name": "Centre hospitalier du Pays d'Apt", "operator:type": "public", "phone": "+33 4 90 04 33 00", "ref:FR:FINESS": "840000343", "type:FR:FINESS": "355", "website": "http://www.ch-apt.fr/", "wikidata": "Q104874890"}}, {"name": "Centre hospitalier de Salon-de-Provence", "latitude": 43.6391371, "longitude": 5.1034347, "source": "osm", "_tags": {"amenity": "hospital", "emergency": "yes", "fax": "+33 4 90 56 61 45", "healthcare": "hospital", "healthcare:speciality": "intensive", "name": "Centre hospitalier de Salon-de-Provence", "operator:type": "private", "phone": "+33 4 90 44 91 44", "ref:FR:FINESS": "130001225", "source": "cadastre-dgi-fr source : Direction Générale des Impôts - Cadastre;mise à jour : 2007", "type:FR:FINESS": "355", "website": "https://www.ch-salon.fr/"}}, {"name": "Centre hospitalier intercommunal de Cavaillon-Lauris", "latitude": 43.8402777, "longitude": 5.0371378, "source": "osm", "_tags": {"amenity": "hospital", "emergency": "yes", "fax": "+33 4 90 78 85 50", "healthcare": "hospital", "landuse": "healthcare", "name": "Centre hospitalier intercommunal de Cavaillon-Lauris", "operator:type": "public", "phone": "+33 4 90 78 85 00", "ref:FR:FINESS": "840000418", "short_name": "CHI Cavaillon-Lauris", "source": "Bing", "type:FR:FINESS": "355", "website": "http://www.ch-cavaillon.fr", "wikidata": "Q104875407"}}, {"name": "Hôpital privé de Provence", "latitude": 43.5019285, "longitude": 5.4378527, "source": "osm", "_tags": {"amenity": "hospital", "emergency": "yes", "fax": "+33 4 42 33 17 23", "healthcare": "hospital", "healthcare:speciality": "intensive", "landuse": "healthcare", "name": "Hôpital privé de Provence", "operator:type": "private", "phone": "+33 4 42 33 88 00", "ref:FR:FINESS": "130786361", "start_date": "2019-06-03", "type:FR:FINESS": "365", "website": "https://www.hopital-prive-de-provence.com/fr/"}}, {"name": "Centre hospitalier Buëch-Durance", "latitude": 44.3229081, "longitude": 5.8116674, "source": "osm", "_tags": {"addr:city": "Laragne-Montéglin", "addr:postcode": "05300", "addr:street": "Route d'Arzeliers", "amenity": "hospital", "email": "contact@chbd-laragne.fr", "emergency": "no", "healthcare": "hospital", "healthcare:speciality": "psychiatry;physiatry", "landuse": "healthcare", "name": "Centre hospitalier Buëch-Durance", "phone": "+33 4 92 65 11 68", "ref:FR:FINESS": "050000132", "source": "aerial", "website": "https://www.chbd-laragne.fr/", "wikidata": "Q104875331"}}, {"name": "Clinique du Mont Ventoux", "latitude": 44.0504798, "longitude": 5.0364721, "source": "osm", "_tags": {"addr:housenumber": "121", "addr:street": "Avenue Jean Henri Fabre", "amenity": "hospital", "healthcare": "hospital", "landuse": "healthcare", "name": "Clinique du Mont Ventoux", "opening_hours": "Mo-Su 09:00-12:00, 14:00-18:00", "operator": "MEDICA France", "ref:FR:FINESS": "840017214", "ref:FR:SIRET": "42097899100032", "source": "cadastre-dgi-fr source : Direction Générale des Impôts - Cadastre. Mise à jour : 2010", "type:FR:FINESS": "109", "website": "https://www.korian.fr"}}, {"name": "Clinique Axium", "latitude": 43.5345755, "longitude": 5.435443, "source": "osm", "_tags": {"addr:city": "Aix-en-Provence", "addr:housenumber": "21", "addr:postcode": "13100", "addr:street": "Avenue Albert Capus", "amenity": "hospital", "fax": "+33442957273", "healthcare": "clinic", "landuse": "healthcare", "name": "Clinique Axium", "operator": "Almaviva Santé", "operator:type": "private", "phone": "+33442957272", "ref:FR:FINESS": "130810740", "ref:FR:SIRET": "34046010400037", "source": "Le ministère des solidarités et de la santé - 03/2019", "type:FR:FINESS": "365", "website": "https://www.cliniqueaxium.fr/fr/"}}, {"name": "Centre hospitalier de Carpentras", "latitude": 44.0469431, "longitude": 5.027142, "source": "osm", "_tags": {"addr:street": "Rond-Point de l'Amitié Vevey Seesen", "amenity": "hospital", "emergency": "yes", "fax": "+33 4 32 85 88 89", "healthcare": "hospital", "name": "Centre hospitalier de Carpentras", "operator:type": "public", "phone": "+33 4 32 85 88 88", "ref:FR:FINESS": "840000392", "type:FR:FINESS": "355", "website": "https://www.ch-carpentras.fr/", "wikidata": "Q16507375"}}, {"name": "Clinique de l'Étang de l'Olivier", "latitude": 43.5081365, "longitude": 4.9921704, "source": "osm", "_tags": {"addr:housenumber": "4", "addr:street": "Rue Roger Carpentier", "alt_name": "Clinique privée d'Istres", "amenity": "hospital", "emergency": "yes", "fax": "+33 4 42 47 60 81", "healthcare": "hospital", "landuse": "healthcare", "name": "Clinique de l'Étang de l'Olivier", "operator": "Almaviva Santé", "operator:type": "private", "phone": "+33 4 42 47 60 00", "ref:FR:FINESS": "130782071", "type:FR:FINESS": "365", "website": "https://www.clinique-etang-olivier.fr/fr/"}}, {"name": "Hôpital Dieudonné Collomp", "latitude": 44.0424311, "longitude": 5.6310782, "source": "osm", "_tags": {"amenity": "hospital", "email": "direction@ch-banon.fr", "emergency": "no", "fax": "+33 4 92 70 80 38", "healthcare": "hospital", "name": "Hôpital Dieudonné Collomp", "operator:type": "public", "phone": "+33 4 92 73 21 00", "ref:FR:FINESS": "040000028", "type:FR:FINESS": "106", "website": "http://www.hopital-banon.fr/"}}, {"name": "Clinique La Lauranne", "latitude": 43.4650859, "longitude": 5.3967899, "source": "osm", "_tags": {"addr:housename": "Clinique La Lauranne", "addr:housenumber": "1059", "addr:street": "Chemin de Saint Hilaire", "amenity": "clinic", "contact:email": "contact@clinique-la-lauranne.com", "contact:fax": "+33 4 42 22 98 00", "contact:phone": "+33 4 42 22 97 97", "contact:website": "http://www.clinique-la-lauranne.com/", "dispensing": "no", "healthcare": "hospital", "name": "Clinique La Lauranne", "ref:FR:FINESS": "130798002", "type:FR:FINESS": "161"}}, {"name": "Clinique Saint-Christophe", "latitude": 43.4639748, "longitude": 5.3983199, "source": "osm", "_tags": {"amenity": "hospital", "healthcare": "hospital", "healthcare:speciality": "physiatry", "name": "Clinique Saint-Christophe", "phone": "+33 8 26 39 03 26", "ref:FR:FINESS": "130785983", "type:FR:FINESS": "109"}}, {"name": "Clinique Provence Azur", "latitude": 43.572528, "longitude": 5.3627477, "source": "osm", "_tags": {"amenity": "hospital", "healthcare": "hospital", "healthcare:speciality": "physiatry", "name": "Clinique Provence Azur", "phone": "+33 4 42 28 28 28", "ref:FR:FINESS": "130781917", "type:FR:FINESS": "109"}}, {"name": "Paul Cezanne", "latitude": 43.4211851, "longitude": 5.5146002, "source": "osm", "_tags": {"amenity": "hospital", "healthcare": "hospital", "healthcare:speciality": "physiatry", "name": "Paul Cezanne", "name:oc": "Paul Cesana", "phone": "+33 4 42 65 61 00", "ref:FR:FINESS": "130786932", "source:name:oc": "ieo-bdtopoc", "type:FR:FINESS": "109"}}, {"name": "Clinique Vignoli", "latitude": 43.6382886, "longitude": 5.0897517, "source": "osm", "_tags": {"addr:city": "Salon-de-Provence", "addr:housenumber": "114", "addr:postcode": "13300", "addr:street": "Avenue Paul Bourret", "amenity": "hospital", "fax": "+33490172599", "healthcare": "hospital", "name": "Clinique Vignoli", "network": "Almaviva", "operator:type": "private", "phone": "+33490172500", "ref:FR:FINESS": "130782675", "ref:FR:SIRET": "63548016300016", "source": "Le ministère des solidarités et de la santé - 03/2019", "type:FR:FINESS": "128", "website": "https://www.clinique-vignoli.fr/"}}, {"name": "Centre hospitalier de Valréas", "latitude": 44.3828453, "longitude": 4.9914236, "source": "osm", "_tags": {"alt_name": "Hôpital Jules Niel", "amenity": "hospital", "building": "hospital", "emergency": "yes", "fax": "+33 4 90 35 09 97", "healthcare": "hospital", "name": "Centre hospitalier de Valréas", "name:oc": "Centre espitalier de Vauriaç", "operator:type": "public", "phone": "+33 4 90 28 51 51", "ref:FR:FINESS": "840000533", "source": "cadastre-dgi-fr source : Direction Générale des Finances Publiques - Cadastre. Mise à jour : 2020", "source:name:oc": "ieo-bdtopoc", "type:FR:FINESS": "355"}}, {"name": "Centre de Santé de Manosque", "latitude": 43.830169, "longitude": 5.7809506, "source": "osm", "_tags": {"amenity": "hospital", "healthcare": "hospital", "name": "Centre de Santé de Manosque"}}, {"name": "Centre hospitalier de l'Isle-sur-la-Sorgue", "latitude": 43.9206397, "longitude": 5.0485186, "source": "osm", "_tags": {"amenity": "hospital", "building": "yes", "healthcare": "hospital", "name": "Centre hospitalier de l'Isle-sur-la-Sorgue", "ref:FR:FINESS": "840000434", "type": "multipolygon", "type:FR:FINESS": "106", "wikidata": "Q92062608"}}, {"name": "Centre hospitalier Louis Raffalli", "latitude": 43.8286119, "longitude": 5.8058273, "source": "osm", "_tags": {"addr:street": "Chemin Auguste Girard", "alt_name": "Centre hospitalier de Manosque", "amenity": "hospital", "building": "hospital", "emergency": "yes", "fax": "+33 4 92 77 72 42", "healthcare": "hospital", "name": "Centre hospitalier Louis Raffalli", "operator:type": "public", "phone": "+33 4 92 73 42 00", "ref:FR:FINESS": "040000093", "type": "multipolygon", "type:FR:FINESS": "355", "website": "https://www.ch-manosque.fr//", "wheelchair": "limited"}}]