[{"name": "Centre des Carmes", "latitude": 44.0587704, "longitude": 6.1475717, "source": "osm", "_tags": {"addr:city": "Aiglun", "addr:housenumber": "689", "addr:postcode": "04510", "addr:street": "Avenue Marius Autric", "amenity": "hospital", "email": "centre.des.carmes@wanadoo.fr", "emergency": "no", "fax": "+33 4 92 34 60 49", "healthcare": "hospital", "name": "Centre des Carmes", "phone": "+33 4 92 30 34 00", "ref:FR:FINESS": "040002248", "type:FR:FINESS": "362", "website": "http://www.centre-des-carmes-aiglun.fr", "wheelchair": "yes", "wikidata": "Q112975078"}}, {"name": "Centre de Réadaptation", "latitude": 44.0588545, "longitude": 6.1481023, "source": "osm", "_tags": {"amenity": "hospital", "beds": "70", "healthcare": "hospital", "name": "Centre de Réadaptation", "ref:FR:FINESS": "040780405", "type:FR:FINESS": "109"}}, {"name": "Unité de diététique Somedi", "latitude": 43.5746684, "longitude": 6.9339904, "source": "osm", "_tags": {"amenity": "hospital", "name": "Unité de diététique Somedi", "note": "Emplacement précis à déterminer", "ref:FR:FINESS": "060800182", "type:FR:FINESS": "109"}}, {"name": "Hôpital Saint-Maur", "latitude": 44.2558857, "longitude": 6.9248371, "source": "osm", "_tags": {"amenity": "hospital", "building": "hospital", "healthcare": "hospital", "name": "Hôpital Saint-Maur", "ref:FR:FINESS": "060000163", "source": "cadastre-dgi-fr source : Direction Générale des Impôts - Cadastre. Mise à jour : 2022", "wikidata": "Q92063224"}}, {"name": "Médecin-Infirmiers", "latitude": 43.5903691, "longitude": 6.5348098, "source": "osm", "_tags": {"amenity": "hospital", "healthcare": "hospital", "name": "Médecin-Infirmiers"}}, {"name": "Elsan Clinique les Lauriers", "latitude": 43.4353794, "longitude": 6.7558634, "source": "osm", "_tags": {"amenity": "hospital", "healthcare": "hospital", "name": "Elsan Clinique les Lauriers", "operator": "Elsan", "website": "https://www.elsan.care/fr/clinique-les-lauriers"}}, {"name": "Centre hospitalier intercommunal Fréjus Saint-Raphaël", "latitude": 43.4390462, "longitude": 6.7518601, "source": "osm", "_tags": {"alt_name": "Hôpital Bonnet", "amenity": "hospital", "check_date": "2025-09-04", "emergency": "yes", "fax": "+33 4 94 40 20 41", "healthcare:speciality": "intensive", "landuse": "healthcare", "name": "Centre hospitalier intercommunal Fréjus Saint-Raphaël", "operator:type": "public", "phone": "+33 4 94 40 21 21", "ref:FR:FINESS": "830000311", "short_name": "CHI Fréjus Saint-Raphaël", "type:FR:FINESS": "355", "website": "https://www.chi-fsr.fr/", "wikidata": "Q30293554"}}, {"name": "Centre hospitalier intercommunal des Alpes du Sud", "latitude": 44.1929536, "longitude": 5.9438077, "source": "osm", "_tags": {"alt_name": "Centre hospitalier de Sisteron", "amenity": "hospital", "emergency": "yes", "fax": "+33 4 92 33 71 81", "healthcare": "hospital", "name": "Centre hospitalier intercommunal des Alpes du Sud", "operator:type": "public", "phone": "+33 4 92 33 70 00", "ref:FR:FINESS": "040000135", "ref:FR:SIRET": "26050347900057", "short_name": "CHICAS", "source": "cadastre-dgi-fr source : Direction Générale des Impôts - Cadastre. Mise à jour : 2009", "type:FR:FINESS": "355", "website": "https://www.chicas-gap.fr/", "wikidata": "Q64937929"}}, {"name": "Clinique Notre-Dame", "latitude": 43.5324126, "longitude": 6.4531881, "source": "osm", "_tags": {"amenity": "hospital", "healthcare": "hospital", "name": "Clinique Notre-Dame", "ref:FR:FINESS": "830100392", "source": "cadastre-dgi-fr source : Direction Générale des Impôts - Cadastre. Mise à jour : 2009", "type:FR:FINESS": "365"}}, {"name": "Hôpital de Riez", "latitude": 43.81894, "longitude": 6.090125, "source": "osm", "_tags": {"amenity": "hospital", "building": "yes", "name": "Hôpital de Riez", "ref:FR:FINESS": "040000119", "source": "cadastre-dgi-fr source : Direction Générale des Impôts - Cadastre. Mise à jour : 2010", "wheelchair": "limited", "wikidata": "Q92063290"}}, {"name": "Hôpital Pierre Grouès", "latitude": 44.3877995, "longitude": 6.6495265, "source": "osm", "_tags": {"addr:city": "Barcelonnette", "addr:country": "FR", "addr:housenumber": "8", "addr:postcode": "04400", "addr:street": "Rue Maurin", "amenity": "hospital", "building": "hospital", "email": "direction-barcelonnette@hopitaux-ubayens.fr", "fax": "+33 4 92 80 80 29", "healthcare": "hospital", "name": "Hôpital Pierre Grouès", "operator:type": "public", "phone": "+33 4 92 80 80 20", "ref:FR:FINESS": "040000036", "source": "cadastre-dgi-fr source : Direction Générale des Impôts - Cadastre. Mise à jour : 2011", "type:FR:FINESS": "106", "website": "http://barcelonnette.hopitaux-ubayens.fr/barcelonnette/", "wikidata": "Q92062404"}}, {"name": "Clinique du Val d'Estreilles", "latitude": 43.5939737, "longitude": 6.9243143, "source": "osm", "_tags": {"amenity": "hospital", "healthcare": "hospital", "landuse": "healthcare", "name": "Clinique du Val d'Estreilles", "ref:FR:FINESS": "060780525", "type:FR:FINESS": "161"}}, {"name": "Clinique", "latitude": 43.5952433, "longitude": 6.5398241, "source": "osm", "_tags": {"addr:city": "Callas", "addr:housenumber": "981", "addr:postcode": "83830", "addr:street": "Route départementale 25", "amenity": "hospital", "healthcare": "hospital", "name": "Clinique", "source": "cadastre-dgi-fr source : Direction Générale des Impôts - Cadastre. Mise à jour : 2012"}}, {"name": "Hôpital local de Castellane", "latitude": 43.8467206, "longitude": 6.507957, "source": "osm", "_tags": {"amenity": "hospital", "landuse": "healthcare", "name": "Hôpital local de Castellane", "ref:FR:FINESS": "040000044", "source": "Le ministère des solidarités et de la santé - 03/2019", "website": "http://www.hopital-castellane.fr", "wikidata": "Q92062447"}}, {"name": "Centre hospitalier de Digne-les-Bains", "latitude": 44.0714958, "longitude": 6.17387, "source": "osm", "_tags": {"addr:city": "Digne-les-Bains", "addr:housenumber": "BP 213", "addr:postcode": "04003", "addr:street": "Quartier Saint-Christophe", "amenity": "hospital", "email": "secretariat.direction@ch-digne.fr", "emergency": "yes", "fax": "+33 4 92 30 14 00", "healthcare": "hospital", "healthcare:speciality": "intensive", "landuse": "healthcare", "name": "Centre hospitalier de Digne-les-Bains", "phone": "+33 4 92 30 15 15", "ref:FR:FINESS": "040000911", "ref:FR:NAF": "8610Z", "type:FR:FINESS": "355", "website": "http://www.ch-digne.fr/", "wheelchair": "yes", "wikidata": "Q65509970"}}, {"name": "EPS Vallée de la Blanche", "latitude": 44.3530913, "longitude": 6.3602614, "source": "osm", "_tags": {"addr:city": "Seyne", "addr:postcode": "04140", "addr:street": "Route de St Pons", "amenity": "hospital", "healthcare": "hospital", "healthcare:speciality": "geriatrics", "name": "EPS Vallée de la Blanche", "phone": "+33 4 92 30 94 94", "ref:FR:FINESS": "040000127", "type:FR:FINESS": "106", "wikidata": "Q92063091"}}, {"name": "Centre hospitalier de la Dracénie", "latitude": 43.5493383, "longitude": 6.4450733, "source": "osm", "_tags": {"addr:city": "Draguignan", "addr:postcode": "83300", "addr:street": "Route de Montferrat", "amenity": "hospital", "contact:facebook": "Centre Hospitalier de la Dracénie", "email": "direction.generale@ch-draguignan.fr", "emergency": "yes", "fax": "+33 4 94 60 51 76", "healthcare": "hospital", "healthcare:speciality": "intensive", "landuse": "healthcare", "name": "Centre hospitalier de la Dracénie", "operator:type": "public", "phone": "+33 4 94 60 50 00", "ref:FR:FINESS": "830000287", "source": "cadastre-dgi-fr source : Direction Générale des Impôts - Cadastre. Mise à jour : 2009", "type:FR:FINESS": "355", "website": "https://www.ch-dracenie.fr/", "wikidata": "Q86662389", "wikimedia_commons": "Category:Centre_hospitalier_de_la_Dracénie", "wikipedia": "fr:Centre hospitalier de la Dracénie"}}, {"name": "Centre hospitalier de Grasse - Site Clavary", "latitude": 43.6196592, "longitude": 6.9305256, "source": "osm", "_tags": {"alt_name": "Centre hospitalier Clavary", "amenity": "hospital", "emergency": "yes", "fax": "+33 4 93 09 51 02", "healthcare": "hospital", "healthcare:speciality": "intensive", "landuse": "healthcare", "name": "Centre hospitalier de Grasse - Site Clavary", "operator": "Centre hospitalier de Grasse", "operator:type": "public", "phone": "+33 4 93 09 55 55", "ref:FR:FINESS": "060000478", "type:FR:FINESS": "355", "website": "http://www.ch-grasse.fr/"}}, {"name": "CH de Grasse - Site du Petit Paris", "latitude": 43.6494555, "longitude": 6.9151003, "source": "osm", "_tags": {"amenity": "hospital", "healthcare": "hospital", "landuse": "healthcare", "name": "CH de Grasse - Site du Petit Paris", "operator": "Centre Hospitalier de Grasse", "phone": "+33493095345", "ref:FR:FINESS": "060787801", "ref:FR:SIRET": "26060017600010", "source": "Le ministère des solidarités et de la santé - 2023-03", "type:FR:FINESS": "355", "website": "http://www.ch-grasse.fr/"}}, {"name": "Clinique du Palais", "latitude": 43.6578173, "longitude": 6.9297981, "source": "osm", "_tags": {"amenity": "hospital", "healthcare": "hospital", "name": "Clinique du Palais", "name:oc": "Clinica dau Palais", "source:name:oc": "ieo-bdtopoc", "type": "multipolygon"}}]