[{"name": "Urgencias", "latitude": 43.4817206, "longitude": -5.4314488, "source": "osm", "_tags": {"addr:street": "Manuel Álvarez Miranda", "amenity": "hospital", "description": "Ambulatorio y Urgencias", "healthcare": "hospital", "name": "Urgencias", "phone": "+34 985892288"}}, {"name": "Centro de Salud Raices-Salinas", "latitude": 43.5736962, "longitude": -5.9470423, "source": "osm", "_tags": {"addr:postcode": "33405", "addr:street": "Avenida El Campón", "amenity": "hospital", "name": "Centro de Salud Raices-Salinas", "old_name": "Ambulatorio de Raíces", "phone": "+34985502625", "website": "https://www.astursalud.es/noticias/-/noticias/c-p-raices-salin-1"}}, {"name": "Centro PET Asturias Hospital de Jove", "latitude": 43.5511363, "longitude": -5.7029227, "source": "osm", "_tags": {"amenity": "hospital", "healthcare": "hospital", "healthcare:speciality": "radiology", "name": "Centro PET Asturias Hospital de Jove", "operator": "Hospital de Jove"}}, {"name": "Hospital de Cabueñes", "latitude": 43.5248755, "longitude": -5.606172, "source": "osm", "_tags": {"addr:city": "Gijón/Xixón", "addr:housenumber": "395", "addr:postcode": "33394", "addr:street": "Calle Los Prados", "amenity": "hospital", "building": "hospital", "emergency": "yes", "healthcare": "hospital", "name": "Hospital de Cabueñes", "network": "Servicio de Salud del Principado de Asturias", "network:short": "SESPA", "operator:type": "public", "wikidata": "Q19847505"}}, {"name": "Hospital Begoña", "latitude": 43.5349814, "longitude": -5.6477612, "source": "osm", "_tags": {"addr:city": "Gijón/Xixón", "addr:postcode": "33204", "addr:street": "Avenida de Pablo Iglesias", "amenity": "hospital", "building": "yes", "email": "hospitalbegona@hospitalbegona.com", "fax": "+34 985365385", "healthcare": "hospital", "name": "Hospital Begoña", "phone": "+34985367711; +34985367233", "website": "https://www.hospitalbegona.com/", "wikidata": "Q87762316", "wikipedia": "es:Hospital Begoña"}}, {"name": "Hospital de Xove/Jove", "latitude": 43.5498951, "longitude": -5.7004798, "source": "osm", "_tags": {"addr:city": "Gijón/Xixón", "amenity": "hospital", "building": "yes", "healthcare": "hospital", "name": "Hospital de Xove/Jove", "name:ast": "Hospital de Xove", "name:es": "Hospital de Jove", "phone": "+34 985320050", "source": "PNOA", "source:date": "2009", "website": "https://www.hospitaldejove.com/", "wheelchair": "yes", "wikidata": "Q30280059", "wikipedia": "es:Hospital de Jove"}}, {"name": "Hospital de la Cruz Roja", "latitude": 43.5385832, "longitude": -5.6546713, "source": "osm", "_tags": {"addr:city": "Gijón/Xixón", "addr:street": "Calle Uría", "amenity": "hospital", "building": "yes", "check_date": "2025-02-19", "healthcare": "hospital", "name": "Hospital de la Cruz Roja", "wikidata": "Q87762313"}}, {"name": "Residencia Geriátrica y Hospital Gijón", "latitude": 43.5377316, "longitude": -5.6582842, "source": "osm", "_tags": {"addr:city": "Gijón/Xixón", "addr:housenumber": "45", "addr:postcode": "33205", "addr:street": "Avenida de la Costa", "amenity": "hospital", "building": "residential", "building:levels": "7", "healthcare": "hospital", "name": "Residencia Geriátrica y Hospital Gijón", "ref:ES:catastro": "5442016TP8254S", "roof:levels": "1", "rooms": "156", "stars": "2"}}, {"name": "Fundación Hospital de Avilés", "latitude": 43.5546307, "longitude": -5.9262591, "source": "osm", "_tags": {"amenity": "hospital", "building": "hospital", "emergency": "yes", "healthcare": "hospital", "name": "Fundación Hospital de Avilés", "wikidata": "Q63213563"}}, {"name": "Centro PET Asturias Hospital de Jove", "latitude": 43.5511355, "longitude": -5.7028402, "source": "osm", "_tags": {"amenity": "hospital", "healthcare": "hospital", "name": "Centro PET Asturias Hospital de Jove"}}, {"name": "", "latitude": 43.5246969, "longitude": -5.6065974, "source": "osm", "_tags": {"addr:city": "Gijón/Xixón", "amenity": "hospital", "healthcare": "hospital"}}, {"name": "Hospital Universitario San Agustín", "latitude": 43.5516289, "longitude": -5.9356473, "source": "osm", "_tags": {"amenity": "hospital", "emergency": "yes", "healthcare": "hospital", "name": "Hospital Universitario San Agustín", "network": "Servicio de Salud del Principado de Asturias", "network:short": "SESPA", "operator:type": "public", "wikidata": "Q16576124"}}, {"name": "", "latitude": 43.5365687, "longitude": -5.8941516, "source": "osm", "_tags": {"amenity": "hospital", "healthcare": "hospital"}}, {"name": "", "latitude": 43.5298788, "longitude": -5.6491237, "source": "osm", "_tags": {"amenity": "hospital", "healthcare": "hospital"}}, {"name": "", "latitude": 43.5350006, "longitude": -5.6477488, "source": "osm", "_tags": {"addr:city": "Gijón/Xixón", "amenity": "hospital", "healthcare": "hospital"}}, {"name": "Futuro Hospital Quirón", "latitude": 43.5282077, "longitude": -5.6860631, "source": "osm", "_tags": {"amenity": "hospital", "healthcare": "hospital", "name": "Futuro Hospital Quirón"}}]