[{"name": "", "latitude": 43.4997838, "longitude": 12.9414537, "source": "osm", "_tags": {"amenity": "hospital", "healthcare": "hospital"}}, {"name": "", "latitude": 43.6028436, "longitude": 13.0566341, "source": "osm", "_tags": {"amenity": "hospital"}}, {"name": "Ospedale di Comunità di Castelfidardo", "latitude": 43.4671201, "longitude": 13.5561048, "source": "osm", "_tags": {"amenity": "hospital", "emergency": "no", "healthcare": "hospital", "name": "Ospedale di Comunità di Castelfidardo"}}, {"name": "Ospedale Bartolini", "latitude": 43.7517491, "longitude": 13.0950519, "source": "osm", "_tags": {"addr:street": "Piazza Bartolini", "amenity": "hospital", "emergency": "no", "name": "Ospedale Bartolini"}}, {"name": "Ambulatori", "latitude": 43.4467888, "longitude": 13.1174991, "source": "osm", "_tags": {"amenity": "hospital", "emergency": "yes", "name": "Ambulatori"}}, {"name": "Ospedale \"Principe di Piemonte\"", "latitude": 43.714181, "longitude": 13.2092235, "source": "osm", "_tags": {"amenity": "hospital", "emergency": "yes", "healthcare": "hospital", "name": "Ospedale \"Principe di Piemonte\""}}, {"name": "Clinica di Riabilitazione Villa Adria", "latitude": 43.6139115, "longitude": 13.4391479, "source": "osm", "_tags": {"amenity": "hospital", "check_date": "2024-03-25", "healthcare": "hospital", "name": "Clinica di Riabilitazione Villa Adria"}}, {"name": "Ospedale Santa Croce", "latitude": 43.8377725, "longitude": 13.0223809, "source": "osm", "_tags": {"addr:housenumber": "2", "addr:postcode": "61032", "addr:street": "Via Vittorio Veneto", "amenity": "hospital", "check_date": "2024-10-29", "contact:phone": "+39 0721 8821", "emergency": "yes", "healthcare": "hospital", "name": "Ospedale Santa Croce", "operator": "Azienda Ospedaliera Ospedali Riuniti Marche Nord"}}, {"name": "Casa di Cura Villa Serena", "latitude": 43.5073252, "longitude": 13.182236, "source": "osm", "_tags": {"addr:housenumber": "2", "addr:street": "Via di Colle Onorato", "amenity": "hospital", "healthcare": "hospital", "name": "Casa di Cura Villa Serena", "phone": "+39 0731 262100", "website": "http://www.casadicuravillaserena.com/it"}}, {"name": "Ospedale di Comunità Maria Montessori", "latitude": 43.5978741, "longitude": 13.3154946, "source": "osm", "_tags": {"addr:city": "Chiaravalle", "addr:housenumber": "176", "addr:postcode": "60033", "addr:street": "Via Fratelli Rosselli", "amenity": "hospital", "check_date": "2024-01-04", "contact:phone": "+39 071 74901", "healthcare": "hospital", "name": "Ospedale di Comunità Maria Montessori", "operator": "ASUR Marche", "wheelchair": "yes"}}, {"name": "Ospedale Santi Benvenuto e Rocco", "latitude": 43.4852113, "longitude": 13.4875833, "source": "osm", "_tags": {"addr:city": "Osimo", "addr:housenumber": "15", "addr:postcode": "60027", "addr:street": "Via Leopardi", "amenity": "hospital", "emergency": "yes", "healthcare": "hospital", "name": "Ospedale Santi Benvenuto e Rocco", "operator": "INRCA", "phone": "+39 071 71301"}}, {"name": "Ospedale di Comunità Santa Casa", "latitude": 43.4365068, "longitude": 13.6068159, "source": "osm", "_tags": {"amenity": "hospital", "emergency": "yes", "healthcare": "hospital", "name": "Ospedale di Comunità Santa Casa"}}, {"name": "INRCA - Presidio Ospedaliero di Ricerca \"Ulderico Sestilli\"", "latitude": 43.593856, "longitude": 13.5129973, "source": "osm", "_tags": {"addr:city": "Ancona", "addr:housenumber": "81", "addr:postcode": "60127", "addr:street": "Via Montagnola", "amenity": "hospital", "healthcare": "hospital", "name": "INRCA - Presidio Ospedaliero di Ricerca \"Ulderico Sestilli\"", "old_name": "INRCA - Ospedale Geriatrico Polispecialistico \"Ulderico Sestilli\"", "type": "multipolygon"}}, {"name": "Presidio Ospedaliero \"Gaspare Salesi\"", "latitude": 43.6168828, "longitude": 13.5324233, "source": "osm", "_tags": {"addr:city": "Ancona", "addr:housenumber": "11", "addr:postcode": "60123", "addr:street": "Via Filippo Corridoni", "amenity": "hospital", "check_date": "2025-03-13", "healthcare": "hospital", "healthcare:speciality": "paediatrics", "name": "Presidio Ospedaliero \"Gaspare Salesi\"", "old_name": "Villa Dari;Ospedaletto dei Bambini;Ospedale Pediatrico \"Gaspare Salesi\"", "operator": "Azienda Ospedaliero Universitaria \"Ospedali Riuniti Ancona\"", "type": "multipolygon"}}, {"name": "Ospedali Riuniti - Presidio ospedaliero \"Umberto I\"", "latitude": 43.6020664, "longitude": 13.4538769, "source": "osm", "_tags": {"addr:city": "Ancona", "addr:housenumber": "71", "addr:postcode": "60126", "addr:street": "Via Conca", "alt_name": "Ospedale di Torrette", "amenity": "hospital", "email": "aou.ancona@emarche.it (PEC)", "healthcare": "hospital", "healthcare:speciality": "general;paediatrics;orthopaedics;orthodontics;gynaecology;dermatology;cardiology;emergency;surgery;nephrology;ophthalmology;intensive;physiatry;radiology;oncology;ayurveda;anthroposophical;vaccination;biochemistry;hypnosis;neurology;osteopathy;maternity;u", "name": "Ospedali Riuniti - Presidio ospedaliero \"Umberto I\"", "old_name": "Ospedale Regionale \"Umberto I\"", "operator": "Azienda Ospedaliero Universitaria \"Ospedali Riuniti Ancona Umberto I-G.M. Lancisi-G. Salesi\"", "phone": "+39 071 5961", "type": "multipolygon", "website": "http://www.ospedaliriuniti.marche.it", "wheelchair": "yes"}}, {"name": "Ospedali Riuniti - Presidio ospedaliero \"Giovanni Maria Lancisi\"", "latitude": 43.6031367, "longitude": 13.4543504, "source": "osm", "_tags": {"amenity": "hospital", "healthcare": "hospital", "healthcare:speciality": "cardiology", "name": "Ospedali Riuniti - Presidio ospedaliero \"Giovanni Maria Lancisi\"", "old_name": "Ospedale Cardiologico \"Giovanni Maria Lancisi\"", "operator": "Azienda Ospedaliero Universitaria \"Ospedali Riuniti Ancona Umberto I-G.M. Lancisi-G. Salesi\"", "type": "multipolygon"}}, {"name": "Ospedale \"Carlo Urbani\"", "latitude": 43.5308005, "longitude": 13.2227749, "source": "osm", "_tags": {"addr:housenumber": "25", "addr:street": "Viale Aldo Moro", "amenity": "hospital", "emergency": "yes", "healthcare": "hospital", "name": "Ospedale \"Carlo Urbani\"", "type": "multipolygon"}}, {"name": "Casa di Cura Villa Igea", "latitude": 43.5918682, "longitude": 13.4997689, "source": "osm", "_tags": {"addr:city": "Ancona", "addr:housenumber": "200", "addr:postcode": "60127", "addr:street": "Via Alessandro Maggini", "amenity": "hospital", "brand": "Gruppo Ospedaliero Leonardo", "check_date": "2024-07-31", "contact:facebook": "villaigeaancona", "email": "info@casadicuravillaigea.it", "emergency": "no", "fax": "+39 071 9947987", "healthcare": "hospital", "name": "Casa di Cura Villa Igea", "operator": "Labor SpA", "operator:type": "private", "phone": "+39 071 9948000", "ref:vatin": "IT00204460422", "type": "multipolygon", "website": "https://www.casadicuravillaigea.it/"}}]