[{"name": "", "latitude": 44.121404, "longitude": 9.9495802, "source": "osm", "_tags": {"amenity": "hospital", "emergency": "yes", "healthcare": "hospital"}}, {"name": "Misericordia", "latitude": 43.8671921, "longitude": 10.3414108, "source": "osm", "_tags": {"amenity": "hospital", "emergency": "yes", "healthcare": "centre", "name": "Misericordia"}}, {"name": "Misericordia di Montecarlo", "latitude": 43.8478754, "longitude": 10.6616526, "source": "osm", "_tags": {"amenity": "hospital", "emergency": "no", "name": "Misericordia di Montecarlo"}}, {"name": "", "latitude": 43.7749317, "longitude": 10.6005673, "source": "osm", "_tags": {"amenity": "hospital", "emergency": "no", "healthcare": "hospital"}}, {"name": "Distretto socio-sanitario Galleno", "latitude": 43.7734383, "longitude": 10.7179363, "source": "osm", "_tags": {"amenity": "hospital", "emergency": "no", "healthcare": "hospital", "name": "Distretto socio-sanitario Galleno"}}, {"name": "Guardia Medica", "latitude": 43.6754339, "longitude": 10.5480705, "source": "osm", "_tags": {"addr:city": "Cascina", "addr:housename": "Pubblica Assistenza", "addr:postcode": "56021", "addr:street": "Via della Vittoria", "amenity": "hospital", "emergency": "no", "healthcare": "hospital", "name": "Guardia Medica"}}, {"name": "Pronto Soccorso", "latitude": 43.7943077, "longitude": 10.268302, "source": "osm", "_tags": {"amenity": "hospital", "name": "Pronto Soccorso"}}, {"name": "Centro Diurno di Sarzana", "latitude": 44.1232892, "longitude": 9.9488003, "source": "osm", "_tags": {"addr:street": "Via 27 Gennaio", "amenity": "hospital", "healthcare": "hospital", "name": "Centro Diurno di Sarzana"}}, {"name": "Distretto Avenza ASL Nord-Ovest", "latitude": 44.0502748, "longitude": 10.0584303, "source": "osm", "_tags": {"addr:city": "Carrara", "addr:country": "IT", "addr:housenumber": "28", "addr:postcode": "54033", "addr:province": "Massa-Carrara", "addr:street": "Via Giovan Pietro", "amenity": "hospital", "healthcare": "hospital", "name": "Distretto Avenza ASL Nord-Ovest", "name:it": "Distretto Avenza ASL Nord-Ovest", "ref:anncsu": "2680"}}, {"name": "Pronto Soccorso Ospedale San Jacopo", "latitude": 43.9178438, "longitude": 10.903596, "source": "osm", "_tags": {"addr:city": "Pistoia", "addr:housenumber": "120", "addr:postcode": "51100", "addr:street": "Via Ciliegiole", "amenity": "hospital", "emergency": "yes", "healthcare": "hospital", "name": "Pronto Soccorso Ospedale San Jacopo"}}, {"name": "Punto di primo soccorso di San Marcello", "latitude": 44.0563972, "longitude": 10.7883885, "source": "osm", "_tags": {"addr:city": "San Marcello Pistoiese", "addr:housenumber": "76", "addr:postcode": "51028", "addr:street": "Via Massimo D'Azeglio", "amenity": "hospital", "emergency": "yes", "name": "Punto di primo soccorso di San Marcello"}}, {"name": "Pronto Soccorso Ospedale \"San Bartolomeo\"", "latitude": 44.1213695, "longitude": 9.9497734, "source": "osm", "_tags": {"addr:city": "Sarzana", "amenity": "hospital", "emergency": "yes", "healthcare": "hospital", "name": "Pronto Soccorso Ospedale \"San Bartolomeo\""}}, {"name": "ASL n. 1", "latitude": 44.0116067, "longitude": 10.0990744, "source": "osm", "_tags": {"addr:housenumber": "40", "addr:street": "Viale delle Pinete", "amenity": "hospital", "email": "sportelliapuane@uslnordovest.toscana.it", "healthcare": "hospital", "name": "ASL n. 1", "operator": "ASL", "operator:wikidata": "Q3631467"}}, {"name": "Fondazione Toscana Gabriele Monasterio", "latitude": 43.7183646, "longitude": 10.4232187, "source": "osm", "_tags": {"healthcare": "hospital", "healthcare:speciality": "cardiology", "name": "Fondazione Toscana Gabriele Monasterio", "wikidata": "Q30296292"}}, {"name": "C.M.S. Versilia", "latitude": 43.9038023, "longitude": 10.2228628, "source": "osm", "_tags": {"amenity": "hospital", "emergency": "no", "healthcare": "clinic", "name": "C.M.S. Versilia"}}, {"name": "Pubblica Assistenza Monsummanese", "latitude": 43.868114, "longitude": 10.8107848, "source": "osm", "_tags": {"addr:city": "Monsummano Terme", "addr:country": "IT", "addr:housenumber": "156", "addr:postcode": "51015", "addr:street": "Via Goffredo Mameli", "amenity": "hospital", "emergency": "yes", "healthcare": "hospital", "healthcare:speciality": "emergency", "name": "Pubblica Assistenza Monsummanese", "source": "Regione Toscana"}}, {"name": "SERD", "latitude": 44.0694587, "longitude": 10.0822657, "source": "osm", "_tags": {"amenity": "hospital", "healthcare": "hospital", "name": "SERD"}}, {"name": "Ambulatorio medico", "latitude": 43.4607731, "longitude": 10.5622511, "source": "osm", "_tags": {"addr:city": "Pastina", "addr:housenumber": "8", "addr:postcode": "56040", "addr:street": "Via San Bartolomeo", "amenity": "clinic", "emergency": "no", "healthcare": "hospital", "healthcare:speciality": "general", "name": "Ambulatorio medico", "operator": "Medico", "operator:type": "public"}}, {"name": "Ambulatorio medico di base", "latitude": 43.4325859, "longitude": 10.5666002, "source": "osm", "_tags": {"addr:city": "Pomaia", "addr:housenumber": "241", "addr:postcode": "56040", "addr:street": "Via del Commercio sud", "amenity": "hospital", "emergency": "no", "healthcare": "doctor", "healthcare:speciality": "general", "name": "Ambulatorio medico di base", "operator": "Medico", "operator:type": "public"}}, {"name": "Centro Distrettuale Vaccinazioni", "latitude": 43.8901132, "longitude": 10.2462604, "source": "osm", "_tags": {"addr:city": "Viareggio", "addr:street": "Via Santa Maria Goretti", "amenity": "hospital", "healthcare": "hospital", "healthcare:speciality": "vaccination", "name": "Centro Distrettuale Vaccinazioni", "operator": "Azienda Usl Toscana nord ovest", "operator:type": "public"}}, {"name": "RSA Mimosa", "latitude": 43.7210782, "longitude": 10.4687874, "source": "osm", "_tags": {"amenity": "social_facility", "emergency": "no", "healthcare": "hospital", "name": "RSA Mimosa", "social_facility": "assisted_living"}}, {"name": "Centro Prelievi", "latitude": 44.1205521, "longitude": 9.9483669, "source": "osm", "_tags": {"amenity": "hospital", "healthcare": "hospital", "healthcare:speciality": "centro_prelievi", "name": "Centro Prelievi"}}, {"name": "farmacia Ospedale", "latitude": 44.1207726, "longitude": 9.948997, "source": "osm", "_tags": {"amenity": "hospital", "healthcare": "hospital", "name": "farmacia Ospedale"}}, {"name": "Servizio Mortuario", "latitude": 44.1218808, "longitude": 9.9489766, "source": "osm", "_tags": {"amenity": "hospital", "healthcare": "hospital", "healthcare:speciality": "servizio_mortuario", "name": "Servizio Mortuario"}}, {"name": "Ospedale \"Felice Lotti\"", "latitude": 43.659201, "longitude": 10.6343013, "source": "osm", "_tags": {"amenity": "hospital", "emergency": "yes", "healthcare": "hospital", "name": "Ospedale \"Felice Lotti\"", "operator:type": "public", "wheelchair": "yes", "wikidata": "Q3886601", "wikipedia": "it:Ospedale Felice Lotti"}}, {"name": "Ospedale Versilia", "latitude": 43.9143858, "longitude": 10.2238131, "source": "osm", "_tags": {"addr:city": "Lido di Camaiore", "addr:housenumber": "335", "addr:postcode": "55041", "addr:street": "Strada Statale Aurelia", "amenity": "hospital", "healthcare": "hospital", "name": "Ospedale Versilia", "phone": "+39 0584 6051", "toilets:wheelchair": "yes", "website": "http://www.usl12.toscana.it/ospedale/", "wheelchair": "yes"}}, {"name": "Ospedale San Giuseppe", "latitude": 43.722414, "longitude": 10.9334631, "source": "osm", "_tags": {"addr:city": "Empoli", "addr:housenumber": "16", "addr:postcode": "50053", "addr:street": "Viale Giovanni Boccaccio", "amenity": "hospital", "check_date": "2025-05-05", "emergency": "yes", "healthcare": "hospital", "name": "Ospedale San Giuseppe", "operator": "Azienda USL Toscana Centro", "operator:type": "public", "phone": "+39 0571 7051", "ref:vatin": "IT06593810481", "toilets:wheelchair": "yes", "wheelchair": "yes", "wikidata": "Q3886641"}}, {"name": "Centro Polispecialistico Monterosso", "latitude": 44.0806357, "longitude": 10.1050178, "source": "osm", "_tags": {"alt_name": "Monoblocco di Carrara", "amenity": "hospital", "healthcare": "hospital", "name": "Centro Polispecialistico Monterosso", "operator": "Azienda USL Toscana nord ovest", "operator:type": "public"}}, {"name": "Spedali Riuniti", "latitude": 43.5503837, "longitude": 10.3246071, "source": "osm", "_tags": {"amenity": "hospital", "barrier": "wall", "emergency": "yes", "healthcare": "hospital", "name": "Spedali Riuniti", "operator": "Regione Toscana - USL 6", "wikidata": "Q3966438", "wikipedia": "it:Spedali Riuniti"}}, {"name": "San Camillo", "latitude": 43.9719164, "longitude": 10.1596151, "source": "osm", "_tags": {"amenity": "hospital", "healthcare": "hospital", "name": "San Camillo"}}, {"name": "Casa di Cura \"Villa Tirrena\"", "latitude": 43.5377271, "longitude": 10.3075013, "source": "osm", "_tags": {"amenity": "hospital", "building": "yes", "healthcare": "hospital", "name": "Casa di Cura \"Villa Tirrena\""}}, {"name": "Casa di riposo sant'antonio pucci", "latitude": 43.8620889, "longitude": 10.2490929, "source": "osm", "_tags": {"amenity": "hospital", "healthcare": "hospital", "name": "Casa di riposo sant'antonio pucci"}}, {"name": "Cittadella della Salute Campo di Marte", "latitude": 43.8506571, "longitude": 10.5178125, "source": "osm", "_tags": {"addr:city": "Lucca", "addr:housenumber": "1", "addr:postcode": "55100", "addr:street": "Via Nicola Barbantini", "amenity": "hospital", "emergency": "yes", "healthcare": "hospital", "name": "Cittadella della Salute Campo di Marte", "name:it": "Ospedale campo di Marte", "toilets:wheelchair": "yes", "wheelchair": "yes"}}, {"name": "Ospedale San Jacopo", "latitude": 43.9180781, "longitude": 10.9041156, "source": "osm", "_tags": {"addr:city": "Pistoia", "addr:housenumber": "97", "addr:postcode": "51100", "addr:street": "Via Ciliegiole", "amenity": "hospital", "check_date": "2025-05-05", "emergency": "yes", "healthcare": "hospital", "name": "Ospedale San Jacopo", "operator": "Azienda USL Toscana Centro", "operator:type": "public", "phone": "+39 0573 3521", "ref:vatin": "IT06593810481", "website": "https://www.uslcentro.toscana.it/index.php/ospedali/ospedale-san-jacopo-di-pistoia", "wheelchair": "yes"}}, {"name": "Pubblica Assistenza S.R. Pisa", "latitude": 43.7100847, "longitude": 10.4291341, "source": "osm", "_tags": {"addr:city": "Pisa", "addr:housenumber": "2", "addr:postcode": "56124", "addr:street": "Via Italo Bargagna", "amenity": "hospital", "email": "info@papisa.it", "emergency": "no", "healthcare": "hospital", "name": "Pubblica Assistenza S.R. Pisa", "operator": "Pubblica Assistenza S.R. Pisa", "operator:type": "private_non_profit", "phone": "+39800500580", "website": "https://www.papisa.it/"}}, {"name": "", "latitude": 43.8821576, "longitude": 10.7686176, "source": "osm", "_tags": {"amenity": "hospital", "building": "yes", "wheelchair": "yes"}}, {"name": "Clinica Santa Rita", "latitude": 43.8820741, "longitude": 10.7671563, "source": "osm", "_tags": {"amenity": "hospital", "building": "yes", "name": "Clinica Santa Rita", "wheelchair": "yes"}}, {"name": "Casa della Salute Cimone", "latitude": 44.2073546, "longitude": 10.7955367, "source": "osm", "_tags": {"amenity": "hospital", "building": "yes", "healthcare": "hospital", "name": "Casa della Salute Cimone", "source": "Regione Emilia Romagna", "website": "https://www.ausl.mo.it/casa-della-salute-fanano"}}, {"name": "Obitorio Comunale", "latitude": 44.0291098, "longitude": 10.1440252, "source": "osm", "_tags": {"addr:city": "Massa", "addr:postcode": "54100", "addr:street": "Viale Risorgimento", "amenity": "hospital", "building:levels": "1", "healthcare": "hospital", "name": "Obitorio Comunale"}}, {"name": "Ospedale San Luca", "latitude": 43.8427956, "longitude": 10.533059, "source": "osm", "_tags": {"addr:city": "Lucca", "addr:housenumber": "556", "addr:postcode": "55100", "addr:street": "Via Guglielmo Lippi Francesconi", "amenity": "hospital", "emergency": "yes", "healthcare": "hospital", "name": "Ospedale San Luca", "operator": "Azienda USL Toscana nord ovest", "operator:type": "public", "operator:wikidata": "Q98852439", "phone": "+39 0583 9701", "toilets:wheelchair": "yes", "wheelchair": "yes"}}, {"name": "", "latitude": 44.1132734, "longitude": 9.954824, "source": "osm", "_tags": {"amenity": "hospital", "building": "yes", "healthcare": "hospital", "source": "Regione Liguria"}}, {"name": "Distretto Socio Sanitario ASL2 San Vito", "latitude": 43.8548442, "longitude": 10.5334692, "source": "osm", "_tags": {"amenity": "hospital", "emergency": "no", "healthcare": "hospital", "name": "Distretto Socio Sanitario ASL2 San Vito"}}, {"name": "Ospedale Santa Croce", "latitude": 44.1125636, "longitude": 10.415139, "source": "osm", "_tags": {"amenity": "hospital", "emergency": "yes", "name": "Ospedale Santa Croce"}}, {"name": "Ospedale “Sant'Antonio Abate”", "latitude": 44.2390637, "longitude": 10.1307804, "source": "osm", "_tags": {"amenity": "hospital", "healthcare": "hospital", "name": "Ospedale “Sant'Antonio Abate”", "operator": "http://www.usl1.toscana.it/sezioni.php?seid=79"}}, {"name": "Ospedale Santi Cosma e Damiano", "latitude": 43.9035454, "longitude": 10.690408, "source": "osm", "_tags": {"addr:city": "Pescia", "addr:housenumber": "2", "addr:postcode": "51017", "addr:street": "Via Cesare Battisti", "alt_name": "Ospedale della Valdinievole", "amenity": "hospital", "check_date": "2025-05-05", "email": "direzionesanitaria.sscd@uslcentro.toscana.it", "emergency": "yes", "healthcare": "hospital", "name": "Ospedale Santi Cosma e Damiano", "operator": "Azienda USL Toscana Centro", "operator:type": "public", "phone": "+39 0572 4601", "ref:vatin": "IT06593810481", "website": "https://www.uslcentro.toscana.it/index.php/ospedali/ospedale-ss-cosma-e-damiano", "wikidata": "Q3886625", "wikipedia": "it:Ospedale Santi Cosma e Damiano"}}, {"name": "", "latitude": 44.0792589, "longitude": 10.1021683, "source": "osm", "_tags": {"amenity": "hospital", "emergency": "no", "healthcare": "hospital"}}, {"name": "Ospedale del Cuore", "latitude": 44.0193329, "longitude": 10.1534854, "source": "osm", "_tags": {"addr:city": "Montignoso", "addr:street": "Strada Statale 1 Via Aurelia", "alt_name": "Ospedale Pediatrico Apuano", "amenity": "hospital", "healthcare": "hospital", "internet_access": "wlan", "level": "3", "name": "Ospedale del Cuore", "name:it": "OPA di Massa", "opening_hours": "24/7", "wikidata": "Q3886616", "wikipedia": "it:Ospedale del Cuore"}}, {"name": "Ospedale San Pietro Igneo", "latitude": 43.7308934, "longitude": 10.8075364, "source": "osm", "_tags": {"addr:city": "Fucecchio", "addr:housenumber": "5", "addr:postcode": "50054", "addr:street": "Piazza Spartaco Lavagnini", "amenity": "hospital", "check_date": "2025-05-05", "email": "direzionesanitaria.spi@uslcentro.toscana.it", "emergency": "no", "healthcare": "hospital", "healthcare:speciality": "general;orthopaedics", "name": "Ospedale San Pietro Igneo", "operator": "Azienda USL Toscana Centro", "operator:type": "public", "phone": "+39 0571 7051", "ref:vatin": "IT06593810481", "website": "https://www.uslcentro.toscana.it/index.php/ospedali/ospedale-san-pietro-igneo"}}, {"name": "Casa della Salute del Comune di Capannori", "latitude": 43.8957941, "longitude": 10.5599284, "source": "osm", "_tags": {"amenity": "hospital", "healthcare": "hospital", "name": "Casa della Salute del Comune di Capannori"}}, {"name": "Ospedale Lorenzo Pacini", "latitude": 44.0559715, "longitude": 10.7885376, "source": "osm", "_tags": {"addr:city": "San Marcello Piteglio", "addr:housenumber": "160", "addr:postcode": "51028", "addr:street": "Via Guglielmo Marconi", "alt_name": "Presidio Integrato Ospedale Territorio San Marcello Pistoiese", "amenity": "hospital", "check_date": "2025-05-05", "email": "direzionesanitaria.pacini@uslcentro.toscana.it", "emergency": "yes", "healthcare": "hospital", "name": "Ospedale Lorenzo Pacini", "operator": "Azienda USL Toscana Centro", "operator:type": "public", "phone": "+39 0573 63401", "ref:vatin": "IT06593810481", "website": "https://www.uslcentro.toscana.it/index.php/ospedali/ospedale-lorenzo-pacini"}}, {"name": "Ambulatorio Palazzo Blu", "latitude": 43.6559231, "longitude": 10.6189572, "source": "osm", "_tags": {"amenity": "hospital", "building": "yes", "healthcare": "hospital", "name": "Ambulatorio Palazzo Blu", "operator": "ASL", "operator:wikidata": "Q3631467"}}, {"name": "Azienda USL Toscana Nord Ovest", "latitude": 43.6576881, "longitude": 10.6311385, "source": "osm", "_tags": {"amenity": "hospital", "building": "hospital", "building:levels": "4", "healthcare": "hospital", "healthcare:speciality": "general", "name": "Azienda USL Toscana Nord Ovest", "operator": "ASL", "operator:type": "public", "operator:wikidata": "Q3631467"}}, {"name": "Distretto Socio-sanitario Via Fleming", "latitude": 43.6580187, "longitude": 10.631093, "source": "osm", "_tags": {"amenity": "hospital", "building": "yes", "healthcare": "hospital", "name": "Distretto Socio-sanitario Via Fleming", "operator": "ASL", "operator:wikidata": "Q3631467"}}, {"name": "Ospedale San Francesco", "latitude": 44.0703157, "longitude": 10.4801533, "source": "osm", "_tags": {"amenity": "hospital", "healthcare": "hospital", "name": "Ospedale San Francesco"}}, {"name": "Casa della Salute La Rosa", "latitude": 43.5404376, "longitude": 10.7016836, "source": "osm", "_tags": {"addr:housenumber": "6", "addr:street": "Via Giuseppe Verdi", "amenity": "hospital", "building": "yes", "healthcare": "hospital", "name": "Casa della Salute La Rosa", "operator": "Azienda USL Toscana Nord Ovest", "operator:wikidata": "Q3631467", "operator:wikipedia": "it:Azienda sanitaria locale"}}, {"name": "IRCCS Stella Maris", "latitude": 43.6079797, "longitude": 10.2928252, "source": "osm", "_tags": {"alt_name": "IRCCS Fondazione Stella Maris", "amenity": "hospital", "emergency": "no", "healthcare": "hospital", "healthcare:speciality": "paediatrics;neurology", "name": "IRCCS Stella Maris", "website": "https://www.fsm.unipi.it/", "wikidata": "Q30256523", "wikipedia": "it:Fondazione Stella Maris"}}, {"name": "Nuovo Ospedale Apuano", "latitude": 44.0193644, "longitude": 10.0993941, "source": "osm", "_tags": {"addr:city": "Marina di Massa", "addr:housenumber": "21", "addr:postcode": "54100", "addr:street": "Via Enrico Mattei", "alt_name": "Ospedale Apuane", "amenity": "hospital", "emergency": "yes", "healthcare": "hospital", "name": "Nuovo Ospedale Apuano", "operator": "Azienda USL Toscana Nord Ovest", "short_name": "NOA", "website": "https://www.uslnordovest.toscana.it/ospedali/massa-e-carrara"}}, {"name": "Don Gnocchi - Santa Maria alla Pineta", "latitude": 44.017534, "longitude": 10.0846337, "source": "osm", "_tags": {"amenity": "hospital", "contact:email": "info.massa@dongnocchi.it", "contact:phone": "+39 0585 8631", "healthcare": "hospital", "name": "Don Gnocchi - Santa Maria alla Pineta", "operator": "Fondazione don Carlo Gnocchi ONLUS", "website": "https://www.dongnocchi.it/@strutture/centro-s-maria-alla-pineta"}}, {"name": "Ospedale di Pavullo", "latitude": 44.3346677, "longitude": 10.8356088, "source": "osm", "_tags": {"amenity": "hospital", "emergency": "yes", "healthcare": "hospital", "name": "Ospedale di Pavullo"}}, {"name": "Presidio Distrettuale di Cascina", "latitude": 43.6871086, "longitude": 10.5004884, "source": "osm", "_tags": {"amenity": "doctors", "emergency": "no", "healthcare": "hospital", "name": "Presidio Distrettuale di Cascina", "wheelchair": "yes"}}, {"name": "Ospedale di Pietrasanta", "latitude": 43.9612004, "longitude": 10.2297845, "source": "osm", "_tags": {"amenity": "hospital", "healthcare": "hospital", "name": "Ospedale di Pietrasanta"}}, {"name": "Ospedale degli Infermi", "latitude": 43.6813108, "longitude": 10.8612415, "source": "osm", "_tags": {"amenity": "hospital", "healthcare": "hospital", "name": "Ospedale degli Infermi"}}, {"name": "", "latitude": 43.6067676, "longitude": 10.293345, "source": "osm", "_tags": {"amenity": "hospital", "healthcare": "hospital"}}, {"name": "Casa di Cura San Rossore", "latitude": 43.7239158, "longitude": 10.3752382, "source": "osm", "_tags": {"addr:city": "Pisa", "addr:housenumber": "152f", "addr:postcode": "56122", "addr:street": "Viale delle Cascine", "amenity": "hospital", "emergency": "no", "healthcare": "hospital", "name": "Casa di Cura San Rossore", "phone": "+39 050 586111", "website": "https://www.casadicurasanrossore.it/"}}, {"name": "Asl 5 Presidio Distrettuale Vecchiano", "latitude": 43.784555, "longitude": 10.3847116, "source": "osm", "_tags": {"amenity": "hospital", "emergency": "no", "healthcare": "hospital", "healthcare:speciality": "general", "name": "Asl 5 Presidio Distrettuale Vecchiano", "operator": "Azienda USL Toscana Nord Ovest", "operator:wikidata": "Q98852439"}}, {"name": "Ville di Nozzano", "latitude": 43.8432255, "longitude": 10.422228, "source": "osm", "_tags": {"amenity": "hospital", "healthcare": "clinic", "name": "Ville di Nozzano"}}, {"name": "Azienda USL Toscana Nord Ovest - Distretto Aulla", "latitude": 44.2083866, "longitude": 9.9675854, "source": "osm", "_tags": {"addr:city": "Aulla", "addr:housenumber": "22", "addr:postcode": "54011", "addr:street": "Piazza della Vittoria", "amenity": "hospital", "building": "public", "building:levels": "2", "healthcare": "hospital", "height": "10.94", "mapillary": "9471265436305395", "name": "Azienda USL Toscana Nord Ovest - Distretto Aulla", "operator": "ASL", "operator:type": "public", "operator:wikidata": "Q3631467"}}, {"name": "Polo Ospedaliero \"Santa Chiara\"", "latitude": 43.7206386, "longitude": 10.3931005, "source": "osm", "_tags": {"alt_name": "Ospedale di Santa Chiara", "amenity": "hospital", "emergency": "no", "healthcare": "hospital", "name": "Polo Ospedaliero \"Santa Chiara\"", "wikidata": "Q28670974", "wikipedia": "it:Ospedale Santa Chiara"}}, {"name": "Centro Prelievi USL Toscana", "latitude": 43.8267981, "longitude": 10.2925761, "source": "osm", "_tags": {"amenity": "hospital", "healthcare": "hospital", "height": "8.00", "name": "Centro Prelievi USL Toscana"}}, {"name": "Azienda USL Toscana Nord Ovest - Distretto Collesalvetti", "latitude": 43.5894091, "longitude": 10.4777853, "source": "osm", "_tags": {"amenity": "hospital", "healthcare": "hospital", "name": "Azienda USL Toscana Nord Ovest - Distretto Collesalvetti", "website": "https://www.uslnordovest.toscana.it/distretti/1027-distretto-di-collesalvetti-stagno"}}, {"name": "ASL 5", "latitude": 43.7141933, "longitude": 10.6225899, "source": "osm", "_tags": {"amenity": "hospital", "building": "public", "healthcare": "hospital", "height": "4.17", "name": "ASL 5", "operator": "ASL", "operator:type": "public", "operator:wikidata": "Q3631467", "operator:wikipedia": "it:Azienda sanitaria locale"}}, {"name": "", "latitude": 43.7568334, "longitude": 10.4423146, "source": "osm", "_tags": {"amenity": "hospital", "emergency": "no", "healthcare": "hospital", "healthcare:speciality": "internal"}}, {"name": "Azienda USL Toscana Nord Ovest - Distretto Piazza al Serchio", "latitude": 44.1845875, "longitude": 10.292356, "source": "osm", "_tags": {"amenity": "hospital", "healthcare": "hospital", "name": "Azienda USL Toscana Nord Ovest - Distretto Piazza al Serchio", "operator": "Azienda USL Toscana Nord Ovest", "operator:type": "public"}}, {"name": "Ospedale Civile Giuseppe Tabarracci", "latitude": 43.8775375, "longitude": 10.2450167, "source": "osm", "_tags": {"alt_name": "Presidio Unico Distrettuale di Viareggio", "amenity": "hospital", "healthcare": "hospital", "name": "Ospedale Civile Giuseppe Tabarracci", "operator": "Azienda USL 12 di Viareggio", "operator:type": "public"}}, {"name": "", "latitude": 44.1138836, "longitude": 9.9634698, "source": "osm", "_tags": {"access": "yes", "amenity": "hospital", "capacity": "1", "fee": "yes", "healthcare": "hospital", "parking": "surface", "surface": "asphalt"}}, {"name": "", "latitude": 43.8821317, "longitude": 10.7687993, "source": "osm", "_tags": {"amenity": "hospital"}}, {"name": "MiniHospital Sandro Pertini", "latitude": 43.5907211, "longitude": 10.6744663, "source": "osm", "_tags": {"amenity": "hospital", "healthcare": "hospital", "name": "MiniHospital Sandro Pertini"}}, {"name": "", "latitude": 44.1138746, "longitude": 9.9632235, "source": "osm", "_tags": {"amenity": "hospital", "healthcare": "hospital"}}, {"name": "Ospedale Cisanello", "latitude": 43.7052616, "longitude": 10.4421632, "source": "osm", "_tags": {"addr:city": "Pisa", "addr:housenumber": "2", "addr:postcode": "56124", "addr:street": "Via Pietro Trivella", "amenity": "hospital", "emergency": "yes", "healthcare": "hospital", "name": "Ospedale Cisanello", "phone": "+39 050 992111", "type": "multipolygon", "website": "https://www.ao-pisa.toscana.it/", "wikidata": "Q17637804", "wikipedia": "it:Ospedale Cisanello"}}, {"name": "Presidio Ospedaliero San Bartolomeo", "latitude": 44.1211795, "longitude": 9.9492441, "source": "osm", "_tags": {"amenity": "hospital", "healthcare": "hospital", "name": "Presidio Ospedaliero San Bartolomeo", "type": "multipolygon"}}]