[{"name": "C.M.I Oftalmologic Dr. Paris Cristina", "latitude": 44.1938835, "longitude": 27.3257251, "source": "osm", "_tags": {"addr:city": "Călărași", "addr:housenumber": "19", "addr:postcode": "910000", "addr:street": "Strada Progresul", "amenity": "hospital", "description": "Pacientii beneficiază de: - consultatie oftalmologică completă cu prescriere de ochelari; depistarea viciilor de refractie: miopie, hipermetrofie, astigmatism; - prescriere lentile de contact; - diagnosticul, tratamentul si monitorizarea glaucomulu", "healthcare": "hospital", "name": "C.M.I Oftalmologic Dr. Paris Cristina", "phone": "+40 732-313 366", "source": "owner"}}, {"name": "Многопрофилна Болница за Активно Лечение", "latitude": 43.7473846, "longitude": 27.4165683, "source": "osm", "_tags": {"amenity": "hospital", "healthcare": "hospital", "name": "Многопрофилна Болница за Активно Лечение", "name:en": "Multiprofile Hospital for Active Treatment", "phone": "+359 575 12 063"}}, {"name": "Spitalul de pneumoftiziologie Călărași", "latitude": 44.1938354, "longitude": 27.3518561, "source": "osm", "_tags": {"amenity": "hospital", "building": "yes", "healthcare": "hospital", "healthcare:speciality": "pulmonology", "is_in:city": "Călărași", "name": "Spitalul de pneumoftiziologie Călărași", "source": "extrapolation"}}, {"name": "", "latitude": 43.5619302, "longitude": 27.8175432, "source": "osm", "_tags": {"addr:city": "Добрич", "addr:country": "BG", "addr:housenumber": "24", "addr:postcode": "9300", "addr:street": "Панайот Хитов", "amenity": "hospital"}}, {"name": "Стоматологична поликлиника", "latitude": 43.5714002, "longitude": 27.8320424, "source": "osm", "_tags": {"amenity": "hospital", "building": "yes", "name": "Стоматологична поликлиника"}}, {"name": "2 ДКЦ", "latitude": 43.5776538, "longitude": 27.8287638, "source": "osm", "_tags": {"addr:city": "Добрич", "addr:country": "BG", "addr:housenumber": "68", "addr:postcode": "9300", "addr:street": "бул. 25-ти Септември", "amenity": "hospital", "name": "2 ДКЦ"}}, {"name": "Първичен здравен център Балик", "latitude": 43.5763652, "longitude": 27.8498492, "source": "osm", "_tags": {"amenity": "hospital", "building": "yes", "name": "Първичен здравен център Балик"}}, {"name": "", "latitude": 44.1921297, "longitude": 27.3270965, "source": "osm", "_tags": {"addr:city": "Călărași", "addr:housenumber": "1-3", "addr:street": "Strada Eroilor Revolutiei din 22 Decembrie 1989", "amenity": "hospital", "building": "yes", "emergency": "no", "healthcare": "hospital", "source": "bing"}}, {"name": "\"МБАЛ-Дулово\" ЕООД (Болница)", "latitude": 43.8211425, "longitude": 27.1468917, "source": "osm", "_tags": {"addr:city": "Дулово", "addr:housenumber": "37", "addr:postcode": "7650", "addr:street": "Розова долина", "amenity": "hospital", "fixme": "phone", "name": "\"МБАЛ-Дулово\" ЕООД (Болница)", "phone": "+359 855 30 29;+359 855 32 00;+359 86 423 200"}}, {"name": "", "latitude": 44.1923456, "longitude": 27.3279956, "source": "osm", "_tags": {"addr:city": "Călărași", "addr:housenumber": "1-3", "addr:street": "Strada Eroilor Revolutiei din 22 Decembrie 1989", "amenity": "hospital", "building": "yes", "healthcare": "hospital"}}, {"name": "Policlinica 2", "latitude": 44.207107, "longitude": 27.3167569, "source": "osm", "_tags": {"amenity": "hospital", "building": "yes", "healthcare": "hospital", "name": "Policlinica 2"}}, {"name": "Spitalul Municipal Anghel Saligny", "latitude": 44.4080185, "longitude": 27.827449, "source": "osm", "_tags": {"amenity": "hospital", "emergency": "yes", "healthcare": "hospital", "name": "Spitalul Municipal Anghel Saligny"}}, {"name": "МБАЛ Силистра", "latitude": 44.1105098, "longitude": 27.2636093, "source": "osm", "_tags": {"amenity": "hospital", "healthcare": "hospital", "name": "МБАЛ Силистра", "name:en": "Silistra Hospital", "name:ro": "Spitalul Silistra", "website": "https://new.mbal-silistra.bg"}}, {"name": "Policlinica Fetești", "latitude": 44.4088249, "longitude": 27.8272885, "source": "osm", "_tags": {"amenity": "hospital", "building": "hospital", "healthcare": "hospital", "name": "Policlinica Fetești"}}, {"name": "Spitalul Județean Călărași", "latitude": 44.1920442, "longitude": 27.3276212, "source": "osm", "_tags": {"addr:city": "Călărași", "addr:street": "Strada Eroilor Revolutiei din 22 Decembrie 1989", "amenity": "hospital", "healthcare": "hospital", "name": "Spitalul Județean Călărași"}}, {"name": "1 ДКЦ", "latitude": 43.5711388, "longitude": 27.8314131, "source": "osm", "_tags": {"amenity": "hospital", "building": "yes", "healthcare": "hospital", "name": "1 ДКЦ", "type": "multipolygon"}}]