[{"name": "", "latitude": 43.692884, "longitude": 23.8119052, "source": "osm", "_tags": {"amenity": "hospital", "healthcare": "hospital"}}, {"name": "", "latitude": 43.5308201, "longitude": 23.531404, "source": "osm", "_tags": {"amenity": "hospital"}}, {"name": "Здравна служба Кутово", "latitude": 44.0284149, "longitude": 22.9527191, "source": "osm", "_tags": {"amenity": "hospital", "healthcare": "hospital", "name": "Здравна служба Кутово", "name:en": "Health Service Kutovo", "name:ro": "Serviciul de sănătate Kutovo"}}, {"name": "Onco-Life Center", "latitude": 44.3206854, "longitude": 23.7959911, "source": "osm", "_tags": {"healthcare": "hospital", "healthcare:speciality": "clinic", "name": "Onco-Life Center"}}, {"name": "Direcția de Sănătate Publică Calafat", "latitude": 43.9948272, "longitude": 22.9406766, "source": "osm", "_tags": {"addr:city": "Calafat", "addr:postcode": "205200", "addr:street": "Strada Traian", "amenity": "hospital", "emergency": "no", "healthcare": "hospital", "name": "Direcția de Sănătate Publică Calafat"}}, {"name": "Unitatea de Primiri Urgențe", "latitude": 44.3060717, "longitude": 23.7929466, "source": "osm", "_tags": {"amenity": "hospital", "healthcare": "hospital", "name": "Unitatea de Primiri Urgențe"}}, {"name": "UMF - Centrul de Imagistică", "latitude": 44.3049118, "longitude": 23.7944514, "source": "osm", "_tags": {"addr:city": "Craiova", "addr:housenumber": "66", "addr:postcode": "200638", "addr:street": "Bulevardul 1 Mai", "amenity": "hospital", "email": "imagistica@umfcv.ro", "healthcare": "hospital", "healthcare:speciality": "radiology", "name": "UMF - Centrul de Imagistică", "phone": "+40770245996", "website": "https://www.umfcv.ro/imagistica"}}, {"name": "Centrul de Oncologie \"Sfântul Nectarie\"", "latitude": 44.3001909, "longitude": 23.8287155, "source": "osm", "_tags": {"addr:city": "Craiova", "addr:housenumber": "109", "addr:street": "Strada Caracal", "amenity": "hospital", "emergency": "no", "healthcare": "hospital", "name": "Centrul de Oncologie \"Sfântul Nectarie\""}}, {"name": "Spitalul Municipal Calafat", "latitude": 43.9941324, "longitude": 22.9439848, "source": "osm", "_tags": {"addr:city": "Calafat", "addr:housenumber": "5", "addr:postcode": "205200", "addr:street": "Strada Traian", "amenity": "hospital", "email": "spitalcalafat@gmail.com", "emergency": "yes", "healthcare": "hospital", "healthcare:speciality": "general", "internet_access": "yes", "name": "Spitalul Municipal Calafat", "operator": "Ministerul Sânâtâții", "operator:type": "public", "phone": "0251230606", "website": "https://spitalcalafat.ro/"}}, {"name": "МБАЛ Бяла Слатина", "latitude": 43.4780887, "longitude": 23.9290705, "source": "osm", "_tags": {"amenity": "hospital", "emergency": "yes", "healthcare": "hospital", "name": "МБАЛ Бяла Слатина"}}, {"name": "Spitalul Clinic de Urgență Militar \"Dr. Ștefan Odobleja\"", "latitude": 44.301531, "longitude": 23.818022, "source": "osm", "_tags": {"addr:city": "Craiova", "addr:country": "RO", "addr:housenumber": "150", "addr:postcode": "200746", "addr:street": "Strada Caracal", "amenity": "hospital", "email": "smu_craiova@yahoo.com", "fax": "0251581444", "healthcare": "hospital", "name": "Spitalul Clinic de Urgență Militar \"Dr. Ștefan Odobleja\"", "phone": "0251581081", "website": "http://www.smucraiova.ro/"}}, {"name": "Spitalul Clinic de Boli Infecțioase și Pneumoftiziologie Dr. Victor Babeș", "latitude": 44.3134925, "longitude": 23.8246901, "source": "osm", "_tags": {"addr:city": "Craiova", "addr:housenumber": "126", "addr:street": "Calea București", "alt_name": "Spitalul de Boli Infecțioase", "amenity": "hospital", "barrier": "fence", "emergency": "yes", "healthcare": "hospital", "name": "Spitalul Clinic de Boli Infecțioase și Pneumoftiziologie Dr. Victor Babeș", "wheelchair": "yes"}}, {"name": "Spitalul CFR", "latitude": 44.314166, "longitude": 23.7940743, "source": "osm", "_tags": {"addr:city": "Craiova", "addr:housenumber": "6", "addr:street": "Bulevardul Știrbei Vodă", "amenity": "hospital", "healthcare": "hospital", "name": "Spitalul CFR"}}, {"name": "Spitalul Clinic Județean de Urgență", "latitude": 44.3052737, "longitude": 23.7916386, "source": "osm", "_tags": {"addr:city": "Craiova", "addr:housenumber": "1", "addr:postcode": "200642", "addr:street": "Strada Tabaci", "amenity": "hospital", "emergency": "yes", "healthcare": "hospital", "name": "Spitalul Clinic Județean de Urgență", "wheelchair": "yes", "wikidata": "Q30296144"}}, {"name": "Spitalul Clinic de Neuropsihiatrie", "latitude": 44.3176558, "longitude": 23.8163887, "source": "osm", "_tags": {"addr:city": "Craiova", "addr:country": "RO", "addr:housenumber": "99", "addr:postcode": "200473", "addr:street": "Calea București", "amenity": "hospital", "email": "contact@scnpc.ro", "healthcare": "hospital", "name": "Spitalul Clinic de Neuropsihiatrie", "phone": "0251431189", "website": "https://scnpc.ro/"}}, {"name": "Spitalul Clinic Nr.2 Filantropia", "latitude": 44.3220257, "longitude": 23.791897, "source": "osm", "_tags": {"addr:city": "Craiova", "addr:housenumber": "1", "addr:postcode": "200143", "addr:postcode:source": "Date de la Poșta Română, publicate sub Licența pentru Guvernare Deschisă v1.0 la http://date.gov.ro/organization/posta-romana", "addr:street": "Strada Filantropiei", "amenity": "hospital", "healthcare": "hospital", "name": "Spitalul Clinic Nr.2 Filantropia"}}, {"name": "Clinica de Pediatrie", "latitude": 44.302797, "longitude": 23.8013596, "source": "osm", "_tags": {"addr:city": "Craiova", "addr:street": "Strada Corneliu Coposu", "amenity": "hospital", "name": "Clinica de Pediatrie"}}, {"name": "Clinica de Neuropsihiatrie", "latitude": 44.2953362, "longitude": 23.8046558, "source": "osm", "_tags": {"addr:housenumber": "24", "addr:street": "Aleea Potelu", "amenity": "hospital", "healthcare": "hospital", "name": "Clinica de Neuropsihiatrie"}}, {"name": "Spitalul Calafat - Secția exterioara TBC Pneumologie", "latitude": 43.9127153, "longitude": 23.0997599, "source": "osm", "_tags": {"addr:city": "Poiana Mare", "addr:postcode": "207470", "addr:street": "Strada 1 Decembrie 1918", "amenity": "hospital", "healthcare": "hospital", "name": "Spitalul Calafat - Secția exterioara TBC Pneumologie", "operator": "Spitalul Municipal Calafat", "operator:type": "public"}}, {"name": "Spitalul Orășenesc Segarcea", "latitude": 44.0995179, "longitude": 23.7429713, "source": "osm", "_tags": {"addr:city": "Segarcea", "addr:country": "RO", "addr:housenumber": "50", "addr:postcode": "205400", "addr:street": "Strada Unirii", "amenity": "hospital", "healthcare": "hospital", "name": "Spitalul Orășenesc Segarcea", "operator": "Ministerul Sanatatii", "operator:type": "public"}}, {"name": "Policlinica Spitalului Filantropia", "latitude": 44.3255062, "longitude": 23.7893991, "source": "osm", "_tags": {"addr:city": "Craiova", "addr:housenumber": "40", "addr:postcode": "200142", "addr:street": "Bulevardul Nicolae Titulescu", "amenity": "hospital", "healthcare": "hospital", "healthcare:speciality": "general", "name": "Policlinica Spitalului Filantropia"}}, {"name": "Spitalul Municipal Profesor Doctor Irinel Popescu", "latitude": 44.0298411, "longitude": 23.3492954, "source": "osm", "_tags": {"addr:city": "Băilești", "addr:housenumber": "29", "addr:postcode": "205100", "addr:street": "Strada Victoriei", "amenity": "hospital", "name": "Spitalul Municipal Profesor Doctor Irinel Popescu"}}, {"name": "Spitalul de Psihiatrie Poiana Mare", "latitude": 43.9338955, "longitude": 23.0701965, "source": "osm", "_tags": {"addr:city": "Poiana Mare", "addr:housenumber": "40", "addr:street": "Strada Gării", "amenity": "hospital", "email": "spitpoiana@yahoo.com", "emergency": "yes", "fax": "0251/23.50.63", "healthcare": "hospital", "healthcare:speciality": "psychiatry", "internet_access": "yes", "name": "Spitalul de Psihiatrie Poiana Mare", "operator": "Ministerul Sănătății din România", "operator:type": "government", "phone": "0251/23.52.99", "website": "http://www.spitalpoianamare.ro/", "wheelchair": "yes"}}, {"name": "МБАЛ \"Св. Николай Чудотворец\"", "latitude": 43.8275015, "longitude": 23.232748, "source": "osm", "_tags": {"amenity": "hospital", "healthcare": "hospital", "name": "МБАЛ \"Св. Николай Чудотворец\""}}, {"name": "Поликлиника", "latitude": 43.6964221, "longitude": 23.4379273, "source": "osm", "_tags": {"amenity": "hospital", "healthcare": "hospital", "name": "Поликлиника"}}, {"name": "medical center", "latitude": 44.3290066, "longitude": 23.8014418, "source": "osm", "_tags": {"addr:city": "Craiova", "addr:housenumber": "35", "addr:street": "Strada Doljului", "amenity": "hospital", "building:levels": "2", "healthcare": "hospital", "name": "medical center"}}, {"name": "Centru de Imagistică Regina Maria", "latitude": 44.3230022, "longitude": 23.796208, "source": "osm", "_tags": {"addr:city": "Craiova", "addr:housenumber": "1", "addr:street": "Strada Păltiniș", "amenity": "hospital", "building": "house", "name": "Centru de Imagistică Regina Maria"}}, {"name": "Spitalul Municipal Filantropia", "latitude": 44.313386, "longitude": 23.825172, "source": "osm", "_tags": {"addr:city": "Craiova", "addr:housenumber": "28", "addr:street": "Strada Sărarilor", "amenity": "hospital", "healthcare": "hospital", "name": "Spitalul Municipal Filantropia"}}, {"name": "Spitalul Clinic Municipal Filantropia", "latitude": 44.3225695, "longitude": 23.7936556, "source": "osm", "_tags": {"addr:city": "Craiova", "addr:housenumber": "6", "addr:street": "Bulevardul Nicolae Titulescu", "amenity": "hospital", "name": "Spitalul Clinic Municipal Filantropia"}}, {"name": "МБАЛ \"Св. Иван Рилски\"", "latitude": 43.7719995, "longitude": 23.7262867, "source": "osm", "_tags": {"amenity": "hospital", "healthcare": "hospital", "name": "МБАЛ \"Св. Иван Рилски\"", "website": "http://mbal-kozloduy.info"}}, {"name": "Spitalul de Pneumoftiziologie Leamna", "latitude": 44.3039012, "longitude": 23.7014607, "source": "osm", "_tags": {"amenity": "hospital", "name": "Spitalul de Pneumoftiziologie Leamna"}}, {"name": "", "latitude": 44.3004388, "longitude": 23.8289909, "source": "osm", "_tags": {"addr:city": "Craiova", "addr:housenumber": "109", "addr:postcode": "200746", "addr:street": "Strada Caracal", "amenity": "hospital", "barrier": "fence", "healthcare": "hospital", "opening_hours": "Mo-Fr 08:00-20:00; Sa,Su off"}}, {"name": "Centrul de Recuperare \"Sfântul Nectarie\"", "latitude": 44.3009723, "longitude": 23.829645, "source": "osm", "_tags": {"addr:city": "Craiova", "addr:housenumber": "109", "addr:street": "Strada Caracal", "amenity": "hospital", "healthcare": "hospital", "name": "Centrul de Recuperare \"Sfântul Nectarie\""}}, {"name": "", "latitude": 44.1083129, "longitude": 23.0455021, "source": "osm", "_tags": {"amenity": "hospital", "healthcare": "hospital"}}]