[{"name": "Centre hospitalier de Revel", "latitude": 43.4556676, "longitude": 2.0041688, "source": "osm", "_tags": {"addr:housenumber": "22", "addr:street": "Avenue Roger Ricalens", "amenity": "hospital", "check_date": "2025-03-08", "contact:website": "http://www.hopital-revel.com/", "name": "Centre hospitalier de Revel", "ref:FR:FINESS": "310000336", "source": "Le ministère des solidarités et de la santé - 03/2019", "wheelchair": "yes", "wikidata": "Q92062460"}}, {"name": "Médecin", "latitude": 44.2665299, "longitude": 1.9957018, "source": "osm", "_tags": {"addr:city": "Monteils", "addr:postcode": "12200", "addr:street": "D47", "amenity": "hospital", "healthcare": "hospital", "name": "Médecin"}}, {"name": "Centre SSR La Clauze", "latitude": 44.0340846, "longitude": 2.5016459, "source": "osm", "_tags": {"addr:floor": "2", "amenity": "hospital", "check_date": "2024-03-22", "description": "Paid Wi-Fi", "emergency": "no", "healthcare": "hospital", "healthcare:speciality": "palliative", "internet_access": "wlan", "internet_access:fee": "no", "level": "0", "name": "Centre SSR La Clauze", "name:fr": "Centre SSR La Clauze", "opening_hours": "09:00-19:00", "operator:type": "private_non_profit", "phone": "+33 5 65 46 25 89", "website": "https://laclauze.fr/", "wheelchair": "yes"}}, {"name": "Centre hospitalier d'Albi", "latitude": 43.9258272, "longitude": 2.1424676, "source": "osm", "_tags": {"amenity": "hospital", "email": "direction.hopital@ch-albi.fr", "emergency": "yes", "fax": "+33 5 63 47 47 48", "healthcare": "hospital", "healthcare:speciality": "intensive", "name": "Centre hospitalier d'Albi", "operator:type": "public", "phone": "+33 5 63 47 47 47", "ref:FR:FINESS": "810000505", "source": "cadastre-dgi-fr source : Direction Générale des Impôts - Cadastre ; mise à jour : 2008", "type:FR:FINESS": "355", "website": "http://www.ch-albi.fr/", "wikidata": "Q30261214"}}, {"name": "Centre hospitalier de Saint-Affrique", "latitude": 43.9583035, "longitude": 2.8756277, "source": "osm", "_tags": {"addr:housenumber": "88", "addr:street": "Avenue Lucien Galtier", "alt_name": "Centre hospitalier Émile Borel", "amenity": "hospital", "email": "s.direction@ch-saintaffrique.fr", "emergency": "yes", "fax": "+33 5 65 49 76 21", "healthcare": "hospital", "name": "Centre hospitalier de Saint-Affrique", "operator:type": "public", "phone": "+33 5 65 49 70 22", "ref:FR:FINESS": "120004668", "source": "cadastre-dgi-fr source : Direction Générale des Impôts - Cadastre;mise à jour : 2009", "type:FR:FINESS": "355", "website": "http://ch-saintaffrique.fr/", "wheelchair": "yes"}}, {"name": "Centre Mutualiste de Réadaptation Fonctionnelle", "latitude": 43.9262258, "longitude": 2.134403, "source": "osm", "_tags": {"amenity": "hospital", "emergency": "no", "healthcare": "hospital", "name": "Centre Mutualiste de Réadaptation Fonctionnelle", "ref:FR:FINESS": "810000232", "type:FR:FINESS": "109"}}, {"name": "Centre hospitalier de Villefranche-de-Rouergue - Site de Ruhle", "latitude": 44.3839013, "longitude": 2.029473, "source": "osm", "_tags": {"amenity": "hospital", "building": "hospital", "name": "Centre hospitalier de Villefranche-de-Rouergue - Site de Ruhle", "ref:FR:FINESS": "120008248", "source": "cadastre-dgi-fr source : Direction Générale des Impôts - Cadastre ; mise à jour : 2010", "type:FR:FINESS": "355"}}, {"name": "Unité d'hospitalisation de psychiatrie", "latitude": 43.5665933, "longitude": 2.2606073, "source": "osm", "_tags": {"building": "hospital", "healthcare": "hospital", "healthcare:speciality": "psychotherapist", "name": "Unité d'hospitalisation de psychiatrie", "source": "cadastre-dgi-fr source : Direction Générale des Impôts - Cadastre. Mise à jour : 2011"}}, {"name": "Polyclinique du Sidobre", "latitude": 43.5981651, "longitude": 2.2689655, "source": "osm", "_tags": {"addr:city": "Castres", "addr:postcode": "81100", "addr:street": "Chemin de Saint-Hippolyte", "amenity": "hospital", "emergency": "yes", "healthcare": "hospital", "name": "Polyclinique du Sidobre", "operator": "Elsan", "operator:type": "private", "operator:wikidata": "Q48747106", "phone": "+33 5 64 64 09 71", "ref:FR:FINESS": "810101444", "type:FR:FINESS": "365", "website": "https://www.elsan.care/"}}, {"name": "Centre spécialisé du Haut-Languedoc", "latitude": 43.4873841, "longitude": 2.7657006, "source": "osm", "_tags": {"amenity": "hospital", "building": "yes", "healthcare": "hospital", "name": "Centre spécialisé du Haut-Languedoc", "phone": "+33 4 67 97 43 00", "ref:FR:FINESS": "340008176", "source": "cadastre-dgi-fr source : Direction Générale des Impôts - Cadastre. Mise à jour : 2012", "type:FR:FINESS": "106", "website": "https://www.hopital-stpons.com/", "wikidata": "Q92062403"}}, {"name": "Clinique Sainte-Barbe", "latitude": 44.0530941, "longitude": 2.1579808, "source": "osm", "_tags": {"amenity": "hospital", "healthcare": "hospital", "name": "Clinique Sainte-Barbe", "ref:FR:FINESS": "810000448", "type:FR:FINESS": "128"}}, {"name": "UMD Louis Crocq", "latitude": 43.9129046, "longitude": 2.1873677, "source": "osm", "_tags": {"addr:postcode": "81000", "addr:street": "Chemin du Séminaire du Roc", "amenity": "hospital", "emergency": "no", "healthcare": "hospital", "name": "UMD Louis Crocq", "ref:FR:FINESS": "810009068", "type:FR:FINESS": "292", "wheelchair": "no"}}, {"name": "Centre hospitalier de Villefranche-de-Rouergue - Site de la Chartreuse", "latitude": 44.3435748, "longitude": 2.0331991, "source": "osm", "_tags": {"amenity": "hospital", "emergency": "yes", "fax": "+33 5 65 65 30 17", "healthcare": "hospital", "name": "Centre hospitalier de Villefranche-de-Rouergue - Site de la Chartreuse", "operator:type": "public", "phone": "+33 5 65 65 30 00", "ref:FR:FINESS": "120000054", "source": "cadastre-dgi-fr source : Direction Générale des Impôts - Cadastre. Mise à jour : 2010", "type:FR:FINESS": "355", "website": "https://www.ch-villefranche-rouergue.fr/index.html", "wikidata": "Q2945673", "wikipedia": "fr:Centre hospitalier La Chartreuse"}}, {"name": "Clinique Saint-Salvadou", "latitude": 43.9111001, "longitude": 2.1685576, "source": "osm", "_tags": {"amenity": "hospital", "healthcare": "hospital", "name": "Clinique Saint-Salvadou", "ref:FR:FINESS": "810101303", "type:FR:FINESS": "430"}}, {"name": "Clinique Toulouse Lautrec", "latitude": 43.9291887, "longitude": 2.1798249, "source": "osm", "_tags": {"addr:housenumber": "2", "addr:street": "Rue Jacques Monod", "amenity": "hospital", "contact:website": "http://www.vitalia-toulouse-lautrec.com/", "healthcare": "hospital", "name": "Clinique Toulouse Lautrec", "phone": "+33 8 26 39 99 41", "ref:FR:FINESS": "810101170", "type:FR:FINESS": "365"}}, {"name": "Hôpital de Jour Agricole Bellevue", "latitude": 43.9147874, "longitude": 2.1632205, "source": "osm", "_tags": {"amenity": "hospital", "contact:website": "http://www.bonsauveuralby.fr/web/fr/139-les-hopitaux-de-jour-d-albi.php", "healthcare": "hospital", "healthcare:speciality": "mental_health", "name": "Hôpital de Jour Agricole Bellevue", "operator": "Fondation Bon Sauveur d'Alby", "ref:FR:FINESS": "810007369", "type:FR:FINESS": "292"}}, {"name": "Centre hospitalier Sainte-Marie", "latitude": 44.3515264, "longitude": 2.5359707, "source": "osm", "_tags": {"alt_name": "Centre Hospitalier Sainte-Marie de Rodez", "amenity": "hospital", "emergency": "no", "healthcare": "hospital", "healthcare:speciality": "psychiatry", "loc_name": "Hopital de Cayssiols", "name": "Centre hospitalier Sainte-Marie", "ref:FR:FINESS": "120004833", "source": "cadastre-dgi-fr source : Direction Générale des Impôts - Cadastre;mise à jour : 2009", "type:FR:FINESS": "255"}}, {"name": "Centre hospitalier intercommunal", "latitude": 43.4953328, "longitude": 2.3706815, "source": "osm", "_tags": {"amenity": "hospital", "healthcare": "hospital", "name": "Centre hospitalier intercommunal", "ref:FR:FINESS": "810000547", "short_name": "CHIC", "website": "http://chic-cm.fr/"}}, {"name": "Clinique Claude Bernard", "latitude": 43.9301526, "longitude": 2.1651324, "source": "osm", "_tags": {"amenity": "hospital", "emergency": "yes", "fax": "+33 5 63 46 22 24", "healthcare:speciality": "intensive", "name": "Clinique Claude Bernard", "operator": "Groupe Elsan", "phone": "+33 5 63 77 77 63", "ref:FR:FINESS": "810000224", "ref:FR:NAF": "8610Z", "ref:FR:SIRET": "08692039400011", "type:FR:FINESS": "365", "website": "http://www.claude-bernard-albi.groupe-elsan.com/"}}, {"name": "Centre hospitalier de Rodez", "latitude": 44.3602558, "longitude": 2.5514943, "source": "osm", "_tags": {"alt_name": "Hôpital Jacques Puel", "amenity": "hospital", "emergency": "yes", "fax": "+33 5 65 55 27 19", "healthcare": "hospital", "healthcare:speciality": "intensive", "name": "Centre hospitalier de Rodez", "operator:type": "public", "phone": "+33 5 65 55 12 12", "ref:FR:FINESS": "120000039", "source": "cadastre-dgi-fr source : Direction Générale des Impôts - Cadastre ; mise à jour : 2019", "type:FR:FINESS": "355", "website": "https://www.ch-rodez.fr/", "wikidata": "Q105164377"}}, {"name": "Hôpital du Pays d’Autan", "latitude": 43.5661592, "longitude": 2.2620825, "source": "osm", "_tags": {"addr:city": "Castres", "addr:housenumber": "6", "addr:postcode": "81100", "addr:street": "Avenue de la Montagne Noire", "alt_name": "Centre Hospitalier Intercommunal Castres-Mazamet", "amenity": "hospital", "email": "direction@chic-cm.fr", "emergency": "yes", "fax": "+33 5 63 71 60 03", "healthcare": "hospital", "healthcare:speciality": "intensive", "name": "Hôpital du Pays d’Autan", "operator:type": "public", "phone": "+33 5 63 71 63 71", "ref:FR:FINESS": "810000521", "type:FR:FINESS": "355", "website": "https://www.chic-cm.fr/index.php"}}, {"name": "Unité Médico-Psychologique pour Jeunes Enfants (UMPJE)", "latitude": 44.3447307, "longitude": 2.5559421, "source": "osm", "_tags": {"amenity": "hospital", "healthcare": "hospital", "name": "Unité Médico-Psychologique pour Jeunes Enfants (UMPJE)", "operator": "CH Rodez", "ref:FR:FINESS": "120783188", "type:FR:FINESS": "355", "website": "https://www.ch-rodez.fr/usagers/espace-enfant/pedopsychiatrie-367.html"}}, {"name": "Centre Hospitalier de Saint-Pons-de-Thomières", "latitude": 43.4898117, "longitude": 2.7534539, "source": "osm", "_tags": {"amenity": "hospital", "fax": "+33467970528", "healthcare": "hospital", "name": "Centre Hospitalier de Saint-Pons-de-Thomières", "phone": "+33467974100", "ref:FR:FINESS": "340000181", "ref:FR:SIRET": "26340008700015", "source": "Le ministère des solidarités et de la santé - 2023-03", "type:FR:FINESS": "106"}}]