[{"name": "Policlinică cu plată", "latitude": 44.0668783, "longitude": 28.6329652, "source": "osm", "_tags": {"addr:city": "Eforie Nord", "addr:street": "Bulevardul Republicii", "amenity": "hospital", "healthcare": "hospital", "name": "Policlinică cu plată"}}, {"name": "Cabinete Medicale", "latitude": 43.7865984, "longitude": 28.5775895, "source": "osm", "_tags": {"amenity": "hospital", "healthcare": "hospital", "name": "Cabinete Medicale"}}, {"name": "МБАЛ Бялата лястовица", "latitude": 43.7033852, "longitude": 28.0403558, "source": "osm", "_tags": {"amenity": "hospital", "check_date": "2024-04-03", "name": "МБАЛ Бялата лястовица"}}, {"name": "Spitalul Clinic de Recuperare, Medicină fizică și balneologie Eforie Nord", "latitude": 44.0678321, "longitude": 28.633943, "source": "osm", "_tags": {"addr:city": "Eforie Nord", "addr:street": "Bulevardul Alexandru Ioan Cuza", "amenity": "hospital", "healthcare": "hospital", "name": "Spitalul Clinic de Recuperare, Medicină fizică și balneologie Eforie Nord"}}, {"name": "Sanatoriul de copii Techirghiol", "latitude": 44.0520718, "longitude": 28.5990546, "source": "osm", "_tags": {"addr:city": "Techirghiol", "amenity": "hospital", "name": "Sanatoriul de copii Techirghiol", "source": "survey"}}, {"name": "Общинска поликлиника Шабла", "latitude": 43.5367369, "longitude": 28.5324981, "source": "osm", "_tags": {"amenity": "hospital", "name": "Общинска поликлиника Шабла"}}, {"name": "Optica Medicală", "latitude": 43.8108015, "longitude": 28.5820889, "source": "osm", "_tags": {"addr:city": "Mangalia", "addr:postcode": "905500", "addr:street": "Strada Ștefan cel Mare", "amenity": "hospital", "healthcare": "hospital", "healthcare:speciality": "ophthalmology", "name": "Optica Medicală"}}, {"name": "Dispennsarul 2", "latitude": 43.8138072, "longitude": 28.5761764, "source": "osm", "_tags": {"addr:city": "Mangalia", "addr:postcode": "905500", "addr:street": "Strada Mihai Viteazul", "amenity": "hospital", "healthcare": "hospital", "healthcare:speciality": "general;paediatrics;community", "name": "Dispennsarul 2"}}, {"name": "Dispensar", "latitude": 44.3643368, "longitude": 28.462148, "source": "osm", "_tags": {"addr:postcode": "907195", "addr:street": "Tudor Vladimirescu", "amenity": "hospital", "internet_access": "wlan", "name": "Dispensar", "name:en": "Hospital", "opening_hours": "24/7"}}, {"name": "Cabinet Medico-Sanitar de Frontiera Port Constanța", "latitude": 44.1715666, "longitude": 28.6569786, "source": "osm", "_tags": {"alt_name": "Policlinica port", "amenity": "hospital", "building": "yes", "building:levels": "3", "healthcare": "hospital", "name": "Cabinet Medico-Sanitar de Frontiera Port Constanța"}}, {"name": "Spitalul Clinic de Pneumoftiziologie Constanța", "latitude": 44.2310366, "longitude": 28.6078247, "source": "osm", "_tags": {"addr:city": "Palazu Mare", "addr:housenumber": "40", "addr:street": "Strada Sentinelei", "amenity": "hospital", "healthcare": "hospital", "healthcare:speciality": "pulmonology", "name": "Spitalul Clinic de Pneumoftiziologie Constanța", "operator": "Consiliul Județean Constanța", "operator:type": "public"}}, {"name": "Spitalul de Psihiatrie Palazu Mare", "latitude": 44.2330245, "longitude": 28.600245, "source": "osm", "_tags": {"addr:city": "Palazu Mare", "addr:housenumber": "27-29", "addr:street": "Strada Santinelei", "amenity": "hospital", "healthcare": "hospital", "name": "Spitalul de Psihiatrie Palazu Mare", "operator": "Spitalul Clinic Județean de Urgență Constanța"}}, {"name": "Dispensar TBC", "latitude": 44.201175, "longitude": 28.630142, "source": "osm", "_tags": {"addr:city": "Constanța", "addr:country": "RO", "addr:housenumber": "167", "addr:postcode": "900412", "addr:postcode:source": "Date de la Poșta Română, publicate sub Licența pentru Guvernare Deschisă v1.0 la http://date.gov.ro/organization/posta-romana", "addr:street": "Bulevardul Alexandru Lăpușneanu", "amenity": "hospital", "building": "yes", "healthcare": "hospital", "name": "Dispensar TBC", "operator": "Spitalul Clinic de Pneumoftiziologie Constanța", "operator:type": "public"}}, {"name": "Euromaterna", "latitude": 44.2012127, "longitude": 28.6138357, "source": "osm", "_tags": {"addr:city": "Constanța", "addr:housenumber": "32", "addr:postcode": "900402", "addr:postcode:source": "Date de la Poșta Română, publicate sub Licența pentru Guvernare Deschisă v1.0 la http://date.gov.ro/organization/posta-romana", "addr:street": "Strada Ștefăniță Vodă", "amenity": "hospital", "healthcare": "hospital", "healthcare:speciality": "gynaecology;maternity", "name": "Euromaterna", "operator": "Euromaterna", "wheelchair": "yes"}}, {"name": "Spitalul Clinic C.F. Constanța", "latitude": 44.1738023, "longitude": 28.6513384, "source": "osm", "_tags": {"amenity": "hospital", "healthcare": "hospital", "name": "Spitalul Clinic C.F. Constanța", "operator": "Ministerul Transporturilor"}}, {"name": "Spital Mangalia", "latitude": 43.8168341, "longitude": 28.5869798, "source": "osm", "_tags": {"amenity": "hospital", "building": "yes", "emergency": "yes", "healthcare": "hospital", "healthcare:speciality": "paediatrics;gynaecology", "name": "Spital Mangalia"}}, {"name": "Policlinica Mangalia", "latitude": 43.8089644, "longitude": 28.5822753, "source": "osm", "_tags": {"amenity": "hospital", "building": "yes", "emergency": "no", "name": "Policlinica Mangalia"}}, {"name": "Spitalul Municipal", "latitude": 43.8195891, "longitude": 28.5879512, "source": "osm", "_tags": {"addr:city": "Mangalia", "addr:housenumber": "5", "addr:postcode": "905500", "addr:postcode:source": "Date de la Poșta Română, publicate sub Licența pentru Guvernare Deschisă v1.0 la http://date.gov.ro/organization/posta-romana", "addr:street": "Strada George Emil Palade", "amenity": "hospital", "building": "yes", "emergency": "yes", "healthcare": "hospital", "name": "Spitalul Municipal"}}, {"name": "МБАЛ Каварна", "latitude": 43.4250279, "longitude": 28.339391, "source": "osm", "_tags": {"addr:city": "Каварна", "addr:housenumber": "36", "addr:street": "Васил Левски", "amenity": "hospital", "name": "МБАЛ Каварна"}}, {"name": "Armonia Hospital", "latitude": 44.1823183, "longitude": 28.6512963, "source": "osm", "_tags": {"addr:city": "Constanța", "addr:housenumber": "102-102A", "addr:postcode": "900663", "addr:street": "Strada Mircea cel Bătrân", "amenity": "hospital", "building": "yes", "building:levels": "4", "email": "office@isis-med.ro", "healthcare": "hospital", "healthcare:speciality": "gynaecology;maternity", "name": "Armonia Hospital", "old_name:2000": "Hotel Astoria", "old_name:2020": "Isis Hospital", "operator:type": "private", "phone": "+40341 46 33 44, +40747 474747", "source": "Owner", "website": "https://armoniahospital.ro/"}}, {"name": "Държавна психиатрична болница", "latitude": 43.4726206, "longitude": 28.0203992, "source": "osm", "_tags": {"addr:city": "Карвуна", "amenity": "hospital", "barrier": "fence", "emergency": "yes", "healthcare": "hospital", "healthcare:speciality": "psychiatry", "name": "Държавна психиатрична болница"}}, {"name": "Secția Pneumologie TBC a SJU Constanța", "latitude": 44.092358, "longitude": 28.6412921, "source": "osm", "_tags": {"addr:city": "Agigea", "addr:housenumber": "157", "addr:street": "Strada Nicolae Titulescu", "amenity": "hospital", "healthcare": "hospital", "healthcare:speciality": "tbc;osteology", "name": "Secția Pneumologie TBC a SJU Constanța", "old_name": "Sanatoriul TBC Osteoarticular „Dr. V. Climescu”", "operator": "Spitalul Clinic Județean de Urgență Constanța", "operator:type": "public"}}, {"name": "Spitalul Clinic Județean de Urgență „Sf. Apostol Andrei” Constanța", "latitude": 44.185938, "longitude": 28.6421444, "source": "osm", "_tags": {"addr:city": "Constanța", "addr:housenumber": "145", "addr:postcode": "900591", "addr:postcode:source": "Date de la Poșta Română, publicate sub Licența pentru Guvernare Deschisă v1.0 la http://date.gov.ro/organization/posta-romana", "addr:street": "Bulevardul Tomis", "alt_name": "Spitalul Mare", "amenity": "hospital", "healthcare": "hospital", "name": "Spitalul Clinic Județean de Urgență „Sf. Apostol Andrei” Constanța", "name:en": "St. Andrew Constanța County Emergency Clinical Hospital", "operator": "SCJU Constanța"}}, {"name": "Spitalul Clinic de Boli Infecțioase", "latitude": 44.1712047, "longitude": 28.6380516, "source": "osm", "_tags": {"addr:city": "Constanța", "addr:housenumber": "100", "addr:postcode": "900709", "addr:street": "Bulevardul Ferdinand", "amenity": "hospital", "healthcare": "hospital", "name": "Spitalul Clinic de Boli Infecțioase", "old_name": "Spitalul Municipal Constanța", "operator": "SCBI Constanța", "operator:type": "public"}}, {"name": "Policlinica CFR", "latitude": 44.1716996, "longitude": 28.6301986, "source": "osm", "_tags": {"addr:city": "Constanța", "addr:housenumber": "35-37", "addr:street": "Bulevardul I. C. Brătianu", "amenity": "hospital", "healthcare": "hospital", "name": "Policlinica CFR"}}, {"name": "Spitalului Universitar CF", "latitude": 44.1672863, "longitude": 28.5838682, "source": "osm", "_tags": {"addr:city": "Constanța", "addr:housenumber": "32", "addr:street": "Strada Vifor Haiducul", "disused": "yes", "disused:amenity": "hospital", "healthcare": "hospital", "name": "Spitalului Universitar CF"}}, {"name": "Spitalul Clinic Căi Ferate Constanța", "latitude": 44.1655479, "longitude": 28.6342395, "source": "osm", "_tags": {"amenity": "hospital", "healthcare": "hospital", "name": "Spitalul Clinic Căi Ferate Constanța", "operator": "Ministerul Transporturilor și Infrastructurii"}}, {"name": "Centrul Medical Județean Constanța al M.I.", "latitude": 44.2099409, "longitude": 28.6425856, "source": "osm", "_tags": {"addr:city": "Constanța", "addr:housenumber": "273", "addr:street": "Bulevardul Mamaia", "amenity": "hospital", "healthcare": "hospital", "name": "Centrul Medical Județean Constanța al M.I.", "operator": "Ministerul de Interne", "operator:type": "government"}}, {"name": "Policlinica Nr.2", "latitude": 44.1720921, "longitude": 28.6381074, "source": "osm", "_tags": {"addr:city": "Constanța", "addr:housenumber": "133", "addr:street": "Strada Ștefan cel Mare", "amenity": "hospital", "healthcare": "hospital", "name": "Policlinica Nr.2", "operator": "Spitalul Clinic Județean de Urgență Constanța", "operator:type": "public"}}, {"name": "", "latitude": 44.1718335, "longitude": 28.6376115, "source": "osm", "_tags": {"addr:city": "Constanța", "addr:housenumber": "4C", "addr:street": "Bulevardul 1 Decembrie 1918", "amenity": "hospital", "healthcare": "hospital"}}, {"name": "Centru De Excelență Clinică Fundația Baylor", "latitude": 44.1495929, "longitude": 28.6237347, "source": "osm", "_tags": {"addr:city": "Constanța", "addr:housenumber": "10", "addr:street": "Prelungirea Liliacului", "amenity": "hospital", "description": "Centrul de Excelenta Baylor asigura tratament antiHIV, precum si vitamine, suplimente nutritive si antibiotice pentru persoanele seropozitive, ingrijiri medicale in cabinete specializate (stomatologie, obstetrica-ginecologie, planificare familiala, pneumo", "emergency": "no", "healthcare": "hospital", "healthcare:speciality": "hiv", "name": "Centru De Excelență Clinică Fundația Baylor", "opening_hours": "Mo-Fr 08:00-16:30", "phone": "+40 241 691 730", "website": "https://www.baylor.ro/"}}, {"name": "Spitalul Clinic de Boli Infecțioase Constanța", "latitude": 44.1643008, "longitude": 28.6016949, "source": "osm", "_tags": {"addr:city": "Constanța", "addr:housenumber": "4", "addr:street": "Strada Ion Ionescu de la Brad", "amenity": "hospital", "healthcare": "hospital", "name": "Spitalul Clinic de Boli Infecțioase Constanța"}}, {"name": "Servicii Imagistică Armonia", "latitude": 44.1726846, "longitude": 28.6335689, "source": "osm", "_tags": {"addr:city": "Constanța", "addr:housenumber": "2-4", "addr:street": "Bulevardul I. C. Brătianu", "amenity": "hospital", "emergency": "no", "healthcare": "hospital", "name": "Servicii Imagistică Armonia", "operator": "Armonia Group", "operator:type": "private"}}, {"name": "Clinica Medstar 2000", "latitude": 44.1808573, "longitude": 28.6446268, "source": "osm", "_tags": {"addr:city": "Constanța", "addr:housenumber": "41", "addr:street": "Strada Ion Lahovari", "amenity": "hospital", "emergency": "no", "healthcare": "hospital", "healthcare:speciality": "general;cardiology;internal", "name": "Clinica Medstar 2000", "operator:type": "private", "website": "https://www.medstar2000.ro/"}}, {"name": "Heka Hospital", "latitude": 44.1737921, "longitude": 28.6359792, "source": "osm", "_tags": {"addr:city": "Constanța", "addr:housenumber": "21", "addr:street": "Bulevardul 1 Decembrie 1918", "amenity": "hospital", "healthcare": "hospital", "name": "Heka Hospital", "operator:type": "private"}}, {"name": "Ovidius Clinical Hospital", "latitude": 44.2320807, "longitude": 28.5824568, "source": "osm", "_tags": {"addr:city": "Ovidiu", "addr:housenumber": "km 202+880", "addr:street": "DN2A", "amenity": "hospital", "healthcare": "hospital", "healthcare:speciality": "intensive;cardiology;diabetology;endocrinology;gastroenterology;haematology;neurology;nephrology;oncology;rheumatology;internal;neurosurgery;orthopaedics;physiatry;urology;surgery;vascular_surgery;dermatology;gynaecology;general;ophthalmology;psychiatry", "name": "Ovidius Clinical Hospital", "operator": "Ovidius Clinical Hospital SRL", "operator:type": "private", "phone": "+40 241 480 400", "website": "https://ovidius-ch.ro/"}}, {"name": "Spitalul Militar de Urgență „Dr. Alexandru Gafencu” Constanța", "latitude": 44.1900643, "longitude": 28.6521643, "source": "osm", "_tags": {"addr:city": "Constanța", "addr:housenumber": "96", "addr:street": "Bulevardul Mamaia", "alt_name": "Cazarma 507", "amenity": "hospital", "emergency": "yes", "healthcare": "hospital", "name": "Spitalul Militar de Urgență „Dr. Alexandru Gafencu” Constanța", "operator": "Ministerul Apărării Naționale", "operator:type": "military", "wheelchair": "limited"}}, {"name": "", "latitude": 44.1613596, "longitude": 28.6306966, "source": "osm", "_tags": {"amenity": "hospital", "healthcare": "hospital"}}]