[{"name": "Bermeoko Ospitalea", "latitude": 43.4221853, "longitude": -2.7215605, "source": "osm", "_tags": {"addr:city": "BERMEO", "addr:full": "Tonpoi bidea 2", "addr:postcode": "48370", "addr:province": "BIZKAIA", "amenity": "hospital", "building": "hospital", "email": "admision.hbermeo@osakidetza.eus", "fax": "+34 946029020", "healthcare": "hospital", "name": "Bermeoko Ospitalea", "name:es": "Hospital de Bermeo", "name:eu": "Bermeoko Ospitalea", "network": "Bizkaiko Osasun Mentaleko Sarea", "note": "osasun-zentroaren ordutegitik kanpo eta premiaz artatu beharreko kasu arinetarako, begiratu <a href=\"https://www.osakidetza.euskadi.eus/informazioa/etengabeko-arretako-guneak-eag/ab84-oskcon/eu/\">hemen</a>ea zein EAG duzun hurbilen", "opening_hours": "Mo-Fr 08:00-15:00", "operator": "Osakidetza", "operator:type": "government", "operator:wikidata": "Q3822645", "operator:wikipedia": "es:Osakidetza-Servicio Vasco de Salud", "phone": "+34 946029000", "ref:osakidetza": "rsmb_hospital_bermeo", "source": "Open Data Euskadi"}}, {"name": "Bermeoko Ospitale Psikiatrikoa", "latitude": 43.4222228, "longitude": -2.7209551, "source": "osm", "_tags": {"amenity": "hospital", "building": "yes", "healthcare": "hospital", "name": "Bermeoko Ospitale Psikiatrikoa"}}]