[{"name": "Clinique Korian Napoléon", "latitude": 43.7298703, "longitude": -1.0657972, "source": "osm", "_tags": {"amenity": "hospital", "capacity": "90", "contact:housenumber": "368", "contact:street": "Allée de Christus", "description": "La clinique Korian Napoléon est spécialisée dans la prise en charge des conséquences fonctionnelles des affections du système nerveux et locomoteur.", "emergency": "no", "fax": "+33558918854", "healthcare": "clinic", "healthcare:speciality": "orthopaedics", "name": "Clinique Korian Napoléon", "opening_hours": "Mo-Su 09:00-12:00, 14:00-18:00", "operator": "Korian", "operator:type": "private", "phone": "+33 5 58 91 22 00", "ref:FR:FINESS": "400780102", "ref:FR:NAF": "86.10Z", "ref:FR:SIRET": "32745793300015", "source": "Le ministère des solidarités et de la santé - 2021-03", "type:FR:FINESS": "109", "website": "https://www.korian.fr/clinique-ssr/ssr-korian-napoleon-saint-paul-les-dax-40990/"}}, {"name": "Clinique d'Amade", "latitude": 43.5041198, "longitude": -1.4774509, "source": "osm", "_tags": {"amenity": "hospital", "healthcare": "hospital", "name": "Clinique d'Amade"}}, {"name": "Hegaldia hôpital de jour", "latitude": 43.6636483, "longitude": -1.2861393, "source": "osm", "_tags": {"amenity": "hospital", "healthcare": "hospital", "name": "Hegaldia hôpital de jour"}}, {"name": "Centre d'Oncologie et de Radiothérapie du Pays Basque", "latitude": 43.5031085, "longitude": -1.4545834, "source": "osm", "_tags": {"amenity": "hospital", "healthcare": "hospital", "healthcare:speciality": "oncology", "name": "Centre d'Oncologie et de Radiothérapie du Pays Basque", "short_name": "COPB", "website": "https://www.copb.eu/"}}, {"name": "Loratzea", "latitude": 43.4770359, "longitude": -1.4555245, "source": "osm", "_tags": {"addr:city": "Saint-Pierre-d'Irube", "addr:housenumber": "12", "addr:postcode": "64990", "addr:street": "Allée Bordenave", "amenity": "hospital", "healthcare": "hospital", "healthcare:speciality": "dermatology;otolaryngology;paediatrics;kinesitherapy;ophthalmology;psychology", "name": "Loratzea"}}, {"name": "Centre hospitalier de la Côte Basque - Site Cam de Prats", "latitude": 43.4848887, "longitude": -1.4643344, "source": "osm", "_tags": {"amenity": "hospital", "healthcare": "hospital", "healthcare:speciality": "intensive", "name": "Centre hospitalier de la Côte Basque - Site Cam de Prats", "ref:FR:FINESS": "640784278", "source": "cadastre-dgi-fr source : Direction Générale des Impôts - Cadastre. Mise à jour : 2010", "type:FR:FINESS": "355"}}, {"name": "Korian Le Belvédère", "latitude": 43.5980883, "longitude": -1.4696277, "source": "osm", "_tags": {"addr:city": "Labenne", "addr:housenumber": "2", "addr:postcode": "40530", "addr:street": "Avenue de la Plage", "amenity": "clinic", "building": "hospital", "emergency": "no", "fax": "+33559454561", "healthcare": "hospital", "name": "Korian Le Belvédère", "operator": "Korian", "operator:type": "private", "phone": "+33559454220", "ref:FR:FINESS": "400780466", "ref:FR:SIRET": "32388786900010", "source": "cadastre-dgi-fr source : Direction Générale des Finances Publiques - Cadastre. Mise à jour : 2022;Le ministère des solidarités et de la santé - 2021-03", "type:FR:FINESS": "109"}}, {"name": "Le Lanot", "latitude": 43.6899138, "longitude": -1.0779131, "source": "osm", "_tags": {"addr:street": "Route des Roches", "amenity": "hospital", "description": "Centre de soins pour personnes âgées.", "emergency": "no", "healthcare": "hospital", "healthcare:speciality": "geriatrics", "name": "Le Lanot", "operator": "CH de Dax", "operator:type": "public", "phone": "+33 5 58 91 49 54", "ref:FR:FINESS": "400787354", "source": "Le ministère des solidarités et de la santé - 08/2018", "type:FR:FINESS": "355"}}, {"name": "Clinique Mirambeau", "latitude": 43.4769796, "longitude": -1.506271, "source": "osm", "_tags": {"addr:city": "Anglet", "addr:housenumber": "22", "addr:postcode": "64600", "addr:street": "Route de Maignon", "amenity": "hospital", "building": "yes", "healthcare": "hospital", "name": "Clinique Mirambeau", "ref:FR:FINESS": "640780409", "source": "cadastre-dgi-fr source : Direction Générale des Impôts - Cadastre. Mise à jour : 2012", "type:FR:FINESS": "161"}}, {"name": "Clinique Belharra", "latitude": 43.4792976, "longitude": -1.4528454, "source": "osm", "_tags": {"amenity": "hospital", "check_date": "2025-08-16", "emergency": "yes", "healthcare": "hospital", "name": "Clinique Belharra", "operator": "Ramsay Santé", "operator:type": "private", "operator:wikidata": "Q3123085", "phone": "+33 5 36 28 64 64", "ref:FR:FINESS": "640018206", "ref:FR:SIRET": "49346215400052", "source": "Le ministère des solidarités et de la santé - 03/2019", "type:FR:FINESS": "365", "website": "https://clinique-belharra-bayonne.ramsaysante.fr/"}}, {"name": "Centre hospitalier de la Côte Basque - Site de Saint-Leon", "latitude": 43.4824696, "longitude": -1.4805736, "source": "osm", "_tags": {"addr:city": "Bayonne", "addr:housenumber": "13", "addr:postcode": "64100", "addr:street": "Avenue Interne Jacques Loeb", "amenity": "hospital", "emergency": "yes", "fax": "+33 5 59 63 35 88", "healthcare": "hospital", "healthcare:speciality": "general;paediatrics;gynaecology;radiology;oncology;surgery;dermatology;cardiology;maternity;geriatrics;neurology;emergency;orthopaedics;intensive", "name": "Centre hospitalier de la Côte Basque - Site de Saint-Leon", "operator:type": "public", "phone": "+33 5 59 44 35 35", "ref:FR:FINESS": "640000162", "source": "Le ministère des solidarités et de la santé - 08/2018", "type:FR:FINESS": "355", "website": "https://www.ch-cote-basque.fr/", "wheelchair": "yes", "wikidata": "Q2945716"}}, {"name": "Clinique Château Caradoc", "latitude": 43.5016308, "longitude": -1.4611788, "source": "osm", "_tags": {"amenity": "hospital", "check_date": "2025-08-05", "emergency": "no", "fax": "+33559440571", "healthcare": "yes", "name": "Clinique Château Caradoc", "operator": "Groupe Santé Basque Développement", "phone": "+33559441744", "ref:FR:FINESS": "640018255", "ref:FR:SIRET": "44071971400030", "source": "Le ministère des solidarités et de la santé - 03/2019", "website": "https://caradoc.fr/"}}, {"name": "Clinique Aguiléra", "latitude": 43.4855584, "longitude": -1.5391025, "source": "osm", "_tags": {"addr:housenumber": "21", "addr:postcode": "64200", "addr:street": "Rue de l'Estagnas", "amenity": "hospital", "emergency": "yes", "fax": "+33 5 59 22 47 45", "healthcare": "hospital", "name": "Clinique Aguiléra", "operator": "Ramsay Santé", "operator:wikidata": "Q3123085", "phone": "+33 5 36 28 64 00", "ref:FR:FINESS": "640780490", "type:FR:FINESS": "365", "website": "https://clinique-aguilera-biarritz.ramsaygds.fr"}}, {"name": "Clinique Saint-Martin-de-Seignanx", "latitude": 43.5513225, "longitude": -1.4211463, "source": "osm", "_tags": {"amenity": "hospital", "contact:phone": "+33 5 40 69 09 20", "emergency": "no", "healthcare": "rehabilitation", "name": "Clinique Saint-Martin-de-Seignanx", "ref:FR:FINESS": "400780466", "ref:FR:SIRET": "32388786900036", "type:FR:FINESS": "109"}}]