[{"name": "Ospedaletto", "latitude": 44.4055317, "longitude": 9.2431181, "source": "osm", "_tags": {"amenity": "hospital", "emergency": "no", "name": "Ospedaletto", "operator": "Azienda Sanitaria Locale 4 \"Chiavarese\""}}, {"name": "Croce Rossa Italiana - Calice al Cornoviglio", "latitude": 44.2431973, "longitude": 9.8367664, "source": "osm", "_tags": {"addr:city": "Calice al Cornoviglio", "addr:housenumber": "6", "addr:place": "Piazza Trento e Trieste", "addr:postcode": "19020", "brand": "Croce Rossa Italiana", "brand:wikidata": "Q913903", "emergency": "ambulance_station", "healthcare": "hospital", "name": "Croce Rossa Italiana - Calice al Cornoviglio"}}, {"name": "Croce Rossa Italiana - Fezzano", "latitude": 44.0796638, "longitude": 9.8263204, "source": "osm", "_tags": {"addr:city": "Fezzano", "addr:housenumber": "92", "addr:postcode": "19025", "addr:street": "Via Provinciale", "emergency": "ambulance_station", "healthcare": "hospital", "name": "Croce Rossa Italiana - Fezzano"}}, {"name": "Croce Rossa Italiana - Chiavari -", "latitude": 44.3194153, "longitude": 9.323513, "source": "osm", "_tags": {"addr:city": "Chiavari", "addr:housenumber": "6", "addr:street": "Salita Alessio Levaggi", "check_date": "2024-05-09", "emergency": "ambulance_station", "healthcare": "hospital", "name": "Croce Rossa Italiana - Chiavari -"}}, {"name": "Croce Rossa Italiana - Cicagna", "latitude": 44.4054912, "longitude": 9.2412638, "source": "osm", "_tags": {"addr:city": "Cicagna", "addr:housenumber": "98", "addr:postcode": "16044", "addr:street": "Via G.B. Valente", "emergency": "ambulance_station", "healthcare": "hospital", "name": "Croce Rossa Italiana - Cicagna"}}, {"name": "Croce Rossa - Cogorno -", "latitude": 44.3282531, "longitude": 9.350556, "source": "osm", "_tags": {"addr:city": "Cogorno", "addr:housenumber": "10", "addr:street": "Via alla Croce Rossa", "brand": "Croce Rossa Italiana", "brand:wikidata": "Q913903", "emergency": "ambulance_station", "healthcare": "hospital", "name": "Croce Rossa - Cogorno -"}}, {"name": "Croce Rossa - Lavagna", "latitude": 44.3102057, "longitude": 9.3459042, "source": "osm", "_tags": {"addr:city": "Lavagna", "addr:housenumber": "7", "addr:postcode": "16033", "addr:street": "Piazza San Michele", "brand": "Croce Rossa Italiana", "brand:wikidata": "Q913903", "emergency": "ambulance_station", "healthcare": "hospital", "name": "Croce Rossa - Lavagna"}}, {"name": "Croce Rossa Italiana - Comitato di Levanto", "latitude": 44.1738311, "longitude": 9.6195294, "source": "osm", "_tags": {"addr:city": "Levanto", "addr:housenumber": "26", "addr:street": "Via Michele Canzio", "alt_name": "CRI", "brand": "Croce Rossa Italiana", "brand:wikidata": "Q913903", "emergency": "ambulance_station", "healthcare": "hospital", "name": "Croce Rossa Italiana - Comitato di Levanto"}}, {"name": "Croce Rossa - Sori", "latitude": 44.3729612, "longitude": 9.1042976, "source": "osm", "_tags": {"addr:city": "Sori", "addr:housenumber": "1", "addr:postcode": "16031", "addr:street": "Via Sauli", "brand": "Croce Rossa Italiana", "brand:wikidata": "Q913903", "emergency": "ambulance_station", "healthcare": "hospital", "name": "Croce Rossa - Sori"}}, {"name": "Croce Rossa - Sesta Godano -", "latitude": 44.2923026, "longitude": 9.6741975, "source": "osm", "_tags": {"addr:city": "Sesta Godano", "addr:housenumber": "47", "addr:street": "Via Roma", "emergency": "ambulance_station", "healthcare": "hospital", "name": "Croce Rossa - Sesta Godano -"}}, {"name": "Croce Rossa - Uscio", "latitude": 44.4161653, "longitude": 9.1572735, "source": "osm", "_tags": {"addr:city": "Uscio", "addr:housenumber": "25", "addr:postcode": "16036", "addr:street": "Via Orlando Bianchi", "emergency": "ambulance_station", "healthcare": "hospital", "name": "Croce Rossa - Uscio"}}, {"name": "Ospedale San Martino", "latitude": 44.4095468, "longitude": 8.9730625, "source": "osm", "_tags": {"amenity": "hospital", "emergency": "yes", "healthcare": "hospital", "name": "Ospedale San Martino", "official_name": "Ospedale Policlinico San Martino", "website": "https://www.ospedalesanmartino.it/", "wheelchair": "yes", "wikidata": "Q2034556", "wikipedia": "it:Ospedale San Martino"}}, {"name": "Istituto Scientifico di Nervi", "latitude": 44.3847886, "longitude": 9.0303417, "source": "osm", "_tags": {"alt_name": "Ospedale di Nervi", "amenity": "hospital", "building": "yes", "building:levels": "4", "healthcare": "hospital", "name": "Istituto Scientifico di Nervi", "operator": "Fondazione Salvatore Maugeri", "website": "https://www.fsm.it/"}}, {"name": "Ospedale Pediatrico Giannina Gaslini", "latitude": 44.3928734, "longitude": 8.9880756, "source": "osm", "_tags": {"amenity": "hospital", "healthcare": "hospital", "name": "Ospedale Pediatrico Giannina Gaslini", "wikidata": "Q204441"}}, {"name": "Nostra Signora di Montallegro", "latitude": 44.3589151, "longitude": 9.2142264, "source": "osm", "_tags": {"addr:city": "Rapallo", "addr:housenumber": "8", "addr:street": "Via San Pietro", "amenity": "hospital", "emergency": "yes", "healthcare": "hospital", "healthcare:speciality": "general", "name": "Nostra Signora di Montallegro", "operator": "ASL 4 Chiavarese"}}, {"name": "Ospedale Galliera", "latitude": 44.3995944, "longitude": 8.9410234, "source": "osm", "_tags": {"addr:city": "Genova", "addr:housenumber": "8", "addr:postcode": "16128", "addr:street": "Via Alessandro Volta", "amenity": "hospital", "emergency": "yes", "healthcare": "hospital", "name": "Ospedale Galliera", "official_name": "Ente Ospedaliero Ospedali Galliera", "short_name": "EO Ospedali Galliera", "url": "http://www.galliera.it", "wheelchair": "yes", "wikidata": "Q1344478"}}, {"name": "Polo Ospedaliero di Chiavari", "latitude": 44.3197316, "longitude": 9.3250331, "source": "osm", "_tags": {"addr:city": "Chiavari", "addr:housenumber": "9", "addr:postcode": "16043", "addr:street": "Via Gio Batta Ghio", "amenity": "hospital", "emergency": "no", "healthcare": "hospital", "healthcare:speciality": "community", "name": "Polo Ospedaliero di Chiavari", "operator": "ASL 4 Chiavarese", "operator:type": "public"}}, {"name": "Ospedale San Nicolò", "latitude": 44.1764977, "longitude": 9.6195061, "source": "osm", "_tags": {"addr:street": "Via Nostra Signora della Guardia", "amenity": "hospital", "building": "yes", "healthcare": "hospital", "name": "Ospedale San Nicolò"}}, {"name": "Ospedale Civile Sant'Andrea", "latitude": 44.1125514, "longitude": 9.8312428, "source": "osm", "_tags": {"addr:city": "La Spezia", "addr:housenumber": "197", "addr:postcode": "19121", "addr:street": "Via Vittorio Veneto", "amenity": "hospital", "emergency": "yes", "healthcare": "hospital", "healthcare:speciality": "general", "name": "Ospedale Civile Sant'Andrea", "website": "https://www.asl5.liguria.it/PerilCittadino/Ospedale.aspx"}}, {"name": "", "latitude": 44.0766326, "longitude": 9.9134172, "source": "osm", "_tags": {"amenity": "hospital", "building": "yes", "healthcare": "hospital", "source": "Regione Liguria"}}, {"name": "", "latitude": 44.089683, "longitude": 9.878504, "source": "osm", "_tags": {"amenity": "hospital", "building": "yes", "healthcare": "hospital", "source": "Regione Liguria"}}, {"name": "Pubblica Assistenza di Pitelli Onlus", "latitude": 44.0954287, "longitude": 9.8832646, "source": "osm", "_tags": {"addr:city": "Pitelli", "addr:housenumber": "30", "addr:postcode": "19137", "addr:street": "Via Umberto Biancamano", "amenity": "hospital", "building": "yes", "healthcare": "hospital", "name": "Pubblica Assistenza di Pitelli Onlus", "phone:mobile": "+39 333 4061167", "source": "Regione Liguria"}}, {"name": "", "latitude": 44.0759661, "longitude": 9.9139162, "source": "osm", "_tags": {"amenity": "hospital", "healthcare": "hospital"}}, {"name": "", "latitude": 44.0778636, "longitude": 9.9153508, "source": "osm", "_tags": {"amenity": "hospital", "healthcare": "hospital"}}, {"name": "", "latitude": 44.3439033, "longitude": 9.3966184, "source": "osm", "_tags": {"amenity": "hospital", "building": "yes", "source": "Regione Liguria"}}, {"name": "", "latitude": 44.2754371, "longitude": 9.405872, "source": "osm", "_tags": {"addr:housenumber": "37", "addr:postcode": "16039", "addr:street": "Via Arnaldo Terzi", "amenity": "hospital", "building": "hospital", "healthcare": "hospital", "operator": "Azienda Sociosanitaria Ligure n. 4", "operator:type": "public", "source": "Regione Liguria", "website": "https://www.asl4.liguria.it/ospedali/ospedale-sestri-levante/"}}, {"name": "Ospedale Evangelico Internazionale", "latitude": 44.4140371, "longitude": 8.9429268, "source": "osm", "_tags": {"amenity": "hospital", "building": "hospital", "healthcare": "hospital", "name": "Ospedale Evangelico Internazionale", "wikidata": "Q84308446"}}, {"name": "Ospedale di Lavagna", "latitude": 44.3148496, "longitude": 9.3491341, "source": "osm", "_tags": {"addr:city": "Lavagna", "addr:housenumber": "25", "addr:street": "Via Don G.B. Bobbio", "amenity": "hospital", "emergency": "yes", "fixme": "Perimetro area da ridefinire.", "healthcare": "hospital", "healthcare:speciality": "general", "name": "Ospedale di Lavagna", "operator": "ASL 4 Chiavarese", "operator:type": "public"}}, {"name": "Ospedale Sant'Antonio Abate", "latitude": 44.3852927, "longitude": 9.8855771, "source": "osm", "_tags": {"amenity": "hospital", "name": "Ospedale Sant'Antonio Abate", "wheelchair": "yes"}}, {"name": "ASL n5 Farmacia Casa della Salute", "latitude": 44.1181648, "longitude": 9.8507739, "source": "osm", "_tags": {"amenity": "hospital", "healthcare": "hospital", "name": "ASL n5 Farmacia Casa della Salute", "operator": "ASL", "operator:type": "public", "operator:wikidata": "Q3631467"}}, {"name": "Casa di cura Alma Mater", "latitude": 44.1191952, "longitude": 9.8418711, "source": "osm", "_tags": {"amenity": "hospital", "description": "Casa di cura", "healthcare": "hospital", "name": "Casa di cura Alma Mater", "website": "https://www.clinicaalmamater.it"}}]