[{"name": "Clinique du Souffle - La Vallonie", "latitude": 43.7323154, "longitude": 3.3049798, "source": "osm", "_tags": {"amenity": "hospital", "name": "Clinique du Souffle - La Vallonie", "opening_hours": "Mo-Su 09:00-19:00", "ref:FR:FINESS": "340780568", "ref:FR:SIRET": "63615002100013"}}, {"name": "Polyclinique Pasteur", "latitude": 43.4564227, "longitude": 3.4233371, "source": "osm", "_tags": {"addr:city": "Pézenas", "addr:housenumber": "3", "addr:postcode": "34120", "addr:street": "Rue Pasteur", "amenity": "hospital", "emergency": "yes", "fax": "+33 4 67 00 97 01", "healthcare": "hospital", "name": "Polyclinique Pasteur", "operator": "Cap Santé", "phone": "+33 4 67 90 41 41", "ref:FR:FINESS": "340780154", "ref:FR:NAF": "8610Z", "ref:FR:SIRET": "31698005100015", "type:FR:FINESS": "365", "website": "https://www.polyclinique-pasteur.fr/accueil-pasteur.html"}}, {"name": "Hôpital Gui de Chauliac", "latitude": 43.6303284, "longitude": 3.8627305, "source": "osm", "_tags": {"amenity": "hospital", "description:emergency": "Urgences Tête et Cou/Neurochirurgie", "emergency": "yes", "fax": "+33 4 67 33 76 23", "healthcare:speciality": "intensive", "name": "Hôpital Gui de Chauliac", "operator": "CHU de Montpellier", "operator:type": "public", "phone": "+33 4 67 33 67 33", "ref:FR:FINESS": "340782085", "type:FR:FINESS": "101", "website": "https://www.chu-montpellier.fr/fr/a-propos-du-chu/decouvrir-le-chu/etablissements/gui-de-chauliac/"}}, {"name": "Hôpital Saint-Éloi", "latitude": 43.6291502, "longitude": 3.8651257, "source": "osm", "_tags": {"amenity": "hospital", "fax": "+33 4 67 33 76 23", "healthcare": "hospital", "name": "Hôpital Saint-Éloi", "operator": "CHU de Montpellier", "operator:type": "public", "phone": "+33 4 67 33 67 33", "ref:FR:FINESS": "340782036", "type:FR:FINESS": "101", "website": "https://www.chu-montpellier.fr/fr/a-propos-du-chu/decouvrir-le-chu/etablissements/saint-eloi/"}}, {"name": "Hôpital La Colombière", "latitude": 43.6262091, "longitude": 3.8575731, "source": "osm", "_tags": {"amenity": "hospital", "fax": "+33 4 67 33 88 96", "name": "Hôpital La Colombière", "operator": "CHU de Montpellier", "operator:type": "public", "phone": "+33 4 67 33 67 33", "ref:FR:FINESS": "340780485", "source": "Le ministère des solidarités et de la santé - 03/2019", "website": "https://www.chu-montpellier.fr/fr/a-propos-du-chu/decouvrir-le-chu/etablissements/la-colombiere/"}}, {"name": "", "latitude": 43.9671703, "longitude": 3.8700609, "source": "osm", "_tags": {"amenity": "hospital", "ref:FR:FINESS": "300017092", "source": "Le ministère des solidarités et de la santé - 03/2019"}}, {"name": "", "latitude": 43.9589398, "longitude": 3.8565478, "source": "osm", "_tags": {"amenity": "hospital", "ref:FR:FINESS": "300012572", "source": "Le ministère des solidarités et de la santé - 03/2019"}}, {"name": "", "latitude": 43.9588345, "longitude": 3.8569877, "source": "osm", "_tags": {"amenity": "hospital", "ref:FR:FINESS": "300016870", "source": "Le ministère des solidarités et de la santé - 03/2020"}}, {"name": "Soins Médicaux et de réadaptation", "latitude": 44.102849, "longitude": 3.0752222, "source": "osm", "_tags": {"amenity": "hospital", "healthcare:speciality": "physiatry", "name": "Soins Médicaux et de réadaptation", "short_name": "SMR", "type:FR:FINESS": "109"}}, {"name": "Unité de Soins de Longue Durée", "latitude": 44.1028201, "longitude": 3.0755138, "source": "osm", "_tags": {"amenity": "hospital", "name": "Unité de Soins de Longue Durée", "short_name": "USLD", "type:FR:FINESS": "362"}}, {"name": "Clinique Rech", "latitude": 43.6199388, "longitude": 3.8640364, "source": "osm", "_tags": {"amenity": "hospital", "name": "Clinique Rech", "ref:FR:FINESS": "340780758"}}, {"name": "CHU de Montpellier", "latitude": 43.6289768, "longitude": 3.8647428, "source": "osm", "_tags": {"amenity": "hospital", "healthcare": "hospital", "landuse": "healthcare", "name": "CHU de Montpellier", "operator": "CHU de Montpellier", "ref:FR:FINESS": "340782036", "source": "cadastre-dgi-fr source : Direction Générale des Impôts - Cadastre;mise à jour : 2007", "wheelchair": "limited"}}, {"name": "CHU de Montpellier", "latitude": 43.6278881, "longitude": 3.8538847, "source": "osm", "_tags": {"amenity": "hospital", "healthcare": "hospital", "landuse": "healthcare", "layer": "-1", "name": "CHU de Montpellier", "phone": "+33 4 67 33 67 33", "ref:FR:FINESS": "340796663", "source": "cadastre-dgi-fr source : Direction Générale des Impôts - Cadastre;mise à jour : 2007", "wikidata": "Q19859682"}}, {"name": "Clinique du Millénaire", "latitude": 43.6018888, "longitude": 3.9136686, "source": "osm", "_tags": {"addr:city": "Montpellier", "addr:housenumber": "220", "addr:postcode": "34000", "addr:street": "Boulevard Pénélope", "amenity": "hospital", "email": "info@millenaire.fr", "emergency": "yes", "fax": "+33 4 99 53 60 05", "healthcare": "hospital", "healthcare:speciality": "intensive", "name": "Clinique du Millénaire", "operator": "OC Santé", "operator:type": "private", "phone": "+33 8 26 88 88 83", "ref:FR:FINESS": "340015502", "source": "cadastre-dgi-fr source : Direction Générale des Impôts - Cadastre;mise à jour : 2009;mise_à_jour_:_2017", "type:FR:FINESS": "365", "website": "https://www.oc-sante.fr/etablissements/clinique-du-millenaire/"}}, {"name": "Clinique Saint-Louis", "latitude": 43.9327, "longitude": 3.7024916, "source": "osm", "_tags": {"amenity": "hospital", "contact:facebook": "Clinique Saint-Jean - Groupe Cap Santé", "emergency": "yes", "fax": "+33 4 67 73 50 24", "healthcare": "hospital", "name": "Clinique Saint-Louis", "operator": "Groupe Cap Santé", "operator:type": "private", "phone": "+33 4 67 81 68 00", "ref:FR:FINESS": "340780717", "source": "cadastre-dgi-fr source : Direction Générale des Impôts - Cadastre. Mise à jour : 2010", "type:FR:FINESS": "365", "website": "https://www.clinique-saint-louis.fr/accueil.html"}}, {"name": "Centre de Santé Mentale", "latitude": 44.1049315, "longitude": 3.0688408, "source": "osm", "_tags": {"addr:city": "Millau", "addr:housenumber": "148", "addr:postcode": "12100", "addr:street": "Rue du Printemps", "amenity": "hospital", "building": "yes", "contact:phone": "+33 5 65 59 53 60", "healthcare": "hospital", "name": "Centre de Santé Mentale", "opening_hours:reception": "14:30-18:30", "ref:FR:FINESS": "120786249", "ref:FR:SIRET": "26120014100214", "source": "Le ministère des solidarités et de la santé - 2021-09", "start_date": "1904-04-04", "type:FR:FINESS": "355", "website": "https://www.ch-millau.fr/hopital/nos-services/psychiatrie-adulte/unite-dhospitalisation-complete/"}}, {"name": "Centre hospitalier de Millau", "latitude": 44.0940539, "longitude": 3.0521572, "source": "osm", "_tags": {"addr:housenumber": "265", "addr:street": "Boulevard Achille Souques", "amenity": "hospital", "check_date": "2024-10-15", "email": "s.direction@ch-millau.fr", "emergency": "yes", "fax": "+33 5 65 59 31 48", "name": "Centre hospitalier de Millau", "operator:type": "public", "phone": "+33 5 65 59 30 00", "ref:FR:FINESS": "120004569", "type:FR:FINESS": "355", "website": "https://www.ch-millau.fr/"}}, {"name": "Hôpital Lapeyronie", "latitude": 43.6298922, "longitude": 3.8517146, "source": "osm", "_tags": {"addr:housenumber": "371", "addr:street": "Avenue du Doyen Gaston Giraud", "alt_name": "Hôpital Lapeyronie", "amenity": "hospital", "building": "hospital", "emergency": "yes", "fax": "+33 4 67 33 89 63", "healthcare": "hospital", "healthcare:speciality": "intensive", "height": "18", "name": "Hôpital Lapeyronie", "operator:type": "public", "phone": "+33 4 67 33 67 33", "ref:FR:FINESS": "340785161", "short_name": "CHRU de Montpellier", "source": "cadastre-dgi-fr source : Direction Générale des Impôts - Cadastre. Mise à jour : 2012", "type:FR:FINESS": "101", "website": "https://www.chu-montpellier.fr/fr/a-propos-du-chu/decouvrir-le-chu/etablissements/lapeyronie/"}}, {"name": "Centre hospitalier de Lodève", "latitude": 43.7305591, "longitude": 3.3158099, "source": "osm", "_tags": {"amenity": "hospital", "name": "Centre hospitalier de Lodève", "ref:FR:FINESS": "340000215", "source": "cadastre-dgi-fr source : Direction Générale des Impôts - Cadastre;mise à jour : 2012", "wikidata": "Q92063378"}}, {"name": "Clinique du docteur STER", "latitude": 43.7094688, "longitude": 3.8330872, "source": "osm", "_tags": {"addr:housenumber": "300", "addr:street": "Avenue de Saint-Sauveur", "amenity": "hospital", "building": "yes", "description": "Rééducation et réadaptation fonctionnelle", "healthcare": "hospital", "healthcare:speciality": "physiatry", "name": "Clinique du docteur STER", "ref:FR:FINESS": "340796093", "source": "cadastre-dgi-fr source : Direction Générale des Impôts - Cadastre. Mise à jour : 2012", "type:FR:FINESS": "109", "wheelchair": "yes"}}, {"name": "Centre Bourgès", "latitude": 43.624734, "longitude": 3.911296, "source": "osm", "_tags": {"addr:housenumber": "150", "addr:street": "Avenue Clément Ader", "amenity": "hospital", "building": "hospital", "name": "Centre Bourgès", "operator": "Oc santé", "ref:FR:FINESS": "340019090", "source": "cadastre-dgi-fr source : Direction Générale des Impôts - Cadastre. Mise à jour : 2013"}}, {"name": "", "latitude": 43.6289714, "longitude": 3.4370379, "source": "osm", "_tags": {"building": "yes", "healthcare": "hospital"}}, {"name": "", "latitude": 43.6296138, "longitude": 3.4376717, "source": "osm", "_tags": {"building": "yes", "healthcare": "hospital"}}, {"name": "Centre Jean-Pierre Cartereau - Pole de psychiatrie", "latitude": 43.4226689, "longitude": 3.5970119, "source": "osm", "_tags": {"amenity": "hospital", "building": "yes", "healthcare": "hospital", "healthcare:speciality": "psychiatry", "name": "Centre Jean-Pierre Cartereau - Pole de psychiatrie", "source": "cadastre-dgi-fr source : Direction Générale des Finances Publiques - Cadastre. Mise à jour : 2014"}}, {"name": "Polyclinique Saint-Roch", "latitude": 43.5828474, "longitude": 3.8617411, "source": "osm", "_tags": {"addr:city": "Montpellier", "addr:housenumber": "560", "addr:street": "Avenue du Colonel Pavelet", "amenity": "hospital", "emergency": "yes", "fax": "+33 4 67 61 88 99", "healthcare": "hospital", "name": "Polyclinique Saint-Roch", "operator": "Oc Santé", "operator:type": "private", "phone": "+33 8 26 88 88 82", "ref:FR:FINESS": "340022979", "start_date": "2016-02-29", "type:FR:FINESS": "365", "website": "https://www.oc-sante.fr/etablissements/polyclinique-saint-roch/"}}, {"name": "Centre Languedoc", "latitude": 43.6015409, "longitude": 3.8283978, "source": "osm", "_tags": {"alt_name": "Sessad Le Languedoc", "amenity": "hospital", "healthcare": "hospital", "name": "Centre Languedoc", "official_name": "Polyclinique Le Languedoc", "ref:FR:FINESS": "340015122", "source": "Bing", "type:FR:FINESS": "182"}}, {"name": "Hôpital la Providence", "latitude": 43.6191318, "longitude": 3.1618077, "source": "osm", "_tags": {"amenity": "hospital", "capacity": "208", "contact:phone": "+33 4 67 95 51 51", "name": "Hôpital la Providence", "ref:FR:FINESS": "340780444", "ref:FR:NAF": "8610Z", "ref:FR:SIRET": "26340010300010", "type:FR:FINESS": "106", "wikidata": "Q92062833"}}, {"name": "Centre Orthopédique Maguelone", "latitude": 43.6241788, "longitude": 3.9084075, "source": "osm", "_tags": {"alt_name": "Clinique Maguelone", "amenity": "hospital", "name": "Centre Orthopédique Maguelone", "ref:FR:FINESS": "340000439"}}, {"name": "Les Jardins de Sophia", "latitude": 43.6240202, "longitude": 3.9096542, "source": "osm", "_tags": {"alt_name": "Centre Géronto-Psychiatrique Les Jardins de Sophia", "amenity": "hospital", "name": "Les Jardins de Sophia", "ref:FR:FINESS": "340789379", "source": "cadastre-dgi-fr source : Direction Générale des Impôts - Cadastre. Mise à jour : 2015"}}, {"name": "Clinique du Mas de Rochet", "latitude": 43.6267625, "longitude": 3.9078434, "source": "osm", "_tags": {"amenity": "hospital", "healthcare": "hospital", "name": "Clinique du Mas de Rochet", "operator": "UGECAM", "phone": "+33 4 67 33 10 33", "ref:FR:FINESS": "340781608", "type:FR:FINESS": "129"}}, {"name": "CHU Larche Bleu", "latitude": 43.6622891, "longitude": 3.9004245, "source": "osm", "_tags": {"amenity": "hospital", "name": "CHU Larche Bleu", "ref:FR:FINESS": "340021260", "social_facility:for": "mental_health", "source": "Le ministère des solidarités et de la santé - 03/2019"}}, {"name": "Institut régional du Cancer de Montpellier", "latitude": 43.6443623, "longitude": 3.8381644, "source": "osm", "_tags": {"amenity": "hospital", "name": "Institut régional du Cancer de Montpellier", "ref:FR:FINESS": "340000207", "wikidata": "Q91994464"}}, {"name": "Centre Mutualiste Neurologique Propara", "latitude": 43.6428653, "longitude": 3.8321622, "source": "osm", "_tags": {"addr:city": "Montpellier", "addr:housenumber": "263", "addr:postcode": "34090", "addr:street": "Rue du Caducée", "amenity": "hospital", "contact:phone": "+33467046704", "description": "Le CMNP est un centre de soin pour l'accompagnement des lésés médullaires. amenity=hospital et non social_facility car présence d'équipes de soin.", "name": "Centre Mutualiste Neurologique Propara", "ref:FR:FINESS": "340001064", "wheelchair": "yes"}}, {"name": "Hôpital Paul Coste-Floret", "latitude": 43.5927942, "longitude": 3.0806765, "source": "osm", "_tags": {"amenity": "hospital", "name": "Hôpital Paul Coste-Floret", "ref:FR:FINESS": "340796358", "ref:FR:NAF": "8610Z", "ref:FR:SIRET": "26340072300015", "type:FR:FINESS": "355", "wheelchair": "yes", "wikidata": "Q105170224"}}, {"name": "Centre hospitalier de Pézenas", "latitude": 43.4604536, "longitude": 3.4190026, "source": "osm", "_tags": {"amenity": "hospital", "healthcare": "hospital", "name": "Centre hospitalier de Pézenas", "opening_hours": "Mo-Fr 08:30-12:30, 13:30-17:00", "ref:FR:FINESS": "340780451", "wikidata": "Q105174347"}}, {"name": "Clinique Saint-Antoine", "latitude": 43.6521578, "longitude": 3.6950811, "source": "osm", "_tags": {"amenity": "hospital", "healthcare": "hospital", "healthcare:speciality": "psychiatry", "name": "Clinique Saint-Antoine", "ref:FR:FINESS": "340780790"}}, {"name": "Centre Psychothérapique Saint-Martin de Vignogoul", "latitude": 43.5923956, "longitude": 3.7882467, "source": "osm", "_tags": {"amenity": "hospital", "healthcare": "hospital", "healthcare:speciality": "psychiatry", "name": "Centre Psychothérapique Saint-Martin de Vignogoul", "ref:FR:FINESS": "340780931"}}, {"name": "Clinique Le Castelet", "latitude": 43.5796761, "longitude": 3.8249452, "source": "osm", "_tags": {"addr:housenumber": "18", "addr:street": "Avenue Georges Clemenceau", "amenity": "hospital", "name": "Clinique Le Castelet", "ref:FR:FINESS": "340780857"}}, {"name": "Clinique de rééducation fonctionnelle Fontfroide", "latitude": 43.6395463, "longitude": 3.8313581, "source": "osm", "_tags": {"amenity": "hospital", "entrance:step:height": "0", "entrance:step_count": "0", "entrance:width": "1.54", "healthcare": "hospital", "name": "Clinique de rééducation fonctionnelle Fontfroide", "ref:FR:FINESS": "340789981"}}, {"name": "Clinique de Clémentville", "latitude": 43.6129392, "longitude": 3.851886, "source": "osm", "_tags": {"amenity": "hospital", "healthcare": "hospital", "name": "Clinique de Clémentville", "ref:FR:FINESS": "340020445"}}, {"name": "Centre Bellevue - centre de soins pour personnes agées", "latitude": 43.6402302, "longitude": 3.859565, "source": "osm", "_tags": {"amenity": "hospital", "healthcare": "hospital", "name": "Centre Bellevue - centre de soins pour personnes agées", "ref:FR:FINESS": "340782481"}}, {"name": "Clinique du Parc", "latitude": 43.6352517, "longitude": 3.8914878, "source": "osm", "_tags": {"addr:city": "Castelnau-le-Lez", "addr:street": "Allée du Docteur Louis Constantin", "amenity": "hospital", "emergency": "yes", "fax": "+33 4 67 79 23 09", "healthcare:speciality": "intensive", "name": "Clinique du Parc", "operator": "Groupe Clinipole", "operator:type": "private", "phone": "+33 4 67 33 13 31", "ref:FR:FINESS": "340780667", "type:FR:FINESS": "365", "website": "https://www.clinique-du-parc.net/"}}, {"name": "Clinique Saint-Jean - Sud de France", "latitude": 43.5701671, "longitude": 3.8350431, "source": "osm", "_tags": {"addr:city": "Saint-Jean-de-Védas", "addr:housenumber": "1", "addr:postcode": "34430", "addr:street": "Place de l'Europe", "amenity": "hospital", "emergency": "yes", "healthcare": "hospital", "healthcare:speciality": "orthopaedics;emergency;radiology;general;surgery;pediatrics;", "name": "Clinique Saint-Jean - Sud de France", "opening_date": "2019-01-01", "phone": "+33 4 67 01 01 01", "website": "https://www.clinique-saint-jean.fr/"}}, {"name": "service MPEA", "latitude": 43.5956135, "longitude": 3.8439542, "source": "osm", "_tags": {"amenity": "hospital", "name": "service MPEA", "ref:FR:FINESS": "340021302", "source": "Bing"}}, {"name": "Polyclinique des Trois Vallées", "latitude": 43.6079217, "longitude": 3.1507576, "source": "osm", "_tags": {"amenity": "hospital", "contact:facebook": "Clinique Saint-Jean - Groupe Cap Santé", "contact:housenumber": "4", "contact:street": "Route de Saint-Pons", "emergency": "yes", "fax": "+33 4 67 95 11 61", "healthcare": "hospital", "healthcare:speciality": "emergency;pneumology;cardiology;orthopaedics;gynaecology;otolaryngology;surgery", "name": "Polyclinique des Trois Vallées", "operator": "Groupe Cap Santé", "phone": "+33 4 67 95 56 56", "ref:FR:FINESS": "340780147", "ref:FR:NAF": "8610Z", "ref:FR:SIRET": "55292068800017", "type:FR:FINESS": "128", "website": "https://www.p3v.fr"}}, {"name": "Centre hospitalier de Florac", "latitude": 44.3255212, "longitude": 3.597535, "source": "osm", "_tags": {"amenity": "hospital", "email": "florac-direction@ch-mende.fr", "fax": "+33 4 66 45 07 93", "healthcare": "hospital", "name": "Centre hospitalier de Florac", "operator": "Hôpital Lozère", "operator:type": "public", "phone": "+33 4 66 49 63 00", "ref:FR:FINESS": "480000041", "source": "Bing", "type:FR:FINESS": "106", "website": "http://www.ch-florac.org/", "wikidata": "Q92063351"}}, {"name": "Clinique Plein Soleil", "latitude": 43.6009809, "longitude": 3.9132311, "source": "osm", "_tags": {"amenity": "hospital", "check_date": "2025-02-05", "healthcare": "hospital", "name": "Clinique Plein Soleil", "opening_date": "2020-06-30", "operator": "Oc santé"}}, {"name": "Institut Saint-Pierre", "latitude": 43.52409, "longitude": 3.9233854, "source": "osm", "_tags": {"addr:housenumber": "371", "addr:street": "Avenue de l'Evêché de Maguelone", "amenity": "hospital", "check_date": "2025-06-08", "contact:website": "http://www.institut-st-pierre.com/", "hospital:for": "child", "name": "Institut Saint-Pierre", "ref:FR:FINESS": "340000025", "toilets:wheelchair": "yes", "wheelchair": "yes"}}, {"name": "Centre hospitalier de Millau Site de Saint-Côme", "latitude": 44.0957105, "longitude": 3.0707521, "source": "osm", "_tags": {"addr:housenumber": "251", "addr:street": "Rue du Général Cossé", "amenity": "hospital", "contact:phone": "+33 5 65 59 30 00", "contact:website": "http://www.ch-millau.fr/nos-specialites/soins-de-suite-et-de-readaptation/s-s-r-saint-come/", "healthcare": "hospital", "name": "Centre hospitalier de Millau Site de Saint-Côme", "ref:FR:FINESS": "120780325", "type:FR:FINESS": "355"}}, {"name": "Clinique Saint-Clément", "latitude": 43.7083255, "longitude": 3.8322189, "source": "osm", "_tags": {"addr:housenumber": "115", "addr:street": "Avenue de Saint-Sauveur", "amenity": "hospital", "healthcare": "hospital", "healthcare:speciality": "psychiatry", "name": "Clinique Saint-Clément", "ref:FR:FINESS": "340010149", "type:FR:FINESS": "161"}}, {"name": "Clinique du Pic Saint-Loup", "latitude": 43.706967, "longitude": 3.8319268, "source": "osm", "_tags": {"addr:housenumber": "96", "addr:street": "Avenue de Saint-Sauveur", "amenity": "hospital", "name": "Clinique du Pic Saint-Loup", "ref:FR:FINESS": "340009018", "type:FR:FINESS": "109"}}, {"name": "Polyclinique de psychiatrie", "latitude": 43.6285087, "longitude": 3.8542384, "source": "osm", "_tags": {"building": "hospital", "building:levels": "4", "healthcare": "hospital", "healthcare:speciality": "psychiatry", "name": "Polyclinique de psychiatrie", "type": "multipolygon"}}, {"name": "Hôpital Arnaud de Villeneuve", "latitude": 43.6322525, "longitude": 3.8497324, "source": "osm", "_tags": {"amenity": "hospital", "building": "hospital", "building:levels": "5", "emergency": "yes", "fax": "+33 4 67 33 89 63", "healthcare": "hospital", "name": "Hôpital Arnaud de Villeneuve", "operator": "CHU de Montpellier", "operator:type": "public", "phone": "+33 4 67 33 67 33", "ref:FR:FINESS": "340796663", "roof:levels": "0", "roof:shape": "flat", "type": "multipolygon", "type:FR:FINESS": "101", "website": "https://www.chu-montpellier.fr/fr/a-propos-du-chu/decouvrir-le-chu/etablissements/arnaud-de-villeneuve/"}}, {"name": "Clinique de la Lironde", "latitude": 43.6580086, "longitude": 3.8450059, "source": "osm", "_tags": {"amenity": "hospital", "building": "yes", "name": "Clinique de la Lironde", "ref:FR:FINESS": "340780766", "type": "multipolygon"}}, {"name": "Hôpital local de Clermont-l'Hérault", "latitude": 43.6292441, "longitude": 3.437303, "source": "osm", "_tags": {"amenity": "hospital", "healthcare": "hospital", "name": "Hôpital local de Clermont-l'Hérault", "operator:type": "public", "ref:FR:FINESS": "340000249", "type": "multipolygon", "type:FR:FINESS": "106", "wikidata": "Q92063268"}}, {"name": "Institut Mutualiste Montpelliérain", "latitude": 43.6095964, "longitude": 3.8491184, "source": "osm", "_tags": {"addr:housenumber": "119", "addr:street": "Avenue de Lodève", "alt_name": "Clinique Beau Soleil", "amenity": "hospital", "emergency": "yes", "fax": "+33 4 67 75 97 65", "healthcare": "hospital", "name": "Institut Mutualiste Montpelliérain", "old_name": "Clinique Beau Soleil", "operator": "Languedoc Mutualité", "operator:type": "private", "phone": "+33 4 67 75 99 99", "ref:FR:FINESS": "340780642", "type": "multipolygon", "type:FR:FINESS": "365", "website": "https://www.languedoc-mutualite.fr/cliniques/beau-soleil/"}}]