[{"name": "Дечији диспанзер", "latitude": 43.5781459, "longitude": 21.3258948, "source": "osm", "_tags": {"amenity": "hospital", "healthcare": "hospital", "int_name": "Deciji dispanzer", "name": "Дечији диспанзер", "name:sr": "Дечији диспанзер", "name:sr-Latn": "Dečiji dispanzer"}}, {"name": "Здравствена станица", "latitude": 43.5830782, "longitude": 21.3185136, "source": "osm", "_tags": {"amenity": "hospital", "healthcare": "hospital", "int_name": "Zdravstvena stanica", "name": "Здравствена станица", "name:sr": "Здравствена станица", "name:sr-Latn": "Zdravstvena stanica"}}, {"name": "", "latitude": 44.4049777, "longitude": 21.0450485, "source": "osm", "_tags": {"amenity": "hospital"}}, {"name": "veterinarska ambulanta dr dejan", "latitude": 43.5840325, "longitude": 21.3185162, "source": "osm", "_tags": {"amenity": "hospital", "email": "miljojkovicbg2@gmail.com", "emergency": "yes", "healthcare": "hospital", "healthcare:speciality": "clinic;veterinar", "name": "veterinarska ambulanta dr dejan", "operator": "dejan miljojkovic", "operator:type": "public"}}, {"name": "Здравствена станица", "latitude": 43.7467311, "longitude": 21.5805589, "source": "osm", "_tags": {"addr:city": "Витошевац", "addr:housenumber": "19", "addr:postcode": "37213", "addr:street": "Палих бораца", "amenity": "hospital", "healthcare": "hospital", "healthcare:speciality": "general;blood_check;stomatology;paediatrics", "int_name": "Zdravstvena stanica", "name": "Здравствена станица", "operator": "Дом здравља Ражањ", "wheelchair": "yes"}}, {"name": "Specijalna bolnica „Sokobanja”", "latitude": 43.6388761, "longitude": 21.8684354, "source": "osm", "_tags": {"addr:city": "Sokobanja", "addr:country": "RS", "addr:housenumber": "48", "addr:postcode": "18230", "addr:street": "Војводе Мишића", "building": "public", "building:levels": "6", "government": "healthcare", "healthcare": "hospital", "healthcare:speciality": "pulmonology", "name": "Specijalna bolnica „Sokobanja”", "name:en": "Special Hospital “Sokobanja”", "name:sr": "Специјална болница „Сокобања”", "name:sr-Latn": "Specijalna bolnica „Sokobanja”", "office": "government", "opening_hours": "24/7", "phone": "018830124; 018830144; 018830914", "ref:RS:kucni_broj": "4201152", "website": "https://sr.soko-banja.rs/", "wheelchair": "yes"}}, {"name": "Општа болница Параћин", "latitude": 43.8637399, "longitude": 21.4143536, "source": "osm", "_tags": {"amenity": "hospital", "email": "info@obparacin.rs", "emergency": "yes", "emergency:phone": "+38135194", "government": "healthcare", "healthcare": "hospital", "int_name": "Opsta bolnica Paracin", "name": "Општа болница Параћин", "name:sr": "Општа болница Параћин", "name:sr-Latn": "Opšta bolnica Paraćin", "office": "government", "opening_hours": "24/7", "operator": "government", "phone": "+381358155100", "phone:mobile": "+381631079055", "website": "http://www.obparacin.rs/", "wheelchair": "yes"}}, {"name": "Општа болница Ћуприја", "latitude": 43.941351, "longitude": 21.3767271, "source": "osm", "_tags": {"amenity": "hospital", "emergency": "yes", "emergency:phone": "+38135194", "government": "healthcare", "healthcare": "hospital", "int_name": "Opsta bolnica Cuprija", "name": "Општа болница Ћуприја", "name:en": "Cuprija General Hospital", "name:sr": "Општа болница Ћуприја", "name:sr-Latn": "Opšta bolnica Ćuprija", "office": "government", "opening_hours": "24/7", "operator": "government", "phone": "+381358470775", "website": "https://bolnicacuprija.com/"}}, {"name": "Црвени крст", "latitude": 44.2333458, "longitude": 21.1903499, "source": "osm", "_tags": {"addr:housenumber": "107", "addr:street": "Краља Петра првог", "amenity": "hospital", "building": "hospital", "int_name": "Crveni krst", "name": "Црвени крст", "ref:RS:kucni_broj": "3936453"}}, {"name": "Очно", "latitude": 43.6206732, "longitude": 21.8743613, "source": "osm", "_tags": {"amenity": "hospital", "healthcare": "hospital", "name": "Очно", "name:en": "Ocno", "name:sr-Latn": "Očno"}}, {"name": "Болница за плућне болести „Озрен”", "latitude": 43.6239007, "longitude": 21.850377, "source": "osm", "_tags": {"amenity": "hospital", "healthcare": "hospital", "int_name": "Bolnica za plucne bolesti „Ozren”", "name": "Болница за плућне болести „Озрен”"}}, {"name": "Специјална болница за рехабилитацију „Рибарска Бања”", "latitude": 43.4248132, "longitude": 21.507558, "source": "osm", "_tags": {"addr:city": "Рибарска Бања", "addr:country": "RS", "addr:postcode": "37205", "amenity": "hospital", "healthcare": "hospital", "healthcare:speciality": "physiatry", "int_name": "Specijalna bolnica za rehabilitaciju „Ribarska Banja”", "name": "Специјална болница за рехабилитацију „Рибарска Бања”", "name:sr-Latn": "Specijalna bolnica za rehabilitaciju „Ribarska banja”", "operator:type": "government", "phone": "+38137865128", "website": "https://www.ribarskabanja.rs/"}}, {"name": "", "latitude": 43.5762671, "longitude": 21.3586516, "source": "osm", "_tags": {"amenity": "hospital", "healthcare": "hospital"}}, {"name": "Школа са домом за децу оштећеног слуха и говора „11. Мај”", "latitude": 43.979503, "longitude": 21.2653504, "source": "osm", "_tags": {"addr:housenumber": "28", "addr:street": "Славке Ђурђевић", "amenity": "hospital", "building": "yes", "healthcare": "hospital", "int_name": "Skola sa domom za decu ostecenog sluha i govora „11. Maj”", "name": "Школа са домом за децу оштећеног слуха и говора „11. Мај”", "name:sr": "Школа са домом за децу оштећеног слуха и говора „11. Мај”", "name:sr-Latn": "Škola sa domom za decu oštećenog sluha i govora „11. Maj”", "ref:RS:kucni_broj": "4036817"}}, {"name": "Општа болница Крушевац", "latitude": 43.5804695, "longitude": 21.3209571, "source": "osm", "_tags": {"addr:city": "Крушевац", "addr:country": "RS", "addr:housenumber": "16", "addr:postcode": "37000", "addr:street": "Косовска", "amenity": "hospital", "emergency": "yes", "healthcare": "hospital", "int_name": "Opsta bolnica Krusevac", "name": "Општа болница Крушевац", "name:sr": "Општа болница Крушевац", "name:sr-Latn": "Opšta bolnica Kruševac", "operator:type": "government", "phone": "+38137414000", "ref:RS:kucni_broj": "6492789", "website": "http://bolnicakrusevac.org.rs/"}}, {"name": "Општа болница „Алексинац”", "latitude": 43.5402997, "longitude": 21.7015714, "source": "osm", "_tags": {"alt_name": "Градска болница", "amenity": "hospital", "email": "obaleksinac@yahoo.com; obaleksinac@obaleksinac.rs", "fax": "+38118807301", "healthcare": "hospital", "int_name": "Opsta bolnica „Aleksinac”", "name": "Општа болница „Алексинац”", "name:sr": "Општа болница „Алексинац”", "name:sr-Latn": "Opšta bolnica „Aleksinac”", "operator:type": "government", "phone": "+38118804215; +38118804211", "website": "https://obaleksinac.rs/", "wheelchair": "yes"}}, {"name": "Општа Болница „Стефан Високи”", "latitude": 44.364274, "longitude": 20.9692393, "source": "osm", "_tags": {"addr:city": "Смедеревска Паланка", "addr:country": "RS", "addr:housenumber": "147", "addr:postcode": "11300", "addr:street": "Вука Караџића", "amenity": "hospital", "email": "stefanvisokisp@gmail.com", "fax": "+38126313075", "healthcare": "hospital", "int_name": "Opsta Bolnica „Stefan Visoki”", "name": "Општа Болница „Стефан Високи”", "name:sr": "Општа Болница „Стефан Високи”", "name:sr-Latn": "Opšta Bolnica „Stefan Visoki”", "operator:type": "government", "phone": "+38126330300", "website": "www.bolnica-palanka.co.rs"}}, {"name": "", "latitude": 43.5873668, "longitude": 21.3224481, "source": "osm", "_tags": {"amenity": "hospital", "healthcare": "hospital"}}, {"name": "Општа болница Јагодина", "latitude": 43.9784506, "longitude": 21.255465, "source": "osm", "_tags": {"amenity": "hospital", "emergency": "yes", "emergency:phone": "+38135194", "healthcare": "hospital", "healthcare:speciality": "general;paediatrics;intensive;orthopaedics;cardiology;surgery;radiology;psychiatry;ophthalmology;emergency;dermatology;internal", "int_name": "Opsta bolnica Jagodina", "name": "Општа болница Јагодина", "name:en": "Jagodina General Hospital", "name:sr": "Општа болница Јагодина", "name:sr-Latn": "Opšta bolnica Jagodina", "opening_hours": "24/7", "operator:type": "government", "phone": "+38138150200", "website": "http://bolnicajagodina.rs/", "wheelchair": "yes"}}, {"name": "Kutak za zene Melody", "latitude": 43.862693, "longitude": 21.4114957, "source": "osm", "_tags": {"amenity": "hospital", "healthcare": "hospital", "name": "Kutak za zene Melody"}}, {"name": "Здравствена станица", "latitude": 43.746743, "longitude": 21.5806019, "source": "osm", "_tags": {"addr:city": "Витошевац", "addr:housenumber": "19", "addr:postcode": "37213", "addr:street": "Палих бораца", "amenity": "hospital", "healthcare": "hospital", "healthcare:speciality": "general;paediatrics;stomatology", "int_name": "Zdravstvena stanica", "name": "Здравствена станица", "operator": "Дом здравља ,,Др Милорад Михајловић\" Ражањ", "operator:type": "government", "ref:RS:kucni_broj": "5989824"}}, {"name": "Амбуланта Нови Брачин", "latitude": 43.7492393, "longitude": 21.5093381, "source": "osm", "_tags": {"addr:housenumber": "1v", "addr:street": "Цара Лазара", "amenity": "hospital", "building": "yes", "healthcare": "hospital", "healthcare:speciality": "general", "int_name": "Ambulanta Novi Bracin", "name": "Амбуланта Нови Брачин", "operator": "Дом здравља\"др Милорад Михајловић\" Ражањ", "ref:RS:kucni_broj": "5990483"}}, {"name": "Специјална болница Сокобања", "latitude": 43.6383292, "longitude": 21.868621, "source": "osm", "_tags": {"amenity": "hospital", "healthcare": "hospital", "int_name": "Specijalna bolnica Sokobanja", "name": "Специјална болница Сокобања", "name:en": "Sokobanja Special Hospital", "name:sr": "Специјална болница Сокобања", "name:sr-Latn": "Specijalna bolnica Sokobanja", "type": "multipolygon"}}, {"name": "Здравствени Центар", "latitude": 43.5779649, "longitude": 21.3259945, "source": "osm", "_tags": {"addr:street": "Косовска", "amenity": "hospital", "building": "yes", "healthcare": "hospital", "int_name": "Zdravstveni Centar", "name": "Здравствени Центар", "type": "multipolygon"}}]