[{"name": "Дом здравља", "latitude": 43.749051, "longitude": 20.098808, "source": "osm", "_tags": {"amenity": "hospital", "healthcare": "hospital", "int_name": "Dom zdravlja", "name": "Дом здравља"}}, {"name": "Агенс", "latitude": 43.6913324, "longitude": 20.6146529, "source": "osm", "_tags": {"amenity": "hospital", "int_name": "Agens", "name": "Агенс", "name:sr": "Агенс", "name:sr-Latn": "Agens"}}, {"name": "Дом здравља Шумарице", "latitude": 44.0256137, "longitude": 20.8613663, "source": "osm", "_tags": {"amenity": "hospital", "healthcare": "hospital", "int_name": "Dom zdravlja Sumarice", "name": "Дом здравља Шумарице", "name:sr": "Дом здравља Шумарице", "name:sr-Latn": "Dom zdravlja Šumarice"}}, {"name": "Поликлиника Живановић", "latitude": 44.013612, "longitude": 20.9007123, "source": "osm", "_tags": {"amenity": "hospital", "name": "Поликлиника Живановић", "name:en": "Poliklinika Živanović"}}, {"name": "Црвени крст", "latitude": 44.0132618, "longitude": 20.914602, "source": "osm", "_tags": {"amenity": "hospital", "emergency": "no", "int_name": "Crveni krst", "name": "Црвени крст"}}, {"name": "Клинички центар Крагујевац", "latitude": 44.0201299, "longitude": 20.9149597, "source": "osm", "_tags": {"alt_name": "Klinicki centar Kragujevac", "amenity": "hospital", "email": "kc-kg@kc-kg.rs", "emergency": "yes", "emergency:phone": "+38134194", "healthcare": "hospital", "int_name": "Klinicki centar Kragujevac", "name": "Клинички центар Крагујевац", "name:sr": "Клинички центар Крагујевац", "name:sr-Latn": "Klinički centar Kragujevac", "opening_hours": "24/7", "operator:type": "government", "phone": "+38134505050", "website": "http://www.kc-kg.rs/", "wheelchair": "yes", "wikidata": "Q12752818"}}, {"name": "Завод за смештај одраслих „Мале Пчелице”", "latitude": 43.9994432, "longitude": 20.8648652, "source": "osm", "_tags": {"amenity": "hospital", "healthcare": "hospital", "int_name": "Zavod za smestaj odraslih „Male Pcelice”", "name": "Завод за смештај одраслих „Мале Пчелице”", "name:sr": "Завод за смештај одраслих „Мале Пчелице”", "name:sr-Latn": "Zavod za smeštaj odraslih „Male Pčelice”"}}, {"name": "Одељење за плућне болести - грудно", "latitude": 44.0257762, "longitude": 20.9185587, "source": "osm", "_tags": {"addr:housenumber": "3", "addr:street": "Др Боре Евтова", "amenity": "hospital", "building": "yes", "healthcare": "hospital", "int_name": "Odeljenje za plucne bolesti - grudno", "name": "Одељење за плућне болести - грудно", "name:sr": "Одељење за плућне болести - грудно", "name:sr-Latn": "Odeljenje za plućne bolesti - grudno", "ref:RS:kucni_broj": "7118965"}}, {"name": "Заставина амбуланта", "latitude": 43.9992821, "longitude": 20.8952021, "source": "osm", "_tags": {"amenity": "hospital", "building": "yes", "healthcare": "hospital", "int_name": "Zastavina ambulanta", "name": "Заставина амбуланта", "name:sr": "Заставина амбуланта", "name:sr-Latn": "Zastavina ambulanta"}}, {"name": "Специјална болница за интерне болести", "latitude": 43.6158176, "longitude": 20.8973509, "source": "osm", "_tags": {"addr:housenumber": "12", "addr:street": "8. марта", "amenity": "hospital", "building": "hospital", "healthcare": "hospital", "int_name": "Specijalna bolnica za interne bolesti", "name": "Специјална болница за интерне болести", "name:de": "Spezialklinik für Innere Medizin", "name:en": "Specialist Clinic for Internal Medicine", "name:fr": "Hôpital spécialisé en médecine interne", "name:ru": "Специальная больница для внутренней медицины", "name:sr": "Специјална болница за интерне болести", "name:sr-Latn": "Specijalna bolnica za interne bolesti", "phone": "+381 36 616970", "ref:RS:kucni_broj": "6555802"}}, {"name": "Институт за јавно здравље Крагујевац", "latitude": 44.0118041, "longitude": 20.9157942, "source": "osm", "_tags": {"addr:city": "Крагујевац", "addr:country": "SR", "alt_name": "Уред", "alt_name:sr": "Уред", "alt_name:sr-Latn": "Ured", "amenity": "hospital", "building": "yes", "emergency": "no", "healthcare": "laboratory", "int_name": "Institut za javno zdravlje Kragujevac", "name": "Институт за јавно здравље Крагујевац", "name:en": "Institute of Republic Health Kragujevac", "name:sr": "Институт за јавно здравље Крагујевац", "name:sr-Latn": "Institut za javno zdravlje Kragujevac", "operator:type": "government", "phone": "+38134504501", "website": "https://www.izjzkg.rs/"}}, {"name": "Dom zdravlja Novo Selo", "latitude": 43.650696, "longitude": 20.8821408, "source": "osm", "_tags": {"amenity": "hospital", "name": "Dom zdravlja Novo Selo"}}, {"name": "Болница Аранђеловац", "latitude": 44.3025523, "longitude": 20.5474253, "source": "osm", "_tags": {"addr:housenumber": "3", "addr:street": "Проте Атанасија Буковичког", "amenity": "hospital", "building": "yes", "int_name": "Bolnica Arandjelovac", "name": "Болница Аранђеловац", "name:sr": "Болница Аранђеловац", "name:sr-Latn": "Bolnica Aranđelovac", "ref:RS:kucni_broj": "3992119"}}, {"name": "Општа болница Горњи Милановац", "latitude": 44.0195699, "longitude": 20.458983, "source": "osm", "_tags": {"amenity": "hospital", "healthcare": "hospital", "int_name": "Opsta bolnica Gornji Milanovac", "name": "Општа болница Горњи Милановац", "name:sr": "Општа болница Горњи Милановац", "name:sr-Latn": "Opšta bolnica Gornji Milanovac", "operator:type": "government", "phone": "+38132711670", "website": "www.bolnica-gm.org"}}, {"name": "Дом здравља Ивањица", "latitude": 43.5878759, "longitude": 20.2260427, "source": "osm", "_tags": {"addr:city": "Ивањица", "addr:country": "RS", "addr:postcode": "32250", "addr:street": "13. септембра", "amenity": "hospital", "healthcare": "hospital", "int_name": "Dom zdravlja Ivanjica", "name": "Дом здравља Ивањица", "name:sr": "Дом здравља Ивањица", "name:sr-Latn": "Dom zdravlja Ivanjica", "operator:type": "government", "phone": "+38132662039"}}, {"name": "Дом здравља “Др Ђорђе Ковачевић“", "latitude": 44.3820126, "longitude": 20.2758271, "source": "osm", "_tags": {"addr:suburb": "Лазаревац", "alt_name": "Дом здравља Др Ђорђе Ковачевић", "alt_name:sr": "Дом здравља Др Ђорђе Ковачевић", "alt_name:sr-Latn": "Dom zdravlja Dr Đorđe Kovačević", "amenity": "hospital", "emergency": "yes", "fax": "+381118121141", "government": "healthcare", "healthcare": "hospital", "int_name": "Dom zdravlja “Dr Djordje Kovacevic“", "name": "Дом здравља “Др Ђорђе Ковачевић“", "name:sr": "Дом здравља “Др Ђорђе Ковачевић“", "name:sr-Latn": "Dom zdravlja “Dr Đorđe Kovačević“", "operator:type": "government", "phone": "+381118123141;+381118129420;+381118129421", "website": "https://dzlazarevac.rs/"}}, {"name": "Здравствени центар др Драгиша Мишовић Чачак", "latitude": 43.8730072, "longitude": 20.366307, "source": "osm", "_tags": {"addr:city": "Чачак", "addr:country": "RS", "addr:housenumber": "205", "addr:street": "Др Драгише Мишовића", "alt_name:sr": "Чачанска болница", "amenity": "hospital", "healthcare": "hospital", "int_name": "Zdravstveni centar dr Dragisa Misovic Cacak", "name": "Здравствени центар др Драгиша Мишовић Чачак", "name:en": "Čačak hospital", "name:etymology:wikidata": "Q12751125", "name:sr": "Здравствени центар др Драгиша Мишовић Чачак", "name:sr-Latn": "Zdravstveni centar dr Dragiša Mišović Čačak", "phone": "+38132307000", "ref:RS:kucni_broj": "5774183", "website": "www.zccacak.rs"}}, {"name": "", "latitude": 43.5888324, "longitude": 20.2285282, "source": "osm", "_tags": {"amenity": "hospital", "healthcare": "hospital"}}, {"name": "Општа болница „Пожега”", "latitude": 43.8455061, "longitude": 20.0305079, "source": "osm", "_tags": {"addr:city": "Пожега", "addr:country": "RS", "addr:housenumber": "1", "addr:postcode": "31210", "addr:street": "Југ Богданова", "amenity": "hospital", "healthcare": "hospital", "int_name": "Opsta bolnica „Pozega”", "name": "Општа болница „Пожега”", "name:sr": "Општа болница „Пожега”", "name:sr-Latn": "Opšta bolnica „Požega”", "opening_hours": "07:00-13:30,14:00-22:00", "operator": "Zdravstveni centar Užice", "operator:type": "government", "phone": "+381313816411", "website": "http://www.zcue.rs/sr/op%C5%A1ta-bolnica-u-po%C5%BEegi"}}, {"name": "", "latitude": 43.8398888, "longitude": 20.0167965, "source": "osm", "_tags": {"amenity": "hospital", "healthcare": "hospital"}}, {"name": "Здравствени центар Студеница", "latitude": 43.7227032, "longitude": 20.6955556, "source": "osm", "_tags": {"amenity": "hospital", "healthcare": "hospital", "int_name": "Zdravstveni centar Studenica", "name": "Здравствени центар Студеница", "name:sr": "Здравствени центар Студеница", "name:sr-Latn": "Zdravstveni centar Studenica"}}, {"name": "Завод за ургентну медицину Крагујевац", "latitude": 44.0253001, "longitude": 20.9196464, "source": "osm", "_tags": {"addr:city": "Крагујевац", "addr:country": "SR", "addr:postcode": "34000", "addr:street": "Слободе", "alt_name": "Завод за хитну медицинску помоћ Крагујевац", "alt_name:sr": "Завод за хитну медицинску помоћ Крагујевац", "alt_name:sr-Latn": "Zavod za hitnu medicinsku pomoć Kragujevac", "amenity": "hospital", "email": "hitnapomockg@mts.rs", "emergency": "yes", "emergency:phone": "+38134194", "healthcare": "hospital", "int_name": "Zavod za urgentnu medicinu Kragujevac", "layer": "1", "loc_name": "Хитна помоћ", "loc_name:en": "Emergency centre", "loc_name:sr": "Хитна помоћ", "loc_name:sr-Latn": "Hitna pomoć", "name": "Завод за ургентну медицину Крагујевац", "name:sr": "Завод за ургентну медицину Крагујевац", "name:sr-Latn": "Zavod za urgentnu medicinu Kragujevac", "opening_hours": "24/7", "operator:type": "government", "phone": "+381346370090", "website": "https://hitnapomoc.org/", "wheelchair": "yes"}}, {"name": "", "latitude": 44.0041667, "longitude": 20.9252688, "source": "osm", "_tags": {"amenity": "hospital", "healthcare": "hospital"}}, {"name": "", "latitude": 43.9966265, "longitude": 20.9283736, "source": "osm", "_tags": {"amenity": "hospital", "healthcare": "hospital"}}, {"name": "Дом здравља „Др Никола Џамић”", "latitude": 43.6210512, "longitude": 20.8893771, "source": "osm", "_tags": {"addr:housenumber": "20", "addr:street": "Краљевачка", "amenity": "hospital", "email": "dzvbanja@gmail.com", "fax": "+381 36 611744", "healthcare": "hospital", "int_name": "Dom zdravlja „Dr Nikola Dzamic”", "name": "Дом здравља „Др Никола Џамић”", "name:de": "Gesundheitszentrum „Dr Nikola Džamić“", "name:en": "Health center \"Dr Nikola Dzamic\"", "name:fr": "Centre de santé „Dr Nikola Džamić“", "name:ru": "Чентр здоровья „Др Никола Джамич“", "name:sr": "Дом здравља „Др Никола Џамић”", "name:sr-Latn": "Dom zdravlja „Dr Nikola Džamić”", "phone": "+381 36 601600", "ref:RS:kucni_broj": "6555900", "website": "https://www.dzvbanja.org.rs/"}}, {"name": "Специјална болница за рехабилитацију Буковичка бања", "latitude": 44.3086866, "longitude": 20.5521623, "source": "osm", "_tags": {"addr:city": "Аранђеловац", "addr:country": "SR", "addr:housenumber": "1", "addr:postcode": "34300", "addr:street": "Мишарска", "alt_name": "Специјална болница \"Буковичка бања\" Аранђеловац", "amenity": "hospital", "building": "yes", "email": "office@bukovickabanja.co.rs", "healthcare": "hospital", "int_name": "Specijalna bolnica za rehabilitaciju Bukovicka banja", "name": "Специјална болница за рехабилитацију Буковичка бања", "name:en": "Special rehabilitation hospital Bukovička Banja", "name:sr": "Специјална болница за рехабилитацију Буковичка бања", "name:sr-Latn": "Specijalna bolnica za rehabilitaciju Bukovička banja", "operator:type": "government", "phone": "+38134725250", "ref:RS:kucni_broj": "3999330", "type": "multipolygon", "website": "https://www.bukovickabanja.co.rs/"}}]