[{"name": "Hôpital de Saint-Sever", "latitude": 43.7573503, "longitude": -0.5713132, "source": "osm", "_tags": {"amenity": "hospital", "email": "direction@ch-st-sever.fr", "emergency": "no", "fax": "+33 5 58 76 45 55", "healthcare": "hospital", "name": "Hôpital de Saint-Sever", "phone": "+33 5 58 76 45 45", "ref:FR:FINESS": "400000147", "source": "Le ministère des solidarités et de la santé - 08/2018", "website": "http://www.hopital-saint-sever.fr/"}}, {"name": "Clinique Jean-le-Bon", "latitude": 43.7020247, "longitude": -1.0593304, "source": "osm", "_tags": {"addr:city": "Dax", "addr:housenumber": "35", "addr:postcode": "40100", "addr:street": "Rue Jean le Bon", "amenity": "hospital", "description": "Spécialisée dans la prise en charge et la prévention des pathologies liées au sport et aux pathologies dégénératives liées à l’âge.", "emergency": "no", "healthcare": "hospital", "healthcare:speciality": "orthopaedics", "name": "Clinique Jean-le-Bon", "operator": "Ramsay Santé", "operator:type": "private", "operator:wikidata": "Q3123085", "phone": "+33 5 36 28 80 80", "ref:FR:FINESS": "400780342", "ref:FR:SIRET": "98722029000017", "social_facility": "ambulatory_care", "source": "Le ministère des solidarités et de la santé - 2021-03", "type:FR:FINESS": "365", "type:FR:NAF": "8610Z", "website": "https://clinique-jean-le-bon-dax.ramsaygds.fr/"}}, {"name": "Polyclinique de l'Adour", "latitude": 43.7131652, "longitude": -0.2424063, "source": "osm", "_tags": {"addr:city": "Aire-sur-l'Adour", "addr:housenumber": "127", "addr:postcode": "40800", "addr:street": "Route du Bois de Nèfles", "amenity": "hospital", "email": "contact@polycliniquedeladour.fr", "emergency": "yes", "fax": "+33 5 58 06 64 38", "healthcare": "hospital", "healthcare:speciality": "general;paediatrics;ophthalmology;gynaecology;radiology;osteopathy", "name": "Polyclinique de l'Adour", "operator": "Groupe Clinifutur", "operator:type": "private", "phone": "+33 5 58 06 64 64", "ref:FR:FINESS": "400782769", "type:FR:FINESS": "365", "website": "https://www.clinifutur.net/departments/polyclinique-de-ladour/"}}, {"name": "Centre hospitalier de Mont-de-Marsan - Site de Sainte-Anne", "latitude": 43.9013466, "longitude": -0.4971132, "source": "osm", "_tags": {"amenity": "hospital", "emergency": "no", "fax": "+33 5 58 05 10 01", "healthcare": "hospital", "healthcare:speciality": "psychiatry", "name": "Centre hospitalier de Mont-de-Marsan - Site de Sainte-Anne", "phone": "+33 5 58 05 10 10", "ref:FR:FINESS": "400000113", "source": "Le ministère des solidarités et de la santé - 03/2019", "type:FR:FINESS": "355", "website": "https://www.ch-mt-marsan.fr/", "wikidata": "Q116681224", "wikipedia": "fr:Hôpital Sainte-Anne (Mont-de-Marsan)"}}, {"name": "Centre hospitalier Intercommunal de Mont-de-Marsan-Site de Layné", "latitude": 43.8937502, "longitude": -0.4857972, "source": "osm", "_tags": {"addr:city": "Mont-de-Marsan", "addr:postcode": "40024", "addr:street": "Avenue Pierre de Coubertin", "alt_name": "Hôpital Layné", "amenity": "hospital", "emergency": "yes", "fax": "+33 5 58 05 10 01", "healthcare": "hospital", "healthcare:speciality": "intensive;dialysis;gynaecology;cardiology;ophthalmology;oncology;radiology;paediatrics;maternity;orthopaedics;trauma;dermatology", "name": "Centre hospitalier Intercommunal de Mont-de-Marsan-Site de Layné", "operator:type": "public", "phone": "+33 5 58 05 10 10", "ref:FR:FINESS": "400000139", "source": "cadastre-dgi-fr source : Direction Générale des Impôts - Cadastre. Mise à jour : 2010", "type:FR:FINESS": "355", "website": "https://www.ch-mt-marsan.fr/", "wheelchair": "yes"}}, {"name": "Hopital de jour à Montfort-en-Chalosse", "latitude": 43.7100883, "longitude": -0.8399023, "source": "osm", "_tags": {"addr:city": "Montfort-en-Chalosse", "addr:housenumber": "50", "addr:postcode": "40380", "addr:street": "Avenue Jean Jaurès", "amenity": "hospital", "building": "yes", "emergency": "no", "healthcare": "hospital", "healthcare:speciality": "psychiatry", "name": "Hopital de jour à Montfort-en-Chalosse", "phone": "+33 5 58 05 20 23", "ref:FR:FINESS": "400013371", "source": "cadastre-dgi-fr source : Direction Générale des Impôts - Cadastre. Mise à jour : 2011", "type:FR:FINESS": "355"}}, {"name": "Centre Médical Infantile de Montpribat", "latitude": 43.7008763, "longitude": -0.8526833, "source": "osm", "_tags": {"addr:city": "Montfort-en-Chalosse", "addr:housenumber": "1444", "addr:street": "Chemin Aliénor d'Aquitaine", "amenity": "clinic", "emergency": "no", "fax": "+33558985716", "healthcare": "hospital", "healthcare:speciality": "psychiatry", "name": "Centre Médical Infantile de Montpribat", "opening_hours": "Mo-Su 09:00-12:00, 14:00-18:00", "operator:type": "public", "phone": "+33 5 58 98 60 28", "ref:FR:FINESS": "400780482", "ref:FR:SIRET": "30502384800016", "source": "Le ministère des solidarités et de la santé - 2021-03", "type:FR:FINESS": "109", "website": "https://www.reppop-aquitaine.org/prise-en-charge-du-patient/le-centre-medical-infantile-montpribat"}}, {"name": "Clinique des Landes", "latitude": 43.8715497, "longitude": -0.4847284, "source": "osm", "_tags": {"addr:city": "Saint-Pierre-du-Mont", "addr:housenumber": "250", "addr:postcode": "40280", "addr:street": "Rue Frédéric Joliot-Curie", "amenity": "hospital", "building": "yes", "emergency": "yes", "healthcare": "hospital", "name": "Clinique des Landes", "operator:type": "private", "phone": "+33 5 58 06 06 12", "ref:FR:FINESS": "400780359", "source": "cadastre-dgi-fr source : Direction Générale des Impôts - Cadastre. Mise à jour : 2011", "type:FR:FINESS": "365"}}, {"name": "Centre hospitalier de Dax-Côte d'Argent", "latitude": 43.7116967, "longitude": -1.0399162, "source": "osm", "_tags": {"addr:city": "Dax", "addr:housenumber": "51", "addr:postcode": "40100", "addr:street": "Boulevard Yves du Manoir", "amenity": "hospital", "emergency": "yes", "fax": "+33 5 58 91 48 75", "healthcare": "hospital", "healthcare:speciality": "intensive", "name": "Centre hospitalier de Dax-Côte d'Argent", "opening_hours": "24/7", "operator:type": "public", "phone": "+33 5 58 91 48 48", "ref:FR:FINESS": "400000105", "ref:FR:NAF": "86.10Z", "ref:FR:SIRET": "26400332800087", "type:FR:FINESS": "355", "website": "https://www.ch-dax.fr/"}}, {"name": "Clinique Maylis", "latitude": 43.7021359, "longitude": -1.004161, "source": "osm", "_tags": {"addr:housenumber": "31", "addr:street": "Rue du Docteur Noyer", "amenity": "hospital", "description": "Établissement psychiatrique, qui accueille en hospitalisation complète des patients adultes atteints de troubles psychiatriques et/ou dépendants à l’alcool.", "emergency": "no", "healthcare": "clinic", "healthcare:speciality": "psychiatry", "name": "Clinique Maylis", "opening_hours": "Mo-Fr 09:00-12:00, 14:00-17:30", "operator": "Inicea", "operator:type": "private", "phone": "+33 5 58 56 41 00", "ref:FR:FINESS": "400780375", "ref:FR:SIRET": "34775713000013"}}, {"name": "Centre hospitalier d'Orthez", "latitude": 43.4853923, "longitude": -0.7716955, "source": "osm", "_tags": {"amenity": "hospital", "emergency": "yes", "fax": "+33 5 59 69 70 00", "healthcare": "hospital", "name": "Centre hospitalier d'Orthez", "operator:type": "public", "phone": "+33 5 59 69 70 70", "ref:FR:FINESS": "640000402", "type:FR:FINESS": "355", "website": "https://www.ch-orthez.fr/", "wheelchair": "yes"}}, {"name": "Hôpital Thermal", "latitude": 43.7062279, "longitude": -1.0510499, "source": "osm", "_tags": {"addr:housenumber": "1", "addr:street": "Rue Labadie", "amenity": "hospital", "description": "L’hôpital thermal de Dax permet à certains patients en perte d’autonomie ou présentant un handicap de suivre une cure thermale conventionnée avec hospitalisation et hébergement.", "emergency": "no", "healthcare": "hospital", "healthcare:speciality": "rheumatology;phlebology", "name": "Hôpital Thermal", "operator": "Centre Hospitalier de Dax-Côte d'Argent", "operator:type": "public", "phone": "+33 5 58 91 48 11", "ref:FR:FINESS": "400782777", "ref:FR:NAF": "86.10Z", "type:FR:FINESS": "355", "wheelchair": "yes"}}, {"name": "Centre Hospitalier de Saint Sever", "latitude": 43.7571253, "longitude": -0.571289, "source": "osm", "_tags": {"addr:city": "Saint-Sever", "addr:housenumber": "3", "addr:street": "Rue de la Guillerie", "building": "yes", "healthcare": "hospital", "name": "Centre Hospitalier de Saint Sever", "phone": "+33 5 58 76 45 45", "source": "cadastre-dgi-fr source : Direction Générale des Impôts - Cadastre. Mise à jour : 2023", "website": "https://ch-saint-sever.fr/"}}, {"name": "", "latitude": 43.4818839, "longitude": -0.7648671, "source": "osm", "_tags": {"amenity": "hospital", "healthcare": "hospital", "healthcare:speciality": "psychiatry", "operator": "Centre Hospitalier des Pyrénées", "website": "https://www.ch-pyrenees.fr/secteurs/c-m-p-e-a-h-j-orthez/"}}]