[{"name": "Bolnica Zvornik", "latitude": 44.3872791, "longitude": 19.1013692, "source": "osm", "_tags": {"addr:city": "Zvornik", "addr:country": "BA", "addr:housenumber": "2", "addr:postcode": "75400", "addr:street": "Sime Perića", "amenity": "hospital", "contact:email": "obzv3@teol.net", "contact:phone": "+387 56 211112", "contact:website": "http://www.bolnicazvornik.com", "emergency": "no", "name": "Bolnica Zvornik"}}, {"name": "Општа болница „Ужице”", "latitude": 43.8516091, "longitude": 19.8590103, "source": "osm", "_tags": {"addr:block": "501715", "addr:city": "Ужице", "addr:country": "RS", "addr:housenumber": "17", "addr:postcode": "31103", "addr:street": "Милоша Обреновића", "alt_name": "Partizanska bolnica", "amenity": "hospital", "beds": "710", "emergency": "yes", "emergency:phone": "194", "healthcare": "hospital", "int_name": "Opsta bolnica „Uzice”", "name": "Општа болница „Ужице”", "name:sr": "Општа болница „Ужице”", "name:sr-Latn": "Opšta bolnica „Užice”", "opening_hours": "24/7", "operator": "Zdravstveni centar Užice", "operator:type": "government", "phone": "+38131599599", "ref:RS:kucni_broj": "5826014", "website": "http://www.zcue.rs/", "wheelchair": "yes", "wikidata": "Q20434999", "wikipedia": "sr:Партизанска болница у Ужицу"}}, {"name": "болница Ваљево", "latitude": 44.2768367, "longitude": 19.8962591, "source": "osm", "_tags": {"amenity": "hospital", "int_name": "bolnica Valjevo", "name": "болница Ваљево", "name:en": "Hospital Valjevo", "name:sr": "болница Ваљево", "name:sr-Latn": "bolnica Valjevo"}}, {"name": "Општа болница Ваљево", "latitude": 44.2769565, "longitude": 19.8912629, "source": "osm", "_tags": {"amenity": "hospital", "email": "office@zcvaljevo.com", "fax": "+38114295371", "healthcare": "hospital", "int_name": "Opsta bolnica Valjevo", "name": "Општа болница Ваљево", "name:sr": "Општа болница Ваљево", "name:sr-Latn": "Opšta bolnica Valjevo", "operator:type": "government", "phone": "+38114295295", "website": "http://www.obvaljevo.rs/"}}, {"name": "Завод за јавно здравље Ваљево", "latitude": 44.2744018, "longitude": 19.8822724, "source": "osm", "_tags": {"amenity": "hospital", "email": "office@zzjzvaljevo.org.rs", "healthcare": "hospital", "int_name": "Zavod za javno zdravlje Valjevo", "name": "Завод за јавно здравље Ваљево", "name:sr": "Завод за јавно здравље Ваљево", "name:sr-Latn": "Zavod za javno zdravlje Valjevo", "operator:type": "government", "phone": "+38114237056", "website": "https://www.zzjzvaljevo.org.rs/"}}, {"name": "Kantonalna Bolnica Goražde", "latitude": 43.6643265, "longitude": 18.9772151, "source": "osm", "_tags": {"addr:city": "Goražde", "addr:country": "BA", "addr:housenumber": "6", "addr:postcode": "73000", "addr:street": "Zdravstvenih radnika", "amenity": "hospital", "contact:email": "info@bolnica-gorazde.ba", "contact:fax": "+387 38 228395", "contact:phone": "+387 38 241210", "contact:website": "http://bolnica-gorazde.ba", "emergency": "no", "healthcare": "hospital", "name": "Kantonalna Bolnica Goražde", "name:hr": "Županijska bolnica Goražde"}}, {"name": "Општа болница Прибој", "latitude": 43.5844421, "longitude": 19.5183362, "source": "osm", "_tags": {"addr:city": "Прибој", "addr:country": "RS", "addr:housenumber": "бб", "addr:postcode": "31330", "addr:street": "Прибојске чете", "amenity": "hospital", "emergency": "yes", "emergency:phone": "194", "healthcare": "hospital", "int_name": "Opsta bolnica Priboj", "name": "Општа болница Прибој", "name:sr": "Општа болница Прибој", "name:sr-Latn": "Opšta bolnica Priboj", "operator": "Zdravstveni centar Užice", "operator:type": "government", "phone": "+381332445680"}}, {"name": "Амбуланта Златибор", "latitude": 43.7250048, "longitude": 19.6991147, "source": "osm", "_tags": {"amenity": "hospital", "building": "yes", "building:levels": "3", "emergency": "ambulance_station", "healthcare": "hospital", "int_name": "Ambulanta Zlatibor", "name": "Амбуланта Златибор", "source": "zlatibor.rs"}}, {"name": "Zdravlje", "latitude": 44.3752105, "longitude": 19.1063703, "source": "osm", "_tags": {"addr:housenumber": "11", "addr:street": "Краља Петра првог", "amenity": "hospital", "building": "yes", "healthcare": "hospital", "name": "Zdravlje", "ref:RS:kucni_broj": "5009351"}}, {"name": "", "latitude": 44.373874, "longitude": 19.1047554, "source": "osm", "_tags": {"amenity": "hospital", "healthcare": "hospital"}}, {"name": "", "latitude": 43.7495792, "longitude": 19.7157413, "source": "osm", "_tags": {"amenity": "hospital", "healthcare": "hospital"}}, {"name": "", "latitude": 43.7864098, "longitude": 19.2892407, "source": "osm", "_tags": {"amenity": "hospital", "healthcare": "hospital"}}, {"name": "", "latitude": 44.0725935, "longitude": 18.949257, "source": "osm", "_tags": {"amenity": "hospital", "healthcare": "hospital"}}, {"name": "", "latitude": 44.1688649, "longitude": 19.0771086, "source": "osm", "_tags": {"amenity": "hospital", "healthcare": "hospital"}}, {"name": "", "latitude": 43.6770283, "longitude": 19.0237755, "source": "osm", "_tags": {"amenity": "hospital", "healthcare": "hospital"}}, {"name": "", "latitude": 44.3872201, "longitude": 19.1013348, "source": "osm", "_tags": {"amenity": "hospital", "healthcare": "hospital"}}, {"name": "", "latitude": 44.3869405, "longitude": 19.1017784, "source": "osm", "_tags": {"amenity": "hospital", "healthcare": "hospital"}}, {"name": "Dom zdravlja Bratunac", "latitude": 44.1822291, "longitude": 19.3317261, "source": "osm", "_tags": {"addr:city": "Bratunac", "addr:country": "BA", "addr:housenumber": "18", "addr:postcode": "75420", "addr:street": "Nemanjina", "amenity": "hospital", "contact:website": "https://www.facebook.com/Dom-zdravlja-Bratunac-415980945171150", "healthcare": "hospital", "name": "Dom zdravlja Bratunac", "name:sr": "Дом здравља Братунац"}}, {"name": "Специјална болница за болести штитасте жлезде и болести метаболизма „Златибор”", "latitude": 43.7218533, "longitude": 19.7012929, "source": "osm", "_tags": {"addr:city": "Златибор", "addr:housenumber": "33", "addr:postcode": "31315", "addr:street": "Др Драгослава Зеке Смиљанића", "amenity": "hospital", "building": "public", "building:levels": "9", "government": "healthcare", "healthcare": "hospital", "healthcare:speciality": "endocrinology", "int_name": "Specijalna bolnica za bolesti stitaste zlezde i bolesti metabolizma „Zlatibor”", "loc_name": "Institut Čigota", "name": "Специјална болница за болести штитасте жлезде и болести метаболизма „Златибор”", "name:en": "Special Hospital for Thyroid Gland and Metabolism Diseases Zlatibor", "name:sr": "Специјална болница за болести штитасте жлезде и болести метаболизма „Златибор”", "office": "government", "phone": "+38131841141", "ref:RS:kucni_broj": "5676487", "type": "multipolygon", "website": "https://www.cigota.rs/", "wheelchair": "yes"}}]