[{"name": "Univerzitetska bolnica Foča", "latitude": 43.5273085, "longitude": 18.7822921, "source": "osm", "_tags": {"addr:city": "Foča", "addr:country": "BA", "addr:housenumber": "bb", "addr:postcode": "73300", "addr:street": "Studentska", "amenity": "hospital", "contact:email": "bolnicaf@bolnicafoca.com", "contact:phone": "+387 58 222500", "contact:website": "http://www.bolnicafoca.com", "emergency": "yes", "healthcare": "hospital", "name": "Univerzitetska bolnica Foča", "name:sr": "Универзитетска болница Фоча"}}, {"name": "Ketti Veterinarska stanica", "latitude": 43.8553648, "longitude": 18.3891015, "source": "osm", "_tags": {"addr:city": "Sarajevo", "addr:country": "BA", "addr:housenumber": "12", "addr:street": "Kolodvorska", "amenity": "veterinary", "contact:email": "ketti.vet.stanica@gmail.com", "contact:phone": "+387 33 654700;+387 63384753", "contact:website": "https://veterinarskastanica.ba", "emergency": "yes", "healthcare": "hospital", "name": "Ketti Veterinarska stanica"}}, {"name": "", "latitude": 44.3801611, "longitude": 18.3590489, "source": "osm", "_tags": {"amenity": "hospital", "emergency": "no", "healthcare": "hospital", "healthcare:speciality": "general"}}, {"name": "Ambulanta Zgošća", "latitude": 44.1473784, "longitude": 18.134853, "source": "osm", "_tags": {"addr:city": "Kakanj", "addr:postcode": "72240", "addr:street": "Zgošća", "amenity": "hospital", "healthcare": "hospital", "healthcare:speciality": "general", "name": "Ambulanta Zgošća", "operator": "Doma zdravlja Kakanj", "operator:type": "public", "phone": "+387 32 559-692"}}, {"name": "Dom zdravlja Ilidža", "latitude": 43.8299113, "longitude": 18.3105719, "source": "osm", "_tags": {"addr:city": "Ilidža", "addr:housenumber": "1", "addr:postcode": "71210", "addr:street": "Dr. Mustafe Pintola", "amenity": "hospital", "building": "hospital", "contact:phone": "+387 33 625033", "contact:website": "http://www.judzks.ba/Domovizdravlja/Ilid%C5%BEa.aspx", "healthcare": "hospital", "name": "Dom zdravlja Ilidža"}}, {"name": "Opća bolnica Prim. dr. Abdulah Nakaš", "latitude": 43.8585619, "longitude": 18.4074454, "source": "osm", "_tags": {"addr:city": "Sarajevo", "addr:country": "BA", "addr:housenumber": "12", "addr:postcode": "71000", "addr:street": "Kranjčevićeva", "alt_name": "Vojna bolnica", "amenity": "hospital", "contact:email": "info@obs.ba", "contact:fax": "+387 33 285370", "contact:phone": "+387 33 285100", "contact:website": "https://www.obs.ba", "emergency": "yes", "healthcare": "hospital", "name": "Opća bolnica Prim. dr. Abdulah Nakaš", "opening_hours": "24/7", "wikidata": "Q125883558", "wikimedia_commons": "Category:General Hospital \"Prim. dr Abdulah Nakaš\"", "wikipedia": "bs:Opća bolnica \"Prim. dr. Abdulah Nakaš\""}}, {"name": "Klinički Centar Univerziteta u Sarajevu", "latitude": 43.8697313, "longitude": 18.4159651, "source": "osm", "_tags": {"addr:city": "Sarajevo", "addr:housenumber": "25", "addr:postcode": "71000", "addr:street": "Bolnička", "amenity": "hospital", "contact:email": "info@fzs.unsa.ba", "contact:fax": "+387 33 569825", "contact:phone": "+387 33 569800", "contact:website": "http://www.fzs.unsa.ba", "emergency": "yes", "healthcare": "hospital", "name": "Klinički Centar Univerziteta u Sarajevu", "operator": "Grad Sarajevo", "operator:type": "public", "wikidata": "Q24702947", "wikimedia_commons": "Category:Clinical Center of University in Sarajevo", "wikipedia": "bs:Univerzitetski klinički centar Sarajevo"}}, {"name": "Opća bolnica Konjic", "latitude": 43.6556479, "longitude": 17.9522373, "source": "osm", "_tags": {"addr:city": "Konjic", "addr:country": "BA", "addr:housenumber": "bb", "addr:postcode": "88400", "addr:street": "Bolnička", "amenity": "hospital", "embankment": "bolnicakonjic@bih.net.ba", "fax": "+387 36 712519", "healthcare": "hospital", "name": "Opća bolnica Konjic", "name:hr": "Opća bolnica Konjic", "phone": "+387 36 712511", "website": "https://bolnicakonjic.com/"}}, {"name": "Psihijatrijska Bolnica Kantona Sarajevo", "latitude": 43.8879679, "longitude": 18.4180896, "source": "osm", "_tags": {"addr:city": "Sarajevo", "addr:housenumber": "248", "addr:postcode": "71000", "addr:street": "Nahorevska", "alt_name": "Bolnica Jagomir", "amenity": "hospital", "contact:email": "info@jagomir.ba", "contact:fax": "+387 33 561532", "contact:phone": "+387 33 561500", "contact:website": "http://jagomir.ba", "healthcare": "hospital", "healthcare:speciality": "psychiatry", "name": "Psihijatrijska Bolnica Kantona Sarajevo"}}, {"name": "Zavod za forenzičku psihijatriju Sokolac", "latitude": 43.9195311, "longitude": 18.773634, "source": "osm", "_tags": {"addr:housenumber": "bb", "addr:place": "Podromanija", "amenity": "hospital", "contact:email": "forenpsi@teol.net", "contact:fax": "+387 57 444858", "contact:phone": "+387 57 400040", "contact:website": "http://www.zzfps.ba", "healthcare": "hospital", "healthcare:speciality": "psychiatry", "name": "Zavod za forenzičku psihijatriju Sokolac"}}, {"name": "Bolnica \"Srbija\" Istočno Sarajevo", "latitude": 43.797904, "longitude": 18.3907787, "source": "osm", "_tags": {"addr:city": "Istočno Sarajevo", "addr:country": "BA", "addr:housenumber": "113", "addr:postcode": "71213", "addr:street": "Kasindolskog bataljona", "alt_name": "Bolnica Kasindo", "amenity": "hospital", "email": "uprava@bolnicasrbija.com", "fax": "+387 (0) 57 316 195", "healthcare": "hospital", "name": "Bolnica \"Srbija\" Istočno Sarajevo", "name:sr": "Болница \"Србија\" Источно Сарајево", "name:sr-Latn": "Bolnica \"Srbija\" Istočno Sarajevo", "phone": "+387 (0) 57 325 300", "website": "https://bolnicasrbija.com"}}, {"name": "Medicana Sarajevo", "latitude": 43.8439982, "longitude": 18.3379916, "source": "osm", "_tags": {"addr:city": "Sarajevo", "addr:housenumber": "185", "addr:postcode": "71000", "addr:street": "Džemala Bijedića", "amenity": "hospital", "building": "yes", "name": "Medicana Sarajevo"}}, {"name": "", "latitude": 44.1839057, "longitude": 18.9340033, "source": "osm", "_tags": {"amenity": "hospital", "healthcare": "hospital"}}, {"name": "", "latitude": 43.525108, "longitude": 18.7795359, "source": "osm", "_tags": {"amenity": "hospital", "healthcare": "hospital"}}, {"name": "Dom Zdravlja Kiseljak", "latitude": 43.9428769, "longitude": 18.0824166, "source": "osm", "_tags": {"amenity": "hospital", "healthcare": "hospital", "name": "Dom Zdravlja Kiseljak"}}, {"name": "", "latitude": 43.9349603, "longitude": 18.7929972, "source": "osm", "_tags": {"amenity": "hospital", "healthcare": "hospital"}}, {"name": "", "latitude": 43.7994374, "longitude": 18.3472286, "source": "osm", "_tags": {"amenity": "hospital", "healthcare": "hospital"}}, {"name": "", "latitude": 44.1291956, "longitude": 18.1208017, "source": "osm", "_tags": {"amenity": "hospital", "healthcare": "hospital"}}, {"name": "", "latitude": 44.3800543, "longitude": 18.3589925, "source": "osm", "_tags": {"amenity": "hospital", "healthcare": "hospital"}}, {"name": "", "latitude": 43.6649032, "longitude": 18.4473067, "source": "osm", "_tags": {"amenity": "hospital", "healthcare": "hospital"}}, {"name": "", "latitude": 43.6708776, "longitude": 18.4489949, "source": "osm", "_tags": {"amenity": "hospital", "healthcare": "hospital"}}, {"name": "Očna Klinika", "latitude": 43.866256, "longitude": 18.4151773, "source": "osm", "_tags": {"addr:city": "Sarajevo", "addr:postcode": "71000", "addr:street": "Koševska", "amenity": "hospital", "emergency": "yes", "healthcare": "hospital", "healthcare:speciality": "ophthalmology", "name": "Očna Klinika", "operator": "Univerzitetska Klinika Sarajevo", "operator:type": "public/government"}}]