[{"name": "Hôpital Intercommunal Bourg-Saint-Andéol-Viviers", "latitude": 44.3754477, "longitude": 4.6467817, "source": "osm", "_tags": {"alt_name": "Hôpital local Bourg-Saint-Andéol", "amenity": "hospital", "emergency": "no", "healthcare": "hospital", "name": "Hôpital Intercommunal Bourg-Saint-Andéol-Viviers", "phone": "+33 4 75 54 50 61", "ref:FR:FINESS": "070000062", "source": "Le ministère des solidarités et de la santé - 03/2019", "website": "https://www.hi-bsav.fr/", "wikidata": "Q92061580"}}, {"name": "Clinique Ambulatoire de la Cèze", "latitude": 44.1549807, "longitude": 4.6105406, "source": "osm", "_tags": {"addr:housenumber": "217", "addr:postcode": "30200", "addr:street": "Rue André Penchenier", "amenity": "hospital", "healthcare": "hospital", "name": "Clinique Ambulatoire de la Cèze", "phone": "+33 4 66906060", "ref:FR:FINESS": "300014032", "source": "survey", "type:FR:FINESS": "697"}}, {"name": "Maison de Santé Pluri-professionnelle « Val de Cèze »", "latitude": 44.291591, "longitude": 4.1013167, "source": "osm", "_tags": {"addr:city": "Bessèges", "addr:housenumber": "21", "addr:postcode": "30160", "addr:street": "Rue Alfred Silhol", "amenity": "hospital", "healthcare": "hospital", "name": "Maison de Santé Pluri-professionnelle « Val de Cèze »", "ref:FR:FINESS": "300014297", "type:FR:FINESS": "603"}}, {"name": "CMPA", "latitude": 43.7808544, "longitude": 4.0918548, "source": "osm", "_tags": {"amenity": "hospital", "emergency": "no", "healthcare": "psychotherapist", "name": "CMPA", "operator": "CHU de Nîmes", "ref:FR:FINESS": "300018249", "source": "Le ministère des solidarités et de la santé - 03/2019", "website": "https://www.chu-nimes.fr/pole-psychiatrie/cmpa---sommieres.html"}}, {"name": "Centre hospitalier Pôle santé de Lunel", "latitude": 43.6651153, "longitude": 4.1252755, "source": "osm", "_tags": {"addr:city": "Lunel", "addr:postcode": "34400", "addr:street": "Chemin des Alicantes", "amenity": "hospital", "emergency": "yes", "healthcare": "hospital", "name": "Centre hospitalier Pôle santé de Lunel", "ref:FR:FINESS": "340000231", "short_name": "CH Pôle Santé Lunel", "type:FR:FINESS": "106", "wikidata": "Q92062846"}}, {"name": "PFG", "latitude": 43.5602121, "longitude": 4.0759685, "source": "osm", "_tags": {"addr:city": "La Grande-Motte", "addr:housenumber": "88", "addr:postcode": "34280", "addr:street": "Rue de l'Industrie", "amenity": "hospital", "brand": "PFG", "healthcare": "hospital", "name": "PFG", "opening_hours": "Mo-Fr 09:00-12:00,14:00-18:00; Sa 09:00-12:00,14:00-16:00", "phone": "+33 4 67 02 65 07", "short_name": "GM Médical", "website": "https://www.pfg.fr/nos-agences/herault/la-grande-motte/agence-pompes-funebres-pfg-la-grande-motte-21376"}}, {"name": "CIS AMB", "latitude": 44.2489468, "longitude": 4.1981599, "source": "osm", "_tags": {"amenity": "hospital", "healthcare": "hospital", "name": "CIS AMB"}}, {"name": "Cabinet médical", "latitude": 43.9643756, "longitude": 4.2169218, "source": "osm", "_tags": {"amenity": "hospital", "healthcare": "hospital", "healthcare:speciality": "osteopathy", "name": "Cabinet médical"}}, {"name": "Cabinet médical", "latitude": 43.9660764, "longitude": 4.2138898, "source": "osm", "_tags": {"amenity": "hospital", "healthcare": "hospital", "healthcare:speciality": "osteopathy", "name": "Cabinet médical"}}, {"name": "Cabinet Psychologique", "latitude": 44.1545392, "longitude": 4.6196704, "source": "osm", "_tags": {"addr:city": "Bagnols sur Cèze", "addr:postcode": "30200", "addr:street": "Rue du 19 Mars 1962", "amenity": "hospital", "healthcare": "hospital", "name": "Cabinet Psychologique"}}, {"name": "", "latitude": 43.7160737, "longitude": 4.3231297, "source": "osm", "_tags": {"amenity": "hospital", "healthcare": "hospital"}}, {"name": "", "latitude": 43.8083607, "longitude": 4.6388047, "source": "osm", "_tags": {"amenity": "hospital", "fax": "+33466026300", "healthcare": "hospital", "phone": "+33466026333", "ref:FR:FINESS": "300000049", "ref:FR:SIRET": "20001124500038", "source": "Le ministère des solidarités et de la santé - 2025-03", "type:FR:FINESS": "106"}}, {"name": "Hôpital privé les Franciscaines", "latitude": 43.8476738, "longitude": 4.3744648, "source": "osm", "_tags": {"amenity": "hospital", "contact:phone": "+33 4 66 76 60 43", "healthcare": "hospital", "healthcare:speciality": "intensive", "name": "Hôpital privé les Franciscaines", "ref:FR:FINESS": "300780152", "ref:FR:SIRET": "58020034300011", "source": "cadastre-dgi-fr source : Direction Générale des Impôts - Cadastre. Mise à jour : 2009", "type:FR:FINESS": "365"}}, {"name": "Polyclinique du Grand Sud", "latitude": 43.8161076, "longitude": 4.35505, "source": "osm", "_tags": {"amenity": "hospital", "contact:facebook": "Polyclinique Du Grand Sud", "emergency": "yes", "fax": "+33 4 66 04 33 33", "healthcare": "hospital", "name": "Polyclinique du Grand Sud", "operator": "Hegagone Santé Méditerranée", "operator:type": "private", "phone": "+33 4 66 04 33 04", "ref:FR:FINESS": "300788502", "ref:FR:SIRET": "39328524200037", "source": "cadastre-dgi-fr source : Direction Générale des Impôts - Cadastre;mise à jour : 2009", "type:FR:FINESS": "365", "website": "https://grandsud.hsmed.fr/"}}, {"name": "Clinique Kennedy", "latitude": 43.8316462, "longitude": 4.347643, "source": "osm", "_tags": {"amenity": "hospital", "healthcare": "hospital", "name": "Clinique Kennedy", "ref:FR:FINESS": "300781465", "type:FR:FINESS": "365"}}, {"name": "Centre de Gérontologie de Serre Cavalier", "latitude": 43.8489998, "longitude": 4.3772626, "source": "osm", "_tags": {"amenity": "hospital", "healthcare": "hospital", "name": "Centre de Gérontologie de Serre Cavalier", "operator": "CHU de Nîmes", "phone": "+33 4 66 68 34 71", "ref:FR:FINESS": "300782125", "source": "cadastre-dgi-fr source : Direction Générale des Impôts - Cadastre;mise à jour : 2009", "type:FR:FINESS": "101"}}, {"name": "Clinique Bonnefon", "latitude": 44.1220745, "longitude": 4.086742, "source": "osm", "_tags": {"addr:city": "Alès", "addr:housenumber": "45", "addr:postcode": "30100", "addr:street": "Avenue Carnot", "amenity": "hospital", "emergency": "yes", "fax": "+33 4 66 56 34 78", "healthcare": "hospital", "name": "Clinique Bonnefon", "opening_hours": "Mo-Su 08:00-20:00", "operator:type": "private", "phone": "+33 4 66 56 34 00", "ref:FR:FINESS": "300780137", "source": "cadastre-dgi-fr source : Direction Générale des Impôts - Cadastre. Mise à jour : 2010", "type:FR:FINESS": "365", "website": "https://www.elsan.care/fr/nouvelle-clinique-bonnefon"}}, {"name": "Clinique Jean Paoli", "latitude": 43.6717981, "longitude": 4.6352172, "source": "osm", "_tags": {"addr:city": "Arles", "addr:housenumber": "19", "addr:postcode": "13200", "addr:street": "Rue Pierre Renaudel", "amenity": "hospital", "building": "hospital", "fax": "+33 4 90 99 34 01", "healthcare": "hospital", "name": "Clinique Jean Paoli", "note": "La clinique sera regroupée en 2022 au CH Joseph-Imbert", "operator": "Elsan", "operator:type": "private", "operator:wikidata": "Q48747106", "phone": "+33 4 90 99 34 00", "ref:FR:FINESS": "130002694", "source": "Arles Crau Camargue Montagnette - 02/2013", "type:FR:FINESS": "129"}}, {"name": "Clinique Jeanne d'Arc", "latitude": 43.6768249, "longitude": 4.6398106, "source": "osm", "_tags": {"amenity": "hospital", "building": "hospital", "fax": "+33 4 90 18 92 80", "healthcare": "hospital", "name": "Clinique Jeanne d'Arc", "note": "La clinique sera regroupée en 2022 au CH Joseph-Imbert", "operator": "Elsan", "operator:type": "private", "phone": "+33 4 90 99 32 32", "ref:FR:FINESS": "130781370", "source": "cadastre-dgi-fr source : Direction Générale des Impôts - Cadastre. Mise à jour : 2011", "type:FR:FINESS": "365"}}, {"name": "Centre hospitalier d'Orange", "latitude": 44.1476843, "longitude": 4.8227715, "source": "osm", "_tags": {"alt_name": "Centre hospitalier Louis Giorgi", "amenity": "hospital", "emergency": "yes", "fax": "+33 4 90 34 18 74", "healthcare": "hospital", "name": "Centre hospitalier d'Orange", "operator:type": "public", "phone": "+33 4 90 11 22 22", "postal_code": "84100", "ref:FR:FINESS": "840000483", "ref:FR:SIREN": "?", "ref:FR:SIRET": "26840026400068", "source": "INSEE - 07/2017", "start_date": "1994-03-17", "type:FR:FINESS": "355", "website": "https://ch-orange.fr/", "wikidata": "Q104873644"}}, {"name": "Monastère Saint-Paul de Mausole", "latitude": 43.7776, "longitude": 4.8343095, "source": "osm", "_tags": {"addr:street": "Avenue Docteur Edgar Leroy", "amenity": "hospital", "building": "yes", "healthcare": "hospital", "name": "Monastère Saint-Paul de Mausole", "opening_hours": "Mo-Su 09:30-18:45", "ref:FR:FINESS": "130806011", "source": "cadastre-dgi-fr source : Direction Générale des Impôts - Cadastre. Mise à jour : 2011", "type:FR:FINESS": "161"}}, {"name": "", "latitude": 44.010247, "longitude": 4.4199245, "source": "osm", "_tags": {"amenity": "hospital", "building": "yes", "source": "cadastre-dgi-fr source : Direction Générale des Impôts - Cadastre. Mise à jour : 2011"}}, {"name": "Centre hospitalier d'Avignon", "latitude": 43.9190406, "longitude": 4.8020223, "source": "osm", "_tags": {"alt_name": "Centre hospitalier Henri Duffaut", "amenity": "hospital", "email": "contact@ch-avignon.fr", "emergency": "yes", "fax": "+33 4 90 89 90 16", "healthcare": "hospital", "healthcare:speciality": "intensive", "landuse": "healthcare", "name": "Centre hospitalier d'Avignon", "operator:type": "public", "phone": "+33 4 32 75 33 33", "ref:FR:FINESS": "840001861", "type:FR:FINESS": "355", "website": "https://www.ch-avignon.fr/", "wikidata": "Q104875421"}}, {"name": "Centre hospitalier de Bagnols-sur-Cèze", "latitude": 44.1588125, "longitude": 4.6165745, "source": "osm", "_tags": {"alt_name": "Hôpital Louis Pasteur", "amenity": "hospital", "emergency": "yes", "fax": "+33 4 66 79 11 92", "healthcare:speciality": "general", "name": "Centre hospitalier de Bagnols-sur-Cèze", "operator:type": "public", "phone": "+33 4 66 79 10 11", "ref:FR:FINESS": "300000031", "source": "cadastre-dgi-fr source : Direction Générale des Finances Publiques - Cadastre. Mise à jour : 2019", "type:FR:FINESS": "355", "website": "https://www.ch-bagnolssurceze.fr/"}}, {"name": "SSR Les Cadières", "latitude": 44.131578, "longitude": 4.124024, "source": "osm", "_tags": {"building": "hospital", "healthcare": "hospital", "healthcare:speciality": "physiatry", "name": "SSR Les Cadières", "ref:FR:FINESS": "300002169", "source": "cadastre-dgi-fr source : Direction Générale des Impôts - Cadastre. Mise à jour : 2013", "type:FR:FINESS": "109"}}, {"name": "Hôpital local d’Uzès", "latitude": 44.0042612, "longitude": 4.4177033, "source": "osm", "_tags": {"addr:city": "Uzès", "addr:postcode": "30700", "amenity": "hospital", "healthcare": "hospital", "name": "Hôpital local d’Uzès", "phone": "+33 4 66637100", "ref:FR:FINESS": "300000064", "source": "Bing", "type:FR:FINESS": "106", "website": "http://www.hopital-local-uzes.fr", "wikidata": "Q92061582"}}, {"name": "Clinique les Oliviers", "latitude": 43.7293885, "longitude": 4.1711361, "source": "osm", "_tags": {"amenity": "hospital", "healthcare": "hospital", "healthcare:speciality": "physiatry", "name": "Clinique les Oliviers", "ref:FR:FINESS": "300780491", "source": "cadastre-dgi-fr source : Direction Générale des Impôts - Cadastre. Mise à jour : 2011", "type:FR:FINESS": "109"}}, {"name": "Centre hospitalier d'Arles", "latitude": 43.6572637, "longitude": 4.6337521, "source": "osm", "_tags": {"alt_name": "Centre hospitalier Joseph Imbert", "amenity": "hospital", "emergency": "yes", "fax": "+33 4 90 49 28 78", "healthcare": "hospital", "healthcare:speciality": "intensive", "landuse": "healthcare", "name": "Centre hospitalier d'Arles", "operator:type": "public", "phone": "+33 4 90 49 29 29", "ref:FR:FINESS": "130002827", "type:FR:FINESS": "355", "website": "https://www.ch-arles.fr/", "wheelchair": "yes", "wikidata": "Q22995610"}}, {"name": "Hôpital du Mas Careiron", "latitude": 44.0050085, "longitude": 4.409511, "source": "osm", "_tags": {"addr:city": "Uzès", "addr:postcode": "30700", "amenity": "hospital", "healthcare": "hospital", "name": "Hôpital du Mas Careiron", "phone": "+33 4 66 62 69 00", "ref:FR:FINESS": "300000080", "type:FR:FINESS": "292"}}, {"name": "Centre de rééducation respiratoire Folcheran", "latitude": 44.4164177, "longitude": 4.0779788, "source": "osm", "_tags": {"amenity": "hospital", "building": "yes", "description": "Etablissement de réadaptation fonctionnelle", "emergency": "no", "name": "Centre de rééducation respiratoire Folcheran", "source": "cadastre-dgi-fr source : Direction Générale des Finances Publiques - Cadastre. Mise à jour : 2014", "source:amenity": "BDTopo IGN"}}, {"name": "CHU de Nîmes", "latitude": 43.8241293, "longitude": 4.3212313, "source": "osm", "_tags": {"alt_name": "Hôpital Carémeau", "amenity": "hospital", "emergency": "yes", "fax": "+33 4 66 68 31 00", "healthcare": "hospital", "name": "CHU de Nîmes", "official_name": "Centre Hospitalier Universitaire Carémeau de Nîmes", "phone": "+33 4 66 68 68 68", "ref:FR:FINESS": "300002805", "ref:FR:SIRET": "26300003600032", "type:FR:FINESS": "101", "website": "http://www.chu-nimes.fr/"}}, {"name": "Centre de Dialyse - Diaverum", "latitude": 43.6572562, "longitude": 4.6313076, "source": "osm", "_tags": {"amenity": "hospital", "building": "hospital", "email": "arles@diaverum.com", "fax": "+33 4 90 52 15 38", "healthcare": "centre", "name": "Centre de Dialyse - Diaverum", "operator": "Diaverum", "operator:type": "private", "phone": "+33 4 90 52 15 20", "ref:FR:FINESS": "130034531", "source": "BDOrtho IGN", "type:FR:FINESS": "141", "website": "https://www.diaverum.com/fr-FR/Clinic-container/France/Arles/Centre-de-Dialyse-Diaverum-Arles/"}}, {"name": "Centre hospitalier Pont-Saint-Esprit", "latitude": 44.2650787, "longitude": 4.6434912, "source": "osm", "_tags": {"addr:city": "Pont-Saint-Esprit", "addr:postcode": "30134", "addr:street": "Rue Philippe Le Bel", "amenity": "hospital", "email": "accueil@hopitalpse.fr", "healthcare": "hospital", "name": "Centre hospitalier Pont-Saint-Esprit", "phone": "+33466334000", "ref:FR:FINESS": "300000056", "source": "Le ministère des solidarités et de la santé - 03/2019", "website": "https://www.hopitalpse.fr/", "wheelchair": "yes", "wikidata": "Q92062732"}}, {"name": "Centre hospitalier spécialisé Avignon Montfavet", "latitude": 43.9230841, "longitude": 4.8810716, "source": "osm", "_tags": {"addr:city": "Avignon", "addr:postcode": "84143", "addr:street": "Avenue de la Pinède", "amenity": "hospital", "name": "Centre hospitalier spécialisé Avignon Montfavet", "ref:FR:FINESS": "840000541", "source": "Bing"}}, {"name": "Centre soins et suite de réadaptation SAMDO La Pomarède", "latitude": 44.2121753, "longitude": 4.0204302, "source": "osm", "_tags": {"addr:city": "Les Salles-du-Gardon", "addr:housenumber": "5000", "addr:postcode": "30110", "addr:street": "Rue de la Maternité", "amenity": "hospital", "building:levels": "3", "emergency": "no", "healthcare": "hospital", "healthcare:speciality": "radiology;physiatry", "name": "Centre soins et suite de réadaptation SAMDO La Pomarède", "operator": "Entreprise Groupe Samdo", "operator:type": "private", "source": "cadastre-dgi-fr source : Direction Générale des Finances Publiques - Cadastre. Mise à jour : 2015", "wheelchair": "yes"}}, {"name": "Clinique Stella", "latitude": 43.7173571, "longitude": 4.1013084, "source": "osm", "_tags": {"addr:city": "Vérargues", "addr:postcode": "34400", "addr:street": "Place du Château", "amenity": "hospital", "email": "secretariat.medical@cl-stella.fr", "fax": "+33467860615", "healthcare": "hospital", "healthcare:speciality": "psychiatry", "name": "Clinique Stella", "opening_hours": "Mo-Th 09:00-18:00; Fr 09:00-17:00", "phone": "+33 4 99 63 63 63", "ref:FR:FINESS": "340780782", "ref:FR:SIRET": "41238278000010", "source": "Le ministère des solidarités et de la santé - 03/2019", "type:FR:FINESS": "161", "website": "https://www.oc-sante.fr/etablissements/clinique-stella"}}, {"name": "Hôpital de Réadaptation, de Rééducation et d'Addictologie du CHU de Nîmes", "latitude": 43.549803, "longitude": 4.1183925, "source": "osm", "_tags": {"CLC:code": "112", "CLC:id": "FR-229853", "CLC:year": "2006", "addr:housenumber": "293", "addr:street": "Route de Carnon", "amenity": "hospital", "contact:website": "http://www.chu-nimes.fr/les-liens-rapides/grau-du-roi.html", "healthcare": "hospital", "name": "Hôpital de Réadaptation, de Rééducation et d'Addictologie du CHU de Nîmes", "ref:FR:FINESS": "300782141", "source": "Union européenne - SOeS, CORINE Land Cover, 2006.", "type:FR:FINESS": "101"}}, {"name": "", "latitude": 43.8099301, "longitude": 4.4086585, "source": "osm", "_tags": {"amenity": "hospital", "contact:phone": "+33466029204", "contact:website": "https://www.clinique-la-camargue.fr", "healthcare": "clinic", "healthcare:speciality": "psychiatry", "ref:FR:FINESS": "300781424", "type:FR:FINESS": "161"}}, {"name": "Hôpitaux des Portes de Camargue", "latitude": 43.7995313, "longitude": 4.6676832, "source": "osm", "_tags": {"amenity": "hospital", "healthcare": "hospital", "name": "Hôpitaux des Portes de Camargue", "ref:FR:FINESS": "130001258", "type:FR:FINESS": "106", "wikidata": "Q92061588"}}, {"name": "Pôle Santé Professeur Louis Serre", "latitude": 43.6650006, "longitude": 4.1248473, "source": "osm", "_tags": {"alt_name": "Pôle Santé Lunel", "amenity": "hospital", "emergency": "yes", "healthcare": "hospital", "name": "Pôle Santé Professeur Louis Serre", "ref:FR:FINESS": "340021872", "short_name": "Pôle Santé Pr Louis Serre", "source": "cadastre-dgi-fr source : Direction Générale des Finances Publiques - Cadastre. Mise à jour : 2015", "start_date": "2007", "type:FR:FINESS": "698"}}, {"name": "Institut de Cancérologie du Gard", "latitude": 43.8218554, "longitude": 4.3231253, "source": "osm", "_tags": {"amenity": "hospital", "architect": "MBA", "building": "hospital", "building:levels": "7", "healthcare": "hospital", "name": "Institut de Cancérologie du Gard", "phone": "+33 4 66 68 68 68", "short_name": "ICG", "source": "survey", "start_date": "2015"}}, {"name": "Centre hospitalier Alès-Cévennes", "latitude": 44.1466, "longitude": 4.0964104, "source": "osm", "_tags": {"amenity": "hospital", "emergency": "yes", "fax": "+33 4 66 78 33 00", "healthcare": "hospital", "healthcare:speciality": "intensive", "name": "Centre hospitalier Alès-Cévennes", "operator:type": "public", "phone": "+33 4 66 78 33 33", "ref:FR:FINESS": "300000023", "type:FR:FINESS": "355", "website": "http://www.ch-ales.fr/Accueil/"}}, {"name": "Clinique Les Sophoras", "latitude": 43.8553797, "longitude": 4.3830903, "source": "osm", "_tags": {"addr:city": "Nîmes", "addr:postcode": "30000", "addr:street": "Rue des Sophoras", "amenity": "hospital", "contact:facebook": "Clinique les Sophoras", "emergency": "no", "fax": "+33 4 66 62 79 01", "healthcare": "hospital", "healthcare:speciality": "psychiatry", "name": "Clinique Les Sophoras", "operator:type": "private", "phone": "+33 4 66 62 79 00", "ref:FR:FINESS": "300780269", "type:FR:FINESS": "161", "website": "http://www.clinique-sophoras.com"}}, {"name": "Institut Médico-Educatif", "latitude": 43.8357168, "longitude": 4.3418125, "source": "osm", "_tags": {"amenity": "hospital", "healthcare": "hospital", "name": "Institut Médico-Educatif", "operator": "Croix Rouge", "ref:FR:FINESS": "300780384", "type:FR:FINESS": "109", "website": "https://pourvous.croix-rouge.fr/service-de-psychiatrie-infanto-juvenile-montaury"}}, {"name": "Centre hospitalier universitaire Montpellier - Service mobile d'urgence et de réanimation - Antenne centre hospitalier Lunel", "latitude": 43.6751549, "longitude": 4.1314487, "source": "osm", "_tags": {"addr:city": "Lunel", "addr:housenumber": "141", "addr:postcode": "34400", "addr:street": "Place de la République", "amenity": "hospital", "fax": "+33467877140", "healthcare": "hospital", "name": "Centre hospitalier universitaire Montpellier - Service mobile d'urgence et de réanimation - Antenne centre hospitalier Lunel", "phone": "+33467877100", "ref:FR:FINESS": "340022763", "ref:FR:SIRET": "26340016000440", "short_name": "CHU Montpellier SMUR Antenne CH Lunel", "source": "Le ministère des solidarités et de la santé - 03/2019", "type:FR:FINESS": "101"}}, {"name": "Centre de Long Séjour Brunel", "latitude": 43.6748013, "longitude": 4.1282748, "source": "osm", "_tags": {"addr:city": "Lunel", "addr:housenumber": "23", "addr:postcode": "34400", "addr:street": "Rue Bruno Brunel", "amenity": "hospital", "fax": "+33 4 67 87 71 09", "healthcare": "hospital", "healthcare:speciality": "geriatrics", "name": "Centre de Long Séjour Brunel", "ref:FR:FINESS": "340782697", "ref:FR:SIRET": "26340015200025", "source": "Le ministère des solidarités et de la santé - 03/2019", "type:FR:FINESS": "362"}}, {"name": "Institut Sainte Catherine", "latitude": 43.9228234, "longitude": 4.7999747, "source": "osm", "_tags": {"addr:housenumber": "250", "addr:street": "Chemin de Baigne Pieds", "amenity": "hospital", "fax": "+33 4 90 27 61 80", "healthcare": "hospital", "name": "Institut Sainte Catherine", "phone": "+33 4 90 27 61 61", "ref:FR:FINESS": "840000350", "type:FR:FINESS": "129", "website": "https://www.institut-sainte-catherine.org/", "wikidata": "Q30273611"}}, {"name": "Centre hospitalier Sully Eldin de Vallon-Pont-d'Arc", "latitude": 44.4058759, "longitude": 4.395812, "source": "osm", "_tags": {"amenity": "hospital", "name": "Centre hospitalier Sully Eldin de Vallon-Pont-d'Arc", "phone": "+33 4 75 88 42 50", "ref:FR:FINESS": "070000039", "source": "Le ministère des solidarités et de la santé - 03/2019", "website": "https://www.ch-vallon.fr/", "wikidata": "Q92063162"}}, {"name": "Foyer d'Accueil Médicalisé Kerchène", "latitude": 44.3098552, "longitude": 4.6944707, "source": "osm", "_tags": {"amenity": "hospital", "description": "Foyer d'accueil médicalisé", "emergency": "no", "healthcare": "hospital", "name": "Foyer d'Accueil Médicalisé Kerchène", "source": "BDTopo IGN"}}, {"name": "Centre de post-cure la Croix Bleue", "latitude": 44.3643385, "longitude": 4.3984194, "source": "osm", "_tags": {"amenity": "hospital", "description": "Etablissement de réadaptation fonctionnelle", "healthcare": "hospital", "healthcare:speciality": "physiatry", "name": "Centre de post-cure la Croix Bleue", "ref:FR:FINESS": "070784897", "short_name": "Croix Bleue", "source:geometry": "BDTopo IGN", "type:FR:FINESS": "109"}}, {"name": "Centre d’action médico-sociale Précoce", "latitude": 43.9216912, "longitude": 4.8044281, "source": "osm", "_tags": {"amenity": "hospital", "healthcare": "hospital", "name": "Centre d’action médico-sociale Précoce", "short_name": "CAMSP"}}, {"name": "Clinique mutualiste Jean Léon", "latitude": 43.5609489, "longitude": 4.0910004, "source": "osm", "_tags": {"addr:city": "La Grande-Motte", "addr:housenumber": "322", "addr:postcode": "34280", "addr:street": "Allée des Jardins", "amenity": "hospital", "fax": "+33467290999", "healthcare": "hospital", "name": "Clinique mutualiste Jean Léon", "phone": "+33467290800", "ref:FR:FINESS": "340780816", "ref:FR:SIRET": "81317979300480", "source": "Le ministère des solidarités et de la santé - 2021-01", "type:FR:FINESS": "109"}}, {"name": "Clinique Montagard", "latitude": 43.9362862, "longitude": 4.8070331, "source": "osm", "_tags": {"addr:housenumber": "23", "amenity": "hospital", "email": "contact.montagard@elsan.care", "healthcare": "hospital", "name": "Clinique Montagard", "operator:type": "private", "phone": "+33 4 90 14 21 09", "website": "https://www.elsan.care/fr/centre-chirurgical-montagard"}}, {"name": "Clinique Belle Rive", "latitude": 43.9562681, "longitude": 4.7940426, "source": "osm", "_tags": {"addr:city": "Villeneuve-lès-Avignon", "addr:housenumber": "55", "addr:postcode": "30400", "addr:street": "Avenue Gabriel Péri", "amenity": "hospital", "healthcare": "hospital", "name": "Clinique Belle Rive", "phone": "+33 4 90 15 68 68", "ref:FR:FINESS": "300780210", "type:FR:FINESS": "161", "website": "https://www.clinique-bellerive.fr"}}, {"name": "", "latitude": 43.9202692, "longitude": 4.7991111, "source": "osm", "_tags": {"amenity": "hospital", "healthcare": "hospital", "wikidata": "Q3144675"}}, {"name": "Clinique psychiatrique", "latitude": 43.8268721, "longitude": 4.3193767, "source": "osm", "_tags": {"architect": "AIA", "building": "yes", "healthcare": "hospital", "healthcare:speciality": "psychiatry", "name": "Clinique psychiatrique", "source": "cadastre-dgi-fr source : Direction Générale des Finances Publiques - Cadastre. Mise à jour : 2018", "start_date": "2013", "type": "multipolygon"}}]