[{"name": "Clinique du Château de Vernhes", "latitude": 43.8428728, "longitude": 1.5257788, "source": "osm", "_tags": {"alt_name": "Clinique de Bondigoux", "amenity": "hospital", "emergency": "no", "healthcare": "hospital", "healthcare:speciality": "physiatry", "name": "Clinique du Château de Vernhes", "phone": "+33 5 61 37 27 27", "ref:FR:FINESS": "310780374", "type:FR:FINESS": "109", "website": "https://www.cliniquebondigoux.fr/"}}, {"name": "Hôpital de Jour Psy Adultes Negreneys Ch Marchant", "latitude": 43.619915, "longitude": 1.4409593, "source": "osm", "_tags": {"addr:housenumber": "55", "addr:postcode": "31200", "addr:street": "Rue de Négreneys", "amenity": "hospital", "healthcare": "hospital", "name": "Hôpital de Jour Psy Adultes Negreneys Ch Marchant", "ref:FR:FINESS": "310794540", "short_name": "Hj Psy Adultes Negreneys Ch Marchant", "source": "Le ministère des solidarités et de la santé - 03/2019"}}, {"name": "Centre d'Imagerie Médicale Saint-Jean-Languedoc", "latitude": 43.5770504, "longitude": 1.484799, "source": "osm", "_tags": {"addr:city": "Toulouse", "addr:housenumber": "20", "addr:postcode": "31077", "addr:street": "Route de Revel", "amenity": "hospital", "healthcare": "hospital", "healthcare:speciality": "radiology", "name": "Centre d'Imagerie Médicale Saint-Jean-Languedoc"}}, {"name": "Pôle Guidance Infantile", "latitude": 43.5352379, "longitude": 1.5362483, "source": "osm", "_tags": {"amenity": "hospital", "description": "Secteur de psychiatrie infanto-juvénile n°3", "healthcare": "hospital", "name": "Pôle Guidance Infantile", "operator": "Arseaa", "ref:FR:FINESS": "310018676", "ref:FR:SIRET": "77558121800846", "type:FR:FINESS": "292"}}, {"name": "Cité de la Santé - Consultations PASS", "latitude": 43.6010359, "longitude": 1.4337893, "source": "osm", "_tags": {"addr:street": "Place Lange", "description": "Hôpital La Grave", "healthcare": "hospital", "healthcare:speciality": "general", "mapillary": "505407677559479", "name": "Cité de la Santé - Consultations PASS", "opening_hours": "Mo-Th 09:00-16:00; Fr 09:00-12:00;", "phone": "+33 5 61 77 78 31"}}, {"name": "PASS Dentaire", "latitude": 43.5992838, "longitude": 1.4365742, "source": "osm", "_tags": {"addr:city": "Toulouse", "addr:housenumber": "2", "addr:postcode": "31300", "addr:street": "Rue Viguerie", "description": "Service Odontologie Hôtel-Dieu Saint-Jacques", "healthcare": "hospital", "healthcare:speciality": "general;stomatology", "mapillary": "118459103611794", "name": "PASS Dentaire", "opening_hours": "Mo-Fr 09:00-12:00,14:00-17:30", "phone": "+33 5 61 77 83 78"}}, {"name": "Plateforme Santé Précarité de l’hôpital Joseph-ducuing", "latitude": 43.5965382, "longitude": 1.4300489, "source": "osm", "_tags": {"addr:city": "Toulouse", "addr:housenumber": "15", "addr:postcode": "31300", "addr:street": "Rue Varsovie", "check_date": "2025-09-01", "description": "- Actions en santé auprès des personnes vivant en squats ou bidonvilles - Permanences de Santé : Espace Social du Grand-Ramier 10, avenue du Grand-Ramier", "healthcare": "hospital", "healthcare:speciality": "general", "mapillary": "1080798599081614", "name": "Plateforme Santé Précarité de l’hôpital Joseph-ducuing", "opening_hours": "Tu 10:00-12:30", "phone": "+33 6 10 67 58 02;+33 6 84 02 26 06"}}, {"name": "Hôpital de jour Les Bourdettes", "latitude": 43.552726, "longitude": 1.4687626, "source": "osm", "_tags": {"alt_name": "Pôle Guidance Infantile", "amenity": "hospital", "healthcare": "hospital", "name": "Hôpital de jour Les Bourdettes", "operator": "Arseaa", "ref:FR:FINESS": "310783030", "ref:FR:SIRET": "77558121800499", "type:FR:FINESS": "161", "website": "http://www.arseaa.org/etablissement/hôpital-de-jour-les-bourdettes", "wheelchair": "yes"}}, {"name": "Toulouse Hypnose Médicale", "latitude": 43.5637746, "longitude": 1.4243172, "source": "osm", "_tags": {"amenity": "hospital", "healthcare": "hospital", "name": "Toulouse Hypnose Médicale"}}, {"name": "Imag'IN", "latitude": 43.55724, "longitude": 1.4251653, "source": "osm", "_tags": {"amenity": "hospital", "healthcare": "hospital", "name": "Imag'IN"}}, {"name": "Hôpital de la Grave", "latitude": 43.6003056, "longitude": 1.4321216, "source": "osm", "_tags": {"addr:city": "Toulouse", "addr:postcode": "31300", "addr:street": "Rue du Pont Saint-Pierre", "amenity": "hospital", "healthcare": "hospital", "heritage": "2", "heritage:operator": "mhs", "mhs:inscription_date": "1978-07-17", "name": "Hôpital de la Grave", "operator": "CHU Toulouse", "operator:type": "public", "ref:FR:FINESS": "310783063", "ref:mhs": "PA00094529", "source": "Le ministère des solidarités et de la santé - 08/2018", "source:heritage": "Ministère de la Culture - 07/2018", "type:FR:FINESS": "101", "url": "https://www.chu-toulouse.fr/IMG/pdf/hopital_la_grave_plan_detaille_2019-12.pdf", "website": "https://www.chu-toulouse.fr/-hopital-la-grave-cite-de-la-sante-", "wikidata": "Q3145280"}}, {"name": "Hôpital Joseph Ducuing", "latitude": 43.5963534, "longitude": 1.4291793, "source": "osm", "_tags": {"amenity": "hospital", "check_date": "2025-09-19", "emergency": "yes", "fax": "+33 5 67 77 63 03", "name": "Hôpital Joseph Ducuing", "name:etymology:wikidata": "Q24706089", "operator:type": "private", "phone": "+33 5 61 77 34 00", "ref:FR:FINESS": "310781067", "type:FR:FINESS": "365", "website": "https://www.hjd.asso.fr", "wheelchair": "yes", "wikidata": "Q3145170"}}, {"name": "Clinique Rive Gauche", "latitude": 43.5962837, "longitude": 1.4311077, "source": "osm", "_tags": {"amenity": "hospital", "check_date": "2024-06-18", "contact:facebook": "Clinique Rive Gauche Toulouse", "fax": "+33 5 61 77 33 51", "healthcare": "hospital", "healthcare:speciality": "paediatrics;general;gynaecology", "name": "Clinique Rive Gauche", "operator:type": "private", "phone": "+33 8 26 30 30 31", "ref:FR:FINESS": "310026083", "twitter": "CliniqueRG", "type:FR:FINESS": "365", "website": "https://www.clinique-rivegauche.fr/", "wheelchair": "yes"}}, {"name": "Hôpital local de Muret", "latitude": 43.4427484, "longitude": 1.312088, "source": "osm", "_tags": {"amenity": "hospital", "name": "Hôpital local de Muret", "ref:FR:FINESS": "310013628", "source": "Le ministère des solidarités et de la santé - 03/2019", "wikidata": "Q92062521"}}, {"name": "Hôpital Psychiatrique Gérard Marchant", "latitude": 43.5597032, "longitude": 1.4203368, "source": "osm", "_tags": {"amenity": "hospital", "barrier": "wall", "emergency": "no", "healthcare": "hospital", "heritage": "3", "heritage:operator": "mhs", "name": "Hôpital Psychiatrique Gérard Marchant", "ref:FR:FINESS": "310000369", "ref:mhs": "PA31000083", "type:FR:FINESS": "292", "wikidata": "Q105164633", "wikipedia": "fr:Centre hospitalier Gérard-Marchant"}}, {"name": "Hôpital Purpan", "latitude": 43.6097722, "longitude": 1.4013302, "source": "osm", "_tags": {"addr:city": "Toulouse", "addr:housenumber": "1", "addr:postcode": "31027", "addr:street": "Place Dr Joseph Baylac", "amenity": "hospital", "emergency": "yes", "healthcare": "hospital", "healthcare:speciality": "intensive", "name": "Hôpital Purpan", "operator": "CHU de Toulouse", "operator:type": "public", "phone": "+33 5 61 77 22 33", "ref:FR:FINESS": "310783048", "type:FR:FINESS": "101", "website": "https://www.chu-toulouse.fr/-hopital-purpan-", "wikidata": "Q16508277"}}, {"name": "Clinique Pasteur", "latitude": 43.594813, "longitude": 1.4159189, "source": "osm", "_tags": {"amenity": "hospital", "healthcare": "hospital", "healthcare:speciality": "intensive", "name": "Clinique Pasteur", "name:etymology:wikidata": "Q529", "phone": "+33 5 62 21 31 31", "ref:FR:FINESS": "310780259", "type:FR:FINESS": "365", "website": "https://www.clinique-pasteur.com/"}}, {"name": "Hôpital de jour La Planquette", "latitude": 43.7722157, "longitude": 1.6830601, "source": "osm", "_tags": {"amenity": "hospital", "name": "Hôpital de jour La Planquette", "ref:FR:FINESS": "810101881", "source": "cadastre-dgi-fr source : Direction Générale des Impôts - Cadastre ; mise à jour : 2009"}}, {"name": "Clinique d'Occitanie", "latitude": 43.4655121, "longitude": 1.3382644, "source": "osm", "_tags": {"amenity": "hospital", "check_date": "2024-06-12", "contact:city": "Muret", "contact:housenumber": "20", "contact:postcode": "31600", "contact:street": "Avenue Bernard IV", "emergency": "yes", "fax": "+33 5 61 51 88 89", "healthcare": "hospital", "healthcare:speciality": "intensive", "name": "Clinique d'Occitanie", "operator": "Groupe Elsan", "operator:type": "private", "phone": "+33 8 26 30 88 88", "ref:FR:FINESS": "310781505", "source": "cadastre-dgi-fr source : Direction Générale des Impôts - Cadastre. Mise à jour : 2009", "type:FR:FINESS": "365", "website": "http://www.clinique-occitanie.com/"}}, {"name": "Clinique de l'Union", "latitude": 43.6517982, "longitude": 1.5106215, "source": "osm", "_tags": {"amenity": "hospital", "contact:facebook": "Clinique de l'Union - Clinique Le Marquisat", "emergency": "yes", "fax": "+33 5 61 37 80 20", "healthcare:speciality": "intensive", "name": "Clinique de l'Union", "operator": "Ramsay Santé", "operator:type": "private", "operator:wikidata": "Q3123085", "phone": "+33 5 61 37 81 81", "ref:FR:FINESS": "310780283", "source": "cadastre-dgi-fr source : Direction Générale des Impôts - Cadastre. Mise à jour : 2009", "type:FR:FINESS": "365", "website": "https://clinique-union-toulouse.ramsaygds.fr/"}}, {"name": "Centre hospitalier de Gaillac", "latitude": 43.901615, "longitude": 1.8881056, "source": "osm", "_tags": {"amenity": "hospital", "email": "direction@ch-gaillac.fr", "fax": "+33 5 63 42 50 81", "healthcare": "hospital", "name": "Centre hospitalier de Gaillac", "operator:type": "public", "phone": "+33 5 63 42 50 50", "ref:FR:FINESS": "810000513", "source": "cadastre-dgi-fr source : Direction Générale des Impôts - Cadastre. Mise à jour : 2010", "type:FR:FINESS": "355", "website": "https://www.ch-gaillac.com/"}}, {"name": "Maison de Santé Mailhol", "latitude": 43.47801, "longitude": 1.6657344, "source": "osm", "_tags": {"amenity": "hospital", "building": "yes", "healthcare": "hospital", "name": "Maison de Santé Mailhol", "ref:FR:FINESS": "310780358", "source": "extraction vectorielle v1 cadastre-dgi-fr source : Direction Générale des Impôts - Cadas. Mise à jour : 2010", "type:FR:FINESS": "161"}}, {"name": "Clinique Saint-Orens", "latitude": 43.5431262, "longitude": 1.5403578, "source": "osm", "_tags": {"addr:housenumber": "12", "addr:street": "Avenue de Revel", "amenity": "hospital", "building": "yes", "check_date": "2024-09-21", "fax": "+33 5 61 39 34 65", "healthcare": "hospital", "name": "Clinique Saint-Orens", "operator": "Elsan", "operator:type": "private", "operator:wikidata": "Q48747106", "phone": "+33 8 26 39 33 33", "ref:FR:FINESS": "310790472", "ref:FR:SIRET": "33261647300028", "source": "cadastre-dgi-fr source : Direction Générale des Impôts - Cadastre. Mise à jour : 2010", "type:FR:FINESS": "109", "website": "https://www.elsan.care/fr/clinique-saint-orens"}}, {"name": "Clinique du Pont de Chaume", "latitude": 44.006046, "longitude": 1.378106, "source": "osm", "_tags": {"addr:city": "Montauban", "addr:housenumber": "330", "addr:postcode": "82000", "addr:street": "Avenue Marcel Unal", "amenity": "hospital", "emergency": "yes", "fax": "+33 5 63 68 33 20", "healthcare": "hospital", "name": "Clinique du Pont de Chaume", "operator": "Elsan", "operator:type": "private", "operator:wikidata": "Q48747106", "phone": "+33 5 63 68 33 33", "ref:FR:FINESS": "820000057", "type:FR:FINESS": "365", "website": "https://www.elsan.care/fr/clinique-pont-de-chaume/accueil"}}, {"name": "Hôpital Rangueil", "latitude": 43.5604234, "longitude": 1.4521336, "source": "osm", "_tags": {"amenity": "hospital", "emergency": "yes", "healthcare": "hospital", "healthcare:speciality": "intensive", "name": "Hôpital Rangueil", "operator": "CHU de Toulouse", "operator:type": "public", "phone": "+33 5 61 77 22 33", "ref:FR:FINESS": "310783055", "source": "Le ministère des solidarités et de la santé - 08/2018", "type:FR:FINESS": "101", "website": "https://www.chu-toulouse.fr/-hopital-rangueil-", "wikidata": "Q18745239"}}, {"name": "Médipôle Garonne", "latitude": 43.5639795, "longitude": 1.4235944, "source": "osm", "_tags": {"alt_name": "Clinique Médipôle Garonne", "amenity": "hospital", "barrier": "fence", "fax": "+33562132829", "healthcare": "yes", "name": "Médipôle Garonne", "official_name": "CL MEDIPOLE GARONNE TOULOUSE", "phone": "+33562132828", "ref:FR:FINESS": "310780150", "ref:FR:SIRET": "41818521100020", "source": "Le ministère des solidarités et de la santé - 03/2019", "type:FR:FINESS": "128"}}, {"name": "Hôpital Larrey", "latitude": 43.5526153, "longitude": 1.4536535, "source": "osm", "_tags": {"alt_name": "Hôpital Hippolyte Larrey", "amenity": "hospital", "healthcare": "hospital", "name": "Hôpital Larrey", "operator": "CHU de Toulouse", "operator:type": "public", "phone": "+33 5 61 77 22 33", "ref:FR:FINESS": "310019351", "type:FR:FINESS": "101", "website": "https://www.chu-toulouse.fr/-hopital-larrey-", "wheelchair": "yes", "wikidata": "Q18745237"}}, {"name": "Clinique Ambroise Paré", "latitude": 43.5898816, "longitude": 1.4135668, "source": "osm", "_tags": {"amenity": "hospital", "building": "hospital", "check_date": "2024-03-17", "emergency": "yes", "fax": "+33 5 61 44 55 28", "healthcare": "hospital", "height": "10 m", "name": "Clinique Ambroise Paré", "operator": "Groupe Elsan", "operator:type": "private", "operator:wikidata": "Q48747106", "phone": "+33 8 26 30 19 19", "ref:FR:FINESS": "310780382", "roof:shape": "flat", "source": "cadastre-dgi-fr source : Direction Générale des Impôts - Cadastre. Mise à jour : 2011", "type:FR:FINESS": "365", "website": "https://www.elsan.care/fr/clinique-ambroise-pare-toulouse"}}, {"name": "Centre hospitalier de Montauban", "latitude": 44.0231385, "longitude": 1.3509225, "source": "osm", "_tags": {"addr:city": "Montauban", "addr:postcode": "82000", "addr:street": "Rue Léon Cladel", "amenity": "hospital", "email": "direction@ch-montauban.fr", "emergency": "yes", "fax": "+33 5 63 92 80 10", "healthcare": "hospital", "healthcare:speciality": "intensive", "name": "Centre hospitalier de Montauban", "operator:type": "public", "phone": "+33 5 63 92 82 82", "ref:FR:FINESS": "820000032", "type:FR:FINESS": "355", "website": "https://www.ch-montauban.fr/"}}, {"name": "Hôpital Paule de Viguier", "latitude": 43.6084595, "longitude": 1.4031865, "source": "osm", "_tags": {"amenity": "hospital", "emergency": "yes", "healthcare": "hospital", "name": "Hôpital Paule de Viguier", "name:etymology:wikidata": "Q2894720", "ref:FR:FINESS": "310016977", "type:FR:FINESS": "101"}}, {"name": "Hôpital Garonne", "latitude": 43.6164677, "longitude": 1.4008491, "source": "osm", "_tags": {"amenity": "hospital", "name": "Hôpital Garonne", "name:etymology:wikidata": "Q5077", "operator": "CHU Toulouse", "operator:type": "public", "phone": "+33 5 61 77 66 11", "ref:FR:FINESS": "310022298", "type:FR:FINESS": "101"}}, {"name": "Clinique du Cabirol - Centre de Rééducation Fonctionnelle", "latitude": 43.5974722, "longitude": 1.3289253, "source": "osm", "_tags": {"amenity": "hospital", "building": "hospital", "healthcare": "hospital", "name": "Clinique du Cabirol - Centre de Rééducation Fonctionnelle", "ref:FR:FINESS": "310780234", "short_name": "Clinique du Cabirol", "source": "cadastre-dgi-fr source : Direction Générale des Impôts - Cadastre. Mise à jour : 2010", "source:ref:FR:FINESS": "Le ministère des solidarités et de la santé - 03/2019", "type:FR:FINESS": "109", "wheelchair": "yes"}}, {"name": "Hôpital Hôtel-Dieu Saint-Jacques", "latitude": 43.5997933, "longitude": 1.4365279, "source": "osm", "_tags": {"amenity": "hospital", "healthcare": "hospital", "heritage": "2", "heritage:operator": "whc;mhs", "mhs:inscription_date": "1986-10-31", "name": "Hôpital Hôtel-Dieu Saint-Jacques", "name:etymology:wikidata": "Q43999", "operator": "CHU Toulouse", "operator:type": "public", "ref:FR:FINESS": "310000484", "ref:mhs": "PA00094545", "ref:whc": "868-046", "source": "Le ministère des solidarités et de la santé - 08/2018", "source:heritage": "Ministère de la Culture - 06/2019", "tourism": "attraction", "type:FR:FINESS": "101", "whc:inscription_date": "1998", "wikidata": "Q15950372"}}, {"name": "Pavillon Louis Lareng", "latitude": 43.6132125, "longitude": 1.399869, "source": "osm", "_tags": {"amenity": "hospital", "building": "yes", "check_date": "2024-07-29", "healthcare": "hospital", "name": "Pavillon Louis Lareng", "source": "cadastre-dgi-fr source : Direction Générale des Finances Publiques - Cadastre. Mise à jour : 2016"}}, {"name": "Clinique de Castelviel", "latitude": 43.6789418, "longitude": 1.514677, "source": "osm", "_tags": {"amenity": "hospital", "healthcare": "hospital", "name": "Clinique de Castelviel", "phone": "+33 5 62 22 90 00", "website": "https://www.clinea.fr/clinique-psychiatrique-castelviel-castelmaurou-31"}}, {"name": "Clinique Croix Saint-Michel du docteur Boyé", "latitude": 44.0101836, "longitude": 1.3658726, "source": "osm", "_tags": {"addr:city": "Montauban", "addr:housenumber": "40", "addr:postcode": "82000", "addr:street": "Avenue Charles De Gaulle", "amenity": "hospital", "check_date": "2024-05-27", "healthcare": "hospital", "name": "Clinique Croix Saint-Michel du docteur Boyé", "ref:FR:FINESS": "820000040", "type:FR:FINESS": "365"}}, {"name": "MECS Castelnouvel", "latitude": 43.5945071, "longitude": 1.2547347, "source": "osm", "_tags": {"amenity": "hospital", "long_name": "Maison d'Enfant à caractère sanitaire (MECS) Castelnouvel", "name": "MECS Castelnouvel", "ref:FR:FINESS": "310780481", "source": "Le ministère des solidarités et de la santé - 03/2019"}}, {"name": "Clinique des Cèdres", "latitude": 43.6605062, "longitude": 1.3117162, "source": "osm", "_tags": {"amenity": "hospital", "check_date": "2025-09-03", "emergency": "yes", "fax": "+33 5 62 13 31 32", "healthcare:speciality": "intensive", "name": "Clinique des Cèdres", "operator": "Capio", "operator:type": "private", "phone": "+33 8 26 96 31 31", "ref:FR:FINESS": "310781000", "source": "Le ministère des solidarités et de la santé - 03/2019", "type:FR:FINESS": "365", "website": "https://clinique-cedres.capio.fr/"}}, {"name": "Clinique Le Marquisat", "latitude": 43.6520594, "longitude": 1.5124396, "source": "osm", "_tags": {"amenity": "hospital", "fax": "+33 5 61 37 80 05", "name": "Clinique Le Marquisat", "operator": "Ramsay Santé", "operator:type": "private", "operator:wikidata": "Q3123085", "phone": "+33 5 61 37 81 81", "ref:FR:FINESS": "310792635", "type:FR:FINESS": "109", "website": "https://clinique-union-toulouse.ramsaygds.fr/"}}, {"name": "Centre hospitalier de Lavaur", "latitude": 43.7010897, "longitude": 1.8180775, "source": "osm", "_tags": {"amenity": "hospital", "emergency": "yes", "fax": "+33 5 63 58 84 99", "name": "Centre hospitalier de Lavaur", "operator:type": "public", "phone": "+33 5 63 58 81 81", "ref:FR:FINESS": "810000562", "type:FR:FINESS": "355", "website": "https://www.ch-lavaur.fr/"}}, {"name": "Clinique Cave", "latitude": 44.0118021, "longitude": 1.3631044, "source": "osm", "_tags": {"addr:city": "Montauban", "addr:postcode": "82000", "addr:street": "Boulevard Montauriol", "amenity": "hospital", "check_date": "2024-05-27", "healthcare": "hospital", "name": "Clinique Cave", "ref:FR:FINESS": "820000065", "type:FR:FINESS": "128"}}, {"name": "Centre médico-psychologique Capou", "latitude": 44.034765, "longitude": 1.3141756, "source": "osm", "_tags": {"addr:city": "Montauban", "addr:postcode": "82000", "addr:street": "Chemin des Gardelles", "amenity": "hospital", "healthcare": "hospital", "healthcare:speciality": "psychiatry", "name": "Centre médico-psychologique Capou", "operator": "Centre hospitalier de Montauban", "operator:type": "public", "ref:FR:FINESS": "820009215", "social_facility:for": "mental_health", "type:FR:FINESS": "156"}}, {"name": "Clinique d’Aufréry", "latitude": 43.6111332, "longitude": 1.5277011, "source": "osm", "_tags": {"amenity": "hospital", "contact:phone": "+33 5 61 24 97 90", "healthcare": "hospital", "name": "Clinique d’Aufréry", "operator:type": "private", "ref:FR:FINESS": "310781133", "ref:FR:SIRET": "61080099700013", "type:FR:FINESS": "161", "website": "https://www.clinique-aufrery.com/"}}, {"name": "Centre hospitalier intercommunal Castelsarrasin-Moissac", "latitude": 44.0354352, "longitude": 1.111602, "source": "osm", "_tags": {"amenity": "hospital", "healthcare": "hospital", "name": "Centre hospitalier intercommunal Castelsarrasin-Moissac", "ref": "31", "ref:FR:FINESS": "820000198"}}, {"name": "Clinique de réadaptation « Midi-Gascogne »", "latitude": 43.8755551, "longitude": 1.0106052, "source": "osm", "_tags": {"addr:city": "Beaumont-de-Lomagne", "addr:housenumber": "1487", "addr:postcode": "82500", "addr:street": "Avenue du Languedoc", "amenity": "hospital", "emergency": "no", "healthcare": "hospital", "healthcare:speciality": "cardiology", "name": "Clinique de réadaptation « Midi-Gascogne »"}}, {"name": "Clinique de la Croix du Sud", "latitude": 43.5828581, "longitude": 1.5096495, "source": "osm", "_tags": {"addr:housenumber": "52", "alt_name": "Clinique Capio La Croix du Sud", "amenity": "hospital", "contact:facebook": "Capio La Croix du Sud", "emergency": "yes", "healthcare": "hospital", "healthcare:speciality": "intensive", "name": "Clinique de la Croix du Sud", "operator": "Ramsay Santé", "operator:type": "private", "operator:wikidata": "Q3123085", "phone": "+33 8 06 23 32 33", "ref:FR:FINESS": "310026927", "ref:FR:SIRET": "53880113500046", "start_date": "11/2018", "twitter": "CAPIO_CroixSud", "type:FR:FINESS": "365"}}, {"name": "Clinique des Pyrénées", "latitude": 43.5982316, "longitude": 1.3384641, "source": "osm", "_tags": {"amenity": "hospital", "healthcare": "hospital", "name": "Clinique des Pyrénées", "phone": "+33561153200", "ref:FR:FINESS": "310786389", "source": "Le ministère des solidarités et de la santé - 03/2019", "type:FR:FINESS": "128", "website": "https://www.cliniquedespyrenees.com/", "wheelchair": "yes"}}, {"name": "Clinique psychatrique Marigny", "latitude": 43.6953442, "longitude": 1.4773785, "source": "osm", "_tags": {"addr:city": "Saint-Loup-Cammas", "addr:housenumber": "2", "addr:postcode": "31140", "addr:street": "Rue du Treil", "amenity": "hospital", "check_date": "2024-08-12", "healthcare": "hospital", "healthcare:speciality": "psychiatry", "name": "Clinique psychatrique Marigny", "operator:type": "private", "website": "https://www.clinea.fr/clinique-psychiatrique-marigny-saint-loup-cammas-31"}}, {"name": "Clinique de Blagnac", "latitude": 43.6608214, "longitude": 1.3635056, "source": "osm", "_tags": {"amenity": "hospital", "building": "hospital", "building:levels": "3", "contact:phone": "+33 5 61 37 34 00", "description": "Clinique SSR (soins de suite et de rééducation) séniors 80 lits", "healthcare:speciality": "physiatry", "height": "19.59", "name": "Clinique de Blagnac", "opening_hours": "Mo-Su 09:00-20:00", "operator": "Korian", "ref:FR:FINESS": "310781174", "ref:FR:SIRET": "65552024500276", "type:FR:FINESS": "109"}}, {"name": "Clinique Korian Estela", "latitude": 43.5564734, "longitude": 1.4312061, "source": "osm", "_tags": {"addr:housenumber": "10", "addr:street": "Avenue Hubert Curien", "amenity": "hospital", "healthcare": "hospital", "name": "Clinique Korian Estela", "opening_hours": "Mo-Su 09:00-12:00, 14:00-18:00", "operator:type": "private", "phone": "+33 5 82 08 17 00", "ref:FR:SIRET": "65552024500284", "website": "https://www.korian.fr/clinique-ssr/ssr-korian-estela-toulouse-31100"}}, {"name": "Clinique de Montberon", "latitude": 43.7189794, "longitude": 1.4844009, "source": "osm", "_tags": {"amenity": "hospital", "healthcare": "hospital", "name": "Clinique de Montberon", "operator:type": "private", "ref:FR:FINESS": "310780119", "type:FR:FINESS": "161", "website": "https://www.cliniquemontberon.fr/"}}, {"name": "Centre Hospitalier Intercommunal Castelsarrasin-Moissac", "latitude": 44.1051522, "longitude": 1.0883228, "source": "osm", "_tags": {"addr:housenumber": "16", "addr:street": "Boulevard Camille Delthil", "amenity": "hospital", "emergency": "yes", "fax": "+33 5 63 04 67 55", "healthcare": "hospital", "name": "Centre Hospitalier Intercommunal Castelsarrasin-Moissac", "operator:type": "public", "phone": "+33 5 63 04 67 00", "ref:FR:FINESS": "820000883", "type:FR:FINESS": "355", "website": "https://www.ch-cm.fr/", "wheelchair": "yes"}}, {"name": "Hôpital de psychiatrie", "latitude": 43.6072709, "longitude": 1.403204, "source": "osm", "_tags": {"amenity": "hospital", "building": "hospital", "emergency": "yes", "healthcare": "hospital", "healthcare:speciality": "psychiatry", "name": "Hôpital de psychiatrie", "operator": "CHU Toulouse", "ref:FR:FINESS": "310025077", "source": "Le ministère des solidarités et de la santé - 03/2019", "type": "multipolygon"}}, {"name": "Institut Universitaire du Cancer de Toulouse - Oncopole", "latitude": 43.5566623, "longitude": 1.4264766, "source": "osm", "_tags": {"amenity": "hospital", "building": "hospital", "healthcare": "hospital", "healthcare:speciality": "oncology;intensive", "name": "Institut Universitaire du Cancer de Toulouse - Oncopole", "ref:FR:FINESS": "310025333", "source": "Le ministère des solidarités et de la santé - 03/2019", "type": "multipolygon", "type:FR:FINESS": "101", "wikidata": "Q2936224"}}, {"name": "Hôpital des Enfants", "latitude": 43.6097072, "longitude": 1.4031716, "source": "osm", "_tags": {"amenity": "hospital", "building": "hospital", "emergency": "yes", "healthcare": "hospital", "name": "Hôpital des Enfants", "operator:type": "public", "phone": "+33 5 61 77 22 33", "ref:FR:FINESS": "310016977", "type": "multipolygon", "type:FR:FINESS": "101", "website": "https://www.chu-toulouse.fr/-hopital-des-enfants-"}}, {"name": "Clinique Saint-Exupéry", "latitude": 43.5764172, "longitude": 1.4839079, "source": "osm", "_tags": {"amenity": "hospital", "building": "hospital", "building:levels": "4", "healthcare": "hospital", "name": "Clinique Saint-Exupéry", "ref:FR:FINESS": "310782016", "type": "multipolygon", "type:FR:FINESS": "365", "wall": "no"}}]