[{"name": "Altamedica", "latitude": 44.1687535, "longitude": 17.7785968, "source": "osm", "_tags": {"amenity": "hospital", "healthcare": "hospital", "name": "Altamedica"}}, {"name": "Dom zdravlja Tomislavgrad", "latitude": 43.723598, "longitude": 17.2246964, "source": "osm", "_tags": {"addr:city": "Tomislavgrad", "addr:country": "BA", "addr:housenumber": "bb", "addr:postcode": "80240", "addr:street": "Dr. Mije Ferića", "amenity": "hospital", "contact:email": "dz-tomislavgrad@tel.net.ba", "contact:fax": "+387 34 356123", "contact:phone": "+387 34 356 151", "contact:website": "http://dz-tomislavgrad.com", "emergency": "yes", "healthcare": "hospital", "name": "Dom zdravlja Tomislavgrad", "name:en": "Health center Tomislavgrad", "operator": "Općina Tomislavgrad", "operator:type": "public", "source": "Bing", "website": "https://www.dz-tomislavgrad.com/", "wikidata": "Q569500", "wikimedia_commons": "Category:Health centres", "wikipedia": "en:Community health center"}}, {"name": "Hrvatska bolnica \"Dr. fra Mato Nikolić\"", "latitude": 44.1923263, "longitude": 17.745991, "source": "osm", "_tags": {"addr:country": "BA", "addr:housenumber": "bb", "addr:postcode": "72276", "addr:street": "Dubrave", "amenity": "hospital", "contact:email": "uprava@bolnica-novabila.com", "contact:fax": "+387 30 707421", "contact:phone": "+387 30 708500", "contact:website": "https://www.bolnica-novabila.net", "emergency": "yes", "healthcare": "hospital", "name": "Hrvatska bolnica \"Dr. fra Mato Nikolić\""}}, {"name": "Županijska bolnica dr. Mihovil Sučić", "latitude": 43.8270596, "longitude": 17.0022101, "source": "osm", "_tags": {"addr:city": "Livno", "addr:country": "BA", "addr:housenumber": "2", "addr:postcode": "80101", "addr:street": "Svetog Ive", "amenity": "hospital", "contact:fax": "+387 34 200423", "contact:phone": "+387 34 200423", "contact:website": "http://bolnica-livno.com", "emergency": "yes", "healthcare": "hospital", "name": "Županijska bolnica dr. Mihovil Sučić", "name:de": "Kantonsspital Livno", "name:en": "Cantonal Hospital Livno", "name:fr": "Hôpital cantonal Livno", "wheelchair": "yes", "wikidata": "Q23926498", "wikipedia": "en:Fra Mihovil Sučić Hospital"}}, {"name": "Opća bolnica Jajce", "latitude": 44.3452305, "longitude": 17.271307, "source": "osm", "_tags": {"addr:city": "Jajce", "addr:housenumber": "bb", "addr:street": "Dr. Ismeta Šehalića", "amenity": "hospital", "building": "yes", "contact:phone": "+387 30 658107", "emergency": "yes", "healthcare": "hospital", "name": "Opća bolnica Jajce"}}, {"name": "Bolnica Travnik", "latitude": 44.2293976, "longitude": 17.6548066, "source": "osm", "_tags": {"addr:housenumber": "bb", "addr:postcode": "72270", "addr:street": "Kalibunar", "amenity": "hospital", "contact:email": "bolnica_tr@bih.net.ba", "contact:phone": "+387 30 519100", "contact:website": "http://www.bolnicatravnik.ba", "emergency": "yes", "healthcare": "hospital", "name": "Bolnica Travnik", "start_date": "1899", "wheelchair": "yes"}}, {"name": "JU Bolnica za plućne bolesti i tuberkulozu Travnik", "latitude": 44.2290746, "longitude": 17.6583607, "source": "osm", "_tags": {"addr:city": "Travnik", "addr:housenumber": "bb", "addr:street": "Bašbunar", "amenity": "hospital", "contact:email": "bolnicatbc@global.net.ba", "contact:phone": "+387 30 511553", "contact:website": "http://jubpbt.com", "healthcare": "hospital", "healthcare:speciality": "pulmonology", "name": "JU Bolnica za plućne bolesti i tuberkulozu Travnik"}}, {"name": "", "latitude": 44.2824673, "longitude": 17.0878391, "source": "osm", "_tags": {"amenity": "hospital", "healthcare": "hospital"}}, {"name": "", "latitude": 43.6612164, "longitude": 17.7585363, "source": "osm", "_tags": {"amenity": "hospital", "healthcare": "hospital"}}, {"name": "Hitna pomoć", "latitude": 44.2260127, "longitude": 17.6615644, "source": "osm", "_tags": {"amenity": "hospital", "healthcare": "hospital", "name": "Hitna pomoć", "wheelchair": "yes"}}, {"name": "", "latitude": 44.4146223, "longitude": 17.0883244, "source": "osm", "_tags": {"amenity": "hospital", "healthcare": "hospital"}}, {"name": "", "latitude": 44.417188, "longitude": 17.0827922, "source": "osm", "_tags": {"amenity": "hospital", "healthcare": "hospital"}}, {"name": "Kantonalna Bolnica Zenica", "latitude": 44.2090381, "longitude": 17.9263722, "source": "osm", "_tags": {"addr:city": "Zenica", "addr:country": "BA", "addr:housenumber": "67", "addr:postcode": "72000", "addr:street": "Crkvice", "amenity": "hospital", "email": "kbzenica@kbze.ba", "emergency": "yes", "healthcare": "hospital", "name": "Kantonalna Bolnica Zenica", "phone": "+387 32 447000", "type": "multipolygon", "website": "https://kbze.ba/", "wikidata": "Q25555268", "wikipedia": "bs:Kantonalna bolnica Zenica"}}]