[{"name": "Ospedali Privati Forlì \"Villa Serena\"", "latitude": 44.2179693, "longitude": 12.0331217, "source": "osm", "_tags": {"amenity": "hospital", "healthcare": "hospital", "name": "Ospedali Privati Forlì \"Villa Serena\"", "operator": "Ospadati Privati Forlì"}}, {"name": "Ospedali Privati Forlì \"Villa Igea\"", "latitude": 44.2171813, "longitude": 12.0582783, "source": "osm", "_tags": {"amenity": "hospital", "check_date": "2024-11-05", "healthcare": "hospital", "name": "Ospedali Privati Forlì \"Villa Igea\"", "operator": "Ospedali Privati Forlì"}}, {"name": "", "latitude": 44.0929466, "longitude": 12.404185, "source": "osm", "_tags": {"amenity": "hospital", "healthcare": "hospital"}}, {"name": "Ospedale Capelli", "latitude": 43.956301, "longitude": 12.1947926, "source": "osm", "_tags": {"amenity": "hospital", "healthcare": "hospital", "name": "Ospedale Capelli"}}, {"name": "Ospedale dei villeggianti", "latitude": 44.0592602, "longitude": 12.591387, "source": "osm", "_tags": {"amenity": "hospital", "healthcare": "hospital", "name": "Ospedale dei villeggianti"}}, {"name": "Ospedale di Cesenatico", "latitude": 44.1895874, "longitude": 12.4094093, "source": "osm", "_tags": {"amenity": "hospital", "emergency": "yes", "healthcare": "hospital", "name": "Ospedale di Cesenatico"}}, {"name": "Infermeria FISPS", "latitude": 43.4797124, "longitude": 12.6926853, "source": "osm", "_tags": {"amenity": "hospital", "healthcare": "hospital", "name": "Infermeria FISPS"}}, {"name": "Distretto sanitario N° 2 di Urbania", "latitude": 43.6705787, "longitude": 12.5189021, "source": "osm", "_tags": {"addr:city": "Urbania", "addr:housenumber": "54", "addr:postcode": "61049", "addr:street": "Via Roma", "amenity": "hospital", "healthcare": "hospital", "name": "Distretto sanitario N° 2 di Urbania"}}, {"name": "Azienda Unità Sanitaria Locale della Romagna", "latitude": 44.22504, "longitude": 12.0508857, "source": "osm", "_tags": {"addr:city": "Forlì", "addr:housenumber": "13", "addr:postcode": "47122", "addr:street": "Via Cristoforo Colombo", "alt_name": "AUSL Romagna", "amenity": "hospital", "full_name": "Centro Unico Prenotazioni - Azienda Unità Sanitaria Locale della Romagna", "healthcare": "hospital", "name": "Azienda Unità Sanitaria Locale della Romagna", "opening_hours": "Mo-Fr 07:30-12:45; Sa 07:30-12:30", "operator": "ASL", "operator:wikidata": "Q3631467", "phone": "+39 0543 733 668"}}, {"name": "Ospedale Civile \"A. Celli\"", "latitude": 43.547653, "longitude": 12.650819, "source": "osm", "_tags": {"amenity": "hospital", "emergency": "yes", "name": "Ospedale Civile \"A. Celli\""}}, {"name": "Ospedale \"Sacra Famiglia\"", "latitude": 43.890436, "longitude": 12.2872142, "source": "osm", "_tags": {"addr:city": "Novafeltria", "addr:housenumber": "174", "addr:postcode": "47863", "addr:street": "Via 24 maggio", "amenity": "hospital", "check_date": "2025-04-25", "healthcare": "hospital", "name": "Ospedale \"Sacra Famiglia\"", "operator": "ASL Romagna", "operator:type": "public", "wheelchair": "limited"}}, {"name": "ASL 1 - Ambulatori e Uffici", "latitude": 43.4646189, "longitude": 12.2535709, "source": "osm", "_tags": {"amenity": "hospital", "healthcare": "hospital", "name": "ASL 1 - Ambulatori e Uffici", "operator": "ASL", "operator:wikidata": "Q3631467"}}, {"name": "Guardia medica", "latitude": 44.1358533, "longitude": 12.4795826, "source": "osm", "_tags": {"amenity": "hospital", "emergency": "yes", "healthcare": "hospital", "name": "Guardia medica"}}, {"name": "118 Romagna", "latitude": 44.1037544, "longitude": 11.9820627, "source": "osm", "_tags": {"amenity": "hospital", "healthcare": "hospital", "name": "118 Romagna"}}, {"name": "AVIS", "latitude": 44.1083577, "longitude": 12.3178603, "source": "osm", "_tags": {"addr:city": "Cesena", "addr:housenumber": "4", "addr:postcode": "47020", "addr:street": "Via Della Solidarietà", "amenity": "hospital", "healthcare": "hospital", "name": "AVIS", "phone": "0547613193", "website": "https://forlicesena.avisemiliaromagna.it/"}}, {"name": "Ospedale Angioloni", "latitude": 43.8580793, "longitude": 11.9783245, "source": "osm", "_tags": {"addr:housenumber": "36", "addr:street": "via Guglielmo Marconi", "amenity": "hospital", "email": "segr.sanpiero.ce@auslromagna.it", "healthcare": "hospital", "name": "Ospedale Angioloni", "phone": "+39 0543 904111"}}, {"name": "CAU - Centro di Assistenza Urgenza", "latitude": 44.4113634, "longitude": 12.1854402, "source": "osm", "_tags": {"addr:city": "Ravenna", "addr:housenumber": "134", "addr:postcode": "48124", "addr:street": "Via Fiume Montone Abbandonato", "amenity": "hospital", "emergency": "no", "healthcare": "hospital", "name": "CAU - Centro di Assistenza Urgenza", "opening_hours": "Mo-Su 08:00-20:00", "operator": "AUSL Romagna", "website": "https://www.auslromagna.it/luoghi/cau-centri-assistenza-urgenza", "wheelchair": "yes"}}, {"name": "Ospedale Ceccarini", "latitude": 43.9950488, "longitude": 12.6502669, "source": "osm", "_tags": {"amenity": "hospital", "check_date": "2023-10-22", "emergency": "yes", "healthcare": "hospital", "name": "Ospedale Ceccarini"}}, {"name": "Ospedale Infermi Rimini", "latitude": 44.0460081, "longitude": 12.5880031, "source": "osm", "_tags": {"amenity": "hospital", "emergency": "yes", "healthcare": "hospital", "name": "Ospedale Infermi Rimini", "short_name": "Infermi", "wikidata": "Q30026475"}}, {"name": "Ospedale Morgagni-Pierantoni", "latitude": 44.2063511, "longitude": 12.0197488, "source": "osm", "_tags": {"addr:city": "Forlì", "addr:housenumber": "34", "addr:postcode": "47121", "addr:street": "Via Carlo Forlanini", "amenity": "hospital", "emergency": "yes", "healthcare": "hospital", "name": "Ospedale Morgagni-Pierantoni", "wheelchair": "yes", "wikidata": "Q30280331"}}, {"name": "Ospedale San Salvatore di Pesaro sede centrale", "latitude": 43.9074585, "longitude": 12.9071382, "source": "osm", "_tags": {"addr:city": "Pesaro", "addr:housenumber": "4", "addr:postcode": "61121", "addr:street": "Piazzale Carlo Cinelli", "amenity": "hospital", "check_date": "2024-07-28", "emergency": "yes", "healthcare": "hospital", "name": "Ospedale San Salvatore di Pesaro sede centrale", "operator": "Azienda Ospedaliera Ospedali Riuniti Marche Nord", "phone": "+39 0721 3611", "wheelchair": "yes"}}, {"name": "Ospedale di Stato", "latitude": 43.9502553, "longitude": 12.4555132, "source": "osm", "_tags": {"addr:city": "Borgo Maggiore", "addr:housenumber": "20", "addr:postcode": "47893", "addr:street": "Via Vittorio Scialoja", "amenity": "hospital", "emergency": "yes", "healthcare": "hospital", "name": "Ospedale di Stato", "start_date": "1981", "wikidata": "Q3886678", "wikipedia": "it:Ospedale di Stato della Repubblica di San Marino"}}, {"name": "", "latitude": 43.7801784, "longitude": 12.4957111, "source": "osm", "_tags": {"amenity": "hospital", "building": "yes"}}, {"name": "Centro Iperbarico", "latitude": 44.4105753, "longitude": 12.1643942, "source": "osm", "_tags": {"addr:city": "Ravenna", "addr:housenumber": "3", "addr:postcode": "48124", "addr:street": "Via Augusto Torre", "amenity": "hospital", "emergency": "yes", "healthcare": "hospital", "healthcare:speciality": "ossigenoterapia_iperbarica", "name": "Centro Iperbarico", "operator": "Centro Iperbarico S.r.l.", "source": "Regione Emilia Romagna"}}, {"name": "Mezzi Soccorso 118", "latitude": 44.4090126, "longitude": 12.1871911, "source": "osm", "_tags": {"amenity": "hospital", "building": "yes", "healthcare": "hospital", "name": "Mezzi Soccorso 118", "source": "Regione Emilia Romagna"}}, {"name": "Istituto Scientifico Romagnolo per lo Studio e la Cura dei Tumori", "latitude": 44.1245669, "longitude": 12.0652722, "source": "osm", "_tags": {"amenity": "hospital", "healthcare": "hospital", "name": "Istituto Scientifico Romagnolo per lo Studio e la Cura dei Tumori", "short_name": "I.R.S.T."}}, {"name": "Ospedale Maurizio Bufalini", "latitude": 44.1342866, "longitude": 12.2595017, "source": "osm", "_tags": {"alt_name": "Ospedale Bufalini", "amenity": "hospital", "check_date": "2025-06-29", "emergency": "yes", "healthcare": "hospital", "name": "Ospedale Maurizio Bufalini", "reg_name": "Trauma Center Romagna", "source": "Regione Emilia Romagna", "wikidata": "Q3886612", "wikipedia": "it:Ospedale Maurizio Bufalini"}}, {"name": "Ausl Cerversi", "latitude": 43.9523913, "longitude": 12.7358588, "source": "osm", "_tags": {"amenity": "hospital", "name": "Ausl Cerversi"}}, {"name": "Ospedale Franchini di Santarcangelo di Romagna", "latitude": 44.0629651, "longitude": 12.449469, "source": "osm", "_tags": {"amenity": "hospital", "healthcare": "hospital", "name": "Ospedale Franchini di Santarcangelo di Romagna"}}, {"name": "Casa di Cura Montanari", "latitude": 43.9136037, "longitude": 12.6483806, "source": "osm", "_tags": {"addr:housenumber": "1", "addr:street": "Via Giuseppe Montanari", "amenity": "hospital", "building": "yes", "building:levels": "3", "check_date": "2025-09-19", "name": "Casa di Cura Montanari", "rer_edi_id:ref": "84b54d7a-d698-4cb9-bf50-dbbf889ff2b2", "source": "Regione Emilia Romagna", "website": "https://www.casadicuramontanari.it", "wheelchair": "yes"}}, {"name": "", "latitude": 43.9183457, "longitude": 12.655041, "source": "osm", "_tags": {"amenity": "hospital"}}, {"name": "Ospedale San Salvatore di Pesaro sede Muraglia", "latitude": 43.88971, "longitude": 12.9283579, "source": "osm", "_tags": {"addr:city": "Pesaro", "addr:postcode": "61122", "addr:street": "Via Cesare Lombroso", "amenity": "hospital", "emergency": "no", "healthcare": "hospital", "name": "Ospedale San Salvatore di Pesaro sede Muraglia", "operator": "Azienda Ospedaliera Ospedali Riuniti Marche Nord", "website": "https://www.ospedalimarchenord.it/"}}, {"name": "", "latitude": 43.7335651, "longitude": 12.6333823, "source": "osm", "_tags": {"amenity": "hospital", "healthcare": "hospital", "wheelchair": "yes"}}, {"name": "Santa Maria delle Croci", "latitude": 44.4107773, "longitude": 12.1878997, "source": "osm", "_tags": {"addr:city": "Ravenna", "addr:housenumber": "5", "addr:postcode": "48121", "addr:street": "Viale Vincenzo Randi", "amenity": "hospital", "emergency": "yes", "healthcare": "hospital", "name": "Santa Maria delle Croci", "name:en": "Hospital Santa Maria delle Croci", "phone": "+39 0544285111", "website": "https://www.auslromagna.it/luoghi/ospedali/ospedale-ravenna", "wikidata": "Q30280383"}}, {"name": "Ospedale Sant'Antonio Abate", "latitude": 43.437938, "longitude": 12.8641358, "source": "osm", "_tags": {"addr:city": "Sassoferrato", "addr:housenumber": "11", "addr:postcode": "60041", "addr:street": "Viale Guglielmo Marconi", "alt_name:en": "Saint Anthony Hospital", "alt_name:it": "Ospedale di Sant'Antonio Abate", "amenity": "hospital", "building": "yes", "building:levels": "3", "healthcare": "hospital", "name": "Ospedale Sant'Antonio Abate", "phone": "+39 0732 707545"}}, {"name": "Casa di cura \"Domus Nova\"", "latitude": 44.419686, "longitude": 12.1848865, "source": "osm", "_tags": {"amenity": "hospital", "emergency": "no", "healthcare": "hospital", "name": "Casa di cura \"Domus Nova\""}}, {"name": "Pronto Soccorso", "latitude": 44.4096975, "longitude": 12.1887256, "source": "osm", "_tags": {"addr:city": "Ravenna", "addr:postcode": "48121", "amenity": "hospital", "building": "yes", "emergency": "yes", "healthcare": "hospital", "name": "Pronto Soccorso", "phone": "+39 0544 285111"}}, {"name": "118 Romagna", "latitude": 44.103751, "longitude": 11.9820433, "source": "osm", "_tags": {"amenity": "hospital", "healthcare": "hospital", "name": "118 Romagna"}}, {"name": "118 Romagna", "latitude": 44.1037197, "longitude": 11.9825823, "source": "osm", "_tags": {"amenity": "hospital", "healthcare": "hospital", "name": "118 Romagna"}}, {"name": "Ospedale Civile Fossombrone", "latitude": 43.6854866, "longitude": 12.8040655, "source": "osm", "_tags": {"amenity": "hospital", "emergency": "yes", "healthcare": "hospital", "name": "Ospedale Civile Fossombrone"}}, {"name": "CRA S.M. Nazaret", "latitude": 44.1899234, "longitude": 12.0891102, "source": "osm", "_tags": {"amenity": "hospital", "healthcare": "hospital", "name": "CRA S.M. Nazaret"}}, {"name": "Ospedale Città di Castello", "latitude": 43.4741932, "longitude": 12.2532756, "source": "osm", "_tags": {"addr:city": "Città di Castello", "addr:housenumber": "10", "addr:postcode": "06012", "addr:street": "Via Luigi Angelini", "amenity": "hospital", "emergency": "yes", "healthcare": "hospital", "helipad": "no", "name": "Ospedale Città di Castello", "operator": "Azienda Unità Sanitaria Locale Umbria 1", "operator:type": "public", "phone": "+39 075 575981", "website": "https://www.uslumbria1.it/pagine/ospedale-citta-di-castello", "wikidata": "Q61932601"}}, {"name": "Ospedale di Comunità", "latitude": 44.1893276, "longitude": 12.1276336, "source": "osm", "_tags": {"amenity": "hospital", "healthcare": "hospital", "name": "Ospedale di Comunità"}}, {"name": "Sol et salus", "latitude": 44.1137708, "longitude": 12.5030141, "source": "osm", "_tags": {"amenity": "hospital", "emergency": "no", "healthcare": "hospital", "name": "Sol et salus", "operator": "Sol et salus S.P.A.", "operator:type": "private", "phone": "+39 0541 725111", "website": "https://soletsalus.it/"}}, {"name": "", "latitude": 43.5760113, "longitude": 12.66832, "source": "osm", "_tags": {"amenity": "hospital", "healthcare": "hospital"}}, {"name": "San Giorgio", "latitude": 44.259981, "longitude": 12.3462951, "source": "osm", "_tags": {"amenity": "hospital", "building": "yes", "healthcare": "hospital", "name": "San Giorgio", "source": "Regione Emilia Romagna", "type": "multipolygon"}}, {"name": "Istituto DRUDI", "latitude": 44.1142088, "longitude": 12.0588457, "source": "osm", "_tags": {"amenity": "hospital", "building": "yes", "healthcare": "hospital", "name": "Istituto DRUDI", "type": "multipolygon"}}, {"name": "Ospedale Santi Donnino e Carlo", "latitude": 43.5688734, "longitude": 12.8307818, "source": "osm", "_tags": {"amenity": "hospital", "emergency": "yes", "healthcare": "hospital", "name": "Ospedale Santi Donnino e Carlo", "operator": "ASUR Marche", "type": "multipolygon", "wikidata": "Q130314814"}}]