[{"name": "", "latitude": 43.9964404, "longitude": 22.8778924, "source": "osm", "_tags": {"amenity": "hospital", "healthcare": "hospital", "note": "neurology"}}, {"name": "", "latitude": 43.9979094, "longitude": 22.8756939, "source": "osm", "_tags": {"amenity": "hospital", "healthcare": "hospital", "note": "Pulmology"}}, {"name": "", "latitude": 43.905695, "longitude": 22.2633804, "source": "osm", "_tags": {"amenity": "hospital"}}, {"name": "Црвени крст", "latitude": 43.8976342, "longitude": 22.2820196, "source": "osm", "_tags": {"amenity": "hospital", "int_name": "Crveni krst", "name": "Црвени крст", "name:en": "Red Cross", "name:sr": "Црвени крст", "name:sr-Latn": "Crveni krst"}}, {"name": "Здравствена амбуланта", "latitude": 44.2936092, "longitude": 22.5246966, "source": "osm", "_tags": {"amenity": "hospital", "int_name": "Zdravstvena ambulanta", "name": "Здравствена амбуланта", "name:sr": "Здравствена амбуланта", "name:sr-Latn": "Zdravstvena ambulanta"}}, {"name": "Амбуланта", "latitude": 44.1966719, "longitude": 22.6004544, "source": "osm", "_tags": {"amenity": "hospital", "emergency": "no", "int_name": "Ambulanta", "name": "Амбуланта", "name:sr": "Амбуланта", "name:sr-Latn": "Ambulanta"}}, {"name": "\"Биомед - 99\"", "latitude": 43.987313, "longitude": 22.8764666, "source": "osm", "_tags": {"amenity": "hospital", "name": "\"Биомед - 99\"", "name:ro": "\"Biomed - 99\"", "wheelchair": "no"}}, {"name": "Bor medic", "latitude": 44.0570269, "longitude": 22.111871, "source": "osm", "_tags": {"amenity": "hospital", "healthcare": "hospital", "name": "Bor medic"}}, {"name": "МБАЛ \"Света Петка\"", "latitude": 43.9972553, "longitude": 22.8769537, "source": "osm", "_tags": {"addr:city": "Видин", "addr:housenumber": "119", "addr:postcode": "3701", "addr:street": "Цар Симеон Велики", "amenity": "hospital", "emergency": "yes", "healthcare": "hospital", "name": "МБАЛ \"Света Петка\"", "name:bg": "МБАЛ „Света Петка“", "name:en": "Sveta Petka", "name:ro": "MHAT Sf. Petka", "note": "Multy profilized", "website": "https://www.mbal-vidin.com/"}}, {"name": "Хитна помоћ", "latitude": 44.2322714, "longitude": 22.5286968, "source": "osm", "_tags": {"amenity": "hospital", "building": "yes", "healthcare": "hospital", "int_name": "Hitna pomoc", "name": "Хитна помоћ", "name:sr": "Хитна помоћ", "name:sr-Latn": "Hitna pomoć"}}, {"name": "", "latitude": 44.2333991, "longitude": 22.5276721, "source": "osm", "_tags": {"amenity": "hospital", "building": "yes", "healthcare": "hospital"}}, {"name": "Општа болница Бор", "latitude": 44.0799429, "longitude": 22.09158, "source": "osm", "_tags": {"addr:city": "Bor", "addr:country": "RS", "addr:housenumber": "1", "addr:postcode": "19210", "addr:street": "Др Драгише Мишовића", "alt_name:sr-Latn": "Bolnica", "amenity": "hospital", "emergency": "yes", "healthcare": "hospital", "int_name": "Opsta bolnica Bor", "name": "Општа болница Бор", "name:en": "Bor Hospital", "name:sr": "Општа болница Бор", "name:sr-Latn": "Opšta bolnica Bor", "operator:type": "government", "phone": "030422777", "website": "https://www.borbolnica.org.rs/"}}, {"name": "Здравствени центар Зајечар", "latitude": 43.8917888, "longitude": 22.2908453, "source": "osm", "_tags": {"addr:city": "Zaječar", "addr:country": "RS", "addr:postcode": "19000", "addr:street": "Rasadnička", "amenity": "hospital", "emergency": "yes", "fax": "+3819420672", "government": "healthcare", "healthcare": "hospital", "int_name": "Zdravstveni centar Zajecar", "name": "Здравствени центар Зајечар", "name:sr": "Здравствени центар Зајечар", "name:sr-Latn": "Zdravstveni centar Zaječar", "office": "government", "opening_hours": "24/7", "operator": "Zdravstveni centar Zaječar", "phone": "+3819425811; +3819445600", "website": "https://www.zczajecar.com/", "wheelchair": "yes"}}, {"name": "Specijalna bolnica za rehabilitaciju „Gamzigrad”", "latitude": 43.9236444, "longitude": 22.1735327, "source": "osm", "_tags": {"addr:city": "Gamzigradska Banja", "addr:postcode": "19228", "amenity": "hospital", "building": "public", "building:levels": "4", "government": "healthcare", "healthcare": "hospital", "healthcare:speciality": "rehabilitation", "name": "Specijalna bolnica za rehabilitaciju „Gamzigrad”", "name:en": "Special Hospital for Rehabilitation \"Gamzigrad\"", "name:sr": "Специјална болница за рехабилитацију „Гамзиград”", "name:sr-Latn": "Specijalna bolnica za rehabilitaciju „Gamzigrad”", "office": "government", "phone": "+3819450443;+3819450444;+3819450445", "website": "https://www.gamzigradskabanja.org.rs/", "wheelchair": "yes", "wikimedia_commons": "File:Гамзиградска Бања.jpg"}}, {"name": "", "latitude": 43.8924784, "longitude": 22.5325835, "source": "osm", "_tags": {"amenity": "hospital", "healthcare": "hospital"}}, {"name": "Здравствени центар Књажевац", "latitude": 43.5640592, "longitude": 22.2472306, "source": "osm", "_tags": {"amenity": "hospital", "emergency": "yes", "healthcare": "hospital", "int_name": "Zdravstveni centar Knjazevac", "name": "Здравствени центар Књажевац", "name:sr": "Здравствени центар Књажевац", "name:sr-Latn": "Zdravstveni centar Knjaževac", "operator:type": "government", "phone": "019731526; 019731412; 019735059", "website": "https://www.zcknjazevac.rs/index.html", "wheelchair": "yes"}}, {"name": "МБАЛ \"Проф. Георги Златарски\"", "latitude": 43.6262217, "longitude": 22.6921042, "source": "osm", "_tags": {"addr:city": "Белоградчик", "addr:housenumber": "34", "addr:street": "Христо Ботев", "amenity": "hospital", "healthcare": "hospital", "name": "МБАЛ \"Проф. Георги Златарски\""}}, {"name": "Здравствени центар Неготин", "latitude": 44.2327195, "longitude": 22.5281784, "source": "osm", "_tags": {"addr:city": "Negotin", "addr:country": "RS", "addr:housenumber": "4", "addr:postcode": "19300", "addr:street": "Бадњевска", "amenity": "hospital", "email": "zcnuprava@mts.rs", "fax": "019544296", "healthcare": "hospital", "int_name": "Zdravstveni centar Negotin", "name": "Здравствени центар Неготин", "name:sr": "Здравствени центар Неготин", "name:sr-Latn": "Zdravstveni centar Negotin", "operator:type": "government", "phone": "019542951", "ref:RS:kucni_broj": "4174350", "website": "https://zcnegotin.rs/"}}, {"name": "", "latitude": 44.1509104, "longitude": 22.6427708, "source": "osm", "_tags": {"addr:city": "Брегово", "addr:housenumber": "11", "addr:postcode": "3790", "addr:street": "Добрич", "amenity": "hospital", "emergency": "yes", "healthcare": "hospital"}}]