[{"name": "Spitalul Municipal Caracal", "latitude": 44.1164033, "longitude": 24.3547798, "source": "osm", "_tags": {"addr:city": "Caracal", "addr:housenumber": "36", "addr:postcode": "235200", "addr:street": "Strada Plevnei", "amenity": "hospital", "emergency": "yes", "healthcare": "hospital", "healthcare:speciality": "internal;psychiatry;dermatology;gynaecology;ophthalmology;urology;paediatrics;radiology;covid19;surgery;dentist;physiotherapy", "name": "Spitalul Municipal Caracal", "source": "local_knowledge"}}, {"name": "Dispensar", "latitude": 43.8582805, "longitude": 24.2888095, "source": "osm", "_tags": {"amenity": "hospital", "name": "Dispensar"}}, {"name": "Медицински център", "latitude": 43.6731042, "longitude": 24.0023416, "source": "osm", "_tags": {"alt_name": "PLOSHTAD_LENIN", "amenity": "hospital", "emergency": "no", "name": "Медицински център"}}, {"name": "Dispensar", "latitude": 44.0331618, "longitude": 24.5622788, "source": "osm", "_tags": {"amenity": "hospital", "name": "Dispensar"}}, {"name": "Centrul de Dializă", "latitude": 44.1146199, "longitude": 24.3536028, "source": "osm", "_tags": {"addr:city": "Caracal", "addr:housenumber": "15", "addr:postcode": "235200", "addr:street": "Strada Plevnei", "amenity": "hospital", "healthcare": "hospital", "name": "Centrul de Dializă"}}, {"name": "Policlinica", "latitude": 43.751701, "longitude": 24.8697029, "source": "osm", "_tags": {"amenity": "hospital", "name": "Policlinica"}}, {"name": "Медицински център", "latitude": 43.6380103, "longitude": 24.6930677, "source": "osm", "_tags": {"amenity": "hospital", "healthcare": "hospital", "name": "Медицински център"}}, {"name": "УМБАЛ \"Света Марина\"", "latitude": 43.4407102, "longitude": 24.5911642, "source": "osm", "_tags": {"amenity": "hospital", "name": "УМБАЛ \"Света Марина\""}}, {"name": "", "latitude": 43.4414613, "longitude": 24.5900686, "source": "osm", "_tags": {"amenity": "hospital"}}, {"name": "Хайфу център", "latitude": 43.4414916, "longitude": 24.5901084, "source": "osm", "_tags": {"amenity": "hospital", "building": "yes", "healthcare": "hospital", "name": "Хайфу център"}}, {"name": "МБАЛ Кнежа", "latitude": 43.4858345, "longitude": 24.0792869, "source": "osm", "_tags": {"amenity": "hospital", "healthcare": "hospital", "name": "МБАЛ Кнежа"}}, {"name": "МБАЛ Оряхово", "latitude": 43.7297764, "longitude": 23.9473924, "source": "osm", "_tags": {"amenity": "hospital", "healthcare": "hospital", "name": "МБАЛ Оряхово"}}, {"name": "Spitalul de Psihiatrie Cronici Schitu Greci", "latitude": 44.3193932, "longitude": 24.5440783, "source": "osm", "_tags": {"addr:housenumber": "2", "addr:postcode": "237402", "addr:street": "Strada Satul Nou", "amenity": "hospital", "healthcare": "hospital", "healthcare:speciality": "psychiatry", "name": "Spitalul de Psihiatrie Cronici Schitu Greci", "website": "https://www.spitalul-schitu.ro/"}}, {"name": "Spitalul Orășenesc Balș", "latitude": 44.347279, "longitude": 24.1154335, "source": "osm", "_tags": {"amenity": "hospital", "healthcare": "hospital", "name": "Spitalul Orășenesc Balș"}}, {"name": "Spitalul Orășenesc", "latitude": 43.7732124, "longitude": 24.5107645, "source": "osm", "_tags": {"addr:city": "Corabia", "addr:street": "Bulevardul Carpați", "amenity": "hospital", "healthcare": "hospital", "healthcare:speciality": "general;paediatrics;gynaecology;cardiology;internal", "name": "Spitalul Orășenesc"}}, {"name": "Sanepid", "latitude": 43.7723379, "longitude": 24.4943042, "source": "osm", "_tags": {"addr:city": "Corabia", "addr:street": "Bulevardul Carpați", "amenity": "hospital", "healthcare": "hospital", "name": "Sanepid"}}, {"name": "Spitalul Orășenesc Așezămintele Brâncovenești", "latitude": 43.8011926, "longitude": 24.0943386, "source": "osm", "_tags": {"addr:city": "Dăbuleni", "addr:housenumber": "13", "addr:street": "Strada Unirii", "amenity": "hospital", "name": "Spitalul Orășenesc Așezămintele Brâncovenești"}}, {"name": "Spitalul Municipal Turnu Măgurele", "latitude": 43.743527, "longitude": 24.8687797, "source": "osm", "_tags": {"amenity": "hospital", "healthcare": "hospital", "name": "Spitalul Municipal Turnu Măgurele"}}, {"name": "МБАЛ Гулянци", "latitude": 43.6395871, "longitude": 24.6957041, "source": "osm", "_tags": {"addr:city": "Гулянци", "addr:housenumber": "34", "addr:street": "В. Левски", "amenity": "hospital", "building": "yes", "building:levels": "4", "healthcare": "hospital", "name": "МБАЛ Гулянци", "ref:BG:id": "18099.401.2374.2", "source": "РД-18-6/26.02.2007 г., издадена от ИЗПЪЛНИТЕЛЕН ДИРЕКТОР НА АГКК", "website": "https://mbal-gulyantsi.com/"}}]