[{"name": "", "latitude": 43.614377, "longitude": 11.4772283, "source": "osm", "_tags": {"amenity": "hospital"}}, {"name": "Humanitas", "latitude": 43.7524277, "longitude": 11.185848, "source": "osm", "_tags": {"amenity": "hospital", "name": "Humanitas", "wheelchair": "yes"}}, {"name": "Pronto Soccorso Ospedale del Mugello", "latitude": 43.9585304, "longitude": 11.3746642, "source": "osm", "_tags": {"amenity": "hospital", "emergency": "yes", "healthcare": "hospital", "name": "Pronto Soccorso Ospedale del Mugello"}}, {"name": "Ospedale \"Nefetti\"", "latitude": 43.9427299, "longitude": 11.9014853, "source": "osm", "_tags": {"amenity": "hospital", "name": "Ospedale \"Nefetti\""}}, {"name": "C.T.O.", "latitude": 43.8012749, "longitude": 11.2483332, "source": "osm", "_tags": {"amenity": "hospital", "healthcare": "hospital", "name": "C.T.O.", "wheelchair": "yes"}}, {"name": "Vergato", "latitude": 44.2816357, "longitude": 11.1097291, "source": "osm", "_tags": {"amenity": "hospital", "healthcare": "hospital", "name": "Vergato"}}, {"name": "Frate Sole", "latitude": 43.6122663, "longitude": 11.4647121, "source": "osm", "_tags": {"amenity": "hospital", "name": "Frate Sole"}}, {"name": "A.S.L.", "latitude": 43.6577621, "longitude": 11.18653, "source": "osm", "_tags": {"amenity": "hospital", "healthcare": "hospital", "name": "A.S.L.", "operator": "ASL", "operator:type": "public", "operator:wikidata": "Q3631467"}}, {"name": "Poliambulatorio", "latitude": 44.3887423, "longitude": 11.8260368, "source": "osm", "_tags": {"amenity": "hospital", "name": "Poliambulatorio"}}, {"name": "Azienda Usl 10 Di Firenze", "latitude": 43.8318202, "longitude": 11.2051424, "source": "osm", "_tags": {"amenity": "hospital", "check_date": "2025-06-15", "emergency": "no", "name": "Azienda Usl 10 Di Firenze"}}, {"name": "", "latitude": 43.628026, "longitude": 11.4856143, "source": "osm", "_tags": {"amenity": "hospital"}}, {"name": "Misericordia di Lastra a Signa sez. Scandicci", "latitude": 43.7518079, "longitude": 11.1830881, "source": "osm", "_tags": {"amenity": "hospital", "healthcare": "hospital", "name": "Misericordia di Lastra a Signa sez. Scandicci"}}, {"name": "Casa di cura Prof. Nobili", "latitude": 44.1406161, "longitude": 11.1556529, "source": "osm", "_tags": {"addr:city": "Castiglione dei Pepoli", "addr:housenumber": "25", "addr:street": "Via Fiera", "amenity": "hospital", "emergency": "yes", "healthcare": "hospital", "name": "Casa di cura Prof. Nobili", "operator": "Garofalo Healthcare", "phone": "+39 0534 91099", "website": "https://casadicuranobili.it/", "wheelchair": "yes"}}, {"name": "Corpo Nazionale Soccorso Alpino e Speleologico", "latitude": 44.334083, "longitude": 11.1870302, "source": "osm", "_tags": {"amenity": "hospital", "name": "Corpo Nazionale Soccorso Alpino e Speleologico"}}, {"name": "Pubblica Assistenza Vado", "latitude": 44.3170377, "longitude": 11.2554085, "source": "osm", "_tags": {"addr:housenumber": "38b", "addr:postcode": "40036", "addr:street": "Via Val di Setta", "amenity": "hospital", "email": "info@pavado.it", "name": "Pubblica Assistenza Vado", "phone": "+39 0516779812", "website": "https://www.pavado.it/"}}, {"name": "CRA Madonna del Cantone", "latitude": 44.1561822, "longitude": 11.7950109, "source": "osm", "_tags": {"addr:city": "Modigliana", "addr:housenumber": "25", "addr:street": "Via Nicolò Ronconi", "amenity": "hospital", "healthcare": "hospital", "name": "CRA Madonna del Cantone"}}, {"name": "Casa della Salute Modigliana", "latitude": 44.156335, "longitude": 11.7954152, "source": "osm", "_tags": {"addr:city": "Modigliana", "addr:housenumber": "31", "addr:street": "Via Canaletto", "amenity": "hospital", "healthcare": "hospital", "name": "Casa della Salute Modigliana"}}, {"name": "Pubblica Assistenza Pianoro", "latitude": 44.3937002, "longitude": 11.3446056, "source": "osm", "_tags": {"addr:city": "Pianoro", "addr:housenumber": "15", "addr:street": "Via del Lavoro", "amenity": "hospital", "healthcare": "hospital", "name": "Pubblica Assistenza Pianoro"}}, {"name": "Centro traumatologico ortopedico - CTO", "latitude": 43.8011357, "longitude": 11.2485654, "source": "osm", "_tags": {"addr:city": "Firenze", "addr:housenumber": "1", "addr:postcode": "50139", "addr:street": "Largo Palagi", "amenity": "hospital", "healthcare": "hospital", "name": "Centro traumatologico ortopedico - CTO"}}, {"name": "Arciconfraternita della Misercordia di Arezzo", "latitude": 43.4643888, "longitude": 11.8787911, "source": "osm", "_tags": {"addr:city": "Arezzo", "addr:housenumber": "143", "addr:postcode": "52100", "addr:street": "Via Giuseppe Garibaldi", "amenity": "hospital", "emergency": "yes", "fax": "+39057521484", "name": "Arciconfraternita della Misercordia di Arezzo", "phone": "+39057524242", "website": "www.misericordiaarezzo.com", "wheelchair": "yes"}}, {"name": "Pronto Soccorso Ospedale Costa", "latitude": 44.1632608, "longitude": 10.9703029, "source": "osm", "_tags": {"addr:city": "Porretta Terme", "amenity": "hospital", "emergency": "yes", "healthcare": "hospital", "name": "Pronto Soccorso Ospedale Costa"}}, {"name": "Pronto Soccorso Ospedale Vergato", "latitude": 44.2816012, "longitude": 11.1084941, "source": "osm", "_tags": {"addr:city": "Vergato", "amenity": "hospital", "emergency": "yes", "healthcare": "hospital", "name": "Pronto Soccorso Ospedale Vergato"}}, {"name": "Pronto Soccorso Ospedale \"Santo Stefano\"", "latitude": 43.8911145, "longitude": 11.0636741, "source": "osm", "_tags": {"addr:city": "Prato", "addr:postcode": "59100", "amenity": "hospital", "emergency": "yes", "healthcare": "hospital", "name": "Pronto Soccorso Ospedale \"Santo Stefano\"", "wheelchair": "yes"}}, {"name": "Studi medici di famiglia", "latitude": 43.8631365, "longitude": 11.0826407, "source": "osm", "_tags": {"amenity": "hospital", "emergency": "no", "name": "Studi medici di famiglia"}}, {"name": "Studi medici Pediatri", "latitude": 43.8629589, "longitude": 11.0824507, "source": "osm", "_tags": {"amenity": "hospital", "name": "Studi medici Pediatri"}}, {"name": "Azienda USL Toscana centro - distretto Campi Bisenzio", "latitude": 43.8201532, "longitude": 11.1428583, "source": "osm", "_tags": {"addr:city": "Campi Bisenzio", "addr:housenumber": "1", "addr:postcode": "50013", "addr:street": "Via Gioacchino Rossini", "amenity": "hospital", "emergency": "no", "healthcare": "hospital", "name": "Azienda USL Toscana centro - distretto Campi Bisenzio", "phone": "+39 055 693 0880", "website": "https://www.uslcentro.toscana.it/"}}, {"name": "ASL Presidio Orsini", "latitude": 43.7631918, "longitude": 11.2759339, "source": "osm", "_tags": {"amenity": "hospital", "healthcare": "hospital", "name": "ASL Presidio Orsini", "operator": "ASL", "operator:wikidata": "Q3631467"}}, {"name": "Unità spinale", "latitude": 43.8005862, "longitude": 11.2497385, "source": "osm", "_tags": {"addr:housenumber": "1", "addr:street": "Largo Palagi", "amenity": "hospital", "emergency": "no", "healthcare": "hospital", "name": "Unità spinale"}}, {"name": "ASL 10 Impruneta", "latitude": 43.6837309, "longitude": 11.2498186, "source": "osm", "_tags": {"amenity": "hospital", "healthcare": "hospital", "name": "ASL 10 Impruneta", "operator": "ASL", "operator:type": "public", "operator:wikidata": "Q3631467"}}, {"name": "Ospedale Ponte Nuovo", "latitude": 43.8130409, "longitude": 11.2488896, "source": "osm", "_tags": {"amenity": "hospital", "healthcare": "hospital", "name": "Ospedale Ponte Nuovo"}}, {"name": "Ospedale I Fraticini", "latitude": 43.8120682, "longitude": 11.2683414, "source": "osm", "_tags": {"amenity": "hospital", "name": "Ospedale I Fraticini"}}, {"name": "CUR 112 TOSCANA", "latitude": 43.7542183, "longitude": 11.271895, "source": "osm", "_tags": {"addr:city": "Firenze", "addr:housenumber": "41", "addr:street": "Viale Michelangiolo", "amenity": "hospital", "healthcare": "hospital", "name": "CUR 112 TOSCANA"}}, {"name": "Ospedale Camerata", "latitude": 43.7981184, "longitude": 11.2848043, "source": "osm", "_tags": {"amenity": "hospital", "name": "Ospedale Camerata", "phone": "+39 055 6938568"}}, {"name": "Ospedale Premilcuore", "latitude": 43.9787647, "longitude": 11.777626, "source": "osm", "_tags": {"amenity": "hospital", "healthcare": "hospital", "name": "Ospedale Premilcuore"}}, {"name": "Punto Primo Intervento", "latitude": 43.943188, "longitude": 11.9015662, "source": "osm", "_tags": {"amenity": "hospital", "healthcare": "hospital", "name": "Punto Primo Intervento"}}, {"name": "Centrale Operativa 118 Firenze-Prato", "latitude": 43.7545946, "longitude": 11.2714303, "source": "osm", "_tags": {"amenity": "hospital", "healthcare": "hospital", "name": "Centrale Operativa 118 Firenze-Prato"}}, {"name": "Misericordia Castelfranco Di Sopra", "latitude": 43.6232803, "longitude": 11.5546892, "source": "osm", "_tags": {"amenity": "hospital", "healthcare": "hospital", "name": "Misericordia Castelfranco Di Sopra"}}, {"name": "", "latitude": 43.9417521, "longitude": 11.0461605, "source": "osm", "_tags": {"amenity": "hospital", "healthcare": "rehabilitation"}}, {"name": "Azienda Ospedaliera Universitaria di Careggi", "latitude": 43.8085328, "longitude": 11.2468835, "source": "osm", "_tags": {"addr:city": "Firenze", "addr:housenumber": "3", "addr:postcode": "50134", "addr:street": "Largo Giovanni Alessandro Brambilla", "amenity": "hospital", "email": "aouc@aou-careggi.toscana.it", "emergency": "yes", "healthcare": "hospital", "name": "Azienda Ospedaliera Universitaria di Careggi", "phone": "+39 055 794111", "website": "https://www.aou-careggi.toscana.it/", "wikidata": "Q913126", "wikipedia": "it:Azienda ospedaliero-universitaria Careggi"}}, {"name": "CTO Centro Traumatologico Ortopedico", "latitude": 43.8011559, "longitude": 11.2484083, "source": "osm", "_tags": {"amenity": "hospital", "healthcare": "hospital", "name": "CTO Centro Traumatologico Ortopedico"}}, {"name": "Ecomedica", "latitude": 43.7178367, "longitude": 10.9613087, "source": "osm", "_tags": {"amenity": "hospital", "healthcare": "hospital", "name": "Ecomedica"}}, {"name": "Ospedale Santa Maria Annunziata", "latitude": 43.7313582, "longitude": 11.3060118, "source": "osm", "_tags": {"addr:city": "Bagno a Ripoli", "addr:hamlet": "Ponte a Niccheri", "addr:housenumber": "58", "addr:postcode": "50012", "addr:street": "Via dell'Antella", "alt_name": "Ospedale di Ponte a Niccheri", "amenity": "hospital", "check_date": "2025-05-05", "email": "direzionesanitaria.sma@uslcentro.toscana.it", "emergency": "yes", "healthcare": "hospital", "name": "Ospedale Santa Maria Annunziata", "operator": "Azienda USL Toscana Centro", "operator:type": "public", "phone": "+39 055 69361", "ref:vatin": "IT06593810481", "website": "https://www.uslcentro.toscana.it/index.php/ospedali/ospedale-santa-maria-annunziata"}}, {"name": "Nuovo Ospedale San Giovanni di Dio", "latitude": 43.758156, "longitude": 11.203697, "source": "osm", "_tags": {"addr:city": "Firenze", "addr:housenumber": "3", "addr:postcode": "50143", "addr:street": "Via di Torregalli", "amenity": "hospital", "check_date": "2025-05-05", "emergency": "yes", "healthcare": "hospital", "loc_name": "Ospedale Torregalli", "name": "Nuovo Ospedale San Giovanni di Dio", "operator": "Azienda USL Toscana Centro", "operator:type": "public", "phone": "+39 055 6932111", "ref:vatin": "IT06593810481", "website": "https://www.uslcentro.toscana.it/index.php/ospedali/ospedale-san-giovanni-di-dio", "wikidata": "Q3879862"}}, {"name": "Casa di Riposo \"San Giuseppe\"", "latitude": 43.6624118, "longitude": 11.1932274, "source": "osm", "_tags": {"amenity": "hospital", "healthcare": "hospital", "name": "Casa di Riposo \"San Giuseppe\""}}, {"name": "Misericordia di Impruneta", "latitude": 43.6843644, "longitude": 11.2559635, "source": "osm", "_tags": {"amenity": "hospital", "building": "yes", "healthcare": "hospital", "name": "Misericordia di Impruneta"}}, {"name": "Ospedale del Mugello", "latitude": 43.9585762, "longitude": 11.3746012, "source": "osm", "_tags": {"addr:city": "Borgo San Lorenzo", "addr:housenumber": "60", "addr:postcode": "50032", "addr:street": "Viale della Resistenza", "amenity": "hospital", "check_date": "2025-05-05", "email": "direzionesanitaria.mugello@uslcentro.toscana.it", "emergency": "yes", "healthcare": "hospital", "name": "Ospedale del Mugello", "operator": "Azienda USL Toscana Centro", "operator:type": "public", "operator:wikidata": "Q98852445", "phone": "+39 055 84511", "ref:vatin": "IT06593810481", "website": "https://www.uslcentro.toscana.it/index.php/ospedali/nuovo-ospedale-del-mugello0"}}, {"name": "Misericordia del Galluzzo", "latitude": 43.7365729, "longitude": 11.2239574, "source": "osm", "_tags": {"amenity": "hospital", "building": "yes", "healthcare": "hospital", "name": "Misericordia del Galluzzo"}}, {"name": "Terme di Firenze", "latitude": 43.6848388, "longitude": 11.2146336, "source": "osm", "_tags": {"amenity": "hospital", "building": "yes", "emergency": "no", "healthcare": "hospital", "name": "Terme di Firenze"}}, {"name": "Ospedale San Donato", "latitude": 43.4614837, "longitude": 11.8673894, "source": "osm", "_tags": {"addr:housenumber": "20", "addr:postcode": "52100", "addr:street": "Via Pietro Nenni", "amenity": "hospital", "contact:phone": "+39 0575 2551", "contact:website": "https://www.uslsudest.toscana.it/ospedali/arezzo-san-donato", "emergency": "yes", "healthcare": "hospital", "name": "Ospedale San Donato"}}, {"name": "Ospedale Serristori", "latitude": 43.6123985, "longitude": 11.4758123, "source": "osm", "_tags": {"addr:city": "Figline e Incisa Valdarno", "addr:housenumber": "10", "addr:postcode": "50063", "addr:street": "Piazza Venticinque Aprile", "amenity": "hospital", "check_date": "2025-05-05", "email": "direzionesanitaria.serristori@uslcentro.toscana.it", "emergency": "yes", "healthcare": "hospital", "name": "Ospedale Serristori", "operator": "Azienda USL Toscana Centro", "operator:type": "public", "phone": "+39 055 95081", "ref:vatin": "IT06593810481", "website": "https://www.uslcentro.toscana.it/index.php/ospedali/ospedale-serristori"}}, {"name": "", "latitude": 43.7703011, "longitude": 11.0996878, "source": "osm", "_tags": {"amenity": "hospital", "building": "yes", "healthcare": "hospital"}}, {"name": "", "latitude": 43.7703982, "longitude": 11.0992279, "source": "osm", "_tags": {"amenity": "hospital", "building": "yes", "healthcare": "hospital"}}, {"name": "Ospedale degli Infermi", "latitude": 44.2886301, "longitude": 11.8744307, "source": "osm", "_tags": {"amenity": "hospital", "emergency": "yes", "healthcare": "hospital", "name": "Ospedale degli Infermi", "wikidata": "Q30281235"}}, {"name": "San Pier Damiano Hospital", "latitude": 44.2863349, "longitude": 11.8665528, "source": "osm", "_tags": {"addr:city": "Faenza", "addr:housenumber": "1", "addr:postcode": "48018", "addr:street": "Via Portisano", "amenity": "hospital", "emergency": "no", "healthcare": "hospital", "healthcare:speciality": "general", "loc_name": "San Pier Damiani", "name": "San Pier Damiano Hospital", "operator": "Villa Maria Cecilia Group", "operator:type": "private", "phone": "+390546671111", "smoking": "outside", "source": "Regione Emilia Romagna;local knowledge", "website": "https://www.gvmnet.it/", "wheelchair": "yes"}}, {"name": "Ospedale Santo Stefano", "latitude": 43.890474, "longitude": 11.0639207, "source": "osm", "_tags": {"addr:city": "Prato", "addr:housenumber": "20/22", "addr:postcode": "59100", "addr:street": "Via Suor Niccolina Infermiera", "amenity": "hospital", "check_date": "2025-05-05", "emergency": "yes", "healthcare": "hospital", "name": "Ospedale Santo Stefano", "name:zh": "医院", "operator": "Azienda USL Toscana Centro", "operator:type": "public", "phone": "+39 0574 801111", "ref:vatin": "IT06593810481", "toilets:wheelchair": "yes", "website": "https://www.uslcentro.toscana.it/index.php/ospedali/ospedale-di-prato-santo-stefano", "wheelchair": "yes"}}, {"name": "Ospedale pediatrico Meyer", "latitude": 43.8101908, "longitude": 11.2527264, "source": "osm", "_tags": {"addr:housenumber": "24", "addr:postcode": "50139", "addr:street": "Viale Gaetano Pieraccini", "amenity": "hospital", "healthcare": "hospital", "healthcare:speciality": "paediatrics", "name": "Ospedale pediatrico Meyer", "wikidata": "Q3886622", "wikipedia": "it:Ospedale pediatrico Meyer"}}, {"name": "Casa della salute - Guardia Medica", "latitude": 44.1561696, "longitude": 11.7953237, "source": "osm", "_tags": {"amenity": "hospital", "building": "hospital", "healthcare": "hospital", "name": "Casa della salute - Guardia Medica", "source": "Regione Emilia Romagna"}}, {"name": "Ospedale Santa Verdiana", "latitude": 43.610496, "longitude": 10.9696199, "source": "osm", "_tags": {"amenity": "hospital", "name": "Ospedale Santa Verdiana"}}, {"name": "Ospedale di Imola \"Santa Maria della Scaletta\"", "latitude": 44.3581376, "longitude": 11.6889424, "source": "osm", "_tags": {"alt_name": "Ospedale Nuovo", "amenity": "hospital", "emergency": "yes", "healthcare": "hospital", "name": "Ospedale di Imola \"Santa Maria della Scaletta\"", "ref:corine_land_cover": "1214", "source": "http://dati.emilia-romagna.it/dato/item/11-11-uso-del-suolo-2008.html", "wheelchair": "yes", "wikidata": "Q111794963"}}, {"name": "USL Toscana Sud Est - Distretto Poggibonsi", "latitude": 43.4710156, "longitude": 11.1507682, "source": "osm", "_tags": {"addr:city": "Poggibonsi", "addr:housenumber": "30", "addr:postcode": "53036", "addr:street": "Via della Costituzione", "amenity": "hospital", "building": "hospital", "healthcare": "hospital", "name": "USL Toscana Sud Est - Distretto Poggibonsi", "operator": "ASL", "operator:wikidata": "Q3631467", "phone": "+39 0577 994000", "short_name": "Azienda USL Toscana Sud Est", "website": "https://www.uslsudest.toscana.it/sedi-territoriali/zona-alta-val-d-elsa"}}, {"name": "ASL", "latitude": 43.7641187, "longitude": 11.1828174, "source": "osm", "_tags": {"amenity": "hospital", "healthcare": "hospital", "name": "ASL", "operator": "ASL", "operator:wikidata": "Q3631467", "operator:wikipedia": "it:Azienda sanitaria locale"}}, {"name": "Istituto Don Gnocchi", "latitude": 43.7590955, "longitude": 11.2069041, "source": "osm", "_tags": {"amenity": "hospital", "healthcare": "hospital", "name": "Istituto Don Gnocchi"}}, {"name": "Croce Rossa", "latitude": 43.7643652, "longitude": 11.1816615, "source": "osm", "_tags": {"amenity": "hospital", "healthcare": "hospital", "name": "Croce Rossa"}}, {"name": "118 Bologna Soccorso", "latitude": 44.3434778, "longitude": 11.2694603, "source": "osm", "_tags": {"amenity": "hospital", "healthcare": "hospital", "name": "118 Bologna Soccorso"}}, {"name": "Ospedale Simiani di Loiano", "latitude": 44.2667868, "longitude": 11.3255226, "source": "osm", "_tags": {"amenity": "hospital", "emergency": "yes", "healthcare": "hospital", "name": "Ospedale Simiani di Loiano"}}, {"name": "Ospedale della Gruccia", "latitude": 43.5459151, "longitude": 11.5540491, "source": "osm", "_tags": {"amenity": "hospital", "healthcare": "hospital", "name": "Ospedale della Gruccia"}}, {"name": "Centro diurno handicap", "latitude": 43.8230577, "longitude": 11.4878893, "source": "osm", "_tags": {"amenity": "hospital", "healthcare": "hospital", "healthcare:speciality": "community", "name": "Centro diurno handicap", "operator": "ASL", "operator:type": "public", "operator:wikidata": "Q3631467"}}, {"name": "Ospedale vecchio - Polo Sanitario territoriale", "latitude": 44.3551488, "longitude": 11.7054034, "source": "osm", "_tags": {"addr:city": "Imola", "addr:housenumber": "8", "addr:postcode": "40026", "addr:street": "Viale Giovanni Amendola", "amenity": "hospital", "emergency": "no", "healthcare": "hospital", "name": "Ospedale vecchio - Polo Sanitario territoriale", "phone": "+39 0542 604111", "source": "http://www.comune.imola.bo.it/imoladove/ospeale-vecchio-polo-sanitario-territoriale", "website": "https://www.ausl.imola.bo.it/", "wikidata": "Q106083583"}}, {"name": "R.S.A. Villa San Martino", "latitude": 43.6641752, "longitude": 11.1720759, "source": "osm", "_tags": {"amenity": "social_facility", "emergency": "no", "healthcare": "hospital", "name": "R.S.A. Villa San Martino", "social_facility": "nursing_home", "social_facility:for": "senior"}}, {"name": "Ospedale di Castel San Pietro Terme", "latitude": 44.3992405, "longitude": 11.5934255, "source": "osm", "_tags": {"amenity": "hospital", "healthcare": "hospital", "name": "Ospedale di Castel San Pietro Terme"}}, {"name": "Casa della salute", "latitude": 44.3179668, "longitude": 11.8011025, "source": "osm", "_tags": {"addr:city": "Castel Bolognese", "addr:housenumber": "3", "addr:postcode": "48014", "addr:street": "Viale Roma", "amenity": "hospital", "check_date": "2025-02-02", "emergency": "no", "healthcare": "hospital", "name": "Casa della salute", "website": "https://www.auslromagna.it/luoghi/case-della-salute/casa-della-salute-castel-bolognese"}}, {"name": "Ospedale Umberto I", "latitude": 44.4162087, "longitude": 11.9194012, "source": "osm", "_tags": {"addr:city": "Lugo", "addr:housenumber": "10", "addr:postcode": "48022", "addr:street": "Viale Dante Alighieri", "amenity": "hospital", "emergency": "yes", "healthcare": "hospital", "name": "Ospedale Umberto I", "website": "https://www.policlinicoumberto1.it/"}}, {"name": "Casa di Cura \"Villa dei Pini\"", "latitude": 43.759203, "longitude": 11.2333586, "source": "osm", "_tags": {"amenity": "hospital", "emergency": "no", "name": "Casa di Cura \"Villa dei Pini\"", "website": "http://www.villadeipini.it/"}}, {"name": "Villa Donatello", "latitude": 43.8239648, "longitude": 11.2230958, "source": "osm", "_tags": {"addr:city": "Sesto Fiorentino", "addr:housenumber": "101", "addr:postcode": "50019", "addr:street": "Via Attilio Ragionieri", "amenity": "hospital", "check_date": "2025-04-18", "email": "info@villadonatello.it", "emergency": "no", "healthcare": "hospital", "internet_access": "wlan", "internet_access:fee": "customers", "name": "Villa Donatello", "opening_hours": "Mo-Fr 07:30-20:00; Sa 07:30-13:00; Su,PH off", "phone": "+39 055 50975", "ref:vatin": "IT03740811207", "website": "https://www.villadonatello.com/", "wheelchair": "yes"}}, {"name": "Ospedale di Santa Maria Nuova", "latitude": 43.7735784, "longitude": 11.260359, "source": "osm", "_tags": {"addr:city": "Firenze", "addr:housenumber": "1", "addr:postcode": "50121", "addr:street": "Piazza di Santa Maria Nuova", "amenity": "hospital", "check_date": "2025-05-05", "emergency": "yes", "healthcare": "hospital", "name": "Ospedale di Santa Maria Nuova", "operator": "Azienda USL Toscana Centro", "operator:type": "public", "operator:wikidata": "Q98852445", "phone": "+39 055 69381", "ref:vatin": "IT06593810481", "website": "https://www.uslcentro.toscana.it/index.php/ospedali/ospedale-santa-maria-nuova", "wikidata": "Q913148"}}, {"name": "Centro Chirurgico Toscano", "latitude": 43.4800899, "longitude": 11.8801376, "source": "osm", "_tags": {"addr:city": "Arezzo", "addr:housenumber": "22", "addr:postcode": "52100", "addr:street": "Via dei Lecci", "amenity": "hospital", "building": "yes", "email": "casadicura@cdcpoggiodelsole.it", "fax": "+39 0575 333699", "healthcare": "hospital", "name": "Centro Chirurgico Toscano", "phone": "+39 0575 3335"}}, {"name": "", "latitude": 43.5460008, "longitude": 11.5538724, "source": "osm", "_tags": {"amenity": "hospital", "building": "hospital", "healthcare": "hospital", "height": "6.84"}}, {"name": "", "latitude": 43.5459667, "longitude": 11.5548536, "source": "osm", "_tags": {"amenity": "hospital", "building": "hospital", "healthcare": "hospital", "height": "20.62"}}, {"name": "Istituto Privato di Riabilitazione Madre della Divina Provvidenza", "latitude": 43.4473709, "longitude": 11.8273522, "source": "osm", "_tags": {"amenity": "hospital", "building": "yes", "check_date": "2025-08-11", "emergency": "no", "height": "17.59", "name": "Istituto Privato di Riabilitazione Madre della Divina Provvidenza"}}, {"name": "", "latitude": 43.4625314, "longitude": 11.8893557, "source": "osm", "_tags": {"amenity": "hospital", "building": "hospital", "height": "1.81"}}, {"name": "Primo Soccorso e Farmacia", "latitude": 44.1694711, "longitude": 11.2157858, "source": "osm", "_tags": {"amenity": "hospital", "healthcare": "hospital", "name": "Primo Soccorso e Farmacia"}}, {"name": "Ospedale Piero Palagi", "latitude": 43.7551682, "longitude": 11.2721496, "source": "osm", "_tags": {"addr:city": "Firenze", "addr:housenumber": "41", "addr:postcode": "50122", "addr:street": "Via Michelangiolo", "amenity": "hospital", "check_date": "2025-05-05", "emergency": "yes", "healthcare": "hospital", "name": "Ospedale Piero Palagi", "operator": "Azienda USL Toscana Centro", "operator:type": "public", "phone": "+39 055 6931111", "ref:vatin": "IT06593810481", "website": "https://www.uslcentro.toscana.it/index.php/ospedali/ospedale-piero-palagi", "wikidata": "Q3803657", "wikipedia": "it:Ospedale Piero Palagi"}}, {"name": "Maria Teresa Hospital", "latitude": 43.7869185, "longitude": 11.2559978, "source": "osm", "_tags": {"addr:city": "Firenze", "addr:housenumber": "18", "addr:postcode": "50129", "addr:street": "Via della Cernaia", "amenity": "hospital", "beds": "41", "healthcare": "hospital", "healthcare:speciality": "angiology;cardiology;ophthalmology", "name": "Maria Teresa Hospital", "operator:type": "private"}}, {"name": "Meyer Health Campus", "latitude": 43.8083345, "longitude": 11.2553738, "source": "osm", "_tags": {"amenity": "hospital", "healthcare": "hospital", "name": "Meyer Health Campus", "social_facility": "nursing_home"}}, {"name": "Ospedale del Casentino", "latitude": 43.6995406, "longitude": 11.8208104, "source": "osm", "_tags": {"amenity": "hospital", "emergency": "yes", "healthcare": "hospital", "name": "Ospedale del Casentino", "operator": "Azienda Usl Toscana sud est", "operator:type": "public", "phone": "+39 0575 5681", "website": "https://www.uslsudest.toscana.it/ospedali/casentino-bibbiena"}}, {"name": "Ospedale Naldini Torrigiani", "latitude": 43.5571527, "longitude": 11.1706288, "source": "osm", "_tags": {"amenity": "hospital", "building": "hospital", "healthcare": "hospital", "name": "Ospedale Naldini Torrigiani"}}, {"name": "Casa di cura Villa Fiorita", "latitude": 43.906751, "longitude": 11.0970188, "source": "osm", "_tags": {"amenity": "hospital", "healthcare": "hospital", "name": "Casa di cura Villa Fiorita", "website": "https://www.villa-fiorita.it/"}}, {"name": "CRA Madonna del Cantone", "latitude": 44.1562256, "longitude": 11.7950675, "source": "osm", "_tags": {"amenity": "hospital", "healthcare": "hospital", "name": "CRA Madonna del Cantone"}}, {"name": "118 Romagna", "latitude": 44.1562135, "longitude": 11.7955204, "source": "osm", "_tags": {"amenity": "hospital", "healthcare": "hospital", "name": "118 Romagna"}}, {"name": "Ospedale \"Costa\" di Porretta Terme", "latitude": 44.1633182, "longitude": 10.9697452, "source": "osm", "_tags": {"amenity": "hospital", "healthcare": "hospital", "name": "Ospedale \"Costa\" di Porretta Terme"}}, {"name": "Presidio Sanitario \"Misericordia e Dolce\"", "latitude": 43.8794462, "longitude": 11.0911107, "source": "osm", "_tags": {"amenity": "hospital", "emergency": "no", "healthcare": "hospital", "name": "Presidio Sanitario \"Misericordia e Dolce\"", "operator": "Azienda USL Toscana Centro", "operator:type": "public", "website": "https://www.uslcentro.toscana.it/index.php/sedi-territoriali/846-sedi-territoriali-prato/zona-pratese/10711-prato-centro-presidio-misericordia-e-dolce", "wheelchair": "yes"}}, {"name": "CAU LUGO", "latitude": 44.4163659, "longitude": 11.9187188, "source": "osm", "_tags": {"amenity": "hospital", "healthcare": "hospital", "name": "CAU LUGO"}}, {"name": "", "latitude": 43.5868612, "longitude": 11.3171093, "source": "osm", "_tags": {"amenity": "hospital", "healthcare": "hospital"}}, {"name": "Casa di Riposo Quisisana", "latitude": 44.1576742, "longitude": 11.7898086, "source": "osm", "_tags": {"amenity": "hospital", "building": "hospital", "healthcare": "hospital", "name": "Casa di Riposo Quisisana", "source": "Regione Emilia Romagna", "type": "multipolygon"}}, {"name": "Valdisieve Hospital", "latitude": 43.7854364, "longitude": 11.4537304, "source": "osm", "_tags": {"addr:city": "Pelago", "addr:housenumber": "122", "addr:postcode": "50060", "addr:street": "Via Forlivese", "amenity": "hospital", "building": "yes", "healthcare": "hospital", "name": "Valdisieve Hospital", "type": "multipolygon"}}, {"name": "Ospedale dell'Alta Val d'Elsa", "latitude": 43.451075, "longitude": 11.1486202, "source": "osm", "_tags": {"addr:city": "Poggibonsi", "addr:postcode": "53036", "addr:street": "Località Campostaggia", "alt_name": "Ospedale Campostaggia", "amenity": "hospital", "emergency": "yes", "healthcare": "hospital", "long_name": "Ospedale dell'Alta Val d'Elsa di Poggibonsi", "name": "Ospedale dell'Alta Val d'Elsa", "opening_hours": "24/7", "operator": "USL Toscana Sud Est", "phone": "+39 0577 9941", "type": "multipolygon", "website": "https://www.uslsudest.toscana.it/ospedali/valdelsa-campostaggia"}}, {"name": "Centro Socio Sanitario \"Roberto Giovannini\"", "latitude": 43.877859, "longitude": 11.089095, "source": "osm", "_tags": {"amenity": "hospital", "healthcare": "hospital", "name": "Centro Socio Sanitario \"Roberto Giovannini\"", "type": "multipolygon"}}, {"name": "", "latitude": 43.8511477, "longitude": 11.2892342, "source": "osm", "_tags": {"amenity": "hospital", "type": "multipolygon"}}, {"name": "Montecatone Rehabilitation Institute", "latitude": 44.3477946, "longitude": 11.6327665, "source": "osm", "_tags": {"amenity": "hospital", "building": "hospital", "building:levels": "6", "building:levels:underground": "1", "contact:city": "Imola", "contact:housenumber": "37", "contact:postcode": "40026", "contact:street": "Via Montecatone", "email": "info@montecatone.com", "emergency": "no", "fax": "+39 0542 632805", "healthcare": "hospital", "healthcare:speciality": "physiatry;radiology;intensive;rehabilitation;spinal_cord_injury;rmn;tac", "name": "Montecatone Rehabilitation Institute", "phone": "+39 0542 632811", "roof:levels": "1", "type": "multipolygon", "website": "https://www.montecatone.com/", "wheelchair": "yes", "wikidata": "Q50035496"}}, {"name": "Villa Maria Cecilia Hospital", "latitude": 44.3968178, "longitude": 11.8957889, "source": "osm", "_tags": {"amenity": "hospital", "healthcare": "hospital", "name": "Villa Maria Cecilia Hospital", "official_name": "Maria Cecilia Hospital", "old_name": "Casa di cura Villa Maria", "operator": "GVM Care & Research", "operator:type": "private", "type": "multipolygon", "wikidata": "Q30281113"}}, {"name": "Poliambulatorio Morgagni (CUP)", "latitude": 43.7985826, "longitude": 11.2427006, "source": "osm", "_tags": {"addr:housenumber": "33", "addr:street": "Viale Giovan Battista Morgagni", "amenity": "hospital", "building": "yes", "check_date": "2024-07-03", "emergency": "no", "healthcare": "hospital", "name": "Poliambulatorio Morgagni (CUP)", "type": "multipolygon", "wheelchair": "limited"}}, {"name": "Villa Azzurra", "latitude": 44.2800255, "longitude": 11.7275993, "source": "osm", "_tags": {"amenity": "hospital", "healthcare": "hospital", "name": "Villa Azzurra", "type": "multipolygon"}}]