[{"name": "Ospedale Santo Spirito", "latitude": 44.772987, "longitude": 8.3550006, "source": "osm", "_tags": {"amenity": "hospital", "healthcare": "hospital", "name": "Ospedale Santo Spirito"}}, {"name": "", "latitude": 44.5307856, "longitude": 7.943788, "source": "osm", "_tags": {"amenity": "hospital", "healthcare": "hospital"}}, {"name": "Centro Diagnostico Fleming", "latitude": 45.399855, "longitude": 8.9185105, "source": "osm", "_tags": {"amenity": "hospital", "healthcare": "hospital", "name": "Centro Diagnostico Fleming"}}, {"name": "Clinica Santa Rita", "latitude": 45.3123737, "longitude": 8.4223064, "source": "osm", "_tags": {"addr:city": "Vercelli", "addr:housenumber": "14-16", "addr:postcode": "13100", "addr:street": "Viale dell'Aeronautica Francis Lombardi", "amenity": "hospital", "check_date": "2025-02-27", "contact:email": "direzione.generale@clinicasrita.legalmail.it", "contact:phone": "+39 0161 2221", "contact:website": "http://www.clinicasrita.it/", "healthcare": "hospital", "name": "Clinica Santa Rita", "wheelchair": "yes"}}, {"name": "Casa di cura Villa Igea", "latitude": 44.6811659, "longitude": 8.468272, "source": "osm", "_tags": {"amenity": "hospital", "fax": "+39 0144 310830", "name": "Casa di cura Villa Igea", "phone": "+39 0144 310801", "website": "http://www.villaigea.com/"}}, {"name": "Casa di cura \"La Residenza\"", "latitude": 44.6312271, "longitude": 8.059406, "source": "osm", "_tags": {"amenity": "hospital", "check_date": "2025-06-19", "emergency": "no", "name": "Casa di cura \"La Residenza\""}}, {"name": "Hospice Il Gelso", "latitude": 44.9152, "longitude": 8.6229988, "source": "osm", "_tags": {"addr:city": "Alessandria", "addr:housenumber": "41", "addr:postcode": "15121", "addr:street": "Via San Pio V", "amenity": "hospital", "beds": "16", "description": "L'Hospice è una casa che accoglie persone in fase avanzata di malattia che hanno bisogno di cure e sollievo dal dolore. E' un servizio rivolto anche ai familiari, per sostenerli e rispondere alle loro esigenze psicologiche, sociali e spirituali nel percor", "email": "vghelleri@aslal.it;mpalella@aslal.it;hospice@aslal.it", "emergency": "no", "fax": "+39 0131 252999", "healthcare": "hospice", "name": "Hospice Il Gelso", "note": "Presenza ascensore per disabili", "phone": "+39 0131 306721;+39 0131 261313", "source": "https://www.aslal.it/hospice-e-cure-palli", "toilets:wheelchair": "yes", "url": "https://www.fedcp.org/hospice/hospice-il-gelso", "website": "https://www.aslal.it/hospice-e-cure-palli", "wheelchair": "no"}}, {"name": "SALUS", "latitude": 44.9124632, "longitude": 8.6121506, "source": "osm", "_tags": {"addr:city": "Alessandria", "addr:housenumber": "21", "addr:postcode": "15121", "addr:street": "Via Trotti", "amenity": "hospital", "healthcare": "hospital", "name": "SALUS", "wheelchair": "yes"}}, {"name": "ASL 20", "latitude": 44.898434, "longitude": 8.5964236, "source": "osm", "_tags": {"addr:city": "Alessandria", "addr:housenumber": "18", "addr:postcode": "15121", "addr:street": "Via Michelangelo Buonarroti", "amenity": "hospital", "healthcare": "hospital", "name": "ASL 20", "operator": "ASL", "operator:wikidata": "Q3631467", "operator:wikipedia": "it:Azienda sanitaria locale", "wheelchair": "yes"}}, {"name": "Casa di riposo San Fortunato", "latitude": 45.0056537, "longitude": 8.9263908, "source": "osm", "_tags": {"amenity": "social_facility", "designation": "Casa di riposo", "emergency": "no", "healthcare": "hospital", "name": "Casa di riposo San Fortunato", "social_facility": "assisted_living", "social_facility:for": "senior"}}, {"name": "Studio Medico", "latitude": 45.0064527, "longitude": 8.9264038, "source": "osm", "_tags": {"amenity": "hospital", "designation": "Studio Medico", "emergency": "no", "healthcare": "hospital", "name": "Studio Medico"}}, {"name": "Azienda Sanitaria AL", "latitude": 44.7242659, "longitude": 8.856054, "source": "osm", "_tags": {"amenity": "hospital", "name": "Azienda Sanitaria AL"}}, {"name": "Residenza \"I Boschi\"", "latitude": 44.5999039, "longitude": 8.3565612, "source": "osm", "_tags": {"amenity": "hospital", "description": "Struttura per il recupero e la riabilitazione.", "emergency": "no", "healthcare": "hospital", "name": "Residenza \"I Boschi\""}}, {"name": "Palazzo della Salute - Villa De Mari - ASL 3", "latitude": 44.4281938, "longitude": 8.7711159, "source": "osm", "_tags": {"addr:city": "Genova", "addr:housenumber": "1b", "addr:street": "Via De Mari", "amenity": "clinic", "healthcare": "hospital", "name": "Palazzo della Salute - Villa De Mari - ASL 3"}}, {"name": "Punto di Primo Intervento", "latitude": 44.7730719, "longitude": 8.3548945, "source": "osm", "_tags": {"amenity": "hospital", "healthcare": "hospital", "name": "Punto di Primo Intervento"}}, {"name": "Pronto Soccorso Ospedale Civile Vigevano", "latitude": 45.3199258, "longitude": 8.8648978, "source": "osm", "_tags": {"addr:city": "Vigevano", "addr:postcode": "27029", "amenity": "hospital", "emergency": "yes", "emergency_ward_entrance": "all", "healthcare": "hospital", "name": "Pronto Soccorso Ospedale Civile Vigevano"}}, {"name": "Pronto Soccorso Istituto Clinico Beato Matteo", "latitude": 45.3074828, "longitude": 8.8707615, "source": "osm", "_tags": {"addr:city": "Vigevano", "addr:postcode": "27029", "emergency": "emergency_ward_entrance", "healthcare": "hospital", "name": "Pronto Soccorso Istituto Clinico Beato Matteo"}}, {"name": "Croce Rossa Sassello", "latitude": 44.4801102, "longitude": 8.4901006, "source": "osm", "_tags": {"addr:city": "Sassello", "addr:housenumber": "3", "addr:postcode": "17046", "addr:street": "Viale Guglielmo Marconi", "brand": "Croce Rossa Italiana", "brand:wikidata": "Q913903", "emergency": "ambulance_station", "healthcare": "hospital", "name": "Croce Rossa Sassello", "phone": "+39 019 720250"}}, {"name": "Croce Rossa Italiana - Comitato di Serra Riccò", "latitude": 44.5098269, "longitude": 8.9373131, "source": "osm", "_tags": {"addr:city": "Serra Riccò", "addr:housenumber": "5", "addr:postcode": "16010", "addr:street": "Piazza Santo Poggi", "alt_name": "Croce Rossa - Serra Ricco' -", "brand": "Croce Rossa Italiana", "brand:wikidata": "Q913903", "emergency": "ambulance_station", "healthcare": "hospital", "name": "Croce Rossa Italiana - Comitato di Serra Riccò", "phone": "+39 010 751930", "website": "https://www.criserraricco.it"}}, {"name": "Croce Bianca Dego", "latitude": 44.447979, "longitude": 8.312617, "source": "osm", "_tags": {"addr:city": "Dego", "addr:housenumber": "14", "addr:postcode": "17058", "addr:street": "Piazza Emilio Botta", "amenity": "hospital", "healthcare": "hospital", "name": "Croce Bianca Dego"}}, {"name": "Croce Rossa - Campo Ligure -", "latitude": 44.5401418, "longitude": 8.6965462, "source": "osm", "_tags": {"addr:city": "Campo Ligure", "addr:housenumber": "2", "addr:street": "Via Don Mario Badino", "brand": "Croce Rossa Italiana", "brand:wikidata": "Q913903", "emergency": "ambulance_station", "healthcare": "hospital", "name": "Croce Rossa - Campo Ligure -"}}, {"name": "AVIS", "latitude": 45.0917376, "longitude": 8.7310842, "source": "osm", "_tags": {"amenity": "hospital", "healthcare": "hospital", "name": "AVIS"}}, {"name": "Casa di Cura Mons. Luigi Novarese", "latitude": 45.3085647, "longitude": 7.9923194, "source": "osm", "_tags": {"amenity": "hospital", "emergency": "no", "healthcare": "yes", "name": "Casa di Cura Mons. Luigi Novarese"}}, {"name": "Croce Bianca Bolzaneto", "latitude": 44.4587371, "longitude": 8.9020062, "source": "osm", "_tags": {"addr:city": "Genova", "addr:housenumber": "3", "addr:postcode": "16162", "addr:street": "Passo Silvio Roncallo", "addr:unit": "n", "emergency": "ambulance_station", "healthcare": "hospital", "healthcare:speciality": "Servizio_di_Emergenza", "name": "Croce Bianca Bolzaneto"}}, {"name": "Ospedale Padre Antero Micone", "latitude": 44.4312203, "longitude": 8.8508635, "source": "osm", "_tags": {"alt_name": "Ospedale Padre Antero Maria Micone", "amenity": "hospital", "emergency": "yes", "healthcare": "hospital", "name": "Ospedale Padre Antero Micone", "ref": "ASL3 Genovese", "short_name": "Ospedale Micone"}}, {"name": "Ospedale Civile", "latitude": 44.6385335, "longitude": 8.6404168, "source": "osm", "_tags": {"addr:city": "Ovada", "addr:housenumber": "22", "addr:postcode": "15076", "addr:street": "Via Bernardo Ruffini", "amenity": "hospital", "emergency": "yes", "healthcare": "hospital", "name": "Ospedale Civile", "operator": "ASL AL", "phone": "+3901438261"}}, {"name": "Ospedale Monsignor Giovanni Galliano", "latitude": 44.6803584, "longitude": 8.4508743, "source": "osm", "_tags": {"addr:city": "Acqui Terme", "addr:housenumber": "1", "addr:street": "Via Fatebenefratelli", "alt_name": "Ospedale civile di Acqui Terme", "amenity": "hospital", "healthcare": "hospital", "name": "Ospedale Monsignor Giovanni Galliano"}}, {"name": "Clinica Sant'Anna", "latitude": 45.132273, "longitude": 8.4531854, "source": "osm", "_tags": {"amenity": "hospital", "building": "yes", "emergency": "no", "healthcare": "hospital", "name": "Clinica Sant'Anna"}}, {"name": "Ospedale \"Santo Spirito\"", "latitude": 45.12035, "longitude": 8.4465464, "source": "osm", "_tags": {"amenity": "hospital", "barrier": "wall", "check_date": "2024-11-20", "emergency": "yes", "healthcare": "hospital", "name": "Ospedale \"Santo Spirito\"", "wheelchair": "yes"}}, {"name": "Ospedale Andrea Gallino", "latitude": 44.4991303, "longitude": 8.8997972, "source": "osm", "_tags": {"amenity": "hospital", "emergency": "no", "healthcare": "hospital", "name": "Ospedale Andrea Gallino", "operator": "ASL 3 Genovese", "operator:type": "public", "phone": "+39 010 849 11", "source": "Regione Liguria", "website": "https://www.asl3.liguria.it/ospedali/gallino-pontedecimo.html"}}, {"name": "Ospedale Sant'Andrea", "latitude": 45.3170942, "longitude": 8.4138493, "source": "osm", "_tags": {"amenity": "hospital", "healthcare": "hospital", "name": "Ospedale Sant'Andrea", "name:etymology:wikidata": "Q43399", "wheelchair": "yes", "wikidata": "Q124472551"}}, {"name": "Ospedale Civile Santi Antonio e Biagio e Cesare Arrigo", "latitude": 44.9160959, "longitude": 8.6219463, "source": "osm", "_tags": {"amenity": "hospital", "check_date": "2024-04-23", "emergency": "yes", "healthcare": "hospital", "name": "Ospedale Civile Santi Antonio e Biagio e Cesare Arrigo", "website": "https://www.ospedale.al.it/", "wheelchair": "yes"}}, {"name": "Ospedale Infantile Cesare Arrigo", "latitude": 44.9161814, "longitude": 8.6259177, "source": "osm", "_tags": {"addr:city": "Alessandria", "addr:housenumber": "46", "addr:postcode": "15121", "addr:street": "Spalto Marengo", "amenity": "hospital", "emergency": "yes", "healthcare": "hospital", "name": "Ospedale Infantile Cesare Arrigo", "wheelchair": "yes", "wheelchair:description": "wc accessibile", "wikidata": "Q116779743"}}, {"name": "Ospedale Cardinal Massaia", "latitude": 44.9123027, "longitude": 8.1942913, "source": "osm", "_tags": {"alt_name": "Ospedale Cardinal Massaja", "amenity": "hospital", "building": "yes", "emergency": "yes", "healthcare": "hospital", "name": "Ospedale Cardinal Massaia", "phone": "+39 0141 481 111"}}, {"name": "ASL AL - Presidio di Valenza", "latitude": 45.0073761, "longitude": 8.6345762, "source": "osm", "_tags": {"amenity": "hospital", "building": "hospital", "healthcare": "hospital", "name": "ASL AL - Presidio di Valenza"}}, {"name": "Casa della Salute (ex Ospedale San Lazzaro)", "latitude": 44.6997249, "longitude": 8.030938, "source": "osm", "_tags": {"addr:city": "Alba", "addr:country": "IT", "addr:housenumber": "26", "addr:postcode": "12051", "addr:street": "Via Pierino Belli", "amenity": "hospital", "emergency": "yes", "healthcare": "hospital", "name": "Casa della Salute (ex Ospedale San Lazzaro)", "website": "https://www.qsalute.it/ospedale-san-lazzaro-di-alba", "wheelchair": "yes"}}, {"name": "Ospedale Civile di Vigevano", "latitude": 45.3203891, "longitude": 8.8660127, "source": "osm", "_tags": {"amenity": "hospital", "emergency": "yes", "healthcare": "hospital", "name": "Ospedale Civile di Vigevano"}}, {"name": "Ospedale Tortona", "latitude": 44.8933317, "longitude": 8.8639845, "source": "osm", "_tags": {"amenity": "hospital", "healthcare": "hospital", "name": "Ospedale Tortona"}}, {"name": "Croce Bianca Bolzaneto", "latitude": 44.4587469, "longitude": 8.9019982, "source": "osm", "_tags": {"addr:city": "Genova", "addr:housenumber": "3", "addr:postcode": "16162", "addr:street": "Passo Silvio Roncallo", "addr:unit": "n", "building": "yes", "check_date": "2025-01-01", "emergency": "ambulance_station", "healthcare": "hospital", "healthcare:speciality": "Servizio_di_Emergenza", "name": "Croce Bianca Bolzaneto", "source": "Regione Liguria"}}, {"name": "Ospedale Evangelico Internazionale", "latitude": 44.4301535, "longitude": 8.7457307, "source": "osm", "_tags": {"alt_name": "Ospedale San Carlo", "amenity": "hospital", "emergency": "yes", "healthcare": "hospital", "internet_access": "wlan", "internet_access:fee": "no", "name": "Ospedale Evangelico Internazionale", "ref": "ASL 3 Genovese", "wheelchair": "yes"}}, {"name": "Ospedale Costantino Cantù", "latitude": 45.3941714, "longitude": 8.912882, "source": "osm", "_tags": {"amenity": "hospital", "emergency": "yes", "healthcare": "hospital", "layer": "1", "name": "Ospedale Costantino Cantù", "source": "survey", "source:geometry": "bing", "wikidata": "Q112173502"}}, {"name": "Ospedale Asilo Vittoria", "latitude": 45.2502683, "longitude": 8.7569697, "source": "osm", "_tags": {"amenity": "hospital", "healthcare": "hospital", "name": "Ospedale Asilo Vittoria"}}, {"name": "Centro Riabilitativo Polifunzionale Teresio Borsalino", "latitude": 44.9398827, "longitude": 8.617734, "source": "osm", "_tags": {"addr:city": "Alessandria", "addr:housenumber": "3", "addr:postcode": "15121", "addr:street": "Piazzale Ravazzano", "amenity": "hospital", "healthcare": "hospital", "name": "Centro Riabilitativo Polifunzionale Teresio Borsalino", "operator": "Regione Piemonte", "phone": "+39 0131 206111"}}, {"name": "Presidio Riabilitativo \"Teresio Borsalino\"", "latitude": 44.9398827, "longitude": 8.617734, "source": "osm", "_tags": {"amenity": "hospital", "healthcare": "hospital", "name": "Presidio Riabilitativo \"Teresio Borsalino\"", "website": "https://www.ospedale.al.it/it/presidi/presidio-riabilitativo-teresio-borsalino"}}, {"name": "Centro Riabilitativo Polifunzionale Teresio Borsalino", "latitude": 44.9398827, "longitude": 8.617734, "source": "osm", "_tags": {"addr:city": "Alessandria", "addr:housenumber": "3", "addr:postcode": "15121", "addr:street": "Piazzale Ravazzoni", "amenity": "hospital", "healthcare": "hospital", "name": "Centro Riabilitativo Polifunzionale Teresio Borsalino", "old_name": "Sanatorio Vittorio Emanuele III", "operator": "Regione Piemonte", "phone": "+39 0131 206111", "website": "https://www.ospedale.al.it/"}}, {"name": "Istituto Clinico Beato Matteo", "latitude": 45.3071276, "longitude": 8.8701463, "source": "osm", "_tags": {"addr:housenumber": "84", "addr:street": "Corso Pavia", "amenity": "hospital", "building": "yes", "healthcare": "hospital", "name": "Istituto Clinico Beato Matteo"}}, {"name": "Ospedale San Giacomo", "latitude": 44.7580502, "longitude": 8.7927036, "source": "osm", "_tags": {"amenity": "hospital", "emergency": "yes", "name": "Ospedale San Giacomo", "website": "https://www.aslal.it/Sezione.jsp?idSezione=24"}}, {"name": "Casa di riposo  Villa San Fortunato", "latitude": 44.8373342, "longitude": 8.6216329, "source": "osm", "_tags": {"addr:city": "Casal Cermelli", "addr:housenumber": "73", "addr:street": "Via Gerbida", "amenity": "hospital", "healthcare": "hospital", "name": "Casa di riposo  Villa San Fortunato"}}, {"name": "Città di Alessandria Policlinico di Monza", "latitude": 44.9129664, "longitude": 8.6361954, "source": "osm", "_tags": {"addr:city": "Alessandria", "addr:housenumber": "30", "addr:postcode": "15121", "addr:street": "Via Vittorio Moccagatta", "amenity": "hospital", "emergency": "no", "healthcare": "hospital", "healthcare:speciality": "orthopaedics;cardiology;urology", "name": "Città di Alessandria Policlinico di Monza", "operator": "Policlinico di Monza", "phone": "+39 0131 314500", "website": "https://www.clinicacittadialessandria.it", "wheelchair": "yes"}}, {"name": "", "latitude": 44.56169, "longitude": 8.6707563, "source": "osm", "_tags": {"amenity": "hospital", "healthcare": "hospital"}}, {"name": "", "latitude": 45.1905641, "longitude": 8.9358622, "source": "osm", "_tags": {"amenity": "hospital", "healthcare": "hospital"}}, {"name": "", "latitude": 44.6862676, "longitude": 8.036848, "source": "osm", "_tags": {"amenity": "hospital", "healthcare": "hospital"}}, {"name": "Ospedale San Martino", "latitude": 45.0913834, "longitude": 8.7312523, "source": "osm", "_tags": {"amenity": "hospital", "name": "Ospedale San Martino", "type": "multipolygon"}}]