[{"name": "Bolnica za ortopediju i rehabilitaciju Martin Horvat Rovinj", "latitude": 45.098603, "longitude": 13.6337405, "source": "osm", "_tags": {"addr:housenumber": "2", "addr:street": "Ulica Luigija Montija", "amenity": "hospital", "emergency": "yes", "healthcare": "hospital", "healthcare:speciality": "physiatry", "name": "Bolnica za ortopediju i rehabilitaciju Martin Horvat Rovinj", "operator": "Specijalna bolnica Martin Horvat Rovinj-Rovigno", "operator:type": "public", "toilets:wheelchair": "yes", "website": "https://www.bolnica-rovinj.hr/", "wheelchair": "yes"}}, {"name": "", "latitude": 45.0807157, "longitude": 13.640682, "source": "osm", "_tags": {"amenity": "hospital", "emergency": "yes"}}, {"name": "Opća bolnica Pula", "latitude": 44.8665023, "longitude": 13.8565738, "source": "osm", "_tags": {"addr:housenumber": "24A", "addr:street": "Santoriova ulica", "amenity": "hospital", "contact:whatsapp": "+38599 376 6646", "email": "obpula@obpula.hr", "healthcare": "hospital", "name": "Opća bolnica Pula", "operator": "Opća bolnica Pula", "operator:type": "public", "website": "https://www.obpula.hr", "wikidata": "Q12638948", "wikipedia": "hr:Opća bolnica Pula"}}]