[{"name": "Opća bolnica dr. Mustafa Beganović Gračanica", "latitude": 44.6984606, "longitude": 18.3031349, "source": "osm", "_tags": {"addr:city": "Gračanica", "addr:country": "BA", "addr:housenumber": "50", "addr:postcode": "75320", "addr:street": "Mehmeda Ahmedbegovića", "amenity": "hospital", "contact:email": "kontakt@bolnica-gracanica.com", "contact:phone": "+387 35 702032", "contact:website": "http://www.obgr.net", "emergency": "yes", "image": "http://bkc-gracanica.ba/wp-content/uploads/2015/07/onama2.jpg", "name": "Opća bolnica dr. Mustafa Beganović Gračanica"}}, {"name": "Medical Institute Bayer", "latitude": 44.5278807, "longitude": 18.7066893, "source": "osm", "_tags": {"addr:city": "Tuzla", "addr:country": "BA", "addr:housenumber": "8", "addr:postcode": "75000", "addr:street": "Alekse Šantića", "amenity": "hospital", "contact:email": "info@mib.institute", "contact:phone": "+387 35 309100", "contact:website": "https://mib.institute/", "emergency": "yes", "healthcare": "hospital", "healthcare:speciality": "cardiology;orthodontics;radiology;plastic_surgery;abortion;gastroenterology;blood_check;gynaecology;urology;cardiothoracic_surgery;pulmonology", "name": "Medical Institute Bayer", "name:en": "Medical institute Bayer", "opening_hours": "Mo-Fr 07:00-18:00"}}, {"name": "Zdravstvena stanica Bijela", "latitude": 44.7883997, "longitude": 18.5620424, "source": "osm", "_tags": {"addr:city": "Bijela", "amenity": "hospital", "healthcare": "hospital", "name": "Zdravstvena stanica Bijela", "operator": "JZU „Zdravstveni centar Brčko“", "operator:type": "public"}}, {"name": "Ortofizik", "latitude": 44.8740337, "longitude": 18.8167409, "source": "osm", "_tags": {"addr:city": "Brčko", "addr:housenumber": "13", "addr:postcode": "76100", "addr:street": "Alekse Šantića", "amenity": "hospital", "email": "ortofizik@gmail.com", "healthcare": "hospital", "healthcare:speciality": "orthopaedics;osteopathy;physiotherapy;clinic", "name": "Ortofizik"}}, {"name": "UKC Tuzla - Poliklinika za transfuziologiju", "latitude": 44.5391064, "longitude": 18.6919631, "source": "osm", "_tags": {"addr:postcode": "75000", "addr:street": "Prof. dr. Ibre Pašića", "amenity": "hospital", "healthcare": "hospital", "name": "UKC Tuzla - Poliklinika za transfuziologiju", "opening_hours": "24/7", "phone": "+38735303523", "website": "https://www.ukctuzla.ba/ukctuzla/?lang=bs"}}, {"name": "Ambulanta Ševralije", "latitude": 44.6738513, "longitude": 18.0870988, "source": "osm", "_tags": {"amenity": "hospital", "healthcare": "hospital", "name": "Ambulanta Ševralije"}}, {"name": "Opća županijska bolnica Vinkovci", "latitude": 45.2926541, "longitude": 18.8190231, "source": "osm", "_tags": {"addr:housenumber": "57", "addr:street": "Zvonarska ulica", "amenity": "hospital", "healthcare": "hospital", "healthcare:speciality": "surgery;internal;orthopaedics;paediatrics;gynaecology;anaesthetics;psychiatry;neurology;clinical_pathology;diagnostic_radiology;physiatry;biochemistry;urology;emergency;ophthalmology;otolaryngology;infectious_diseases", "name": "Opća županijska bolnica Vinkovci", "operator": "Opća županijska bolnica Vinkovci", "operator:type": "public", "toilets:wheelchair": "yes", "website": "http://www.obvk.hr", "wheelchair": "yes"}}, {"name": "Zdravstveni Centar Brčko", "latitude": 44.8775713, "longitude": 18.7956792, "source": "osm", "_tags": {"addr:city": "Brčko", "addr:country": "BA", "addr:housenumber": "1", "addr:postcode": "76100", "addr:street": "Reisa Džemaludina Čauševića", "amenity": "hospital", "contact:email": "brcko.bolnica@gmail.com", "contact:fax": "+387 49 216050", "contact:phone": "+387 49 217422", "contact:website": "http://jzubrcko.com", "healthcare": "hospital", "name": "Zdravstveni Centar Brčko"}}, {"name": "Dom zdravlja Brod", "latitude": 45.1435666, "longitude": 17.9899784, "source": "osm", "_tags": {"addr:city": "Brod", "addr:housenumber": "62", "addr:postcode": "74450", "addr:street": "Svetog Save", "amenity": "hospital", "emergency": "yes", "healthcare": "hospital", "name": "Dom zdravlja Brod"}}, {"name": "Opća bolnica Dr. Josip Benčević Slavonski Brod", "latitude": 45.1554294, "longitude": 18.0255409, "source": "osm", "_tags": {"addr:city": "Slavonski Brod", "addr:country": "HR", "addr:housenumber": "42", "addr:postcode": "35000", "addr:street": "Ulica dr. Andrije Štampara", "alt_name": "Opća bolnica Slavonski Brod", "amenity": "hospital", "emergency": "yes", "healthcare": "hospital", "name": "Opća bolnica Dr. Josip Benčević Slavonski Brod", "operator": "Opća bolnica Dr. Josip Benčević Slavonski Brod", "operator:type": "public", "source": "bing", "website": "https://www.bolnicasb.hr/", "wheelchair": "yes"}}, {"name": "Opća bolnica Tešanj", "latitude": 44.6094273, "longitude": 17.9887128, "source": "osm", "_tags": {"addr:city": "Tešanj", "addr:country": "BA", "addr:housenumber": "17", "addr:postcode": "74260", "addr:street": "Braće Pobrić", "amenity": "hospital", "contact:email": "bolnicatesanj@bih.net.ba", "contact:phone": "+387 32 650187", "contact:website": "http://bolnicatesanj.ba", "healthcare": "hospital", "name": "Opća bolnica Tešanj", "wheelchair": "limited"}}, {"name": "Županijska bolnica Orašje", "latitude": 45.0379211, "longitude": 18.6890585, "source": "osm", "_tags": {"addr:city": "Orašje", "addr:postcode": "76270", "addr:street": "2. ulica", "amenity": "hospital", "building": "hospital", "emergency": "yes", "healthcare": "hospital", "name": "Županijska bolnica Orašje", "wheelchair": "yes"}}, {"name": "", "latitude": 44.9594151, "longitude": 18.3015047, "source": "osm", "_tags": {"amenity": "hospital"}}, {"name": "Dom zdravlja \"Ozren\" Petrovo", "latitude": 44.6338662, "longitude": 18.3615474, "source": "osm", "_tags": {"amenity": "hospital", "healthcare": "hospital", "name": "Dom zdravlja \"Ozren\" Petrovo"}}, {"name": "Bolnica \"Sveti apostol Luka\"", "latitude": 44.7164139, "longitude": 18.0861121, "source": "osm", "_tags": {"alt_name": "Nova bolnica Doboj", "amenity": "hospital", "emergency": "yes", "healthcare": "hospital", "name": "Bolnica \"Sveti apostol Luka\"", "name:sr": "Болница \"Свети апостол Лука\"", "operator": "JZU Bolnica \"Sveti apostol Luka\" Doboj", "operator:type": "public", "website": "https://www.bolnicadoboj.com/"}}, {"name": "", "latitude": 44.7334197, "longitude": 18.0865772, "source": "osm", "_tags": {"amenity": "hospital", "healthcare": "hospital"}}, {"name": "Dom zdravlja", "latitude": 44.4233766, "longitude": 18.0347193, "source": "osm", "_tags": {"addr:city": "Žepče", "addr:housenumber": "53", "addr:postcode": "72230", "addr:street": "Prva", "amenity": "hospital", "healthcare": "hospital", "name": "Dom zdravlja", "name:hr": "Dom zdravlja"}}, {"name": "", "latitude": 44.4251082, "longitude": 18.0315588, "source": "osm", "_tags": {"amenity": "hospital", "healthcare": "hospital"}}, {"name": "", "latitude": 44.7699956, "longitude": 18.6590386, "source": "osm", "_tags": {"amenity": "hospital", "healthcare": "hospital"}}, {"name": "", "latitude": 44.4392425, "longitude": 18.147898, "source": "osm", "_tags": {"amenity": "hospital", "healthcare": "hospital"}}, {"name": "", "latitude": 45.0595639, "longitude": 18.4661697, "source": "osm", "_tags": {"amenity": "hospital", "healthcare": "hospital"}}, {"name": "", "latitude": 45.055364, "longitude": 18.4611634, "source": "osm", "_tags": {"amenity": "hospital", "healthcare": "hospital"}}, {"name": "", "latitude": 44.8622592, "longitude": 18.7934415, "source": "osm", "_tags": {"amenity": "hospital", "healthcare": "hospital"}}, {"name": "", "latitude": 45.0738231, "longitude": 18.7007799, "source": "osm", "_tags": {"addr:city": "Županja", "addr:housenumber": "32", "addr:postcode": "32270", "addr:street": "Ulica dr. Franje Račkog", "building": "yes", "healthcare": "hospital"}}, {"name": "Ambulanta Pelagićevo", "latitude": 44.9050461, "longitude": 18.6118231, "source": "osm", "_tags": {"amenity": "hospital", "healthcare": "hospital", "name": "Ambulanta Pelagićevo"}}, {"name": "Dom zdravlja \"Dr Mustafa Šehović\" Tuzla", "latitude": 44.5405606, "longitude": 18.6669617, "source": "osm", "_tags": {"addr:city": "Tuzla", "addr:country": "BA", "addr:housenumber": "1", "addr:postcode": "75000", "addr:street": "Albina i Franje Herljevića", "amenity": "hospital", "contact:email": "dztuzla@gmail.com", "contact:fax": "+387 35 310740", "contact:phone": "+387 35 368 411", "contact:website": "https://dztuzla.ba", "emergency": "yes", "healthcare": "hospital", "name": "Dom zdravlja \"Dr Mustafa Šehović\" Tuzla", "type": "multipolygon"}}, {"name": "Univerzitetski Klinički Centar Tuzla", "latitude": 44.537385, "longitude": 18.692456, "source": "osm", "_tags": {"addr:city": "Tuzla", "addr:housenumber": "bb", "addr:postcode": "75000", "addr:street": "Trnovac", "amenity": "hospital", "healthcare": "hospital", "loc_name": "Gradina", "name": "Univerzitetski Klinički Centar Tuzla", "name:bs": "Univerzitetski klinički Centar Tuzla", "name:hr": "Sveučilišni klinički Centar", "name:sr": "Универзитетски клинички центар Тузла", "phone": "+387 35 303500", "type": "multipolygon", "website": "https://www.ukctuzla.ba/"}}]