[{"name": "Dispensar", "latitude": 45.1673009, "longitude": 25.5372392, "source": "osm", "_tags": {"amenity": "hospital", "ele": "587.0", "name": "Dispensar"}}, {"name": "Spitalul Județean ortopedie", "latitude": 44.923597, "longitude": 25.4507427, "source": "osm", "_tags": {"amenity": "hospital", "healthcare": "hospital", "name": "Spitalul Județean ortopedie"}}, {"name": "Cabinete medicale individuale", "latitude": 44.7218367, "longitude": 25.318619, "source": "osm", "_tags": {"amenity": "hospital", "name": "Cabinete medicale individuale"}}, {"name": "Biomedica", "latitude": 44.9163076, "longitude": 25.4717221, "source": "osm", "_tags": {"amenity": "hospital", "name": "Biomedica", "opening_hours": "Mo-Fr 07:30-21:30; Sa 08:00-14:00", "phone": "+40245634614", "website": "https://www.centrulmedicalbiomedica.ro/"}}, {"name": "Spitalul Pneumoftiziologie Câmpulung TBC", "latitude": 45.2777752, "longitude": 25.047536, "source": "osm", "_tags": {"amenity": "hospital", "name": "Spitalul Pneumoftiziologie Câmpulung TBC"}}, {"name": "Spitalul Orășenesc Bolintin-Deal", "latitude": 44.4538206, "longitude": 25.821681, "source": "osm", "_tags": {"amenity": "hospital", "name": "Spitalul Orășenesc Bolintin-Deal"}}, {"name": "dispensar", "latitude": 44.7923944, "longitude": 25.802845, "source": "osm", "_tags": {"amenity": "hospital", "name": "dispensar"}}, {"name": "farmacie", "latitude": 44.789686, "longitude": 25.7933417, "source": "osm", "_tags": {"amenity": "hospital", "name": "farmacie"}}, {"name": "Spitalul orășenesc Pucioasa", "latitude": 45.0752205, "longitude": 25.4353353, "source": "osm", "_tags": {"amenity": "hospital", "name": "Spitalul orășenesc Pucioasa"}}, {"name": "Recuperare Medicală Dr. Mehedinți", "latitude": 45.1211365, "longitude": 25.7429525, "source": "osm", "_tags": {"amenity": "hospital", "emergency": "no", "name": "Recuperare Medicală Dr. Mehedinți", "source": "field survey"}}, {"name": "Spitalul SanConfind Câmpina", "latitude": 45.1288142, "longitude": 25.7110303, "source": "osm", "_tags": {"amenity": "hospital", "emergency": "no", "name": "Spitalul SanConfind Câmpina", "website": "https://www.sanconfind.ro/"}}, {"name": "Spitalul de Pneumoftiziologie Izvoru", "latitude": 44.5122921, "longitude": 25.5370402, "source": "osm", "_tags": {"addr:housenumber": "66", "addr:street": "Strada Principală", "amenity": "hospital", "name": "Spitalul de Pneumoftiziologie Izvoru", "website": "https://www.spital-izvoru.ro/"}}, {"name": "Fundația Eden Breaza", "latitude": 45.17769, "longitude": 25.6620393, "source": "osm", "_tags": {"addr:city": "Breaza", "addr:housename": "5", "addr:postcode": "105400", "addr:street": "Strada Caraiman", "amenity": "hospital", "emergency": "no", "name": "Fundația Eden Breaza", "source": "Field Survey 1.06.2015"}}, {"name": "Secția de Recuperare Medicală Fizică și Balneologie Bușteni", "latitude": 45.4015359, "longitude": 25.5404197, "source": "osm", "_tags": {"addr:city": "Bușteni", "addr:housenumber": "68", "addr:postcode": "105550", "addr:street": "Strada Panduri", "amenity": "hospital", "emergency": "yes", "healthcare": "hospital", "name": "Secția de Recuperare Medicală Fizică și Balneologie Bușteni", "operator": "Spitalul de Urgentă Profesor Doctor Dimitrie Gerota - București", "source": "field survey 14.06.2015"}}, {"name": "Primăria Valea Doftanei;Centrul Medical Teșila", "latitude": 45.3035709, "longitude": 25.7221605, "source": "osm", "_tags": {"addr:city": "Teșila", "addr:housenumber": "156", "addr:postcode": "107645", "addr:street": "Calea Doftanei", "amenity": "townhall;hospital", "healthcare": "hospital", "healthcare:speciality": "general", "name": "Primăria Valea Doftanei;Centrul Medical Teșila", "townhall:type": "municipality", "website": "https://www.primariavaleadoftanei.ro/"}}, {"name": "SanConfind Cabinet Pediatrie - Neonatologie", "latitude": 45.1220717, "longitude": 25.7365703, "source": "osm", "_tags": {"amenity": "hospital", "emergency": "no", "healthcare": "hospital", "name": "SanConfind Cabinet Pediatrie - Neonatologie", "survey:date": "2016-07-19"}}, {"name": "Spitalul de boli cronice Călinești", "latitude": 44.8292802, "longitude": 25.0443737, "source": "osm", "_tags": {"amenity": "hospital", "healthcare": "hospital", "name": "Spitalul de boli cronice Călinești"}}, {"name": "Mediurg", "latitude": 45.1200317, "longitude": 25.7386756, "source": "osm", "_tags": {"addr:city": "Câmpina", "addr:housenumber": "3A", "addr:postcode": "105600", "addr:street": "Bulevardul Carol I", "amenity": "hospital", "emergency": "no", "name": "Mediurg"}}, {"name": "Spitalul Județean Dâmbovița", "latitude": 44.9229072, "longitude": 25.450142, "source": "osm", "_tags": {"amenity": "hospital", "healthcare": "hospital", "is_in:city": "Târgoviște", "name": "Spitalul Județean Dâmbovița"}}, {"name": "Policlinica Târgoviște", "latitude": 44.9219203, "longitude": 25.45101, "source": "osm", "_tags": {"amenity": "hospital", "building": "yes", "healthcare": "hospital", "name": "Policlinica Târgoviște"}}, {"name": "Spitalul Municipal Târgoviște", "latitude": 44.9193267, "longitude": 25.4574517, "source": "osm", "_tags": {"addr:city": "Târgoviște", "addr:street": "Bulevardul Ion C. Brătianu", "amenity": "hospital", "healthcare": "hospital", "is_in:city": "Târgoviște", "name": "Spitalul Municipal Târgoviște"}}, {"name": "UPU", "latitude": 44.9223354, "longitude": 25.451228, "source": "osm", "_tags": {"addr:city": "Târgoviște", "addr:housenumber": "4", "amenity": "hospital", "building": "yes", "emergency": "yes", "healthcare": "hospital", "name": "UPU"}}, {"name": "", "latitude": 44.9236087, "longitude": 25.4506793, "source": "osm", "_tags": {"amenity": "hospital", "building": "yes", "healthcare": "hospital"}}, {"name": "Recuperari", "latitude": 44.9239761, "longitude": 25.4502796, "source": "osm", "_tags": {"amenity": "hospital", "building": "yes", "healthcare": "hospital", "name": "Recuperari"}}, {"name": "Institutiu de Patologie", "latitude": 44.9233154, "longitude": 25.449306, "source": "osm", "_tags": {"amenity": "hospital", "healthcare": "hospital", "name": "Institutiu de Patologie"}}, {"name": "Directia", "latitude": 44.923271, "longitude": 25.4501984, "source": "osm", "_tags": {"amenity": "hospital", "building": "yes", "healthcare": "hospital", "name": "Directia"}}, {"name": "Centrala Termica", "latitude": 44.9223913, "longitude": 25.4500795, "source": "osm", "_tags": {"amenity": "hospital", "building": "yes", "healthcare": "hospital", "name": "Centrala Termica"}}, {"name": "Spitalul Municipal", "latitude": 44.9193697, "longitude": 25.4576078, "source": "osm", "_tags": {"amenity": "hospital", "building": "yes", "healthcare": "hospital", "name": "Spitalul Municipal", "operator": "Health Ministery", "operator:type": "public"}}, {"name": "Centrul de Transfuzie Sanguină", "latitude": 44.9189063, "longitude": 25.4570408, "source": "osm", "_tags": {"amenity": "hospital", "building": "yes", "healthcare": "hospital", "name": "Centrul de Transfuzie Sanguină", "operator": "Health Ministery", "operator:type": "public", "phone": "+40245210913"}}, {"name": "", "latitude": 45.0837371, "longitude": 25.9229526, "source": "osm", "_tags": {"amenity": "hospital"}}, {"name": "Spitalul Boli Pulmonare ", "latitude": 45.1791291, "longitude": 25.6771372, "source": "osm", "_tags": {"amenity": "hospital", "emergency": "no", "name": "Spitalul Boli Pulmonare "}}, {"name": "Spitalul de Urgență", "latitude": 44.9611985, "longitude": 24.9445894, "source": "osm", "_tags": {"addr:housenumber": "99", "amenity": "hospital", "building": "yes", "healthcare": "hospital", "name": "Spitalul de Urgență", "name:en": "Hospital", "name:ro": "Spitalul de Urgență"}}, {"name": "Sanatoriul Moroeni", "latitude": 45.2557564, "longitude": 25.4316093, "source": "osm", "_tags": {"amenity": "hospital", "building": "yes", "healthcare": "hospital", "name": "Sanatoriul Moroeni"}}, {"name": "Spitalul orășenesc Sinaia", "latitude": 45.3334286, "longitude": 25.5547466, "source": "osm", "_tags": {"amenity": "hospital", "building": "yes", "healthcare": "hospital", "name": "Spitalul orășenesc Sinaia", "source": "knowledge"}}, {"name": "Centrul de dializa Fresenius NephrocareCampulung-Muscel", "latitude": 45.2731381, "longitude": 25.0525138, "source": "osm", "_tags": {"addr:housenumber": "16", "addr:street": "Strada Erou Costel Constantinescu", "amenity": "hospital", "description": "http://www.nephrocare.ro/centre-de-dializa.html Tel.:+40 348 730 162", "name": "Centrul de dializa Fresenius NephrocareCampulung-Muscel", "operator": "Fresenius Nephrocare Romania SRL", "phone": "+40 348 730 162", "website": "https://www.nephrocare.ro/centre-de-dializa.html"}}, {"name": "Spitalul Municipal Moreni", "latitude": 44.9776555, "longitude": 25.6466609, "source": "osm", "_tags": {"amenity": "hospital", "building": "yes", "email": "spitalul_municipal_moreni@yahoo.com", "emergency": "yes", "healthcare": "hospital", "healthcare:speciality": "psychiatry;ophthalmology;diabetology;surgery;cardiology;urology;dermatology;internal;gynaecology;physiatry", "name": "Spitalul Municipal Moreni", "website": "https://www.spitalmoreni.ro"}}, {"name": "Policlinica 1", "latitude": 44.9269228, "longitude": 25.4565523, "source": "osm", "_tags": {"amenity": "hospital", "building": "yes", "name": "Policlinica 1"}}, {"name": "Spitalul Orășenesc Găești", "latitude": 44.7144313, "longitude": 25.3384493, "source": "osm", "_tags": {"amenity": "hospital", "healthcare": "hospital", "name": "Spitalul Orășenesc Găești", "website": "https://www.spitalgaesti.ro/"}}, {"name": "Spitalul Orășenesc Băicoi", "latitude": 45.0293734, "longitude": 25.8373678, "source": "osm", "_tags": {"addr:city": "Băicoi", "addr:housenumber": "7", "addr:street": "Strada Spitalului", "amenity": "hospital", "healthcare": "hospital", "hospital_type": "spital orasenesc", "name": "Spitalul Orășenesc Băicoi", "name:ro": "Spitalul Orășenesc Băicoi", "reviewed": "no", "website": "https://www.spitalulorasenescbaicoi.ro/"}}, {"name": "Secția Sanatorială Voila", "latitude": 45.1586753, "longitude": 25.7488495, "source": "osm", "_tags": {"addr:city": "Câmpina", "addr:housenumber": "114", "addr:postcode": "105600", "addr:street": "Strada Voila", "amenity": "hospital", "barrier": "fence", "healthcare": "hospital", "healthcare:speciality": "psychiatry", "name": "Secția Sanatorială Voila"}}, {"name": "Spitalul de Psihiatrie Voila", "latitude": 45.15902, "longitude": 25.7510404, "source": "osm", "_tags": {"addr:city": "Câmpina", "addr:housenumber": "114", "addr:street": "Strada Voila", "amenity": "hospital", "barrier": "fence", "emergency": "yes", "healthcare": "hospital", "healthcare:speciality": "psychiatry", "name": "Spitalul de Psihiatrie Voila", "website": "https://www.spitalulvoila.ro"}}, {"name": "Spitalul de Obstetrică Ginecologie Buftea", "latitude": 44.5764212, "longitude": 25.9383435, "source": "osm", "_tags": {"addr:city": "Buftea", "addr:housenumber": "5", "addr:postcode": "070000", "addr:street": "Strada Studioului", "amenity": "hospital", "barrier": "fence", "emergency": "yes", "fence_type": "wall", "healthcare": "hospital", "healthcare:speciality": "gynaecology;maternity", "name": "Spitalul de Obstetrică Ginecologie Buftea"}}, {"name": "Policlinica Moreni", "latitude": 44.9801716, "longitude": 25.6466825, "source": "osm", "_tags": {"addr:street": "Bulevardul 22 Decembrie 1989", "amenity": "hospital", "building": "yes", "healthcare": "hospital", "name": "Policlinica Moreni"}}, {"name": "Spitalul Municipal Câmpulung Muscel", "latitude": 45.2663576, "longitude": 25.0375929, "source": "osm", "_tags": {"addr:housenumber": "8", "addr:street": "Strada Doctor Costea", "amenity": "hospital", "barrier": "fence", "healthcare": "hospital", "name": "Spitalul Municipal Câmpulung Muscel", "operator": "Primăria Municipiului Câmpulung", "website": "http://www.smcampulung.ro/"}}, {"name": "Cardiologie", "latitude": 44.9229429, "longitude": 25.4497549, "source": "osm", "_tags": {"amenity": "hospital", "building": "yes", "healthcare": "hospital", "name": "Cardiologie"}}, {"name": "Paliatia", "latitude": 44.922866, "longitude": 25.4500014, "source": "osm", "_tags": {"amenity": "hospital", "building": "yes", "healthcare": "hospital", "name": "Paliatia"}}, {"name": "Punct Control", "latitude": 44.923237, "longitude": 25.4511111, "source": "osm", "_tags": {"amenity": "hospital", "healthcare": "hospital", "name": "Punct Control"}}, {"name": "informatica", "latitude": 44.9227885, "longitude": 25.4491806, "source": "osm", "_tags": {"amenity": "hospital", "building": "yes", "healthcare": "hospital", "name": "informatica"}}, {"name": "technic", "latitude": 44.9227028, "longitude": 25.4487278, "source": "osm", "_tags": {"amenity": "hospital", "healthcare": "hospital", "name": "technic"}}, {"name": "Spalatorie", "latitude": 44.9230362, "longitude": 25.4496885, "source": "osm", "_tags": {"amenity": "hospital", "building": "yes", "healthcare": "hospital", "name": "Spalatorie"}}, {"name": "Siptalul Mioveni", "latitude": 44.9684815, "longitude": 24.9613438, "source": "osm", "_tags": {"amenity": "hospital", "emergency": "yes", "healthcare": "hospital", "name": "Siptalul Mioveni", "name:en": "Mioveni City Hospital", "website": "https://spitalmioveni.ro/"}}, {"name": "Spitalul Pneumoftiziologie Leordeni", "latitude": 44.7940752, "longitude": 25.1155179, "source": "osm", "_tags": {"amenity": "hospital", "name": "Spitalul Pneumoftiziologie Leordeni"}}, {"name": "Spitalul Județean de Urgență Târgoviște - Secțiile Psihiatrie Cronici I - VI", "latitude": 44.9577922, "longitude": 25.5520634, "source": "osm", "_tags": {"amenity": "hospital", "healthcare": "hospital", "name": "Spitalul Județean de Urgență Târgoviște - Secțiile Psihiatrie Cronici I - VI"}}, {"name": "Centru de recuperare și reabilitare neuro-psihiatrică", "latitude": 45.017522, "longitude": 25.7801149, "source": "osm", "_tags": {"amenity": "hospital", "healthcare": "hospital", "healthcare:speciality": "psychiatry", "name": "Centru de recuperare și reabilitare neuro-psihiatrică"}}, {"name": "Sectia recuperari", "latitude": 44.92393, "longitude": 25.4498838, "source": "osm", "_tags": {"addr:city": "Târgoviște", "addr:street": "Bulevardul Tudor Vladimirescu", "amenity": "hospital", "healthcare": "hospital", "healthcare:speciality": "ophthalmology", "name": "Sectia recuperari"}}, {"name": "Centrul Maternal \"Mama și Copilul\" Câmpulung", "latitude": 45.2739366, "longitude": 25.0424406, "source": "osm", "_tags": {"amenity": "hospital", "building": "yes", "healthcare": "hospital", "name": "Centrul Maternal \"Mama și Copilul\" Câmpulung", "source": "microsoft/BuildingFootprints"}}, {"name": "Spitalul de pneumoftiziologie Florești", "latitude": 45.0301768, "longitude": 25.7923086, "source": "osm", "_tags": {"amenity": "hospital", "fixme": "The perimeter is approximate.", "healthcare": "hospital", "name": "Spitalul de pneumoftiziologie Florești"}}, {"name": "Spital Sinaia- Secția Pediatrie", "latitude": 45.348616, "longitude": 25.5470368, "source": "osm", "_tags": {"amenity": "hospital", "healthcare": "hospital", "healthcare:speciality": "paediatrics", "name": "Spital Sinaia- Secția Pediatrie"}}]