[{"name": "Klinika za onkologiju", "latitude": 44.7705622, "longitude": 17.1846219, "source": "osm", "_tags": {"alt_name": "Onkologija UKC RS", "alt_name:sr": "Онкологија УКЦ РС", "amenity": "hospital", "healthcare": "hospital", "name": "Klinika za onkologiju", "name:sr": "Клиника за онкологију"}}, {"name": "Patológia", "latitude": 45.3446619, "longitude": 17.7004012, "source": "osm", "_tags": {"amenity": "hospital", "healthcare": "hospital", "healthcare:speciality": "pathology", "name": "Patológia"}}, {"name": "Univerzitetski klinički centar Republike Srpske", "latitude": 44.7834419, "longitude": 17.1773558, "source": "osm", "_tags": {"addr:city": "Banja Luka", "addr:country": "BA", "addr:housenumber": "bb", "addr:postcode": "78000", "addr:street": "Dvanaest beba", "amenity": "hospital", "contact:phone": "+387 51 342100", "contact:website": "https://kc-bl.com", "emergency": "yes", "healthcare": "hospital", "name": "Univerzitetski klinički centar Republike Srpske", "name:bs": "Univerzitetski klinički centar Republike Srpske", "name:en": "University Clinical Centre of the Republic of Srpska", "name:hr": "Sveučilišni klinički centar Republike Srpske", "name:sr": "Универзитетски клинички центар Републике Српске", "name:sr-Latn": "Univerzitetski klinički centar Republike Srpske"}}, {"name": "Opšta bolnica Gradiška", "latitude": 45.1451927, "longitude": 17.2471227, "source": "osm", "_tags": {"addr:city": "Gradiška", "addr:housenumber": "20", "addr:postcode": "78400", "addr:street": "Dr Mladena Stojanovića", "amenity": "hospital", "email": "info@bolnicagradiska.ba", "healthcare": "hospital", "name": "Opšta bolnica Gradiška", "name:sr": "Општа болница Градишка", "phone": "+387 51 810 690;+387 66 583 055", "website": "https://www.bolnicagradiska.ba/"}}, {"name": "Opća bolnica Nova Gradiška", "latitude": 45.2614836, "longitude": 17.3902254, "source": "osm", "_tags": {"addr:city": "Nova Gradiška", "addr:housenumber": "17A", "addr:postcode": "35400", "addr:street": "Ulica Josipa Jurja Strossmayera", "amenity": "hospital", "email": "bolnicang@bolnicang.hr", "emergency": "no", "fax": "+385 35 364 361", "healthcare": "hospital", "name": "Opća bolnica Nova Gradiška", "operator": "Opća bolnica Nova Gradiška", "operator:type": "public", "phone": "+385 35 217 900", "website": "https://www.bolnicang.hr/"}}, {"name": "ZU BOLNICA iz hirurških oblasti LAGANIN", "latitude": 44.7731401, "longitude": 17.1837137, "source": "osm", "_tags": {"addr:city": "Banja Luka", "addr:housenumber": "11", "addr:postcode": "78000", "addr:street": "Sime Matavulja", "amenity": "hospital", "building": "yes", "building:levels": "3", "healthcare": "hospital", "healthcare:speciality": "surgery;gynaecology;internal", "name": "ZU BOLNICA iz hirurških oblasti LAGANIN", "operator": "Prof. dr Nikola Laganin", "website": "http://www.laganin.com/"}}, {"name": "Toplice Lipik - Specijalna bolnica za medicinsku rehabilitaciju", "latitude": 45.4136156, "longitude": 17.1610265, "source": "osm", "_tags": {"addr:housenumber": "13", "addr:street": "Ulica Marije Terezije", "alt_name": "Bolnica Lipik", "amenity": "hospital", "full_name": "Specijalna bolnica za medicinsku rehabilitaciju Lipik", "healthcare": "hospital", "healthcare:speciality": "physiatry", "name": "Toplice Lipik - Specijalna bolnica za medicinsku rehabilitaciju", "operator": "Toplice Lipik - Specijalna bolnica", "operator:type": "public", "website": "https://toplice-lipik.hr/"}}, {"name": "Dom zdravlja Derventa", "latitude": 44.9720885, "longitude": 17.9111888, "source": "osm", "_tags": {"addr:city": "Derventa", "addr:housenumber": "65", "addr:postcode": "74400", "addr:street": "Stefana Nemanje", "amenity": "hospital", "email": "domzdravlja@dzderventa.org", "emergency": "yes", "fax": "+387 53 333 299", "healthcare": "hospital", "name": "Dom zdravlja Derventa", "name:sr": "Дом здравља Дервента", "name:sr-Latn": "Dom zdravlja Derventa", "phone": "+387 53 331 023"}}, {"name": "Bolnica S-tetik", "latitude": 44.7605912, "longitude": 17.1876951, "source": "osm", "_tags": {"addr:city": "Banja Luka", "addr:housenumber": "2b", "addr:postcode": "78000", "addr:street": "Patrijarha Arsenija Čarnojevića", "alt_name": "Klinika S-tetik", "amenity": "hospital", "building": "yes", "building:levels": "5", "contact:facebook": "klinika.s.tetik", "contact:instagram": "bolnica_stetik", "email": "info@s-tetik.com", "healthcare": "hospital", "healthcare:speciality": "gynaecology;cardiology;dermatology;surgery;dentistry", "name": "Bolnica S-tetik", "opening_hours": "Mo-Fr 08:00-20:00; Sa 08:00-13:00", "outdoor_seating": "no", "phone": "+387 51 430 888", "phone:mobile": "+387 65 445 544", "website": "https://s-tetik.com"}}, {"name": "", "latitude": 44.7235091, "longitude": 17.3188004, "source": "osm", "_tags": {"amenity": "hospital", "healthcare": "hospital"}}, {"name": "", "latitude": 44.4908706, "longitude": 17.378925, "source": "osm", "_tags": {"amenity": "hospital", "healthcare": "hospital"}}, {"name": "Klinika za ortopedsku hirurgiju Slatina", "latitude": 44.8255114, "longitude": 17.2999632, "source": "osm", "_tags": {"amenity": "hospital", "healthcare": "hospital", "name": "Klinika za ortopedsku hirurgiju Slatina"}}, {"name": "", "latitude": 44.7506662, "longitude": 17.1627414, "source": "osm", "_tags": {"amenity": "hospital", "healthcare": "hospital"}}, {"name": "Medicinska elektronika", "latitude": 44.7764576, "longitude": 17.1900641, "source": "osm", "_tags": {"amenity": "hospital", "healthcare": "hospital", "name": "Medicinska elektronika"}}, {"name": "", "latitude": 44.8237012, "longitude": 17.2157873, "source": "osm", "_tags": {"amenity": "hospital", "healthcare": "hospital"}}, {"name": "", "latitude": 44.7531629, "longitude": 17.8412287, "source": "osm", "_tags": {"amenity": "hospital", "healthcare": "hospital"}}, {"name": "", "latitude": 44.7648179, "longitude": 17.1787903, "source": "osm", "_tags": {"amenity": "hospital", "healthcare": "hospital"}}, {"name": "", "latitude": 44.7717246, "longitude": 17.1839484, "source": "osm", "_tags": {"amenity": "hospital", "healthcare": "hospital"}}, {"name": "", "latitude": 44.7644084, "longitude": 17.1926426, "source": "osm", "_tags": {"amenity": "hospital", "healthcare": "hospital"}}, {"name": "Klinika za psihijatriju", "latitude": 44.7650035, "longitude": 17.1967828, "source": "osm", "_tags": {"addr:city": "Banja Luka", "addr:postcode": "78000", "addr:street": "Mačvanska", "alt_name": "Psihijatrija Banja Luka", "alt_name:sr": "Психијатрија Бања Лука", "amenity": "hospital", "healthcare": "hospital", "healthcare:speciality": "psychiatry", "name": "Klinika za psihijatriju", "name:sr": "Клиника за психијатрију"}}, {"name": "Gerontološki centar “Slateks” Slatina", "latitude": 44.8239399, "longitude": 17.296931, "source": "osm", "_tags": {"amenity": "hospital", "healthcare": "hospital", "name": "Gerontološki centar “Slateks” Slatina"}}, {"name": "", "latitude": 44.8276398, "longitude": 17.2998337, "source": "osm", "_tags": {"amenity": "hospital", "healthcare": "hospital"}}, {"name": "Gerontološki centar", "latitude": 44.781492, "longitude": 17.1868329, "source": "osm", "_tags": {"addr:housenumber": "104", "addr:postcode": "78000", "addr:street": "Krajiških brigada", "amenity": "hospital", "contact:facebook": "https://facebook.com/share/1A22KPg2MK", "healthcare": "hospital", "healthcare:speciality": "gastroenterology", "name": "Gerontološki centar", "name:sr": "Геронтолошки центар", "social_facility": "group_home", "social_facility:for": "senior", "website": "https://www.jugcbl.rs.ba/"}}, {"name": "", "latitude": 44.7970133, "longitude": 17.2081526, "source": "osm", "_tags": {"amenity": "hospital", "healthcare": "hospital"}}, {"name": "Opća županijska bolnica Požega", "latitude": 45.34375, "longitude": 17.6994744, "source": "osm", "_tags": {"addr:city": "Požega", "addr:housenumber": "107", "addr:postcode": "34000", "addr:street": "Osječka ulica", "amenity": "hospital", "email": "info@pozeska-bolnica.hr", "healthcare": "hospital", "name": "Opća županijska bolnica Požega", "operator": "Opća županijska bolnica Požega", "operator:type": "public", "phone": "+385 34 254 555", "type": "multipolygon", "website": "https://www.pozeska-bolnica.hr/"}}]