[{"name": "Poliambulatorio AUSL", "latitude": 44.5774339, "longitude": 11.358319, "source": "osm", "_tags": {"amenity": "hospital", "healthcare": "hospital", "name": "Poliambulatorio AUSL", "operator": "ASL Bologna Nord", "operator:type": "public"}}, {"name": "Ospedale Militare", "latitude": 44.498098, "longitude": 11.3346146, "source": "osm", "_tags": {"amenity": "hospital", "healthcare": "hospital", "name": "Ospedale Militare"}}, {"name": "Villa Regina", "latitude": 44.480713, "longitude": 11.3485301, "source": "osm", "_tags": {"addr:city": "Bologna", "addr:housenumber": "115", "addr:street": "Via Castiglione", "amenity": "hospital", "emergency": "no", "healthcare": "hospital", "healthcare:speciality": "general", "name": "Villa Regina"}}, {"name": "Villa Maria", "latitude": 45.410084, "longitude": 11.860234, "source": "osm", "_tags": {"amenity": "hospital", "healthcare": "hospital", "name": "Villa Maria"}}, {"name": "", "latitude": 44.4437596, "longitude": 11.8299832, "source": "osm", "_tags": {"amenity": "hospital", "healthcare": "hospital"}}, {"name": "ULSS 6 Euganea", "latitude": 45.3880317, "longitude": 11.7911498, "source": "osm", "_tags": {"amenity": "hospital", "healthcare": "hospital", "name": "ULSS 6 Euganea", "operator": "ULSS 6 Euganea"}}, {"name": "Centro Protesi INAIL", "latitude": 44.5340915, "longitude": 11.5085877, "source": "osm", "_tags": {"amenity": "hospital", "healthcare": "hospital", "healthcare:speciality": "orthopaedics", "name": "Centro Protesi INAIL", "operator": "INAIL", "operator:type": "public"}}, {"name": "Villa Chiara", "latitude": 44.4825779, "longitude": 11.2861573, "source": "osm", "_tags": {"amenity": "hospital", "emergency": "no", "healthcare": "hospital", "name": "Villa Chiara"}}, {"name": "", "latitude": 44.741964, "longitude": 11.4361615, "source": "osm", "_tags": {"amenity": "hospital", "emergency": "no"}}, {"name": "Pubblica Assistenza Croce Italia", "latitude": 44.5211892, "longitude": 11.3715213, "source": "osm", "_tags": {"addr:city": "Bologna", "addr:country": "IT", "addr:district": "Navile", "addr:housenumber": "81/2", "addr:postcode": "40128", "addr:street": "Via Stalingrado", "amenity": "hospital", "healthcare": "hospital", "name": "Pubblica Assistenza Croce Italia", "source": "Comune di Bologna"}}, {"name": "", "latitude": 44.8142688, "longitude": 11.8977238, "source": "osm", "_tags": {"amenity": "hospital", "healthcare": "hospital"}}, {"name": "Guardia Medica - Servizi socio sanitari", "latitude": 44.8188225, "longitude": 11.59984, "source": "osm", "_tags": {"amenity": "hospital", "name": "Guardia Medica - Servizi socio sanitari"}}, {"name": "Casa di cura \"Salus\"", "latitude": 44.8455037, "longitude": 11.6189754, "source": "osm", "_tags": {"addr:city": "Ferrara", "addr:housenumber": "38", "addr:postcode": "44121", "addr:street": "Via Arianuova", "amenity": "hospital", "emergency": "no", "healthcare": "hospital", "name": "Casa di cura \"Salus\"", "wheelchair": "yes"}}, {"name": "Casa della Salute Terra e Fiumi", "latitude": 44.8955652, "longitude": 11.8286256, "source": "osm", "_tags": {"amenity": "hospital", "name": "Casa della Salute Terra e Fiumi", "phone": "+39 0532 235111", "website": "https://casedellasalute.ausl.fe.it/it/le-case-della-salute/casa-della-salute-terre-e-fiumi-di-copparo"}}, {"name": "Ospedale Carlo Eppi", "latitude": 44.7001472, "longitude": 11.810702, "source": "osm", "_tags": {"amenity": "hospital", "healthcare": "hospital", "name": "Ospedale Carlo Eppi"}}, {"name": "Centro di Medicina dello Sport", "latitude": 44.8499058, "longitude": 11.612101, "source": "osm", "_tags": {"amenity": "hospital", "healthcare": "hospital", "healthcare:speciality": "vaccination", "name": "Centro di Medicina dello Sport"}}, {"name": "Centro di Foniatria - Casa di Curas Trieste", "latitude": 45.3994548, "longitude": 11.8601149, "source": "osm", "_tags": {"addr:housenumber": "10", "addr:postcode": "35142", "addr:street": "via Bergamo", "amenity": "hospital", "emergency": "no", "name": "Centro di Foniatria - Casa di Curas Trieste", "website": "https://www.centrofoniatria.it/"}}, {"name": "Croce Rossa", "latitude": 45.4118224, "longitude": 11.916031, "source": "osm", "_tags": {"amenity": "hospital", "brand": "Croce Rossa Italiana", "brand:wikidata": "Q913903", "emergency": "ambulance_station", "healthcare": "hospital", "name": "Croce Rossa"}}, {"name": "Dipartimento Socio Sanitario ai Colli", "latitude": 45.3990658, "longitude": 11.8426458, "source": "osm", "_tags": {"addr:city": "Padova", "addr:housenumber": "4", "addr:street": "Via dei Colli", "amenity": "hospital", "emergency": "no", "healthcare": "hospital", "name": "Dipartimento Socio Sanitario ai Colli"}}, {"name": "Ospedale Fratelli Borselli", "latitude": 44.8802925, "longitude": 11.4143207, "source": "osm", "_tags": {"amenity": "hospital", "emergency": "no", "healthcare": "hospital", "name": "Ospedale Fratelli Borselli"}}, {"name": "Casa di cura Privata \"Città di Rovigo\"", "latitude": 45.0655243, "longitude": 11.7878836, "source": "osm", "_tags": {"addr:city": "Rovigo", "addr:postcode": "45100", "addr:street": "Riviera Falcone e Borsellino", "amenity": "hospital", "name": "Casa di cura Privata \"Città di Rovigo\""}}, {"name": "Città della Salute \"Cittadella San Rocco\"", "latitude": 44.8327338, "longitude": 11.631468, "source": "osm", "_tags": {"amenity": "hospital", "emergency": "yes", "name": "Città della Salute \"Cittadella San Rocco\""}}, {"name": "Pronto Soccorso Pediatrico - Policlinico Sant'Orsola Malpighi - Accesso Ambulanze", "latitude": 44.4922728, "longitude": 11.3608239, "source": "osm", "_tags": {"addr:city": "Bologna", "addr:housenumber": "9/2", "addr:postcode": "40138", "addr:street": "Via Giuseppe Massarenti", "description": "Pronto Soccorso Pediatrico del Policlinico Sant'Orsola Malpighi. Accesso riservato alle Ambulanze.", "emergency": "emergency_ward_entrance", "healthcare": "hospital", "healthcare:speciality": "paediatrics", "name": "Pronto Soccorso Pediatrico - Policlinico Sant'Orsola Malpighi - Accesso Ambulanze", "operator": "Policlinico Sant'Orsola Malpighi", "wheelchair": "yes"}}, {"name": "Poliambulatorio", "latitude": 44.5076512, "longitude": 11.4720261, "source": "osm", "_tags": {"amenity": "hospital", "healthcare": "hospital", "name": "Poliambulatorio"}}, {"name": "Villa Arcobaleno", "latitude": 44.4645175, "longitude": 11.4049001, "source": "osm", "_tags": {"amenity": "hospital", "healthcare": "hospital", "name": "Villa Arcobaleno"}}, {"name": "Pubblica Assistenza Croce Blu Mirandola", "latitude": 44.8687186, "longitude": 11.0591163, "source": "osm", "_tags": {"addr:city": "Mirandola", "addr:housenumber": "55", "addr:postcode": "41037", "addr:street": "Via Posta Vecchia", "amenity": "hospital", "email": "info@croceblumirandola.it", "emergency": "yes", "fax": "+39 0535 20203", "healthcare": "hospital", "name": "Pubblica Assistenza Croce Blu Mirandola", "phone": "+39 0535 20104"}}, {"name": "Pronto Soccorso Ospedale Sant'Antonio", "latitude": 45.3935955, "longitude": 11.8920117, "source": "osm", "_tags": {"addr:city": "Padova", "addr:postcode": "35127", "emergency": "emergency_ward_entrance", "healthcare": "hospital", "name": "Pronto Soccorso Ospedale Sant'Antonio"}}, {"name": "Pronto Soccorso Ospedale Abano Terme", "latitude": 45.3493432, "longitude": 11.786285, "source": "osm", "_tags": {"addr:city": "Abano Terme", "addr:postcode": "35031", "emergency": "emergency_ward_entrance", "healthcare": "hospital", "name": "Pronto Soccorso Ospedale Abano Terme"}}, {"name": "Pronto Soccorso Ospedale Montagnana", "latitude": 45.2370435, "longitude": 11.4595579, "source": "osm", "_tags": {"addr:city": "Montagnana", "emergency": "emergency_ward_entrance", "healthcare": "hospital", "name": "Pronto Soccorso Ospedale Montagnana"}}, {"name": "Pronto Soccorso Ospedale \"Madre Teresa di Calcutta\"", "latitude": 45.2060634, "longitude": 11.7215994, "source": "osm", "_tags": {"addr:city": "Monselice", "addr:postcode": "35043", "emergency": "emergency_ward_entrance", "healthcare": "hospital", "name": "Pronto Soccorso Ospedale \"Madre Teresa di Calcutta\""}}, {"name": "Pronto Soccorso Azienda Ospedaliera di Padova", "latitude": 45.4023472, "longitude": 11.8867607, "source": "osm", "_tags": {"addr:city": "Padova", "addr:housenumber": "2", "addr:postcode": "35121", "addr:street": "Via Nicolò Giustiniani", "emergency": "emergency_ward_entrance", "healthcare": "hospital", "name": "Pronto Soccorso Azienda Ospedaliera di Padova"}}, {"name": "Pronto Soccorso Ospedale \"San Luca\"", "latitude": 45.0294549, "longitude": 11.4669133, "source": "osm", "_tags": {"addr:city": "Trecenta", "addr:housenumber": "265", "addr:postcode": "45027", "addr:street": "Viale Ugo Grisetti", "emergency": "emergency_ward_entrance", "healthcare": "hospital", "name": "Pronto Soccorso Ospedale \"San Luca\""}}, {"name": "Pronto Soccorso Ospedale \"Santa Maria della Misericordia\"", "latitude": 45.0713287, "longitude": 11.81622, "source": "osm", "_tags": {"addr:city": "Rovigo", "amenity": "hospital", "emergency": "yes", "healthcare": "hospital", "healthcare:speciality": "emergency", "name": "Pronto Soccorso Ospedale \"Santa Maria della Misericordia\"", "operator": "ULSS5", "operator:type": "public", "wheelchair": "yes"}}, {"name": "Pronto Soccorso Ospedale Bovolone", "latitude": 45.2605994, "longitude": 11.1195823, "source": "osm", "_tags": {"addr:city": "Bovolone", "emergency": "emergency_ward_entrance", "healthcare": "hospital", "name": "Pronto Soccorso Ospedale Bovolone"}}, {"name": "Pronto Soccorso Ospedale Girolamo Fracastoro", "latitude": 45.3912575, "longitude": 11.2787172, "source": "osm", "_tags": {"addr:city": "San Bonifacio", "emergency": "emergency_ward_entrance", "healthcare": "hospital", "name": "Pronto Soccorso Ospedale Girolamo Fracastoro"}}, {"name": "Pronto Soccorso Ospedale Mater Salutis", "latitude": 45.185477, "longitude": 11.3150084, "source": "osm", "_tags": {"addr:city": "Legnago", "emergency": "emergency_ward_entrance", "healthcare": "hospital", "name": "Pronto Soccorso Ospedale Mater Salutis"}}, {"name": "Pronto Soccorso Ospedale Civile Isola della Scala", "latitude": 45.2687682, "longitude": 11.0067667, "source": "osm", "_tags": {"addr:city": "Isola della Scala", "emergency": "emergency_ward_entrance", "healthcare": "hospital", "name": "Pronto Soccorso Ospedale Civile Isola della Scala"}}, {"name": "Pronto Soccorso Ospedale \"San Giovanni Battista\"", "latitude": 45.3847826, "longitude": 11.3929355, "source": "osm", "_tags": {"addr:city": "Lonigo", "emergency": "emergency_ward_entrance", "healthcare": "hospital", "name": "Pronto Soccorso Ospedale \"San Giovanni Battista\""}}, {"name": "Pronto Soccorso Ospedale \"Pietro Milani\"", "latitude": 45.2934015, "longitude": 11.5363114, "source": "osm", "_tags": {"addr:city": "Noventa Vicentina", "emergency": "emergency_ward_entrance", "entrance": "yes", "healthcare": "hospital", "name": "Pronto Soccorso Ospedale \"Pietro Milani\"", "opening_hours": "24/7"}}, {"name": "Pronto Soccorso Ospedale \"Carlo Poma\"", "latitude": 45.0344612, "longitude": 11.115702, "source": "osm", "_tags": {"addr:city": "Pieve di Coriano", "emergency": "emergency_ward_entrance", "healthcare": "hospital", "name": "Pronto Soccorso Ospedale \"Carlo Poma\""}}, {"name": "Triage PS \"Carlo Alberto Pizzardi\"", "latitude": 44.5055799, "longitude": 11.3154482, "source": "osm", "_tags": {"amenity": "hospital", "healthcare": "hospital", "name": "Triage PS \"Carlo Alberto Pizzardi\""}}, {"name": "Pronto Soccorso Ospedale Santissimo Salvatore", "latitude": 44.6323328, "longitude": 11.1956675, "source": "osm", "_tags": {"addr:city": "San Giovanni in Persiceto", "emergency": "emergency_ward_entrance", "healthcare": "hospital", "name": "Pronto Soccorso Ospedale Santissimo Salvatore"}}, {"name": "Ambulatorio di Salute Mentale", "latitude": 45.3323801, "longitude": 11.7878293, "source": "osm", "_tags": {"amenity": "hospital", "healthcare": "hospital", "name": "Ambulatorio di Salute Mentale"}}, {"name": "Pronto Soccorso", "latitude": 44.7241317, "longitude": 11.289435, "source": "osm", "_tags": {"emergency": "emergency_ward_entrance", "healthcare": "hospital", "name": "Pronto Soccorso"}}, {"name": "Pronto Soccorso Ortopedico", "latitude": 44.5053985, "longitude": 11.3146353, "source": "osm", "_tags": {"emergency": "emergency_ward", "healthcare": "hospital", "healthcare:speciality": "orthopaedics", "name": "Pronto Soccorso Ortopedico"}}, {"name": "Pronto Soccorso Oculistico - Sant'Orsola Malpighi", "latitude": 44.4887941, "longitude": 11.3676105, "source": "osm", "_tags": {"emergency": "emergency_ward_entrance", "emergency_ward_entrance": "all", "entrance": "yes", "healthcare": "hospital", "healthcare:speciality": "ophthalmology", "name": "Pronto Soccorso Oculistico - Sant'Orsola Malpighi"}}, {"name": "REMS - Casa degli Svizzeri", "latitude": 44.5165381, "longitude": 11.3179596, "source": "osm", "_tags": {"amenity": "hospital", "description": "Residenza per l'Esecuzione delle Misure di Sicurezza (REMS) - Ex Ospedale Psichiatrico Giudiziario (OPG)", "emergency": "no", "healthcare": "hospital", "healthcare:speciality": "psychiatry", "name": "REMS - Casa degli Svizzeri", "operator": "AUSL Bologna"}}, {"name": "Primo Soccorso Aeroportuale", "latitude": 44.5292258, "longitude": 11.294914, "source": "osm", "_tags": {"amenity": "hospital", "emergency": "yes", "healthcare": "hospital", "healthcare:speciality": "emergency", "name": "Primo Soccorso Aeroportuale", "operator": "118 Bologna, Croce Rossa Italiana"}}, {"name": "Canale Sanitario", "latitude": 44.5291188, "longitude": 11.2961271, "source": "osm", "_tags": {"amenity": "hospital", "healthcare": "hospital", "healthcare:speciality": "infectious_diseases", "name": "Canale Sanitario", "operator": "U.S.M.A.F."}}, {"name": "Casa della Salute delle Terre d'acqua", "latitude": 44.7214491, "longitude": 11.1490549, "source": "osm", "_tags": {"addr:city": "Crevalcore", "addr:housenumber": "171", "addr:postcode": "40014", "addr:street": "Viale della Libertà", "amenity": "hospital", "healthcare": "hospital", "healthcare:speciality": "general", "name": "Casa della Salute delle Terre d'acqua", "wheelchair": "yes"}}, {"name": "Centro Odontoiatrico Perti", "latitude": 44.7238291, "longitude": 11.1460196, "source": "osm", "_tags": {"addr:city": "Crevalcore", "addr:housenumber": "32", "addr:postcode": "40014", "addr:street": "Via G. Lodi", "amenity": "hospital", "healthcare": "hospital", "healthcare:speciality": "dentist;orthodontics", "name": "Centro Odontoiatrico Perti"}}, {"name": "AIRAM Centro Medico Bologna", "latitude": 44.5569793, "longitude": 11.3217997, "source": "osm", "_tags": {"addr:city": "Castel Maggiore", "addr:housenumber": "165", "addr:postcode": "40013", "addr:street": "Via Lame", "amenity": "hospital", "healthcare": "hospital", "healthcare:speciality": "clinic;general", "name": "AIRAM Centro Medico Bologna"}}, {"name": "AIRAM Centro Fisioterapico Bologna", "latitude": 44.556991, "longitude": 11.3216195, "source": "osm", "_tags": {"addr:city": "Castel Maggiore", "addr:housenumber": "165", "addr:postcode": "40013", "addr:street": "Via Lame", "amenity": "hospital", "healthcare": "hospital", "healthcare:speciality": "physiotherapy", "name": "AIRAM Centro Fisioterapico Bologna"}}, {"name": "AIRAM Clinica Odontoiatrica Bologna", "latitude": 44.5570362, "longitude": 11.3217267, "source": "osm", "_tags": {"addr:city": "Castel Maggiore", "addr:housenumber": "165", "addr:postcode": "40013", "addr:street": "Via Lame", "amenity": "hospital", "healthcare": "hospital", "healthcare:speciality": "orthodontics;dentist", "name": "AIRAM Clinica Odontoiatrica Bologna"}}, {"name": "AIRAM Clinica di Medicina Estetica Bologna", "latitude": 44.5569435, "longitude": 11.321724, "source": "osm", "_tags": {"addr:city": "Castel Maggiore", "addr:housenumber": "165", "addr:postcode": "40013", "addr:street": "Via Lame", "amenity": "hospital", "healthcare": "hospital", "healthcare:speciality": "surgery", "name": "AIRAM Clinica di Medicina Estetica Bologna"}}, {"name": "Dott.ssa Silvia Gaspari - Fisioterapista e Osteopata San Giovanni Lupatoto", "latitude": 45.3814974, "longitude": 11.0410089, "source": "osm", "_tags": {"addr:city": "San Giovanni Lupatoto", "addr:housenumber": "3", "addr:postcode": "37057", "addr:street": "Piazzale Zinelli", "amenity": "hospital", "description": "Fisioterapista e Osteopata a San Giovanni Lupatoto\nDott.ssa in Fisioterapia con Master di I° Livelo in Osteopatia nelle Disfunzioni Neuromuscolo-Scheletriche (Albo di Verona n° 232)\nRicevo su Appuntamento: 3474665285", "email": "silviagasparifisio@gmail.com", "healthcare": "hospital", "healthcare:speciality": "osteopathy;physiotherapy", "internet_access": "wlan", "name": "Dott.ssa Silvia Gaspari - Fisioterapista e Osteopata San Giovanni Lupatoto", "operator": "Gaspari Silvia", "operator:type": "private", "wheelchair": "yes"}}, {"name": "Punto Vaccinazioni COVID 2021", "latitude": 44.6402712, "longitude": 10.9469317, "source": "osm", "_tags": {"amenity": "hospital", "healthcare": "hospital", "name": "Punto Vaccinazioni COVID 2021"}}, {"name": "Punto Tamponi COVID - 2021", "latitude": 44.6398894, "longitude": 10.9455047, "source": "osm", "_tags": {"amenity": "hospital", "healthcare": "hospital", "name": "Punto Tamponi COVID - 2021"}}, {"name": "Accesso Camera Iperbarica", "latitude": 44.5310735, "longitude": 11.423646, "source": "osm", "_tags": {"amenity": "hospital", "healthcare": "hospital", "name": "Accesso Camera Iperbarica"}}, {"name": "Centro medico specialistico bolognese S.r.l", "latitude": 44.5495494, "longitude": 11.4466545, "source": "osm", "_tags": {"addr:city": "Granarolo dell'Emilia", "addr:postcode": "40057", "addr:street": "Via San Donato", "amenity": "hospital", "healthcare": "hospital", "name": "Centro medico specialistico bolognese S.r.l"}}, {"name": "Poliambulatorio Città di Ferrara", "latitude": 44.8497935, "longitude": 11.5836947, "source": "osm", "_tags": {"addr:city": "Ferrara", "addr:housenumber": "63", "addr:street": "Via Annibale Zucchini", "amenity": "hospital", "name": "Poliambulatorio Città di Ferrara"}}, {"name": "Ulss6", "latitude": 45.4129246, "longitude": 11.8844461, "source": "osm", "_tags": {"addr:city": "Padova", "addr:housenumber": "12", "addr:postcode": "35131", "addr:street": "Via Enrico degli Scrovegni", "amenity": "hospital", "healthcare": "hospital", "name": "Ulss6"}}, {"name": "Ospedale Sant'Antonio", "latitude": 45.3926851, "longitude": 11.8918117, "source": "osm", "_tags": {"addr:city": "Padova", "addr:housenumber": "71", "addr:postcode": "35127", "addr:street": "Via Jacopo Facciolati", "amenity": "hospital", "emergency": "yes", "healthcare": "hospital", "name": "Ospedale Sant'Antonio", "phone": "+390498211111", "website": "https://www.aopd.veneto.it/"}}, {"name": "Policlinico Giambattista Rossi", "latitude": 45.403635, "longitude": 10.9931586, "source": "osm", "_tags": {"addr:city": "Verona", "addr:country": "IT", "addr:housenumber": "10", "addr:postcode": "37134", "addr:street": "Piazzale Ludovico Antonio Scuro", "amenity": "hospital", "emergency": "yes", "healthcare": "hospital", "healthcare:speciality": "general", "internet_access": "wlan", "name": "Policlinico Giambattista Rossi", "website": "https://www.ospedaleuniverona.it/ecm/home", "wheelchair": "yes"}}, {"name": "Ospedale Girolamo Fracastoro", "latitude": 45.3925258, "longitude": 11.2790763, "source": "osm", "_tags": {"addr:city": "San Bonifacio", "addr:country": "IT", "addr:housenumber": "5", "addr:postcode": "37047", "addr:street": "Via delle Fontane", "amenity": "hospital", "check_date": "2025-05-09", "emergency": "yes", "healthcare": "hospital", "name": "Ospedale Girolamo Fracastoro", "wheelchair": "yes"}}, {"name": "Azienda Ospedaliera di Padova", "latitude": 45.4035518, "longitude": 11.8906695, "source": "osm", "_tags": {"addr:city": "Padova", "addr:housenumber": "2", "addr:postcode": "35128", "addr:street": "Via Nicolò Giustiniani", "amenity": "hospital", "emergency": "yes", "healthcare": "hospital", "name": "Azienda Ospedaliera di Padova", "wikidata": "Q30253940"}}, {"name": "Istituto Oncologico Veneto", "latitude": 45.4020018, "longitude": 11.8931652, "source": "osm", "_tags": {"amenity": "hospital", "healthcare": "hospital", "name": "Istituto Oncologico Veneto", "wheelchair": "yes", "wikidata": "Q30282158", "wikipedia": "it:Istituto Oncologico Veneto"}}, {"name": "Ospedale Militare di Padova", "latitude": 45.4162285, "longitude": 11.8705737, "source": "osm", "_tags": {"amenity": "hospital", "healthcare": "hospital", "name": "Ospedale Militare di Padova"}}, {"name": "Ospedale Sant'Antonio", "latitude": 45.3932566, "longitude": 11.8925401, "source": "osm", "_tags": {"amenity": "hospital", "emergency": "designated", "healthcare": "hospital", "name": "Ospedale Sant'Antonio"}}, {"name": "Complesso Socio-Sanitario \"Ai Colli\"", "latitude": 45.399819, "longitude": 11.841938, "source": "osm", "_tags": {"amenity": "hospital", "healthcare": "hospital", "name": "Complesso Socio-Sanitario \"Ai Colli\""}}, {"name": "Santa Maria della Misericordia", "latitude": 45.0726318, "longitude": 11.8161105, "source": "osm", "_tags": {"amenity": "hospital", "healthcare": "hospital", "name": "Santa Maria della Misericordia"}}, {"name": "Ospedale Conselice", "latitude": 44.5101756, "longitude": 11.828107, "source": "osm", "_tags": {"amenity": "hospital", "healthcare": "hospital", "name": "Ospedale Conselice"}}, {"name": "Casa di Cura Privata di S. M. Maddalena", "latitude": 44.8919528, "longitude": 11.6115196, "source": "osm", "_tags": {"addr:city": "Occhiobello", "addr:housenumber": "2", "addr:postcode": "45030", "addr:street": "Via Gorizia", "amenity": "hospital", "building": "yes", "check_date": "2025-07-11", "email": "info@casadicura.it", "fax": "+39 0425 768 460", "name": "Casa di Cura Privata di S. M. Maddalena", "operator": "Casa di Cura Privata \"S. Maria Maddalena\" S.p.A.", "phone": "+39 0425 768 411", "ref:vatin": "IT00119690295", "website": "https://www.casadicura.it"}}, {"name": "Ospedale Bellaria", "latitude": 44.4638278, "longitude": 11.3914377, "source": "osm", "_tags": {"amenity": "hospital", "healthcare": "hospital", "name": "Ospedale Bellaria", "wikidata": "Q3886597", "wikimedia_commons": "Category:Ospedale Bellaria (Bologna)"}}, {"name": "Policlinico Sant'Orsola-Malpighi", "latitude": 44.4884852, "longitude": 11.3674293, "source": "osm", "_tags": {"amenity": "hospital", "emergency": "yes", "healthcare": "hospital", "name": "Policlinico Sant'Orsola-Malpighi", "operator": "Azienda Ospedaliero-Universitaria di Bologna", "operator:type": "public", "type": "multipolygon", "wikidata": "Q3907279"}}, {"name": "Policlinico Sant'Orsola-Malpighi", "latitude": 44.4915104, "longitude": 11.3609615, "source": "osm", "_tags": {"amenity": "hospital", "area": "yes", "emergency": "yes", "healthcare": "hospital", "name": "Policlinico Sant'Orsola-Malpighi", "operator": "Azienda Ospedaliero-Universitaria di Bologna", "operator:type": "public", "type": "multipolygon", "wikidata": "Q3907279"}}, {"name": "Policlinico Sant'Orsola-Malpighi", "latitude": 44.4902587, "longitude": 11.3647141, "source": "osm", "_tags": {"amenity": "hospital", "area": "yes", "emergency": "yes", "healthcare": "hospital", "name": "Policlinico Sant'Orsola-Malpighi", "operator": "Azienda Ospedaliero-Universitaria di Bologna", "operator:type": "public", "type": "multipolygon", "wikidata": "Q3907279"}}, {"name": "", "latitude": 44.5352029, "longitude": 11.5348154, "source": "osm", "_tags": {"building": "hospital", "healthcare": "hospital", "wheelchair": "yes"}}, {"name": "Polo Sanitario di Medicina", "latitude": 44.4742826, "longitude": 11.636072, "source": "osm", "_tags": {"addr:city": "Medicina", "addr:housenumber": "1", "addr:postcode": "40059", "addr:street": "Via Aurelio Saffi", "amenity": "hospital", "emergency": "no", "healthcare": "hospital", "name": "Polo Sanitario di Medicina", "operator": "Azienda USL di Imola"}}, {"name": "Bologna Soccorso", "latitude": 44.5053081, "longitude": 11.3161598, "source": "osm", "_tags": {"building": "hospital", "healthcare": "hospital", "name": "Bologna Soccorso", "source": "Regione Emilia Romagna"}}, {"name": "Villa Silvia", "latitude": 44.4655906, "longitude": 11.4091909, "source": "osm", "_tags": {"amenity": "hospital", "healthcare": "hospital", "name": "Villa Silvia", "source": "Regione Emilia Romagna"}}, {"name": "Pubblica Assistenza Crevalcore", "latitude": 44.7158301, "longitude": 11.1499587, "source": "osm", "_tags": {"addr:city": "Crevalcore", "addr:housenumber": "385/c", "addr:postcode": "40014", "addr:street": "Via Candia", "amenity": "hospital", "emergency": "yes", "healthcare": "hospital", "healthcare:speciality": "emergency", "name": "Pubblica Assistenza Crevalcore", "source": "Regione Emilia Romagna"}}, {"name": "Casa della Salute \"Finale Emilia\"", "latitude": 44.8332004, "longitude": 11.2978799, "source": "osm", "_tags": {"addr:city": "Finale Emilia", "addr:postcode": "41034", "addr:street": "Piazza Antonio Gramsci", "amenity": "hospital", "building": "yes", "emergency": "yes", "healthcare": "hospital", "name": "Casa della Salute \"Finale Emilia\"", "operator": "Azienda Unità Sanitaria Locale di Modena", "source": "Regione Emilia Romagna"}}, {"name": "Ospedali Riuniti Padova Sud \"Madre Teresa di Calcutta\"", "latitude": 45.2062605, "longitude": 11.7230225, "source": "osm", "_tags": {"addr:city": "Monselice", "addr:country": "IT", "addr:housenumber": "30", "addr:place": "Schiavonia", "addr:postcode": "35043", "addr:province": "Padova", "addr:street": "Via Albere", "amenity": "hospital", "emergency": "yes", "healthcare": "hospital", "healthcare:speciality": "general", "name": "Ospedali Riuniti Padova Sud \"Madre Teresa di Calcutta\"", "opening_hours": "24/7", "operator": "ULSS 17", "operator:type": "public", "wheelchair": "yes"}}, {"name": "Santissima Annunziata", "latitude": 44.7238625, "longitude": 11.2900513, "source": "osm", "_tags": {"addr:city": "Cento", "addr:housenumber": "2", "addr:postcode": "44042", "addr:street": "Via Giovanni Vicini", "amenity": "hospital", "emergency": "yes", "healthcare": "hospital", "name": "Santissima Annunziata", "name:etymology:wikidata": "Q345", "phone": "+39 051 6838111"}}, {"name": "Ospedale civile di Isola della Scala", "latitude": 45.2685122, "longitude": 11.0065093, "source": "osm", "_tags": {"amenity": "hospital", "disused": "yes", "healthcare": "hospital", "name": "Ospedale civile di Isola della Scala"}}, {"name": "Centro di Medicina dello Sport", "latitude": 44.8499115, "longitude": 11.6121097, "source": "osm", "_tags": {"amenity": "hospital", "building": "yes", "emergency": "no", "healthcare": "hospital", "healthcare:speciality": "vaccination", "name": "Centro di Medicina dello Sport"}}, {"name": "", "latitude": 45.1676408, "longitude": 11.0475003, "source": "osm", "_tags": {"amenity": "hospital", "healthcare": "hospital"}}, {"name": "", "latitude": 45.2604495, "longitude": 11.1197949, "source": "osm", "_tags": {"amenity": "hospital", "healthcare": "hospital"}}, {"name": "Casa della Salute Regina Margherita", "latitude": 44.5975976, "longitude": 11.0482314, "source": "osm", "_tags": {"amenity": "hospital", "healthcare": "hospital", "name": "Casa della Salute Regina Margherita", "wheelchair": "yes"}}, {"name": "Ospedale Mater Salutis", "latitude": 45.185581, "longitude": 11.3158707, "source": "osm", "_tags": {"amenity": "hospital", "emergency": "yes", "healthcare": "hospital", "name": "Ospedale Mater Salutis"}}, {"name": "Ospedale Santa Maria Bianca", "latitude": 44.8828695, "longitude": 11.0647299, "source": "osm", "_tags": {"amenity": "hospital", "healthcare": "hospital", "name": "Ospedale Santa Maria Bianca", "wikidata": "Q28874308"}}, {"name": "Ospedale Chiarenzi", "latitude": 45.3756669, "longitude": 11.1324831, "source": "osm", "_tags": {"amenity": "hospital", "healthcare": "hospital", "name": "Ospedale Chiarenzi"}}, {"name": "Pediatra Panin", "latitude": 45.0519766, "longitude": 11.7782589, "source": "osm", "_tags": {"addr:city": "Rovigo", "addr:housenumber": "26", "addr:postcode": "45100", "addr:street": "Viale della Scienza", "amenity": "hospital", "building": "yes", "name": "Pediatra Panin"}}, {"name": "Ospedale Santissimo Salvatore", "latitude": 44.6326513, "longitude": 11.1947975, "source": "osm", "_tags": {"amenity": "hospital", "emergency": "yes", "healthcare": "hospital", "name": "Ospedale Santissimo Salvatore", "ref:corine_land_cover": "1214", "source": "http://dati.emilia-romagna.it/dato/item/11-11-uso-del-suolo-2008.html"}}, {"name": "Ospedale Don Giuseppe Dossetti", "latitude": 44.5005071, "longitude": 11.0886217, "source": "osm", "_tags": {"amenity": "hospital", "contact:housenumber": "10b", "contact:street": "Viale dei Martiri", "emergency": "yes", "fax": "+39 051 838829", "healthcare": "hospital", "name": "Ospedale Don Giuseppe Dossetti", "phone": "+39 051 838811", "ref:corine_land_cover": "1213", "source": "http://dati.emilia-romagna.it/dato/item/11-11-uso-del-suolo-2008.html", "website": "https://www.ausl.bologna.it/guida-ai-servizi/luoghi/14297"}}, {"name": "Villa Laura", "latitude": 44.4789745, "longitude": 11.3850418, "source": "osm", "_tags": {"amenity": "hospital", "check_date": "2024-04-21", "healthcare": "hospital", "name": "Villa Laura"}}, {"name": "Istituto Sant'Anna", "latitude": 44.4903558, "longitude": 11.3689247, "source": "osm", "_tags": {"amenity": "hospital", "healthcare": "hospital", "name": "Istituto Sant'Anna"}}, {"name": "Villa Erbosa", "latitude": 44.5218419, "longitude": 11.3425323, "source": "osm", "_tags": {"amenity": "hospital", "emergency": "no", "healthcare": "hospital", "name": "Villa Erbosa", "ref:corine_land_cover": "1214", "source": "http://dati.emilia-romagna.it/dato/item/11-11-uso-del-suolo-2008.html", "wheelchair": "yes", "wikidata": "Q109733163", "wikipedia": "it:Villa Erbosa"}}, {"name": "Ospedale Maggiore Carlo Alberto Pizzardi", "latitude": 44.5055869, "longitude": 11.3134536, "source": "osm", "_tags": {"amenity": "hospital", "healthcare": "hospital", "name": "Ospedale Maggiore Carlo Alberto Pizzardi", "name:etymology:wikidata": "Q110396509", "operator": "AUSL Bologna", "wheelchair": "yes", "wikidata": "Q3886608", "wikipedia": "it:Ospedale Maggiore di Bologna"}}, {"name": "Istituto Ortopedico Rizzoli - Poliambulatorio Barbiano", "latitude": 44.4756823, "longitude": 11.3402178, "source": "osm", "_tags": {"amenity": "hospital", "emergency": "no", "healthcare": "hospital", "healthcare:speciality": "orthopaedics", "name": "Istituto Ortopedico Rizzoli - Poliambulatorio Barbiano", "operator": "Istituto Ortopedico Rizzoli", "operator:type": "public", "ref:corine_land_cover": "1214", "source": "http://dati.emilia-romagna.it/dato/item/11-11-uso-del-suolo-2008.html", "wheelchair": "yes"}}, {"name": "Istituto Ortopedico Rizzoli - Ospedale", "latitude": 44.4808459, "longitude": 11.3419552, "source": "osm", "_tags": {"amenity": "hospital", "emergency": "yes", "healthcare": "hospital", "name": "Istituto Ortopedico Rizzoli - Ospedale", "ref:corine_land_cover": "1214", "source": "http://dati.emilia-romagna.it/dato/item/11-11-uso-del-suolo-2008.html", "wheelchair": "yes", "wikidata": "Q3803656"}}, {"name": "Ospedale di Bentivoglio", "latitude": 44.6340745, "longitude": 11.4154989, "source": "osm", "_tags": {"addr:city": "Bentivoglio", "addr:housenumber": "35", "addr:postcode": "40010", "addr:street": "Via Guglielmo Marconi", "amenity": "hospital", "check_date": "2025-06-26", "healthcare": "hospital", "name": "Ospedale di Bentivoglio", "ref:corine_land_cover": "1214", "source": "http://dati.emilia-romagna.it/dato/item/11-11-uso-del-suolo-2008.html"}}, {"name": "Polo Sanitario \"Anacleto Bonora\"", "latitude": 44.7012865, "longitude": 11.3994783, "source": "osm", "_tags": {"amenity": "hospital", "healthcare": "hospital", "name": "Polo Sanitario \"Anacleto Bonora\"", "ref:corine_land_cover": "1214", "source": "http://dati.emilia-romagna.it/dato/item/11-11-uso-del-suolo-2008.html"}}, {"name": "Fondazione Seràgnoli - Hospice Bentivoglio", "latitude": 44.6358993, "longitude": 11.4108308, "source": "osm", "_tags": {"amenity": "hospital", "emergency": "no", "healthcare": "hospital", "name": "Fondazione Seràgnoli - Hospice Bentivoglio", "operator": "Fondazione Seragnoli", "ref:corine_land_cover": "1214", "source": "http://dati.emilia-romagna.it/dato/item/11-11-uso-del-suolo-2008.html", "wheelchair": "yes"}}, {"name": "Poliambulatorio di Molinella", "latitude": 44.6211062, "longitude": 11.6637815, "source": "osm", "_tags": {"addr:city": "Molinella", "addr:housenumber": "47", "addr:postcode": "40062", "addr:street": "Via Provinciale Circonvallazione", "alt_name": "Ospedale di Molinella", "amenity": "hospital", "emergency": "yes", "healthcare": "hospital", "name": "Poliambulatorio di Molinella", "phone": "+390516909411", "website": "https://www.ausl.bologna.it/iap_dati/view_site?id=14314"}}, {"name": "Villa Serena", "latitude": 44.4498033, "longitude": 11.3603779, "source": "osm", "_tags": {"amenity": "hospital", "emergency": "no", "healthcare": "hospital", "name": "Villa Serena"}}, {"name": "Roncati", "latitude": 44.4930427, "longitude": 11.3302343, "source": "osm", "_tags": {"amenity": "hospital", "healthcare": "hospital", "name": "Roncati", "wheelchair": "yes"}}, {"name": "Ospedale San Giovanni Battista", "latitude": 45.3852143, "longitude": 11.3934806, "source": "osm", "_tags": {"amenity": "hospital", "name": "Ospedale San Giovanni Battista"}}, {"name": "Distretto Sanitario 3 di Cerea", "latitude": 45.1907577, "longitude": 11.2231344, "source": "osm", "_tags": {"addr:city": "Cerea", "addr:housenumber": "23", "addr:postcode": "37053", "addr:street": "Via Monte Carega", "amenity": "hospital", "healthcare": "hospital", "name": "Distretto Sanitario 3 di Cerea", "operator": "ULSS 9 Scaligera", "phone": "+39044230500"}}, {"name": "Casa di Riposo di Lonigo", "latitude": 45.3844946, "longitude": 11.4011386, "source": "osm", "_tags": {"amenity": "hospital", "name": "Casa di Riposo di Lonigo"}}, {"name": "Clinica privata Villalba", "latitude": 44.4686012, "longitude": 11.3366779, "source": "osm", "_tags": {"addr:city": "Bologna", "addr:postcode": "40136", "addr:street": "Via di Roncrio", "amenity": "hospital", "name": "Clinica privata Villalba", "operator": "GVM"}}, {"name": "Ospedale di Conselve", "latitude": 45.2341231, "longitude": 11.8716202, "source": "osm", "_tags": {"addr:city": "Conselve", "addr:housenumber": "22", "addr:postcode": "35026", "addr:street": "Via Vittorio Emanuele II", "amenity": "hospital", "healthcare": "hospital", "name": "Ospedale di Conselve", "operator": "AULLS 6", "website": "https://www.aulss6.veneto.it/index.cfm?action=ospedali.conselve"}}, {"name": "Complesso Ospedaliero di Noventa Vicentina", "latitude": 45.2941191, "longitude": 11.534627, "source": "osm", "_tags": {"amenity": "hospital", "emergency": "yes", "healthcare": "hospital", "name": "Complesso Ospedaliero di Noventa Vicentina", "operator": "ULSS n.8 Vicenza"}}, {"name": "Arcispedale Sant'Anna", "latitude": 44.799357, "longitude": 11.6965227, "source": "osm", "_tags": {"amenity": "hospital", "emergency": "yes", "healthcare": "hospital", "name": "Arcispedale Sant'Anna"}}, {"name": "Casa di Cura Toniolo", "latitude": 44.4673717, "longitude": 11.3713666, "source": "osm", "_tags": {"addr:city": "Bologna", "addr:postcode": "40141", "addr:street": "Via Toscana", "amenity": "hospital", "healthcare": "hospital", "name": "Casa di Cura Toniolo"}}, {"name": "Casa della Salute", "latitude": 44.4757932, "longitude": 11.2741954, "source": "osm", "_tags": {"addr:street": "Piazzale Rita Levi Montalcini", "amenity": "hospital", "healthcare": "hospital", "name": "Casa della Salute", "operator": "A.S.L. Emilia Romagna", "wheelchair": "yes"}}, {"name": "Policlinico di Modena", "latitude": 44.6354633, "longitude": 10.9426728, "source": "osm", "_tags": {"addr:city": "Modena", "addr:housenumber": "71", "addr:postcode": "41124", "addr:street": "Via Del Pozzo", "amenity": "hospital", "emergency": "yes", "healthcare": "hospital", "name": "Policlinico di Modena", "phone": "+39 059 422.2111", "website": "https://www.aou.mo.it/"}}, {"name": "Ospedale San Luca", "latitude": 45.0297952, "longitude": 11.4666014, "source": "osm", "_tags": {"amenity": "hospital", "name": "Ospedale San Luca"}}, {"name": "Polo Emergenze Finale Emilia", "latitude": 44.8377303, "longitude": 11.2760781, "source": "osm", "_tags": {"addr:city": "Finale Emilia", "addr:housenumber": "48b", "addr:postcode": "41043", "addr:street": "Via per Modena", "amenity": "hospital", "emergency": "ambulance_station", "healthcare": "hospital", "name": "Polo Emergenze Finale Emilia", "operator": "Croce Rossa Italiana - Comitato di Finale Emilia"}}, {"name": "Associazione Pubblica Assistenza Castello di Serravalle ODV", "latitude": 44.4407772, "longitude": 11.0649132, "source": "osm", "_tags": {"addr:city": "Castello di Serravalle", "addr:housenumber": "75", "addr:postcode": "40050", "addr:street": "Via venticinque Aprile", "amenity": "hospital", "building": "hospital", "building:colour": "orange", "building:levels": "3", "email": "info@serravalle.org", "emergency": "yes", "healthcare": "hospital", "healthcare:speciality": "ambulance", "height": "12", "name": "Associazione Pubblica Assistenza Castello di Serravalle ODV", "operator": "Pubblica Assistenza Castello di Serravalle per la Valsamoggia Onlus", "phone": "+39 051 6704815", "roof:shape": "flat", "website": "https://serravalle.org/"}}, {"name": "Croce Rossa Italiana corpo militare", "latitude": 44.508564, "longitude": 11.3096576, "source": "osm", "_tags": {"amenity": "hospital", "healthcare": "hospital", "name": "Croce Rossa Italiana corpo militare"}}, {"name": "La Casa di Fausta", "latitude": 44.6340342, "longitude": 10.9449387, "source": "osm", "_tags": {"building": "yes", "healthcare": "hospital", "healthcare:speciality": "oncology", "name": "La Casa di Fausta", "website": "https://aseop.it/la-casa-di-fausta/"}}, {"name": "Azienda Ospedaliera di Padova", "latitude": 45.4030159, "longitude": 11.8869146, "source": "osm", "_tags": {"addr:city": "Padova", "addr:housenumber": "2", "addr:street": "Via Nicolò Giustiniani", "amenity": "hospital", "emergency": "yes", "healthcare": "hospital", "name": "Azienda Ospedaliera di Padova", "note": "area ovest", "wikidata": "Q30253940"}}, {"name": "", "latitude": 44.4408698, "longitude": 11.0650026, "source": "osm", "_tags": {"amenity": "hospital", "building:colour": "orange", "building:levels": "1", "healthcare": "hospital", "height": "3", "roof:shape": "flat"}}, {"name": "Hospice Bellaria", "latitude": 44.4666603, "longitude": 11.3951148, "source": "osm", "_tags": {"alt_name": "Arca sull'Albero", "amenity": "hospital", "building": "yes", "healthcare": "hospital", "name": "Hospice Bellaria", "website": "https://www.fondhs.org/hospice-bellaria"}}, {"name": "Ospedale di Budrio", "latitude": 44.5351579, "longitude": 11.5354313, "source": "osm", "_tags": {"amenity": "hospital", "check_date": "2025-07-22", "emergency": "yes", "healthcare": "hospital", "healthcare:speciality": "general;emergency;dialysis;internal", "name": "Ospedale di Budrio", "operator": "AUSL", "operator:type": "public"}}, {"name": "Poliambulatorio di Medicina", "latitude": 44.4740999, "longitude": 11.6363401, "source": "osm", "_tags": {"addr:housenumber": "1", "addr:street": "Via Aurelio Saffi", "alt_name": "Casa della salute di Medicina", "amenity": "hospital", "check_date": "2025-06-12", "healthcare": "hospital", "name": "Poliambulatorio di Medicina", "old_name": "Ospedale di Medicina", "operator": "A.U.S.L.", "operator:type": "public", "ref:corine_land_cover": "1213"}}, {"name": "Villa Baruzziana", "latitude": 44.4844322, "longitude": 11.3335391, "source": "osm", "_tags": {"amenity": "hospital", "emergency": "no", "healthcare": "hospital", "healthcare:speciality": "psychiatry", "name": "Villa Baruzziana"}}, {"name": "Ospedale Villa Nigrisoli", "latitude": 44.4918105, "longitude": 11.3564596, "source": "osm", "_tags": {"amenity": "hospital", "email": "info@nigrisoli.it", "fax": "+39 051 346972", "healthcare": "hospital", "healthcare:speciality": "general", "name": "Ospedale Villa Nigrisoli", "operator": "Ospedali Privati Riuniti", "phone": "+39 051 396411", "website": "https://www.ospedaliprivatiriuniti.it/nigrisoli/"}}, {"name": "Casa di cura Villa Bellombra", "latitude": 44.4811188, "longitude": 11.3393096, "source": "osm", "_tags": {"amenity": "hospital", "healthcare": "hospital", "name": "Casa di cura Villa Bellombra"}}, {"name": "Villa Torri", "latitude": 44.4961672, "longitude": 11.3575502, "source": "osm", "_tags": {"amenity": "hospital", "healthcare": "hospital", "healthcare:speciality": "general", "name": "Villa Torri", "wikidata": "Q30260817"}}, {"name": "Ospedale di Montagnana", "latitude": 45.2369096, "longitude": 11.459492, "source": "osm", "_tags": {"addr:city": "Montagnana", "addr:housenumber": "16", "addr:postcode": "35044", "addr:street": "Via Ospedale", "amenity": "hospital", "building": "hospital", "email": "cartelle.cliniche.montagnana@aulss6.veneto.it", "emergency": "yes", "fax": "+39 0429 808691", "name": "Ospedale di Montagnana", "phone": "+390429808111", "website": "https://www.aulss6.veneto.it/Ospedale-di-Montagnana"}}, {"name": "Villa Bellombra", "latitude": 44.4940025, "longitude": 11.2674054, "source": "osm", "_tags": {"amenity": "hospital", "contact:housenumber": "10/7", "contact:street": "Via Casteldebole", "email": "info@villabellombra.it", "fax": "+39 051 6133733", "healthcare": "hospital", "name": "Villa Bellombra", "phone": "+39 051 582095", "start_date": "2022-9-15", "website": "https://www.villabellombra.it/"}}, {"name": "Ospedale di Vignola", "latitude": 44.4830173, "longitude": 11.0107047, "source": "osm", "_tags": {"amenity": "hospital", "check_date": "2025-08-19", "healthcare": "hospital", "healthcare:speciality": "surgery", "name": "Ospedale di Vignola", "wheelchair": "yes"}}, {"name": "Casa della Salute Borgo Reno", "latitude": 44.5181414, "longitude": 11.2779121, "source": "osm", "_tags": {"addr:city": "Bologna", "addr:country": "IT", "addr:district": "Borgo Panigale", "addr:housenumber": "10", "addr:postcode": "40132", "addr:street": "Via Ercole Nani", "amenity": "hospital", "healthcare": "hospital", "name": "Casa della Salute Borgo Reno", "source": "Comune di Bologna"}}, {"name": "Ospedale Civile Mazzolani-Vandini", "latitude": 44.6116621, "longitude": 11.8346065, "source": "osm", "_tags": {"amenity": "hospital", "emergency": "yes", "healthcare": "hospital", "name": "Ospedale Civile Mazzolani-Vandini", "operator": "Azienda USL di Ferrara", "operator:type": "public", "website": "https://www.ausl.fe.it/amministrazione/ospedali/ospedale-mazzolani-vandini"}}, {"name": "", "latitude": 44.5082928, "longitude": 11.4707116, "source": "osm", "_tags": {"amenity": "hospital", "healthcare": "hospital"}}, {"name": "", "latitude": 44.4715296, "longitude": 11.4045265, "source": "osm", "_tags": {"amenity": "hospital", "healthcare": "hospital"}}, {"name": "Azienda USL di Ferrara", "latitude": 44.8406998, "longitude": 11.6089097, "source": "osm", "_tags": {"amenity": "hospital", "building": "yes", "emergency": "no", "name": "Azienda USL di Ferrara", "type": "multipolygon"}}, {"name": "Ospedale Giustinianeo", "latitude": 45.4036465, "longitude": 11.8867703, "source": "osm", "_tags": {"amenity": "hospital", "building": "hospital", "healthcare": "hospital", "name": "Ospedale Giustinianeo", "roof:shape": "hipped", "type": "multipolygon"}}, {"name": "Azienda Ospedaliera Carlo Poma", "latitude": 45.0344697, "longitude": 11.1155408, "source": "osm", "_tags": {"amenity": "hospital", "building": "yes", "healthcare": "hospital", "name": "Azienda Ospedaliera Carlo Poma", "type": "multipolygon"}}, {"name": "Madre Teresa di Calcutta", "latitude": 44.4633738, "longitude": 11.3968632, "source": "osm", "_tags": {"addr:city": "Bologna", "addr:housenumber": "9/7", "addr:postcode": "40139", "addr:street": "Via Altura", "amenity": "hospital", "healthcare": "hospital", "name": "Madre Teresa di Calcutta", "type": "multipolygon"}}, {"name": "Ospedale Privato Santa Viola", "latitude": 44.5054518, "longitude": 11.3038155, "source": "osm", "_tags": {"addr:city": "Bologna", "addr:postcode": "40133", "amenity": "hospital", "emergency": "no", "healthcare": "hospital", "name": "Ospedale Privato Santa Viola", "type": "multipolygon"}}]