[{"name": "Здравствена станица „Авијатичарски трг”", "latitude": 44.8398008, "longitude": 20.4138588, "source": "osm", "_tags": {"amenity": "hospital", "healthcare": "hospital", "int_name": "Zdravstvena stanica „Avijaticarski trg”", "name": "Здравствена станица „Авијатичарски трг”", "name:sr": "Здравствена станица „Авијатичарски трг”", "name:sr-Latn": "Zdravstvena stanica „Avijatičarski trg”"}}, {"name": "Диспанзер", "latitude": 44.4445274, "longitude": 20.6981993, "source": "osm", "_tags": {"amenity": "hospital", "emergency": "no", "healthcare": "hospital", "int_name": "Dispanzer", "name": "Диспанзер", "name:sr": "Диспанзер", "name:sr-Latn": "Dispanzer"}}, {"name": "Klinika Medicor", "latitude": 44.8197777, "longitude": 20.4163375, "source": "osm", "_tags": {"amenity": "hospital", "healthcare": "hospital", "name": "Klinika Medicor", "website": "https://medicor.rs/"}}, {"name": "Селтерс", "latitude": 44.4277493, "longitude": 20.6870131, "source": "osm", "_tags": {"amenity": "hospital", "emergency": "no", "healthcare": "hospital", "int_name": "Selters", "name": "Селтерс", "name:sr": "Селтерс", "name:sr-Latn": "Selters"}}, {"name": "Дом здравља Драган Фундук", "latitude": 44.8736382, "longitude": 20.0899755, "source": "osm", "_tags": {"amenity": "hospital", "emergency": "yes", "int_name": "Dom zdravlja Dragan Funduk", "name": "Дом здравља Драган Фундук", "name:sr": "Дом здравља Драган Фундук", "name:sr-Latn": "Dom zdravlja Dragan Funduk"}}, {"name": "Амбуланта Старчево", "latitude": 44.8063193, "longitude": 20.7052094, "source": "osm", "_tags": {"amenity": "hospital", "healthcare": "hospital", "int_name": "Ambulanta Starcevo", "name": "Амбуланта Старчево", "name:sr": "Амбуланта Старчево", "name:sr-Latn": "Ambulanta Starčevo"}}, {"name": "ОРС", "latitude": 44.7920114, "longitude": 20.4682619, "source": "osm", "_tags": {"addr:housenumber": "7", "addr:postcode": "11000", "addr:street": "Бокељска", "amenity": "hospital", "healthcare": "hospital", "int_name": "ORS", "name": "ОРС", "name:en": "ORS Hospital", "phone": "+381113910112", "website": "https://www.orshospital.rs/"}}, {"name": "Bel Medic", "latitude": 44.7774238, "longitude": 20.4722174, "source": "osm", "_tags": {"amenity": "hospital", "healthcare": "hospital", "name": "Bel Medic", "name:sr-Latn": "Bel Medic", "opening_hours": "24/7", "phone": "0113091000", "website": "https://www.belmedic.rs/"}}, {"name": "Црвени крст Земун", "latitude": 44.842038, "longitude": 20.4088198, "source": "osm", "_tags": {"amenity": "hospital", "healthcare": "hospital", "int_name": "Crveni krst Zemun", "name": "Црвени крст Земун", "name:sr": "Црвени крст Земун", "name:sr-Latn": "Crveni krst Zemun"}}, {"name": "Panacea", "latitude": 44.7982284, "longitude": 20.4854687, "source": "osm", "_tags": {"amenity": "hospital", "email": "office@panaceapoliklinika.com", "healthcare": "hospital", "internet_access": "wlan", "name": "Panacea", "name:en": "Poliklinika Panacea", "name:sr-Latn": "Poliklinika Panacea", "opening_hours": "Mo-Fr 08:00-20:00; Sa 08:00-18:00", "phone": "0117857555", "website": "http://www.panaceapoliklinika.com"}}, {"name": "", "latitude": 44.7776233, "longitude": 20.4718799, "source": "osm", "_tags": {"amenity": "hospital", "healthcare": "hospital"}}, {"name": "Хитна помоћ", "latitude": 44.8719332, "longitude": 20.6440964, "source": "osm", "_tags": {"amenity": "hospital", "healthcare": "hospital", "int_name": "Hitna pomoc", "name": "Хитна помоћ", "name:sr": "Хитна помоћ", "name:sr-Latn": "Hitna pomoć"}}, {"name": "Bel Medic", "latitude": 44.7784946, "longitude": 20.4702488, "source": "osm", "_tags": {"amenity": "hospital", "check_date": "2023-05-14", "healthcare": "hospital", "name": "Bel Medic", "name:sr-Latn": "Bel Medic", "opening_hours": "24/7", "phone": "+381 11309 1000", "website": "https://www.belmedic.rs/"}}, {"name": "Дом здравља „Еуромедик”", "latitude": 44.8031319, "longitude": 20.3848921, "source": "osm", "_tags": {"addr:floor": "G", "addr:housenumber": "36d", "addr:street": "Јурија Гагарина", "alt_name": "Дом здравља Еуромедик", "alt_name:sr": "Дом здравља Еуромедик", "alt_name:sr-Latn": "Dom zdravlja Euromedik", "amenity": "hospital", "check_date": "2024-11-04", "healthcare": "hospital", "int_name": "Dom zdravlja „Euromedik”", "level": "0", "name": "Дом здравља „Еуромедик”", "name:sr": "Дом здравља „Еуромедик”", "name:sr-Latn": "Dom zdravlja „Euromedik”", "opening_hours": "Mo-Fr 07:00-21:00; Sa 07:30-15:00; Su off", "payment:cash": "yes", "payment:credit_cards": "yes", "payment:debit_cards": "yes", "phone": "+381 11 2276324; +381 11 2284001", "short_name": "Еуромедик", "short_name:sr": "Еуромедик", "short_name:sr-Latn": "Euromedik", "website": "https://euromedic.rs/", "wheelchair": "yes"}}, {"name": "Специјална болница за плућне болести „др Васа Савић” Зрењанин", "latitude": 45.3823979, "longitude": 20.3873805, "source": "osm", "_tags": {"addr:housenumber": "4", "addr:postcode": "23000", "addr:street": "Петефијева", "amenity": "hospital", "email": "office@plucna.co.rs", "fax": "023561115", "healthcare": "hospital", "healthcare:speciality": "pulmology", "int_name": "Specijalna bolnica za plucne bolesti „dr Vasa Savic” Zrenjanin", "name": "Специјална болница за плућне болести „др Васа Савић” Зрењанин", "name:sr": "Специјална болница за плућне болести „др Васа Савић” Зрењанин", "name:sr-Latn": "Specijalna bolnica za plućne bolesti „dr Vasa Savić” Zrenjanin", "operator:type": "govenrment", "phone": "023534368"}}, {"name": "КБЦ Земун - Болница за педијатрију", "latitude": 44.8423998, "longitude": 20.4065949, "source": "osm", "_tags": {"addr:housenumber": "32", "addr:street": "Гундулићева", "amenity": "clinic", "healthcare": "hospital", "healthcare:speciality": "paediatrics", "int_name": "KBC Zemun - Bolnica za pedijatriju", "name": "КБЦ Земун - Болница за педијатрију", "name:sr": "КБЦ Земун - Болница за педијатрију", "name:sr-Latn": "KBC Zemun - Bolnica za pedijatriju"}}, {"name": "Ordinacija Imedic", "latitude": 44.8079933, "longitude": 20.4633164, "source": "osm", "_tags": {"amenity": "hospital", "healthcare": "hospital", "name": "Ordinacija Imedic", "website": "https://imedic.rs/"}}, {"name": "", "latitude": 44.7642386, "longitude": 20.4831611, "source": "osm", "_tags": {"amenity": "hospital", "healthcare": "hospital", "name:en": "MSB"}}, {"name": "Општа Болница „Аурора”", "latitude": 44.7991682, "longitude": 20.4553435, "source": "osm", "_tags": {"addr:housenumber": "26", "addr:street": "Вишеградска", "amenity": "hospital", "int_name": "Opsta Bolnica „Aurora”", "name": "Општа Болница „Аурора”", "name:sr": "Општа Болница „Аурора”", "name:sr-Latn": "Opšta Bolnica „Aurora”", "opening_hours": "24/7", "phone": "+381 11 7151777", "website": "https://aurorabolnica.rs/"}}, {"name": "Medigroup", "latitude": 44.8009624, "longitude": 20.4691562, "source": "osm", "_tags": {"amenity": "hospital", "check_date": "2024-01-31", "healthcare": "hospital", "name": "Medigroup", "wheelchair": "yes"}}, {"name": "Хитна помоћ - Стари град", "latitude": 44.8182008, "longitude": 20.4532381, "source": "osm", "_tags": {"amenity": "hospital", "emergency": "yes", "healthcare": "hospital", "int_name": "Hitna pomoc - Stari grad", "name": "Хитна помоћ - Стари град", "name:sr": "Хитна помоћ - Стари град", "name:sr-Latn": "Hitna pomoć - Stari grad", "opening_hours": "Mo-Su 07:30-19:30", "phone": "+381 11 3282351"}}, {"name": "ГАК Народни фронт", "latitude": 44.8097406, "longitude": 20.4600801, "source": "osm", "_tags": {"addr:city": "Београд", "addr:country": "RS", "addr:housenumber": "62", "addr:postcode": "11000", "addr:street": "Краљице Наталије", "amenity": "hospital", "building": "hospital", "building:levels": "6", "email": "info@gakfront.org", "healthcare": "hospital", "int_name": "GAK Narodni front", "name": "ГАК Народни фронт", "name:sr": "ГАК Народни фронт", "name:sr-Latn": "GAK Narodni front", "operator:type": "government", "phone": "+381112068250", "ref:RS:kucni_broj": "3204165", "start_date": "1955", "website": "http://gakfront.org/", "wheelchair": "yes", "wikidata": "Q12957257", "wikipedia": "sr:Гинеколошко-акушерска клиника Народни фронт", "year_of_construction": "1953..1955"}}, {"name": "Клиничко-болнички центар „Звездара”", "latitude": 44.8005887, "longitude": 20.5007647, "source": "osm", "_tags": {"addr:city": "Београд", "addr:country": "RS", "addr:housenumber": "161", "addr:postcode": "11000", "addr:street": "Димитрија Туцовића", "amenity": "hospital", "email": "kabinet@kbczvezdara.rs", "healthcare": "hospital", "int_name": "Klinicko-bolnicki centar „Zvezdara”", "internet_access": "wlan", "loc_name": "KBC Zvezdara", "name": "Клиничко-болнички центар „Звездара”", "name:sr": "Клиничко-болнички центар „Звездара”", "name:sr-Latn": "Kliničko-bolnički centar „Zvezdara”", "opening_hours": "24/7", "operator:type": "government", "phone": "+381113806969;+381113806333", "ref:RS:kucni_broj": "3601621", "short_name": "КБЦ „Звездара”", "short_name:sr": "КБЦ „Звездара”", "short_name:sr-Latn": "KBC „Zvezdara”", "website": "https://www.kbczvezdara.rs/", "wheelchair": "yes", "wikidata": "Q16507211", "wikipedia": "sr:Клиничко-болнички центар Звездара"}}, {"name": "МедиГруп", "latitude": 44.8070668, "longitude": 20.4212187, "source": "osm", "_tags": {"addr:country": "RS", "addr:housenumber": "3", "addr:postcode": "11070", "addr:street": "Милутина Миланковића", "addr:suburb": "Нови Београд", "amenity": "hospital", "building": "hospital", "building:levels": "3", "email": "info@medigroup.rs", "healthcare": "hospital", "int_name": "MediGrup", "name": "МедиГруп", "name:en": "MediGroup", "name:sr": "МедиГруп", "name:sr-Latn": "MediGrup", "opening_hours": "24/7", "phone": "+381 11 4040100", "ref:RS:kucni_broj": "3162365", "roof:shape": "flat", "website": "https://www.medigroup.rs"}}, {"name": "Универзитетски клинички центар Србије", "latitude": 44.7980576, "longitude": 20.4588244, "source": "osm", "_tags": {"addr:city": "Београд", "addr:country": "RS", "addr:housenumber": "2", "addr:postcode": "11000", "addr:street": "Пастерова", "amenity": "hospital", "email": "mediacentar@kcs.ac.rs", "emergency": "yes", "healthcare": "hospital", "int_name": "Univerzitetski klinicki centar Srbije", "name": "Универзитетски клинички центар Србије", "name:de": "Klinikzentrum Serbiens", "name:en": "University Clinical Centre of Serbia", "name:sr": "Универзитетски клинички центар Србије", "name:sr-Latn": "Univerzitetski klinički centar Srbije", "operator:type": "government", "phone": "+381113617777;+381113618444", "short_name": "УКЦС", "short_name:sr": "УКЦС", "short_name:sr-Latn": "UKCS", "website": "http://www.kcs.ac.rs/", "wheelchair": "yes", "wikidata": "Q12752817", "wikimedia_commons": "Category:Clinical Center of Serbia building", "wikipedia": "sr:Универзитетски клинички центар Србије"}}, {"name": "Еуромедик општа болница", "latitude": 44.8146414, "longitude": 20.4116986, "source": "osm", "_tags": {"addr:housenumber": "29", "addr:street": "Булевар уметности", "amenity": "hospital", "building": "hospital", "building:levels": "1", "healthcare": "hospital", "int_name": "Euromedik opsta bolnica", "name": "Еуромедик општа болница", "operator": "Eуромедик", "ref:RS:kucni_broj": "3165574", "website": "https://euromedic.rs/"}}, {"name": "Војномедицинска академија", "latitude": 44.7643864, "longitude": 20.467314, "source": "osm", "_tags": {"addr:city": "Београд", "addr:housenumber": "17", "addr:postcode": "11000", "addr:street": "Црнотравска", "amenity": "hospital", "building": "hospital", "building:levels": "16", "emergency": "yes", "healthcare": "hospital", "int_name": "Vojnomedicinska akademija", "name": "Војномедицинска академија", "name:en": "Military - Medical Academy", "name:ru": "Военно-медицинская академия", "name:sr": "Војномедицинска академија", "name:sr-Latn": "Vojnomedicinska akademija", "phone": "+381112661122", "ref:RS:kucni_broj": "3206011", "short_name": "ВМА", "short_name:sr": "ВМА", "short_name:sr-Latn": "VMA", "start_date": "1980", "website": "http://www.vma.mod.gov.rs/", "wheelchair": "yes", "wikidata": "Q6593183", "wikimedia_commons": "Category:Military Medical Academy of Serbia", "wikipedia": "sr:Војномедицинска академија Универзитета одбране у Београду", "year_of_construction": "1980"}}, {"name": "Дом здравља „Еуромедик”", "latitude": 44.8043486, "longitude": 20.3850414, "source": "osm", "_tags": {"addr:housenumber": "122g", "addr:street": "Гандијева", "alt_name": "Дом здравља Еуромедик", "alt_name:sr": "Дом здравља Еуромедик", "alt_name:sr-Latn": "Dom zdravlja Euromedik", "amenity": "hospital", "building": "yes", "healthcare": "hospital", "int_name": "Dom zdravlja „Euromedik”", "name": "Дом здравља „Еуромедик”", "name:sr": "Дом здравља „Еуромедик”", "name:sr-Latn": "Dom zdravlja „Euromedik”", "ref:RS:kucni_broj": "3162340", "short_name": "Еуромедик", "short_name:sr": "Еуромедик", "short_name:sr-Latn": "Euromedik"}}, {"name": "Клиника за психијатријске болести Др Лаза Лазаревић", "latitude": 44.9487128, "longitude": 20.423329, "source": "osm", "_tags": {"amenity": "hospital", "emergency": "no", "healthcare": "hospital", "int_name": "Klinika za psihijatrijske bolesti Dr Laza Lazarevic", "name": "Клиника за психијатријске болести Др Лаза Лазаревић", "name:sr": "Клиника за психијатријске болести Др Лаза Лазаревић", "name:sr-Latn": "Klinika za psihijatrijske bolesti Dr Laza Lazarević"}}, {"name": "КБЦ „Др Драгиша Мишовић - Дедиње” Комплекс Б", "latitude": 44.7775281, "longitude": 20.4565148, "source": "osm", "_tags": {"alt_name": "КБЦ Др Драгиша Мишовић - Дедиње Комплекс Б", "alt_name:sr": "КБЦ Др Драгиша Мишовић - Дедиње Комплекс Б", "alt_name:sr-Latn": "KBC Dr Dragiša Mišović - Dedinje Kompleks B", "amenity": "hospital", "barrier": "fence", "healthcare": "hospital", "int_name": "KBC „Dr Dragisa Misovic - Dedinje” Kompleks B", "name": "КБЦ „Др Драгиша Мишовић - Дедиње” Комплекс Б", "name:sr": "КБЦ „Др Драгиша Мишовић - Дедиње” Комплекс Б", "name:sr-Latn": "KBC „Dr Dragiša Mišović - Dedinje” Kompleks B", "wikidata": "Q11109932", "wikipedia": "sr:КБЦ Др Драгиша Мишовић"}}, {"name": "", "latitude": 44.7767927, "longitude": 20.4553316, "source": "osm", "_tags": {"amenity": "hospital", "building": "hospital", "building:levels": "1", "healthcare": "hospital"}}, {"name": "", "latitude": 44.7767657, "longitude": 20.4557514, "source": "osm", "_tags": {"amenity": "hospital", "building": "hospital", "building:levels": "2", "healthcare": "hospital"}}, {"name": "Клиничко-болнички центар „Бежанијска коса”", "latitude": 44.831305, "longitude": 20.3828786, "source": "osm", "_tags": {"addr:city": "Београд", "addr:country": "RS", "addr:housenumber": "20", "addr:postcode": "11000", "addr:street": "Др Жоржа Матеа", "alt_name": "КБЦ Бежанијска коса", "alt_name:sr": "КБЦ Бежанијска коса", "alt_name:sr-Latn": "KBC Bežanijska kosa", "amenity": "hospital", "barrier": "fence", "beds": "360", "email": "kontakt.sajt@bkosa.edu.rs", "emergency": "yes", "healthcare": "hospital", "int_name": "Klinicko-bolnicki centar „Bezanijska kosa”", "name": "Клиничко-болнички центар „Бежанијска коса”", "name:sr": "Клиничко-болнички центар „Бежанијска коса”", "name:sr-Latn": "Kliničko-bolnički centar „Bežanijska kosa”", "opening_hours": "24/7", "operator:type": "government", "phone": "+381113010777", "ref:RS:kucni_broj": "6823191", "short_name": "KBC „Bežanijska kosa“", "short_name:sr": "КБЦ „Бежанијска коса“", "short_name:sr-Latn": "KBC „Bežanijska kosa“", "website": "http://bkosa.rs/", "wheelchair": "yes", "wikidata": "Q2944932", "wikipedia": "sr:Клиничко-болнички центар Бежанијска коса"}}, {"name": "Институт за здравствену заштиту мајке и детета Србије „Др Вукан Чупић”", "latitude": 44.8318134, "longitude": 20.4029161, "source": "osm", "_tags": {"addr:city": "Београд", "addr:country": "RS", "addr:housenumber": "6-8", "addr:postcode": "11070", "addr:street": "Радоја Дакића", "addr:suburb": "Нови Београд", "alt_name": "Институт за мајку и дете", "alt_name:sr": "Институт за мајку и дете", "alt_name:sr-Latn": "Institut za majku i dete", "amenity": "hospital", "email": "info@imd.org.rs", "fax": "+381112697232", "healthcare": "hospital", "int_name": "Institut za zdravstvenu zastitu majke i deteta Srbije „Dr Vukan Cupic”", "name": "Институт за здравствену заштиту мајке и детета Србије „Др Вукан Чупић”", "name:en": "The Institute for Medical Care of Mother and Child of Serbia “Dr Vukan Cupic”", "name:sr": "Институт за здравствену заштиту мајке и детета Србије „Др Вукан Чупић”", "name:sr-Latn": "Institut za zdravstvenu zaštitu majke i deteta Srbije „Dr Vukan Čupić”", "note": "Dežurna ustanova neparnim danima u mesecu", "operator:type": "government", "phone": "+381113108108", "website": "https://www.imd.org.rs/", "wheelchair": "yes", "wikidata": "Q110045772", "wikipedia": "sr:Институт за здравствену заштиту мајке и детета Србије ,,Др Вукан Чупић’’"}}, {"name": "Институт за кардиоваскуларне болести „Дедиње”", "latitude": 44.7791859, "longitude": 20.4604838, "source": "osm", "_tags": {"addr:city": "Београд", "addr:country": "RS", "addr:housenumber": "1", "addr:postcode": "11040", "addr:street": "Хероја Милана Тепића", "amenity": "hospital", "building": "hospital", "email": "dedinje@ikvbd.com", "healthcare": "hospital", "int_name": "Institut za kardiovaskularne bolesti „Dedinje”", "name": "Институт за кардиоваскуларне болести „Дедиње”", "name:sr": "Институт за кардиоваскуларне болести „Дедиње”", "name:sr-Latn": "Institut za kardiovaskularne bolesti „Dedinje”", "operator:type": "government", "phone": "+381113601700; +381113601714; +381113601711", "website": "https://www.ikvbd.com/", "wikidata": "Q20435802", "wikipedia": "sr:Институт за кардиоваскуларне болести Дедиње"}}, {"name": "Институт за ортопедско-хируршке болести „Бањица”", "latitude": 44.7666439, "longitude": 20.4607091, "source": "osm", "_tags": {"addr:street": "Михаила Аврамовића", "alt_name": "Институт за ортопедско-хируршке болести Бањица", "alt_name:sr": "Институт за ортопедско-хируршке болести Бањица", "alt_name:sr-Latn": "Institut za ortopedsko-hirurške bolesti Banjica", "amenity": "hospital", "email": "info@iohbb.edu.rs", "emergency": "yes", "healthcare": "hospital", "int_name": "Institut za ortopedsko-hirurske bolesti „Banjica”", "name": "Институт за ортопедско-хируршке болести „Бањица”", "name:sr": "Институт за ортопедско-хируршке болести „Бањица”", "name:sr-Latn": "Institut za ortopedsko-hirurške bolesti „Banjica”", "operator:type": "government", "phone": "+381116660466", "website": "https://www.iohbb.edu.rs/", "wheelchair": "yes", "wikidata": "Q110046746", "wikipedia": "sr:Институт за ортопедију Бањица"}}, {"name": "Специјална болница за церебралну парализу и развојну неурологију", "latitude": 44.7790828, "longitude": 20.4611443, "source": "osm", "_tags": {"addr:city": "Београд", "addr:country": "RS", "addr:housenumber": "17a", "addr:postcode": "11000", "addr:street": "Сокобањска", "alt_name": "Specijalna bolnica za cerebralnu paralizu i razvojnu neurologiju - Paviljon I", "alt_name2": "Specijalna bolnica za cerebralnu paralizu i razvojnu neurologiju - Paviljon 1", "amenity": "hospital", "building": "yes", "email": "office@sbcprn.com", "fax": "+381112668580", "healthcare": "hospital", "int_name": "Specijalna bolnica za cerebralnu paralizu i razvojnu neurologiju", "name": "Специјална болница за церебралну парализу и развојну неурологију", "name:sr": "Специјална болница за церебралну парализу и развојну неурологију", "name:sr-Latn": "Specijalna bolnica za cerebralnu paralizu i razvojnu neurologiju", "operator:type": "government", "phone": "+381112667755", "website": "https://www.sbcprn.com/", "wheelchair": "yes"}}, {"name": "", "latitude": 44.8094304, "longitude": 20.4605584, "source": "osm", "_tags": {"building": "hospital", "building:levels": "6", "healthcare": "hospital", "nohousenumber": "yes"}}, {"name": "Centar za radiološku diagnostiku", "latitude": 44.7960316, "longitude": 20.4678464, "source": "osm", "_tags": {"addr:city": "Градска општина Врачар", "addr:housenumber": "6", "addr:postcode": "11102", "addr:street": "Ранкеова", "amenity": "hospital", "building": "hospital", "building:levels": "2", "emergency": "no", "healthcare": "hospital", "healthcare:speciality": "stomatology;radiology", "name": "Centar za radiološku diagnostiku", "operator": "Stomatološki fakultet u Beogradu", "operator:type": "public", "ref:RS:kucni_broj": "3245476", "roof:shape": "gabled"}}, {"name": "", "latitude": 44.7990033, "longitude": 20.4983888, "source": "osm", "_tags": {"addr:city": "Београд", "addr:housenumber": "35", "addr:postcode": "11000", "addr:street": "Прешевска", "building": "hospital", "building:levels": "3", "healthcare": "hospital", "healthcare:speciality": "pulmonology"}}, {"name": "Болница за неурологију", "latitude": 44.7809835, "longitude": 20.4596294, "source": "osm", "_tags": {"addr:housenumber": "2", "addr:street": "Др Иве Поповића Ђанија", "amenity": "hospital", "building": "hospital", "healthcare": "hospital", "int_name": "Bolnica za neurologiju", "name": "Болница за неурологију", "name:sr": "Болница за неурологију", "name:sr-Latn": "Bolnica za neurologiju"}}, {"name": "Клиничко-болнички центар Земун", "latitude": 44.8418571, "longitude": 20.4069553, "source": "osm", "_tags": {"addr:city": "Земун", "addr:country": "RS", "addr:housenumber": "9", "addr:postcode": "11080", "addr:street": "Вукова", "alt_name": "КБЦ Земун", "alt_name:sr": "КБЦ Земун", "alt_name:sr-Latn": "KBC Zemun", "amenity": "hospital", "email": "centar@kbczemun.bg.ac.rs", "emergency": "yes", "fax": "+381112107057", "healthcare": "hospital", "int_name": "Klinicko-bolnicki centar Zemun", "loc_name": "Земунска болница", "name": "Клиничко-болнички центар Земун", "name:sr": "Клиничко-болнички центар Земун", "name:sr-Latn": "Kliničko-bolnički centar Zemun", "operator:type": "government", "phone": "+381113772666;+381113772-651;+381112106106", "ref:RS:kucni_broj": "3677488", "website": "http://www.kbczemun.rs/", "wheelchair": "yes", "wikidata": "Q2944930", "wikipedia": "sr:Клиничко-болнички центар Земун"}}, {"name": "Општа болница „УНА”", "latitude": 44.7830877, "longitude": 20.4798551, "source": "osm", "_tags": {"addr:city": "Београд", "addr:housenumber": "19", "addr:postcode": "11000", "addr:street": "Војводе Скопљанца", "amenity": "hospital", "building": "yes", "healthcare": "hospital", "int_name": "Opsta bolnica „UNA”", "name": "Општа болница „УНА”", "name:sr": "Општа болница „УНА”", "name:sr-Latn": "Opšta bolnica „UNA”", "phone": "+381 11 309 62 15", "ref:RS:kucni_broj": "3219790", "website": "http://www.unaklinika.rs/", "wheelchair": "yes"}}, {"name": "Saint James Hospital", "latitude": 44.783525, "longitude": 20.479634, "source": "osm", "_tags": {"addr:housenumber": "13", "addr:street": "Војводе Скопљанца", "amenity": "hospital", "building": "hospital", "building:levels": "2", "healthcare": "hospital", "name": "Saint James Hospital", "ref:RS:kucni_broj": "3233961", "roof:levels": "0", "roof:shape": "gabled"}}, {"name": "Војномедицински центар Карабурма", "latitude": 44.8134716, "longitude": 20.4942215, "source": "osm", "_tags": {"addr:housenumber": "1", "addr:street": "Северни булевар", "amenity": "hospital", "healthcare": "hospital", "int_name": "Vojnomedicinski centar Karaburma", "name": "Војномедицински центар Карабурма", "name:sr": "Војномедицински центар Карабурма", "name:sr-Latn": "Vojnomedicinski centar Karaburma", "opening_hours": "Mo-Fr 07:30-15:30", "phone": "+381 11 3205-012", "short_name": "ВМЦ Карабурма", "short_name:sr": "ВМЦ Карабурма", "short_name:sr-Latn": "VMC Karaburma"}}, {"name": "Болница за пластичну, реконструктивну и естетску хирургију „др Цолић”", "latitude": 44.7898482, "longitude": 20.4655568, "source": "osm", "_tags": {"addr:housenumber": "5", "addr:postcode": "11000", "addr:street": "Сурдуличка", "alt_name": "Болница за пластичну, реконструктивну и естетску хирургију др Цолић", "alt_name:sr": "Болница за пластичну, реконструктивну и естетску хирургију др Цолић", "alt_name:sr-Latn": "Bolnica za plastičnu, rekonstruktivnu i estetsku hirurgiju dr Colić", "amenity": "hospital", "building": "house", "email": "drcolic@eunet.rs", "healthcare": "hospital", "int_name": "Bolnica za plasticnu, rekonstruktivnu i estetsku hirurgiju „dr Colic”", "internet_access": "wlan", "name": "Болница за пластичну, реконструктивну и естетску хирургију „др Цолић”", "name:sr": "Болница за пластичну, реконструктивну и естетску хирургију „др Цолић”", "name:sr-Latn": "Bolnica za plastičnu, rekonstruktivnu i estetsku hirurgiju „dr Colić”", "opening_hours": "24/7", "phone": "+381 11 3699 800", "ref:RS:kucni_broj": "3204687", "website": "https://www.dr-colic.com/"}}, {"name": "Општа болница „Ђорђе Јоановић”", "latitude": 45.3741247, "longitude": 20.3786101, "source": "osm", "_tags": {"addr:housenumber": "5", "addr:postcode": "23000", "addr:street": "Др Васе Савића", "amenity": "hospital", "email": "zrenjaninska.bolnica@gmail.com", "emergency": "yes", "fax": "023564104", "healthcare": "hospital", "healthcare:speciality": "general", "int_name": "Opsta bolnica „Djordje Joanovic”", "name": "Општа болница „Ђорђе Јоановић”", "name:en": "General Hospital \"Djordje Joanovic\"", "name:sr": "Општа болница „Ђорђе Јоановић”", "name:sr-Latn": "Opšta bolnica „Đorđe Joanović”", "opening_hours": "24/7", "operator:type": "government", "phone": "023536930;023513200", "website": "http://bolnica.org.rs", "wheelchair": "yes"}}, {"name": "КБЦ „Земун” - Одељење за туберкулозу", "latitude": 44.8327795, "longitude": 20.3976569, "source": "osm", "_tags": {"addr:housenumber": "6", "addr:street": "Излетнички пут", "amenity": "hospital", "building": "hospital", "emergency": "no", "healthcare": "hospital", "int_name": "KBC „Zemun” - Odeljenje za tuberkulozu", "name": "КБЦ „Земун” - Одељење за туберкулозу", "name:sr": "КБЦ „Земун” - Одељење за туберкулозу", "name:sr-Latn": "KBC „Zemun” - Odeljenje za tuberkulozu", "ref:RS:kucni_broj": "3165185"}}, {"name": "КБЦ „Земун” - Служба интернистичке геријатрије", "latitude": 44.8327612, "longitude": 20.3970157, "source": "osm", "_tags": {"addr:housenumber": "8", "addr:street": "Излетнички пут", "amenity": "hospital", "building": "hospital", "healthcare": "hospital", "int_name": "KBC „Zemun” - Sluzba internisticke gerijatrije", "name": "КБЦ „Земун” - Служба интернистичке геријатрије", "name:sr": "КБЦ „Земун” - Служба интернистичке геријатрије", "name:sr-Latn": "KBC „Zemun” - Služba internističke gerijatrije", "ref:RS:kucni_broj": "3161427"}}, {"name": "", "latitude": 44.8327744, "longitude": 20.3972536, "source": "osm", "_tags": {"amenity": "hospital", "healthcare": "hospital"}}, {"name": "Болница за педијатрију „Др Олга Поповић-Дедијер”", "latitude": 44.8166989, "longitude": 20.4924874, "source": "osm", "_tags": {"addr:housenumber": "13", "addr:street": "Мије Ковачевића", "amenity": "hospital", "healthcare": "hospital", "int_name": "Bolnica za pedijatriju „Dr Olga Popovic-Dedijer”", "name": "Болница за педијатрију „Др Олга Поповић-Дедијер”", "name:sr": "Болница за педијатрију „Др Олга Поповић-Дедијер”", "name:sr-Latn": "Bolnica za pedijatriju „Dr Olga Popović-Dedijer”", "ref:RS:kucni_broj": "3175758"}}, {"name": "Дом здравља „Др Милутин Ивковић”", "latitude": 44.9406178, "longitude": 20.4309648, "source": "osm", "_tags": {"addr:city": "Padinska Skela", "addr:postcode": "11213", "addr:street": "Дејана Смиљковића", "amenity": "hospital", "building": "yes", "int_name": "Dom zdravlja „Dr Milutin Ivkovic”", "name": "Дом здравља „Др Милутин Ивковић”", "name:sr": "Дом здравља „Др Милутин Ивковић”", "name:sr-Latn": "Dom zdravlja „Dr Milutin Ivković”"}}, {"name": "Медицина рада", "latitude": 44.8060613, "longitude": 20.3980333, "source": "osm", "_tags": {"amenity": "hospital", "healthcare": "hospital", "int_name": "Medicina rada", "name": "Медицина рада", "name:sr": "Медицина рада", "name:sr-Latn": "Medicina rada"}}, {"name": "Болница за ОРЛ", "latitude": 44.7808334, "longitude": 20.4599323, "source": "osm", "_tags": {"addr:housenumber": "2", "addr:street": "Др Иве Поповића Ђанија", "amenity": "hospital", "building": "hospital", "healthcare": "hospital", "int_name": "Bolnica za ORL", "name": "Болница за ОРЛ", "name:sr": "Болница за ОРЛ", "name:sr-Latn": "Bolnica za ORL", "ref:RS:kucni_broj": "3204354"}}, {"name": "ВМЦ Нови Београд", "latitude": 44.8113262, "longitude": 20.4251764, "source": "osm", "_tags": {"amenity": "hospital", "healthcare": "hospital", "int_name": "VMC Novi Beograd", "name": "ВМЦ Нови Београд", "name:sr": "ВМЦ Нови Београд", "name:sr-Latn": "VMC Novi Beograd"}}, {"name": "Дом здравља Др Симо Милошевић - огранак Жарково", "latitude": 44.7591988, "longitude": 20.418732, "source": "osm", "_tags": {"amenity": "hospital", "healthcare": "hospital", "int_name": "Dom zdravlja Dr Simo Milosevic - ogranak Zarkovo", "name": "Дом здравља Др Симо Милошевић - огранак Жарково", "name:sr": "Дом здравља Др Симо Милошевић - огранак Жарково", "name:sr-Latn": "Dom zdravlja Dr Simo Milošević - ogranak Žarkovo", "operator": "Дом здравља Др Симо Милошевић", "wheelchair": "yes"}}, {"name": "Дом за одрасла инвалидна лица", "latitude": 44.832131, "longitude": 20.3775654, "source": "osm", "_tags": {"amenity": "hospital", "healthcare": "hospital", "int_name": "Dom za odrasla invalidna lica", "name": "Дом за одрасла инвалидна лица", "name:sr": "Дом за одрасла инвалидна лица", "name:sr-Latn": "Dom za odrasla invalidna lica"}}, {"name": "Општа болница „Свети Лука”", "latitude": 44.6606872, "longitude": 20.92432, "source": "osm", "_tags": {"addr:city": "Смедерево", "addr:country": "RS", "addr:housenumber": "51", "addr:postcode": "11300", "addr:street": "Кнеза Михаила", "amenity": "hospital", "email": "office@obsmederevo.rs", "healthcare": "hospital", "int_name": "Opsta bolnica „Sveti Luka”", "name": "Општа болница „Свети Лука”", "name:sr": "Општа болница „Свети Лука”", "name:sr-Latn": "Opšta bolnica „Sveti Luka”", "operator:type": "government", "phone": "+381 (26) 240 700", "ref:RS:kucni_broj": "3892162", "website": "https://www.obsmederevo.rs"}}, {"name": "Општа болница Панчево", "latitude": 44.8679995, "longitude": 20.6532953, "source": "osm", "_tags": {"addr:country": "RS", "addr:housenumber": "11", "addr:postcode": "26101", "addr:street": "Милоша Требињца", "amenity": "hospital", "email": "opstabolnica@bolnicapancevo.rs", "healthcare": "hospital", "int_name": "Opsta bolnica Pancevo", "name": "Општа болница Панчево", "name:sr": "Општа болница Панчево", "name:sr-Latn": "Opšta bolnica Pančevo", "operator:type": "government", "phone": "013306400", "ref:RS:kucni_broj": "6303686", "website": "https://www.bolnicapancevo.rs/index.html", "wheelchair": "yes"}}, {"name": "Здравствена Станица Мали Мокри Луг", "latitude": 44.7770511, "longitude": 20.5204381, "source": "osm", "_tags": {"addr:city": "Београд", "addr:housenumber": "29", "addr:postcode": "11050", "addr:street": "Босанска", "amenity": "clinic", "healthcare": "hospital", "int_name": "Zdravstvena Stanica Mali Mokri Lug", "name": "Здравствена Станица Мали Мокри Луг", "name:sr": "Здравствена Станица Мали Мокри Луг", "name:sr-Latn": "Zdravstvena Stanica Mali Mokri Lug"}}, {"name": "КБЦ Звездара", "latitude": 44.7999153, "longitude": 20.4955644, "source": "osm", "_tags": {"addr:city": "Београд", "addr:housenumber": "33", "addr:postcode": "11000", "addr:street": "Прешевска", "amenity": "hospital", "check_date": "2024-05-04", "healthcare": "hospital", "int_name": "KBC Zvezdara", "name": "КБЦ Звездара", "name:en": "Clinical-Hospital Center Zvezdara", "name:sr": "КБЦ Звездара", "name:sr-Latn": "KBC Zvezdara"}}, {"name": "Општа болница „Свети Јован”", "latitude": 45.3853206, "longitude": 20.387873, "source": "osm", "_tags": {"addr:housenumber": "38", "addr:postcode": "23101", "addr:street": "Иве Лоле Рибара", "amenity": "hospital", "building": "hospital", "email": "obsvetijovan@gmail.com", "healthcare": "hospital", "healthcare:speciality": "general", "int_name": "Opsta bolnica „Sveti Jovan”", "name": "Општа болница „Свети Јован”", "name:en": "Hospital St. John", "name:sr": "Општа болница „Свети Јован”", "name:sr-Latn": "Opšta bolnica „Sveti Jovan”", "operator:type": "private", "phone": "+381 23 510 765;+381 23 580 030 ;+381 23 580 031;+381 23 528 810", "ref:RS:kucni_broj": "6442875"}}, {"name": "КБЦ „Др Драгиша Мишовић - Дедиње” Комплекс А", "latitude": 44.7799409, "longitude": 20.4596871, "source": "osm", "_tags": {"alt_name": "КБЦ Др Драгиша Мишовић - Дедиње Комплекс А", "alt_name:sr": "КБЦ Др Драгиша Мишовић - Дедиње Комплекс А", "alt_name:sr-Latn": "KBC Dr Dragiša Mišović - Dedinje Kompleks A", "amenity": "hospital", "barrier": "fence", "fixme": "review barrier=fence", "healthcare": "hospital", "int_name": "KBC „Dr Dragisa Misovic - Dedinje” Kompleks A", "name": "КБЦ „Др Драгиша Мишовић - Дедиње” Комплекс А", "name:sr": "КБЦ „Др Драгиша Мишовић - Дедиње” Комплекс А", "name:sr-Latn": "KBC „Dr Dragiša Mišović - Dedinje” Kompleks A", "wikidata": "Q11109932", "wikipedia": "sr:КБЦ Др Драгиша Мишовић"}}, {"name": "", "latitude": 44.7110581, "longitude": 20.4437694, "source": "osm", "_tags": {"amenity": "hospital", "healthcare": "hospital"}}, {"name": "Специјална болница др Боривоје Гњатић - Стари Сланкамен", "latitude": 45.1391915, "longitude": 20.2597568, "source": "osm", "_tags": {"amenity": "hospital", "healthcare": "hospital", "int_name": "Specijalna bolnica dr Borivoje Gnjatic - Stari Slankamen", "name": "Специјална болница др Боривоје Гњатић - Стари Сланкамен", "name:sr": "Специјална болница др Боривоје Гњатић - Стари Сланкамен", "name:sr-Latn": "Specijalna bolnica dr Borivoje Gnjatić - Stari Slankamen", "operator:type": "government", "phone": "+381222591426", "website": "https://www.bolnicaslankamen.co.rs/", "wheelchair": "yes"}}, {"name": "Болница за дечије плућне болести и ТБЦ", "latitude": 44.7771107, "longitude": 20.4560818, "source": "osm", "_tags": {"addr:housenumber": "4", "addr:street": "Јована Мариновића", "amenity": "hospital", "building": "hospital", "healthcare": "hospital", "int_name": "Bolnica za decije plucne bolesti i TBC", "name": "Болница за дечије плућне болести и ТБЦ", "name:sr": "Болница за дечије плућне болести и ТБЦ", "name:sr-Latn": "Bolnica za dečije plućne bolesti i TBC", "ref:RS:kucni_broj": "3204333"}}, {"name": "КОВИД болница Батајница", "latitude": 44.8800606, "longitude": 20.3273887, "source": "osm", "_tags": {"amenity": "hospital", "healthcare": "hospital", "int_name": "KOVID bolnica Batajnica", "name": "КОВИД болница Батајница", "name:en": "Batajnica COVID Hospital", "name:sr": "КОВИД болница Батајница", "name:sr-Latn": "KOVID bolnica Batajnica"}}, {"name": "", "latitude": 44.7798417, "longitude": 20.4614396, "source": "osm", "_tags": {"amenity": "hospital", "healthcare": "hospital"}}, {"name": "Градски завод за плућне болести и туберкулозу", "latitude": 44.7991459, "longitude": 20.4980214, "source": "osm", "_tags": {"addr:city": "Београд", "addr:country": "RS", "addr:housenumber": "35", "addr:postcode": "11000", "addr:street": "Прешевска", "amenity": "hospital", "email": "pulmodir@yahoo.com", "healthcare": "hospital", "healthcare:speciality": "pulmonology", "int_name": "Gradski zavod za plucne bolesti i tuberkulozu", "name": "Градски завод за плућне болести и туберкулозу", "name:sr": "Градски завод за плућне болести и туберкулозу", "name:sr-Latn": "Gradski zavod za plućne bolesti i tuberkulozu", "opening_hours": "Mo-Fr 07:00-20:00", "operator:type": "government", "phone": "+381113811800", "ref:RS:kucni_broj": "3601589", "website": "http://bolestipluca.org.rs/", "wheelchair": "yes"}}, {"name": "", "latitude": 44.4424915, "longitude": 20.6952366, "source": "osm", "_tags": {"amenity": "hospital", "healthcare": "hospital"}}, {"name": "", "latitude": 44.8424353, "longitude": 20.4063917, "source": "osm", "_tags": {"amenity": "hospital", "healthcare": "hospital"}}, {"name": "", "latitude": 45.2798236, "longitude": 19.9936541, "source": "osm", "_tags": {"amenity": "hospital", "healthcare": "hospital"}}, {"name": "", "latitude": 44.809507, "longitude": 20.4602864, "source": "osm", "_tags": {"addr:housenumber": "62a", "addr:street": "Краљице Наталије", "building": "hospital", "building:levels": "6", "healthcare": "hospital", "ref:RS:kucni_broj": "3205917"}}, {"name": "Специјална болница за церебралну парализу и развојну неурологију - ДНЕВНА БОЛНИЦА", "latitude": 44.7806046, "longitude": 20.485321, "source": "osm", "_tags": {"addr:housenumber": "5", "addr:street": "Браће Јерковић", "amenity": "hospital", "healthcare": "hospital", "int_name": "Specijalna bolnica za cerebralnu paralizu i razvojnu neurologiju - DNEVNA BOLNICA", "name": "Специјална болница за церебралну парализу и развојну неурологију - ДНЕВНА БОЛНИЦА", "name:sr": "Специјална болница за церебралну парализу и развојну неурологију - ДНЕВНА БОЛНИЦА", "name:sr-Latn": "Specijalna bolnica za cerebralnu paralizu i razvojnu neurologiju - DNEVNA BOLNICA"}}, {"name": "", "latitude": 45.3715639, "longitude": 20.0633609, "source": "osm", "_tags": {"amenity": "hospital", "healthcare": "hospital"}}, {"name": "", "latitude": 45.1297681, "longitude": 20.0625647, "source": "osm", "_tags": {"amenity": "hospital", "healthcare": "hospital"}}, {"name": "", "latitude": 44.7590122, "longitude": 20.7369466, "source": "osm", "_tags": {"amenity": "hospital", "healthcare": "hospital"}}, {"name": "Специјална болница Свети Сава", "latitude": 44.8073438, "longitude": 20.4567596, "source": "osm", "_tags": {"addr:city": "Београд", "addr:country": "RS", "addr:housenumber": "2", "addr:postcode": "11000", "addr:street": "Немањина", "amenity": "hospital", "building": "hospital", "building:levels": "5", "email": "info@svetisava.rs", "fax": "+381116642014", "healthcare": "hospital", "healthcare:speciality": "vascular_surgery", "int_name": "Specijalna bolnica Sveti Sava", "name": "Специјална болница Свети Сава", "name:en": "Specialized Hospital Saint Sava", "name:sr": "Специјална болница Свети Сава", "name:sr-Latn": "Specijalna bolnica Sveti Sava", "operator:type": "government", "phone": "+381112066800", "ref:RS:kucni_broj": "3204172", "start_date": "1932", "type": "multipolygon", "website": "http://www.svetisava.rs", "wikidata": "Q70054155", "wikipedia": "sr:Специјална болница „Свети Сава” Београд", "year_of_construction": "1930..1932"}}]