[{"name": "Sanatoriul Marila", "latitude": 45.0595983, "longitude": 21.7768512, "source": "osm", "_tags": {"amenity": "hospital", "healthcare": "hospital", "name": "Sanatoriul Marila"}}, {"name": "Spitalul nr. 3", "latitude": 45.2907438, "longitude": 21.8927813, "source": "osm", "_tags": {"amenity": "hospital", "name": "Spitalul nr. 3"}}, {"name": "Dispensar Comunal Carasova", "latitude": 45.2029053, "longitude": 21.8648658, "source": "osm", "_tags": {"amenity": "hospital", "healthcare": "hospital", "name": "Dispensar Comunal Carasova"}}, {"name": "Spitalul Orășenesc", "latitude": 44.7264056, "longitude": 21.6228257, "source": "osm", "_tags": {"addr:housenumber": "1", "addr:street": "Strada Sfânta Varvara", "amenity": "hospital", "building": "yes", "name": "Spitalul Orășenesc", "source": "Bing"}}, {"name": "Амбуланта Уљма", "latitude": 45.0425918, "longitude": 21.1565688, "source": "osm", "_tags": {"addr:housenumber": "1b", "addr:street": "Трг ослобођења", "amenity": "hospital", "building": "yes", "emergency": "no", "int_name": "Ambulanta Uljma", "name": "Амбуланта Уљма", "name:sr": "Амбуланта Уљма", "name:sr-Latn": "Ambulanta Uljma", "ref:RS:kucni_broj": "6337245"}}, {"name": "Општа болница Пожаревац", "latitude": 44.6330294, "longitude": 21.1852625, "source": "osm", "_tags": {"amenity": "hospital", "check_date": "2024-07-01", "email": "bolpo@obp.rs", "emergency": "yes", "fax": "+38112550585", "healthcare": "hospital", "int_name": "Opsta bolnica Pozarevac", "name": "Општа болница Пожаревац", "name:en": "Pozarevac main hospital", "name:sr": "Општа болница Пожаревац", "name:sr-Latn": "Opšta bolnica Požarevac", "operator:type": "government", "phone": "+38112550222", "website": "http://www.obp.rs/site/"}}, {"name": "Анђа Ранковић", "latitude": 45.1213051, "longitude": 21.3076802, "source": "osm", "_tags": {"addr:city": "Vršac", "addr:country": "RS", "addr:postcode": "26300", "addr:street": "Абрашевићева", "alt_name": "Andja Rankovic", "amenity": "hospital", "healthcare": "hospital", "int_name": "Andja Rankovic", "name": "Анђа Ранковић", "name:sr": "Анђа Ранковић", "name:sr-Latn": "Anđa Ranković", "operator:type": "government"}}, {"name": "Spitalul Orășenesc", "latitude": 45.3903851, "longitude": 21.2227353, "source": "osm", "_tags": {"amenity": "hospital", "building": "hospital", "name": "Spitalul Orășenesc"}}, {"name": "Специјална болница за психијатријске болести „др Славољуб Бакаловић”", "latitude": 45.1243322, "longitude": 21.3142552, "source": "osm", "_tags": {"addr:city": "Вршац", "addr:country": "RS", "addr:housenumber": "13", "addr:postcode": "26300", "addr:street": "Подвршанска", "amenity": "hospital", "barrier": "fence", "email": "npbvrsac@gmail.com", "fax": "+38113833934", "healthcare": "hospital", "healthcare:speciality": "psychiatry", "int_name": "Specijalna bolnica za psihijatrijske bolesti „dr Slavoljub Bakalovic”", "name": "Специјална болница за психијатријске болести „др Славољуб Бакаловић”", "name:sr": "Специјална болница за психијатријске болести „др Славољуб Бакаловић”", "name:sr-Latn": "Specijalna bolnica za psihijatrijske bolesti „dr Slavoljub Bakalović”", "operator:type": "government", "phone": "+38113833225", "ref:RS:kucni_broj": "6324060", "website": "http://www.spbvrsac.org.rs"}}, {"name": "", "latitude": 45.3200096, "longitude": 21.8819819, "source": "osm", "_tags": {"amenity": "hospital", "emergency": "no"}}, {"name": "Завод за јавно здравље Пожаревац", "latitude": 44.6206847, "longitude": 21.1889638, "source": "osm", "_tags": {"addr:city": "Požarevac", "addr:country": "RS", "addr:housenumber": "14", "addr:postcode": "12000", "addr:street": "Jovana Šerbanovića", "amenity": "hospital", "email": "zavodpo0311@mts.rs", "fax": "012220913", "healthcare": "hospital", "int_name": "Zavod za javno zdravlje Pozarevac", "name": "Завод за јавно здравље Пожаревац", "name:sr": "Завод за јавно здравље Пожаревац", "name:sr-Latn": "Zavod za javno zdravlje Požarevac", "operator:type": "government", "phone": "012222568; 012223153", "website": "https://www.zzjzpo.rs/"}}, {"name": "Spitalul Județean de Urgență Reșița", "latitude": 45.3248335, "longitude": 21.8814018, "source": "osm", "_tags": {"amenity": "hospital", "healthcare": "hospital", "name": "Spitalul Județean de Urgență Reșița"}}, {"name": "Специјална болница за психијатријске болести „Ковин”", "latitude": 44.7584058, "longitude": 20.9821085, "source": "osm", "_tags": {"amenity": "hospital", "email": "sbpbk@kovin.info", "emergency": "yes", "fax": "013741166", "healthcare": "hospital", "healthcare:speciality": "psychiatry", "int_name": "Specijalna bolnica za psihijatrijske bolesti „Kovin”", "name": "Специјална болница за психијатријске болести „Ковин”", "name:sr": "Специјална болница за психијатријске болести „Ковин”", "name:sr-Latn": "Specijalna bolnica za psihijatrijske bolesti „Kovin”", "operator:type": "government", "phone": "+38113302222", "website": "http://www.sbpb.kovin.info/", "wheelchair": "yes"}}, {"name": "Hitna pomoć", "latitude": 44.7432679, "longitude": 20.9768741, "source": "osm", "_tags": {"building": "hospital", "building:levels": "1", "emergency": "yes", "healthcare": "hospital", "name": "Hitna pomoć", "website": "https://www.domzdravljakovin.org.rs/index.html"}}, {"name": "Hitna pomoć", "latitude": 44.7145664, "longitude": 21.1734582, "source": "osm", "_tags": {"addr:city": "Костолац", "addr:postcode": "12208", "addr:street": "Боже Димитријевића", "amenity": "hospital", "healthcare": "hospital", "name": "Hitna pomoć"}}, {"name": "Spitalul Orașenesc Oravița", "latitude": 45.0361846, "longitude": 21.689883, "source": "osm", "_tags": {"amenity": "hospital", "healthcare": "hospital", "name": "Spitalul Orașenesc Oravița"}}, {"name": "Дом здравља", "latitude": 44.8980657, "longitude": 21.4214953, "source": "osm", "_tags": {"amenity": "hospital", "healthcare": "hospital", "int_name": "Dom zdravlja", "name": "Дом здравља"}}, {"name": "Специјална болница за плућне болести „Будислав Бабић”", "latitude": 44.9053152, "longitude": 21.4190256, "source": "osm", "_tags": {"addr:city": "Bela Crkva", "addr:country": "RS", "addr:housenumber": "55", "addr:postcode": "26340", "addr:street": "Miletićeva", "amenity": "hospital", "email": "sb.drbudislavbabic@mts.rs", "fax": "013851001", "healthcare": "hospital", "healthcare:speciality": "pulmonology", "int_name": "Specijalna bolnica za plucne bolesti „Budislav Babic”", "name": "Специјална болница за плућне болести „Будислав Бабић”", "name:sr": "Специјална болница за плућне болести „Будислав Бабић”", "name:sr-Latn": "Specijalna bolnica za plućne bolesti „Budislav Babić”", "operator:type": "government", "phone": "013851241", "website": "https://www.spbbelacrkva.org/"}}, {"name": "", "latitude": 45.291025, "longitude": 21.8853919, "source": "osm", "_tags": {"amenity": "hospital"}}, {"name": "", "latitude": 45.2908145, "longitude": 21.8858492, "source": "osm", "_tags": {"amenity": "hospital"}}, {"name": "", "latitude": 45.2905409, "longitude": 21.8844925, "source": "osm", "_tags": {"amenity": "hospital"}}, {"name": "Centrul de Transfuzie Sanguină", "latitude": 45.290581, "longitude": 21.8860927, "source": "osm", "_tags": {"amenity": "hospital", "healthcare": "hospital", "name": "Centrul de Transfuzie Sanguină"}}, {"name": "", "latitude": 45.2902125, "longitude": 21.8849547, "source": "osm", "_tags": {"amenity": "hospital"}}, {"name": "Spitalul nr. 2", "latitude": 45.2905521, "longitude": 21.88521, "source": "osm", "_tags": {"addr:street": "Strada Spitalului", "amenity": "hospital", "name": "Spitalul nr. 2"}}]