[{"name": "Ospedale Civile di Chivasso", "latitude": 45.1915583, "longitude": 7.8948609, "source": "osm", "_tags": {"addr:housenumber": "42", "addr:street": "Via Paolo Regis", "amenity": "hospital", "healthcare": "hospital", "name": "Ospedale Civile di Chivasso", "wheelchair": "yes"}}, {"name": "Presidio Sanitario di Pomaretto", "latitude": 44.9564888, "longitude": 7.1825635, "source": "osm", "_tags": {"addr:city": "Pomaretto", "addr:housenumber": "2", "addr:postcode": "10063", "addr:street": "Via Maggiore Ribet", "amenity": "hospital", "emergency": "no", "healthcare": "hospital", "name": "Presidio Sanitario di Pomaretto"}}, {"name": "A.O.U. CITTÀ DELLA SALUTE E DELLA SCIENZA DI TORINO – OSPEDALE OSTETRICO GINECOLOGICO SANT’ANNA", "latitude": 45.0361441, "longitude": 7.6740203, "source": "osm", "_tags": {"addr:city": "Torino", "addr:housenumber": "60", "addr:street": "Corso Spezia", "amenity": "hospital", "healthcare": "hospital", "healthcare:speciality": "gynaecology;oncology;senologia;contro_violenza_di_genere", "name": "A.O.U. CITTÀ DELLA SALUTE E DELLA SCIENZA DI TORINO – OSPEDALE OSTETRICO GINECOLOGICO SANT’ANNA"}}, {"name": "Azienda Asl TO2 Circoscrizione 7", "latitude": 45.0689313, "longitude": 7.703882, "source": "osm", "_tags": {"addr:city": "Torino", "addr:housenumber": "6a", "addr:postcode": "10124", "addr:street": "Via Pietro Cavezzale", "amenity": "hospital", "elevator": "yes", "healthcare": "hospital", "name": "Azienda Asl TO2 Circoscrizione 7", "ramp:wheelchair": "yes", "toilets:wheelchair": "yes", "website": "http://www.aslto2.piemonte.it/", "wheelchair": "yes"}}, {"name": "Ospedale di Rivoli - Emergency", "latitude": 45.0599378, "longitude": 7.5214476, "source": "osm", "_tags": {"addr:street": "Corso Primo Levi", "emergency": "emergency_ward_entrance", "entrance": "yes", "healthcare": "hospital", "name": "Ospedale di Rivoli - Emergency", "operator": "ASL", "operator:wikidata": "Q3631467"}}, {"name": "Guardia Medica", "latitude": 45.0792917, "longitude": 7.60426, "source": "osm", "_tags": {"addr:city": "Collegno", "addr:housenumber": "4", "addr:postcode": "10993", "addr:street": "Via Umberto Terracini", "amenity": "hospital", "contact:phone": "+390114153523", "healthcare": "hospital", "healthcare:speciality": "general", "name": "Guardia Medica", "opening_hours": "Mo-Fr 20:00-8:00; Sa 00:00-08:00,10:00-24:00; PH,Su 00:00-24:00", "operator": "ASL", "operator:wikidata": "Q3631467", "operator:wikipedia": "it:Azienda sanitaria locale"}}, {"name": "Ospedale Sant'Anna - Emergency", "latitude": 45.0359085, "longitude": 7.673333, "source": "osm", "_tags": {"addr:city": "Torino", "addr:housenumber": "1", "addr:postcode": "10126", "addr:street": "Via Ventimiglia", "check_date": "2025-09-13", "emergency": "emergency_ward_entrance", "entrance": "yes", "healthcare": "hospital", "name": "Ospedale Sant'Anna - Emergency", "operator": "ASL", "operator:wikidata": "Q3631467"}}, {"name": "Ospedale CTO - Emergency", "latitude": 45.0336819, "longitude": 7.6739961, "source": "osm", "_tags": {"addr:city": "Torino", "addr:housenumber": "29", "addr:postcode": "10126", "addr:street": "Via Gianfranco Zuretti", "emergency": "emergency_ward_entrance", "emergency_ward_entrance": "all", "entrance": "yes", "healthcare": "hospital", "name": "Ospedale CTO - Emergency", "operator": "ASL", "operator:wikidata": "Q3631467"}}, {"name": "Pronto Soccorso Ospedale Mauriziano", "latitude": 45.0507161, "longitude": 7.6650476, "source": "osm", "_tags": {"addr:street": "Corso Carlo e Nello Rosselli", "alt_name": "Ospedale Mauriziano - Emergency", "emergency": "emergency_ward_entrance", "emergency_ward_entrance": "all", "entrance": "yes", "healthcare": "hospital", "name": "Pronto Soccorso Ospedale Mauriziano", "operator": "ASL"}}, {"name": "Poliambulatorio Ospedale Fossano", "latitude": 44.5479612, "longitude": 7.722762, "source": "osm", "_tags": {"addr:street": "Via Ospedale", "amenity": "hospital", "healthcare": "hospital", "name": "Poliambulatorio Ospedale Fossano", "name:it": "Poliambulatorio Ospedale Fossano"}}, {"name": "DEA Pronto Soccorso", "latitude": 44.8823821, "longitude": 7.3203982, "source": "osm", "_tags": {"addr:city": "Pinerolo", "addr:postcode": "10064", "addr:street": "Via Brigata Cagliari", "emergency": "emergency_ward_entrance", "entrance": "yes", "healthcare": "hospital", "name": "DEA Pronto Soccorso"}}, {"name": "Associazione Collegino Milena", "latitude": 44.8558913, "longitude": 7.8394786, "source": "osm", "_tags": {"amenity": "hospital", "healthcare": "hospital", "name": "Associazione Collegino Milena", "operator": "ACM Onlus", "operator:type": "private"}}, {"name": "Casa di Cura Villa Patrizia", "latitude": 44.9878907, "longitude": 7.4064342, "source": "osm", "_tags": {"addr:city": "Piossasco", "addr:housenumber": "6", "addr:street": "Regione Giorda", "amenity": "hospital", "healthcare": "hospital", "name": "Casa di Cura Villa Patrizia"}}, {"name": "ASL CN2 Dipartimento Salute Mentale", "latitude": 44.6993136, "longitude": 7.8540261, "source": "osm", "_tags": {"addr:city": "Bra", "addr:housenumber": "19", "addr:postcode": "12042", "addr:street": "Via Monte di Pietà", "amenity": "hospital", "emergency": "no", "healthcare": "hospital", "healthcare:speciality": "psychiatry", "name": "ASL CN2 Dipartimento Salute Mentale", "operator": "ASL", "operator:type": "public", "operator:wikidata": "Q3631467"}}, {"name": "", "latitude": 45.1089063, "longitude": 7.6425359, "source": "osm", "_tags": {"amenity": "hospital", "emergency": "yes", "healthcare": "hospital", "healthcare:speciality": "emergency", "operator": "ANPAS", "operator:type": "private", "website": "https://www.anpas.org/", "wikipedia": "it:ANPAS"}}, {"name": "Santa Clara", "latitude": 45.0080157, "longitude": 7.8251468, "source": "osm", "_tags": {"amenity": "hospital", "healthcare": "hospital", "name": "Santa Clara"}}, {"name": "Ospedale Mauriziano Umberto I", "latitude": 45.051787, "longitude": 7.6655881, "source": "osm", "_tags": {"addr:city": "Torino", "addr:housenumber": "1", "addr:postcode": "10128", "addr:street": "Via Ferdinando Magellano", "amenity": "hospital", "email": "aso.ordinemauriziano@postemailcertificata.it", "emergency": "yes", "fax": "+39 011 508.2209", "healthcare": "hospital", "healthcare:speciality": "ginecologia;cardiology;neurology;paediatrics;oncology;rheumatology;psicologia;nephrology;dialysis;diabetology;endocrinology;gastroenterology;pulmonology;neonatology;allergologia;immunologia;palliative;physiatry;urology;ophthalmology;odontostomatologia;ort", "name": "Ospedale Mauriziano Umberto I", "name:etymology:wikidata": "Q30280156", "opening_hours": "24/7", "operator": "Ordine Mauriziano di Torino", "phone": "+39 011-5081111", "ref:vatin": "09059340019", "website": "https://www.mauriziano.it", "wheelchair": "yes", "wikidata": "Q30280156", "wikipedia": "it:Ospedale Mauriziano Umberto I"}}, {"name": "Istituto per la Ricerca e la Cura del Cancro Candiolo (IRCCS)", "latitude": 44.9656561, "longitude": 7.5669114, "source": "osm", "_tags": {"amenity": "hospital", "barrier": "hedge", "emergency": "no", "healthcare": "hospital", "healthcare:speciality": "oncology", "name": "Istituto per la Ricerca e la Cura del Cancro Candiolo (IRCCS)", "name:en": "Candiolo Cancer Institute - IRCCS", "phone": "+39 011 9933 111", "website": "https://www.irccs.com"}}, {"name": "", "latitude": 45.0761166, "longitude": 7.404218, "source": "osm", "_tags": {"amenity": "hospital", "healthcare": "hospital"}}, {"name": "Ospedale Maria Vittoria", "latitude": 45.0820454, "longitude": 7.6568479, "source": "osm", "_tags": {"amenity": "hospital", "emergency": "yes", "healthcare": "hospital", "name": "Ospedale Maria Vittoria", "operator": "ASL Città di Torino", "source": "local_knowledge", "wikidata": "Q16585321", "wikipedia": "it:Ospedale Maria Vittoria"}}, {"name": "Ospedale San Giovanni Bosco", "latitude": 45.0972019, "longitude": 7.7013753, "source": "osm", "_tags": {"addr:city": "Torino", "addr:housenumber": "3", "addr:postcode": "10154", "addr:street": "Piazza del Donatore di Sangue", "alt_name": "Ospedale Don Bosco", "amenity": "hospital", "barrier": "fence", "emergency": "yes", "full_name": "Ospedale Maggiore di San Giovanni Battista e della Città di Torino", "healthcare": "hospital", "healthcare:speciality": "blood_check;anaesthetics;cardiology;surgery;orthopaedics;vascular_surgery;haematology;gastroenterology;emergency;physiatry;nephrology;neurosurgery;neurology;oncology;otolaryngology;gynaecology;pulmonology;general;rheumatology;radiology;urology", "loc_name": "Giovanni Bosco", "name": "Ospedale San Giovanni Bosco", "old_name:-1988": "Ospedale Nuova Astanteria Martini", "opening_hours": "24/7", "operator": "ASL Torino", "operator:type": "public", "short_name": "Ospedale Giovanni Bosco", "start_date": "1961", "wheelchair": "yes", "wikidata": "Q16585324", "wikipedia": "it:Ospedale San Giovanni Bosco"}}, {"name": "Ospedale Maggiore Santissima Annunziata", "latitude": 44.6436264, "longitude": 7.6617407, "source": "osm", "_tags": {"amenity": "hospital", "emergency": "yes", "healthcare": "hospital", "name": "Ospedale Maggiore Santissima Annunziata"}}, {"name": "Ospedale Molinette", "latitude": 45.0394639, "longitude": 7.6742375, "source": "osm", "_tags": {"addr:city": "Torino", "addr:housenumber": "88;90", "addr:postcode": "10126", "addr:street": "Corso Bramante", "amenity": "hospital", "emergency": "yes", "healthcare": "hospital", "name": "Ospedale Molinette", "phone": "+39 011 6331633", "website": "https://www.cittadellasalute.to.it/"}}, {"name": "Ospedale Valdese", "latitude": 44.8195261, "longitude": 7.2057126, "source": "osm", "_tags": {"addr:city": "Torre Pellice", "addr:country": "IT", "addr:housenumber": "34", "addr:postcode": "10066", "addr:street": "Via Matteo Gay", "amenity": "hospital", "building": "yes", "contact:phone": "+39 01212331", "emergency": "no", "healthcare": "hospital", "name": "Ospedale Valdese", "operator": "ASL TO3"}}, {"name": "Croce Bianca", "latitude": 44.542633, "longitude": 7.7216964, "source": "osm", "_tags": {"amenity": "hospital", "healthcare": "hospital", "name": "Croce Bianca"}}, {"name": "SISP AslTo3", "latitude": 44.8851259, "longitude": 7.3462915, "source": "osm", "_tags": {"addr:city": "Pinerolo", "addr:housenumber": "15/A", "addr:postcode": "10064", "addr:street": "Via Ettore Bignone", "amenity": "hospital", "building": "yes", "description": "Servizio di igiene e sanità pubblica del Dipartimento di prevenzione", "emergency": "no", "healthcare": "hospital", "name": "SISP AslTo3", "opening_hours": "Mo-Fr 09:00-12:00, 14:00-15:30", "operator": "ASL", "operator:type": "public", "operator:wikidata": "Q3631467"}}, {"name": "Asl 8 Nichelino", "latitude": 45.0008028, "longitude": 7.6308556, "source": "osm", "_tags": {"amenity": "hospital", "building": "public", "healthcare": "hospital", "name": "Asl 8 Nichelino", "operator": "ASL", "operator:type": "public", "operator:wikidata": "Q3631467"}}, {"name": "Asl 8 Nichelino", "latitude": 45.0006766, "longitude": 7.6315658, "source": "osm", "_tags": {"amenity": "hospital", "building": "public", "healthcare": "hospital", "name": "Asl 8 Nichelino", "operator": "ASL", "operator:type": "public", "operator:wikidata": "Q3631467"}}, {"name": "Ospedale Evangelico Valdese", "latitude": 45.0576134, "longitude": 7.6841602, "source": "osm", "_tags": {"amenity": "hospital", "building": "yes", "building:levels": "4", "healthcare": "hospital", "name": "Ospedale Evangelico Valdese", "wheelchair": "yes"}}, {"name": "Presidio San Giovanni Antica Sede", "latitude": 45.063631, "longitude": 7.6879567, "source": "osm", "_tags": {"amenity": "hospital", "building": "hospital", "building:levels": "5", "check_date": "2025-05-20", "emergency": "no", "healthcare": "hospital", "name": "Presidio San Giovanni Antica Sede", "wheelchair": "yes"}}, {"name": "Ospedale", "latitude": 44.9108918, "longitude": 7.6789402, "source": "osm", "_tags": {"amenity": "hospital", "healthcare": "hospital", "name": "Ospedale"}}, {"name": "Distretto 1 Ciriè", "latitude": 45.1733904, "longitude": 7.6507656, "source": "osm", "_tags": {"addr:city": "Caselle Torinese", "addr:street": "Via Savonarola", "amenity": "doctors", "building": "office", "healthcare": "hospital", "name": "Distretto 1 Ciriè", "operator": "ASLTO4", "phone": "+39 011 997 6711"}}, {"name": "ASL TO5", "latitude": 44.9522192, "longitude": 7.7693426, "source": "osm", "_tags": {"amenity": "hospital", "emergency": "no", "name": "ASL TO5"}}, {"name": "Ospedale Oftalmico Sperino", "latitude": 45.0741641, "longitude": 7.6706178, "source": "osm", "_tags": {"amenity": "hospital", "check_date": "2025-07-23", "healthcare": "hospital", "healthcare:speciality": "ophthalmology", "name": "Ospedale Oftalmico Sperino", "operator": "ASL Città di Torino"}}, {"name": "", "latitude": 45.0956998, "longitude": 7.5222178, "source": "osm", "_tags": {"amenity": "hospital", "emergency": "no"}}, {"name": "Ospedale Civile di Ciriè", "latitude": 45.2354641, "longitude": 7.5988236, "source": "osm", "_tags": {"amenity": "hospital", "check_date": "2025-03-20", "emergency": "yes", "healthcare": "hospital", "name": "Ospedale Civile di Ciriè", "toilets:wheelchair": "no", "wheelchair": "yes"}}, {"name": "Ospedale di Avigliana", "latitude": 45.0759688, "longitude": 7.4039688, "source": "osm", "_tags": {"addr:city": "Avigliana", "addr:housenumber": "5", "addr:postcode": "10051", "addr:street": "Via Sant'Agostino", "amenity": "hospital", "building": "hospital", "building:levels": "3", "emergency": "no", "healthcare": "hospital", "name": "Ospedale di Avigliana", "operator": "ASL", "operator:wikidata": "Q3631467"}}, {"name": "Ospedale Amedeo di Savoia-Birago di Vische", "latitude": 45.0882429, "longitude": 7.6602918, "source": "osm", "_tags": {"amenity": "hospital", "emergency": "no", "healthcare": "hospital", "healthcare:speciality": "infectious_diseases;psychiatry;physiatry", "name": "Ospedale Amedeo di Savoia-Birago di Vische", "operator": "ASL Città di Torino", "operator:type": "public", "wikidata": "Q16585316", "wikipedia": "it:Ospedale Amedeo di Savoia"}}, {"name": "Villa Maria Pia", "latitude": 45.0693766, "longitude": 7.7435529, "source": "osm", "_tags": {"amenity": "hospital", "healthcare": "hospital", "name": "Villa Maria Pia"}}, {"name": "Ospedale Santa Croce", "latitude": 45.0018168, "longitude": 7.6899445, "source": "osm", "_tags": {"amenity": "hospital", "emergency": "yes", "healthcare": "hospital", "name": "Ospedale Santa Croce"}}, {"name": "Ospedale Civico di Settimo Torinese", "latitude": 45.1260359, "longitude": 7.755565, "source": "osm", "_tags": {"addr:city": "Settimo Torinese", "addr:housenumber": "3", "addr:postcode": "10036", "addr:street": "Via Santa Cristina", "amenity": "hospital", "building": "hospital", "name": "Ospedale Civico di Settimo Torinese", "wheelchair": "yes"}}, {"name": "Ospedale Ginecologico-Ostetrico Sant'Anna", "latitude": 45.035363, "longitude": 7.6737876, "source": "osm", "_tags": {"amenity": "hospital", "check_date": "2025-09-13", "emergency": "yes", "healthcare": "hospital", "healthcare:speciality": "neonatology;gynaecology", "name": "Ospedale Ginecologico-Ostetrico Sant'Anna"}}, {"name": "Ospedale CTO", "latitude": 45.0333485, "longitude": 7.6743516, "source": "osm", "_tags": {"amenity": "hospital", "check_date": "2025-09-13", "emergency": "yes", "healthcare": "hospital", "name": "Ospedale CTO", "wikidata": "Q3664774", "wikipedia": "it:Centro traumatologico ortopedico (Torino)"}}, {"name": "Ospedale San Luigi Gonzaga", "latitude": 45.0287158, "longitude": 7.5569444, "source": "osm", "_tags": {"amenity": "hospital", "emergency": "yes", "healthcare": "hospital", "name": "Ospedale San Luigi Gonzaga", "wikidata": "Q3886642", "wikipedia": "it:Ospedale San Luigi Gonzaga"}}, {"name": "Ospedale di Rivoli", "latitude": 45.0595012, "longitude": 7.5213004, "source": "osm", "_tags": {"amenity": "hospital", "check_date": "2024-09-11", "emergency": "yes", "healthcare": "hospital", "name": "Ospedale di Rivoli"}}, {"name": "Istituti Clinici Scientifici Maugeri - ICS Torino", "latitude": 45.0686705, "longitude": 7.7000199, "source": "osm", "_tags": {"amenity": "hospital", "branch": "ICS Torino", "brand": "Istituti Clinici Scientifici Maugeri", "building": "hospital", "building:levels": "5", "contact:city": "Torino", "contact:housenumber": "60", "contact:postcode": "10124", "contact:street": "Via Santa Giulia", "elevator": "yes", "healthcare": "hospital", "healthcare:speciality": "physiatry", "name": "Istituti Clinici Scientifici Maugeri - ICS Torino", "old_name": "Presidio Ospedaliero Major", "phone": "+39 011 8151611", "start_date": "1949", "toilets:wheelchair": "yes", "website": "https://www.icsmaugeri.it/dove-siamo/ics-torino", "wheelchair": "yes"}}, {"name": "Croce Rossa Italiana", "latitude": 44.5181773, "longitude": 7.4783039, "source": "osm", "_tags": {"addr:city": "Busca", "addr:postcode": "12022", "amenity": "hospital", "healthcare": "hospital", "name": "Croce Rossa Italiana"}}, {"name": "Croce Rossa Italiana - Delegazione di Paesana", "latitude": 44.6783209, "longitude": 7.274037, "source": "osm", "_tags": {"addr:city": "Paesana", "addr:housenumber": "14", "addr:postcode": "12034", "addr:street": "Via Erasca", "amenity": "hospital", "contact:email": "info@campeggiovallepo.it", "contact:facebook": "crocerossa.paesana", "contact:phone": "+39 0175 987973", "emergency": "yes", "name": "Croce Rossa Italiana - Delegazione di Paesana", "operator": "Croce Rossa Italiana"}}, {"name": "Poliambulatorio e Ospedale civile", "latitude": 44.7665341, "longitude": 7.6783554, "source": "osm", "_tags": {"addr:city": "Racconigi", "addr:postcode": "12035", "addr:street": "Via Ospedale", "amenity": "hospital", "healthcare": "hospital", "name": "Poliambulatorio e Ospedale civile"}}, {"name": "Azienda Sanitalia Locale CN1 - Savigliano", "latitude": 44.6531787, "longitude": 7.6555922, "source": "osm", "_tags": {"addr:city": "Savigliano", "addr:housenumber": "137", "addr:postcode": "12038", "addr:street": "Via Torino", "amenity": "hospital", "building": "yes", "healthcare": "hospital", "name": "Azienda Sanitalia Locale CN1 - Savigliano", "operator": "ASL", "operator:type": "public", "operator:wikidata": "Q3631467"}}, {"name": "Ospedale Civile di Saluzzo", "latitude": 44.6420942, "longitude": 7.4945058, "source": "osm", "_tags": {"amenity": "hospital", "emergency": "yes", "healthcare": "hospital", "name": "Ospedale Civile di Saluzzo"}}, {"name": "Centrale 118 e Nue 112", "latitude": 44.6533929, "longitude": 7.4696703, "source": "osm", "_tags": {"amenity": "hospital", "healthcare": "hospital", "name": "Centrale 118 e Nue 112"}}, {"name": "Asl", "latitude": 44.9051499, "longitude": 7.6759364, "source": "osm", "_tags": {"amenity": "hospital", "name": "Asl"}}, {"name": "Ospedale Civile di Giaveno", "latitude": 45.0421347, "longitude": 7.3563352, "source": "osm", "_tags": {"amenity": "hospital", "area": "yes", "check_date": "2024-07-12", "healthcare": "hospital", "name": "Ospedale Civile di Giaveno"}}, {"name": "Ospedale Civile di Busca", "latitude": 44.5144732, "longitude": 7.4720213, "source": "osm", "_tags": {"amenity": "hospital", "healthcare": "hospital", "name": "Ospedale Civile di Busca"}}, {"name": "Ospedale Civile di Castellamonte", "latitude": 45.3809882, "longitude": 7.7085888, "source": "osm", "_tags": {"amenity": "hospital", "emergency": "no", "healthcare": "hospital", "name": "Ospedale Civile di Castellamonte", "wheelchair": "yes"}}, {"name": "A.S.L. CN1 - Avis", "latitude": 44.6018317, "longitude": 7.4814376, "source": "osm", "_tags": {"addr:city": "Verzuolo", "addr:housenumber": "1", "addr:postcode": "12039", "addr:street": "Piazza Andrea Willy Burgo", "amenity": "hospital", "building": "yes", "healthcare": "hospital", "name": "A.S.L. CN1 - Avis", "operator": "ASL", "operator:wikidata": "Q3631467"}}, {"name": "Polo Logistico di Protezione Civile", "latitude": 45.1405005, "longitude": 7.1347195, "source": "osm", "_tags": {"addr:city": "Bussoleno", "addr:housenumber": "5", "addr:postcode": "10053", "addr:street": "Via Cascina del Gallo", "amenity": "hospital", "building:levels": "1", "healthcare": "hospital", "name": "Polo Logistico di Protezione Civile"}}, {"name": "", "latitude": 44.9992854, "longitude": 7.8161623, "source": "osm", "_tags": {"amenity": "hospital", "healthcare": "hospital"}}, {"name": "Ospedale Martini", "latitude": 45.0664729, "longitude": 7.628334, "source": "osm", "_tags": {"amenity": "hospital", "healthcare": "hospital", "name": "Ospedale Martini"}}, {"name": "Cottolengo", "latitude": 44.8860473, "longitude": 7.3198374, "source": "osm", "_tags": {"amenity": "hospital", "building": "yes", "emergency": "no", "healthcare": "hospital", "name": "Cottolengo", "wheelchair": "yes"}}, {"name": "Ospedale di Susa", "latitude": 45.1374439, "longitude": 7.0509683, "source": "osm", "_tags": {"addr:city": "Susa", "addr:housenumber": "66", "addr:postcode": "10059", "addr:street": "Corso Inghilterra", "amenity": "hospital", "check_date": "2024-03-27", "emergency": "yes", "healthcare": "hospital", "name": "Ospedale di Susa", "phone": "+39 0122 621212", "website": "http://www.aslto3.piemonte.it/info/riuniti/susa.shtml"}}, {"name": "Ex Ospedale Santo Spirito", "latitude": 44.7025671, "longitude": 7.8483194, "source": "osm", "_tags": {"addr:city": "Bra", "addr:housenumber": "3", "addr:postcode": "12042", "addr:street": "Via Vittorio Emanuele II", "amenity": "hospital", "emergency": "no", "healthcare": "hospital", "name": "Ex Ospedale Santo Spirito", "operator": "A.S.L. CN2", "operator:type": "public", "website": "https://www.aslcn2.it/"}}, {"name": "Casa di Cura Privata Città di Bra", "latitude": 44.6967431, "longitude": 7.858574, "source": "osm", "_tags": {"addr:city": "Bra", "addr:housenumber": "1", "addr:postcode": "12042", "addr:street": "Strada Montenero", "amenity": "hospital", "emergency": "no", "healthcare": "hospital", "healthcare:speciality": "otolaryngology;ophthalmology;surgery;orthopaedics;urology;medically_assisted_procreation;cardiology", "name": "Casa di Cura Privata Città di Bra", "operator": "CCBra", "operator:type": "private", "phone": "+39 0172 472400", "website": "https://www.ccbra.it/"}}, {"name": "Ospedale Mauriziano", "latitude": 45.2758019, "longitude": 7.4864902, "source": "osm", "_tags": {"amenity": "hospital", "emergency": "no", "healthcare": "hospital", "name": "Ospedale Mauriziano", "operator": "ASL TO4"}}, {"name": "Piccola Casa della Divina Provvidenza", "latitude": 45.0795358, "longitude": 7.681509, "source": "osm", "_tags": {"addr:city": "Torino", "addr:housenumber": "14", "addr:postcode": "10152", "addr:street": "Via San Giuseppe Benedetto Cottolengo", "alt_name": "Cottolengo", "amenity": "hospital", "healthcare": "hospital", "name": "Piccola Casa della Divina Provvidenza", "website": "https://www.cottolengo.org/", "wikidata": "Q1054748", "wikipedia": "it:Piccola casa della Divina Provvidenza"}}, {"name": "Ospedale Michele e Pietro Ferrero", "latitude": 44.6749656, "longitude": 7.9331236, "source": "osm", "_tags": {"addr:city": "Verduno", "amenity": "hospital", "emergency": "yes", "healthcare": "hospital", "healthcare:speciality": "general", "name": "Ospedale Michele e Pietro Ferrero", "operator": "ASL CN2", "operator:type": "public", "start_date": "2020-03-30", "website": "https://www.aslcn2.it/lospedale-alba-bra/il-nuovo-ospedale-alba-bra/"}}, {"name": "", "latitude": 44.5458733, "longitude": 7.7148508, "source": "osm", "_tags": {"amenity": "hospital", "healthcare": "hospital"}}, {"name": "", "latitude": 45.1187678, "longitude": 7.6135637, "source": "osm", "_tags": {"amenity": "hospital", "building": "hospital", "healthcare": "yes", "opening_hours": "Mo-Su 08:00-20:00", "operator": "ASL TO3", "operator:type": "public"}}, {"name": "Clinica della Memoria \"Giovanni Paolo II\"", "latitude": 45.0796935, "longitude": 7.604732, "source": "osm", "_tags": {"addr:city": "Collegno", "addr:housenumber": "4", "addr:postcode": "10093", "addr:street": "Via Umberto Terracini", "amenity": "hospital", "healthcare": "hospital", "name": "Clinica della Memoria \"Giovanni Paolo II\"", "operator": "Fondazione San Secondo per la Ricerca sull’Alzheimer Onlus"}}, {"name": "", "latitude": 45.1257904, "longitude": 7.7553272, "source": "osm", "_tags": {"amenity": "hospital", "healthcare": "hospital"}}, {"name": "", "latitude": 45.0501337, "longitude": 7.6394462, "source": "osm", "_tags": {"amenity": "hospital", "healthcare": "hospital", "layer": "1"}}, {"name": "", "latitude": 45.1844661, "longitude": 7.7249273, "source": "osm", "_tags": {"addr:city": "Leinì", "addr:housenumber": "40", "addr:postcode": "10040", "addr:street": "Via Volpiano", "amenity": "clinic", "building": "yes", "healthcare": "hospital", "operator": "ASLTO4", "operator:wikidata": "Q3631467"}}, {"name": "Ospedale Civile Edoardo Agnelli", "latitude": 44.8827728, "longitude": 7.3196521, "source": "osm", "_tags": {"addr:city": "Pinerolo", "addr:country": "IT", "addr:housenumber": "39", "addr:postcode": "10064", "addr:street": "Via Brigata Cagliari", "amenity": "hospital", "contact:phone": "+39 01212331", "emergency": "yes", "healthcare": "hospital", "name": "Ospedale Civile Edoardo Agnelli", "opening_hours": "Tu-Su 13:30-20:00; Mo 14:00-20:00", "operator": "Asl TO3"}}, {"name": "Ospedale Maggiore - A.S.L. TO5", "latitude": 45.0106003, "longitude": 7.8236938, "source": "osm", "_tags": {"addr:city": "Chieri", "addr:housenumber": "1", "addr:postcode": "10023", "addr:street": "Via Giovanni De Maria", "amenity": "hospital", "contact:email": "distretto.ca.ch@aslto5.piemonte.it", "contact:phone": "+39 01194293818", "emergency": "yes", "healthcare": "hospital", "name": "Ospedale Maggiore - A.S.L. TO5", "operator": "A.S.L. TO5", "operator:type": "public", "website": "https://www.aslto5.piemonte.it/it/sede/chieri-pzza-spellico-1", "wheelchair": "yes"}}, {"name": "Polo Sanitario di Venaria", "latitude": 45.1189258, "longitude": 7.6136206, "source": "osm", "_tags": {"addr:city": "Venaria Reale", "addr:housenumber": "152", "addr:postcode": "10078", "addr:street": "Via Don Sapino", "amenity": "hospital", "emergency": "no", "healthcare": "yes", "name": "Polo Sanitario di Venaria", "operator": "ASL TO3", "operator:type": "public"}}, {"name": "Presidio ospedaliero riabilitativo Beata Vergine della Consolata Fatebenefratelli", "latitude": 45.2088654, "longitude": 7.6341362, "source": "osm", "_tags": {"amenity": "hospital", "check_date": "2024-04-29", "emergency": "no", "loc_name": "Fatebenefratelli", "name": "Presidio ospedaliero riabilitativo Beata Vergine della Consolata Fatebenefratelli", "website": "https://www.fatebenefratelli.it/strutture/presidio-ospedaliero-riabilitativo-beata-vergine-della-consolata"}}, {"name": "Asl 8 Nichelino", "latitude": 45.0006579, "longitude": 7.631314, "source": "osm", "_tags": {"amenity": "hospital", "building": "public", "healthcare": "hospital", "name": "Asl 8 Nichelino", "operator": "ASL", "operator:type": "public", "operator:wikidata": "Q3631467"}}, {"name": "Ospedale Civile di Chivasso", "latitude": 45.1918727, "longitude": 7.8947747, "source": "osm", "_tags": {"addr:city": "Chivasso", "addr:housenumber": "42", "addr:postcode": "10034", "addr:street": "Via Paolo Regis", "amenity": "hospital", "emergency": "yes", "healthcare": "hospital", "name": "Ospedale Civile di Chivasso", "name:en": "Chivasso Hospital", "operator": "ASL TO4", "operator:type": "public"}}, {"name": "Presidio Sanitario Gradenigo", "latitude": 45.0698503, "longitude": 7.7058141, "source": "osm", "_tags": {"addr:city": "Torino", "addr:housenumber": "8", "addr:postcode": "10153", "addr:street": "Corso Regina Margherita", "amenity": "hospital", "emergency": "yes", "healthcare": "hospital", "name": "Presidio Sanitario Gradenigo", "phone": "+39 011 8151211", "website": "https://www.gradenigo.it/", "wikidata": "Q72156743"}}, {"name": "Presidio Sanitario Ospedale Cottolengo", "latitude": 45.0786759, "longitude": 7.6808343, "source": "osm", "_tags": {"addr:city": "Torino", "addr:housenumber": "9", "addr:postcode": "10152", "addr:street": "Via San Giuseppe Benedetto Cottolengo", "amenity": "hospital", "healthcare": "hospital", "healthcare:speciality": "oncology;diagnostic_radiology", "name": "Presidio Sanitario Ospedale Cottolengo", "operator": "Ospedale Cottolengo", "operator:type": "religious"}}, {"name": "Ospedale Infantile Regina Margherita", "latitude": 45.0347704, "longitude": 7.6748667, "source": "osm", "_tags": {"amenity": "hospital", "check_date": "2025-09-13", "emergency": "yes", "healthcare": "hospital", "healthcare:speciality": "paediatrics;paediatric_surgery", "name": "Ospedale Infantile Regina Margherita", "wikidata": "Q3886621"}}, {"name": "Ospedale Santissima Trinità", "latitude": 44.5476541, "longitude": 7.723014, "source": "osm", "_tags": {"addr:city": "Fossano", "addr:housenumber": "4", "addr:postcode": "12045", "addr:street": "Via Ospedale", "amenity": "hospital", "healthcare": "hospital", "name": "Ospedale Santissima Trinità"}}, {"name": "", "latitude": 44.7033706, "longitude": 7.8505196, "source": "osm", "_tags": {"amenity": "hospital", "healthcare": "hospital"}}, {"name": "Azienda Ospedaliera Universitaria San Luigi Gonzaga", "latitude": 45.0288522, "longitude": 7.5574658, "source": "osm", "_tags": {"addr:city": "Orbassano", "addr:housenumber": "10", "addr:postcode": "10043", "addr:street": "Regione Gonzole", "amenity": "hospital", "email": "urp@sanluigi.piemonte.it;aousanluigigonzaga@pec.sanluigi.piemonte.it", "emergency": "yes", "fax": "+390119026602", "healthcare": "hospital", "healthcare:speciality": "anaesthetics;rianimazione;surgery;chirurgia_toracica;medicina_del_dolore;odontostomatologia;ophthalmology;ortopedia;trauma;otorinolaringoiatria;urology;anatomia_patologica;oncology;dietologia;geriatrics;chirurgia_d'urgenza;cardiology;neurology;pulmonology", "name": "Azienda Ospedaliera Universitaria San Luigi Gonzaga", "opening_hours": "24/7", "phone": "+3901190261", "website": "https://www.sanluigi.piemonte.it/", "wheelchair": "yes"}}, {"name": "Ospedale San Vito", "latitude": 45.0499148, "longitude": 7.6899358, "source": "osm", "_tags": {"amenity": "hospital", "name": "Ospedale San Vito"}}, {"name": "Ospedale Civile di Cuorgnè", "latitude": 45.3868522, "longitude": 7.6500338, "source": "osm", "_tags": {"addr:city": "Cuorgnè", "addr:housenumber": "5", "addr:postcode": "10082", "addr:street": "Piazza Mussatti", "amenity": "hospital", "emergency": "yes", "healthcare": "hospital", "name": "Ospedale Civile di Cuorgnè", "operator": "ASL TO4", "operator:type": "public", "type": "multipolygon"}}, {"name": "Ospedale Michele e Pietro Ferrero", "latitude": 44.674291, "longitude": 7.9333918, "source": "osm", "_tags": {"addr:city": "Verduno", "addr:postcode": "12060", "addr:street": "Via Tanaro", "building": "hospital", "healthcare": "hospital", "healthcare:speciality": "general;radiology;gynaecology;haematology", "name": "Ospedale Michele e Pietro Ferrero", "operator": "ASL CN2", "operator:type": "public", "start_date": "2020-07-19", "type": "multipolygon", "website": "https://www.aslcn2.it/lospedale-alba-bra/il-nuovo-ospedale-alba-bra/"}}]