[{"name": "Dom zdravlja dr Veroljub Cakić", "latitude": 44.4659239, "longitude": 22.1557227, "source": "osm", "_tags": {"amenity": "hospital", "healthcare": "hospital", "name": "Dom zdravlja dr Veroljub Cakić", "name:sr": "Дом здравља др Верољуб Цакић"}}, {"name": "Cabinet medical Dr. TATUCU", "latitude": 44.9057848, "longitude": 22.3658859, "source": "osm", "_tags": {"amenity": "hospital", "healthcare": "hospital", "name": "Cabinet medical Dr. TATUCU", "operator": "Cabinet medical Dr. TATUCU"}}, {"name": "Cabinet medical dr. Zeicu", "latitude": 44.9057165, "longitude": 22.3655775, "source": "osm", "_tags": {"amenity": "hospital", "healthcare": "hospital", "name": "Cabinet medical dr. Zeicu", "operator": "Cabinet medical dr. Zeicu"}}, {"name": "Cabinet urgenta medicala", "latitude": 44.8806904, "longitude": 22.4120211, "source": "osm", "_tags": {"amenity": "hospital", "healthcare": "hospital", "name": "Cabinet urgenta medicala"}}, {"name": "Spital TBC", "latitude": 44.6245832, "longitude": 22.6404649, "source": "osm", "_tags": {"addr:city": "Drobeta-Turnu Severin", "addr:street": "Strada Serpentina Roșiori", "amenity": "hospital", "emergency": "yes", "healthcare": "hospital", "name": "Spital TBC"}}, {"name": "Општа болница Мајданпек", "latitude": 44.4242324, "longitude": 21.9412613, "source": "osm", "_tags": {"amenity": "hospital", "email": "opstabolnicampek@mts.rs", "emergency": "yes", "fax": "030583319", "healthcare": "hospital", "int_name": "Opsta bolnica Majdanpek", "name": "Општа болница Мајданпек", "name:sr": "Општа болница Мајданпек", "name:sr-Latn": "Opšta bolnica Majdanpek", "operator:type": "government", "phone": "030583319;030588085"}}, {"name": "Policlinica Municipală", "latitude": 44.6299683, "longitude": 22.6375647, "source": "osm", "_tags": {"amenity": "hospital", "building": "yes", "building:levels": "3", "name": "Policlinica Municipală"}}, {"name": "Spitalul Județean de Urgență", "latitude": 44.6434026, "longitude": 22.6527155, "source": "osm", "_tags": {"access": "private", "amenity": "hospital", "barrier": "fence", "healthcare": "hospital", "name": "Spitalul Județean de Urgență", "phone": "0252/313751", "website": "https://spitjudseverin.ro/"}}, {"name": "Spitalul C.F.R.", "latitude": 44.6235487, "longitude": 22.6416151, "source": "osm", "_tags": {"access": "private", "amenity": "hospital", "barrier": "fence", "name": "Spitalul C.F.R."}}, {"name": "Secția balneo fizioterapie recuperare medicală a Spitalului Județean", "latitude": 44.6251338, "longitude": 22.6632393, "source": "osm", "_tags": {"access": "private", "amenity": "hospital", "barrier": "fence", "name": "Secția balneo fizioterapie recuperare medicală a Spitalului Județean"}}, {"name": "Spitalul Grecescu", "latitude": 44.6236009, "longitude": 22.6437568, "source": "osm", "_tags": {"access": "private", "amenity": "hospital", "barrier": "fence", "name": "Spitalul Grecescu"}}, {"name": "Secția pneumoftiziologie TBC a Spitalului Județean", "latitude": 44.6248016, "longitude": 22.6408285, "source": "osm", "_tags": {"access": "private", "amenity": "hospital", "barrier": "fence", "name": "Secția pneumoftiziologie TBC a Spitalului Județean"}}, {"name": "Spitalul Municipal de Urgență", "latitude": 45.4116667, "longitude": 22.2290304, "source": "osm", "_tags": {"amenity": "hospital", "name": "Spitalul Municipal de Urgență"}}, {"name": "Дом здравља др Верољуб Цакић", "latitude": 44.4658598, "longitude": 22.1556245, "source": "osm", "_tags": {"amenity": "hospital", "int_name": "Dom zdravlja dr Veroljub Cakic", "name": "Дом здравља др Верољуб Цакић", "name:sr": "Дом здравља др Верољуб Цакић", "name:sr-Latn": "Dom zdravlja dr Veroljub Cakić"}}, {"name": "", "latitude": 44.8052186, "longitude": 22.5398217, "source": "osm", "_tags": {"addr:city": "Bunoaica", "addr:housenumber": "1", "addr:street": "Strada Mihai Viteazu", "amenity": "hospital", "healthcare": "hospital"}}, {"name": "Здравствени центар Кладово", "latitude": 44.6117112, "longitude": 22.611539, "source": "osm", "_tags": {"addr:city": "Drobeta-Turnu Severin", "addr:country": "RS", "addr:housenumber": "1; 3", "addr:postcode": "19320", "addr:street": "Dunavska", "amenity": "hospital", "emergency": "yes", "fax": "019802851", "healthcare": "hospital", "int_name": "Zdravstveni centar Kladovo", "name": "Здравствени центар Кладово", "name:sr": "Здравствени центар Кладово", "name:sr-Latn": "Zdravstveni centar Kladovo", "operator:type": "government", "phone": "019801455; 019808555", "website": "http://www.zckladovo.co.rs/index.html", "wheelchair": "yes"}}, {"name": "Spitalul Municipal Orșova", "latitude": 44.7216057, "longitude": 22.3958105, "source": "osm", "_tags": {"amenity": "hospital", "name": "Spitalul Municipal Orșova"}}]