[{"name": "Centre Hospitalier d'Excideuil", "latitude": 45.3364513, "longitude": 1.0513556, "source": "osm", "_tags": {"amenity": "hospital", "emergency": "no", "healthcare": "hospital", "name": "Centre Hospitalier d'Excideuil", "ref:FR:FINESS": "240000455", "source": "Le ministère des solidarités et de la santé - 08/2018", "type:FR:FINESS": "106", "wikidata": "Q92063047"}}, {"name": "Hôpital", "latitude": 44.7763852, "longitude": 1.0097128, "source": "osm", "_tags": {"amenity": "hospital", "healthcare": "hospital", "name": "Hôpital", "ref:FR:FINESS": "240000174", "source": "Le ministère des solidarités et de la santé - 08/2018", "type:FR:FINESS": "106", "wheelchair": "yes", "wikidata": "Q92063071"}}, {"name": "Centre de Rééducation Fonctionnelle La Roseraie", "latitude": 44.6891147, "longitude": 1.5620924, "source": "osm", "_tags": {"amenity": "hospital", "fax": "+33565241002", "healthcare": "hospital", "name": "Centre de Rééducation Fonctionnelle La Roseraie", "phone": "+33565241010", "ref:FR:FINESS": "460000060", "source": "Le ministère des solidarités et de la santé - 03/2019", "type:FR:FINESS": "109", "website": "https://www.ch-la-roseraie.fr/"}}, {"name": "Ehpad Pierre Bonhomme", "latitude": 44.7793641, "longitude": 1.7225355, "source": "osm", "_tags": {"amenity": "hospital", "fax": "+33565334102", "healthcare": "hospital", "name": "Ehpad Pierre Bonhomme", "phone": "+33565387327", "ref:FR:FINESS": "460780539", "ref:FR:SIRET": "77707012900013", "source": "Le ministère des solidarités et de la santé - 03/2019", "type:FR:FINESS": "500", "wikidata": "Q112963468"}}, {"name": "Centre de Soins de Suite et de Réadaptation Notre Dame – Bretenoux", "latitude": 44.9160557, "longitude": 1.8405224, "source": "osm", "_tags": {"amenity": "hospital", "healthcare": "hospital", "name": "Centre de Soins de Suite et de Réadaptation Notre Dame – Bretenoux", "operator": "Institut Camille Miret", "phone": "+33 5 65 10 30 00", "ref:FR:FINESS": "460006083", "type:FR:FINESS": "109", "website": "https://www.institut-camille-miret.fr/store/centre-de-soins-de-suite-et-de-readaptation-notre-dame-bretenoux/"}}, {"name": "Centre hospitalier de Cahors", "latitude": 44.4448917, "longitude": 1.4364203, "source": "osm", "_tags": {"alt_name": "Centre hospitalier Jean Rougier", "amenity": "hospital", "emergency": "yes", "healthcare": "hospital", "healthcare:speciality": "intensive", "name": "Centre hospitalier de Cahors", "phone": "+33 5 65 20 50 50", "ref:FR:FINESS": "460000110", "type:FR:FINESS": "355", "website": "https://www.ch-cahors.fr/"}}, {"name": "Centre hospitalier de Brive-la-Gaillarde", "latitude": 45.1691872, "longitude": 1.5340025, "source": "osm", "_tags": {"amenity": "hospital", "capacity": "543", "contact:facebook": "Centre Hospitalier de Brive", "contact:phone": "+33 5 55 92 60 00", "emergency": "yes", "healthcare": "hospital", "healthcare:speciality": "intensive", "name": "Centre hospitalier de Brive-la-Gaillarde", "ref:FR:FINESS": "190000018", "ref:FR:NAF": "8610Z", "ref:FR:SIRET": "26190310800015", "source": "cadastre-dgi-fr source : Direction Générale des Impôts - Cadastre. Mise à jour : 2011", "type:FR:FINESS": "355", "website": "https://www.ch-brive.fr/", "wikidata": "Q2945690"}}, {"name": "Ehpad Pierre Bonhomme", "latitude": 44.7793795, "longitude": 1.7225595, "source": "osm", "_tags": {"amenity": "hospital", "healthcare": "hospital", "name": "Ehpad Pierre Bonhomme", "source": "cadastre-dgi-fr source : Direction Générale des Impôts - Cadastre. Mise à jour : 2011"}}, {"name": "Centre hospitalier de Saint-Céré", "latitude": 44.8627948, "longitude": 1.8876001, "source": "osm", "_tags": {"alt_name": "Centre hospitalier Saint-Jacques", "amenity": "hospital", "emergency": "yes", "fax": "+33 5 65 38 38 10", "healthcare": "hospital", "name": "Centre hospitalier de Saint-Céré", "operator:type": "public", "phone": "+33 5 65 10 40 00", "ref:FR:FINESS": "460000052", "type:FR:FINESS": "355", "website": "http://ch-stcere.fr/"}}, {"name": "Centre hospitalier Jean-Marie d'Auzier", "latitude": 45.2070358, "longitude": 1.6897554, "source": "osm", "_tags": {"amenity": "hospital", "emergency": "no", "healthcare": "hospital", "name": "Centre hospitalier Jean-Marie d'Auzier", "ref:FR:FINESS": "190012476", "source": "cadastre-dgi-fr source : Direction Générale des Impôts - Cadastre. Mise à jour : 2012", "type:FR:FINESS": "355"}}, {"name": "Clinique Saint-Germain", "latitude": 45.1687151, "longitude": 1.5400537, "source": "osm", "_tags": {"amenity": "hospital", "healthcare": "hospital", "name": "Clinique Saint-Germain", "ref:FR:FINESS": "190011601", "source": "Le ministère des solidarités et de la santé - 08/2018"}}, {"name": "Clinique des Cèdres", "latitude": 45.1610304, "longitude": 1.4996726, "source": "osm", "_tags": {"amenity": "hospital", "healthcare": "hospital", "name": "Clinique des Cèdres", "ref:FR:FINESS": "190000224", "ref:FR:SIRET": "65552024500078", "type:FR:FINESS": "365"}}, {"name": "Centre hospitalier de Domme", "latitude": 44.8035602, "longitude": 1.2155256, "source": "osm", "_tags": {"amenity": "hospital", "building": "yes", "healthcare": "hospital", "name": "Centre hospitalier de Domme", "ref:FR:FINESS": "240000414", "type:FR:FINESS": "106", "wikidata": "Q92062392"}}, {"name": "Centre hospitalier de Tulle - Cœur de Corrèze", "latitude": 45.2709912, "longitude": 1.7706256, "source": "osm", "_tags": {"alt_name": "Centre hospitalier Coeur de Corrèze", "amenity": "hospital", "emergency": "yes", "fax": "+33 5 55 29 79 31", "healthcare": "hospital", "healthcare:speciality": "general", "name": "Centre hospitalier de Tulle - Cœur de Corrèze", "operator": "Centre hospitalier de Tulle - Coeur de Corrèze", "operator:type": "public", "phone": "+33 5 55 29 79 00", "ref:FR:FINESS": "190000026", "type:FR:FINESS": "355", "website": "https://www.ch-tulle.fr/"}}, {"name": "Le Chandou", "latitude": 45.2839311, "longitude": 1.7669954, "source": "osm", "_tags": {"amenity": "hospital", "healthcare": "hospital", "name": "Le Chandou", "operator": "Centre Hospitalier de Tulle", "ref:FR:FINESS": "190002493", "source": "Le ministère des solidarités et de la santé - 08/2018", "type:FR:FINESS": "355"}}, {"name": "Centre hospitalier de Sarlat", "latitude": 44.8994878, "longitude": 1.2234105, "source": "osm", "_tags": {"alt_name": "Centre hospitalier Jean Leclaire", "amenity": "hospital", "contact:facebook": "Centre hospitalier Jean Leclaire - Hôpital de Sarlat", "email": "contacts@ch-sarlat.fr", "emergency": "yes", "fax": "+33 5 53 59 17 62", "healthcare": "hospital", "name": "Centre hospitalier de Sarlat", "operator:type": "public", "phone": "+33 5 53 31 75 75", "ref:FR:FINESS": "240000687", "type:FR:FINESS": "355", "website": "http://www.ch-sarlat.fr"}}, {"name": "Centre hospitalier de Gourdon", "latitude": 44.7341572, "longitude": 1.3750867, "source": "osm", "_tags": {"alt_name": "Centre hospitalier Jean Coulon", "amenity": "hospital", "emergency": "yes", "fax": "+33 5 65 41 41 13", "healthcare": "hospital", "name": "Centre hospitalier de Gourdon", "operator:type": "public", "phone": "+33 5 65 27 65 27", "ref:FR:FINESS": "460000102", "type:FR:FINESS": "355", "website": "http://ch-gourdon.fr"}}, {"name": "Clinique du Relais", "latitude": 44.488495, "longitude": 1.3542306, "source": "osm", "_tags": {"amenity": "hospital", "email": "secretariat@clinique-du-relais.fr", "fax": "+33 5 65 30 98 74", "name": "Clinique du Relais", "operator:type": "private", "phone": "+33 5 65 30 97 97", "ref:FR:FINESS": "460785900", "type:FR:FINESS": "109", "website": "http://www.clinique-du-relais.fr/"}}, {"name": "Hôpital de Fumel", "latitude": 44.4976944, "longitude": 0.9645472, "source": "osm", "_tags": {"amenity": "hospital", "healthcare": "hospital", "name": "Hôpital de Fumel", "ref:FR:FINESS": "470000571", "source": "Le ministère des solidarités et de la santé - 03/2019", "type:FR:FINESS": "106", "wikidata": "Q92063019"}}, {"name": "Clinique du Quercy", "latitude": 44.457303, "longitude": 1.4373735, "source": "osm", "_tags": {"amenity": "hospital", "healthcare": "hospital", "name": "Clinique du Quercy", "ref:FR:FINESS": "460780042"}}, {"name": "Hôpital spécialisé Val Horizon", "latitude": 45.1517134, "longitude": 1.5537748, "source": "osm", "_tags": {"amenity": "hospital", "contact:phone": "+33 5 55 18 05 80", "name": "Hôpital spécialisé Val Horizon", "ref:FR:FINESS": "190000125", "type:FR:FINESS": "292"}}, {"name": "Site de Psychiatrie Henri Laborit", "latitude": 45.1719837, "longitude": 1.5369662, "source": "osm", "_tags": {"amenity": "hospital", "healthcare": "hospital", "name": "Site de Psychiatrie Henri Laborit", "ref:FR:FINESS": "190011601", "source": "extraction vectorielle v1 cadastre-dgi-fr source : Direction Générale des Impôts - Cadas. Mise à jour : 2010", "type:FR:FINESS": "355"}}]