[{"name": "Spitalul Județean de Urgență \"Sfântul Apostol Andrei\"", "latitude": 45.4194745, "longitude": 28.0188703, "source": "osm", "_tags": {"amenity": "hospital", "emergency": "yes", "healthcare": "hospital", "name": "Spitalul Județean de Urgență \"Sfântul Apostol Andrei\""}}, {"name": "Spitalul de Pneumoftiziologie", "latitude": 45.2695549, "longitude": 27.9703046, "source": "osm", "_tags": {"addr:housenumber": "21", "addr:street": "Strada Radu S.Campiniu", "amenity": "hospital", "name": "Spitalul de Pneumoftiziologie"}}, {"name": "Leprozeria Tichilești", "latitude": 45.2631331, "longitude": 28.3587565, "source": "osm", "_tags": {"addr:street": "DN22-Tichilești", "amenity": "hospital", "emergency": "no", "healthcare": "hospital", "name": "Leprozeria Tichilești", "wheelchair": "no"}}, {"name": "Dispensar Viziru III", "latitude": 45.2500589, "longitude": 27.9528046, "source": "osm", "_tags": {"amenity": "hospital", "name": "Dispensar Viziru III"}}, {"name": "Spitalul Măcin", "latitude": 45.2456181, "longitude": 28.135514, "source": "osm", "_tags": {"amenity": "hospital", "healthcare": "hospital", "name": "Spitalul Măcin"}}, {"name": "Spitalul orășenesc Hârșova", "latitude": 44.6911955, "longitude": 27.9521316, "source": "osm", "_tags": {"addr:postcode": "905400", "addr:street": "Strada Vadului", "amenity": "hospital", "name": "Spitalul orășenesc Hârșova", "name:ro": "Spitalul orășenesc Hârșova"}}, {"name": "ЦРЛ", "latitude": 45.3406422, "longitude": 28.928545, "source": "osm", "_tags": {"amenity": "hospital", "name": "ЦРЛ", "name:ru": "ЦРБ", "name:uk": "ЦРЛ"}}, {"name": "Spitalul judetean Galati", "latitude": 45.4192546, "longitude": 28.0189717, "source": "osm", "_tags": {"addr:city": "Galați", "addr:housenumber": "177", "addr:postcode": "800578", "addr:street": "Strada Brăilei", "amenity": "hospital", "emergency": "yes", "healthcare": "hospital", "is_in:city": "Galați", "name": "Spitalul judetean Galati", "operator": "Spitalul Clinic Județean de Urgență \"Sf. Apostol Andrei\" Galați", "operator:type": "government"}}, {"name": "Spitalul Clinic Județean de Urgență Brăila - Corp B", "latitude": 45.2583862, "longitude": 27.9525937, "source": "osm", "_tags": {"addr:city": "Braila", "addr:housenumber": "2-5", "addr:street": "Strada Pietății", "amenity": "hospital", "building": "yes", "building:levels": "3", "emergency": "yes", "healthcare": "hospital", "healthcare:speciality": "general", "heritage": "2", "heritage:operator": "lmi", "name": "Spitalul Clinic Județean de Urgență Brăila - Corp B", "ref:RO:lmi": "BR-II-m-B-02118", "roof:shape": "flat", "start_date": "1927"}}, {"name": "Policlinica Hipodrom", "latitude": 45.2599286, "longitude": 27.9531314, "source": "osm", "_tags": {"addr:city": "Braila", "addr:street": "Aleea Policlinicii", "amenity": "hospital", "building": "yes", "building:levels": "2", "name": "Policlinica Hipodrom"}}, {"name": "Spitalul de Obstetrică și Ginecologie", "latitude": 45.2800761, "longitude": 27.9734159, "source": "osm", "_tags": {"addr:city": "Brăila", "addr:housenumber": "296", "addr:postcode": "810129", "addr:postcode:source": "Date de la Poșta Română, publicate sub Licența pentru Guvernare Deschisă v1.0 la http://date.gov.ro/organization/posta-romana", "addr:street": "Bulevardul Independenței", "amenity": "hospital", "name": "Spitalul de Obstetrică și Ginecologie"}}, {"name": "Spitalul de psihiatrie \"Sf. Pantelimon\"", "latitude": 45.2603327, "longitude": 27.9663519, "source": "osm", "_tags": {"amenity": "hospital", "healthcare": "hospital", "is_in:city": "Brăila", "name": "Spitalul de psihiatrie \"Sf. Pantelimon\""}}, {"name": "Військовий шпиталь", "latitude": 45.3357489, "longitude": 28.8334842, "source": "osm", "_tags": {"amenity": "hospital", "healthcare": "hospital", "name": "Військовий шпиталь", "name:en": "Military hospital", "name:ru": "Военный госпиталь", "name:uk": "Військовий шпиталь", "official_name": "Госпіталь військово-клінічного центру", "wikidata": "Q122295696", "wikimedia_commons": "Category:6 Nezalezhnosti Avenue, Izmail"}}, {"name": "Інфекційне відділення", "latitude": 45.3373289, "longitude": 28.858733, "source": "osm", "_tags": {"amenity": "hospital", "barrier": "wall", "healthcare": "hospital", "healthcare:speciality": "infectious_diseases", "name": "Інфекційне відділення", "name:en": "Infectious Diseases Unit", "name:ru": "Инфекционное отделение", "name:uk": "Інфекційне відділення", "operator": "Центральна районна лікарня", "operator:type": "government"}}, {"name": "Станція швидкої та невідкладної допомоги", "latitude": 45.3528284, "longitude": 28.8197868, "source": "osm", "_tags": {"amenity": "hospital", "healthcare": "hospital", "name": "Станція швидкої та невідкладної допомоги", "name:en": "Ambulance and emergency care", "name:ru": "Станция скорой и неотложной помощи", "name:uk": "Станція швидкої та невідкладної допомоги"}}, {"name": "Spitalul Clinic Județean de Urgență Brăila", "latitude": 45.2528719, "longitude": 27.9403321, "source": "osm", "_tags": {"addr:housenumber": "2", "addr:street": "Șoseaua Buzăului", "amenity": "hospital", "building": "yes", "emergency": "yes", "healthcare": "hospital", "name": "Spitalul Clinic Județean de Urgență Brăila"}}, {"name": "Centrul de dializă", "latitude": 45.2522283, "longitude": 27.9403968, "source": "osm", "_tags": {"amenity": "hospital", "building": "yes", "healthcare": "hospital", "healthcare:speciality": "dialysis", "name": "Centrul de dializă"}}, {"name": "Serviciul Ambulanță", "latitude": 45.2593097, "longitude": 27.9513298, "source": "osm", "_tags": {"amenity": "hospital", "name": "Serviciul Ambulanță"}}, {"name": "Centrul Dializă IHS", "latitude": 45.269741, "longitude": 27.9796374, "source": "osm", "_tags": {"amenity": "hospital", "healthcare": "hospital", "name": "Centrul Dializă IHS"}}, {"name": "Centrul de Transfuzie Sanguină", "latitude": 45.2695267, "longitude": 27.9694856, "source": "osm", "_tags": {"addr:housenumber": "25", "addr:street": "Strada Radu S.Campiniu", "amenity": "hospital", "building": "yes", "name": "Centrul de Transfuzie Sanguină"}}, {"name": "Promedica", "latitude": 45.2635595, "longitude": 27.9704271, "source": "osm", "_tags": {"amenity": "hospital", "building": "hospital", "healthcare": "hospital", "name": "Promedica"}}, {"name": "Fost spital de copii", "latitude": 45.2687019, "longitude": 27.9737977, "source": "osm", "_tags": {"amenity": "hospital", "building": "yes", "heritage": "2", "heritage:operator": "lmi", "name": "Fost spital de copii", "ref:RO:lmi": "BR-II-m-B-02077", "start_date": "1937"}}, {"name": "Spitalul Orășenesc Măcin", "latitude": 45.245346, "longitude": 28.1352035, "source": "osm", "_tags": {"addr:housename": "Spitalul Orășenesc Măcin", "addr:housenumber": "34", "addr:postcode": "825300", "addr:street": "Strada Mircea Vodă", "amenity": "hospital", "building": "yes", "healthcare": "hospital", "name": "Spitalul Orășenesc Măcin"}}, {"name": "Центральна міська лікарня", "latitude": 45.3519108, "longitude": 28.8380961, "source": "osm", "_tags": {"amenity": "hospital", "healthcare": "hospital", "name": "Центральна міська лікарня", "name:en": "Central City Hospital", "name:ru": "Центральная городская больница", "name:uk": "Центральна міська лікарня"}}, {"name": "Центр паліативної допомоги", "latitude": 45.3549311, "longitude": 28.8299076, "source": "osm", "_tags": {"amenity": "hospital", "healthcare": "hospice", "healthcare:speciality": "palliative;oncology", "name": "Центр паліативної допомоги", "name:en": "Palliative Care Centre", "name:ru": "Центр паллиативной помощи", "name:uk": "Центр паліативної допомоги"}}, {"name": "", "latitude": 45.2587433, "longitude": 27.9521603, "source": "osm", "_tags": {"amenity": "hospital", "healthcare": "hospital"}}, {"name": "Spital Isaccea", "latitude": 45.2702353, "longitude": 28.4623582, "source": "osm", "_tags": {"amenity": "hospital", "building": "yes", "name": "Spital Isaccea"}}, {"name": "Emergency Room", "latitude": 45.4197004, "longitude": 28.0188403, "source": "osm", "_tags": {"addr:city": "Galați", "addr:housenumber": "177", "addr:postcode": "800578", "addr:street": "Strada Brăilei", "amenity": "hospital", "building": "yes", "building:levels": "1", "emergency": "yes", "healthcare": "hospital", "healthcare:speciality": "emergency", "height": "5", "name": "Emergency Room", "name:ro": "UNITATE PRIMIRE URGENTE", "operator": "Spitalul Clinic Judetean de Urgenta “Sfantul Apostol Andrei” Galati", "operator:type": "government", "phone": "0236301122"}}, {"name": "Spitalul Judetean Tulcea", "latitude": 45.1738202, "longitude": 28.7846626, "source": "osm", "_tags": {"addr:city": "Tulcea", "addr:housenumber": "32", "addr:postcode": "820190", "addr:street": "Strada 1848", "amenity": "hospital", "building": "yes", "healthcare": "hospital", "name": "Spitalul Judetean Tulcea", "type": "multipolygon"}}, {"name": "Дунайська обласна лікарня", "latitude": 45.334976, "longitude": 28.8549759, "source": "osm", "_tags": {"amenity": "hospital", "loc_name": "Лікарня водників", "loc_name:ru": "Больница водников", "loc_name:uk": "Лікарня водників", "name": "Дунайська обласна лікарня", "name:ru": "Дунайская областная больница", "name:uk": "Дунайська обласна лікарня", "official_name": "Комунальне некомерційне підприємство «Дунайська обласна лікарня» Одеської обласної ради", "official_name:uk": "Комунальне некомерційне підприємство «Дунайська обласна лікарня» Одеської обласної ради", "short_name": "Дунайська лікарня", "short_name:ru": "Дунайская больница", "short_name:uk": "Дунайська лікарня", "type": "multipolygon"}}, {"name": "", "latitude": 45.3743848, "longitude": 28.8360882, "source": "osm", "_tags": {"amenity": "hospital", "type": "multipolygon"}}, {"name": "Центральна районна лікарня", "latitude": 45.3403516, "longitude": 28.8262444, "source": "osm", "_tags": {"amenity": "hospital", "healthcare": "clinic", "name": "Центральна районна лікарня", "name:uk": "Центральна районна лікарня", "type": "multipolygon"}}]