[{"name": "Hôpital Sainte-Marie", "latitude": 44.732355, "longitude": 4.5940897, "source": "osm", "_tags": {"amenity": "hospital", "healthcare": "hospital", "name": "Hôpital Sainte-Marie", "phone": "+33 4 75 20 15 15", "ref:FR:FINESS": "070780317", "type:FR:FINESS": "292", "website": "https://www.ahsm.eu/implantations/centre-hospitalier-sainte-marie-privas", "wikidata": "Q54365935"}}, {"name": "Hôpital Local Intercommunal de Rocher Largentière", "latitude": 44.5429849, "longitude": 4.2912801, "source": "osm", "_tags": {"amenity": "hospital", "emergency": "no", "healthcare": "hospital", "name": "Hôpital Local Intercommunal de Rocher Largentière", "ref:FR:FINESS": "070000146", "short_name": "CH de Largentière", "source": "Le ministère des solidarités et de la santé - 10/2018", "type:FR:FINESS": "106", "wikidata": "Q92062707"}}, {"name": "L'Hort des Melleyrines", "latitude": 44.9372759, "longitude": 3.9949689, "source": "osm", "_tags": {"amenity": "hospital", "description": "Maison de convalescence", "name": "L'Hort des Melleyrines", "phone": "+33 4 71 03 80 51", "ref:FR:FINESS": "430000182", "ref:FR:SIRET": "33053348000019", "type:FR:FINESS": "109", "website": "http://hdm43.fr"}}, {"name": "Médecine générale et SSR", "latitude": 45.0082306, "longitude": 4.3998939, "source": "osm", "_tags": {"alt_name": "soins de suite et de réadaptation", "healthcare": "hospital", "healthcare:speciality": "physiatry", "name": "Médecine générale et SSR", "type:FR:FINESS": "109"}}, {"name": "Centre Périnatal de Proximité", "latitude": 45.008105, "longitude": 4.4000305, "source": "osm", "_tags": {"alt_name": "soins de suite et de réadaptation", "health_facility:type": "department", "health_person:type": "midwife", "healthcare": "hospital", "healthcare:speciality": "gynaecology;paediatrics", "name": "Centre Périnatal de Proximité", "type:FR:FINESS": "109"}}, {"name": "Pharmacie hospitalière", "latitude": 45.0080215, "longitude": 4.4001592, "source": "osm", "_tags": {"alt_name": "pharmacie hospitalière", "contact:phone": "+33 4 75 30 39 78", "dispensing": "restricted", "health_facility:type": "department", "health_person:type": "doctor", "healthcare": "hospital", "healthcare:speciality": "general", "name": "Pharmacie hospitalière"}}, {"name": "Radiographie et échographie", "latitude": 45.0079556, "longitude": 4.4002626, "source": "osm", "_tags": {"alt_name": "Echographie et Echodoppler", "alt_name_1": "Radiologie Générale et Mammographie", "contact:phone": "+33 4 75 30 39 01", "health_facility:type": "department", "health_person:type": "doctor", "healthcare": "hospital", "healthcare:speciality": "radiology", "name": "Radiographie et échographie"}}, {"name": "Consultations externes", "latitude": 45.0082985, "longitude": 4.399733, "source": "osm", "_tags": {"contact:phone": "+33 4 75 30 39 00", "health_facility:type": "office", "health_person:type": "doctor", "healthcare": "hospital", "healthcare:speciality": "internal;dermatology;urology;cardiology;gynaecology;otolaryngology;pneumology;allergology", "name": "Consultations externes"}}, {"name": "Maison de Convalescence la Condamine", "latitude": 44.6745078, "longitude": 4.2210735, "source": "osm", "_tags": {"amenity": "hospital", "description": "Etablissement de réadaptation fonctionnelle", "emergency": "no", "name": "Maison de Convalescence la Condamine", "opening_hours": "Mo-Fr 08:30-17:30", "ref:FR:SIRET": "65552024500250", "source": "BDTopo IGN"}}, {"name": "U.S.L.D. Hôpital de Villeneuve-de-Berg", "latitude": 44.5624858, "longitude": 4.5012107, "source": "osm", "_tags": {"amenity": "hospital", "healthcare": "hospital", "name": "U.S.L.D. Hôpital de Villeneuve-de-Berg", "short_name": "ULSD", "source": "BDTopo IGN", "website": "https://www.ch-vdb.fr/services-soins/unite-soins-longue-duree-usld"}}, {"name": "GHPP", "latitude": 44.5688378, "longitude": 4.7833935, "source": "osm", "_tags": {"addr:city": "Montélimar", "addr:postcode": "26200", "addr:street": "Quartier Beausseret, route de sauzet", "amenity": "hospital", "emergency": "yes", "healthcare": "hospital", "name": "GHPP", "operator": "GHPP", "operator:type": "public", "ref:FR:FINESS": "260000138", "ref:FR:SIRET": "20006353500021"}}, {"name": "Centre hospitalier Sainte Marie, hôpital de jour pour adulte", "latitude": 44.5570956, "longitude": 4.7472364, "source": "osm", "_tags": {"addr:city": "Montélimar", "addr:housenumber": "4", "addr:place": "Place du Théâtre", "addr:postcode": "26200", "healthcare": "hospital", "name": "Centre hospitalier Sainte Marie, hôpital de jour pour adulte", "ref:FR:SIRET": "38342360500013", "start_date": "1991-09-23"}}, {"name": "Hopital", "latitude": 45.2418875, "longitude": 4.6658992, "source": "osm", "_tags": {"addr:city": "Annonay", "addr:postcode": "07100", "amenity": "hospital", "healthcare": "hospital", "healthcare:speciality": "paediatrics", "name": "Hopital", "wheelchair": "yes"}}, {"name": "Clinique des Cévennes", "latitude": 45.2608739, "longitude": 4.6693694, "source": "osm", "_tags": {"addr:housenumber": "122", "addr:street": "Avenue Ferdinand Janvier", "amenity": "hospital", "fax": "+33 4 75 69 21 52", "healthcare": "hospital", "name": "Clinique des Cévennes", "operator:type": "private", "phone": "+33 4 75 69 21 00", "ref:FR:FINESS": "070780408", "source": "cadastre-dgi-fr source : Direction Générale des Impôts - Cadastre;mise à jour : 2010", "type:FR:FINESS": "128", "website": "http://clinique-des-cevennes.fr/"}}, {"name": "Centre hospitalier Ardèche Nord", "latitude": 45.2416541, "longitude": 4.6653019, "source": "osm", "_tags": {"amenity": "hospital", "emergency": "yes", "fax": "+33 4 75 67 35 90", "healthcare": "hospital", "healthcare:speciality": "intensive", "loc_name": "Hôpital d'Annonay", "name": "Centre hospitalier Ardèche Nord", "old_name": "Centre Hospitalier d'Annonay", "operator:type": "public", "phone": "+33 4 75 67 35 00", "ref:FR:FINESS": "070000179", "source": "cadastre-dgi-fr source : Direction Générale des Impôts - Cadastre ; mise à jour : 2010", "type:FR:FINESS": "355", "website": "https://ch-ardeche-nord.fr/"}}, {"name": "Clinique mutualiste chirurgicale", "latitude": 45.4144011, "longitude": 4.394414, "source": "osm", "_tags": {"alt_name": "Clinique mutualiste de Bellevue", "amenity": "hospital", "building": "hospital", "email": "clinique-mutualiste@mutualite-loire.com", "emergency": "yes", "fax": "+33 4 77 48 10 20", "healthcare": "hospital", "healthcare:speciality": "intensive", "name": "Clinique mutualiste chirurgicale", "operator": "Mutualité française Loire - Haute-Loire - Puy-de-Dôme", "operator:type": "private", "phone": "+33 4 77 12 12 12", "ref:FR:FINESS": "420010050", "ref:FR:SIRET": "77560243600369", "source": "cadastre-dgi-fr source : Direction Générale des Impôts - Cadastre. Mise à jour : 2010", "type:FR:FINESS": "365", "website": "https://www.mutualite.fr/services/trouver-un-service-de-sante/clinique-mutualiste-chirurgicale-saint-etienne-cedex/"}}, {"name": "Hôpital Local de Saint-Félicien", "latitude": 45.0865194, "longitude": 4.6295054, "source": "osm", "_tags": {"amenity": "hospital", "building": "yes", "healthcare": "hospital", "loc_name": "Hôpital de Saint-Félicien", "name": "Hôpital Local de Saint-Félicien", "ref:FR:FINESS": "070000203", "source": "cadastre-dgi-fr source : Direction Générale des Impôts - Cadastre. Mise à jour : 2010", "wikidata": "Q92062649"}}, {"name": "Clinique Psychiatrique Joseph Chiron", "latitude": 45.2429347, "longitude": 4.6640366, "source": "osm", "_tags": {"amenity": "hospital", "building": "yes", "description": "Hôpital spécialisé", "healthcare": "hospital", "name": "Clinique Psychiatrique Joseph Chiron", "source": "cadastre-dgi-fr source : Direction Générale des Impôts - Cadastre. Mise à jour : 2010", "source:amenity": "BDTopo IGN"}}, {"name": "Centre hospitalier spécialisé Drôme Vivarais", "latitude": 44.8762426, "longitude": 4.9156813, "source": "osm", "_tags": {"alt_name": "Maison de repos de Montéléger", "amenity": "hospital", "emergency": "no", "healthcare": "hospital", "healthcare:speciality": "psychiatry", "name": "Centre hospitalier spécialisé Drôme Vivarais", "old_name": "Centre Hospitalier Le Valmont", "ref:FR:FINESS": "260000823", "source": "Union européenne - SOeS, CORINE Land Cover, 2006.", "type:FR:FINESS": "292", "website": "https://www.ch-dromevivarais.fr/"}}, {"name": "Clinique Générale de Valence", "latitude": 44.9004958, "longitude": 4.8769421, "source": "osm", "_tags": {"amenity": "hospital", "fixme": "le téléphone serait 04 75 75 24 24 d'après le site", "healthcare": "hospital", "loc_name": "Clinique Générale", "name": "Clinique Générale de Valence", "phone": "+33 4 75 75 66 66", "ref:FR:FINESS": "260006267", "type:FR:FINESS": "365", "website": "https://hopital-prive-drome-ardeche-valence-guilherand-granges.ramsaygds.fr/infos-pratiques/se-rendre-sur-le-site-la-g%C3%A9n%C3%A9rale"}}, {"name": "Clinique Kennedy", "latitude": 44.557159, "longitude": 4.7318508, "source": "osm", "_tags": {"amenity": "hospital", "healthcare": "hospital", "name": "Clinique Kennedy", "phone": "+33 4 75 00 35 00", "ref:FR:FINESS": "260003017", "type:FR:FINESS": "365", "website": "https://clinique-kennedy-montelimar.ramsaygds.fr/", "wheelchair": "yes"}}, {"name": "Centre hospitalier Paul Ribeyre", "latitude": 44.6550918, "longitude": 4.3696528, "source": "osm", "_tags": {"amenity": "hospital", "healthcare": "hospital", "name": "Centre hospitalier Paul Ribeyre", "operator": "Centre Hospitalier d’Ardèche Méridionale", "phone": "+33 4 75 35 60 60", "ref:FR:FINESS": "070000484", "source": "Le ministère des solidarités et de la santé - 03/2019", "website": "https://www.ch-ardeche-meridionale.fr/"}}, {"name": "Centre hospitalier Ardèche Méridionale", "latitude": 44.6128609, "longitude": 4.3972169, "source": "osm", "_tags": {"amenity": "hospital", "emergency": "yes", "fax": "+33 4 75 35 61 40", "healthcare": "hospital", "loc_name": "Hôpital d'Aubenas", "name": "Centre hospitalier Ardèche Méridionale", "operator:type": "public", "phone": "+33 4 75 35 60 60", "ref:FR:FINESS": "070000609", "type:FR:FINESS": "355", "website": "https://www.ch-ardeche-meridionale.fr/"}}, {"name": "Hôpital Fernand Lafont", "latitude": 44.9042308, "longitude": 4.4214383, "source": "osm", "_tags": {"alt_name": "Centre Hospitalier Fernand Lafont", "amenity": "hospital", "building": "yes", "healthcare": "hospital", "loc_name": "Hôpital du Cheylard", "name": "Hôpital Fernand Lafont", "phone": "+33 4 75 29 86 00", "ref:FR:FINESS": "070000070", "source": "cadastre-dgi-fr source : Direction Générale des Impôts - Cadastre. Mise à jour : 2012", "website": "https://ch-lecheylard.fr/", "wikidata": "Q92063132"}}, {"name": "Hôpitaux Drôme-Nord - Site de Saint-Vallier", "latitude": 45.1709994, "longitude": 4.8220792, "source": "osm", "_tags": {"amenity": "hospital", "emergency": "yes", "fax": "+33 4 75 23 07 45", "healthcare": "hospital", "loc_name": "Hôpital de Saint-Valier", "name": "Hôpitaux Drôme-Nord - Site de Saint-Vallier", "operator": "Hôpitaux Drôme-Nord", "operator:type": "public", "phone": "+33 4 75 23 80 00", "ref:FR:FINESS": "260000203", "source": "cadastre-dgi-fr source : Direction Générale des Impôts - Cadastre ; mise à jour : 2009", "type:FR:FINESS": "355", "website": "https://www.hopitaux-drome-nord.fr/"}}, {"name": "Centre hospitalier de Pélussin", "latitude": 45.4175195, "longitude": 4.6718995, "source": "osm", "_tags": {"amenity": "hospital", "building": "yes", "healthcare": "hospital", "name": "Centre hospitalier de Pélussin", "ref:FR:FINESS": "420000317", "source": "cadastre-dgi-fr source : Direction Générale des Finances Publiques - Cadastre. Mise à jour : 2014", "type:FR:FINESS": "106", "wikidata": "Q92063316"}}, {"name": "Hôpital Local Claude Déjean de Villeneuve-de-Berg", "latitude": 44.5603848, "longitude": 4.5011195, "source": "osm", "_tags": {"alt_name": "Hôpital Claude Déjean", "amenity": "hospital", "healthcare": "hospital", "loc_name": "Hôpital de Villeneuve-de-Berg", "name": "Hôpital Local Claude Déjean de Villeneuve-de-Berg", "phone": "+33 4 75 88 80 25", "ref:FR:FINESS": "070000047", "type:FR:FINESS": "106", "website": "https://www.ch-vdb.fr/", "wikidata": "Q92062631"}}, {"name": "Hôpital Bellevue", "latitude": 45.4108886, "longitude": 4.3909928, "source": "osm", "_tags": {"amenity": "hospital", "healthcare": "hospital", "name": "Hôpital Bellevue", "ref:FR:FINESS": "420782559"}}, {"name": "Clinique des Côtes du Rhône", "latitude": 45.3707877, "longitude": 4.8124137, "source": "osm", "_tags": {"addr:housenumber": "12", "alt_name": "Clinique Saint-Charles", "amenity": "hospital", "emergency": "yes", "facebook": "Clinique des Côtes du Rhône", "healthcare": "hospital", "name": "Clinique des Côtes du Rhône", "operator": "Noalys", "operator:type": "private", "phone": "+33 4 74 29 28 28", "ref:FR:FINESS": "380020123", "type:FR:FINESS": "365", "website": "https://cliniquedescotesdurhone.fr/"}}, {"name": "Centre Hospitalier Jacques Barrot", "latitude": 45.1441744, "longitude": 4.1266974, "source": "osm", "_tags": {"amenity": "hospital", "healthcare": "hospital", "name": "Centre Hospitalier Jacques Barrot", "ref:FR:FINESS": "430000356", "source": "Le ministère des solidarités et de la santé - 10/2018"}}, {"name": "La Teppe", "latitude": 45.0626032, "longitude": 4.8659962, "source": "osm", "_tags": {"amenity": "hospital", "description": "Un lieu d’accueil, de soins et de vie, spécialisé en épilepsie et santé mentale", "emergency": "no", "fax": "+33475075991", "healthcare": "hospital", "name": "La Teppe", "phone": "+33 4 75 07 59 59", "ref:FR:FINESS": "260007695", "ref:FR:SIRET": "77945636700050", "social_facility": "group_home", "social_facility:for": "mental_health", "source": "Le ministère des solidarités et de la santé - 03/2019", "type:FR:FINESS": "252", "website": "https://www.teppe.org/"}}, {"name": "Hôpital Le Corbusier", "latitude": 45.3877514, "longitude": 4.2902175, "source": "osm", "_tags": {"addr:city": "Firminy", "addr:housenumber": "2", "addr:postcode": "42704", "addr:street": "Rue Robert Plotton", "amenity": "hospital", "contact:phone": "+33 4 77 40 41 42", "contact:website": "https://hopital-lecorbusier.fr/", "healthcare": "hospital", "name": "Hôpital Le Corbusier", "ref:FR:FINESS": "420000234", "ref:FR:SIRET": "26420013000013", "source": "cadastre-dgi-fr source : Direction Générale des Impôts - Cadastre. Mise à jour : 2010", "type:FR:FINESS": "355"}}, {"name": "Clinique du Vivarais", "latitude": 44.6116736, "longitude": 4.3905847, "source": "osm", "_tags": {"amenity": "hospital", "emergency": "no", "healthcare": "hospital", "name": "Clinique du Vivarais", "phone": "+33 4 75 35 70 00", "ref:FR:FINESS": "070780168", "type:FR:FINESS": "365", "website": "http://www.clinique-vivarais.com/"}}, {"name": "Centre hospitalier Georges Claudinon", "latitude": 45.3911254, "longitude": 4.3209545, "source": "osm", "_tags": {"addr:city": "Le Chambon Feugerolles", "addr:postcode": "42500", "addr:street": "Rue Paul Langevin", "amenity": "hospital", "contact:website": "http://www.ch-claudinon.fr", "emergency": "no", "healthcare": "hospital", "name": "Centre hospitalier Georges Claudinon", "ref:FR:FINESS": "420000242", "source": "cadastre-dgi-fr source : Direction Générale des Impôts - Cadastre. Mise à jour : 2010"}}, {"name": "Hôpital de Moze Saint-Agrève", "latitude": 45.0080619, "longitude": 4.3997602, "source": "osm", "_tags": {"addr:housenumber": "1", "addr:street": "Rue du Docteur Tourasse", "amenity": "hospital", "contact:email": "accueil@hopdemoze-stagreve.fr", "contact:phone": "+33 4 75 30 39 00", "contact:website": "https://www.hopitaldemoze.fr/contact/contact.php", "emergency": "no", "healthcare": "hospital", "name": "Hôpital de Moze Saint-Agrève", "operator": "association du Moze", "operator:type": "community", "ref:FR:FINESS": "070000096", "type:FR:FINESS": "365"}}, {"name": "Hôpital Elisée Charra Lamastre", "latitude": 44.9888951, "longitude": 4.5797024, "source": "osm", "_tags": {"addr:housenumber": "5", "addr:street": "Avenue Docteur Élisée Charra", "alt_name": "Hôpital Locale Lamastre", "amenity": "hospital", "name": "Hôpital Elisée Charra Lamastre", "phone": "+33 4 75 06 15 15", "ref:FR:FINESS": "070000187", "short_name": "Hôpital Elisée Charra", "source": "cadastre-dgi-fr source : Direction Générale des Finances Publiques - Cadastre. Mise à jour : 2014", "type:FR:FINESS": "106", "website": "http://www.hopital-lamastre.fr/", "wikidata": "Q92062867"}}, {"name": "Clinique Pasteur", "latitude": 44.9344215, "longitude": 4.882426, "source": "osm", "_tags": {"alt_name": "Clinique Hôpital Privé Drôme Ardèche", "amenity": "hospital", "check_date": "2024-10-24", "emergency": "yes", "fax": "+33 4 75 44 19 83", "healthcare": "hospital", "name": "Clinique Pasteur", "operator:type": "private", "phone": "+33 8 26 30 07 26", "ref:FR:FINESS": "070780424", "source": "cadastre-dgi-fr source : Direction Generale des Impots - Cadastre. Mise a jour : 2013", "type:FR:FINESS": "365", "website": "https://hopital-prive-drome-ardeche-valence-guilherand-granges.ramsaygds.fr/", "wheelchair": "yes"}}, {"name": "Centre médico-psychologique adultes de l'hôpital de jour", "latitude": 44.9358029, "longitude": 4.862789, "source": "osm", "_tags": {"amenity": "hospital", "fax": "+33475818124", "healthcare": "hospital", "name": "Centre médico-psychologique adultes de l'hôpital de jour", "phone": "+33475818120", "ref:FR:FINESS": "070005046", "ref:FR:SIRET": "26260014100457", "source": "Le ministère des solidarités et de la santé - 03/2019", "type:FR:FINESS": "292"}}, {"name": "Hôpital de Tournon", "latitude": 45.0551101, "longitude": 4.8539266, "source": "osm", "_tags": {"addr:housenumber": "50", "addr:street": "Rue des Alpes", "amenity": "hospital", "emergency": "no", "healthcare": "hospital", "healthcare:speciality": "medecine;Follow-up_Care_and_Rehabilitation;perinatal_centre", "name": "Hôpital de Tournon", "phone": "+33 4 75 07 75 07", "ref:FR:FINESS": "070000195", "source": "Le ministère des solidarités et de la santé - 10/2018", "website": "https://www.hopital-de-tournon.fr/", "wikidata": "Q92062618"}}, {"name": "Hôpital local Serrières", "latitude": 45.3194499, "longitude": 4.7635727, "source": "osm", "_tags": {"amenity": "hospital", "healthcare": "hospital", "name": "Hôpital local Serrières", "phone": "+33 4 75 69 42 00", "ref:FR:FINESS": "070780390", "source": "Le ministère des solidarités et de la santé - 03/2019", "wikidata": "Q92062799"}}, {"name": "Centre Ssr le Château", "latitude": 44.8563499, "longitude": 4.8047508, "source": "osm", "_tags": {"amenity": "hospital", "description": "Etablissement de réadaptation fonctionnelle", "emergency": "no", "name": "Centre Ssr le Château", "social_facility": "group_home", "source": "BDTopo IGN"}}, {"name": "Hôpital Local de Saint-Pierre-de-Bœuf", "latitude": 45.380981, "longitude": 4.747193, "source": "osm", "_tags": {"amenity": "hospital", "fax": "+33474879001", "healthcare": "hospital", "name": "Hôpital Local de Saint-Pierre-de-Bœuf", "phone": "+33474879000", "ref:FR:FINESS": "420780744", "ref:FR:SIRET": "20009375500029", "source": "BDTopo IGN", "type:FR:FINESS": "355"}}, {"name": "Centre hospitalier des Cévennes ardéchoises", "latitude": 44.4786655, "longitude": 4.2392765, "source": "osm", "_tags": {"amenity": "hospital", "emergency": "no", "healthcare": "hospital", "loc_name": "Hôpital de Joyeuse", "name": "Centre hospitalier des Cévennes ardéchoises", "old_name": "Hopital Local de Joyeuse", "ref:FR:FINESS": "070000021", "source": "cadastre-dgi-fr source : Direction Générale des Impôts - Cadastre. Mise à jour : 2011", "website": "https://www.ch-ca.fr/"}}, {"name": "Centre Hospitalier Privas Ardèche", "latitude": 44.7303373, "longitude": 4.5838114, "source": "osm", "_tags": {"amenity": "hospital", "emergency": "yes", "fax": "+33 4 75 20 21 90", "healthcare": "hospital", "name": "Centre Hospitalier Privas Ardèche", "operator:type": "public", "phone": "+33 4 75 20 20 00", "ref:FR:FINESS": "070000013", "source": "BDTopo IGN", "type:FR:FINESS": "355", "website": "https://www.ch-privas.fr/"}}, {"name": "", "latitude": 45.3706908, "longitude": 4.8119105, "source": "osm", "_tags": {"amenity": "hospital", "building": "construction", "building:levels": "4", "fixme": "forme du bâtiment à mettre à jour", "healthcare": "hospital", "start_date": "2021"}}, {"name": "Centre hospitalier de Valence", "latitude": 44.9137279, "longitude": 4.9053475, "source": "osm", "_tags": {"alt_name": "Hôpital de Valence", "amenity": "hospital", "emergency": "yes", "fax": "+33 4 75 75 72 40", "healthcare": "hospital", "healthcare:speciality": "intensive", "name": "Centre hospitalier de Valence", "operator:type": "public", "phone": "+33 4 75 75 75 75", "ref:FR:FINESS": "260000013", "type:FR:FINESS": "355", "website": "https://www.ch-valence.fr/"}}, {"name": "CMPR Les Beaumes", "latitude": 44.9110459, "longitude": 4.8903224, "source": "osm", "_tags": {"addr:housenumber": "43", "addr:street": "Avenue de la Libération", "alt_name": "Etablissement de Réadaptation Fonctionnelle Les Beaumes", "amenity": "hospital", "fax": "+33475812448", "healthcare": "hospital", "healthcare:speciality": "physiatry", "name": "CMPR Les Beaumes", "network": "ADAPT", "phone": "+33475816464", "ref:FR:FINESS": "260000682", "type": "multipolygon", "type:FR:FINESS": "109"}}, {"name": "Hôpital de Moze Saint-Agrève", "latitude": 45.0080619, "longitude": 4.3997602, "source": "osm", "_tags": {"addr:city": "Saint Agrève", "addr:housenumber": "1", "addr:postcode": "07320", "addr:street": "Rue du Docteur Tourasse", "amenity": "hospital", "contact:email": "accueil@hopdemoze-stagreve.fr", "contact:phone": "+33 4 75 30 39 00", "contact:website": "https://www.hopitaldemoze.fr/contact/contact.php", "emergency": "no", "healthcare": "hospital", "name": "Hôpital de Moze Saint-Agrève", "operator": "association du Moze", "operator:type": "community", "ref:FR:FINESS": "070000096", "ref:FR:NAF": "8610Z", "site": "hospital", "type": "site", "type:FR:FINESS": "365"}}, {"name": "Centre hospitalier Portes de Provence à Montélimar", "latitude": 44.569916, "longitude": 4.7842314, "source": "osm", "_tags": {"amenity": "hospital", "emergency": "yes", "fax": "+33 4 75 53 40 03", "healthcare": "hospital", "healthcare:speciality": "intensive", "loc_name": "Hôpital de Montélimar", "name": "Centre hospitalier Portes de Provence à Montélimar", "old_name": "Centre hospitalier de Montélimar", "operator:type": "public", "phone": "+33 4 75 53 40 00", "ref:FR:FINESS": "260000138", "type": "multipolygon", "type:FR:FINESS": "355", "website": "https://www.gh-portesdeprovence.fr/"}}]