[{"name": "Centre hospitalier Chenard", "latitude": 45.2047941, "longitude": 0.1411777, "source": "osm", "_tags": {"amenity": "hospital", "emergency": "no", "fax": "+33 5 53 92 43 07", "healthcare": "hospital", "name": "Centre hospitalier Chenard", "operator:type": "public", "phone": "+33 5 53 92 43 00", "ref:FR:FINESS": "240000521", "type:FR:FINESS": "106", "wikidata": "Q92063365"}}, {"name": "C.H.S de Vauclaire", "latitude": 45.032937, "longitude": 0.1846844, "source": "osm", "_tags": {"amenity": "hospital", "healthcare": "hospital", "healthcare:speciality": "psychiatry", "name": "C.H.S de Vauclaire", "ref:FR:FINESS": "240000463", "type:FR:FINESS": "292"}}, {"name": "Maison de Santé Rurale", "latitude": 44.5859946, "longitude": -0.0361396, "source": "osm", "_tags": {"addr:housenumber": "1", "addr:street": "Chemin de Blasignon", "amenity": "hospital", "healthcare": "hospital", "name": "Maison de Santé Rurale", "phone": "+33 5 24 25 30 00", "ref:FR:FINESS": "330057738", "ref:FR:NAF": "86.10Z", "ref:FR:SIREN": "807734603", "ref:FR:SIRET": "80773460300010", "source": "INSEE - 2025-02", "type:FR:FINESS": "603"}}, {"name": "La Vieille École", "latitude": 44.617482, "longitude": 0.4190223, "source": "osm", "_tags": {"addr:housenumber": "295", "addr:postcode": "47410", "addr:street": "Route de Lauzun", "amenity": "hospital", "healthcare": "hospital", "healthcare:speciality": "hospitalité_et_apprentissage", "name": "La Vieille École", "operator": "ASSOCIATION LES COPAINS DE LA VIEILLE ECOLE", "operator:type": "public"}}, {"name": "Centre Hospitalier Sud Gironde", "latitude": 44.5863341, "longitude": -0.0377914, "source": "osm", "_tags": {"addr:city": "La Réole", "addr:housenumber": "37", "addr:postcode": "33190", "addr:street": "Chemin de Ronde", "amenity": "hospital", "healthcare": "hospital", "name": "Centre Hospitalier Sud Gironde", "phone": "+33524253000", "ref:FR:FINESS": "330057738", "ref:FR:SIRET": "32459066000035", "source": "Le ministère des solidarités et de la santé - 2024-09", "type:FR:FINESS": "603"}}, {"name": "Centre hospitalier de Périgueux", "latitude": 45.1944911, "longitude": 0.7297196, "source": "osm", "_tags": {"amenity": "hospital", "emergency": "yes", "fax": "+33 5 53 45 25 40", "healthcare": "hospital", "healthcare:speciality": "intensive", "name": "Centre hospitalier de Périgueux", "operator:type": "public", "phone": "+33 5 53 45 25 25", "ref:FR:FINESS": "240000489", "source": "cadastre-dgi-fr source : Direction Générale des Impôts - Cadastre. Mise à jour : 2010", "type:FR:FINESS": "355", "website": "https://www.ch-perigueux.fr/", "wikidata": "Q2945699", "wikipedia": "fr:Centre hospitalier de Périgueux"}}, {"name": "Hôpital de Jour", "latitude": 44.504756, "longitude": 0.1613195, "source": "osm", "_tags": {"amenity": "hospital", "building": "yes", "name": "Hôpital de Jour", "ref:FR:FINESS": "470013418", "source": "cadastre-dgi-fr source : Direction Générale des Impôts - Cadastre. Mise à jour : 2012", "type:FR:FINESS": "156"}}, {"name": "Centre Médical de Lanmary", "latitude": 45.2416777, "longitude": 0.8161616, "source": "osm", "_tags": {"amenity": "hospital", "contact:phone": "+33 5 53 03 88 88", "healthcare": "hospital", "name": "Centre Médical de Lanmary", "ref:FR:FINESS": "240000034", "ref:FR:NAF": "8610Z", "ref:FR:SIRET": "26240592100012", "website": "https://www.ch-lanmary.fr/accueil/", "wikidata": "Q105164247"}}, {"name": "", "latitude": 44.849587, "longitude": 0.4824105, "source": "osm", "_tags": {"healthcare": "hospital", "layer": "1", "leisure": "outdoor_seating"}}, {"name": "Centre hospitalier de Bergerac", "latitude": 44.8507412, "longitude": 0.4967527, "source": "osm", "_tags": {"alt_name": "Centre hospitalier Samuel Pozzi", "amenity": "hospital", "emergency": "yes", "fax": "+33 5 53 24 37 46", "healthcare": "hospital", "name": "Centre hospitalier de Bergerac", "operator:type": "public", "phone": "+33 5 53 63 88 88", "ref:FR:FINESS": "240000372", "source": "Le ministère des solidarités et de la santé - 08/2018", "type:FR:FINESS": "355", "website": "http://www.ch-bergerac.fr/accueil-3.html"}}, {"name": "Clinique Pasteur", "latitude": 44.851724, "longitude": 0.489996, "source": "osm", "_tags": {"addr:city": "Bergerac", "addr:postcode": "24100", "addr:street": "Rue Malbec", "amenity": "hospital", "healthcare": "hospital", "name": "Clinique Pasteur", "ref:FR:FINESS": "240000208", "type:FR:FINESS": "365"}}, {"name": "Centre hospitalier de Sainte-Foy-la-Grande", "latitude": 44.8418278, "longitude": 0.2226888, "source": "osm", "_tags": {"amenity": "hospital", "emergency": "yes", "fax": "+33 5 57 41 96 57", "healthcare": "hospital", "name": "Centre hospitalier de Sainte-Foy-la-Grande", "operator": "Centre hospitalier de Libourne", "operator:type": "public", "phone": "+33 5 57 41 96 96", "ref:FR:FINESS": "330058355", "source": "cadastre-dgi-fr source : Direction Générale des Impôts - Cadastre. Mise à jour : 2010", "type:FR:FINESS": "355", "website": "https://www.ch-saintefoy.com/"}}, {"name": "Centre hospitalier Yves Grassot", "latitude": 44.5025872, "longitude": 0.1654172, "source": "osm", "_tags": {"amenity": "hospital", "emergency": "yes", "fax": "+33 5 53 20 30 29", "healthcare": "hospital", "name": "Centre hospitalier Yves Grassot", "operator": "Centre hospitalier intercommunal Marmande-Tonneins", "operator:type": "public", "phone": "+33 5 53 20 30 40", "ref:FR:FINESS": "470000480", "short_name": "CHIC Marmande-Tonneins", "type:FR:FINESS": "355", "website": "https://www.chicmt.fr/"}}, {"name": "Hôpital de Ribérac", "latitude": 45.2449953, "longitude": 0.3400174, "source": "osm", "_tags": {"amenity": "hospital", "building": "hospital", "healthcare": "hospital", "name": "Hôpital de Ribérac", "ref:FR:FINESS": "240000505", "type:FR:FINESS": "106", "website": "https://www.chicrdd.fr/", "wikidata": "Q92063345"}}, {"name": "Pôle d'Hospitalisation Psychiatrique", "latitude": 44.8532097, "longitude": 0.5022544, "source": "osm", "_tags": {"amenity": "hospital", "healthcare": "hospital", "healthcare:speciality": "psychiatry", "name": "Pôle d'Hospitalisation Psychiatrique"}}, {"name": "Clinique du Parc", "latitude": 45.1887493, "longitude": 0.728332, "source": "osm", "_tags": {"amenity": "hospital", "healthcare": "clinic", "name": "Clinique du Parc"}}, {"name": "Clinique Francheville", "latitude": 45.18134, "longitude": 0.717538, "source": "osm", "_tags": {"amenity": "hospital", "building": "hospital", "emergency": "yes", "healthcare": "hospital", "name": "Clinique Francheville", "operator:type": "private", "ref:FR:FINESS": "240000190", "source": "cadastre-dgi-fr source : Direction Générale des Impôts - Cadastre. Mise à jour : 2010", "type": "multipolygon", "type:FR:FINESS": "365"}}]