[{"name": "", "latitude": 44.5761918, "longitude": 6.3609321, "source": "osm", "_tags": {"amenity": "hospital", "emergency": "no", "healthcare": "hospital"}}, {"name": "Sanimont s.r.l", "latitude": 44.9575952, "longitude": 6.8789454, "source": "osm", "_tags": {"amenity": "hospital", "healthcare": "hospital", "name": "Sanimont s.r.l"}}, {"name": "", "latitude": 45.201183, "longitude": 6.6667452, "source": "osm", "_tags": {"amenity": "hospital", "fax": "+33479051810", "phone": "+33479051188", "ref:FR:FINESS": "730010477", "ref:FR:SIRET": "26730013500071", "source": "Le ministère des solidarités et de la santé - 2022-03", "type:FR:FINESS": "355"}}, {"name": "", "latitude": 45.2031748, "longitude": 6.6649954, "source": "osm", "_tags": {"amenity": "hospital", "fax": "+33479051910", "phone": "+33479052233", "ref:FR:FINESS": "730000288", "ref:FR:SIRET": "26730013500097", "source": "Le ministère des solidarités et de la santé - 2022-03", "type:FR:FINESS": "355", "wikidata": "Q92062433"}}, {"name": "", "latitude": 44.4572537, "longitude": 6.0491081, "source": "osm", "_tags": {"amenity": "hospital", "healthcare": "hospital"}}, {"name": "Maison Médicale", "latitude": 45.0918177, "longitude": 6.073045, "source": "osm", "_tags": {"amenity": "hospital", "healthcare": "hospital", "name": "Maison Médicale"}}, {"name": "", "latitude": 44.4900443, "longitude": 6.7183361, "source": "osm", "_tags": {"amenity": "hospital", "healthcare": "hospital"}}, {"name": "Centre Rhône-Azur", "latitude": 44.5681498, "longitude": 6.0691169, "source": "osm", "_tags": {"amenity": "hospital", "building": "yes", "healthcare": "hospital", "healthcare:speciality": "physiatry", "name": "Centre Rhône-Azur", "ref:FR:FINESS": "050002351", "source": "cadastre-dgi-fr source : Direction Générale des Impôts - Cadastre. Mise à jour : 2010", "type:FR:FINESS": "109"}}, {"name": "Centre médical Rio Vert", "latitude": 44.423967, "longitude": 6.000384, "source": "osm", "_tags": {"addr:housenumber": "650", "addr:street": "Avenue de Marseille", "amenity": "hospital", "building": "yes", "healthcare": "hospital", "healthcare:speciality": "physiatry", "name": "Centre médical Rio Vert", "phone": "+33 4 92 54 76 76", "ref:FR:FINESS": "050000058", "source": "cadastre-dgi-fr source : Direction Générale des Impôts - Cadastre. Mise à jour : 2011", "type:FR:FINESS": "109"}}, {"name": "Centre hospitalier intercommunal des Alpes du Sud", "latitude": 44.5571763, "longitude": 6.0729373, "source": "osm", "_tags": {"addr:housenumber": "1", "addr:street": "Place Auguste Muret", "alt_name": "Centre hospitalier de Gap", "amenity": "hospital", "emergency": "yes", "fax": "+33 4 92 40 61 03", "healthcare": "hospital", "healthcare:speciality": "intensive", "name": "Centre hospitalier intercommunal des Alpes du Sud", "operator:type": "public", "phone": "+33 4 92 40 61 61", "ref:FR:FINESS": "050000348", "short_name": "CHICAS", "type:FR:FINESS": "355", "website": "https://www.chicas-gap.fr/", "wikidata": "Q64937929"}}, {"name": "Centre hospitalier Aiguilles-Queyras", "latitude": 44.7805549, "longitude": 6.8676801, "source": "osm", "_tags": {"amenity": "hospital", "email": "hopital@ch-aiguilles.fr", "fax": "+33 4 92 46 80 82", "name": "Centre hospitalier Aiguilles-Queyras", "operator:type": "public", "phone": "+33 4 92 46 70 18", "ref:FR:FINESS": "050000223", "type:FR:FINESS": "106", "website": "www.ch-aiguilles.fr", "wikidata": "Q92061603"}}, {"name": "Centre hospitalier des Escartons", "latitude": 44.905889, "longitude": 6.6329771, "source": "osm", "_tags": {"alt_name": "Centre hospitalier de Briançon", "amenity": "hospital", "emergency": "yes", "fax": "+33 4 92 25 21 09", "healthcare": "hospital", "landuse": "healthcare", "name": "Centre hospitalier des Escartons", "operator:type": "public", "phone": "+33 4 92 25 25 25", "ref:FR:FINESS": "050000231", "short_name": "CHEB", "type:FR:FINESS": "355", "website": "https://www.ch-briancon.fr/fr"}}, {"name": "Centre hospitalier de Saint-Jean-de-Maurienne", "latitude": 45.2782, "longitude": 6.3414014, "source": "osm", "_tags": {"amenity": "hospital", "emergency": "yes", "fax": "+33 4 79 20 60 10", "healthcare": "hospital", "name": "Centre hospitalier de Saint-Jean-de-Maurienne", "operator:type": "public", "phone": "+33 4 79 20 60 20", "ref:FR:FINESS": "730000080", "type:FR:FINESS": "355"}}, {"name": "Centre hospitalier d'Embrun", "latitude": 44.5612505, "longitude": 6.4932364, "source": "osm", "_tags": {"amenity": "hospital", "emergency": "yes", "fax": "+33 4 92 43 73 01", "healthcare": "hospital", "landuse": "healthcare", "name": "Centre hospitalier d'Embrun", "operator:type": "public", "phone": "+33 4 92 43 73 00", "ref:FR:FINESS": "050000256", "type:FR:FINESS": "355", "website": "https://www.ch-embrun.fr/", "wikidata": "Q107451202"}}, {"name": "Polyclinique des Alpes du Sud", "latitude": 44.5687169, "longitude": 6.0703875, "source": "osm", "_tags": {"addr:housenumber": "3", "addr:street": "Rue Antonin Coronat", "amenity": "hospital", "healthcare": "hospital", "name": "Polyclinique des Alpes du Sud", "phone": "+33 4 92 40 15 15", "ref:FR:FINESS": "050000090", "type:FR:FINESS": "365", "website": "http://www.clinalpsud.fr/fr/"}}, {"name": "Soccorso Piste", "latitude": 45.0868289, "longitude": 6.7542383, "source": "osm", "_tags": {"amenity": "hospital", "healthcare": "hospital", "name": "Soccorso Piste"}}, {"name": "Soccorso Piste", "latitude": 45.0871677, "longitude": 6.7664865, "source": "osm", "_tags": {"amenity": "hospital", "healthcare": "hospital", "name": "Soccorso Piste"}}]