[{"name": "Spitalul Județean de Urgență - Vâlcea", "latitude": 45.1185439, "longitude": 24.3625832, "source": "osm", "_tags": {"amenity": "hospital", "check_date": "2024-08-20", "contact:website": "http://www.sjv.ro/", "name": "Spitalul Județean de Urgență - Vâlcea"}}, {"name": "Laborator Sanatate Mintala", "latitude": 44.8670294, "longitude": 24.8607635, "source": "osm", "_tags": {"amenity": "hospital", "healthcare": "hospital", "name": "Laborator Sanatate Mintala"}}, {"name": "Cabinet Medical Cadar Sorin", "latitude": 44.8525738, "longitude": 24.8677238, "source": "osm", "_tags": {"amenity": "hospital", "name": "Cabinet Medical Cadar Sorin"}}, {"name": "Natisan", "latitude": 44.8670072, "longitude": 24.8653438, "source": "osm", "_tags": {"addr:city": "Pitești", "amenity": "hospital", "healthcare": "hospital", "healthcare:speciality": "general", "name": "Natisan"}}, {"name": "", "latitude": 44.8290094, "longitude": 24.9171217, "source": "osm", "_tags": {"amenity": "hospital"}}, {"name": "Dispensarul medical Cheia", "latitude": 45.1822201, "longitude": 24.2163358, "source": "osm", "_tags": {"amenity": "hospital", "emergency": "no", "healthcare": "doctor", "name": "Dispensarul medical Cheia"}}, {"name": "Maternitatea Râmnicu Vâlcea", "latitude": 45.1060512, "longitude": 24.3789597, "source": "osm", "_tags": {"addr:city": "Râmnicu Vâlcea", "addr:street": "Strada Remus Bellu", "amenity": "hospital", "healthcare": "hospital", "name": "Maternitatea Râmnicu Vâlcea", "name:it": "Maternitatea Râmnicu Vâlcea", "name:ro": "Maternitatea Râmnicu Vâlcea"}}, {"name": "Dispensar Frâncești", "latitude": 44.9990222, "longitude": 24.1861586, "source": "osm", "_tags": {"addr:city": "Frâncești", "addr:postcode": "247195", "addr:street": "Strada Principală", "amenity": "hospital", "healthcare": "hospital", "name": "Dispensar Frâncești"}}, {"name": "Spitalul orășenesc Horezu", "latitude": 45.1431921, "longitude": 23.9919611, "source": "osm", "_tags": {"amenity": "hospital", "healthcare": "hospital", "name": "Spitalul orășenesc Horezu", "name:ro": "Spitalul orășenesc Horezu"}}, {"name": "Spitalul Domnești", "latitude": 45.1984745, "longitude": 24.8421847, "source": "osm", "_tags": {"amenity": "hospital", "name": "Spitalul Domnești"}}, {"name": "Clinica AMAMED pavilion A", "latitude": 45.1721416, "longitude": 24.1171251, "source": "osm", "_tags": {"amenity": "hospital", "name": "Clinica AMAMED pavilion A"}}, {"name": "Clinica AMAMED Pavilion B", "latitude": 45.1716687, "longitude": 24.1174161, "source": "osm", "_tags": {"amenity": "hospital", "healthcare": "hospital", "name": "Clinica AMAMED Pavilion B"}}, {"name": "Clinica AMAMED Pavilion C", "latitude": 45.1720058, "longitude": 24.1171043, "source": "osm", "_tags": {"amenity": "hospital", "name": "Clinica AMAMED Pavilion C"}}, {"name": "Spitalul Judeţean de Psihiatrie", "latitude": 44.4232438, "longitude": 24.3837805, "source": "osm", "_tags": {"addr:city": "Slatina", "addr:housenumber": "33", "addr:street": "Strada Drăgănești", "amenity": "hospital", "emergency": "yes", "healthcare": "hospital", "healthcare:speciality": "psychiatry", "name": "Spitalul Judeţean de Psihiatrie"}}, {"name": "Dispensar", "latitude": 44.9298898, "longitude": 24.2722401, "source": "osm", "_tags": {"amenity": "hospital", "name": "Dispensar"}}, {"name": "Dispensar Brăduleț", "latitude": 45.276425, "longitude": 24.7833511, "source": "osm", "_tags": {"amenity": "hospital", "healthcare": "hospital", "name": "Dispensar Brăduleț"}}, {"name": "Dispensar", "latitude": 45.1220553, "longitude": 24.1607665, "source": "osm", "_tags": {"amenity": "hospital", "name": "Dispensar"}}, {"name": "Dispensarul Lădești", "latitude": 44.8787783, "longitude": 24.0434312, "source": "osm", "_tags": {"amenity": "hospital", "name": "Dispensarul Lădești"}}, {"name": "Dispensarul Budești", "latitude": 45.0641649, "longitude": 24.3875851, "source": "osm", "_tags": {"amenity": "hospital", "name": "Dispensarul Budești"}}, {"name": "Spitalul de Psihiatrie Drăgoești", "latitude": 44.8319445, "longitude": 24.2824554, "source": "osm", "_tags": {"amenity": "hospital", "name": "Spitalul de Psihiatrie Drăgoești"}}, {"name": "Cabinet medical Bodești", "latitude": 45.1359945, "longitude": 24.113529, "source": "osm", "_tags": {"amenity": "hospital", "healthcare": "hospital", "name": "Cabinet medical Bodești"}}, {"name": "Spitalul Orasenesc Brezoi", "latitude": 45.3423993, "longitude": 24.2457898, "source": "osm", "_tags": {"amenity": "hospital", "healthcare": "hospital", "hospital_type": "spital orasenesc", "name": "Spitalul Orasenesc Brezoi", "name:ro": "Spitalul Orasenesc Brezoi", "reviewed": "no"}}, {"name": "Dispensar Gușoianca", "latitude": 44.7472573, "longitude": 24.1104331, "source": "osm", "_tags": {"addr:city": "Gusoianca", "addr:street": "Gușoieni-Gușoianca", "amenity": "hospital", "healthcare": "hospital", "healthcare:speciality": "general", "name": "Dispensar Gușoianca"}}, {"name": "Sanatoriul 1 Mai", "latitude": 45.1980033, "longitude": 24.2479884, "source": "osm", "_tags": {"addr:city": "Băile Olănești", "addr:street": "Strada Salcâmilor", "amenity": "hospital", "healthcare": "hospital", "name": "Sanatoriul 1 Mai", "operator": "Spitalul Universitar Elias"}}, {"name": "Dispensar Buleta", "latitude": 45.0386697, "longitude": 24.2539393, "source": "osm", "_tags": {"addr:city": "Buleta", "addr:postcode": "247378", "addr:street": "Strada Primăriei", "amenity": "hospital", "healthcare": "clinic", "name": "Dispensar Buleta"}}, {"name": "Spitalul Orasenesc \"Regele Carol I\" Costesti", "latitude": 44.6647229, "longitude": 24.8742189, "source": "osm", "_tags": {"amenity": "hospital", "emergency": "yes", "healthcare": "hospital", "name": "Spitalul Orasenesc \"Regele Carol I\" Costesti", "operator": "Ministerul Sanatatii", "operator:type": "public"}}, {"name": "Dispensarul Uman Berislăvești", "latitude": 45.2607019, "longitude": 24.4256023, "source": "osm", "_tags": {"addr:city": "Stoenești", "addr:postcode": "247047", "addr:street": "Strada Principală", "amenity": "hospital", "healthcare": "hospital", "name": "Dispensarul Uman Berislăvești"}}, {"name": "Centrul de Ortopedie Pediatrică BUNești", "latitude": 45.0189937, "longitude": 24.7687354, "source": "osm", "_tags": {"addr:housenumber": "84", "addr:postcode": "117449", "addr:street": "DJ703I", "amenity": "hospital", "email": "ortopediepediatrica1@gmail.com", "emergency": "yes", "healthcare": "hospital", "healthcare:speciality": "orthopedic_pediatric", "mobile": "+40771424424", "name": "Centrul de Ortopedie Pediatrică BUNești", "operator": "Centrul de Ortopedie Pediatrică BUNești", "operator:type": "private", "website": "https://www.ortopedpediatru.ro/"}}, {"name": "Spitalul de Pediatrie Pitești", "latitude": 44.8507763, "longitude": 24.8652897, "source": "osm", "_tags": {"addr:city": "Pitești", "addr:housenumber": "1", "addr:street": "Bulevardul Eroilor", "amenity": "hospital", "building": "yes", "building:levels": "10", "check_date": "2025-04-03", "emergency": "yes", "healthcare": "hospital", "healthcare:speciality": "paediatrics", "name": "Spitalul de Pediatrie Pitești"}}, {"name": "Spitalul Militar de Urgență „Dr. Ion Jianu”", "latitude": 44.8645707, "longitude": 24.8613209, "source": "osm", "_tags": {"addr:city": "Pitești", "addr:housenumber": "47", "addr:street": "Strada Negru Vodă", "amenity": "hospital", "emergency": "yes", "healthcare": "hospital", "name": "Spitalul Militar de Urgență „Dr. Ion Jianu”"}}, {"name": "Spitalul Județean de Urgență Pitești, Secțiile Oftalmologie, Psihiatrie și Pneumologie", "latitude": 44.8661029, "longitude": 24.8598246, "source": "osm", "_tags": {"addr:city": "Pitești", "addr:housenumber": "53", "addr:postcode": "110069", "addr:street": "Strada Negru Vodă", "amenity": "hospital", "emergency": "yes", "healthcare": "hospital", "healthcare:speciality": "ophthalmology;pneumology;psychiatry", "name": "Spitalul Județean de Urgență Pitești, Secțiile Oftalmologie, Psihiatrie și Pneumologie", "operator": "Ministerul Sănătății", "operator:type": "public"}}, {"name": "Policlinică", "latitude": 44.6592893, "longitude": 24.2609284, "source": "osm", "_tags": {"amenity": "clinic", "building": "yes", "check_date": "2023-11-04", "emergency": "no", "healthcare": "hospital", "healthcare:speciality": "general", "name": "Policlinică"}}, {"name": "Dispensar și Creșă", "latitude": 44.8474207, "longitude": 24.890817, "source": "osm", "_tags": {"amenity": "hospital", "emergency": "no", "healthcare": "hospital", "healthcare:speciality": "general", "name": "Dispensar și Creșă"}}, {"name": "Spitalul BalneoMedCenter", "latitude": 45.0818594, "longitude": 24.3673329, "source": "osm", "_tags": {"addr:city": "Râmnicu Vâlcea", "addr:postcode": "240425", "addr:street": "Bulevardul Dem Rădulescu", "amenity": "hospital", "building": "hospital", "building:levels": "6", "healthcare": "hospital", "name": "Spitalul BalneoMedCenter"}}, {"name": "Pavilion II", "latitude": 45.3427616, "longitude": 24.2453566, "source": "osm", "_tags": {"addr:city": "Brezoi", "addr:postcode": "245500", "addr:street": "Calea Eroilor", "amenity": "hospital", "building": "yes", "building:levels": "3", "healthcare": "hospital", "name": "Pavilion II", "roof:colour": "red", "roof:levels": "1", "roof:shape": "gabled"}}, {"name": "Pavilion I", "latitude": 45.3423664, "longitude": 24.2457821, "source": "osm", "_tags": {"amenity": "hospital", "building": "hospital", "healthcare": "hospital", "healthcare:speciality": "general;emergency;radiology;clinical_lab", "name": "Pavilion I"}}, {"name": "Spitalul Municipal Curtea de Argeș", "latitude": 45.1490935, "longitude": 24.6787793, "source": "osm", "_tags": {"addr:city": "Curtea de Argeș", "addr:housenumber": "6-8", "addr:postcode": "115300", "addr:street": "Strada Cuza Vodă", "amenity": "hospital", "emergency": "yes", "healthcare": "hospital", "name": "Spitalul Municipal Curtea de Argeș", "website": "https://www.smca.ro/"}}, {"name": "Spitalul Județean de Urgență Slatina", "latitude": 44.4326556, "longitude": 24.3668949, "source": "osm", "_tags": {"amenity": "hospital", "healthcare": "hospital", "name": "Spitalul Județean de Urgență Slatina"}}, {"name": "Spitalul TBC Sf Andrei", "latitude": 45.1867636, "longitude": 24.6914076, "source": "osm", "_tags": {"amenity": "hospital", "building": "yes", "name": "Spitalul TBC Sf Andrei"}}, {"name": "Clinica Amamed Bărbătești", "latitude": 45.1718944, "longitude": 24.1172384, "source": "osm", "_tags": {"amenity": "hospital", "healthcare": "hospital", "name": "Clinica Amamed Bărbătești"}}, {"name": "Spitalul 2", "latitude": 45.1078476, "longitude": 24.3683493, "source": "osm", "_tags": {"amenity": "hospital", "check_date": "2023-07-11", "name": "Spitalul 2", "name:ro": "Spitalul Vechi"}}, {"name": "Spitalul Județean de Urgență - Vâlcea", "latitude": 45.1187887, "longitude": 24.3619468, "source": "osm", "_tags": {"amenity": "hospital", "healthcare": "hospital", "name": "Spitalul Județean de Urgență - Vâlcea"}}, {"name": "Spital Budești", "latitude": 45.0642506, "longitude": 24.3875664, "source": "osm", "_tags": {"amenity": "hospital", "name": "Spital Budești"}}, {"name": "", "latitude": 44.831818, "longitude": 24.2819807, "source": "osm", "_tags": {"amenity": "hospital"}}, {"name": "", "latitude": 45.1487064, "longitude": 24.0581567, "source": "osm", "_tags": {"amenity": "hospital", "healthcare": "hospital"}}, {"name": "Dispensarul Brezoi", "latitude": 45.3438699, "longitude": 24.2394946, "source": "osm", "_tags": {"addr:city": "Brezoi", "addr:street": "Strada Panduri", "amenity": "hospital", "healthcare": "hospital", "healthcare:speciality": "general", "name": "Dispensarul Brezoi"}}, {"name": "Dispensarul Uman Malaia", "latitude": 45.3515103, "longitude": 24.0422795, "source": "osm", "_tags": {"amenity": "hospital", "healthcare": "hospital", "name": "Dispensarul Uman Malaia"}}, {"name": "Spitalul de Recuperare Brădet", "latitude": 45.3128073, "longitude": 24.7613562, "source": "osm", "_tags": {"amenity": "hospital", "healthcare": "hospital", "name": "Spitalul de Recuperare Brădet"}}, {"name": "Spitalul Universitar Elias - Secția de Recuperare Medicală Olănești", "latitude": 45.198098, "longitude": 24.2478217, "source": "osm", "_tags": {"addr:city": "Băile Olănești", "addr:street": "Aleea Salcâmilor", "amenity": "hospital", "healthcare": "hospital", "name": "Spitalul Universitar Elias - Secția de Recuperare Medicală Olănești"}}, {"name": "Spitalul de Pneumoftiziologie \"Constantin Anastasatu\" Mihăești", "latitude": 45.023206, "longitude": 24.2372206, "source": "osm", "_tags": {"amenity": "hospital", "healthcare": "hospital", "name": "Spitalul de Pneumoftiziologie \"Constantin Anastasatu\" Mihăești"}}, {"name": "Dispensar Bodești", "latitude": 45.1404437, "longitude": 24.1135077, "source": "osm", "_tags": {"amenity": "hospital", "healthcare": "hospital", "name": "Dispensar Bodești"}}, {"name": "Spitalul de Pneumoftiziologie „Constantin Anastasatu”", "latitude": 45.0194228, "longitude": 24.2422102, "source": "osm", "_tags": {"amenity": "hospital", "healthcare": "hospital", "name": "Spitalul de Pneumoftiziologie „Constantin Anastasatu”"}}, {"name": "", "latitude": 45.0386965, "longitude": 24.2538313, "source": "osm", "_tags": {"amenity": "hospital", "healthcare": "hospital"}}, {"name": "", "latitude": 45.3425106, "longitude": 24.2455494, "source": "osm", "_tags": {"amenity": "hospital", "healthcare": "hospital"}}, {"name": "", "latitude": 44.6303905, "longitude": 24.2560844, "source": "osm", "_tags": {"amenity": "hospital", "healthcare": "hospital"}}, {"name": "Dispensarul Popești", "latitude": 44.9841746, "longitude": 24.0950681, "source": "osm", "_tags": {"amenity": "hospital", "healthcare": "hospital", "name": "Dispensarul Popești"}}, {"name": "Spitalul Municipal „Costache Nicolescu” Drăgășani", "latitude": 44.6596017, "longitude": 24.2580992, "source": "osm", "_tags": {"addr:city": "Drăgășani", "addr:housenumber": "2", "addr:postcode": "245700", "addr:street": "Strada Dr. Dumitru Bagdasar", "amenity": "hospital", "emergency": "no", "healthcare": "hospital", "name": "Spitalul Municipal „Costache Nicolescu” Drăgășani"}}]