[{"name": "", "latitude": 44.4741551, "longitude": 10.0887647, "source": "osm", "_tags": {"amenity": "hospital"}}, {"name": "Azienda Usl - Polo sanitario", "latitude": 44.6941091, "longitude": 10.1043988, "source": "osm", "_tags": {"amenity": "hospital", "emergency": "no", "healthcare": "hospital", "name": "Azienda Usl - Polo sanitario"}}, {"name": "Casa di cura Figlie di San Camillo", "latitude": 45.1450603, "longitude": 10.0127963, "source": "osm", "_tags": {"amenity": "hospital", "healthcare": "hospital", "name": "Casa di cura Figlie di San Camillo", "source": "bing"}}, {"name": "Spedali Civili Brescia Montichiari", "latitude": 45.4104244, "longitude": 10.4087873, "source": "osm", "_tags": {"addr:city": "Montichiari", "addr:housenumber": "1", "addr:postcode": "25123", "addr:street": "Piazzale Spedali civili", "amenity": "hospital", "contact:email": "protocollo.spedalicivilibrescia@legalmail.it", "contact:phone": "+39 030 39951", "contact:website": "https://montichiari.asst-spedalicivili.it/servizi/notizie/notizie_homepage.aspx", "emergency": "yes", "name": "Spedali Civili Brescia Montichiari"}}, {"name": "Italian Red Cross", "latitude": 44.856799, "longitude": 10.071196, "source": "osm", "_tags": {"amenity": "hospital", "emergency": "no", "healthcare": "hospital", "name": "Italian Red Cross"}}, {"name": "Croce Rossa (Pronto Soccorso)", "latitude": 44.518358, "longitude": 10.2007578, "source": "osm", "_tags": {"addr:city": "Tizzano Val Parma", "addr:housenumber": "12", "addr:street": "Via Aldo Moro", "amenity": "hospital", "healthcare": "hospital", "name": "Croce Rossa (Pronto Soccorso)", "phone": "+39 521 867129"}}, {"name": "ospitale civile", "latitude": 44.9261345, "longitude": 10.522617, "source": "osm", "_tags": {"amenity": "hospital", "name": "ospitale civile"}}, {"name": "Pronto Soccorso", "latitude": 44.6837828, "longitude": 10.6314629, "source": "osm", "_tags": {"emergency": "emergency_ward_entrance", "healthcare": "hospital", "name": "Pronto Soccorso"}}, {"name": "Pronto Soccorso Ospedale \"Carlo Poma\"", "latitude": 45.1448384, "longitude": 10.7733832, "source": "osm", "_tags": {"addr:city": "Mantova", "emergency": "emergency_ward_entrance", "healthcare": "hospital", "name": "Pronto Soccorso Ospedale \"Carlo Poma\""}}, {"name": "", "latitude": 45.2239184, "longitude": 10.4110937, "source": "osm", "_tags": {"addr:city": "Asola", "emergency": "emergency_ward_entrance", "healthcare": "hospital"}}, {"name": "Casa Della Salute", "latitude": 44.7171045, "longitude": 10.2299897, "source": "osm", "_tags": {"addr:housenumber": "1", "addr:street": "Via del Mulino", "amenity": "hospital", "healthcare": "hospital", "name": "Casa Della Salute"}}, {"name": "Ausl", "latitude": 44.8147654, "longitude": 10.3196309, "source": "osm", "_tags": {"amenity": "hospital", "healthcare": "hospital", "name": "Ausl"}}, {"name": "Casa della Salute Pintor-Molinetto", "latitude": 44.7961147, "longitude": 10.319852, "source": "osm", "_tags": {"amenity": "hospital", "healthcare": "hospital", "name": "Casa della Salute Pintor-Molinetto", "wikidata": "Q30268827"}}, {"name": "Casa della Salute", "latitude": 44.6314876, "longitude": 10.3806481, "source": "osm", "_tags": {"amenity": "hospital", "healthcare": "hospital", "name": "Casa della Salute"}}, {"name": "Pronto Soccorso Presidio Ospedaliero Di Montichiari", "latitude": 45.4101344, "longitude": 10.4095528, "source": "osm", "_tags": {"emergency": "emergency_ward_entrance", "healthcare": "hospital", "name": "Pronto Soccorso Presidio Ospedaliero Di Montichiari"}}, {"name": "Pronto Soccorso Presidio Ospedaliero Cremonese", "latitude": 45.129446, "longitude": 10.0538313, "source": "osm", "_tags": {"addr:city": "Cremona", "emergency": "emergency_ward_entrance", "healthcare": "hospital", "name": "Pronto Soccorso Presidio Ospedaliero Cremonese"}}, {"name": "Pronto Soccorso Presidio Ospedaliero Oglio Po", "latitude": 44.9747857, "longitude": 10.4675606, "source": "osm", "_tags": {"addr:city": "Oglio Po", "addr:street": "Ingresso Pronto Soccorso", "emergency": "emergency_ward_entrance", "healthcare": "hospital", "name": "Pronto Soccorso Presidio Ospedaliero Oglio Po"}}, {"name": "Pronto Soccorso Osp. San Pellegrino", "latitude": 45.3894636, "longitude": 10.4933917, "source": "osm", "_tags": {"addr:city": "Castiglione delle Stiviere", "addr:housenumber": "81", "addr:postcode": "46043", "addr:street": "Via Giuseppe Garibaldi", "emergency": "emergency_ward_entrance", "healthcare": "hospital", "name": "Pronto Soccorso Osp. San Pellegrino"}}, {"name": "Pronto Soccorso", "latitude": 44.5985712, "longitude": 10.6918615, "source": "osm", "_tags": {"check_date": "2024-05-07", "emergency": "emergency_ward_entrance", "healthcare": "hospital", "name": "Pronto Soccorso"}}, {"name": "Gemini", "latitude": 44.8088876, "longitude": 10.3172454, "source": "osm", "_tags": {"amenity": "hospital", "healthcare": "hospital", "name": "Gemini"}}, {"name": "Pronto Soccorso", "latitude": 44.7999031, "longitude": 10.3062881, "source": "osm", "_tags": {"amenity": "hospital", "emergency": "yes", "healthcare": "hospital", "name": "Pronto Soccorso", "wheelchair": "yes"}}, {"name": "Pronto Soccorso Pediatrico", "latitude": 44.8046477, "longitude": 10.3079276, "source": "osm", "_tags": {"amenity": "hospital", "emergency": "yes", "healthcare": "hospital", "name": "Pronto Soccorso Pediatrico"}}, {"name": "Pronto Soccorso Ginecologico", "latitude": 44.8051976, "longitude": 10.3086357, "source": "osm", "_tags": {"amenity": "hospital", "emergency": "yes", "healthcare": "hospital", "healthcare:speciality": "gynaecology", "name": "Pronto Soccorso Ginecologico"}}, {"name": "Guardia Medica", "latitude": 44.8020114, "longitude": 10.3080872, "source": "osm", "_tags": {"addr:city": "Parma", "addr:housenumber": "10", "addr:street": "Viale Giovanni Rasori", "amenity": "hospital", "emergency": "no", "healthcare": "hospital", "healthcare:speciality": "general", "name": "Guardia Medica", "operator": "AUSL", "operator:type": "public", "phone": "+39 0521 292555", "wheelchair": "yes"}}, {"name": "Valparma Hospital", "latitude": 44.6171472, "longitude": 10.2685075, "source": "osm", "_tags": {"amenity": "hospital", "healthcare": "hospital", "name": "Valparma Hospital"}}, {"name": "Pronto Soccorso Ospedale S. Anna", "latitude": 44.4339528, "longitude": 10.4082633, "source": "osm", "_tags": {"addr:city": "Castelnovo ne' Monti", "addr:housenumber": "2", "addr:postcode": "42035", "addr:street": "Via Roma", "amenity": "hospital", "healthcare": "hospital", "healthcare:speciality": "emergency", "name": "Pronto Soccorso Ospedale S. Anna"}}, {"name": "Guardia Medica", "latitude": 44.8803867, "longitude": 10.178866, "source": "osm", "_tags": {"amenity": "hospital", "healthcare": "hospital", "name": "Guardia Medica"}}, {"name": "Casa della Salute Langhirano", "latitude": 44.6155478, "longitude": 10.2707741, "source": "osm", "_tags": {"amenity": "hospital", "healthcare": "hospital", "name": "Casa della Salute Langhirano", "operator": "AUSL"}}, {"name": "Guardia Medica", "latitude": 44.8471381, "longitude": 10.4447642, "source": "osm", "_tags": {"amenity": "hospital", "healthcare": "hospital", "name": "Guardia Medica"}}, {"name": "Guardia Medica", "latitude": 44.935993, "longitude": 10.3750791, "source": "osm", "_tags": {"amenity": "hospital", "healthcare": "hospital", "name": "Guardia Medica"}}, {"name": "Guardia Medica", "latitude": 44.9179935, "longitude": 10.2265204, "source": "osm", "_tags": {"amenity": "hospital", "healthcare": "hospital", "name": "Guardia Medica"}}, {"name": "Guardia Medica", "latitude": 44.9817159, "longitude": 10.0440963, "source": "osm", "_tags": {"amenity": "hospital", "healthcare": "hospital", "name": "Guardia Medica"}}, {"name": "Guardia Medica", "latitude": 44.8181759, "longitude": 9.9832719, "source": "osm", "_tags": {"amenity": "hospital", "healthcare": "hospital", "name": "Guardia Medica"}}, {"name": "Guardia Medica", "latitude": 44.8074185, "longitude": 10.1826719, "source": "osm", "_tags": {"amenity": "hospital", "healthcare": "hospital", "name": "Guardia Medica"}}, {"name": "Guardia Medica", "latitude": 44.7590337, "longitude": 10.137157, "source": "osm", "_tags": {"amenity": "hospital", "healthcare": "hospital", "name": "Guardia Medica"}}, {"name": "Guardia Medica", "latitude": 44.5095023, "longitude": 9.9920386, "source": "osm", "_tags": {"amenity": "hospital", "healthcare": "hospital", "name": "Guardia Medica"}}, {"name": "Guardia Medica", "latitude": 44.4936547, "longitude": 10.2414653, "source": "osm", "_tags": {"amenity": "hospital", "healthcare": "hospital", "name": "Guardia Medica"}}, {"name": "Guardia Medica", "latitude": 44.6404393, "longitude": 10.3841096, "source": "osm", "_tags": {"amenity": "hospital", "healthcare": "hospital", "name": "Guardia Medica"}}, {"name": "Guardia Medica", "latitude": 44.6238189, "longitude": 10.2703183, "source": "osm", "_tags": {"amenity": "hospital", "healthcare": "hospital", "name": "Guardia Medica"}}, {"name": "Medicina riabilitativa dell’infanzia e dell’età evolutiva", "latitude": 44.8078753, "longitude": 10.3344413, "source": "osm", "_tags": {"amenity": "hospital", "healthcare": "hospital", "name": "Medicina riabilitativa dell’infanzia e dell’età evolutiva", "operator": "ASL", "operator:wikidata": "Q3631467"}}, {"name": "Pediatria di Comunità", "latitude": 44.8077075, "longitude": 10.3350556, "source": "osm", "_tags": {"amenity": "hospital", "healthcare": "hospital", "name": "Pediatria di Comunità", "operator": "ASL", "operator:wikidata": "Q3631467"}}, {"name": "CSM - Centro Salute Mentale", "latitude": 44.8068795, "longitude": 10.3347301, "source": "osm", "_tags": {"amenity": "hospital", "healthcare": "hospital", "name": "CSM - Centro Salute Mentale"}}, {"name": "Centro Senologico", "latitude": 44.8013364, "longitude": 10.3076993, "source": "osm", "_tags": {"amenity": "hospital", "healthcare": "hospital", "healthcare:speciality": "diagnostic_radiology", "name": "Centro Senologico"}}, {"name": "Avis", "latitude": 45.3009193, "longitude": 10.4729057, "source": "osm", "_tags": {"amenity": "hospital", "healthcare": "hospital", "name": "Avis"}}, {"name": "Casa della Salute L.Spreafico", "latitude": 44.7072148, "longitude": 10.4487838, "source": "osm", "_tags": {"addr:street": "Via Giuseppe Saragat", "amenity": "hospital", "healthcare": "hospital", "name": "Casa della Salute L.Spreafico"}}, {"name": "Casa della Salute Parma Centro", "latitude": 44.8068168, "longitude": 10.3347244, "source": "osm", "_tags": {"amenity": "hospital", "emergency": "yes", "healthcare": "hospital", "name": "Casa della Salute Parma Centro", "operator": "AUSL"}}, {"name": "Arcispedale Santa Maria Nuova", "latitude": 44.6841551, "longitude": 10.6307727, "source": "osm", "_tags": {"addr:city": "Reggio Emilia", "addr:housenumber": "80", "addr:postcode": "42123", "addr:street": "Viale Risorgimento", "amenity": "hospital", "emergency": "yes", "healthcare": "hospital", "healthcare:speciality": "gynaecology;paediatrics;dermatology;orthopaedics;internal;psychiatry;otolaryngology;radiology;physiotherapy;plastic_surgery;urology;cardiology;surgery;podiatry;neurology;emergency;abortion;anaesthetics;angiology;blood_check;infectious_;intensive;oncology", "internet_access": "yes", "name": "Arcispedale Santa Maria Nuova", "opening_hours": "Mo-Su 07:00-20:00", "operator": "AUSL Reggio Emilia", "operator:type": "public", "phone": "0522 296111", "website": "https://www.ausl.re.it/arcispedale-s-maria-nuova-reggio-emilia", "wheelchair": "yes"}}, {"name": "Hesperia Hospital", "latitude": 44.6259252, "longitude": 10.9240564, "source": "osm", "_tags": {"addr:city": "Modena", "addr:housenumber": "80", "addr:postcode": "41125", "addr:street": "Via Arquà", "amenity": "hospital", "description": "Ospedale polispecialistico accreditato con il Servizio Sanitario Nazionale per le attività di ricovero e ambulatoriali.", "email": "centralinovisite@hesperia.it", "healthcare": "hospital", "healthcare:speciality": "general;gynaecology;cardiology;urology;ocu;acupuncture;allergology;anaesthetics;cardiothoracic_surgery;vascular_surgery;dermatology;haematology;endocrinology;physiatry;occupational;orthopaedics;otolaryngology;paediatrics;pulmonology;radiology", "layer": "1", "name": "Hesperia Hospital", "phone": "+39059449111", "ref:vatin": "03831150366", "website": "https://www.hesperia.it", "wheelchair": "yes", "wikidata": "Q30279869"}}, {"name": "Istituti Ospedalieri Carlo Poma", "latitude": 45.1455753, "longitude": 10.7726659, "source": "osm", "_tags": {"amenity": "hospital", "emergency": "yes", "healthcare": "hospital", "name": "Istituti Ospedalieri Carlo Poma"}}, {"name": "Ospedale San Pellegrino di Castiglione", "latitude": 45.3895909, "longitude": 10.4935755, "source": "osm", "_tags": {"amenity": "hospital", "building": "hospital", "name": "Ospedale San Pellegrino di Castiglione"}}, {"name": "Fondazione Elisabetta Germani", "latitude": 45.0841156, "longitude": 10.2610182, "source": "osm", "_tags": {"amenity": "hospital", "healthcare": "hospital", "name": "Fondazione Elisabetta Germani"}}, {"name": "Arcispedale Santa Maria Nuova", "latitude": 44.6835423, "longitude": 10.628633, "source": "osm", "_tags": {"addr:city": "Reggio Emilia", "addr:housenumber": "80", "addr:postcode": "42123", "addr:street": "Viale Risorgimento", "amenity": "hospital", "emergency": "yes", "healthcare": "hospital", "name": "Arcispedale Santa Maria Nuova", "operator": "ASMN"}}, {"name": "Ospedale Cesare Magati", "latitude": 44.599111, "longitude": 10.6918098, "source": "osm", "_tags": {"amenity": "hospital", "emergency": "yes", "healthcare": "hospital", "name": "Ospedale Cesare Magati", "wheelchair": "yes"}}, {"name": "Ospedale San Sebastiano", "latitude": 44.7755901, "longitude": 10.7827125, "source": "osm", "_tags": {"amenity": "hospital", "check_date": "2024-03-26", "emergency": "yes", "healthcare": "hospital", "name": "Ospedale San Sebastiano", "name:etymology:wikidata": "Q183332"}}, {"name": "Piccole Figlie Hospital", "latitude": 44.7885737, "longitude": 10.3196694, "source": "osm", "_tags": {"amenity": "hospital", "barrier": "wall", "healthcare": "hospital", "name": "Piccole Figlie Hospital"}}, {"name": "Ospedale Maria Luigia", "latitude": 44.7326973, "longitude": 10.4027204, "source": "osm", "_tags": {"amenity": "hospital", "barrier": "fence", "healthcare": "hospital", "healthcare:speciality": "psychiatry", "name": "Ospedale Maria Luigia", "operator": "Maria Luigia S.p.A.", "operator:type": "private"}}, {"name": "Ospedale \"Marcello Magalini\"", "latitude": 45.3482331, "longitude": 10.8387916, "source": "osm", "_tags": {"addr:city": "Villafranca di Verona", "addr:housename": "Marcello Magalini", "addr:housenumber": "5", "addr:postcode": "37069", "addr:street": "Via Ospedale Marcello Magalini", "amenity": "hospital", "emergency": "yes", "name": "Ospedale \"Marcello Magalini\"", "phone": "+39 045 6338111"}}, {"name": "Casa di cura Villa Fiorita", "latitude": 44.5377153, "longitude": 10.793144, "source": "osm", "_tags": {"amenity": "hospital", "building": "yes", "name": "Casa di cura Villa Fiorita", "source": "Regione Emilia Romagna"}}, {"name": "Ospedale Estense", "latitude": 44.6473062, "longitude": 10.9207252, "source": "osm", "_tags": {"amenity": "hospital", "healthcare": "hospital", "name": "Ospedale Estense"}}, {"name": "Ospedale di Sant’Anna", "latitude": 44.4344151, "longitude": 10.4085431, "source": "osm", "_tags": {"addr:city": "Castelnovo ne' Monti", "addr:housenumber": "2", "addr:postcode": "42035", "addr:street": "Via Roma", "amenity": "hospital", "building": "hospital", "emergency": "yes", "healthcare": "hospital", "healthcare:speciality": "Pronto_Soccorso_PS_C._Monti", "internet_access": "yes", "layer": "1", "name": "Ospedale di Sant’Anna", "source": "Regione Emilia Romagna", "wheelchair": "yes"}}, {"name": "C.N.S.A.S. Serv.Reg.Emilia Romagna", "latitude": 44.4523422, "longitude": 10.4673206, "source": "osm", "_tags": {"amenity": "hospital", "name": "C.N.S.A.S. Serv.Reg.Emilia Romagna", "source": "Regione Emilia Romagna"}}, {"name": "Sistema Polimodulare di REMS Provvisorie", "latitude": 45.4062928, "longitude": 10.5016746, "source": "osm", "_tags": {"amenity": "hospital", "healthcare": "hospital", "name": "Sistema Polimodulare di REMS Provvisorie", "old_name": "Ospedale Psichiatrico Giudiziario", "wikipedia": "it:Ospedale Psichiatrico Giudiziario"}}, {"name": "Ospedale di Leno", "latitude": 45.3644281, "longitude": 10.2168149, "source": "osm", "_tags": {"addr:city": "Leno", "addr:housenumber": "1", "addr:postcode": "25024", "addr:street": "Piazzetta Donatori di sangue", "amenity": "hospital", "contact:email": "http://www.asst-garda.it/pec/", "contact:facebook": "https://www.facebook.com/ASST-Garda-259785917821537/", "contact:phone": "+39 030 90541", "contact:twitter": "https://twitter.com/AsstGarda", "contact:website": "https://www.asst-garda.it/ospedali/leno/", "name": "Ospedale di Leno"}}, {"name": "Ospedale Ramazzini", "latitude": 44.7869711, "longitude": 10.8770956, "source": "osm", "_tags": {"amenity": "hospital", "healthcare": "hospital", "name": "Ospedale Ramazzini", "source": "http://dati.emilia-romagna.it/dato/item/11-11-uso-del-suolo-2008.html"}}, {"name": "Clinica San Clemente", "latitude": 45.1469656, "longitude": 10.7707247, "source": "osm", "_tags": {"amenity": "hospital", "healthcare": "hospital", "name": "Clinica San Clemente"}}, {"name": "Centro polifunzionale di Valeggio sul Mincio - ULS22", "latitude": 45.3574077, "longitude": 10.7418015, "source": "osm", "_tags": {"addr:city": "Valeggio sul Mincio", "addr:country": "IT", "addr:street": "Via Santa Maria Crocefissa", "amenity": "hospital", "building": "hospital", "check_date": "2024-08-23", "emergency": "no", "healthcare": "hospital", "name": "Centro polifunzionale di Valeggio sul Mincio - ULS22"}}, {"name": "Ospedale Civile di Volta Mantovana s.r.l.", "latitude": 45.3239525, "longitude": 10.6557302, "source": "osm", "_tags": {"amenity": "hospital", "building": "yes", "emergency": "no", "healthcare": "hospital", "name": "Ospedale Civile di Volta Mantovana s.r.l.", "website": "http://www.aslmn.it/special_prestazioni_det.asp?IDLivello1=11&IDLivello2=3&ricerca=1&IDPresidi=2"}}, {"name": "Poli ambulatorio", "latitude": 45.0404305, "longitude": 10.9281822, "source": "osm", "_tags": {"amenity": "hospital", "healthcare": "hospital", "name": "Poli ambulatorio"}}, {"name": "Neuropsichiatria infantile territoriale", "latitude": 45.1540562, "longitude": 10.7809181, "source": "osm", "_tags": {"amenity": "hospital", "name": "Neuropsichiatria infantile territoriale", "wheelchair": "yes"}}, {"name": "R.S.A. Isabella d'Este - R.S.A. Luigi Bianchi", "latitude": 45.1529903, "longitude": 10.7750552, "source": "osm", "_tags": {"amenity": "hospital", "healthcare": "hospital", "name": "R.S.A. Isabella d'Este - R.S.A. Luigi Bianchi"}}, {"name": "Avis comunale di Casalmaggiore - Associazione volontari italiani sangue", "latitude": 44.9941457, "longitude": 10.4123322, "source": "osm", "_tags": {"addr:city": "Casalmaggiore", "addr:postcode": "26041", "addr:street": "Via Guerrazzi", "amenity": "hospital", "check_date": "2025-07-27", "healthcare": "hospital", "name": "Avis comunale di Casalmaggiore - Associazione volontari italiani sangue", "operator": "AVIS"}}, {"name": "", "latitude": 44.990738, "longitude": 10.4162028, "source": "osm", "_tags": {"amenity": "hospital", "building": "hospital", "healthcare": "hospital"}}, {"name": "Casa di cura policlinica Villa Verde", "latitude": 44.6800604, "longitude": 10.6201882, "source": "osm", "_tags": {"amenity": "hospital", "healthcare": "hospital", "name": "Casa di cura policlinica Villa Verde"}}, {"name": "Ospedale Ercole Franchini", "latitude": 44.7067124, "longitude": 10.4496866, "source": "osm", "_tags": {"amenity": "hospital", "healthcare": "hospital", "name": "Ospedale Ercole Franchini", "wheelchair": "yes"}}, {"name": "Policlinico di Modena", "latitude": 44.6354633, "longitude": 10.9426728, "source": "osm", "_tags": {"addr:city": "Modena", "addr:housenumber": "71", "addr:postcode": "41124", "addr:street": "Via Del Pozzo", "amenity": "hospital", "emergency": "yes", "healthcare": "hospital", "name": "Policlinico di Modena", "phone": "+39 059 422.2111", "website": "https://www.aou.mo.it/"}}, {"name": "Poliambulatori - Asst Mantova", "latitude": 45.1640491, "longitude": 10.7901477, "source": "osm", "_tags": {"amenity": "hospital", "name": "Poliambulatori - Asst Mantova"}}, {"name": "Ospedale Sant’Agostino–Estense", "latitude": 44.6050094, "longitude": 10.8710487, "source": "osm", "_tags": {"addr:city": "Modena", "addr:country": "IT", "addr:housenumber": "1355", "addr:postcode": "41126", "addr:street": "Via Pietro Giardini", "addr:suburb": "San Faustino-Madonnina-Quattro Ville", "amenity": "hospital", "healthcare": "hospital", "name": "Ospedale Sant’Agostino–Estense"}}, {"name": "Casa della Comunità Lubiana-San Lazzaro", "latitude": 44.7849867, "longitude": 10.3578435, "source": "osm", "_tags": {"amenity": "hospital", "healthcare": "hospital", "name": "Casa della Comunità Lubiana-San Lazzaro", "operator": "ASL", "operator:type": "public"}}, {"name": "Co.Me.Te. Cooperativa Medici del Territorio - Societa' Cooperativa a R. L.", "latitude": 44.9889871, "longitude": 10.4242419, "source": "osm", "_tags": {"addr:city": "Casalmaggiore", "addr:postcode": "26041", "addr:street": "Via Don Paolo Antonini", "amenity": "hospital", "healthcare": "hospital", "name": "Co.Me.Te. Cooperativa Medici del Territorio - Societa' Cooperativa a R. L."}}, {"name": "Casa di cura San Camillo", "latitude": 45.1372214, "longitude": 10.0396099, "source": "osm", "_tags": {"amenity": "hospital", "check_date": "2025-02-25", "healthcare": "hospital", "name": "Casa di cura San Camillo"}}, {"name": "Istituto Ospedaliero di Sospiro", "latitude": 45.1066823, "longitude": 10.1611049, "source": "osm", "_tags": {"amenity": "hospital", "healthcare": "hospital", "name": "Istituto Ospedaliero di Sospiro"}}, {"name": "Istituto Ospedaliero di Sospiro", "latitude": 45.1071138, "longitude": 10.158464, "source": "osm", "_tags": {"amenity": "hospital", "healthcare": "hospital", "name": "Istituto Ospedaliero di Sospiro"}}, {"name": "", "latitude": 44.9828494, "longitude": 10.421835, "source": "osm", "_tags": {"amenity": "hospital", "building": "yes", "healthcare": "hospital"}}, {"name": "Residenza sanitaria riabilitativa - ex ospedale Papa Giovanni XXIII", "latitude": 44.6320723, "longitude": 10.6123073, "source": "osm", "_tags": {"amenity": "hospital", "building": "no", "healthcare": "hospital", "name": "Residenza sanitaria riabilitativa - ex ospedale Papa Giovanni XXIII", "wheelchair": "yes"}}, {"name": "Casa Della Salute di Colorno-Torrile", "latitude": 44.9338163, "longitude": 10.3753218, "source": "osm", "_tags": {"amenity": "hospital", "healthcare": "hospital", "name": "Casa Della Salute di Colorno-Torrile"}}, {"name": "Ospedale Figlie di San Camillo", "latitude": 45.1454898, "longitude": 10.0117448, "source": "osm", "_tags": {"amenity": "hospital", "healthcare": "hospital", "name": "Ospedale Figlie di San Camillo"}}, {"name": "Nuovo Ospedale Civile", "latitude": 44.5313668, "longitude": 10.7935364, "source": "osm", "_tags": {"amenity": "hospital", "name": "Nuovo Ospedale Civile"}}, {"name": "", "latitude": 45.0227286, "longitude": 10.0054621, "source": "osm", "_tags": {"amenity": "hospital", "healthcare": "hospital"}}, {"name": "Villa Al Lago", "latitude": 45.1564872, "longitude": 10.7707532, "source": "osm", "_tags": {"amenity": "hospital", "healthcare": "hospital", "name": "Villa Al Lago"}}, {"name": "Ospedale di Suzzara", "latitude": 44.9871019, "longitude": 10.7546543, "source": "osm", "_tags": {"addr:city": "Suzzara", "addr:housenumber": "14b", "addr:postcode": "46029", "addr:street": "Via Generale Cantore", "amenity": "hospital", "beds": "123", "email": "urp@ospedaledisuzzara.it", "emergency": "yes", "healthcare": "hospital", "name": "Ospedale di Suzzara", "operator": "Ospedale di Suzzara S.p.A.", "phone": "+39 03 76 51 74 17", "website": "https://ospedaledisuzzara.it/", "wikidata": "Q98110174"}}, {"name": "", "latitude": 45.1011812, "longitude": 10.4795155, "source": "osm", "_tags": {"amenity": "hospital", "healthcare": "hospital"}}, {"name": "Ospedale Villa Igea", "latitude": 44.6149413, "longitude": 10.8898892, "source": "osm", "_tags": {"amenity": "hospital", "healthcare": "hospital", "name": "Ospedale Villa Igea", "phone": "+39 059 447411", "website": "https://www.villaigea.it/"}}, {"name": "Ospedale di Fidenza", "latitude": 44.8482669, "longitude": 10.0413006, "source": "osm", "_tags": {"alt_name": "Ospedale di Vaio", "amenity": "hospital", "emergency": "yes", "healthcare": "hospital", "name": "Ospedale di Fidenza", "phone": "+39 0524 515111"}}, {"name": "Fondazione Monsignor Benedini", "latitude": 45.1217803, "longitude": 10.5346172, "source": "osm", "_tags": {"amenity": "hospital", "healthcare": "hospital", "name": "Fondazione Monsignor Benedini"}}, {"name": "Ospedale Civile di Guastalla", "latitude": 44.9194892, "longitude": 10.6673745, "source": "osm", "_tags": {"amenity": "hospital", "emergency": "yes", "healthcare": "hospital", "name": "Ospedale Civile di Guastalla", "website": "https://www.ausl.re.it/ospedali/ospedale-civile-di-guastalla", "wikidata": "Q56230548"}}, {"name": "", "latitude": 45.2918418, "longitude": 10.2759053, "source": "osm", "_tags": {"amenity": "hospital", "healthcare": "hospital"}}, {"name": "Casa di Cura Città di Parma", "latitude": 44.7848725, "longitude": 10.3393116, "source": "osm", "_tags": {"amenity": "hospital", "healthcare": "hospital", "name": "Casa di Cura Città di Parma"}}, {"name": "Casa della Salute per il Bambino e l'Adolescente", "latitude": 44.8078001, "longitude": 10.3345973, "source": "osm", "_tags": {"amenity": "hospital", "healthcare": "hospital", "name": "Casa della Salute per il Bambino e l'Adolescente", "operator": "ASL", "operator:wikidata": "Q3631467"}}, {"name": "", "latitude": 44.7570829, "longitude": 10.2210466, "source": "osm", "_tags": {"amenity": "hospital", "healthcare": "hospital", "wikidata": "Q30268827"}}, {"name": "", "latitude": 44.4339077, "longitude": 10.40871, "source": "osm", "_tags": {"amenity": "hospital", "healthcare": "hospital"}}, {"name": "CAU Fornovo di Taro - AUSL Parma", "latitude": 44.6930091, "longitude": 10.1032967, "source": "osm", "_tags": {"addr:city": "Fornovo di Taro", "addr:postcode": "43045", "addr:street": "Via Giuseppe Verdi", "amenity": "hospital", "healthcare": "hospital", "name": "CAU Fornovo di Taro - AUSL Parma"}}, {"name": "Guardia Medica", "latitude": 44.614581, "longitude": 9.9796364, "source": "osm", "_tags": {"amenity": "hospital", "healthcare": "hospital", "name": "Guardia Medica"}}, {"name": "", "latitude": 45.1453076, "longitude": 10.7724353, "source": "osm", "_tags": {"amenity": "hospital", "healthcare": "hospital", "type": "multipolygon"}}, {"name": "Ospedale Maggiore di Cremona", "latitude": 45.129058, "longitude": 10.0548621, "source": "osm", "_tags": {"amenity": "hospital", "emergency": "yes", "healthcare": "hospital", "name": "Ospedale Maggiore di Cremona", "type": "multipolygon", "website": "www.ospedale.cremona.it", "wikidata": "Q96755890", "wikipedia": "it:Ospedale Maggiore di Cremona"}}, {"name": "Ospedale Oglio Po", "latitude": 44.9754456, "longitude": 10.4677163, "source": "osm", "_tags": {"amenity": "hospital", "building": "hospital", "emergency": "yes", "healthcare": "hospital", "name": "Ospedale Oglio Po", "type": "multipolygon"}}, {"name": "Ospedale di Asola", "latitude": 45.2235156, "longitude": 10.4110934, "source": "osm", "_tags": {"amenity": "hospital", "healthcare": "hospital", "name": "Ospedale di Asola", "type": "multipolygon", "wikidata": "Q81200884", "wikipedia": "it:Ospedale di Asola"}}, {"name": "Ospedale di Manerbio", "latitude": 45.3572817, "longitude": 10.1461812, "source": "osm", "_tags": {"amenity": "hospital", "emergency": "yes", "healthcare": "hospital", "name": "Ospedale di Manerbio", "type": "multipolygon"}}, {"name": "Ospedale Maggiore Parma", "latitude": 44.8015301, "longitude": 10.3086602, "source": "osm", "_tags": {"amenity": "hospital", "healthcare": "hospital", "name": "Ospedale Maggiore Parma", "type": "multipolygon", "wikidata": "Q3886664"}}, {"name": "Salus Hospital", "latitude": 44.6964798, "longitude": 10.6223489, "source": "osm", "_tags": {"addr:city": "Reggio Emilia", "addr:housenumber": "7", "addr:postcode": "42123", "addr:street": "Via Ulderico Levi", "amenity": "hospital", "healthcare": "hospital", "name": "Salus Hospital", "phone": "+39 0522 499111", "type": "multipolygon", "website": "https://www.gvmnet.it/strutture/salus-hospital-reggio-emilia/home"}}]