[{"name": "Hôpital local Résidence du Vallon", "latitude": 44.4515024, "longitude": 2.4744077, "source": "osm", "_tags": {"amenity": "hospital", "emergency": "no", "healthcare": "hospital", "name": "Hôpital local Résidence du Vallon", "ref:FR:FINESS": "120000237", "type:FR:FINESS": "106", "wikidata": "Q92062613"}}, {"name": "Clinique Font Redonde", "latitude": 44.6061096, "longitude": 2.0370607, "source": "osm", "_tags": {"amenity": "hospital", "fax": "+33 5 65 34 77 90", "healthcare": "hospital", "name": "Clinique Font Redonde", "operator:type": "private", "phone": "+33 5 65 50 75 75", "ref:FR:FINESS": "460006075", "ref:FR:SIRET": "53940643900015", "type:FR:FINESS": "365", "website": "http://www.clinique-font-redonde.com/"}}, {"name": "Centre hospitalier Henri Mondor", "latitude": 44.9264994, "longitude": 2.4361419, "source": "osm", "_tags": {"amenity": "hospital", "emergency": "yes", "fax": "+33 4 71 46 46 35", "healthcare": "hospital", "healthcare:speciality": "maternity;general;psychiatry;dentistry;ophthalmology;surgery;emergency;dermatology;paediatrics;cardiology;biology;radiology;geriatrics;intensive", "name": "Centre hospitalier Henri Mondor", "operator:type": "public", "phone": "+33 4 71 46 56 56", "ref:FR:FINESS": "150000040", "source": "cadastre-dgi-fr source : Direction Générale des Impôts - Cadastre;mise à jour : 2008", "type:FR:FINESS": "355", "website": "https://www.ch-aurillac.fr/", "wheelchair": "yes"}}, {"name": "Hôpital Psychiatrique", "latitude": 44.9258011, "longitude": 2.4118568, "source": "osm", "_tags": {"amenity": "hospital", "healthcare": "hospital", "healthcare:speciality": "psychiatry", "name": "Hôpital Psychiatrique", "ref:FR:FINESS": "150780823", "source": "cadastre-dgi-fr source : Direction Générale des Impôts - Cadastre;mise à jour : 2006", "type:FR:FINESS": "355"}}, {"name": "Centre hospitalier de Decazeville - Centre Hospitalier Pierre Delpech", "latitude": 44.5689822, "longitude": 2.2522595, "source": "osm", "_tags": {"addr:city": "Decazeville", "addr:housenumber": "60", "addr:postcode": "12300", "addr:street": "Rue Prosper Alfaric", "alt_name": "Hôpital Pierre Delpech", "amenity": "hospital", "building": "hospital", "emergency": "yes", "fax": "+33 5 65 43 71 53", "healthcare": "hospital", "healthcare:speciality": "vaccination;emergency;general", "name": "Centre hospitalier de Decazeville - Centre Hospitalier Pierre Delpech", "operator": "Centre Hospitalier de Rodez", "operator:type": "public", "phone": "+33 5 65 43 71 71", "ref:FR:FINESS": "120000070", "source": "cadastre-dgi-fr source : Direction Générale des Impôts - Cadastre. Mise à jour : 2010", "type:FR:FINESS": "355", "website": "https://www.ch-decazeville.fr/"}}, {"name": "Centre hospitalier de Mauriac", "latitude": 45.2176864, "longitude": 2.3400875, "source": "osm", "_tags": {"amenity": "hospital", "emergency": "yes", "fax": "+33 4 70 67 35 63", "healthcare": "hospital", "name": "Centre hospitalier de Mauriac", "operator:type": "public", "phone": "+33 4 71 67 33 33", "ref:FR:FINESS": "150000164", "source": "cadastre-dgi-fr source : Direction Générale des Impôts - Cadastre. Mise à jour : 2011", "type:FR:FINESS": "355", "website": "https://www.ch-mauriac.fr/"}}, {"name": "Hôpital Jean Solinhac", "latitude": 44.5275539, "longitude": 2.7608786, "source": "osm", "_tags": {"addr:street": "Rue Sœur Marie Caton", "alt_name": "Hôpital Intercommunal Espalion-Saint Laurent d'Olt", "amenity": "hospital", "contact:email": "secretariat@ch-espalion.fr", "contact:fax": "+33 5 65 48 30 85", "contact:phone": "+33 5 65 48 30 30", "contact:website": "http://ch-espalion.fr/", "name": "Hôpital Jean Solinhac", "ref:FR:FINESS": "120000096", "source": "Le ministère des solidarités et de la santé - 03/2019", "wikidata": "Q92062881"}}, {"name": "Centre hospitalier de Murat", "latitude": 45.1107175, "longitude": 2.8729342, "source": "osm", "_tags": {"amenity": "hospital", "healthcare": "hospital", "name": "Centre hospitalier de Murat", "ref:FR:FINESS": "150000180", "source": "cadastre-dgi-fr source : Direction Générale des Impôts - Cadastre. Mise à jour : 2014", "type:FR:FINESS": "355"}}, {"name": "Centre hospitalier de Condat-en-Feniers", "latitude": 45.3411266, "longitude": 2.752816, "source": "osm", "_tags": {"addr:city": "Condat", "addr:postcode": "15190", "addr:street": "Route de Bort", "amenity": "hospital", "name": "Centre hospitalier de Condat-en-Feniers", "ref:FR:FINESS": "150000024", "source": "Le ministère des solidarités et de la santé - 08/2018"}}, {"name": "Centre médico-chirurgical", "latitude": 44.9089673, "longitude": 2.426574, "source": "osm", "_tags": {"amenity": "hospital", "healthcare": "hospital", "name": "Centre médico-chirurgical", "ref:FR:FINESS": "150780732", "source": "cadastre-dgi-fr source : Direction Générale des Impôts - Cadastre. Mise à jour : 2018", "type:FR:FINESS": "365"}}, {"name": "Centre hospitalier de Figeac", "latitude": 44.6098351, "longitude": 2.0291698, "source": "osm", "_tags": {"amenity": "hospital", "email": "direction@ch-figeac.fr", "emergency": "yes", "fax": "+33 5 65 34 79 77", "healthcare": "hospital", "name": "Centre hospitalier de Figeac", "operator:type": "public", "phone": "+33 5 65 50 65 50", "ref:FR:FINESS": "460000045", "type:FR:FINESS": "355", "website": "https://www.ch-figeac.fr/"}}, {"name": "Hôpital de Bort-les-Orgues", "latitude": 45.3927298, "longitude": 2.4974973, "source": "osm", "_tags": {"amenity": "hospital", "healthcare": "hospital", "name": "Hôpital de Bort-les-Orgues", "ref:FR:FINESS": "190000034", "type:FR:FINESS": "106", "wikidata": "Q112991477"}}]