[{"name": "Clinique Jean Villar", "latitude": 44.8889561, "longitude": -0.616115, "source": "osm", "_tags": {"amenity": "hospital", "healthcare": "hospital", "healthcare:speciality": "intensive", "name": "Clinique Jean Villar", "phone": "+33 8 26 30 81 81", "ref:FR:FINESS": "330782582", "type:FR:FINESS": "365", "wheelchair": "yes"}}, {"name": "Hôpital Saint-Antoine", "latitude": 44.4333001, "longitude": -0.208113, "source": "osm", "_tags": {"amenity": "hospital", "healthcare": "hospital", "name": "Hôpital Saint-Antoine", "ref:FR:FINESS": "330804501", "source": "Le ministère des solidarités et de la santé - 08/2018"}}, {"name": "Hôpital de jour Le Magniola", "latitude": 44.9976082, "longitude": -0.4460299, "source": "osm", "_tags": {"amenity": "hospital", "fax": "+33 5 57 55 34 20", "name": "Hôpital de jour Le Magniola", "phone": "+33 5 57 43 08 24", "ref:FR:FINESS": "330008103", "type:FR:FINESS": "355"}}, {"name": "Polyclinique Bordeaux Rive-Droite", "latitude": 44.8645858, "longitude": -0.521939, "source": "osm", "_tags": {"addr:city": "Lormont", "addr:housenumber": "24", "addr:postcode": "33310", "addr:street": "Rue des Cavailles", "amenity": "hospital", "emergency": "yes", "fax": "+33 5 56 94 47 53", "healthcare": "hospital", "name": "Polyclinique Bordeaux Rive-Droite", "old_name": "Clinique des Quatre Pavillons", "operator": "Groupe Bordeaux Nord Aquitaine", "operator:type": "private", "phone": "+33 8 26 30 04 84", "ref:FR:FINESS": "330780263", "ref:FR:NAF": "86.10Z", "ref:FR:SIREN": "458201910", "ref:FR:SIRET": "45820191000023", "short_name": "PBRD", "source": "INSEE - 2025-01", "toilets:wheelchair": "yes", "website": "http://pbrd.gbna-polycliniques.com/", "wheelchair": "yes"}}, {"name": "Maison de santé protestante de Bagatelle", "latitude": 44.8080655, "longitude": -0.5759564, "source": "osm", "_tags": {"addr:housenumber": "201", "addr:street": "Rue Robespierre", "amenity": "hospital", "healthcare": "yes", "name": "Maison de santé protestante de Bagatelle", "ref:FR:FINESS": "330781394", "ref:FR:NAF": "86.10Z", "ref:FR:SIREN": "782021307", "ref:FR:SIRET": "78202130700015", "source": "Le ministère des solidarités et de la santé - 10/2018", "website": "https://www.mspb.com/info-travaux/"}}, {"name": "Groupe hospitalier Pellegrin", "latitude": 44.8275153, "longitude": -0.6078081, "source": "osm", "_tags": {"alt_name": "Centre Hospitalier Universitaire Pellegrin", "amenity": "hospital", "contact:fax": "+33 5 56 37 24 42", "contact:phone": "+33 5 56 79 56 79", "emergency": "yes", "fax": "+33 5 56 37 24 42", "healthcare": "hospital", "healthcare:speciality": "intensive", "name": "Groupe hospitalier Pellegrin", "operator": "CHU de Bordeaux", "operator:type": "public", "phone": "+33 5 56 79 56 79", "ref:FR:FINESS": "330781360", "source": "Le ministère des solidarités et de la santé - 08/2018", "type:FR:FINESS": "101", "website": "https://www.chu-bordeaux.fr/CHU-de-Bordeaux/H%C3%B4pitaux-et-sites-du-CHU/Groupe-hospitalier-Pellegrin/", "wikidata": "Q2945756"}}, {"name": "Hôpital Charles Perrens", "latitude": 44.8245038, "longitude": -0.602547, "source": "osm", "_tags": {"amenity": "hospital", "barrier": "wall", "healthcare": "hospital", "name": "Hôpital Charles Perrens", "ref:FR:FINESS": "330000639", "source": "Le ministère des solidarités et de la santé - 03/2019"}}, {"name": "Hôpital d'Instruction des Armées Robert Picqué", "latitude": 44.7989051, "longitude": -0.5741581, "source": "osm", "_tags": {"amenity": "hospital", "contact:city": "Villenave-d'Ornon", "contact:housenumber": "351", "contact:postcode": "33140", "contact:street": "Route de Toulouse", "healthcare": "hospital", "healthcare:speciality": "intensive", "name": "Hôpital d'Instruction des Armées Robert Picqué", "ref:FR:FINESS": "330781303", "short_name": "HIA Robert Piqué", "type:FR:FINESS": "114", "wikidata": "Q91339901"}}, {"name": "Hôpital Haut-Lévêque", "latitude": 44.7859668, "longitude": -0.659502, "source": "osm", "_tags": {"amenity": "hospital", "check_date": "2025-08-19", "emergency": "yes", "healthcare": "hospital", "healthcare:speciality": "intensive", "name": "Hôpital Haut-Lévêque", "operator:type": "101", "phone": "+33 5 56 79 56 79", "ref:FR:FINESS": "330783648", "source": "Le ministère des solidarités et de la santé - 08/2018", "type:FR:FINESS": "101", "website": "https://www.chu-bordeaux.fr/CHU-de-Bordeaux/H%C3%B4pitaux-et-sites-du-CHU/Groupe-hospitalier-Sud/"}}, {"name": "Hôpital Xavier Arnozan", "latitude": 44.7974504, "longitude": -0.6572363, "source": "osm", "_tags": {"amenity": "hospital", "healthcare": "hospital", "name": "Hôpital Xavier Arnozan", "ref:FR:FINESS": "330781337", "source": "Le ministère des solidarités et de la santé - 08/2018"}}, {"name": "Hôpital de Jour Halloran", "latitude": 44.8124036, "longitude": -0.6410649, "source": "osm", "_tags": {"amenity": "hospital", "contact:city": "Pessac", "contact:housenumber": "33", "contact:postcode": "33600", "contact:street": "Avenue de Noès", "healthcare": "hospital", "name": "Hôpital de Jour Halloran", "phone": "+33 5 56 45 71 34", "ref:FR:FINESS": "330783754"}}, {"name": "Institut Bergonié", "latitude": 44.82373, "longitude": -0.5806117, "source": "osm", "_tags": {"addr:housenumber": "229", "addr:street": "Cours de l'Argonne", "amenity": "hospital", "healthcare": "hospital", "name": "Institut Bergonié", "ref:FR:FINESS": "330000662", "ref:FR:NAF": "86.10Z", "ref:FR:SIREN": "781831714", "ref:FR:SIRET": "78183171400014", "source": "INSEE - 2025-03", "wikidata": "Q3151716"}}, {"name": "Clinique Bethanie", "latitude": 44.805366, "longitude": -0.5994787, "source": "osm", "_tags": {"addr:housenumber": "144", "addr:street": "Avenue Roul", "amenity": "hospital", "fax": "+33556848101", "healthcare": "hospital", "healthcare:speciality": "psychiatry", "name": "Clinique Bethanie", "phone": "+33 5 56 84 81 00", "ref:FR:FINESS": "330780321", "ref:FR:NAF": "86.10Z", "ref:FR:SIREN": "306575366", "ref:FR:SIRET": "30657536600019", "source": "Le ministère des solidarités et de la santé - 03/2019", "type:FR:FINESS": "161"}}, {"name": "Polyclinique Bordeaux Nord Aquitaine", "latitude": 44.8636751, "longitude": -0.5791694, "source": "osm", "_tags": {"addr:street": "Rue Docteur Finlay", "amenity": "hospital", "contact:city": "Bordeaux", "contact:housenumber": "33", "contact:postcode": "33300", "contact:street": "Rue du Docteur Finlay", "emergency": "yes", "fax": "+33 5 56 43 77 36", "healthcare": "hospital", "healthcare:speciality": "intensive", "name": "Polyclinique Bordeaux Nord Aquitaine", "operator": "Groupe Bordeaux Nord Aquitaine", "operator:type": "private", "phone": "+33 5 56 43 71 11", "ref:FR:FINESS": "330780479", "ref:FR:NAF": "86.10Z", "ref:FR:SIREN": "403149685", "ref:FR:SIRET": "40314968500030", "short_name": "PBNA", "source": "INSEE - 2025-02", "toilets:wheelchair": "yes", "type:FR:FINESS": "365", "website": "https://polycliniquebordeauxnordaquitaine.fr/", "wheelchair": "yes", "wikidata": "Q50039809"}}, {"name": "Centre de Réeducation Fonctionnelle de la Tour de Gassies", "latitude": 44.8860547, "longitude": -0.6243285, "source": "osm", "_tags": {"amenity": "hospital", "healthcare": "hospital", "healthcare:speciality": "physiatry", "name": "Centre de Réeducation Fonctionnelle de la Tour de Gassies", "phone": "+33 5 56 16 33 33", "ref:FR:FINESS": "330781139", "type:FR:FINESS": "109"}}, {"name": "Clinique Tivoli", "latitude": 44.8573421, "longitude": -0.5878555, "source": "osm", "_tags": {"addr:housenumber": "91", "addr:street": "Rue de Rivière", "amenity": "hospital", "check_date": "2024-08-13", "healthcare": "hospital", "name": "Clinique Tivoli", "phone": "+33 5 56 11 60 00", "ref:FR:FINESS": "330780115", "ref:FR:NAF": "86.10Z", "ref:FR:SIREN": "460202575", "ref:FR:SIRET": "46020257500011", "source": "INSEE - 2025-03", "type:FR:FINESS": "365"}}, {"name": "Polyclinique Bordeaux-Caudéran Les Pins Francs", "latitude": 44.8596866, "longitude": -0.6245044, "source": "osm", "_tags": {"addr:housenumber": "19", "addr:postcode": "33200", "addr:street": "Rue Jude", "amenity": "hospital", "healthcare": "hospital", "name": "Polyclinique Bordeaux-Caudéran Les Pins Francs", "phone": "+33 8 26 30 16 16", "ref:FR:FINESS": "330780354", "ref:FR:NAF": "86.10Z", "ref:FR:SIREN": "331141010", "ref:FR:SIRET": "33114101000016", "source": "INSEE - 2025-03", "type:FR:FINESS": "365", "website": "http://pbca.gbna-polycliniques.com"}}, {"name": "Clinique Sainte-Anne", "latitude": 44.5495976, "longitude": -0.2383729, "source": "osm", "_tags": {"amenity": "hospital", "building": "yes", "healthcare": "hospital", "name": "Clinique Sainte-Anne", "phone": "+33 5 57 98 05 10", "ref:FR:FINESS": "330780511", "source": "cadastre-dgi-fr source : Direction Générale des Finances Publiques - Cadastre. Mise à jour : 2017", "type:FR:FINESS": "365"}}, {"name": "Hôpital Garderose", "latitude": 44.896845, "longitude": -0.2266018, "source": "osm", "_tags": {"amenity": "hospital", "name": "Hôpital Garderose", "ref:FR:FINESS": "330783721", "source": "Le ministère des solidarités et de la santé - 08/2018"}}, {"name": "Hopital Cardiologique", "latitude": 44.7854809, "longitude": -0.6606885, "source": "osm", "_tags": {"amenity": "hospital", "building": "hospital", "healthcare": "hospital", "healthcare:speciality": "cardiology", "name": "Hopital Cardiologique", "source": "cadastre-dgi-fr source : Direction Générale des Impôts - Cadastre. Mise à jour : 2011"}}, {"name": "Hôpital Saint-André", "latitude": 44.8337112, "longitude": -0.5791508, "source": "osm", "_tags": {"amenity": "hospital", "emergency": "yes", "fax": "+33 5 56 37 24 42", "healthcare": "hospital", "healthcare:speciality": "intensive", "layer": "1", "name": "Hôpital Saint-André", "operator:type": "public", "phone": "+33 5 56 79 56 79", "ref:FR:FINESS": "330781352", "ref:FR:NAF": "86.10Z", "ref:FR:SIREN": "263305823", "ref:FR:SIRET": "26330582300076", "source": "cadastre-dgi-fr source : Direction Générale des Impôts - Cadastre. Mise à jour : 2010", "type:FR:FINESS": "101", "website": "https://www.chu-bordeaux.fr/CHU-de-Bordeaux/H%C3%B4pitaux-et-sites-du-CHU/Groupe-hospitalier-Saint-Andr%C3%A9/", "wikidata": "Q16508267"}}, {"name": "Centre hospitalier spécialisé de Cadillac", "latitude": 44.6349137, "longitude": -0.3157537, "source": "osm", "_tags": {"amenity": "hospital", "healthcare": "hospital", "healthcare:speciality": "psychiatry", "name": "Centre hospitalier spécialisé de Cadillac", "ref:FR:FINESS": "330000647", "source": "cadastre-dgi-fr source : Direction Générale des Impôts - Cadastre. Mise à jour : 2011", "type:FR:FINESS": "292"}}, {"name": "Centre Sport Santé", "latitude": 44.793628, "longitude": -0.591373, "source": "osm", "_tags": {"addr:city": "Talence", "addr:housenumber": "1", "addr:postcode": "33400", "addr:street": "Rue Paul Verlaine", "amenity": "hospital", "emergency": "yes", "healthcare": "hospital", "healthcare:speciality": "service_de_soins_à_domicile", "name": "Centre Sport Santé", "source": "https://www.sportsantetalence.com"}}, {"name": "Centre hospitalier de Libourne", "latitude": 44.9184786, "longitude": -0.2289432, "source": "osm", "_tags": {"alt_name": "Hôpital Robert Boulin", "amenity": "hospital", "emergency": "yes", "fax": "+33 5 57 55 34 20", "healthcare": "hospital", "healthcare:speciality": "intensive", "name": "Centre hospitalier de Libourne", "operator:type": "public", "phone": "+33 5 57 55 34 34", "ref:FR:FINESS": "330000605", "ref:FR:NAF": "8610Z", "ref:FR:SIREN": "263305658", "ref:FR:SIRET": "26330565800019", "source": "Le ministère des solidarités et de la santé - 08/2018", "type:FR:FINESS": "355", "website": "http://www.ch-libourne.fr/"}}, {"name": "Centre hospitalier de Cadillac - Unité pour Malades Difficiles", "latitude": 44.6348629, "longitude": -0.3107706, "source": "osm", "_tags": {"amenity": "hospital", "healthcare": "hospital", "name": "Centre hospitalier de Cadillac - Unité pour Malades Difficiles", "ref:FR:FINESS": "330781295", "ref:FR:NAF": "8610Z", "type:FR:FINESS": "292", "wikidata": "Q105110698"}}, {"name": "Centre de consultation", "latitude": 44.8170347, "longitude": -0.6801088, "source": "osm", "_tags": {"addr:city": "Mérignac", "addr:housenumber": "2", "addr:postcode": "33700", "addr:street": "Rue Georges Negrevergne", "amenity": "clinic", "building": "yes", "healthcare": "hospital", "name": "Centre de consultation", "short_name": "C.C.O.S."}}, {"name": "Hôpital de jour & CMP Adultes CH Charles Perrens", "latitude": 44.6392199, "longitude": -0.9658977, "source": "osm", "_tags": {"amenity": "hospital", "building": "yes", "fax": "+33556267063", "healthcare": "hospital", "name": "Hôpital de jour & CMP Adultes CH Charles Perrens", "phone": "+33556827830", "ref:FR:FINESS": "330791963", "ref:FR:SIRET": "26330584900030", "source": "Le ministère des solidarités et de la santé - 2023-05 type:FR:FINESS = 292="}}, {"name": "Colisée Clinique Avicenne", "latitude": 44.9463705, "longitude": -0.246115, "source": "osm", "_tags": {"addr:city": "Libourne", "addr:housenumber": "7", "addr:postcode": "33500", "addr:street": "Rue de Schwandorf", "amenity": "hospital", "description": "Centre de rééducation des Dagueys", "emergency": "no", "name": "Colisée Clinique Avicenne", "operator": "Colisée Patrimoine", "phone": "+33 5 57 50 83 00", "ref:FR:FINESS": "330024928", "type:FR:FINESS": "109", "website": "https://groupecolisee.com/etablissements/clinique-avicenne/"}}, {"name": "Nouvelle Clinique Bel Air", "latitude": 44.8390317, "longitude": -0.6063369, "source": "osm", "_tags": {"addr:city": "Bordeaux", "addr:housenumber": "138", "addr:postcode": "33200", "addr:street": "Avenue de la République", "amenity": "hospital", "healthcare": "hospital", "name": "Nouvelle Clinique Bel Air", "phone": "+33 826 300 606", "ref:FR:FINESS": "330780040", "ref:FR:NAF": "86.10Z", "ref:FR:SIREN": "459200499", "ref:FR:SIRET": "45920049900018", "source": "INSEE - 2025-02", "toilets:wheelchair": "yes", "type:FR:FINESS": "365", "website": "http://ncba.gbna-polycliniques.com", "wheelchair": "yes"}}, {"name": "Centre hospitalier et E.H.P.A.D. Les Bruyères Boscamnant", "latitude": 45.1963867, "longitude": -0.0854229, "source": "osm", "_tags": {"amenity": "hospital", "emergency": "no", "fax": "+33 5 46 86 50 13", "healthcare": "hospital", "name": "Centre hospitalier et E.H.P.A.D. Les Bruyères Boscamnant", "operator:type": "public", "phone": "+33 5 46 86 50 00", "ref:FR:FINESS": "170000178", "type:FR:FINESS": "355", "website": "https://www.ch-boscamnant.fr/"}}, {"name": "Clinique de SMR Les Grands Chênes", "latitude": 44.8535983, "longitude": -0.6236398, "source": "osm", "_tags": {"addr:city": "Bordeaux", "addr:housenumber": "40-52", "addr:postcode": "33200", "addr:street": "Rue Stéhélin", "amenity": "hospital", "healthcare": "hospital", "healthcare:speciality": "physiatry", "name": "Clinique de SMR Les Grands Chênes", "opening_hours": "Mo-Su 09:00-12:00, 14:00-18:00", "operator": "Inicea (Clariane)", "operator:type": "private", "ref:FR:FINESS": "330781154", "ref:FR:SIRET": "46920244400011", "type:FR:FINESS": "109"}}, {"name": "Clinique Saint-Martin", "latitude": 44.7895783, "longitude": -0.6298122, "source": "osm", "_tags": {"amenity": "hospital", "healthcare": "hospital", "name": "Clinique Saint-Martin", "phone": "+33540130267", "ref:FR:FINESS": "330780503", "type:FR:FINESS": "365", "url": "https://www.elsan.care/fr/hopital-prive-saint-martin"}}, {"name": "Clinique mutualiste Arnaud Duben", "latitude": 44.806505, "longitude": -0.6098936, "source": "osm", "_tags": {"addr:housenumber": "46", "addr:street": "Avenue du Docteur Schweitzer", "alt_name": "Clinique mutualiste de Pessac", "amenity": "hospital", "emergency": "yes", "fax": "+33 5 56 46 56 50", "healthcare": "hospital", "name": "Clinique mutualiste Arnaud Duben", "operator": "Pavillon de la Mutualité", "operator:type": "private", "phone": "+33 5 56 46 56 46", "ref:FR:FINESS": "330780529", "ref:FR:NAF": "86.10Z", "ref:FR:SIREN": "775584972", "ref:FR:SIRET": "77558497200027", "source": "INSEE - 2025-02", "website": "https://www.clinique-pessac.fr/"}}, {"name": "Centre hospitalier de Langon", "latitude": 44.5445657, "longitude": -0.2453457, "source": "osm", "_tags": {"alt_name": "Centre hospitalier Sud-Gironde - Site de Langon", "amenity": "hospital", "emergency": "yes", "fax": "+33 5 56 63 40 28", "name": "Centre hospitalier de Langon", "operator:type": "public", "phone": "+33 5 56 76 57 57", "ref:FR:FINESS": "330000589", "source": "cadastre-dgi-fr source : Direction Générale des Finances Publiques - Cadastre. Mise à jour : 2017", "type:FR:FINESS": "355", "website": "https://www.ch-sudgironde.fr", "wheelchair": "yes"}}, {"name": "", "latitude": 44.8635831, "longitude": -0.5803757, "source": "osm", "_tags": {"building": "hospital", "description": "Chirurgie", "healthcare": "hospital", "healthcare:speciality": "surgery", "source": "cadastre-dgi-fr source : Direction Générale des Impôts - Cadastre. Mise à jour : 2019"}}, {"name": "Centre hospitalier de Blaye", "latitude": 45.1351106, "longitude": -0.6595592, "source": "osm", "_tags": {"alt_name": "Centre hospitalier de la Haute Gironde", "amenity": "hospital", "email": "contact@chblaye.fr", "emergency": "yes", "fax": "+33 5 57 42 88 09", "healthcare": "hospital", "name": "Centre hospitalier de Blaye", "old_name": "Hopital Saint-Nicolas", "phone": "+33 5 57 33 40 00", "ref:FR:FINESS": "330000571", "ref:FR:NAF": "86.10Z", "ref:FR:SIREN": "263305617", "ref:FR:SIRET": "26330561700015", "source": "Le ministère des solidarités et de la santé - 08/2018", "website": "https://www.chblaye.fr/index.php"}}, {"name": "Hôpital Suburbain du Bouscat", "latitude": 44.8678382, "longitude": -0.6188681, "source": "osm", "_tags": {"amenity": "hospital", "healthcare": "hospital", "name": "Hôpital Suburbain du Bouscat", "phone": "+33 5 56 42 49 49", "ref:FR:FINESS": "330000332", "type:FR:FINESS": "365"}}, {"name": "Polyclinique de Bordeaux Tondu", "latitude": 44.8257198, "longitude": -0.5300068, "source": "osm", "_tags": {"addr:city": "Floirac", "addr:housenumber": "46", "addr:postcode": "33270", "addr:street": "Avenue Jean Alfonsea", "amenity": "hospital", "check_date": "2025-05-06", "contact:PagesJaunes": "https://pagesjaunes.fr/pros/59052396", "contact:doctolib": "https://www.doctolib.fr/clinique-privee/floirac-cedex/nouvelle-clinique-bordeaux-tondu-ncbt", "contact:facebook": "Clinique.du.Tondu.Bordeaux", "healthcare": "hospital", "healthcare:speciality": "radiology;anaesthetics;paediatric_surgery;gynaecology;cardiology;hepatology;gastroenterology;dental_oral_maxillo_facial_surgery;oncology;ophthalmology;orthodontics;otolaryngology;plastic_surgery;physiatry;urology", "name": "Polyclinique de Bordeaux Tondu", "operator": "NOUVELLE CLINIQUE BORDEAUX TONDU (NCBT) SAS", "owner": "Groupe Saint-Gatien", "owner:website": "https://groupesaintgatien.com", "panoramax": "45a4dbc0-d64b-4b9c-93e6-3770c5f4d5fa", "phone": "+33 5 56 00 26 26", "ref:FR:FINESS": "330781402", "ref:FR:NAF": "86.10Z", "ref:FR:SIREN": "353212848", "ref:FR:SIRET": "35321284800033", "ref:vatin": "FR80353212848", "start_date": "2019-02-25", "type:FR:FINESS": "365", "website": "https://bordeauxtondu.fr"}}, {"name": "Clinique Saint-Augustin", "latitude": 44.8359863, "longitude": -0.6054351, "source": "osm", "_tags": {"addr:housenumber": "112", "addr:street": "Avenue d'Arès", "amenity": "hospital", "healthcare": "hospital", "name": "Clinique Saint-Augustin", "ref:FR:NAF": "86.10Z", "ref:FR:SIREN": "455203539", "ref:FR:SIRET": "45520353900016", "source": "INSEE - 2025-02"}}, {"name": "IRM 3T", "latitude": 44.8061042, "longitude": -0.6102905, "source": "osm", "_tags": {"amenity": "hospital", "emergency": "no", "healthcare": "hospital", "healthcare:speciality": "diagnostic_radiology", "name": "IRM 3T"}}, {"name": "Centre Jean Abadie", "latitude": 44.823926, "longitude": -0.5756845, "source": "osm", "_tags": {"addr:housenumber": "89", "addr:street": "Rue des Sablières", "building": "no", "healthcare": "hospital", "layer": "-1", "name": "Centre Jean Abadie", "ref:FR:NAF": "86.10Z", "ref:FR:SIREN": "263305823", "ref:FR:SIRET": "26330582300068", "source": "INSEE - 2025-02", "website": "https://www.chu-bordeaux.fr/CHU-de-Bordeaux/H%C3%B4pitaux-et-sites-du-CHU/Groupe-hospitalier-Saint-Andr%C3%A9/Centre-Jean-Abadie/"}}, {"name": "Clinique mutualiste du Médoc", "latitude": 45.3031583, "longitude": -0.9380409, "source": "osm", "_tags": {"amenity": "hospital", "emergency": "yes", "fax": "+33 5 56 41 69 04", "healthcare": "yes", "name": "Clinique mutualiste du Médoc", "operator:type": "private", "phone": "+33 5 56 73 10 00", "ref:FR:FINESS": "330780495", "ref:FR:SIRET": "77558497200126", "source": "cadastre-dgi-fr source : Direction Générale des Impôts - Cadastre. Mise à jour : 2019", "type:FR:FINESS": "365", "website": "https://www.pavillon-mutualite.com/27-services-et-soins/3-clinique-de-lesparre-medoc.html"}}, {"name": "Hopital de jour", "latitude": 44.8213672, "longitude": -0.5814217, "source": "osm", "_tags": {"access": "private", "addr:housenumber": "11", "addr:street": "Rue Dubourdieu", "garden:type": "private", "healthcare": "hospital", "name": "Hopital de jour", "ref:FR:NAF": "86.10Z", "ref:FR:SIREN": "320463672", "ref:FR:SIRET": "32046367200016", "source": "INSEE - 2025-02"}}, {"name": "Clinique Ophtalmologique ORL Thiers", "latitude": 44.8454363, "longitude": -0.5521292, "source": "osm", "_tags": {"addr:city": "Bordeaux", "addr:housenumber": "144", "addr:postcode": "33100", "addr:street": "Avenue Thiers", "amenity": "hospital", "building": "yes", "building:levels": "6", "contact:phone": "+335 57 77 67 33", "healthcare": "hospital", "healthcare:speciality": "ophthalmology", "name": "Clinique Ophtalmologique ORL Thiers", "ref:FR:NAF": "86.10Z", "ref:FR:SIREN": "401561782", "ref:FR:SIRET": "40156178200046", "roof:shape": "flat", "source": "INSEE - 2025-01", "website": "https://cliniquethiers.fr/"}}, {"name": "Clinique de SMR Les Hauts de Cenon", "latitude": 44.8470847, "longitude": -0.5299419, "source": "osm", "_tags": {"addr:city": "Cenon", "addr:housenumber": "2", "addr:postcode": "33150", "addr:street": "allée Saint Romain", "amenity": "hospital", "healthcare": "hospital", "healthcare:speciality": "general;cardiology", "name": "Clinique de SMR Les Hauts de Cenon", "opening_hours": "Mo-Su 09:00-12:00, 14:00-18:00", "operator": "Inicea (Clariane)", "operator:type": "private", "ref:FR:SIRET": "42085555300061"}}, {"name": "Clinique de SMR Les Flots", "latitude": 44.8062207, "longitude": -0.5746244, "source": "osm", "_tags": {"addr:city": "Talence", "addr:housenumber": "257", "addr:postcode": "33400", "addr:street": "Route de Toulouse", "amenity": "hospital", "emergency": "no", "healthcare": "hospital", "healthcare:speciality": "general;geriatrics;endocrinology", "name": "Clinique de SMR Les Flots", "opening_hours": "Mo-Su 09:30-13:00, 14:00-17:30", "operator": "Inicea (Clariane)", "operator:type": "private", "ref:FR:SIRET": "42189003900025"}}, {"name": "", "latitude": 44.8159031, "longitude": -0.5729794, "source": "osm", "_tags": {"amenity": "hospital", "healthcare": "hospital"}}, {"name": "Maison de Santé de Rauzan", "latitude": 44.7767403, "longitude": -0.121933, "source": "osm", "_tags": {"addr:housenumber": "4", "addr:street": "Rue du Collège", "amenity": "hospital", "emergency": "no", "healthcare": "hospital", "healthcare:speciality": "general;podology;kinesitherapy;psychology;ostheopathy", "name": "Maison de Santé de Rauzan", "phone": "+33 5 33 03 00 33", "ref:FR:FINESS": "330060294", "type:FR:FINESS": "603"}}, {"name": "Hôpital de jour de Caychac", "latitude": 44.9326883, "longitude": -0.6351105, "source": "osm", "_tags": {"amenity": "hospital", "healthcare": "hospital", "name": "Hôpital de jour de Caychac", "type": "multipolygon"}}]