[{"name": "Istituto per la Riabilitazione Maugeri", "latitude": 45.0320789, "longitude": 9.2852387, "source": "osm", "_tags": {"amenity": "hospital", "name": "Istituto per la Riabilitazione Maugeri", "wheelchair": "yes"}}, {"name": "centro paolo VI", "latitude": 44.9113995, "longitude": 8.986571, "source": "osm", "_tags": {"amenity": "hospital", "name": "centro paolo VI"}}, {"name": "Santa Maria", "latitude": 44.4913538, "longitude": 9.7650202, "source": "osm", "_tags": {"amenity": "hospital", "name": "Santa Maria"}}, {"name": "Casa della salute", "latitude": 44.6229718, "longitude": 9.3315838, "source": "osm", "_tags": {"addr:city": "Ottone", "addr:housenumber": "33", "addr:postcode": "29026", "addr:street": "via Roma", "amenity": "hospital", "healthcare": "hospital", "healthcare:speciality": "general", "name": "Casa della salute", "operator": "AUSL", "operator:type": "public"}}, {"name": "Ospedale civile di voghera entrata posteriore", "latitude": 44.994752, "longitude": 9.0145345, "source": "osm", "_tags": {"amenity": "hospital", "healthcare": "hospital", "name": "Ospedale civile di voghera entrata posteriore", "toilets:wheelchair": "yes", "wheelchair": "yes"}}, {"name": "Casa della Salute", "latitude": 45.0557511, "longitude": 9.6035514, "source": "osm", "_tags": {"addr:city": "San Nicolò a Trebbia", "addr:postcode": "29010", "addr:street": "Via Alicata", "amenity": "hospital", "name": "Casa della Salute"}}, {"name": "ASL", "latitude": 45.3643665, "longitude": 9.6733241, "source": "osm", "_tags": {"amenity": "hospital", "healthcare": "hospital", "name": "ASL", "operator": "ASL", "operator:wikidata": "Q3631467"}}, {"name": "Fondazione Don Carlo Gnocchi - Centro Santa Maria alle Fonti", "latitude": 44.9103484, "longitude": 9.0271528, "source": "osm", "_tags": {"amenity": "hospital", "name": "Fondazione Don Carlo Gnocchi - Centro Santa Maria alle Fonti"}}, {"name": "Croce Rossa Italiana - Stradella", "latitude": 45.0664046, "longitude": 9.3246026, "source": "osm", "_tags": {"amenity": "hospital", "emergency": "no", "name": "Croce Rossa Italiana - Stradella", "source": "Croce Rossa Italiana - Stradella"}}, {"name": "Casa di Cura Santa Maria delle Grazie", "latitude": 44.9899531, "longitude": 8.9987308, "source": "osm", "_tags": {"addr:postcode": "27058", "amenity": "hospital", "name": "Casa di Cura Santa Maria delle Grazie"}}, {"name": "Guardia Medica", "latitude": 45.2893083, "longitude": 9.8559959, "source": "osm", "_tags": {"amenity": "hospital", "healthcare": "hospital", "name": "Guardia Medica"}}, {"name": "Ospedale Civile di Varzi \"SS. Annunziata\"", "latitude": 44.8254167, "longitude": 9.1910866, "source": "osm", "_tags": {"amenity": "hospital", "healthcare": "hospital", "name": "Ospedale Civile di Varzi \"SS. Annunziata\""}}, {"name": "Pronto Soccorso", "latitude": 45.4111891, "longitude": 9.2772118, "source": "osm", "_tags": {"emergency": "emergency_ward_entrance", "emergency_ward_entrance": "walk-in", "entrance": "yes", "healthcare": "hospital", "name": "Pronto Soccorso", "wheelchair": "yes"}}, {"name": "Guardia Medica", "latitude": 44.7167453, "longitude": 9.7916888, "source": "osm", "_tags": {"amenity": "hospital", "healthcare": "hospital", "name": "Guardia Medica"}}, {"name": "", "latitude": 44.472025, "longitude": 8.9585047, "source": "osm", "_tags": {"addr:city": "Torrazza", "addr:housenumber": "8", "addr:postcode": "16010", "addr:street": "Via Leonardo da Vinci", "amenity": "hospital", "healthcare": "hospital"}}, {"name": "Marina Dr.Ssa Anna Rita Veterinaria", "latitude": 45.0575324, "longitude": 9.6914013, "source": "osm", "_tags": {"addr:city": "Piacenza", "addr:housenumber": "11", "addr:postcode": "29121", "addr:street": "Via Augusto Balsamo", "amenity": "hospital", "healthcare": "hospital", "name": "Marina Dr.Ssa Anna Rita Veterinaria"}}, {"name": "Croce Rossa Italiana", "latitude": 45.0515222, "longitude": 9.6851104, "source": "osm", "_tags": {"addr:city": "Piacenza", "addr:housenumber": "5b", "addr:street": "Viale Malta", "amenity": "hospital", "emergency": "yes", "healthcare": "hospital", "healthcare:speciality": "general", "name": "Croce Rossa Italiana"}}, {"name": "Ospedale \"Guglielmo da Saliceto\" - Neurologia - Day Service", "latitude": 45.0558309, "longitude": 9.6836322, "source": "osm", "_tags": {"addr:city": "Piacenza", "addr:housenumber": "64", "addr:postcode": "29121", "addr:street": "Via Campagna", "amenity": "hospital", "healthcare": "hospital", "name": "Ospedale \"Guglielmo da Saliceto\" - Neurologia - Day Service"}}, {"name": "Ser.T", "latitude": 45.0565017, "longitude": 9.6815304, "source": "osm", "_tags": {"addr:city": "Piacenza", "addr:housenumber": "74", "addr:postcode": "29121", "addr:street": "Via Campagna", "amenity": "hospital", "healthcare": "hospital", "name": "Ser.T"}}, {"name": "Poliambulatorio Bongi", "latitude": 45.4031154, "longitude": 9.9370244, "source": "osm", "_tags": {"amenity": "hospital", "emergency": "no", "name": "Poliambulatorio Bongi"}}, {"name": "Guardia Medica", "latitude": 45.1947424, "longitude": 9.1403864, "source": "osm", "_tags": {"amenity": "hospital", "emergency": "no", "healthcare": "hospital", "name": "Guardia Medica"}}, {"name": "Laboratorio Analisi Mediche San Giorgio", "latitude": 45.1908806, "longitude": 9.1496243, "source": "osm", "_tags": {"amenity": "hospital", "healthcare": "hospital", "name": "Laboratorio Analisi Mediche San Giorgio"}}, {"name": "Casa della Salute", "latitude": 44.9166172, "longitude": 9.7896496, "source": "osm", "_tags": {"amenity": "hospital", "healthcare": "hospital", "name": "Casa della Salute", "operator": "AUSL Piacenza", "toilets:wheelchair": "yes", "wheelchair": "limited", "wheelchair:description": "Ingresso complicato a causa delle porte antincendio."}}, {"name": "Croce Rossa Italiana", "latitude": 44.51947, "longitude": 9.1595922, "source": "osm", "_tags": {"addr:street": "Via Ponte Nuovo", "brand": "Croce Rossa Italiana", "brand:wikidata": "Q913903", "brand:wikipedia": "it:Croce Rossa Italiana", "emergency": "ambulance_station", "healthcare": "hospital", "name": "Croce Rossa Italiana"}}, {"name": "Pronto Soccorso Policlinico S. Matteo", "latitude": 45.2006243, "longitude": 9.1465113, "source": "osm", "_tags": {"addr:city": "Pavia", "addr:postcode": "27100", "emergency": "emergency_ward_entrance", "healthcare": "hospital", "name": "Pronto Soccorso Policlinico S. Matteo"}}, {"name": "PRONTO SOCCORSO 118", "latitude": 45.0548657, "longitude": 9.68115, "source": "osm", "_tags": {"emergency": "emergency_ward_entrance", "healthcare": "hospital", "name": "PRONTO SOCCORSO 118"}}, {"name": "Croce Rossa - Bargagli -", "latitude": 44.4501721, "longitude": 9.0867459, "source": "osm", "_tags": {"addr:city": "Bargagli", "addr:housenumber": "147", "addr:street": "Via Aimone Martini", "brand": "Croce Rossa Italiana", "brand:wikidata": "Q913903", "emergency": "ambulance_station", "healthcare": "hospital", "name": "Croce Rossa - Bargagli -"}}, {"name": "Croce Rossa - Davagna", "latitude": 44.4608844, "longitude": 9.0775972, "source": "osm", "_tags": {"addr:city": "Davagna", "addr:housenumber": "9", "addr:street": "Via Sottana", "brand": "Croce Rossa Italiana", "brand:wikidata": "Q913903", "emergency": "ambulance_station", "healthcare": "hospital", "name": "Croce Rossa - Davagna"}}, {"name": "Croce Rossa - Gattorna -", "latitude": 44.4290987, "longitude": 9.1865627, "source": "osm", "_tags": {"addr:housenumber": "31", "addr:street": "Via del Commercio", "brand": "Croce Rossa Italiana", "brand:wikidata": "Q913903", "emergency": "ambulance_station", "healthcare": "hospital", "name": "Croce Rossa - Gattorna -"}}, {"name": "Croce Rossa - Montoggio -", "latitude": 44.5141553, "longitude": 9.0452539, "source": "osm", "_tags": {"addr:city": "Montoggio", "addr:housenumber": "88", "addr:street": "Via Roma", "emergency": "ambulance_station", "healthcare": "hospital", "name": "Croce Rossa - Montoggio -"}}, {"name": "Clinica Veterinaria", "latitude": 44.5703819, "longitude": 8.9543948, "source": "osm", "_tags": {"amenity": "hospital", "healthcare": "hospital", "healthcare:speciality": "clinic", "name": "Clinica Veterinaria", "operator": "Veterinary"}}, {"name": "Farmacia Dr. Zacconi Davide", "latitude": 45.0533187, "longitude": 9.7040257, "source": "osm", "_tags": {"amenity": "hospital", "healthcare": "hospital", "name": "Farmacia Dr. Zacconi Davide"}}, {"name": "Casa di Cura S.Antonino", "latitude": 45.0499995, "longitude": 9.6852595, "source": "osm", "_tags": {"addr:city": "Piacenza", "addr:postcode": "29121", "addr:street": "Via Sforza Pallavicino", "amenity": "hospital", "healthcare": "hospital", "name": "Casa di Cura S.Antonino"}}, {"name": "Guardia Medica", "latitude": 44.7320673, "longitude": 9.9293033, "source": "osm", "_tags": {"amenity": "hospital", "healthcare": "hospital", "name": "Guardia Medica"}}, {"name": "Guardia Medica", "latitude": 44.6638065, "longitude": 9.8456214, "source": "osm", "_tags": {"amenity": "hospital", "healthcare": "hospital", "name": "Guardia Medica"}}, {"name": "Guardia Medica", "latitude": 44.6314088, "longitude": 9.7329888, "source": "osm", "_tags": {"amenity": "hospital", "healthcare": "hospital", "name": "Guardia Medica"}}, {"name": "Pronto Soccorso", "latitude": 44.4917535, "longitude": 9.7650015, "source": "osm", "_tags": {"amenity": "hospital", "healthcare": "hospital", "name": "Pronto Soccorso"}}, {"name": "Guardia Medica", "latitude": 44.4918319, "longitude": 9.7650605, "source": "osm", "_tags": {"amenity": "hospital", "healthcare": "hospital", "name": "Guardia Medica"}}, {"name": "Guardia Medica", "latitude": 44.5035774, "longitude": 9.6325265, "source": "osm", "_tags": {"amenity": "hospital", "healthcare": "hospital", "name": "Guardia Medica"}}, {"name": "Dermatologo Dr. Di Silverio Adriano", "latitude": 45.1833612, "longitude": 9.1451826, "source": "osm", "_tags": {"addr:city": "Pavia", "addr:housenumber": "15", "addr:postcode": "27100", "addr:street": "Via Giacomo Franchi", "amenity": "hospital", "description": "Studio Dermatologico di Dor. Di Silverio Adriano, è disponibile per la visita dermatologica professionale. Infatti il dermatologo assiste i pazienti da Pavia,  e Oltrepo Pavese come Voghera, Broni Stradella, Belgioioso, tutta la provincia Lodi e Milano.", "emergency": "no", "healthcare": "hospital", "healthcare:speciality": "dermatology;dermatovenereology", "internet_access": "no", "name": "Dermatologo Dr. Di Silverio Adriano", "operator": "Di Silverio Adriano", "operator:type": "private", "phone": "+39 335 7074458", "website": "https://krophref.com/disilverio/paviaDermatologo", "wheelchair": "yes"}}, {"name": "Croce Rossa - Santo Stefano D'Aveto", "latitude": 44.5459282, "longitude": 9.4511537, "source": "osm", "_tags": {"addr:city": "Santo Stefano d'Aveto", "addr:housenumber": "7", "addr:postcode": "16049", "addr:street": "Piazza del Popolo", "emergency": "ambulance_station", "healthcare": "hospital", "name": "Croce Rossa - Santo Stefano D'Aveto"}}, {"name": "ASL3 Busalla", "latitude": 44.5751122, "longitude": 8.9435547, "source": "osm", "_tags": {"addr:city": "Busalla", "addr:housenumber": "8", "addr:street": "Piazza Luigi Malerba", "amenity": "hospital", "healthcare": "hospital", "name": "ASL3 Busalla", "operator": "ASL", "operator:wikidata": "Q3631467"}}, {"name": "Fisio-Mass", "latitude": 45.0605672, "longitude": 9.261157, "source": "osm", "_tags": {"addr:city": "Broni", "addr:housenumber": "48", "addr:postcode": "27043", "addr:street": "Via Giuseppe Mazzini", "amenity": "hospital", "healthcare": "hospital", "healthcare:speciality": "osteopathy;physiotherapy", "name": "Fisio-Mass", "operator": "Ferrari Massimiliano", "operator:type": "private", "wheelchair": "yes"}}, {"name": "Synlab", "latitude": 45.3262646, "longitude": 9.1339753, "source": "osm", "_tags": {"amenity": "hospital", "healthcare": "hospital", "name": "Synlab"}}, {"name": "Pronto Soccorso", "latitude": 45.2005036, "longitude": 9.1463482, "source": "osm", "_tags": {"amenity": "hospital", "healthcare": "hospital", "name": "Pronto Soccorso"}}, {"name": "SOREU Pianura", "latitude": 45.2011208, "longitude": 9.1475838, "source": "osm", "_tags": {"amenity": "hospital", "healthcare": "hospital", "name": "SOREU Pianura"}}, {"name": "Proton Center", "latitude": 45.4139864, "longitude": 9.2091918, "source": "osm", "_tags": {"amenity": "hospital", "healthcare": "hospital", "name": "Proton Center"}}, {"name": "ospedale C. Mira", "latitude": 45.308559, "longitude": 9.0135342, "source": "osm", "_tags": {"amenity": "hospital", "building": "hospital", "building:levels": "2", "healthcare": "hospital", "name": "ospedale C. Mira"}}, {"name": "Ospedale Civico Rossi", "latitude": 45.1703907, "longitude": 9.6517683, "source": "osm", "_tags": {"amenity": "hospital", "healthcare": "hospital", "name": "Ospedale Civico Rossi"}}, {"name": "Ospedale Civico di Codogno", "latitude": 45.1589802, "longitude": 9.7127782, "source": "osm", "_tags": {"addr:city": "Codogno", "addr:country": "IT", "addr:housenumber": "1", "addr:street": "Viale Guglielmo Marconi", "amenity": "hospital", "emergency": "yes", "healthcare": "hospital", "name": "Ospedale Civico di Codogno", "operator": "Azienda Socio Sanitaria Territoriale di Lodi", "wikidata": "Q89574396"}}, {"name": "Guglielmo da Saliceto", "latitude": 45.0551942, "longitude": 9.6803419, "source": "osm", "_tags": {"addr:city": "Piacenza", "addr:postcode": "29121", "addr:street": "Cantone del Cristo", "amenity": "hospital", "emergency": "yes", "healthcare": "hospital", "name": "Guglielmo da Saliceto"}}, {"name": "Ex Ospedale Militare", "latitude": 45.0474929, "longitude": 9.6850809, "source": "osm", "_tags": {"amenity": "hospital", "barrier": "wall", "emergency": "no", "name": "Ex Ospedale Militare"}}, {"name": "", "latitude": 45.0552573, "longitude": 9.4406629, "source": "osm", "_tags": {"amenity": "hospital", "building": "yes", "healthcare": "hospital", "source": "Regione Emilia Romagna"}}, {"name": "Casa Protetta Fontanella", "latitude": 45.0541498, "longitude": 9.6137514, "source": "osm", "_tags": {"amenity": "hospital", "healthcare": "hospital", "name": "Casa Protetta Fontanella", "source": "Regione Emilia Romagna"}}, {"name": "Centro Socio Riabilitativo", "latitude": 45.0517983, "longitude": 9.5965005, "source": "osm", "_tags": {"addr:city": "San Nicolò a Trebbia", "addr:postcode": "29010", "addr:street": "Via Lampugnana", "amenity": "hospital", "building": "yes", "name": "Centro Socio Riabilitativo", "source": "Regione Emilia Romagna"}}, {"name": "Ospedale Civile di Voghera", "latitude": 44.9949661, "longitude": 9.0159591, "source": "osm", "_tags": {"amenity": "hospital", "emergency": "yes", "healthcare": "hospital", "name": "Ospedale Civile di Voghera", "toilets:wheelchair": "yes", "wheelchair": "yes"}}, {"name": "Istituto Europeo di Oncologia", "latitude": 45.4144642, "longitude": 9.2081533, "source": "osm", "_tags": {"amenity": "hospital", "email": "urp@ieo.it", "healthcare": "hospital", "healthcare:speciality": "radiology;radiotherapy;diagnostic_radiology", "man_made": "particle_accelerator", "name": "Istituto Europeo di Oncologia", "name:en": "European Institute of Oncology", "particle_accelerator": "circular", "phone": "+39 02 574891", "substance": "proton", "website": "https://www.ieo.it/", "wikidata": "Q1376693", "wikipedia": "it:Istituto Europeo di Oncologia"}}, {"name": "Ospedale Santa Maria", "latitude": 44.491404, "longitude": 9.7650734, "source": "osm", "_tags": {"amenity": "hospital", "building": "yes", "healthcare": "hospital", "name": "Ospedale Santa Maria", "source": "Regione Emilia Romagna"}}, {"name": "Ospedale Arnaboldi", "latitude": 45.0668553, "longitude": 9.2647894, "source": "osm", "_tags": {"amenity": "hospital", "healthcare": "hospital", "name": "Ospedale Arnaboldi"}}, {"name": "Pronto Soccorso", "latitude": 45.3533034, "longitude": 9.6808212, "source": "osm", "_tags": {"building": "hospital", "healthcare": "hospital", "name": "Pronto Soccorso"}}, {"name": "Poliambulatorio - Sede ASL", "latitude": 45.2544257, "longitude": 9.1290517, "source": "osm", "_tags": {"amenity": "hospital", "building": "yes", "healthcare": "hospital", "name": "Poliambulatorio - Sede ASL"}}, {"name": "ASL - Corteolona", "latitude": 45.1545394, "longitude": 9.372263, "source": "osm", "_tags": {"addr:city": "Corteolona", "addr:housenumber": "4", "addr:street": "Via dei Longobardi", "amenity": "hospital", "building": "yes", "name": "ASL - Corteolona"}}, {"name": "Polo sanitario Nuovo Robbiani", "latitude": 45.2815167, "longitude": 9.8708775, "source": "osm", "_tags": {"addr:city": "Soresina", "addr:housenumber": "4", "addr:postcode": "26015", "addr:street": "Via Inzani", "amenity": "hospital", "email": "info@nuovorobbiani.it", "healthcare": "hospital", "name": "Polo sanitario Nuovo Robbiani", "phone": "+39 0374 415411", "website": "https://www.nuovorobbiani.it/"}}, {"name": "Presidio Ospedaliero IRCCS San Matteo \"Ugo Dozzio\"", "latitude": 45.1562664, "longitude": 9.3133054, "source": "osm", "_tags": {"amenity": "hospital", "healthcare": "hospital", "name": "Presidio Ospedaliero IRCCS San Matteo \"Ugo Dozzio\""}}, {"name": "Istituto Clinico Humanitas", "latitude": 45.3734364, "longitude": 9.1651239, "source": "osm", "_tags": {"amenity": "hospital", "healthcare": "hospital", "name": "Istituto Clinico Humanitas", "wikidata": "Q3803602"}}, {"name": "Presidio Ospedaliero di Vizzolo Predabissi", "latitude": 45.3584424, "longitude": 9.3410013, "source": "osm", "_tags": {"addr:city": "Vizzolo Predabissi", "addr:housenumber": "1", "addr:postcode": "20070", "addr:street": "Via Pandina", "amenity": "hospital", "check_date": "2024-04-28", "emergency": "yes", "healthcare": "hospital", "name": "Presidio Ospedaliero di Vizzolo Predabissi"}}, {"name": "", "latitude": 45.0119627, "longitude": 9.4407366, "source": "osm", "_tags": {"amenity": "hospital", "healthcare": "hospital"}}, {"name": "Ospedale unico della Val d'Arda", "latitude": 44.930325, "longitude": 9.9105188, "source": "osm", "_tags": {"amenity": "hospital", "healthcare": "hospital", "name": "Ospedale unico della Val d'Arda", "operator": "A.U.S.L. di Piacenza", "website": "https://www.ausl.pc.it/ospedali/areeospedaliere/areaospedaliera_valdarda.asp"}}, {"name": "Ospedale Maggiore", "latitude": 45.3144781, "longitude": 9.5108779, "source": "osm", "_tags": {"amenity": "hospital", "healthcare": "hospital", "name": "Ospedale Maggiore", "wikidata": "Q30281220"}}, {"name": "Ospedale Vecchio", "latitude": 45.3138376, "longitude": 9.5084256, "source": "osm", "_tags": {"amenity": "hospital", "healthcare": "hospital", "name": "Ospedale Vecchio", "wikidata": "Q63959075"}}, {"name": "Istituto di riabilitazione e di cura Santa Margherita", "latitude": 45.195233, "longitude": 9.1720118, "source": "osm", "_tags": {"amenity": "hospital", "emergency": "no", "healthcare": "hospital", "name": "Istituto di riabilitazione e di cura Santa Margherita", "website": "http://www.asppavia.it/web/html/client.aspx?did=253"}}, {"name": "Istituto di Cura Città di Pavia", "latitude": 45.192302, "longitude": 9.1673877, "source": "osm", "_tags": {"addr:city": "Pavia", "addr:housenumber": "27", "addr:postcode": "27100", "addr:street": "Via Parco Vecchio", "amenity": "hospital", "emergency": "no", "healthcare": "hospital", "name": "Istituto di Cura Città di Pavia", "operator": "Gruppo San Donato", "operator:type": "private"}}, {"name": "", "latitude": 44.7708341, "longitude": 9.3854009, "source": "osm", "_tags": {"amenity": "hospital"}}, {"name": "Fondazione Casimiro Mondino", "latitude": 45.2034996, "longitude": 9.1396363, "source": "osm", "_tags": {"amenity": "hospital", "email": "info@mondino.it", "healthcare": "hospital", "name": "Fondazione Casimiro Mondino", "phone": "+39 0382 3801", "website": "https://www.mondino.it/"}}, {"name": "Fondazione Salvatore Maugeri", "latitude": 45.2042825, "longitude": 9.1416922, "source": "osm", "_tags": {"amenity": "hospital", "email": "pavia@icsmaugeri.it", "healthcare": "hospital", "layer": "-1", "name": "Fondazione Salvatore Maugeri", "phone": "+39 0382 5921", "website": "https://www.icsmaugeri.it/"}}, {"name": "Centro Nazionale di Adroterapia Oncologica (CNAO)", "latitude": 45.2010906, "longitude": 9.1439222, "source": "osm", "_tags": {"amenity": "hospital", "healthcare": "hospital", "name": "Centro Nazionale di Adroterapia Oncologica (CNAO)", "phone": "+39 0382 0781", "website": "https://fondazionecnao.it", "wikidata": "Q3664732", "wikipedia": "it:Centro Nazionale di Adroterapia Oncologica"}}, {"name": "Centro Riabilitativo Media Assistenza", "latitude": 45.1919907, "longitude": 9.1356929, "source": "osm", "_tags": {"addr:city": "Pavia", "addr:housenumber": "19", "addr:postcode": "27100", "addr:street": "Strada Torchietto", "amenity": "hospital", "emergency": "no", "healthcare": "hospital", "healthcare:speciality": "psychiatry", "name": "Centro Riabilitativo Media Assistenza", "operator": "Unità Operativa di Psichiatria n. 57/58 - Pavia", "operator:type": "public"}}, {"name": "Poliambulatori Policlinico San Matteo", "latitude": 45.1960091, "longitude": 9.1499038, "source": "osm", "_tags": {"addr:housenumber": "5", "addr:street": "Viale Camillo Golgi", "amenity": "hospital", "check_date": "2023-06-27", "healthcare": "hospital", "name": "Poliambulatori Policlinico San Matteo", "payment:cards": "yes", "payment:contactless": "yes", "payment:mastercard": "yes", "payment:visa": "yes", "wheelchair": "yes"}}, {"name": "Istituto Clinico Scientifico \"Salvatore Maugeri\" di via Boezio", "latitude": 45.1890084, "longitude": 9.1501559, "source": "osm", "_tags": {"amenity": "hospital", "healthcare": "hospital", "name": "Istituto Clinico Scientifico \"Salvatore Maugeri\" di via Boezio", "operator": "IRCCS Salvatore Maugeri"}}, {"name": "Casa della Salute", "latitude": 44.9959865, "longitude": 9.9295149, "source": "osm", "_tags": {"amenity": "hospital", "emergency": "no", "healthcare": "hospital", "name": "Casa della Salute", "operator": "A.U.S.L. Piacenza", "operator:type": "public", "website": "https://www.ausl.pc.it/casa_della_salute/cortemaggiore.asp"}}, {"name": "", "latitude": 44.865819, "longitude": 9.6442734, "source": "osm", "_tags": {"amenity": "hospital", "healthcare": "hospital"}}, {"name": "I.R.C.C.S. Policlinico San Donato", "latitude": 45.4104114, "longitude": 9.2771243, "source": "osm", "_tags": {"amenity": "hospital", "emergency": "yes", "healthcare": "hospital", "healthcare:speciality": "emergency;cardiology;surgery;orthopaedics;dermatology;plastic_surgery;vascular_surgery;radiology;endocrinology;gastroenterology;pathology;general;neurology;nephrology;ophthalmology;orthodontics;oncology;gynaecology;otolaryngology;pulmonology;radiotherapy", "name": "I.R.C.C.S. Policlinico San Donato", "operator": "Gruppo San Donato", "website": "https://www.grupposandonato.it/strutture/policlinico-san-donato", "wikidata": "Q30282161"}}, {"name": "", "latitude": 45.3150215, "longitude": 9.5131746, "source": "osm", "_tags": {"amenity": "hospital", "healthcare": "hospital"}}, {"name": "Ospedale Fissiraga", "latitude": 45.314412, "longitude": 9.5062355, "source": "osm", "_tags": {"amenity": "hospital", "healthcare": "hospital", "name": "Ospedale Fissiraga", "wikidata": "Q63959051"}}, {"name": "", "latitude": 45.315594, "longitude": 9.5139087, "source": "osm", "_tags": {"amenity": "hospital", "healthcare": "hospital"}}, {"name": "Ospedale - Ente morale Isola del Cantone ONLUS", "latitude": 44.6479806, "longitude": 8.9576202, "source": "osm", "_tags": {"amenity": "hospital", "healthcare": "hospital", "name": "Ospedale - Ente morale Isola del Cantone ONLUS"}}, {"name": "Policlinico di Milano - Hospice Cascina Brandezzata", "latitude": 45.4135127, "longitude": 9.2053052, "source": "osm", "_tags": {"amenity": "hospital", "emergency": "no", "healthcare": "hospital", "name": "Policlinico di Milano - Hospice Cascina Brandezzata", "website": "https://www.fondazioneluvi.org/hospice-cascina-brandezzata/"}}, {"name": "Clinica Piacenza", "latitude": 45.0465705, "longitude": 9.6755018, "source": "osm", "_tags": {"amenity": "hospital", "building": "yes", "name": "Clinica Piacenza", "source": "Regione Emilia Romagna", "type": "multipolygon"}}, {"name": "Ospedale Tribandi Pavoni", "latitude": 45.4026952, "longitude": 9.9272723, "source": "osm", "_tags": {"amenity": "hospital", "contact:phone": "+39 030 99441", "contact:website": "http://www.aochiari.it/", "healthcare": "hospital", "name": "Ospedale Tribandi Pavoni", "operator": "Azienda Ospedaliera Mellino Mellini", "ref:vatin": "IT01971010986", "type": "multipolygon"}}, {"name": "Humanitas", "latitude": 45.3739934, "longitude": 9.1654937, "source": "osm", "_tags": {"amenity": "hospital", "healthcare": "hospital", "name": "Humanitas", "type": "multipolygon"}}, {"name": "Fondazione I.R.C.C.S. Policlinico San Matteo", "latitude": 45.1991833, "longitude": 9.1469967, "source": "osm", "_tags": {"amenity": "hospital", "healthcare": "hospital", "name": "Fondazione I.R.C.C.S. Policlinico San Matteo", "operator": "Fondazione I.R.C.C.S. Policlinico San Matteo", "operator:type": "public", "type": "multipolygon", "wikidata": "Q3747180", "wikipedia": "it:Fondazione IRCCS Policlinico San Matteo"}}, {"name": "Ospedale Maggiore di Crema", "latitude": 45.3536127, "longitude": 9.6805692, "source": "osm", "_tags": {"amenity": "hospital", "emergency": "yes", "healthcare": "hospital", "name": "Ospedale Maggiore di Crema", "type": "multipolygon", "wikidata": "Q55138952"}}, {"name": "", "latitude": 45.05574, "longitude": 9.6798618, "source": "osm", "_tags": {"amenity": "hospital", "healthcare": "hospital", "type": "multipolygon"}}, {"name": "Guglielmo Da Saliceto", "latitude": 45.0553479, "longitude": 9.6831626, "source": "osm", "_tags": {"amenity": "hospital", "healthcare": "hospital", "name": "Guglielmo Da Saliceto", "type": "multipolygon"}}, {"name": "Ospedale Delmati", "latitude": 45.2295374, "longitude": 9.415326, "source": "osm", "_tags": {"amenity": "hospital", "emergency": "no", "healthcare": "hospital", "name": "Ospedale Delmati", "operator": "A.S.S.T Lodi", "operator:type": "public", "type": "multipolygon"}}]