[{"name": "Spitalul Municipal", "latitude": 45.0325306, "longitude": 23.271195, "source": "osm", "_tags": {"amenity": "hospital", "emergency": "yes", "name": "Spitalul Municipal"}}, {"name": "Spitalul Orășenesc", "latitude": 44.89882, "longitude": 23.1634545, "source": "osm", "_tags": {"amenity": "hospital", "name": "Spitalul Orășenesc"}}, {"name": "Spitalul Județean Tudor Vladimirescu", "latitude": 45.0401597, "longitude": 23.2745341, "source": "osm", "_tags": {"addr:city": "Târgu Jiu", "addr:housenumber": "17", "addr:street": "Strada Tudor Vladimirescu", "amenity": "hospital", "emergency": "yes", "healthcare": "hospital", "name": "Spitalul Județean Tudor Vladimirescu", "website": "https://www.spitalgorj.ro"}}, {"name": "Spitalul Orășenesc", "latitude": 45.3319073, "longitude": 23.1221304, "source": "osm", "_tags": {"addr:housenumber": "5", "addr:street": "Strada Spitalului", "amenity": "hospital", "name": "Spitalul Orășenesc"}}, {"name": "Stația SALVAMONT Gorj", "latitude": 45.1939772, "longitude": 23.7903518, "source": "osm", "_tags": {"addr:city": "Polovragi", "addr:country": "RO", "addr:postcode": "217365", "amenity": "hospital", "emergency": "yes", "name": "Stația SALVAMONT Gorj"}}, {"name": "Dispensar anti-TBC", "latitude": 45.1730147, "longitude": 23.6642616, "source": "osm", "_tags": {"amenity": "hospital", "emergency": "yes", "healthcare": "hospital", "name": "Dispensar anti-TBC"}}, {"name": "Spitalul orășenesc Novaci", "latitude": 45.1734608, "longitude": 23.6616334, "source": "osm", "_tags": {"amenity": "hospital", "healthcare": "hospital", "name": "Spitalul orășenesc Novaci"}}, {"name": "Dispensar Baia de Fier", "latitude": 45.1708202, "longitude": 23.7579177, "source": "osm", "_tags": {"amenity": "hospital", "name": "Dispensar Baia de Fier", "source": "survey"}}, {"name": "Spitalul de Îngrijire și Tratament Zătreni", "latitude": 44.7625776, "longitude": 23.8552714, "source": "osm", "_tags": {"amenity": "hospital", "name": "Spitalul de Îngrijire și Tratament Zătreni"}}, {"name": "Spitalul Lupeni", "latitude": 45.3552234, "longitude": 23.217885, "source": "osm", "_tags": {"amenity": "hospital", "healthcare": "hospital", "name": "Spitalul Lupeni"}}, {"name": "Dispensar", "latitude": 44.5040186, "longitude": 23.7506001, "source": "osm", "_tags": {"amenity": "hospital", "emergency": "fire_hydrant", "healthcare": "doctor", "name": "Dispensar"}}, {"name": "Spitalul Orășenesc Strehaia", "latitude": 44.622091, "longitude": 23.1912564, "source": "osm", "_tags": {"addr:city": "Strehaia", "addr:housenumber": "159", "addr:postcode": "225300", "addr:street": "Bulevardul Republicii", "amenity": "hospital", "healthcare": "hospital", "name": "Spitalul Orășenesc Strehaia"}}, {"name": "Spitalul Orășenesc Turceni", "latitude": 44.681059, "longitude": 23.3702138, "source": "osm", "_tags": {"addr:city": "Turceni", "addr:housenumber": "1", "addr:postcode": "210126", "addr:street": "Strada Sănătății", "amenity": "hospital", "healthcare": "hospital", "name": "Spitalul Orășenesc Turceni", "phone": "0253 335 035", "website": "http://www.spitalturceni.ro/"}}, {"name": "Spital Psihiatrie Turceni", "latitude": 44.6886544, "longitude": 23.3799206, "source": "osm", "_tags": {"addr:city": "Jilțu", "addr:street": "Strada 13 Septembrie", "amenity": "hospital", "healthcare": "hospital", "name": "Spital Psihiatrie Turceni", "phone": "0253.335.037"}}, {"name": "Spitalul de Urgență", "latitude": 45.4076282, "longitude": 23.3762043, "source": "osm", "_tags": {"addr:city": "Petroșani", "addr:housenumber": "137 A", "addr:postcode": "332058", "addr:street": "Strada 1 Decembrie 1918", "amenity": "hospital", "building": "yes", "healthcare": "hospital", "healthcare:speciality": "psychiatry;paediatrics;gynaecology;cardiology;oncology;emergency;surgery;internal;maternity;radiology;orthopaedics;dialysis", "name": "Spitalul de Urgență", "operator": "Ministerul Sanatatii", "operator:type": "public"}}, {"name": "Spitalul Orășenesc", "latitude": 45.1812147, "longitude": 23.3783216, "source": "osm", "_tags": {"amenity": "hospital", "building": "yes", "healthcare": "hospital", "name": "Spitalul Orășenesc"}}, {"name": "Spitalul de Urgență", "latitude": 45.4072554, "longitude": 23.3763546, "source": "osm", "_tags": {"addr:city": "Petroșani", "addr:housenumber": "137 A", "addr:postcode": "332058", "addr:street": "Strada 1 Decembrie 1918", "amenity": "hospital", "building": "yes", "emergency": "yes", "name": "Spitalul de Urgență"}}, {"name": "Affidea", "latitude": 45.4081226, "longitude": 23.375655, "source": "osm", "_tags": {"amenity": "clinic", "building": "yes", "contact:email": "petrosani@affidea.com", "contact:phone": "+40 21 9338", "contact:website": "https://affidea.ro/centre-medicale/affidea-petrosani", "healthcare": "hospital", "healthcare:speciality": "dialysis", "name": "Affidea", "opening_hours": "Mo-Fr 08:00-20:00"}}, {"name": "Spitalul Municipal Motru", "latitude": 44.803432, "longitude": 22.9740877, "source": "osm", "_tags": {"amenity": "hospital", "healthcare": "hospital", "name": "Spitalul Municipal Motru"}}, {"name": "Policlinica Motru", "latitude": 44.8026133, "longitude": 22.9736178, "source": "osm", "_tags": {"amenity": "hospital", "building:levels": "2", "healthcare": "hospital", "name": "Policlinica Motru"}}, {"name": "", "latitude": 44.7628886, "longitude": 23.8555379, "source": "osm", "_tags": {"amenity": "hospital"}}, {"name": "", "latitude": 44.6222276, "longitude": 23.1910619, "source": "osm", "_tags": {"amenity": "hospital", "healthcare": "hospital"}}, {"name": "Spital Psihiatrie Turceni", "latitude": 44.6886261, "longitude": 23.3800204, "source": "osm", "_tags": {"addr:city": "Jilțu", "addr:street": "Strada 13 Septembrie", "amenity": "hospital", "healthcare": "hospital", "name": "Spital Psihiatrie Turceni"}}, {"name": "Spitalul Lupeni", "latitude": 45.3551469, "longitude": 23.2178962, "source": "osm", "_tags": {"amenity": "hospital", "building": "yes", "healthcare": "hospital", "healthcare:speciality": "general", "name": "Spitalul Lupeni"}}, {"name": "Spitalul Orășenesc Uricani", "latitude": 45.3320252, "longitude": 23.1220129, "source": "osm", "_tags": {"amenity": "hospital", "healthcare": "hospital", "name": "Spitalul Orășenesc Uricani"}}, {"name": "", "latitude": 45.3322292, "longitude": 23.1223569, "source": "osm", "_tags": {"amenity": "hospital", "healthcare": "hospital"}}, {"name": "Spitalul Orășenesc", "latitude": 44.9625379, "longitude": 23.513326, "source": "osm", "_tags": {"addr:city": "Târgu Cărbunești", "addr:housenumber": "5", "addr:postcode": "215500", "addr:street": "Strada Eroilor", "amenity": "hospital", "emergency": "yes", "healthcare": "hospital", "name": "Spitalul Orășenesc"}}]