[{"name": "USLD du CH de Saint-Flour", "latitude": 45.0294898, "longitude": 3.0671325, "source": "osm", "_tags": {"amenity": "hospital", "healthcare": "hospital", "name": "USLD du CH de Saint-Flour", "phone": "+33471606464", "ref:FR:FINESS": "150782324", "source": "Le ministère des solidarités et de la santé - 03/2019", "type:FR:FINESS": "362", "website": "https://www.ch-stflour.fr/"}}, {"name": "Chabaleyret", "latitude": 44.5716352, "longitude": 3.861009, "source": "osm", "_tags": {"amenity": "hospital", "healthcare": "hospital", "name": "Chabaleyret"}}, {"name": "Centre hospitalier de Brioude", "latitude": 45.297025, "longitude": 3.3825972, "source": "osm", "_tags": {"amenity": "hospital", "emergency": "yes", "fax": "+33 4 71 50 99 98", "healthcare": "hospital", "name": "Centre hospitalier de Brioude", "operator:type": "public", "phone": "+33 4 71 50 99 99", "ref:FR:FINESS": "430000190", "type:FR:FINESS": "355", "website": "https://www.ch-brioude.fr/"}}, {"name": "Hôpital Lozère", "latitude": 44.5224462, "longitude": 3.4906921, "source": "osm", "_tags": {"addr:city": "MENDE", "addr:housenumber": "53", "addr:postcode": "48000", "addr:street": "Avenue du 8 Mai 1945", "alt_name": "Hôpital Guy de Chaulhac", "amenity": "hospital", "emergency": "yes", "fax": "+33 4 66 49 61 90", "healthcare": "hospital", "healthcare:speciality": "intensive;paediatrics;emergency;surgery;radiology;ophthalmology;urology;dental_oral_maxillo_facial_surgery;community;geriatrics;oncology;endocrinology;rheumatology;neurology;gastroenterology;dermatology;gynaecology;neonatology;applied_kinesiology;diabetol", "name": "Hôpital Lozère", "operator:type": "public", "phone": "+33 4 66 49 49 49", "ref:FR:FINESS": "480000017", "source": "cadastre-dgi-fr source : Direction Générale des Impôts - Cadastre;mise à jour : 2010;local knowledge", "type:FR:FINESS": "355", "website": "http://www.ch-mende.fr"}}, {"name": "Centre hospitalier de Saint-Flour", "latitude": 45.0338122, "longitude": 3.0861276, "source": "osm", "_tags": {"amenity": "hospital", "emergency": "yes", "fax": "+33 4 71 60 64 65", "name": "Centre hospitalier de Saint-Flour", "operator:type": "public", "phone": "+33 4 71 60 64 64", "ref:FR:FINESS": "150000032", "source": "cadastre-dgi-fr source : Direction Générale des Impôts - Cadastre. Mise à jour : 2010", "type:FR:FINESS": "355", "website": "https://www.ch-stflour.fr/", "wikidata": "Q104874650"}}, {"name": "Centre hospitalier La Combe de Volzac", "latitude": 45.0303646, "longitude": 3.0667464, "source": "osm", "_tags": {"amenity": "hospital", "healthcare": "hospital", "name": "Centre hospitalier La Combe de Volzac", "ref:FR:FINESS": "150780773", "source": "Le ministère des solidarités et de la santé - 03/2019", "type:FR:FINESS": "355", "website": "https://www.ch-stflour.fr/"}}, {"name": "Clinique Bon secours", "latitude": 45.0335682, "longitude": 3.8882924, "source": "osm", "_tags": {"addr:housenumber": "67", "addr:street": "Avenue du Maréchal Foch", "amenity": "hospital", "building": "yes", "check_date": "2024-07-27", "healthcare": "hospital", "name": "Clinique Bon secours", "ref:FR:FINESS": "430000109", "source": "cadastre-dgi-fr source : Direction Générale des Impôts - Cadastre. Mise à jour : 2010", "type:FR:FINESS": "365"}}, {"name": "Centre hospitalier Fanny Ramadier", "latitude": 44.8081772, "longitude": 3.2791798, "source": "osm", "_tags": {"amenity": "hospital", "fax": "+33 4 66 31 28 59", "name": "Centre hospitalier Fanny Ramadier", "phone": "+33 4 66 31 00 66", "ref:FR:FINESS": "480000033", "source": "cadastre-dgi-fr source : Direction Générale des Impôts - Cadastre ; mise à jour : 2012", "type:FR:FINESS": "106", "website": "https://www.ch-saint-chely.fr/", "wikidata": "Q92062409"}}, {"name": "Centre hospitalier François Tosquelles", "latitude": 44.781772, "longitude": 3.3919581, "source": "osm", "_tags": {"amenity": "hospital", "email": "accueil@chft.fr", "healthcare:speciality": "psychiatry", "name": "Centre hospitalier François Tosquelles", "phone": "+33 4 66 42 55 55", "ref:FR:FINESS": "480000058", "ref:FR:NAF": "8610Z", "ref:FR:SIRET": "26480011100017", "type:FR:FINESS": "292", "website": "https://epsm-lozere.fr/", "wikidata": "Q2945666"}}, {"name": "Hôpital Saint-Jacques", "latitude": 44.5645672, "longitude": 3.292737, "source": "osm", "_tags": {"alt_name": "Clinique Médico Chirurgicale du Gévaudan", "amenity": "hospital", "fax": "+33 4 66 49 68 18", "name": "Hôpital Saint-Jacques", "operator": "Hôpital Lozère", "operator:type": "public", "phone": "+33 4 66 49 52 00", "ref:FR:FINESS": "480002948", "source": "cadastre-dgi-fr source : Direction Générale des Impôts - Cadastre ; mise à jour : 2010", "type:FR:FINESS": "355", "website": "http://www.hl-marvejols.fr/"}}, {"name": "Centre hospitalier Sainte-Marie", "latitude": 45.0529978, "longitude": 3.9030662, "source": "osm", "_tags": {"addr:housenumber": "50", "addr:street": "Route de Montredon", "amenity": "hospital", "healthcare": "hospital", "name": "Centre hospitalier Sainte-Marie", "ref:FR:FINESS": "430000026", "type:FR:FINESS": "292"}}, {"name": "Centre hospitalier Émile Roux", "latitude": 45.051103, "longitude": 3.8786249, "source": "osm", "_tags": {"amenity": "hospital", "emergency": "yes", "fax": "+33 4 71 04 33 70", "healthcare": "hospital", "healthcare:speciality": "intensive", "name": "Centre hospitalier Émile Roux", "operator:type": "public", "phone": "+33 4 71 04 32 10", "ref:FR:FINESS": "430000117", "type:FR:FINESS": "355", "website": "https://www.ch-lepuy.fr/", "wikidata": "Q30279881"}}, {"name": "centre hospitalier de Craponne sur Arzon", "latitude": 45.3282384, "longitude": 3.8407967, "source": "osm", "_tags": {"amenity": "hospital", "name": "centre hospitalier de Craponne sur Arzon", "ref:FR:FINESS": "430000299", "source": "Le ministère des solidarités et de la santé - 03/2019"}}, {"name": "Centre hospitalier Pierre Gallice", "latitude": 45.0960174, "longitude": 3.4922559, "source": "osm", "_tags": {"amenity": "hospital", "healthcare": "hospital", "name": "Centre hospitalier Pierre Gallice", "ref:FR:FINESS": "430000307"}}, {"name": "Centre hospitalier de Langogne", "latitude": 44.7253602, "longitude": 3.8405478, "source": "osm", "_tags": {"amenity": "hospital", "email": "contact@ch-langogne.fr", "fax": "+33 4 66 69 78 77", "healthcare": "hospital", "name": "Centre hospitalier de Langogne", "operator:type": "public", "phone": "+33 4 66 69 78 00", "ref:FR:FINESS": "480000074", "type:FR:FINESS": "106", "website": "https://ch-langogne.fr/", "wikidata": "Q92061600"}}, {"name": "Foyer Saint-Nicolas", "latitude": 44.7737767, "longitude": 3.8804802, "source": "osm", "_tags": {"amenity": "hospital", "description": "Foyer d'accueil médicalisé", "emergency": "no", "name": "Foyer Saint-Nicolas", "source": "BDTopo IGN"}}, {"name": "Hôpital de St Geniez d'Olt", "latitude": 44.468286, "longitude": 2.9789365, "source": "osm", "_tags": {"amenity": "hospital", "building": "yes", "contact:website": "http://www.hl-saintgeniezdolt.fr/", "name": "Hôpital de St Geniez d'Olt", "operator": "public", "ref:FR:FINESS": "120000088", "source": "Le ministère des solidarités et de la santé - 03/2019", "type": "multipolygon", "wikidata": "Q92063367"}}]