[{"name": "Spitalul Județean De Urgență Buzău", "latitude": 45.150578, "longitude": 26.8011952, "source": "osm", "_tags": {"addr:city": "Buzău", "addr:housenumber": "7", "addr:postcode": "120140", "addr:street": "Bulevardul Stadionului", "amenity": "hospital", "name": "Spitalul Județean De Urgență Buzău", "phone": "0238 719 132", "website": "https://www.spitalulbuzau.ro/"}}, {"name": "Centrul medical NATURALIA", "latitude": 44.4981209, "longitude": 26.1744422, "source": "osm", "_tags": {"addr:city": "Voluntari", "addr:country": "RO", "addr:housenumber": "8", "addr:interpolation": "even", "addr:postcode": "077190", "addr:street": "Strada Erou Mircea Marinescu", "amenity": "hospital", "name": "Centrul medical NATURALIA"}}, {"name": "Speed Vet", "latitude": 44.425001, "longitude": 26.0475715, "source": "osm", "_tags": {"addr:city": "București", "addr:housenumber": "22", "addr:postcode": "061544", "addr:postcode:source": "Date de la Poșta Română, publicate sub Licența pentru Guvernare Deschisă v1.0 la http://date.gov.ro/organization/posta-romana", "addr:street": "Drumul Taberei", "amenity": "veterinary", "email": "office@speedvet.ro", "healthcare": "hospital", "name": "Speed Vet", "opening_hours": "Mo-Su 09:00-21:00; Sat 10:00-14:00; Sun Closed", "phone": "+40 371 306 308", "source:addr:housenumber": "survey", "source:addr:street": "survey"}}, {"name": "Clinica Sante", "latitude": 45.1530738, "longitude": 26.8243225, "source": "osm", "_tags": {"amenity": "hospital", "name": "Clinica Sante"}}, {"name": "Clinica Medicală Hypocrat 2000", "latitude": 44.4381976, "longitude": 26.1582115, "source": "osm", "_tags": {"amenity": "hospital", "healthcare": "hospital", "name": "Clinica Medicală Hypocrat 2000", "wheelchair": "yes"}}, {"name": "Spitalul Clinic Sfânta Maria", "latitude": 44.4564896, "longitude": 26.0790405, "source": "osm", "_tags": {"addr:city": "București", "addr:housenumber": "37-39", "addr:street": "Bulevardul Ion Mihalache", "amenity": "hospital", "healthcare": "hospital", "name": "Spitalul Clinic Sfânta Maria", "website": "https://spitalsfmaria.ro/"}}, {"name": "Dispensar Medical", "latitude": 44.8667009, "longitude": 26.5481651, "source": "osm", "_tags": {"addr:city": "Boldesti", "amenity": "hospital", "emergency": "no", "name": "Dispensar Medical"}}, {"name": "Ambulatoriul de specialitate al Spitalului de copii Grigore Alexandrescu", "latitude": 44.4505778, "longitude": 26.0992817, "source": "osm", "_tags": {"addr:city": "București", "addr:housenumber": "58", "addr:street": "Calea Dorobanților", "alt_name": "Ambulatoriul de Specialitați \"Dorobanți\"", "amenity": "hospital", "name": "Ambulatoriul de specialitate al Spitalului de copii Grigore Alexandrescu", "website": "https://spitalulgrigorealexandrescu.ro/", "wheelchair": "limited"}}, {"name": "Spitalul Medicover", "latitude": 44.4899542, "longitude": 26.0916346, "source": "osm", "_tags": {"addr:city": "București", "addr:country": "RO", "addr:street": "Strada Pechea", "alt_name": "Medicover Hospital Pipera;Maternitatea Medicover", "amenity": "hospital", "emergency": "yes", "name": "Spitalul Medicover", "wheelchair": "yes"}}, {"name": "", "latitude": 44.9994827, "longitude": 26.4400462, "source": "osm", "_tags": {"amenity": "hospital"}}, {"name": "Spitalul Orășenesc Sfânta Filofteia", "latitude": 45.0031924, "longitude": 26.443576, "source": "osm", "_tags": {"amenity": "hospital", "emergency": "yes", "name": "Spitalul Orășenesc Sfânta Filofteia"}}, {"name": "Bestmed Serv", "latitude": 45.0325975, "longitude": 26.0316059, "source": "osm", "_tags": {"addr:housenumber": "56", "addr:street": "Calea Unirii", "amenity": "hospital", "name": "Bestmed Serv"}}, {"name": "Spitalul Orășenesc Lehliu-Gară", "latitude": 44.4424731, "longitude": 26.8523331, "source": "osm", "_tags": {"amenity": "hospital", "emergency": "yes", "healthcare": "hospital", "name": "Spitalul Orășenesc Lehliu-Gară"}}, {"name": "Dr. Levy Medical Center", "latitude": 44.4503653, "longitude": 26.0965329, "source": "osm", "_tags": {"addr:city": "București", "addr:housenumber": "6", "addr:postcode": "010602", "addr:postcode:source": "Date de la Poșta Română, publicate sub Licența pentru Guvernare Deschisă v1.0 la http://date.gov.ro/organization/posta-romana", "addr:street": "Strada Ion Slătineanu", "amenity": "hospital", "healthcare": "hospital", "healthcare:speciality": "plastic_surgery", "name": "Dr. Levy Medical Center", "wheelchair": "limited"}}, {"name": "Dispensar", "latitude": 44.7622409, "longitude": 26.5303918, "source": "osm", "_tags": {"amenity": "hospital", "emergency": "no", "name": "Dispensar", "source": "survey"}}, {"name": "Centrul de transfuzie Buzău", "latitude": 45.1505133, "longitude": 26.7988902, "source": "osm", "_tags": {"amenity": "hospital", "name": "Centrul de transfuzie Buzău"}}, {"name": "Serviciul județean de ambulanță Buzău", "latitude": 45.1511489, "longitude": 26.8002152, "source": "osm", "_tags": {"amenity": "hospital", "healthcare": "hospital", "name": "Serviciul județean de ambulanță Buzău"}}, {"name": "Policlinica 23 August", "latitude": 45.1522065, "longitude": 26.8102796, "source": "osm", "_tags": {"addr:street": "Strada Nicolae Titulescu", "amenity": "hospital", "healthcare": "hospital", "name": "Policlinica 23 August", "phone": "0238 715 524"}}, {"name": "Centrul de Îngrijiri Paliative „Sfânta Irina”", "latitude": 44.497301, "longitude": 26.1754403, "source": "osm", "_tags": {"addr:city": "Voluntari", "addr:housenumber": "3", "addr:postcode": "077190", "addr:postcode:source": "Date de la Poșta Română, publicate sub Licența pentru Guvernare Deschisă v1.0 la http://date.gov.ro/organization/posta-romana", "addr:street": "Strada Erou Mircea Marinescu", "amenity": "hospital", "name": "Centrul de Îngrijiri Paliative „Sfânta Irina”", "phone": "+4021 352 0042", "website": "http://www.sfantairina.ro/"}}, {"name": "Policlinica Militară Buzău", "latitude": 45.1482672, "longitude": 26.8159636, "source": "osm", "_tags": {"addr:city": "Buzău", "addr:housenumber": "138", "addr:postcode": "120279", "addr:postcode:source": "Date de la Poșta Română, publicate sub Licența pentru Guvernare Deschisă v1.0 la http://date.gov.ro/organization/posta-romana", "addr:street": "Bulevardul Unirii", "amenity": "hospital", "name": "Policlinica Militară Buzău"}}, {"name": "Sectia Cardiologie", "latitude": 44.4539744, "longitude": 26.1138921, "source": "osm", "_tags": {"amenity": "hospital", "healthcare": "hospital", "healthcare:speciality": "cardiology", "name": "Sectia Cardiologie", "name:ro": "Sectia Cardiologie"}}, {"name": "Life Memorial Hospital", "latitude": 44.4652048, "longitude": 26.0541426, "source": "osm", "_tags": {"addr:city": "București", "addr:housenumber": "365", "addr:postcode": "010719", "addr:street": "Calea Griviței", "amenity": "hospital", "check_date": "2024-04-21", "healthcare": "hospital", "name": "Life Memorial Hospital"}}, {"name": "Gral Medical", "latitude": 44.4227252, "longitude": 26.1332351, "source": "osm", "_tags": {"addr:city": "București", "addr:housenumber": "79-91", "addr:street": "Strada Traian Popovici", "alt_name": "Bio Ortoclinic", "amenity": "clinic", "contact:phone": "+40 21 323 0000", "contact:website": "https://www.gralmedical.ro", "healthcare": "hospital", "name": "Gral Medical", "opening_hours": "Mo-Fr 07:30-20:00; Sa 08:00-12:00", "wheelchair": "limited"}}, {"name": "Centrul Medical Recumed", "latitude": 44.4513731, "longitude": 26.0919471, "source": "osm", "_tags": {"addr:city": "București", "addr:housenumber": "33", "addr:street": "Strada Grigore Alexandrescu", "amenity": "hospital", "emergency": "no", "healthcare": "hospital", "name": "Centrul Medical Recumed", "name:en": "\"Recumed\" Medical Center"}}, {"name": "MediUrg", "latitude": 44.9340152, "longitude": 26.0270932, "source": "osm", "_tags": {"addr:city": "Ploiești", "addr:housenumber": "27", "addr:street": "Bulevardul Independenței", "amenity": "hospital", "healthcare": "hospital", "name": "MediUrg", "website": "http://www.mediurg.ro/contact-mediurg/contact-policlinica"}}, {"name": "Spitalul de pneumoftiziologie Drajna", "latitude": 45.2221011, "longitude": 26.0502313, "source": "osm", "_tags": {"addr:city": "Drajna de Jos", "addr:housenumber": "1", "addr:street": "Strada Castelului", "amenity": "hospital", "healthcare": "hospital", "name": "Spitalul de pneumoftiziologie Drajna"}}, {"name": "Spitalul de Boli Cronice Smeeni", "latitude": 44.9966222, "longitude": 26.8607234, "source": "osm", "_tags": {"amenity": "hospital", "healthcare": "hospital", "name": "Spitalul de Boli Cronice Smeeni"}}, {"name": "Spitalul Sf. Sava - Buzău", "latitude": 45.3185738, "longitude": 26.3605257, "source": "osm", "_tags": {"addr:city": "Pătârlagele", "addr:street": "Strada Nicolae Bălcescu", "amenity": "hospital", "healthcare": "hospital", "name": "Spitalul Sf. Sava - Buzău"}}, {"name": "Maison Des Dents", "latitude": 44.4399941, "longitude": 26.1253709, "source": "osm", "_tags": {"addr:city": "București", "addr:housenumber": "69", "addr:postcode": "021407", "addr:street": "Bulevardul Pache Protopopescu", "amenity": "hospital", "healthcare": "hospital", "healthcare:speciality": "dentist;dental_oral_maxillo_facial_surgery;dentistry", "name": "Maison Des Dents", "website": "https://www.maisondesdents.ro"}}, {"name": "Clinica Oculus", "latitude": 44.4905925, "longitude": 26.0909535, "source": "osm", "_tags": {"addr:city": "București", "addr:housenumber": "11A", "addr:street": "Strada Pechea", "check_date": "2025-07-31", "health_specialty:ophthalmology": "yes", "healthcare": "hospital", "healthcare:speciality": "ophthalmology", "name": "Clinica Oculus", "phone": "0219628", "website": "https://clinicaoculus.ro/"}}, {"name": "Camera de gardă \"Matei Balș\"", "latitude": 44.4551543, "longitude": 26.1123569, "source": "osm", "_tags": {"healthcare": "hospital", "healthcare:speciality": "infectious_diseases", "name": "Camera de gardă \"Matei Balș\""}}, {"name": "Medinvest Spital", "latitude": 45.1854208, "longitude": 26.832621, "source": "osm", "_tags": {"addr:city": "Mărăcineni", "amenity": "hospital", "check_date": "2025-09-02", "healthcare": "hospital", "name": "Medinvest Spital"}}, {"name": "Clinica Ortopedicum", "latitude": 44.461389, "longitude": 26.1003328, "source": "osm", "_tags": {"addr:city": "București", "addr:housenumber": "40-44", "addr:street": "Strada Banul Antonache", "amenity": "hospital", "name": "Clinica Ortopedicum", "name:en": "Ortopedicum clinic", "opening_hours": "Mo-Fr 10:00-20:00; Sa 10:00-14:00", "phone": "0746223500"}}, {"name": "Clinica Sante", "latitude": 44.9913489, "longitude": 26.2338918, "source": "osm", "_tags": {"amenity": "hospital", "healthcare": "hospital", "name": "Clinica Sante"}}, {"name": "Spitalul de Urgenta Prof. Dr. Agrippa Ionescu", "latitude": 44.4585985, "longitude": 26.0795859, "source": "osm", "_tags": {"amenity": "hospital", "emergency": "yes", "healthcare": "hospital", "name": "Spitalul de Urgenta Prof. Dr. Agrippa Ionescu", "phone": "+4 0377.72.0000", "website": "https://spitalulagrippaionescu.ro/", "wikidata": "Q124726644"}}, {"name": "Spitalul Universitar de Urgență Militar Central „Dr. Carol Davila”", "latitude": 44.4429665, "longitude": 26.0749299, "source": "osm", "_tags": {"addr:city": "București", "addr:housenumber": "134", "addr:postcode": "010905", "addr:street": "Calea Plevnei", "alt_name": "Spitalul Militar Central", "alt_name:en": "Bucharest Central Military Hospital", "amenity": "hospital", "emergency": "yes", "healthcare": "hospital", "heritage": "2", "heritage:operator": "lmi", "name": "Spitalul Universitar de Urgență Militar Central „Dr. Carol Davila”", "name:en": "Central Military Universitary Emergency Hospital \"Carol Davila\"", "operator:type": "public", "ref:RO:lmi": "B-II-a-A-19408", "short_name": "SUUMC", "source:addr:housenumber": "survey", "source:addr:street": "survey", "start_date": "1831", "website": "https://www.scumc.ro/", "wikidata": "Q18541888", "wikipedia": "ro:Spitalul Universitar de Urgență Militar Central „Dr. Carol Davila”"}}, {"name": "Spitalul Filantropia", "latitude": 44.4535123, "longitude": 26.0819245, "source": "osm", "_tags": {"addr:city": "București", "addr:country": "RO", "addr:housenumber": "11-13", "addr:postcode": "011171", "addr:street": "Bulevardul Ion Mihalache", "amenity": "hospital", "emergency": "no", "full_name": "Spitalul Clinic de Obstetrică și Ginecologie Filantropia", "healthcare": "hospital", "healthcare:speciality": "gynaecology", "name": "Spitalul Filantropia", "name:en": "Filantropia Hospital", "name:ro": "Spitalul Filantropia", "operator": "Administrația Spitalelor și Serviciilor Medicale București", "operator:type": "public", "phone": "+40 21 318 89 30", "start_date": "1813", "website": "https://spitalulfilantropia.ro/", "wikidata": "Q18548047", "wikimedia_commons": "Category:Filantropia Hospital, Bucharest", "wikipedia": "ro:Spitalul Clinic de Obstetrică și Ginecologie Filantropia"}}, {"name": "INHT C.T Nicolau", "latitude": 44.4539658, "longitude": 26.0799803, "source": "osm", "_tags": {"amenity": "hospital", "is_in:city": "București", "name": "INHT C.T Nicolau"}}, {"name": "Spitalul Clinic de Urgență pentru Copii „Grigore Alexandrescu”", "latitude": 44.4518507, "longitude": 26.0918832, "source": "osm", "_tags": {"addr:city": "București", "addr:housenumber": "30", "addr:postcode": "010623", "addr:street": "Bulevardul Iancu de Hunedoara", "amenity": "hospital", "emergency": "yes", "healthcare": "hospital", "healthcare:speciality": "paediatrics", "is_in:city": "București", "name": "Spitalul Clinic de Urgență pentru Copii „Grigore Alexandrescu”", "name:en": "Grigore Alexandrescu Children's Emergency Clinical Hospital"}}, {"name": "Spitalul Fundeni", "latitude": 44.4647593, "longitude": 26.1551711, "source": "osm", "_tags": {"amenity": "hospital", "emergency": "yes", "healthcare": "hospital", "is_in:city": "București", "name": "Spitalul Fundeni", "name:en": "Fundeni Hospital", "website": "https://www.icfundeni.ro/", "wikidata": "Q12730478", "wikipedia": "ro:Institutul Clinic Fundeni"}}, {"name": "Spitalul Dr. Panait Sîrbu - Maternitatea Giulești", "latitude": 44.4498751, "longitude": 26.0603749, "source": "osm", "_tags": {"addr:city": "București", "addr:housenumber": "5", "addr:postcode": "060251", "addr:street": "Calea Giulești", "amenity": "hospital", "building": "yes", "healthcare": "hospital", "is_in:city": "București", "name": "Spitalul Dr. Panait Sîrbu - Maternitatea Giulești"}}, {"name": "Spitalul Clinic nr.1 C.F. Witing", "latitude": 44.4427886, "longitude": 26.072121, "source": "osm", "_tags": {"addr:city": "București", "addr:housenumber": "162-164", "addr:postcode": "010243", "addr:street": "Calea Plevnei", "amenity": "hospital", "building": "yes", "building:levels": "5", "emergency": "yes", "healthcare": "hospital", "name": "Spitalul Clinic nr.1 C.F. Witing", "source:addr:housenumber": "survey", "source:addr:street": "survey"}}, {"name": "Spitalul Clinic de Urgență Prof. Dr. Agrippa Ionescu", "latitude": 44.6460682, "longitude": 26.1201508, "source": "osm", "_tags": {"addr:city": "Balotești", "addr:housenumber": "149", "addr:postcode": "077015", "addr:street": "Strada Ion Constantin Brătianu", "amenity": "hospital", "building": "hospital", "emergency": "yes", "healthcare": "hospital", "internet_access": "wlan", "name": "Spitalul Clinic de Urgență Prof. Dr. Agrippa Ionescu", "operator": "Serviciul Român de Informații", "website": "https://www.spitalulagrippaionescu.ro/"}}, {"name": "Institutul Național de Boli Infecțioase \"Profesor Doctor Matei Balș\"", "latitude": 44.4554422, "longitude": 26.1134227, "source": "osm", "_tags": {"amenity": "hospital", "healthcare": "hospital", "name": "Institutul Național de Boli Infecțioase \"Profesor Doctor Matei Balș\""}}, {"name": "Institutul Național pentru Sănătatea Mamei și Copilului „Alessandrescu-Rusescu”", "latitude": 44.4626643, "longitude": 26.1229627, "source": "osm", "_tags": {"amenity": "hospital", "name": "Institutul Național pentru Sănătatea Mamei și Copilului „Alessandrescu-Rusescu”"}}, {"name": "Institutul de Endocrinologie \"C I Parhon\"", "latitude": 44.4603487, "longitude": 26.0874915, "source": "osm", "_tags": {"amenity": "hospital", "barrier": "wall", "healthcare": "hospital", "healthcare:speciality": "endocrinology", "name": "Institutul de Endocrinologie \"C I Parhon\""}}, {"name": "Spitalul Clinic de Boli Infecțioase și Tropicale “Dr. Victor Babeș”", "latitude": 44.4267514, "longitude": 26.1394851, "source": "osm", "_tags": {"addr:city": "București", "addr:housenumber": "281", "addr:postcode": "030303", "addr:street": "Șoseaua Mihai Bravu", "alt_name": "Spitalul Victor Babeș;Fundatia \"Dr. Victor Babes\"", "alt_name:en": "Victor Babes Hospital", "amenity": "hospital", "barrier": "fence", "emergency": "yes", "healthcare": "hospital", "is_in:city": "București", "name": "Spitalul Clinic de Boli Infecțioase și Tropicale “Dr. Victor Babeș”", "name:en": "Clinical Hospital of Infectious and Tropical Diseases “Dr. Victor Babes”"}}, {"name": "Spitalul de Ortopedie MedLife", "latitude": 44.4429037, "longitude": 26.1281937, "source": "osm", "_tags": {"addr:city": "București", "addr:housenumber": "98-100", "addr:postcode": "021394", "addr:postcode:source": "Date de la Poșta Română, publicate sub Licența pentru Guvernare Deschisă v1.0 la http://date.gov.ro/organization/posta-romana", "addr:street": "Bulevardul Ferdinand I", "amenity": "hospital", "building": "yes", "building:levels": "4", "healthcare": "hospital", "healthcare:speciality": "orthopaedics;surgery", "name": "Spitalul de Ortopedie MedLife", "operator": "MedLife", "operator:type": "private", "source": "survey", "wheelchair": "yes"}}, {"name": "Spitalul Clinic Județean de Urgență Ilfov", "latitude": 44.4348371, "longitude": 26.1571821, "source": "osm", "_tags": {"amenity": "hospital", "healthcare": "hospital", "name": "Spitalul Clinic Județean de Urgență Ilfov"}}, {"name": "Spitalul Județean de Urgență Ploiești", "latitude": 44.9627262, "longitude": 26.0093939, "source": "osm", "_tags": {"addr:housenumber": "100", "addr:street": "Strada Găgeni", "amenity": "hospital", "emergency": "yes", "healthcare": "hospital", "name": "Spitalul Județean de Urgență Ploiești", "name:en": "County Emergency Hospital Ploiesti", "operator": "Consiliul Județean Prahova", "operator:type": "government", "website": "https://www.sjup.ro/"}}, {"name": "Spitalul Prof. Dr. Constantin Angelescu", "latitude": 44.4280142, "longitude": 26.1132647, "source": "osm", "_tags": {"addr:city": "București", "addr:housenumber": "49", "addr:postcode": "030803", "addr:postcode:source": "Date de la Poșta Română, publicate sub Licența pentru Guvernare Deschisă v1.0 la http://date.gov.ro/organization/posta-romana", "addr:street": "Aleea Căuzași", "amenity": "hospital", "healthcare": "hospital", "is_in:city": "București", "name": "Spitalul Prof. Dr. Constantin Angelescu"}}, {"name": "Spitalul de Urgență \"Prof. Dr. Dimitrie Gerota\"", "latitude": 44.4406093, "longitude": 26.1235511, "source": "osm", "_tags": {"addr:city": "București", "addr:housenumber": "29-31", "addr:street": "Strada Vasile Vasilievici Stroescu", "amenity": "hospital", "contact:email": "spital.gerota@mai.gov.ro", "contact:phone": "+40 21 303 7080;+40 21 252 3334;+40 21 252 3110", "fax": "+40 21 252 2829", "healthcare": "hospital", "name": "Spitalul de Urgență \"Prof. Dr. Dimitrie Gerota\""}}, {"name": "Spitalul Clinic \"Doctor Ioan Cantacuzino\"", "latitude": 44.4445815, "longitude": 26.1097721, "source": "osm", "_tags": {"addr:city": "București", "addr:housenumber": "5-7", "addr:postcode": "020475", "addr:street": "Strada Ion Movilă", "amenity": "hospital", "emergency": "yes", "healthcare": "hospital", "is_in:city": "București", "name": "Spitalul Clinic \"Doctor Ioan Cantacuzino\"", "operator": "Ministerul Sănătății", "phone": "+40212107100", "website": "https://www.spitalul-cantacuzino.ro/", "wheelchair": "limited"}}, {"name": "Policlinica - Ambulatoriu Integrat - Spitalul Orășenesc Urlați", "latitude": 44.9953889, "longitude": 26.2314932, "source": "osm", "_tags": {"amenity": "hospital", "building": "yes", "healthcare": "hospital", "name": "Policlinica - Ambulatoriu Integrat - Spitalul Orășenesc Urlați"}}, {"name": "Spitalul Municipal Ploiești (Schuller)", "latitude": 44.9313506, "longitude": 26.020256, "source": "osm", "_tags": {"addr:city": "Ploiești", "addr:housenumber": "59", "addr:street": "Strada Ana Ipătescu", "amenity": "hospital", "healthcare": "hospital", "name": "Spitalul Municipal Ploiești (Schuller)", "operator": "Consiliul Local al Municipiului Ploieşti", "operator:type": "government", "website": "https://spitalulmunicipalploiesti.ro/"}}, {"name": "Spitalul Boldescu", "latitude": 44.9498034, "longitude": 26.0247518, "source": "osm", "_tags": {"addr:city": "Ploiești", "addr:housenumber": "3", "addr:street": "Strada Boldescu", "amenity": "hospital", "healthcare": "hospital", "name": "Spitalul Boldescu", "operator": "Spitalul Județean de Urgență Ploiești", "operator:type": "government", "website": "https://www.sjup.ro/contact/"}}, {"name": "Policlinica CINA", "latitude": 44.9521898, "longitude": 26.0117211, "source": "osm", "_tags": {"addr:city": "Ploiești", "addr:housenumber": "56", "addr:street": "Strada Andrei Mureșanu", "amenity": "hospital", "barrier": "fence", "healthcare": "hospital", "name": "Policlinica CINA"}}, {"name": "Spitalul Clinic de Chirurgie Oro-Maxilo-Facială \"Prof. Dr. Dan Theodorescu\"", "latitude": 44.4355968, "longitude": 26.0854739, "source": "osm", "_tags": {"addr:city": "București", "addr:country": "RO", "addr:housenumber": "17-21", "addr:postcode": "010221", "addr:street": "Calea Plevnei", "amenity": "hospital", "building": "yes", "building:levels": "4", "healthcare": "hospital", "healthcare:speciality": "dental_oral_maxillo_facial_surgery", "name": "Spitalul Clinic de Chirurgie Oro-Maxilo-Facială \"Prof. Dr. Dan Theodorescu\"", "phone": "+021 315 5217", "website": "https://spitalomf.ro/"}}, {"name": "Spitalul Clinic de Urgență Chirurgie Plastică, Reparatorie și Arsuri", "latitude": 44.4640424, "longitude": 26.0563829, "source": "osm", "_tags": {"amenity": "hospital", "building": "yes", "check_date": "2024-04-19", "name": "Spitalul Clinic de Urgență Chirurgie Plastică, Reparatorie și Arsuri", "source": "survey"}}, {"name": "Centrul de diagnostic și tratament Dorobanți", "latitude": 44.4486592, "longitude": 26.1003956, "source": "osm", "_tags": {"addr:city": "București", "addr:country": "RO", "addr:housenumber": "32A", "addr:postcode": "010573", "addr:street": "Calea Dorobanților", "amenity": "hospital", "building": "clinic", "building:levels": "4", "name": "Centrul de diagnostic și tratament Dorobanți"}}, {"name": "Spitalul Clinic de Nefrologie Dr. Carol Davila", "latitude": 44.4445245, "longitude": 26.0897946, "source": "osm", "_tags": {"amenity": "hospital", "building": "yes", "name": "Spitalul Clinic de Nefrologie Dr. Carol Davila", "wikidata": "Q30269491"}}, {"name": "Spitalul Wellborn", "latitude": 44.4381818, "longitude": 26.0228719, "source": "osm", "_tags": {"addr:city": "București", "addr:housenumber": "27-29", "addr:postcode": "061013", "addr:street": "Strada Dezrobirii", "amenity": "hospital", "building": "yes", "building:levels": "4", "email": "office@wellborn.ro", "healthcare": "hospital", "healthcare:speciality": "gynaecology;ophthalmology;orthopaedics;biology;radiology;urology;surgery;cardiology;covid19", "name": "Spitalul Wellborn", "operator": "Promed System", "operator:type": "private", "phone": "031.9105", "source:addr:housenumber": "survey", "source:addr:street": "survey", "website": "https://www.wellborn.ro/", "wheelchair": "yes"}}, {"name": "Spitalul Orășenesc Vălenii de Munte", "latitude": 45.1759952, "longitude": 26.0354046, "source": "osm", "_tags": {"addr:city": "Vălenii de Munte", "addr:housenumber": "10", "addr:street": "Bulevardul Nicolae Iorga", "amenity": "hospital", "barrier": "fence", "healthcare": "hospital", "name": "Spitalul Orășenesc Vălenii de Munte"}}, {"name": "Spitalul Orășenesc Nehoiu", "latitude": 45.4201054, "longitude": 26.3009736, "source": "osm", "_tags": {"amenity": "hospital", "healthcare": "hospital", "name": "Spitalul Orășenesc Nehoiu"}}, {"name": "Spitalul Clinic de Ortopedie \"Foișor\" - Ambulator", "latitude": 44.4406791, "longitude": 26.1215463, "source": "osm", "_tags": {"amenity": "hospital", "building": "yes", "healthcare": "hospital", "name": "Spitalul Clinic de Ortopedie \"Foișor\" - Ambulator", "source": "survey"}}, {"name": "Clinica Medicala - Lotus Med", "latitude": 44.450445, "longitude": 26.1064344, "source": "osm", "_tags": {"addr:city": "București", "addr:housenumber": "44", "addr:postcode": "020528", "addr:street": "Strada Tunari", "amenity": "hospital", "building": "office", "email": "contact@lotus-med.ro", "emergency": "no", "healthcare": "hospital", "healthcare:speciality": "general;ophthalmology;biology", "name": "Clinica Medicala - Lotus Med", "operator": "Lotus Med", "operator:type": "private", "phone": "0219989", "source": "survey;local knowledge"}}, {"name": "Centru de recuperare și reabilitare neuropsihiatrică", "latitude": 44.4679753, "longitude": 26.1529158, "source": "osm", "_tags": {"addr:city": "București", "addr:street": "Strada Balotului", "amenity": "clinic", "building": "yes", "healthcare": "hospital", "name": "Centru de recuperare și reabilitare neuropsihiatrică"}}, {"name": "Ponderas Academic Hospital", "latitude": 44.483378, "longitude": 26.0915239, "source": "osm", "_tags": {"addr:city": "București", "addr:housenumber": "85 A", "addr:street": "Strada Nicolae G. Caranfil", "alt_name": "Ponderas Regina Maria", "amenity": "hospital", "building": "hospital", "building:levels": "7", "emergency": "yes", "healthcare": "hospital", "name": "Ponderas Academic Hospital", "name:ro": "Spitalul Academic Ponderas", "operator": "Regina Maria", "operator:type": "private", "source:addr:housenumber": "survey"}}, {"name": "Spitalul Clinic Sanador", "latitude": 44.4497991, "longitude": 26.08425, "source": "osm", "_tags": {"addr:city": "București", "addr:country": "RO", "addr:housenumber": "9", "addr:postcode": "010991", "addr:street": "Strada Sevastopol", "amenity": "hospital", "building": "hospital", "building:levels": "10", "emergency": "yes", "healthcare": "hospital", "height": "34", "name": "Spitalul Clinic Sanador", "name:ro": "Spitalul Clinic Sanador", "operator:type": "private", "source": "survey", "website": "https://www.sanador.ro/spitalulsanador", "wikidata": "Q20432712", "wikipedia": "ro:Sanador"}}, {"name": "DentiRAD", "latitude": 45.0455539, "longitude": 25.9525851, "source": "osm", "_tags": {"addr:city": "Plopeni", "addr:housenumber": "8-10", "addr:street": "Bulevardul Republicii", "amenity": "hospital", "emergency": "no", "name": "DentiRAD"}}, {"name": "Spitalul Clinic Nicolae Malaxa", "latitude": 44.4382607, "longitude": 26.1788052, "source": "osm", "_tags": {"addr:city": "București", "addr:housenumber": "12", "addr:postcode": "022448", "addr:postcode:source": "Date de la Poșta Română, publicate sub Licența pentru Guvernare Deschisă v1.0 la http://date.gov.ro/organization/posta-romana", "addr:street": "Șoseaua Vergului", "amenity": "hospital", "building": "yes", "healthcare": "hospital", "is_in": "București", "name": "Spitalul Clinic Nicolae Malaxa"}}, {"name": "Spitalul Clinic Colentina", "latitude": 44.4538871, "longitude": 26.1135237, "source": "osm", "_tags": {"addr:city": "București", "addr:housenumber": "19-21", "addr:street": "Șoseaua Ștefan cel Mare", "amenity": "hospital", "emergency": "no", "healthcare": "hospital", "healthcare:speciality": "general", "name": "Spitalul Clinic Colentina", "name:en": "Colentina Clinical Hospital", "opening_hours": "24/7", "phone": "+4 021 3173245", "start_date": "1858", "website": "http://spitalulcolentina.ro", "wikidata": "Q30280101"}}, {"name": "Spitalul de Psihiatrie Nifon", "latitude": 45.2635576, "longitude": 26.5537686, "source": "osm", "_tags": {"alt_name": "Fostul schit Nifon", "amenity": "hospital", "barrier": "fence", "healthcare": "hospital", "heritage": "2", "heritage:operator": "lmi", "name": "Spitalul de Psihiatrie Nifon", "ref:RO:lmi": "BZ-II-a-B-02387"}}, {"name": "Secția Nifon", "latitude": 45.2639028, "longitude": 26.5539453, "source": "osm", "_tags": {"amenity": "hospital", "building": "yes", "name": "Secția Nifon"}}, {"name": "Institutul Național de Expertiză Medicală și Recuperare a Capacității de Muncă", "latitude": 44.4260454, "longitude": 26.0718808, "source": "osm", "_tags": {"amenity": "hospital", "barrier": "fence", "name": "Institutul Național de Expertiză Medicală și Recuperare a Capacității de Muncă"}}, {"name": "Spitalul Euroclinic - Regina Maria", "latitude": 44.4545229, "longitude": 26.1010831, "source": "osm", "_tags": {"addr:city": "București", "addr:housenumber": "14 A", "addr:street": "Calea Floreasca", "amenity": "hospital", "building": "hospital", "building:levels": "7", "healthcare": "hospital", "name": "Spitalul Euroclinic - Regina Maria", "operator": "Regina Maria", "operator:type": "private", "roof:levels": "0"}}, {"name": "Institutul de diabet Paulescu", "latitude": 44.4559101, "longitude": 26.0765007, "source": "osm", "_tags": {"amenity": "hospital", "building": "hospital", "name": "Institutul de diabet Paulescu"}}, {"name": "Spitalul Clinic de Urgențe Oftalmologice", "latitude": 44.4458848, "longitude": 26.1001868, "source": "osm", "_tags": {"addr:city": "București", "addr:housenumber": "1", "addr:street": "Piața Lahovari", "amenity": "hospital", "building": "hospital", "building:levels": "7", "emergency": "yes", "healthcare": "hospital", "healthcare:speciality": "ophthalmology", "name": "Spitalul Clinic de Urgențe Oftalmologice", "name:en": "Clinical Hospital for Ophthalmological Emergencies", "operator": "Romanian health system", "roof:shape": "flat", "wheelchair": "limited"}}, {"name": "ProfDIAGNOSIS", "latitude": 44.711134, "longitude": 26.638006, "source": "osm", "_tags": {"addr:city": "Urziceni", "addr:housenumber": "11", "addr:postcode": "925300", "addr:street": "Strada Mihai Eminescu", "amenity": "hospital", "building": "yes", "emergency": "no", "healthcare": "hospital", "name": "ProfDIAGNOSIS", "phone": "0243.257755;0372.920755;0727.711170;0731.315407", "website": "http://www.profdiagnosis.ro"}}, {"name": "Medicover Pipera", "latitude": 44.4786394, "longitude": 26.1197693, "source": "osm", "_tags": {"addr:city": "București", "addr:housenumber": "11G", "addr:postcode": "020331", "addr:street": "Șoseaua Fabrica de Glucoză", "amenity": "hospital", "building:levels": "10", "healthcare": "hospital", "name": "Medicover Pipera", "operator": "Medicover", "roof:levels": "0"}}, {"name": "Spitalul Orășenesc Slănic", "latitude": 45.2406792, "longitude": 25.9398058, "source": "osm", "_tags": {"addr:city": "Slănic", "addr:street": "Aleea Spitalului", "amenity": "hospital", "building": "yes", "name": "Spitalul Orășenesc Slănic"}}, {"name": "", "latitude": 45.1491315, "longitude": 26.82294, "source": "osm", "_tags": {"addr:city": "Buzău", "addr:housenumber": "5", "addr:postcode": "120194", "addr:postcode:source": "Date de la Poșta Română, publicate sub Licența pentru Guvernare Deschisă v1.0 la http://date.gov.ro/organization/posta-romana", "addr:street": "Strada Crizantemelor", "amenity": "hospital", "healthcare": "hospital", "phone": "0238 712 607", "website": "http://www.spitalulsfsava.ro/"}}, {"name": "", "latitude": 45.1436064, "longitude": 26.8367182, "source": "osm", "_tags": {"amenity": "hospital", "building": "yes", "building:levels": "3", "healthcare": "hospital"}}, {"name": "Spitalul Monza", "latitude": 44.4390375, "longitude": 26.1490091, "source": "osm", "_tags": {"addr:city": "București", "addr:housenumber": "27", "addr:postcode": "021967", "addr:street": "Strada Tony Bulandra", "amenity": "hospital", "building": "hospital", "building:levels": "7", "emergency": "no", "healthcare": "hospital", "name": "Spitalul Monza", "roof:levels": "0", "roof:shape": "flat"}}, {"name": "Spitalul de Neuropsihiatrie Săpoca", "latitude": 45.238776, "longitude": 26.7455318, "source": "osm", "_tags": {"amenity": "hospital", "barrier": "fence", "healthcare": "hospital", "healthcare:speciality": "psychiatry;physiatry", "name": "Spitalul de Neuropsihiatrie Săpoca"}}, {"name": "Medlife", "latitude": 44.4650562, "longitude": 26.0542075, "source": "osm", "_tags": {"addr:street": "Calea Griviței", "alt_name": "Hyperclinica MedLife Grivița", "amenity": "hospital", "building": "hospital", "building:levels": "2", "name": "Medlife"}}, {"name": "Spitalul de Obstetrică și Ginecologie Ploiești", "latitude": 44.9390061, "longitude": 26.0391928, "source": "osm", "_tags": {"addr:city": "Ploiești", "addr:housenumber": "116", "addr:street": "Strada Mihai Bravu", "amenity": "hospital", "healthcare": "hospital", "healthcare:speciality": "gynaecology", "name": "Spitalul de Obstetrică și Ginecologie Ploiești", "operator": "Consiliul Județean Prahova", "operator:type": "government", "website": "http://www.maternitate-ploiesti.ro/"}}, {"name": "Servicii Geriatrie și Asistență Medicală ”Sf. Sava și Teodosie cel Mare”", "latitude": 44.4569186, "longitude": 26.2819187, "source": "osm", "_tags": {"addr:city": "Pantelimon", "addr:housenumber": "2", "addr:postcode": "077145", "addr:street": "Strada Cozieni", "amenity": "hospital", "healthcare": "hospital", "healthcare:speciality": "geriatrics", "name": "Servicii Geriatrie și Asistență Medicală ”Sf. Sava și Teodosie cel Mare”", "operator": "ROmedic", "website": "https://www.romedic.ro/centrul-medical-sf-sava"}}, {"name": "Spitalul de Boli Infecțioase \"Movila\"", "latitude": 44.9497195, "longitude": 25.9995866, "source": "osm", "_tags": {"addr:city": "Ploiești", "addr:housenumber": "271", "addr:street": "Bulevardul Republicii", "amenity": "hospital", "barrier": "wall", "healthcare": "hospital", "name": "Spitalul de Boli Infecțioase \"Movila\"", "operator": "Spitalul Județean de Urgență Ploiești", "operator:type": "government"}}, {"name": "Serviciul de Ambulanță Județean Prahova", "latitude": 44.9417573, "longitude": 25.9925582, "source": "osm", "_tags": {"addr:city": "Ploiești", "addr:housenumber": "24", "addr:street": "Șoseaua Vestului", "amenity": "hospital", "barrier": "fence", "healthcare": "hospital", "name": "Serviciul de Ambulanță Județean Prahova", "name:en": "Prahova County Public Ambulance Service", "name:ro": "Serviciul de Ambulanță Județean Prahova", "operator": "Ministerul Sănătății", "website": "http://www.ambulantaprahova.ro"}}, {"name": "Centrul de Transfuzie Sanguină", "latitude": 44.9423745, "longitude": 25.9926678, "source": "osm", "_tags": {"amenity": "hospital", "barrier": "fence", "healthcare": "hospital", "name": "Centrul de Transfuzie Sanguină"}}, {"name": "Spital modular COVID-19 (închis)", "latitude": 44.4862244, "longitude": 26.1121396, "source": "osm", "_tags": {"addr:city": "București", "addr:street": "Șoseaua Pipera", "amenity": "hospital", "building": "yes", "healthcare": "hospital", "name": "Spital modular COVID-19 (închis)", "operator": "Spitalul Victor Babeș", "operator:type": "government"}}, {"name": "Dispensar Varbilau", "latitude": 45.1801327, "longitude": 25.9596783, "source": "osm", "_tags": {"amenity": "hospital", "healthcare": "hospital", "name": "Dispensar Varbilau"}}, {"name": "Spitalul Clinic CF nr. 2", "latitude": 44.47391, "longitude": 26.0693723, "source": "osm", "_tags": {"addr:city": "București", "addr:housenumber": "63", "addr:postcode": "012244", "addr:street": "Bulevardul Mărăști", "amenity": "hospital", "emergency": "yes", "healthcare": "hospital", "name": "Spitalul Clinic CF nr. 2", "phone": "+40 372.298.711", "website": "https://www.spcf2.ro/"}}, {"name": "Spitalul General C.F. Ploiești", "latitude": 44.9265872, "longitude": 25.9971193, "source": "osm", "_tags": {"addr:city": "Ploiești", "addr:housenumber": "93", "addr:street": "Strada Domnișori", "amenity": "hospital", "healthcare": "hospital", "name": "Spitalul General C.F. Ploiești", "operator": "Ministerul Transporturilor", "operator:type": "government", "website": "https://www.spitalcfploiesti.ro/"}}, {"name": "Spitalul Lotus", "latitude": 44.9392685, "longitude": 26.0166405, "source": "osm", "_tags": {"addr:city": "Ploiești", "addr:housenumber": "43", "addr:street": "Strada Gheorghe Grigore Cantacuzino", "amenity": "hospital", "contact:email": "office@spital-lotus.ro", "contact:phone": "+40 244 510 808", "contact:website": "https://spital-lotus.ro/", "emergency": "yes", "healthcare": "hospital", "name": "Spitalul Lotus"}}, {"name": "Sfânta Sofia Hospital Med Bălțești", "latitude": 45.1117101, "longitude": 26.1369411, "source": "osm", "_tags": {"addr:city": "Bălțești", "addr:housenumber": "233 D", "addr:postcode": "107045", "addr:street": "Strada Principală", "amenity": "hospital", "barrier": "fence", "healthcare": "hospital", "name": "Sfânta Sofia Hospital Med Bălțești", "website": "http://sfantasofia.ro/"}}, {"name": "Spitalul Buna Vestire", "latitude": 44.9389605, "longitude": 26.0312717, "source": "osm", "_tags": {"addr:city": "Ploiești", "addr:housenumber": "1-3", "addr:street": "Strada Buna Vestire", "amenity": "hospital", "healthcare": "hospital", "heritage:website": "https://republicaploiesti.net/2016/01/requiem-pentru-un-spital.html", "loc_name": "Fosta Maternitate", "name": "Spitalul Buna Vestire", "old_name": "Spitalul Gheorghe și Ana Constantinescu", "old_name2": "Spitalul unificat Donca Simo", "operator": "Spitalul Județean de Urgență Ploiești", "operator:type": "government", "start_date": "1900", "website": "https://www.sjup.ro/"}}, {"name": "Unitate Primiri Urgente", "latitude": 44.9621745, "longitude": 26.0085615, "source": "osm", "_tags": {"amenity": "hospital", "healthcare": "hospital", "name": "Unitate Primiri Urgente"}}, {"name": "Policlinica Praga", "latitude": 44.9426328, "longitude": 26.0308354, "source": "osm", "_tags": {"addr:city": "Ploiești", "addr:housenumber": "1", "addr:street": "Strada Praga", "amenity": "hospital", "barrier": "fence", "healthcare": "hospital", "name": "Policlinica Praga", "website": "https://www.laboratorpraga.ro"}}, {"name": "Spitalul Municipal Ploiești (Schuller)", "latitude": 44.9302401, "longitude": 26.0215516, "source": "osm", "_tags": {"amenity": "hospital", "barrier": "fence", "healthcare": "hospital", "name": "Spitalul Municipal Ploiești (Schuller)", "operator": "Consiliul Local al Municipiului Ploieşti", "operator:type": "government", "website": "https://spitalulmunicipalploiesti.ro/"}}, {"name": "Spitalul Județean de Urgență Ploiești Secția Pneumologie", "latitude": 44.9459183, "longitude": 26.0400276, "source": "osm", "_tags": {"addr:city": "Ploiești", "addr:housenumber": "2", "addr:street": "Strada Oborului", "amenity": "hospital", "emergency": "yes", "healthcare": "hospital", "healthcare:speciality": "pulmonology", "name": "Spitalul Județean de Urgență Ploiești Secția Pneumologie"}}, {"name": "Spitalul de Pediatrie Ploieşti", "latitude": 44.9319565, "longitude": 26.0265014, "source": "osm", "_tags": {"addr:city": "Ploiești", "addr:housenumber": "4-6", "addr:street": "Strada Mihai Eminescu", "alt_name": "Spitalul Petrolul", "amenity": "hospital", "barrier": "fence", "emergency": "yes", "healthcare": "hospital", "name": "Spitalul de Pediatrie Ploieşti", "name:en": "Ploieşti Pediatric Hospital", "opening_hours": "24/7", "operator": "Consiliul Local al Municipiului Ploieşti", "operator:type": "government", "website": "https://www.spitalpediatrie.ro/"}}, {"name": "Spitalul Sfântul Anton", "latitude": 44.9942478, "longitude": 25.9806005, "source": "osm", "_tags": {"addr:housenumber": "79", "addr:street": "Paulestii Noi", "amenity": "hospital", "building": "hospital", "healthcare": "hospital", "name": "Spitalul Sfântul Anton", "operator": "MediUrg", "operator:type": "private", "website": "http://www.mediurg.ro/spital/"}}, {"name": "Enayati Medical City", "latitude": 44.501239, "longitude": 26.0682538, "source": "osm", "_tags": {"addr:city": "București", "addr:housenumber": "8A", "addr:postcode": "013767", "addr:street": "Șoseaua Gheorghe Ionescu Sisești", "amenity": "hospital", "emergency": "yes", "healthcare": "hospital", "image": "https://enayatimedicalcity.ro/wp-content/uploads/2022/05/emc-exterior.jpg", "name": "Enayati Medical City"}}, {"name": "Spitalul Feroviar", "latitude": 45.1436114, "longitude": 26.8370379, "source": "osm", "_tags": {"addr:city": "Buzău", "addr:housenumber": "8-12", "addr:postcode": "120121", "addr:street": "Bulevardul Republicii", "amenity": "hospital", "barrier": "wall", "description": "Spitalul General Căi Ferate Galaţi, Sectia Exterioara cu paturi Buzău.", "healthcare": "hospital", "name": "Spitalul Feroviar", "operator": "Spitalul General Căi Ferate Galaţi", "operator:type": "government", "website": "https://www.spitalgeneralcfgalati.ro/"}}, {"name": "Spitalul Orăşenesc Urlați", "latitude": 44.9907202, "longitude": 26.2404628, "source": "osm", "_tags": {"addr:city": "Urlați", "addr:housenumber": "52", "addr:street": "Bulevardul Independenței", "amenity": "hospital", "barrier": "fence", "healthcare": "hospital", "name": "Spitalul Orăşenesc Urlați", "website": "http://spitalulurlati.ro"}}, {"name": "Spitalul Clinic Prof. Dr. Theodor Burghele", "latitude": 44.4255827, "longitude": 26.0726747, "source": "osm", "_tags": {"addr:city": "București", "addr:housenumber": "20", "addr:postcode": "061344", "addr:street": "Șoseaua Panduri", "amenity": "hospital", "barrier": "fence", "emergency": "yes", "healthcare": "hospital", "name": "Spitalul Clinic Prof. Dr. Theodor Burghele", "name:en": "Professor Doctor Theodor Burghele Clinical Hospital", "phone": "+40214106910"}}, {"name": "Institutul ORL", "latitude": 44.4256269, "longitude": 26.0745497, "source": "osm", "_tags": {"addr:city": "București", "amenity": "hospital", "barrier": "fence", "healthcare": "hospital", "name": "Institutul ORL", "official_name": "Institutul de Fonoaudiologie și Chirurgie Funcțională ORL Profesor Doctor Dorin Hociotă"}}, {"name": "Spitalul de Pediatrie Ploiești - Centru Sănătate Mintală Copii", "latitude": 44.9337562, "longitude": 26.0070772, "source": "osm", "_tags": {"addr:city": "Ploiești", "addr:housenumber": "127", "addr:street": "Strada Tudor Vladimirescu", "amenity": "hospital", "barrier": "fence", "healthcare": "hospital", "name": "Spitalul de Pediatrie Ploiești - Centru Sănătate Mintală Copii", "operator": "Spitalul de Pediatrie Ploiești"}}, {"name": "Spitalul Ana Aslan", "latitude": 44.5775369, "longitude": 26.0656004, "source": "osm", "_tags": {"addr:city": "Otopeni", "addr:country": "RO", "addr:housenumber": "307", "addr:postcode": "075100", "addr:street": "Calea Bucureștilor", "amenity": "hospital", "healthcare": "hospital", "healthcare:speciality": "geriatrics", "name": "Spitalul Ana Aslan", "name:en": "Ana Aslan Hospital", "name:ro": "Spitalul Ana Aslan", "official_name": "Institutul Național de Gerontologie Ana Aslan", "official_name:en": "Ana Aslan National Institute of Gerontology", "official_name:ro": "Institutul Național de Gerontologie Ana Aslan", "opening_hours": "Mo-Su 09:00-20:00", "operator": "Ministerului Sănătății", "operator:type": "public", "phone": "+40 31 805 94 01", "start_date": "1952", "website": "https://ana-aslan.ro/"}}, {"name": "Spitalul Clinic de Urgență Sfântul Pantelimon", "latitude": 44.4412468, "longitude": 26.1729565, "source": "osm", "_tags": {"addr:city": "București", "addr:housenumber": "340-342", "addr:street": "Șoseaua Pantelimon", "amenity": "hospital", "barrier": "fence", "emergency": "yes", "healthcare": "hospital", "name": "Spitalul Clinic de Urgență Sfântul Pantelimon", "name:en": "Clinical Emergency Hospital Saint Pantelimon", "opening_hours": "24/7", "website": "https://urgentapantelimon.ro/"}}, {"name": "Spitaul de psihiatrie și pentru măsuri de sigurantă Săpoca", "latitude": 45.279306, "longitude": 26.6497635, "source": "osm", "_tags": {"amenity": "hospital", "healthcare": "hospital", "healthcare:speciality": "psychiatry;physiatry", "name": "Spitaul de psihiatrie și pentru măsuri de sigurantă Săpoca"}}, {"name": "Spitalul Universitar de Urgență Elias", "latitude": 44.4659572, "longitude": 26.0740855, "source": "osm", "_tags": {"addr:city": "București", "addr:housenumber": "17", "addr:postcode": "011461", "addr:street": "Bulevardul Mărăști", "amenity": "hospital", "emergency": "yes", "healthcare": "hospital", "name": "Spitalul Universitar de Urgență Elias", "name:en": "Elias University Emergency Hospital", "phone": "+40 21 316 1600", "start_date": "1936", "website": "http://www.spitalul-elias.ro/"}}, {"name": "Spitalul de Pneumoftiziologie Sfântul Ștefan", "latitude": 44.4536805, "longitude": 26.1054838, "source": "osm", "_tags": {"addr:city": "București", "addr:housenumber": "11", "addr:street": "Șoseaua Ștefan cel Mare", "amenity": "hospital", "emergency": "no", "healthcare": "hospital", "healthcare:speciality": "pneumology", "name": "Spitalul de Pneumoftiziologie Sfântul Ștefan", "operator": "Primaria Capitalei", "operator:type": "public", "phone": "+40 021 210 3936", "start_date": "1963", "website": "https://pneumosfstefan.ro/"}}, {"name": "Spitalul clinic de copii \"Dr. Victor Gomoiu\"", "latitude": 44.4330768, "longitude": 26.1419938, "source": "osm", "_tags": {"amenity": "hospital", "healthcare": "hospital", "name": "Spitalul clinic de copii \"Dr. Victor Gomoiu\""}}, {"name": "Spitalul Clinic de Urgență București", "latitude": 44.45388, "longitude": 26.101545, "source": "osm", "_tags": {"alt_name": "Spitalul de Urgență Floreasca", "alt_name:en": "Bucharest Emergency Clinical Hospital", "amenity": "hospital", "emergency": "yes", "healthcare": "hospital", "name": "Spitalul Clinic de Urgență București", "name:en": "Floreasca Hospital", "operator:type": "public", "website": "http://www.urgentafloreasca.ro/", "wikidata": "Q5460508", "wikipedia": "ro:Spitalul Clinic de Urgență București"}}, {"name": "Spitalul de Boli Contagioase Buzău (fost Gârlași)", "latitude": 45.1463743, "longitude": 26.8274153, "source": "osm", "_tags": {"amenity": "hospital", "healthcare": "hospital", "name": "Spitalul de Boli Contagioase Buzău (fost Gârlași)", "operator": "Spitalul Județen de Urgență Buzău", "operator:type": "public"}}, {"name": "Spitalul Clinic de Ortopedie \"Foișor\"", "latitude": 44.4406855, "longitude": 26.1214467, "source": "osm", "_tags": {"amenity": "hospital", "healthcare": "hospital", "healthcare:speciality": "orthopaedics", "name": "Spitalul Clinic de Ortopedie \"Foișor\""}}, {"name": "Spitalul \"Monza\"", "latitude": 44.4388062, "longitude": 26.1490639, "source": "osm", "_tags": {"amenity": "hospital", "healthcare": "hospital", "name": "Spitalul \"Monza\""}}, {"name": "Spitalul Clinic \"Nicolae Malaxa\"", "latitude": 44.4383371, "longitude": 26.1787735, "source": "osm", "_tags": {"amenity": "hospital", "healthcare": "hospital", "name": "Spitalul Clinic \"Nicolae Malaxa\""}}, {"name": "Spitalul Municipal Urziceni", "latitude": 44.7109004, "longitude": 26.6493562, "source": "osm", "_tags": {"amenity": "hospital", "healthcare": "hospital", "name": "Spitalul Municipal Urziceni"}}, {"name": "Spitalul Băneasa Regina Maria", "latitude": 44.4960281, "longitude": 26.0720731, "source": "osm", "_tags": {"addr:city": "București", "addr:housenumber": "85A", "addr:street": "Strada Constantin Dobrogeanu-Gherea", "amenity": "hospital", "healthcare": "hospital", "name": "Spitalul Băneasa Regina Maria", "website": "https://www.reginamaria.ro/spitale/spitalul-baneasa"}}, {"name": "Spitalul Universitar de Urgență București", "latitude": 44.4360553, "longitude": 26.0719302, "source": "osm", "_tags": {"addr:city": "București", "addr:country": "RO", "addr:housename": "Str. Dr. A.Leonte", "addr:housenumber": "169", "addr:postcode": "050098", "addr:street": "Splaiul Independenței", "amenity": "hospital", "emergency": "yes", "healthcare": "hospital", "name": "Spitalul Universitar de Urgență București", "name:en": "Emergency University Hospital of Bucharest", "operator": "Spitalul Universitar de Urgenta Bucuresti", "operator:type": "public", "phone": "+4 21 3180522", "source": "IT SUUB", "source:addr:housenumber": "survey", "source:addr:street": "survey", "toilets:wheelchair": "no", "website": "https://www.suub.ro/", "wheelchair": "yes"}}, {"name": "Spitalul Polizu", "latitude": 44.4472576, "longitude": 26.0811162, "source": "osm", "_tags": {"addr:city": "București", "addr:country": "RO", "addr:housenumber": "38-52", "addr:postcode": "011062", "addr:street": "Strada Gheorghe Polizu", "amenity": "hospital", "emergency": "yes", "healthcare": "hospital", "healthcare:speciality": "gynaecology;paediatrics", "name": "Spitalul Polizu", "official_name": "Spitalul Clinic de Obstetrică și Ginecologie Polizu", "operator": "Institutul Clinic pentru Ocrotirea Mamei și Copilului Alfred Rusescu", "operator:type": "public", "website": "https://www.insmc.ro/"}}, {"name": "", "latitude": 45.1521928, "longitude": 26.8103115, "source": "osm", "_tags": {"amenity": "hospital", "healthcare": "hospital"}}, {"name": "Spitalul Clinic Colțea", "latitude": 44.4344214, "longitude": 26.1038464, "source": "osm", "_tags": {"amenity": "hospital", "building": "hospital", "emergency": "yes", "healthcare": "hospital", "heritage": "2", "heritage:operator": "lmi", "name": "Spitalul Clinic Colțea", "name:en": "Colțea Clinical Hospital", "ref:RO:lmi": "B-II-m-A-18220.02", "start_date": "1704", "type": "multipolygon", "wikidata": "Q15647350", "wikipedia": "ro:Spitalul Clinic Colțea"}}, {"name": "Institutul de Urgență pentru Boli Cardiovasculare \"Prof. Dr. C.C. Iliescu\" (Clădirea B)", "latitude": 44.4649498, "longitude": 26.1534182, "source": "osm", "_tags": {"building": "hospital", "healthcare": "hospital", "healthcare:speciality": "cardiology", "name": "Institutul de Urgență pentru Boli Cardiovasculare \"Prof. Dr. C.C. Iliescu\" (Clădirea B)", "type": "multipolygon"}}, {"name": "Spitalul Municipal Ploiești (Schuller)", "latitude": 44.9306019, "longitude": 26.0209658, "source": "osm", "_tags": {"amenity": "hospital", "healthcare": "hospital", "name": "Spitalul Municipal Ploiești (Schuller)", "operator": "Consiliul Local al Municipiului Ploieşti", "operator:type": "government", "type": "multipolygon", "website": "https://spitalulmunicipalploiesti.ro/"}}]