[{"name": "", "latitude": 45.0993899, "longitude": 15.9634616, "source": "osm", "_tags": {"amenity": "hospital", "emergency": "yes", "healthcare": "hospital", "healthcare:speciality": "paediatrics"}}, {"name": "Dom zdravlja \"Kozma i Damjan\"", "latitude": 45.1830938, "longitude": 16.8138266, "source": "osm", "_tags": {"amenity": "hospital", "emergency": "yes", "healthcare": "hospital", "name": "Dom zdravlja \"Kozma i Damjan\""}}, {"name": "Bolnica Dr. Mladen Stojanović", "latitude": 44.983673, "longitude": 16.7309471, "source": "osm", "_tags": {"addr:city": "Prijedor", "addr:housenumber": "1", "addr:street": "Милана Врховца", "amenity": "hospital", "healthcare": "hospital", "name": "Bolnica Dr. Mladen Stojanović", "name:bs": "Bolnica Dr. Mladen Stojanović", "name:hr": "Bolnica Dr. Mladen Stojanović", "name:sh": "Bolnica Dr. Mladen Stojanović", "name:sr-Latn": "Bolnica Dr. Mladen Stojanović"}}, {"name": "Dom zdravlja Novi Grad", "latitude": 45.0472277, "longitude": 16.3820408, "source": "osm", "_tags": {"addr:city": "Novi Grad", "addr:housenumber": "3", "addr:postcode": "79220", "addr:street": "Mladena Stojanovića", "amenity": "hospital", "contact:email": "dzngrad@teol.net", "contact:fax": "+387 52 752259", "contact:phone": "+387 52 752231", "contact:website": "http://www.dzngrad.org", "healthcare": "hospital", "name": "Dom zdravlja Novi Grad"}}, {"name": "", "latitude": 44.8922498, "longitude": 16.8991538, "source": "osm", "_tags": {"amenity": "hospital", "healthcare": "hospital"}}, {"name": "", "latitude": 44.5521333, "longitude": 16.3666964, "source": "osm", "_tags": {"amenity": "hospital", "healthcare": "hospital"}}, {"name": "Opća bolnica Sanski Most", "latitude": 44.7680967, "longitude": 16.6507352, "source": "osm", "_tags": {"addr:city": "Sanski Most", "addr:housenumber": "111", "addr:postcode": "79260", "addr:street": "Prijedorska", "amenity": "hospital", "healthcare": "hospital", "name": "Opća bolnica Sanski Most", "phone": "+387 37 689266"}}, {"name": "", "latitude": 44.9790268, "longitude": 16.7065793, "source": "osm", "_tags": {"amenity": "hospital", "healthcare": "hospital"}}, {"name": "", "latitude": 44.9736115, "longitude": 16.843386, "source": "osm", "_tags": {"amenity": "hospital", "healthcare": "hospital"}}, {"name": "Lječilište Topusko", "latitude": 45.2945016, "longitude": 15.9724681, "source": "osm", "_tags": {"addr:housenumber": "16", "addr:street": "Trg bana Josipa Jelačića", "amenity": "hospital", "healthcare": "hospital", "healthcare:speciality": "physiatry", "name": "Lječilište Topusko", "name:de": "Schlammbad", "operator": "Lječilište Topusko", "operator:type": "public", "website": "https://www.ljeciliste-topusko.hr"}}, {"name": "Lječilište Topusko", "latitude": 45.2946809, "longitude": 15.9717851, "source": "osm", "_tags": {"addr:housenumber": "16", "addr:street": "Trg bana Josipa Jelačića", "amenity": "hospital", "healthcare": "hospital", "healthcare:speciality": "physiatry", "name": "Lječilište Topusko", "operator": "Lječilište Topusko", "operator:type": "public", "type": "multipolygon", "website": "https://www.ljeciliste-topusko.hr"}}]