[{"name": "Hopital de Dieulefit", "latitude": 44.5269365, "longitude": 5.0649157, "source": "osm", "_tags": {"addr:street": "Place du Champ de Mars", "amenity": "hospital", "healthcare": "hospital", "name": "Hopital de Dieulefit", "ref:FR:FINESS": "260000229", "source": "Le ministère des solidarités et de la santé - 03/2019", "type:FR:FINESS": "355"}}, {"name": "Clinique du Jas", "latitude": 44.5276944, "longitude": 5.0643234, "source": "osm", "_tags": {"amenity": "hospital", "emergency": "no", "healthcare": "hospital", "name": "Clinique du Jas", "ref:FR:FINESS": "260013719", "type:FR:FINESS": "156"}}, {"name": "Centre de santé Vieux Temple", "latitude": 45.192776, "longitude": 5.7330787, "source": "osm", "_tags": {"amenity": "hospital", "check_date": "2025-03-19", "emergency": "no", "healthcare": "hospital", "name": "Centre de santé Vieux Temple", "ref:FR:FINESS": "380791491", "type:FR:FINESS": "124"}}, {"name": "Foyer de vie Clair Matin", "latitude": 44.4917858, "longitude": 5.3846799, "source": "osm", "_tags": {"addr:housenumber": "525", "addr:postcode": "26470", "addr:street": "Route de Saint-Antoine", "amenity": "social_facility", "check_date": "2024-04-13", "email": "associationbramefan@gmail.com", "healthcare": "hospital", "name": "Foyer de vie Clair Matin", "phone": "+33 4 75 27 22 33", "ref:FR:FINESS": "260000583", "type:FR:FINESS": "382", "website": "https://clairmatindrome.org/"}}, {"name": "Dieulefit Santé", "latitude": 44.5324794, "longitude": 5.0633786, "source": "osm", "_tags": {"amenity": "hospital", "healthcare": "hospital", "healthcare:speciality": "cardiology;orthopaedics;pneumology;neurology", "name": "Dieulefit Santé", "phone": "+33 4 75 00 55 00", "ref:FR:FINESS": "260017454", "survey:date": "2022-06-16", "type:FR:FINESS": "109", "website": "http://dieulefit-sante.org", "wheelchair": "yes"}}, {"name": "Hôpital de jour Réhabilitation", "latitude": 45.1850342, "longitude": 5.7535127, "source": "osm", "_tags": {"addr:city": "Saint-Martin-d'Hères", "addr:housenumber": "8", "addr:postcode": "38400", "addr:street": "Place du Conseil National de la Résistance", "amenity": "hospital", "contact:phone": "+33 4 56 58 89 80", "healthcare": "hospital", "healthcare:speciality": "psychiatry", "name": "Hôpital de jour Réhabilitation", "ref:FR:FINESS": "380022244", "ref:FR:NAF": "86.10Z", "ref:FR:SIRET": "26380021102385", "type:FR:FINESS": "292"}}, {"name": "Vigilans", "latitude": 45.1848546, "longitude": 5.7538198, "source": "osm", "_tags": {"addr:city": "Saint-Martin d'Hères", "addr:housenumber": "8", "addr:postcode": "38400", "addr:street": "Place du Conseil National de la Résistance", "amenity": "hospital", "contact:phone": "+33 4 56 58 89 80", "description": "Dispositif de veille et de maintien du lien d’une durée de 6 mois destiné aux personnes ayant réalisé une tentative de suicide récente", "healthcare": "hospital", "healthcare:speciality": "psychiatry", "name": "Vigilans", "ref:FR:FINESS": "380022210", "ref:FR:NAF": "86.10Z", "ref:FR:SIRET": "26380021102369", "type:FR:FINESS": "292", "website": "https://www.repsy.fr/annuaire/vigilans-sud-isere-chai-chu/"}}, {"name": "Consultations Souffrance et Travail", "latitude": 45.184901, "longitude": 5.7538252, "source": "osm", "_tags": {"addr:city": "Saint-Martin d'Hères", "addr:housenumber": "8", "addr:postcode": "38400", "addr:street": "Place du Conseil National de la Résistance", "amenity": "hospital", "contact:phone": "+33 4 56 58 89 80", "healthcare": "hospital", "healthcare:speciality": "psychiatry", "name": "Consultations Souffrance et Travail", "ref:FR:FINESS": "380022178", "ref:FR:NAF": "86.10Z", "ref:FR:SIRET": "26380021102328", "type:FR:FINESS": "292"}}, {"name": "Addictologie Consultations", "latitude": 45.1849568, "longitude": 5.7535114, "source": "osm", "_tags": {"addr:city": "Saint-Martin d'Hères", "addr:housenumber": "8", "addr:postcode": "38400", "addr:street": "Place du Conseil National de la Résistance", "amenity": "hospital", "contact:phone": "+33 4 56 58 89 60", "healthcare": "hospital", "healthcare:speciality": "psychiatry", "name": "Addictologie Consultations", "ref:FR:FINESS": "380021519", "ref:FR:NAF": "86.10Z", "ref:FR:SIRET": "26380021102286", "type:FR:FINESS": "292"}}, {"name": "Hôpital de jour Addictologie", "latitude": 45.1849974, "longitude": 5.753514, "source": "osm", "_tags": {"addr:city": "Saint-Martin-d'Hères", "addr:housenumber": "8", "addr:postcode": "38400", "addr:street": "Place du Conseil National de la Résistance", "amenity": "hospital", "contact:phone": "+33 4 56 58 89 50", "healthcare": "hospital", "healthcare:speciality": "psychiatry", "name": "Hôpital de jour Addictologie", "ref:FR:FINESS": "380021501", "ref:FR:NAF": "86.10Z", "ref:FR:SIRET": "26380021102278", "type:FR:FINESS": "292"}}, {"name": "Centre traitement ambulatoire intensif", "latitude": 45.1849398, "longitude": 5.7537862, "source": "osm", "_tags": {"addr:city": "Saint-Martin-d'Hères", "addr:housenumber": "8", "addr:postcode": "38400", "addr:street": "Place du Conseil National de la Résistance", "amenity": "hospital", "contact:phone": "+33 4 56 58 89 80", "healthcare": "hospital", "healthcare:speciality": "psychiatry", "name": "Centre traitement ambulatoire intensif", "ref:FR:FINESS": "380021493", "ref:FR:NAF": "86.10Z", "ref:FR:SIRET": "26380021102260", "type:FR:FINESS": "292"}}, {"name": "USLD La Matinière", "latitude": 45.3867605, "longitude": 5.7401813, "source": "osm", "_tags": {"addr:city": "Saint-Laurent-du-Pont", "addr:housenumber": "280", "addr:postcode": "38380", "addr:street": "Chemin des Martins", "amenity": "hospital", "beds": "76", "capacity": "76", "contact:phone": "+33 4 76 06 26 00", "description": "Etablissement de Soins Longue Durée", "healthcare": "hospital", "healthcare:speciality": "geriatrics", "level": "1,2", "name": "USLD La Matinière", "ref:FR:FINESS": "380794719", "ref:FR:NAF": "86.10Z", "ref:FR:SIRET": "26380025200102", "source": "Le ministère des solidarités et de la santé - 04/2020", "type:FR:FINESS": "362", "website": "https://www.ch-stlaurent.com/personnes-agees/"}}, {"name": "Hôpital de Jour Adultes Cassiopée", "latitude": 45.1453184, "longitude": 5.7066865, "source": "osm", "_tags": {"addr:city": "Échirolles", "addr:housenumber": "14", "addr:postcode": "38130", "addr:street": "Avenue Auguste Ferrier", "amenity": "hospital", "contact:phone": "+33 4 56 58 83 10", "healthcare": "hospital", "healthcare:speciality": "psychiatry", "name": "Hôpital de Jour Adultes Cassiopée", "ref:FR:FINESS": "380017582", "ref:FR:NAF": "86.10Z", "ref:FR:SIRET": "26380021101320", "source": "Le ministère des solidarités et de la santé - 05/2021", "type:FR:FINESS": "292"}}, {"name": "Clinique des Cèdres", "latitude": 45.1477292, "longitude": 5.723387, "source": "osm", "_tags": {"amenity": "hospital", "building": "hospital", "building:levels": "6", "emergency": "yes", "fax": "+33 4 56 58 10 00", "healthcare": "hospital", "name": "Clinique des Cèdres", "operator": "Capio", "operator:type": "private", "phone": "+33 8 25 56 56 38", "ref:FR:FINESS": "380785956", "roof:levels": "0", "source": "cadastre-dgi-fr source : Direction Générale des Impôts - Cadastre;mise à jour : 2009", "type:FR:FINESS": "365", "website": "https://clinique-cedres.capio.fr/"}}, {"name": "Centre hospitalier de Die", "latitude": 44.7553472, "longitude": 5.3715204, "source": "osm", "_tags": {"amenity": "hospital", "emergency": "yes", "fax": "+33 4 75 22 55 05", "healthcare": "hospital", "name": "Centre hospitalier de Die", "operator:type": "public", "phone": "+33 4 75 22 55 00", "ref:FR:FINESS": "260000286", "type:FR:FINESS": "355", "website": "http://www.ch-die.fr/"}}, {"name": "Institut Daniel Hollard", "latitude": 45.1815906, "longitude": 5.7090565, "source": "osm", "_tags": {"addr:city": "Grenoble", "addr:housenumber": "12", "addr:postcode": "38000", "addr:street": "Rue du Docteur Hermite", "amenity": "hospital", "building": "hospital", "building:levels": "4", "check_date": "2024-07-08", "healthcare": "hospital", "name": "Institut Daniel Hollard", "name:etymology:wikidata": "Q112397053", "ref:FR:FINESS": "380802900", "ref:FR:SIRET": "48096821300011", "roof:levels": "1", "roof:shape": "round", "source": "cadastre-dgi-fr source : Direction Générale des Impôts - Cadastre. Mise à jour : 2010", "type:FR:FINESS": "698"}}, {"name": "Clinique La Parisière", "latitude": 45.0392598, "longitude": 5.0603968, "source": "osm", "_tags": {"addr:street": "Avenue Antonin Vallon", "amenity": "clinic", "building": "yes", "healthcare": "hospital", "name": "Clinique La Parisière", "phone": "+33 4 75 70 30 00", "ref:FR:FINESS": "260000260", "source": "cadastre-dgi-fr source : Direction Générale des Finances Publiques - Cadastre. Mise à jour : 2017", "type:FR:FINESS": "128"}}, {"name": "Centre hospitalier Michel Perret", "latitude": 45.3028444, "longitude": 5.4886472, "source": "osm", "_tags": {"addr:city": "Tullins", "addr:housenumber": "18", "addr:postcode": "38210", "addr:street": "Boulevard Michel Perret", "amenity": "hospital", "healthcare": "hospital", "name": "Centre hospitalier Michel Perret", "ref:FR:FINESS": "380000075", "source": "cadastre-dgi-fr source : Direction Générale des Impôts - Cadastre. Mise à jour : 2010", "type:FR:FINESS": "355"}}, {"name": "CH de Crest", "latitude": 44.7301952, "longitude": 5.0218894, "source": "osm", "_tags": {"amenity": "hospital", "building": "yes", "emergency": "yes", "healthcare": "hospital", "name": "CH de Crest", "source": "cadastre-dgi-fr source : Direction Générale des Finances Publiques - Cadastre. Mise à jour : 2017"}}, {"name": "Maison médicale", "latitude": 45.3233757, "longitude": 5.562283, "source": "osm", "_tags": {"addr:city": "Moirans", "addr:postcode": "38430", "amenity": "hospital", "building": "yes", "building:levels": "2", "emergency": "no", "healthcare": "hospital", "healthcare:speciality": "general;osteopathy", "name": "Maison médicale", "ref:FR:FINESS": "380021097", "type:FR:FINESS": "603", "wheelchair": "yes"}}, {"name": "Hôpital de jour Enfants", "latitude": 45.3525185, "longitude": 5.6130005, "source": "osm", "_tags": {"addr:city": "Coublevie", "addr:housenumber": "118", "addr:postcode": "38500", "addr:street": "Rue des Ifs", "amenity": "hospital", "building": "yes", "contact:website": "https://ch-alpes-isere.fr/wp-content/uploads/2021/11/HDJ-Coublevie-Famille-MAJ-decembre-2020-avec-compression.pdf", "healthcare": "hospital", "healthcare:speciality": "child_psychiatry", "name": "Hôpital de jour Enfants", "official_name": "Hôpital de jour pour enfants de Coublevie", "ref:FR:FINESS": "380784728", "ref:FR:NAF": "86.10Z", "ref:FR:SIRET": "26380021100876", "social_facility": "ambulatory_care", "source": "Le ministère des solidarités et de la santé - 05/2021", "type:FR:FINESS": "292"}}, {"name": "Clinique Belledonne", "latitude": 45.1863966, "longitude": 5.760274, "source": "osm", "_tags": {"addr:city": "Saint-Martin-d'Hères", "addr:housenumber": "83", "addr:postcode": "38400", "addr:street": "Avenue Gabriel Péri", "amenity": "hospital", "check_date": "2025-03-11", "fax": "+33 4 38 38 02 02", "healthcare": "hospital", "healthcare:speciality": "intensive", "name": "Clinique Belledonne", "operator": "Groupe Alpes-Belledonne", "operator:type": "private", "phone": "+33 4 38 38 02 02", "ref:FR:FINESS": "380786442", "source": "cadastre-dgi-fr source : Direction Générale des Impôts - Cadastre;mise à jour : 2011", "type:FR:FINESS": "365", "website": "https://www.elsan.care/fr/clinique-belledonne", "wheelchair": "yes"}}, {"name": "CHU Grenoble Alpes - site Sud", "latitude": 45.1484401, "longitude": 5.7318673, "source": "osm", "_tags": {"addr:city": "Échirolles", "addr:postcode": "38130", "addr:street": "Avenue de Kimberley", "amenity": "hospital", "emergency": "yes", "fax": "+33 4 76 76 52 59", "healthcare": "hospital", "name": "CHU Grenoble Alpes - site Sud", "operator:type": "public", "phone": "+33 4 76 76 75 75", "ref:FR:FINESS": "380782722", "ref:FR:NAF": "86.10Z", "ref:FR:SIRET": "26380030200030", "type:FR:FINESS": "101", "website": "https://www.chu-grenoble.fr/", "wikidata": "Q2945764", "wikipedia": "fr:Centre hospitalier universitaire Grenoble-Alpes"}}, {"name": "Centre hospitalier Alpes-Isère", "latitude": 45.2316113, "longitude": 5.6747726, "source": "osm", "_tags": {"addr:city": "Saint-Égrève", "addr:housenumber": "3", "addr:postcode": "38120", "addr:street": "Rue de la Gare", "amenity": "hospital", "healthcare": "hospital", "healthcare:speciality": "psychiatry", "name": "Centre hospitalier Alpes-Isère", "ref:FR:FINESS": "380000133", "short_name": "CHAI", "type:FR:FINESS": "292", "wikidata": "Q60835914"}}, {"name": "Centre médical Rocheplane", "latitude": 45.1778671, "longitude": 5.7610192, "source": "osm", "_tags": {"addr:city": "Saint-Martin-d'Hères", "addr:housenumber": "6", "addr:postcode": "38400", "addr:street": "Rue Massenet", "amenity": "hospital", "barrier": "fence", "check_date": "2025-08-09", "contact:phone": "+33 4 57 42 42 42", "contact:website": "https://www.rocheplane.org", "fence_type": "metal", "healthcare": "hospital", "internet_access": "wlan", "internet_access:fee": "customers", "name": "Centre médical Rocheplane", "opening_hours": "12:00-20:00", "ref:FR:FINESS": "380009928", "ref:FR:SIRET": "38224259200048", "wheelchair": "yes", "wikimedia_commons": "File:Centre Médical Rocheplane - Saint-Martin-d'Hères.JPG"}}, {"name": "Centre hospitalier de Rives", "latitude": 45.3537335, "longitude": 5.4996517, "source": "osm", "_tags": {"amenity": "hospital", "healthcare": "hospital", "name": "Centre hospitalier de Rives", "ref:FR:FINESS": "380000059", "source": "cadastre-dgi-fr source : Direction Générale des Impôts - Cadastre ; mise à jour :2012"}}, {"name": "Centre ambulatoire en santé mentale", "latitude": 45.1849054, "longitude": 5.7536796, "source": "osm", "_tags": {"addr:city": "Saint-Martin-d'Hères", "addr:housenumber": "8", "addr:postcode": "38400", "addr:street": "Place du Conseil National de la Résistance", "amenity": "hospital", "building": "hospital", "building:levels": "3", "description": "Centre ambulatoire de santé mentale", "fax": "+33 4 56 58 87 90", "healthcare": "hospital", "healthcare:speciality": "psychiatry", "name": "Centre ambulatoire en santé mentale", "phone": "+33 4 56 58 82 70", "ref:FR:RNB": "ZGMARG4NX7FX", "roof:levels": "0", "roof:shape": "flat", "short_name": "CASM"}}, {"name": "Centre hospitalier de Crest", "latitude": 44.7278194, "longitude": 5.0069185, "source": "osm", "_tags": {"addr:housename": "Hôpital de Crest", "amenity": "hospital", "building": "yes", "emergency": "yes", "fax": "+33 4 75 25 37 15", "name": "Centre hospitalier de Crest", "operator:type": "public", "phone": "+33 4 75 25 37 00", "ref:FR:FINESS": "260000146", "source": "cadastre-dgi-fr source : Direction Générale des Finances Publiques - Cadastre. Mise à jour : 2017", "type:FR:FINESS": "355", "website": "http://www.ch-crest.fr/"}}, {"name": "Hôpital de jour pour enfants", "latitude": 45.1865963, "longitude": 5.7204081, "source": "osm", "_tags": {"amenity": "hospital", "check_date": "2024-11-04", "fax": "+33476467920", "healthcare": "hospital", "name": "Hôpital de jour pour enfants", "phone": "+33476469593", "ref:FR:FINESS": "380785386", "ref:FR:SIRET": "26380021100041", "source": "survey", "type:FR:FINESS": "292"}}, {"name": "Hôpitaux Drôme-Nord - Site de Romans", "latitude": 45.0413631, "longitude": 5.0190419, "source": "osm", "_tags": {"amenity": "hospital", "emergency": "yes", "fax": "+33 4 75 05 75 99", "healthcare": "hospital", "loc_name": "Hôpital de Romans", "name": "Hôpitaux Drôme-Nord - Site de Romans", "name:oc": "Espitaus Droma-Nòrd", "operator": "Hôpitaux Drôme-Nord", "operator:type": "public", "phone": "+33 4 75 05 75 05", "ref:FR:FINESS": "260000120", "type:FR:FINESS": "355"}}, {"name": "Site de l'ancien Centre hospitalier de Voiron", "latitude": 45.3686765, "longitude": 5.5950989, "source": "osm", "_tags": {"amenity": "hospital", "emergency": "no", "fax": "+33 4 76 67 15 97", "healthcare": "hospital", "name": "Site de l'ancien Centre hospitalier de Voiron", "operator:type": "public", "phone": "+33 4 76 67 14 91", "ref:FR:FINESS": "380000406", "source": "cadastre-dgi-fr source : Direction Générale des Impôts - Cadastre;mise à jour : 2009", "type:FR:FINESS": "355", "website": "https://www.ch-voiron.fr/"}}, {"name": "Clinique du Grésivaudan", "latitude": 45.206078, "longitude": 5.7486787, "source": "osm", "_tags": {"addr:city": "La Tronche", "addr:housenumber": "8", "addr:postcode": "38700", "addr:street": "Avenue des Maquis du Grésivaudan", "amenity": "hospital", "contact:fax": "+33 4 38 38 08 39", "contact:phone": "+33 4 38 38 08 20", "contact:website": "https://www.fsef.net/etablissements/clinique-fsef-grenoble-la-tronche/presentation-clinique-fsef-grenoble-la-tronche", "healthcare": "hospital", "name": "Clinique du Grésivaudan", "operator": "Fondation Santé de Etudiants de France (FSEF)", "operator:wikidata": "Q120983249", "ref:FR:FINESS": "380780312", "ref:FR:NAF": "86.10Z", "ref:FR:SIRET": "77568300600123", "source": "Le ministère des solidarités et de la santé - 03/2019", "type:FR:FINESS": "365"}}, {"name": "Groupe hospitalier mutualiste de Grenoble", "latitude": 45.1817868, "longitude": 5.7092541, "source": "osm", "_tags": {"alt_name": "Clinique mutualiste des Eaux Claires", "amenity": "hospital", "check_date": "2024-07-08", "emergency": "yes", "fax": "+33476476694", "fixme": "rough contour", "healthcare": "hospital", "name": "Groupe hospitalier mutualiste de Grenoble", "operator:type": "private", "phone": "+33476707000", "ref:FR:FINESS": "380012658", "ref:FR:SIRET": "50173532800012", "short_name": "GHMG", "type:FR:FINESS": "365", "website": "https://www.ghm-grenoble.fr/", "wikidata": "Q43896910"}}, {"name": "Centre hospitalier de La Mûre", "latitude": 44.9045982, "longitude": 5.7950697, "source": "osm", "_tags": {"amenity": "hospital", "contact:fax": "+33 4 76 30 94 43", "contact:phone": "+33 4 76 81 42 00", "contact:website": "https://www.ch-lamure.fr/", "emergency": "yes", "healthcare": "hospital", "name": "Centre hospitalier de La Mûre", "operator:type": "public", "ref:FR:FINESS": "380000026", "source": "cadastre-dgi-fr source : Direction Générale des Finances Publiques - Cadastre. Mise à jour : 2013", "type:FR:FINESS": "355"}}, {"name": "Centre hospitalier de Saint-Marcellin", "latitude": 45.1528097, "longitude": 5.3229531, "source": "osm", "_tags": {"amenity": "hospital", "healthcare": "hospital", "name": "Centre hospitalier de Saint-Marcellin", "ref:FR:FINESS": "380000091", "type:FR:FINESS": "355"}}, {"name": "Centre hospitalier de Luzy-Dufeillant", "latitude": 45.3408611, "longitude": 5.0607602, "source": "osm", "_tags": {"amenity": "hospital", "contact:phone": "+33 4 74 29 72 58", "healthcare": "hospital", "name": "Centre hospitalier de Luzy-Dufeillant", "ref:FR:FINESS": "380000166", "type:FR:FINESS": "106", "wikidata": "Q92062635"}}, {"name": "Centre de pneumologie Henri Bazire", "latitude": 45.3469163, "longitude": 5.6579134, "source": "osm", "_tags": {"amenity": "hospital", "healthcare": "hospital", "name": "Centre de pneumologie Henri Bazire", "phone": "+33 4 76 56 32 32", "ref:FR:FINESS": "380780379", "type:FR:FINESS": "109"}}, {"name": "Émile Zola", "latitude": 45.0517604, "longitude": 5.0590115, "source": "osm", "_tags": {"amenity": "hospital", "building": "yes", "healthcare": "yes", "name": "Émile Zola", "ref:FR:FINESS": "260003280", "source": "cadastre-dgi-fr source : Direction Générale des Impôts - Cadastre. Mise à jour : 2020"}}, {"name": "", "latitude": 45.3634675, "longitude": 5.5880836, "source": "osm", "_tags": {"addr:city": "Voiron", "addr:housenumber": "10", "addr:postcode": "38503", "addr:street": "Rue Docteur Butterlin", "amenity": "hospital", "fax": "+33476058651", "healthcare": "hospital", "healthcare:speciality": "surgery;gastroenterological_surgery;gynaecology;maxillofacial_surgery;otolaryngology;dental_oral_maxillo_facial_surgery;plastic_surgery;radiology;stomatology;urology;oncology;vascular_surgery", "phone": "+33476672222", "ref:FR:FINESS": "380780288", "ref:FR:SIRET": "80191658600010", "source": "Le ministère des solidarités et de la santé - 03/2019", "type:FR:FINESS": "365", "website": "https://www.cliniquedechartreuse.com/"}}, {"name": "Hôpital d'Uriage", "latitude": 45.140911, "longitude": 5.8338843, "source": "osm", "_tags": {"amenity": "hospital", "building": "yes", "emergency": "no", "healthcare": "hospital", "name": "Hôpital d'Uriage", "ref:FR:FINESS": "380000018", "source": "Le ministère des solidarités et de la santé - 03/2019", "type": "multipolygon"}}, {"name": "CHU Nord de Grenoble", "latitude": 45.2008223, "longitude": 5.7446528, "source": "osm", "_tags": {"amenity": "hospital", "contact:website": "https://www.chu-grenoble.fr/", "emergency": "yes", "healthcare": "hospital", "healthcare:speciality": "intensive", "name": "CHU Nord de Grenoble", "ref:FR:FINESS": "380000067", "ref:FR:NAF": "8610Z", "type": "multipolygon", "type:FR:FINESS": "101", "website": "https://www.chu-grenoble.fr/", "wikidata": "Q2945764", "wikipedia": "fr:Centre hospitalier universitaire Grenoble-Alpes"}}, {"name": "Clinique d'Alembert", "latitude": 45.1821584, "longitude": 5.7100275, "source": "osm", "_tags": {"addr:city": "Grenoble", "addr:housenumber": "124", "addr:postcode": "38000", "addr:street": "Rue d'Alembert", "building": "hospital", "building:colour": "#dadadc", "building:levels": "5", "healthcare": "hospital", "name": "Clinique d'Alembert", "ref:FR:FINESS": "380009449", "ref:FR:SIRET": "48523843000014", "roof:colour": "#dadadc", "roof:levels": "0", "roof:shape": "gabled", "source": "cadastre-dgi-fr source : Direction Générale des Impôts - Cadastre. Mise à jour : 2009", "type": "multipolygon"}}, {"name": "Hôpital de Voiron", "latitude": 45.374878, "longitude": 5.5754013, "source": "osm", "_tags": {"amenity": "hospital", "healthcare": "hospital", "name": "Hôpital de Voiron", "operator": "CHU Grenoble Alpes", "phone": "+33 4 76 76 75 75", "start_date": "2021", "type": "multipolygon", "website": "https://www.ch-voiron.fr/"}}]