[{"name": "Genesis", "latitude": 45.2533497, "longitude": 19.8291456, "source": "osm", "_tags": {"amenity": "hospital", "healthcare": "hospital", "name": "Genesis", "name:en": "Genesis", "name:sr": "Генезис", "name:sr-Latn": "Genezis"}}, {"name": "Амбуланта", "latitude": 45.4108715, "longitude": 19.2991991, "source": "osm", "_tags": {"amenity": "hospital", "emergency": "no", "int_name": "Ambulanta", "name": "Амбуланта", "name:sk": "Dom zdravia", "name:sr": "Амбуланта", "name:sr-Latn": "Ambulanta", "phone": "+38121774144"}}, {"name": "Jugolab Futog", "latitude": 45.2396042, "longitude": 19.7034122, "source": "osm", "_tags": {"addr:housenumber": "4", "addr:postcode": "21410", "addr:street": "Раде Кондића", "amenity": "hospital", "name": "Jugolab Futog", "ref:RS:kucni_broj": "5461434", "website": "https://jugolab.rs/"}}, {"name": "Ferona Bolnica", "latitude": 45.2391889, "longitude": 19.8090739, "source": "osm", "_tags": {"amenity": "hospital", "healthcare": "hospital", "medical_system:western": "gynecology", "name": "Ferona Bolnica", "opening_hours": "Mo-Fr 08:00-20:00"}}, {"name": "Дом здравља Буковац", "latitude": 45.1966321, "longitude": 19.8907231, "source": "osm", "_tags": {"amenity": "hospital", "healthcare": "hospital", "int_name": "Dom zdravlja Bukovac", "name": "Дом здравља Буковац", "name:en": "Health center Bukovac", "name:sr": "Дом здравља Буковац", "name:sr-Latn": "Dom zdravlja Bukovac"}}, {"name": "Свети Лука", "latitude": 45.2513241, "longitude": 19.8730332, "source": "osm", "_tags": {"amenity": "hospital", "healthcare": "hospital", "int_name": "Sveti Luka", "name": "Свети Лука", "name:sr": "Свети Лука", "name:sr-Latn": "Sveti Luka"}}, {"name": "SH Fresenius Medical Care", "latitude": 45.2488044, "longitude": 19.8082157, "source": "osm", "_tags": {"amenity": "hospital", "healthcare": "hospital", "name": "SH Fresenius Medical Care"}}, {"name": "", "latitude": 44.7269299, "longitude": 19.4508453, "source": "osm", "_tags": {"amenity": "hospital", "healthcare": "hospital"}}, {"name": "Галамедика", "latitude": 44.7818339, "longitude": 19.2338531, "source": "osm", "_tags": {"addr:city": "Bijeljina", "addr:housenumber": "15", "addr:postcode": "76300", "addr:street": "Komitska", "amenity": "hospital", "internet_access": "wlan", "name": "Галамедика", "name:en": "Galamedica", "opening_hours": "Mo-Fr 07:30-20:00; Sa 08:00-15:00", "website": "https://zugalamedica.com/"}}, {"name": "Хитна помоћ Бачка Паланка", "latitude": 45.2491651, "longitude": 19.3894679, "source": "osm", "_tags": {"amenity": "hospital", "emergency": "yes", "healthcare": "hospital", "int_name": "Hitna pomoc Backa Palanka", "name": "Хитна помоћ Бачка Паланка", "name:sr": "Хитна помоћ Бачка Паланка", "name:sr-Latn": "Hitna pomoć Bačka Palanka"}}, {"name": "Клинички центар Војводине", "latitude": 45.2517417, "longitude": 19.8219687, "source": "osm", "_tags": {"addr:housenumber": "1", "addr:postcode": "21137", "addr:street": "Хајдук Вељкова", "amenity": "hospital", "email": "uprava@kcv.rs", "healthcare": "hospital", "int_name": "Klinicki centar Vojvodine", "name": "Клинички центар Војводине", "name:sr": "Клинички центар Војводине", "name:sr-Latn": "Klinički centar Vojvodine", "operator": "Skupština Vojvodine", "operator:type": "public", "phone": "+381214843484", "ref:RS:kucni_broj": "5474965", "website": "https://www.kcv.rs/", "wheelchair": "yes", "wikidata": "Q5133750", "wikipedia": "en:Clinical Center of Vojvodina"}}, {"name": "Специјална болница за реуматске болести", "latitude": 45.2498649, "longitude": 19.8288223, "source": "osm", "_tags": {"addr:housenumber": "68", "addr:postcode": "21112", "addr:street": "Хајдук Вељкова", "amenity": "hospital", "barrier": "fence", "email": "pitajtelekara@sbreum.co.rs", "fax": "+38121547131", "healthcare": "hospital", "healthcare:speciality": "rheumatology", "int_name": "Specijalna bolnica za reumatske bolesti", "loc_name": "Јодна Бања", "name": "Специјална болница за реуматске болести", "name:sr": "Специјална болница за реуматске болести", "name:sr-Latn": "Specijalna bolnica za reumetske bolesti", "opening_hours": "Mo-Fr 06:30-20:00", "operator": "Skupština Vojvodine", "operator:type": "public", "phone": "+38121547131;+38121547132;+38121547133", "website": "https://sbreum.co.rs/", "wikidata": "Q61133940", "wikipedia": "sr:Јодна Бања"}}, {"name": "Породилиште „Бетанија”", "latitude": 45.258142, "longitude": 19.8291454, "source": "osm", "_tags": {"amenity": "hospital", "healthcare": "hospital", "int_name": "Porodiliste „Betanija”", "name": "Породилиште „Бетанија”", "name:sr": "Породилиште „Бетанија”", "name:sr-Latn": "Porodilište „Betanija”", "wheelchair": "yes"}}, {"name": "Поликлиника за плућне болести - диспанзер", "latitude": 45.2588255, "longitude": 19.8291378, "source": "osm", "_tags": {"addr:housenumber": "2a", "addr:street": "Мајевичка", "amenity": "clinic", "building": "yes", "healthcare": "hospital", "int_name": "Poliklinika za plucne bolesti - dispanzer", "name": "Поликлиника за плућне болести - диспанзер", "name:sr": "Поликлиника за плућне болести - диспанзер", "name:sr-Latn": "Poliklinika za plućne bolesti - dispanzer", "ref:RS:kucni_broj": "5500985", "survey:date": "2014-07-22"}}, {"name": "Институт за јавно здравље Војводине", "latitude": 45.2483259, "longitude": 19.8180119, "source": "osm", "_tags": {"addr:housenumber": "121", "addr:postcode": "21000", "addr:street": "Футошка", "amenity": "hospital", "building": "yes", "check_date": "2024-11-21", "email": "izjzv@izjzv.org.rs", "emergency": "no", "fax": "+381216613989", "healthcare": "laboratory", "int_name": "Institut za javno zdravlje Vojvodine", "name": "Институт за јавно здравље Војводине", "name:sr": "Институт за јавно здравље Војводине", "name:sr-Latn": "Institut za javno zdravlje Vojvodine", "opening_hours": "Mo-Fr 06:30-20:00", "operator": "Skupština Vojvodine", "operator:type": "public", "phone": "+381214897800", "ref:RS:kucni_broj": "5497684", "website": "http://www.izjzv.org.rs/"}}, {"name": "Nacionalna memorijalna bolnica \"Dr. Juraj Njavro\" Vukovar", "latitude": 45.3577198, "longitude": 18.9932325, "source": "osm", "_tags": {"addr:city": "Vukovar", "addr:housenumber": "35", "addr:postcode": "32000", "addr:street": "Županijska ulica", "amenity": "hospital", "email": "posta@ob-vukovar.hr", "fax": "+385 32 452-002", "healthcare": "hospital", "name": "Nacionalna memorijalna bolnica \"Dr. Juraj Njavro\" Vukovar", "operator": "Nacionalna memorijalna bolnica \"Dr. Juraj Njavro\" Vukovar", "operator:type": "public", "phone": "+385 32 452-111", "website": "https://ob-vukovar.hr"}}, {"name": "Дом здравља Ченеј", "latitude": 45.3681782, "longitude": 19.8022462, "source": "osm", "_tags": {"amenity": "hospital", "healthcare": "hospital", "int_name": "Dom zdravlja Cenej", "name": "Дом здравља Ченеј", "name:sr-Latn": "Dom zdravlja Čenej"}}, {"name": "", "latitude": 45.241812, "longitude": 19.8038355, "source": "osm", "_tags": {"amenity": "hospital", "healthcare": "hospital"}}, {"name": "Дом здравља Петроварадин", "latitude": 45.2492538, "longitude": 19.874419, "source": "osm", "_tags": {"addr:housenumber": "8", "addr:street": "Јоже Влаховића", "amenity": "hospital", "building": "hospital", "int_name": "Dom zdravlja Petrovaradin", "name": "Дом здравља Петроварадин", "name:sr-Latn": "Dom zdravlja Petrovaradin", "ref:RS:kucni_broj": "5510426"}}, {"name": "Bolnica \"Sveti Vračevi\" Bijeljina", "latitude": 44.7516312, "longitude": 19.2213441, "source": "osm", "_tags": {"addr:city": "Bijeljina", "addr:country": "BA", "addr:housenumber": "53", "addr:postcode": "76300", "addr:street": "Srpske vojske", "amenity": "hospital", "contact:email": "uprava@bolnicabijeljina.com", "contact:phone": "+387 55 415555", "contact:website": "http://www.bolnicabijeljina.com", "emergency": "yes", "healthcare": "hospital", "name": "Bolnica \"Sveti Vračevi\" Bijeljina", "name:sr": "Болница \"Свети Врачеви\" Бијељина"}}, {"name": "Општа болница „Др Лаза К. Лазаревић” Шабац", "latitude": 44.7509882, "longitude": 19.6935041, "source": "osm", "_tags": {"addr:country": "RS", "addr:housenumber": "4", "addr:postcode": "15000", "addr:street": "Попа Карана", "amenity": "hospital", "email": "opstabolnicasabac@mts.rs", "emergency": "yes", "government": "healthcare", "healthcare": "hospital", "int_name": "Opsta bolnica „Dr Laza K. Lazarevic” Sabac", "name": "Општа болница „Др Лаза К. Лазаревић” Шабац", "name:sr": "Општа болница „Др Лаза К. Лазаревић” Шабац", "name:sr-Latn": "Opšta bolnica „Dr Laza K. Lazarević” Šabac", "office": "government", "phone": "+38115363300", "ref:RS:kucni_broj": "5626410", "website": "https://bolnica015.org.rs/"}}, {"name": "", "latitude": 44.5840161, "longitude": 19.2760648, "source": "osm", "_tags": {"amenity": "hospital", "healthcare": "hospital"}}, {"name": "Дом здравља Рума", "latitude": 45.0139515, "longitude": 19.8211481, "source": "osm", "_tags": {"amenity": "hospital", "email": "czp.dzruma@gmail.com", "emergency": "yes", "government": "healthcare", "healthcare": "hospital", "healthcare:speciality": "general", "int_name": "Dom zdravlja Ruma", "mobile": "+38169643513", "name": "Дом здравља Рума", "name:sr": "Дом здравља Рума", "name:sr-Latn": "Dom zdravlja Ruma", "phone": "+38122471220", "website": "www.dzruma.rs"}}, {"name": "Војномедицински центар Нови Сад", "latitude": 45.2558643, "longitude": 19.8614032, "source": "osm", "_tags": {"addr:housenumber": "5", "addr:postcode": "21000", "addr:street": "Трг Владике Николаја", "amenity": "hospital", "healthcare": "hospital", "int_name": "Vojnomedicinski centar Novi Sad", "name": "Војномедицински центар Нови Сад", "name:sr": "Војномедицински центар Нови Сад", "name:sr-Latn": "Vojnomedicinski centar Novi Sad", "ref:RS:kucni_broj": "5511957", "start_date": "1786", "wikidata": "Q61129581", "wikipedia": "sr:Војномедицински центар Нови Сад"}}, {"name": "Институт за кардиоваскуларне болести Војводине - Сремска Каменица", "latitude": 45.2178737, "longitude": 19.8562291, "source": "osm", "_tags": {"addr:housenumber": "4", "addr:postcode": "21204", "addr:street": "Пут доктора Голдмана", "alt_name": "Institut Sremska Kamenica", "amenity": "hospital", "email": "sekretarijat@ikvbv.ns.ac.rs", "healthcare": "hospital", "healthcare:speciality": "cardiology", "int_name": "Institut za kardiovaskularne bolesti Vojvodine - Sremska Kamenica", "name": "Институт за кардиоваскуларне болести Војводине - Сремска Каменица", "name:sr": "Институт за кардиоваскуларне болести Војводине - Сремска Каменица", "name:sr-Latn": "Institut za kardiovaskularne bolesti Vojvodine - Sremska Kamenica", "operator:type": "government", "phone": "+381214805100", "ref:RS:kucni_broj": "5511049", "website": "https://www.ikvbv.ns.ac.rs/", "wikidata": "Q7585747", "wikipedia": "en:Sremska Kamenica Institute"}}, {"name": "Општа болница Сремска Митровица", "latitude": 44.9735172, "longitude": 19.6048901, "source": "osm", "_tags": {"addr:city": "Sremska Mitrovica", "addr:country": "RS", "addr:housenumber": "65", "addr:postcode": "22000", "addr:street": "Стари шор", "amenity": "hospital", "emergency": "yes", "government": "healthcare", "healthcare": "hospital", "int_name": "Opsta bolnica Sremska Mitrovica", "name": "Општа болница Сремска Митровица", "name:sr": "Општа болница Сремска Митровица", "name:sr-Latn": "Opšta bolnica Sremska Mitrovica", "office": "government", "phone": "+381 22 610 222", "ref:RS:kucni_broj": "4305452", "website": "http://www.obsm.rs", "wheelchair": "yes"}}, {"name": "Општа болница Лозница", "latitude": 44.5363697, "longitude": 19.2296, "source": "osm", "_tags": {"addr:city": "Лозница", "addr:country": "RS", "addr:housenumber": "65", "addr:postcode": "15300", "addr:street": "Болничка", "alt_name": "Болница - Др Миленко Марин", "amenity": "hospital", "healthcare": "hospital", "int_name": "Opsta bolnica Loznica", "name": "Општа болница Лозница", "name:sr": "Општа болница Лозница", "name:sr-Latn": "Opšta bolnica Loznica", "operator:type": "government", "phone": "+38115873333", "website": "https://www.bolnicaloznica.rs/"}}, {"name": "Специјална болница за рехабилитацију Бања Ковиљача", "latitude": 44.5118386, "longitude": 19.1579803, "source": "osm", "_tags": {"addr:city": "Бања Ковиљача", "addr:country": "RS", "addr:postcode": "15316", "amenity": "hospital", "building": "public", "email": "info@banjakoviljaca.rs", "healthcare": "hospital", "healthcare:speciality": "physiatry", "int_name": "Specijalna bolnica za rehabilitaciju Banja Koviljaca", "name": "Специјална болница за рехабилитацију Бања Ковиљача", "name:sr": "Специјална болница за рехабилитацију Бања Ковиљача", "name:sr-Latn": "Specijalna bolnica za rehabilitaciju Banja Koviljača", "operator:type": "government", "phone": "*38115818270", "wikidata": "Q27923819", "wikipedia": "sr:Специјална болница за рехабилитацију Бања Ковиљача"}}, {"name": "Специјална болница за рехабилитацију „Термал” Врдник", "latitude": 45.135624, "longitude": 19.79266, "source": "osm", "_tags": {"addr:city": "Vrdnik", "addr:housenumber": "6", "addr:postcode": "22408", "addr:street": "Карађорђева", "alt_name": "Specijalna bolnica za rehabilitaciju Termal Vrdnik", "amenity": "hospital", "healthcare": "hospital", "int_name": "Specijalna bolnica za rehabilitaciju „Termal” Vrdnik", "name": "Специјална болница за рехабилитацију „Термал” Врдник", "name:sr": "Специјална болница за рехабилитацију „Термал” Врдник", "name:sr-Latn": "Specijalna bolnica za rehabilitaciju „Termal” Vrdnik", "operator:type": "government", "phone": "+38122465819", "ref:RS:kucni_broj": "4365614", "website": "https://www.termal-vrdnik.com/banja/"}}, {"name": "", "latitude": 44.7531159, "longitude": 19.2180496, "source": "osm", "_tags": {"amenity": "hospital", "healthcare": "hospital"}}, {"name": "", "latitude": 44.8064524, "longitude": 19.2611, "source": "osm", "_tags": {"amenity": "hospital", "healthcare": "hospital"}}, {"name": "Дом здравља Владимирци", "latitude": 44.6195115, "longitude": 19.7862121, "source": "osm", "_tags": {"addr:housenumber": "11", "addr:street": "Светог Саве", "amenity": "hospital", "email": "dzvladcentar@open.telekom.rs", "fax": "+381 15 513178", "healthcare": "hospital", "int_name": "Dom zdravlja Vladimirci", "name": "Дом здравља Владимирци", "name:sr": "Дом здравља Владимирци", "name:sr-Latn": "Dom zdravlja Vladimirci", "phone": "+381 15 513283", "ref:RS:kucni_broj": "5008707"}}, {"name": "", "latitude": 45.0195681, "longitude": 19.8172921, "source": "osm", "_tags": {"amenity": "hospital", "healthcare": "hospital"}}, {"name": "", "latitude": 44.9660433, "longitude": 19.2883328, "source": "osm", "_tags": {"amenity": "hospital", "healthcare": "hospital"}}, {"name": "", "latitude": 45.2924841, "longitude": 19.7433292, "source": "osm", "_tags": {"amenity": "hospital", "healthcare": "hospital"}}, {"name": "", "latitude": 45.4080567, "longitude": 19.8929993, "source": "osm", "_tags": {"amenity": "hospital", "healthcare": "hospital"}}, {"name": "", "latitude": 44.8564228, "longitude": 19.1440818, "source": "osm", "_tags": {"amenity": "hospital", "healthcare": "hospital"}}, {"name": "", "latitude": 44.844212, "longitude": 19.1247299, "source": "osm", "_tags": {"amenity": "hospital", "healthcare": "hospital"}}, {"name": "", "latitude": 45.3579774, "longitude": 19.6001083, "source": "osm", "_tags": {"amenity": "hospital", "healthcare": "hospital"}}, {"name": "Ковид болница Нови Сад", "latitude": 45.2265157, "longitude": 19.873789, "source": "osm", "_tags": {"amenity": "hospital", "check_date": "2025-09-18", "healthcare": "hospital", "int_name": "Kovid bolnica Novi Sad", "name": "Ковид болница Нови Сад", "name:sr": "Ковид болница Нови Сад", "name:sr-Latn": "Kovid bolnica Novi Sad", "operator": "Универзитетски клинички центар Војводине, Нови Сад", "type": "multipolygon"}}]