[{"name": "Continuità Assistenziale (Ex Guardia Medica) ASL-Ambulatorio", "latitude": 45.7599564, "longitude": 7.7318392, "source": "osm", "_tags": {"addr:city": "Brusson", "addr:country": "IT", "addr:postcode": "11022", "amenity": "hospital", "check_date": "2024-08-18", "name": "Continuità Assistenziale (Ex Guardia Medica) ASL-Ambulatorio"}}, {"name": "Poliambulatorio di Donnas", "latitude": 45.6033874, "longitude": 7.7735943, "source": "osm", "_tags": {"addr:city": "Donnas", "addr:country": "IT", "addr:street": "Via Roma", "amenity": "hospital", "contact:fax": "+39 0125 804191", "contact:phone": "+39 0125 806300;+39 0125 807949;+39 0125 807693", "healthcare": "hospital", "name": "Poliambulatorio di Donnas"}}, {"name": "Casa Di Cura Per La Salute Della Mente", "latitude": 45.755019, "longitude": 7.737931, "source": "osm", "_tags": {"amenity": "hospital", "name": "Casa Di Cura Per La Salute Della Mente"}}, {"name": "Servizio Ausili AUSL Valle d'Aosta", "latitude": 45.7384841, "longitude": 7.351557, "source": "osm", "_tags": {"addr:city": "Saint Christophe", "addr:housenumber": "22", "addr:postcode": "11020", "addr:street": "loc. Grand Chemin", "amenity": "hospital", "emergency": "no", "healthcare": "hospital", "name": "Servizio Ausili AUSL Valle d'Aosta", "phone": "+39 0165 775122", "website": "https://www.ausl.vda.it", "wheelchair": "yes"}}, {"name": "Clinica Veterinaria di Verres", "latitude": 45.6642525, "longitude": 7.6914639, "source": "osm", "_tags": {"addr:city": "Verres", "addr:country": "IT", "addr:housenumber": "16", "addr:street": "Via Amilcare Cretier", "amenity": "hospital", "contact:phone": "+39 0125 929170", "name": "Clinica Veterinaria di Verres"}}, {"name": "Ambulatorio", "latitude": 45.7145244, "longitude": 7.88175, "source": "osm", "_tags": {"amenity": "hospital", "name": "Ambulatorio"}}, {"name": "Volontari Soccorso Valle d'Ayas", "latitude": 45.8258283, "longitude": 7.7149356, "source": "osm", "_tags": {"amenity": "hospital", "name": "Volontari Soccorso Valle d'Ayas"}}, {"name": "Ambulatorio Medico", "latitude": 45.6854199, "longitude": 7.6614635, "source": "osm", "_tags": {"amenity": "hospital", "name": "Ambulatorio Medico", "note": "verificare posizione all'interno dell'edificio"}}, {"name": "Ambulatorio Medico", "latitude": 45.5842927, "longitude": 7.8121774, "source": "osm", "_tags": {"amenity": "hospital", "name": "Ambulatorio Medico"}}, {"name": "Maison de la Santé de la Gravenne", "latitude": 46.0780451, "longitude": 7.1462937, "source": "osm", "_tags": {"addr:city": "Sembrancher", "addr:housenumber": "14", "addr:postcode": "1933", "addr:street": "Route de la Gravenne", "amenity": "hospital", "emergency": "yes", "healthcare": "hospital", "healthcare:speciality": "general", "name": "Maison de la Santé de la Gravenne", "operator": "Médidranses", "operator:type": "public", "website": "https://www.medidranse.ch/", "wheelchair": "yes"}}, {"name": "Ambulatorio Comunale - sede provvisoria sino settembre 2022", "latitude": 45.7151673, "longitude": 7.737291, "source": "osm", "_tags": {"amenity": "hospital", "name": "Ambulatorio Comunale - sede provvisoria sino settembre 2022"}}, {"name": "Le Refuge Centre thérapeutique et de bien-être", "latitude": 46.2543892, "longitude": 7.5314593, "source": "osm", "_tags": {"addr:city": "Vercorin", "addr:postcode": "3967", "addr:street": "Chemin de Tracuit", "amenity": "hospital", "emergency": "no", "healthcare": "hospital", "healthcare:speciality": "massage_therapy", "name": "Le Refuge Centre thérapeutique et de bien-être"}}, {"name": "Ambulatorio Medico", "latitude": 45.8274187, "longitude": 7.8219878, "source": "osm", "_tags": {"amenity": "hospital", "emergency": "no", "healthcare": "hospital", "name": "Ambulatorio Medico", "operator": "Medico della Mutua"}}, {"name": "Clinique Bernoise Montana", "latitude": 46.2997051, "longitude": 7.481131, "source": "osm", "_tags": {"addr:city": "Crans-Montana", "addr:housenumber": "87", "addr:postcode": "3963", "addr:street": "Route de la Moubra", "amenity": "hospital", "healthcare": "hospital", "healthcare:speciality": "physiatry", "name": "Clinique Bernoise Montana", "name:de": "Berner Klinik Montana", "name:fr": "Clinique Bernoise Montana", "phone": "+41 27 485 51 21"}}, {"name": "Ospedale Civile Ivrea", "latitude": 45.467067, "longitude": 7.8729914, "source": "osm", "_tags": {"amenity": "hospital", "building": "hospital", "emergency": "yes", "healthcare": "hospital", "name": "Ospedale Civile Ivrea", "wikidata": "Q30281172"}}, {"name": "Ospedale Beauregard", "latitude": 45.7429946, "longitude": 7.3412084, "source": "osm", "_tags": {"addr:city": "Aosta", "addr:postcode": "11100", "addr:street": "Via Vaccari", "amenity": "hospital", "building": "yes", "healthcare": "hospital", "healthcare:speciality": "paediatrics", "name": "Ospedale Beauregard"}}, {"name": "Clinica Eporediese", "latitude": 45.4706441, "longitude": 7.86662, "source": "osm", "_tags": {"addr:city": "Ivrea", "addr:country": "IT", "addr:housenumber": "27", "addr:postcode": "10015", "addr:street": "Via Castiglia", "amenity": "hospital", "building": "yes", "check_date": "2024-08-07", "emergency": "no", "name": "Clinica Eporediese"}}, {"name": "Hôpital régional d'Aosta Umberto Parini", "latitude": 45.7405555, "longitude": 7.3136977, "source": "osm", "_tags": {"amenity": "hospital", "name": "Hôpital régional d'Aosta Umberto Parini"}}, {"name": "Istituto Clinico Valle d'Aosta", "latitude": 45.7174607, "longitude": 7.2412978, "source": "osm", "_tags": {"amenity": "hospital", "building": "yes", "healthcare": "hospital", "name": "Istituto Clinico Valle d'Aosta"}}, {"name": "Hôpital de Sion", "latitude": 46.23534, "longitude": 7.3869208, "source": "osm", "_tags": {"addr:city": "Sion", "addr:housenumber": "80", "addr:postcode": "1951", "addr:street": "Avenue du Grand-Champsec", "amenity": "hospital", "emergency": "yes", "healthcare": "hospital", "name": "Hôpital de Sion", "name:de": "Spital Sitten", "name:fr": "Hôpital de Sion", "toilets:wheelchair": "yes", "website": "https://www.hopitalduvalais.ch/fr/lhopital-du-valais/sites/sion.html", "wheelchair": "yes", "wikidata": "Q3145292"}}, {"name": "Clinique Genevoise", "latitude": 46.3163739, "longitude": 7.4941989, "source": "osm", "_tags": {"addr:city": "Crans-Montana", "addr:country": "CH", "addr:housenumber": "2", "addr:postcode": "3963", "addr:street": "Impasse Clairmont", "amenity": "hospital", "healthcare": "hospital", "name": "Clinique Genevoise", "phone": "+41 27 485 61 22", "website": "https://www.hug-ge.ch/crans-montana"}}, {"name": "Hôpital de Martigny", "latitude": 46.0995954, "longitude": 7.0683195, "source": "osm", "_tags": {"addr:city": "Martigny", "addr:housenumber": "27", "addr:postcode": "1920", "addr:street": "Avenue de la Fusion", "amenity": "hospital", "emergency": "yes", "healthcare": "hospital", "layer": "1", "name": "Hôpital de Martigny", "name:de": "Spital Martigny", "name:fr": "Hôpital de Martigny", "operator": "Hôpital du Valais", "phone": "+41 27 603 90 00", "source": "Bing", "website": "https://www.hopitalduvalais.ch/fr/lhopital-du-valais/sites/martigny.html"}}, {"name": "Clinique Saint-Amé", "latitude": 46.213274, "longitude": 6.9979625, "source": "osm", "_tags": {"addr:city": "Saint-Maurice", "addr:country": "CH", "addr:housenumber": "10", "addr:postcode": "1890", "addr:street": "Vers Saint-Amé", "amenity": "hospital", "name": "Clinique Saint-Amé", "phone": "+41 24 486 26 62", "website": "https://www.hopitalduvalais.ch/fr/lhopital-du-valais/sites/clinique-saint-ame.html?ct=0&cHash=58be177c5705953f44610229d3e65550"}}, {"name": "Hôpital du Chablais de Monthey", "latitude": 46.2515885, "longitude": 6.9411151, "source": "osm", "_tags": {"addr:city": "Monthey", "addr:housenumber": "54", "addr:postcode": "1870", "addr:street": "Route de Morgins", "amenity": "hospital", "emergency": "yes", "name": "Hôpital du Chablais de Monthey", "phone": "+41 24 473 17 31", "website": "https://www.hopitalrivierachablais.ch/jcms/c_5020/fr/monthey"}}, {"name": "EMS Miremont", "latitude": 46.3417075, "longitude": 7.0083453, "source": "osm", "_tags": {"addr:city": "Leysin", "addr:housenumber": "21", "addr:postcode": "1854", "addr:street": "Avenue Rollier", "amenity": "hospital", "email": "direction.miremont@miremont.ch", "healthcare": "hospital", "name": "EMS Miremont", "phone": "+41 24 493 29 29", "website": "https://www.miremont.ch/jcms/c_5027/fr/bienvenue-a-la-fondation-miremont-une-clinique-centenaire"}}, {"name": "Spital Visp", "latitude": 46.2873615, "longitude": 7.8836502, "source": "osm", "_tags": {"addr:city": "Visp", "addr:country": "CH", "addr:housenumber": "8", "addr:postcode": "3930", "addr:street": "Pflanzettastrasse", "amenity": "hospital", "emergency": "yes", "healthcare": "hospital", "name": "Spital Visp", "name:de": "Spital Visp", "name:fr": "Hôpital de Visp", "phone": "+41 (0)27 970 33 33", "toilets:wheelchair": "yes", "website": "https://www.hopitalduvalais.ch/de/spital-wallis/standorte/visp.html", "wheelchair": "yes"}}, {"name": "Hôpital de Sierre", "latitude": 46.2921619, "longitude": 7.5214331, "source": "osm", "_tags": {"addr:city": "Sierre", "addr:country": "CH", "addr:housenumber": "14", "addr:postcode": "3960", "addr:street": "Rue Saint-Charles", "amenity": "hospital", "emergency": "yes", "name": "Hôpital de Sierre", "phone": "+41 27 603 70 00", "source": "bing", "website": "https://www.hopitalduvalais.ch/fr/lhopital-du-valais/sites/sierre.html", "wikidata": "Q3145291"}}, {"name": "Hôpital psychiatrique de Malévoz", "latitude": 46.2566666, "longitude": 6.9442305, "source": "osm", "_tags": {"addr:city": "Monthey", "addr:housenumber": "10", "addr:postcode": "1870", "addr:street": "Route de Morgins", "amenity": "hospital", "healthcare": "psychotherapist", "healthcare:speciality": "psychiatry", "name": "Hôpital psychiatrique de Malévoz", "phone": "+41 27 604 73 33", "website": "https://www.hopitalduvalais.ch/de/spital-wallis/standorte/malevoz.html"}}, {"name": "Clinique romande de réadaptation Sion", "latitude": 46.2362816, "longitude": 7.3888534, "source": "osm", "_tags": {"amenity": "hospital", "healthcare": "hospital", "name": "Clinique romande de réadaptation Sion", "operator": "CRR SuvaCare", "operator:type": "private"}}, {"name": "Accettazione Covid", "latitude": 45.7404898, "longitude": 7.3140945, "source": "osm", "_tags": {"amenity": "hospital", "healthcare": "hospital", "name": "Accettazione Covid"}}]