[{"name": "Spitalul Comunei Măicănești", "latitude": 45.5022233, "longitude": 27.4976952, "source": "osm", "_tags": {"amenity": "hospital", "healthcare": "hospital", "name": "Spitalul Comunei Măicănești"}}, {"name": "Spitalul Municipal Adjud", "latitude": 46.0919311, "longitude": 27.1878019, "source": "osm", "_tags": {"amenity": "hospital", "healthcare": "hospital", "name": "Spitalul Municipal Adjud"}}, {"name": "FizioLife - Recuperare", "latitude": 45.7253265, "longitude": 27.1247702, "source": "osm", "_tags": {"addr:city": "Câmpineanca", "addr:housenumber": "408", "addr:postcode": "627055", "addr:street": "Calea Odobești", "amenity": "hospital", "description": "Centru modern de fizioterapie, kinetoterapie și recuperare medicala.", "email": "office@fiziolife-recuperare.ro", "healthcare": "hospital", "healthcare:speciality": "physiotherapy;kinesitherapy;orthopaedics", "name": "FizioLife - Recuperare", "operator": "COMANDOR IMPEX SRL", "phone": "+40-337-401405", "website": "https://www.fiziolife-recuperare.ro"}}, {"name": "Cabinet medical Psihomedicus Clinic", "latitude": 45.6961611, "longitude": 27.1825962, "source": "osm", "_tags": {"addr:city": "Focșani", "addr:housenumber": "1", "addr:postcode": "630076", "addr:street": "Strada Popa Sapca", "amenity": "hospital", "check_date": "2025-06-19", "healthcare": "hospital", "healthcare:speciality": "psychiatry", "name": "Cabinet medical Psihomedicus Clinic"}}, {"name": "Cabinet Medical", "latitude": 45.71269, "longitude": 27.1266025, "source": "osm", "_tags": {"amenity": "hospital", "healthcare": "hospital", "name": "Cabinet Medical"}}, {"name": "Spitalul Orasenesc Panciu", "latitude": 45.9092775, "longitude": 27.0863085, "source": "osm", "_tags": {"amenity": "hospital", "healthcare": "hospital", "name": "Spitalul Orasenesc Panciu"}}, {"name": "Centrul de dializă Bârlad", "latitude": 46.215777, "longitude": 27.6586086, "source": "osm", "_tags": {"amenity": "hospital", "building": "yes", "healthcare": "hospital", "name": "Centrul de dializă Bârlad"}}, {"name": "Centrul de Transfuzii Bârlad", "latitude": 46.2319519, "longitude": 27.6666654, "source": "osm", "_tags": {"amenity": "hospital", "building": "yes", "name": "Centrul de Transfuzii Bârlad"}}, {"name": "Spitalul Municipal de Urgență Elena Beldiman", "latitude": 46.2362039, "longitude": 27.6720956, "source": "osm", "_tags": {"addr:city": "Bârlad", "addr:housenumber": "300", "addr:street": "Bulevardul Republicii", "amenity": "hospital", "healthcare": "hospital", "name": "Spitalul Municipal de Urgență Elena Beldiman"}}, {"name": "Spitalul Municipal de Urgență Elena Beldiman - Pneumologie, TBC, Psihiatrie", "latitude": 46.2255945, "longitude": 27.6631923, "source": "osm", "_tags": {"amenity": "hospital", "healthcare": "hospital", "name": "Spitalul Municipal de Urgență Elena Beldiman - Pneumologie, TBC, Psihiatrie"}}, {"name": "Spitalul de Boli Infecțioase", "latitude": 46.2358031, "longitude": 27.670435, "source": "osm", "_tags": {"amenity": "hospital", "healthcare": "hospital", "name": "Spitalul de Boli Infecțioase"}}, {"name": "Dispensarul Comunal", "latitude": 45.9566745, "longitude": 27.1036131, "source": "osm", "_tags": {"addr:city": "Movilița", "amenity": "hospital", "name": "Dispensarul Comunal"}}, {"name": "Polimed", "latitude": 46.1999881, "longitude": 27.3846556, "source": "osm", "_tags": {"addr:city": "Podu Turcului", "addr:housenumber": "94", "addr:postcode": "607450", "addr:street": "Strada Tudor Vladimirescu 94", "amenity": "hospital", "building": "yes", "description": "Firma „S.C. POLIMED S.R.L.” este unitate sanitara din segmentul de asistenta medicala spitaliceasca si ambulatorie cu sediul în localitatea Podu Turcului, str. T. Vladimirescu, nr. 94, judetul Bacau, care functioneaza în baza certificatului de înregistrar", "emergency": "yes", "healthcare": "hospital", "healthcare:speciality": "general;radiology;cardiology;internal", "name": "Polimed", "operator": "S.C. POLIMED S.R.L", "phone": "0234 289 704", "website": "https://spitalulpolimed.ro"}}, {"name": "Spitalul Municipal „Anton Cincu”", "latitude": 45.8473331, "longitude": 27.4379722, "source": "osm", "_tags": {"addr:city": "Tecuci", "addr:housenumber": "35", "addr:postcode": "805300", "addr:street": "Strada Costache Conachi", "amenity": "hospital", "email": "anton_cincu2006@yahoo.com", "fax": "+40 236 811 608", "healthcare": "hospital", "name": "Spitalul Municipal „Anton Cincu”", "operator": "Spitalul Municipal „Anton Cincu” Tecuci", "operator:type": "public", "phone": "+40 236 812 440", "website": "https://spital-tecuci.blogspot.com"}}, {"name": "Centrul de Recuperare și Reabilitare Neuropsihiatrică Răcăciuni", "latitude": 46.3424533, "longitude": 26.9698827, "source": "osm", "_tags": {"amenity": "hospital", "healthcare": "hospital", "healthcare:speciality": "psychiatry", "name": "Centrul de Recuperare și Reabilitare Neuropsihiatrică Răcăciuni"}}, {"name": "", "latitude": 45.764104, "longitude": 27.070797, "source": "osm", "_tags": {"amenity": "hospital", "healthcare": "hospital"}}, {"name": "", "latitude": 45.7044843, "longitude": 27.1940929, "source": "osm", "_tags": {"amenity": "hospital", "building": "yes", "healthcare": "hospital", "healthcare:speciality": "paediatrics"}}, {"name": "", "latitude": 45.7037599, "longitude": 27.1950049, "source": "osm", "_tags": {"amenity": "hospital", "building": "yes", "healthcare": "hospital", "healthcare:speciality": "pulmonology"}}, {"name": "Spitalul de Boli Infecțioase", "latitude": 45.7049326, "longitude": 27.1953938, "source": "osm", "_tags": {"amenity": "hospital", "building": "yes", "healthcare": "hospital", "healthcare:speciality": "infectious_diseases", "name": "Spitalul de Boli Infecțioase"}}, {"name": "Spitalul Militar de Urgenţă „Dr. Alexandru Popescu”", "latitude": 45.696796, "longitude": 27.1905659, "source": "osm", "_tags": {"addr:city": "Focșani", "addr:housenumber": "3-5", "addr:street": "Strada Cezar Bolliac", "amenity": "hospital", "healthcare": "hospital", "name": "Spitalul Militar de Urgenţă „Dr. Alexandru Popescu”"}}, {"name": "Spitalul de Psihiatrie Cronici", "latitude": 45.5500118, "longitude": 27.1064108, "source": "osm", "_tags": {"addr:city": "Dumbrăveni", "addr:postcode": "627105", "addr:street": "Strada Duiliu Zamfirescu", "amenity": "hospital", "building": "yes", "healthcare": "hospital", "name": "Spitalul de Psihiatrie Cronici"}}, {"name": "", "latitude": 45.7044549, "longitude": 27.1933158, "source": "osm", "_tags": {"amenity": "hospital", "building": "yes", "healthcare": "hospital", "type": "multipolygon"}}, {"name": "Spitalul Județean de Urgență „Sfântul Pantelimon\"", "latitude": 45.7041539, "longitude": 27.1938359, "source": "osm", "_tags": {"amenity": "hospital", "healthcare": "hospital", "name": "Spitalul Județean de Urgență „Sfântul Pantelimon\"", "type": "multipolygon"}}]