[{"name": "Casa di Cura Papa Giovanni XXIII", "latitude": 45.6560052, "longitude": 12.4279679, "source": "osm", "_tags": {"amenity": "hospital", "healthcare": "hospital", "name": "Casa di Cura Papa Giovanni XXIII"}}, {"name": "Ass. La Nostra Famiglia", "latitude": 45.8955334, "longitude": 12.2863221, "source": "osm", "_tags": {"amenity": "hospital", "healthcare": "hospital", "healthcare:speciality": "paediatrics;neurology;rehabilitation", "name": "Ass. La Nostra Famiglia"}}, {"name": "Consultorio USL 13", "latitude": 45.446032, "longitude": 12.1623431, "source": "osm", "_tags": {"amenity": "hospital", "healthcare": "hospital", "name": "Consultorio USL 13"}}, {"name": "Park Villa Napoleon - casa di cura neuropsichiatrica", "latitude": 45.5917469, "longitude": 12.2355855, "source": "osm", "_tags": {"amenity": "hospital", "healthcare": "hospital", "name": "Park Villa Napoleon - casa di cura neuropsichiatrica"}}, {"name": "Casa di riposo e Centro diurno \"Gino e Pierina MARANI\"", "latitude": 45.7330505, "longitude": 12.2523651, "source": "osm", "_tags": {"amenity": "hospital", "designation": "casa di riposo", "emergency": "no", "healthcare": "hospital", "name": "Casa di riposo e Centro diurno \"Gino e Pierina MARANI\""}}, {"name": "Centro di medicina", "latitude": 45.8713349, "longitude": 12.2798476, "source": "osm", "_tags": {"amenity": "hospital", "check_date": "2025-09-29", "healthcare": "hospital", "name": "Centro di medicina"}}, {"name": "obitorio", "latitude": 46.1386377, "longitude": 12.2008393, "source": "osm", "_tags": {"amenity": "hospital", "name": "obitorio"}}, {"name": "Pronto Soccorso Ospedale Santa Maria degli Angeli", "latitude": 45.9684637, "longitude": 12.6526503, "source": "osm", "_tags": {"addr:city": "Pordenone", "addr:housenumber": "24", "addr:postcode": "33170", "addr:street": "Via Montereale", "amenity": "hospital", "emergency": "yes", "healthcare": "hospital", "healthcare:speciality": "general", "name": "Pronto Soccorso Ospedale Santa Maria degli Angeli"}}, {"name": "Pronto Soccorso Pediatrico Ospedale Santa Maria degli Angeli", "latitude": 45.9681862, "longitude": 12.6539207, "source": "osm", "_tags": {"addr:city": "Pordenone", "addr:housenumber": "24", "addr:postcode": "33170", "addr:street": "Via Montereale", "amenity": "hospital", "emergency": "yes", "healthcare": "hospital", "healthcare:speciality": "paediatrics", "name": "Pronto Soccorso Pediatrico Ospedale Santa Maria degli Angeli"}}, {"name": "Pronto Soccorso Ospedale Santa Maria dei Battuti", "latitude": 45.91223, "longitude": 12.8565098, "source": "osm", "_tags": {"addr:city": "San Vito al Tagliamento", "addr:postcode": "33078", "addr:street": "Via Patriarcato", "amenity": "hospital", "emergency": "yes", "healthcare": "hospital", "name": "Pronto Soccorso Ospedale Santa Maria dei Battuti"}}, {"name": "Pronto Soccorso Ospedale San Martino", "latitude": 46.139364, "longitude": 12.2014938, "source": "osm", "_tags": {"addr:city": "Belluno", "amenity": "hospital", "check_date": "2025-01-19", "emergency": "yes", "healthcare": "hospital", "name": "Pronto Soccorso Ospedale San Martino"}}, {"name": "Pronto Soccorso Ospedale Vittorio Veneto", "latitude": 45.9872338, "longitude": 12.318724, "source": "osm", "_tags": {"addr:city": "Vittorio Veneto", "amenity": "hospital", "emergency": "yes", "healthcare": "hospital", "name": "Pronto Soccorso Ospedale Vittorio Veneto"}}, {"name": "Pronto Soccorso Ospedale Conegliano", "latitude": 45.8816369, "longitude": 12.2903922, "source": "osm", "_tags": {"addr:city": "Conegliano Veneto", "amenity": "hospital", "check_date": "2024-04-23", "emergency": "yes", "healthcare": "hospital", "name": "Pronto Soccorso Ospedale Conegliano", "opening_hours": "24/7", "phone": "+39 0438 663111", "website": "http://aulss2.veneto.it"}}, {"name": "Pronto Soccorso Ospedale Montebelluna", "latitude": 45.7769544, "longitude": 12.034417, "source": "osm", "_tags": {"addr:city": "Montebelluna", "emergency": "emergency_ward_entrance", "healthcare": "hospital", "name": "Pronto Soccorso Ospedale Montebelluna"}}, {"name": "Pronto Soccorso Ospedale \"Ca' Foncello\"", "latitude": 45.6596138, "longitude": 12.2610924, "source": "osm", "_tags": {"addr:city": "Treviso", "amenity": "hospital", "emergency": "yes", "healthcare": "hospital", "name": "Pronto Soccorso Ospedale \"Ca' Foncello\"", "wheelchair": "limited"}}, {"name": "Pronto Soccorso Ospedale Oderzo", "latitude": 45.7814193, "longitude": 12.4880014, "source": "osm", "_tags": {"addr:city": "Oderzo", "amenity": "hospital", "emergency": "yes", "healthcare": "hospital", "name": "Pronto Soccorso Ospedale Oderzo"}}, {"name": "Pronto Soccorso Ospedale Jesolo", "latitude": 45.5110136, "longitude": 12.6598247, "source": "osm", "_tags": {"addr:city": "Jesolo", "addr:housenumber": "104", "addr:street": "Via Levantina", "check_date": "2025-09-05", "emergency": "emergency_ward_entrance", "healthcare": "hospital", "name": "Pronto Soccorso Ospedale Jesolo", "phone": "+39 0421 388411"}}, {"name": "Pronto Soccorso Ospedale dell'Angelo", "latitude": 45.5142897, "longitude": 12.2244128, "source": "osm", "_tags": {"addr:city": "Mestre", "amenity": "hospital", "check_date": "2024-10-13", "emergency": "emergency_ward_entrance", "entrance": "yes", "healthcare": "hospital", "name": "Pronto Soccorso Ospedale dell'Angelo"}}, {"name": "Pronto Soccorso", "latitude": 45.4228584, "longitude": 12.0687049, "source": "osm", "_tags": {"amenity": "doctors", "emergency": "emergency_ward_entrance", "fixme": "tag", "healthcare": "hospital", "name": "Pronto Soccorso"}}, {"name": "Pronto Soccorso Ospedale Mirano", "latitude": 45.4989853, "longitude": 12.111528, "source": "osm", "_tags": {"addr:city": "Mirano", "emergency": "emergency_ward_entrance", "healthcare": "hospital", "name": "Pronto Soccorso Ospedale Mirano"}}, {"name": "Istituto Ospedaliero Fatebenefratelli", "latitude": 45.4471781, "longitude": 12.3305534, "source": "osm", "_tags": {"amenity": "hospital", "emergency": "no", "healthcare": "hospital", "name": "Istituto Ospedaliero Fatebenefratelli", "operator": "Ordine Religioso di San Giovanni di Dio Fatebenefratelli"}}, {"name": "Ospedale di Portogruaro", "latitude": 45.7709907, "longitude": 12.8419048, "source": "osm", "_tags": {"access": "yes", "addr:city": "Portogruaro", "addr:housenumber": "1", "addr:postcode": "30026", "addr:street": "Via Piemonte", "amenity": "hospital", "entrance": "yes", "name": "Ospedale di Portogruaro", "operator": "ULSS4", "phone": "+3904217641", "wheelchair": "yes"}}, {"name": "Distretto Socio Sanitario Spinea", "latitude": 45.4913998, "longitude": 12.1553185, "source": "osm", "_tags": {"addr:city": "Spinea", "addr:country": "IT", "addr:housenumber": "17", "addr:postcode": "30038", "addr:street": "Via Murano", "amenity": "hospital", "emergency": "no", "healthcare": "hospital", "name": "Distretto Socio Sanitario Spinea", "operator": "Azienda ULSS3 Serenissima", "phone": "+390419654000", "website": "https://www.aulss3.veneto.it/"}}, {"name": "Servizio Antincendio Aeroporto di Belluno LIDB", "latitude": 46.1680808, "longitude": 12.2493895, "source": "osm", "_tags": {"amenity": "hospital", "description": "Servizio di Antincendio Aeroportuale H12 6 su 7", "healthcare": "hospital", "name": "Servizio Antincendio Aeroporto di Belluno LIDB"}}, {"name": "Distretto Socio Sanitario Via Tommaseo", "latitude": 45.4715214, "longitude": 12.2249656, "source": "osm", "_tags": {"addr:city": "Marghera", "addr:housenumber": "7", "addr:postcode": "30175", "addr:street": "Via Nicolò Tommaseo", "amenity": "hospital", "healthcare": "hospital", "healthcare:speciality": "cardiology;dermatology;neurology;neurosurgery;pulmonology", "name": "Distretto Socio Sanitario Via Tommaseo", "operator": "ULSS3 Serenissima"}}, {"name": "Ospedale Santa Maria degli Angeli", "latitude": 45.9689826, "longitude": 12.6534976, "source": "osm", "_tags": {"addr:city": "Pordenone", "addr:housenumber": "24", "addr:postcode": "33170", "addr:street": "Via Montereale", "amenity": "hospital", "emergency": "yes", "healthcare": "hospital", "name": "Ospedale Santa Maria degli Angeli", "operator": "Azienda per l'Assistenza Sanitaria n. 5 \"Friuli Occidentale\"", "operator:type": "public"}}, {"name": "", "latitude": 46.2654569, "longitude": 12.3006813, "source": "osm", "_tags": {"amenity": "hospital", "building": "yes"}}, {"name": "Ospedale dell'Angelo", "latitude": 45.5132094, "longitude": 12.222786, "source": "osm", "_tags": {"amenity": "hospital", "emergency": "yes", "healthcare": "hospital", "name": "Ospedale dell'Angelo", "wheelchair": "yes", "wikidata": "Q3886657"}}, {"name": "Ospedale \"Immacolata Concezione\"", "latitude": 46.1723814, "longitude": 12.7133961, "source": "osm", "_tags": {"addr:city": "Maniago", "addr:housenumber": "7", "addr:postcode": "33085", "addr:street": "Via Unità d'Italia", "amenity": "hospital", "check_date": "2024-03-13", "emergency": "yes", "healthcare": "hospital", "name": "Ospedale \"Immacolata Concezione\"", "operator": "Azienda per l'Assistenza Sanitaria n. 5 \"Friuli Occidentale\""}}, {"name": "Ospedale San Martino", "latitude": 46.1386993, "longitude": 12.2006341, "source": "osm", "_tags": {"amenity": "hospital", "healthcare": "hospital", "name": "Ospedale San Martino"}}, {"name": "Ospedale Giustinian", "latitude": 45.4317153, "longitude": 12.3228749, "source": "osm", "_tags": {"amenity": "hospital", "healthcare": "hospital", "name": "Ospedale Giustinian", "wheelchair": "yes"}}, {"name": "Servizio per le Dipendenze (SerD)", "latitude": 45.4858172, "longitude": 12.2099577, "source": "osm", "_tags": {"addr:city": "Mestre", "addr:housenumber": "19", "addr:postcode": "30174", "addr:street": "Via Calabria", "amenity": "hospital", "emergency": "no", "healthcare": "hospital", "healthcare:speciality": "community", "name": "Servizio per le Dipendenze (SerD)", "operator": "ULSS3", "operator:type": "public", "website": "https://www.aulss3.veneto.it/index.cfm?method=mys.page&content_id=1860"}}, {"name": "Presidio Ospedaliero \"De Gironcoli\"", "latitude": 45.8787269, "longitude": 12.2925602, "source": "osm", "_tags": {"alt_name": "Clinica De Gironcoli", "amenity": "hospital", "contact:phone": "+39 0438654111", "emergency": "no", "healthcare": "hospital", "name": "Presidio Ospedaliero \"De Gironcoli\"", "operator": "Azienda ULSS 2 Marca Trevigiana"}}, {"name": "Presidio Ospedaliero di Conegliano", "latitude": 45.8818988, "longitude": 12.2892107, "source": "osm", "_tags": {"alt_name": "Ospedale di Conegliano", "amenity": "hospital", "healthcare": "hospital", "name": "Presidio Ospedaliero di Conegliano", "operator": "Azienda ULSS n. 2 Marca Trevigiana", "operator:type": "public", "phone": "+39 0438 663111"}}, {"name": "", "latitude": 46.1589012, "longitude": 12.222696, "source": "osm", "_tags": {"amenity": "hospital", "healthcare": "hospital", "note": "Area di pertinenza ospedale"}}, {"name": "Ospedale Civile di Montebelluna San Valentino", "latitude": 45.7769238, "longitude": 12.0354267, "source": "osm", "_tags": {"amenity": "hospital", "emergency": "yes", "name": "Ospedale Civile di Montebelluna San Valentino", "note": "Area di pertinenza ospedale"}}, {"name": "Ospedale di San Donà di Piave", "latitude": 45.6346871, "longitude": 12.5735333, "source": "osm", "_tags": {"amenity": "hospital", "healthcare": "hospital", "name": "Ospedale di San Donà di Piave", "toilets:wheelchair": "yes", "wheelchair": "yes", "wikidata": "Q30281169"}}, {"name": "Casa di Cura Rizzola", "latitude": 45.6325935, "longitude": 12.5629091, "source": "osm", "_tags": {"amenity": "hospital", "healthcare": "hospital", "name": "Casa di Cura Rizzola", "note": "Area di pertinenza ospedale", "toilets:wheelchair": "yes", "wheelchair": "yes"}}, {"name": "Presidio Ospedaliero di Vittorio Veneto", "latitude": 45.987437, "longitude": 12.3206109, "source": "osm", "_tags": {"alt_name": "Ospedale di Vittorio Veneto", "amenity": "hospital", "contact:phone": "+39 0438665111", "emergency": "yes", "healthcare": "hospital", "name": "Presidio Ospedaliero di Vittorio Veneto", "operator": "Azienda ULSS n. 7 Pieve Di Soligo"}}, {"name": "Centro di Medicina", "latitude": 45.6985722, "longitude": 12.2560318, "source": "osm", "_tags": {"addr:housenumber": "10b", "addr:postcode": "31050", "addr:street": "Viale della Repubblica", "amenity": "hospital", "building": "yes", "building:levels": "2", "email": "treviso@centrodimedicina.com", "emergency": "no", "fax": "+39 042 26 98 150", "healthcare": "hospital", "name": "Centro di Medicina", "phone": "+39 042 26 98 111", "website": "https://centrodimedicina.com/"}}, {"name": "Ospedale Santi Giovanni e Paolo", "latitude": 45.4403613, "longitude": 12.3434659, "source": "osm", "_tags": {"alt_name": "Ospedale civile di Venezia", "amenity": "hospital", "emergency": "yes", "healthcare": "hospital", "name": "Ospedale Santi Giovanni e Paolo", "wikidata": "Q30281157"}}, {"name": "Ex Silos", "latitude": 45.7704033, "longitude": 12.8392988, "source": "osm", "_tags": {"amenity": "hospital", "healthcare": "hospital", "name": "Ex Silos"}}, {"name": "Ospedale di Portogruaro", "latitude": 45.769986, "longitude": 12.8418242, "source": "osm", "_tags": {"amenity": "hospital", "emergency": "yes", "healthcare": "hospital", "name": "Ospedale di Portogruaro"}}, {"name": "Casa di Riposo", "latitude": 45.7796427, "longitude": 12.8390261, "source": "osm", "_tags": {"amenity": "hospital", "healthcare": "hospital", "name": "Casa di Riposo"}}, {"name": "Ospedale di Oderzo", "latitude": 45.7803424, "longitude": 12.4870947, "source": "osm", "_tags": {"amenity": "hospital", "emergency": "yes", "healthcare": "hospital", "name": "Ospedale di Oderzo", "note": "Area di pertinenza ospedale"}}, {"name": "Centro LIFE", "latitude": 45.7836231, "longitude": 12.4996402, "source": "osm", "_tags": {"amenity": "hospital", "building": "yes", "healthcare": "hospital", "name": "Centro LIFE", "website": "https://www.centrolifeoderzo.it/"}}, {"name": "Ospedale di Agordo", "latitude": 46.283964, "longitude": 12.0383381, "source": "osm", "_tags": {"amenity": "hospital", "healthcare": "hospital", "name": "Ospedale di Agordo", "note": "Area di pertinenza ospedale", "operator": "Azienda ULSS n. 1 Dolomiti", "operator:type": "public", "phone": "+39 0437 645111", "website": "https://www.aulss1.veneto.it/sezione/ospedale-di-agordo/", "wheelchair": "yes"}}, {"name": "Centro Diurno Albero Maestro", "latitude": 45.5618068, "longitude": 12.1806825, "source": "osm", "_tags": {"addr:city": "Peseggia", "addr:housenumber": "154", "addr:postcode": "30030", "addr:street": "Via Vecchia Moglianese", "amenity": "hospital", "emergency": "no", "healthcare": "hospital", "name": "Centro Diurno Albero Maestro", "note": "Area di pertinenza ospedale", "operator": "ACLICOOP - COOPERATIVA SOCIALE ONLUS", "operator:type": "cooperative", "website": "https://www.aclicoop.com/albero-maestro", "wheelchair": "yes"}}, {"name": "", "latitude": 45.5345319, "longitude": 12.2524459, "source": "osm", "_tags": {"amenity": "hospital", "note": "Area di pertinenza ospedale"}}, {"name": "Ospedale Civile di Mirano", "latitude": 45.4992978, "longitude": 12.1124365, "source": "osm", "_tags": {"amenity": "hospital", "healthcare": "hospital", "name": "Ospedale Civile di Mirano", "note": "Area di pertinenza ospedale"}}, {"name": "", "latitude": 45.5222223, "longitude": 12.1043259, "source": "osm", "_tags": {"amenity": "hospital", "healthcare": "hospital", "note": "Area di pertinenza ospedale"}}, {"name": "", "latitude": 45.5128775, "longitude": 12.1155183, "source": "osm", "_tags": {"amenity": "hospital", "healthcare": "hospital", "note": "Area di pertinenza ospedale"}}, {"name": "Distretto Sociosanitario Martellago", "latitude": 45.5433635, "longitude": 12.1630136, "source": "osm", "_tags": {"amenity": "hospital", "healthcare": "hospital", "name": "Distretto Sociosanitario Martellago", "note": "Area di pertinenza ospedale"}}, {"name": "Casa di Comunità Noale (ex Ospedale)", "latitude": 45.5512014, "longitude": 12.0754102, "source": "osm", "_tags": {"addr:housenumber": "3", "addr:street": "Largo San Giorgio", "amenity": "hospital", "emergency": "yes", "healthcare": "hospital", "name": "Casa di Comunità Noale (ex Ospedale)", "note": "Area di pertinenza ospedale"}}, {"name": "Ospedale di Dolo", "latitude": 45.4227737, "longitude": 12.0696387, "source": "osm", "_tags": {"amenity": "hospital", "fixme": "hospital road layout needs updating", "healthcare": "hospital", "name": "Ospedale di Dolo"}}, {"name": "Ospedale \"San Gregorio\"", "latitude": 45.9566552, "longitude": 12.4994712, "source": "osm", "_tags": {"addr:city": "Sacile", "addr:housenumber": "4", "addr:postcode": "33077", "addr:street": "Via Ettoreo", "amenity": "hospital", "emergency": "yes", "emergency:conditional": "no @ (20:00-08:00)", "healthcare": "hospital", "healthcare:speciality": "general;vaccination", "name": "Ospedale \"San Gregorio\"", "operator": "Azienda per l'Assistenza Sanitaria n. 5 \"Friuli Occidentale\"", "operator:type": "public"}}, {"name": "Ospedale \"Santa Maria dei Battuti\"", "latitude": 45.9115865, "longitude": 12.855502, "source": "osm", "_tags": {"addr:city": "San Vito al Tagliamento", "addr:housenumber": "2", "addr:postcode": "33078", "addr:street": "Via Savorgnano", "amenity": "hospital", "area": "yes", "emergency": "yes", "healthcare": "hospital", "name": "Ospedale \"Santa Maria dei Battuti\"", "operator": "Azienda per l'Assistenza Sanitaria 5 \"Friuli Occidentale\"", "wheelchair": "yes"}}, {"name": "Ospedale Riabilitativo di Motta di Livenza", "latitude": 45.7735684, "longitude": 12.5983958, "source": "osm", "_tags": {"amenity": "hospital", "healthcare": "hospital", "name": "Ospedale Riabilitativo di Motta di Livenza", "note": "Area di pertinenza ospedale", "website": "https://www.ospedalemotta.it/"}}, {"name": "Policlinico San Marco", "latitude": 45.493109, "longitude": 12.248614, "source": "osm", "_tags": {"amenity": "hospital", "healthcare": "hospital", "name": "Policlinico San Marco"}}, {"name": "Ospedale Vecchio di Montebelluna", "latitude": 45.771211, "longitude": 12.0338401, "source": "osm", "_tags": {"addr:city": "Montebelluna", "addr:postcode": "31044", "addr:street": "Via Sant'Andrea", "amenity": "hospital", "emergency": "no", "name": "Ospedale Vecchio di Montebelluna", "website": "https://www.ulssasolo.ven.it/Area-socio-sanitaria/Sedi/Montebelluna/Ospedale-Vecchio"}}, {"name": "Ospedale di Pederobba", "latitude": 45.8775851, "longitude": 11.9479272, "source": "osm", "_tags": {"amenity": "hospital", "healthcare": "hospital", "name": "Ospedale di Pederobba"}}, {"name": "", "latitude": 45.8986738, "longitude": 12.1758499, "source": "osm", "_tags": {"amenity": "hospital", "healthcare": "hospital", "note": "Area di pertinenza ospedale"}}, {"name": "", "latitude": 45.897937, "longitude": 11.9867447, "source": "osm", "_tags": {"amenity": "hospital"}}, {"name": "", "latitude": 45.9004257, "longitude": 11.9904413, "source": "osm", "_tags": {"amenity": "hospital", "healthcare": "hospital"}}, {"name": "", "latitude": 45.7330306, "longitude": 12.2544133, "source": "osm", "_tags": {"amenity": "hospital", "healthcare": "hospital", "layer": "1", "note": "Verificare che non sia più indicato landuse=commercial."}}, {"name": "Ospedale generale di zona San Camillo", "latitude": 45.6748074, "longitude": 12.251329, "source": "osm", "_tags": {"amenity": "hospital", "healthcare": "hospital", "name": "Ospedale generale di zona San Camillo", "note": "Area di pertinenza ospedale"}}, {"name": "", "latitude": 45.5596901, "longitude": 12.2690039, "source": "osm", "_tags": {"amenity": "hospital", "note": "Area di pertinenza ospedale"}}, {"name": "", "latitude": 45.5552623, "longitude": 12.271411, "source": "osm", "_tags": {"amenity": "hospital", "healthcare": "hospital"}}, {"name": "Ospedale Ca' Foncello", "latitude": 45.6598165, "longitude": 12.2573006, "source": "osm", "_tags": {"amenity": "hospital", "emergency": "no", "healthcare": "hospital", "name": "Ospedale Ca' Foncello", "wheelchair": "limited", "wikidata": "Q30254197"}}, {"name": "Pronto Soccorso Ospedale Caorle", "latitude": 45.6018524, "longitude": 12.8814368, "source": "osm", "_tags": {"addr:city": "Caorle", "amenity": "hospital", "building": "yes", "emergency": "yes", "healthcare": "hospital", "name": "Pronto Soccorso Ospedale Caorle"}}, {"name": "", "latitude": 45.4628582, "longitude": 11.9605361, "source": "osm", "_tags": {"amenity": "hospital", "healthcare": "hospital"}}, {"name": "Ospedale \"San Giovanni dei Battuti\"", "latitude": 46.111804, "longitude": 12.8905518, "source": "osm", "_tags": {"addr:city": "Spilimbergo", "addr:housenumber": "1", "addr:postcode": "33097", "addr:street": "Via Raffaello Sanzio", "amenity": "hospital", "check_date": "2024-12-01", "emergency": "yes", "healthcare": "hospital", "name": "Ospedale \"San Giovanni dei Battuti\"", "operator": "Azienda per l'Assistenza Sanitaria n.5 \"Friuli Occidentale\"", "phone": "+390427595595"}}, {"name": "Bellunomedica - Salus", "latitude": 46.1478532, "longitude": 12.21784, "source": "osm", "_tags": {"amenity": "hospital", "healthcare": "hospital", "name": "Bellunomedica - Salus"}}, {"name": "", "latitude": 46.1374208, "longitude": 12.2053219, "source": "osm", "_tags": {"amenity": "hospital", "healthcare": "hospital"}}, {"name": "Madonnina", "latitude": 45.6698724, "longitude": 12.2227467, "source": "osm", "_tags": {"amenity": "hospital", "healthcare": "hospital", "name": "Madonnina", "operator": "ULSS 9"}}, {"name": "", "latitude": 45.7912511, "longitude": 12.8482655, "source": "osm", "_tags": {"amenity": "hospital", "healthcare": "hospital"}}, {"name": "Casa di Cura San Giorgio", "latitude": 45.94655, "longitude": 12.6598849, "source": "osm", "_tags": {"amenity": "hospital", "emergency": "no", "healthcare": "hospital", "name": "Casa di Cura San Giorgio", "operator": "Policlinico San Giorgio SpA"}}, {"name": "Casa di Cura Papa Giovanni XXIII", "latitude": 45.6568058, "longitude": 12.4285162, "source": "osm", "_tags": {"amenity": "hospital", "healthcare": "hospital", "name": "Casa di Cura Papa Giovanni XXIII", "wheelchair": "yes"}}, {"name": "", "latitude": 45.88825, "longitude": 12.3499703, "source": "osm", "_tags": {"amenity": "hospital", "healthcare": "hospital"}}, {"name": "Ospedale Regionale \"Ca'Foncello\"", "latitude": 45.65945, "longitude": 12.2630614, "source": "osm", "_tags": {"amenity": "hospital", "emergency": "yes", "healthcare": "hospital", "name": "Ospedale Regionale \"Ca'Foncello\""}}, {"name": "Centro Esperia", "latitude": 45.9656602, "longitude": 12.6108985, "source": "osm", "_tags": {"addr:city": "Porcia", "addr:postcode": "33080", "addr:street": "Via dei Serviti", "amenity": "hospital", "healthcare": "hospital", "healthcare:speciality": "general;orthopaedics;cardiology;vaccination;radiology", "name": "Centro Esperia"}}, {"name": "", "latitude": 46.1533271, "longitude": 12.2143113, "source": "osm", "_tags": {"amenity": "hospital", "healthcare": "hospital"}}, {"name": "Istituto Zooprofilattico delle Venezie - sede di Belluno", "latitude": 46.1468519, "longitude": 12.209694, "source": "osm", "_tags": {"amenity": "hospital", "healthcare": "hospital", "name": "Istituto Zooprofilattico delle Venezie - sede di Belluno"}}, {"name": "", "latitude": 45.9164726, "longitude": 12.356513, "source": "osm", "_tags": {"amenity": "hospital", "healthcare": "hospital"}}, {"name": "Presidio Ospedaliero Di Jesolo", "latitude": 45.5104477, "longitude": 12.6585966, "source": "osm", "_tags": {"amenity": "hospital", "healthcare": "hospital", "name": "Presidio Ospedaliero Di Jesolo", "wheelchair": "yes"}}, {"name": "", "latitude": 45.7817412, "longitude": 12.848434, "source": "osm", "_tags": {"amenity": "hospital", "healthcare": "hospital"}}, {"name": "Dipartimento di salute mentale", "latitude": 45.9120528, "longitude": 12.8577648, "source": "osm", "_tags": {"amenity": "hospital", "healthcare": "hospital", "name": "Dipartimento di salute mentale"}}, {"name": "", "latitude": 45.9163547, "longitude": 12.3491028, "source": "osm", "_tags": {"amenity": "hospital", "healthcare": "hospital"}}, {"name": "Centro medico San Biagio", "latitude": 45.7782218, "longitude": 12.9026104, "source": "osm", "_tags": {"amenity": "hospital", "healthcare": "hospital", "name": "Centro medico San Biagio"}}, {"name": "", "latitude": 45.661392, "longitude": 12.2534013, "source": "osm", "_tags": {"amenity": "hospital", "healthcare": "hospital"}}, {"name": "", "latitude": 45.9722645, "longitude": 12.6506444, "source": "osm", "_tags": {"amenity": "hospital", "healthcare": "hospital"}}, {"name": "CRO - Centro di Riferimento Oncologico", "latitude": 46.0631968, "longitude": 12.5636094, "source": "osm", "_tags": {"amenity": "hospital", "building": "yes", "healthcare": "hospital", "healthcare:speciality": "radiology;radiotherapy;diagnostic_radiology", "height": "33 m", "it:fvg:ctrn:code": "4AED", "man_made": "particle_accelerator", "name": "CRO - Centro di Riferimento Oncologico", "name:it": "Centro di Riferimento Oncologico di Aviano", "particle_accelerator": "circular", "substance": "proton", "type": "multipolygon", "website": "https://www.cro.it/"}}, {"name": "Ospedale \"Immacolata Concezione\"", "latitude": 46.1723856, "longitude": 12.7133961, "source": "osm", "_tags": {"amenity": "hospital", "emergency": "yes", "name": "Ospedale \"Immacolata Concezione\"", "site": "hospital", "type": "site"}}, {"name": "Villa Salus", "latitude": 45.5141849, "longitude": 12.2392518, "source": "osm", "_tags": {"amenity": "hospital", "building": "yes", "healthcare": "hospital", "name": "Villa Salus", "type": "multipolygon", "wikidata": "Q18785686"}}, {"name": "Ospedale \"San Gregorio\"", "latitude": 45.9566552, "longitude": 12.4994712, "source": "osm", "_tags": {"amenity": "hospital", "emergency": "yes", "emergency:conditional": "no @ (20:00-08:00)", "name": "Ospedale \"San Gregorio\"", "operator": "Azienda per i Servizi Sanitari n° 6 \"Friuli Occidentale\"", "type": "site"}}]