[{"name": "Spitalul Municipal", "latitude": 46.2207744, "longitude": 24.783871, "source": "osm", "_tags": {"amenity": "hospital", "created_by": "Potlatch 0.10f", "name": "Spitalul Municipal"}}, {"name": "Maternitatea de Psihologie", "latitude": 45.8071281, "longitude": 24.1564076, "source": "osm", "_tags": {"amenity": "hospital", "healthcare": "hospital", "is_in:city": "Sibiu", "is_in:country": "Romania", "is_in:country_code": "RO", "is_in:county": "Sibiu", "name": "Maternitatea de Psihologie"}}, {"name": "", "latitude": 45.797659, "longitude": 24.1430113, "source": "osm", "_tags": {"amenity": "hospital", "healthcare": "hospital", "is_in:city": "Sibiu", "is_in:country": "Romania", "is_in:country_code": "RO", "is_in:county": "Sibiu"}}, {"name": "Policlinica", "latitude": 46.2219334, "longitude": 24.792943, "source": "osm", "_tags": {"amenity": "hospital", "healthcare": "hospital", "name": "Policlinica"}}, {"name": "Dispensarul TBC", "latitude": 46.2195292, "longitude": 24.7871661, "source": "osm", "_tags": {"amenity": "hospital", "healthcare": "hospital", "name": "Dispensarul TBC"}}, {"name": "", "latitude": 45.7258055, "longitude": 24.7057415, "source": "osm", "_tags": {"amenity": "hospital", "healthcare": "hospital"}}, {"name": "Spitalul European Polisano", "latitude": 45.7936988, "longitude": 24.1579366, "source": "osm", "_tags": {"addr:city": "Sibiu", "addr:housenumber": "1 A", "addr:postcode": "550172", "addr:street": "Strada Izvorului", "amenity": "hospital", "name": "Spitalul European Polisano"}}, {"name": "Dispensar Medical Vasile Aaron", "latitude": 45.7855841, "longitude": 24.1694316, "source": "osm", "_tags": {"addr:city": "Sibiu", "addr:housenumber": "20", "addr:street": "Strada Vasile Aaron", "amenity": "hospital", "emergency": "no", "healthcare": "hospital", "healthcare:speciality": "community;general", "name": "Dispensar Medical Vasile Aaron"}}, {"name": "Dispensar Câineni", "latitude": 45.4938556, "longitude": 24.309386, "source": "osm", "_tags": {"addr:city": "Câinenii Mici", "addr:postcode": "247087", "amenity": "hospital", "healthcare": "clinic", "name": "Dispensar Câineni"}}, {"name": "Dispensar medical", "latitude": 45.786376, "longitude": 24.1346701, "source": "osm", "_tags": {"amenity": "hospital", "healthcare": "hospital", "name": "Dispensar medical", "operator": "Direcția Sanitară Spitalul Județean Sibiu"}}, {"name": "Bloc materno-infantil, Cardiologie, Radiologie, Laborator analize, Farmacie", "latitude": 45.7944763, "longitude": 24.1555849, "source": "osm", "_tags": {"addr:city": "Sibiu", "addr:housenumber": "2 - 4", "addr:postcode": "550245", "addr:street": "Bulevardul Corneliu Coposu", "amenity": "hospital", "building": "hospital", "building:levels": "5", "check_date": "2025-08-28", "healthcare": "hospital", "healthcare:speciality": "cardiology;radiology", "is_in:city": "Sibiu", "is_in:country": "Romania", "is_in:country_code": "RO", "is_in:county": "Sibiu", "name": "Bloc materno-infantil, Cardiologie, Radiologie, Laborator analize, Farmacie", "source": "Bing"}}, {"name": "Spitalul de Boli infecțioase (copii)", "latitude": 45.7907515, "longitude": 24.1394337, "source": "osm", "_tags": {"amenity": "hospital", "building": "yes", "is_in:city": "Sibiu", "is_in:country": "Romania", "is_in:country_code": "RO", "is_in:county": "Sibiu", "name": "Spitalul de Boli infecțioase (copii)"}}, {"name": "", "latitude": 45.7936461, "longitude": 24.1420598, "source": "osm", "_tags": {"addr:city": "Sibiu", "addr:street": "Strada Morilor", "amenity": "hospital", "building": "yes", "healthcare": "hospital", "is_in:city": "Sibiu", "is_in:country": "Romania", "is_in:country_code": "RO", "is_in:county": "Sibiu"}}, {"name": "Endocrinologie", "latitude": 45.7952566, "longitude": 24.1575539, "source": "osm", "_tags": {"amenity": "hospital", "building": "hospital", "healthcare": "hospital", "healthcare:speciality": "endocrinology", "name": "Endocrinologie"}}, {"name": "Policlinica CFR", "latitude": 45.792187, "longitude": 24.1574059, "source": "osm", "_tags": {"amenity": "hospital", "building": "yes", "healthcare": "hospital", "is_in:city": "Sibiu", "is_in:country": "Romania", "is_in:country_code": "RO", "is_in:county": "Sibiu", "name": "Policlinica CFR"}}, {"name": "Spitalul de Pediatrie \"Luther\"", "latitude": 45.7928466, "longitude": 24.1476706, "source": "osm", "_tags": {"addr:city": "Sibiu", "addr:street": "Strada Gheorghe Barițiu", "amenity": "hospital", "building": "yes", "healthcare": "hospital", "is_in:city": "Sibiu", "is_in:country": "Romania", "is_in:country_code": "RO", "is_in:county": "Sibiu", "name": "Spitalul de Pediatrie \"Luther\""}}, {"name": "Spitalul Clinic Județean de Urgentă", "latitude": 45.7946696, "longitude": 24.1574101, "source": "osm", "_tags": {"amenity": "hospital", "name": "Spitalul Clinic Județean de Urgentă", "wikidata": "Q50036410"}}, {"name": "Policlinica \"Paltinul\"", "latitude": 45.7811714, "longitude": 24.1598764, "source": "osm", "_tags": {"addr:city": "Sibiu", "addr:housenumber": "21", "addr:postcode": "550330", "addr:street": "Strada Luptei", "amenity": "hospital", "building": "yes", "healthcare": "hospital", "is_in:city": "Sibiu", "is_in:country": "Romania", "is_in:country_code": "RO", "is_in:county": "Sibiu", "name": "Policlinica \"Paltinul\"", "website": "https://www.clinicapaltinul.ro/"}}, {"name": "Spitalul Agnita", "latitude": 45.9791302, "longitude": 24.6225777, "source": "osm", "_tags": {"addr:housenumber": "4", "addr:street": "Strada Spitalului", "amenity": "hospital", "building": "hospital", "name": "Spitalul Agnita", "source": "Bing"}}, {"name": "Spitalul Municipal", "latitude": 46.16321, "longitude": 24.3572684, "source": "osm", "_tags": {"amenity": "hospital", "name": "Spitalul Municipal"}}, {"name": "Polisano", "latitude": 45.7983035, "longitude": 24.1570485, "source": "osm", "_tags": {"amenity": "hospital", "building": "yes", "contact:website": "http://polisano.ro/", "healthcare": "hospital", "name": "Polisano"}}, {"name": "Clinica de obstretică ginecologie", "latitude": 46.2233219, "longitude": 24.7943537, "source": "osm", "_tags": {"alt_name": "Maternitate", "amenity": "hospital", "building": "yes", "healthcare": "hospital", "historic": "building", "name": "Clinica de obstretică ginecologie"}}, {"name": "Serviciul Județean de Ambulanță Sibiu", "latitude": 45.7978267, "longitude": 24.1588865, "source": "osm", "_tags": {"amenity": "hospital", "building": "yes", "healthcare": "hospital", "name": "Serviciul Județean de Ambulanță Sibiu"}}, {"name": "", "latitude": 45.7259564, "longitude": 24.705767, "source": "osm", "_tags": {"amenity": "hospital", "healthcare": "hospital"}}, {"name": "Spitalul Militar de Urgențe “Dr. Alexandru Augustin” Sibiu", "latitude": 45.7850329, "longitude": 24.1386968, "source": "osm", "_tags": {"addr:city": "Sibiu", "addr:housenumber": "46", "addr:postcode": "550024", "addr:street": "Bulevardul Victoriei", "alt_name": "Spitalul militar", "amenity": "hospital", "healthcare": "hospital", "is_in:city": "Sibiu", "is_in:country": "Romania", "is_in:country_code": "RO", "is_in:county": "Sibiu", "name": "Spitalul Militar de Urgențe “Dr. Alexandru Augustin” Sibiu", "website": "https://spitalmilitarsb.ro/"}}, {"name": "Spitalul Clinic Județean - Clinica de Pediatrie", "latitude": 45.7953103, "longitude": 24.1554348, "source": "osm", "_tags": {"addr:city": "Sibiu", "addr:housenumber": "2 - 4", "addr:postcode": "550166", "addr:street": "Strada Pompeiu Onofreiu", "amenity": "hospital", "check_date": "2025-05-09", "is_in:city": "Sibiu", "is_in:country": "România", "is_in:country_code": "RO", "is_in:state": "Sibiu", "is_in:state_code": "SB", "name": "Spitalul Clinic Județean - Clinica de Pediatrie", "website": "https://www.pediatriesibiu.ro/"}}, {"name": "", "latitude": 45.7921647, "longitude": 24.1558637, "source": "osm", "_tags": {"addr:city": "Sibiu", "amenity": "hospital", "operator": "Spitalul General CFR"}}, {"name": "Spitalul Municipal", "latitude": 46.3298616, "longitude": 24.2937497, "source": "osm", "_tags": {"amenity": "hospital", "building": "hospital", "healthcare": "hospital", "name": "Spitalul Municipal"}}, {"name": "Centru de dializă Diaverum", "latitude": 45.7959913, "longitude": 24.1335538, "source": "osm", "_tags": {"addr:city": "Sibiu", "addr:housenumber": "32", "addr:street": "Strada Distribuției", "amenity": "hospital", "building": "yes", "healthcare": "hospital", "name": "Centru de dializă Diaverum"}}, {"name": "Spitalul de Pneumoftiziologie Sibiu", "latitude": 45.7950982, "longitude": 24.1435651, "source": "osm", "_tags": {"amenity": "hospital", "contact:facebook": "https://www.facebook.com/Spitaltbcsb/", "email": "spitaltbcsibiu@yahoo.com", "emergency": "no", "healthcare": "hospital", "is_in:city": "Sibiu", "is_in:country": "Romania", "is_in:country_code": "RO", "is_in:county": "Sibiu", "loc_name": "Spitalul TBC", "mobile": "+40 790 012 598", "name": "Spitalul de Pneumoftiziologie Sibiu", "phone": "+40 269 210 979", "website": "http://spital-tbc.ro/"}}, {"name": "Cămin – Spital „Dr. Carl Wolff”", "latitude": 45.7977479, "longitude": 24.1398905, "source": "osm", "_tags": {"addr:city": "Sibiu", "addr:housenumber": "3-5", "addr:street": "Strada Pedagogilor", "amenity": "hospital", "email": "carlwolff@carlwolff.ro", "emergency": "no", "fax": "+40 269 223 680", "healthcare": "hospital", "name": "Cămin – Spital „Dr. Carl Wolff”", "phone": "+40 269 221 131", "website": "https://carlwolff.ro"}}, {"name": "Spitalul de Psihiatrie \"Dr. Gheorghe Preda\"", "latitude": 45.8081347, "longitude": 24.1545286, "source": "osm", "_tags": {"addr:city": "Sibiu", "addr:postcode": "550081", "amenity": "hospital", "building": "yes", "healthcare": "hospital", "height": "15", "name": "Spitalul de Psihiatrie \"Dr. Gheorghe Preda\"", "old_name": "Spitalul Nr. 3", "roof:height": "3", "roof:material": "roof_tiles", "roof:shape": "pyramidal"}}, {"name": "Spitalul Orășenesc Cisnădie", "latitude": 45.7087771, "longitude": 24.1454091, "source": "osm", "_tags": {"addr:city": "Cisnădie", "amenity": "hospital", "building": "yes", "healthcare": "hospital", "name": "Spitalul Orășenesc Cisnădie"}}]