[{"name": "Lánc utcai rendelő", "latitude": 46.076244, "longitude": 18.2408816, "source": "osm", "_tags": {"addr:city": "Pécs", "addr:housenumber": "12", "addr:postcode": "7626", "addr:street": "Lánc utca", "amenity": "hospital", "healthcare": "hospital", "internet_access": "wlan", "name": "Lánc utcai rendelő", "phone": "+3672523700"}}, {"name": "Veress Endre utcai rendelő", "latitude": 46.0642681, "longitude": 18.200501, "source": "osm", "_tags": {"addr:postcode": "7633", "amenity": "hospital", "healthcare": "hospital", "level": "3", "name": "Veress Endre utcai rendelő", "phone": "+0672523540"}}, {"name": "", "latitude": 45.8687877, "longitude": 18.4541819, "source": "osm", "_tags": {"amenity": "hospital", "healthcare": "hospital", "wheelchair": "yes"}}, {"name": "Sürgősségi betegfelvétel", "latitude": 46.0753541, "longitude": 18.2056072, "source": "osm", "_tags": {"amenity": "hospital", "check_date": "2025-04-25", "name": "Sürgősségi betegfelvétel"}}, {"name": "Pécsi Tudományegyetem Urológiai Klinika Fül-Orr-Gégeklinika", "latitude": 46.0748281, "longitude": 18.2300907, "source": "osm", "_tags": {"addr:city": "Pécs", "addr:housenumber": "2", "addr:postcode": "7621", "addr:street": "Munkácsy Mihály utca", "amenity": "hospital", "check_date": "2024-03-20", "healthcare": "hospital", "name": "Pécsi Tudományegyetem Urológiai Klinika Fül-Orr-Gégeklinika"}}, {"name": "Fiziotherapia Szakrendelés", "latitude": 46.0646151, "longitude": 18.200885, "source": "osm", "_tags": {"amenity": "hospital", "name": "Fiziotherapia Szakrendelés"}}, {"name": "Veress Endre utcai rendelő", "latitude": 46.0645896, "longitude": 18.2012196, "source": "osm", "_tags": {"amenity": "hospital", "name": "Veress Endre utcai rendelő"}}, {"name": "Janus Pannonius Klinikai Tömb", "latitude": 46.0754486, "longitude": 18.2052496, "source": "osm", "_tags": {"amenity": "hospital", "check_date": "2025-04-25", "name": "Janus Pannonius Klinikai Tömb"}}, {"name": "Rextra (orvosi műszer)", "latitude": 46.0714526, "longitude": 18.2055674, "source": "osm", "_tags": {"amenity": "hospital", "name": "Rextra (orvosi műszer)", "website": "https://rextra.hu/"}}, {"name": "OrtoProfil", "latitude": 46.0716778, "longitude": 18.2058021, "source": "osm", "_tags": {"amenity": "hospital", "name": "OrtoProfil", "website": "http://www.ortoprofil.hu/hu/orszagos-elerhetoseg/peci-uzlet"}}, {"name": "Pszichiátriai és Orvosi Pszichológiai Klinika", "latitude": 46.0724659, "longitude": 18.221705, "source": "osm", "_tags": {"healthcare": "hospital", "healthcare:speciality": "psychiatry", "name": "Pszichiátriai és Orvosi Pszichológiai Klinika"}}, {"name": "Neurológiai Klinika", "latitude": 46.0726557, "longitude": 18.2215708, "source": "osm", "_tags": {"healthcare": "hospital", "healthcare:speciality": "neurology", "name": "Neurológiai Klinika"}}, {"name": "Idegsebészeti Klinika", "latitude": 46.0727096, "longitude": 18.2222253, "source": "osm", "_tags": {"healthcare": "hospital", "healthcare:speciality": "neurosurgery", "name": "Idegsebészeti Klinika"}}, {"name": "Gyógytorna", "latitude": 46.0783586, "longitude": 18.210386, "source": "osm", "_tags": {"healthcare": "hospital", "healthcare:speciality": "physiatry", "name": "Gyógytorna"}}, {"name": "Szemészeti osztály", "latitude": 46.0783847, "longitude": 18.2103874, "source": "osm", "_tags": {"healthcare": "hospital", "healthcare:speciality": "ophthalmology", "name": "Szemészeti osztály"}}, {"name": "Fertőző osztály", "latitude": 46.0780358, "longitude": 18.2102546, "source": "osm", "_tags": {"healthcare": "hospital", "healthcare:speciality": "infectious_diseases", "name": "Fertőző osztály"}}, {"name": "Légúti betegségek osztálya", "latitude": 46.0780795, "longitude": 18.2099743, "source": "osm", "_tags": {"healthcare": "hospital", "healthcare:speciality": "pulmonology", "name": "Légúti betegségek osztálya"}}, {"name": "Anyaszállás", "latitude": 46.0783912, "longitude": 18.2109949, "source": "osm", "_tags": {"healthcare": "hospital", "name": "Anyaszállás"}}, {"name": "Psoriasis Centrum Harkány", "latitude": 45.8491364, "longitude": 18.2381061, "source": "osm", "_tags": {"amenity": "hospital", "name": "Psoriasis Centrum Harkány", "name:en": "Psoriasis Centrum Harkány", "name:hu": "Psoriasis Centrum Harkány"}}, {"name": "PTE Koronavírus Ellátó Központ", "latitude": 46.0735039, "longitude": 18.2200722, "source": "osm", "_tags": {"emergency": "no", "healthcare": "hospital", "name": "PTE Koronavírus Ellátó Központ", "operator": "Pécsi Tudományegyetem"}}, {"name": "Lječilište Bizovačke toplice", "latitude": 45.5809818, "longitude": 18.4599822, "source": "osm", "_tags": {"addr:housenumber": "39", "addr:street": "Sunčana ulica", "amenity": "hospital", "healthcare": "hospital", "healthcare:speciality": "physiatry", "name": "Lječilište Bizovačke toplice", "operator": "Lječilište Bizovačke toplice", "operator:type": "public", "website": "https://www.ljeciliste-bizovacke.hr/"}}, {"name": "Siklósi Kórház", "latitude": 45.8508491, "longitude": 18.2982572, "source": "osm", "_tags": {"amenity": "hospital", "contact:email": "skorhaz@dravanet.hu", "contact:fax": "+36 72 352 545", "contact:phone": "+36 72 352 411", "contact:website": "http://www.siklosikorhaz.hu/index.php/hu/", "healthcare": "hospital", "name": "Siklósi Kórház", "operator": "Siklósi Kórház Nonprofit Kft.", "operator:type": "public"}}, {"name": "Nukleáris medicina", "latitude": 46.0749144, "longitude": 18.204944, "source": "osm", "_tags": {"amenity": "hospital", "healthcare": "hospital", "name": "Nukleáris medicina"}}, {"name": "Szent Lukács kórház", "latitude": 46.3836539, "longitude": 18.143979, "source": "osm", "_tags": {"amenity": "hospital", "healthcare": "hospital", "name": "Szent Lukács kórház", "website": "https://szlkorhaz.hu/"}}, {"name": "Gyermekklinika", "latitude": 46.0702702, "longitude": 18.2224527, "source": "osm", "_tags": {"addr:city": "Pécs", "addr:housenumber": "7", "addr:postcode": "7623", "addr:street": "József Attila utca", "amenity": "hospital", "name": "Gyermekklinika"}}, {"name": "Pécsi Diagnosztikai Központ", "latitude": 46.0726442, "longitude": 18.2217783, "source": "osm", "_tags": {"addr:city": "Pécs", "addr:housenumber": "2", "addr:postcode": "7623", "addr:street": "Rét utca", "amenity": "hospital", "healthcare": "hospital", "name": "Pécsi Diagnosztikai Központ"}}, {"name": "PTE Klinikai Központ", "latitude": 46.0733215, "longitude": 18.220258, "source": "osm", "_tags": {"addr:city": "Pécs", "addr:housenumber": "1", "addr:postcode": "7621", "addr:street": "Rákóczi út", "amenity": "hospital", "healthcare": "hospital", "name": "PTE Klinikai Központ", "operator": "Pécsi Tudományegyetem"}}, {"name": "Fogászati és Szájsebészeti Klinika", "latitude": 46.0734229, "longitude": 18.2249401, "source": "osm", "_tags": {"building": "hospital", "healthcare": "hospital", "healthcare:speciality": "maxillofacial_surgery", "name": "Fogászati és Szájsebészeti Klinika"}}, {"name": "Zavod za fizikalnu medicinu i rehabilitaciju", "latitude": 45.5826252, "longitude": 18.4619379, "source": "osm", "_tags": {"addr:city": "Bizovac", "addr:housenumber": "37a", "addr:postcode": "31222", "addr:street": "Sunčana ulica", "amenity": "hospital", "email": "ofmir@kbco.hr", "fax": "+385 31 514 200", "healthcare": "hospital", "healthcare:speciality": "physiatry", "name": "Zavod za fizikalnu medicinu i rehabilitaciju", "operator": "Klinički bolnički centar Osijek", "operator:type": "public", "phone": "+385 31 514 100", "website": "https://www.kbco.hr/klinika/zavod-za-fizikalnu-medicinu-i-rehabilitaciju/"}}, {"name": "400 ágyas klinika", "latitude": 46.0752247, "longitude": 18.2058104, "source": "osm", "_tags": {"addr:city": "Pécs", "addr:housenumber": "13", "addr:postcode": "7624", "addr:street": "Ifjúság útja", "amenity": "hospital", "building": "hospital", "building:levels": "8", "check_date": "2025-04-25", "emergency": "yes", "name": "400 ágyas klinika"}}, {"name": "Szívgyógyászati Klinika", "latitude": 46.0752848, "longitude": 18.2046048, "source": "osm", "_tags": {"addr:city": "Pécs", "addr:housenumber": "13", "addr:postcode": "7624", "addr:street": "Ifjúság útja", "amenity": "hospital", "building": "hospital", "healthcare": "hospital", "name": "Szívgyógyászati Klinika"}}, {"name": "Klinički bolnički centar Osijek", "latitude": 45.5587513, "longitude": 18.713346, "source": "osm", "_tags": {"addr:city": "Osijek", "addr:housenumber": "4", "addr:postcode": "31000", "addr:street": "Ulica Josipa Huttlera", "amenity": "hospital", "healthcare": "hospital", "healthcare:speciality": "general;psychiatry;paediatrics;ophthalmology;orthopaedics;radiology;emergency;gynaecology;dermatology;surgery;oncology;maternity;neurology;otolaryngology;cardiology;geriatrics;dentistry;community;orthodontics;internal", "name": "Klinički bolnički centar Osijek", "operator": "Klinički bolnički centar Osijek", "operator:type": "public", "website": "https://www.kbco.hr/", "wikidata": "Q11098732", "wikipedia": "hr:KBC Osijek"}}, {"name": "Mohácsi Kórház", "latitude": 45.9971749, "longitude": 18.6823779, "source": "osm", "_tags": {"addr:city": "Mohács", "addr:housenumber": "7", "addr:postcode": "7700", "addr:street": "Szepessy tér", "amenity": "hospital", "email": "mohacs.titkarsag@pte.hu", "name": "Mohácsi Kórház"}}, {"name": "ll. Belgyógyászati Klinika és Nephrológiai Centrum", "latitude": 46.0762787, "longitude": 18.2053891, "source": "osm", "_tags": {"amenity": "hospital", "name": "ll. Belgyógyászati Klinika és Nephrológiai Centrum", "wheelchair": "limited"}}, {"name": "\"C\" épület", "latitude": 46.0737513, "longitude": 18.2201381, "source": "osm", "_tags": {"addr:city": "Pécs", "addr:postcode": "7623", "addr:street": "Szendrey Júlia utca", "building": "hospital", "description": "Megközelíthető a Rákóczi út 1.szám alatti porta felől", "healthcare": "hospital", "name": "\"C\" épület", "operator": "Pécsi Tudományegyetem"}}, {"name": "PTE KK \"F\" épület", "latitude": 46.0732192, "longitude": 18.2206465, "source": "osm", "_tags": {"building": "yes", "healthcare": "hospital", "name": "PTE KK \"F\" épület"}}, {"name": "PTE ÁOK Alapellátási Intézet", "latitude": 46.0739508, "longitude": 18.2211757, "source": "osm", "_tags": {"addr:city": "Pécs", "addr:housenumber": "1", "addr:postcode": "7621", "addr:street": "Rákóczi út", "building": "hospital", "emergency": "no", "healthcare": "hospital", "name": "PTE ÁOK Alapellátási Intézet", "operator": "PTE"}}, {"name": "Kaposi Mór Oktató Kórház Mosdósi Telephely", "latitude": 46.3548618, "longitude": 17.9955201, "source": "osm", "_tags": {"amenity": "hospital", "name": "Kaposi Mór Oktató Kórház Mosdósi Telephely"}}, {"name": "Balassa János Kórház", "latitude": 46.3436322, "longitude": 18.6984765, "source": "osm", "_tags": {"addr:city": "Szekszárd", "addr:housenumber": "5-7", "addr:postcode": "7100", "addr:street": "Béri Balogh Ádám utca", "amenity": "hospital", "name": "Balassa János Kórház", "old_name": "Horthy Miklós Kórház", "phone": "+36 74 501 500", "website": "https://tmkorhaz.hu/"}}, {"name": "Balassa János Kórház", "latitude": 46.3453053, "longitude": 18.7018836, "source": "osm", "_tags": {"amenity": "hospital", "name": "Balassa János Kórház"}}, {"name": "PTE Akác utcai klinikai tömb", "latitude": 46.05253, "longitude": 18.2280691, "source": "osm", "_tags": {"addr:city": "Pécs", "addr:housenumber": "1", "addr:postcode": "7632", "addr:street": "Akác utca", "amenity": "hospital", "name": "PTE Akác utcai klinikai tömb"}}, {"name": "Pécsi Irgalmasrendi Kórház", "latitude": 46.0748181, "longitude": 18.229186, "source": "osm", "_tags": {"amenity": "hospital", "ele": "150", "name": "Pécsi Irgalmasrendi Kórház", "website": "http://www.irgalmasrend.hu/site/pecs/home"}}, {"name": "Da Vinci magánklinika", "latitude": 46.0897048, "longitude": 18.2258612, "source": "osm", "_tags": {"amenity": "hospital", "name": "Da Vinci magánklinika", "website": "https://davincimaganklinika.hu/"}}, {"name": "Klinikai Központ", "latitude": 46.0783226, "longitude": 18.2106234, "source": "osm", "_tags": {"amenity": "hospital", "description": "A gyermekkórház alapítója Dr. Barla Szabó Jenő (1901-1979).", "name": "Klinikai Központ"}}, {"name": "Kaposi Mór Oktató Kórház Tüdő és szívkórháza.", "latitude": 46.354777, "longitude": 17.9941454, "source": "osm", "_tags": {"amenity": "hospital", "building": "yes", "name": "Kaposi Mór Oktató Kórház Tüdő és szívkórháza."}}, {"name": "Kórház", "latitude": 46.1881686, "longitude": 18.2717216, "source": "osm", "_tags": {"addr:city": "Komló", "addr:housenumber": "1", "addr:postcode": "7300", "addr:street": "Majális tér", "amenity": "hospital", "healthcare": "hospital", "name": "Kórház", "phone": "+36 72 582 340", "website": "https://www.komloikorhaz.hu/"}}, {"name": "PTE Szülészeti és Nőgyógyászati Klinika", "latitude": 46.0784867, "longitude": 18.2090646, "source": "osm", "_tags": {"addr:city": "Pécs", "addr:housenumber": "17", "addr:postcode": "7624", "addr:street": "Édesanyák útja", "amenity": "hospital", "check_date": "2024-03-22", "healthcare": "hospital", "healthcare:speciality": "gynaecology", "name": "PTE Szülészeti és Nőgyógyászati Klinika"}}, {"name": "Bőr-, Nemikórtani és Onkodermatológiai Klinika", "latitude": 46.0794415, "longitude": 18.2169203, "source": "osm", "_tags": {"amenity": "hospital", "description": "2013. december 9-től a Bőr-, Nemikórtani és Onkodermatológiai Klinika átköltözött az új, Akác utcai telephelyére.", "name": "Bőr-, Nemikórtani és Onkodermatológiai Klinika"}}, {"name": "PTE KK Kórlaptár", "latitude": 46.0725604, "longitude": 18.2203639, "source": "osm", "_tags": {"addr:city": "Pécs", "addr:housenumber": "1", "addr:postcode": "7621", "addr:street": "Rákóczi út", "building": "yes", "healthcare": "hospital", "name": "PTE KK Kórlaptár"}}, {"name": "Fogászati Klinika", "latitude": 46.0720292, "longitude": 18.2070057, "source": "osm", "_tags": {"addr:city": "Pécs", "addr:housenumber": "1", "addr:postcode": "7623", "addr:street": "Tüzér utca", "amenity": "hospital", "building": "yes", "healthcare": "dentist", "name": "Fogászati Klinika"}}, {"name": "\"B\" épület", "latitude": 46.0741685, "longitude": 18.2203581, "source": "osm", "_tags": {"building": "hospital", "healthcare": "hospital", "name": "\"B\" épület"}}, {"name": "\"K\" épület", "latitude": 46.0734814, "longitude": 18.2195959, "source": "osm", "_tags": {"addr:unit": "K", "building": "hospital", "healthcare": "hospital", "name": "\"K\" épület"}}, {"name": "\"T\" épület", "latitude": 46.0734355, "longitude": 18.220104, "source": "osm", "_tags": {"building": "hospital", "healthcare": "hospital", "name": "\"T\" épület", "operator": "Pécsi Tudományegyetem"}}, {"name": "Fizikális és Rehabilitációs Medicina önálló Tanszék", "latitude": 46.0724549, "longitude": 18.2213133, "source": "osm", "_tags": {"addr:city": "Pécs", "addr:housenumber": "2", "addr:postcode": "7623", "addr:street": "Rét utca", "building": "yes", "healthcare": "hospital", "name": "Fizikális és Rehabilitációs Medicina önálló Tanszék", "operator": "Pécsi Tudományegyetem"}}, {"name": "Opća županijska bolnica Našice", "latitude": 45.4887692, "longitude": 18.0977073, "source": "osm", "_tags": {"addr:housenumber": "10", "addr:street": "Ulica bana Josipa Jelačića", "amenity": "hospital", "healthcare": "hospital", "healthcare:speciality": "general", "name": "Opća županijska bolnica Našice", "operator": "Opća županijska bolnica Našice", "operator:type": "public", "website": "https://www.obnasice.hr/"}}, {"name": "Pécsi Tudományegyetem Klinikai Központ", "latitude": 46.0758766, "longitude": 18.2166212, "source": "osm", "_tags": {"amenity": "hospital", "name": "Pécsi Tudományegyetem Klinikai Központ", "old_name": "Baranya Megyei Kórház", "short_name": "PTE Klinikai Központ", "type": "multipolygon"}}, {"name": "Komlói Egészségcentrum, Bányászati Utókezelő és Éjjeli Szanatórium Egészségügyi Központ", "latitude": 46.1760918, "longitude": 18.2213809, "source": "osm", "_tags": {"amenity": "hospital", "healthcare": "rehabilitation", "healthcare:speciality": "rheumatology", "name": "Komlói Egészségcentrum, Bányászati Utókezelő és Éjjeli Szanatórium Egészségügyi Központ", "short_name": "Szanatórium", "type": "multipolygon"}}]