[{"name": "Sancellemoz", "latitude": 45.9392761, "longitude": 6.714928, "source": "osm", "_tags": {"amenity": "hospital", "healthcare": "hospital", "name": "Sancellemoz", "ref:FR:FINESS": "740780135", "type:FR:FINESS": "109", "wikidata": "Q2364887", "wikipedia": "en:Sancellemoz"}}, {"name": "Centre d'hémodialyse d'Onex", "latitude": 46.1831587, "longitude": 6.0993861, "source": "osm", "_tags": {"addr:city": "Onex", "addr:housenumber": "126", "addr:postcode": "1213", "addr:street": "Route de Chancy", "amenity": "hospital", "emergency": "no", "healthcare": "hospital", "healthcare:speciality": "dialysis;nephrology", "name": "Centre d'hémodialyse d'Onex"}}, {"name": "Hôpital de Jour Joseph Daquin", "latitude": 46.1807458, "longitude": 6.2482031, "source": "osm", "_tags": {"addr:city": "Vétraz-Monthoux", "addr:housenumber": "1", "addr:postcode": "74100", "addr:street": "Impasse Henri Becquerel", "contact:phone": "+33 4 50 04 61 80", "healthcare": "hospital", "healthcare:speciality": "psychiatry", "name": "Hôpital de Jour Joseph Daquin", "operator": "Etablissement Public de Santé Mentale de la Vallée de l'Arve", "ref:FR:FINESS": "740010715", "ref:FR:SIRET": "26740016600125", "short_name": "HDJ Joseph Daquin", "social_facility": "group_home", "social_facility:for": "mental_health", "source": "Le ministère des solidarités et de la santé - 03/2019", "type:FR:FINESS": "292"}}, {"name": "Centre médico-psychologique adultes Joseph Daquin", "latitude": 46.1807438, "longitude": 6.2483814, "source": "osm", "_tags": {"addr:city": "Vétraz-Monthoux", "addr:housenumber": "1", "addr:postcode": "74100", "addr:street": "Impasse Henri Becquerel", "contact:phone": "+33 4 50 95 27 45", "healthcare": "hospital", "healthcare:speciality": "psychiatry", "name": "Centre médico-psychologique adultes Joseph Daquin", "operator": "Etablissement Public de Santé Mentale de la Vallée de l'Arve", "ref:FR:FINESS": "740003389", "short_name": "CMP Joseph Daquin", "social_facility": "group_home", "social_facility:for": "mental_health", "start_date": "1976", "type:FR:FINESS": "156"}}, {"name": "Centre d'Accueil Thrapeutique temps partiel", "latitude": 46.3823437, "longitude": 6.5048598, "source": "osm", "_tags": {"addr:city": "Thonon-les-Bains", "addr:housenumber": "6", "addr:postcode": "74200", "addr:street": "Route de Vongy", "contact:phone": "+33 4 50 83 22 20", "healthcare": "hospital", "healthcare:speciality": "child_psychiatry", "name": "Centre d'Accueil Thrapeutique temps partiel", "operator": "Etablissement Publique de Santé Mentale de la Vallée de l'Arve", "ref:FR:FINESS": "740013305", "ref:FR:SIRET": "26741103100300", "short_name": "CATTP Adolescent", "source": "Le ministère des solidarités et de la santé - 03/2019", "type:FR:FINESS": "425"}}, {"name": "Centre de médico-psychologie infantile d'Évian", "latitude": 46.3990614, "longitude": 6.5855286, "source": "osm", "_tags": {"addr:city": "Évian-les-Bains", "addr:housenumber": "1", "addr:postcode": "74500", "addr:street": "Avenue de Larringes", "contact:phone": "+33 4 50 92 97 40", "contact:website": "http://www.ch-epsm74.org/psyinfanto.html", "healthcare": "hospital", "healthcare:speciality": "child_psychiatry", "level": "1", "name": "Centre de médico-psychologie infantile d'Évian", "operator": "Etablissement Public de Santé Mentale de la Vallée de l'Arve", "ref:FR:FINESS": "740790464", "ref:FR:SIRET": "26741103100284", "short_name": "CMPI", "source": "Le ministère des solidarités et de la santé - 03/2019", "start_date": "1993-01-01", "type:FR:FINESS": "156"}}, {"name": "Pôle Positif", "latitude": 46.204179, "longitude": 6.1727019, "source": "osm", "_tags": {"addr:city": "Genève", "addr:housenumber": "100", "addr:street": "Route de Frontenex", "amenity": "hospital", "check_date": "2024-10-13", "emergency": "no", "healthcare": "hospital", "healthcare:speciality": "psychiatry", "name": "Pôle Positif", "phone": "+41 22 321 93 73", "website": "https://www.polepositif.ch", "wheelchair": "yes"}}, {"name": "poste de secours", "latitude": 45.6427752, "longitude": 6.0617918, "source": "osm", "_tags": {"amenity": "hospital", "healthcare": "hospital", "name": "poste de secours", "operator": "Aillon-Margeriaz"}}, {"name": "Centre Médical de Satigny", "latitude": 46.2126998, "longitude": 6.0329634, "source": "osm", "_tags": {"addr:city": "Satigny", "addr:housenumber": "215", "addr:postcode": "1242", "addr:street": "Route d'Aire-la-Ville", "amenity": "hospital", "healthcare": "hospital", "healthcare:speciality": "general", "name": "Centre Médical de Satigny", "phone": "+41 22 753 12 07", "website": "https://www.cmsatigny.ch/"}}, {"name": "Unité de Santé Affective et Sexuelle", "latitude": 45.9335465, "longitude": 6.1169764, "source": "osm", "_tags": {"addr:housenumber": "1", "addr:postcode": "74370", "addr:street": "Avenue de l'Hopital", "amenity": "hospital", "name": "Unité de Santé Affective et Sexuelle", "opening_hours": "Mo-Fr 09:00-17:00", "phone": "+33 4 50 63 63 71"}}, {"name": "Centre Imagerie Servette", "latitude": 46.2129543, "longitude": 6.1253143, "source": "osm", "_tags": {"amenity": "hospital", "email": "info-cise@magellan.ch", "name": "Centre Imagerie Servette", "opening_hours": "Mo-Fr 08:00-18:00", "phone": "022 795 25 00", "website": "https://www.magellan.ch/centre/centre-imagerie-servette/"}}, {"name": "Maison Des Adolescents Rouge Cargo", "latitude": 46.1811213, "longitude": 6.248289, "source": "osm", "_tags": {"addr:city": "Vétraz-Monthoux", "addr:housenumber": "2", "addr:postcode": "74100", "addr:street": "Rue Pierre et Marie Curie", "healthcare": "hospital", "healthcare:speciality": "child_psychiatry", "name": "Maison Des Adolescents Rouge Cargo", "operator": "Etablissement Publique de Santé Mentale de la Vallée de l'Arve", "phone": "+33 4 50 95 09 51", "ref:FR:FINESS": "740017314", "type:FR:FINESS": "156"}}, {"name": "Centre d'Accueil Téhrapeutique à Temps Partiel", "latitude": 46.1808348, "longitude": 6.2477772, "source": "osm", "_tags": {"addr:city": "Vétraz-Monthoux", "addr:housenumber": "1", "addr:postcode": "74100", "addr:street": "Impasse Henri Becquerel", "contact:phone": "+334 50 87 21 65", "healthcare": "hospital", "healthcare:speciality": "psychiatry", "name": "Centre d'Accueil Téhrapeutique à Temps Partiel", "operator": "Etablissement Public de Santé Mentale de la Vallée de l'Arve", "ref:FR:FINESS": "740015102", "short_name": "CATTP Vetraz", "social_facility": "group_home", "social_facility:for": "mental_health", "source": "survey", "type:FR:FINESS": "425"}}, {"name": "CMP Enfant", "latitude": 46.1807466, "longitude": 6.2510177, "source": "osm", "_tags": {"addr:city": "Vétraz-Monthoux", "addr:housenumber": "43", "addr:postcode": "74100", "addr:street": "Chemin des Carrés", "healthcare": "hospital", "healthcare:speciality": "child_psychiatry", "name": "CMP Enfant", "operator": "Etablissement Public de Santé Mentale de la Vallée de l'Arve", "operator:type": "public", "phone": "+33 4 50 38 38 31", "ref:FR:FINESS": "740785308", "type:FR:FINESS": "156"}}, {"name": "cattp_ado", "latitude": 46.1810439, "longitude": 6.2485216, "source": "osm", "_tags": {"addr:city": "Vétraz-Monthoux", "addr:housenumber": "2", "addr:postcode": "74100", "addr:street": "Rue Pierre et Marie Curie", "healthcare": "hospital", "healthcare:speciality": "child_psychiatry", "name": "cattp_ado", "operator": "Etablissement Publique de Santé Mentale de la Vallée de l'Arve", "phone": "+33 4 50 95 09 51", "ref:FR:FINESS": "740015151", "type:FR:FINESS": "425"}}, {"name": "cattp_enfant", "latitude": 46.1807566, "longitude": 6.2508313, "source": "osm", "_tags": {"addr:city": "Vétraz-Monthoux", "addr:housenumber": "43", "addr:postcode": "74100", "addr:street": "Chemin des Carrés", "healthcare": "hospital", "healthcare:speciality": "child_psychiatry", "name": "cattp_enfant", "operator": "Etablissement Public de Santé Mentale de la Vallée de l'Arve", "operator:type": "public", "phone": "+33 4 50 84 32 95", "ref:FR:FINESS": "740015136", "type:FR:FINESS": "425"}}, {"name": "CMP Adultes", "latitude": 46.4006222, "longitude": 6.5862123, "source": "osm", "_tags": {"addr:city": "Évian-les-Bains", "addr:housenumber": "1", "addr:postcode": "74500", "addr:street": "Place Docteur Jean Escoubes", "healthcare": "hospital", "healthcare:speciality": "psychiatry", "name": "CMP Adultes", "operator": "Etablissement Public de Santé Mentale de la Vallée de l'Arve", "operator:type": "public", "phone": "04 50 25 95 81", "ref:FR:FINESS": "740013289", "type:FR:FINESS": "156", "website": "https://www.ch-epsm74.org/psygen.html#Evian"}}, {"name": "CMP Adultes", "latitude": 46.0803464, "longitude": 6.4060067, "source": "osm", "_tags": {"contact:city": "Bonneville", "contact:housenumber": "10", "contact:postcode": "74130", "contact:street": "Rue du Manet", "healthcare": "hospital", "healthcare:speciality": "psychiatry", "level": "2", "name": "CMP Adultes", "operator": "Etablissement Public de Santé Mentale de la Vallée de l'Arve", "operator:type": "public", "phone": "04 50 25 99 91", "ref:FR:FINESS": "740783279", "type:FR:FINESS": "156", "website": "https://www.ch-epsm74.org/psygen.html#Bonneville", "wheelchair": "yes"}}, {"name": "Osteo 7/7", "latitude": 46.2091006, "longitude": 6.1433455, "source": "osm", "_tags": {"addr:city": "Genève", "addr:housenumber": "21", "addr:postcode": "1201", "addr:street": "Rue du Mont-Blanc", "amenity": "hospital", "emergency": "yes", "healthcare": "hospital", "healthcare:speciality": "osteopathy", "name": "Osteo 7/7", "opening_hours": "7/7", "phone": "+41 22 510 50 50", "start_date": "2018-01-01", "website": "https://osteo7-7.ch"}}, {"name": "Centre Médico - Chirurgical", "latitude": 46.2083785, "longitude": 6.143518, "source": "osm", "_tags": {"amenity": "hospital", "healthcare": "hospital", "name": "Centre Médico - Chirurgical", "operator": "Mediclinic", "operator:type": "private", "operator:wikidata": "Q1916123"}}, {"name": "Pôle de santé des Toriolets", "latitude": 45.9174904, "longitude": 6.0921235, "source": "osm", "_tags": {"addr:housenumber": "5", "addr:postcode": "74960", "addr:street": "Rue Aimé Césaire", "amenity": "hospital", "healthcare": "hospital", "name": "Pôle de santé des Toriolets"}}, {"name": "Centre hospitalier spécialisé de Bassens", "latitude": 45.5774057, "longitude": 5.940074, "source": "osm", "_tags": {"amenity": "hospital", "healthcare": "hospital", "name": "Centre hospitalier spécialisé de Bassens", "ref:FR:FINESS": "730000304", "type:FR:FINESS": "292*", "wikidata": "Q22968397"}}, {"name": "Clinique Générale", "latitude": 45.8959874, "longitude": 6.1266314, "source": "osm", "_tags": {"amenity": "hospital", "email": "contact@clinique-generale.fr", "emergency": "yes", "fax": "+33 4 50 33 04 09", "healthcare": "hospital", "name": "Clinique Générale", "operator:type": "private", "phone": "+33 8 26 88 88 88", "ref:FR:FINESS": "740780424", "source": "cadastre-dgi-fr source : Direction Générale des Impôts - Cadastre ; mise à jour : 2018", "type:FR:FINESS": "365", "website": "https://clinique-generale.net/fr/documents/p_accueil.html"}}, {"name": "Clinique des Grangettes", "latitude": 46.1998203, "longitude": 6.1819982, "source": "osm", "_tags": {"amenity": "hospital", "healthcare": "hospital", "name": "Clinique des Grangettes"}}, {"name": "Hôpitaux universitaires de Genève", "latitude": 46.1919996, "longitude": 6.1480997, "source": "osm", "_tags": {"amenity": "hospital", "emergency": "yes", "healthcare": "hospital", "name": "Hôpitaux universitaires de Genève", "operator": "Hôpitaux universitaires de Genève (HUG)", "operator:type": "public", "phone": "+41 22 37 233 11", "short_name": "HUG", "website": "https://www.hug-ge.ch/", "wikidata": "Q3145370"}}, {"name": "Clinique d'Argonay", "latitude": 45.9491685, "longitude": 6.1502917, "source": "osm", "_tags": {"addr:city": "Argonay", "addr:housenumber": "685", "addr:postcode": "74370", "addr:street": "Route de Menthonnex", "amenity": "clinic", "building": "yes", "healthcare": "hospital", "healthcare:speciality": "chirurgie", "name": "Clinique d'Argonay", "operator": "Ramsay", "operator:type": "private", "phone": "+33 4 28 63 74 00", "ref:FR:FINESS": "740780416", "source": "cadastre-dgi-fr source : Direction Générale des Impôts - Cadastre. Mise à jour : 2010", "type:FR:FINESS": "365", "website": "https://clinique-d-argonay.ramsaysante.fr/"}}, {"name": "CMPI", "latitude": 45.940667, "longitude": 6.6344035, "source": "osm", "_tags": {"addr:city": "Sallanches", "addr:housenumber": "127", "addr:postcode": "74700", "addr:street": "Rue Dominique Cancellieri", "amenity": "hospital", "healthcare": "hospital", "healthcare:speciality": "child_psychiatry", "name": "CMPI", "operator": "Etablissement Public de Santé Mentale de la Vallée de l'Arve", "operator:type": "public", "ref:FR:APE": "8610Z", "ref:FR:FINESS": "74 001 720 7", "type:FR:FINESS": "156", "wall": "no"}}, {"name": "Hopital de jour pour adultes de Sallanches", "latitude": 45.9407385, "longitude": 6.6340875, "source": "osm", "_tags": {"addr:city": "Sallanches", "addr:housenumber": "127", "addr:postcode": "74700", "addr:street": "Rue Dominique Cancellieri", "amenity": "hospital", "healthcare": "hospital", "healthcare:speciality": "psychiatry", "name": "Hopital de jour pour adultes de Sallanches", "operator": "Etablissement Public de Santé Mentale de la Vallée de l'Arve", "operator:type": "public", "ref:FR:FINESS": "740011440", "type:FR:FINESS": "292", "wall": "no"}}, {"name": "Centre Medico Psychologique pour adultes de Sallanches", "latitude": 45.940667, "longitude": 6.6342195, "source": "osm", "_tags": {"addr:city": "Sallanches", "addr:housenumber": "127", "addr:postcode": "74700", "addr:street": "Rue Dominique Cancellieri", "amenity": "hospital", "healthcare": "hospital", "healthcare:speciality": "psychiatry", "name": "Centre Medico Psychologique pour adultes de Sallanches", "operator": "Etablissement Public de Santé Mentale de la Vallée de l'Arve", "operator:type": "public", "phone": "+33 4 50 47 89 18", "ref:FR:APE": "8610Z", "ref:FR:FINESS": "74 078 329 5", "type:FR:FINESS": "156", "wall": "no"}}, {"name": "Centre d'Accueil Thérapeutique à temps partiel Infanto-juvénile", "latitude": 45.9407365, "longitude": 6.63449, "source": "osm", "_tags": {"addr:city": "Sallanches", "addr:housenumber": "127", "addr:postcode": "74700", "addr:street": "Rue Dominique Cancellieri", "amenity": "hospital", "healthcare": "hospital", "healthcare:speciality": "child_psychiatry", "name": "Centre d'Accueil Thérapeutique à temps partiel Infanto-juvénile", "operator": "Etablissement Public de Santé Mentale de la Vallée de l'Arve", "operator:type": "public", "ref:FR:APE": "8610Z", "ref:FR:FINESS": "74 001 514 4", "short_name": "CATTPI", "type:FR:FINESS": "425", "wall": "no"}}, {"name": "Hôpital de jour petite enfance Bleu Soleil", "latitude": 46.368537, "longitude": 6.466192, "source": "osm", "_tags": {"addr:city": "Thonon-les-Bains", "addr:postcode": "74200", "addr:street": "Rue de la Lumière du Lac", "amenity": "hospital", "healthcare": "hospital", "healthcare:speciality": "child_psychiatry", "name": "Hôpital de jour petite enfance Bleu Soleil", "operator": "Etablissement Public de Santé Mentale de la Vallée de l'Arve", "operator:type": "public", "phone": "04 50 83 22 82", "ref:FR:FINESS": "740017413", "source": "extraction vectorielle v1 cadastre-dgi-fr source : Direction Générale des Impôts - Cadas. Mise à jour : 2010", "type:FR:FINESS": "292"}}, {"name": "Unité de vie protégée Les morillons", "latitude": 46.3579719, "longitude": 6.4820092, "source": "osm", "_tags": {"addr:city": "Thonon-les-Bains", "addr:postcode": "74200", "building": "hospital", "emergency": "no", "healthcare": "hospital", "healthcare:speciality": "psychiatry", "name": "Unité de vie protégée Les morillons", "operator": "Ehpad la prairie", "source": "extraction vectorielle v1 cadastre-dgi-fr source : Direction Générale des Impôts - Cadas. Mise à jour : 2010"}}, {"name": "Hôpital de Jour", "latitude": 46.358269, "longitude": 6.4815663, "source": "osm", "_tags": {"addr:city": "Thonon-les-Bains", "addr:postcode": "74200", "building": "hospital", "emergency": "no", "healthcare": "hospital", "healthcare:speciality": "psychiatry", "name": "Hôpital de Jour", "ref:FR:FINESS": "740017371", "source": "extraction vectorielle v1 cadastre-dgi-fr source : Direction Générale des Impôts - Cadas. Mise à jour : 2010", "type:FR:FINESS": "292"}}, {"name": "Antenne Maison Des Adolescents du Chablais", "latitude": 46.364631, "longitude": 6.470071, "source": "osm", "_tags": {"addr:city": "Thonon-les-Bains", "addr:housenumber": "15", "addr:postcode": "74200", "addr:street": "Avenue du Forchat", "healthcare": "hospital", "healthcare:speciality": "child_psychiatry", "name": "Antenne Maison Des Adolescents du Chablais", "operator": "Etablissement Public de Santé Mentale de la Vallée de l'Arve", "operator:type": "public", "phone": "+33 4 50 95 09 51", "ref:FR:FINESS": "740018486", "source": "extraction vectorielle v1 cadastre-dgi-fr source : Direction Générale des Impôts - Cadas. Mise à jour : 2010", "type:FR:FINESS": "292", "website": "https://www.ch-epsm74.org/psyinfanto.html#Thonon"}}, {"name": "Hopital de Jour Pedo Psychiatrique", "latitude": 46.3614025, "longitude": 6.4613025, "source": "osm", "_tags": {"addr:city": "Thonon-les-Bains", "addr:housenumber": "17", "addr:postcode": "74200", "addr:street": "Chemin de Morcy", "amenity": "hospital", "healthcare": "hospital", "healthcare:speciality": "child_psychiatry", "name": "Hopital de Jour Pedo Psychiatrique", "operator": "Etablissement Public de Santé Mentale de la Vallée de l'Arve", "operator:type": "public", "phone": "+33 4 50 70 32 64", "ref:FR:FINESS": "740017405", "source": "extraction vectorielle v1 cadastre-dgi-fr source : Direction Générale des Impôts - Cadas. Mise à jour : 2010", "type:FR:FINESS": "292"}}, {"name": "Centre d'Accueil Thérapeutique à temps partiel ado", "latitude": 46.3823261, "longitude": 6.5049265, "source": "osm", "_tags": {"addr:city": "Thonon-les-Bains", "addr:housenumber": "6", "addr:postcode": "74200", "addr:street": "Route de Vongy", "amenity": "hospital", "healthcare": "hospital", "healthcare:speciality": "child_psychiatry", "name": "Centre d'Accueil Thérapeutique à temps partiel ado", "operator": "Etablissement Public de Santé Mentale de la Vallée de l'ARVE", "operator:type": "public", "phone": "+33 4 50 70 57 21", "ref:FR:APE": "8610Z", "ref:FR:FINESS": "74 001 330 5", "ref:FR:SIRET": "26740016600588", "short_name": "CATTP Ado", "source": "extraction vectorielle v1 cadastre-dgi-fr source : Direction Générale des Impôts - Cadas. Mise à jour : 2010", "type:FR:FINESS": "425"}}, {"name": "Clinique de la Colline", "latitude": 46.191484, "longitude": 6.1498362, "source": "osm", "_tags": {"amenity": "hospital", "healthcare": "hospital", "name": "Clinique de la Colline", "wikidata": "Q24449707", "wikipedia": "en:Clinique La Colline"}}, {"name": "Home de Val-Fleuri", "latitude": 46.1827983, "longitude": 6.1572965, "source": "osm", "_tags": {"amenity": "hospital", "healthcare": "hospital", "name": "Home de Val-Fleuri"}}, {"name": "Hôpital de Loëx", "latitude": 46.1986695, "longitude": 6.0848085, "source": "osm", "_tags": {"addr:city": "Bernex", "addr:housenumber": "151", "addr:postcode": "1233", "addr:street": "Route de Loëx", "amenity": "hospital", "healthcare": "hospital", "name": "Hôpital de Loëx", "operator": "HUG", "operator:type": "university", "website": "https://www.hug-ge.ch/hopital-loex", "wheelchair": "yes"}}, {"name": "Hôpital des Trois-Chêne", "latitude": 46.2084421, "longitude": 6.2156716, "source": "osm", "_tags": {"addr:city": "Thônex", "addr:housenumber": "3", "addr:postcode": "1226", "addr:street": "Chemin du Pont-Bochet", "amenity": "hospital", "description": "Gériatrie", "healthcare": "hospital", "image": "https://upload.wikimedia.org/wikipedia/commons/f/ff/H%C3%B4pitalTroisCh%C3%AAnes-Vue.jpg", "name": "Hôpital des Trois-Chêne", "wikidata": "Q121863605", "wikimedia_commons": "Category:Hôpital des Trois-Chêne"}}, {"name": "EMS Le Nouveau Prieuré", "latitude": 46.203697, "longitude": 6.1830936, "source": "osm", "_tags": {"amenity": "hospital", "check_date": "2025-04-02", "name": "EMS Le Nouveau Prieuré"}}, {"name": "Foyer Eynard Fatio", "latitude": 46.204685, "longitude": 6.1831785, "source": "osm", "_tags": {"amenity": "hospital", "check_date": "2024-10-13", "name": "Foyer Eynard Fatio"}}, {"name": "Centre hospitalier Chamonix Mont Blanc", "latitude": 45.9140617, "longitude": 6.8623294, "source": "osm", "_tags": {"amenity": "hospital", "building": "hospital", "check_date": "2025-04-21", "emergency": "yes", "fax": "+33 4 50 53 84 74", "name": "Centre hospitalier Chamonix Mont Blanc", "operator:type": "public", "phone": "+33 4 50 53 84 00", "ref:FR:FINESS": "740781166", "source": "cadastre-dgi-fr source : Direction Générale des Impôts - Cadastre. Mise à jour : 2011", "type:FR:FINESS": "355", "website": "http://www.chi-mont-blanc.fr/"}}, {"name": "", "latitude": 46.3607133, "longitude": 6.4574817, "source": "osm", "_tags": {"addr:city": "Thonon-les-Bains", "addr:housenumber": "28", "addr:postcode": "74200", "addr:street": "Avenue de Genève", "amenity": "hospital", "building": "hospital", "building:levels": "2", "contact:phone": "+33 4 50 17 17 00", "healthcare": "hospital", "healthcare:speciality": "psychiatry", "opening_hours": "Mo-Th 08:30-12:00, 13:30-17:00; Fr 08:30-12:00, 13:30-16:00", "operator": "Etablissement Public de Santé Mentale de la Vallée de l'Arve", "operator:type": "public", "roof:levels": "1", "roof:orientation": "along", "roof:shape": "gabled", "type:FR:FINESS": "8610Z", "website": "https://www.ch-epsm74.org/psygen.html#Thonon"}}, {"name": "EMAS", "latitude": 46.083233, "longitude": 6.407588, "source": "osm", "_tags": {"amenity": "hospital", "contact:city": "Bonneville", "contact:housenumber": "410", "contact:postcode": "74130", "contact:street": "Rue du Manet", "healthcare": "hospital", "healthcare:speciality": "psychiatry", "mobile": "06 46 22 24 60", "name": "EMAS", "operator": "Etablissement Public de Santé Mentale de la Vallée de l'Arve", "operator:type": "public", "phone": "04 50 03 45 09", "source": "cadastre-dgi-fr source : Direction Générale des Impôts - Cadastre. Mise à jour : 2011", "website": "https://www.ch-epsm74.org/psygen.html#Bonneville", "wheelchair": "no"}}, {"name": "Hôpital Beau-Séjour (HUG)", "latitude": 46.1881374, "longitude": 6.1499453, "source": "osm", "_tags": {"amenity": "hospital", "healthcare:speciality": "physiatry", "image": "https://commons.wikimedia.org/wiki/File:H%C3%B4pital_Beau-S%C3%A9jour_Gen%C3%A8ve_4_caf%C3%A9t%C3%A9ria.jpg", "name": "Hôpital Beau-Séjour (HUG)", "website": "https://www.hug.ch/lhopital-de-beau-sejour", "wikidata": "Q121864320", "wikimedia_commons": "Category:Hôpital Beau-Séjour, Genève"}}, {"name": "Hôpital de Bellerive (HUG)", "latitude": 46.2585593, "longitude": 6.2059647, "source": "osm", "_tags": {"addr:country": "CH", "addr:housenumber": "11", "addr:postcode": "1245", "addr:street": "Chemin de la Savonnière", "amenity": "hospital", "check_date": "2025-08-29", "healthcare": "rehabilitation", "name": "Hôpital de Bellerive (HUG)", "operator": "HUG Hopitaux Universitaires Genève", "phone": "+41 22 035 71 11", "website": "https://www.hug-ge.ch/hopital-bellerive/"}}, {"name": "Centre hospitalier Alpes Léman", "latitude": 46.1411691, "longitude": 6.3206775, "source": "osm", "_tags": {"addr:city": "Contamine-sur-Arve", "addr:housenumber": "558", "addr:postcode": "74130", "addr:street": "Route de Findrol", "amenity": "hospital", "contact:fax": "+33 4 50 82 22 25", "contact:phone": "+33 4 50 82 20 00", "contact:website": "http://ch-alpes-leman.fr/", "emergency": "yes", "healthcare": "hospital", "healthcare:speciality": "ophthalmology;gynaecology;emergency;surgery;oncology;cardiology;maternity;intensive", "name": "Centre hospitalier Alpes Léman", "operator:type": "public", "ref:FR:FINESS": "740781141", "short_name": "CHAL", "start_date": "2012-02-01", "type:FR:FINESS": "355", "wikidata": "Q22247938"}}, {"name": "Médipôle de Savoie", "latitude": 45.5450708, "longitude": 5.969648, "source": "osm", "_tags": {"amenity": "hospital", "building": "hospital", "emergency": "yes", "healthcare": "hospital", "name": "Médipôle de Savoie", "operator:type": "private", "phone": "+33 4 79 26 80 80", "ref:FR:FINESS": "730004298", "source": "cadastre-dgi-fr source : Direction Générale des Impôts - Cadastre. Mise à jour : 2012", "type:FR:FINESS": "365", "website": "https://medipole-de-savoie.fr", "wikidata": "Q29613447"}}, {"name": "Centre Joseph Daquin", "latitude": 46.1808053, "longitude": 6.2480663, "source": "osm", "_tags": {"addr:city": "Vétraz-Monthoux", "addr:housenumber": "1", "addr:postcode": "74100", "addr:street": "Impasse Henri Becquerel", "amenity": "hospital", "building": "hospital", "building:levels": "2", "contact:website": "http://ch-epsm74.org/psygen.html", "healthcare": "hospital", "healthcare:speciality": "psychiatry", "name": "Centre Joseph Daquin", "operator": "Etablissement Public de Santé Mentale de la Valée de l'Arve", "operator:type": "public", "phone": "+33 4 50 04 61 80", "ref:FR:APE": "8610Z", "type:FR:FINESS": "292"}}, {"name": "Maison des Adolescents Vetraz Monthoux", "latitude": 46.1810872, "longitude": 6.2484035, "source": "osm", "_tags": {"addr:city": "Vétraz-Monthoux", "addr:housenumber": "2", "addr:postcode": "74100", "addr:street": "Rue Pierre et Marie Curie", "amenity": "hospital", "building": "hospital", "contact:email": "mdarougecargo@ch-epsm74.fr", "healthcare": "hospital", "healthcare:speciality": "child_psychiatry", "name": "Maison des Adolescents Vetraz Monthoux", "operator": "Etablissement Public de Santé Mentale", "operator:type": "public", "ref:FR:APE": "8610Z", "ref:FR:FINESS": "740017314", "ref:FR:SIRET": "26740016600562", "short_name": "MDA Rouge Cargo", "type:FR:FINESS": "156"}}, {"name": "Hospice général - Foyer d'Anières", "latitude": 46.2702205, "longitude": 6.2307906, "source": "osm", "_tags": {"amenity": "hospital", "name": "Hospice général - Foyer d'Anières"}}, {"name": "Clinique Générale Beaulieu", "latitude": 46.1887102, "longitude": 6.1619053, "source": "osm", "_tags": {"amenity": "hospital", "name": "Clinique Générale Beaulieu"}}, {"name": "Clinique de Carouge", "latitude": 46.1865854, "longitude": 6.1429706, "source": "osm", "_tags": {"amenity": "hospital", "name": "Clinique de Carouge"}}, {"name": "EMS", "latitude": 46.1803549, "longitude": 6.1015293, "source": "osm", "_tags": {"amenity": "hospital", "healthcare": "hospital", "name": "EMS"}}, {"name": "EMS Les Marronniers", "latitude": 46.1961173, "longitude": 6.189232, "source": "osm", "_tags": {"amenity": "hospital", "emergency": "no", "name": "EMS Les Marronniers"}}, {"name": "HRC Hôpital Riviera-Chablais", "latitude": 46.3799917, "longitude": 6.9206744, "source": "osm", "_tags": {"addr:city": "Rennaz", "addr:housenumber": "20", "addr:postcode": "1847", "addr:street": "Route du Vieux-Séquoia", "amenity": "hospital", "construction": "hospital", "construction:amenity": "hospital", "emergency": "yes", "healthcare": "hospital", "healthcare:speciality": "general;paediatrics;gynaecology;maternity;emergency;orthopaedics", "name": "HRC Hôpital Riviera-Chablais", "operator": "Hôpital Riviera-Chablais", "operator:type": "public", "phone": "+41 58 773 21 12", "website": "https://www.hopitalrivierachablais.ch", "wheelchair": "yes", "wikidata": "Q16642757"}}, {"name": "Foyer des Aveugles", "latitude": 46.1957228, "longitude": 6.1853662, "source": "osm", "_tags": {"amenity": "hospital", "name": "Foyer des Aveugles"}}, {"name": "EMS Maison de Vessy", "latitude": 46.1781867, "longitude": 6.1610175, "source": "osm", "_tags": {"amenity": "hospital", "healthcare": "hospital", "name": "EMS Maison de Vessy"}}, {"name": "EMS le foyer Bethel", "latitude": 46.1851519, "longitude": 6.1056801, "source": "osm", "_tags": {"amenity": "hospital", "check_date": "2024-11-09", "emergency": "no", "healthcare": "hospital", "name": "EMS le foyer Bethel"}}, {"name": "Clinique de Belle-Idée", "latitude": 46.2063544, "longitude": 6.2088872, "source": "osm", "_tags": {"addr:city": "Thônex", "addr:country": "CH", "addr:housenumber": "2", "addr:postcode": "1226", "addr:street": "Chemin du Petit-Bel-Air", "amenity": "hospital", "healthcare": "hospital", "name": "Clinique de Belle-Idée", "phone": "+41 22 305 41 11", "website": "https://www.hug-ge.ch/hopital-psychiatrie", "wikidata": "Q2979294"}}, {"name": "Centre médico-psychologique de Saint-Julien-en-Genevois", "latitude": 46.1445422, "longitude": 6.0767219, "source": "osm", "_tags": {"addr:city": "Saint-Julien-en-Genevois", "addr:housenumber": "5", "addr:postcode": "74160", "addr:street": "Chemin du Crêt Millet", "amenity": "hospital", "building": "hospital", "healthcare": "hospital", "healthcare:speciality": "psychiatry", "name": "Centre médico-psychologique de Saint-Julien-en-Genevois", "operator": "Etablissement Public de Santé Mentale de la vallée de l'Arve", "operator:type": "public", "ref:FR:FINESS": "74 001 719 9", "social_facility": "ambulatory_care", "social_facility:for": "mental_health", "type:FR:FINESS": "156", "website": "https://www.ch-epsm74.org/psyinfanto.html#StJu"}}, {"name": "Equipe Mobile Psycho-sociale du Chablais", "latitude": 46.3591628, "longitude": 6.4742375, "source": "osm", "_tags": {"addr:city": "Thonon-les-Bains", "addr:housenumber": "19", "addr:postcode": "74200", "addr:street": "Avenue de Senevulaz", "amenity": "hospital", "building": "yes", "building:levels": "2", "contact:phone": "+33 9 61 40 26 34", "healthcare": "hospital", "healthcare:speciality": "psychiatry", "name": "Equipe Mobile Psycho-sociale du Chablais", "operator": "Etablissement Public de Santé Mentale de la Vallée de l'ARVE", "operator:type": "public", "ref:FR:FINESS": "740017421", "ref:FR:SIRET": "26740016600463", "short_name": "EMPP du Chablais", "social_facility:for": "mental_health", "source": "Le ministère des solidarités et de la santé - 03/2019", "type:FR:FINESS": "292"}}, {"name": "Hôpital de Nyon", "latitude": 46.3832166, "longitude": 6.2274541, "source": "osm", "_tags": {"addr:city": "Nyon", "addr:housenumber": "10", "addr:postcode": "1260", "addr:street": "Chemin Monastier", "amenity": "hospital", "emergency": "yes", "healthcare": "hospital", "healthcare:speciality": "intensive", "name": "Hôpital de Nyon", "operator": "Groupement Hospitalier de l'Ouest Lémanique (GHOL)", "phone": "+41 22 994 61 61", "website": "https://www.ghol.ch", "wikidata": "Q3118060"}}, {"name": "Hôpital privé Pays de Savoie", "latitude": 46.1867095, "longitude": 6.2244053, "source": "osm", "_tags": {"addr:city": "Annemasse", "addr:housenumber": "19", "addr:postcode": "74100", "addr:street": "Avenue Pierre Mendès France", "amenity": "hospital", "contact:email": "hpps.contact@gsante.fr", "contact:facebook": "https://www.facebook.com/hopital.prive.pays.de.savoie", "contact:fax": "+33 4 50 83 47 16", "contact:phone": "+33 4 50 83 43 43", "contact:website": "https://hopital-prive-pays-de-savoie-annemasse.ramsaygds.fr/", "emergency": "yes", "healthcare": "hospital", "name": "Hôpital privé Pays de Savoie", "operator": "Ramsay Santé", "operator:type": "private", "operator:wikidata": "Q3123085", "operator:wikipedia": "fr:Ramsay Santé", "ref:FR:FINESS": "740014345", "ref:FR:SIRET": "32938174300031", "source": "Le ministère des solidarités et de la santé - 03/2019", "start_date": "2012-10-29", "type:FR:FINESS": "365"}}, {"name": "Hôpital Local du Pays de Gex", "latitude": 46.3220459, "longitude": 6.0582918, "source": "osm", "_tags": {"amenity": "hospital", "healthcare": "hospital", "name": "Hôpital Local du Pays de Gex", "phone": "+33 4 50 40 38 38", "ref:FR:FINESS": "010000081", "source": "Le ministère des solidarités et de la santé - 10/2018", "type:FR:FINESS": "106", "wikidata": "Q90324601"}}, {"name": "Hôpital de la Tour", "latitude": 46.2286207, "longitude": 6.0673167, "source": "osm", "_tags": {"addr:city": "Meyrin", "addr:housenumber": "5", "addr:street": "Avenue Jacob-Daniel Maillard", "amenity": "hospital", "check_date": "2024-04-22", "healthcare": "hospital", "name": "Hôpital de la Tour", "phone": "+41 22 719 61 11", "source": "Orthophotos 2011 du SITG (Système d'Information du Territoire Genevois)", "website": "https://www.la-tour.ch/", "wikidata": "Q30279818"}}, {"name": "Hôpitaux du Léman", "latitude": 46.3595791, "longitude": 6.4803916, "source": "osm", "_tags": {"addr:city": "Thonon-les-Bains", "addr:housenumber": "3", "addr:postcode": "74200", "addr:street": "Avenue de la Dame", "amenity": "hospital", "contact:fax": "+33 4 50 83 22 61", "contact:phone": "+33 4 50 83 20 00", "contact:website": "https://www.hopitauxduleman.fr/", "emergency": "yes", "healthcare": "hospital", "healthcare:speciality": "intensive", "image": "https://commons.wikimedia.org/wiki/File:Hopital_de_Thonon_les_Bains.JPG", "name": "Hôpitaux du Léman", "old_name": "Centre hospitalier Georges-Pianta", "old_name:wikipedia": "fr:Georges Pianta", "operator": "Groupement Hospitalier de Territoire Léman-Mont-Blanc", "operator:type": "public", "ref:FR:FINESS": "740000328", "ref:FR:SIRET": "26741103100011", "start_date": "1977-07-11", "type:FR:FINESS": "355", "wikidata": "Q2945670", "wikipedia": "fr:Centre hospitalier Georges-Pianta"}}, {"name": "Centre hospitalier \"L'Arlandaz\" d'Albertville-Moûtiers", "latitude": 45.6685034, "longitude": 6.3692722, "source": "osm", "_tags": {"amenity": "hospital", "emergency": "yes", "fax": "+33 4 79 37 48 10", "healthcare": "hospital", "name": "Centre hospitalier \"L'Arlandaz\" d'Albertville-Moûtiers", "operator:type": "public", "phone": "+33 4 79 89 55 55", "ref:FR:FINESS": "730000262", "survey:date": "2020-09-27", "type:FR:FINESS": "355", "website": "https://cham-savoie.fr/", "wikidata": "Q2945714"}}, {"name": "Etablissement Public de Santé Mentale de la Vallée de l'Arve", "latitude": 46.0612223, "longitude": 6.3249362, "source": "osm", "_tags": {"addr:city": "La Roche sur Foron", "addr:housenumber": "530", "addr:postcode": "74800", "addr:street": "Rue de la Patience", "amenity": "hospital", "healthcare": "hospital", "healthcare:speciality": "psychiatry", "name": "Etablissement Public de Santé Mentale de la Vallée de l'Arve", "operator:type": "public", "ref:FR:FINESS": "740000583", "short_name": "EPSM", "type:FR:FINESS": "292", "website": "http://www.ch-epsm74.org/"}}, {"name": "Hôpitaux du Mont-Blanc - Site de Sallanches", "latitude": 45.9350335, "longitude": 6.6410013, "source": "osm", "_tags": {"amenity": "hospital", "emergency": "yes", "fax": "+33 4 50 47 30 11", "name": "Hôpitaux du Mont-Blanc - Site de Sallanches", "operator:type": "public", "phone": "+33 4 50 47 30 30", "ref:FR:FINESS": "740781224", "type:FR:FINESS": "355", "website": "http://www.chi-mont-blanc.fr/"}}, {"name": "Centre Martel de Janville", "latitude": 46.0818392, "longitude": 6.4064127, "source": "osm", "_tags": {"amenity": "hospital", "emergency": "no", "healthcare": "hospital", "name": "Centre Martel de Janville", "ref:FR:FINESS": "740000062", "type:FR:FINESS": "109"}}, {"name": "Multipole de Santé de Montagne", "latitude": 45.6163587, "longitude": 6.763883, "source": "osm", "_tags": {"abbr_name": "CHU Bourg st Maurice", "addr:city": "Bourg-Saint-Maurice", "addr:postcode": "73700", "addr:street": "Rue du Nantet", "amenity": "hospital", "check_date": "2024-01-13", "emergency": "yes", "fax": "+33 4 79 07 53 02", "healthcare": "hospital", "healthcare:speciality": "emergency;general;surgery;radiology;psychiatry;maternity;blood_check;anaesthetics;biology;community", "internet_access": "wlan", "name": "Multipole de Santé de Montagne", "operator:type": "public", "phone": "+33 4 79 41 79 79", "ref:FR:FINESS": "730000247", "type:FR:FINESS": "355"}}, {"name": "Centre hospitalier d'Albertville-Moûtiers", "latitude": 45.4836013, "longitude": 6.5348704, "source": "osm", "_tags": {"amenity": "hospital", "emergency": "yes", "fax": "+33 4 79 09 60 09", "name": "Centre hospitalier d'Albertville-Moûtiers", "operator:type": "public", "phone": "+33 4 79 09 60 60", "ref:FR:FINESS": "730000049", "type:FR:FINESS": "355", "website": "https://cham-savoie.fr/"}}, {"name": "Centre de consultation", "latitude": 46.0607211, "longitude": 6.3226161, "source": "osm", "_tags": {"addr:city": "La Roche sur Foron", "addr:housenumber": "219", "addr:postcode": "74800", "addr:street": "Route des Bois des Fornets", "amenity": "hospital", "healthcare": "hospital", "healthcare:speciality": "psychiatry;child_psychiatry", "name": "Centre de consultation", "operator": "Etablissement Public de Santé Mentale de la Vallée de l'Arve", "operator:type": "public"}}, {"name": "Permanence d'Onex", "latitude": 46.1833055, "longitude": 6.0991656, "source": "osm", "_tags": {"addr:city": "Onex", "addr:housenumber": "3", "addr:postcode": "1213", "addr:street": "Route de Loëx", "amenity": "hospital", "emergency": "no", "healthcare": "hospital", "name": "Permanence d'Onex", "name:fr": "Groupe Médical d'Onex (GMO)", "website": "https://gmo.ch/"}}, {"name": "Clinique de Jolimont", "latitude": 46.2210611, "longitude": 6.1175635, "source": "osm", "_tags": {"addr:city": "Genève", "addr:housenumber": "45", "addr:street": "Avenue Jean Trembley", "amenity": "hospital", "check_date": "2024-04-15", "name": "Clinique de Jolimont", "phone": "+41 22 717 03 11", "website": "https://www.hug-ge.ch/joli-mont"}}, {"name": "Clinique Vert-Pré", "latitude": 46.1875524, "longitude": 6.1774049, "source": "osm", "_tags": {"addr:city": "Conches", "addr:country": "CH", "addr:housenumber": "15", "addr:postcode": "1231", "addr:street": "Chemin de la Colombe", "amenity": "hospital", "name": "Clinique Vert-Pré", "phone": "+41 22 704 31 43", "website": "https://vertpre.com/fr/"}}, {"name": "Hôpital de jour Clairival", "latitude": 46.2224341, "longitude": 6.1994683, "source": "osm", "_tags": {"addr:city": "Vandoeuvres", "addr:housenumber": "14", "addr:street": "Chemin de l'Ecorcherie", "amenity": "hospital", "name": "Hôpital de jour Clairival", "phone": "+41 22 750 15 40", "website": "https://www.hug-ge.ch/psychiatrie-enfant-adolescent/unite-hospitalisation-jour"}}, {"name": "Hôpital Psychiatrique de Prangins", "latitude": 46.3983586, "longitude": 6.2574998, "source": "osm", "_tags": {"addr:city": "Prangins", "addr:housenumber": "3", "addr:postcode": "1197", "addr:street": "chemin Oscar Forel", "amenity": "hospital", "healthcare": "hospital", "healthcare:speciality": "psychiatry", "name": "Hôpital Psychiatrique de Prangins", "operator": "CHUV", "operator:type": "public", "phone": "+41 22 994 71 11"}}, {"name": "Hôpital départemental Dufresne Sommeiller", "latitude": 46.1340706, "longitude": 6.4114894, "source": "osm", "_tags": {"amenity": "hospital", "healthcare": "hospital", "name": "Hôpital départemental Dufresne Sommeiller", "operator:type": "public", "phone": "+33 4 50 35 30 30", "ref:FR:FINESS": "740000286", "type:FR:FINESS": "106", "website": "https://hopital-dufresne-sommeiller.fr/", "wikidata": "Q92062413"}}, {"name": "CMP Enfants Vetraz Monthoux", "latitude": 46.1806749, "longitude": 6.2509124, "source": "osm", "_tags": {"addr:city": "Vétraz-Monthoux", "addr:housenumber": "43", "addr:postcode": "74100", "addr:street": "Chemin des Carrés", "amenity": "hospital", "building": "hospital", "building:levels": "1", "healthcare": "hospital", "healthcare:speciality": "child_psychiatry", "level": "1", "name": "CMP Enfants Vetraz Monthoux", "operator": "Etablissement Public de Santé Mentale de la Vallée de l'Arve", "operator:type": "public", "ref:FR:APE": "8610Z", "ref:FR:FINESS": "740785308", "website": "https://www.ch-epsm74.org/psyinfanto.html#V%C3%A9traz"}}, {"name": "Espace Santé Rennaz", "latitude": 46.3778253, "longitude": 6.9201111, "source": "osm", "_tags": {"amenity": "hospital", "building": "yes", "emergency": "no", "healthcare": "hospital", "name": "Espace Santé Rennaz"}}, {"name": "Centre Médical Praz-Coutant", "latitude": 45.9349364, "longitude": 6.6401347, "source": "osm", "_tags": {"addr:city": "Sallanches", "addr:postcode": "74700", "addr:street": "Rue de l'Hôpital", "building": "yes", "healthcare": "hospital", "layer": "1", "name": "Centre Médical Praz-Coutant"}}, {"name": "Centre hospitalier de Saint-Pierre d'Albigny", "latitude": 45.5683227, "longitude": 6.1540147, "source": "osm", "_tags": {"amenity": "hospital", "fax": "+33479285398", "healthcare": "hospital", "name": "Centre hospitalier de Saint-Pierre d'Albigny", "phone": "+33479285034", "ref:FR:FINESS": "730000270", "ref:FR:SIRET": "26730014300018", "source": "Le ministère des solidarités et de la santé - 2021-09", "type:FR:FINESS": "106", "wikidata": "Q92061575"}}, {"name": "Centre hospitalier Annecy Genevois", "latitude": 46.1468907, "longitude": 6.0795451, "source": "osm", "_tags": {"addr:city": "Saint-Julien-en-Genevois", "addr:postcode": "74160", "addr:street": "Chemin du Loup", "amenity": "hospital", "contact:fax": "+33 4 50 49 66 70", "contact:phone": "+33 4 50 49 65 65", "contact:website": "https://www.ch-annecygenevois.fr/accueil", "emergency": "yes", "healthcare": "hospital", "name": "Centre hospitalier Annecy Genevois", "official_name": "Centre hospitalier Annecy Genevois (Site de Saint-Julien-en-Genevois)", "operator": "Centre hospitalier Annecy Genevois", "operator:type": "public", "operator:wikidata": "Q105163953", "ref:FR:FINESS": "740000302", "type:FR:FINESS": "355", "wikidata": "Q2945710", "wikipedia": "fr:Centre hospitalier Annecy Genevois"}}, {"name": "Clinique Parassy", "latitude": 45.91302, "longitude": 6.7072901, "source": "osm", "_tags": {"addr:housenumber": "708", "addr:street": "Avenue des Grandes Platières", "amenity": "hospital", "building": "yes", "email": "admissions.parassy@orpea.net", "emergency": "no", "fax": "+33 4 50 58 88 83", "healthcare": "hospital", "healthcare:speciality": "psychiatry", "name": "Clinique Parassy", "operator": "Clinea", "operator:type": "private", "operator:wikidata": "Q3347694", "phone": "+33 4 50 58 88 90", "website": "https://www.clinea.fr/clinique-parassy-passy-74"}}, {"name": "Les Ancolies", "latitude": 45.6339944, "longitude": 6.3013334, "source": "osm", "_tags": {"amenity": "hospital", "healthcare": "hospital", "name": "Les Ancolies", "ref:FR:FINESS": "730790623", "type:FR:FINESS": "255"}}, {"name": "CMPA / CATTPA de Cluse", "latitude": 46.068398, "longitude": 6.5814623, "source": "osm", "_tags": {"addr:housenumber": "9", "addr:street": "Avenue de Châtillon", "amenity": "hospital", "building": "yes", "healthcare": "hospital", "healthcare:speciality": "psychiatry", "name": "CMPA / CATTPA de Cluse", "operator": "Etablissement Public de Santé Mentale de la Vallée de l'Arve", "operator:type": "public"}}, {"name": "PEJ Point Ecoute Jeune", "latitude": 46.061225, "longitude": 6.5820906, "source": "osm", "_tags": {"addr:city": "Cluses", "addr:housenumber": "10", "addr:postcode": "74300", "addr:street": "Avenue de la Gare", "amenity": "hospital", "healthcare": "hospital", "healthcare:speciality": "child_psychiatry", "name": "PEJ Point Ecoute Jeune", "operator": "Etablissement Public de Santé Mentale,de la Vallée de l'Arve", "operator:type": "public", "phone": "+33 4 50 96 49 82", "ref:FR:FINESS": "740017280", "type:FR:FINESS": "156"}}, {"name": "Antenne de périnatalité", "latitude": 45.9351059, "longitude": 6.6426211, "source": "osm", "_tags": {"addr:city": "Sallanches", "addr:housenumber": "380", "addr:postcode": "74700", "addr:street": "Rue de l'Hôpital", "amenity": "hospital", "healthcare": "hospital", "healthcare:speciality": "child_psychiatry", "name": "Antenne de périnatalité", "operator": "Etablissement Public de Santé Mentale de la Vallée de l'Arve", "operator:type": "public", "ref:FR:FINESS": "740017348", "type:FR:FINESS": "292"}}, {"name": "Psychiatrie de liaison des hopitaux du Pays du Mont-Blanc", "latitude": 45.9351544, "longitude": 6.6427413, "source": "osm", "_tags": {"addr:city": "Sallanches", "addr:housenumber": "380", "addr:postcode": "74700", "addr:street": "Rue de l'Hôpital", "amenity": "hospital", "healthcare": "hospital", "healthcare:speciality": "psychiatry", "name": "Psychiatrie de liaison des hopitaux du Pays du Mont-Blanc", "operator": "Etablissement Public de Santé Mentale de la Vallée de l'Arve", "operator:type": "public", "phone": "+33 4 50 93 10 41", "ref:FR:APE": "8610Z", "ref:FR:FINESS": "740017355", "ref:FR:SIRET": "26740016600430", "type:FR:FINESS": "292"}}, {"name": "Point Ecoute Jeunes Sallanches", "latitude": 45.9374028, "longitude": 6.6297405, "source": "osm", "_tags": {"addr:city": "Sallanches", "addr:housenumber": "109", "addr:postcode": "74700", "addr:street": "Rue Justin", "amenity": "hospital", "healthcare": "hospital", "healthcare:speciality": "child_psychiatry", "name": "Point Ecoute Jeunes Sallanches", "operator": "Etablissement Public de Santé Mentale de la Vallée de l'Arve", "operator:type": "public", "phone": "+33 4 50 58 04 86", "ref:FR:FINESS": "740017298", "type:FR:FINESS": "156"}}, {"name": "Centre Médico Psychologique pour Enfants", "latitude": 46.0609651, "longitude": 6.3225622, "source": "osm", "_tags": {"addr:city": "La Roche sur Foron", "addr:housenumber": "219", "addr:postcode": "74800", "addr:street": "Route des Bois des Fornets", "building": "hospital", "building:levels": "1", "healthcare": "hospital", "healthcare:speciality": "psychiatry;child_psychiatry", "level": "0", "name": "Centre Médico Psychologique pour Enfants", "operator": "Etablissement de Santé Public de la Vallée de l'Arve", "phone": "+33 4 50 97 05 28", "ref:FR:APE": "8610Z", "ref:FR:FINESS": "740003439", "ref:FR:SIRET": "26740016600364", "short_name": "CMPI", "type:FR:FINESS": "156", "website": "https://www.ch-epsm74.org/psyinfanto.html#LaRoche", "wheelchair": "yes"}}, {"name": "Centre départemental de réhabilitation psycho-sociale des Glières", "latitude": 46.0606283, "longitude": 6.3225529, "source": "osm", "_tags": {"addr:city": "La Roche sur Foron", "addr:housenumber": "219", "addr:postcode": "74800", "addr:street": "Route des Bois des Fornets", "building": "hospital", "building:levels": "1", "healthcare": "hospital", "healthcare:speciality": "psychiatry", "level": "0", "name": "Centre départemental de réhabilitation psycho-sociale des Glières", "operator": "Etablissement Public de Santé Mentale de la Vallée de l'Arve", "operator:type": "public", "phone": "+33 4 50 03 73 28", "ref:FR:APE": "8610Z", "ref:FR:FINESS": "740017231", "ref:FR:SIRET": "26740016600398", "short_name": "CDRP", "type:FR:FINESS": "156", "website": "https://www.ch-epsm74.org/psygen.html#Laroche", "wheelchair": "yes"}}, {"name": "Hôpital de Jour - HDJ La Cordée", "latitude": 46.0604634, "longitude": 6.3226658, "source": "osm", "_tags": {"addr:city": "La Roche sur Foron", "addr:housenumber": "219", "addr:postcode": "74800", "addr:street": "Route des Bois des Fornets", "building": "hospital", "building:levels": "1", "healthcare": "hospital", "healthcare:speciality": "psychiatry", "level": "0", "name": "Hôpital de Jour - HDJ La Cordée", "operator": "Etablissement Public de Santé Mentale de la Vallée de l'Arve", "operator:type": "public", "phone": "+33 4 50 03 75 31", "ref:FR:APE": "8610Z", "ref:FR:FINESS": "740011531", "ref:FR:SIRET": "26740016600380", "short_name": "HDJ La Cordée", "type:FR:FINESS": "292", "website": "https://www.ch-epsm74.org/psygen.html#Laroche", "wheelchair": "yes"}}, {"name": "Hôpital Andrevetan", "latitude": 46.0630566, "longitude": 6.3226407, "source": "osm", "_tags": {"addr:city": "La Roche sur Foron", "addr:housenumber": "459", "addr:postcode": "74800", "addr:street": "Rue de la Patience", "amenity": "hospital", "healthcare": "hospital", "name": "Hôpital Andrevetan", "phone": "+33 4 50 87 40 00", "ref:FR:FINESS": "740000278", "type:FR:FINESS": "106", "website": "https://ch-andrevetan.fr/", "wikidata": "Q92063009"}}, {"name": "Centre Medico Psychologique Infanto-juvénile", "latitude": 46.3602197, "longitude": 6.4806751, "source": "osm", "_tags": {"addr:city": "Thonon-les-Bains", "addr:housenumber": "3", "addr:postcode": "74200", "addr:street": "Avenue de la Dame", "amenity": "hospital", "healthcare": "hospital", "healthcare:speciality": "child_psychiatry", "name": "Centre Medico Psychologique Infanto-juvénile", "operator": "Etablissement Public de Santé Mentale de la Vallée de l'Arve", "operator:type": "public", "phone": "+33 4 50 83 22 00", "ref:FR:APE": "8610Z", "ref:FR:FINESS": "740783311", "ref:FR:SIRET": "26740016600596", "source": "extraction vectorielle v1 cadastre-dgi-fr source : Direction Générale des Impôts - Cadas. Mise à jour : 2010", "type:FR:FINESS": "292"}}, {"name": "Centre Médico Psychologique pour Adultes", "latitude": 45.9406877, "longitude": 6.6341943, "source": "osm", "_tags": {"addr:city": "Sallanches", "addr:housenumber": "127", "addr:postcode": "74700", "addr:street": "Rue Dominique Cancellieri", "amenity": "hospital", "building:levels": "1", "building:part": "hospital", "healthcare": "hospital", "healthcare:speciality": "psychiatry", "height": "9", "level": "1", "min_level": "0", "name": "Centre Médico Psychologique pour Adultes", "operator": "Etablissement Public de Santé Mentale de la Vallée de l'Arve", "operator:type": "public", "phone": "+33 4 50 47 89 18", "ref:FR:APE": "8610Z", "ref:FR:FINESS": "40783295", "ref:FR:SIRET": "26740016600158", "short_name": "CMPA", "social_facility": "ambulatory_care", "social_facility:for": "mental_health", "website": "https://ch-epsm74.org/psygen.html", "wheelchair": "yes"}}, {"name": "Centre Médico Psychologique pour Enfants", "latitude": 45.9407445, "longitude": 6.6344249, "source": "osm", "_tags": {"addr:city": "Sallanches", "addr:housenumber": "127", "addr:postcode": "74700", "addr:street": "Rue Dominique Cancellieri", "amenity": "hospital", "building:part": "hospital", "healthcare": "hospital", "healthcare:speciality": "child_psychiatry", "level": "1", "name": "Centre Médico Psychologique pour Enfants", "operator": "Etablissement Public de Santé Mentale de la Vallée de l'Arve", "operator:type": "public", "ref:FR:APE": "8610Z", "ref:FR:FINESS": "740017207", "ref:FR:SIRET": "26740016600422", "short_name": "CMPI", "type:FR:FINESS": "156"}}, {"name": "Centre d'Accueil Thérapeutique à temps partiel Infanto-juvénile", "latitude": 45.9407445, "longitude": 6.6344249, "source": "osm", "_tags": {"addr:city": "Sallanches", "addr:housenumber": "127", "addr:postcode": "74700", "addr:street": "Rue Dominique Cancellieri", "amenity": "hospital", "building:levels": "1", "building:part": "hospital", "healthcare": "hospital", "healthcare:speciality": "child_psychiatry", "height": "9", "level": "0", "min_level": "0", "name": "Centre d'Accueil Thérapeutique à temps partiel Infanto-juvénile", "operator": "Etablissement Public de Santé Mentale de la Vallée de l'Arve", "operator:type": "public", "phone": "+33 4 50 58 41 34", "ref:FR:APE": "8610Z", "ref:FR:FINESS": "740015144", "ref:FR:NAF": "8610Z", "ref:FR:SIRET": "26740016600182", "short_name": "CATTPI", "type:FR:FINESS": "425", "wall": "no"}}, {"name": "Hopital de jour", "latitude": 45.9406877, "longitude": 6.6341943, "source": "osm", "_tags": {"addr:city": "Sallanches", "addr:housenumber": "127", "addr:postcode": "74700", "addr:street": "Rue Dominique Cancellieri", "amenity": "hospital", "building:levels": "1", "building:part": "hospital", "healthcare": "hospital", "healthcare:speciality": "psychiatry", "height": "9", "level": "0", "min_level": "0", "name": "Hopital de jour", "operator": "Etablissement Public de Santé Mentale de la Vallée de l'Arve", "operator:type": "public", "phone": "+33 4 50 47 66 02", "ref:FR:FINESS": "740011440", "ref:FR:NAF": "8610Z", "short_name": "HDJ", "social_facility": "ambulatory_care", "social_facility:for": "mental_health", "website": "https://ch-epsm74.org/psygen.html", "wheelchair": "yes"}}, {"name": "Unités d’hospitalisation complète et accueil familial thérapeutique", "latitude": 45.930269, "longitude": 6.1156785, "source": "osm", "_tags": {"amenity": "hospital", "building": "yes", "building:levels": "2", "healthcare": "hospital", "name": "Unités d’hospitalisation complète et accueil familial thérapeutique", "ref:FR:FINESS": "740013412", "type": "multipolygon", "type:FR:FINESS": "355", "website": "https://www.ch-annecy.fr/accueil-et-repertoire-des-activites/nos-specialites-medicales/psychiatrie-adulte,157.html?"}}, {"name": "Centre hospitalier Annecy-Genevois", "latitude": 45.9322381, "longitude": 6.1175499, "source": "osm", "_tags": {"alt_name": "Hôpital d'Annecy", "amenity": "hospital", "building": "hospital", "emergency": "yes", "fax": "+33 4 50 45 59 30", "healthcare": "hospital", "name": "Centre hospitalier Annecy-Genevois", "operator:type": "public", "phone": "+33 4 50 63 63 63", "ref:FR:FINESS": "740000237", "type": "multipolygon", "type:FR:FINESS": "355", "website": "https://www.ch-annecygenevois.fr/fr", "wheelchair": "yes", "wikidata": "Q2945710"}}, {"name": "CMPI /CATTPI de Cluses", "latitude": 46.0682463, "longitude": 6.5814315, "source": "osm", "_tags": {"addr:city": "Cluses", "addr:housenumber": "9", "addr:postcode": "74300", "addr:street": "Avenue de Châtillon", "amenity": "hospital", "building": "yes", "healthcare": "hospital", "healthcare:speciality": "child_psychiatry", "name": "CMPI /CATTPI de Cluses", "operator": "Etablissement Public de Santé Mentale de la Vallée de l'Arve", "operator:type": "public", "source": "cadastre-dgi-fr source : Direction Générale des Impôts - Cadastre. Mise à jour : 2011", "type": "multipolygon"}}]