[{"name": "", "latitude": 46.3014623, "longitude": 10.809961, "source": "osm", "_tags": {"amenity": "hospital"}}, {"name": "Casa di Cura Villa Garda", "latitude": 45.5818186, "longitude": 10.7161249, "source": "osm", "_tags": {"addr:city": "Garda", "addr:housenumber": "89", "addr:postcode": "37016", "addr:street": "Via Monte Baldo", "amenity": "hospital", "contact:pec": "casadicuravillagarda@pec.it", "email": "info@villagarda.it", "emergency": "no", "healthcare": "hospital", "healthcare:speciality": "physiatry", "name": "Casa di Cura Villa Garda", "operator": "Garofalo Health Care S.p.A.", "operator:type": "private", "phone": "+39 045 6208611", "wheelchair": "yes"}}, {"name": "Guardia Medica", "latitude": 45.6881388, "longitude": 10.6616842, "source": "osm", "_tags": {"addr:postcode": "25084", "amenity": "hospital", "emergency": "no", "healthcare": "hospital", "name": "Guardia Medica"}}, {"name": "Ambulatorio medico", "latitude": 45.4822934, "longitude": 10.0540127, "source": "osm", "_tags": {"amenity": "hospital", "emergency": "no", "healthcare": "hospital", "name": "Ambulatorio medico"}}, {"name": "Infermeria Piccole Suore della Sacra Famiglia", "latitude": 45.6879626, "longitude": 10.7520214, "source": "osm", "_tags": {"addr:postcode": "37010", "amenity": "hospital", "healthcare": "hospital", "name": "Infermeria Piccole Suore della Sacra Famiglia"}}, {"name": "Azienda Tutela Salute", "latitude": 45.5094582, "longitude": 10.3269536, "source": "osm", "_tags": {"amenity": "hospital", "healthcare": "hospital", "name": "Azienda Tutela Salute", "operator": "Azienda Tutela Salute - Brescia"}}, {"name": "Pronto Soccorso Ospedale Orlandi", "latitude": 45.4761537, "longitude": 10.8490708, "source": "osm", "_tags": {"addr:city": "Bussolengo", "emergency": "emergency_ward_entrance", "emergency_ward_entrance": "all", "entrance": "main", "healthcare": "hospital", "name": "Pronto Soccorso Ospedale Orlandi", "opening_hours": "24/7"}}, {"name": "Pronto Soccorso Ospedale di Malcesine", "latitude": 45.7517408, "longitude": 10.7959836, "source": "osm", "_tags": {"addr:city": "Malcesine", "emergency": "emergency_ward_entrance", "healthcare": "hospital", "name": "Pronto Soccorso Ospedale di Malcesine"}}, {"name": "Pronto Soccorso Ospedale Sacro Cuore", "latitude": 45.5302968, "longitude": 10.9365037, "source": "osm", "_tags": {"addr:city": "Negrar", "check_date": "2025-10-02", "emergency": "emergency_ward_entrance", "healthcare": "hospital", "name": "Pronto Soccorso Ospedale Sacro Cuore"}}, {"name": "Unità operativa neuropsichiatria dell'infanzia e dell'adolescenza", "latitude": 45.5523067, "longitude": 10.2440373, "source": "osm", "_tags": {"addr:city": "Brescia", "addr:housenumber": "21", "addr:postcode": "25123", "addr:street": "Via Maiera", "amenity": "hospital", "name": "Unità operativa neuropsichiatria dell'infanzia e dell'adolescenza"}}, {"name": "Pronto Soccorso Ospedale Edolo", "latitude": 46.1789742, "longitude": 10.3317757, "source": "osm", "_tags": {"check_date": "2024-08-15", "emergency": "emergency_ward_entrance", "healthcare": "hospital", "name": "Pronto Soccorso Ospedale Edolo"}}, {"name": "Pronto Soccorso Clinica San Rocco", "latitude": 45.6153491, "longitude": 10.1113182, "source": "osm", "_tags": {"addr:city": "Ome", "addr:housenumber": "24", "addr:postcode": "25050", "addr:street": "Via dei Sabbioni", "emergency": "emergency_ward_entrance", "healthcare": "hospital", "name": "Pronto Soccorso Clinica San Rocco"}}, {"name": "centro servizi Tonale", "latitude": 46.2593713, "longitude": 10.5854065, "source": "osm", "_tags": {"amenity": "hospital", "emergency": "yes", "healthcare": "doctor", "name": "centro servizi Tonale"}}, {"name": "Pronto Soccorso Istituto Clinico Sant'Anna", "latitude": 45.5538885, "longitude": 10.18022, "source": "osm", "_tags": {"addr:city": "Brescia", "addr:housenumber": "31", "addr:postcode": "25127", "addr:street": "Via del Franzone", "emergency": "emergency_ward_entrance", "healthcare": "hospital", "name": "Pronto Soccorso Istituto Clinico Sant'Anna"}}, {"name": "Pronto Soccorso Ospedale Desenzano del Garda", "latitude": 45.4707586, "longitude": 10.5203875, "source": "osm", "_tags": {"addr:city": "Desenzano del Garda", "addr:street": "Via Monte Croce", "emergency": "emergency_ward_entrance", "healthcare": "hospital", "name": "Pronto Soccorso Ospedale Desenzano del Garda"}}, {"name": "Pronto Soccorso", "latitude": 45.5539996, "longitude": 10.2274266, "source": "osm", "_tags": {"amenity": "hospital", "emergency": "yes", "healthcare": "hospital", "name": "Pronto Soccorso", "wheelchair": "yes"}}, {"name": "Guardia Medica", "latitude": 45.5890738, "longitude": 10.1525042, "source": "osm", "_tags": {"amenity": "hospital", "emergency": "no", "name": "Guardia Medica"}}, {"name": "Pronto Soccorso Odontoiatrico", "latitude": 45.5559993, "longitude": 10.2334375, "source": "osm", "_tags": {"amenity": "hospital", "healthcare": "hospital", "name": "Pronto Soccorso Odontoiatrico"}}, {"name": "A.O. Mellino Mellini", "latitude": 45.5645381, "longitude": 9.9972908, "source": "osm", "_tags": {"amenity": "hospital", "healthcare": "hospital", "name": "A.O. Mellino Mellini", "operator": "ASST Franciacorta", "operator:type": "public"}}, {"name": "Centro di Riabilitazione Villa San Pietro", "latitude": 45.9156576, "longitude": 10.8903326, "source": "osm", "_tags": {"addr:city": "Arco", "addr:housenumber": "6", "addr:postcode": "38062", "addr:street": "Via Paolo Leonardi", "amenity": "hospital", "email": "villasanpietro@codess.org", "emergency": "no", "healthcare": "hospital", "name": "Centro di Riabilitazione Villa San Pietro", "phone": "+39 0464 516789", "website": "https://www.villasanpietro.org/"}}, {"name": "Sede territoriale neuropsichiatria infanzia e adolescenza", "latitude": 45.4751159, "longitude": 10.2393131, "source": "osm", "_tags": {"addr:housenumber": "29", "addr:street": "Via Romanino", "amenity": "hospital", "contact:website": "asst-spedalicivili.it", "name": "Sede territoriale neuropsichiatria infanzia e adolescenza", "opening_hours": "Mo-Fr 08:30-16:45"}}, {"name": "ASST Spedali Civili Sportelli Scelta e Revoca", "latitude": 45.5277173, "longitude": 10.2334024, "source": "osm", "_tags": {"addr:housenumber": "11", "addr:street": "Viale Duca degli Abruzzi", "amenity": "hospital", "name": "ASST Spedali Civili Sportelli Scelta e Revoca", "opening_hours": "Mo, Tu, Th, Fr 08:30-14:30; We 08:30-16:00", "phone": "+39 030 3333730", "website": "https://www.asst-spedalicivili.it/servizi/notizie/notizie_homepage.aspx"}}, {"name": "Servizio di continuità assistenziale", "latitude": 45.5275054, "longitude": 10.2333291, "source": "osm", "_tags": {"addr:housenumber": "13", "addr:street": "Viale Duca degli Abruzzi", "amenity": "hospital", "name": "Servizio di continuità assistenziale", "opening_hours": "Mo-Fr 20:00-08:00; Sa, Su 00:00-23:59", "phone": "+39 030 116117", "website": "https://www.asst-spedalicivili.it/servizi/notizie/notizie_homepage.aspx"}}, {"name": "Fondazione Poliambulanza Istituto Ospedaliero", "latitude": 45.5215805, "longitude": 10.2369374, "source": "osm", "_tags": {"addr:housenumber": "1", "addr:street": "Via Don Faustino Pinzoni", "amenity": "hospital", "name": "Fondazione Poliambulanza Istituto Ospedaliero", "phone": "+39 030 3515261", "website": "https://www.poliambulanza.it/"}}, {"name": "Obitorio", "latitude": 45.5210798, "longitude": 10.237997, "source": "osm", "_tags": {"amenity": "hospital", "name": "Obitorio", "opening_hours": "Mo-Su 08:00-17:45", "website": "https://www.poliambulanza.it/"}}, {"name": "Prontosoccorso Poliambulanza", "latitude": 45.5217013, "longitude": 10.2370044, "source": "osm", "_tags": {"addr:housenumber": "1", "addr:street": "Via Don Faustino Pinzoni", "amenity": "hospital", "name": "Prontosoccorso Poliambulanza", "phone": "+39 030 3515260", "website": "https://www.poliambulanza.it/"}}, {"name": "Fondazione Istituto Ispedaliero di Sospiro", "latitude": 45.5324756, "longitude": 10.2362911, "source": "osm", "_tags": {"addr:housenumber": "89", "addr:street": "Via Mantova", "amenity": "hospital", "name": "Fondazione Istituto Ispedaliero di Sospiro", "website": "https://www.fondazionesospiro.it/"}}, {"name": "Ambulatorio Migranti - ASST Spedali Civili di Brescia", "latitude": 45.530099, "longitude": 10.2438816, "source": "osm", "_tags": {"addr:housenumber": "40", "addr:street": "Viale del Piave", "amenity": "hospital", "name": "Ambulatorio Migranti - ASST Spedali Civili di Brescia", "phone": "+39 030 333 3456", "website": "https://territorio.asst-spedalicivili.it/contenuto/contenuti--ecm/ambulatorio-migranti.ashx"}}, {"name": "Istituto Clinico Città di Brescia", "latitude": 45.553934, "longitude": 10.2270751, "source": "osm", "_tags": {"amenity": "hospital", "contact:website": "http://www.cittadibrescia-gsd.it/", "healthcare": "hospital", "name": "Istituto Clinico Città di Brescia"}}, {"name": "Pronto Soccorso", "latitude": 45.5585504, "longitude": 10.2305874, "source": "osm", "_tags": {"amenity": "hospital", "building": "hospital", "emergency": "yes", "healthcare": "hospital", "name": "Pronto Soccorso"}}, {"name": "Casa di cura Eremo", "latitude": 45.9193805, "longitude": 10.8702956, "source": "osm", "_tags": {"amenity": "hospital", "building": "yes", "healthcare": "hospital", "name": "Casa di cura Eremo"}}, {"name": "Ospedale di Caprino Veronese", "latitude": 45.6088675, "longitude": 10.7962521, "source": "osm", "_tags": {"addr:postcode": "37013", "amenity": "hospital", "healthcare": "hospital", "name": "Ospedale di Caprino Veronese", "old_name": "Ospedale Civile di Caprino Veronese"}}, {"name": "Nikolajewka", "latitude": 45.5637837, "longitude": 10.2449366, "source": "osm", "_tags": {"addr:housenumber": "11", "addr:street": "Via Nikolajewka", "amenity": "hospital", "healthcare": "hospital", "name": "Nikolajewka"}}, {"name": "Casa di Cura Villa Gemma", "latitude": 45.6251561, "longitude": 10.5733463, "source": "osm", "_tags": {"addr:city": "Gardone Riviera", "addr:postcode": "25083", "addr:street": "Corso Giuseppe Zanardelli", "amenity": "hospital", "building": "yes", "contact:website": "https://www.villagemma.it/", "emergency": "no", "healthcare": "hospital", "name": "Casa di Cura Villa Gemma"}}, {"name": "", "latitude": 45.4571753, "longitude": 10.4984184, "source": "osm", "_tags": {"amenity": "hospital", "healthcare": "hospital"}}, {"name": "Azienda Ospedaliera di Desenzano del Garda", "latitude": 45.4713704, "longitude": 10.5207015, "source": "osm", "_tags": {"amenity": "hospital", "emergency": "yes", "healthcare": "hospital", "name": "Azienda Ospedaliera di Desenzano del Garda"}}, {"name": "Area Stauffer Spedali Civili", "latitude": 45.5547615, "longitude": 10.2306798, "source": "osm", "_tags": {"addr:city": "Brescia", "addr:housenumber": "89", "addr:postcode": "25123", "addr:street": "Via Marcantonio Ducco", "alt_name": "Palazzetto prelievi", "amenity": "hospital", "building": "hospital", "healthcare": "hospital", "name": "Area Stauffer Spedali Civili", "operator": "Spedali Civili di Brescia"}}, {"name": "Ospedale di Gardone Val Trompia", "latitude": 45.6764284, "longitude": 10.1838194, "source": "osm", "_tags": {"addr:city": "Gardone Val Trompia", "addr:housenumber": "4", "addr:postcode": "25063", "addr:street": "Via Papa Giovanni Ventitreesimo", "amenity": "hospital", "contact:email": "sitr.gardone@asst-spedalicivili.it", "contact:fax": "+39 030 8933264", "contact:phone": "+39 030 8933273", "contact:website": "https://gardone.asst-spedalicivili.it/servizi/notizie/notizie_homepage.aspx", "name": "Ospedale di Gardone Val Trompia"}}, {"name": "Ospedale Piero Pederzoli", "latitude": 45.4439077, "longitude": 10.7066898, "source": "osm", "_tags": {"addr:city": "Peschiera del Garda", "addr:housenumber": "24", "addr:postcode": "37019", "addr:street": "Via Monte Baldo", "amenity": "hospital", "emergency": "yes", "healthcare": "hospital", "name": "Ospedale Piero Pederzoli", "operator": "Casa di Cura Privata S.p.A.", "operator:type": "private", "phone": "+39 045 644 91 11", "website": "https://www.ospedalepederzoli.it/", "wheelchair": "yes"}}, {"name": "Ospedale di Caprino Veronese", "latitude": 45.6088265, "longitude": 10.7961873, "source": "osm", "_tags": {"amenity": "hospital", "emergency": "yes", "healthcare": "hospital", "name": "Ospedale di Caprino Veronese"}}, {"name": "Ospedale di Salò", "latitude": 45.605193, "longitude": 10.522382, "source": "osm", "_tags": {"addr:city": "Salò", "addr:housenumber": "5", "addr:postcode": "25087", "addr:street": "Piazza Sergio Bresciani", "amenity": "hospital", "building": "hospital", "contact:phone": "+39 036 53781", "contact:website": "https://www.asst-garda.it/ospedali/salo/", "healthcare": "hospital", "name": "Ospedale di Salò", "wheelchair": "yes"}}, {"name": "Ospedale Sacro Cuore Don Calabria", "latitude": 45.5297714, "longitude": 10.9373628, "source": "osm", "_tags": {"amenity": "hospital", "emergency": "yes", "name": "Ospedale Sacro Cuore Don Calabria", "website": "http://www.sacrocuoredoncalabria.it", "wikidata": "Q3886626", "wikipedia": "it:Ospedale Sacro Cuore Don Calabria"}}, {"name": "Ospedale di Edolo", "latitude": 46.178818, "longitude": 10.3311917, "source": "osm", "_tags": {"addr:city": "Edolo", "addr:housenumber": "1", "addr:postcode": "25048", "addr:street": "Piazza Donatori di Sangue", "amenity": "hospital", "contact:phone": "+39 0364 7721", "healthcare": "hospital", "name": "Ospedale di Edolo"}}, {"name": "Ospedale San Sisto", "latitude": 46.3226166, "longitude": 10.062212, "source": "osm", "_tags": {"addr:city": "Poschiavo", "addr:housenumber": "1", "addr:postcode": "7742", "addr:street": "Via da li Clüsüri", "amenity": "hospital", "building": "yes", "healthcare": "hospital", "name": "Ospedale San Sisto", "source": "Bing", "website": "https://www.csvp.ch"}}, {"name": "Ospedale di Gavardo", "latitude": 45.588191, "longitude": 10.439807, "source": "osm", "_tags": {"amenity": "hospital", "name": "Ospedale di Gavardo"}}, {"name": "Ospedale Orlandi", "latitude": 45.4757237, "longitude": 10.8490375, "source": "osm", "_tags": {"addr:street": "Via Ospedale", "amenity": "hospital", "emergency": "yes", "fax": "+39 045 7151979", "healthcare": "hospital", "name": "Ospedale Orlandi", "operator": "ULSS 22", "operator:type": "public", "phone": "+39 045 6712111", "website": "http://www.ulss22.ven.it/context.jsp?ID_LINK=79&area=7"}}, {"name": "Azienda Sanitaria Locale Gavardo", "latitude": 45.5821449, "longitude": 10.4375089, "source": "osm", "_tags": {"amenity": "hospital", "building": "hospital", "name": "Azienda Sanitaria Locale Gavardo"}}, {"name": "Ospedale e Casa di Riposo Nobile Paolo Richiedei", "latitude": 45.5897243, "longitude": 10.1521125, "source": "osm", "_tags": {"addr:city": "Gussago", "addr:housenumber": "16", "addr:postcode": "25064", "addr:street": "Via Paolo Richiedei", "amenity": "hospital", "contact:email": "info@richiedei.it", "contact:email2": "info@pec.richiedei.it", "contact:fax": "+39 030 252 1594", "contact:phone": "+39 030 25281", "contact:website": "https://www.richiedei.it/", "name": "Ospedale e Casa di Riposo Nobile Paolo Richiedei"}}, {"name": "Fondazione Salvatore Maugeri", "latitude": 45.6517603, "longitude": 10.2519993, "source": "osm", "_tags": {"amenity": "hospital", "building": "yes", "name": "Fondazione Salvatore Maugeri"}}, {"name": "Infermeria", "latitude": 45.9692568, "longitude": 10.038452, "source": "osm", "_tags": {"amenity": "hospital", "fixme": "hospital?", "healthcare": "hospital", "name": "Infermeria", "name:en": "Infirmary"}}, {"name": "", "latitude": 45.8191979, "longitude": 10.0748938, "source": "osm", "_tags": {"amenity": "hospital", "healthcare": "hospital"}}, {"name": "Pronto Soccorso Pediatrico Cavaliere del Lavoro Francesco Folonari", "latitude": 45.555981, "longitude": 10.2308212, "source": "osm", "_tags": {"amenity": "hospital", "building": "hospital", "emergency": "yes", "healthcare": "hospital", "name": "Pronto Soccorso Pediatrico Cavaliere del Lavoro Francesco Folonari"}}, {"name": "Presidio socio sanitario territoriale di Tirano", "latitude": 46.2185556, "longitude": 10.1688097, "source": "osm", "_tags": {"amenity": "hospital", "healthcare": "hospital", "name": "Presidio socio sanitario territoriale di Tirano"}}, {"name": "Le Palme", "latitude": 45.9192521, "longitude": 10.8837391, "source": "osm", "_tags": {"addr:housenumber": "1", "addr:street": "Largo Arciduca Alberto d'Asburgo", "amenity": "hospital", "healthcare": "hospital", "name": "Le Palme", "wheelchair": "yes"}}, {"name": "Ospedale di Arco", "latitude": 45.9196657, "longitude": 10.8745067, "source": "osm", "_tags": {"addr:city": "Arco", "addr:housenumber": "48", "addr:postcode": "38062", "addr:street": "Viale dei Capitelli", "amenity": "hospital", "emergency": "yes", "healthcare": "hospital", "name": "Ospedale di Arco", "operator": "Azienda Provinciale per i Servizi Sanitari", "operator:wikidata": "Q114902510", "phone": "+39 0464 582222", "toilets:wheelchair": "yes", "website": "https://www.apss.tn.it/Azienda/Luoghi/Ospedale-di-Arco", "wheelchair": "yes", "wikidata": "Q55093684"}}, {"name": "Regina", "latitude": 45.9169437, "longitude": 10.8875084, "source": "osm", "_tags": {"amenity": "hospital", "healthcare": "hospital", "name": "Regina"}}, {"name": "", "latitude": 45.9194093, "longitude": 10.8703904, "source": "osm", "_tags": {"amenity": "hospital", "emergency": "no", "healthcare": "hospital", "wheelchair": "yes"}}, {"name": "Ospedale di Malcesine", "latitude": 45.7516153, "longitude": 10.7968673, "source": "osm", "_tags": {"amenity": "hospital", "healthcare": "hospital", "name": "Ospedale di Malcesine"}}, {"name": "San Pancrazio", "latitude": 45.9153041, "longitude": 10.879615, "source": "osm", "_tags": {"amenity": "hospital", "check_date": "2025-09-18", "healthcare": "hospital", "name": "San Pancrazio"}}, {"name": "Ospedale di Tione", "latitude": 46.0418028, "longitude": 10.7241874, "source": "osm", "_tags": {"addr:city": "Tione di Trento", "addr:housenumber": "11", "addr:postcode": "38079", "addr:street": "Via Ospedale", "amenity": "hospital", "emergency": "yes", "healthcare": "hospital", "name": "Ospedale di Tione", "operator": "Azienda Provinciale per i Servizi Sanitari", "operator:wikidata": "Q114902510", "phone": "+39 0465 331111", "website": "https://www.apss.tn.it/Azienda/Luoghi/Ospedale-di-Tione-di-Trento", "wikidata": "Q120032582"}}, {"name": "", "latitude": 45.9154746, "longitude": 10.8904421, "source": "osm", "_tags": {"amenity": "hospital", "healthcare": "hospital"}}, {"name": "ASST Garda - Presidio Socio-Sanitario di Nozza", "latitude": 45.7042491, "longitude": 10.3873645, "source": "osm", "_tags": {"addr:housenumber": "2", "addr:street": "Via Reverberi", "amenity": "hospital", "check_date": "2024-07-31", "contact:phone": "+39 0365 3781", "contact:website": "https://www.asst-garda.it/ospedali/salo/servizi/poliambulatori-di-salo/", "healthcare": "hospital", "name": "ASST Garda - Presidio Socio-Sanitario di Nozza"}}, {"name": "Ospedale di Comunità", "latitude": 45.5413869, "longitude": 10.4133522, "source": "osm", "_tags": {"amenity": "hospital", "healthcare": "hospital", "name": "Ospedale di Comunità", "operator": "Regione Lombardia", "operator:type": "public/government"}}, {"name": "Ospedale di Comunità", "latitude": 45.5413096, "longitude": 10.4131951, "source": "osm", "_tags": {"addr:city": "Prevalle", "addr:housenumber": "18", "addr:postcode": "25080", "addr:province": "Brescia", "addr:street": "Via San Carlo", "amenity": "hospital", "building": "yes", "healthcare": "hospital", "name": "Ospedale di Comunità", "operator": "Regione Lombardia", "operator:type": "public"}}, {"name": "Spedali Civili di Brescia", "latitude": 45.5574645, "longitude": 10.2312626, "source": "osm", "_tags": {"addr:city": "Brescia", "addr:housenumber": "1", "addr:postcode": "25123", "addr:street": "Piazzale Spedali Civili", "amenity": "hospital", "contact:email": "protocollo.spedalicivilibrescia@legalmail.it", "contact:fax": "+39 030 399 6544", "contact:phone": "+39 030 39951", "contact:website": "http://www.asst-spedalicivili.it/servizi/notizie/notizie_homepage.aspx", "emergency": "yes", "healthcare": "hospital", "name": "Spedali Civili di Brescia", "name:de": "Krankenhaus Brescia", "name:it": "Spedali Civili di Brescia", "source": "CTR reg Lombardia + bing", "type": "multipolygon", "wheelchair": "yes", "wikidata": "Q3966437", "wikipedia": "it:Spedali Civili di Brescia"}}, {"name": "Clinica San Rocco", "latitude": 45.6158218, "longitude": 10.1112269, "source": "osm", "_tags": {"addr:city": "Ome", "addr:housenumber": "24", "addr:postcode": "25050", "addr:street": "Via dei Sabbioni", "amenity": "hospital", "contact:email": "urp.icsr@grupposandonato.it", "contact:phone": "+39 030 685 9111", "contact:website": "https://sanrocco.grupposandonato.it/", "emergency": "yes", "name": "Clinica San Rocco", "type": "multipolygon"}}, {"name": "Fondazione Poliambulanza Istituto Ospedaliero", "latitude": 45.5210926, "longitude": 10.2367884, "source": "osm", "_tags": {"alt_name": "Casa di Cura Poliambulanza", "amenity": "hospital", "check_date": "2024-09-25", "contact:email": "direzione@pec.poliambulanza.it", "contact:fax": "+39 030 3515351", "contact:phone": "+39 030 35151", "contact:website": "https://www.poliambulanza.it/", "emergency": "yes", "medical_system:ssn": "yes", "name": "Fondazione Poliambulanza Istituto Ospedaliero", "type": "multipolygon"}}, {"name": "Ospedale dei Bambini Ronchettino", "latitude": 45.5471093, "longitude": 10.2301525, "source": "osm", "_tags": {"amenity": "hospital", "name": "Ospedale dei Bambini Ronchettino", "type": "multipolygon"}}, {"name": "Domus Salutis", "latitude": 45.5554076, "longitude": 10.2359746, "source": "osm", "_tags": {"amenity": "hospital", "contact:email": "direzione.domus@ancelle.it", "contact:fax": "+39 030 37 09 403", "contact:phone": "+39 030 37 091", "contact:website": "http://www.domussalutis.it", "emergency": "no", "healthcare": "hospital", "name": "Domus Salutis", "operator": "Fondazione Teresa Camplani", "type": "multipolygon", "wheelchair": "yes"}}, {"name": "Ospedale Civile di Iseo - A.S. Mellino Mellini", "latitude": 45.6632957, "longitude": 10.0521123, "source": "osm", "_tags": {"addr:city": "Iseo", "addr:housenumber": "7", "addr:postcode": "25049", "addr:street": "Via Giardini Garibaldi", "amenity": "hospital", "contact:phone": "+39 030 98871", "healthcare": "hospital", "name": "Ospedale Civile di Iseo - A.S. Mellino Mellini", "type": "multipolygon", "wikidata": "Q112141861"}}, {"name": "Ospedale di Sarnico", "latitude": 45.6689016, "longitude": 9.9544929, "source": "osm", "_tags": {"addr:city": "Sarnico", "addr:housenumber": "6", "addr:postcode": "24067", "addr:street": "Via P. A. Faccanoni", "amenity": "hospital", "building": "hospital", "email": "info@habilitasarnico.it", "fax": "+39 035 306 2255", "name": "Ospedale di Sarnico", "phone": "+39 035 9181", "type": "multipolygon", "website": "https://www.habilita.it/DefaultSede.aspx?SedeID=Sarnico"}}, {"name": "Pilastroni", "latitude": 45.5227573, "longitude": 10.2011774, "source": "osm", "_tags": {"amenity": "hospital", "emergency": "no", "healthcare": "hospital", "name": "Pilastroni", "social_facility": "shelter", "social_facility:for": "mental_health;homeless", "type": "multipolygon"}}, {"name": "Clinica San Camillo", "latitude": 45.5409755, "longitude": 10.2322369, "source": "osm", "_tags": {"amenity": "hospital", "emergency": "no", "name": "Clinica San Camillo", "type": "multipolygon"}}, {"name": "Casa di Riposo Fondazione Monsignor Giacomo Carettoni O.N.L.U.S.", "latitude": 46.25393, "longitude": 10.4956024, "source": "osm", "_tags": {"addr:city": "Ponte di Legno", "addr:housenumber": "100", "addr:postcode": "25056", "addr:street": "Via Roma", "amenity": "social_facility", "contact:email": "info@fondazionecarettoni.it", "contact:fax": "+39 0364 902035", "contact:phone": "+39 0364 91161", "contact:website": "https://www.fondazionecarettoni.com", "emergency": "no", "healthcare": "hospital", "healthcare:speciality": "geriatrics", "landuse": "social_facility", "name": "Casa di Riposo Fondazione Monsignor Giacomo Carettoni O.N.L.U.S.", "operator": "Fondazione Monsignor Giacomo Carettoni O.N.L.U.S.", "social_facility": "nursing_home", "social_facility:for": "senior", "type": "multipolygon"}}, {"name": "Ospedale Eugenio Morelli", "latitude": 46.3350593, "longitude": 10.3274638, "source": "osm", "_tags": {"addr:city": "Sondalo", "addr:housenumber": "33", "addr:postcode": "23035", "addr:street": "Via Ausonio Zubiani", "amenity": "hospital", "email": "direzionemedica.sl@asst-val.it", "emergency": "yes", "fax": "+39 0342 808 299", "healthcare": "hospital", "name": "Ospedale Eugenio Morelli", "operator": "A.S.S.T. Valtellina e Alto Lario", "phone": "+39 0342 808 111", "type": "multipolygon", "website": "https://www.asst-val.it/90_Sondalo.html", "wikipedia": "it:Sondalo#Ospedale Eugenio Morelli"}}, {"name": "", "latitude": 45.4618746, "longitude": 10.5640205, "source": "osm", "_tags": {"amenity": "hospital", "emergency": "no", "healthcare": "hospital", "type": "multipolygon"}}, {"name": "Ospedale di Vallecamonica", "latitude": 45.9282436, "longitude": 10.2477235, "source": "osm", "_tags": {"amenity": "hospital", "name": "Ospedale di Vallecamonica", "type": "multipolygon"}}, {"name": "Istituto Clinico Sant'Anna", "latitude": 45.5537081, "longitude": 10.1802094, "source": "osm", "_tags": {"amenity": "hospital", "name": "Istituto Clinico Sant'Anna", "type": "multipolygon"}}]