[{"name": "Clinique Psychiatrique Notre-Dame", "latitude": 45.7574805, "longitude": 4.886023, "source": "osm", "_tags": {"amenity": "hospital", "emergency": "no", "fax": "+33 4 72 36 89 18", "healthcare:speciality": "psychiatry", "name": "Clinique Psychiatrique Notre-Dame", "operator": "ORSAC", "phone": "+33 4 78 54 75 19", "ref:FR:FINESS": "690002092", "ref:FR:NAF": "8610Z", "ref:FR:SIRET": "77554456201254", "social_facility:for": "mental_health", "type:FR:FINESS": "161", "website": "https://orsac-cnd.fr/", "wheelchair": "yes"}}, {"name": "La Maisonnée", "latitude": 45.7405497, "longitude": 4.7722795, "source": "osm", "_tags": {"amenity": "hospital", "fax": "+33472162209", "healthcare": "hospital", "name": "La Maisonnée", "phone": "+33472162200", "ref:FR:FINESS": "690790472", "ref:FR:SIRET": "42462022700068", "type:FR:FINESS": "109"}}, {"name": "Hôpital local de Saint-Symphorien-sur-Coise", "latitude": 45.6346792, "longitude": 4.4585941, "source": "osm", "_tags": {"addr:city": "Saint-Symphorien-sur-Coise", "addr:housenumber": "257", "addr:postcode": "69590", "addr:street": "Avenue de la Libération", "amenity": "hospital", "description": "EHPAD", "emergency": "no", "name": "Hôpital local de Saint-Symphorien-sur-Coise", "ref:FR:FINESS": "690000039", "type:FR:FINESS": "106", "wikidata": "Q92062568"}}, {"name": "Hôpital de Thizy", "latitude": 46.0292495, "longitude": 4.312775, "source": "osm", "_tags": {"addr:housenumber": "6", "addr:street": "Rue de l'Hospice", "amenity": "hospital", "name": "Hôpital de Thizy", "ref:FR:FINESS": "690000633", "source": "Le ministère des solidarités et de la santé - 03/2019", "wikidata": "Q104874593"}}, {"name": "Hopital de St Bonnet le Château", "latitude": 45.4246597, "longitude": 4.0669193, "source": "osm", "_tags": {"amenity": "hospital", "name": "Hopital de St Bonnet le Château", "ref:FR:FINESS": "420000275", "source": "Le ministère des solidarités et de la santé - 03/2019", "wikidata": "Q92062899"}}, {"name": "Hôpital du Gier", "latitude": 45.5264843, "longitude": 4.6193494, "source": "osm", "_tags": {"amenity": "hospital", "emergency": "no", "healthcare": "hospital", "name": "Hôpital du Gier", "ref:FR:FINESS": "420780678", "source": "Le ministère des solidarités et de la santé - 10/2018"}}, {"name": "Institut d'Hématologie et d'Oncologie Pédiatrique", "latitude": 45.7406668, "longitude": 4.8770793, "source": "osm", "_tags": {"check_date": "2025-06-25", "fax": "+33 4 69 16 65 51", "healthcare": "hospital", "name": "Institut d'Hématologie et d'Oncologie Pédiatrique", "office": "research", "opening_hours": "Mo-Fr 09:00-18:00; Sa-Su off", "phone": "+33 4 69 16 65 50", "ref:FR:FINESS": "690019849", "short_name": "IHOPE", "website": "https://www.ihope.fr/", "wikidata": "Q24931545"}}, {"name": "Centre hospitalier", "latitude": 45.7404918, "longitude": 4.4669212, "source": "osm", "_tags": {"amenity": "hospital", "healthcare": "hospital", "name": "Centre hospitalier", "ref:FR:FINESS": "690000062", "source": "Le ministère des solidarités et de la santé - 03/2019", "wikidata": "Q92062552"}}, {"name": "Maison médicale", "latitude": 45.8900411, "longitude": 4.7425726, "source": "osm", "_tags": {"addr:city": "Les Chères", "addr:postcode": "69380", "addr:street": "Route Nationale 6", "amenity": "hospital", "contact:housenumber": "58", "healthcare": "hospital", "name": "Maison médicale", "wheelchair": "yes"}}, {"name": "Hôpital de jour", "latitude": 45.7717814, "longitude": 4.8645939, "source": "osm", "_tags": {"healthcare": "hospital", "level": "0", "name": "Hôpital de jour", "operator": "HCL - Les Charpennes", "wheelchair": "yes"}}, {"name": "Maison de Santé Porte de Lyon", "latitude": 45.8214961, "longitude": 4.7601689, "source": "osm", "_tags": {"addr:city": "Dardilly", "addr:housenumber": "10", "addr:postcode": "69570", "addr:street": "Avenue de la Porte de Lyon", "amenity": "hospital", "healthcare": "hospital", "healthcare:speciality": "general;dental_oral_maxillo_facial_surgery;gynaecology;emergency;biology;occupational;psychology", "name": "Maison de Santé Porte de Lyon", "operator": "Maison de Santé Porte de Lyon", "website": "https://www.mspl-dardilly.fr/"}}, {"name": "Centre hospitalier de Roanne", "latitude": 46.0426487, "longitude": 4.0790163, "source": "osm", "_tags": {"addr:city": "Roanne", "addr:housenumber": "28", "addr:postcode": "42300", "addr:street": "Rue de Charlieu", "amenity": "hospital", "emergency": "yes", "fax": "+33 4 77 44 31 98", "healthcare": "hospital", "healthcare:speciality": "intensive", "name": "Centre hospitalier de Roanne", "operator:type": "public", "phone": "+33 4 77 44 30 00", "ref:FR:FINESS": "420000010", "type:FR:FINESS": "355", "website": "https://www.ch-roanne.fr/"}}, {"name": "Hôpital privé de l'Est Lyonnais", "latitude": 45.716803, "longitude": 4.9265277, "source": "osm", "_tags": {"amenity": "hospital", "emergency": "yes", "facebook": "Hôpital Privé de l'Est Lyonnais", "fax": "+33 4 72 78 71 56", "healthcare": "hospital", "name": "Hôpital privé de l'Est Lyonnais", "operator": "Ramsay Santé", "operator:type": "private", "operator:wikidata": "Q3123085", "phone": "+33 8 26 96 99 99", "ref:FR:FINESS": "690780655", "type:FR:FINESS": "365", "website": "https://hpel.fr/"}}, {"name": "Centre hospitalier Nord Ouest Villefranche", "latitude": 46.0049714, "longitude": 4.695272, "source": "osm", "_tags": {"amenity": "hospital", "emergency": "yes", "fax": "+33 4 74 09 25 00", "healthcare": "hospital", "healthcare:speciality": "intensive", "name": "Centre hospitalier Nord Ouest Villefranche", "operator:type": "public", "phone": "+33 4 74 09 25 03", "ref:FR:FINESS": "690000575", "type:FR:FINESS": "355", "website": "https://www.lhopitalnordouest.fr/", "wikidata": "Q3145187"}}, {"name": "Centre hospitalier de Mâcon", "latitude": 46.3159965, "longitude": 4.8136687, "source": "osm", "_tags": {"alt_name": "Hôpital des Chanaux", "amenity": "hospital", "email": "chmacon@ch-macon.fr", "emergency": "yes", "fax": "+33 3 85 27 59 94", "healthcare:speciality": "intensive", "name": "Centre hospitalier de Mâcon", "operator:type": "public", "phone": "+33 3 85 20 30 40", "ref:FR:FINESS": "710978289", "source": "cadastre-dgi-fr source : Direction Générale des Impôts - Cadastre. Mise à jour : 2009", "type:FR:FINESS": "355", "website": "https://www.ch-macon.fr/"}}, {"name": "Infirmerie Protestante", "latitude": 45.7865743, "longitude": 4.8354791, "source": "osm", "_tags": {"amenity": "hospital", "healthcare": "hospital", "name": "Infirmerie Protestante", "wheelchair": "yes"}}, {"name": "Polyclinique du Val de Saône", "latitude": 46.3173599, "longitude": 4.8116636, "source": "osm", "_tags": {"amenity": "hospital", "fax": "+33 3 85 23 23 24", "healthcare": "hospital", "name": "Polyclinique du Val de Saône", "operator:type": "private", "phone": "+33 3 85 23 23 23", "ref:FR:FINESS": "710006859", "ref:FR:SIRET": "37841772900035", "source": "cadastre-dgi-fr source : Direction Générale des Impôts - Cadastre. Mise à jour : 2009", "type:FR:FINESS": "365", "website": "http://www.cliniquevaldesaone.fr/"}}, {"name": "Hôpital Corsin", "latitude": 46.3054406, "longitude": 4.6017127, "source": "osm", "_tags": {"amenity": "hospital", "building": "yes", "healthcare": "hospital", "name": "Hôpital Corsin", "ref:FR:FINESS": "710978198", "source": "cadastre-dgi-fr source : Direction Générale des Impôts - Cadastre ; mise à jour : 2010", "type:FR:FINESS": "106", "wikidata": "Q92063321"}}, {"name": "Hôpital gériatrique Frédéric Dugoujon", "latitude": 45.7865289, "longitude": 4.8388257, "source": "osm", "_tags": {"alt_name": "Centre de Gériatrie de Cuire", "amenity": "hospital", "healthcare": "hospital", "name": "Hôpital gériatrique Frédéric Dugoujon", "ref:FR:FINESS": "690787429", "source": "Le ministère des solidarités et de la santé - 03/2019", "type:FR:FINESS": "101", "website": "https://www.chu-lyon.fr/fr/hopital-frederic-dugoujon"}}, {"name": "Centre hospitalier Lucien Hussel", "latitude": 45.5335495, "longitude": 4.8805416, "source": "osm", "_tags": {"amenity": "hospital", "barrier": "fence", "emergency": "yes", "fax": "+33 4 74 31 32 04", "healthcare": "hospital", "name": "Centre hospitalier Lucien Hussel", "operator:type": "public", "phone": "+33 4 74 31 33 33", "ref:FR:FINESS": "380000174", "short_name": "CH de Vienne", "type:FR:FINESS": "355", "website": "http://www.ch-vienne.fr/"}}, {"name": "Hôpital Privé de la Loire", "latitude": 45.4282522, "longitude": 4.4180059, "source": "osm", "_tags": {"amenity": "hospital", "building": "hospital", "emergency": "yes", "fax": "+33 4 77 42 29 29", "healthcare": "hospital", "healthcare:speciality": "intensive", "name": "Hôpital Privé de la Loire", "operator": "Ramsay Santé", "operator:type": "private", "operator:wikidata": "Q3123085", "phone": "+33 826 30 42 42", "ref:FR:FINESS": "420011413", "source": "cadastre-dgi-fr source : Direction Générale des Impôts - Cadastre ; mise à jour : 2009", "type:FR:FINESS": "365", "website": "https://hopital-prive-de-la-loire-saint-etienne.ramsaygds.fr/", "wheelchair": "yes"}}, {"name": "Centre de Réadaptation Cardio-Respiratoire de la Loire", "latitude": 45.4772479, "longitude": 4.3655736, "source": "osm", "_tags": {"amenity": "hospital", "building": "yes", "healthcare": "hospital", "name": "Centre de Réadaptation Cardio-Respiratoire de la Loire", "ref:FR:FINESS": "420011512", "short_name": "CRCRL", "type:FR:FINESS": "109"}}, {"name": "Clinique IRIS", "latitude": 45.7161022, "longitude": 4.9256996, "source": "osm", "_tags": {"amenity": "hospital", "building": "hospital", "name": "Clinique IRIS", "operator": "Ramsay Santé", "phone": "+33 4 28 63 69 30", "website": "https://clinique-iris-saint-priest.ramsaysante.fr/"}}, {"name": "Hôpital privé Jean Mermoz", "latitude": 45.7357722, "longitude": 4.8759107, "source": "osm", "_tags": {"amenity": "hospital", "fax": "+33437538001", "healthcare": "hospital", "name": "Hôpital privé Jean Mermoz", "phone": "+33826306969", "ref:FR:FINESS": "690023411", "ref:FR:SIRET": "77813787700081", "source": "Le ministère des solidarités et de la santé - 03/2019", "type:FR:FINESS": "365", "website": "https://hopital-prive-jean-mermoz-lyon.ramsaygds.fr/", "wikidata": "Q48748257"}}, {"name": "Groupe hospitalier Les Portes du Sud", "latitude": 45.6883811, "longitude": 4.8669177, "source": "osm", "_tags": {"amenity": "hospital", "emergency": "yes", "fax": "+33 4 72 89 80 01", "healthcare": "hospital", "name": "Groupe hospitalier Les Portes du Sud", "operator:type": "public", "phone": "+33 4 72 89 80 00", "ref:FR:FINESS": "690780416", "type:FR:FINESS": "365", "website": "http://www.ghm-lesportesdusud.fr", "wheelchair": "yes"}}, {"name": "Hôpital de la Croix-Rousse", "latitude": 45.7816895, "longitude": 4.8310834, "source": "osm", "_tags": {"amenity": "hospital", "emergency": "yes", "facebook": "HopitalCroixRousse.HCL", "fax": "+33 4 72 07 18 96", "healthcare": "hospital", "healthcare:speciality": "intensive", "name": "Hôpital de la Croix-Rousse", "phone": "+33 4 72 11 80 88", "ref:FR:FINESS": "690784152", "ref:FR:NAF": "8610Z", "ref:FR:SIRET": "26690027300100", "source:phone": "website-standard 2025", "type:FR:FINESS": "101", "website": "https://www.chu-lyon.fr/fr/hopital-de-la-croix-rousse", "wikidata": "Q3145307", "wikipedia": "fr:Hôpital de la Croix-Rousse"}}, {"name": "", "latitude": 45.8646957, "longitude": 4.8329828, "source": "osm", "_tags": {"amenity": "hospital"}}, {"name": "", "latitude": 45.8617568, "longitude": 4.83231, "source": "osm", "_tags": {"amenity": "hospital"}}, {"name": "", "latitude": 45.8622499, "longitude": 4.8314939, "source": "osm", "_tags": {"amenity": "hospital"}}, {"name": "Centre hospitalier gériatrique des Monts d'Or", "latitude": 45.8618098, "longitude": 4.8339898, "source": "osm", "_tags": {"amenity": "hospital", "emergency": "no", "name": "Centre hospitalier gériatrique des Monts d'Or", "source": "http://www.ch-montdor.fr/"}}, {"name": "Clinique Charcot", "latitude": 45.7495263, "longitude": 4.7971321, "source": "osm", "_tags": {"addr:postcode": "69005", "addr:street": "Rue du Commandant Charcot", "amenity": "hospital", "healthcare": "hospital", "name": "Clinique Charcot", "phone": "+33472326868", "ref:FR:FINESS": "690780366", "ref:FR:SIRET": "96250383500010", "source": "http://finess.sante.gouv.fr", "type:FR:FINESS": "365"}}, {"name": "Hôpital gériatrique Pierre Garaud", "latitude": 45.7487343, "longitude": 4.7878219, "source": "osm", "_tags": {"amenity": "hospital", "emergency": "no", "healthcare": "hospital", "name": "Hôpital gériatrique Pierre Garaud", "phone": "+33472168002", "ref:FR:FINESS": "690787478", "ref:FR:SIRET": "26690027300316", "source": "Le ministère des solidarités et de la santé - 10/2018", "type:FR:FINESS": "101", "website": "https://www.chu-lyon.fr/fr/hopital-pierre-garraud"}}, {"name": "Centre hospitalier gériatrique des Mont d'Or", "latitude": 45.8596401, "longitude": 4.8342334, "source": "osm", "_tags": {"amenity": "hospital", "emergency": "no", "name": "Centre hospitalier gériatrique des Mont d'Or", "ref:FR:FINESS": "690000773", "source": "Le ministère des solidarités et de la santé - 08/2018"}}, {"name": "Hôpital Gériatrique intercommunal Neuville-Fontaines", "latitude": 45.8676763, "longitude": 4.8481069, "source": "osm", "_tags": {"amenity": "hospital", "healthcare": "hospital", "name": "Hôpital Gériatrique intercommunal Neuville-Fontaines", "ref:FR:FINESS": "690000054", "source": "Le ministère des solidarités et de la santé - 08/2018", "type:FR:FINESS": "106", "wikidata": "Q92062958"}}, {"name": "Hôpital Maurice André", "latitude": 45.5981778, "longitude": 4.3018601, "source": "osm", "_tags": {"alt_name": "Centre Hospitalier Maurice André", "amenity": "hospital", "building": "yes", "healthcare": "hospital", "name": "Hôpital Maurice André", "ref:FR:FINESS": "420789067", "type:FR:FINESS": "362"}}, {"name": "Hôpital Édouard Herriot", "latitude": 45.743482, "longitude": 4.8821987, "source": "osm", "_tags": {"alt_name": "Hôpital de Grange-Blanche", "amenity": "hospital", "emergency": "yes", "healthcare": "hospital", "healthcare:speciality": "intensive", "heritage": "3", "heritage:operator": "mhs", "internet_access": "wlan", "mhs:inscription_date": "1967-12-13", "name": "Hôpital Édouard Herriot", "operator:type": "public", "ref:FR:FINESS": "690783154", "ref:FR:SIRET": "26690027300217", "ref:mhs": "PA00117813", "source:heritage": "Ministère de la Culture - 07/2018", "toilets:wheelchair": "no", "type:FR:FINESS": "101", "website": "https://www.chu-lyon.fr/", "wheelchair": "no", "wikidata": "Q3145366"}}, {"name": "Hôpital d'instruction des armées Desgenettes", "latitude": 45.7406611, "longitude": 4.8908559, "source": "osm", "_tags": {"amenity": "hospital", "emergency": "yes", "healthcare": "hospital", "healthcare:speciality": "intensive", "landuse": "military", "name": "Hôpital d'instruction des armées Desgenettes", "phone": "+33 4 72 36 60 00", "ref:FR:FINESS": "690780093", "ref:FR:SIRET": "15100002300433", "short_name": "HIA Desgenettes", "type:FR:FINESS": "114", "wheelchair": "yes", "wikidata": "Q3145268"}}, {"name": "Centre hospitalier Le Vinatier", "latitude": 45.7418232, "longitude": 4.8991164, "source": "osm", "_tags": {"amenity": "hospital", "emergency": "yes", "healthcare": "hospital", "name": "Centre hospitalier Le Vinatier", "phone": "+33 4 37 91 55 55", "ref:FR:FINESS": "690000088", "ref:FR:NAF": "86.10Z", "ref:FR:SIRET": "26690008300012", "type:FR:FINESS": "292", "website": "https://www.ch-le-vinatier.fr/", "wikidata": "Q2945674", "wikipedia": "fr:Centre hospitalier Le Vinatier"}}, {"name": "Hôpital cardio-vasculaire et pneumologique Louis Pradel", "latitude": 45.7478613, "longitude": 4.9024847, "source": "osm", "_tags": {"alt_name": "Hôpital Louis Pradel", "amenity": "hospital", "facebook": "HopitalLouisPradel.HCL", "healthcare": "hospital", "name": "Hôpital cardio-vasculaire et pneumologique Louis Pradel", "ref:FR:FINESS": "690784186", "ref:FR:SIRET": "26690027300977", "type:FR:FINESS": "101", "website": "https://www.chu-lyon.fr/fr/hopital-louis-pradel", "wikidata": "Q28040414"}}, {"name": "Hôpital Femme-Mère-Enfant", "latitude": 45.7460646, "longitude": 4.9006983, "source": "osm", "_tags": {"amenity": "hospital", "emergency": "yes", "fax": "+33 4 27 85 62 86", "healthcare": "hospital", "healthcare:speciality": "intensive", "name": "Hôpital Femme-Mère-Enfant", "operator:type": "public", "phone": "+33 8 25 08 25 69", "ref:FR:FINESS": "690007539", "ref:FR:SIRET": "26690027300969", "toilets:wheelchair": "yes", "type:FR:FINESS": "101", "website": "https://www.chu-lyon.fr/fr/hopital-femme-mere-enfant", "wheelchair": "yes"}}, {"name": "Hôpital neurologique Pierre Wertheimer", "latitude": 45.7490851, "longitude": 4.8992505, "source": "osm", "_tags": {"amenity": "hospital", "healthcare": "hospital", "healthcare:speciality": "intensive", "name": "Hôpital neurologique Pierre Wertheimer", "ref:FR:FINESS": "690784178", "ref:FR:SIRET": "26690027300910", "type:FR:FINESS": "101", "wikidata": "Q28040416"}}, {"name": "Centre hospitalier Lyon-Sud", "latitude": 45.702286, "longitude": 4.8087754, "source": "osm", "_tags": {"addr:housenumber": "165", "addr:street": "Chemin du Grand Revoyet", "amenity": "hospital", "emergency": "yes", "fax": "+33 4 78 86 56 66", "healthcare": "hospital", "name": "Centre hospitalier Lyon-Sud", "name:en": "Lyon Sud Hospital", "opening_hours": "24/7", "operator": "Hospices Civils de Lyon", "operator:type": "public", "phone": "+33 8 25 08 25 69", "ref:FR:FINESS": "690784137", "short_name": "CHLS", "type:FR:FINESS": "101", "website": "https://www.chu-lyon.fr/", "wikidata": "Q2945675"}}, {"name": "Hôpital local", "latitude": 45.6368395, "longitude": 4.38968, "source": "osm", "_tags": {"amenity": "hospital", "building": "hospital", "name": "Hôpital local", "ref:FR:FINESS": "420000283", "source": "cadastre-dgi-fr source : Direction Générale des Finances Publiques - Cadastre. Mise à jour : 2014", "wikidata": "Q92063077"}}, {"name": "Centre hospitalier Montpensier", "latitude": 45.9408891, "longitude": 4.7714356, "source": "osm", "_tags": {"amenity": "hospital", "emergency": "no", "healthcare": "hospital", "name": "Centre hospitalier Montpensier", "ref:FR:FINESS": "010000065", "source": "Le ministère des solidarités et de la santé - 08/2018", "wikidata": "Q72694289"}}, {"name": "Centre médical de l'Argentière", "latitude": 45.6891003, "longitude": 4.45631, "source": "osm", "_tags": {"addr:housenumber": "980", "addr:street": "Route du Pont Grizon", "amenity": "hospital", "healthcare": "hospital", "name": "Centre médical de l'Argentière", "source": "cadastre-dgi-fr source : Direction Générale des Impôts - Cadastre. Mise à jour : 2012"}}, {"name": "Hôpital de Beaujeu", "latitude": 46.1534995, "longitude": 4.5892554, "source": "osm", "_tags": {"amenity": "hospital", "emergency": "yes", "healthcare": "hospital", "name": "Hôpital de Beaujeu", "ref:FR:FINESS": "690000591", "source": "Le ministère des solidarités et de la santé - 03/2019", "wikidata": "Q92062385"}}, {"name": "Centre hospitalier Lyon-Sud (Sainte-Eugénie)", "latitude": 45.7037788, "longitude": 4.7993641, "source": "osm", "_tags": {"amenity": "hospital", "emergency": "no", "healthcare": "hospital", "name": "Centre hospitalier Lyon-Sud (Sainte-Eugénie)", "operator": "Hospices Civils de Lyon", "ref:FR:FINESS": "690784137", "ref:FR:SIRET": "26690027300324", "short_name": "CHLS", "source": "Grand Lyon Ortho 2012", "type:FR:FINESS": "101", "wikidata": "Q2945675", "wikipedia": "fr:Centre hospitalier Lyon Sud"}}, {"name": "Centre hospitalier du Forez", "latitude": 45.7459489, "longitude": 4.2215808, "source": "osm", "_tags": {"amenity": "hospital", "emergency": "yes", "fax": "+33 4 77 27 52 21", "healthcare": "hospital", "name": "Centre hospitalier du Forez", "operator:type": "public", "phone": "+33 4 77 27 54 54", "ref:FR:FINESS": "420000267", "type:FR:FINESS": "355", "website": "https://www.ch-forez.fr/"}}, {"name": "Clinique de la Sauvegarde", "latitude": 45.7882062, "longitude": 4.7866074, "source": "osm", "_tags": {"addr:housenumber": "40", "addr:street": "Avenue David Ben Gourion", "amenity": "hospital", "emergency": "yes", "fax": "+33 4 72 17 26 02", "healthcare": "hospital", "healthcare:speciality": "intensive", "name": "Clinique de la Sauvegarde", "operator": "Groupe Capio", "operator:type": "private", "phone": "+33 4 72 17 26 26", "ref:FR:FINESS": "690780648", "type:FR:FINESS": "365", "website": "https://clinique-sauvegarde.capio.fr/"}}, {"name": "Centre hospitalier du Forez", "latitude": 45.6130683, "longitude": 4.0489306, "source": "osm", "_tags": {"amenity": "hospital", "emergency": "yes", "fax": "+33 4 77 96 78 98", "healthcare": "hospital", "name": "Centre hospitalier du Forez", "operator:type": "public", "phone": "+33 4 77 96 78 00", "ref:FR:FINESS": "420000226", "type:FR:FINESS": "355", "website": "https://www.ch-forez.fr/"}}, {"name": "Centre hospitalier Saint-Jean-de-Dieu", "latitude": 45.7226013, "longitude": 4.8514203, "source": "osm", "_tags": {"amenity": "hospital", "fax": "+33 4 37 90 10 00", "healthcare:speciality": "psychiatry", "name": "Centre hospitalier Saint-Jean-de-Dieu", "operator": "Fondation ARHM", "phone": "+33 4 37 90 10 10", "ref:FR:FINESS": "690780143", "ref:FR:NAF": "86.10Z", "ref:FR:SIRET": "77986872800030", "source": "Le ministère des solidarités et de la santé - 03/2019", "type:FR:FINESS": "292", "website": "http://sjd.arhm.fr/", "wikidata": "Q2945680", "wikipedia": "fr:Centre hospitalier Saint-Jean-de-Dieu"}}, {"name": "Clinique Saint-Charles", "latitude": 45.7699343, "longitude": 4.8274678, "source": "osm", "_tags": {"amenity": "hospital", "check_date": "2024-09-05", "emergency": "no", "healthcare": "hospital", "name": "Clinique Saint-Charles"}}, {"name": "Hôpital de l'Arbresle", "latitude": 45.8408025, "longitude": 4.6166112, "source": "osm", "_tags": {"amenity": "hospital", "name": "Hôpital de l'Arbresle", "ref:FR:FINESS": "690041223", "source": "Le ministère des solidarités et de la santé - 2025-07", "type:FR:FINESS": "292"}}, {"name": "Polyclinique du Beaujolais", "latitude": 46.0115538, "longitude": 4.7078581, "source": "osm", "_tags": {"amenity": "hospital", "emergency": "yes", "fax": "+33 4 74 65 66 68", "healthcare": "hospital", "name": "Polyclinique du Beaujolais", "operator": "Groupe Capio", "operator:type": "private", "phone": "+33 8 26 96 90 00", "ref:FR:FINESS": "690807367", "type:FR:FINESS": "365", "website": "https://polyclinique-beaujolais.capio.fr/"}}, {"name": "Clinique du Renaison", "latitude": 46.0334072, "longitude": 4.0524627, "source": "osm", "_tags": {"aeroway": "no", "amenity": "hospital", "emergency": "yes", "fax": "+33 4 77 44 45 45", "healthcare": "hospital", "name": "Clinique du Renaison", "operator:type": "private", "phone": "+33 8 26 46 45 00", "ref:FR:FINESS": "420782310", "type:FR:FINESS": "365", "website": "http://www.clinique-renaison.fr/"}}, {"name": "Hôpital des Charpennes", "latitude": 45.7718912, "longitude": 4.8641731, "source": "osm", "_tags": {"amenity": "hospital", "emergency": "no", "healthcare": "hospital", "healthcare:speciality": "geriatrics", "name": "Hôpital des Charpennes", "opening_hours": "12:00-20:00 \"visite. Pas d'Urgences\"", "operator": "HCL", "operator:type": "public", "phone": "+33 825 08 25 69", "ref:FR:FINESS": "690784194", "wheelchair": "yes"}}, {"name": "SSR Val Rosay", "latitude": 45.7969296, "longitude": 4.8121205, "source": "osm", "_tags": {"amenity": "hospital", "check_date": "2025-06-12", "emergency": "no", "name": "SSR Val Rosay"}}, {"name": "Clinique Lyon Champvert", "latitude": 45.7589587, "longitude": 4.8042044, "source": "osm", "_tags": {"amenity": "hospital", "emergency": "no", "healthcare": "hospital", "healthcare:speciality": "psychiatry", "name": "Clinique Lyon Champvert", "operator": "ORPEA", "operator:type": "private"}}, {"name": "Hôpital gériatrique de Fourvière", "latitude": 45.761891, "longitude": 4.81833, "source": "osm", "_tags": {"amenity": "hospital", "check_date": "2025-06-22", "healthcare": "hospital", "name": "Hôpital gériatrique de Fourvière"}}, {"name": "Centre hospitalier Ain Val de Saône", "latitude": 46.2637571, "longitude": 4.890336, "source": "osm", "_tags": {"amenity": "hospital", "emergency": "no", "healthcare": "hospital", "name": "Centre hospitalier Ain Val de Saône", "ref:FR:FINESS": "010000115", "source": "cadastre-dgi-fr source : Direction Générale des Finances Publiques - Cadastre. Mise à jour : 2016", "type:FR:FINESS": "355"}}, {"name": "Centre hospitalier Ain Val de Saône", "latitude": 46.1727039, "longitude": 4.8049753, "source": "osm", "_tags": {"amenity": "hospital", "healthcare": "hospital", "name": "Centre hospitalier Ain Val de Saône", "ref:FR:FINESS": "010000131", "source": "Le ministère des solidarités et de la santé - 08/2018"}}, {"name": "Centre hospitalier de Montgelas", "latitude": 45.6004506, "longitude": 4.7650409, "source": "osm", "_tags": {"amenity": "hospital", "emergency": "yes", "facebook": "Centre hospitalier de Givors", "fax": "+33 4 78 07 30 04", "name": "Centre hospitalier de Montgelas", "operator:type": "public", "phone": "+33 4 78 07 30 30", "ref:FR:FINESS": "690000013", "type:FR:FINESS": "355", "website": "https://www.ch-givors.fr/"}}, {"name": "Centre des Maladies du Foie et de l'Appareil Digestif", "latitude": 45.6894153, "longitude": 4.8235504, "source": "osm", "_tags": {"alt_name": "Endoscopie Lyon Sud Ouest", "amenity": "hospital", "description": "Lundi-Jeudi : 7h-19h\nVendredi : 7h-18h30", "emergency": "no", "fax": "+33472390615", "healthcare:speciality": "gastroenterology", "name": "Centre des Maladies du Foie et de l'Appareil Digestif", "opening_hours": "Mo-Th 07:00-19:00; Fr 07:00-18:30", "phone": "+33472666700", "ref:FR:FINESS": "690029186", "ref:FR:SIRET": "49864969800012", "source": "Le ministère des solidarités et de la santé - 10/2018", "type:FR:FINESS": "128", "website": "https://www.cmfad-sol.com/"}}, {"name": "Clinique Mon Repos", "latitude": 45.7719637, "longitude": 4.7841622, "source": "osm", "_tags": {"amenity": "hospital", "healthcare": "hospital", "name": "Clinique Mon Repos", "source": "Grand Lyon"}}, {"name": "Hôpital Henry Gabrielle", "latitude": 45.6902, "longitude": 4.7905153, "source": "osm", "_tags": {"amenity": "hospital", "emergency": "no", "healthcare": "hospital", "name": "Hôpital Henry Gabrielle", "ref:FR:FINESS": "690784202", "source": "Grand Lyon", "wikidata": "Q21619446"}}, {"name": "Hôpital de Sainte-Foy les Lyon", "latitude": 45.7323575, "longitude": 4.7930692, "source": "osm", "_tags": {"amenity": "hospital", "name": "Hôpital de Sainte-Foy les Lyon", "ref:FR:FINESS": "690000021", "source": "Le ministère des solidarités et de la santé - 03/2019"}}, {"name": "Polyclinique Lyon-Nord Rillieux", "latitude": 45.8211472, "longitude": 4.8870198, "source": "osm", "_tags": {"alt_name": "Clinique Lyon-Nord Rillieux", "amenity": "hospital", "emergency": "yes", "fax": "+33 4 72 01 38 14", "name": "Polyclinique Lyon-Nord Rillieux", "operator": "Groupe Vivalto Santé", "operator:type": "private", "phone": "+33 8 26 28 29 30", "ref:FR:FINESS": "690780390", "source": "Grand Lyon", "type:FR:FINESS": "365", "website": "https://www.clinique-lyon-nord.fr/", "wheelchair": "yes", "wikidata": "Q63929756"}}, {"name": "Hôpital Nord", "latitude": 45.4816019, "longitude": 4.3615623, "source": "osm", "_tags": {"addr:city": "Saint-Priest-en-Jarez", "addr:full": "CHU de Saint-Étienne Hôpital Nord - 42055 SAINT-ÉTIENNE CEDEX 2", "addr:postcode": "42055", "addr:street": "Avenue Albert Raimond", "amenity": "hospital", "emergency": "yes", "fax": "+33 4 77 82 80 05", "healthcare:speciality": "intensive", "name": "Hôpital Nord", "operator:type": "public", "phone": "+33 4 77 82 80 00", "ref:FR:FINESS": "420785354", "type:FR:FINESS": "101", "website": "https://www.chu-st-etienne.fr/", "wikidata": "Q23021255"}}, {"name": "Centre hospitaliser spécialisé Saint-Cyr", "latitude": 45.8193575, "longitude": 4.8344872, "source": "osm", "_tags": {"amenity": "hospital", "fax": "+33472421985", "healthcare": "hospital", "name": "Centre hospitaliser spécialisé Saint-Cyr", "phone": "+33472421919", "ref:FR:FINESS": "690000096", "ref:FR:SIRET": "26690019000015", "source": "Le ministère des solidarités et de la santé - 03/2019", "type:FR:FINESS": "292"}}, {"name": "Clinique du Val d'Ouest", "latitude": 45.7686889, "longitude": 4.7817415, "source": "osm", "_tags": {"addr:housenumber": "39", "addr:street": "Chemin de la Vernique", "amenity": "hospital", "check_date": "2024-06-10", "emergency": "yes", "healthcare": "hospital", "name": "Clinique du Val d'Ouest", "phone": "+33 472193200", "ref:FR:FINESS": "690780358", "ref:FR:NAF": "8610Z", "ref:FR:SIRET": "39272120500012", "type:FR:FINESS": "365", "website": "https://www.cliniqueduvaldouest.com"}}, {"name": "Clinique Émilie de Vialar", "latitude": 45.7567182, "longitude": 4.8717446, "source": "osm", "_tags": {"amenity": "hospital", "emergency": "no", "healthcare": "hospital", "name": "Clinique Émilie de Vialar", "phone": "+33 4 72 13 38 40", "ref:FR:FINESS": "690780200", "ref:FR:NAF": "8610Z", "type:FR:FINESS": "365", "wheelchair": "yes"}}, {"name": "Hôpital du Gier - Site Pinay", "latitude": 45.4691451, "longitude": 4.5198946, "source": "osm", "_tags": {"addr:city": "Saint-Chamond", "addr:housenumber": "19", "addr:postcode": "42400", "addr:street": "Rue Laurent Charles", "amenity": "hospital", "emergency": "no", "fax": "+33 4 77 29 35 06", "healthcare": "hospital", "name": "Hôpital du Gier - Site Pinay", "operator:type": "public", "phone": "+33 4 77 31 19 19", "ref:FR:FINESS": "420009599", "type:FR:FINESS": "355", "website": "https://hopitaldugier.fr/"}}, {"name": "Hôpital de la Charité", "latitude": 45.432957, "longitude": 4.3913404, "source": "osm", "_tags": {"amenity": "hospital", "emergency": "no", "healthcare": "hospital", "name": "Hôpital de la Charité", "ref:FR:FINESS": "420782567", "source": "Le ministère des solidarités et de la santé - 10/2018", "wikidata": "Q22996892", "wikimedia_commons": "Category:Hôpital de La Charité (Saint-Étienne)", "wikipedia": "fr:Hôpital de la Charité (Saint-Étienne)"}}, {"name": "Clinique du Parc", "latitude": 45.4777038, "longitude": 4.3674597, "source": "osm", "_tags": {"amenity": "hospital", "emergency": "yes", "fax": "+33 4 77 92 21 05", "name": "Clinique du Parc", "operator:type": "private", "phone": "+33 4 77 92 22 22", "ref:FR:FINESS": "420780504", "type:FR:FINESS": "365", "website": "https://www.elsan.care/fr/clinique-parc-saint-priest"}}, {"name": "Centre médico-psychologique", "latitude": 46.0441918, "longitude": 4.0778823, "source": "osm", "_tags": {"amenity": "hospital", "healthcare": "hospital", "name": "Centre médico-psychologique", "ref:FR:FINESS": "420785255", "type:FR:FINESS": "156"}}, {"name": "Médipôle Lyon-Villeurbanne", "latitude": 45.7595984, "longitude": 4.9075322, "source": "osm", "_tags": {"amenity": "hospital", "check_date": "2025-09-26", "contact:city": "Villeurbanne", "contact:housenumber": "158", "contact:postcode": "69100", "contact:street": "Rue Léon Blum", "emergency": "yes", "healthcare": "hospital", "healthcare:speciality": "general", "name": "Médipôle Lyon-Villeurbanne", "ref:FR:FINESS": "690041124", "ref:FR:SIRET": "49346678300054", "start_date": "2019", "wheelchair": "yes", "wikidata": "Q60852259", "wikipedia": "fr:Médipôle Lyon-Villeurbanne"}}, {"name": "Centre hospitalier de Charlieu", "latitude": 46.1596055, "longitude": 4.1649049, "source": "osm", "_tags": {"amenity": "hospital", "healthcare": "hospital", "name": "Centre hospitalier de Charlieu", "ref:FR:FINESS": "420000036", "source": "Le ministère des solidarités et de la santé - 03/2019", "wikidata": "Q92063129"}}, {"name": "L’Hôpital Nord-Ouest Tarare", "latitude": 45.8893651, "longitude": 4.4386599, "source": "osm", "_tags": {"addr:housenumber": "6", "addr:street": "Boulevard Garibaldi", "amenity": "hospital", "contact:phone": "+33 4 74 05 46 46", "emergency": "yes", "fax": "+33 4 74 05 33 64", "healthcare": "hospital", "name": "L’Hôpital Nord-Ouest Tarare", "operator:type": "public", "ref:FR:FINESS": "690000625", "type:FR:FINESS": "355", "website": "https://hno.fr/hopital-de-tarare", "wikidata": "Q3145187"}}, {"name": "Hôpital du Pays Dunois", "latitude": 46.2886344, "longitude": 4.305594, "source": "osm", "_tags": {"addr:city": "La Clayette", "addr:housenumber": "19", "addr:postcode": "71800", "addr:street": "Rue de l'Hôpital", "amenity": "hospital", "beds": "102", "email": "communication@ch-laclayette.fr", "emergency": "yes", "fax": "+33 3 85 26 84 38", "healthcare": "hospital", "name": "Hôpital du Pays Dunois", "phone": "+33 3 85 28 91 10", "ref:FR:FINESS": "710978123", "source": "Observations personnelles / BDOrtho IGN 2018", "type:FR:FINESS": "106"}}, {"name": "Hôtel-Dieu", "latitude": 46.3088788, "longitude": 4.8305031, "source": "osm", "_tags": {"capacity": "71", "disused:amenity": "hospital", "healthcare": "hospital", "name": "Hôtel-Dieu", "operator": "Centre hospitalier de Mâcon", "operator:type": "public", "ref:FR:FINESS": "710973645", "type:FR:FINESS": "500", "wikidata": "Q112922679"}}, {"name": "Centre hospitalier de Belleville", "latitude": 46.1105168, "longitude": 4.7479001, "source": "osm", "_tags": {"amenity": "hospital", "healthcare": "hospital", "name": "Centre hospitalier de Belleville", "ref:FR:FINESS": "690000583", "source": "Le ministère des solidarités et de la santé - 03/2019", "wikidata": "Q92062380"}}, {"name": "Hôpital Nord-Ouest Grandris Haute Azergues", "latitude": 46.0430551, "longitude": 4.4775832, "source": "osm", "_tags": {"addr:city": "Grandris", "addr:postcode": "69870", "addr:street": "Rue de l'Hôpital", "amenity": "hospital", "fax": "+33474030220", "healthcare": "hospital", "name": "Hôpital Nord-Ouest Grandris Haute Azergues", "phone": "+33474030258", "ref:FR:FINESS": "690000617", "source": "Le ministère des solidarités et de la santé - 03/2019", "type:FR:FINESS": "355", "website": "http://www.hopitalgrandrisletra.fr"}}, {"name": "Centre hospitalier du Beaujolais Vert", "latitude": 46.0976833, "longitude": 4.3177621, "source": "osm", "_tags": {"amenity": "hospital", "name": "Centre hospitalier du Beaujolais Vert", "ref:FR:FINESS": "690000609", "source": "Le ministère des solidarités et de la santé - 03/2019"}}, {"name": "Clinique Iris", "latitude": 45.7359687, "longitude": 4.8746254, "source": "osm", "_tags": {"check_date": "2024-09-22", "disused:amenity": "hospital", "healthcare": "hospital", "name": "Clinique Iris", "phone": "+33437903100", "ref:FR:FINESS": "690025366", "ref:FR:SIRET": "97250050800031", "source": "Le ministère des solidarités et de la santé - 03/2019", "type:FR:FINESS": "109", "wheelchair": "yes"}}, {"name": "Clinique Nouvelle du Forez", "latitude": 45.6069756, "longitude": 4.0475043, "source": "osm", "_tags": {"addr:housenumber": "28", "addr:street": "Route Nouvelle", "amenity": "hospital", "healthcare": "hospital", "layer": "1", "name": "Clinique Nouvelle du Forez", "ref:FR:FINESS": "420782591", "ref:FR:SIRET": "88645021200016", "website": "https://www.elsan.care/fr/clinique-forez"}}, {"name": "Clinique du Parc", "latitude": 45.7715005, "longitude": 4.8592411, "source": "osm", "_tags": {"amenity": "hospital", "check_date": "2024-04-11", "healthcare": "hospital", "name": "Clinique du Parc", "wheelchair": "yes"}}, {"name": "Clinique Trenel", "latitude": 45.519469, "longitude": 4.8620057, "source": "osm", "_tags": {"amenity": "hospital", "contact:housenumber": "575", "contact:street": "Rue du Docteur Trenel", "healthcare": "hospital", "name": "Clinique Trenel"}}, {"name": "Clinique Le Clos Montaigne", "latitude": 45.6466394, "longitude": 4.2352951, "source": "osm", "_tags": {"addr:city": "Montrond-les-Bains", "addr:housenumber": "282", "addr:postcode": "42210", "addr:street": "Rue Montaigne", "amenity": "hospital", "emergency": "no", "healthcare": "hospital", "healthcare:speciality": "psychiatry", "name": "Clinique Le Clos Montaigne", "opening_hours": "Mo-Su 09:00-12:00, 14:00-18:00", "phone": "+33477360100", "ref:FR:SIRET": "81915896500072", "website": "https://www.inicea.fr/sante-mentale/clinique-le-clos-montaigne-loire-42210"}}, {"name": "Clinique Villa des Roses", "latitude": 45.7524927, "longitude": 4.8018886, "source": "osm", "_tags": {"amenity": "hospital", "healthcare": "hospital", "name": "Clinique Villa des Roses", "opening_hours": "Mo-Fr 09:00-18:30", "ref:FR:SIRET": "31219351900013", "website": "https://www.inicea.fr/sante-mentale/clinique-villa-des-roses-lyon-69005"}}, {"name": "Clinique de la Chavannerie", "latitude": 45.7109515, "longitude": 4.754026, "source": "osm", "_tags": {"amenity": "hospital", "building": "hospital", "fax": "+33 4 78 16 00 33", "healthcare": "hospital", "healthcare:speciality": "psychiatry", "name": "Clinique de la Chavannerie", "operator": "Clinéa", "operator:type": "private", "phone": "+33 4 78 16 00 30", "ref:FR:FINESS": "690780523", "type": "multipolygon", "type:FR:FINESS": "161", "website": "https://clinea.fr/clinique-la-chavannerie-chaponost-69"}}, {"name": "Unité pour malades difficiles", "latitude": 45.7382032, "longitude": 4.9026681, "source": "osm", "_tags": {"amenity": "hospital", "building": "hospital", "healthcare": "hospital", "name": "Unité pour malades difficiles", "ref": "360", "ref:FR:FINESS": "690037171", "short_name": "UMD", "source": "Le ministère des solidarités et de la santé - 03/2019", "type": "multipolygon", "type:FR:FINESS": "292"}}, {"name": "Centre hospitalier Saint-Joseph Saint-Luc", "latitude": 45.7496618, "longitude": 4.8358907, "source": "osm", "_tags": {"amenity": "hospital", "building": "hospital", "building:levels": "7", "contact:city": "Lyon", "contact:housenumber": "20", "contact:postcode": "69007", "contact:street": "Quai Claude Bernard", "emergency": "yes", "fax": "+33 4 78 61 80 80", "healthcare": "hospital", "healthcare:speciality": "intensive", "name": "Centre hospitalier Saint-Joseph Saint-Luc", "operator:type": "private", "phone": "+33 4 78 61 81 81", "ref:FR:FINESS": "690805361", "roof:shape": "flat", "type": "multipolygon", "type:FR:FINESS": "365", "website": "http://www.ch-stjoseph-stluc-lyon.fr/", "wheelchair": "yes", "wikidata": "Q19185932", "wikipedia": "fr:Centre hospitalier Saint-Joseph Saint-Luc"}}, {"name": "Hôpital du Gier", "latitude": 45.4756052, "longitude": 4.5156458, "source": "osm", "_tags": {"addr:city": "Saint-Chamond", "addr:housenumber": "19", "addr:postcode": "42400", "addr:street": "Rue Victor Hugo", "amenity": "hospital", "emergency": "yes", "fax": "+33 4 77 29 35 06", "healthcare": "hospital", "name": "Hôpital du Gier", "operator": "Hôpital du Gier", "operator:type": "public", "phone": "+33 4 77 31 19 19", "ref:FR:FINESS": "420780637", "type": "multipolygon", "type:FR:FINESS": "355", "website": "https://hopitaldugier.fr/"}}, {"name": "Centre de lutte contre le cancer Léon Bérard", "latitude": 45.7410735, "longitude": 4.8774881, "source": "osm", "_tags": {"amenity": "hospital", "contact:facebook": "https://www.facebook.com/CentreLeonBerard/", "contact:instagram": "https://www.instagram.com/centreleonberard/", "contact:linkedin": "https://www.linkedin.com/company/centre-l%C3%A9on-b%C3%A9rard/", "contact:twitter": "https://twitter.com/CLCCLeonBerard", "contact:youtube": "https://www.youtube.com/user/CentreLeonBerard", "emergency": "no", "healthcare": "hospital", "name": "Centre de lutte contre le cancer Léon Bérard", "phone": "+33 4 78 78 28 28", "ref:FR:FINESS": "690034376", "ref:FR:SIRET": "26690027300993", "type": "multipolygon", "website": "https://www.centreleonberard.fr/", "wikidata": "Q2944832", "wikipedia": "fr:Centre Léon-Bérard"}}, {"name": "Centre hospitalier de Condrieu", "latitude": 45.4596787, "longitude": 4.7602649, "source": "osm", "_tags": {"amenity": "hospital", "building": "yes", "healthcare": "hospital", "name": "Centre hospitalier de Condrieu", "ref:FR:FINESS": "690000047", "type": "multipolygon", "type:FR:FINESS": "106", "wikidata": "Q92063086"}}, {"name": "Centre médico-chirurgical de réadaptation des Massues", "latitude": 45.7611106, "longitude": 4.7971514, "source": "osm", "_tags": {"amenity": "hospital", "barrier": "fence", "healthcare": "hospital", "name": "Centre médico-chirurgical de réadaptation des Massues", "type": "multipolygon"}}]