[{"name": "Hôpital de jour de Décines", "latitude": 45.7739195, "longitude": 4.972832, "source": "osm", "_tags": {"addr:city": "Décines-Charpieu", "addr:housenumber": "9", "addr:postcode": "69150", "addr:street": "Rue Marcel Therras", "amenity": "hospital", "healthcare": "hospital", "name": "Hôpital de jour de Décines", "phone": "+33 4 37 42 12 18"}}, {"name": "CMP de Décines", "latitude": 45.7738107, "longitude": 4.9729016, "source": "osm", "_tags": {"addr:city": "Décines-Charpieu", "addr:housenumber": "9", "addr:postcode": "69150", "addr:street": "Rue Marcel Therras", "amenity": "hospital", "emergency": "no", "healthcare": "hospital", "name": "CMP de Décines", "phone": "+33 4 37 42 00 14"}}, {"name": "Centre de Santé Sexuelle", "latitude": 46.110838, "longitude": 5.8175028, "source": "osm", "_tags": {"addr:city": "Valserhône", "addr:housenumber": "5", "addr:postcode": "01200", "addr:street": "Avenue de Saint-Exupéry", "amenity": "hospital", "emergency": "yes", "healthcare": "hospital", "healthcare:speciality": "community", "name": "Centre de Santé Sexuelle", "operator": "Conseil départemental de l'Ain", "operator:type": "public", "ref:FR:FINESS": "010011419", "source": "Le ministère des solidarités et de la santé - 10/2018"}}, {"name": "Centre de jour des Lilattes", "latitude": 45.5913122, "longitude": 5.2751923, "source": "osm", "_tags": {"healthcare": "hospital", "healthcare:speciality": "psychiatry", "name": "Centre de jour des Lilattes", "ref:FR:FINESS": "380013359", "source": "Le ministère des solidarités et de la santé - 03/2019", "type:FR:FINESS": "292"}}, {"name": "Hôpital de Jour de Pédopsychiatrie Bourgoin-Jallieu Arc-en-Ciel", "latitude": 45.5907379, "longitude": 5.2768692, "source": "osm", "_tags": {"addr:city": "Bourgoin-Jallieu", "addr:housenumber": "2", "addr:postcode": "38300", "addr:street": "Rue Théophile Diederichs", "contact:fax": "+33 4 74 28 67 01", "contact:phone": "+33 4 74 28 17 25", "healthcare": "hospital", "healthcare:speciality": "child_psychiatry", "name": "Hôpital de Jour de Pédopsychiatrie Bourgoin-Jallieu Arc-en-Ciel", "operator": "Centre Hospitalier Pierre Oudot", "ref:FR:FINESS": "380784736", "ref:FR:NAF": "86.10Z", "ref:FR:SIRET": "26380006200113", "source": "Le ministère des solidarités et de la santé - 03/2019", "type:FR:FINESS": "355"}}, {"name": "", "latitude": 46.2079453, "longitude": 5.2249343, "source": "osm", "_tags": {"amenity": "hospital", "phone": "+33474522497", "ref:FR:FINESS": "010008217", "ref:FR:SIRET": "77554456200900", "source": "Le ministère des solidarités et de la santé - 2024-01", "type:FR:FINESS": "292"}}, {"name": "Soins Médicaux et de Réadaptation", "latitude": 45.5649351, "longitude": 5.9107305, "source": "osm", "_tags": {"healthcare": "hospital", "healthcare:speciality": "physiatry", "name": "Soins Médicaux et de Réadaptation", "type:FR:FINESS": "109"}}, {"name": "Maison de Santé du Fort", "latitude": 46.1391054, "longitude": 5.9040307, "source": "osm", "_tags": {"addr:city": "Collonges", "addr:housenumber": "106", "addr:postcode": "01550", "addr:street": "Grand Rue", "amenity": "hospital", "healthcare": "hospital", "healthcare:speciality": "humanistic;general", "name": "Maison de Santé du Fort"}}, {"name": "Centre hospitalier spécialisé de Bassens", "latitude": 45.5774057, "longitude": 5.940074, "source": "osm", "_tags": {"amenity": "hospital", "healthcare": "hospital", "name": "Centre hospitalier spécialisé de Bassens", "ref:FR:FINESS": "730000304", "type:FR:FINESS": "292*", "wikidata": "Q22968397"}}, {"name": "Centre Psychothérapique de l'Ain", "latitude": 46.2273742, "longitude": 5.2358644, "source": "osm", "_tags": {"addr:city": "Bourg-en-Bresse", "addr:postcode": "01000", "addr:street": "Avenue de Marboz", "amenity": "hospital", "healthcare": "hospital", "healthcare:speciality": "psychiatry", "name": "Centre Psychothérapique de l'Ain", "old_name": "Hôpital Saint Georges", "operator": "Orsac", "ref:FR:FINESS": "010000495", "short_name": "CPA", "source": "Union européenne - SOeS, CORINE Land Cover, 2006.", "website": "https://www.cpa01.fr/", "wikidata": "Q107347947"}}, {"name": "Centre hospitalier Yves Touraine", "latitude": 45.5387705, "longitude": 5.664513, "source": "osm", "_tags": {"amenity": "hospital", "building": "hospital", "emergency": "yes", "fax": "+33 4 76 32 64 87", "name": "Centre hospitalier Yves Touraine", "operator:type": "public", "phone": "+33 4 76 32 64 32", "ref:FR:FINESS": "380000042", "source": "cadastre-dgi-fr source : Direction Générale des Impôts - Cadastre. Mise à jour : 2009", "type:FR:FINESS": "355", "website": "http://www.chpb.fr/"}}, {"name": "Centre hospitalier de La Tour-du-Pin", "latitude": 45.5704487, "longitude": 5.4480211, "source": "osm", "_tags": {"amenity": "hospital", "building": "yes", "name": "Centre hospitalier de La Tour-du-Pin", "ref:FR:FINESS": "380000356", "source": "cadastre-dgi-fr source : Direction Générale des Impôts - Cadastre. Mise à jour : 2010", "wikidata": "Q92063388"}}, {"name": "Hôpital de Fleyriat", "latitude": 46.2240864, "longitude": 5.2102101, "source": "osm", "_tags": {"addr:city": "Bourg-en-Bresse", "addr:housenumber": "900", "addr:postcode": "01012", "addr:street": "Route de Paris", "amenity": "hospital", "emergency": "yes", "fax": "+33 4 74 45 41 14", "healthcare": "hospital", "healthcare:speciality": "intensive", "name": "Hôpital de Fleyriat", "operator:type": "public", "phone": "+33 4 74 45 46 47", "ref:FR:FINESS": "010000024", "source": "cadastre-dgi-fr source : Direction Générale des Impôts - Cadastre. Mise à jour : 2011", "type:FR:FINESS": "355", "website": "https://www.ch-bourg-en-bresse.fr/", "wikidata": "Q56887147"}}, {"name": "MGEN Etablissement de Santé", "latitude": 46.0076997, "longitude": 5.7884361, "source": "osm", "_tags": {"amenity": "hospital", "healthcare": "hospital", "healthcare:speciality": "physiatry", "name": "MGEN Etablissement de Santé", "ref:FR:FINESS": "010780476", "type:FR:FINESS": "109"}}, {"name": "", "latitude": 45.534525, "longitude": 5.5900255, "source": "osm", "_tags": {"amenity": "hospital", "healthcare": "hospital", "healthcare:speciality": "psychologue", "source": "cadastre-dgi-fr source : Direction Générale des Impôts - Cadastre. Mise à jour : 2012"}}, {"name": "Clinique Convert", "latitude": 46.2109352, "longitude": 5.2533088, "source": "osm", "_tags": {"amenity": "hospital", "check_date": "2025-08-10", "emergency": "yes", "fax": "+33 4 74 45 26 56", "healthcare:speciality": "intensive", "name": "Clinique Convert", "operator": "Ramsay Santé", "operator:type": "private", "operator:wikidata": "Q3123085", "phone": "+33 4 74 45 64 45", "ref:FR:FINESS": "010780195", "type:FR:FINESS": "365", "website": "https://clinique-convert-bourg-en-bresse.ramsaygds.fr/", "wikidata": "Q56887159"}}, {"name": "Clinique Lyon Lumière", "latitude": 45.7691516, "longitude": 4.9993368, "source": "osm", "_tags": {"addr:housenumber": "33 bis", "addr:postcode": "69330", "addr:street": "Rue du 8 Mai 1945", "amenity": "hospital", "healthcare": "hospital", "name": "Clinique Lyon Lumière", "website": "https://www.orpea.com/clinique-lyon-lumiere"}}, {"name": "Centre hospitalier métropole Savoie", "latitude": 45.5648641, "longitude": 5.9108281, "source": "osm", "_tags": {"alt_name": "Centre hospitalier de Chambéry", "amenity": "hospital", "emergency": "yes", "fax": "+33 4 79 96 56 82", "healthcare": "hospital", "healthcare:speciality": "intensive;cardiothoracic_surgery;trauma;orthopaedics;ophthalmology;otolaryngology;dental_oral_maxillo_facial_surgery;anaesthetics;haematology;allergology;oncology;cardiology;dermatology;palliative;diabetology;endocrinology;hepatology;gastroenterology", "name": "Centre hospitalier métropole Savoie", "name:en": "Hospital - Chambéry", "operator:type": "public", "phone": "+33 4 79 96 50 50", "ref:FR:FINESS": "730000031", "type:FR:FINESS": "355", "website": "http://www.ch-metropole-savoie.fr/chc/c_5038/accueil", "wheelchair": "yes", "wikidata": "Q2945692", "wikipedia": "fr:Centre hospitalier Métropole Savoie"}}, {"name": "Centre hospitalier Métropole Savoie (site d'Aix-les-Bains)", "latitude": 45.697343, "longitude": 5.9052881, "source": "osm", "_tags": {"amenity": "hospital", "emergency": "yes", "fax": "+33 4 79 88 61 86", "healthcare": "hospital", "name": "Centre hospitalier Métropole Savoie (site d'Aix-les-Bains)", "operator:type": "public", "phone": "+33 4 79 88 61 61", "ref:FR:FINESS": "730000098", "type:FR:FINESS": "355", "website": "http://www.ch-metropole-savoie.fr/chc/c_5038/accueil"}}, {"name": "Hôpital Reine Hortense", "latitude": 45.6889543, "longitude": 5.9168068, "source": "osm", "_tags": {"amenity": "hospital", "healthcare": "hospital", "name": "Hôpital Reine Hortense", "ref:FR:FINESS": "730783644", "source": "Le ministère des solidarités et de la santé - 10/2018", "toilets:wheelchair": "yes", "wheelchair": "yes"}}, {"name": "Hôpital C.J. Ruivet", "latitude": 45.9064086, "longitude": 5.1940007, "source": "osm", "_tags": {"alt_name": "Centre Hospitalier de Meximieux", "amenity": "hospital", "emergency": "no", "name": "Hôpital C.J. Ruivet", "ref:FR:FINESS": "010000099", "source": "Le ministère des solidarités et de la santé - 08/2018", "wikidata": "Q92062702"}}, {"name": "Centre hospitalier du Haut-Bugey", "latitude": 46.2596557, "longitude": 5.6302218, "source": "osm", "_tags": {"addr:city": "Oyonnax", "addr:housenumber": "1", "addr:postcode": "01117", "addr:street": "Route de Veyziat", "amenity": "hospital", "emergency": "yes", "fax": "+33 4 74 73 10 02", "healthcare": "hospital", "name": "Centre hospitalier du Haut-Bugey", "operator:type": "public", "phone": "+33 4 74 73 10 01", "ref:FR:FINESS": "010005239", "type:FR:FINESS": "355", "website": "https://www.ch-hautbugey.fr/", "wheelchair": "yes"}}, {"name": "Centre hospitalier d'Hauteville - Unité Albarine", "latitude": 45.9834253, "longitude": 5.6107702, "source": "osm", "_tags": {"amenity": "hospital", "name": "Centre hospitalier d'Hauteville - Unité Albarine", "ref:FR:FINESS": "010000214"}}, {"name": "Centre hospitalier d'Hauteville - Unité Espérance", "latitude": 45.976425, "longitude": 5.604532, "source": "osm", "_tags": {"addr:city": "Plateau d'Hauteville", "addr:housenumber": "101", "addr:postcode": "01110", "addr:street": "Rue du Docteur Crépin", "amenity": "hospital", "healthcare": "hospital", "name": "Centre hospitalier d'Hauteville - Unité Espérance", "ref:FR:FINESS": "010000180", "source": "Le ministère des solidarités et de la santé - 10/2018"}}, {"name": "Centre hospitalier d'Hauteville - Unité Inter", "latitude": 45.9747937, "longitude": 5.6115481, "source": "osm", "_tags": {"amenity": "hospital", "emergency": "no", "healthcare": "hospital", "name": "Centre hospitalier d'Hauteville - Unité Inter", "ref:FR:FINESS": "010000198", "wikimedia_commons": "Category:Centre Hospitalier d'Hauteville - Unité Inter (Plateau-d'Hauteville)"}}, {"name": "Hôpital Privé d’Ambérieu", "latitude": 45.9804471, "longitude": 5.3506411, "source": "osm", "_tags": {"amenity": "hospital", "emergency": "yes", "fax": "+33 4 74 38 95 29", "name": "Hôpital Privé d’Ambérieu", "operator:type": "private", "phone": "+33 4 74 38 95 95", "ref:FR:FINESS": "010780203", "source": "cadastre-dgi-fr source : Direction Générale des Impôts - Cadastre. Mise à jour : 2010", "type:FR:FINESS": "365"}}, {"name": "Clinique Champ Fleuri", "latitude": 45.7702541, "longitude": 4.9583113, "source": "osm", "_tags": {"amenity": "hospital", "healthcare": "hospital", "name": "Clinique Champ Fleuri", "source": "Grand Lyon"}}, {"name": "Clinique La Majolane", "latitude": 45.7704844, "longitude": 5.0000983, "source": "osm", "_tags": {"amenity": "hospital", "emergency": "no", "healthcare": "hospital", "name": "Clinique La Majolane", "ref:FR:FINESS": "690030119", "ref:FR:SIRET": "30116075000727", "source": "Le ministère des solidarités et de la santé - 03/2019", "type:FR:FINESS": "109"}}, {"name": "Établissement de santé mentale Portes de l'Isère", "latitude": 45.5982274, "longitude": 5.2480041, "source": "osm", "_tags": {"amenity": "hospital", "barrier": "fence", "healthcare": "hospital", "healthcare:speciality": "mental_health", "name": "Établissement de santé mentale Portes de l'Isère", "ref:FR:FINESS": "380012799", "ref:FR:NAF": "8610Z", "ref:FR:SIRET": "30101236500039", "short_name": "ESMPI", "type:FR:FINESS": "292"}}, {"name": "Centre hospitalier Pierre Oudot", "latitude": 45.5959425, "longitude": 5.2453832, "source": "osm", "_tags": {"addr:housenumber": "30", "addr:street": "Avenue du Médipôle", "amenity": "hospital", "barrier": "fence", "emergency": "yes", "fax": "+33 4 69 15 70 13", "healthcare": "hospital", "healthcare:speciality": "intensive", "name": "Centre hospitalier Pierre Oudot", "operator:type": "public", "phone": "+33 4 69 15 70 00", "ref:FR:FINESS": "380000034", "ref:FR:SIRET": "26380006200238", "type:FR:FINESS": "355", "website": "https://www.ch-bourgoin.fr/", "wikidata": "Q105164823"}}, {"name": "Établissement de Santé Mentale Portes de l’Isère", "latitude": 45.6120232, "longitude": 5.154091, "source": "osm", "_tags": {"alt_name": "Fondation Georges Boissel", "amenity": "hospital", "building": "yes", "building:levels": "3", "fax": "+33474926599", "healthcare:speciality": "mental_health", "name": "Établissement de Santé Mentale Portes de l’Isère", "phone": "+33474926590", "ref:FR:FINESS": "380012849", "short_name": "ESMPI", "type:FR:FINESS": "292"}}, {"name": "Centre hospitalier Louis Jaillon", "latitude": 46.3852468, "longitude": 5.8665512, "source": "osm", "_tags": {"addr:city": "Saint-Claude", "addr:housenumber": "2", "addr:postcode": "39206", "addr:street": "Montée de l'Hôpital", "amenity": "hospital", "emergency": "yes", "fax": "+33 3 84 41 03 50", "healthcare": "hospital", "name": "Centre hospitalier Louis Jaillon", "operator": "GHT Hôpitaux du Jura", "operator:type": "public", "phone": "+33 3 84 41 33 33", "ref:FR:FINESS": "390000065", "source": "cadastre-dgi-fr source : Direction Générale des Impôts - Cadastre. Mise à jour : 2011", "type:FR:FINESS": "355", "website": "https://hopitaux-jura.fr/ch-st-claude/"}}, {"name": "Centre hospitalier intercommunal de Morestel", "latitude": 45.6790564, "longitude": 5.4626385, "source": "osm", "_tags": {"amenity": "hospital", "healthcare": "hospital", "name": "Centre hospitalier intercommunal de Morestel", "ref:FR:FINESS": "380000364", "ref:FR:SIRET": "26380014600015", "source": "Le ministère des solidarités et de la santé - 03/2019", "type:FR:FINESS": "106", "wikidata": "Q92062718"}}, {"name": "", "latitude": 45.7678171, "longitude": 4.9803727, "source": "osm", "_tags": {"amenity": "hospital", "healthcare": "hospital"}}, {"name": "Centre hospitalier Bugey Sud", "latitude": 45.748468, "longitude": 5.6794049, "source": "osm", "_tags": {"amenity": "hospital", "healthcare": "hospital", "name": "Centre hospitalier Bugey Sud"}}, {"name": "La Tarentelle", "latitude": 45.6630105, "longitude": 4.9477309, "source": "osm", "_tags": {"amenity": "hospital", "description": "Hôpital de jour pour enfants, Centre médico-psychologique", "healthcare": "hospital", "name": "La Tarentelle", "operator": "Arpège", "phone": "+33478200431", "ref:FR:FINESS": "690796099", "ref:FR:SIRET": "77986872801129", "source": "Le ministère des solidarités et de la santé - 2025-07", "type:FR:FINESS": "292"}}, {"name": "", "latitude": 46.200818, "longitude": 5.2339241, "source": "osm", "_tags": {"amenity": "hospital", "healthcare": "hospital"}}, {"name": "Centre hospitalier Gabriel Deplante", "latitude": 45.8645962, "longitude": 5.936786, "source": "osm", "_tags": {"addr:housenumber": "1", "amenity": "hospital", "building": "hospital", "emergency": "yes", "fax": "+33 4 50 01 17 59", "healthcare": "hospital", "name": "Centre hospitalier Gabriel Deplante", "operator:type": "public", "phone": "+33 4 50 01 80 00", "ref:FR:FINESS": "740000294", "source": "cadastre-dgi-fr source : Direction Générale des Finances Publiques - Cadastre. Mise à jour : 2014", "type:FR:FINESS": "355", "website": "https://www.ch-rumilly.fr/"}}, {"name": "Clinique Herbert", "latitude": 45.6857382, "longitude": 5.9217844, "source": "osm", "_tags": {"amenity": "hospital", "emergency": "no", "healthcare": "hospital", "name": "Clinique Herbert", "ref:FR:FINESS": "730012499", "type": "multipolygon", "type:FR:FINESS": "697"}}, {"name": "Clinique de Chatillon", "latitude": 46.114757, "longitude": 5.8027842, "source": "osm", "_tags": {"addr:city": "Châtillon-en-Michaille", "addr:housenumber": "539", "addr:postcode": "01200", "addr:street": "Rue Sainte-Clémence", "building": "yes", "email": "contact@cliniquedechatillon.fr", "healthcare": "hospital", "healthcare:speciality": "psychiatry", "name": "Clinique de Chatillon", "phone": "+33 4 50 13 20 20", "source": "cadastre-dgi-fr source : Direction Générale des Impôts - Cadastre. Mise à jour : 2025", "type": "multipolygon"}}]