[{"name": "Dispensarul TBC", "latitude": 46.1903274, "longitude": 21.3103144, "source": "osm", "_tags": {"addr:city": "Arad", "addr:housenumber": "39-41", "addr:postcode": "310158", "addr:street": "Calea Victoriei", "amenity": "hospital", "healthcare": "hospital", "healthcare:speciality": "internal", "name": "Dispensarul TBC", "operator": "Ministerul Sănătății"}}, {"name": "Spitalul Matern", "latitude": 46.1756614, "longitude": 21.3158065, "source": "osm", "_tags": {"amenity": "hospital", "healthcare": "hospital", "name": "Spitalul Matern"}}, {"name": "Spitalul clinic municipal secția TBC", "latitude": 46.1721434, "longitude": 21.3077851, "source": "osm", "_tags": {"amenity": "hospital", "name": "Spitalul clinic municipal secția TBC"}}, {"name": "Spitalul de copii", "latitude": 45.6821657, "longitude": 21.9018057, "source": "osm", "_tags": {"amenity": "hospital", "healthcare": "hospital", "name": "Spitalul de copii"}}, {"name": "Spitalul Orășenesc Sântana", "latitude": 46.343797, "longitude": 21.4989989, "source": "osm", "_tags": {"amenity": "hospital", "emergency": "yes", "name": "Spitalul Orășenesc Sântana"}}, {"name": "Spitalul de stat", "latitude": 46.0906862, "longitude": 21.690075, "source": "osm", "_tags": {"amenity": "hospital", "name": "Spitalul de stat", "name:hu": "Állami kórház", "name:ro": "Spitalul de stat"}}, {"name": "Spitalul Orășenesc", "latitude": 46.0904332, "longitude": 21.6921601, "source": "osm", "_tags": {"amenity": "hospital", "name": "Spitalul Orășenesc", "name:hu": "Városi kórház", "name:ro": "Spitalul Orășenesc"}}, {"name": "Centrul Medical Laser System", "latitude": 46.180955, "longitude": 21.3084991, "source": "osm", "_tags": {"amenity": "hospital", "healthcare": "hospital", "name": "Centrul Medical Laser System", "website": "https://www.lasersystem.ro/", "wheelchair": "yes"}}, {"name": "Cabinet Stomatologic TRIDENT", "latitude": 45.6830974, "longitude": 21.9005972, "source": "osm", "_tags": {"addr:city": "Lugoj", "addr:housenumber": "3", "addr:postcode": "305500", "addr:postcode:source": "Date de la Poșta Română, publicate sub Licența pentru Guvernare Deschisă v1.0 la http://date.gov.ro/organization/posta-romana", "addr:street": "Strada Bucegi", "amenity": "hospital", "healthcare": "hospital", "name": "Cabinet Stomatologic TRIDENT"}}, {"name": "Cabinet Dr. Giurgiu Daniela", "latitude": 45.7646351, "longitude": 21.2209739, "source": "osm", "_tags": {"addr:city": "Timișoara", "addr:housenumber": "14", "addr:postcode": "300681", "addr:postcode:source": "Date de la Poșta Română, publicate sub Licența pentru Guvernare Deschisă v1.0 la http://date.gov.ro/organization/posta-romana", "addr:street": "Strada Teiului", "amenity": "hospital", "emergency": "no", "name": "Cabinet Dr. Giurgiu Daniela"}}, {"name": "Policlinica AS", "latitude": 46.2026408, "longitude": 21.2913409, "source": "osm", "_tags": {"amenity": "hospital", "healthcare": "hospital", "name": "Policlinica AS"}}, {"name": "Serviciul Județean de Ambulanță Arad", "latitude": 46.1825878, "longitude": 21.3064873, "source": "osm", "_tags": {"addr:housenumber": "1-5", "addr:street": "Strada Oituz", "alt_name": "Serviciul de ambulanta Arad SAJ", "amenity": "hospital", "healthcare": "hospital", "internet_access": "wlan", "name": "Serviciul Județean de Ambulanță Arad", "name:en": "Arad County Ambulance Service", "name:ro": "Serviciul Județean de Ambulanță Arad", "opening_hours": "24/7"}}, {"name": "Spitalul Clinic Județean - Secțiile O.R.L. și Oftalmologie", "latitude": 46.1795171, "longitude": 21.3174562, "source": "osm", "_tags": {"addr:city": "Arad", "amenity": "hospital", "healthcare:speciality": "ophthalmology;otolaryngology", "name": "Spitalul Clinic Județean - Secțiile O.R.L. și Oftalmologie", "operator": "Ministerul Sănătății", "operator:type": "government"}}, {"name": "sepsiszentgyorgy", "latitude": 45.6428201, "longitude": 21.931685, "source": "osm", "_tags": {"amenity": "hospital", "name": "sepsiszentgyorgy"}}, {"name": "Spitalul Orasenesc Lipova", "latitude": 46.0910724, "longitude": 21.6905884, "source": "osm", "_tags": {"amenity": "hospital", "hospital_type": "spital orasenesc", "name": "Spitalul Orasenesc Lipova", "name:ro": "Spitalul Orasenesc Lipova", "reviewed": "no"}}, {"name": "Spitalul pentru Urgente Stomatologice", "latitude": 46.1785945, "longitude": 21.3193157, "source": "osm", "_tags": {"addr:street": "Strada Crișan", "amenity": "hospital", "emergency": "yes", "healthcare": "hospital", "healthcare:speciality": "stomatology", "name": "Spitalul pentru Urgente Stomatologice"}}, {"name": "Oncologie Spitalul Clinic Județean de Urgență Arad", "latitude": 46.1771665, "longitude": 21.3123892, "source": "osm", "_tags": {"amenity": "hospital", "healthcare": "hospital", "healthcare:speciality": "oncology", "name": "Oncologie Spitalul Clinic Județean de Urgență Arad", "name:en": "Oncology Arad County Emergency Clinical Hospital", "name:ro": "Oncologie Spitalul Clinic Județean de Urgență Arad"}}, {"name": "Urgente Vladimirescu", "latitude": 46.1640918, "longitude": 21.4034563, "source": "osm", "_tags": {"amenity": "hospital", "check_date": "2024-09-25", "healthcare": "hospital", "name": "Urgente Vladimirescu"}}, {"name": "Policlinica AS", "latitude": 46.2075314, "longitude": 21.4595378, "source": "osm", "_tags": {"amenity": "hospital", "check_date": "2023-05-01", "healthcare": "hospital", "name": "Policlinica AS"}}, {"name": "Spitalul Clinic Județean de Urgență Pius Brînzeu", "latitude": 45.7367734, "longitude": 21.2420703, "source": "osm", "_tags": {"addr:city": "Timișoara", "addr:housenumber": "156", "addr:postcode": "300723", "addr:street": "Bulevardul Dr. Iosif Bulbucă (Liviu Rebreanu)", "amenity": "hospital", "emergency": "yes", "is_in:city": "Timișoara", "name": "Spitalul Clinic Județean de Urgență Pius Brînzeu", "operator": "Spitalul Clinic Județean de Urgență Pius Brînzeu", "wikidata": "Q59536357"}}, {"name": "Spitalul Municipal", "latitude": 45.691525, "longitude": 21.8893592, "source": "osm", "_tags": {"amenity": "hospital", "healthcare": "hospital", "is_in:city": "Lugoj", "name": "Spitalul Municipal"}}, {"name": "Spitalul de Boli Infecțioase", "latitude": 45.6899449, "longitude": 21.8878111, "source": "osm", "_tags": {"amenity": "hospital", "healthcare": "hospital", "is_in:city": "Lugoj", "name": "Spitalul de Boli Infecțioase"}}, {"name": "Policlinica C.F.R.", "latitude": 45.7501682, "longitude": 21.207001, "source": "osm", "_tags": {"addr:city": "Timișoara", "addr:housenumber": "1", "addr:street": "Strada Gării", "amenity": "hospital", "building": "yes", "healthcare": "hospital", "name": "Policlinica C.F.R."}}, {"name": "Laser System Hospital", "latitude": 46.1667081, "longitude": 21.3858867, "source": "osm", "_tags": {"amenity": "hospital", "building": "hospital", "emergency": "yes", "healthcare": "hospital", "healthcare:speciality": "elderly_people;emergency", "name": "Laser System Hospital"}}, {"name": "Clinica de oftalmologie", "latitude": 45.7554495, "longitude": 21.2246332, "source": "osm", "_tags": {"addr:city": "Timișoara", "addr:street": "Scuarul Martir Radian Belici", "amenity": "hospital", "building": "yes", "healthcare": "hospital", "name": "Clinica de oftalmologie"}}, {"name": "Spitalul Clinic de Urgență pentru Copii Louis Țurcanu", "latitude": 45.7536445, "longitude": 21.2221046, "source": "osm", "_tags": {"amenity": "hospital", "emergency": "yes", "healthcare": "hospital", "name": "Spitalul Clinic de Urgență pentru Copii Louis Țurcanu"}}, {"name": "Clinica de Chirurgie și Ortopedie Pediatrică Dr. Trestianu Viorel", "latitude": 45.7543236, "longitude": 21.2216312, "source": "osm", "_tags": {"amenity": "hospital", "building": "yes", "emergency": "yes", "healthcare": "hospital", "name": "Clinica de Chirurgie și Ortopedie Pediatrică Dr. Trestianu Viorel"}}, {"name": "Spitalul Municipal Clinicile Noi", "latitude": 45.7594693, "longitude": 21.2265615, "source": "osm", "_tags": {"amenity": "hospital", "check_date": "2025-05-10", "emergency": "yes", "healthcare": "hospital", "name": "Spitalul Municipal Clinicile Noi"}}, {"name": "Spitalul Clinic Județean Arad Secția Clinică Psihiatrie", "latitude": 46.1756501, "longitude": 21.3124017, "source": "osm", "_tags": {"addr:city": "Arad", "addr:housenumber": "17", "addr:street": "Strada Octavian Goga", "building": "yes", "healthcare": "hospital", "healthcare:speciality": "psychiatry", "name": "Spitalul Clinic Județean Arad Secția Clinică Psihiatrie", "phone": "+40 0357 407 216", "website": "https://scjarad.ro/psihiatrie/"}}, {"name": "Policlinica Sănătatea", "latitude": 45.7513371, "longitude": 21.2514755, "source": "osm", "_tags": {"addr:city": "Timișoara", "addr:housenumber": "52", "addr:postcode": "300562", "addr:postcode:source": "Date de la Poșta Română, publicate sub Licența pentru Guvernare Deschisă v1.0 la http://date.gov.ro/organization/posta-romana", "addr:street": "Strada Ștefan cel Mare", "amenity": "hospital", "building": "yes", "name": "Policlinica Sănătatea"}}, {"name": "", "latitude": 46.1725177, "longitude": 21.3076115, "source": "osm", "_tags": {"addr:city": "Arad", "addr:street": "Strada Mihai Eminescu", "amenity": "hospital"}}, {"name": "Spitalul Clinic Municipal", "latitude": 46.179479, "longitude": 21.3146995, "source": "osm", "_tags": {"addr:city": "Arad", "addr:housenumber": "7-8", "addr:postcode": "310017", "addr:street": "Piața Mihai Viteazul", "amenity": "hospital", "healthcare": "hospital", "healthcare:speciality": "general;paediatrics;intensive", "name": "Spitalul Clinic Municipal", "operator": "Ministerul Sănătății", "operator:type": "government"}}, {"name": "Spitalul Clinic de Boli Infecțioase și Pneumoftiziologie Dr. Victor Babeș", "latitude": 45.7680853, "longitude": 21.2591209, "source": "osm", "_tags": {"addr:city": "Timișoara", "addr:housenumber": "13", "addr:postcode": "300310", "addr:street": "Strada Gheorghe Adam", "amenity": "hospital", "emergency": "yes", "healthcare": "hospital", "name": "Spitalul Clinic de Boli Infecțioase și Pneumoftiziologie Dr. Victor Babeș", "operator": "Ministerului Sănătății", "website": "http://www.spitalul-vbabes-tm.ro/"}}, {"name": "Institutul de Boli Cardiovasculare", "latitude": 45.7691679, "longitude": 21.2589768, "source": "osm", "_tags": {"addr:city": "Timișoara", "addr:housenumber": "13 A", "addr:postcode": "300310", "addr:street": "Strada Gheorghe Adam", "amenity": "hospital", "emergency": "yes", "healthcare": "hospital", "name": "Institutul de Boli Cardiovasculare", "operator": "Ministerul Sănătății", "website": "https://www.cardiologie.ro/"}}, {"name": "Clinica de Psihiatrie și Neurologie Pediatrică", "latitude": 45.7407283, "longitude": 21.2206282, "source": "osm", "_tags": {"amenity": "hospital", "name": "Clinica de Psihiatrie și Neurologie Pediatrică", "operator": "Spitalul Clinic de Urgență pentru Copii Louis Țurcanu"}}, {"name": "Spitalul Clinic Căi Ferate", "latitude": 45.7493551, "longitude": 21.2185518, "source": "osm", "_tags": {"addr:city": "Timișoara", "addr:housenumber": "13-15", "addr:postcode": "300173", "addr:postcode:source": "Date de la Poșta Română, publicate sub Licența pentru Guvernare Deschisă v1.0 la http://date.gov.ro/organization/posta-romana", "addr:street": "Splaiul Tudor Vladimirescu", "alt_name": "Spital CFR Timisoara", "amenity": "hospital", "healthcare": "hospital", "healthcare:speciality": "general;ophthalmology;surgery;internal;emergency;neurology;psychiatry;otolaryngology", "name": "Spitalul Clinic Căi Ferate", "phone": "+40 256 493 088", "website": "https://www.spitalcftm.ro/"}}, {"name": "Clinica Universitară de Obstetrică Ginecologie Bega", "latitude": 45.7439005, "longitude": 21.2294817, "source": "osm", "_tags": {"amenity": "hospital", "name": "Clinica Universitară de Obstetrică Ginecologie Bega"}}, {"name": "Spitalul Clinic de Urgență Arad", "latitude": 46.1830871, "longitude": 21.3081299, "source": "osm", "_tags": {"amenity": "hospital", "emergency": "yes", "healthcare": "hospital", "name": "Spitalul Clinic de Urgență Arad", "website": "https://www.scjarad.ro/", "wikidata": "Q4783606"}}, {"name": "", "latitude": 45.7539629, "longitude": 21.2202692, "source": "osm", "_tags": {"amenity": "hospital"}}, {"name": "Centrul de Sănătate Ciacova", "latitude": 45.5150747, "longitude": 21.1241605, "source": "osm", "_tags": {"amenity": "hospital", "building": "yes", "name": "Centrul de Sănătate Ciacova"}}, {"name": "Centrul pentru Persoane cu Handicap Suferinde de Maladia Alzheimer", "latitude": 45.5110806, "longitude": 21.1215855, "source": "osm", "_tags": {"amenity": "hospital", "name": "Centrul pentru Persoane cu Handicap Suferinde de Maladia Alzheimer"}}, {"name": "Secția de recuperare pediatrică", "latitude": 45.7619211, "longitude": 21.2165467, "source": "osm", "_tags": {"addr:city": "Timișoara", "addr:housenumber": "1", "addr:street": "Strada Teiului", "amenity": "hospital", "building": "yes", "check_date": "2024-05-16", "healthcare": "hospital", "name": "Secția de recuperare pediatrică", "operator": "Spitalul Clinic de Urgența pentru Copii Louis Țurcanu"}}, {"name": "Spitalul Medici's", "latitude": 45.7404571, "longitude": 21.2237259, "source": "osm", "_tags": {"amenity": "hospital", "building": "hospital", "name": "Spitalul Medici's", "operator": "MedLife"}}, {"name": "Spital Premiere", "latitude": 45.7792232, "longitude": 21.2192955, "source": "osm", "_tags": {"amenity": "hospital", "email": "receptie@spitalpremiere.ro", "healthcare": "hospital", "healthcare:speciality": "paediatrics;gynaecology;maternity;surgery", "name": "Spital Premiere", "operator": "Regina Maria", "phone": "+40 356 900", "website": "https://www.spitalpremiere.ro/"}}, {"name": "Spitalul de Psihiatrie Gătaia", "latitude": 45.437746, "longitude": 21.4615052, "source": "osm", "_tags": {"amenity": "hospital", "healthcare:speciality": "psychiatry", "name": "Spitalul de Psihiatrie Gătaia"}}, {"name": "Spitalul de Psihiatrie și pentru Măsuri de Siguranță Jebel", "latitude": 45.5660194, "longitude": 21.1985412, "source": "osm", "_tags": {"amenity": "hospital", "healthcare:speciality": "psychiatry", "name": "Spitalul de Psihiatrie și pentru Măsuri de Siguranță Jebel"}}, {"name": "Spitalul Militar de Urgență Dr. Victor Popescu", "latitude": 45.7569036, "longitude": 21.2254598, "source": "osm", "_tags": {"addr:city": "Timișoara", "addr:housenumber": "7", "addr:postcode": "300079", "addr:street": "Strada Gheorghe Lazăr", "amenity": "hospital", "building": "yes", "emergency": "yes", "healthcare": "hospital", "healthcare:speciality": "general", "name": "Spitalul Militar de Urgență Dr. Victor Popescu", "type": "multipolygon"}}, {"name": "Casa Austria", "latitude": 45.7375268, "longitude": 21.2433695, "source": "osm", "_tags": {"amenity": "hospital", "building": "yes", "emergency": "yes", "healthcare": "hospital", "name": "Casa Austria", "type": "multipolygon"}}, {"name": "Clinica de radioterapie", "latitude": 45.7557238, "longitude": 21.2253393, "source": "osm", "_tags": {"addr:city": "Timișoara", "addr:housenumber": "5", "addr:street": "Strada Mărășești", "amenity": "hospital", "building": "yes", "healthcare": "hospital", "healthcare:speciality": "radiology", "name": "Clinica de radioterapie", "type": "multipolygon"}}]