[{"name": "Specijalna bolnica za plućne bolesti", "latitude": 45.8421942, "longitude": 15.9715482, "source": "osm", "_tags": {"addr:housenumber": "2", "addr:street": "Ulica Vladimira Nemeta", "amenity": "hospital", "healthcare": "hospital", "healthcare:speciality": "pulmonology", "name": "Specijalna bolnica za plućne bolesti", "operator": "Specijalna bolnica za plućne bolesti", "operator:type": "public", "website": "http://www.pulmologija.hr"}}, {"name": "", "latitude": 45.8172911, "longitude": 15.9521529, "source": "osm", "_tags": {"amenity": "bench", "backrest": "yes", "healthcare": "hospital", "material": "wood"}}, {"name": "", "latitude": 45.8172799, "longitude": 15.9521508, "source": "osm", "_tags": {"amenity": "bench", "backrest": "yes", "healthcare": "hospital", "material": "wood"}}, {"name": "Specijalna bolnica Primamed", "latitude": 45.8000303, "longitude": 16.0081796, "source": "osm", "_tags": {"addr:housenumber": "6", "addr:street": "Ulica Frana Folnegovića", "amenity": "hospital", "contact:facebook": "https://www.facebook.com/primamed.hr/", "contact:instagram": "https://www.instagram.com/primamed.hr", "healthcare": "hospital", "healthcare:speciality": "pulmonology;rheumatology;otolaryngology;diagnostic_radiology;psychiatry;gastroenterology;cardiology", "name": "Specijalna bolnica Primamed", "opening_hours": "Mo-Fr 08:00-21:00", "operator": "Specijalna bolnica Primamed", "operator:type": "private", "phone": "+385 14242430", "website": "https://primamed.hr/"}}, {"name": "Specijalna bolnica Sveta Katarina", "latitude": 45.8092967, "longitude": 16.0025755, "source": "osm", "_tags": {"addr:housenumber": "71E", "addr:street": "Ulica kneza Branimira", "amenity": "hospital", "email": "info@svkatarina.hr", "healthcare": "hospital", "healthcare:speciality": "orthopaedics;neurosurgery;neurology;gastroenterology;physiatry;cardiology;endocrinology;anaesthetics;radiology;diagnostic_radiology;diabetology;plastic_surgery;surgery;vascular_surgery;internal;paediatrics;general", "name": "Specijalna bolnica Sveta Katarina", "opening_hours": "07:00-20:00", "operator": "Specijalna bolnica Sv. Katarina", "operator:type": "private", "phone": "+385 1 2867 400", "website": "https://www.svkatarina.hr/"}}, {"name": "Klinički bolnički centar Zagreb - Rebro", "latitude": 45.8245772, "longitude": 16.0062981, "source": "osm", "_tags": {"addr:city": "Zagreb", "addr:housenumber": "12", "addr:postcode": "10000", "addr:street": "Ulica Mije Kišpatića", "alt_name": "KBC Rebro", "amenity": "hospital", "emergency": "yes", "healthcare": "hospital", "name": "Klinički bolnički centar Zagreb - Rebro", "operator": "Klinički bolnički centar Zagreb", "operator:type": "public", "website": "https://www.kbc-zagreb.hr/o-nama/klinike-i-zavodi/", "wikidata": "Q3504844", "wikimedia_commons": "Category:Clinical Hospital Centre \"Rebro\"", "wikipedia": "hr:KBC Zagreb"}}, {"name": "Klinička bolnica Sveti Duh", "latitude": 45.8204226, "longitude": 15.9393017, "source": "osm", "_tags": {"addr:city": "Zagreb", "addr:housenumber": "64", "addr:postcode": "10000", "addr:street": "Sveti Duh", "alt_name": "KB Sveti Duh;KBC Sveti Duh", "amenity": "hospital", "comment": "no helipad, red cross marked on two flat roofs", "email": "kb@kbsd.hr", "emergency": "yes", "fax": "+385 1 3712 308", "healthcare": "hospital", "name": "Klinička bolnica Sveti Duh", "operator": "Klinička bolnica Sveti Duh", "operator:type": "public", "phone": "+385 1 3712 111", "short_name": "KBSD", "website": "https://www.kbsd.hr/", "wheelchair": "limited", "wikidata": "Q30281005", "wikimedia_commons": "Category:Sveti Duh Clinical Hospital"}}, {"name": "Opća bolnica dr. Anđelko Višić Bjelovar", "latitude": 45.9020675, "longitude": 16.8481207, "source": "osm", "_tags": {"addr:housenumber": "8", "addr:street": "Ulica Antuna Mihanovića", "alt_name": "Opća bolnica Bjelovar", "amenity": "hospital", "comment": "no helipad", "emergency": "yes", "healthcare": "hospital", "name": "Opća bolnica dr. Anđelko Višić Bjelovar", "name:en": "General Hospital Bjelovar \"Dr. Anđelko Višić\"", "operator": "Opća bolnica dr. Anđelko Višić Bjelovar", "operator:type": "public", "website": "https://www.obbj.hr/"}}, {"name": "Klinika za dječje bolesti", "latitude": 45.8098095, "longitude": 15.9647245, "source": "osm", "_tags": {"addr:city": "Zagreb", "addr:country": "HR", "addr:housenumber": "16", "addr:postcode": "10000", "addr:street": "Ulica Vjekoslava Klaića", "alt_name": "Dječja bolnica Klaićeva", "amenity": "hospital", "comment": "no helipad, open area nearby", "emergency": "yes", "healthcare": "hospital", "healthcare:speciality": "paediatrics;paediatric_surgery", "name": "Klinika za dječje bolesti", "operator": "Klinika za dječje bolesti", "operator:type": "public", "phone": "+385 1 4600 111", "website": "https://www.kdb.hr/"}}, {"name": "Klinička bolnica Dubrava", "latitude": 45.834625, "longitude": 16.0354094, "source": "osm", "_tags": {"addr:city": "Zagreb", "addr:housenumber": "6", "addr:postcode": "10040", "addr:street": "Avenija Gojka Šuška", "amenity": "hospital", "emergency": "yes", "fax": "+385 1 2860 259", "healthcare": "hospital", "name": "Klinička bolnica Dubrava", "operator": "Klinička bolnica Dubrava", "operator:type": "public", "phone": "+385 1 2902 444", "website": "https://www.kbd.hr/", "wikidata": "Q5133765", "wikimedia_commons": "Category:Dubrava Clinical Hospital", "wikipedia": "en:Clinical Hospital Dubrava"}}, {"name": "Klinički bolnički centar Sestre milosrdnice - Vinogradska", "latitude": 45.815981, "longitude": 15.9515287, "source": "osm", "_tags": {"addr:city": "Zagreb", "addr:country": "HR", "addr:housenumber": "29", "addr:postcode": "10000", "addr:street": "Vinogradska cesta", "alt_name": "Vinogradska bolnica", "amenity": "hospital", "comment": "no helipad, no open areas", "emergency": "yes", "healthcare": "hospital", "name": "Klinički bolnički centar Sestre milosrdnice - Vinogradska", "operator": "Klinički bolnički centar Sestre Milosrdnice", "operator:type": "public", "phone": "+385 1 3787 111", "short_name": "KBC Sestre milosrdnice", "website": "https://www.kbcsm.hr/", "wikidata": "Q7531321", "wikimedia_commons": "Category:Sisters of Charity Clinical Hospital Centre", "wikipedia": "en:Sisters of Charity Hospital (Zagreb)"}}, {"name": "Klinički bolnički centar Zagreb - Šalata", "latitude": 45.820104, "longitude": 15.9844102, "source": "osm", "_tags": {"addr:city": "Zagreb", "addr:housenumber": "7", "addr:postcode": "10000", "addr:street": "Šalata", "amenity": "hospital", "emergency": "no", "healthcare": "hospital", "name": "Klinički bolnički centar Zagreb - Šalata", "operator": "Klinički bolnički centar Zagreb", "operator:type": "public", "website": "https://www.kbc-zagreb.hr/salata-7.aspx"}}, {"name": "Klinika za plućne bolesti", "latitude": 45.8257388, "longitude": 16.0034202, "source": "osm", "_tags": {"addr:housenumber": "104", "addr:street": "Jordanovac", "amenity": "hospital", "healthcare": "hospital", "healthcare:speciality": "pulmonology", "name": "Klinika za plućne bolesti", "operator": "Klinički bolnički centar Zagreb", "operator:type": "public", "website": "https://www.kbc-zagreb.hr/jordanovac-104.aspx"}}, {"name": "Klinika za infektivne bolesti Dr. Fran Mihaljević", "latitude": 45.8302387, "longitude": 15.981376, "source": "osm", "_tags": {"addr:housenumber": "8", "addr:street": "Mirogojska cesta", "alt_name": "Zarazna bolnica Fran Mihaljević", "amenity": "hospital", "description": "University hospital for infectious diseases", "healthcare": "hospital", "healthcare:speciality": "infectious_diseases", "name": "Klinika za infektivne bolesti Dr. Fran Mihaljević", "operator": "Klinika za infektivne bolesti Dr. Fran Mihaljević", "operator:type": "public", "phone": "+385 1 2826 222", "short_name": "Fran Mihaljević", "website": "https://bfm.hr/", "wikidata": "Q30254116"}}, {"name": "Županijska bolnica Čakovec", "latitude": 46.3936219, "longitude": 16.4338506, "source": "osm", "_tags": {"addr:city": "Čakovec", "addr:housenumber": "1E", "addr:postcode": "40000", "addr:street": "Ivana Gorana Kovačića", "amenity": "hospital", "emergency": "yes", "healthcare": "hospital", "name": "Županijska bolnica Čakovec", "name:hu": "Kórház", "operator": "Županijska bolnica Čakovec", "operator:type": "public", "website": "https://www.bolnica-cakovec.hr/"}}, {"name": "Opća bolnica dr. Ivo Pedišić", "latitude": 45.476428, "longitude": 16.3695055, "source": "osm", "_tags": {"addr:housenumber": "59", "addr:street": "Ulica Josipa Jurja Strossmayera", "amenity": "hospital", "healthcare": "hospital", "name": "Opća bolnica dr. Ivo Pedišić", "operator": "Opća bolnica dr. Ivo Pedišić", "operator:type": "public", "website": "https://obs.hr/"}}, {"name": "Klinika za traumatologiju", "latitude": 45.810375, "longitude": 15.9844984, "source": "osm", "_tags": {"addr:city": "Zagreb", "addr:housenumber": "19", "addr:postcode": "10000", "addr:street": "Draškovićeva ulica", "amenity": "hospital", "emergency": "yes", "healthcare": "hospital", "healthcare:speciality": "radiology;orthopaedics", "name": "Klinika za traumatologiju", "name:lt": "Traumatologijos departamentas", "operator": "Klinički bolnički centar Sestre Milosrdnice", "operator:type": "public", "phone": "+385 1 4697 000", "website": "https://www.kbcsm.hr/klinike/klinika-za-traumatologiju/", "wheelchair": "yes", "wikidata": "Q20526650", "wikipedia": "hr:Klinika za traumatologiju KBC-a \"Sestre milosrdnice\""}}, {"name": "Klinika za tumore", "latitude": 45.8123702, "longitude": 15.9440731, "source": "osm", "_tags": {"addr:housenumber": "197", "addr:street": "Ilica", "amenity": "hospital", "healthcare": "hospital", "healthcare:speciality": "oncology", "name": "Klinika za tumore", "operator": "Klinički bolnički centar Sestre Milosrdnice", "operator:type": "public", "website": "https://www.kbcsm.hr/klinike/klinika-za-tumore/", "wikidata": "Q113366227", "wikimedia_commons": "Category:Zagreb Tumor Clinic"}}, {"name": "Opća bolnica Varaždin", "latitude": 46.3029924, "longitude": 16.3267377, "source": "osm", "_tags": {"addr:city": "Varaždin", "addr:housenumber": "1", "addr:postcode": "42000", "addr:street": "Ulica Ivana Meštrovića", "amenity": "hospital", "email": "bolnica@obv.hr", "emergency": "yes", "fax": "+385 42 393 000", "healthcare": "hospital", "name": "Opća bolnica Varaždin", "name:en": "Varaždin general hospital", "operator": "Opća bolnica Varaždin", "operator:type": "public", "phone": "+385 42 393 000", "website": "https://www.obv.hr/", "wikidata": "Q50037141"}}, {"name": "Služba za produženo liječenje i palijativnu skrb Novi Marof", "latitude": 46.1661426, "longitude": 16.3375048, "source": "osm", "_tags": {"addr:city": "Novi Marof", "addr:housenumber": "2", "addr:postcode": "42220", "addr:street": "Varaždinska ulica", "amenity": "hospital", "healthcare": "hospital", "healthcare:speciality": "palliative", "name": "Služba za produženo liječenje i palijativnu skrb Novi Marof", "old_name": "Specijalna bolnica za kronične bolesti Novi Marof", "operator": "Opća bolnica Varaždin", "operator:type": "public", "website": "https://www.obv.hr/"}}, {"name": "Specijalna bolnica za medicinsku rehabilitaciju Varaždinske Toplice", "latitude": 46.2105137, "longitude": 16.4211018, "source": "osm", "_tags": {"addr:city": "Varaždinske Toplice", "addr:housenumber": "1b", "addr:postcode": "42223", "addr:street": "Trg sv. Martina", "amenity": "hospital", "email": "narucivanje.bolnica@sbvzt.hr", "fax": "+385 42 633 299", "healthcare": "hospital", "healthcare:speciality": "physiatry", "name": "Specijalna bolnica za medicinsku rehabilitaciju Varaždinske Toplice", "name:de": "Spezialkrankenhaus für die medizinische Rehabilitation Varaždinske Toplice", "name:en": "Special Hospital for Medical Rehabilitation Varaždinske Toplice", "operator": "Specijalna bolnica Varaždinske Toplice", "operator:type": "public", "phone": "+385 42 630 000", "website": "https://www.minerva.hr/"}}, {"name": "Zatvorska bolnica", "latitude": 45.8398872, "longitude": 16.0276519, "source": "osm", "_tags": {"addr:housenumber": "107", "addr:street": "Svetošimunska cesta", "amenity": "hospital", "healthcare": "hospital", "name": "Zatvorska bolnica", "website": "https://pravosudje.gov.hr/zatvorska-bolnica-u-zagrebu/6577"}}, {"name": "Klinika za ženske bolesti i porode", "latitude": 45.8159178, "longitude": 15.9928688, "source": "osm", "_tags": {"addr:housenumber": "13", "addr:street": "Petrova ulica", "amenity": "hospital", "healthcare": "hospital", "healthcare:speciality": "gynaecology", "loc_name": "Petrova bolnica", "name": "Klinika za ženske bolesti i porode", "operator": "Klinički bolnički centar Zagreb", "operator:type": "public", "website": "https://www.kbc-zagreb.hr/klinike_i_zavodi/klinika_za_zenske_bolesti_i_porode"}}, {"name": "Neuropsihijatrijska bolnica dr. Ivan Barbot Popovača", "latitude": 45.5741824, "longitude": 16.6386838, "source": "osm", "_tags": {"addr:housenumber": "1", "addr:street": "Jelengradska ulica", "amenity": "hospital", "healthcare": "hospital", "healthcare:speciality": "neuropsychiatry", "name": "Neuropsihijatrijska bolnica dr. Ivan Barbot Popovača", "operator": "Neuropsihijatrijska bolnica dr. Ivan Barbot Popovača", "operator:type": "public", "website": "https://npbp.hr/", "wikidata": "Q97215762", "wikipedia": "hr:Neuropsihijatrijska bolnica Dr. Ivan Barbot Popovača"}}, {"name": "Opća bolnica Zabok i bolnica hrvatskih veterana", "latitude": 46.017755, "longitude": 15.9406952, "source": "osm", "_tags": {"addr:city": "Bračak", "addr:housenumber": "8", "addr:postcode": "49210", "addr:street": "Bračak", "alt_name": "Opća bolnica Zabok", "amenity": "hospital", "comment": "no helipad but open areas nearby", "email": "narucivanje@bolnica-zabok.hr", "fax": "+385 49 204 019", "healthcare": "hospital", "name": "Opća bolnica Zabok i bolnica hrvatskih veterana", "operator": "Opća bolnica Zabok i bolnica hrvatskih veterana", "operator:type": "public", "phone": "+385 49 204 000", "website": "https://www.bolnica-zabok.hr/", "wikidata": "Q30281275"}}, {"name": "Klinička bolnica Merkur", "latitude": 45.8204417, "longitude": 15.9970194, "source": "osm", "_tags": {"addr:city": "Zagreb", "addr:housenumber": "19", "addr:postcode": "10000", "addr:street": "Ulica Ivana Zajca", "amenity": "hospital", "healthcare": "hospital", "healthcare:speciality": "general", "loc_name": "Zajčeva bolnica", "name": "Klinička bolnica Merkur", "operator": "Klinička bolnica Merkur", "operator:type": "public", "website": "http://kb-merkur.hr/", "wikidata": "Q30253891", "wikimedia_commons": "Category:Merkur Clinical Hospital", "wikipedia": "hr:Klinička bolnica Merkur"}}, {"name": "Specijalna bolnica za zaštitu djece s neurorazvojnim i motoričkim smetnjama", "latitude": 45.8191337, "longitude": 15.9642426, "source": "osm", "_tags": {"addr:city": "Zagreb", "addr:housenumber": "2", "addr:postcode": "10000", "addr:street": "Goljak", "alt_name": "Specijalna bolnica Goljak", "amenity": "hospital", "email": "info@sbgoljak.hr", "fax": "+385 1 4925 202", "healthcare": "hospital", "healthcare:speciality": "physiatry;neurology", "name": "Specijalna bolnica za zaštitu djece s neurorazvojnim i motoričkim smetnjama", "operator": "Specijalna bolnica za zaštitu djece s neurorazvojnim i motoričkim smetnjama", "operator:type": "public", "phone": "+385 1 4925 202", "website": "https://www.sbgoljak.hr"}}, {"name": "Zdravstveni dom Ormož", "latitude": 46.40719, "longitude": 16.1429749, "source": "osm", "_tags": {"addr:city": "Ormož", "addr:country": "SI", "addr:housenumber": "6", "addr:postcode": "2270", "addr:street": "Ulica dr. Hrovata", "amenity": "hospital", "building": "yes", "construction_date": "1962", "name": "Zdravstveni dom Ormož", "ref:gurs:hs_mid": "13995907", "ref:gurs:sta_sid": "10256839"}}, {"name": "Psihijatrijska bolnica za djecu i mladež", "latitude": 45.8149201, "longitude": 15.9630461, "source": "osm", "_tags": {"addr:city": "Zagreb", "addr:country": "HR", "addr:housenumber": "11", "addr:postcode": "10000", "addr:street": "Ulica Ivana Kukuljevića Sakcinskog", "amenity": "hospital", "area": "yes", "healthcare": "hospital", "healthcare:speciality": "child_psychiatry", "name": "Psihijatrijska bolnica za djecu i mladež", "operator": "Psihijatrijska bolnica za djecu i mladež", "operator:type": "public", "website": "https://djecja-psihijatrija.hr/"}}, {"name": "", "latitude": 46.4065346, "longitude": 16.1416727, "source": "osm", "_tags": {"amenity": "hospital", "building": "yes", "construction_date": "1937", "ref:gurs:sta_sid": "10256796"}}, {"name": "", "latitude": 46.4066478, "longitude": 16.1411528, "source": "osm", "_tags": {"amenity": "hospital", "building": "yes", "construction_date": "1898", "ref:gurs:sta_sid": "10256777"}}, {"name": "Zdravstveni dom Ormož", "latitude": 46.4070387, "longitude": 16.143111, "source": "osm", "_tags": {"addr:city": "Ormož", "addr:country": "SI", "addr:housenumber": "6", "addr:postcode": "2270", "addr:street": "Ulica dr. Hrovata", "amenity": "hospital", "building": "yes", "construction_date": "1962", "name": "Zdravstveni dom Ormož", "ref:gurs:hs_mid": "13995907", "ref:gurs:sta_sid": "10256839"}}, {"name": "Specijalna bolnica za zaštitu djece s neurorazvojnim i motoričkim smetnjama", "latitude": 45.8255912, "longitude": 15.9658573, "source": "osm", "_tags": {"addr:city": "Zagreb", "addr:housenumber": "37", "addr:postcode": "10000", "addr:street": "Zelengaj", "alt_name": "Specijalna bolnica Goljak", "amenity": "hospital", "email": "ravnatelj@sbgoljak.hr", "healthcare": "hospital", "healthcare:speciality": "physiatry", "name": "Specijalna bolnica za zaštitu djece s neurorazvojnim i motoričkim smetnjama", "operator": "Specijalna bolnica za zaštitu djece s neurorazvojnim i motoričkim smetnjama", "operator:type": "public", "phone": "+385 1 4925 202", "website": "https://www.sbgoljak.hr/"}}, {"name": "Akromion", "latitude": 45.7604884, "longitude": 15.9940061, "source": "osm", "_tags": {"addr:housenumber": "5", "addr:street": "Ulica Savezne Republike Njemačke", "alt_name": "Specijalna bolnica za ortopediju i traumatologiju Akromion", "amenity": "hospital", "healthcare": "hospital", "healthcare:speciality": "orthopaedics", "name": "Akromion", "operator": "Akromion", "operator:type": "private", "website": "https://www.akromion.hr/"}}, {"name": "Dječja bolnica Srebrnjak", "latitude": 45.8253625, "longitude": 15.993638, "source": "osm", "_tags": {"addr:city": "Zagreb", "addr:housenumber": "100", "addr:postcode": "10000", "addr:street": "Srebrnjak", "amenity": "hospital", "healthcare": "hospital", "healthcare:speciality": "paediatric_surgery;diagnostic_radiology;physiatry", "name": "Dječja bolnica Srebrnjak", "operator": "Dječja bolnica Srebrnjak", "operator:type": "public", "phone": "+385 1 6391100;+385 1 6391101", "website": "http://www.bolnica-srebrnjak.hr/"}}, {"name": "Služba za plućne bolesti i TBC Klenovnik", "latitude": 46.2727883, "longitude": 16.0765235, "source": "osm", "_tags": {"amenity": "hospital", "healthcare": "hospital", "name": "Služba za plućne bolesti i TBC Klenovnik", "operator": "Opća bolnica Varaždin", "operator:type": "public", "website": "https://obv.hr/organizacijska-struktura/sluzba-plucne-bolesti-i-tbc-klenovnik-17/"}}, {"name": "Opća bolnica Dr. Tomislav Bardek", "latitude": 46.1632422, "longitude": 16.8372732, "source": "osm", "_tags": {"addr:city": "Koprivnica", "addr:country": "HR", "addr:housenumber": "1", "addr:postcode": "48000", "addr:street": "Ulica dr. Željka Selingera", "amenity": "hospital", "comment": "possible unmarked helipad on grounds", "emergency": "yes", "healthcare": "hospital", "name": "Opća bolnica Dr. Tomislav Bardek", "operator": "Opća bolnica Dr. Tomislav Bardek", "operator:type": "public", "phone": "+38548251000", "website": "https://www.obkoprivnica.hr/", "wikidata": "Q16108660"}}, {"name": "Naftalan, specijalna bolnica za medicinsku rehabilitaciju", "latitude": 45.7067065, "longitude": 16.3856278, "source": "osm", "_tags": {"addr:housenumber": "23A", "addr:street": "Omladinska ulica", "amenity": "hospital", "healthcare": "hospital", "healthcare:speciality": "physiatry;dermatology", "name": "Naftalan, specijalna bolnica za medicinsku rehabilitaciju", "operator": "Naftalan, specijalna bolnica za medicinsku rehabilitaciju", "operator:type": "public", "website": "https://naftalan.hr/"}}, {"name": "Opća bolnica dr. Ivo Pedišić, odjel u Petrinji", "latitude": 45.4235105, "longitude": 16.2768312, "source": "osm", "_tags": {"addr:city": "Petrinja", "addr:postcode": "44250", "addr:street": "Vinogradi", "amenity": "hospital", "area": "yes", "healthcare": "hospital", "name": "Opća bolnica dr. Ivo Pedišić, odjel u Petrinji", "nohousenumber": "yes", "operator": "Opća bolnica dr. Ivo Pedišić", "operator:type": "public", "website": "https://obs.hr/"}}, {"name": "Opća bolnica dr. Ivo Pedišić, odjeli za pulmologiju i palijativu", "latitude": 45.4402944, "longitude": 16.3447014, "source": "osm", "_tags": {"amenity": "hospital", "healthcare": "hospital", "healthcare:speciality": "pulmonology;palliative", "name": "Opća bolnica dr. Ivo Pedišić, odjeli za pulmologiju i palijativu", "operator": "Opća bolnica dr. Ivo Pedišić", "operator:type": "public", "website": "https://obs.hr/"}}]