[{"name": "Centre de Soins Psychothérapie Adultes", "latitude": 45.9527724, "longitude": 1.7520395, "source": "osm", "_tags": {"amenity": "hospital", "healthcare": "hospital", "name": "Centre de Soins Psychothérapie Adultes", "ref:FR:FINESS": "230782245", "source": "Le ministère des solidarités et de la santé - 03/2019", "type:FR:FINESS": "292"}}, {"name": "La Chênaie", "latitude": 45.8483578, "longitude": 1.1316269, "source": "osm", "_tags": {"addr:city": "Verneuil-sur-Vienne", "addr:housenumber": "8", "addr:postcode": "87430", "addr:street": "Rue de Limoges", "amenity": "hospital", "healthcare": "hospital", "healthcare:speciality": "community", "name": "La Chênaie", "operator": "personnel medical et personnes agées", "operator:type": "private", "phone": "+33 5 55 43 33 00", "ref:FR:FINESS": "870000171", "type:FR:FINESS": "109", "wheelchair": "yes"}}, {"name": "Chénieux Vision", "latitude": 45.8145204, "longitude": 1.2822882, "source": "osm", "_tags": {"addr:housenumber": "18", "addr:street": "Rue du Général Catroux", "amenity": "hospital", "description": "Centre de Dépistage, Consultation & Chirurgie réfractive", "emergency": "yes", "healthcare": "hospital", "healthcare:speciality": "ophthalmology", "name": "Chénieux Vision", "phone": "+33 5 55 45 44 60", "website": "https://chenieux-ophtalmologie.com"}}, {"name": "Centre hospitalier Esquirol", "latitude": 45.8171988, "longitude": 1.2393511, "source": "osm", "_tags": {"amenity": "hospital", "contact:phone": "+33 5 55 43 10 10", "healthcare": "hospital", "healthcare:speciality": "psychiatry", "name": "Centre hospitalier Esquirol", "name:etymology:wikidata": "Q517981", "ref:FR:FINESS": "870006137", "ref:FR:NAF": "8610Z", "ref:FR:SIRET": "26870850000015", "source": "cadastre-dgi-fr source : Direction Générale des Impôts - Cadastre;mise à jour : 2009", "type:FR:FINESS": "292", "website": "https://www.ch-esquirol-limoges.fr/"}}, {"name": "Polyclinique de Limoges, site Émailleurs", "latitude": 45.8151871, "longitude": 1.2262204, "source": "osm", "_tags": {"addr:housenumber": "1", "addr:street": "Rue Victor Schoelcher", "amenity": "hospital", "description": "Le site Emailleurs-Colombier de la Polyclinique de Limoges assure une permanence des urgences gynécologiques et obstétricales 24h/24 et 7j/7. Tél. 05 55 43 39 16", "emergency": "yes", "healthcare": "clinic", "healthcare:speciality": "gynaecology;paediatrics", "name": "Polyclinique de Limoges, site Émailleurs", "operator": "type 1", "operator:type": "private", "phone": "+33 5 55 43 38 69", "ref:FR:FINESS": "870000411", "ref:FR:NAF": "8610Z", "ref:FR:SIREN": "453102717", "ref:FR:SIRET": "45310271700031", "short_name": "Clinique des Émailleurs", "source": "cadastre-dgi-fr source : Direction Générale des Impôts - Cadastre;mise à jour : 2009", "website": "https://polyclinique-limoges.com"}}, {"name": "Centre hospitalier de La Souterraine", "latitude": 46.236147, "longitude": 1.4814307, "source": "osm", "_tags": {"alt_name": "Centre hospitalier Eugène Jamot", "amenity": "hospital", "email": "direction@ch-lasouterraine.fr", "emergency": "no", "fax": "+33 5 55 63 77 31", "healthcare": "hospital", "name": "Centre hospitalier de La Souterraine", "operator:type": "public", "phone": "+33 5 55 89 58 00", "ref:FR:FINESS": "230000960", "source": "Le ministère des solidarités et de la santé - 08/2018", "type:FR:FINESS": "355", "website": "https://www.ch-lasouterraine.fr/"}}, {"name": "Hôpital Chastaingt", "latitude": 45.8284577, "longitude": 1.2851021, "source": "osm", "_tags": {"amenity": "hospital", "healthcare": "hospital", "name": "Hôpital Chastaingt", "operator:type": "public", "ref:FR:FINESS": "870008042", "source": "cadastre-dgi-fr source : Direction Générale des Impôts - Cadastre ; mise à jour : 2010", "type:FR:FINESS": "362"}}, {"name": "Centre hospitalier Jacques Boutard", "latitude": 45.5154701, "longitude": 1.2034383, "source": "osm", "_tags": {"addr:housenumber": "5", "addr:street": "Place du Président Magnaud", "amenity": "hospital", "emergency": "yes", "fax": "+33 5 55 75 19 82", "healthcare": "hospital", "healthcare:speciality": "emergency;cardiology;anaesthetics;dermatology;ophthalmology;nutrition", "name": "Centre hospitalier Jacques Boutard", "operator:type": "public", "phone": "+33 5 55 75 75 75", "ref:FR:FINESS": "870000270", "ref:FR:NAF": "86.10Z", "ref:FR:SIREN": "268718707", "ref:FR:SIRET": "26871870700014", "source": "cadastre-dgi-fr source : Direction Générale des Impôts - Cadastre;mise à jour : 2010", "type:FR:FINESS": "355", "website": "http://www.chjb.fr/"}}, {"name": "Hôpital Jean Rebeyrol 2", "latitude": 45.8135077, "longitude": 1.2314725, "source": "osm", "_tags": {"alt_name": "V80", "amenity": "hospital", "building": "hospital", "healthcare": "hospital", "name": "Hôpital Jean Rebeyrol 2", "ref:FR:FINESS": "870008059", "source": "cadastre-dgi-fr source : Direction Générale des Impôts - Cadastre. Mise à jour : 2009", "type:FR:FINESS": "362"}}, {"name": "Centre de Réadaptation Fonctionnelle André Lalande", "latitude": 46.2363085, "longitude": 1.5609778, "source": "osm", "_tags": {"amenity": "hospital", "building": "yes", "emergency": "no", "healthcare": "hospital", "healthcare:speciality": "physiatry", "name": "Centre de Réadaptation Fonctionnelle André Lalande", "ref:FR:FINESS": "230782617", "short_name": "CRRF André Lalande", "source": "cadastre-dgi-fr source : Direction Générale des Impôts - Cadastre. Mise à jour : 2010", "type:FR:FINESS": "109"}}, {"name": "Clinique de la Marche", "latitude": 46.1788483, "longitude": 1.8801113, "source": "osm", "_tags": {"amenity": "hospital", "building": "yes", "fax": "+33555619628", "healthcare": "hospital", "name": "Clinique de la Marche", "phone": "+33555526457", "ref:FR:FINESS": "230781619", "ref:FR:SIRET": "26232470000117", "source": "cadastre-dgi-fr source : Direction Générale des Impôts - Cadastre. Mise à jour : 2010", "type:FR:FINESS": "292"}}, {"name": "Centre hospitalier de Guéret", "latitude": 46.1639196, "longitude": 1.8696375, "source": "osm", "_tags": {"amenity": "hospital", "email": "ch.gueret@ch-gueret.fr", "emergency": "yes", "fax": "+33 5 55 51 70 57", "healthcare": "hospital", "healthcare:speciality": "intensive", "name": "Centre hospitalier de Guéret", "operator:type": "public", "phone": "+33 5 55 51 70 00", "ref:FR:FINESS": "230000820", "type:FR:FINESS": "355", "website": "https://www.ch-gueret.fr/"}}, {"name": "Hôpital Jean Rebeyrol 1", "latitude": 45.812733, "longitude": 1.2323701, "source": "osm", "_tags": {"amenity": "hospital", "building": "hospital", "contact:phone": "+33 5 55 05 65 00", "healthcare": "hospital", "name": "Hôpital Jean Rebeyrol 1", "ref:FR:FINESS": "870003514", "ref:FR:NAF": "8610Z", "ref:FR:SIRET": "26870851800058", "source": "extraction vectorielle: cadastre-dgi-fr source : Direction Générale des Impôts - Cadastre. Mise à jour : 2010", "type:FR:FINESS": "101"}}, {"name": "Centre hospitalier universitaire de Limoges", "latitude": 45.8123105, "longitude": 1.2362064, "source": "osm", "_tags": {"addr:city": "Limoges", "addr:housenumber": "2", "addr:postcode": "87000", "addr:street": "Avenue Martin Luther King", "amenity": "hospital", "emergency": "yes", "healthcare": "hospital", "healthcare:speciality": "intensive", "name": "Centre hospitalier universitaire de Limoges", "phone": "+33 5 55 05 55 55", "ref:FR:FINESS": "870000015", "ref:FR:SIREN": "268 708 518", "source": "cadastre-dgi-fr source : Direction Générale des Impôts - Cadastre;mise à jour : 2009", "website": "https://www.chu-limoges.fr/", "wikidata": "Q2945742", "wikipedia": "fr:Centre hospitalier régional universitaire de Limoges"}}, {"name": "Hôpital Intercommunal du Haut-Limousin", "latitude": 46.2172028, "longitude": 1.0766033, "source": "osm", "_tags": {"addr:housenumber": "9", "addr:street": "Avenue de la Josniere", "amenity": "hospital", "building": "hospital", "healthcare": "hospital", "name": "Hôpital Intercommunal du Haut-Limousin", "ref:FR:NAF": "86.10Z", "ref:FR:SIREN": "268700424", "ref:FR:SIRET": "26870042400065", "source": "extraction vectorielle v1 cadastre-dgi-fr source : Direction Générale des Impôts - Cadas. Mise à jour : 2010"}}, {"name": "Clinique psychiatrique Korian Saint-Maurice", "latitude": 46.0005268, "longitude": 1.4699385, "source": "osm", "_tags": {"addr:city": "La Jonchère-Saint-Maurice", "addr:housenumber": "49", "addr:postcode": "87340", "addr:street": "Rue de Limoges", "amenity": "hospital", "building": "hospital", "healthcare": "hospital", "healthcare:speciality": "psychiatry", "name": "Clinique psychiatrique Korian Saint-Maurice", "opening_hours": "Mo-Su 09:00-12:00, 14:00-18:00", "operator": "Korian", "ref:FR:FINESS": "870000221", "ref:FR:SIRET": "75550044400012", "source": "cadastre-dgi-fr source : Direction Générale des Impôts - Cadastre. Mise à jour : 2012", "type:FR:FINESS": "161", "website": "https://www.korian.fr/clinique-psychiatrique/psy-korian-saint-maurice-la-jonchere-87340"}}, {"name": "Hôpital de Jour Baudin", "latitude": 45.8190793, "longitude": 1.2474544, "source": "osm", "_tags": {"amenity": "hospital", "emergency": "no", "healthcare": "hospital", "healthcare:speciality": "functional_rehabilitation;visual_rehabilitation;childhood_obesity", "name": "Hôpital de Jour Baudin", "name:etymology:wikidata": "Q3163863", "operator": "Mutualité Française", "ref:FR:FINESS": "870007358"}}, {"name": "Hôpital du Haut Limousin", "latitude": 46.1242029, "longitude": 1.0622201, "source": "osm", "_tags": {"amenity": "hospital", "healthcare": "hospital", "name": "Hôpital du Haut Limousin", "ref:FR:FINESS": "870000551", "source": "Le ministère des solidarités et de la santé - 08/2018", "wikidata": "Q92062774"}}, {"name": "", "latitude": 45.8152364, "longitude": 1.226288, "source": "osm", "_tags": {"building": "hospital", "healthcare": "hospital", "healthcare:speciality": "orthopaedics;paediatrics;dermatology;stomatology;dental_oral_maxillo_facial_surgery;physiotherapist;implantology", "source": "cadastre-dgi-fr source : Direction Générale des Finances Publiques - Cadastre. Mise à jour : 2017"}}, {"name": "Centre Médical Alfred Leune", "latitude": 46.1405619, "longitude": 1.8874178, "source": "osm", "_tags": {"amenity": "hospital", "emergency": "no", "healthcare": "hospital", "name": "Centre Médical Alfred Leune", "operator": "MGEN", "ref:FR:FINESS": "230780082", "type:FR:FINESS": "129", "website": "https://proximite.mgen.fr/204-etablissement-de-medecine-et-ssr-sainte-feyre", "wikidata": "Q97728377"}}, {"name": "Centre hospitalier Esquirol", "latitude": 45.81655, "longitude": 1.246134, "source": "osm", "_tags": {"amenity": "hospital", "contact:phone": "+33 5 55 43 10 10", "healthcare:speciality": "psychiatry", "name": "Centre hospitalier Esquirol", "name:etymology:wikidata": "Q517981", "ref:FR:FINESS": "870006137", "ref:FR:NAF": "8610Z", "ref:FR:SIRET": "26870850000015", "type:FR:FINESS": "292", "website": "https://www.ch-esquirol-limoges.fr/"}}, {"name": "Clinique François Chénieux", "latitude": 45.8129762, "longitude": 1.28492, "source": "osm", "_tags": {"addr:housenumber": "18", "addr:street": "Rue du Général Catroux", "amenity": "hospital", "description": "Le site Chénieux de la Polyclinique de Limoges accueil 25 cabinets de consultations, 2 laboratoires, 1 centre d’imagerie et un service d’urgences 7/7 et 24/24.", "emergency": "yes", "healthcare": "hospital", "healthcare:speciality": "emergency;chirurgie;laboratoire_d'analyse", "name": "Clinique François Chénieux", "operator": "Polyclinique de Limoges", "operator:type": "private", "phone": "+33 5 55 45 40 40", "ref:FR:FINESS": "870000288", "ref:FR:NAF": "8610Z", "ref:FR:SIREN": "453102717", "ref:FR:SIRET": "45310271700023", "source": "INSEE - 2025-01", "type:FR:FINESS": "365", "website": "http://polyclinique-limoges.com/clinique-francois-chenieux/"}}, {"name": "Hôpital", "latitude": 45.8417365, "longitude": 1.4831888, "source": "osm", "_tags": {"amenity": "hospital", "healthcare": "hospital", "name": "Hôpital"}}, {"name": "Centre hospitalier Bernard des Plas", "latitude": 45.9541791, "longitude": 1.7500589, "source": "osm", "_tags": {"amenity": "hospital", "contact:email": "ch.bernard-desplas@ch-bourganeuf.fr", "fax": "+335 55 54 50 07", "healthcare": "hospital", "name": "Centre hospitalier Bernard des Plas", "phone": "+335 55 54 50 00", "ref:FR:FINESS": "230000846", "type:FR:FINESS": "355", "website": "https://www.hopital-bourganeuf.fr/"}}, {"name": "", "latitude": 45.8148047, "longitude": 1.2819141, "source": "osm", "_tags": {"amenity": "hospital", "healthcare": "hospital"}}, {"name": "Centre Hospitalier Intercommunal Monts et Barrages", "latitude": 45.8417003, "longitude": 1.4832848, "source": "osm", "_tags": {"addr:city": "Saint-Léonard de Noblat", "addr:postcode": "87400", "addr:street": "Chemin du Panaud", "amenity": "hospital", "building": "yes", "email": "accueil@chimb.fr", "emergency": "no", "healthcare": "hospital", "name": "Centre Hospitalier Intercommunal Monts et Barrages", "phone": "+33 5 55 56 43 00", "ref:FR:FINESS": "870000601", "source": "Le ministère des solidarités et de la santé - 08/2018", "wikidata": "Q92062743"}}, {"name": "", "latitude": 45.8137073, "longitude": 1.2365971, "source": "osm", "_tags": {"building:levels": "5", "building:levels:underground": "1", "building:part": "yes", "healthcare": "hospital", "height": "19.16", "roof:material": "metal", "roof:shape": "flat"}}, {"name": "Hôpital de la Valette", "latitude": 46.2146759, "longitude": 1.7589545, "source": "osm", "_tags": {"alt_name": "Centre Hospitalier La Valette", "amenity": "hospital", "healthcare": "hospital", "healthcare:speciality": "psychiatry", "name": "Hôpital de la Valette", "ref:FR:FINESS": "230000853", "ref:FR:NAF": "86.10Z", "ref:FR:SIRET": "26232470000018", "source": "Le ministère des solidarités et de la santé - 03/2019", "type:FR:FINESS": "292"}}, {"name": "Centre Soins Psychothérapie Enfants", "latitude": 46.1588653, "longitude": 1.871286, "source": "osm", "_tags": {"amenity": "hospital", "healthcare": "hospital", "name": "Centre Soins Psychothérapie Enfants", "ref:FR:FINESS": "230781601", "type:FR:FINESS": "292"}}, {"name": "Pôle Ophtalmologique Chénieux", "latitude": 45.8144892, "longitude": 1.2823803, "source": "osm", "_tags": {"amenity": "hospital", "building": "yes", "healthcare": "clinic", "healthcare:speciality": "ophthalmology", "name": "Pôle Ophtalmologique Chénieux", "source": "cadastre-dgi-fr source : Direction Générale des Finances Publiques - Cadastre. Mise à jour : 2022", "website": "https://chenieux-ophtalmologie.com/"}}, {"name": "Hôpital de Magnac Laval", "latitude": 46.2188635, "longitude": 1.174193, "source": "osm", "_tags": {"addr:housenumber": "8", "addr:street": "Avenue George Sand", "amenity": "hospital", "emergency": "no", "healthcare": "hospital", "name": "Hôpital de Magnac Laval", "ref:FR:FINESS": "870000403", "ref:FR:NAF": "86.10Z", "ref:FR:SIREN": "268700424", "ref:FR:SIRET": "26870042400057", "source": "Le ministère des solidarités et de la santé - 08/2018", "type:FR:FINESS": "106", "website": "https://www.hihl.fr/hopital-de-magnac-laval", "wikidata": "Q92063066"}}, {"name": "ITEP Suzanne Léger", "latitude": 46.2429998, "longitude": 0.985979, "source": "osm", "_tags": {"addr:city": "Oradour-Saint-Genest", "addr:postcode": "87210", "addr:street": "Le Prat", "amenity": "hospital", "description": "Institut Thérapeutique Éducatif et Pédagogique (I.T.E.P.)", "emergency": "no", "healthcare": "hospital", "healthcare:speciality": "behavior", "name": "ITEP Suzanne Léger", "phone": "+33 5 55 47 61 00", "ref:UAI": "0870710Z"}}, {"name": "Hôpital de la Mère et de l’Enfant", "latitude": 45.8136934, "longitude": 1.2398372, "source": "osm", "_tags": {"addr:housenumber": "8", "addr:street": "Avenue Dominique Larrey", "amenity": "hospital", "building": "hospital", "emergency": "yes", "healthcare": "hospital", "healthcare:speciality": "gynaecology;paediatrics;intensive", "name": "Hôpital de la Mère et de l’Enfant", "operator": "type 3", "operator:type": "public", "phone": "+33 5 55 05 66 66", "ref:FR:FINESS": "870014859", "ref:FR:NAF": "8610Z", "ref:FR:SIRET": "26870851800314", "short_name": "HME", "type": "multipolygon", "type:FR:FINESS": "101", "website": "https://www.chu-limoges.fr/hopital-de-la-mere-et-de-l-enfant.html"}}, {"name": "Hôpital Dupuytren 1", "latitude": 45.812338, "longitude": 1.2355105, "source": "osm", "_tags": {"amenity": "hospital", "building": "hospital", "contact:phone": "+33 5 55 05 55 55", "emergency": "yes", "healthcare": "hospital", "name": "Hôpital Dupuytren 1", "ref:FR:FINESS": "870000064", "ref:FR:SIRET": "26870851800017", "source": "cadastre-dgi-fr source : Direction Générale des Impôts - Cadastre;mise à jour : 2010", "type": "multipolygon", "type:FR:FINESS": "101"}}, {"name": "Hôpital Dupuytren 2", "latitude": 45.8137899, "longitude": 1.2365235, "source": "osm", "_tags": {"amenity": "hospital", "architect": "MBA", "building": "hospital", "building:levels": "5", "building:levels:underground": "1", "healthcare": "hospital", "name": "Hôpital Dupuytren 2", "phone": "+33 5 55 05 55 55", "ref:FR:FINESS": "870000064", "ref:FR:SIRET": "26870851800017", "start_date": "2019-03-18", "type": "multipolygon", "type:FR:FINESS": "101"}}]