[{"name": "Spitalul CFR", "latitude": 45.8480155, "longitude": 23.0146918, "source": "osm", "_tags": {"amenity": "hospital", "name": "Spitalul CFR"}}, {"name": "Centrul de Sănătate Călan", "latitude": 45.7331603, "longitude": 23.0263719, "source": "osm", "_tags": {"amenity": "hospital", "name": "Centrul de Sănătate Călan"}}, {"name": "Spitalul Municipal Orăștie", "latitude": 45.8422047, "longitude": 23.1865746, "source": "osm", "_tags": {"amenity": "hospital", "name": "Spitalul Municipal Orăștie"}}, {"name": "Spitalul Județean de Urgență", "latitude": 46.0720707, "longitude": 23.5578161, "source": "osm", "_tags": {"amenity": "hospital", "healthcare": "hospital", "name": "Spitalul Județean de Urgență"}}, {"name": "Spital", "latitude": 45.8859866, "longitude": 23.7989295, "source": "osm", "_tags": {"amenity": "hospital", "emergency": "no", "name": "Spital"}}, {"name": "Spitalul Municipal Blaj", "latitude": 46.1791954, "longitude": 23.9247694, "source": "osm", "_tags": {"amenity": "hospital", "name": "Spitalul Municipal Blaj"}}, {"name": "Spital", "latitude": 45.7912328, "longitude": 23.8892212, "source": "osm", "_tags": {"amenity": "hospital", "name": "Spital"}}, {"name": "Spital TBC", "latitude": 45.9119807, "longitude": 23.1636157, "source": "osm", "_tags": {"amenity": "hospital", "name": "Spital TBC"}}, {"name": "Spitalul Orășenesc Câmpeni", "latitude": 46.3624169, "longitude": 23.0418565, "source": "osm", "_tags": {"addr:city": "Câmpeni", "amenity": "hospital", "healthcare": "hospital", "name": "Spitalul Orășenesc Câmpeni"}}, {"name": "Spitalul de boli cronice Câmpeni", "latitude": 46.3647951, "longitude": 23.0461062, "source": "osm", "_tags": {"addr:city": "Câmpeni", "amenity": "hospital", "name": "Spitalul de boli cronice Câmpeni"}}, {"name": "Spital Vechi", "latitude": 46.3858476, "longitude": 23.8435976, "source": "osm", "_tags": {"amenity": "hospital", "name": "Spital Vechi"}}, {"name": "Spitalul Comunal Sălciua de Jos", "latitude": 46.3984567, "longitude": 23.4177446, "source": "osm", "_tags": {"amenity": "hospital", "healthcare": "hospital", "name": "Spitalul Comunal Sălciua de Jos"}}, {"name": "Spitalul Orășenesc \"Dr. Alexandru Borza\" Abrud", "latitude": 46.2658698, "longitude": 23.0826073, "source": "osm", "_tags": {"amenity": "hospital", "healthcare": "hospital", "name": "Spitalul Orășenesc \"Dr. Alexandru Borza\" Abrud"}}, {"name": "Dispensar", "latitude": 45.7294991, "longitude": 23.173384, "source": "osm", "_tags": {"amenity": "hospital", "name": "Dispensar"}}, {"name": "Policlinica Aiud", "latitude": 46.3075891, "longitude": 23.7235522, "source": "osm", "_tags": {"addr:city": "Aiud", "addr:postcode": "515200", "amenity": "hospital", "healthcare": "hospital", "healthcare:speciality": "surgery;psychiatry;internal;cardiology", "name": "Policlinica Aiud"}}, {"name": "Spitalul Municipal Aiud", "latitude": 46.3080964, "longitude": 23.7229969, "source": "osm", "_tags": {"amenity": "hospital", "emergency": "yes", "healthcare": "hospital", "name": "Spitalul Municipal Aiud"}}, {"name": "Spitalul de Neurologie și Psihiatrie Carol Davila", "latitude": 46.0693033, "longitude": 23.5692587, "source": "osm", "_tags": {"addr:city": "Alba Iulia", "addr:housenumber": "1-3", "addr:street": "FIXME", "amenity": "hospital", "building": "yes", "healthcare": "hospital", "name": "Spitalul de Neurologie și Psihiatrie Carol Davila"}}, {"name": "Fostă Policlinică Petrila", "latitude": 45.4432917, "longitude": 23.3785868, "source": "osm", "_tags": {"amenity": "hospital", "building": "yes", "name": "Fostă Policlinică Petrila", "source": "survey, Bing , legea544/2001"}}, {"name": "Spital", "latitude": 45.8013757, "longitude": 23.8413078, "source": "osm", "_tags": {"amenity": "hospital", "building": "yes", "name": "Spital"}}, {"name": "Spitalul Ocna Mureș", "latitude": 46.3792837, "longitude": 23.8603651, "source": "osm", "_tags": {"amenity": "hospital", "building": "apartments", "healthcare": "hospital", "name": "Spitalul Ocna Mureș"}}, {"name": "Dispensar", "latitude": 45.8087734, "longitude": 23.7274542, "source": "osm", "_tags": {"amenity": "hospital", "building": "yes", "healthcare": "hospital", "name": "Dispensar"}}, {"name": "Spitalul Orășenesc Hațeg", "latitude": 45.6113754, "longitude": 22.9512619, "source": "osm", "_tags": {"amenity": "hospital", "emergency": "yes", "healthcare": "hospital", "name": "Spitalul Orășenesc Hațeg", "name:de": "Städtisches Krankenhaus Hatzeg", "website": "https://www.spitalhateg.ro/"}}, {"name": "Spitalul Orășenesc Cugir", "latitude": 45.8366953, "longitude": 23.3638414, "source": "osm", "_tags": {"amenity": "hospital", "name": "Spitalul Orășenesc Cugir"}}, {"name": "Spitalul Județean de Urgență", "latitude": 46.0717946, "longitude": 23.5563197, "source": "osm", "_tags": {"amenity": "hospital", "name": "Spitalul Județean de Urgență"}}, {"name": "Spitalul Municipal Orăștie", "latitude": 45.8422756, "longitude": 23.1866934, "source": "osm", "_tags": {"amenity": "hospital", "healthcare": "hospital", "name": "Spitalul Municipal Orăștie"}}, {"name": "", "latitude": 45.8421856, "longitude": 23.1865812, "source": "osm", "_tags": {"amenity": "hospital", "healthcare": "hospital"}}, {"name": "", "latitude": 45.8423043, "longitude": 23.187162, "source": "osm", "_tags": {"amenity": "hospital", "healthcare": "hospital"}}, {"name": "", "latitude": 45.8422812, "longitude": 23.1869186, "source": "osm", "_tags": {"amenity": "hospital", "healthcare": "hospital"}}, {"name": "", "latitude": 45.8422694, "longitude": 23.1873276, "source": "osm", "_tags": {"amenity": "hospital", "healthcare": "hospital"}}, {"name": "", "latitude": 45.8420602, "longitude": 23.1874191, "source": "osm", "_tags": {"amenity": "hospital", "healthcare": "hospital"}}, {"name": "", "latitude": 45.8420696, "longitude": 23.1872281, "source": "osm", "_tags": {"amenity": "hospital", "healthcare": "hospital"}}, {"name": "Spital Fizioterapie", "latitude": 45.9581581, "longitude": 23.5746813, "source": "osm", "_tags": {"addr:city": "Sebeș", "amenity": "hospital", "building": "yes", "healthcare": "hospital", "name": "Spital Fizioterapie"}}, {"name": "Spitalul Municipal Sebeș", "latitude": 45.9511629, "longitude": 23.5682676, "source": "osm", "_tags": {"amenity": "hospital", "building": "yes", "healthcare": "hospital", "name": "Spitalul Municipal Sebeș", "name:en": "Municipal Hospital Sebeș", "name:ro": "Spitalul Municipal Sebeș"}}, {"name": "Spitalul Municipal Sebeș Pediatrie", "latitude": 45.9528477, "longitude": 23.5677528, "source": "osm", "_tags": {"addr:city": "Sebeș", "addr:housenumber": "26", "addr:postcode": "515800", "addr:street": "Strada Șurianu", "amenity": "hospital", "building": "yes", "healthcare": "hospital", "name": "Spitalul Municipal Sebeș Pediatrie", "name:en": "Municipal Hospital Sebeș - Children’s Care", "name:ro": "Spitalul Municipal Sebeș Pediatrie"}}]