[{"name": "Spitalul Județean, Policlinică", "latitude": 45.648131, "longitude": 25.6203539, "source": "osm", "_tags": {"amenity": "hospital", "emergency": "yes", "healthcare": "hospital", "name": "Spitalul Județean, Policlinică"}}, {"name": "Spitalul Astra", "latitude": 45.6495818, "longitude": 25.6170943, "source": "osm", "_tags": {"amenity": "hospital", "check_date": "2024-10-02", "emergency": "no", "healthcare": "hospital", "name": "Spitalul Astra"}}, {"name": "Spitalul Militar", "latitude": 45.6437191, "longitude": 25.6001061, "source": "osm", "_tags": {"amenity": "hospital", "check_date": "2025-09-25", "emergency": "yes", "healthcare": "hospital", "name": "Spitalul Militar"}}, {"name": "Spitalul de Neuro-Psihiatrie", "latitude": 45.6473487, "longitude": 25.5927496, "source": "osm", "_tags": {"amenity": "hospital", "check_date": "2024-10-02", "name": "Spitalul de Neuro-Psihiatrie"}}, {"name": "Spitalul Clinic de Copii", "latitude": 45.656751, "longitude": 25.587008, "source": "osm", "_tags": {"addr:housenumber": "45", "addr:street": "Strada Nicopole", "alt_name": "Spitalul Clinic de Urgenta pentru Copii", "amenity": "hospital", "healthcare": "hospital", "name": "Spitalul Clinic de Copii", "name:en": "Children Hospital"}}, {"name": "Centrul de Transfuzie Sanguină", "latitude": 45.6515541, "longitude": 25.5987234, "source": "osm", "_tags": {"amenity": "hospital", "healthcare": "hospital", "name": "Centrul de Transfuzie Sanguină"}}, {"name": "Spitalul Clinic de Pneumoftiziologie, Pavilion IV adulți", "latitude": 45.6458376, "longitude": 25.5771093, "source": "osm", "_tags": {"addr:city": "Brașov", "addr:housenumber": "4", "addr:postcode": "500193", "addr:street": "Strada Gusztav Kollar", "amenity": "hospital", "name": "Spitalul Clinic de Pneumoftiziologie, Pavilion IV adulți"}}, {"name": "Dispensar Medical de Adulți Nr. 17", "latitude": 45.6356997, "longitude": 25.6365631, "source": "osm", "_tags": {"amenity": "hospital", "healthcare": "hospital", "name": "Dispensar Medical de Adulți Nr. 17"}}, {"name": "Spitalul Clinic Județean de Urgență", "latitude": 45.6485545, "longitude": 25.6203143, "source": "osm", "_tags": {"addr:city": "Brașov", "amenity": "hospital", "emergency": "yes", "healthcare": "hospital", "name": "Spitalul Clinic Județean de Urgență"}}, {"name": "Cabinet Medical", "latitude": 45.766112, "longitude": 25.6429915, "source": "osm", "_tags": {"amenity": "hospital", "healthcare": "hospital", "name": "Cabinet Medical"}}, {"name": "Clinica Eva", "latitude": 45.6502626, "longitude": 25.613321, "source": "osm", "_tags": {"amenity": "hospital", "healthcare": "hospital", "name": "Clinica Eva"}}, {"name": "\"MEDO\" international medical center - 24/24", "latitude": 45.6622252, "longitude": 25.5955503, "source": "osm", "_tags": {"addr:city": "Brașov", "addr:housenumber": "8A", "addr:postcode": "500188", "addr:street": "Strada Cicoarei", "amenity": "hospital", "description": "Este o companie integral Brasoveana cu sediul central in Brasov. MEDO este acreditata ca si sistem de servicii medicale ISO 9001-2008 QEC, Marea Britanie. MEDO va sta la dispozitie cu singurul serviciu de ambulanta privat din Brasov, care asigura transpor", "email": "office@medo.ro", "healthcare": "hospital", "name": "\"MEDO\" international medical center - 24/24", "opening_hours": "24/7", "phone": "+40268 47.42.37", "source": "Owner", "website": "https://www.medo.ro/"}}, {"name": "Kórház", "latitude": 46.0727043, "longitude": 25.5915544, "source": "osm", "_tags": {"addr:city": "Baraolt", "addr:housenumber": "202", "addr:postcode": "525100", "addr:street": "Strada Kossuth Lajos", "amenity": "hospital", "emergency": "yes", "name": "Kórház", "phone": "+40267377600", "website": "https://www.spitbar.ro/"}}, {"name": "Spital Clinicco", "latitude": 45.6573522, "longitude": 25.585149, "source": "osm", "_tags": {"addr:city": "Brașov", "addr:housenumber": "8", "addr:postcode": "500063", "addr:street": "Strada Școlii", "amenity": "hospital", "description": "CLINICCO singurul spital privat cunoscut in intreaga tara specializat in cardiologie interventionala, chirurgie cardiovasculara si ortopedie-traumatologie.", "email": "office@clinicco.ro", "emergency": "yes", "healthcare": "hospital", "name": "Spital Clinicco", "opening_hours": "Mo-Fr 08:30-18:30; Sa 10:00-15:00; Su 12:00-17:00", "phone": "+40 268 401200", "source": "Survey 2013", "website": "https://www.clinicco.ro/"}}, {"name": "Spitalul Sf. Constantin", "latitude": 45.6076953, "longitude": 25.6530705, "source": "osm", "_tags": {"addr:city": "Brașov", "addr:housenumber": "318", "addr:street": "Calea București", "amenity": "hospital", "healthcare": "hospital", "name": "Spitalul Sf. Constantin"}}, {"name": "Dispensar policlinic Predeal", "latitude": 45.5088504, "longitude": 25.5740897, "source": "osm", "_tags": {"addr:city": "Predeal", "amenity": "hospital", "healthcare": "hospital", "name": "Dispensar policlinic Predeal"}}, {"name": "Pediatrie", "latitude": 45.8417856, "longitude": 24.9593017, "source": "osm", "_tags": {"amenity": "hospital", "emergency": "yes", "healthcare": "hospital", "name": "Pediatrie"}}, {"name": "Dispensar medical", "latitude": 45.4416061, "longitude": 25.5528798, "source": "osm", "_tags": {"amenity": "hospital", "name": "Dispensar medical", "name:en": "Medical (not permanent)", "name:ro": "Dispensar medical"}}, {"name": "Spitalul Clinic de Psihiatrie si Neurologie Brasov", "latitude": 45.6381442, "longitude": 25.5848518, "source": "osm", "_tags": {"amenity": "hospital", "healthcare": "hospital", "healthcare:speciality": "neurology;psychiatry", "name": "Spitalul Clinic de Psihiatrie si Neurologie Brasov"}}, {"name": "Unitatea de Asistență Medico-Socială de Pneumoftiziologie Sânpetru", "latitude": 45.7220405, "longitude": 25.6481657, "source": "osm", "_tags": {"addr:city": "Sânpetru", "addr:housenumber": "443A", "addr:postcode": "507190", "addr:street": "Strada Meschendorfer", "amenity": "hospital", "emergency": "no", "healthcare": "hospital", "healthcare:speciality": "Pneumology", "name": "Unitatea de Asistență Medico-Socială de Pneumoftiziologie Sânpetru"}}, {"name": "Spitalul Municipal Codlea", "latitude": 45.7026941, "longitude": 25.4471683, "source": "osm", "_tags": {"amenity": "hospital", "healthcare": "hospital", "hospital_type": "spital municipal", "name": "Spitalul Municipal Codlea", "name:ro": "Spitalul Municipal Codlea", "reviewed": "no"}}, {"name": "Spitalul Municipal Săcele", "latitude": 45.6108675, "longitude": 25.7173654, "source": "osm", "_tags": {"addr:housenumber": "54", "addr:postcode": "505600", "addr:street": "Strada Oituz", "amenity": "hospital", "name": "Spitalul Municipal Săcele", "name:en": "Săcele County Hospital", "opening_hours": "24/7", "website": "https://www.spitalulmunicipalsacele.ro/"}}, {"name": "Centrul de Permanență MEDFAM Astra", "latitude": 45.6451144, "longitude": 25.6279128, "source": "osm", "_tags": {"addr:city": "Brașov", "addr:housenumber": "7", "addr:postcode": "500331", "addr:street": "Strada Aurora", "amenity": "hospital", "emergency": "yes", "healthcare": "hospital", "healthcare:speciality": "general", "name": "Centrul de Permanență MEDFAM Astra", "phone": "+40734749553"}}, {"name": "", "latitude": 45.8637497, "longitude": 25.784383, "source": "osm", "_tags": {"amenity": "hospital", "building": "yes", "healthcare": "hospital"}}, {"name": "Spitalul Municipal Odorheiu Secuiesc", "latitude": 46.3076478, "longitude": 25.3013522, "source": "osm", "_tags": {"addr:city": "Odorheiu Secuiesc", "addr:postcode": "535600", "amenity": "hospital", "emergency": "yes", "healthcare": "hospital", "name": "Spitalul Municipal Odorheiu Secuiesc", "name:hu": "Székelyudvarhelyi Városi Kórház", "name:ro": "Spitalul Municipal Odorheiu Secuiesc", "website": "http://hospital-odorhei.ro/"}}, {"name": "", "latitude": 45.7026775, "longitude": 25.4473833, "source": "osm", "_tags": {"addr:city": "Codlea", "amenity": "hospital", "healthcare": "hospital"}}, {"name": "Spitalul Municipal Codlea", "latitude": 45.7026216, "longitude": 25.4472643, "source": "osm", "_tags": {"addr:city": "Codlea", "amenity": "hospital", "building": "yes", "healthcare": "hospital", "name": "Spitalul Municipal Codlea"}}, {"name": "Spitalul Tractorul", "latitude": 45.6654548, "longitude": 25.6079899, "source": "osm", "_tags": {"addr:city": "Brașov", "addr:housenumber": "2", "addr:postcode": "500152", "addr:street": "Strada Olteț", "amenity": "hospital", "building": "yes", "healthcare": "hospital", "name": "Spitalul Tractorul"}}, {"name": "Dispensarul medical Părău", "latitude": 45.848774, "longitude": 25.1919682, "source": "osm", "_tags": {"addr:city": "Părău", "addr:postcode": "507155", "addr:street": "Strada Mihai Eminescu", "amenity": "hospital", "building": "yes", "name": "Dispensarul medical Părău"}}, {"name": "Spitalul Clinic de Pneumoftiziologie Brașov - Pavilionul I", "latitude": 45.6430099, "longitude": 25.5738039, "source": "osm", "_tags": {"addr:city": "Brașov", "addr:housenumber": "12", "addr:postcode": "500193", "addr:street": "Aleea Dealul Spirii", "amenity": "hospital", "building": "yes", "email": "manager@pneumologie.ro", "name": "Spitalul Clinic de Pneumoftiziologie Brașov - Pavilionul I", "opening_hours": "24/7", "phone": "0268477011", "source": "Bing, survey", "website": "http://www.pneumologie.ro"}}, {"name": "Spitalul clinic de ginecologie Dr. Ioan Aurel Sbârcea - Brașov", "latitude": 45.6408175, "longitude": 25.5848056, "source": "osm", "_tags": {"addr:city": "Brașov", "addr:housenumber": "36", "addr:street": "Strada George Barițiu", "alt_name": "Maternitatea Brașov", "amenity": "hospital", "building": "yes", "name": "Spitalul clinic de ginecologie Dr. Ioan Aurel Sbârcea - Brașov", "source": "Bing, survey"}}, {"name": "Spitalul Municipal \"Dr. Aurel Tulbure\" Făgăraș", "latitude": 45.8408117, "longitude": 24.9582943, "source": "osm", "_tags": {"addr:city": "Făgăraș", "addr:housenumber": "1", "addr:postcode": "505200", "addr:street": "Strada Ghioceilor", "amenity": "hospital", "building": "yes", "emergency": "yes", "healthcare": "hospital", "name": "Spitalul Municipal \"Dr. Aurel Tulbure\" Făgăraș"}}, {"name": "Maternitate", "latitude": 45.841799, "longitude": 24.9593128, "source": "osm", "_tags": {"amenity": "hospital", "building": "yes", "healthcare": "hospital", "name": "Maternitate"}}, {"name": "Spitalul de Boli Infecțioase", "latitude": 45.6566636, "longitude": 25.5975395, "source": "osm", "_tags": {"amenity": "hospital", "building": "yes", "healthcare": "hospital", "name": "Spitalul de Boli Infecțioase", "source:geometry": "bing"}}, {"name": "Spitalul MedLife Brașov", "latitude": 45.6650403, "longitude": 25.6126414, "source": "osm", "_tags": {"addr:city": "Brașov", "addr:housenumber": "5-5A", "addr:street": "Strada Turnului", "alt_name": "Hyperclinica MedLife PDR Turnului Brașov", "amenity": "hospital", "building": "yes", "healthcare": "hospital", "name": "Spitalul MedLife Brașov"}}, {"name": "Secția Oto-Rino-Laringologie, Secția Recuperare, Medicină Fizică și Balneologie", "latitude": 46.3550699, "longitude": 25.8044905, "source": "osm", "_tags": {"addr:city": "Miercurea Ciuc", "addr:housenumber": "5", "addr:street": "Strada Szász Endre", "amenity": "hospital", "building": "hospital", "building:colour": "#bb8e65", "building:levels": "2", "healthcare": "hospital", "healthcare:speciality": "otolaryngology", "height": "12", "name": "Secția Oto-Rino-Laringologie, Secția Recuperare, Medicină Fizică și Balneologie", "name:hu": "Fül-orr-gégészeti osztály, Rehabilitáció, Fizioterápia és Balneológia osztály", "name:short": "SJU M-Ciuc", "operator": "Spitalul Județean de Urgență Miercurea Ciuc", "operator:hu": "Csíkszeredai Megyei Sürgősségi Kórház", "operator:type": "public", "phone": "+40372753 143", "roof:height": "4", "roof:shape": "hipped", "website": "http://www.spitalmciuc.ro/index.php/ro/osztalyaink/ful-orr-gegeszeti-osztaly"}}, {"name": "Centrul de Permanență Medfam Astra Grup Brașov", "latitude": 45.6450576, "longitude": 25.6280195, "source": "osm", "_tags": {"addr:city": "Brașov", "addr:housenumber": "7", "addr:postcode": "500331", "addr:street": "Strada Aurora", "amenity": "hospital", "building": "yes", "emergency": "yes", "healthcare": "hospital", "healthcare:speciality": "general", "name": "Centrul de Permanență Medfam Astra Grup Brașov"}}, {"name": "Spitalul Sfântul Constantin", "latitude": 45.6509555, "longitude": 25.60649, "source": "osm", "_tags": {"addr:city": "Brașov", "addr:housenumber": "49", "addr:postcode": "500091", "addr:street": "Strada Iuliu Maniu", "amenity": "hospital", "building": "yes", "building:levels": "5", "healthcare": "hospital", "name": "Spitalul Sfântul Constantin", "name:en": "St. Constantin Hospital", "operator": "Regina Maria", "website": "https://www.spitalulsfconstantin.ro/"}}, {"name": "Pavilionul III", "latitude": 45.6444713, "longitude": 25.5738498, "source": "osm", "_tags": {"addr:city": "Brașov", "addr:housenumber": "12", "addr:postcode": "500193", "addr:street": "Aleea Dealul Spirii", "amenity": "hospital", "building": "yes", "name": "Pavilionul III", "operator": "Spitalul Clinic de Pneumoftiziologie Brașov", "source": "Bing, survey"}}, {"name": "Spitalul Mârzescu Secția de Oncologie", "latitude": 45.6523576, "longitude": 25.5977044, "source": "osm", "_tags": {"amenity": "hospital", "building": "yes", "healthcare": "hospital", "name": "Spitalul Mârzescu Secția de Oncologie", "source": "http://www.pug-puz.ro/;legea544/5001"}}, {"name": "Pavilionul VI", "latitude": 45.6443917, "longitude": 25.5758716, "source": "osm", "_tags": {"addr:city": "Brașov", "addr:housenumber": "4", "addr:postcode": "500193", "addr:street": "Strada Gusztav Kollar", "amenity": "hospital", "building": "yes", "name": "Pavilionul VI", "operator": "Spitalul Clinic de Pneumoftiziologie Brașov", "source": "Bing, survey"}}, {"name": "Spitalul de Pneumoftiziologie", "latitude": 45.6522644, "longitude": 25.5984743, "source": "osm", "_tags": {"amenity": "hospital", "building": "yes", "healthcare": "hospital", "name": "Spitalul de Pneumoftiziologie", "source": "http://www.pug-puz.ro/ ; legea544/2001"}}, {"name": "Pavilionul II", "latitude": 45.6436414, "longitude": 25.5731142, "source": "osm", "_tags": {"addr:city": "Brașov", "addr:housenumber": "12", "addr:postcode": "500193", "addr:street": "Aleea Dealul Spirii", "amenity": "hospital", "building": "yes", "name": "Pavilionul II", "operator": "Spitalul Clinic de Pneumoftiziologie Brașov", "source": "Bing, survey"}}, {"name": "Spitalul Mârzescu", "latitude": 45.6519937, "longitude": 25.5966845, "source": "osm", "_tags": {"amenity": "hospital", "building": "yes", "healthcare": "hospital", "name": "Spitalul Mârzescu", "source": "http://www.pug-puz.ro/;legea544/2001"}}, {"name": "Pavilionul V", "latitude": 45.644676, "longitude": 25.5759996, "source": "osm", "_tags": {"addr:city": "Brașov", "addr:housenumber": "4", "addr:postcode": "500193", "addr:street": "Strada Gusztav Kollar", "amenity": "hospital", "building": "yes", "name": "Pavilionul V", "operator": "Spitalul Clinic de Pneumoftiziologie Brașov", "source": "Bing, survey"}}, {"name": "Medlife - OncoCard", "latitude": 45.6560435, "longitude": 25.575738, "source": "osm", "_tags": {"amenity": "hospital", "building": "yes", "healthcare": "hospital", "healthcare:speciality": "oncology;haematology;radiotherapy;diagnostic_radiology;radiology", "name": "Medlife - OncoCard", "source": "http://www.pug-puz.ro/;legea544/2001"}}, {"name": "Spital de ortopedie si traumatologie Azuga", "latitude": 45.4265631, "longitude": 25.5543775, "source": "osm", "_tags": {"addr:city": "Azuga", "addr:housenumber": "2", "addr:postcode": "105500", "addr:street": "Strada Victoriei", "amenity": "hospital", "contact:phone": "112", "emergency": "no", "healthcare": "hospital", "name": "Spital de ortopedie si traumatologie Azuga", "phone": "+40244322051", "website": "http://www.ortopedieazuga.ro/"}}, {"name": "Spitalul Orasenesc “Dr. Caius Tiberiu Sparchez\"", "latitude": 45.5705234, "longitude": 25.3366622, "source": "osm", "_tags": {"addr:city": "Zărnești", "addr:housenumber": "12", "addr:postcode": "505800", "addr:street": "Strada Policlinicii", "amenity": "hospital", "building": "yes", "emergency": "yes", "healthcare": "hospital", "healthcare:speciality": "paediatrics;internal_medicine;gynaecology;neonatology;pulmonology;geriatrics;surgery;general", "name": "Spitalul Orasenesc “Dr. Caius Tiberiu Sparchez\""}}, {"name": "", "latitude": 46.0734407, "longitude": 25.5910051, "source": "osm", "_tags": {"amenity": "hospital", "healthcare": "hospital"}}, {"name": "Spitalul de Psihiatrie Sânpetru", "latitude": 45.7286814, "longitude": 25.6261694, "source": "osm", "_tags": {"addr:city": "Sânpetru", "addr:housenumber": "2-8", "addr:street": "Strada Poieniței", "amenity": "hospital", "email": "contact@centrulmaria.ro;programari@centrulmaria.ro", "healthcare": "hospital", "healthcare:speciality": "psychiatry", "name": "Spitalul de Psihiatrie Sânpetru", "phone": "+40 268 309 300;+40 729 550 790;+40 732 733 334", "website": "https://centrulmaria.ro/"}}, {"name": "SJU M-Ciuc: Secțiile Dermatovenerologie, Psihiatrie, Oftalmologie", "latitude": 46.3566466, "longitude": 25.8015296, "source": "osm", "_tags": {"addr:city": "Miercurea Ciuc", "addr:housenumber": "1", "addr:street": "Strada Nicolae Bălcescu", "amenity": "hospital", "barrier": "fence", "emergency": "no", "fence_type": "metal", "healthcare": "hospital", "healthcare:speciality": "psychiatry;orthodontics;gynaecology", "name": "SJU M-Ciuc: Secțiile Dermatovenerologie, Psihiatrie, Oftalmologie", "name:hu": "Bőr- és nemigyógyászati osztály, Elmegyógyászati osztály, Szemészeti osztály", "operator": "Spitalul Județean de Urgență Miercurea Ciuc", "operator:hu": "Csíkszeredai Megyei Sürgősségi Kórház", "operator:type": "public", "phone": "+40372748259", "website": "http://www.spitalmciuc.ro/index.php/ro/osztalyaink/bor-es-nemigyogyaszati-osztaly"}}, {"name": "SJU M-Ciuc: Secțiile Boli Infecțioase, Pneumologie", "latitude": 46.3776909, "longitude": 25.823548, "source": "osm", "_tags": {"addr:housenumber": "146", "addr:street": "Strada Szék", "amenity": "hospital", "beds": "37", "healthcare": "hospital", "name": "SJU M-Ciuc: Secțiile Boli Infecțioase, Pneumologie", "name:hu": "Csíkszeredai MSK: Fertőző osztály, Tüdőgyógyászati osztály", "operator": "Spitalul Județean de Urgență Miercurea Ciuc", "operator:hu": "Csíkszeredai Megyei Sürgősségi Kórház", "phone": "+40372753145", "website": "http://www.spitalmciuc.ro/index.php/ro/osztalyaink/fertozo-osztaly"}}, {"name": "Centrul de Recuperare și Reabilitare Persoane cu Handicap Canaan", "latitude": 45.8311277, "longitude": 25.1491526, "source": "osm", "_tags": {"addr:city": "Șercaia", "addr:postcode": "507195", "addr:street": "DN1S", "amenity": "hospital", "healthcare": "hospital", "name": "Centrul de Recuperare și Reabilitare Persoane cu Handicap Canaan"}}, {"name": "Spitalul Orășenesc Rupea", "latitude": 46.0374767, "longitude": 25.2207837, "source": "osm", "_tags": {"addr:city": "Rupea", "addr:postcode": "505500", "addr:street": "Strada Republicii", "amenity": "hospital", "building": "yes", "emergency": "yes", "healthcare": "hospital", "name": "Spitalul Orășenesc Rupea"}}, {"name": "Spitalul General C.F.Brasov", "latitude": 45.649016, "longitude": 25.6063561, "source": "osm", "_tags": {"addr:city": "Brașov", "addr:housenumber": "60", "addr:postcode": "500097", "addr:street": "Bulevardul 15 Noiembrie", "amenity": "hospital", "email": "spcfbv@spcfbv.ro", "emergency": "no", "fax": "+40 268 475 268", "healthcare": "hospital", "name": "Spitalul General C.F.Brasov", "name:en": "Railway General Hospital", "name:ro": "Spitalul General C.F.Brasov", "phone": "+40 268 475 949", "website": "https://spcfbv.ro/"}}, {"name": "Spitalul Județean de Urgență \"Dr. Fogolyán Kristóf\"", "latitude": 45.8643312, "longitude": 25.7809555, "source": "osm", "_tags": {"addr:city": "Sfântu Gheorghe", "addr:housenumber": "1-3", "addr:street": "Strada Stadionului", "amenity": "hospital", "emergency": "yes", "healthcare": "hospital", "healthcare:speciality": "general", "name": "Spitalul Județean de Urgență \"Dr. Fogolyán Kristóf\"", "name:hu": "\"Dr. Fogolyán Kristóf\" Megyei Sürgősségi Kórház", "name:ro": "Spitalul Județean de Urgență \"Dr. Fogolyán Kristóf\"", "operator:type": "public", "phone": "+40 267 31 46 44", "website": "https://spitfog.ro/"}}, {"name": "", "latitude": 45.666528, "longitude": 25.405007, "source": "osm", "_tags": {"addr:city": "Colonia 1 Mai", "amenity": "hospital", "building": "yes", "healthcare": "hospital"}}, {"name": "Sanatoriul de nevroze", "latitude": 45.4976411, "longitude": 25.5373934, "source": "osm", "_tags": {"addr:city": "Predeal", "addr:housenumber": "8", "addr:street": "Strada Valea Râșnoavei", "amenity": "hospital", "healthcare": "hospital", "name": "Sanatoriul de nevroze", "phone": "0773 966 412", "website": "https://www.nevroze-predeal.ro/"}}, {"name": "Sanatoriul de nevroze", "latitude": 45.4934317, "longitude": 25.5440379, "source": "osm", "_tags": {"amenity": "hospital", "healthcare": "hospital", "name": "Sanatoriul de nevroze"}}]