[{"name": "", "latitude": 45.8731437, "longitude": 13.0416996, "source": "osm", "_tags": {"amenity": "hospital", "emergency": "no"}}, {"name": "Pronto Soccorso Monfalcone", "latitude": 45.8154951, "longitude": 13.5198196, "source": "osm", "_tags": {"addr:city": "Monfalcone", "addr:housenumber": "1", "addr:postcode": "34074", "addr:street": "Via Luigi Galvani", "amenity": "hospital", "emergency": "emergency_ward_entrance", "entrance": "yes", "healthcare": "hospital", "name": "Pronto Soccorso Monfalcone", "name:en": "Emergency Room Monfalcone"}}, {"name": "Ambulatorio", "latitude": 46.0570193, "longitude": 12.9844709, "source": "osm", "_tags": {"amenity": "hospital", "emergency": "no", "name": "Ambulatorio"}}, {"name": "One Smile centro dentale", "latitude": 45.814351, "longitude": 13.5127757, "source": "osm", "_tags": {"addr:city": "Monfalcone", "addr:housenumber": "60", "addr:postcode": "34074", "addr:street": "Via Primo Maggio", "amenity": "hospital", "email": "info@onesmile.it", "healthcare": "hospital", "healthcare:speciality": "dentistry;dentist;paediatric_dentistry;implantology;endodontics;dental_hygienist", "internet_access": "wlan", "name": "One Smile centro dentale", "operator": "One Smile centro dentale", "operator:type": "business", "wheelchair": "yes"}}, {"name": "ASS 4 - Friuli Centrale", "latitude": 46.2140347, "longitude": 13.2207258, "source": "osm", "_tags": {"addr:city": "Tarcento", "addr:housenumber": "6", "addr:postcode": "33017", "addr:street": "Piazza del Mercato", "amenity": "hospital", "healthcare": "hospital", "name": "ASS 4 - Friuli Centrale", "operator": "ASL", "operator:wikidata": "Q3631467"}}, {"name": "Pronto Soccorso Udine", "latitude": 46.0773643, "longitude": 13.2288534, "source": "osm", "_tags": {"addr:city": "Udine", "addr:housenumber": "1", "addr:postcode": "33100", "addr:street": "Piazzale Santa Maria della Misericordia", "amenity": "hospital", "emergency": "yes", "name": "Pronto Soccorso Udine", "name:it": "Pronto Soccorso Udine", "wheelchair": "yes"}}, {"name": "Pronto Soccorso Ospedale Civile di Latisana", "latitude": 45.7696004, "longitude": 13.0017957, "source": "osm", "_tags": {"addr:city": "Latisana", "addr:housenumber": "45", "addr:postcode": "33053", "addr:street": "Via Sabbionera", "amenity": "hospital", "emergency": "yes", "healthcare": "hospital", "name": "Pronto Soccorso Ospedale Civile di Latisana"}}, {"name": "Punto di Primo Intervento Gemona", "latitude": 46.288039, "longitude": 13.125322, "source": "osm", "_tags": {"addr:city": "Gemona del Friuli", "addr:housenumber": "1", "addr:postcode": "33013", "addr:street": "Piazza Rodolone", "amenity": "hospital", "emergency": "no", "healthcare": "hospital", "name": "Punto di Primo Intervento Gemona", "name:en": "First aid Gemona", "operator": "ASUFC", "operator:type": "public"}}, {"name": "Pronto Soccorso Presidio Ospedaliero Sant'Antonio Abate", "latitude": 46.1548036, "longitude": 13.0089878, "source": "osm", "_tags": {"addr:city": "San Daniele del Friuli", "addr:housenumber": "33", "addr:postcode": "33038", "addr:street": "Viale Trento Trieste", "amenity": "hospital", "emergency": "yes", "name": "Pronto Soccorso Presidio Ospedaliero Sant'Antonio Abate"}}, {"name": "Policlinico Città di Udine Polo 2", "latitude": 46.0552407, "longitude": 13.223203, "source": "osm", "_tags": {"amenity": "hospital", "healthcare": "hospital", "name": "Policlinico Città di Udine Polo 2"}}, {"name": "", "latitude": 45.4328986, "longitude": 13.5248418, "source": "osm", "_tags": {"contact:phone": "+385 52 702222", "healthcare": "hospital", "healthcare:speciality": "emergency", "lastcheck": "2019-08-30", "name:de": "Notaufnahme", "name:en": "Emergency services"}}, {"name": "Ambulatorio", "latitude": 46.3153334, "longitude": 13.1059172, "source": "osm", "_tags": {"amenity": "hospital", "healthcare": "doctor", "name": "Ambulatorio"}}, {"name": "Ingresso Pronto Soccorso Pediatrico", "latitude": 45.6357628, "longitude": 13.7849923, "source": "osm", "_tags": {"amenity": "hospital", "emergency": "yes", "healthcare": "hospital", "healthcare:speciality": "paediatrics", "name": "Ingresso Pronto Soccorso Pediatrico", "operator": "ASU GI", "operator:type": "public"}}, {"name": "ASS 4 - Friuli Centrale", "latitude": 46.2182405, "longitude": 13.2234956, "source": "osm", "_tags": {"addr:city": "Tarcento", "addr:housenumber": "13", "addr:postcode": "33017", "addr:street": "Via Julia", "amenity": "hospital", "healthcare": "hospital", "name": "ASS 4 - Friuli Centrale"}}, {"name": "Csm \"Gambini\"", "latitude": 45.6454736, "longitude": 13.7839652, "source": "osm", "_tags": {"amenity": "hospital", "healthcare": "hospital", "healthcare:speciality": "psychiatry", "name": "Csm \"Gambini\""}}, {"name": "CSM \"La maddalena\"", "latitude": 45.6373932, "longitude": 13.7872841, "source": "osm", "_tags": {"amenity": "hospital", "healthcare": "hospital", "healthcare:speciality": "psychiatry", "name": "CSM \"La maddalena\""}}, {"name": "Casa della Comunità ULSS4", "latitude": 45.7631576, "longitude": 12.9932335, "source": "osm", "_tags": {"amenity": "hospital", "healthcare": "hospital", "name": "Casa della Comunità ULSS4", "operator": "ULSS 4 \"Veneto Orientale\"", "operator:type": "public"}}, {"name": "Ambulatori", "latitude": 46.2420586, "longitude": 13.156562, "source": "osm", "_tags": {"amenity": "hospital", "healthcare": "hospital", "height": "10 m", "it:fvg:ctrn:code": "4AED", "it:fvg:ctrn:revision": "1A0", "name": "Ambulatori"}}, {"name": "Policlinico Città di Udine Polo 1", "latitude": 46.05205, "longitude": 13.2106696, "source": "osm", "_tags": {"amenity": "hospital", "building": "yes", "check_date": "2025-09-27", "emergency": "no", "height": "32 m", "it:fvg:ctrn:code": "4AED", "it:fvg:ctrn:revision": "1A0", "name": "Policlinico Città di Udine Polo 1", "old_name": "Casa di cura Città di Udine"}}, {"name": "ASS4 - Centro territoriale di Tricesimo", "latitude": 46.1584772, "longitude": 13.2246429, "source": "osm", "_tags": {"amenity": "hospital", "building": "yes", "emergency": "no", "height": "2 m", "it:fvg:ctrn:code": "4AED", "it:fvg:ctrn:revision": "1A0", "name": "ASS4 - Centro territoriale di Tricesimo", "name:fur": "ASS4 - Centri teritoriâl di Tresesin"}}, {"name": "Distretto Sanitario ASL n.5 Bassa Friulana", "latitude": 45.9080571, "longitude": 13.312342, "source": "osm", "_tags": {"amenity": "hospital", "building": "hospital", "building:levels": "2", "healthcare": "hospital", "height": "8 m", "it:fvg:ctrn:code": "4AED", "it:fvg:ctrn:revision": "1A0", "name": "Distretto Sanitario ASL n.5 Bassa Friulana", "roof:levels": "0", "wheelchair": "yes"}}, {"name": "Ospedale Civile \"Santa Maria della Misericordia\"", "latitude": 46.078745, "longitude": 13.2280837, "source": "osm", "_tags": {"amenity": "hospital", "emergency": "yes", "healthcare": "hospital", "name": "Ospedale Civile \"Santa Maria della Misericordia\""}}, {"name": "Ospedale San Giovanni di Dio", "latitude": 45.9357301, "longitude": 13.604934, "source": "osm", "_tags": {"addr:city": "Gorizia", "addr:housenumber": "34", "addr:postcode": "34170", "addr:street": "Via Fatebenefratelli", "amenity": "hospital", "emergency": "yes", "healthcare": "hospital", "name": "Ospedale San Giovanni di Dio", "operator": "Azienda sanitaria universitaria Giuliano Isontina (ASUGI)", "website": "https://asugi.sanita.fvg.it/it/presidi-ospedalieri/ospedale-gorizia/mappa/"}}, {"name": "Zdravstveni dom Kobarid", "latitude": 46.2471819, "longitude": 13.5783024, "source": "osm", "_tags": {"addr:city": "Kobarid", "addr:housenumber": "3a", "addr:postcode": "5222", "addr:street": "Trg svobode", "amenity": "hospital", "building": "yes", "healthcare": "hospital", "name": "Zdravstveni dom Kobarid", "note": "apartments", "ref:gurs:hs_mid": "15281952", "ref:gurs:sta_sid": "10147811", "source:addr": "GURS"}}, {"name": "Bolnišnica Sežana", "latitude": 45.7094034, "longitude": 13.8673676, "source": "osm", "_tags": {"addr:city": "Sežana", "addr:country": "SI", "addr:housenumber": "4", "addr:postcode": "6210", "addr:street": "Cankarjeva ulica", "amenity": "hospital", "building": "yes", "email": "bolnica.sezana@siol.net", "fax": "+386 5 7074019", "healthcare": "hospital", "name": "Bolnišnica Sežana", "name:it": "Ospedale di Sesana", "phone": "+386 5 7074000", "website": "http://www.bolnisnica-sezana.si/", "wheelchair": "yes"}}, {"name": "Ospedale San Antonio", "latitude": 46.154825, "longitude": 13.0086119, "source": "osm", "_tags": {"addr:city": "San Daniele del Friuli", "addr:housenumber": "2", "addr:postcode": "33038", "addr:street": "Via Trento Trieste", "amenity": "hospital", "emergency": "yes", "healthcare": "hospital", "name": "Ospedale San Antonio", "operator": "ASUIUD", "operator:type": "public"}}, {"name": "", "latitude": 46.0914456, "longitude": 13.4386765, "source": "osm", "_tags": {"amenity": "hospital", "healthcare": "hospital"}}, {"name": "Casa di Cura Pineta del Carso", "latitude": 45.7509656, "longitude": 13.6870113, "source": "osm", "_tags": {"amenity": "hospital", "email": "info@pinetadelcarso.it", "fax": "+39 040 201170", "healthcare": "hospital", "name": "Casa di Cura Pineta del Carso", "opening_hours": "Mo-Fr 08:00-18:30", "operator": "Pineta del Carso S.p.A.", "phone": "+39 040 3784111", "ref:vatin": "IT00051070324", "website": "http://www.pinetadelcarso.it/"}}, {"name": "Floramare resort zdravja", "latitude": 45.5408164, "longitude": 13.6585877, "source": "osm", "_tags": {"addr:city": "Izola / Isola", "addr:housenumber": "1", "addr:postcode": "6310", "addr:street": "Levstikova ulica", "amenity": "social_facility", "building": "yes", "healthcare": "hospital", "name": "Floramare resort zdravja", "phone": "+386 5 660 05 00", "social_facility": "nursing_home", "social_facility:for": "disabled"}}, {"name": "Pronto Soccorso e Guardia Medica Turistica", "latitude": 45.6817412, "longitude": 13.1204972, "source": "osm", "_tags": {"amenity": "hospital", "building": "hospital", "building:colour": "black", "building:levels": "1", "building:material": "tiles", "healthcare": "hospital", "name": "Pronto Soccorso e Guardia Medica Turistica", "name:de": "Erste-Hilfe-Stelle und Sanitatsdienst Fur Touristen", "name:en": "First Aid Station and Tourist Medical Service", "roof:colour": "grey", "roof:levels": "0", "roof:shape": "flat", "wheelchair": "yes"}}, {"name": "Ospedale San Polo", "latitude": 45.8159639, "longitude": 13.519067, "source": "osm", "_tags": {"amenity": "hospital", "healthcare": "hospital", "name": "Ospedale San Polo", "wheelchair": "yes"}}, {"name": "Valdoltra Ortopedska Bolnišnica / Ospedale ortopedico Valdoltra", "latitude": 45.5809788, "longitude": 13.72782, "source": "osm", "_tags": {"amenity": "hospital", "contact:email": "valdoltra@ob-valdoltra.si", "healthcare": "hospital", "name": "Valdoltra Ortopedska Bolnišnica / Ospedale ortopedico Valdoltra", "phone": "(05) 6696 100", "website": "https://www.ob-valdoltra.si/", "wikidata": "Q7909443", "wikipedia": "en:Valdoltra Orthopedic Hospital"}}, {"name": "Dipartimento di Salute Mentale A.S.S. 4", "latitude": 46.0348122, "longitude": 13.2223734, "source": "osm", "_tags": {"amenity": "hospital", "healthcare": "hospital", "name": "Dipartimento di Salute Mentale A.S.S. 4"}}, {"name": "Ospedale Maggiore", "latitude": 45.6494989, "longitude": 13.7820718, "source": "osm", "_tags": {"addr:city": "Trieste", "addr:housenumber": "1", "addr:street": "Piazza dell'Ospitale", "amenity": "hospital", "check_date": "2025-04-03", "emergency": "yes", "healthcare": "hospital", "name": "Ospedale Maggiore", "operator": "Azienda Sanitaria Universitaria Integrata di Trieste"}}, {"name": "Distretto Sanitario Codroipo", "latitude": 45.961852, "longitude": 12.9956812, "source": "osm", "_tags": {"amenity": "hospital", "emergency": "no", "healthcare": "hospital", "name": "Distretto Sanitario Codroipo"}}, {"name": "Splošna bolnišnica »Dr. Franca Derganca« Nova Gorica", "latitude": 45.9314871, "longitude": 13.6415612, "source": "osm", "_tags": {"addr:city": "Šempeter pri Gorici", "addr:housenumber": "13A", "addr:postcode": "5290", "addr:street": "Ulica padlih borcev", "amenity": "hospital", "emergency": "yes", "healthcare": "hospital", "healthcare:speciality": "ophthalmology;orthopaedics;gynaecology;surgery;paediatrics;emergency;cardiology;geriatrics;radiology;internal", "name": "Splošna bolnišnica »Dr. Franca Derganca« Nova Gorica", "website": "https://www.bolnisnica-go.si/"}}, {"name": "Ospedale di Cattinara", "latitude": 45.6335921, "longitude": 13.8269417, "source": "osm", "_tags": {"addr:city": "Trieste", "addr:housenumber": "447", "addr:postcode": "34149", "addr:street": "Strada di Fiume", "amenity": "hospital", "emergency": "yes", "healthcare": "hospital", "name": "Ospedale di Cattinara", "name:sl": "Bolnišnica na Katinari", "operator": "Ospedali Riuniti", "operator:type": "public", "start_date": "1984-03-19", "website": "https://asugi.sanita.fvg.it/it/presidi-ospedalieri/ospedale-cattinara/", "wikidata": "Q30279696", "wikipedia": "it:Ospedale di Cattinara"}}, {"name": "IRCCS Materno Infantile Burlo Garofolo", "latitude": 45.6359419, "longitude": 13.7847928, "source": "osm", "_tags": {"amenity": "hospital", "healthcare": "hospital", "loc_name": "Burlo", "name": "IRCCS Materno Infantile Burlo Garofolo", "wikidata": "Q4999310", "wikipedia": "it:Ospedale infantile Burlo Garofolo"}}, {"name": "Sanatorio Triestino", "latitude": 45.6461617, "longitude": 13.7894871, "source": "osm", "_tags": {"amenity": "hospital", "emergency": "no", "healthcare": "hospital", "healthcare:speciality": "general", "name": "Sanatorio Triestino", "old_name": "Sanatorio Tergestino", "website": "http://sanatoriotriestino.it/"}}, {"name": "Istituto di Medicina Fisica e di Riabilitazione \"Gervasutta\"", "latitude": 46.0495519, "longitude": 13.2374329, "source": "osm", "_tags": {"amenity": "hospital", "healthcare": "hospital", "name": "Istituto di Medicina Fisica e di Riabilitazione \"Gervasutta\"", "old_operator": "Azienda per i Servizi Sanitari n. 4 Medio Friuli", "operator": "Azienda Sanitaria Universitaria Integrata di Udine"}}, {"name": "Ospedale Civile Sant’Antonio Abate di Tolmezzo", "latitude": 46.4059041, "longitude": 13.0060995, "source": "osm", "_tags": {"amenity": "hospital", "healthcare": "hospital", "name": "Ospedale Civile Sant’Antonio Abate di Tolmezzo"}}, {"name": "Ospedale Civile di Palmanova", "latitude": 45.9083365, "longitude": 13.3365933, "source": "osm", "_tags": {"amenity": "hospital", "emergency": "yes", "healthcare": "hospital", "healthcare:speciality": "general", "name": "Ospedale Civile di Palmanova", "name:fur": "Ospedâl di Palme", "name:it": "Ospedale Civile di Palmanova", "wikipedia": "it:Ospedale civile di Palmanova"}}, {"name": "Clinica Santa Eufemia - Grado Medical Center", "latitude": 45.6787546, "longitude": 13.3831631, "source": "osm", "_tags": {"addr:city": "Grado", "addr:housenumber": "2", "addr:postcode": "34073", "addr:street": "Via Conte di Grado", "amenity": "hospital", "contact:facebook": "https://m.facebook.com/100067090510472/", "contact:instagram": "https://www.instagram.com/clinica.santaeufemia/", "contact:phone": "+39 0431 476512", "contact:website": "https://www.clinicasantaeufemia.it/", "healthcare": "hospital", "name": "Clinica Santa Eufemia - Grado Medical Center"}}, {"name": "Pronto Soccorso Bibione", "latitude": 45.6454796, "longitude": 13.0539164, "source": "osm", "_tags": {"amenity": "hospital", "check_date": "2024-10-09", "emergency": "yes", "healthcare": "hospital", "healthcare:speciality": "emergency", "name": "Pronto Soccorso Bibione", "wheelchair": "yes"}}, {"name": "", "latitude": 46.0519274, "longitude": 13.210414, "source": "osm", "_tags": {"amenity": "hospital", "healthcare": "hospital"}}, {"name": "", "latitude": 45.5443284, "longitude": 13.6877384, "source": "osm", "_tags": {"amenity": "hospital", "healthcare": "hospital"}}, {"name": "Ospedale civile di Latisana", "latitude": 45.7694133, "longitude": 13.0028082, "source": "osm", "_tags": {"addr:city": "Latisana", "addr:housenumber": "45", "addr:postcode": "33053", "addr:street": "Via Sabbionera", "amenity": "hospital", "contact:email": "asufc@certsanita.fvg.it", "contact:fax": "+39 0431 520478", "contact:phone": "+39 0431 529111", "contact:website": "https://asufc.sanita.fvg.it/it/presidi-ospedalieri/ospedale_latisana_palmanova/", "healthcare": "hospital", "name": "Ospedale civile di Latisana"}}, {"name": "", "latitude": 45.7837356, "longitude": 13.0041009, "source": "osm", "_tags": {"amenity": "hospital", "healthcare": "hospital"}}, {"name": "Ospedale Civile San Michele", "latitude": 46.2885561, "longitude": 13.1248025, "source": "osm", "_tags": {"addr:city": "Gemona del Friuli", "addr:housenumber": "2", "addr:postcode": "33013", "addr:street": "Piazza Rodolone", "amenity": "hospital", "emergency": "no", "healthcare": "hospital", "it:fvg:ctrn:code": "4AED", "it:fvg:ctrn:revision": "1AM", "name": "Ospedale Civile San Michele", "operator": "ASUFC", "operator:type": "public", "website": "https://asufc.sanita.fvg.it/it/presidi-ospedalieri/ospedale_imfr_gemona/"}}, {"name": "", "latitude": 45.8942155, "longitude": 13.4971743, "source": "osm", "_tags": {"amenity": "hospital", "healthcare": "hospital"}}, {"name": "Distretto sociosanitario della Carnia", "latitude": 46.4068922, "longitude": 13.0103825, "source": "osm", "_tags": {"addr:city": "Tolmezzo", "addr:housenumber": "3c", "addr:postcode": "33028", "addr:street": "Via Dante Alighieri", "amenity": "hospital", "emergency": "no", "healthcare": "hospital", "name": "Distretto sociosanitario della Carnia", "operator": "ASU - Friuli Centrale", "operator:type": "public"}}, {"name": "Ospedale vecchio di Gorizia", "latitude": 45.9350128, "longitude": 13.6343677, "source": "osm", "_tags": {"amenity": "hospital", "healthcare": "hospital", "name": "Ospedale vecchio di Gorizia"}}, {"name": "Ospedale Civile di Cormons", "latitude": 45.9598372, "longitude": 13.4615457, "source": "osm", "_tags": {"amenity": "hospital", "building": "yes", "healthcare": "hospital", "height": "25 m", "it:fvg:ctrn:code": "4AED", "name": "Ospedale Civile di Cormons", "type": "multipolygon"}}, {"name": "Ospedale Civile di Palmanova", "latitude": 45.9089489, "longitude": 13.3364983, "source": "osm", "_tags": {"amenity": "hospital", "emergency": "yes", "name": "Ospedale Civile di Palmanova", "name:fur": "Ospedâl Civîl di Palme", "type": "site"}}, {"name": "Ospedale Civile di Cividale", "latitude": 46.0914456, "longitude": 13.4386765, "source": "osm", "_tags": {"amenity": "hospital", "disused:emergency": "yes", "healthcare": "hospital", "name": "Ospedale Civile di Cividale", "type": "site"}}, {"name": "Ospedale San Giovanni di Dio", "latitude": 45.9357301, "longitude": 13.604934, "source": "osm", "_tags": {"amenity": "hospital", "emergency": "yes", "name": "Ospedale San Giovanni di Dio", "type": "site"}}]