[{"name": "Erzsébet Kórház", "latitude": 46.4133021, "longitude": 20.3140873, "source": "osm", "_tags": {"amenity": "hospital", "emergency": "yes", "healthcare": "hospital", "name": "Erzsébet Kórház", "toilets:wheelchair": "yes", "wheelchair": "yes"}}, {"name": "Dr. Diósszilágyi Sámuel Kórház", "latitude": 46.2174713, "longitude": 20.4658872, "source": "osm", "_tags": {"amenity": "hospital", "name": "Dr. Diósszilágyi Sámuel Kórház", "wheelchair": "limited"}}, {"name": "Jugolab Bečej", "latitude": 45.6155679, "longitude": 20.0454989, "source": "osm", "_tags": {"addr:city": "Bečej", "addr:housenumber": "68", "addr:postcode": "21220", "addr:street": "Зелена", "amenity": "hospital", "name": "Jugolab Bečej", "name:en": "Jugolab Becej", "phone": "+381 (021) 6915-341", "ref:RS:kucni_broj": "4244531", "website": "https://www.jugolab.rs/"}}, {"name": "Дечји диспанзер", "latitude": 45.6208476, "longitude": 20.0372354, "source": "osm", "_tags": {"amenity": "hospital", "healthcare": "hospital", "int_name": "Decji dispanzer", "name": "Дечји диспанзер", "name:hu": "Gyermekgyógyászat", "name:sr": "Дечји диспанзер", "name:sr-Latn": "Dečji dispanzer"}}, {"name": "Амбуланта", "latitude": 45.6280996, "longitude": 20.0291415, "source": "osm", "_tags": {"amenity": "hospital", "name": "Амбуланта", "name:en": "Ambulanta", "name:hu": "Egészségügyi Rendelő", "name:sr": "Амбуланта", "name:sr-Latn": "Ambulanta"}}, {"name": "Јодна бања", "latitude": 45.6145807, "longitude": 20.0522793, "source": "osm", "_tags": {"amenity": "hospital", "int_name": "Jodna banja", "name": "Јодна бања", "name:hu": "Jódfürdő", "name:sr": "Јодна бања", "name:sr-Latn": "Jodna banja"}}, {"name": "Поликлиника Шарац", "latitude": 45.6276092, "longitude": 20.0240634, "source": "osm", "_tags": {"amenity": "hospital", "int_name": "Poliklinika Sarac", "name": "Поликлиника Шарац", "name:hu": "Šarac poliklinika", "name:sr": "Поликлиника Шарац", "name:sr-Latn": "Poliklinika Šarac"}}, {"name": "Поликлиника Зрнић", "latitude": 45.614143, "longitude": 20.0497742, "source": "osm", "_tags": {"amenity": "hospital", "int_name": "Poliklinika Zrnic", "name": "Поликлиника Зрнић", "name:hu": "Zrnić poliklinika", "name:sr": "Поликлиника Зрнић", "name:sr-Latn": "Poliklinika Zrnić"}}, {"name": "", "latitude": 45.5159429, "longitude": 20.3169376, "source": "osm", "_tags": {"amenity": "hospital"}}, {"name": "", "latitude": 46.3156731, "longitude": 20.8166568, "source": "osm", "_tags": {"healthcare": "hospital"}}, {"name": "Spitalul Dr. Karl Diel Jimbolia", "latitude": 45.7823797, "longitude": 20.7155477, "source": "osm", "_tags": {"amenity": "hospital", "hospital_type": "spital orasenesc", "name": "Spitalul Dr. Karl Diel Jimbolia", "name:ro": "Spitalul Dr. Karl Diel Jimbolia", "reviewed": "no"}}, {"name": "Spitalul Orasenesc Sannicolau Mare", "latitude": 46.0681538, "longitude": 20.6361536, "source": "osm", "_tags": {"amenity": "hospital", "hospital_type": "spital orasenesc", "name": "Spitalul Orasenesc Sannicolau Mare", "name:ro": "Spitalul Orasenesc Sannicolau Mare", "reviewed": "no"}}, {"name": "Дом здравља Кикинда - Хитна служба", "latitude": 45.8357958, "longitude": 20.4759617, "source": "osm", "_tags": {"addr:floor": "G,1", "addr:housenumber": "106", "addr:street": "Краља Петра првог", "amenity": "hospital", "check_date": "2023-09-30", "emergency": "yes", "healthcare": "hospital", "healthcare:speciality": "emergency;dentist;dentistry", "int_name": "Dom zdravlja Kikinda - Hitna sluzba", "internet_access": "no", "level": "0", "name": "Дом здравља Кикинда - Хитна служба", "operator": "Министарство здравља Републике Србије", "operator:type": "government", "payment:cards": "no", "payment:credit_cards": "no", "payment:debit_cards": "no", "phone": "+381 230 423649", "source": "survey", "wheelchair": "yes"}}, {"name": "Геронтолошки центар Кикинда", "latitude": 45.8303874, "longitude": 20.472185, "source": "osm", "_tags": {"healthcare": "hospital", "healthcare:speciality": "geriatrics", "int_name": "Gerontoloski centar Kikinda", "name": "Геронтолошки центар Кикинда"}}, {"name": "Општа болница", "latitude": 45.9166156, "longitude": 20.093526, "source": "osm", "_tags": {"addr:city": "Senta", "addr:country": "RS", "addr:housenumber": "64", "addr:postcode": "24400", "addr:street": "Карађорђева", "amenity": "hospital", "email": "office@hospitalsenta.rs", "fax": "+38124811577", "healthcare": "hospital", "int_name": "Opsta bolnica", "name": "Општа болница", "name:hu": "Dr.Gerő István Ált.Kórház", "name:sr": "Општа болница", "name:sr-Latn": "Opšta bolnica", "operator:type": "government", "phone": "+38124815111", "ref:RS:kucni_broj": "6453921", "website": "https://hospitalsenta.rs/"}}, {"name": "Gyermekgyógyászati Klinika és Gyermekegészségügyi Központ", "latitude": 46.2451133, "longitude": 20.1494276, "source": "osm", "_tags": {"amenity": "hospital", "building": "yes", "healthcare": "clinic", "healthcare:speciality": "paediatrics", "name": "Gyermekgyógyászati Klinika és Gyermekegészségügyi Központ"}}, {"name": "Fül- Orr- Gégészeti és Fej- Nyaksebészeti Klinika", "latitude": 46.2453234, "longitude": 20.1487676, "source": "osm", "_tags": {"addr:city": "Szeged", "addr:housenumber": "111", "addr:postcode": "6725", "addr:street": "Tisza Lajos körút", "amenity": "hospital", "building": "hospital", "check_date": "2025-02-28", "healthcare": "hospital", "healthcare:speciality": "otolaryngology;surgery", "name": "Fül- Orr- Gégészeti és Fej- Nyaksebészeti Klinika", "website": "http://www.klinikaikozpont.u-szeged.hu/orl/"}}, {"name": "Újklinika", "latitude": 46.2446805, "longitude": 20.1472566, "source": "osm", "_tags": {"addr:city": "Szeged", "addr:housenumber": "6", "addr:postcode": "6725", "addr:street": "Semmelweis utca", "amenity": "hospital", "building": "hospital", "building:levels": "6", "healthcare": "hospital", "name": "Újklinika", "operator": "Szegedi Tudományegyetem Általános Orvostudományi Kar Szent-Györgyi Albert Klinikai Központ", "wheelchair": "yes"}}, {"name": "Szülészeti és Nőgyógyászati Klinika", "latitude": 46.2461168, "longitude": 20.1472171, "source": "osm", "_tags": {"amenity": "hospital", "building": "hospital", "building:levels": "5", "healthcare": "hospital", "healthcare:speciality": "gynaecology", "name": "Szülészeti és Nőgyógyászati Klinika", "website": "http://www.klinikaikozpont.u-szeged.hu/obgyn/hu/"}}, {"name": "Szent-Györgyi Albert Klinikai Központ", "latitude": 46.2541372, "longitude": 20.1255814, "source": "osm", "_tags": {"alt_name": "II. kórház", "amenity": "hospital", "contact:website": "https://u-szeged.hu/szakk", "healthcare": "hospital", "name": "Szent-Györgyi Albert Klinikai Központ", "operator": "Szegedi Tudományegyetem"}}, {"name": "Jugolab Senta", "latitude": 45.9214877, "longitude": 20.0915281, "source": "osm", "_tags": {"addr:city": "Општина Сента", "addr:housenumber": "44", "addr:postcode": "24400", "addr:street": "Július 7", "amenity": "hospital", "name": "Jugolab Senta", "phone": "+381 (024) 815-424", "website": "https://www.jugolab.rs/"}}, {"name": "Медицински центар", "latitude": 46.0416456, "longitude": 20.0999781, "source": "osm", "_tags": {"amenity": "hospital", "healthcare": "hospital", "int_name": "Medicinski centar", "name": "Медицински центар", "name:sr": "Медицински центар", "name:sr-Latn": "Medicinski centar"}}, {"name": "Újszegedi Gyermekkórház", "latitude": 46.2443546, "longitude": 20.1615433, "source": "osm", "_tags": {"addr:city": "Szeged", "addr:housenumber": "35-37", "addr:postcode": "6726", "addr:street": "Temesvári körút", "amenity": "hospital", "barrier": "fence", "healthcare": "hospital", "name": "Újszegedi Gyermekkórház", "official_name": "Gyermekgyógyászati Klinika és Gyermekegészségügyi Központ \"B\" részlege"}}, {"name": "Intenzív osztály", "latitude": 46.2479531, "longitude": 20.1506701, "source": "osm", "_tags": {"building": "hospital", "healthcare": "hospital", "healthcare:speciality": "intensive", "name": "Intenzív osztály"}}, {"name": "Petri Gábor Klinikai Tömb", "latitude": 46.2438411, "longitude": 20.146816, "source": "osm", "_tags": {"addr:city": "Szeged", "addr:housenumber": "8", "addr:postcode": "6725", "addr:street": "Semmelweis utca", "amenity": "hospital", "building": "hospital", "building:levels": "4", "fixme": "Redraw using recent imagery", "healthcare": "hospital", "name": "Petri Gábor Klinikai Tömb", "operator": "Szegedi Tudományegyetem Általános Orvostudományi Kar Szent-Györgyi Albert Klinikai Központ", "start_date": "2015", "wheelchair": "yes"}}, {"name": "Szent Györgyi Albert Klinikai Központ", "latitude": 46.2475147, "longitude": 20.1500077, "source": "osm", "_tags": {"amenity": "hospital", "check_date": "2025-02-28", "fixme": "exact area and name", "healthcare": "hospital", "name": "Szent Györgyi Albert Klinikai Központ"}}, {"name": "Општа болница Кикинда", "latitude": 45.8331398, "longitude": 20.4789819, "source": "osm", "_tags": {"addr:city": "Кикинда", "addr:country": "RS", "addr:housenumber": "110", "addr:postcode": "23300", "addr:street": "Ђуре Јакшића", "amenity": "hospital", "check_date": "2023-10-02", "email": "bolnica@obki.rs", "emergency": "yes", "fax": "0230422513", "healthcare": "hospital", "healthcare:speciality": "general", "int_name": "Opsta bolnica Kikinda", "name": "Општа болница Кикинда", "name:en": "General Hospital Kikinda", "name:sr": "Општа болница Кикинда", "name:sr-Latn": "Opšta bolnica Kikinda", "operator": "Република Србија", "operator:type": "government", "phone": "0230316288", "ref:RS:kucni_broj": "6475852", "source": "http://www.obki.rs", "website": "https://obki.rs/", "wheelchair": "yes"}}, {"name": "Бања Кањижа", "latitude": 46.0605963, "longitude": 20.0630407, "source": "osm", "_tags": {"addr:postcode": "24420", "addr:street": "Народни парк", "amenity": "hospital", "email": "direktor@banja-kanjiza.com", "fax": "+381244874810", "healthcare": "hospital", "healthcare:speciality": "rehabilitation", "int_name": "Banja Kanjiza", "name": "Бања Кањижа", "name:sr": "Бања Кањижа", "name:sr-Latn": "Banja Kanjiža", "official_name": "Специјална болница за рехабилитацију \"Бања Кањижа\"", "official_name:sr": "Специјална болница за рехабилитацију \"Бања Кањижа\"", "official_name:sr-Latn": "Specijalna blonica za rehabilitaciju \"Banja Kanjiža\"", "operator:type": "government", "phone": "+381244875163", "website": "https://www.banja-kanjiza.rs/"}}, {"name": "Mellkasi Betegek Szakkórháza", "latitude": 46.2172839, "longitude": 20.2373341, "source": "osm", "_tags": {"amenity": "hospital", "name": "Mellkasi Betegek Szakkórháza"}}, {"name": "Fül- orr- gégészeti es Fej- nyaksebészeti Klinika", "latitude": 46.2453668, "longitude": 20.1485916, "source": "osm", "_tags": {"building": "hospital", "check_date": "2025-02-28", "healthcare": "hospital", "healthcare:speciality": "otolaryngology", "name": "Fül- orr- gégészeti es Fej- nyaksebészeti Klinika", "was:amenity": "hospital"}}, {"name": "Purjesz Béla Infektológiai Klinikai és Oktatási Központ", "latitude": 46.2433092, "longitude": 20.1484716, "source": "osm", "_tags": {"amenity": "hospital", "building": "yes", "description": "Nyitva tartás = látogatási idő", "name": "Purjesz Béla Infektológiai Klinikai és Oktatási Központ", "opening_hours": "Mo-Fr 15:00-18:00; Sa-Su,PH 10:00-12:00,15:00-18:00", "operator": "Szegedi Tudományegyetem", "start_date": "2023-02-16"}}, {"name": "Бања Русанда", "latitude": 45.5269723, "longitude": 20.3035785, "source": "osm", "_tags": {"addr:city": "Melenci", "addr:country": "RS", "addr:postcode": "23270", "amenity": "hospital", "email": "office@banjarusanda.rs", "fax": "+38123731075", "healthcare": "hospital", "healthcare:speciality": "rehabilitation", "int_name": "Banja Rusanda", "name": "Бања Русанда", "name:sr": "Бања Русанда", "name:sr-Latn": "Banja Rusanda", "official_name": "Специјална болница за рехабилитацију \"Русанда\" Меленци", "official_name:sr": "Специјална болница за рехабилитацију \"Русанда\" Меленци", "official_name:sr-Latn": "Specijalna bolnica za rehabilitaicju \"Rusanda\" Melenci", "operator:type": "government", "phone": "+381233150402", "wikidata": "Q12748755", "wikipedia": "sr:Бања Русанда"}}, {"name": "Déli Klinikai Tömb", "latitude": 46.2441272, "longitude": 20.1474483, "source": "osm", "_tags": {"amenity": "hospital", "healthcare": "hospital", "name": "Déli Klinikai Tömb", "type": "multipolygon"}}]