[{"name": "Secția de Boli Infecțioase", "latitude": 45.7488436, "longitude": 22.9088614, "source": "osm", "_tags": {"amenity": "hospital", "name": "Secția de Boli Infecțioase", "operator": "Spitalul Municipal Dr. Alexandru Simionescu Hunedoara"}}, {"name": "Spitalul Orășenesc", "latitude": 46.1265851, "longitude": 22.7910319, "source": "osm", "_tags": {"amenity": "hospital", "name": "Spitalul Orășenesc"}}, {"name": "Secția de Boli Cronice", "latitude": 45.7491617, "longitude": 22.9035933, "source": "osm", "_tags": {"amenity": "hospital", "name": "Secția de Boli Cronice", "operator": "Spitalul Municipal Dr. Alexandru Simionescu Hunedoara"}}, {"name": "Spitalul Sebiș", "latitude": 46.3725991, "longitude": 22.1316241, "source": "osm", "_tags": {"amenity": "hospital", "check_date": "2025-01-03", "name": "Spitalul Sebiș"}}, {"name": "Ambulanta Hunedoara", "latitude": 45.7500474, "longitude": 22.9051033, "source": "osm", "_tags": {"amenity": "hospital", "name": "Ambulanta Hunedoara"}}, {"name": "Sanatoriul de Pneumoftiziologie Brad", "latitude": 46.1350751, "longitude": 22.8245118, "source": "osm", "_tags": {"amenity": "hospital", "emergency": "yes", "name": "Sanatoriul de Pneumoftiziologie Brad"}}, {"name": "Spitalul Orașului Ilia", "latitude": 45.9314159, "longitude": 22.6629992, "source": "osm", "_tags": {"amenity": "hospital", "healthcare": "hospital", "name": "Spitalul Orașului Ilia"}}, {"name": "Spitalul comunal Brănișca", "latitude": 45.9154617, "longitude": 22.7720738, "source": "osm", "_tags": {"amenity": "hospital", "healthcare": "hospital", "name": "Spitalul comunal Brănișca"}}, {"name": "Spitalul Orasenesc Otelu Rosu Otelu Rosu", "latitude": 45.5258536, "longitude": 22.3677075, "source": "osm", "_tags": {"amenity": "hospital", "hospital_type": "spital orasenesc", "name": "Spitalul Orasenesc Otelu Rosu Otelu Rosu", "name:ro": "Spitalul Orasenesc Otelu Rosu Otelu Rosu", "reviewed": "no"}}, {"name": "Centrul Medical Promed", "latitude": 45.8690084, "longitude": 22.9133918, "source": "osm", "_tags": {"addr:city": "Deva", "addr:housenumber": "Bl. 11", "addr:postcode": "330037", "addr:street": "Bulevardul Nicolae Bălcescu", "amenity": "hospital", "description": "Promed Medical Center", "healthcare": "hospital", "healthcare:speciality": "general", "name": "Centrul Medical Promed", "opening_hours": "Mo-Fr 08:00-20:00", "phone": "0254267800", "website": "cmpromed.ro"}}, {"name": "Secția de boli cronice", "latitude": 45.7490818, "longitude": 22.9036757, "source": "osm", "_tags": {"addr:city": "Hunedoara", "addr:street": "Strada Ștefan cel Mare", "amenity": "hospital", "building": "yes", "building:levels": "5", "healthcare": "hospital", "height": "18", "name": "Secția de boli cronice", "source": "Hunedoara Town Hall map"}}, {"name": "Spitalul Clinic Județean de Urgență", "latitude": 45.8762338, "longitude": 22.9047525, "source": "osm", "_tags": {"addr:city": "Deva", "amenity": "hospital", "emergency": "yes", "healthcare": "hospital", "name": "Spitalul Clinic Județean de Urgență"}}, {"name": "Secția Pediatrie", "latitude": 45.8764685, "longitude": 22.9060291, "source": "osm", "_tags": {"amenity": "hospital", "building": "yes", "building:levels": "3", "healthcare:speciality": "paediatrics", "name": "Secția Pediatrie", "source": "Bing"}}, {"name": "Serviciul Județean de Medicină Legală", "latitude": 45.8703253, "longitude": 22.9060234, "source": "osm", "_tags": {"amenity": "hospital", "building": "yes", "name": "Serviciul Județean de Medicină Legală", "source": "Bing"}}, {"name": "Centrul de Sănătate Mintală Copii", "latitude": 45.8704414, "longitude": 22.9064739, "source": "osm", "_tags": {"amenity": "hospital", "building": "yes", "name": "Centrul de Sănătate Mintală Copii", "source": "Bing"}}, {"name": "Secția de boli infecțioase", "latitude": 45.7488784, "longitude": 22.9087757, "source": "osm", "_tags": {"addr:city": "Hunedoara", "addr:street": "Chizid", "amenity": "hospital", "building": "yes", "building:levels": "3", "healthcare": "hospital", "height": "14", "name": "Secția de boli infecțioase"}}, {"name": "Dispensar Baia de Criș", "latitude": 46.1747244, "longitude": 22.7159192, "source": "osm", "_tags": {"amenity": "hospital", "building": "yes", "emergency": "no", "name": "Dispensar Baia de Criș"}}, {"name": "Spitalul Orășenesc", "latitude": 45.8450412, "longitude": 22.1715224, "source": "osm", "_tags": {"amenity": "hospital", "name": "Spitalul Orășenesc"}}, {"name": "Spitalul Municipal Dr. Alexandru Simionescu Hunedoara", "latitude": 45.7494075, "longitude": 22.9065971, "source": "osm", "_tags": {"addr:city": "Hunedoara", "addr:housenumber": "19", "addr:street": "Strada Victoriei", "amenity": "hospital", "emergency": "yes", "healthcare": "hospital", "name": "Spitalul Municipal Dr. Alexandru Simionescu Hunedoara", "operator": "Spitalul Municipal Dr. Alexandru Simionescu Hunedoara"}}, {"name": "Spitalul Municipal Dr. Alexandru Simionescu Hunedoara", "latitude": 45.7496792, "longitude": 22.9069885, "source": "osm", "_tags": {"addr:city": "Hunedoara", "addr:housenumber": "19", "addr:street": "Strada Victoriei", "amenity": "hospital", "building": "yes", "building:colour": "#f4a460", "building:levels": "8", "healthcare": "hospital", "height": "21", "name": "Spitalul Municipal Dr. Alexandru Simionescu Hunedoara", "roof:height": "3", "roof:material": "roof_tiles", "roof:shape": "hipped", "start_date": "September 1968"}}, {"name": "", "latitude": 45.931434, "longitude": 22.6629771, "source": "osm", "_tags": {"addr:city": "Ilia", "addr:postcode": "337270", "addr:street": "Strada Libertății", "amenity": "hospital", "building": "yes", "healthcare": "hospital", "height": "7"}}]