[{"name": "Daruvarske toplice specijalna bolnica za medicinsku rehabilitaciju", "latitude": 45.5973152, "longitude": 17.2270514, "source": "osm", "_tags": {"addr:housenumber": "1", "addr:street": "Julijev park", "amenity": "hospital", "healthcare": "hospital", "healthcare:speciality": "physiatry", "name": "Daruvarske toplice specijalna bolnica za medicinsku rehabilitaciju", "operator": "Daruvarske toplice specijalna bolnica", "operator:type": "public", "website": "https://www.daruvarske-toplice.hr", "wheelchair": "yes"}}, {"name": "", "latitude": 46.1464642, "longitude": 17.64935, "source": "osm", "_tags": {"amenity": "hospital", "healthcare": "hospital"}}, {"name": "Egészségügyi Központ", "latitude": 45.873754, "longitude": 17.8515341, "source": "osm", "_tags": {"amenity": "hospital", "designation": "Egészségügyi Központ", "emergency": "yes", "healthcare": "hospital", "name": "Egészségügyi Központ"}}, {"name": "Gondviselés Szociális Otthon Szenvedélybetegek Rehabilitációs Részlege", "latitude": 46.289617, "longitude": 17.449933, "source": "osm", "_tags": {"amenity": "hospital", "name": "Gondviselés Szociális Otthon Szenvedélybetegek Rehabilitációs Részlege", "source": "turistautak.hu", "source:date": "2013-05-02", "url": "http://turistautak.hu/poi.php?id=153054"}}, {"name": "B. Braun Avitum 4. sz. Dialízisközpont", "latitude": 46.3588111, "longitude": 17.7976719, "source": "osm", "_tags": {"addr:city": "Kaposvár", "addr:housenumber": "20-32", "addr:postcode": "7400", "addr:street": "Tallián Gyula utca", "amenity": "clinic", "contact:fax": "+36 82 510 648", "contact:phone": "+36 82 510 647", "contact:website": "https://www.bbraun.hu/hu.html", "healthcare": "hospital", "healthcare:speciality": "nephrology", "name": "B. Braun Avitum 4. sz. Dialízisközpont"}}, {"name": "Kaposi Mór Kórház", "latitude": 46.3594763, "longitude": 17.7992327, "source": "osm", "_tags": {"addr:city": "Kaposvár", "addr:housenumber": "20-32", "addr:postcode": "7400", "addr:street": "Tallián Gyula utca", "amenity": "hospital", "contact:email": "korhaz@kmmk.hu", "contact:fax": "+36 82 413 649", "contact:phone": "+36 82 501 300", "emergency": "yes", "healthcare": "hospital", "name": "Kaposi Mór Kórház", "official_name": "Somogy Megyei Kaposi Mór Oktató Kórház"}}, {"name": "Szigetvári Városi Kórház és Rendelőintézet", "latitude": 46.054827, "longitude": 17.7902616, "source": "osm", "_tags": {"addr:city": "Szigetvár", "addr:postcode": "7900", "amenity": "hospital", "name": "Szigetvári Városi Kórház és Rendelőintézet"}}, {"name": "Opća županijska bolnica Pakrac i bolnica hrvatskih veterana", "latitude": 45.429932, "longitude": 17.1882569, "source": "osm", "_tags": {"addr:city": "Pakrac", "addr:housenumber": "74", "addr:postcode": "34550", "addr:street": "Bolnička ulica", "alt_name": "Županijska bolnica Pakrac", "amenity": "hospital", "building:levels": "4", "email": "info@ozbpakrac-bhv.hr", "emergency": "yes", "fax": "+385 34 411 041", "healthcare": "hospital", "name": "Opća županijska bolnica Pakrac i bolnica hrvatskih veterana", "operator": "Opća županijska bolnica Pakrac i bolnica hrvatskih veterana", "operator:type": "public", "phone": "+385 34 254 444", "website": "https://ozbpakrac-bhv.hr/"}}, {"name": "Állatkórház", "latitude": 46.0522693, "longitude": 17.800157, "source": "osm", "_tags": {"addr:city": "Szigetvár", "addr:housenumber": "6", "addr:postcode": "7900", "addr:street": "Alapi Gáspár utca", "amenity": "hospital", "name": "Állatkórház"}}, {"name": "Nagyatádi Kórház", "latitude": 46.2320931, "longitude": 17.3622547, "source": "osm", "_tags": {"addr:city": "Nagyatád", "addr:housenumber": "1", "addr:postcode": "7500", "addr:street": "Bajcsy-Zsilinszky Endre utca", "amenity": "hospital", "check_date": "2025-09-12", "contact:facebook": "https://www.facebook.com/nagyatadikh", "email": "titkarsag@nagyatadikh.hu", "emergency": "yes", "healthcare": "hospital", "name": "Nagyatádi Kórház", "name:hu": "Nagyatádi Kórház", "operator:type": "government", "phone": "+36 82 504 400", "website": "https://nagyatadikh.hu/", "wheelchair": "yes"}}, {"name": "Opća bolnica Virovitica", "latitude": 45.8286552, "longitude": 17.3893633, "source": "osm", "_tags": {"addr:housenumber": "21", "addr:street": "Ulica Ljudevita Gaja", "amenity": "hospital", "healthcare": "hospital", "name": "Opća bolnica Virovitica", "operator": "Opća bolnica Virovitica", "operator:type": "public", "website": "http://www.bolnica-virovitica.hr/"}}, {"name": "Dr. Baka József Diagnosztikai, Onkoradiológiai, Kutatási és Oktatási Központ", "latitude": 46.3826172, "longitude": 17.8255174, "source": "osm", "_tags": {"addr:city": "Kaposvár", "addr:housenumber": "40", "addr:postcode": "7400", "addr:street": "Guba Sándor utca", "amenity": "hospital", "healthcare": "hospital", "healthcare:speciality": "diagnostic_radiology;ct;mr", "name": "Dr. Baka József Diagnosztikai, Onkoradiológiai, Kutatási és Oktatási Központ", "operator": "Somogy Vármegyei  Kaposi Mór Oktató Kórház"}}, {"name": "Sugárterápia", "latitude": 46.3818768, "longitude": 17.8254616, "source": "osm", "_tags": {"addr:city": "Kaposvár", "addr:housenumber": "40", "addr:postcode": "7400", "addr:street": "Guba Sándor utca", "amenity": "hospital", "healthcare": "hospital", "healthcare:speciality": "radiotherapy;diagnostic_radiology", "name": "Sugárterápia", "operator": "Somogy Vármegyei  Kaposi Mór Oktató Kórház"}}, {"name": "Onkoradiológiai fekvőbeteg-ellátó központ", "latitude": 46.3816175, "longitude": 17.8258731, "source": "osm", "_tags": {"amenity": "hospital", "building:levels": "4", "healthcare": "hospital", "name": "Onkoradiológiai fekvőbeteg-ellátó központ", "operator": "Somogy Vármegyei  Kaposi Mór Oktató Kórház"}}, {"name": "Medicopus Nonprofit Kft.", "latitude": 46.3814825, "longitude": 17.825338, "source": "osm", "_tags": {"addr:city": "Kaposvár", "addr:housenumber": "40", "addr:postcode": "7400", "addr:street": "Guba Sándor utca", "amenity": "hospital", "healthcare": "hospital", "healthcare:speciality": "diagnostic_radiology;petct;petmr;mr", "name": "Medicopus Nonprofit Kft.", "operator": "Somogy Vármegyei  Kaposi Mór Oktató Kórház"}}]