[{"name": "Spitalul de pediatrie \"Sfântul Ioan\"", "latitude": 45.4313362, "longitude": 28.0235885, "source": "osm", "_tags": {"amenity": "hospital", "emergency": "yes", "name": "Spitalul de pediatrie \"Sfântul Ioan\"", "source": "survey"}}, {"name": "Spitalul CFR", "latitude": 45.439169, "longitude": 28.0619055, "source": "osm", "_tags": {"amenity": "hospital", "healthcare": "hospital", "name": "Spitalul CFR"}}, {"name": "", "latitude": 46.0138973, "longitude": 28.6645953, "source": "osm", "_tags": {"amenity": "hospital", "healthcare": "hospital"}}, {"name": "Cabinete Medicale", "latitude": 45.4304417, "longitude": 28.0191736, "source": "osm", "_tags": {"addr:city": "Galați", "addr:street": "Strada Gheorghe Asachi", "amenity": "hospital", "designation": "family medical", "emergency": "no", "name": "Cabinete Medicale"}}, {"name": "Spital", "latitude": 46.1850078, "longitude": 28.3877653, "source": "osm", "_tags": {"amenity": "hospital", "name": "Spital"}}, {"name": "Dispensar Tulucesti", "latitude": 45.5687492, "longitude": 28.0477768, "source": "osm", "_tags": {"amenity": "hospital", "healthcare": "hospital", "name": "Dispensar Tulucesti"}}, {"name": "Punct Medical", "latitude": 46.3835105, "longitude": 28.2553272, "source": "osm", "_tags": {"amenity": "hospital", "designation": "Punct medical", "emergency": "yes", "name": "Punct Medical", "source": "Punct Medical"}}, {"name": "", "latitude": 46.3643807, "longitude": 28.2155247, "source": "osm", "_tags": {"amenity": "hospital"}}, {"name": "", "latitude": 46.1512566, "longitude": 28.2530654, "source": "osm", "_tags": {"amenity": "hospital"}}, {"name": "", "latitude": 46.2200383, "longitude": 28.2237542, "source": "osm", "_tags": {"amenity": "hospital"}}, {"name": "", "latitude": 46.1616462, "longitude": 28.3441318, "source": "osm", "_tags": {"amenity": "hospital"}}, {"name": "", "latitude": 46.2323776, "longitude": 28.3465289, "source": "osm", "_tags": {"amenity": "hospital"}}, {"name": "", "latitude": 46.1086391, "longitude": 28.4080148, "source": "osm", "_tags": {"amenity": "hospital"}}, {"name": "", "latitude": 46.2346862, "longitude": 28.2501665, "source": "osm", "_tags": {"amenity": "hospital"}}, {"name": "", "latitude": 46.313173, "longitude": 28.2076951, "source": "osm", "_tags": {"amenity": "hospital"}}, {"name": "", "latitude": 46.2014128, "longitude": 28.3187064, "source": "osm", "_tags": {"amenity": "hospital"}}, {"name": "Центральна міська лікарня 1", "latitude": 45.4570185, "longitude": 28.270809, "source": "osm", "_tags": {"addr:housenumber": "15", "addr:street": "Дунайська вулиця", "amenity": "hospital", "healthcare": "hospital", "name": "Центральна міська лікарня 1", "name:uk": "Центральна міська лікарня 1", "opening_hours": "24/7"}}, {"name": "", "latitude": 45.458071, "longitude": 28.2689559, "source": "osm", "_tags": {"amenity": "hospital"}}, {"name": "Центральна Районна Лікарня", "latitude": 45.4448223, "longitude": 28.2933148, "source": "osm", "_tags": {"amenity": "hospital", "healthcare": "hospital", "name": "Центральна Районна Лікарня", "name:en": "Central District Hospital", "name:ru": "Центральная Районая Больница", "name:uk": "Центральна Районна Лікарня"}}, {"name": "", "latitude": 45.9162656, "longitude": 28.2158831, "source": "osm", "_tags": {"amenity": "hospital"}}, {"name": "Hospital Cociulia", "latitude": 46.3622309, "longitude": 28.4119021, "source": "osm", "_tags": {"amenity": "hospital", "healthcare": "hospital", "name": "Hospital Cociulia"}}, {"name": "Centru de sănătate satului Copceac", "latitude": 45.8392114, "longitude": 28.6940899, "source": "osm", "_tags": {"amenity": "hospital", "healthcare": "hospital", "name": "Centru de sănătate satului Copceac", "name:ru": "Центр здоровья села Копчак", "opening_hours": "Mo-Sa 08:00-17:00"}}, {"name": "Centrul de sănătate Crihana Veche", "latitude": 45.8395974, "longitude": 28.1924179, "source": "osm", "_tags": {"amenity": "hospital", "name": "Centrul de sănătate Crihana Veche", "name:ru": "Центр здоровья с. Крихана Веке"}}, {"name": "Pneumologie si Medicina somnului - Dr. Anamaria Necula", "latitude": 45.4502571, "longitude": 28.0257396, "source": "osm", "_tags": {"addr:city": "Galați", "addr:housenumber": "3", "addr:postcode": "800675", "addr:street": "Bulevardul Milcov", "amenity": "clinic", "description": "Cabinet de pneumologie in contract cu Casa de Asigurari de Sanatate. Consultatiile legate de medicina somnului (somnologie) nu sunt decontate deocamdata de CAS, ceea ce presupune ca pacientul va plati in intregime costul serviciilor.", "email": "anamaria.necula@pneumolog-galati.eu", "emergency": "yes", "healthcare": "hospital", "healthcare:speciality": "pulmonology;sleeping_medicine", "name": "Pneumologie si Medicina somnului - Dr. Anamaria Necula", "operator": "Pneumologie si Medicina somnului - Dr. Anamaria Necula", "operator:type": "private_for_profit", "phone": "0743 662 589", "website": "https://pneumolog-galati.eu"}}, {"name": "Cabinet veterinar dr. Silvia Tiolan", "latitude": 45.4308919, "longitude": 28.0447884, "source": "osm", "_tags": {"addr:city": "Galați", "addr:housenumber": "82", "addr:postcode": "800098", "addr:street": "Strada Brăilei", "amenity": "hospital", "email": "office@prieteniicublanita.ro", "emergency": "yes", "healthcare": "hospital", "healthcare:speciality": "veterinary;pets;pet_food;veterinary_pharmacy", "name": "Cabinet veterinar dr. Silvia Tiolan", "operator": "Prietenii cu Blanita SRL", "operator:type": "private", "phone": "+40752111929", "website": "https://prieteniicublanita.ro"}}, {"name": "Centrul de medicină preventivă", "latitude": 46.3038357, "longitude": 28.6582197, "source": "osm", "_tags": {"addr:country": "MD", "addr:housenumber": "16", "addr:street": "Strada Biruinței", "amenity": "hospital", "building": "yes", "building:levels": "3", "healthcare": "hospital", "name": "Centrul de medicină preventivă", "name:ro": "Centrul de medicină preventivă", "name:ru": "Центр превентивной медицины"}}, {"name": "", "latitude": 45.8480348, "longitude": 28.4679439, "source": "osm", "_tags": {"amenity": "hospital", "healthcare": "hospital"}}, {"name": "Spitalul Militar de Urgență \"Dr. Aristide Serfioti\"", "latitude": 45.4496258, "longitude": 28.0431102, "source": "osm", "_tags": {"addr:city": "Galați", "addr:housenumber": "199", "addr:postcode": "800150", "addr:postcode:source": "Date de la Poșta Română, publicate sub Licența pentru Guvernare Deschisă v1.0 la http://date.gov.ro/organization/posta-romana", "addr:street": "Strada Traian", "amenity": "hospital", "healthcare": "hospital", "name": "Spitalul Militar de Urgență \"Dr. Aristide Serfioti\""}}, {"name": "Spitalul de psihiatrie \"Elisabeta Doamna\"", "latitude": 45.459806, "longitude": 28.0396093, "source": "osm", "_tags": {"addr:city": "Galați", "addr:housenumber": "290", "addr:postcode": "800179", "addr:postcode:source": "Date de la Poșta Română, publicate sub Licența pentru Guvernare Deschisă v1.0 la http://date.gov.ro/organization/posta-romana", "addr:street": "Strada Traian", "amenity": "hospital", "healthcare": "hospital", "healthcare:speciality": "psychiatry", "is_in:city": "Galați", "name": "Spitalul de psihiatrie \"Elisabeta Doamna\""}}, {"name": "Spitalul de Boli Infecțioase", "latitude": 45.4651502, "longitude": 28.0342265, "source": "osm", "_tags": {"amenity": "hospital", "building": "yes", "name": "Spitalul de Boli Infecțioase"}}, {"name": "Spitalul de Boli Infecțioase", "latitude": 45.4654633, "longitude": 28.0340469, "source": "osm", "_tags": {"amenity": "hospital", "is_in:city": "Galați", "name": "Spitalul de Boli Infecțioase"}}, {"name": "Spitalul Raional Cantemir", "latitude": 46.2758223, "longitude": 28.2038424, "source": "osm", "_tags": {"addr:city": "Cantemir", "addr:country": "MD", "addr:housenumber": "1", "addr:postcode": "MD-7301", "addr:street": "Strada Nicolae Testemițanu", "amenity": "hospital", "healthcare": "hospital", "name": "Spitalul Raional Cantemir", "name:ru": "Больница"}}, {"name": "Spitalul \"Buna Vestire\" obstretică-ginecologie", "latitude": 45.4444185, "longitude": 28.0431854, "source": "osm", "_tags": {"amenity": "hospital", "healthcare": "hospital", "healthcare:speciality": "gynaecology", "is_in:city": "Galați", "name": "Spitalul \"Buna Vestire\" obstretică-ginecologie"}}, {"name": "Spitalul Raional Taraclia", "latitude": 45.9215222, "longitude": 28.6859797, "source": "osm", "_tags": {"addr:city": "Taraclia", "addr:country": "MD", "addr:housenumber": "1", "addr:postcode": "MD-7401", "addr:street": "Strada Valerii Cebanov", "amenity": "hospital", "barrier": "fence", "healthcare": "hospital", "name": "Spitalul Raional Taraclia", "name:bg": "Районна болница", "name:ro": "Spitalul Raional Taraclia", "name:ru": "Районная больница"}}, {"name": "Centrul de Sănătate Publică Raional Cahul", "latitude": 45.9068449, "longitude": 28.1929886, "source": "osm", "_tags": {"addr:city": "Cahul", "addr:country": "MD", "addr:housenumber": "20", "addr:street": "Strada Prospectul Republicii", "amenity": "hospital", "building": "yes", "healthcare": "hospital", "name": "Centrul de Sănătate Publică Raional Cahul", "name:ru": "Районный центр общественного здоровья Кагул"}}, {"name": "", "latitude": 46.0317909, "longitude": 28.9288088, "source": "osm", "_tags": {"amenity": "hospital", "building": "yes", "emergency": "no"}}, {"name": "Spitalul Raional Cahul", "latitude": 45.9161136, "longitude": 28.2190873, "source": "osm", "_tags": {"alt_name:ru": "Кахульская районная больница", "amenity": "hospital", "barrier": "wall", "healthcare": "hospital", "name": "Spitalul Raional Cahul", "name:bg": "Района болница", "name:ru": "Кагульская районная больница", "phone": "+373 299 34 492"}}, {"name": "Centrul de Recuperare pentru Copii Ceadîr-Lunga", "latitude": 46.0924988, "longitude": 28.8380737, "source": "osm", "_tags": {"addr:city": "Ceadîr-Lunga", "amenity": "hospital", "barrier": "fence", "healthcare": "hospital", "name": "Centrul de Recuperare pentru Copii Ceadîr-Lunga", "name:ro": "Centrul de Recuperare pentru Copii Ceadîr-Lunga", "name:ru": "Реабилитационный центр для детей"}}, {"name": "Spitalul Raional Ceadîr-Lunga", "latitude": 46.0622027, "longitude": 28.8113525, "source": "osm", "_tags": {"addr:city": "Ceadîr-Lunga", "amenity": "hospital", "emergency": "yes", "healthcare": "hospital", "name": "Spitalul Raional Ceadîr-Lunga", "name:bg": "Района болница", "name:ro": "Spitalul Raional", "name:ru": "Районная больница"}}, {"name": "Перша допомога", "latitude": 45.4309573, "longitude": 28.4151571, "source": "osm", "_tags": {"addr:street": "Поштова вулиця", "amenity": "hospital", "building:levels": "1", "emergency": "ambulance_station", "healthcare": "hospital", "name": "Перша допомога", "name:en": "Мedical Center", "name:ru": "Медицинский Пункт", "name:uk": "Перша допомога"}}, {"name": "Cabinete medicale de familie", "latitude": 45.4292315, "longitude": 28.0496772, "source": "osm", "_tags": {"addr:city": "Galați", "addr:housenumber": "33", "addr:postcode": "800055", "addr:postcode:source": "Date de la Poșta Română, publicate sub Licența pentru Guvernare Deschisă v1.0 la http://date.gov.ro/organization/posta-romana", "addr:street": "Strada Roșiori", "amenity": "hospital", "emergency": "no", "healthcare": "hospital", "healthcare:speciality": "general;community", "name": "Cabinete medicale de familie"}}, {"name": "Spitalul de Pneumoftiziologie Galați, TBC", "latitude": 45.4557564, "longitude": 28.0452483, "source": "osm", "_tags": {"addr:city": "Galați", "addr:housenumber": "117", "addr:postcode": "800189", "addr:postcode:source": "Date de la Poșta Română, publicate sub Licența pentru Guvernare Deschisă v1.0 la http://date.gov.ro/organization/posta-romana", "addr:street": "Strada Științei", "amenity": "hospital", "email": "contact@pneumogalati.ro;spitalultbc@gmail.com", "healthcare": "hospital", "healthcare:speciality": "pulmonology", "name": "Spitalul de Pneumoftiziologie Galați, TBC", "operator": "Ministerul Sănătății", "website": "https://pneumogalati.ro/"}}, {"name": "Spitalul Cioc-Maidan", "latitude": 46.3620227, "longitude": 28.8198856, "source": "osm", "_tags": {"amenity": "hospital", "healthcare": "hospital", "name": "Spitalul Cioc-Maidan", "name:ru": "Больница"}}, {"name": "Urgența", "latitude": 45.7187016, "longitude": 28.1769559, "source": "osm", "_tags": {"amenity": "hospital", "building": "yes", "emergency": "yes", "healthcare": "hospital", "name": "Urgența"}}, {"name": "Spital abandonat", "latitude": 45.7197262, "longitude": 28.1740216, "source": "osm", "_tags": {"abandoned": "yes", "amenity": "hospital", "name": "Spital abandonat"}}, {"name": "Centrul de Sănătate Comrat", "latitude": 46.3018431, "longitude": 28.6580753, "source": "osm", "_tags": {"addr:city": "Comrat", "addr:country": "MD", "addr:housenumber": "46", "addr:street": "Strada Victoriei", "amenity": "hospital", "building": "yes", "building:levels": "5", "healthcare": "hospital", "name": "Centrul de Sănătate Comrat", "name:bg": "Център за здравие Комрат", "name:en": "Comrat Health Centre", "name:ro": "Centrul de Sănătate Comrat", "name:ru": "Центр здоровья Комрат", "name:tr": "Komrat saalık merkezi"}}, {"name": "Больница", "latitude": 45.6820496, "longitude": 28.3928706, "source": "osm", "_tags": {"amenity": "hospital", "name": "Больница", "name:bg": "Болница \"Мустафа Ататюрк\"", "name:en": "Mustafa Atatürk Hospital", "name:ru": "Больница"}}, {"name": "Болградська центральна районна лікарня", "latitude": 45.6800655, "longitude": 28.6234747, "source": "osm", "_tags": {"addr:housenumber": "71-75", "addr:street": "Измаильская улица", "amenity": "hospital", "healthcare": "hospital", "name": "Болградська центральна районна лікарня", "name:ru": "Болградская центральная районная больница", "name:uk": "Болградська центральна районна лікарня"}}, {"name": "Centrul medical Irina", "latitude": 45.4458828, "longitude": 28.0224568, "source": "osm", "_tags": {"amenity": "hospital", "healthcare": "hospital", "name": "Centrul medical Irina"}}, {"name": "Spitalul Dermatologic din Cahul", "latitude": 45.9059065, "longitude": 28.1891529, "source": "osm", "_tags": {"addr:city": "Cahul", "addr:country": "MD", "addr:housenumber": "16", "addr:street": "Strada Ștefan cel Mare și Sfânt", "amenity": "hospital", "healthcare": "hospital", "name": "Spitalul Dermatologic din Cahul"}}, {"name": "Sanatoriul Nufărul Alb", "latitude": 45.9023906, "longitude": 28.2045483, "source": "osm", "_tags": {"addr:city": "Cahul", "amenity": "hospital", "barrier": "wall", "healthcare": "hospital", "landuse": "hospit", "name": "Sanatoriul Nufărul Alb", "phone": "+373 299 23 440", "resort": "sanatorium", "start_date": "1985", "website": "https://nufarul.md/"}}, {"name": "IMSP Centrul de Sănătate Taraclia", "latitude": 45.9165504, "longitude": 28.6750466, "source": "osm", "_tags": {"addr:city": "Taraclia", "addr:country": "MD", "addr:housenumber": "2/B", "addr:postcode": "MD-7401", "addr:street": "Strada Grigore Cotovschi", "amenity": "hospital", "building:levels": "4", "healthcare": "hospital", "name": "IMSP Centrul de Sănătate Taraclia", "name:bg": "Поликлиника", "name:ro": "IMSP Centrul de Sănătate Taraclia", "name:ru": "Поликлиника"}}, {"name": "Centrul de Sănătate Publică Taraclia", "latitude": 45.9151821, "longitude": 28.6689158, "source": "osm", "_tags": {"addr:city": "Taraclia", "addr:country": "MD", "addr:housenumber": "1", "addr:postcode": "MD-7401", "addr:street": "Strada Păcii", "amenity": "hospital", "healthcare": "hospital", "name": "Centrul de Sănătate Publică Taraclia"}}, {"name": "Centrul Medicilor de Familie Cantemir", "latitude": 46.2763461, "longitude": 28.2060306, "source": "osm", "_tags": {"addr:city": "Cantemir", "addr:country": "MD", "addr:housenumber": "22", "addr:postcode": "MD-7301", "addr:street": "Strada Nicolae Testemițanu", "amenity": "hospital", "healthcare": "hospital", "name": "Centrul Medicilor de Familie Cantemir"}}, {"name": "", "latitude": 46.2770184, "longitude": 28.2054477, "source": "osm", "_tags": {"amenity": "hospital", "healthcare": "hospital"}}, {"name": "Лікарня", "latitude": 45.5084631, "longitude": 28.5769778, "source": "osm", "_tags": {"amenity": "hospital", "building:levels": "2", "emergency": "no", "healthcare": "hospital", "name": "Лікарня"}}, {"name": "Spitalul Raional Comrat „Isaac Gurfinchel“", "latitude": 46.301623, "longitude": 28.6347193, "source": "osm", "_tags": {"addr:country": "MD", "addr:housenumber": "2", "addr:street": "Strada Odessa", "amenity": "hospital", "healthcare": "hospital", "name": "Spitalul Raional Comrat „Isaac Gurfinchel“", "name:bg": "Района болница „Исаак Гурфинкел“", "name:en": "Isaak Gurfinkel District Hospital", "name:ru": "Комратская районная больница им. Исаака Гурфинкеля", "type": "multipolygon"}}]