[{"name": "Mélioris Le Grand Feu", "latitude": 46.3431837, "longitude": -0.4815531, "source": "osm", "_tags": {"amenity": "hospital", "name": "Mélioris Le Grand Feu", "ref:FR:NAF": "8610Z", "ref:FR:SIREN": "312962301", "ref:FR:SIRET": "31296230100023", "source": "INSEE - 2024-11"}}, {"name": "Centre Descartes", "latitude": 46.3165995, "longitude": -0.4717118, "source": "osm", "_tags": {"amenity": "hospital", "check_date": "2025-06-22", "healthcare": "hospital", "healthcare:speciality": "cardiology", "name": "Centre Descartes"}}, {"name": "Centre hospitalier de Saintonge", "latitude": 45.7462346, "longitude": -0.6555984, "source": "osm", "_tags": {"addr:city": "Saintes", "addr:postcode": "17100", "amenity": "hospital", "emergency": "yes", "healthcare": "hospital", "healthcare:speciality": "paediatrics;radiology;orthopaedics;gastroenterology;endocrinology;otolaryngology;geriatrics;oncology;emergency;trauma", "internet_access": "yes", "internet_access:fee": "yes", "name": "Centre hospitalier de Saintonge", "opening_hours": "24/7", "wheelchair": "limited"}}, {"name": "Centre hospitalier intercommunal du Pays de Cognac", "latitude": 45.6850651, "longitude": -0.2976675, "source": "osm", "_tags": {"amenity": "hospital", "emergency": "yes", "healthcare": "hospital", "name": "Centre hospitalier intercommunal du Pays de Cognac", "operator:type": "public", "phone": "+33 5 45 80 15 15", "ref:FR:FINESS": "160015368", "source": "cadastre-dgi-fr source : Direction Générale des Impôts - Cadastre. Mise à jour : 2016", "type:FR:FINESS": "355", "website": "https://www.ch-cognac.fr/"}}, {"name": "Clinique de Cognac", "latitude": 45.6845072, "longitude": -0.2964003, "source": "osm", "_tags": {"addr:housenumber": "71", "addr:street": "Avenue d'Angoulême", "amenity": "hospital", "check_date": "2025-05-12", "emergency": "no", "healthcare": "hospital", "name": "Clinique de Cognac", "operator:type": "private", "phone": "+33 806 003 003", "ref:FR:FINESS": "160000279", "source": "cadastre-dgi-fr source : Direction Générale des Impôts - Cadastre. Mise à jour : 2010", "type:FR:FINESS": "128"}}, {"name": "Centre hospitalier Saint-Maixent", "latitude": 46.4103287, "longitude": -0.2208437, "source": "osm", "_tags": {"amenity": "hospital", "building": "hospital", "emergency": "no", "name": "Centre hospitalier Saint-Maixent", "ref:FR:FINESS": "790000111", "source": "cadastre-dgi-fr source : Direction Générale des Impôts - Cadastre. Mise à jour : 2010"}}, {"name": "Centre hospitalier de Niort - Site de Goise", "latitude": 46.3127287, "longitude": -0.4550271, "source": "osm", "_tags": {"amenity": "hospital", "healthcare": "hospital", "name": "Centre hospitalier de Niort - Site de Goise", "operator": "Centre hospitalier de Niort", "ref:FR:FINESS": "790012355", "source": "cadastre-dgi-fr source : Direction Générale des Impôts - Cadastre. Mise à jour : 2011"}}, {"name": "Hôpital local de Melle", "latitude": 46.2295397, "longitude": -0.1527691, "source": "osm", "_tags": {"amenity": "hospital", "healthcare": "hospital", "name": "Hôpital local de Melle", "ref:FR:FINESS": "790000137", "short_name": "Hôpital", "source": "Le ministère des solidarités et de la santé - 03/2019"}}, {"name": "Clinique Richelieu", "latitude": 45.7509048, "longitude": -0.6429859, "source": "osm", "_tags": {"amenity": "hospital", "email": "renseignements@clinique-richelieu.fr", "emergency": "no", "fax": "+33 5 46 74 09 42", "name": "Clinique Richelieu", "operator:type": "private", "phone": "+33 5 46 90 58 00", "ref:FR:FINESS": "170780647", "type:FR:FINESS": "365", "website": "http://www.clinique-richelieu.fr/"}}, {"name": "Centre hospitalier du Sud-Charente", "latitude": 45.4734293, "longitude": -0.1393228, "source": "osm", "_tags": {"amenity": "hospital", "emergency": "yes", "fax": "+33 5 45 78 78 06", "healthcare": "hospital", "name": "Centre hospitalier du Sud-Charente", "operator:type": "public", "phone": "+33 5 45 78 78 00", "ref:FR:FINESS": "160000303", "type:FR:FINESS": "355", "website": "https://www.ch-sud-charente.fr/"}}, {"name": "Centre hospitalier de Saintonge", "latitude": 45.7466605, "longitude": -0.6540077, "source": "osm", "_tags": {"amenity": "hospital", "emergency": "yes", "fax": "+33 5 46 95 12 63", "healthcare:speciality": "intensive", "name": "Centre hospitalier de Saintonge", "operator:type": "public", "phone": "+33 5 46 95 15 15", "ref:FR:FINESS": "170000103", "type:FR:FINESS": "355", "website": "https://www.ch-saintonge.fr/", "wikidata": "Q2945704"}}, {"name": "Centre hospitalier de Jonzac", "latitude": 45.439374, "longitude": -0.4347988, "source": "osm", "_tags": {"amenity": "hospital", "email": "direction.hopital@ch-jonzac.fr", "emergency": "yes", "fax": "+33 5 46 48 75 00", "healthcare": "hospital", "name": "Centre hospitalier de Jonzac", "operator:type": "public", "phone": "+33 5 46 48 75 75", "ref:FR:FINESS": "170000038", "ref:FR:NAF": "8610Z", "ref:FR:SIREN": "261700272", "ref:FR:SIRET": "26170027200048", "source": "INSEE - 2024-10", "type:FR:FINESS": "355", "website": "http://www.ch-jonzac.com/"}}, {"name": "Domaine des Fossés", "latitude": 45.4595589, "longitude": -0.4383276, "source": "osm", "_tags": {"alt_name": "Domaine des Fosses", "amenity": "hospital", "fax": "+33 5 46 48 75 00", "healthcare:speciality": "psychiatry", "name": "Domaine des Fossés", "operator": "Centre hospitalier spécialisé de Jonzac", "operator:type": "public", "phone": "+33 5 46 48 75 75", "ref:FR:FINESS": "170783146", "type": "355"}}, {"name": "Clinique Pasteur", "latitude": 45.6529456, "longitude": -1.0245654, "source": "osm", "_tags": {"amenity": "hospital", "emergency": "yes", "name": "Clinique Pasteur", "name:etymology:wikidata": "Q529", "operator:type": "private", "phone": "+33 5 46 22 22 22", "ref:FR:FINESS": "170022826", "source": "cadastre-dgi-fr source : Direction Générale des Impôts - Cadastre. Mise à jour : 2010", "type:FR:FINESS": "697", "website": "http://www.clinique-pasteur-royan.fr/"}}, {"name": "Centre hospitalier de Royan", "latitude": 45.6339888, "longitude": -1.0607822, "source": "osm", "_tags": {"alt_name": "Hôpital Malakoff", "amenity": "hospital", "emergency": "yes", "fax": "+33 5 46 38 69 25", "healthcare": "hospital", "name": "Centre hospitalier de Royan", "operator:type": "public", "phone": "+33 5 46 39 52 52", "ref:FR:FINESS": "170000129", "source": "cadastre-dgi-fr source : Direction Générale des Impôts - Cadastre. Mise à jour : 2010", "type:FR:FINESS": "355", "website": "https://www.ch-royan.fr/"}}, {"name": "Centre hospitalier de Rochefort", "latitude": 45.9670999, "longitude": -0.9633878, "source": "osm", "_tags": {"amenity": "hospital", "emergency": "yes", "fax": "+33 5 46 88 50 61", "name": "Centre hospitalier de Rochefort", "operator:type": "public", "phone": "+33 5 46 88 50 50", "ref:FR:FINESS": "170000152", "type:FR:FINESS": "355", "website": "https://ch-rochefort.fr/fr/", "wikidata": "Q2945701"}}, {"name": "Centre hospitalier de Saint-Jean-d'Angely", "latitude": 45.9469795, "longitude": -0.5296298, "source": "osm", "_tags": {"amenity": "hospital", "emergency": "yes", "fax": "+33 5 46 59 50 96", "healthcare": "hospital", "name": "Centre hospitalier de Saint-Jean-d'Angely", "operator:type": "public", "phone": "+33 5 46 59 50 50", "ref:FR:FINESS": "170000095", "type:FR:FINESS": "355", "website": "https://www.ch-angely.fr/"}}, {"name": "", "latitude": 45.6026325, "longitude": -1.0038088, "source": "osm", "_tags": {"addr:housename": "Polyclinique Saint-Georges", "amenity": "hospital", "emergency": "yes", "operator:type": "private", "phone": "+33 5 46 05 07 94", "ref:FR:FINESS": "170022818", "type:FR:FINESS": "697", "website": "http://www.polycliniquesaintgeorges.com/"}}, {"name": "Polyclinique Inkermann", "latitude": 46.3149991, "longitude": -0.4526615, "source": "osm", "_tags": {"addr:housenumber": "8", "addr:street": "Route d'Aiffres", "amenity": "hospital", "emergency": "yes", "healthcare": "hospital", "name": "Polyclinique Inkermann", "operator": "Groupe Elsan", "operator:type": "private", "phone": "+33 8 26 30 28 28", "ref:FR:FINESS": "790009948", "type:FR:FINESS": "365", "website": "http://www.inkermann.groupe-elsan.com/"}}, {"name": "Korian Clinique Sur Moreau", "latitude": 45.7290033, "longitude": -0.6499263, "source": "osm", "_tags": {"building": "hospital", "healthcare": "hospital", "name": "Korian Clinique Sur Moreau", "opening_hours": "Mo-Fr 08:30-17:30; Sa-Su 14:00-18:30", "operator": "Korian", "ref:FR:NAF": "8610Z", "ref:FR:SIREN": "655520245", "ref:FR:SIRET": "65552024500060", "source": "INSEE - 2024-09"}}, {"name": "Centre hospitalier de Niort", "latitude": 46.3173673, "longitude": -0.4617038, "source": "osm", "_tags": {"amenity": "hospital", "contact:twitter": "HopitaldeNiort", "emergency": "yes", "fax": "+33 5 49 78 27 00", "healthcare": "hospital", "healthcare:speciality": "intensive", "name": "Centre hospitalier de Niort", "operator:type": "public", "phone": "+33 5 49 32 79 79", "ref:FR:FINESS": "790000087", "source": "cadastre-dgi-fr source : Direction Générale des Impôts - Cadastre. Mise à jour : 2009", "type": "multipolygon", "type:FR:FINESS": "355", "website": "https://www.ch-niort.fr/"}}]