[{"name": "Szent Rókus Kórház", "latitude": 46.1755328, "longitude": 18.9594442, "source": "osm", "_tags": {"addr:city": "Baja", "addr:housenumber": "10", "addr:postcode": "6500", "addr:street": "Rókus utca", "amenity": "hospital", "building": "yes", "healthcare": "hospital", "name": "Szent Rókus Kórház", "wheelchair": "yes"}}, {"name": "", "latitude": 45.9398768, "longitude": 19.6711949, "source": "osm", "_tags": {"amenity": "hospital"}}, {"name": "", "latitude": 45.6483027, "longitude": 19.0658937, "source": "osm", "_tags": {"amenity": "hospital"}}, {"name": "Дом здравља Црвенка", "latitude": 45.6570752, "longitude": 19.4531271, "source": "osm", "_tags": {"amenity": "hospital", "healthcare": "hospital", "int_name": "Dom zdravlja Crvenka", "name": "Дом здравља Црвенка", "name:sr": "Дом здравља Црвенка", "name:sr-Latn": "Dom zdravlja Crvenka"}}, {"name": "", "latitude": 46.2140924, "longitude": 19.3784929, "source": "osm", "_tags": {"amenity": "hospital"}}, {"name": "Амбуланта", "latitude": 45.52008, "longitude": 19.5855504, "source": "osm", "_tags": {"amenity": "hospital", "emergency": "yes", "int_name": "Ambulanta", "name": "Амбуланта", "name:sr": "Амбуланта", "name:sr-Latn": "Ambulanta"}}, {"name": "", "latitude": 45.5860414, "longitude": 19.9191427, "source": "osm", "_tags": {"amenity": "hospital"}}, {"name": "Jugolab Sombor", "latitude": 45.771903, "longitude": 19.1173012, "source": "osm", "_tags": {"addr:city": "Sombor", "addr:housenumber": "6", "addr:postcode": "25000", "addr:street": "Мирна", "amenity": "hospital", "healthcare": "hospital", "name": "Jugolab Sombor", "phone": "+381 (025) 515-0059", "ref:RS:kucni_broj": "5163434", "website": "https://jugolab.rs/"}}, {"name": "Jugolab Subotica", "latitude": 46.0873878, "longitude": 19.6682771, "source": "osm", "_tags": {"addr:city": "Subotica", "addr:housenumber": "70", "addr:postcode": "24000", "addr:street": "Београдски пут", "amenity": "hospital", "name": "Jugolab Subotica", "phone": "+381 (24) 415-0010;415-0011", "ref:RS:kucni_broj": "5430547", "website": "https://www.jugolab.rs/"}}, {"name": "Jugolab Kula", "latitude": 45.6110009, "longitude": 19.5283122, "source": "osm", "_tags": {"addr:city": "Kula", "addr:housenumber": "24", "addr:postcode": "25230", "addr:street": "Лењинова", "amenity": "hospital", "check_date": "2024-09-13", "name": "Jugolab Kula", "phone": "+381 (25) 515-0190;515-0191", "ref:RS:kucni_broj": "5562840", "website": "https://jugolab.rs/"}}, {"name": "Bajai Városi Kórház", "latitude": 46.174783, "longitude": 18.962133, "source": "osm", "_tags": {"amenity": "hospital", "description": "sürgősségi bejárat", "healthcare": "hospital", "name": "Bajai Városi Kórház", "source": "turistautak.hu", "source:date": "2011-06-24", "url": "http://turistautak.hu/poi.php?id=47827"}}, {"name": "Ambulanta Stanišić", "latitude": 45.9348273, "longitude": 19.1659222, "source": "osm", "_tags": {"amenity": "hospital", "name": "Ambulanta Stanišić"}}, {"name": "Амбуланта Биково", "latitude": 46.0190507, "longitude": 19.760884, "source": "osm", "_tags": {"amenity": "hospital", "healthcare": "hospital", "int_name": "Ambulanta Bikovo", "name": "Амбуланта Биково", "name:sr": "Амбуланта Биково", "name:sr-Latn": "Ambulanta Bikovo"}}, {"name": "Амбуланта Мала Босна", "latitude": 46.0391731, "longitude": 19.5682879, "source": "osm", "_tags": {"amenity": "hospital", "healthcare": "hospital", "int_name": "Ambulanta Mala Bosna", "name": "Амбуланта Мала Босна", "name:sr-Latn": "Ambulanta Mala Bosna"}}, {"name": "Неуропсихијатрија", "latitude": 45.7682261, "longitude": 19.1064931, "source": "osm", "_tags": {"amenity": "hospital", "healthcare": "hospital", "healthcare:speciality": "physiatry", "int_name": "Neuropsihijatrija", "name": "Неуропсихијатрија", "name:sr": "Неуропсихијатрија", "name:sr-Latn": "Neuropsihijatrija"}}, {"name": "Egészségház", "latitude": 45.8798244, "longitude": 19.8356729, "source": "osm", "_tags": {"addr:housenumber": "2", "addr:street": "Петефи Шандор", "amenity": "hospital", "building": "yes", "name": "Egészségház", "ref:RS:kucni_broj": "6449094"}}, {"name": "Здравствена амбуланта", "latitude": 45.5622605, "longitude": 19.4169402, "source": "osm", "_tags": {"addr:housenumber": "49", "addr:street": "Фрушкогорска", "amenity": "hospital", "building": "apartments", "healthcare": "hospital", "int_name": "Zdravstvena ambulanta", "name": "Здравствена амбуланта", "name:sr": "Здравствена амбуланта", "name:sr-Latn": "Zdravstvena ambulanta", "ref:RS:kucni_broj": "5550485"}}, {"name": "Дом здравља", "latitude": 45.6730361, "longitude": 18.9800144, "source": "osm", "_tags": {"amenity": "hospital", "building": "hospital", "emergency": "yes", "healthcare": "hospital", "int_name": "Dom zdravlja", "name": "Дом здравља", "name:sr": "Дом здравља", "name:sr-Latn": "Dom zdravlja", "phone": "+381 25 773 722", "website": "http://www.dzapatin.co.rs/", "wheelchair": "limited"}}, {"name": "Дом здравља Чантавир", "latitude": 45.9217108, "longitude": 19.7662033, "source": "osm", "_tags": {"addr:city": "Čantavir", "addr:postcode": "24220", "amenity": "hospital", "emergency": "yes", "healthcare": "hospital", "int_name": "Dom zdravlja Cantavir", "mobile": "+381 65 9155546", "name": "Дом здравља Чантавир", "name:sr": "Дом здравља Чантавир", "name:sr-Latn": "Dom zdravlja Čantavir", "phone": "+381 24 782179"}}, {"name": "", "latitude": 45.5021628, "longitude": 19.2570326, "source": "osm", "_tags": {"amenity": "hospital", "healthcare": "hospital"}}, {"name": "Дом здравља Др Хаџи Јанош", "latitude": 45.8222294, "longitude": 19.6331559, "source": "osm", "_tags": {"alt_name": "Дом здравља Бачка Топола", "alt_name:sr-Latn": "Dom zdravlja Backa Topola", "amenity": "hospital", "emergency": "yes", "fax": "+381 24 711 280", "healthcare": "hospital", "int_name": "Dom zdravlja Dr Hadzi Janos", "name": "Дом здравља Др Хаџи Јанош", "name:hu": "\"Dr. Hadzsy János\" Egészségház", "name:sr": "Дом здравља Др Хаџи Јанош", "name:sr-Latn": "Dom zdravlja Dr Hadži Janoš", "operator:type": "government", "phone": "+381 24 715 425", "website": "http://www.dzbt.co.rs/"}}, {"name": "Bácsalmási Egészségügyi Központ", "latitude": 46.1256125, "longitude": 19.333701, "source": "osm", "_tags": {"addr:city": "Bácsalmás", "amenity": "hospital", "name": "Bácsalmási Egészségügyi Központ"}}, {"name": "Општа болница Суботица", "latitude": 46.081238, "longitude": 19.6724097, "source": "osm", "_tags": {"amenity": "hospital", "emergency": "yes", "healthcare": "hospital", "healthcare:speciality": "general", "int_name": "Opsta bolnica Subotica", "name": "Општа болница Суботица", "name:en": "General Hospital of Subotica", "name:hu": "Szabadkai kórház", "name:sr": "Општа болница Суботица", "name:sr-Latn": "Opšta bolnica Subotica", "phone": "+38124555222", "type": "multipolygon", "website": "https://bolnicasubotica.com/"}}, {"name": "Општа болница „Др Радивој Симоновић” Сомбор", "latitude": 45.7818082, "longitude": 19.1067891, "source": "osm", "_tags": {"amenity": "hospital", "contact:website": "www.bolnicasombor.org.rs", "emergency": "yes", "healthcare": "hospital", "int_name": "Opsta bolnica „Dr Radivoj Simonovic” Sombor", "name": "Општа болница „Др Радивој Симоновић” Сомбор", "name:en": "General Hospital \"Dr. Radivoj Simonović\"", "name:hu": "Dr. Radivoj Simonović kórház", "name:sr": "Општа болница „Др Радивој Симоновић” Сомбор", "name:sr-Latn": "Opšta bolnica „Dr Radivoj Simonović” Sombor", "type": "multipolygon"}}, {"name": "Општа болница Врбас", "latitude": 45.5869939, "longitude": 19.6393873, "source": "osm", "_tags": {"addr:city": "Врбас", "addr:country": "RS", "addr:housenumber": "4", "addr:postcode": "21460", "addr:street": "Милана Чекића", "alt_name": "Градска Болница", "alt_name:en": "City Hospital", "alt_name:hu": "Városi kórház", "alt_name:sr": "Градска Болница", "alt_name:sr-Latn": "Gradska Bolnica", "amenity": "hospital", "area": "yes", "email": "info@obvs.rs", "emergency": "yes", "healthcare": "hospital", "int_name": "Opsta bolnica Vrbas", "name": "Општа болница Врбас", "name:sr": "Општа болница Врбас", "name:sr-Latn": "Opšta bolnica Vrbas", "opening_hours": "24/7", "operator:type": "government", "phone": "+381 21 7954 500", "type": "multipolygon", "website": "http://www.obvs.rs/", "wheelchair": "yes"}}]