[{"name": "Centre psychiatrique de la Cellette", "latitude": 45.6406242, "longitude": 2.5133601, "source": "osm", "_tags": {"amenity": "hospital", "healthcare": "hospital", "healthcare:speciality": "psychiatry", "name": "Centre psychiatrique de la Cellette", "ref:FR:FINESS": "190000711", "type:FR:FINESS": "292"}}, {"name": "Centre de Rééducation Fonctionnelle", "latitude": 46.0982414, "longitude": 2.690576, "source": "osm", "_tags": {"amenity": "hospital", "healthcare": "hospital", "name": "Centre de Rééducation Fonctionnelle", "ref:FR:FINESS": "630783348", "type:FR:FINESS": "109"}}, {"name": "Centre hospitalier Aubusson", "latitude": 45.9603904, "longitude": 2.1821871, "source": "osm", "_tags": {"amenity": "hospital", "building": "yes", "healthcare": "hospital", "name": "Centre hospitalier Aubusson", "ref:FR:FINESS": "230000838", "source": "Le ministère des solidarités et de la santé - 10/2018", "type:FR:FINESS": "355"}}, {"name": "Centre hospitalier de Montluçon", "latitude": 46.3419595, "longitude": 2.6097723, "source": "osm", "_tags": {"amenity": "hospital", "emergency": "yes", "fax": "+33 4 70 05 97 48", "healthcare": "hospital", "healthcare:speciality": "intensive", "name": "Centre hospitalier de Montluçon", "operator:type": "public", "phone": "+33 4 70 02 30 30", "ref:FR:FINESS": "030000079", "type:FR:FINESS": "355", "website": "https://www.ch-montlucon.fr/"}}, {"name": "Centre hospitalier de Néris-Les-Bains", "latitude": 46.2854645, "longitude": 2.6615646, "source": "osm", "_tags": {"addr:housenumber": "16", "addr:street": "Rue Voltaire", "amenity": "hospital", "emergency": "no", "name": "Centre hospitalier de Néris-Les-Bains", "ref:FR:FINESS": "030000012", "source": "Le ministère des solidarités et de la santé - 08/2018", "website": "http://www.ch-neris.fr"}}, {"name": "Hôpital privé Saint-François", "latitude": 46.3445385, "longitude": 2.6190879, "source": "osm", "_tags": {"addr:city": "Désertines", "addr:housenumber": "8", "addr:postcode": "03630", "addr:street": "Rue Ambroise Croizat", "amenity": "hospital", "emergency": "yes", "fax": "+33 4 70 05 44 64", "healthcare": "hospital", "name": "Hôpital privé Saint-François", "operator": "Elsan", "operator:type": "private", "operator:wikidata": "Q48747106", "operator:wikipedia": "fr:Elsan", "phone": "+33 8 26 39 99 29", "ref:FR:FINESS": "030781116", "type:FR:FINESS": "365", "website": "http://www.saint-francois-desertines.groupe-elsan.com/"}}, {"name": "Centre hospitalier de Haute-Corrèze", "latitude": 45.5432187, "longitude": 2.3122095, "source": "osm", "_tags": {"amenity": "hospital", "email": "direction@ch-ussel.fr", "emergency": "yes", "fax": "+33 5 55 96 40 01", "healthcare": "hospital", "name": "Centre hospitalier de Haute-Corrèze", "operator:type": "public", "phone": "+33 5 55 96 40 00", "ref:FR:FINESS": "190000091", "type:FR:FINESS": "355", "website": "https://www.ch-ussel.fr/", "wikidata": "Q28496275", "wikipedia": "fr:Centre hospitalier de Haute-Corrèze"}}, {"name": "Clinique de la Croix Blanche", "latitude": 45.9397235, "longitude": 2.171847, "source": "osm", "_tags": {"amenity": "hospital", "emergency": "yes", "fax": "+33 5 55 83 86 47", "healthcare": "hospital", "name": "Clinique de la Croix Blanche", "phone": "+33 5 55 83 60 00", "ref:FR:FINESS": "230004657", "type:FR:FINESS": "355"}}, {"name": "Centre Hospitalier l'Atrium", "latitude": 45.6550268, "longitude": 2.4656151, "source": "osm", "_tags": {"amenity": "hospital", "name": "Centre Hospitalier l'Atrium"}}]