[{"name": "Spitalul Feroviarilor din Basarabeasca", "latitude": 46.3291017, "longitude": 28.9938953, "source": "osm", "_tags": {"addr:city": "Basarabeasca", "addr:country": "MD", "addr:housenumber": "14/A", "addr:street": "Strada Nikolai Gogol", "amenity": "hospital", "healthcare": "hospital", "name": "Spitalul Feroviarilor din Basarabeasca", "name:ro": "Spitalul feroviarilor", "name:ru": "Больница железнодорожников"}}, {"name": "Тарутинська центральна районна лікарня", "latitude": 46.1786745, "longitude": 29.1527313, "source": "osm", "_tags": {"amenity": "hospital", "healthcare": "hospital", "name": "Тарутинська центральна районна лікарня", "name:ru": "Тарутинская центральная районная больница", "name:uk": "Тарутинська центральна районна лікарня", "phone": "+380 4847 31 736"}}, {"name": "Кілійська центральна района лікарня", "latitude": 45.4331539, "longitude": 29.2785408, "source": "osm", "_tags": {"addr:city": "Кілія", "addr:housenumber": "19", "addr:street": "вулиця Кубишкіна", "amenity": "hospital", "healthcare": "hospital", "name": "Кілійська центральна района лікарня", "name:ru": "Килийская районная больница", "name:uk": "Кілійська центральна района лікарня", "phone": "+380 4843 40 240", "website": "https://kiliya.crl.net.ua/"}}, {"name": "", "latitude": 46.307442, "longitude": 29.24075, "source": "osm", "_tags": {"amenity": "hospital", "healthcare": "hospital"}}, {"name": "Шевченківська амбулаторія загальної практики сімейної медицини", "latitude": 45.5519924, "longitude": 29.3353549, "source": "osm", "_tags": {"addr:housenumber": "16", "addr:postcode": "68332", "addr:street": "вулиця Чернишевського", "amenity": "hospital", "healthcare": "hospital", "name": "Шевченківська амбулаторія загальної практики сімейної медицини", "name:uk": "Шевченківська амбулаторія загальної практики сімейної медицини"}}, {"name": "", "latitude": 45.5217632, "longitude": 29.1629106, "source": "osm", "_tags": {"amenity": "hospital", "healthcare": "hospital"}}, {"name": "", "latitude": 46.3279594, "longitude": 28.9934667, "source": "osm", "_tags": {"addr:city": "Basarabeasca", "addr:country": "MD", "addr:housenumber": "14/B", "addr:street": "Strada Nikolai Gogol", "amenity": "hospital", "barrier": "fence", "healthcare": "hospital"}}, {"name": "Spitalul Raional Basarabeasca", "latitude": 46.3425601, "longitude": 28.9515233, "source": "osm", "_tags": {"addr:city": "Basarabeasca", "addr:country": "MD", "addr:housenumber": "55", "addr:street": "Strada Trudovaia", "amenity": "hospital", "healthcare": "hospital", "name": "Spitalul Raional Basarabeasca"}}, {"name": "Policlinica Basarabeasca", "latitude": 46.3327041, "longitude": 28.9628869, "source": "osm", "_tags": {"amenity": "hospital", "healthcare": "hospital", "name": "Policlinica Basarabeasca"}}]