[{"name": "ingresso Palazzina Uffici dell'Ospedale", "latitude": 45.5556651, "longitude": 11.5467193, "source": "osm", "_tags": {"amenity": "hospital", "healthcare": "hospital", "name": "ingresso Palazzina Uffici dell'Ospedale"}}, {"name": "Guardia Medica - Servizio di continuità assistenziale", "latitude": 45.5360626, "longitude": 11.5246562, "source": "osm", "_tags": {"addr:city": "Vicenza", "addr:country": "IT", "addr:housenumber": "4", "addr:postcode": "36100", "addr:street": "Via Giovanni Fincato", "amenity": "hospital", "name": "Guardia Medica - Servizio di continuità assistenziale", "note": "Guardia Medica", "phone": "+39 848800557"}}, {"name": "Centro Diagnostico Veneto", "latitude": 45.6140148, "longitude": 11.492417, "source": "osm", "_tags": {"amenity": "hospital", "name": "Centro Diagnostico Veneto"}}, {"name": "Ospedale di Cittadella", "latitude": 45.6471553, "longitude": 11.7887626, "source": "osm", "_tags": {"addr:city": "Cittadella", "addr:housenumber": "40", "addr:postcode": "35013", "addr:street": "Via Casa di Ricovero", "amenity": "hospital", "healthcare": "hospital", "internet_access": "wlan", "name": "Ospedale di Cittadella", "wheelchair": "yes"}}, {"name": "Istituto Ortopedico Elioterapico", "latitude": 45.8805961, "longitude": 11.4378456, "source": "osm", "_tags": {"amenity": "hospital", "name": "Istituto Ortopedico Elioterapico"}}, {"name": "SUEM 118 GUARDIA MEDICA", "latitude": 45.828192, "longitude": 11.8374924, "source": "osm", "_tags": {"amenity": "hospital", "emergency": "yes", "healthcare": "hospital", "name": "SUEM 118 GUARDIA MEDICA"}}, {"name": "Centro Socio Sanitario \"Mons. Egidio Negrin\" - ULSS 7 Pedemontana", "latitude": 45.7576359, "longitude": 11.7376067, "source": "osm", "_tags": {"amenity": "social_facility", "healthcare": "hospital", "name": "Centro Socio Sanitario \"Mons. Egidio Negrin\" - ULSS 7 Pedemontana", "operator": "ULSS 7 Pedemontana", "operator:type": "public"}}, {"name": "Guardia Medica", "latitude": 46.1874416, "longitude": 11.2585751, "source": "osm", "_tags": {"addr:city": "Scancio", "amenity": "hospital", "emergency": "no", "name": "Guardia Medica"}}, {"name": "Guardia Medica", "latitude": 46.2747699, "longitude": 11.0490774, "source": "osm", "_tags": {"addr:city": "Denno", "addr:postcode": "38010", "amenity": "hospital", "emergency": "no", "name": "Guardia Medica"}}, {"name": "Guardia Medica", "latitude": 45.8511471, "longitude": 10.9813247, "source": "osm", "_tags": {"addr:city": "Mori", "amenity": "hospital", "emergency": "no", "healthcare": "hospital", "name": "Guardia Medica"}}, {"name": "Guardia Medica", "latitude": 46.3203409, "longitude": 11.0661113, "source": "osm", "_tags": {"addr:city": "Taio", "amenity": "hospital", "emergency": "no", "name": "Guardia Medica"}}, {"name": "Distretto Sanitario", "latitude": 45.5404135, "longitude": 11.781439, "source": "osm", "_tags": {"amenity": "hospital", "healthcare": "hospital", "name": "Distretto Sanitario"}}, {"name": "Medicina generale - Responsabile Dott.ssa Marchi Maria", "latitude": 45.4420354, "longitude": 10.9411499, "source": "osm", "_tags": {"addr:city": "Verona", "addr:country": "IT", "addr:housenumber": "46", "addr:postcode": "37139", "addr:street": "Via Urbano terzo", "amenity": "clinic", "emergency": "yes", "healthcare": "hospital", "healthcare:speciality": "general", "name": "Medicina generale - Responsabile Dott.ssa Marchi Maria", "operator": "Ulss 9 Scaligera", "operator:type": "public", "phone": "+39 3478935061", "website": "https://www.aulss9.veneto.it/index.cfm?action=medici.dettaglio&id=006786", "wheelchair": "yes"}}, {"name": "Pronto Soccorso Ospedale Civile Feltre", "latitude": 46.0238437, "longitude": 11.9079481, "source": "osm", "_tags": {"addr:city": "Feltre", "addr:postcode": "32032", "amenity": "hospital", "emergency": "yes", "healthcare": "hospital", "name": "Pronto Soccorso Ospedale Civile Feltre"}}, {"name": "Pronto Soccorso Ospedale di Camposampiero", "latitude": 45.5651416, "longitude": 11.9299182, "source": "osm", "_tags": {"addr:city": "Camposampiero", "emergency": "emergency_ward_entrance", "entrance": "yes", "healthcare": "hospital", "name": "Pronto Soccorso Ospedale di Camposampiero"}}, {"name": "Pronto Soccorso Ospedale Cittadella", "latitude": 45.647362, "longitude": 11.7888046, "source": "osm", "_tags": {"addr:city": "Cittadella", "amenity": "hospital", "emergency": "yes", "healthcare": "hospital", "internet_access": "wlan", "name": "Pronto Soccorso Ospedale Cittadella", "wheelchair": "yes"}}, {"name": "Pronto Soccorso Ospedale \"San Giacomo Apostolo\"", "latitude": 45.6767011, "longitude": 11.9316347, "source": "osm", "_tags": {"addr:city": "Castelfranco Veneto", "amenity": "hospital", "emergency": "yes", "healthcare": "hospital", "name": "Pronto Soccorso Ospedale \"San Giacomo Apostolo\""}}, {"name": "Pronto Soccorso Ospedale Arzignano", "latitude": 45.5257258, "longitude": 11.3315438, "source": "osm", "_tags": {"addr:city": "Arzignano", "emergency": "ambulance_station", "healthcare": "hospital", "name": "Pronto Soccorso Ospedale Arzignano"}}, {"name": "Pronto Soccorso Ospedale San Bortolo", "latitude": 45.5552506, "longitude": 11.5455941, "source": "osm", "_tags": {"addr:city": "Vicenza", "emergency": "emergency_ward_entrance", "healthcare": "hospital", "name": "Pronto Soccorso Ospedale San Bortolo", "toilets:wheelchair": "yes", "wheelchair": "yes"}}, {"name": "Ex casa di cura Villabruna Bellati", "latitude": 46.0188052, "longitude": 11.9052581, "source": "osm", "_tags": {"addr:street": "Viale Guglielmo Marconi", "amenity": "hospital", "check_date": "2025-01-05", "healthcare": "hospital", "name": "Ex casa di cura Villabruna Bellati", "operator": "ULSS 1 Dolomiti", "operator:type": "public", "wheelchair": "yes"}}, {"name": "Distretto di Breganze Usll n°7", "latitude": 45.7082564, "longitude": 11.5659356, "source": "osm", "_tags": {"amenity": "hospital", "healthcare": "hospital", "name": "Distretto di Breganze Usll n°7", "operator": "Usll n° 7 Pedemontana", "operator:type": "public"}}, {"name": "Pre-Triage", "latitude": 45.5551291, "longitude": 11.5454464, "source": "osm", "_tags": {"amenity": "hospital", "healthcare": "hospital", "name": "Pre-Triage"}}, {"name": "Ospedale di Cittadella - Ex Entrata", "latitude": 45.6473742, "longitude": 11.7870826, "source": "osm", "_tags": {"addr:city": "Cittadella", "addr:housenumber": "40", "addr:postcode": "35013", "addr:street": "Via Casa di Ricovero", "amenity": "hospital", "healthcare": "hospital", "internet_access": "wlan", "name": "Ospedale di Cittadella - Ex Entrata", "wheelchair": "yes"}}, {"name": "Centro Raccolta Sangue", "latitude": 45.5576843, "longitude": 11.5432399, "source": "osm", "_tags": {"addr:housenumber": "14", "addr:postcode": "36100", "addr:street": "Viale Bartolomeo d'Alviano", "amenity": "hospital", "name": "Centro Raccolta Sangue", "name:en": "Blood Center"}}, {"name": "SE.FA.MO S.R.L.", "latitude": 45.5520412, "longitude": 11.5340333, "source": "osm", "_tags": {"addr:city": "Vicenza", "addr:housenumber": "49", "addr:postcode": "36100", "addr:street": "Stradella dei Cappuccini", "amenity": "hospital", "fixme": "Non è un ospedale ma più un poliambulatorio", "healthcare": "laboratory", "name": "SE.FA.MO S.R.L.", "wheelchair": "yes"}}, {"name": "Centro Sanitario Polifunzionale", "latitude": 45.710653, "longitude": 11.4703368, "source": "osm", "_tags": {"addr:city": "Thiene", "addr:housenumber": "1", "addr:postcode": "36016", "addr:street": "Via Boldrini", "amenity": "hospital", "check_date": "2025-03-31", "healthcare": "hospital", "healthcare:speciality": "general", "name": "Centro Sanitario Polifunzionale", "opening_hours": "Mo-Fr 06:45-20:45; Sa,Su closed", "operator": "ULSS 7 Pedemontana", "operator:type": "public", "phone": "+39 0445 388111"}}, {"name": "Centro di Medicina", "latitude": 45.7110858, "longitude": 11.3590523, "source": "osm", "_tags": {"amenity": "hospital", "healthcare": "hospital", "name": "Centro di Medicina"}}, {"name": "Medicina di Gruppo MC8", "latitude": 45.5986882, "longitude": 11.5723682, "source": "osm", "_tags": {"addr:housenumber": "28", "addr:street": "Via Dante", "amenity": "hospital", "check_date": "2025-07-04", "healthcare": "hospital", "name": "Medicina di Gruppo MC8", "operator": "Mediclinic", "phone": "+3904441497890"}}, {"name": "Punto Medico", "latitude": 45.5531173, "longitude": 11.9278023, "source": "osm", "_tags": {"addr:housenumber": "106", "addr:street": "Via Borgo Padova", "amenity": "hospital", "healthcare": "hospital", "name": "Punto Medico", "phone": "+390499300666"}}, {"name": "Casa della Salute - ULSS 7 Pedemontana", "latitude": 45.7213886, "longitude": 11.3560853, "source": "osm", "_tags": {"addr:city": "Schio", "addr:housenumber": "1", "addr:postcode": "36015", "addr:street": "Via San Camillo de Lellis", "amenity": "hospital", "check_date": "2025-08-17", "emergency": "no", "healthcare": "hospital", "name": "Casa della Salute - ULSS 7 Pedemontana", "operator": "ULSS 7 Pedemontana", "operator:type": "public"}}, {"name": "Ospedale Civile - ULSS 7 Pedemontana", "latitude": 45.8621074, "longitude": 11.5226356, "source": "osm", "_tags": {"addr:city": "Asiago", "addr:housenumber": "42", "addr:postcode": "36012", "addr:street": "Via Martiri di Granezza", "alt_name": "Ospedale di Asiago", "amenity": "hospital", "check_date": "2025-06-03", "contact:phone": "+39 0424 604111", "contact:website": "https://www.aulss7.veneto.it/ospedale-di-asiago", "healthcare": "hospital", "name": "Ospedale Civile - ULSS 7 Pedemontana", "operator": "ULSS 7 Pedemontana"}}, {"name": "Medicina di Gruppo Trissino Castelgomberto", "latitude": 45.5652724, "longitude": 11.3749221, "source": "osm", "_tags": {"addr:city": "Trissino", "addr:postcode": "36070", "addr:street": "Via Nazario Sauro", "amenity": "hospital", "healthcare": "hospital", "name": "Medicina di Gruppo Trissino Castelgomberto"}}, {"name": "Posto di Soccorso", "latitude": 46.2963287, "longitude": 11.788147, "source": "osm", "_tags": {"amenity": "hospital", "check_date": "2025-08-15", "healthcare": "hospital", "name": "Posto di Soccorso"}}, {"name": "Guardia Medica e Punto Prelievi", "latitude": 46.16377, "longitude": 11.0032233, "source": "osm", "_tags": {"addr:city": "Andalo", "addr:housenumber": "3", "addr:postcode": "38010", "addr:street": "Piazzale Paganella", "amenity": "hospital", "healthcare": "hospital", "name": "Guardia Medica e Punto Prelievi"}}, {"name": "Casa della Salute Raphael", "latitude": 46.0502479, "longitude": 11.4094525, "source": "osm", "_tags": {"amenity": "hospital", "healthcare": "hospital", "name": "Casa della Salute Raphael"}}, {"name": "Centro Sanitario Polifunzionale - Tregnago", "latitude": 45.5161472, "longitude": 11.1639694, "source": "osm", "_tags": {"addr:city": "Tregnago", "addr:housenumber": "7", "addr:postcode": "37039", "addr:street": "Viale Massalongo", "amenity": "hospital", "email": "distretto2tregnago@aulss9.veneto.it", "healthcare": "hospital", "name": "Centro Sanitario Polifunzionale - Tregnago", "operator": "ULSS 9 Scaligera", "operator:type": "public", "phone": "045 780 7284", "wheelchair": "yes"}}, {"name": "Ospedale \"San Giacomo Apostolo\"", "latitude": 45.6763726, "longitude": 11.9308925, "source": "osm", "_tags": {"amenity": "hospital", "healthcare": "hospital", "name": "Ospedale \"San Giacomo Apostolo\"", "note": "Area di pertinenza ospedale"}}, {"name": "Ospedale di Marzana", "latitude": 45.5006604, "longitude": 11.0140144, "source": "osm", "_tags": {"amenity": "hospital", "emergency": "no", "healthcare": "hospital", "name": "Ospedale di Marzana"}}, {"name": "Villa Igea", "latitude": 46.0617369, "longitude": 11.1280866, "source": "osm", "_tags": {"addr:housenumber": "6", "addr:postcode": "38122", "addr:street": "Via Malta", "alt_name": "Presidio ospedaliero Villa Igea", "amenity": "hospital", "building": "hospital", "emergency": "no", "healthcare": "hospital", "name": "Villa Igea", "operator": "Azienda Provinciale per i Servizi Sanitari", "operator:wikidata": "Q114902510", "phone": "+39 0461 903111", "website": "https://www.apss.tn.it/Azienda/Luoghi/Presidio-ospedaliero-Villa-Igea", "wikidata": "Q120032575"}}, {"name": "San Camillo", "latitude": 46.0650211, "longitude": 11.1320498, "source": "osm", "_tags": {"addr:housenumber": "19", "addr:postcode": "38122", "addr:street": "Via Benedetto Giovanelli", "amenity": "hospital", "building": "yes", "check_date": "2025-05-17", "contact:phone": "+39 0461 216111", "emergency": "no", "healthcare": "hospital", "name": "San Camillo", "operator": "Istituto figlie di San Camillo", "operator:type": "religious", "website": "https://www.figliedisancamillo.it/trento/ospedale-san-camillo/", "wheelchair": "yes"}}, {"name": "Casa di Cura \"Villa Bianca\"", "latitude": 46.0625766, "longitude": 11.1267243, "source": "osm", "_tags": {"addr:housenumber": "78", "addr:postcode": "38122", "addr:street": "Via Piave", "amenity": "hospital", "building": "yes", "contact:fax": "+39 0461 916874", "contact:phone": "+39 0461 916000", "emergency": "no", "healthcare": "hospital", "name": "Casa di Cura \"Villa Bianca\"", "operator:type": "private", "website": "https://www.villabiancatrento.it/", "wikidata": "Q30281055"}}, {"name": "Croce Rossa e Guardia Medica", "latitude": 45.9170096, "longitude": 11.1671318, "source": "osm", "_tags": {"amenity": "hospital", "building": "hospital", "building:levels": "4", "name": "Croce Rossa e Guardia Medica", "source": "PCN ortofoto_colore 2006 - autorizzazione 10687/TRI"}}, {"name": "Ambulatori Medico e Guardia Medica", "latitude": 45.9757561, "longitude": 11.0925788, "source": "osm", "_tags": {"addr:city": "Aldeno", "addr:housenumber": "1", "addr:postcode": "38060", "addr:street": "Via Florida", "amenity": "hospital", "emergency": "yes", "healthcare": "hospital", "name": "Ambulatori Medico e Guardia Medica", "operator": "APSS Trento", "wheelchair": "yes"}}, {"name": "Croce bianca Fai della Paganella", "latitude": 46.1781759, "longitude": 11.0709429, "source": "osm", "_tags": {"amenity": "hospital", "name": "Croce bianca Fai della Paganella"}}, {"name": "Ospedale Civile di Vicenza \"San Bortolo\"", "latitude": 45.5564019, "longitude": 11.5459799, "source": "osm", "_tags": {"amenity": "hospital", "healthcare": "hospital", "name": "Ospedale Civile di Vicenza \"San Bortolo\"", "ref": "ULSS6", "toilets:wheelchair": "yes", "wheelchair": "yes", "wikidata": "Q3886631"}}, {"name": "Ospedale Civile di Vicenza \"San Bortolo\"", "latitude": 45.557571, "longitude": 11.5434675, "source": "osm", "_tags": {"amenity": "hospital", "healthcare": "hospital", "name": "Ospedale Civile di Vicenza \"San Bortolo\""}}, {"name": "Casa di cura Villa Berica", "latitude": 45.5485206, "longitude": 11.5593359, "source": "osm", "_tags": {"amenity": "hospital", "healthcare": "hospital", "name": "Casa di cura Villa Berica"}}, {"name": "Casa di Cura privata Eretenia", "latitude": 45.5436441, "longitude": 11.545564, "source": "osm", "_tags": {"amenity": "hospital", "healthcare": "hospital", "name": "Casa di Cura privata Eretenia", "wheelchair": "yes", "wikidata": "Q56604952"}}, {"name": "Complesso San Felice ULSS 8", "latitude": 45.543029, "longitude": 11.5324831, "source": "osm", "_tags": {"amenity": "hospital", "healthcare": "hospital", "name": "Complesso San Felice ULSS 8"}}, {"name": "Casa di Cura privata Villa Berica", "latitude": 45.5486657, "longitude": 11.559568, "source": "osm", "_tags": {"amenity": "hospital", "healthcare": "hospital", "name": "Casa di Cura privata Villa Berica", "wikidata": "Q56604942"}}, {"name": "Villa Margherita", "latitude": 45.5133422, "longitude": 11.5431245, "source": "osm", "_tags": {"amenity": "hospital", "healthcare": "hospital", "name": "Villa Margherita", "note": "Area di pertinenza ospedale", "website": "http://www.casadicuravillamargherita.it/"}}, {"name": "Ospedale Santa Maria del Prato", "latitude": 46.0235925, "longitude": 11.9080353, "source": "osm", "_tags": {"amenity": "hospital", "emergency": "yes", "healthcare": "hospital", "name": "Ospedale Santa Maria del Prato", "note": "Area di pertinenza ospedale"}}, {"name": "Santa Chiara", "latitude": 46.0563229, "longitude": 11.1332908, "source": "osm", "_tags": {"addr:housenumber": "9", "addr:street": "Largo Medaglie d'Oro", "alt_name": "Presidio Ospedaliero Santa Chiara", "amenity": "hospital", "barrier": "fence", "emergency": "yes", "fence_type": "bars", "healthcare": "hospital", "importance": "regional", "name": "Santa Chiara", "operator": "Azienda Provinciale per i Servizi Sanitari", "operator:wikidata": "Q114902510", "phone": "+39 0461 903111", "website": "https://www.apss.tn.it/Azienda/Luoghi/Ospedale-Santa-Chiara-di-Trento", "wikidata": "Q54554839", "wikipedia": "it:Presidio Ospedaliero Santa Chiara di Trento"}}, {"name": "", "latitude": 46.0471463, "longitude": 11.7476976, "source": "osm", "_tags": {"amenity": "hospital", "note": "Area di pertinenza ospedale"}}, {"name": "Centro Sanitario Polifunzionale Maraschin-Zannini", "latitude": 45.6566383, "longitude": 11.6021371, "source": "osm", "_tags": {"amenity": "hospital", "building": "yes", "healthcare": "hospital", "name": "Centro Sanitario Polifunzionale Maraschin-Zannini"}}, {"name": "", "latitude": 45.6565644, "longitude": 11.6018877, "source": "osm", "_tags": {"amenity": "hospital", "healthcare": "hospital", "note": "Area di pertinenza ospedale"}}, {"name": "Ospedale di Asolo - ULSS 2 Marca Trevigiana", "latitude": 45.7960941, "longitude": 11.9122214, "source": "osm", "_tags": {"amenity": "hospital", "healthcare": "hospital", "name": "Ospedale di Asolo - ULSS 2 Marca Trevigiana", "note": "Area di pertinenza ospedale", "operator": "ULSS 2 Marca Trevigiana"}}, {"name": "Ospedale di Arzignano", "latitude": 45.525998, "longitude": 11.3315677, "source": "osm", "_tags": {"amenity": "hospital", "emergency": "yes", "name": "Ospedale di Arzignano"}}, {"name": "Ospedale di Montecchio Maggiore", "latitude": 45.509035, "longitude": 11.3991059, "source": "osm", "_tags": {"amenity": "hospital", "emergency": "yes", "healthcare": "hospital", "name": "Ospedale di Montecchio Maggiore", "note": "Aree destinate a servizi pubblici, militari e privati verificare tipologia landuse tramite ortofoto/controllo in loco."}}, {"name": "Distretto sanitario", "latitude": 45.762295, "longitude": 11.4317616, "source": "osm", "_tags": {"addr:city": "Piovene Rocchette", "addr:postcode": "36013", "addr:street": "Piazzale Vittoria", "amenity": "hospital", "building": "hospital", "emergency": "no", "name": "Distretto sanitario"}}, {"name": "Distretto Socio-Sanitario - ULSS 7 Pedemontana", "latitude": 45.730935, "longitude": 11.5190291, "source": "osm", "_tags": {"addr:city": "Zugliano", "addr:housenumber": "1", "addr:postcode": "36030", "addr:street": "Via G. Galilei", "amenity": "hospital", "healthcare": "hospital", "name": "Distretto Socio-Sanitario - ULSS 7 Pedemontana"}}, {"name": "", "latitude": 45.7439366, "longitude": 11.6505101, "source": "osm", "_tags": {"amenity": "hospital", "healthcare": "hospital", "note": "Area di pertinenza ospedale"}}, {"name": "Casa della Salute - ULSS 7 Pedemontana", "latitude": 45.7207714, "longitude": 11.3561803, "source": "osm", "_tags": {"amenity": "hospital", "check_date": "2025-08-14", "healthcare": "hospital", "name": "Casa della Salute - ULSS 7 Pedemontana", "note": "Area di pertinenza ospedale", "operator": "ULSS 7 Pedemontana", "operator:type": "public"}}, {"name": "", "latitude": 45.7184302, "longitude": 11.5666153, "source": "osm", "_tags": {"amenity": "hospital", "building": "church", "healthcare": "hospital"}}, {"name": "Ospedale Sacro Cuore Don Calabria", "latitude": 45.5297714, "longitude": 10.9373628, "source": "osm", "_tags": {"amenity": "hospital", "emergency": "yes", "name": "Ospedale Sacro Cuore Don Calabria", "website": "http://www.sacrocuoredoncalabria.it", "wikidata": "Q3886626", "wikipedia": "it:Ospedale Sacro Cuore Don Calabria"}}, {"name": "Ospedale Alto Vicentino - ULSS 7 Pedemontana", "latitude": 45.7268763, "longitude": 11.4147232, "source": "osm", "_tags": {"amenity": "hospital", "check_date": "2025-03-10", "healthcare": "hospital", "name": "Ospedale Alto Vicentino - ULSS 7 Pedemontana", "operator": "ULSS 7 Pedemontana", "operator:type": "public"}}, {"name": "Ospedale di Camposampiero", "latitude": 45.5647904, "longitude": 11.9282843, "source": "osm", "_tags": {"amenity": "hospital", "healthcare": "hospital", "name": "Ospedale di Camposampiero", "wheelchair": "yes"}}, {"name": "Centro Servizi Socio Sanitari Guido de Rossignoli", "latitude": 45.5629124, "longitude": 11.9283962, "source": "osm", "_tags": {"addr:housenumber": "1", "addr:street": "Via Cao del Mondo", "amenity": "hospital", "building": "yes", "building:levels": "4", "email": "dis01_csp@aulss6.veneto.it", "healthcare": "hospital", "name": "Centro Servizi Socio Sanitari Guido de Rossignoli", "phone": "+39049 9822232"}}, {"name": "ASL 15 Alta Padovana - Distaccamento Carmignano di Brenta", "latitude": 45.626997, "longitude": 11.7025417, "source": "osm", "_tags": {"amenity": "hospital", "healthcare": "hospital", "name": "ASL 15 Alta Padovana - Distaccamento Carmignano di Brenta", "operator": "ASL", "operator:wikidata": "Q3631467"}}, {"name": "", "latitude": 45.6469074, "longitude": 11.7865949, "source": "osm", "_tags": {"amenity": "hospital", "healthcare": "hospital"}}, {"name": "", "latitude": 45.6471251, "longitude": 11.7872725, "source": "osm", "_tags": {"amenity": "hospital", "healthcare": "hospital"}}, {"name": "", "latitude": 45.4487838, "longitude": 11.9080464, "source": "osm", "_tags": {"amenity": "hospital", "healthcare": "hospital"}}, {"name": "", "latitude": 45.4499929, "longitude": 11.9101838, "source": "osm", "_tags": {"amenity": "hospital", "healthcare": "hospital"}}, {"name": "Poliambulatorio", "latitude": 46.1780246, "longitude": 11.8315377, "source": "osm", "_tags": {"amenity": "hospital", "healthcare": "hospital", "name": "Poliambulatorio", "wikidata": "Q120032569"}}, {"name": "Ospedale Valli del Noce", "latitude": 46.3608615, "longitude": 11.0327172, "source": "osm", "_tags": {"addr:city": "Cles", "addr:country": "IT", "addr:housenumber": "31", "addr:postcode": "38023", "addr:street": "Viale Alcide De Gasperi", "amenity": "hospital", "emergency": "yes", "healthcare": "hospital", "name": "Ospedale Valli del Noce", "operator": "Azienda Provinciale per i Servizi Sanitari", "operator:wikidata": "Q114902510", "website": "https://www.apss.tn.it/Azienda/Luoghi/Ospedale-Valli-del-noce-di-Cles", "wikidata": "Q111665289"}}, {"name": "", "latitude": 45.556869, "longitude": 11.5140328, "source": "osm", "_tags": {"amenity": "hospital", "healthcare": "hospital"}}, {"name": "Ospedale San Lorenzo", "latitude": 45.6469383, "longitude": 11.3075042, "source": "osm", "_tags": {"addr:city": "Valdagno", "addr:housenumber": "1", "addr:postcode": "36078", "addr:street": "Via Galileo Galilei", "amenity": "hospital", "emergency": "yes", "healthcare": "hospital", "name": "Ospedale San Lorenzo", "note": "Area di pertinenza ospedale"}}, {"name": "U.S. Army Health Center - Vicenza", "latitude": 45.5487542, "longitude": 11.5781187, "source": "osm", "_tags": {"amenity": "hospital", "healthcare": "hospital", "name": "U.S. Army Health Center - Vicenza"}}, {"name": "Medicina di gruppo integrata Vallata Feltrina", "latitude": 46.0194597, "longitude": 11.9050712, "source": "osm", "_tags": {"amenity": "hospital", "check_date": "2025-01-05", "healthcare": "hospital", "name": "Medicina di gruppo integrata Vallata Feltrina"}}, {"name": "Ospedale di Fiemme", "latitude": 46.2884945, "longitude": 11.4552307, "source": "osm", "_tags": {"addr:city": "Cavalese", "addr:housenumber": "21", "addr:postcode": "38033", "addr:street": "Via dei Dossi", "alt_name": "Ospedale di Cavalese", "amenity": "hospital", "emergency": "yes", "healthcare": "hospital", "name": "Ospedale di Fiemme", "operator": "Azienda Provinciale per i Servizi Sanitari", "operator:wikidata": "Q114902510", "phone": "+39 0462 242111", "website": "https://www.apss.tn.it/Azienda/Luoghi/Ospedale-di-Cavalese"}}, {"name": "Ospedale Riabilitativo Villa Rosa", "latitude": 46.0645264, "longitude": 11.2489497, "source": "osm", "_tags": {"addr:city": "Pergine Valsugana", "addr:housenumber": "84", "addr:postcode": "38057", "addr:street": "Via Spolverine", "amenity": "hospital", "contact:phone": "+39 0461 501500", "contact:website": "https://www.apss.tn.it/Azienda/Luoghi/Struttura-semplice-riabilitazione-cardiologica-Villa-Rosa", "emergency": "no", "healthcare": "hospital", "name": "Ospedale Riabilitativo Villa Rosa", "operator": "Azienda Provinciale per i Servizi Sanitari", "operator:wikidata": "Q114902510"}}, {"name": "Ospedale San Giacomo Apostolo", "latitude": 45.677042, "longitude": 11.9318309, "source": "osm", "_tags": {"addr:city": "Castelfranco Veneto", "addr:housenumber": "16", "addr:postcode": "31033", "addr:street": "via dei carpani", "addr:unit": "z", "amenity": "hospital", "emergency": "yes", "healthcare": "hospital", "healthcare:speciality": "accettazione_e_pronto_soccorso_anatomia_ed_istologia_patologica_angiologia_breast_unit_cardiologia_chirurgia_ambulatoriale_oculistica_chirurgia_generale_chirurgia_maxillo-facciale_chirurgia_vascolare_diabetologia_direzione_medica_ematologia_farmacia_fisic", "name": "Ospedale San Giacomo Apostolo", "operator": "AULSS2", "operator:type": "government"}}, {"name": "", "latitude": 45.4846049, "longitude": 11.2538185, "source": "osm", "_tags": {"addr:city": "Montecchia di Crosara", "addr:housenumber": "12", "addr:postcode": "37030", "addr:street": "Piazza Umberto I", "amenity": "hospital", "healthcare": "hospital", "operator": "ASL", "operator:type": "public", "operator:wikidata": "Q3631467"}}, {"name": "Centro di Protonterapia", "latitude": 46.0493446, "longitude": 11.1156938, "source": "osm", "_tags": {"addr:housenumber": "14", "addr:postcode": "38122", "addr:street": "Via al Desert", "amenity": "hospital", "emergency": "no", "healthcare": "hospital", "healthcare:speciality": "nuclear", "name": "Centro di Protonterapia", "name:en": "Proton Therapy Center Trento", "operator": "Azienda Provinciale per i Servizi Sanitari", "operator:wikidata": "Q114902510", "particle_accelerator": "circular", "phone": "+39 0461 1953100", "substance": "proton", "website": "https://protonterapia.provincia.tn.it/", "wikidata": "Q65010366"}}, {"name": "Ospedale San Bassiano - ULSS 7 Pedemontana", "latitude": 45.7466656, "longitude": 11.7445064, "source": "osm", "_tags": {"addr:city": "Bassano del Grappa", "addr:housenumber": "40", "addr:postcode": "36061", "addr:street": "Via dei Lotti", "amenity": "hospital", "emergency": "yes", "healthcare": "hospital", "name": "Ospedale San Bassiano - ULSS 7 Pedemontana", "operator": "ULSS 7 Pedemontana", "operator:type": "public", "website": "https://aulss7.veneto.it/"}}, {"name": "Ospedale Santa Maria del Carmine", "latitude": 45.8820855, "longitude": 11.0417814, "source": "osm", "_tags": {"addr:city": "Rovereto", "addr:housenumber": "4", "addr:postcode": "38068", "addr:street": "Corso Verona", "amenity": "hospital", "contact:fax": "+39 0464 403573", "contact:phone": "+39 0464 403111", "email": "urp@apss.tn.it", "emergency": "yes", "healthcare": "hospital", "name": "Ospedale Santa Maria del Carmine", "operator": "Azienda Provinciale per i Servizi Sanitari", "operator:wikidata": "Q114902510", "type": "multipolygon", "website": "https://www.apss.tn.it/Azienda/Luoghi/Ospedale-Santa-Maria-del-Carmine-di-Rovereto", "wikidata": "Q51472110"}}, {"name": "Ospedale San Lorenzo", "latitude": 46.0569877, "longitude": 11.4639841, "source": "osm", "_tags": {"addr:city": "Borgo Valsugana", "addr:housenumber": "9", "addr:postcode": "38051", "addr:street": "Corso Vicenza", "amenity": "hospital", "emergency": "yes", "healthcare": "hospital", "name": "Ospedale San Lorenzo", "operator": "Azienda Provinciale per i Servizi Sanitari", "operator:wikidata": "Q114902510", "phone": "+39 0461 755111", "type": "multipolygon", "website": "https://www.apss.tn.it/Azienda/Luoghi/Ospedale-San-Lorenzo-di-Borgo-Valsugana", "wikidata": "Q120032570"}}, {"name": "A.S.L.", "latitude": 46.0628518, "longitude": 11.2446902, "source": "osm", "_tags": {"amenity": "hospital", "building": "yes", "healthcare": "hospital", "name": "A.S.L.", "operator": "ASL", "operator:wikidata": "Q3631467", "type": "multipolygon"}}, {"name": "Ospedale Civile Maggiore", "latitude": 45.4529036, "longitude": 10.9831825, "source": "osm", "_tags": {"addr:city": "Verona", "addr:housenumber": "1", "addr:postcode": "37126", "addr:street": "Piazzale Aristide Stefani", "amenity": "hospital", "barrier": "wall", "emergency": "yes", "healthcare": "hospital", "name": "Ospedale Civile Maggiore", "type": "multipolygon", "wheelchair": "yes", "wikidata": "Q3886599"}}]