[{"name": "Spitalul Ioan Lascăr", "latitude": 46.418749, "longitude": 26.448467, "source": "osm", "_tags": {"amenity": "hospital", "emergency": "yes", "name": "Spitalul Ioan Lascăr"}}, {"name": "Orvosi rendelő", "latitude": 45.7601716, "longitude": 26.2706362, "source": "osm", "_tags": {"amenity": "hospital", "emergency": "no", "healthcare": "hospital", "name": "Orvosi rendelő"}}, {"name": "dentallabbalint-fogtechnikai laboratorium", "latitude": 46.0018856, "longitude": 26.1418258, "source": "osm", "_tags": {"addr:city": "Kézdivásárhely", "addr:housenumber": "5", "addr:postcode": "525400", "addr:street": "24-es udvarter", "amenity": "hospital", "emergency": "no", "healthcare": "hospital", "name": "dentallabbalint-fogtechnikai laboratorium", "operator": "Balint Zsolt", "phone": "+4(0)755459569"}}, {"name": "Spital boli cardiologice", "latitude": 45.8458354, "longitude": 26.2094375, "source": "osm", "_tags": {"addr:postcode": "525200", "addr:street": "Strada Mihai Eminescu", "amenity": "hospital", "healthcare": "hospital", "healthcare:speciality": "cardiology", "name": "Spital boli cardiologice", "name:ro": "Spital boli cardiologice", "opening_hours": "24/7"}}, {"name": "Cabinet stomatologic Dr. Schifirnet M.Ovidiu", "latitude": 46.2540669, "longitude": 26.7728707, "source": "osm", "_tags": {"addr:city": "Onești", "addr:housenumber": "43", "addr:postcode": "601129", "addr:street": "Bulevardul Republicii", "amenity": "dentist", "emergency": "yes", "healthcare": "hospital", "healthcare:speciality": "dentist;general", "internet_access": "yes", "name": "Cabinet stomatologic Dr. Schifirnet M.Ovidiu", "operator": "QUALYDENT MED SRL", "operator:type": "private"}}, {"name": "Spitalul Întorsura Buzăului", "latitude": 45.6739046, "longitude": 26.0397971, "source": "osm", "_tags": {"amenity": "hospital", "building": "hospital", "emergency": "no", "healthcare": "hospital", "name": "Spitalul Întorsura Buzăului", "name:ro": "Bodzafordulói Kórház"}}, {"name": "Infecțioase", "latitude": 46.2545798, "longitude": 26.763471, "source": "osm", "_tags": {"amenity": "hospital", "building": "yes", "name": "Infecțioase"}}, {"name": "Spitalul Municipal Onești Sfântul Ierarh Doctor Luca", "latitude": 46.2545083, "longitude": 26.764315, "source": "osm", "_tags": {"addr:city": "Onești", "addr:housenumber": "1", "addr:postcode": "601048", "addr:street": "Strada Perchiului", "amenity": "hospital", "healthcare": "hospital", "name": "Spitalul Municipal Onești Sfântul Ierarh Doctor Luca", "phone": "+40234323111", "website": "https://spitalonesti.ro/"}}, {"name": "Spitalul Orășenesc Covasna", "latitude": 45.8438295, "longitude": 26.1628153, "source": "osm", "_tags": {"amenity": "hospital", "emergency": "yes", "healthcare": "hospital", "name": "Spitalul Orășenesc Covasna"}}, {"name": "", "latitude": 45.8459452, "longitude": 26.1653719, "source": "osm", "_tags": {"amenity": "hospital", "healthcare": "hospital"}}, {"name": "", "latitude": 45.8443928, "longitude": 26.1670666, "source": "osm", "_tags": {"amenity": "hospital", "healthcare": "hospital"}}, {"name": "Spitalul Ecomed - Vintilă Vodă", "latitude": 45.4581153, "longitude": 26.7436511, "source": "osm", "_tags": {"addr:city": "Vintilă Vodă", "amenity": "hospital", "fence": "yes", "fence_type": "metal", "healthcare": "hospital", "name": "Spitalul Ecomed - Vintilă Vodă"}}, {"name": "", "latitude": 46.4185321, "longitude": 26.4479347, "source": "osm", "_tags": {"amenity": "hospital", "healthcare": "hospital"}}, {"name": "Spital Municipal", "latitude": 45.9976797, "longitude": 26.1402674, "source": "osm", "_tags": {"addr:city": "Târgu Secuiesc", "addr:housenumber": "2A", "addr:postcode": "525400", "addr:street": "Strada Fabricii", "amenity": "hospital", "comment": "no helipad, but open areas nearby", "emergency": "yes", "healthcare": "hospital", "name": "Spital Municipal", "name:hu": "Városi Kórház", "name:ro": "Spital Municipal"}}, {"name": "Spitalul comunal Vidra", "latitude": 45.9114013, "longitude": 26.9077254, "source": "osm", "_tags": {"amenity": "hospital", "healthcare": "hospital", "heritage": "2", "heritage:operator": "lmi", "name": "Spitalul comunal Vidra", "ref:RO:lmi": "VN-II-m-B-06566"}}, {"name": "Cabinet medical de familie", "latitude": 45.659375, "longitude": 26.0664684, "source": "osm", "_tags": {"addr:city": "Sita Buzăului", "addr:housenumber": "222", "addr:postcode": "527155", "addr:street": "Strada Principală", "amenity": "hospital", "emergency": "no", "healthcare": "hospital", "healthcare:speciality": "general", "name": "Cabinet medical de familie"}}]