[{"name": "Centre hospitalier Étienne Clementel", "latitude": 45.9051332, "longitude": 3.0436852, "source": "osm", "_tags": {"amenity": "hospital", "healthcare": "hospital", "name": "Centre hospitalier Étienne Clementel", "phone": "+33473337555", "ref:FR:FINESS": "630000149", "type:FR:FINESS": "355", "website": "https://www.ch-clementel.fr/"}}, {"name": "Centre médical de Chanat", "latitude": 45.8179118, "longitude": 3.0243261, "source": "osm", "_tags": {"amenity": "hospital", "healthcare": "hospital", "name": "Centre médical de Chanat", "ref:FR:FINESS": "630780179", "type:FR:FINESS": "109"}}, {"name": "Hôpital Gabriel Montpied", "latitude": 45.7573668, "longitude": 3.0920736, "source": "osm", "_tags": {"addr:postcode": "63000", "alt_name": "CHU Gabriel Montpied;CHU Montpied", "amenity": "hospital", "emergency": "yes", "fax": "+33 4 73 62 54 41", "healthcare": "hospital", "healthcare:speciality": "intensive", "name": "Hôpital Gabriel Montpied", "operator:type": "public", "phone": "+33 4 73 75 07 50", "ref:FR:FINESS": "630000404", "type:FR:FINESS": "101", "website": "https://www.chu-clermontferrand.fr/le-chu/les-sites/site-gabriel-montpied"}}, {"name": "Centre hospitalier Guy Thomas", "latitude": 45.8886767, "longitude": 3.1127625, "source": "osm", "_tags": {"amenity": "hospital", "emergency": "yes", "fax": "+33 4 73 38 52 63", "healthcare": "hospital", "name": "Centre hospitalier Guy Thomas", "operator:type": "public", "phone": "+33 4 73 67 80 00", "ref:FR:FINESS": "630000438", "source": "cadastre-dgi-fr source : Direction Générale des Impôts - Cadastre ; mise à jour : 2009", "type:FR:FINESS": "355", "website": "http://ch-riom.fr/"}}, {"name": "Pôle Santé République", "latitude": 45.7876365, "longitude": 3.1050581, "source": "osm", "_tags": {"amenity": "hospital", "emergency": "yes", "fax": "+33 4 73 99 44 14", "name": "Pôle Santé République", "operator": "Groupe Elsan", "operator:type": "private", "phone": "+33 8 26 30 44 99", "ref:FR:FINESS": "630780211", "source": "cadastre-dgi-fr source : Direction Générale des Impôts - Cadastre;mise à jour : 2009", "type:FR:FINESS": "365", "website": "http://www.psr.groupe-elsan.com/"}}, {"name": "Centre hospitalier Jacques Lacarin", "latitude": 46.1229198, "longitude": 3.435529, "source": "osm", "_tags": {"amenity": "hospital", "contact:city": "Vichy", "contact:facebook": "https://www.facebook.com/hopitaldevichy", "contact:fax": "+33 4 70 97 33 03", "contact:housenumber": "1", "contact:linkedin": "https://fr.linkedin.com/company/centre-hospitalier-de-vichy", "contact:phone": "+33 4 70 97 33 33", "contact:postcode": "03200", "contact:street": "Boulevard Denière", "contact:website": "https://www.ch-vichy.fr/", "emergency": "yes", "healthcare": "hospital", "healthcare:speciality": "intensive", "name": "Centre hospitalier Jacques Lacarin", "opening_hours": "24/7", "operator:type": "public", "ref:FR:FINESS": "030000087", "ref:FR:NAF": "8610Z", "ref:FR:SIREN": "260300264", "ref:FR:SIRET": "26030026400017", "type:FR:FINESS": "355", "wikidata": "Q105164719", "wikimedia_commons": "Category:Centre hospitalier de Vichy"}}, {"name": "Hôpital de Billom", "latitude": 45.720979, "longitude": 3.3429535, "source": "osm", "_tags": {"amenity": "hospital", "healthcare": "hospital", "name": "Hôpital de Billom", "ref:FR:FINESS": "630000560"}}, {"name": "Clinique de la Plaine", "latitude": 45.8024891, "longitude": 3.1084169, "source": "osm", "_tags": {"addr:city": "Clermont-Ferrand", "addr:housenumber": "123", "addr:postcode": "63100", "addr:street": "Boulevard Étienne Clémentel", "amenity": "hospital", "building": "yes", "check_date": "2025-05-27", "healthcare": "hospital", "healthcare:speciality": "radiology", "name": "Clinique de la Plaine", "ref:FR:FINESS": "630780369", "source": "cadastre-dgi-fr source : Direction Générale des Impôts - Cadastre. Mise à jour : 2010", "type:FR:FINESS": "365"}}, {"name": "Hôpital de Jour Henri Ey", "latitude": 45.7791272, "longitude": 3.0748015, "source": "osm", "_tags": {"amenity": "hospital", "building": "yes", "name": "Hôpital de Jour Henri Ey", "source": "cadastre-dgi-fr source : Direction Générale des Impôts - Cadastre. Mise à jour : 2010"}}, {"name": "Polyclinique La Pergola", "latitude": 46.1502679, "longitude": 3.4118157, "source": "osm", "_tags": {"addr:city": "Vichy", "addr:country": "FR", "addr:housenumber": "75", "addr:postcode": "03200", "addr:street": "Allée des Ailes", "amenity": "hospital", "building": "hospital", "building:levels": "6", "contact:facebook": "GroupeELSAN", "contact:twitter": "elsan", "email": "clinique.lapergola@elsan.care", "healthcare": "hospital", "name": "Polyclinique La Pergola", "opening_hours": "Mo-Fr 07:30-19:30; Sa 09:00-18:00; Su 14:00-18:00", "operator": "Elsan", "operator:type": "private", "operator:wikidata": "Q48747106", "phone": "+33470301307", "ref:FR:FINESS": "030780548", "source": "survey", "source:building": "cadastre-dgi-fr source : Direction Générale des Impôts - Cadastre. Mise à jour : 2010", "survey:date": "2024-05-08", "type:FR:FINESS": "365", "website": "https://www.elsan.care/fr/polyclinique-la-pergola", "wheelchair": "yes"}}, {"name": "Espace Georges Canguilhem", "latitude": 46.1282555, "longitude": 3.4225865, "source": "osm", "_tags": {"addr:city": "Vichy", "addr:country": "FR", "addr:housenumber": "24", "addr:postcode": "03200", "addr:street": "Rue Bintot", "amenity": "hospital", "building": "hospital", "description": "Centre médico-psychologique Vichy-Ouest et Vichy-Est / Centre de post-cure Vichy-Ouest", "name": "Espace Georges Canguilhem", "operator": "Centre Hospitalier de Vichy", "phone": "+33470984258", "ref:FR:FINESS": "030785869", "ref:FR:SIRET": "26030026400124", "source": "survey", "source:building": "cadastre-dgi-fr source : Direction Générale des Impôts - Cadastre. Mise à jour : 2010", "survey:date": "2020-10-17", "type:FR:FINESS": "355"}}, {"name": "Centre Hospitalier de Thiers", "latitude": 45.8563545, "longitude": 3.5195961, "source": "osm", "_tags": {"addr:street": "Route du Fau", "amenity": "hospital", "emergency": "yes", "fax": "+33 4 73 51 10 08", "healthcare": "hospital", "name": "Centre Hospitalier de Thiers", "operator:type": "public", "phone": "+33 4 73 51 10 00", "ref:FR:FINESS": "630000446", "source": "Orthophotographie CRAIG/TopoGEODIS 2009", "type:FR:FINESS": "355", "website": "http://www.ch-thiers.fr/", "wikidata": "Q2945706"}}, {"name": "Clinique du Grand Pré", "latitude": 45.7988139, "longitude": 3.0423506, "source": "osm", "_tags": {"amenity": "hospital", "healthcare": "hospital", "name": "Clinique du Grand Pré", "ref:FR:FINESS": "630781821", "type:FR:FINESS": "161"}}, {"name": "Centre de rééducation fonctionnelle Notre-Dame", "latitude": 45.7778761, "longitude": 3.071941, "source": "osm", "_tags": {"amenity": "hospital", "healthcare": "hospital", "name": "Centre de rééducation fonctionnelle Notre-Dame", "ref:FR:FINESS": "630000487", "source": "extraction vectorielle v1 cadastre-dgi-fr source : Direction Générale des Impôts - Cadas. Mise à jour : 2010", "type:FR:FINESS": "109"}}, {"name": "Hôpital Estaing", "latitude": 45.7859285, "longitude": 3.1103053, "source": "osm", "_tags": {"alt_name": "CHU Estaing", "amenity": "hospital", "check_date": "2025-08-07", "emergency": "yes", "healthcare": "hospital", "healthcare:speciality": "intensive", "name": "Hôpital Estaing", "operator:type": "public", "phone": "+33 4 73 75 07 50", "ref:FR:FINESS": "630781268", "source": "cadastre-dgi-fr source : Direction Générale des Impôts - Cadastre. Mise à jour : 2012", "start_date": "2010", "type:FR:FINESS": "101", "website": "https://www.chu-clermontferrand.fr/Internet/Pages/Nos%20H%C3%B4pitaux/Chu%20Estaing/", "wikipedia": "fr:Hôpital d'Estaing"}}, {"name": "Hôpital Coeur du Bourbonnais", "latitude": 46.3090911, "longitude": 3.2862316, "source": "osm", "_tags": {"amenity": "hospital", "name": "Hôpital Coeur du Bourbonnais", "ref:FR:FINESS": "030007942", "source": "Le ministère des solidarités et de la santé - 08/2018"}}, {"name": "Clinique des 6 Lacs", "latitude": 45.7744827, "longitude": 3.0606845, "source": "osm", "_tags": {"amenity": "hospital", "building": "yes", "healthcare": "hospital", "name": "Clinique des 6 Lacs", "ref:FR:FINESS": "630010510", "type:FR:FINESS": "109"}}, {"name": "Pôle médical de Sémaphore", "latitude": 45.8357269, "longitude": 3.0941996, "source": "osm", "_tags": {"addr:city": "Cébazat", "addr:housenumber": "2", "addr:postcode": "63118", "addr:street": "Rue Lucie et Raymond Aubrac", "amenity": "hospital", "building": "commercial", "emergency": "no", "healthcare:speciality": "general", "name": "Pôle médical de Sémaphore", "ref:FR:FINESS": "630783538", "source": "cadastre-dgi-fr source : Direction Générale des Impôts - Cadastre. Mise à jour : 2014"}}, {"name": "Clinique Psychiatrique Les Queyriaux", "latitude": 45.7291019, "longitude": 3.2066992, "source": "osm", "_tags": {"amenity": "hospital", "emergency": "no", "healthcare": "hospital", "name": "Clinique Psychiatrique Les Queyriaux", "ref:FR:FINESS": "630781417", "source": "cadastre-dgi-fr source : Direction Générale des Finances Publiques - Cadastre. Mise à jour : 2014", "type:FR:FINESS": "161"}}, {"name": "CHU Louise Michel Hopital Nord", "latitude": 45.8386439, "longitude": 3.0910477, "source": "osm", "_tags": {"addr:city": "Cébazat", "addr:housenumber": "61", "addr:postcode": "63118", "addr:street": "Route de Châteaugay", "amenity": "hospital", "emergency": "yes", "name": "CHU Louise Michel Hopital Nord", "old_name": "Hopital Nord", "ref:FR:FINESS": "630783538", "source": "Le ministère des solidarités et de la santé - 08/2018"}}, {"name": "Centre hospitalier d'Ambert", "latitude": 45.5529195, "longitude": 3.7412012, "source": "osm", "_tags": {"amenity": "hospital", "emergency": "yes", "fax": "+33 4 73 82 73 83", "healthcare": "hospital", "name": "Centre hospitalier d'Ambert", "operator:type": "public", "phone": "+33 4 73 82 73 82", "ref:FR:FINESS": "630000412", "type:FR:FINESS": "355", "website": "http://ch-ambert.fr/"}}, {"name": "Centre hospitalier Paul Ardier", "latitude": 45.5416239, "longitude": 3.2523589, "source": "osm", "_tags": {"amenity": "hospital", "emergency": "yes", "fax": "+33 4 73 89 72 00", "healthcare": "hospital", "name": "Centre hospitalier Paul Ardier", "operator:type": "public", "phone": "+33 4 73 89 72 72", "ref:FR:FINESS": "630000420", "type:FR:FINESS": "355", "website": "https://www.ch-issoire.com/", "wheelchair": "yes"}}, {"name": "Clinique de la Châtaigneraie", "latitude": 45.752331, "longitude": 3.0739544, "source": "osm", "_tags": {"addr:housenumber": "53", "addr:street": "Rue de la Châtaigneraie", "amenity": "hospital", "healthcare": "hospital", "name": "Clinique de la Châtaigneraie", "ref:FR:FINESS": "630781839", "type:FR:FINESS": "365"}}, {"name": "Clinique Les Sorbiers", "latitude": 45.5346575, "longitude": 3.2516966, "source": "osm", "_tags": {"amenity": "hospital", "healthcare": "hospital", "name": "Clinique Les Sorbiers"}}, {"name": "Centre hospitalier Sainte-Marie", "latitude": 45.7787311, "longitude": 3.0758812, "source": "osm", "_tags": {"amenity": "hospital", "healthcare": "hospital", "name": "Centre hospitalier Sainte-Marie", "ref:FR:FINESS": "630780195", "source": "Le ministère des solidarités et de la santé - 03/2019", "type": "multipolygon", "type:FR:FINESS": "292"}}]