[{"name": "Zdravstveni dom Velenje", "latitude": 46.3618431, "longitude": 15.1161402, "source": "osm", "_tags": {"amenity": "hospital", "name": "Zdravstveni dom Velenje"}}, {"name": "ZOBNA AMBULANTA MAKOLE MIROSLAV KOVAČIČ, DR. DENT. MED.", "latitude": 46.3171673, "longitude": 15.666802, "source": "osm", "_tags": {"addr:housenumber": "28", "addr:street": "Makole", "amenity": "hospital", "name": "ZOBNA AMBULANTA MAKOLE MIROSLAV KOVAČIČ, DR. DENT. MED."}}, {"name": "ZASEBNA SPLOŠNA AMBULANTA SILVANA POPOV, DR. MED., SPEC. SPL. MED.", "latitude": 46.3171965, "longitude": 15.6668537, "source": "osm", "_tags": {"addr:housenumber": "28", "addr:street": "Makole", "amenity": "hospital", "name": "ZASEBNA SPLOŠNA AMBULANTA SILVANA POPOV, DR. MED., SPEC. SPL. MED."}}, {"name": "Zdravstveni dom Slovenska Bistrica", "latitude": 46.3955377, "longitude": 15.5622837, "source": "osm", "_tags": {"addr:city": "Slovenska Bistrica", "addr:housenumber": "30", "addr:postcode": "2310", "addr:street": "Partizanska ulica", "amenity": "hospital", "contact:phone": "+386 2 8432700", "contact:website": "http://www.zd-sb.si", "healthcare": "hospital", "name": "Zdravstveni dom Slovenska Bistrica", "name:en": "Medical Clinic Slovenska Bistrica", "wheelchair": "yes"}}, {"name": "Klinika Magdalena", "latitude": 46.0941872, "longitude": 15.8371297, "source": "osm", "_tags": {"addr:city": "Krapinske Toplice", "addr:housenumber": "2", "addr:postcode": "49217", "addr:street": "Ulica Ljudevita Gaja", "amenity": "hospital", "healthcare": "hospital", "healthcare:speciality": "cardiology;cardiothoracic_surgery", "name": "Klinika Magdalena", "operator": "Magdalena", "operator:type": "private", "website": "https://magdalena.hr/"}}, {"name": "Zdravstveni dom Brežice", "latitude": 45.908034, "longitude": 15.5940308, "source": "osm", "_tags": {"addr:city": "Brežice", "addr:housenumber": "13", "addr:postcode": "8250", "addr:street": "Černelčeva cesta", "amenity": "hospital", "healthcare": "hospital", "name": "Zdravstveni dom Brežice", "wikidata": "Q49138377"}}, {"name": "Urgenca", "latitude": 45.800322, "longitude": 15.1636788, "source": "osm", "_tags": {"emergency": "emergency_ward_entrance", "healthcare": "hospital", "name": "Urgenca"}}, {"name": "Splošna bolnišnica Celje", "latitude": 46.2338491, "longitude": 15.2613706, "source": "osm", "_tags": {"addr:city": "Celje", "addr:postcode": "3000", "addr:street": "Oblakova ulica", "amenity": "hospital", "name": "Splošna bolnišnica Celje", "toilets:wheelchair": "yes", "wheelchair": "yes"}}, {"name": "Klinička bolnica Sveti Duh", "latitude": 45.8204226, "longitude": 15.9393017, "source": "osm", "_tags": {"addr:city": "Zagreb", "addr:housenumber": "64", "addr:postcode": "10000", "addr:street": "Sveti Duh", "alt_name": "KB Sveti Duh;KBC Sveti Duh", "amenity": "hospital", "comment": "no helipad, red cross marked on two flat roofs", "email": "kb@kbsd.hr", "emergency": "yes", "fax": "+385 1 3712 308", "healthcare": "hospital", "name": "Klinička bolnica Sveti Duh", "operator": "Klinička bolnica Sveti Duh", "operator:type": "public", "phone": "+385 1 3712 111", "short_name": "KBSD", "website": "https://www.kbsd.hr/", "wheelchair": "limited", "wikidata": "Q30281005", "wikimedia_commons": "Category:Sveti Duh Clinical Hospital"}}, {"name": "Klinika za psihijatriju Vrapče", "latitude": 45.8168285, "longitude": 15.897714, "source": "osm", "_tags": {"addr:city": "Zagreb", "addr:housenumber": "32", "addr:postcode": "10090", "addr:street": "Bolnička cesta", "amenity": "hospital", "barrier": "fence", "email": "bolnica@bolnica-vrapce.hr", "fax": "+385 1 3483 660", "healthcare": "hospital", "healthcare:speciality": "psychiatry", "name": "Klinika za psihijatriju Vrapče", "name:en": "University Psychiatric Hospital Vrapče", "name:hr": "Klinika za psihijatriju Vrapče", "operator": "Klinika za psihijatriju Vrapče", "operator:type": "public", "phone": "+385 1 3780 666", "website": "https://bolnica-vrapce.hr/web/", "wikidata": "Q30280455", "wikipedia": "hr:Klinika za psihijatriju Vrapče"}}, {"name": "Zdravstveni dom Sevnica", "latitude": 46.0104764, "longitude": 15.3025188, "source": "osm", "_tags": {"addr:city": "Sevnica", "addr:country": "SI", "addr:housenumber": "14", "addr:postcode": "8290", "addr:street": "Trg svobode", "amenity": "hospital", "building": "yes", "building:levels": "3", "email": "info@zd-sevnica.si", "healthcare": "hospital", "healthcare:speciality": "general;gynaecology;physiatry;psychiatry", "name": "Zdravstveni dom Sevnica", "phone": "+38678161500", "website": "https://www.zd-sevnica.si/"}}, {"name": "Zdravstveni dom Celje", "latitude": 46.2322367, "longitude": 15.2623121, "source": "osm", "_tags": {"amenity": "hospital", "building": "yes", "name": "Zdravstveni dom Celje", "wheelchair": "yes"}}, {"name": "Zdravstveni dom Krško", "latitude": 45.9429958, "longitude": 15.4835543, "source": "osm", "_tags": {"addr:city": "Krško", "addr:housenumber": "132c", "addr:postcode": "8270", "addr:street": "Cesta Krških žrtev", "amenity": "hospital", "building": "yes", "contact:phone": "+386 7 4880200", "emergency": "yes", "healthcare": "hospital", "name": "Zdravstveni dom Krško"}}, {"name": "Zdravstveni dom", "latitude": 45.8013095, "longitude": 15.1626576, "source": "osm", "_tags": {"amenity": "hospital", "building": "yes", "healthcare": "hospital", "name": "Zdravstveni dom", "wheelchair": "yes"}}, {"name": "", "latitude": 45.8017253, "longitude": 15.1640268, "source": "osm", "_tags": {"amenity": "hospital", "building": "yes", "healthcare": "hospital", "wheelchair": "limited"}}, {"name": "", "latitude": 45.8011748, "longitude": 15.1644543, "source": "osm", "_tags": {"amenity": "hospital", "building": "yes", "healthcare": "hospital", "wheelchair": "yes"}}, {"name": "Splošna bolnišnica", "latitude": 45.7999676, "longitude": 15.1638289, "source": "osm", "_tags": {"addr:city": "Novo mesto", "addr:housenumber": "1", "addr:postcode": "8000", "addr:street": "Šmihelska cesta", "amenity": "hospital", "building": "yes", "healthcare": "hospital", "name": "Splošna bolnišnica", "wheelchair": "yes"}}, {"name": "", "latitude": 45.8006322, "longitude": 15.1620567, "source": "osm", "_tags": {"amenity": "hospital", "building": "yes", "healthcare": "hospital", "wheelchair": "yes"}}, {"name": "", "latitude": 45.8002545, "longitude": 15.1619231, "source": "osm", "_tags": {"amenity": "hospital", "building": "yes", "healthcare": "hospital", "wheelchair": "yes"}}, {"name": "Pivnica Donat", "latitude": 46.2388104, "longitude": 15.6402665, "source": "osm", "_tags": {"addr:city": "Rogaška Slatina", "addr:postcode": "3250", "addr:street": "Zdraviliški trg", "amenity": "hospital", "building": "yes", "drinking_water": "yes", "healthcare": "hospital", "name": "Pivnica Donat", "name:de": "Trinkhalle"}}, {"name": "Terapija", "latitude": 46.2386652, "longitude": 15.6409082, "source": "osm", "_tags": {"addr:city": "Rogaška Slatina", "addr:housenumber": "9", "addr:postcode": "3250", "addr:street": "Zdraviliški trg", "amenity": "hospital", "building": "yes", "healthcare": "hospital", "healthcare:speciality": "dermatology;physiatry;blood_check;gastroenterology", "name": "Terapija"}}, {"name": "Zdravstveni dom", "latitude": 46.2391457, "longitude": 15.634285, "source": "osm", "_tags": {"addr:city": "Rogaška Slatina", "addr:housenumber": "10", "addr:postcode": "3250", "addr:street": "Celjska cesta", "amenity": "hospital", "building": "yes", "healthcare": "hospital", "name": "Zdravstveni dom"}}, {"name": "Opća bolnica Karlovac", "latitude": 45.4775565, "longitude": 15.537911, "source": "osm", "_tags": {"addr:housenumber": "3", "addr:street": "Ulica Andrije Štampara", "amenity": "hospital", "healthcare": "hospital", "loc_name": "Bolnica Švarča", "name": "Opća bolnica Karlovac", "operator": "Opća bolnica Karlovac", "operator:type": "public", "website": "https://www.bolnica-karlovac.hr/", "wikidata": "Q134472932"}}, {"name": "Splošna bolnišnica Brežice", "latitude": 45.9090324, "longitude": 15.5946171, "source": "osm", "_tags": {"addr:city": "Brežice", "addr:housenumber": "15", "addr:postcode": "8250", "addr:street": "Černelčeva cesta", "amenity": "hospital", "name": "Splošna bolnišnica Brežice"}}, {"name": "Specijalna bolnica za medicinsku rehabilitaciju Krapinske Toplice", "latitude": 46.093434, "longitude": 15.8380196, "source": "osm", "_tags": {"addr:city": "Krapinske Toplice", "addr:housenumber": "2", "addr:postcode": "49217", "addr:street": "Ulica Ljudevita Gaja", "amenity": "hospital", "email": "info@sbkt.hr", "fax": "+385 49 232 140", "healthcare": "hospital", "healthcare:speciality": "physiatry", "name": "Specijalna bolnica za medicinsku rehabilitaciju Krapinske Toplice", "operator": "Specijalna bolnica Krapinske Toplice", "operator:type": "public", "phone": "+385 49 383 100", "website": "https://www.sbkt.hr/"}}, {"name": "Bolnišnica Brežice - Ambulante", "latitude": 45.9093199, "longitude": 15.5938116, "source": "osm", "_tags": {"amenity": "hospital", "building": "yes", "name": "Bolnišnica Brežice - Ambulante", "source": "GURS", "source:date": "20020614"}}, {"name": "Specijalna bolnica za medicinsku rehabilitaciju Stubičke Toplice", "latitude": 45.9775056, "longitude": 15.9355344, "source": "osm", "_tags": {"addr:city": "Stubičke Toplice", "addr:housenumber": "1", "addr:postcode": "49244", "addr:street": "Park Matije Gupca", "amenity": "hospital", "email": "info@sbst.hr", "fax": "+385 49 201 005", "healthcare": "hospital", "healthcare:speciality": "physiatry", "name": "Specijalna bolnica za medicinsku rehabilitaciju Stubičke Toplice", "operator": "Specijalna bolnica Stubičke Toplice", "operator:type": "public", "phone": "+385 49 201 000", "website": "https://sbst.hr/"}}, {"name": "Zdravstveni dom Videm pri Ptuju", "latitude": 46.3690871, "longitude": 15.9025713, "source": "osm", "_tags": {"addr:city": "Videm pri Ptuju", "addr:housenumber": "51", "addr:postcode": "2284", "addr:street": "Videm pri Ptuju", "amenity": "hospital", "building": "yes", "healthcare": "hospital", "name": "Zdravstveni dom Videm pri Ptuju", "ref:gurs:hs_mid": "14337989", "ref:gurs:sta_sid": "30578032"}}, {"name": "Opća bolnica Zabok i bolnica hrvatskih veterana", "latitude": 46.017755, "longitude": 15.9406952, "source": "osm", "_tags": {"addr:city": "Bračak", "addr:housenumber": "8", "addr:postcode": "49210", "addr:street": "Bračak", "alt_name": "Opća bolnica Zabok", "amenity": "hospital", "comment": "no helipad but open areas nearby", "email": "narucivanje@bolnica-zabok.hr", "fax": "+385 49 204 019", "healthcare": "hospital", "name": "Opća bolnica Zabok i bolnica hrvatskih veterana", "operator": "Opća bolnica Zabok i bolnica hrvatskih veterana", "operator:type": "public", "phone": "+385 49 204 000", "website": "https://www.bolnica-zabok.hr/", "wikidata": "Q30281275"}}, {"name": "Specijalna bolnica za kronične bolesti dječje dobi Gornja Bistra", "latitude": 45.9170371, "longitude": 15.9041522, "source": "osm", "_tags": {"addr:housenumber": "21", "addr:street": "Bolnička ulica", "amenity": "hospital", "area": "yes", "email": "info@bolnica-bistra.hr", "emergency": "yes", "healthcare": "hospital", "name": "Specijalna bolnica za kronične bolesti dječje dobi Gornja Bistra", "operator": "Specijalna bolnica za kronične bolesti dječje dobi Gornja Bistra", "operator:type": "public", "phone": "+385 1 3391 111", "start_date": "1962", "website": "http://www.bolnica-bistra.hr/"}}, {"name": "", "latitude": 46.1535361, "longitude": 15.0471599, "source": "osm", "_tags": {"amenity": "hospital", "healthcare": "hospital"}}, {"name": "Specijalna bolnica za produženo liječenje Duga Resa", "latitude": 45.4534219, "longitude": 15.4997876, "source": "osm", "_tags": {"addr:city": "Duga Resa", "addr:housenumber": "7", "addr:street": "Ulica Jozefa Jeruzalema", "amenity": "hospital", "healthcare": "hospital", "name": "Specijalna bolnica za produženo liječenje Duga Resa", "operator": "Specijalna bolnica Duga Resa", "operator:type": "public", "website": "http://www.bolnica-dugaresa.hr/"}}, {"name": "Klinika za psihijatriju Sveti Ivan", "latitude": 45.8059738, "longitude": 15.8763183, "source": "osm", "_tags": {"addr:city": "Zagreb", "addr:housenumber": "11", "addr:postcode": "10090", "addr:street": "Jankomir", "amenity": "hospital", "healthcare": "hospital", "healthcare:speciality": "psychiatry", "name": "Klinika za psihijatriju Sveti Ivan", "operator": "Klinika za psihijatriju Sveti Ivan", "operator:type": "public", "type": "multipolygon", "website": "https://www.pbsvi.hr/"}}]