[{"name": "Centre hospitalier de le Rochefoucaud", "latitude": 45.742217, "longitude": 0.3832859, "source": "osm", "_tags": {"amenity": "hospital", "healthcare": "hospital", "name": "Centre hospitalier de le Rochefoucaud", "ref:FR:FINESS": "160000188", "source": "Le ministère des solidarités et de la santé - 10/2018", "type:FR:FINESS": "106", "website": "https://www.ch-larochefoucauld.fr/", "wikidata": "Q92062887"}}, {"name": "Centre de la Planchonnerie", "latitude": 46.2137483, "longitude": 0.4832402, "source": "osm", "_tags": {"addr:city": "Payroux", "addr:housenumber": "36", "addr:street": "Rue René Fumeron", "alt_name": "Communauté d’accueil familial thérapeutique", "amenity": "social_facility", "contact:phone": "+33 5 49 87 69 72", "healthcare": "hospital", "healthcare:speciality": "psychiatry", "name": "Centre de la Planchonnerie", "operator": "Centre Hospitalier Henri Laborit", "ref:FR:FINESS": "860005123", "short_name": "CAFT", "social_facility": "assisted_living", "social_facility:for": "mental_health;senior", "source": "cadastre-dgi-fr source : Direction Générale des Impôts - Cadastre. Mise à jour : 2010", "type:FR:FINESS": "425", "website": "https://ch-laborit.fr/services-de-soins/adultes/alternatives-a-lhospitalisation/"}}, {"name": "Centre de Proximité en Santé Mentale Val de Vienne", "latitude": 45.8910686, "longitude": 0.8971905, "source": "osm", "_tags": {"addr:city": "Saint Junien", "addr:housenumber": "2", "addr:postcode": "87200", "addr:street": "Avenue de Précoin", "healthcare": "hospital", "healthcare:speciality": "psychiatry", "name": "Centre de Proximité en Santé Mentale Val de Vienne", "operator": "Centre Hospitalier Esquirol", "phone": "0555431333", "short_name": "CPSM", "website": "https://www.ch-esquirol-limoges.fr/offre-de-soin/hopital-de-jour-val-de-vienne-centre-de-proximite-en-sante-mentale-cpsm/"}}, {"name": "Centre hospitalier de Châteauneuf sur Charente", "latitude": 45.5969751, "longitude": -0.0594184, "source": "osm", "_tags": {"addr:city": "Châteauneuf-sur-Charente", "addr:postcode": "16120", "addr:street": "Place de l'Église", "amenity": "hospital", "building": "yes", "description": "Services :- Unité de Soins Palliatifs (USP)- Équipes Mobiles de Soins Palliatifs (EMSP)- Soins de Suites et de Réadaptation (SSR)- Unité de Soins Longue Durée (USLD)- Unité d’Hébergement Renforcée (UHR)- Consultation mémoire- EHPAD- Etc", "emergency": "no", "fax": "+33 5 45 97 11 29", "name": "Centre hospitalier de Châteauneuf sur Charente", "phone": "+33 5 45 66 21 89", "ref:FR:FINESS": "160000360", "ref:FR:NAF": "8610Z", "ref:FR:SIRET": "20001870300120", "source": "cadastre-dgi-fr source : Direction Générale des Impôts - Cadastre. Mise à jour : 2011", "website": "http://www.chateauneufsurcharente.fr/centre-hospitalier/", "wheelchair": "yes"}}, {"name": "Clinique Saint-Joseph", "latitude": 45.6495299, "longitude": 0.1466579, "source": "osm", "_tags": {"amenity": "hospital", "email": "contact@clinique-saint-joseph.com", "emergency": "no", "fax": "+33 5 45 38 67 01", "healthcare": "hospital", "name": "Clinique Saint-Joseph", "operator:type": "private", "phone": "+33 5 45 38 67 00", "ref:FR:FINESS": "160000170", "ref:FR:NAF": "8610Z", "ref:FR:SIREN": "844748020", "ref:FR:SIRET": "84474802000022", "source": "INSEE - 2024-10", "type:FR:FINESS": "128", "website": "https://clinique-saint-joseph.com/"}}, {"name": "Centre hospitalier d'Angoulême", "latitude": 45.6353274, "longitude": 0.1195882, "source": "osm", "_tags": {"addr:street": "Rond point de Girac", "alt_name": "Hôpital de Girac", "amenity": "hospital", "emergency": "yes", "fax": "+33 5 45 24 42 83", "healthcare": "hospital", "healthcare:speciality": "intensive", "name": "Centre hospitalier d'Angoulême", "operator:type": "public", "phone": "+33 5 45 24 40 40", "ref:FR:FINESS": "160000253", "type:FR:FINESS": "355", "website": "https://www.ch-angouleme.fr/", "wikidata": "Q2945684"}}, {"name": "Centre hospitalier Camille Claudel", "latitude": 45.6237836, "longitude": 0.1206754, "source": "osm", "_tags": {"amenity": "hospital", "healthcare": "hospital", "healthcare:speciality": "psychiatry", "name": "Centre hospitalier Camille Claudel", "ref:FR:FINESS": "160000345", "type:FR:FINESS": "292"}}, {"name": "Hôpital de Nontron", "latitude": 45.527964, "longitude": 0.6660818, "source": "osm", "_tags": {"amenity": "hospital", "healthcare": "hospital", "name": "Hôpital de Nontron", "ref:FR:FINESS": "240000471", "source": "cadastre-dgi-fr source : Direction Générale des Impôts - Cadastre. Mise à jour : 2010", "wikidata": "Q92063284"}}, {"name": "Centre Clinical", "latitude": 45.6365159, "longitude": 0.2030457, "source": "osm", "_tags": {"amenity": "hospital", "healthcare": "hospital", "healthcare:speciality": "surgery", "name": "Centre Clinical", "ref:FR:FINESS": "160013207", "ref:FR:SIREN": "323399295", "ref:FR:SIRET": "32339929500050", "type:FR:FINESS": "128", "wheelchair": "limited"}}, {"name": "Centre hospitalier de Ruffec", "latitude": 46.0279874, "longitude": 0.1957332, "source": "osm", "_tags": {"amenity": "hospital", "emergency": "yes", "fax": "+33 5 45 31 20 88", "healthcare": "hospital", "name": "Centre hospitalier de Ruffec", "operator:type": "public", "phone": "+33 5 45 29 50 00", "ref:FR:FINESS": "160000337", "ref:FR:NAF": "8610Z", "ref:FR:SIREN": "261600282", "ref:FR:SIRET": "26160028200014", "source": "cadastre-dgi-fr source : Direction Générale des Impôts - Cadastre. Mise à jour : 2011", "type:FR:FINESS": "355"}}, {"name": "", "latitude": 46.0049905, "longitude": 0.6701137, "source": "osm", "_tags": {"amenity": "hospital", "healthcare": "hospital"}}, {"name": "", "latitude": 45.8944688, "longitude": 0.91396, "source": "osm", "_tags": {"amenity": "hospital", "healthcare": "hospital"}}, {"name": "Pôle Gériatrique Chantemerle", "latitude": 45.8941639, "longitude": 0.9144478, "source": "osm", "_tags": {"amenity": "hospital", "building": "hospital", "fax": "+33 5 55 43 50 75", "healthcare": "hospital", "name": "Pôle Gériatrique Chantemerle", "phone": "+33 5 55 43 50 00", "ref:FR:FINESS": "870002516", "ref:FR:SIRET": "26871540600024", "source": "Le ministère des solidarités et de la santé - 2023-03", "type": "multipolygon"}}, {"name": "Centre hospitalier de Confolens", "latitude": 46.0049891, "longitude": 0.6699491, "source": "osm", "_tags": {"amenity": "hospital", "building": "hospital", "emergency": "yes", "fax": "+33 5 45 84 40 04", "healthcare": "hospital", "name": "Centre hospitalier de Confolens", "operator:type": "public", "phone": "+33 5 45 84 40 00", "ref:FR:FINESS": "160000311", "roof:shape": "flat", "source": "cadastre-dgi-fr source : Direction Générale des Finances Publiques - Cadastre. Mise à jour : 2018", "type": "multipolygon", "type:FR:FINESS": "355", "website": "http://www.ch-confolens.fr/"}}, {"name": "Centre Hospitalier Saint-Junien Roland Mazoin", "latitude": 45.8893908, "longitude": 0.897608, "source": "osm", "_tags": {"amenity": "hospital", "healthcare": "hospital", "name": "Centre Hospitalier Saint-Junien Roland Mazoin", "type": "multipolygon"}}]