[{"name": "Ospedale Madonna del Popolo", "latitude": 45.8729382, "longitude": 8.4118021, "source": "osm", "_tags": {"amenity": "hospital", "emergency": "yes", "name": "Ospedale Madonna del Popolo"}}, {"name": "Opera Pia \"Dr. Domenico Uccelli\"", "latitude": 46.059841, "longitude": 8.6925088, "source": "osm", "_tags": {"amenity": "hospital", "healthcare": "hospital", "name": "Opera Pia \"Dr. Domenico Uccelli\""}}, {"name": "Guardia Medica di Ghemme", "latitude": 45.5980945, "longitude": 8.4195093, "source": "osm", "_tags": {"amenity": "hospital", "barrier": "entrance", "emergency": "yes", "foot": "yes", "name": "Guardia Medica di Ghemme"}}, {"name": "Ospedale di Ghemme", "latitude": 45.5981634, "longitude": 8.419646, "source": "osm", "_tags": {"amenity": "hospital", "barrier": "entrance", "emergency": "no", "foot": "yes", "name": "Ospedale di Ghemme"}}, {"name": "Ambulatorio", "latitude": 45.8116905, "longitude": 8.9184692, "source": "osm", "_tags": {"amenity": "hospital", "emergency": "no", "healthcare": "hospital", "name": "Ambulatorio"}}, {"name": "Distretto Sanitario ASL 14", "latitude": 46.0068349, "longitude": 8.2702021, "source": "osm", "_tags": {"amenity": "hospital", "healthcare": "hospital", "name": "Distretto Sanitario ASL 14"}}, {"name": "Pronto Soccorso Ospedale Busto Arsizio", "latitude": 45.6233377, "longitude": 8.8464777, "source": "osm", "_tags": {"amenity": "hospital", "emergency": "yes", "emergency_ward_entrance": "all", "healthcare": "hospital", "name": "Pronto Soccorso Ospedale Busto Arsizio"}}, {"name": "Pronto Soccorso ASL Novara", "latitude": 45.4423457, "longitude": 8.6221182, "source": "osm", "_tags": {"amenity": "hospital", "emergency": "yes", "healthcare": "hospital", "name": "Pronto Soccorso ASL Novara"}}, {"name": "ASL13 - Ambulatori Oleggio", "latitude": 45.5983917, "longitude": 8.6361766, "source": "osm", "_tags": {"addr:city": "Oleggio", "addr:housenumber": "13", "addr:postcode": "28047", "addr:street": "Via Antonio Gramsci", "amenity": "hospital", "healthcare": "hospital", "name": "ASL13 - Ambulatori Oleggio"}}, {"name": "", "latitude": 45.7135897, "longitude": 8.6395114, "source": "osm", "_tags": {"amenity": "hospital"}}, {"name": "Medical Center", "latitude": 45.7215227, "longitude": 8.6515601, "source": "osm", "_tags": {"addr:city": "Sesto Calende", "addr:housenumber": "3", "addr:postcode": "21018", "addr:street": "Via Carlo Cattaneo", "amenity": "hospital", "emergency": "no", "healthcare": "hospital", "name": "Medical Center", "operator": "Centro Baroncini srl", "phone": "+39 0331 958570", "website": "https://www.centrobaroncini.it/"}}, {"name": "Centro Baroncini", "latitude": 45.7215873, "longitude": 8.6515078, "source": "osm", "_tags": {"addr:city": "Sesto Calende", "addr:housenumber": "3", "addr:postcode": "21018", "addr:street": "Via Carlo Cattaneo", "amenity": "hospital", "description": "Nella struttura sono attivi centri specializzati in grado di coprire tutte i principali ambiti di richiesta diagnostica e assistenziale per privati, aziende, lavoratori.", "emergency": "no", "healthcare": "hospital", "name": "Centro Baroncini", "operator": "Medical Center", "website": "https://www.medicalcentersrl.it/"}}, {"name": "Pronto Soccorso Ospedale di Circolo", "latitude": 45.8073901, "longitude": 8.8412878, "source": "osm", "_tags": {"addr:city": "Varese", "addr:postcode": "21100", "addr:street": "Via Francesco Guicciardini", "amenity": "hospital", "emergency": "yes", "healthcare": "hospital", "kids_area": "no", "name": "Pronto Soccorso Ospedale di Circolo", "operator": "Ospedale di Circolo"}}, {"name": "Pronto Soccorso Ospedale \"Sant'Antonio Abate\"", "latitude": 45.6562819, "longitude": 8.7922888, "source": "osm", "_tags": {"emergency": "emergency_ward_entrance", "entrance": "yes", "healthcare": "hospital", "name": "Pronto Soccorso Ospedale \"Sant'Antonio Abate\"", "toilets:wheelchair": "yes", "wheelchair": "yes"}}, {"name": "Pronto Soccorso Ospedale \"Angelo Bellini\"", "latitude": 45.6836723, "longitude": 8.7138738, "source": "osm", "_tags": {"emergency": "emergency_ward_entrance", "emergency_ward_entrance": "all", "healthcare": "hospital", "name": "Pronto Soccorso Ospedale \"Angelo Bellini\"", "toilets:wheelchair": "yes", "wheelchair": "yes"}}, {"name": "Poliambulatorio", "latitude": 45.4426091, "longitude": 8.622878, "source": "osm", "_tags": {"amenity": "hospital", "healthcare": "hospital", "name": "Poliambulatorio"}}, {"name": "Ospedale dei Bambini Eletto Lualdi", "latitude": 45.4427862, "longitude": 8.6196807, "source": "osm", "_tags": {"amenity": "hospital", "healthcare": "hospital", "name": "Ospedale dei Bambini Eletto Lualdi"}}, {"name": "Pronto Soccorso Ostetrico-Ginecologico-Pediatrico", "latitude": 45.4426888, "longitude": 8.6204013, "source": "osm", "_tags": {"addr:city": "Novara", "addr:postcode": "28100", "amenity": "hospital", "emergency": "yes", "healthcare": "hospital", "healthcare:speciality": "paediatrics", "name": "Pronto Soccorso Ostetrico-Ginecologico-Pediatrico", "operator:type": "public"}}, {"name": "Ambulatorio", "latitude": 45.6908917, "longitude": 8.5309197, "source": "osm", "_tags": {"addr:city": "Gattico-Veruno", "addr:country": "IT", "addr:postcode": "28010", "addr:street": "Via Guglielmo Marconi", "amenity": "hospital", "healthcare": "hospital", "name": "Ambulatorio"}}, {"name": "Asl Gallarate", "latitude": 45.6553655, "longitude": 8.7902963, "source": "osm", "_tags": {"addr:city": "Gallarate", "addr:housenumber": "1", "addr:postcode": "21013", "addr:street": "Corso Leonardo da Vinci", "amenity": "hospital", "check_date": "2025-05-28", "healthcare": "hospital", "name": "Asl Gallarate", "operator": "ASL", "operator:wikidata": "Q3631467", "toilets:wheelchair": "yes", "wheelchair": "yes", "wikidata": "Q37182911"}}, {"name": "Pronto Soccorso Ospedale Civile Di Legnano", "latitude": 45.5950124, "longitude": 8.9318013, "source": "osm", "_tags": {"amenity": "hospital", "emergency": "yes", "emergency_ward_entrance": "all", "healthcare": "hospital", "name": "Pronto Soccorso Ospedale Civile Di Legnano"}}, {"name": "Pronto Soccorso Humanitas Mater Domini", "latitude": 45.6091333, "longitude": 8.9069519, "source": "osm", "_tags": {"emergency": "emergency_ward_entrance", "healthcare": "hospital", "name": "Pronto Soccorso Humanitas Mater Domini"}}, {"name": "Centro Prelievi", "latitude": 45.4363425, "longitude": 8.6279615, "source": "osm", "_tags": {"addr:city": "Novara", "addr:housenumber": "1", "addr:postcode": "28100", "addr:street": "Viale Piazza d'Armi", "amenity": "hospital", "email": "centro.prelievi@maggioreosp.novara.it", "emergency": "no", "healthcare": "hospital", "healthcare:speciality": "general", "name": "Centro Prelievi", "opening_hours": "Mo-Fr 07:30-09:30; Sa, Su, PH off", "operator": "Azienda ospedaliero-universitaria Maggiore della Carità", "operator:type": "public", "phone": "+39 0321 3734995", "start_date": "2020/03/19"}}, {"name": "Deserto", "latitude": 45.9119859, "longitude": 8.8606241, "source": "osm", "_tags": {"amenity": "hospital", "healthcare": "hospital", "name": "Deserto"}}, {"name": "Ferraroli ESP", "latitude": 46.0337727, "longitude": 8.9226749, "source": "osm", "_tags": {"amenity": "hospital", "healthcare": "hospital", "name": "Ferraroli ESP"}}, {"name": "Casa della Salute Varallo", "latitude": 45.8172739, "longitude": 8.2531492, "source": "osm", "_tags": {"amenity": "hospital", "emergency": "no", "healthcare": "hospital", "healthcare:speciality": "physiatry;neuropsychiatry;consultorio_familiare", "name": "Casa della Salute Varallo", "operator": "asl vc", "operator:type": "public"}}, {"name": "ASST Sette Laghi - Casa di Comunità Varese", "latitude": 45.7977415, "longitude": 8.8489618, "source": "osm", "_tags": {"addr:city": "Varese", "addr:housenumber": "9", "addr:postcode": "21100", "addr:street": "Viale Ottorino Rossi", "amenity": "hospital", "email": "distretto.varese@asst-settelaghi.it", "healthcare": "hospital", "name": "ASST Sette Laghi - Casa di Comunità Varese", "operator": "ASL", "operator:type": "public", "operator:wikidata": "Q3631467", "website": "https://www.asst-settelaghi.it/sede-distrettuale-varese-via-rossi"}}, {"name": "Pronto Soccorso", "latitude": 45.996501, "longitude": 8.7464596, "source": "osm", "_tags": {"addr:city": "Luino", "addr:housenumber": "6", "addr:postcode": "21016", "addr:street": "Via Enrico Forlanini", "amenity": "hospital", "emergency": "emergency_ward_entrance", "healthcare": "hospital", "name": "Pronto Soccorso", "operator": "Ospedale di Luino", "operator:type": "public", "website": "https://www.asst-settelaghi.it/pronto-soccorso-ospedale-di-luino"}}, {"name": "Casa di Comunità Lonate Pozzolo", "latitude": 45.600104, "longitude": 8.7512799, "source": "osm", "_tags": {"amenity": "hospital", "emergency": "no", "healthcare": "hospital", "name": "Casa di Comunità Lonate Pozzolo", "wheelchair": "yes"}}, {"name": "ASL Distretto di Biandrate", "latitude": 45.4529681, "longitude": 8.4618552, "source": "osm", "_tags": {"addr:city": "Biandrate", "addr:housenumber": "9", "addr:postcode": "28061", "addr:street": "Via Giulio Greppi", "amenity": "hospital", "healthcare": "hospital", "name": "ASL Distretto di Biandrate", "operator": "ASL", "operator:wikidata": "Q3631467"}}, {"name": "", "latitude": 45.7198719, "longitude": 8.2722839, "source": "osm", "_tags": {"addr:city": "Borgosesia", "addr:postcode": "13011", "addr:street": "Viale Varallo", "amenity": "hospital", "emergency": "no", "healthcare": "hospital", "operator": "ASL", "operator:type": "government", "operator:wikidata": "Q3631467", "phone": "0163 426111", "wheelchair": "yes"}}, {"name": "Studio dentistico Mesenzana", "latitude": 45.9564571, "longitude": 8.760924, "source": "osm", "_tags": {"addr:city": "Mesenzana", "addr:housenumber": "55", "addr:postcode": "21030", "addr:street": "Via Provinciale", "amenity": "hospital", "healthcare": "dentist", "healthcare:speciality": "dentist", "name": "Studio dentistico Mesenzana"}}, {"name": "Ospedale di Circolo - Fondazione Macchi", "latitude": 45.8089209, "longitude": 8.8398291, "source": "osm", "_tags": {"alt_name": "Fondazione Macchi", "amenity": "hospital", "healthcare": "hospital", "name": "Ospedale di Circolo - Fondazione Macchi", "operator": "Regione Lombardia", "website": "http://www.ospedalivarese.net/", "wikidata": "Q19358919", "wikipedia": "it:Ospedale di Circolo e Fondazione Macchi"}}, {"name": "Multimedica - Clinica Santa Maria", "latitude": 45.6004277, "longitude": 8.8723196, "source": "osm", "_tags": {"amenity": "hospital", "emergency": "yes", "healthcare": "hospital", "name": "Multimedica - Clinica Santa Maria"}}, {"name": "Ospedale vecchio di Legnano", "latitude": 45.5953759, "longitude": 8.9313503, "source": "osm", "_tags": {"addr:city": "Legnano", "addr:housenumber": "2", "addr:postcode": "20025", "addr:street": "Via Cesare Candiani", "amenity": "hospital", "emergency": "no", "healthcare": "hospital", "name": "Ospedale vecchio di Legnano", "wikidata": "Q40340091"}}, {"name": "Padiglione 17", "latitude": 45.7989125, "longitude": 8.8481651, "source": "osm", "_tags": {"alt_name": "Padiglione C.R.T.", "amenity": "hospital", "building": "university", "healthcare": "hospital", "name": "Padiglione 17"}}, {"name": "Azienda Ospedaliera Sant'Antonio Abate - Gallarate", "latitude": 45.6566506, "longitude": 8.7919891, "source": "osm", "_tags": {"addr:city": "Gallarate", "addr:country": "IT", "addr:housenumber": "4", "addr:postcode": "21013", "addr:street": "Via Eusebio Pastori", "amenity": "hospital", "emergency": "yes", "fax": "+39 0331 751259", "healthcare": "hospital", "name": "Azienda Ospedaliera Sant'Antonio Abate - Gallarate", "phone": "+39 0331 751111", "website": "http://www.ospedaledigallarate.it/", "wheelchair": "yes", "wikidata": "Q30281242"}}, {"name": "Istituto Scientifico di Riabilitazione di Veruno - Fondazione Salvatore Maugeri", "latitude": 45.6948462, "longitude": 8.5353779, "source": "osm", "_tags": {"addr:city": "Gattico-Veruno", "addr:country": "IT", "addr:housenumber": "13", "addr:postcode": "28010", "addr:province": "NO", "addr:street": "Via per Revislate", "amenity": "hospital", "contact:phone": "+39 0322 884711", "contact:website": "http://www.fsm.it", "emergency": "no", "healthcare": "hospital", "name": "Istituto Scientifico di Riabilitazione di Veruno - Fondazione Salvatore Maugeri"}}, {"name": "Presidio ospedalieri G. Castelli", "latitude": 45.9257896, "longitude": 8.5487406, "source": "osm", "_tags": {"addr:city": "Verbania", "addr:housenumber": "18", "addr:postcode": "28900", "addr:street": "Via Fiume", "amenity": "hospital", "building": "yes", "emergency": "yes", "healthcare": "hospital", "name": "Presidio ospedalieri G. Castelli", "operator": "Azienda sanitaria locale del Verbano Cusio Ossola"}}, {"name": "Centro Sanitario Valcuvia", "latitude": 45.8988569, "longitude": 8.7333671, "source": "osm", "_tags": {"amenity": "hospital", "healthcare": "hospital", "name": "Centro Sanitario Valcuvia"}}, {"name": "Ospedale di Tradate \"Luigi Galmarini\"", "latitude": 45.720808, "longitude": 8.900552, "source": "osm", "_tags": {"amenity": "hospital", "healthcare": "hospital", "name": "Ospedale di Tradate \"Luigi Galmarini\""}}, {"name": "Istituto di riabilitazione \"Salvatore Maugeri\"", "latitude": 45.7198829, "longitude": 8.9113433, "source": "osm", "_tags": {"amenity": "hospital", "name": "Istituto di riabilitazione \"Salvatore Maugeri\"", "phone": "+39 0331 829111", "website": "https://www.fsm.it/istituto.php?id=3010"}}, {"name": "Istituti Clinici Scientifici Maugeri", "latitude": 45.7198286, "longitude": 8.9113526, "source": "osm", "_tags": {"addr:city": "Tradate", "addr:street": "Via Crotto Roncaccio", "amenity": "hospital", "healthcare": "hospital", "name": "Istituti Clinici Scientifici Maugeri"}}, {"name": "ASST Sette Laghi - Casa di Comunità di Tradate", "latitude": 45.7086409, "longitude": 8.9126846, "source": "osm", "_tags": {"addr:city": "Tradate", "addr:housenumber": "16", "addr:postcode": "21049", "addr:street": "Via Gradisca d'Isonzo", "amenity": "hospital", "building": "civic", "email": "casadicomunita.tradate@asst-settelaghi.it", "healthcare": "hospital", "name": "ASST Sette Laghi - Casa di Comunità di Tradate", "operator": "ASL", "operator:type": "public", "operator:wikidata": "Q3631467", "phone": "+39 0331 815115", "website": "https://www.asst-settelaghi.it/sede-territoriale-di-tradate"}}, {"name": "Humanitas Mater Domini", "latitude": 45.609131, "longitude": 8.9066919, "source": "osm", "_tags": {"addr:city": "Castellanza", "addr:country": "IT", "addr:housenumber": "2", "addr:postcode": "21053", "addr:street": "Via Gerenzano", "amenity": "hospital", "emergency": "yes", "fax": "+39 0331 476204", "healthcare": "hospital", "name": "Humanitas Mater Domini", "phone": "+39 0331 476111", "website": "https://www.materdomini.it/", "wikidata": "Q30260631"}}, {"name": "Istituto Auxologico Piancavallo", "latitude": 46.009738, "longitude": 8.6300421, "source": "osm", "_tags": {"addr:housenumber": "90", "addr:postcode": "28824", "addr:street": "Piancavallo - Morissolo \"Strada Cadorna\"", "amenity": "hospital", "healthcare": "hospital", "name": "Istituto Auxologico Piancavallo", "website": "https://www.auxologico.com/hospitals/auxologico-piancavallo"}}, {"name": "Clinica La Quiete", "latitude": 45.8211574, "longitude": 8.8148094, "source": "osm", "_tags": {"amenity": "hospital", "emergency": "no", "healthcare": "hospital", "name": "Clinica La Quiete", "wheelchair": "yes"}}, {"name": "Clinica San Gaudenzio", "latitude": 45.4506119, "longitude": 8.6159729, "source": "osm", "_tags": {"addr:city": "Novara", "addr:housenumber": "3", "addr:postcode": "28100", "addr:street": "Via Enrico Bottini", "amenity": "hospital", "building": "yes", "healthcare": "hospital", "name": "Clinica San Gaudenzio", "phone": "+39 0321 3831", "wheelchair": "yes"}}, {"name": "", "latitude": 45.6001129, "longitude": 8.7512877, "source": "osm", "_tags": {"amenity": "hospital", "healthcare": "hospital", "height": "5.201"}}, {"name": "ASST Sette Laghi - Casa di Comunità di Laveno Mombello", "latitude": 45.9073949, "longitude": 8.6227494, "source": "osm", "_tags": {"addr:city": "Laveno-Mombello", "addr:housenumber": "8", "addr:postcode": "21014", "addr:street": "Via Emilia Ceretti", "alt_name": "Guardia Medica di Laveno", "amenity": "hospital", "building": "hospital", "contact:phone": "+39 0332 625318;+39 0332 625317", "healthcare": "hospital", "name": "ASST Sette Laghi - Casa di Comunità di Laveno Mombello", "operator": "ASL", "operator:type": "public", "operator:wikidata": "Q3631467", "social_facility": "ambulatory_care", "toilets:access": "permissive", "toilets:wheelchair": "yes", "website": "https://www.asst-settelaghi.it/cdc-laveno-mombello", "wheelchair": "yes"}}, {"name": "Azienda Ospedaliera Ospedale di Circolo di Busto Arsizio", "latitude": 45.6225255, "longitude": 8.845622, "source": "osm", "_tags": {"alt_name": "Ospedale di Busto Arsizio", "amenity": "hospital", "emergency": "yes", "healthcare": "hospital", "name": "Azienda Ospedaliera Ospedale di Circolo di Busto Arsizio", "phone": "+39 0331 699111", "toilets:wheelchair": "yes", "website": "https://www.asst-valleolona.it/presidi/?nP=ospedale-di-busto-arsizio", "wheelchair": "yes", "wikidata": "Q23655529", "wikipedia": "it:Ospedale di Circolo di Busto Arsizio"}}, {"name": "Presidio Ospedaliero Angelo Bellini", "latitude": 45.6839479, "longitude": 8.7145848, "source": "osm", "_tags": {"addr:city": "Somma Lombardo", "addr:country": "IT", "addr:housenumber": "3", "addr:postcode": "21019", "addr:street": "Via Ospedale", "amenity": "hospital", "healthcare": "hospital", "name": "Presidio Ospedaliero Angelo Bellini", "website": "http://www.ospedaledigallarate.it/ao-sommalombardo.html", "wikidata": "Q95993627"}}, {"name": "Ospedale San Biagio", "latitude": 46.1167277, "longitude": 8.2872309, "source": "osm", "_tags": {"amenity": "hospital", "emergency": "yes", "healthcare": "hospital", "name": "Ospedale San Biagio"}}, {"name": "Ospedale Filippo Del Ponte", "latitude": 45.8155782, "longitude": 8.8344288, "source": "osm", "_tags": {"amenity": "hospital", "baby_feeding": "yes", "emergency": "yes", "healthcare": "hospital", "kids_area": "yes", "name": "Ospedale Filippo Del Ponte", "wikidata": "Q19369275", "wikipedia": "it:Ospedale Filippo del Ponte"}}, {"name": "Ospedale nuovo di Legnano", "latitude": 45.5803294, "longitude": 8.8879341, "source": "osm", "_tags": {"addr:city": "Legnano", "addr:housenumber": "3", "addr:postcode": "20025", "addr:street": "Via Giovanni Paolo II", "amenity": "hospital", "contact:yelp": "https://www.yelp.com/biz/azienda-ospedaliera-ospedale-di-legnano-legnano", "emergency": "yes", "healthcare": "hospital", "name": "Ospedale nuovo di Legnano", "phone": "+39 0331 449 111", "ref:vatin": "IT09319650967", "website": "https://www.asst-ovestmi.it/", "wikidata": "Q40340098", "wikipedia": "it:Ospedale civile di Legnano"}}, {"name": "Villa Cristina", "latitude": 45.8117764, "longitude": 8.5296109, "source": "osm", "_tags": {"addr:city": "Nebbiuno", "addr:housenumber": "1", "addr:postcode": "28010", "addr:street": "Dorsale Poggio Radioso", "building": "yes", "check_date": "2024-12-13", "healthcare": "hospital", "healthcare:speciality": "psychiatry", "name": "Villa Cristina", "phone": "+39 0322 280761"}}, {"name": "Spitalzentrum Oberwallis (SZO) Brig", "latitude": 46.3169632, "longitude": 7.9816376, "source": "osm", "_tags": {"addr:city": "Brig", "addr:housenumber": "14", "addr:postcode": "3902", "addr:street": "Ueberlandstrasse", "amenity": "hospital", "emergency": "yes", "healthcare": "hospital", "healthcare:speciality": "intensive", "name": "Spitalzentrum Oberwallis (SZO) Brig", "operator": "Hôpital du Valais", "phone": "+41 27 604 33 33", "website": "https://www.hopitalvs.ch/de/spital-wallis/standorte/spitalzentrum-oberwallis.html"}}, {"name": "Casa di cura \"Villa Vialarda\"", "latitude": 45.5728322, "longitude": 8.0478262, "source": "osm", "_tags": {"amenity": "hospital", "name": "Casa di cura \"Villa Vialarda\""}}, {"name": "Centro di Assistenza Primaria (CAP)", "latitude": 45.7612611, "longitude": 8.558489, "source": "osm", "_tags": {"addr:city": "Arona", "addr:housenumber": "11", "addr:postcode": "28041", "addr:street": "Via San Carlo", "alt_name": "Ospedale Santissima Trinità", "amenity": "hospital", "healthcare": "hospital", "name": "Centro di Assistenza Primaria (CAP)", "operator": "ASL13"}}, {"name": "Azienda Universitario-Ospedaliera \"Maggiore della Carità\"", "latitude": 45.4429009, "longitude": 8.621286, "source": "osm", "_tags": {"addr:city": "Novara", "addr:postcode": "28100", "alt_name": "Ospedale Maggiore della Carità", "amenity": "hospital", "dog": "no", "emergency": "yes", "healthcare": "hospital", "name": "Azienda Universitario-Ospedaliera \"Maggiore della Carità\"", "smoking": "no"}}, {"name": "Istituto Madonna della Croce", "latitude": 45.8676667, "longitude": 8.9084545, "source": "osm", "_tags": {"addr:city": "Viggiù", "addr:housenumber": "1", "addr:postcode": "21059", "addr:street": "Via Ospedale", "amenity": "hospital", "building": "hospital", "contact:phone": "+39 0332 486121", "healthcare": "hospital", "name": "Istituto Madonna della Croce", "ref:vatin": "IT00577510126", "website": "https://www.madonnadellacroce.it/"}}, {"name": "Ospedale Santissima Trin ità", "latitude": 45.7046467, "longitude": 8.4589136, "source": "osm", "_tags": {"addr:city": "Borgomanero", "addr:housenumber": "10", "addr:postcode": "28021", "addr:street": "Viale Maddalena Zoppis", "amenity": "hospital", "emergency": "yes", "healthcare": "hospital", "name": "Ospedale Santissima Trin ità"}}, {"name": "Nuovo Ospedale degli Infermi", "latitude": 45.5432058, "longitude": 8.0628124, "source": "osm", "_tags": {"amenity": "hospital", "building": "hospital", "healthcare": "hospital", "name": "Nuovo Ospedale degli Infermi", "wikidata": "Q30281189"}}, {"name": "Ospedale Carlo Ondoli", "latitude": 45.7756028, "longitude": 8.5789299, "source": "osm", "_tags": {"addr:city": "Angera", "addr:country": "IT", "addr:housenumber": "9", "addr:postcode": "21021", "addr:street": "Via Bordini", "amenity": "hospital", "barrier": "entrance", "emergency": "yes", "foot": "yes", "healthcare": "hospital", "name": "Ospedale Carlo Ondoli", "source": "survey"}}, {"name": "Ospedale di Cuggiono", "latitude": 45.5094367, "longitude": 8.8225645, "source": "osm", "_tags": {"amenity": "hospital", "name": "Ospedale di Cuggiono", "operator": "Azienda Ospedaliera \"Ospedale Civico di Legnano\""}}, {"name": "Le Terrazze", "latitude": 45.9346914, "longitude": 8.8067278, "source": "osm", "_tags": {"addr:city": "Cunardo", "addr:housenumber": "6b", "addr:postcode": "21035", "addr:street": "Via Ugo Foscolo", "amenity": "hospital", "building": "hospital", "contact:phone": "+39 0332 992111", "healthcare": "hospital", "name": "Le Terrazze", "opening_hours": "Mo,We-Fr 08:00-18:00, Tu 08:00-20:00; Sa 08:00-13:00; Su closed; PH closed", "toilets": "yes", "toilets:access": "customers", "toilets:wheelchair": "yes", "website": "https://www.clinicaleterrazze.com/", "wheelchair": "yes"}}, {"name": "Centro di riabilitazione \"La Nostra Famiglia\"", "latitude": 45.7706522, "longitude": 8.8951923, "source": "osm", "_tags": {"amenity": "hospital", "building": "hospital", "email": "vedano.olona@lanostrafamiglia.it", "healthcare": "hospital", "name": "Centro di riabilitazione \"La Nostra Famiglia\"", "operator": "Associazione \"La Nostra Famiglia\"", "phone": "+39 0332 866080", "website": "https://lanostrafamiglia.it/"}}, {"name": "Fondazione Raimondi Francesco", "latitude": 45.6367509, "longitude": 8.8997374, "source": "osm", "_tags": {"addr:city": "Gorla Minore", "addr:housenumber": "1", "addr:postcode": "21055", "addr:street": "Via Alessandro Volta", "amenity": "hospital", "email": "info@fondazioneraimondi.it", "emergency": "no", "healthcare": "hospital", "healthcare:speciality": "general", "name": "Fondazione Raimondi Francesco", "operator": "Fondazione Raimondi Francesco", "operator:type": "private", "phone": "+39 0331 601133", "website": "https://www.fondazioneraimondi.it/"}}, {"name": "CLINICA DI RIABILITAZIONE EOC - NOVAGGIO", "latitude": 46.0103245, "longitude": 8.8507853, "source": "osm", "_tags": {"addr:city": "Novaggio", "addr:housenumber": "6", "addr:postcode": "6986", "addr:street": "Via Dr. E. Schwarz", "amenity": "hospital", "healthcare": "rehabilitation", "name": "CLINICA DI RIABILITAZIONE EOC - NOVAGGIO", "operator": "EOC Ente Ospedaliero Cantonale", "phone": "+41 (91) 811 22 11", "short_name": "Reha Novaggio"}}, {"name": "Fondazione Gaetano e Piera Borghi", "latitude": 45.8332065, "longitude": 8.6591764, "source": "osm", "_tags": {"amenity": "hospital", "healthcare": "hospital", "kids_area": "no", "name": "Fondazione Gaetano e Piera Borghi"}}, {"name": "Protezione Civile della Comunità Montana del Piambello", "latitude": 45.8590102, "longitude": 8.8569834, "source": "osm", "_tags": {"amenity": "hospital", "healthcare": "hospital", "name": "Protezione Civile della Comunità Montana del Piambello"}}, {"name": "ASST Sette Laghi - Casa di Comunità di Arcisate", "latitude": 45.8591571, "longitude": 8.8571887, "source": "osm", "_tags": {"addr:city": "Arcisate", "addr:housenumber": "20", "addr:postcode": "21051", "addr:street": "Via Giacomo Matteotti", "amenity": "hospital", "healthcare": "hospital", "name": "ASST Sette Laghi - Casa di Comunità di Arcisate", "operator": "ASL", "operator:type": "public", "operator:wikidata": "Q3631467", "website": "https://www.asst-settelaghi.it/consultorio-arcisate"}}, {"name": "ASL BI - Presidio sanitario (ex Ospedaletto)", "latitude": 45.6726159, "longitude": 8.1594143, "source": "osm", "_tags": {"amenity": "hospital", "building": "yes", "name": "ASL BI - Presidio sanitario (ex Ospedaletto)"}}, {"name": "Istituti Clinici Scientifici Maugeri", "latitude": 45.720346, "longitude": 8.911369, "source": "osm", "_tags": {"addr:city": "Tradate", "addr:street": "Via Crotto Roncaccio", "amenity": "hospital", "healthcare": "hospital", "name": "Istituti Clinici Scientifici Maugeri"}}, {"name": "Ospedale Giuseppe Fornaroli", "latitude": 45.4709187, "longitude": 8.8936127, "source": "osm", "_tags": {"addr:city": "Magenta", "addr:housenumber": "50", "addr:postcode": "20013", "addr:street": "Via al donatore di sangue", "amenity": "hospital", "emergency": "yes", "healthcare": "hospital", "loc_name": "Ospedale di Magenta", "name": "Ospedale Giuseppe Fornaroli", "phone": "+39 02 979631", "website": "https://www.asst-ovestmi.it/"}}, {"name": "Clinica Santa Croce", "latitude": 46.1784812, "longitude": 8.7975805, "source": "osm", "_tags": {"addr:city": "Orselina", "addr:country": "CH", "addr:housenumber": "27", "addr:postcode": "6644", "addr:street": "Via al Parco", "amenity": "hospital", "email": "info@santacroce.ch", "emergency": "no", "healthcare": "hospital", "name": "Clinica Santa Croce", "phone": "+41 91 735 41 41", "website": "https://www.santacroce.ch/index.php?view=1000", "wheelchair": "limited"}}, {"name": "Clinica Luganese SA Sede San Rocco", "latitude": 46.0070343, "longitude": 8.9377555, "source": "osm", "_tags": {"addr:city": "Lugano", "addr:country": "CH", "addr:housenumber": "30", "addr:postcode": "6900", "addr:street": "Via Soldino", "amenity": "hospital", "healthcare": "hospital", "name": "Clinica Luganese SA Sede San Rocco"}}, {"name": "Clinica Luganese Moncucco", "latitude": 46.0051129, "longitude": 8.9398717, "source": "osm", "_tags": {"addr:city": "Lugano", "addr:country": "CH", "addr:housenumber": "10", "addr:postcode": "6903", "addr:street": "Via Moncucco", "amenity": "hospital", "email": "info@moncucco.ch", "emergency": "yes", "healthcare": "hospital", "healthcare:speciality": "intensive", "name": "Clinica Luganese Moncucco", "phone": "+41 91 960 81 11", "website": "https://moncucco.ch/", "wikidata": "Q33121077"}}, {"name": "Ospedale Sant'Anna", "latitude": 46.0001818, "longitude": 8.939075, "source": "osm", "_tags": {"addr:city": "Sorengo", "addr:country": "CH", "addr:housenumber": "1", "addr:postcode": "6924", "addr:street": "Via S. Anna", "amenity": "hospital", "healthcare": "hospital", "name": "Ospedale Sant'Anna", "phone": "+41 91 985 12 11", "website": "https://www.clinicasantanna.ch/it/"}}, {"name": "Ospedale Regionale La Carità", "latitude": 46.168628, "longitude": 8.7907474, "source": "osm", "_tags": {"amenity": "hospital", "emergency": "yes", "healthcare": "hospital", "healthcare:speciality": "intensive", "name": "Ospedale Regionale La Carità", "phone": "+41 91 811 41 11", "website": "https://www.eoc.ch/Ospedali-e-Istituti/Ospedale-Regionale-di-Locarno/Presentazione.html"}}, {"name": "Clinica Santa Chiara SA", "latitude": 46.1670449, "longitude": 8.7999805, "source": "osm", "_tags": {"amenity": "hospital", "healthcare": "hospital", "name": "Clinica Santa Chiara SA", "phone": "+41 91 756 41 11", "website": "https://www.clinicasantachiara.ch/"}}, {"name": "clinica ARS medica", "latitude": 46.0398632, "longitude": 8.9242408, "source": "osm", "_tags": {"addr:city": "Gravesano", "addr:housenumber": "16", "addr:postcode": "6929", "addr:street": "Via Grumo", "amenity": "hospital", "healthcare": "hospital", "name": "clinica ARS medica", "phone": "+41 91 611 62 11", "website": "https://www.arsmedica.ch/it/"}}, {"name": "Ospedale San Giuliano", "latitude": 45.4362073, "longitude": 8.62873, "source": "osm", "_tags": {"addr:city": "Novara", "addr:housenumber": "1", "addr:street": "Viale Piazza d'Armi", "amenity": "hospital", "healthcare": "hospital", "name": "Ospedale San Giuliano"}}, {"name": "", "latitude": 45.7816432, "longitude": 8.8946247, "source": "osm", "_tags": {"amenity": "hospital", "healthcare": "hospital"}}, {"name": "", "latitude": 45.845967, "longitude": 8.7886403, "source": "osm", "_tags": {"amenity": "hospital", "healthcare": "hospital", "layer": "-1", "operator": "ASST SETTE LAGHI"}}, {"name": "Villa Rovera Molina Onlys", "latitude": 45.8459735, "longitude": 8.7526613, "source": "osm", "_tags": {"amenity": "hospital", "name": "Villa Rovera Molina Onlys"}}, {"name": "", "latitude": 45.8827781, "longitude": 8.8806612, "source": "osm", "_tags": {"amenity": "hospital", "healthcare": "hospital"}}, {"name": "Protezione Civile di Cuasso al Monte", "latitude": 45.9073118, "longitude": 8.8607544, "source": "osm", "_tags": {"amenity": "hospital", "healthcare": "hospital", "name": "Protezione Civile di Cuasso al Monte"}}, {"name": "Studio Dr. med. Giunchi presso Ars Medica Centro Medico", "latitude": 46.0348249, "longitude": 8.9245469, "source": "osm", "_tags": {"addr:city": "Manno", "addr:housenumber": "38", "addr:postcode": "6928", "addr:street": "Via Cantonale", "amenity": "hospital", "currency:XBT": "yes", "description": "First orthopaedic surgeon allowing Bitcoin as payment.\nFluent in English and French, he is specialized in knee and hip surgery.", "healthcare": "hospital", "healthcare:speciality": "orthopaedics;knee_and_hip_surgery", "name": "Studio Dr. med. Giunchi presso Ars Medica Centro Medico", "operator": "Hip and Knee Surgeon", "operator:type": "private", "payment:lightning": "yes", "payment:lightning_contactless": "yes", "payment:onchain": "yes", "survey:date": "2024-04-17"}}, {"name": "Ospedale di Cuasso al Monte", "latitude": 45.9105553, "longitude": 8.8591064, "source": "osm", "_tags": {"amenity": "hospital", "emergency": "yes", "healthcare": "hospital", "healthcare:speciality": "cardiology;neurology;pulmonology;allergology", "name": "Ospedale di Cuasso al Monte", "note": "In fase di ristrutturazione.", "operator": "ASST Sette Laghi", "operator:type": "public"}}, {"name": "Ospedale del Ponte", "latitude": 45.8155904, "longitude": 8.8343925, "source": "osm", "_tags": {"amenity": "hospital", "name": "Ospedale del Ponte", "type": "site"}}, {"name": "Ospedale di Circolo Fondazione Macchi Varese - Odontostomatologia Velate", "latitude": 45.8459494, "longitude": 8.7886403, "source": "osm", "_tags": {"addr:city": "Varese", "addr:housenumber": "10", "addr:postcode": "21100", "addr:street": "Via Giuseppe Piatti", "amenity": "hospital", "name": "Ospedale di Circolo Fondazione Macchi Varese - Odontostomatologia Velate", "note": "FIXME: check exact usage (it does belong to the local hospital)", "phone": "+39 0332 825640", "type": "site"}}, {"name": "Fondazione Renato Piatti", "latitude": 45.7322023, "longitude": 8.6280783, "source": "osm", "_tags": {"addr:city": "Sesto Calende", "addr:country": "IT", "addr:housenumber": "14", "addr:postcode": "21018", "addr:street": "Via Lombardia", "amenity": "hospital", "email": "sdsestoc@fondazionepiatti.it", "healthcare": "hospital", "name": "Fondazione Renato Piatti", "phone": "+39 0331 922496", "type": "multipolygon"}}, {"name": "Ospedale Santi Pietro e Paolo", "latitude": 45.712408, "longitude": 8.2610966, "source": "osm", "_tags": {"amenity": "hospital", "building": "hospital", "emergency": "yes", "healthcare": "hospital", "name": "Ospedale Santi Pietro e Paolo", "phone": "+39 0163 426111", "type": "multipolygon"}}, {"name": "Ospedale Luini Confalonieri", "latitude": 45.9961249, "longitude": 8.7461885, "source": "osm", "_tags": {"addr:city": "Luino", "addr:housenumber": "6", "addr:postcode": "21016", "addr:street": "Via Enrico Forlanini", "alt_name": "Ospedale di Luino", "amenity": "hospital", "baby_feeding": "no", "healthcare": "hospital", "kids_area": "no", "name": "Ospedale Luini Confalonieri", "operator": "ASL", "operator:wikidata": "Q3631467", "type": "multipolygon", "website": "https://www.asst-settelaghi.it/it/ospedale-luino-presentazione"}}, {"name": "Azienda ospedaliera Novara e Galliate", "latitude": 45.4831443, "longitude": 8.7038897, "source": "osm", "_tags": {"addr:city": "Galliate", "addr:housenumber": "2", "addr:postcode": "28066", "addr:street": "Via Giuseppe Cottolengo", "amenity": "hospital", "healthcare": "hospital", "healthcare:speciality": "general;chiropractic;ophthalmology;emergency;gynaecology;nephrology;paediatrics;orthopaedics;radiology;cardiology;biology;community;surgery;maternity;dialysis;oncology;vaccination;intensive;orthodontics;abortion;psychiatry;dentistry;osteopathy;allergology", "name": "Azienda ospedaliera Novara e Galliate", "smoking": "no", "type": "multipolygon"}}, {"name": "Ospedale Causa Maria Pia Luvini di Cittiglio", "latitude": 45.8938265, "longitude": 8.6677334, "source": "osm", "_tags": {"addr:city": "Cittiglio", "addr:housenumber": "2", "addr:postcode": "21033", "addr:street": "Via Don Carlo Luvini", "alt_name": "Ospedale di Cittiglio", "amenity": "hospital", "baby_feeding": "yes", "building": "hospital", "contact:phone": "+39 0332 607111", "healthcare": "hospital", "name": "Ospedale Causa Maria Pia Luvini di Cittiglio", "operator": "ASST Sette Laghi", "ref:vatin": "IT03510050127", "type": "multipolygon", "website": "https://www.asst-settelaghi.it/ospedale-cittiglio-presentazione"}}]