[{"name": "Polyclinique du Val de Loire", "latitude": 46.9955043, "longitude": 3.1488091, "source": "osm", "_tags": {"addr:city": "Nevers", "addr:postcode": "58000", "addr:street": "Rue des Docks", "amenity": "hospital", "healthcare": "hospital", "name": "Polyclinique du Val de Loire", "ref:FR:FINESS": "580780138", "type:FR:FINESS": "365", "wheelchair": "yes"}}, {"name": "Hôpital Les Cygnes", "latitude": 47.2913209, "longitude": 3.8149279, "source": "osm", "_tags": {"addr:housenumber": "8", "addr:street": "Rue du Panorama", "amenity": "hospital", "fax": "+33 3 86 22 30 96", "healthcare": "hospital", "name": "Hôpital Les Cygnes", "phone": "+33 3 86 22 30 00", "ref:FR:FINESS": "580972610", "type:FR:FINESS": "106", "wikidata": "Q92062664"}}, {"name": "SAMU", "latitude": 46.9812127, "longitude": 3.1225023, "source": "osm", "_tags": {"amenity": "hospital", "healthcare": "hospital", "name": "SAMU"}}, {"name": "IRM", "latitude": 46.9813119, "longitude": 3.1220835, "source": "osm", "_tags": {"amenity": "hospital", "healthcare": "centre", "healthcare:speciality": "internal", "name": "IRM"}}, {"name": "UMJ - Unité médico-judiciaire", "latitude": 46.9811271, "longitude": 3.1222559, "source": "osm", "_tags": {"amenity": "hospital", "email": "accueil.umj@andavi.fr", "emergency": "no", "healthcare": "hospital", "name": "UMJ - Unité médico-judiciaire", "operator": "France Victimes ANDAVI 58", "phone": "+33 6 07 11 39 24"}}, {"name": "Polyclinique Saint-Odilon", "latitude": 46.5416106, "longitude": 3.3374162, "source": "osm", "_tags": {"amenity": "hospital", "healthcare": "hospital", "name": "Polyclinique Saint-Odilon", "ref:FR:FINESS": "030785430", "type:FR:FINESS": "128"}}, {"name": "Centre hospitalier spécialisé d'Yzeure", "latitude": 46.5770351, "longitude": 3.3437517, "source": "osm", "_tags": {"amenity": "hospital", "emergency": "no", "name": "Centre hospitalier spécialisé d'Yzeure", "operator:type": "public", "phone": "+33 4 70 20 33 33", "ref:FR:FINESS": "030780589", "type:FR:FINESS": "355", "website": "https://www.ch-moulins-yzeure.fr/moulins.php"}}, {"name": "Centre hospitalier de Moulins-Yzeure", "latitude": 46.5710876, "longitude": 3.3261792, "source": "osm", "_tags": {"amenity": "hospital", "emergency": "yes", "fax": "+33 4 70 35 77 99", "healthcare": "hospital", "healthcare:speciality": "intensive", "name": "Centre hospitalier de Moulins-Yzeure", "operator:type": "public", "phone": "+33 4 70 35 77 77", "ref:FR:FINESS": "030000061", "type:FR:FINESS": "355", "website": "https://www.ch-moulins-yzeure.fr/moulins.php"}}, {"name": "Hôpital Pierre Bérégovoy", "latitude": 46.9790191, "longitude": 3.1221713, "source": "osm", "_tags": {"addr:city": "Nevers", "addr:housenumber": "1", "addr:postcode": "58000", "addr:street": "Avenue Patrick Guillot", "amenity": "hospital", "emergency": "yes", "fax": "+33 3 86 93 70 21", "healthcare": "hospital", "healthcare:speciality": "intensive", "name": "Hôpital Pierre Bérégovoy", "phone": "+33 3 86 93 70 00", "ref:FR:FINESS": "580972693", "type:FR:FINESS": "355", "website": "https://www.ch-nevers.fr/", "wikidata": "Q30281564"}}, {"name": "Hôpital Psychiatrique du Pré Poitiers", "latitude": 46.9828835, "longitude": 3.1198369, "source": "osm", "_tags": {"amenity": "hospital", "healthcare": "hospital", "name": "Hôpital Psychiatrique du Pré Poitiers", "ref:FR:FINESS": "580005668", "type:FR:FINESS": "292"}}, {"name": "Maison de Santé", "latitude": 46.947945, "longitude": 2.9533635, "source": "osm", "_tags": {"amenity": "hospital", "building": "yes", "healthcare": "hospital", "name": "Maison de Santé", "ref:FR:FINESS": "180009318", "source": "cadastre-dgi-fr source : Direction Générale des Finances Publiques - Cadastre. Mise à jour : 2014", "type:FR:FINESS": "603"}}, {"name": "Centre hospitalier de Decize", "latitude": 46.8222397, "longitude": 3.4531827, "source": "osm", "_tags": {"amenity": "hospital", "emergency": "yes", "fax": "+33 3 86 77 76 92", "healthcare": "hospital", "name": "Centre hospitalier de Decize", "phone": "+33 3 86 77 78 79", "ref:FR:FINESS": "580972685", "type:FR:FINESS": "355"}}, {"name": "Centre de Réadaptation et de Rééducation Fonctionnelles Le Bourbonnais", "latitude": 46.6166173, "longitude": 3.7662755, "source": "osm", "_tags": {"addr:city": "Bourbon-Lancy", "addr:housenumber": "7", "addr:postcode": "71140", "addr:street": "Rue de la Roche", "amenity": "hospital", "email": "bourbon.ug@ugecam.assurance-maladie.fr", "fax": "+33 3 85 89 65 00", "healthcare": "hospital", "name": "Centre de Réadaptation et de Rééducation Fonctionnelles Le Bourbonnais", "phone": "+33 3 85 89 64 00", "ref:FR:FINESS": "710781535", "ref:FR:SIRET": "42416376400071", "type:FR:FINESS": "109", "website": "http://www.ugecam-bfc.fr/etablissements/crrf-le-bourbonnais"}}, {"name": "Centre Hospitalier Fondation d'Aligre", "latitude": 46.6179686, "longitude": 3.7651421, "source": "osm", "_tags": {"addr:city": "Bourbon-Lancy", "addr:postcode": "71140", "addr:street": "Allée de l'Aligre", "amenity": "hospital", "beds": "306", "email": "direction@ch-aligre.fr", "fax": "+33385890791", "healthcare": "hospital", "name": "Centre Hospitalier Fondation d'Aligre", "phone": "+33385896060", "ref:FR:FINESS": "710978255", "ref:FR:SIRET": "26710004800011", "source": "Le ministère des solidarités et de la santé - 2021-09", "type:FR:FINESS": "355", "website": "https://etablissements.fhf.fr/annuaire/hopital-fiche.php?id_struct=1913"}}, {"name": "Centre hospitalier de Bourbon l'Archambault", "latitude": 46.5794658, "longitude": 3.046597, "source": "osm", "_tags": {"addr:city": "Bourbon-l'Archambault", "addr:postcode": "03160", "addr:street": "Boulevard de Gautrinière", "amenity": "hospital", "building": "yes", "healthcare": "hospital", "name": "Centre hospitalier de Bourbon l'Archambault", "ref:FR:FINESS": "030000095", "type:FR:FINESS": "355"}}, {"name": "Centre hospitalier de Chateau-Chinon", "latitude": 47.0602896, "longitude": 3.9350308, "source": "osm", "_tags": {"amenity": "hospital", "emergency": "no", "fax": "+33 3 86 79 60 05", "name": "Centre hospitalier de Chateau-Chinon", "operator:type": "public", "phone": "+33 3 86 79 60 00", "ref:FR:FINESS": "580972651", "type:FR:FINESS": "355"}}, {"name": "Centre Hospitaler Henri Dunant", "latitude": 47.1841032, "longitude": 3.0161166, "source": "osm", "_tags": {"amenity": "hospital", "healthcare": "hospital", "name": "Centre Hospitaler Henri Dunant", "ref:FR:FINESS": "580972644", "type:FR:FINESS": "355"}}, {"name": "", "latitude": 46.5699512, "longitude": 3.3232205, "source": "osm", "_tags": {"amenity": "hospital", "healthcare": "hospital", "operator": "Centre hospitalier de Moulins-Yzeure"}}, {"name": "Centre Hospitalier Spécialisé La Grange Joada", "latitude": 47.1708907, "longitude": 3.0338484, "source": "osm", "_tags": {"amenity": "hospital", "healthcare": "hospital", "name": "Centre Hospitalier Spécialisé La Grange Joada"}}, {"name": "Centre Hopitalier Spécialisé Pierre Lôo", "latitude": 47.1731533, "longitude": 3.0196851, "source": "osm", "_tags": {"amenity": "hospital", "check_date:opening_hours": "2023-06-01", "contact:city": "La Charité-sur-Loire", "contact:fax": "+33386694021", "contact:housenumber": "51", "contact:phone": "+33386694072", "contact:postcode": "58400", "healthcare": "hospital", "healthcare:speciality": "psychiatry", "name": "Centre Hopitalier Spécialisé Pierre Lôo", "opening_hours:signed": "no", "ref:FR:FINESS": "580972636", "ref:FR:SIRET": "26580003700011", "source": "Le ministère des solidarités et de la santé - 2023-07", "type:FR:FINESS": "292"}}, {"name": "Clinique Château du Tremblay", "latitude": 47.1001834, "longitude": 3.0785813, "source": "osm", "_tags": {"amenity": "hospital", "healthcare": "hospital", "name": "Clinique Château du Tremblay", "operator": "Ramsay Générale de Santé"}}]