[{"name": "Ambulatorium Optimed Sportmedizin", "latitude": 47.2742309, "longitude": 12.7637302, "source": "osm", "_tags": {"amenity": "hospital", "emergency": "yes", "healthcare": "hospital", "name": "Ambulatorium Optimed Sportmedizin"}}, {"name": "Ambulatorio dott.sa Vizzini", "latitude": 46.4810344, "longitude": 12.4586947, "source": "osm", "_tags": {"addr:city": "Lorenzago di Cadore", "addr:postcode": "32040", "addr:street": "Via Costola", "amenity": "hospital", "emergency": "yes", "healthcare": "hospital", "name": "Ambulatorio dott.sa Vizzini"}}, {"name": "Pronto Soccorso Ospedale del Cadore \"Giovanni Paolo II\"", "latitude": 46.4313582, "longitude": 12.3763845, "source": "osm", "_tags": {"addr:city": "Pieve di Cadore", "amenity": "hospital", "emergency": "yes", "healthcare": "hospital", "name": "Pronto Soccorso Ospedale del Cadore \"Giovanni Paolo II\""}}, {"name": "", "latitude": 47.281006, "longitude": 12.484111, "source": "osm", "_tags": {"addr:city": "Mittersill", "addr:country": "AT", "addr:housenumber": "1", "addr:postcode": "5730", "addr:street": "Felberstraße", "at_bev:addr_date": "2017-10-01", "building": "hospital", "building:levels": "4", "healthcare": "hospital", "healthcare:speciality": "emergency", "roof:levels": "1", "source": "bing"}}, {"name": "Ospedale Codivilla-Putti", "latitude": 46.5544625, "longitude": 12.1316703, "source": "osm", "_tags": {"amenity": "hospital", "building": "hospital", "emergency": "yes", "name": "Ospedale Codivilla-Putti"}}, {"name": "Ospedale Codivilla-Putti", "latitude": 46.5579823, "longitude": 12.1337991, "source": "osm", "_tags": {"amenity": "hospital", "building": "hospital", "building:colour": "#B28E6C", "building:levels": "6", "emergency": "yes", "name": "Ospedale Codivilla-Putti", "roof:levels": "1"}}, {"name": "Ospedale del Cadore Giovanni Paolo II", "latitude": 46.4315529, "longitude": 12.3762688, "source": "osm", "_tags": {"amenity": "hospital", "emergency": "yes", "name": "Ospedale del Cadore Giovanni Paolo II"}}, {"name": "Krankenhaus Innichen - Ospedale San Candido", "latitude": 46.7338003, "longitude": 12.2841809, "source": "osm", "_tags": {"addr:city": "Innichen - San Candido", "addr:city:de": "Innichen", "addr:city:it": "San Candido", "addr:housenumber": "2", "addr:postcode": "39038", "addr:street": "Freisinger Straße - Via Freising", "addr:street:de": "Freisinger Straße", "addr:street:it": "Via Freising", "amenity": "hospital", "building": "yes", "contact:phone": "+39 0474 917111", "contact:website": "https://www.sabes.it/de/krankenhaus-innichen", "emergency": "yes", "healthcare": "hospital", "name": "Krankenhaus Innichen - Ospedale San Candido", "name:de": "Krankenhaus Innichen", "name:it": "Ospedale San Candido", "opening_hours": "24/7", "operator": "Sanitätsbetrieb Bruneck", "operator:wikidata": "Q16294907", "wikidata": "Q107264895"}}, {"name": "Tauernklinikum Standort Zell am See", "latitude": 47.3392159, "longitude": 12.8149074, "source": "osm", "_tags": {"addr:city": "Zell am See", "addr:country": "AT", "addr:housenumber": "8", "addr:postcode": "5700", "addr:street": "Paracelsusstraße", "amenity": "hospital", "emergency": "yes", "healthcare": "hospital", "healthcare:speciality": "emergency", "name": "Tauernklinikum Standort Zell am See", "official_name": "A. ö. Tauernklinikum Zell am See", "operator": "Tauernkliniken GmbH", "website": "https://www.tauernklinikum.at/", "wikidata": "Q64554264"}}, {"name": "Tauernklinikum Standort Mittersill", "latitude": 47.2810313, "longitude": 12.483945, "source": "osm", "_tags": {"addr:city": "Mittersill", "addr:housenumber": "1", "addr:postcode": "5730", "addr:street": "Felberstraße", "amenity": "hospital", "emergency": "yes", "healthcare": "hospital", "name": "Tauernklinikum Standort Mittersill", "operator": "Tauernkliniken GmbH", "website": "https://www.tauernklinikum.at/"}}, {"name": "Ospedale Civile di Auronzo", "latitude": 46.5534385, "longitude": 12.4401442, "source": "osm", "_tags": {"amenity": "hospital", "healthcare": "hospital", "name": "Ospedale Civile di Auronzo"}}, {"name": "Bezirkskrankenhaus Lienz", "latitude": 46.8351071, "longitude": 12.7644367, "source": "osm", "_tags": {"addr:city": "Lienz", "addr:country": "AT", "addr:housenumber": "5", "addr:postcode": "9900", "addr:street": "Emanuel von Hibler-Straße", "amenity": "hospital", "emergency": "no", "health_specialty": "stroke_unit", "healthcare": "hospital", "healthcare:speciality": "emergency", "name": "Bezirkskrankenhaus Lienz", "website": "https://www.kh-lienz.at/de/", "wikidata": "Q854262", "wikipedia": "de:Bezirkskrankenhaus Lienz"}}]