[{"name": "Zdravstveni dom Veržej", "latitude": 46.5836241, "longitude": 16.1606714, "source": "osm", "_tags": {"amenity": "hospital", "name": "Zdravstveni dom Veržej", "operator": "ZASEBNA AMBULANTA Zvonimir Cesarec, dr. med.", "phone": "02 5844 460"}}, {"name": "Splošna ambulanta Martjanci", "latitude": 46.6858741, "longitude": 16.189205, "source": "osm", "_tags": {"addr:city": "Martjanci", "addr:housenumber": "19", "addr:postcode": "9221", "addr:street": "Martjanci", "amenity": "hospital", "name": "Splošna ambulanta Martjanci", "ref:gurs:hs_mid": "13507503"}}, {"name": "Rendelőintézet Szentgotthárd", "latitude": 46.9558898, "longitude": 16.2679064, "source": "osm", "_tags": {"addr:city": "Szentgotthárd", "addr:housenumber": "18", "addr:postcode": "9970", "addr:street": "Hunyadi János utca", "amenity": "hospital", "healthcare": "hospital", "healthcare:speciality": "internal;dermatology;stomatology;otolaryngology;gastroenterology;neurology;gynaecology;oncology;orthopaedics;psychiatry;rheumatology;surgery;ophthalmology;trauma;urology", "name": "Rendelőintézet Szentgotthárd", "phone": "+36 94 554 103", "website": "https://www.rendelointezetsztg.hu/"}}, {"name": "Orvosi rendelő", "latitude": 47.0450827, "longitude": 16.7792072, "source": "osm", "_tags": {"amenity": "hospital", "name": "Orvosi rendelő"}}, {"name": "Orvosi rendelő", "latitude": 47.030277, "longitude": 16.7419963, "source": "osm", "_tags": {"amenity": "hospital", "name": "Orvosi rendelő"}}, {"name": "Orvosi rendelő", "latitude": 47.052425, "longitude": 16.8063389, "source": "osm", "_tags": {"amenity": "hospital", "name": "Orvosi rendelő"}}, {"name": "Védőnői rendelő", "latitude": 46.7886076, "longitude": 16.9317385, "source": "osm", "_tags": {"amenity": "hospital", "healthcare": "hospital", "healthcare:speciality": "paediatrics", "name": "Védőnői rendelő"}}, {"name": "Fogászati rendelő", "latitude": 46.7885569, "longitude": 16.9315999, "source": "osm", "_tags": {"amenity": "hospital", "healthcare": "hospital", "healthcare:speciality": "dentist", "name": "Fogászati rendelő", "name:de": "Zahnarztpraxis", "name:en": "Dental office"}}, {"name": "Orvosi rendelő", "latitude": 46.7886529, "longitude": 16.9318233, "source": "osm", "_tags": {"amenity": "hospital", "healthcare": "hospital", "name": "Orvosi rendelő"}}, {"name": "Psychotherapie Hartberg", "latitude": 47.2802818, "longitude": 15.9701838, "source": "osm", "_tags": {"addr:city": "Hartberg", "addr:housenumber": "22", "addr:postcode": "8230", "addr:street": "Michaeligasse", "amenity": "hospital", "emergency": "no", "healthcare": "hospital", "healthcare:speciality": "psychotherapist", "name": "Psychotherapie Hartberg", "operator": "Mag.(FH) Philipp Schwab, MSc.", "operator:type": "public"}}, {"name": "Patológia", "latitude": 46.8342935, "longitude": 16.8446597, "source": "osm", "_tags": {"amenity": "hospital", "healthcare": "hospital", "name": "Patológia"}}, {"name": "A", "latitude": 46.8362577, "longitude": 16.8449497, "source": "osm", "_tags": {"amenity": "hospital", "healthcare": "hospital", "name": "A"}}, {"name": "J", "latitude": 46.8349406, "longitude": 16.8449894, "source": "osm", "_tags": {"amenity": "hospital", "healthcare": "hospital", "name": "J"}}, {"name": "F", "latitude": 46.8357848, "longitude": 16.8444915, "source": "osm", "_tags": {"amenity": "hospital", "healthcare": "hospital", "name": "F"}}, {"name": "E", "latitude": 46.8354403, "longitude": 16.8444811, "source": "osm", "_tags": {"amenity": "hospital", "healthcare": "hospital", "name": "E"}}, {"name": "N", "latitude": 46.8353435, "longitude": 16.8453065, "source": "osm", "_tags": {"amenity": "hospital", "healthcare": "hospital", "name": "N"}}, {"name": "H", "latitude": 46.8354558, "longitude": 16.8458275, "source": "osm", "_tags": {"amenity": "hospital", "healthcare": "hospital", "name": "H"}}, {"name": "B", "latitude": 46.8357843, "longitude": 16.8461517, "source": "osm", "_tags": {"amenity": "hospital", "healthcare": "hospital", "name": "B"}}, {"name": "C", "latitude": 46.8357998, "longitude": 16.8456987, "source": "osm", "_tags": {"amenity": "hospital", "healthcare": "hospital", "name": "C"}}, {"name": "D", "latitude": 46.835761, "longitude": 16.8450078, "source": "osm", "_tags": {"amenity": "hospital", "healthcare": "hospital", "name": "D"}}, {"name": "Klinik Güssing", "latitude": 47.050021, "longitude": 16.3223862, "source": "osm", "_tags": {"addr:city": "Güssing", "addr:country": "AT", "addr:housenumber": "15", "addr:postcode": "7540", "addr:street": "Grazer Straße", "amenity": "hospital", "at_bev:addr_date": "2018-10-01", "healthcare": "hospital", "healthcare:speciality": "emergency", "name": "Klinik Güssing", "operator": "Burgenländische Krankenanstalten-Gesellschaft m. b. H.", "operator:type": "government", "wheelchair": "yes", "wikidata": "Q1014859", "wikipedia": "de:Burgenländische Krankenanstalten"}}, {"name": "Splošna bolnišnica Murska Sobota", "latitude": 46.6497023, "longitude": 16.188771, "source": "osm", "_tags": {"addr:city": "Rakičan", "addr:housenumber": "6", "addr:postcode": "9000", "addr:street": "Ulica dr. Vrbnjaka", "alt_name": "Bolnišnica Rakičan", "amenity": "hospital", "emergency": "yes", "healthcare": "hospital", "name": "Splošna bolnišnica Murska Sobota", "name:en": "Murska Sobota general hospital", "website": "https://www.sb-ms.si/"}}, {"name": "Markusovszky Egyetemi Oktatókórház", "latitude": 47.238016, "longitude": 16.6179966, "source": "osm", "_tags": {"addr:city": "Szombathely", "addr:housenumber": "5", "addr:postcode": "9700", "addr:street": "Markusovszky Lajos utca", "amenity": "hospital", "emergency": "yes", "healthcare": "hospital", "name": "Markusovszky Egyetemi Oktatókórház", "wikidata": "Q30280876"}}, {"name": "LKH Südweststeiemark, Standort Bad Radkersburg", "latitude": 46.6922027, "longitude": 15.992111, "source": "osm", "_tags": {"addr:city": "Bad Radkersburg", "addr:country": "AT", "addr:housenumber": "1", "addr:postcode": "8490", "addr:street": "Dr. Schwaiger-Straße", "amenity": "hospital", "emergency": "yes", "healthcare": "hospital", "healthcare:speciality": "emergency", "name": "LKH Südweststeiemark, Standort Bad Radkersburg", "old_name": "Landeskrankenhaus Bad Radkersburg", "operator": "Steiermärkische Krankenanstaltengesellschaft m.b.H.", "operator:type": "private", "operator:wikidata": "Q15849047", "operator:wikipedia": "de:Steiermärkische Krankenanstaltengesellschaft", "phone": "+43 3476 2401 0", "short_name": "LKH Bad Radkersburg", "source": "GeoImage.at High-Res", "website": "https://www.lkh-suedweststeiermark.at"}}, {"name": "Landeskrankenhaus Oststeiermark, Standort Fürstenfeld", "latitude": 47.0467847, "longitude": 16.0854347, "source": "osm", "_tags": {"addr:city": "Fürstenfeld", "addr:country": "AT", "addr:housenumber": "1", "addr:postcode": "8280", "addr:street": "Krankenhausgasse", "amenity": "hospital", "emergency": "yes", "healthcare": "hospital", "healthcare:speciality": "emergency", "name": "Landeskrankenhaus Oststeiermark, Standort Fürstenfeld", "old_name": "Landeskrankenhaus Fürstenfeld", "operator": "Steiermärkische Krankenanstaltengesellschaft m.b.H.", "operator:type": "public", "operator:wikidata": "Q15849047", "phone": "+43 3382 506 0", "short_name": "LKH Fürstenfeld", "website": "https://www.lkh-feldbach.at/"}}, {"name": "Landeskrankenhaus Oststeiermark, Standort Hartberg", "latitude": 47.2729241, "longitude": 15.9663019, "source": "osm", "_tags": {"addr:city": "Hartberg", "addr:housenumber": "1", "addr:postcode": "8230", "addr:street": "Krankenhausplatz", "amenity": "hospital", "emergency": "yes", "healthcare": "hospital", "healthcare:speciality": "emergency", "name": "Landeskrankenhaus Oststeiermark, Standort Hartberg", "old_name": "Landeskrankenhaus Hartberg", "operator": "Steiermärkische Krankenanstaltengesellschaft m.b.H.", "operator:type": "public", "operator:wikidata": "Q15849047", "operator:wikipedia": "de:Steiermärkische Krankenanstaltengesellschaft", "phone": "+43 3332 605 0", "short_name": "LKH Hartberg", "source": "GeoImage.at High-Res", "website": "https://www.lkh-hartberg.at/", "wheelchair": "yes", "wikidata": "Q125583220"}}, {"name": "Zala Megyei Kórház", "latitude": 46.8353168, "longitude": 16.8454496, "source": "osm", "_tags": {"amenity": "hospital", "healthcare": "hospital", "name": "Zala Megyei Kórház"}}, {"name": "", "latitude": 46.8741003, "longitude": 16.8583202, "source": "osm", "_tags": {"amenity": "hospital", "healthcare": "hospital", "note": "CLC import: update the tag landuse with either industrial or retail after survey"}}, {"name": "Gyermek és Ifjúság Pszichiátriai Gondozó, Vas megyei", "latitude": 47.2475435, "longitude": 16.6198336, "source": "osm", "_tags": {"addr:city": "Szombathely", "addr:housenumber": "130", "addr:postcode": "9700", "addr:street": "11-es huszár út", "amenity": "hospital", "name": "Gyermek és Ifjúság Pszichiátriai Gondozó, Vas megyei", "phone": "+36 94 311 490"}}, {"name": "Zala Megyei Kórház, Pózvai telephely", "latitude": 46.8736025, "longitude": 16.8594588, "source": "osm", "_tags": {"amenity": "hospital", "healthcare": "hospital", "name": "Zala Megyei Kórház, Pózvai telephely"}}, {"name": "Vas Megyei Rehabilitációs Kórház", "latitude": 46.9541752, "longitude": 16.2659607, "source": "osm", "_tags": {"addr:city": "Szentgotthárd", "addr:housenumber": "31", "addr:postcode": "9970", "addr:street": "Hunyadi János utca", "amenity": "hospital", "healthcare": "hospital", "name": "Vas Megyei Rehabilitációs Kórház", "official_name": "Vas Megyei Rehabilitációs Kórház és Gyógyfürdő", "type": "multipolygon"}}, {"name": "Dr. Batthyány-Strattmann László Kórház", "latitude": 47.0108713, "longitude": 16.5915493, "source": "osm", "_tags": {"addr:city": "Körmend", "addr:housenumber": "1", "addr:postcode": "9900", "addr:street": "Munkácsy Mihály utca", "amenity": "hospital", "healthcare": "hospital", "name": "Dr. Batthyány-Strattmann László Kórház", "type": "multipolygon", "wikidata": "Q107611715", "wikimedia_commons": "Category:Dr. Batthyány-Strattmann László Kórház és Rendelőintézet"}}, {"name": "Klinik Oberwart", "latitude": 47.2788691, "longitude": 16.2060457, "source": "osm", "_tags": {"addr:city": "Oberwart", "addr:housenumber": "90", "addr:postcode": "7400", "addr:street": "Dornburggasse", "amenity": "hospital", "building": "hospital", "email": "oberwart@gesundheit-burgenland.at", "health_specialty": "stroke_unit", "healthcare": "hospital", "healthcare:speciality": "emergency", "name": "Klinik Oberwart", "operator": "Burgenländische Krankenanstalten Ges.m.b.H", "operator:type": "government", "toilets:wheelchair": "yes", "type": "multipolygon", "wheelchair": "yes", "wikidata": "Q1014859", "wikipedia": "de:Burgenländische Krankenanstalten"}}]