[{"name": "", "latitude": 46.6858336, "longitude": 18.4453265, "source": "osm", "_tags": {"amenity": "hospital", "note": "Old user replaced."}}, {"name": "K Klinika", "latitude": 47.0551169, "longitude": 18.9134994, "source": "osm", "_tags": {"amenity": "hospital", "name": "K Klinika"}}, {"name": "Alpha-Vet Állatkórház", "latitude": 47.172579, "longitude": 18.4107793, "source": "osm", "_tags": {"addr:city": "Székesfehérvár", "addr:housenumber": "7", "addr:postcode": "8000", "addr:street": "Homoksor", "amenity": "veterinary", "check_date": "2025-01-31", "contact:website": "https://www.szekesfehervariallatkorhaz.hu/", "fixme": "a nyitva tartásnál majd szét lehetne választani a normál és az ügyeleti időszakokat; a cím továbbra is kérdéses, egyelőre az általánosan használt van megadva.", "healthcare": "hospital", "name": "Alpha-Vet Állatkórház", "opening_hours": "24/7", "post_office": "post_partner", "post_office:brand": "GLS", "post_office:brand:wikidata": "Q366182", "post_office:description": "A csomagpont az Állatkórház recepcióján működik.", "post_office:opening_hours": "Mo-Fr 07:00-20:00, Sa 08:00-12:00", "post_office:parcel_from": "yes", "post_office:parcel_to": "yes", "post_office:ref": "8000-ALPHAVETAL", "wheelchair": "yes"}}, {"name": "Fejér Megyei Szent György Kórház Csákvári gyógyintézete", "latitude": 47.3976777, "longitude": 18.4601171, "source": "osm", "_tags": {"addr:city": "Csákvár", "addr:housenumber": "1", "addr:postcode": "8083", "addr:street": "Dózsa György utca", "amenity": "hospital", "name": "Fejér Megyei Szent György Kórház Csákvári gyógyintézete", "wheelchair": "yes"}}, {"name": "Egészségház", "latitude": 47.3604894, "longitude": 18.6817226, "source": "osm", "_tags": {"amenity": "hospital", "healthcare": "hospital", "name": "Egészségház"}}, {"name": "Orvosi rendelő", "latitude": 47.0730399, "longitude": 18.685532, "source": "osm", "_tags": {"amenity": "hospital", "name": "Orvosi rendelő"}}, {"name": "Túri állatkórház", "latitude": 46.807947, "longitude": 18.930345, "source": "osm", "_tags": {"amenity": "hospital", "healthcare": "hospital", "name": "Túri állatkórház", "source": "turistautak.hu", "source:date": "2012-08-13", "url": "http://turistautak.hu/poi.php?id=101378", "wheelchair": "limited"}}, {"name": "Medicover klinika", "latitude": 47.198113, "longitude": 18.4002272, "source": "osm", "_tags": {"addr:city": "Székesfehérvár", "addr:housenumber": "50", "addr:postcode": "8000", "addr:street": "Ligetsor", "disused:amenity": "hospital", "healthcare": "hospital", "name": "Medicover klinika"}}, {"name": "C-Med Rehabilitációs és Diagnosztikai Központ", "latitude": 47.2045862, "longitude": 18.4303279, "source": "osm", "_tags": {"addr:city": "Székesfehérvár", "addr:housenumber": "2", "addr:postcode": "8000", "addr:street": "Gugásvölgyi utca", "amenity": "clinic", "emergency": "no", "entrance": "main", "healthcare": "hospital", "name": "C-Med Rehabilitációs és Diagnosztikai Központ", "phone": "+36 22 200 664", "website": "https://www.cmed.hu/"}}, {"name": "G épület", "latitude": 47.1925689, "longitude": 18.4333582, "source": "osm", "_tags": {"description": "Anyaggazdálkodási Osztály Gondnoksági Osztály Munka-, Környezet- és Tűzvédelmi Osztály Műszaki Osztály Szállítási és Járműfenntartási Osztály", "healthcare": "hospital", "name": "G épület"}}, {"name": "O épület", "latitude": 47.1923796, "longitude": 18.4337008, "source": "osm", "_tags": {"description": "Élelmezési Osztály Mosoda és Varroda Üzem", "healthcare": "hospital", "name": "O épület"}}, {"name": "Központi Háziorvosi Ügyelet", "latitude": 47.1190212, "longitude": 18.8646349, "source": "osm", "_tags": {"addr:city": "Adony", "addr:housenumber": "5", "addr:postcode": "2457", "addr:street": "Bajcsy-Zsilinszky utca", "amenity": "hospital", "description": "Központi Háziorvosi Ügyelet elérhetőségei : Adony Egészségügyi Központ ; 2457 Adony, Bajcsy Zsilinszky u.5. Hétköznap: 16:00–07:00 óra között Szombat, Vasárnap, Ünnepnap: 07:00–07:00 óra között Telefonszám: 06-25/504-522 http://www.adony.hu/egeszsegug", "healthcare": "hospital", "name": "Központi Háziorvosi Ügyelet", "phone": "+36 25 504-522"}}, {"name": "Mór Városi Kórház", "latitude": 47.3689513, "longitude": 18.2142008, "source": "osm", "_tags": {"addr:city": "Mór", "addr:housenumber": "21", "addr:postcode": "8060", "addr:street": "Kórház utca", "amenity": "hospital", "healthcare": "hospital", "name": "Mór Városi Kórház"}}, {"name": "Fejér Megyei Önkormányzat Szent György Kórháza és Rendelőintézete", "latitude": 46.8888893, "longitude": 18.6178896, "source": "osm", "_tags": {"amenity": "hospital", "building": "yes", "healthcare": "hospital", "name": "Fejér Megyei Önkormányzat Szent György Kórháza és Rendelőintézete"}}, {"name": "Őszilomb Idősek Otthona", "latitude": 47.2375464, "longitude": 18.6695099, "source": "osm", "_tags": {"amenity": "hospital", "healthcare": "hospital", "name": "Őszilomb Idősek Otthona"}}, {"name": "Siófoki Kórház-Rendelőintézet", "latitude": 46.9008208, "longitude": 18.0436604, "source": "osm", "_tags": {"addr:city": "Siófok", "addr:housenumber": "1", "addr:postcode": "8600", "addr:street": "Semmelweis utca", "alt_name": "Városi Kórház", "amenity": "hospital", "email": "info@siokorhaz.hu", "healthcare": "hospital", "name": "Siófoki Kórház-Rendelőintézet", "phone": "+36 84 501 700", "website": "https://www.siokorhaz.hu", "wheelchair": "yes"}}, {"name": "Százhalom Egészségügyi Központ", "latitude": 47.3216309, "longitude": 18.909614, "source": "osm", "_tags": {"amenity": "hospital", "emergency": "no", "healthcare": "hospital", "internet_access": "wlan", "name": "Százhalom Egészségügyi Központ", "source": "http://www.battanet.hu/battanet4/bel_egukozp.php"}}, {"name": "Egészségház", "latitude": 46.9591325, "longitude": 18.9364991, "source": "osm", "_tags": {"amenity": "hospital", "healthcare": "hospital", "name": "Egészségház"}}, {"name": "Szent György Kórház", "latitude": 47.1917824, "longitude": 18.4352551, "source": "osm", "_tags": {"addr:city": "Székesfehérvár", "addr:housenumber": "3", "addr:postcode": "8000", "addr:street": "Seregélyesi út", "amenity": "hospital", "contact:email": "info@mail.fmkorhaz.hu", "contact:phone": "+36 22 535 500", "healthcare": "hospital", "name": "Szent György Kórház", "official_name": "Fejér Megyei Szent György Egyetemi Oktató Kórház", "toilets:wheelchair": "yes", "type": "multipolygon", "website": "http://www.fmkorhaz.hu", "wheelchair": "yes", "wikidata": "Q106412014"}}, {"name": "Szent Donát Kórház Várpalota", "latitude": 47.2031136, "longitude": 18.1432581, "source": "osm", "_tags": {"addr:city": "Várpalota", "addr:housenumber": "2", "addr:postcode": "8100", "addr:street": "Honvéd utca", "amenity": "hospital", "building": "yes", "healthcare": "hospital", "name": "Szent Donát Kórház Várpalota", "old_name": "Várpalotai Kórház", "type": "multipolygon"}}]