[{"name": "Spitalul Județean Vaslui", "latitude": 46.655443, "longitude": 27.7362613, "source": "osm", "_tags": {"addr:city": "Vaslui", "addr:housenumber": "233", "addr:postcode": "730006", "addr:street": "Strada Ștefan cel Mare", "amenity": "hospital", "designation": "Spitalul Judetean Vaslui", "emergency": "yes", "healthcare:speciality": "general;gynaecology;ophthalmology;internal;paediatrics;orthopaedics;otolaryngology;psychiatry;dermatology;radiology;urology;surgery;community;orthodontics;cardiology;neurology;clinic;dermatovenereology;osteopathy", "name": "Spitalul Județean Vaslui", "operator": "Consiliul Județean Vaslui", "source": "Vaslui"}}, {"name": "Spitalul Vechi", "latitude": 46.6331916, "longitude": 27.7262893, "source": "osm", "_tags": {"amenity": "hospital", "emergency": "no", "name": "Spitalul Vechi"}}, {"name": "", "latitude": 47.1680446, "longitude": 27.6030098, "source": "osm", "_tags": {"amenity": "hospital", "healthcare": "hospital"}}, {"name": "Policlinica C.F.R.", "latitude": 47.1708585, "longitude": 27.5731628, "source": "osm", "_tags": {"amenity": "hospital", "healthcare": "hospital", "name": "Policlinica C.F.R."}}, {"name": "", "latitude": 46.9659571, "longitude": 27.7235166, "source": "osm", "_tags": {"amenity": "hospital"}}, {"name": "", "latitude": 46.9743744, "longitude": 27.5603727, "source": "osm", "_tags": {"amenity": "hospital"}}, {"name": "Spitalul clinic de urgență pentru copii „Sfânta Maria”", "latitude": 47.1592638, "longitude": 27.6073911, "source": "osm", "_tags": {"addr:city": "Iași", "addr:housenumber": "62", "addr:postcode": "700309", "addr:street": "Strada Vasile Lupu", "amenity": "hospital", "email": "spitalcopii@sfmaria-iasi.ro", "emergency": "yes", "healthcare": "hospital", "healthcare:speciality": "paediatrics;paediatric_surgery", "name": "Spitalul clinic de urgență pentru copii „Sfânta Maria”", "operator": "Consiliul Judetean Iasi", "operator:type": "council", "phone": "+40372309695", "website": "https://www.sfmaria-iasi.ro/"}}, {"name": "Spitalul Providența", "latitude": 47.1255285, "longitude": 27.5695587, "source": "osm", "_tags": {"addr:housenumber": "115", "addr:street": "Șoseaua Nicolina", "amenity": "hospital", "building": "yes", "check_date": "2025-07-15", "healthcare": "hospital", "name": "Spitalul Providența", "website": "https://providentamedical.ro/"}}, {"name": "Clinica Dermatologică", "latitude": 47.1574937, "longitude": 27.6165598, "source": "osm", "_tags": {"amenity": "hospital", "healthcare": "hospital", "is_in:city": "Iași", "name": "Clinica Dermatologică"}}, {"name": "Spitalul Clinic de Urgență \"Prof. Dr. Nicolae Oblu\"", "latitude": 47.1611903, "longitude": 27.6063691, "source": "osm", "_tags": {"addr:city": "Iași", "addr:housenumber": "2", "addr:postcode": "700309", "addr:street": "Strada Ateneului", "alt_name": "Spitalul Clinic Nr. 3", "amenity": "hospital", "email": "neuroiasi@neuroiasi.ro", "emergency": "yes", "healthcare": "hospital", "healthcare:speciality": "emergency;neurosurgery;neurology", "name": "Spitalul Clinic de Urgență \"Prof. Dr. Nicolae Oblu\"", "phone": "+40232264271;+40232477450;+40232472086;+40232402636;+40232402638;+40232765131", "website": "https://neuroiasi.ro/", "wikidata": "Q97101279"}}, {"name": "Spitalul Clinic de Psihiatrie Socola", "latitude": 47.1285323, "longitude": 27.6128917, "source": "osm", "_tags": {"addr:city": "Iași", "addr:housenumber": "36", "addr:postcode": "700282", "addr:street": "Șoseaua Bucium", "amenity": "hospital", "email": "secretariat@socola.eu", "healthcare": "hospital", "healthcare:speciality": "psychiatry;child_psychiatry;neuropsychiatry", "name": "Spitalul Clinic de Psihiatrie Socola", "phone": "+40232224687", "website": "https://socola.eu/", "wikidata": "Q18548046"}}, {"name": "Secția exterioară Bârnova", "latitude": 47.007219, "longitude": 27.5751403, "source": "osm", "_tags": {"alt_name": "Spitalul de psihiatrie Bârnova", "amenity": "hospital", "barrier": "fence", "emergency": "no", "healthcare": "hospital", "healthcare:speciality": "psychiatry", "name": "Secția exterioară Bârnova", "operator": "Institutul de psihiatrie Socola", "operator:type": "public"}}, {"name": "Spitalul Clinic de Obstetrică-Ginecologie „Cuza Vodă” Iași", "latitude": 47.1631043, "longitude": 27.5867485, "source": "osm", "_tags": {"addr:city": "Iași", "addr:housenumber": "34", "addr:street": "Strada Cuza Vodă", "amenity": "hospital", "email": "contact@spitalcuzavodaiasi.ro", "healthcare": "hospital", "healthcare:speciality": "gynaecology;maternity;neonatology", "name": "Spitalul Clinic de Obstetrică-Ginecologie „Cuza Vodă” Iași", "phone": "+40232213000", "website": "http://www.spitalcuzavodaiasi.ro/", "wikidata": "Q97101255"}}, {"name": "Spitalul Clinic Județean de Urgențe \"Sf. Spiridon\"", "latitude": 47.1687878, "longitude": 27.5826783, "source": "osm", "_tags": {"addr:city": "Iași", "addr:country": "RO", "addr:housenumber": "1", "addr:postcode": "700111", "addr:street": "Bulevardul Independenței", "amenity": "hospital", "check_date": "2024-07-07", "email": "contact@spitalspiridon.ro", "emergency": "yes", "healthcare": "hospital", "healthcare:speciality": "surgery;vascular_surgery;plastic_surgery;trauma;orthopaedics;internal;gastroenterology;cardiology;ophthalmology;endocrinology;diabetology;intensive;haematology;emergency;allergology", "name": "Spitalul Clinic Județean de Urgențe \"Sf. Spiridon\"", "phone": "+40232240822", "start_date": "1757", "website": "https://www.spitalspiridon.ro/", "wikidata": "Q50035320"}}, {"name": "Spitalul Clinic de Pneumoftiziologie Iași", "latitude": 47.1696, "longitude": 27.5846717, "source": "osm", "_tags": {"addr:city": "Iași", "addr:housenumber": "30", "addr:postcode": "700115", "addr:street": "Strada Doctor Iacob Cihac", "amenity": "hospital", "email": "secretariat@pneumo-iasi.ro", "healthcare": "hospital", "name": "Spitalul Clinic de Pneumoftiziologie Iași", "operator": "Consiliu Judetean Iasi", "operator:type": "public", "phone": "+40232239408", "start_date": "1973", "website": "https://pneumo-iasi.ro/"}}, {"name": "Spitalul Clinic Militar de Urgență „Dr. I. Czihac”", "latitude": 47.1729166, "longitude": 27.5756489, "source": "osm", "_tags": {"addr:city": "Iași", "addr:housenumber": "7-9", "addr:postcode": "700483", "addr:street": "Strada General Henri Mathias Berthelot", "amenity": "hospital", "contact:facebook": "facebook.com/UM02534IS", "email": "spital@smuis.ro", "healthcare": "hospital", "name": "Spitalul Clinic Militar de Urgență „Dr. I. Czihac”", "operator": "Ministerul Apararii Nationale", "operator:type": "military", "phone": "+40232266268", "website": "https://www.smuis.ro/"}}, {"name": "Spitalul Clinic Dr CI Parhon", "latitude": 47.1807927, "longitude": 27.5686843, "source": "osm", "_tags": {"amenity": "hospital", "healthcare": "hospital", "name": "Spitalul Clinic Dr CI Parhon", "wikidata": "Q30261317"}}, {"name": "Spitalul Clinic de Recuperare Iasi", "latitude": 47.1490388, "longitude": 27.5739029, "source": "osm", "_tags": {"addr:city": "Iași", "addr:housenumber": "14", "addr:postcode": "700661", "addr:street": "Strada Pantelimon Halipa", "amenity": "hospital", "email": "secretariat@scr.ro", "healthcare": "hospital", "healthcare:speciality": "physiatry;rheumatology", "name": "Spitalul Clinic de Recuperare Iasi", "phone": "+40232254250;+40232266044;+40332410772", "website": "https://scr.ro/"}}, {"name": "Institutul Regional de Oncologie", "latitude": 47.1749375, "longitude": 27.5760517, "source": "osm", "_tags": {"amenity": "hospital", "healthcare": "hospital", "healthcare:speciality": "oncology;surgical_oncology", "name": "Institutul Regional de Oncologie"}}, {"name": "Secția Clinică a II-a de Pneumoftiziologie Pașcanu", "latitude": 47.1678271, "longitude": 27.6028441, "source": "osm", "_tags": {"amenity": "hospital", "healthcare": "hospital", "name": "Secția Clinică a II-a de Pneumoftiziologie Pașcanu"}}, {"name": "Spitalul Clinic de Boli Infecțioase “Sfânta Parascheva”", "latitude": 47.1703752, "longitude": 27.5843863, "source": "osm", "_tags": {"addr:city": "Iași", "addr:housenumber": "2", "addr:postcode": "700116", "addr:street": "Strada Octav Botez", "amenity": "hospital", "email": "secretariat@infectioase.ro", "healthcare": "hospital", "healthcare:speciality": "infectious_diseases", "name": "Spitalul Clinic de Boli Infecțioase “Sfânta Parascheva”", "old_name": "Spitalul de Boli Infectioase – Izolarea", "phone": "+40232267719", "start_date": "1911-09-01", "website": "https://www.infectioase.ro/", "wikidata": "Q97100935"}}, {"name": "Arcadia Hospital", "latitude": 47.1580723, "longitude": 27.5619353, "source": "osm", "_tags": {"addr:city": "Iași", "addr:housenumber": "2", "addr:postcode": "700620", "addr:street": "Strada Cicoarei", "alt_name": "Arcadia Cicoarei", "amenity": "hospital", "healthcare": "hospital", "name": "Arcadia Hospital", "phone": "+40 232 202002", "website": "https://arcadiamedical.ro/"}}, {"name": "Cabinet medical", "latitude": 47.0969759, "longitude": 27.5272911, "source": "osm", "_tags": {"amenity": "hospital", "name": "Cabinet medical"}}, {"name": "Centrul de Sănătate Sculeni", "latitude": 47.3314978, "longitude": 27.6244581, "source": "osm", "_tags": {"addr:city": "Sculeni", "addr:country": "MD", "addr:housenumber": "12", "addr:street": "Strada Dimitrie Cantemir", "amenity": "hospital", "barrier": "fence", "healthcare": "hospital", "name": "Centrul de Sănătate Sculeni"}}, {"name": "Oficiul Medicilor de Familie Petrești", "latitude": 47.3084606, "longitude": 27.7481521, "source": "osm", "_tags": {"addr:city": "Petrești", "addr:country": "MD", "addr:housenumber": "3", "addr:street": "Stradela Bisericii", "amenity": "hospital", "barrier": "fence", "healthcare": "hospital", "name": "Oficiul Medicilor de Familie Petrești", "name:ru": "Медпункт"}}, {"name": "Spitalul Clinic de Obstetrică și Ginecologie „Elena Doamna”", "latitude": 47.1605464, "longitude": 27.5981056, "source": "osm", "_tags": {"addr:city": "Iași", "addr:housenumber": "49", "addr:postcode": "700398", "addr:street": "Strada Elena Doamna", "alt_name": "Maternitatea Elena Doamna", "amenity": "hospital", "email": "contact@spitalelenadoamna.ro", "healthcare": "hospital", "healthcare:speciality": "gynaecology;neonatology", "name": "Spitalul Clinic de Obstetrică și Ginecologie „Elena Doamna”", "website": "https://www.spitalelenadoamna.ro/"}}, {"name": "", "latitude": 47.2051077, "longitude": 27.3710438, "source": "osm", "_tags": {"amenity": "hospital", "description:covid19": "temporary hospital", "healthcare": "hospital", "note": "Temporary COVID-19 hospital", "note:covid19": "temporary hospital"}}, {"name": "Centrul de Screening și Diagnostic în Boli Oncologice", "latitude": 47.1789568, "longitude": 27.5746052, "source": "osm", "_tags": {"addr:city": "Iași", "addr:housenumber": "177 A", "addr:street": "Strada Sărărie", "amenity": "hospital", "healthcare": "hospital", "name": "Centrul de Screening și Diagnostic în Boli Oncologice"}}, {"name": "Ambulatoriul Bușila (abandonat)", "latitude": 47.3878007, "longitude": 27.8136663, "source": "osm", "_tags": {"addr:city": "Bușila", "addr:country": "MD", "addr:housenumber": "1", "addr:street": "Strada Speranțelor", "amenity": "hospital", "healthcare": "hospital", "name": "Ambulatoriul Bușila (abandonat)"}}, {"name": "Centrul de Sănătate Pîrlița", "latitude": 47.3290494, "longitude": 27.8788864, "source": "osm", "_tags": {"addr:city": "Pîrlița", "addr:country": "MD", "addr:housenumber": "10", "addr:street": "Strada Ion Păun", "amenity": "hospital", "healthcare": "hospital", "name": "Centrul de Sănătate Pîrlița"}}, {"name": "Centrul de Sanatate Publică Ungheni", "latitude": 47.2150578, "longitude": 27.7909129, "source": "osm", "_tags": {"addr:city": "Ungheni", "addr:country": "MD", "addr:housenumber": "5", "addr:street": "Strada Alexandru Cosmescu", "amenity": "hospital", "barrier": "fence", "healthcare": "hospital", "name": "Centrul de Sanatate Publică Ungheni"}}, {"name": "Policlinica CFM", "latitude": 47.2127811, "longitude": 27.8074936, "source": "osm", "_tags": {"addr:city": "Ungheni", "addr:country": "MD", "addr:housenumber": "48", "addr:street": "Strada Națională", "amenity": "hospital", "barrier": "fence", "healthcare": "hospital", "name": "Policlinica CFM"}}, {"name": "Spitalul Raional Ungheni", "latitude": 47.214522, "longitude": 27.8059791, "source": "osm", "_tags": {"addr:city": "Ungheni", "addr:country": "MD", "addr:housenumber": "37", "addr:street": "Strada Națională", "amenity": "hospital", "barrier": "fence", "healthcare": "hospital", "name": "Spitalul Raional Ungheni"}}, {"name": "SAMU Ungheni", "latitude": 47.2123232, "longitude": 27.8071293, "source": "osm", "_tags": {"addr:city": "Ungheni", "addr:country": "MD", "addr:housenumber": "46/1", "addr:street": "Strada Națională", "amenity": "hospital", "emergency": "yes", "healthcare": "hospital", "name": "SAMU Ungheni", "name:ru": "Служба Скорой Помощи", "type": "multipolygon"}}, {"name": "Centrul de Sănătate Ungheni", "latitude": 47.2101988, "longitude": 27.7970269, "source": "osm", "_tags": {"addr:city": "Ungheni", "addr:country": "MD", "addr:housenumber": "27", "addr:street": "Strada Romană", "amenity": "hospital", "healthcare": "hospital", "name": "Centrul de Sănătate Ungheni", "name:ru": "Поликлиника", "type": "multipolygon"}}]