[{"name": "Cămin Spital", "latitude": 47.0851762, "longitude": 26.5557634, "source": "osm", "_tags": {"amenity": "hospital", "name": "Cămin Spital"}}, {"name": "Dispensarul Girov", "latitude": 46.9538526, "longitude": 26.502416, "source": "osm", "_tags": {"amenity": "hospital", "emergency": "no", "name": "Dispensarul Girov"}}, {"name": "Dispensar Roznov", "latitude": 46.8389506, "longitude": 26.5058961, "source": "osm", "_tags": {"amenity": "hospital", "name": "Dispensar Roznov"}}, {"name": "Sectia Psihiatrie", "latitude": 46.9297977, "longitude": 26.3736729, "source": "osm", "_tags": {"amenity": "hospital", "check_date": "2025-06-12", "healthcare": "hospital", "healthcare:speciality": "psychiatry", "name": "Sectia Psihiatrie", "name:ro": "Sectia Psihiatrie"}}, {"name": "Baza de tratament Bălțătești", "latitude": 47.1195262, "longitude": 26.3096726, "source": "osm", "_tags": {"addr:city": "Bălțătești", "addr:housenumber": "63", "addr:street": "Strada Florilor", "amenity": "hospital", "emergency": "no", "healthcare": "hospital", "name": "Baza de tratament Bălțătești", "name:it": "ospedale"}}, {"name": "Cabinet Medical", "latitude": 46.467211, "longitude": 26.4838987, "source": "osm", "_tags": {"addr:city": "Moinești", "addr:postcode": "605400", "amenity": "hospital", "healthcare": "hospital", "name": "Cabinet Medical"}}, {"name": "Centrul Medical „Palimed”", "latitude": 47.217693, "longitude": 26.3717547, "source": "osm", "_tags": {"amenity": "hospital", "healthcare": "hospital", "name": "Centrul Medical „Palimed”"}}, {"name": "FizioMed Expert", "latitude": 47.0942734, "longitude": 26.8134646, "source": "osm", "_tags": {"addr:city": "Hălăucești", "addr:postcode": "707240", "addr:street": "Principală", "amenity": "hospital", "email": "fiziomedexpert@gmail.com", "healthcare": "physiotherapist", "healthcare:speciality": "physiotherapy", "name": "FizioMed Expert", "source": "local knowledge"}}, {"name": "", "latitude": 46.5515466, "longitude": 26.5321175, "source": "osm", "_tags": {"addr:housenumber": "1", "addr:street": "Strada Poştei", "amenity": "hospital", "healthcare": "doctor"}}, {"name": "Spitalul de Pneumoftiziologie Bisericani", "latitude": 46.9582431, "longitude": 26.2389043, "source": "osm", "_tags": {"amenity": "hospital", "healthcare": "hospital", "healthcare:speciality": "pulmonology", "name": "Spitalul de Pneumoftiziologie Bisericani", "website": "https://www.spitalulbisericani.ro/"}}, {"name": "Centrul de Permanență Vaduri", "latitude": 46.9340255, "longitude": 26.2534631, "source": "osm", "_tags": {"addr:city": "Alexandru cel Bun", "addr:housenumber": "1", "addr:postcode": "617505", "addr:street": "Strada Școlii", "amenity": "hospital", "healthcare": "hospital", "healthcare:speciality": "general", "name": "Centrul de Permanență Vaduri", "operator": "Clinica Asclepion", "operator:type": "private", "wheelchair": "yes"}}, {"name": "Spitalul Municipal de Urgență Roman", "latitude": 46.9278349, "longitude": 26.9310269, "source": "osm", "_tags": {"addr:street": "Strada Tineretului", "amenity": "hospital", "healthcare": "hospital", "name": "Spitalul Municipal de Urgență Roman"}}, {"name": "Central Plaza", "latitude": 46.5556891, "longitude": 26.9169356, "source": "osm", "_tags": {"addr:city": "Bacău", "addr:housenumber": "29", "addr:postcode": "600112", "addr:street": "Strada Erou Ciprian Pintea", "amenity": "hospital", "building": "yes", "building:levels": "2", "email": "office@centralplaza.eu", "healthcare": "hospital", "name": "Central Plaza", "operator": "Central Plaza", "operator:type": "private", "phone": "+40757051531", "website": "https://www.centralplaza.eu/"}}, {"name": "Spitalului Județean de Urgență Bacău", "latitude": 46.5577713, "longitude": 26.9098779, "source": "osm", "_tags": {"amenity": "hospital", "healthcare": "hospital", "name": "Spitalului Județean de Urgență Bacău", "name:en": "Bacău County Emergency Hospital"}}, {"name": "Spitalul Municipal Moinești", "latitude": 46.4764821, "longitude": 26.488186, "source": "osm", "_tags": {"amenity": "hospital", "emergency": "yes", "name": "Spitalul Municipal Moinești"}}, {"name": "Spital și Azil Mănăstirea Paltin", "latitude": 47.1647232, "longitude": 25.9764629, "source": "osm", "_tags": {"amenity": "hospital", "building": "yes", "height": "9", "name": "Spital și Azil Mănăstirea Paltin", "operator": "Manastirea Paltin-Petru Voda"}}, {"name": "", "latitude": 47.2564936, "longitude": 26.7200602, "source": "osm", "_tags": {"addr:city": "Pașcani", "addr:housenumber": "29", "addr:street": "Strada Ceferiștilor", "amenity": "hospital", "emergency": "no", "healthcare": "hospital", "healthcare:speciality": "animal;pharmacy;veterinarian"}}, {"name": "", "latitude": 47.094245, "longitude": 26.8135249, "source": "osm", "_tags": {"addr:city": "Hălăucești", "addr:postcode": "707240", "addr:street": "Strada Principală", "amenity": "hospital", "healthcare": "hospital", "healthcare:speciality": "physiotherapy"}}, {"name": "", "latitude": 47.2560796, "longitude": 26.7203295, "source": "osm", "_tags": {"addr:city": "Pașcani", "addr:housenumber": "29", "addr:street": "Strada Ceferiștilor", "amenity": "hospital", "emergency": "no", "healthcare": "hospital", "healthcare:speciality": "animal;pharmacy;veterinarian"}}, {"name": "Sanatoriul de Balneofizioterapie și Recuperare Medicală ”Dr. Dimitrie Cantemir” Bălțătești", "latitude": 47.1192214, "longitude": 26.3088729, "source": "osm", "_tags": {"addr:city": "Bălțătești", "addr:housenumber": "63", "addr:street": "Strada Florilor", "amenity": "hospital", "contact:email": "statiuneabaltatesti@mapn.ro", "healthcare": "hospital", "name": "Sanatoriul de Balneofizioterapie și Recuperare Medicală ”Dr. Dimitrie Cantemir” Bălțătești", "operator": "ANMCS", "operator:type": "government", "phone": "+40783236226"}}, {"name": "Casă pentru persoane cu dizabilități", "latitude": 47.2121292, "longitude": 26.3365506, "source": "osm", "_tags": {"amenity": "hospital", "healthcare": "hospital", "name": "Casă pentru persoane cu dizabilități"}}, {"name": "", "latitude": 47.2025432, "longitude": 26.3618912, "source": "osm", "_tags": {"amenity": "hospital", "healthcare": "hospital"}}, {"name": "Punct sanitar", "latitude": 47.1966531, "longitude": 26.4065593, "source": "osm", "_tags": {"amenity": "hospital", "healthcare": "hospital", "name": "Punct sanitar"}}, {"name": "", "latitude": 47.2087896, "longitude": 26.3821644, "source": "osm", "_tags": {"amenity": "hospital", "healthcare": "hospital"}}, {"name": "Medic de familie", "latitude": 47.2074663, "longitude": 26.3783799, "source": "osm", "_tags": {"amenity": "hospital", "healthcare": "hospital", "name": "Medic de familie"}}, {"name": "Spitalul Municipal „Sfânta Maria” Bacău", "latitude": 46.5572947, "longitude": 26.9095852, "source": "osm", "_tags": {"amenity": "hospital", "healthcare": "hospital", "name": "Spitalul Municipal „Sfânta Maria” Bacău"}}]