[{"name": "Clinique de la Loire", "latitude": 47.2465466, "longitude": -0.0610068, "source": "osm", "_tags": {"amenity": "hospital", "healthcare": "hospital", "name": "Clinique de la Loire", "ref:FR:FINESS": "490007929", "type:FR:FINESS": "128"}}, {"name": "Centre Hospitalier Site Rabelais", "latitude": 46.4687001, "longitude": -0.8160647, "source": "osm", "_tags": {"amenity": "hospital", "healthcare": "hospital", "name": "Centre Hospitalier Site Rabelais", "phone": "+33 2 51 53 51 53", "ref:FR:FINESS": "850000183", "ref:FR:NAF": "8610Z", "ref:FR:SIREN": "268500196", "ref:FR:SIRET": "26850019600012", "source": "INSEE - 2024-10", "type:FR:FINESS": "355"}}, {"name": "Centre Médico-Psychologique et Hôpital de Jour", "latitude": 46.4699693, "longitude": -0.8183071, "source": "osm", "_tags": {"amenity": "hospital", "healthcare": "hospital", "name": "Centre Médico-Psychologique et Hôpital de Jour", "opening_hours": "Mo-Fr 09:00-17:00", "phone": "+33 2 51 50 16 76", "ref:FR:FINESS": "850025941", "short_name": "CMP", "type:FR:FINESS": "292"}}, {"name": "dentistes", "latitude": 47.35647, "longitude": -0.552351, "source": "osm", "_tags": {"amenity": "hospital", "healthcare": "hospital", "name": "dentistes"}}, {"name": "IRM du Choletais", "latitude": 47.0430257, "longitude": -0.8958864, "source": "osm", "_tags": {"amenity": "hospital", "check_date": "2024-05-02", "healthcare": "hospital", "healthcare:speciality": "radiology", "internet_access": "wlan", "internet_access:fee": "customers", "name": "IRM du Choletais", "wheelchair": "yes"}}, {"name": "Centre Hospitalier de Saumur", "latitude": 47.2467403, "longitude": -0.0603091, "source": "osm", "_tags": {"amenity": "hospital", "email": "direction@ch-saumur.fr", "emergency": "yes", "fax": "+33 2 41 53 31 29", "healthcare": "hospital", "name": "Centre Hospitalier de Saumur", "operator:type": "public", "phone": "+33 2 41 53 30 30", "ref:FR:FINESS": "490001765", "type:FR:FINESS": "355", "website": "https://www.ch-saumur.fr/"}}, {"name": "Centre hospitalier de Cholet", "latitude": 47.0420669, "longitude": -0.8966101, "source": "osm", "_tags": {"addr:housenumber": "1", "addr:street": "Rue de Marengo", "amenity": "hospital", "check_date": "2024-01-08", "emergency": "yes", "fax": "+33 2 41 49 60 60", "healthcare": "hospital", "healthcare:speciality": "intensive", "name": "Centre hospitalier de Cholet", "operator:type": "public", "payment:cash": "yes", "payment:credit_cards": "yes", "payment:debit_cards": "yes", "phone": "+33 2 41 49 60 00", "ref:FR:FINESS": "490000635", "type:FR:FINESS": "355", "website": "https://www.ch-cholet.fr/", "wheelchair": "yes"}}, {"name": "Hopital Local", "latitude": 47.2339122, "longitude": -0.4307711, "source": "osm", "_tags": {"amenity": "hospital", "building": "yes", "name": "Hopital Local", "ref:FR:FINESS": "490000494", "source": "cadastre-dgi-fr source : Direction Générale des Finances Publiques - Cadastre. Mise à jour : 2013", "wikidata": "Q92063299"}}, {"name": "Centre Hospitalier Saint-Louis", "latitude": 47.408875, "longitude": -0.7582325, "source": "osm", "_tags": {"amenity": "hospital", "building": "yes", "healthcare": "hospital", "name": "Centre Hospitalier Saint-Louis", "ref:FR:FINESS": "490001146", "source": "cadastre-dgi-fr source : Direction Générale des Finances Publiques - Cadastre. Mise à jour : 2013"}}, {"name": "Pôle santé sud Vendée", "latitude": 46.4656541, "longitude": -0.8276112, "source": "osm", "_tags": {"amenity": "hospital", "healthcare": "hospital", "name": "Pôle santé sud Vendée", "operator:type": "public", "phone": "+33 2 51 53 51 53", "ref:FR:FINESS": "850009630", "ref:FR:NAF": "8610Z", "ref:FR:SIREN": "268500196", "ref:FR:SIRET": "26850019600137", "source": "cadastre-dgi-fr source : Direction Générale des Impôts - Cadastre. Mise à jour : 2011", "type:FR:FINESS": "355"}}, {"name": "Centre de Santé Mentale Angevin (CESAME)", "latitude": 47.4221183, "longitude": -0.5642764, "source": "osm", "_tags": {"alt_name": "CESAME", "amenity": "hospital", "healthcare": "hospital", "healthcare:speciality": "psychiatry", "name": "Centre de Santé Mentale Angevin (CESAME)", "ref:FR:FINESS": "490000106", "type:FR:FINESS": "292", "website": "https://www.ch-cesame-angers.fr/"}}, {"name": "Centre hospitalier de Faye L'Abbesse", "latitude": 46.8315167, "longitude": -0.3867401, "source": "osm", "_tags": {"amenity": "hospital", "emergency": "yes", "healthcare": "hospital", "name": "Centre hospitalier de Faye L'Abbesse", "operator": "Centre hospitalier Nord Deux-Sèvres", "operator:type": "public", "phone": "+33 5 49 68 49 68", "ref:FR:FINESS": "790019848", "type:FR:FINESS": "355", "website": "https://www.chnds.fr/accueil.aspx"}}, {"name": "Centre hospitalier de Thouars", "latitude": 46.9725263, "longitude": -0.181652, "source": "osm", "_tags": {"amenity": "hospital", "emergency": "limited", "healthcare:speciality": "psychiatry", "name": "Centre hospitalier de Thouars", "operator": "Centre hospitalier Nord Deux-Sèvres", "operator:type": "public", "phone": "+33 5 49 66 50 42", "ref:FR:FINESS": "790003537", "source": "cadastre-dgi-fr source : Direction Générale des Impôts - Cadastre. Mise à jour : 2011", "type:FR:FINESS": "355", "website": "https://www.chnds.fr/accueil.aspx"}}, {"name": "Centre hospitalier de Parthenay", "latitude": 46.6525456, "longitude": -0.2204548, "source": "osm", "_tags": {"addr:housenumber": "13", "amenity": "hospital", "emergency": "limited", "fax": "+33 5 49 68 30 00", "name": "Centre hospitalier de Parthenay", "operator": "Centre hospitalier Nord Deux-Sèvres", "operator:type": "public", "phone": "+33 5 49 68 49 68", "ref:FR:FINESS": "790000103", "source": "cadastre-dgi-fr source : Direction Générale des Impôts - Cadastre. Mise à jour : 2010", "type:FR:FINESS": "355", "website": "https://www.chnds.fr/accueil.aspx", "wheelchair": "yes"}}, {"name": "Centre hospitalier intercommunal Lys Hyrôme", "latitude": 47.1454975, "longitude": -0.5418639, "source": "osm", "_tags": {"amenity": "hospital", "fax": "+33 2 41 75 09 46", "healthcare": "hospital", "name": "Centre hospitalier intercommunal Lys Hyrôme", "phone": "+33 2 41 75 80 36", "ref:FR:FINESS": "490001831", "type:FR:FINESS": "106"}}, {"name": "Hôpital des Collines Vendéennes", "latitude": 46.6459354, "longitude": -0.7403017, "source": "osm", "_tags": {"amenity": "hospital", "healthcare": "hospital", "name": "Hôpital des Collines Vendéennes", "ref:FR:FINESS": "850000647", "source": "Le ministère des solidarités et de la santé - 03/2019", "type:FR:FINESS": "106", "wikidata": "Q92062812"}}, {"name": "Hôpital Local", "latitude": 47.2082886, "longitude": -0.7251882, "source": "osm", "_tags": {"addr:city": "Chemillé", "addr:housenumber": "6", "addr:street": "Rue Saint Gilles", "amenity": "hospital", "check_date": "2024-11-23", "name": "Hôpital Local", "ref:FR:FINESS": "490000650", "wikidata": "Q92062935"}}, {"name": "Hôpital Saint-Martin", "latitude": 47.2018802, "longitude": -0.982121, "source": "osm", "_tags": {"amenity": "hospital", "name": "Hôpital Saint-Martin", "ref:FR:FINESS": "490004256"}}, {"name": "Centre Hospitalier Doué-en-Anjou", "latitude": 47.1931, "longitude": -0.2721383, "source": "osm", "_tags": {"addr:housenumber": "30 Ter", "addr:postcode": "49700", "addr:street": "Rue Saint-François", "amenity": "hospital", "fax": "+33241831701", "healthcare": "hospital", "name": "Centre Hospitalier Doué-en-Anjou", "phone": "+33241834610", "ref:FR:FINESS": "490000338", "ref:FR:SIRET": "26490048100013", "source": "Le ministère des solidarités et de la santé - 03/2019", "type:FR:FINESS": "106", "wikidata": "Q92062951"}}, {"name": "", "latitude": 46.469233, "longitude": -0.8167244, "source": "osm", "_tags": {"amenity": "hospital", "healthcare": "hospital"}}, {"name": "Les Cyties CMP CATTP", "latitude": 46.875029, "longitude": -1.0121057, "source": "osm", "_tags": {"addr:city": "Les Herbiers", "addr:postcode": "85500", "addr:street": "Chemin de Bel Air", "healthcare": "hospital", "healthcare:speciality": "psychiatry", "name": "Les Cyties CMP CATTP", "operator": "EPSM de Vendée - Centre hospitalier Georges Mazurelle", "phone": "+33 2 51 66 81 06", "ref:FR:NAF": "86.10Z", "ref:FR:SIREN": "268502416", "ref:FR:SIRET": "26850241600160", "source": "INSEE - 2025-08"}}]