[{"name": "Egyesített Gyógyító Megelőző Intézet", "latitude": 47.1781532, "longitude": 20.4077101, "source": "osm", "_tags": {"amenity": "hospital", "check_date": "2025-07-12", "healthcare": "hospital", "name": "Egyesített Gyógyító Megelőző Intézet"}}, {"name": "Városi kórház", "latitude": 47.0029689, "longitude": 20.6287477, "source": "osm", "_tags": {"amenity": "hospital", "name": "Városi kórház"}}, {"name": "Patológia", "latitude": 47.324539, "longitude": 20.9125238, "source": "osm", "_tags": {"amenity": "hospital", "healthcare": "hospital", "name": "Patológia"}}, {"name": "", "latitude": 47.1754172, "longitude": 20.2073415, "source": "osm", "_tags": {"amenity": "hospital"}}, {"name": "Orosházi Kórház", "latitude": 46.5589981, "longitude": 20.6594298, "source": "osm", "_tags": {"addr:city": "Orosháza", "addr:housenumber": "59", "addr:postcode": "5900", "addr:street": "Könd utca", "amenity": "hospital", "fixme": "possible duplicated amenity (POI & poly)", "name": "Orosházi Kórház"}}, {"name": "Dr. Bugyi István Kórház", "latitude": 46.6629207, "longitude": 20.2531999, "source": "osm", "_tags": {"addr:city": "Szentes", "addr:housenumber": "44-58", "addr:postcode": "6600", "addr:street": "Sima Ferenc utca", "amenity": "hospital", "emergency": "yes", "healthcare": "hospital", "name": "Dr. Bugyi István Kórház", "phone": "+36 63 313 244", "website": "https://www.szentesi-korhaz.hu/", "wikidata": "Q909489", "wikipedia": "hu:Dr. Bugyi István Kórház"}}, {"name": "Hetényi Géza Kórház", "latitude": 47.1566954, "longitude": 20.1702648, "source": "osm", "_tags": {"addr:city": "Szolnok", "addr:housenumber": "1", "addr:postcode": "5000", "addr:street": "Tószegi út", "amenity": "hospital", "barrier": "fence", "contact:email": "info@hetenyikorhaz.hu", "contact:phone": "+36 56 503 603", "healthcare": "hospital", "name": "Hetényi Géza Kórház", "website": "https://hetenyikorhaz.hu/"}}, {"name": "Kátai Gábor Kórház", "latitude": 47.3244897, "longitude": 20.9126526, "source": "osm", "_tags": {"addr:city": "Karcag", "addr:housenumber": "48", "addr:postcode": "5300", "addr:street": "Zöldfa utca", "amenity": "hospital", "contact:email": "kgkorhaz@externet.hu", "contact:phone": "+36 59 507 111", "contact:website": "https://www.kgkorhaz.hu/", "name": "Kátai Gábor Kórház", "start_date": "1968"}}, {"name": "Kakasszéki Gyógyintézet", "latitude": 46.5401038, "longitude": 20.5885428, "source": "osm", "_tags": {"amenity": "hospital", "name": "Kakasszéki Gyógyintézet", "type": "multipolygon"}}]