[{"name": "Spital Sarnthein", "latitude": 46.6422599, "longitude": 11.3560954, "source": "osm", "_tags": {"amenity": "hospital", "healthcare": "hospital", "name": "Spital Sarnthein"}}, {"name": "Ambulatorium", "latitude": 46.5502272, "longitude": 11.0060915, "source": "osm", "_tags": {"amenity": "hospital", "healthcare": "hospital", "name": "Ambulatorium"}}, {"name": "Gesundheitssprengel Kardaun - Azienda Sanitaria Comprensorio Salto-Sciliar", "latitude": 46.4948, "longitude": 11.3903333, "source": "osm", "_tags": {"amenity": "hospital", "healthcare": "hospital", "name": "Gesundheitssprengel Kardaun - Azienda Sanitaria Comprensorio Salto-Sciliar", "name:de": "Gesundheitssprengel Kardaun", "name:it": "Azienda Sanitaria Comprensorio Salto-Sciliar", "operator": "ASL", "operator:wikidata": "Q3631467"}}, {"name": "Ambulatorium", "latitude": 46.5486943, "longitude": 11.0033788, "source": "osm", "_tags": {"amenity": "hospital", "healthcare": "hospital", "name": "Ambulatorium"}}, {"name": "Sanatorium Kettenbrücke", "latitude": 47.2793504, "longitude": 11.4065587, "source": "osm", "_tags": {"addr:city": "Innsbruck", "addr:country": "AT", "addr:housenumber": "1", "addr:postcode": "6020", "addr:street": "Sennstraße", "amenity": "hospital", "email": "information@sanatorium-kettenbruecke.at", "fax": "+43 512 2112-418", "healthcare": "hospital", "name": "Sanatorium Kettenbrücke", "official_name": "Sanatorium Kettenbrücke der Barmherzigen Schwestern", "operator": "Sanatorium Kettenbrücke der Barmherzigen Schwestern GmbH", "phone": "+43 512 2112", "website": "https://www.sanatorium-kettenbruecke.at/", "wheelchair": "yes", "wikidata": "Q38066482"}}, {"name": "Ospedale di Bolzano - Krankenhaus Bozen", "latitude": 46.4984112, "longitude": 11.310759, "source": "osm", "_tags": {"amenity": "hospital", "emergency": "yes", "healthcare": "hospital", "name": "Ospedale di Bolzano - Krankenhaus Bozen", "name:de": "Krankenhaus Bozen", "name:it": "Ospedale di Bolzano", "operator": "Südtiroler Sanitätsbetriebe", "operator:type": "public", "operator:wikidata": "Q16294907", "phone": "+39 0471 908111", "website": "https://www.asdaa.it/it/osp-bolzano.asp", "website:de": "https://www.sabes.it/de/krankenhaus-bozen", "wikidata": "Q2138395"}}, {"name": "Landeskrankenhaus Natters", "latitude": 47.2395657, "longitude": 11.3665446, "source": "osm", "_tags": {"amenity": "hospital", "email": "hn.dion-sek@tirol-kliniken.at", "healthcare": "hospital", "healthcare:speciality": "pulmonology;internal;cardiology;oncology", "name": "Landeskrankenhaus Natters", "operator": "Tirol Kliniken GmbH", "operator:type": "public", "phone": "+43 50 504-48000", "website": "https://www.tirol-kliniken.at/page.cfm?vpath=standorte/oe-landeskrankenhaus-hochzirl---natters/standort-natters"}}, {"name": "Franz-Tappeiner-Krankenhaus - Ospedale Franz Tappeiner", "latitude": 46.676957, "longitude": 11.1521831, "source": "osm", "_tags": {"amenity": "hospital", "emergency": "yes", "healthcare": "hospital", "name": "Franz-Tappeiner-Krankenhaus - Ospedale Franz Tappeiner", "name:de": "Franz-Tappeiner-Krankenhaus", "name:it": "Ospedale Franz Tappeiner", "operator": "Azienda Sanitaria Alto Adige - Südtiroler Sanitätsbetrieb", "operator:type": "public", "operator:wikidata": "Q16294907", "phone": "+39 0473 263333", "website": "https://www.asdaa.it/it/osp-merano.asp", "wheelchair": "yes", "wikidata": "Q30270038"}}, {"name": "Krankenhaus Bruneck - Ospedale Brunico", "latitude": 46.7998584, "longitude": 11.9364199, "source": "osm", "_tags": {"amenity": "hospital", "emergency": "yes", "healthcare": "hospital", "name": "Krankenhaus Bruneck - Ospedale Brunico", "name:de": "Krankenhaus Bruneck", "name:it": "Ospedale Brunico", "operator:wikidata": "Q16294907", "wikidata": "Q30293534"}}, {"name": "Krankenhaus Brixen - Ospedale Bressanone", "latitude": 46.7238727, "longitude": 11.64795, "source": "osm", "_tags": {"amenity": "hospital", "emergency": "yes", "name": "Krankenhaus Brixen - Ospedale Bressanone", "name:de": "Krankenhaus Brixen", "name:it": "Ospedale Bressanone", "operator:wikidata": "Q16294907", "wheelchair": "yes", "wikidata": "Q30270035"}}, {"name": "Universitätsklinik Innsbruck", "latitude": 47.26208, "longitude": 11.3866339, "source": "osm", "_tags": {"amenity": "hospital", "emergency": "yes", "health_specialty": "stroke_unit", "healthcare": "hospital", "healthcare:speciality": "emergency", "name": "Universitätsklinik Innsbruck", "official_name": "Landeskrankenhaus Innsbruck", "operator": "Tirol Kliniken GmbH", "reg_name": "Klinik Innsbruck", "website": "https://www.tirol-kliniken.at/", "wheelchair": "yes", "wikidata": "Q1802327", "wikipedia": "de:Landeskrankenhaus Innsbruck"}}, {"name": "Landeskrankenhaus Hall", "latitude": 47.2838691, "longitude": 11.5142079, "source": "osm", "_tags": {"amenity": "hospital", "healthcare": "hospital", "healthcare:speciality": "emergency", "name": "Landeskrankenhaus Hall", "operator": "Tirol Kliniken GmbH", "website": "https://www.tirol-kliniken.at/page.cfm?vpath=standorte/landeskrankenhaus-hall", "wikidata": "Q1277028", "wikipedia": "de:Landeskrankenhaus Hall"}}, {"name": "Landeskrankenhaus Hochzirl", "latitude": 47.2836521, "longitude": 11.2445249, "source": "osm", "_tags": {"amenity": "hospital", "healthcare": "hospital", "healthcare:speciality": "internal;neurology", "name": "Landeskrankenhaus Hochzirl", "operator": "Tirol Kliniken GmbH", "website": "https://www.tirol-kliniken.at/page.cfm?vpath=standorte/oe-landeskrankenhaus-hochzirl---natters/standort-hochzirl", "wikidata": "Q64555518", "wikipedia": "de:Landeskrankenhaus Hochzirl"}}, {"name": "Bezirkskrankenhaus Schwaz", "latitude": 47.3440786, "longitude": 11.7044677, "source": "osm", "_tags": {"amenity": "hospital", "contact:email": "info@kh-schwaz.at", "contact:phone": "+43 5242 600 0", "healthcare": "hospital", "healthcare:speciality": "emergency", "name": "Bezirkskrankenhaus Schwaz", "short_name": "BKH Schwaz", "website": "https://www.kh-schwaz.at/"}}, {"name": "Krankenhaus Sterzing - Ospedale Vipiteno", "latitude": 46.8981647, "longitude": 11.425741, "source": "osm", "_tags": {"amenity": "hospital", "emergency": "yes", "healthcare": "hospital", "name": "Krankenhaus Sterzing - Ospedale Vipiteno", "name:de": "Krankenhaus Sterzing", "name:it": "Ospedale Vipiteno", "operator:wikidata": "Q16294907", "wheelchair": "yes", "wikidata": "Q107264870"}}]