[{"name": "Spitalul Municipal", "latitude": 47.3478745, "longitude": 25.3583204, "source": "osm", "_tags": {"addr:city": "Vatra Dornei", "addr:housenumber": "12", "addr:postcode": "725700", "addr:postcode:source": "Date de la Poșta Română, publicate sub Licența pentru Guvernare Deschisă v1.0 la http://date.gov.ro/organization/posta-romana", "addr:street": "Strada Mihai Eminescu", "amenity": "hospital", "healthcare": "hospital", "name": "Spitalul Municipal"}}, {"name": "Policlinica Municipală", "latitude": 47.3477065, "longitude": 25.3557388, "source": "osm", "_tags": {"amenity": "hospital", "name": "Policlinica Municipală"}}, {"name": "Secția de boli infecțioase", "latitude": 47.3533083, "longitude": 25.3596782, "source": "osm", "_tags": {"amenity": "hospital", "name": "Secția de boli infecțioase"}}, {"name": "", "latitude": 46.4747252, "longitude": 25.1837689, "source": "osm", "_tags": {"amenity": "hospital"}}, {"name": "Spitalul Municipal Toplița", "latitude": 46.9224615, "longitude": 25.3560293, "source": "osm", "_tags": {"addr:city": "Toplița", "addr:postcode": "535700", "addr:street": "Strada Victor Babeș", "amenity": "hospital", "check_date": "2025-06-12", "emergency": "yes", "healthcare": "hospital", "name": "Spitalul Municipal Toplița", "website": "https://www.spitaltoplita.ro/"}}, {"name": "", "latitude": 46.8005067, "longitude": 25.5001556, "source": "osm", "_tags": {"amenity": "hospital", "healthcare": "hospital"}}, {"name": "Dispensar uman", "latitude": 47.2409462, "longitude": 25.3305868, "source": "osm", "_tags": {"addr:city": "Șaru Dornei", "addr:postcode": "727517", "addr:street": "Neagra Șarului", "amenity": "hospital", "name": "Dispensar uman"}}, {"name": "Dispensarul Uman Atid", "latitude": 46.4546997, "longitude": 25.0460175, "source": "osm", "_tags": {"amenity": "hospital", "emergency": "yes", "healthcare": "hospital", "name": "Dispensarul Uman Atid", "source": "Local Knowledge"}}, {"name": "SMURD", "latitude": 46.7217644, "longitude": 25.5908601, "source": "osm", "_tags": {"amenity": "hospital", "healthcare": "hospital", "name": "SMURD"}}, {"name": "Dispensarul Uman Saru Dornei", "latitude": 47.2903079, "longitude": 25.3715301, "source": "osm", "_tags": {"addr:city": "Șaru Dornei", "addr:country": "RO", "addr:postcode": "727515", "amenity": "hospital", "name": "Dispensarul Uman Saru Dornei"}}, {"name": "Salvamont", "latitude": 46.9819537, "longitude": 25.4068089, "source": "osm", "_tags": {"amenity": "hospital", "building": "yes", "emergency": "yes", "healthcare": "hospital", "name": "Salvamont", "source": "www.salvamont.ro"}}, {"name": "Spital", "latitude": 46.5937119, "longitude": 25.0712116, "source": "osm", "_tags": {"addr:city": "Sovata", "addr:street": "Strada Petofi Șandor", "amenity": "hospital", "building": "yes", "healthcare": "hospital", "name": "Spital", "name:ro": "Spital"}}, {"name": "Spitalul de Psihiatrie Tulgheș", "latitude": 46.9593912, "longitude": 25.7596598, "source": "osm", "_tags": {"addr:city": "Tulgheș", "addr:housenumber": "342", "addr:postcode": "537330", "amenity": "hospital", "healthcare": "hospital", "healthcare:speciality": "psychiatry", "name": "Spitalul de Psihiatrie Tulgheș", "name:hu": "Gyergyótölgyesi Pszichiátriai Kórház", "name:ro": "Spitalul de Psihiatrie Tulgheș", "operator": "Consiliul Județean Harghita", "operator:type": "government", "phone": "+40266.338.188, +40266.338.189", "website": "https://www.psihiatrietulghes.ro/"}}, {"name": "", "latitude": 46.7264791, "longitude": 25.5989303, "source": "osm", "_tags": {"amenity": "hospital", "healthcare": "hospital"}}, {"name": "Spitalul Municipal", "latitude": 46.7231793, "longitude": 25.6024624, "source": "osm", "_tags": {"amenity": "hospital", "healthcare": "hospital", "name": "Spitalul Municipal"}}, {"name": "", "latitude": 46.7244586, "longitude": 25.6015302, "source": "osm", "_tags": {"amenity": "hospital", "healthcare": "hospital"}}, {"name": "Secția obstetrică ginecologie a spitalului municipal", "latitude": 47.3473848, "longitude": 25.3591658, "source": "osm", "_tags": {"amenity": "hospital", "healthcare": "hospital", "name": "Secția obstetrică ginecologie a spitalului municipal"}}]