[{"name": "Spitalul de Boli Infecțioase", "latitude": 47.1260309, "longitude": 24.4929433, "source": "osm", "_tags": {"amenity": "hospital", "name": "Spitalul de Boli Infecțioase"}}, {"name": "Policlinica Bistrița", "latitude": 47.1314845, "longitude": 24.4880897, "source": "osm", "_tags": {"amenity": "hospital", "name": "Policlinica Bistrița"}}, {"name": "Spital de Bătrâni", "latitude": 47.129225, "longitude": 24.4882513, "source": "osm", "_tags": {"amenity": "hospital", "name": "Spital de Bătrâni"}}, {"name": "", "latitude": 47.1381771, "longitude": 24.5133729, "source": "osm", "_tags": {"amenity": "hospital", "healthcare": "hospital"}}, {"name": "Centru Medical Gastroenterologie", "latitude": 46.5394804, "longitude": 24.5768488, "source": "osm", "_tags": {"amenity": "hospital", "healthcare": "hospital", "healthcare:speciality": "endocrinology", "name": "Centru Medical Gastroenterologie"}}, {"name": "Centrul Alma Medical", "latitude": 46.5395291, "longitude": 24.5771923, "source": "osm", "_tags": {"amenity": "hospital", "email": "office@almamedical.ro", "fax": "+40-265-255255", "healthcare": "hospital", "name": "Centrul Alma Medical", "phone": "+40-265-255255", "website": "http://www.almamedical.ro/"}}, {"name": "Centrul medical TOPMED", "latitude": 46.5376677, "longitude": 24.5739532, "source": "osm", "_tags": {"addr:city": "Târgu Mureș", "addr:housenumber": "2", "addr:postcode": "540538", "addr:postcode:source": "Date de la Poșta Română, publicate sub Licența pentru Guvernare Deschisă v1.0 la http://date.gov.ro/organization/posta-romana", "addr:street": "Strada Brașovului", "amenity": "hospital", "healthcare": "hospital", "name": "Centrul medical TOPMED", "name:ro": "Centrul medical TOPMED", "phone": "+40-365-430280"}}, {"name": "Farmacia Unirii", "latitude": 46.5570258, "longitude": 24.5468127, "source": "osm", "_tags": {"amenity": "hospital", "healthcare": "hospital", "name": "Farmacia Unirii"}}, {"name": "Spitalul Județean de Urgență", "latitude": 47.1398894, "longitude": 24.5063411, "source": "osm", "_tags": {"amenity": "hospital", "emergency": "yes", "name": "Spitalul Județean de Urgență"}}, {"name": "Spitalul Orasesc", "latitude": 46.7553581, "longitude": 24.1640653, "source": "osm", "_tags": {"addr:street": "Strada Republicii", "amenity": "hospital", "emergency": "yes", "healthcare": "hospital", "name": "Spitalul Orasesc"}}, {"name": "Policlinica 2", "latitude": 46.5392001, "longitude": 24.561277, "source": "osm", "_tags": {"addr:city": "Târgu Mureș", "addr:postcode": "540011", "addr:street": "Bulevardul 1 Decembrie 1918", "amenity": "hospital", "emergency": "no", "healthcare": "hospital", "healthcare:speciality": "general", "name": "Policlinica 2", "opening_hours": "Mo-Fr 06:30-21:00", "phone": "0365882556"}}, {"name": "Clinica de Chirurgie oro-maxilo-facială", "latitude": 46.5391729, "longitude": 24.5613052, "source": "osm", "_tags": {"amenity": "hospital", "building": "yes", "building:levels": "3", "healthcare": "hospital", "name": "Clinica de Chirurgie oro-maxilo-facială"}}, {"name": "Serviciul de urgență SMURD", "latitude": 46.5598179, "longitude": 24.5837043, "source": "osm", "_tags": {"amenity": "hospital", "building": "yes", "emergency": "yes", "healthcare": "hospital", "name": "Serviciul de urgență SMURD", "roof:colour": "blue", "roof:orientation": "along", "roof:shape": "gabled"}}, {"name": "Centrul Regional de Transfuzie Sanguină Tg-Mureș", "latitude": 46.5605886, "longitude": 24.5832778, "source": "osm", "_tags": {"addr:city": "Târgu Mureș", "addr:housenumber": "2", "addr:street": "Strada Molter Károly", "amenity": "hospital", "building": "yes", "building:levels": "3", "healthcare": "hospital", "name": "Centrul Regional de Transfuzie Sanguină Tg-Mureș", "roof:orientation": "along", "roof:shape": "gabled"}}, {"name": "Clinica de Psihiatrie", "latitude": 46.5560682, "longitude": 24.5840581, "source": "osm", "_tags": {"amenity": "hospital", "building": "yes", "building:levels": "3", "healthcare": "hospital", "name": "Clinica de Psihiatrie", "name:hu": "Pszihiátriai klinika", "website": "https://www.spitaljudeteanmures.ro/"}}, {"name": "Clinica de Pediatrie", "latitude": 46.5552051, "longitude": 24.5828244, "source": "osm", "_tags": {"amenity": "hospital", "building": "yes", "building:levels": "2", "healthcare": "hospital", "name": "Clinica de Pediatrie", "name:hu": "Gyerekgyógyászat", "website": "https://www.spitaljudeteanmures.ro/"}}, {"name": "Clinica de Ortopedie-Traumatologie", "latitude": 46.5517045, "longitude": 24.5738944, "source": "osm", "_tags": {"amenity": "hospital", "building": "yes", "healthcare": "hospital", "name": "Clinica de Ortopedie-Traumatologie", "phone": "+40-265-213720", "website": "https://www.spitaljudeteanmures.ro/"}}, {"name": "Nova Vita", "latitude": 46.5367188, "longitude": 24.5535002, "source": "osm", "_tags": {"addr:city": "Târgu Mureș", "addr:housenumber": "29A", "addr:postcode": "540023", "addr:street": "Strada Liviu Rebreanu", "amenity": "hospital", "building": "yes", "check_date": "2025-04-13", "description": "Spital privat - Maternitate, Chirurgie generala, Chirurgie cardio-vasculara, Chirurgie plastica, Neurochirurgie, Urologie - Litotritie, Cardiologie interventionala, Paliatie, Oncologie, Recuperare medicala, Centru de recuperare fizica si sportiva.", "email": "office@novavitasan.ro", "emergency": "yes", "healthcare": "hospital", "healthcare:speciality": "general;maternity;surgery;emergency;gynaecology;cardiology;oncology", "name": "Nova Vita", "phone": "+40 265 266 112, +40 365 430 330", "source": "owner", "website": "https://nova-vita.ro/"}}, {"name": "Clinica de Boli Infecțioase 1", "latitude": 46.5304694, "longitude": 24.5500708, "source": "osm", "_tags": {"addr:city": "Târgu Mureș", "addr:housenumber": "89", "addr:street": "Strada Gheorghe Doja", "amenity": "hospital", "healthcare": "hospital", "name": "Clinica de Boli Infecțioase 1", "phone": "+40-265-250533", "website": "https://www.spitaljudeteanmures.ro/"}}, {"name": "Clinica de Neuropsihiatrie Infantilă", "latitude": 46.5371793, "longitude": 24.5650928, "source": "osm", "_tags": {"addr:city": "Târgu Mureș", "addr:housenumber": "5", "addr:postcode": "540005", "addr:street": "Pasajul Panseluțelor", "amenity": "hospital", "healthcare": "hospital", "healthcare:speciality": "psychiatry", "is_in:city": "Târgu Mureș", "name": "Clinica de Neuropsihiatrie Infantilă", "phone": "+40-265-264388", "website": "https://www.spitaljudeteanmures.ro/"}}, {"name": "Policlinica nr. 2", "latitude": 46.5389249, "longitude": 24.5607944, "source": "osm", "_tags": {"addr:city": "Târgu Mureș", "addr:housenumber": "28", "addr:street": "Bulevardul 1 Decembrie 1918", "amenity": "hospital", "building": "yes", "building:levels": "3", "healthcare": "hospital", "name": "Policlinica nr. 2", "phone": "+40-265-263585", "website": "https://www.spitaljudeteanmures.ro/"}}, {"name": "", "latitude": 46.5517519, "longitude": 24.5736242, "source": "osm", "_tags": {"addr:city": "Târgu Mureș", "addr:housenumber": "31", "addr:street": "Strada Mihai Viteazul", "amenity": "hospital", "barrier": "fence", "healthcare": "hospital", "phone": "+40-265-215000", "website": "https://www.galenus.ro/"}}, {"name": "Clinica de Neonatologie-Prematuri", "latitude": 46.5329993, "longitude": 24.5578109, "source": "osm", "_tags": {"addr:city": "Târgu Mureș", "addr:housenumber": "24", "addr:street": "Bulevardul 1848", "amenity": "hospital", "healthcare": "hospital", "name": "Clinica de Neonatologie-Prematuri", "phone": "+40-265-237019", "website": "https://www.spitaljudeteanmures.ro/"}}, {"name": "Clinica de Boli Infecțioase 2", "latitude": 46.5283185, "longitude": 24.5464715, "source": "osm", "_tags": {"addr:city": "Târgu Mureș", "addr:housenumber": "127", "addr:street": "Strada Gheorghe Doja", "amenity": "hospital", "healthcare": "hospital", "name": "Clinica de Boli Infecțioase 2", "name:ro": "Clinica de Boli Infecțioase 2", "phone": "+40-365-882605", "website": "https://www.spitaljudeteanmures.ro/"}}, {"name": "Clinica de Dermato-Venerologie", "latitude": 46.5385541, "longitude": 24.5576662, "source": "osm", "_tags": {"addr:city": "Târgu Mureș", "addr:housenumber": "12", "addr:street": "Strada Gheorghe Doja", "amenity": "hospital", "healthcare": "hospital", "name": "Clinica de Dermato-Venerologie", "phone": "+40-365-882534", "website": "https://www.spitaljudeteanmures.ro/"}}, {"name": "Clinica O.R.L.", "latitude": 46.5539957, "longitude": 24.5787365, "source": "osm", "_tags": {"addr:city": "Târgu Mureș", "addr:housenumber": "34", "addr:postcode": "540140", "addr:street": "Strada Gheorghe Marinescu", "amenity": "hospital", "healthcare": "hospital", "name": "Clinica O.R.L."}}, {"name": "Centru Medical", "latitude": 46.5509162, "longitude": 24.5744608, "source": "osm", "_tags": {"amenity": "hospital", "healthcare": "hospital", "name": "Centru Medical"}}, {"name": "Clinica de Oncologie", "latitude": 46.5534308, "longitude": 24.5769836, "source": "osm", "_tags": {"amenity": "hospital", "healthcare": "hospital", "name": "Clinica de Oncologie", "wheelchair": "yes"}}, {"name": "Clinica de Chirurgie", "latitude": 46.5532644, "longitude": 24.5760664, "source": "osm", "_tags": {"amenity": "hospital", "healthcare": "hospital", "name": "Clinica de Chirurgie"}}, {"name": "Clinica de Pneumologie", "latitude": 46.5542401, "longitude": 24.5776592, "source": "osm", "_tags": {"amenity": "hospital", "healthcare": "hospital", "name": "Clinica de Pneumologie"}}, {"name": "Clinica de Oftalmologie", "latitude": 46.541459, "longitude": 24.5611852, "source": "osm", "_tags": {"amenity": "hospital", "healthcare": "hospital", "name": "Clinica de Oftalmologie"}}, {"name": "Clinica de Obstetrică-Ginecologie", "latitude": 46.5417106, "longitude": 24.5608109, "source": "osm", "_tags": {"amenity": "hospital", "healthcare": "hospital", "name": "Clinica de Obstetrică-Ginecologie"}}, {"name": "Spitalul Orășenesc dr. Valer Russu", "latitude": 46.4754179, "longitude": 24.0939885, "source": "osm", "_tags": {"amenity": "hospital", "building": "hospital", "name": "Spitalul Orășenesc dr. Valer Russu"}}, {"name": "Ambulanță Reghin", "latitude": 46.7839738, "longitude": 24.6968528, "source": "osm", "_tags": {"amenity": "hospital", "healthcare": "hospital", "name": "Ambulanță Reghin", "name:ro": "Ambulanță Reghin"}}, {"name": "Városi kórház", "latitude": 46.4322669, "longitude": 24.8383815, "source": "osm", "_tags": {"addr:city": "Erdőszentgyörgy", "addr:street": "Strada Trandafirilor", "amenity": "hospital", "building": "hospital", "healthcare": "hospital", "name": "Városi kórház", "name:ro": "Spital orășenesc"}}, {"name": "Spitalul de Bătrâni", "latitude": 46.9115271, "longitude": 24.5050721, "source": "osm", "_tags": {"amenity": "hospital", "building": "yes", "name": "Spitalul de Bătrâni"}}, {"name": "Spital Ceuașu de Câmpie", "latitude": 46.640191, "longitude": 24.5161282, "source": "osm", "_tags": {"amenity": "hospital", "name": "Spital Ceuașu de Câmpie"}}, {"name": "Centrul Medico-Social Deda", "latitude": 46.9478558, "longitude": 24.87721, "source": "osm", "_tags": {"amenity": "hospital", "building": "yes", "healthcare": "hospital", "name": "Centrul Medico-Social Deda"}}, {"name": "Spitalul Municipal Dr. Eugen Nicoară", "latitude": 46.7830363, "longitude": 24.6957912, "source": "osm", "_tags": {"addr:city": "Reghin", "addr:housenumber": "20", "addr:postcode": "545300", "addr:street": "Strada Spitalului", "amenity": "hospital", "emergency": "yes", "fax": "+40265512809", "healthcare": "hospital", "healthcare:speciality": "general;psychiatry;intensive;surgery;maternity;orthopaedics;emergency;gynaecology;cardiology;radiology", "name": "Spitalul Municipal Dr. Eugen Nicoară", "phone": "+40265511161", "website": "https://www.spitalreghin.ro/"}}, {"name": "Spital Beclean", "latitude": 47.1839369, "longitude": 24.1854619, "source": "osm", "_tags": {"amenity": "hospital", "healthcare": "hospital", "name": "Spital Beclean"}}, {"name": "Dora Optics", "latitude": 46.5306413, "longitude": 24.5451425, "source": "osm", "_tags": {"amenity": "hospital", "building": "office", "name": "Dora Optics"}}, {"name": "", "latitude": 46.4876834, "longitude": 24.0996708, "source": "osm", "_tags": {"amenity": "hospital", "building": "yes"}}, {"name": "Policlinica", "latitude": 47.1813789, "longitude": 24.1826556, "source": "osm", "_tags": {"addr:city": "Beclean", "addr:postcode": "425100", "addr:street": "Aleea Zorilor", "amenity": "hospital", "healthcare": "doctor", "healthcare:speciality": "general;dentistry", "name": "Policlinica"}}, {"name": "Spitalul Clinic Județean de Urgență", "latitude": 46.5595399, "longitude": 24.5829236, "source": "osm", "_tags": {"addr:housenumber": "50", "addr:postcode": "540136", "addr:street": "Strada Gheorghe Marinescu", "amenity": "hospital", "building": "yes", "building:levels": "2", "fax": "+40-265-215768", "healthcare": "hospital", "name": "Spitalul Clinic Județean de Urgență", "phone": "+40-265-212111", "type": "multipolygon", "website": "http://www.spitjudms.ro/", "wikidata": "Q30269868"}}]