[{"name": "", "latitude": 46.9824929, "longitude": 1.6115239, "source": "osm", "_tags": {"amenity": "hospital", "phone": "+33 2 54 29 10 00", "ref:FR:FINESS": "360000251", "ref:FR:NAF": "86.10Z", "ref:FR:SIRET": "26360010800017", "source": "cadastre-dgi-fr source : Direction Générale des Impôts - Cadastre. Mise à jour : 2012", "wikidata": "Q92063041"}}, {"name": "Centre hospitalier de Châteauroux", "latitude": 46.7982767, "longitude": 1.6951978, "source": "osm", "_tags": {"emergency": "yes", "fax": "+33 2 54 29 60 40", "healthcare": "hospital", "healthcare:speciality": "intensive", "name": "Centre hospitalier de Châteauroux", "operator:type": "public", "phone": "+33 2 54 29 60 00", "ref:FR:FINESS": "360000137", "source": "cadastre-dgi-fr : Direction Général des Impots - Cadastre;mise à jour : 2008", "type:FR:FINESS": "355", "website": "http://www.ch-chateauroux.fr/"}}, {"name": "Centre hospitalier du Blanc", "latitude": 46.6340936, "longitude": 1.059714, "source": "osm", "_tags": {"amenity": "hospital", "building": "hospital", "emergency": "yes", "fax": "+33 2 54 28 28 38", "healthcare": "hospital", "name": "Centre hospitalier du Blanc", "operator:type": "public", "phone": "+33 2 54 28 28 28", "ref:FR:FINESS": "360000160", "source": "extraction vectorielle v1 cadastre-dgi-fr source : Direction Générale des Impôts - Cadas. Mise à jour : 2010", "type:FR:FINESS": "355", "website": "http://www.ch-leblanc.fr/"}}, {"name": "Centre hospitalier de Romorantin-Lanthenay", "latitude": 47.3597689, "longitude": 1.7312802, "source": "osm", "_tags": {"addr:city": "Romorantin-Lanthenay", "addr:housenumber": "96", "addr:postcode": "41200", "addr:street": "Rue des Capucins", "amenity": "hospital", "emergency": "yes", "fax": "+33 2 54 88 35 50", "healthcare": "hospital", "name": "Centre hospitalier de Romorantin-Lanthenay", "operator:type": "public", "phone": "+33 2 54 88 33 00", "ref:FR:FINESS": "410000046", "short_name": "CHRL", "type:FR:FINESS": "355", "website": "https://www.ch-romorantin.fr/"}}, {"name": "Centre Hospitalier Saint-Roch", "latitude": 46.8918925, "longitude": 1.4205295, "source": "osm", "_tags": {"amenity": "hospital", "name": "Centre Hospitalier Saint-Roch", "ref:FR:FINESS": "360000186", "source": "Le ministère des solidarités et de la santé - 03/2019", "wikidata": "Q92063231"}}, {"name": "Clinique Saint-François", "latitude": 46.8153685, "longitude": 1.697506, "source": "osm", "_tags": {"amenity": "hospital", "check_date": "2025-07-14", "healthcare": "hospital", "name": "Clinique Saint-François", "phone": "+33 2 54 53 60 14", "ref:FR:FINESS": "360000129", "ref:FR:SIRET": "81672003100011", "source": "cadastre-dgi-fr source : Direction Générale des Impôts - Cadastre. Mise à jour : 2012", "type:FR:FINESS": "365"}}, {"name": "Centre Hospitalier de Chatillon-sur-Indre", "latitude": 46.9879422, "longitude": 1.1641627, "source": "osm", "_tags": {"amenity": "hospital", "emergency": "no", "healthcare": "hospital", "name": "Centre Hospitalier de Chatillon-sur-Indre", "ref:FR:FINESS": "360000202", "source": "Le ministère des solidarités et de la santé - 03/2019", "wikidata": "Q92063420"}}, {"name": "Centre hospitalier d'Amboise", "latitude": 47.4078141, "longitude": 0.9813468, "source": "osm", "_tags": {"alt_name": "Hôpital Robert Debré", "amenity": "hospital", "email": "contact@chicacr.fr", "emergency": "yes", "name": "Centre hospitalier d'Amboise", "operator": "Centre hospitalier intercommunal Amboise - Château-Renault", "operator:type": "public", "phone": "+33 2 47 23 33 33", "ref:FR:FINESS": "370000879", "short_name": "CHICACR", "source": "cadastre-dgi-fr source : Direction Générale des Impôts - Cadastre. Mise à jour : 2010", "type:FR:FINESS": "355", "website": "https://www.ch-amboise-chateaurenault.fr/"}}, {"name": "Centre hospitalier Paul Martinais", "latitude": 47.1300719, "longitude": 1.0027633, "source": "osm", "_tags": {"amenity": "hospital", "emergency": "yes", "fax": "+33 2 47 91 32 00", "name": "Centre hospitalier Paul Martinais", "phone": "+33 2 47 91 33 33", "ref:FR:FINESS": "370000903", "type:FR:FINESS": "355", "website": "https://www.ch-loches.fr/"}}, {"name": "Centre de soins de suite et de réadaptation", "latitude": 46.7926127, "longitude": 1.7053706, "source": "osm", "_tags": {"amenity": "hospital", "healthcare": "hospital", "name": "Centre de soins de suite et de réadaptation", "operator": "Centre hospitalier Châteauroux - Le Blanc", "operator:type": "public", "ref:FR:FINESS": "360003149", "type:FR:FINESS": "355", "website": "https://www.ch-chateauroux-leblanc.fr/offresoinsch/27/le-centre-de-soins-de-suite-et-de-readaptation-c-s-s-r-"}}, {"name": "Centre Hospitalier de Saint-Aignan", "latitude": 47.2606751, "longitude": 1.3481399, "source": "osm", "_tags": {"amenity": "hospital", "healthcare": "hospital", "name": "Centre Hospitalier de Saint-Aignan", "ref:FR:FINESS": "410000053", "type:FR:FINESS": "106", "wikidata": "Q92062698"}}, {"name": "Centre Hospitalier de Montrichard", "latitude": 47.3482507, "longitude": 1.1800345, "source": "osm", "_tags": {"amenity": "hospital", "check_date": "2025-06-21", "healthcare": "hospital", "name": "Centre Hospitalier de Montrichard", "ref:FR:FINESS": "410000210", "source": "Le ministère des solidarités et de la santé - 03/2019", "wikidata": "Q92062472"}}]