[{"name": "Punctul de asistența medicală urgentă", "latitude": 47.0899256, "longitude": 29.0775537, "source": "osm", "_tags": {"amenity": "hospital", "healthcare": "hospital", "name": "Punctul de asistența medicală urgentă", "name:ru": "Пункт скорой медицинской помощи"}}, {"name": "", "latitude": 46.9467154, "longitude": 29.3846215, "source": "osm", "_tags": {"amenity": "hospital"}}, {"name": "", "latitude": 47.1483723, "longitude": 29.1358605, "source": "osm", "_tags": {"amenity": "hospital"}}, {"name": "", "latitude": 47.2730727, "longitude": 29.1474107, "source": "osm", "_tags": {"amenity": "hospital", "name:ru": "Лысый", "opening_hours": "Mo-Fr"}}, {"name": "Spitalul Raional Căușeni", "latitude": 46.6558478, "longitude": 29.4057221, "source": "osm", "_tags": {"addr:city": "Căușeni", "addr:country": "MD", "addr:housenumber": "54", "addr:postcode": "4301", "addr:street": "Strada Iuri Gagarin", "amenity": "hospital", "healthcare": "hospital", "name": "Spitalul Raional Căușeni", "name:ro": "Spitalul Raional Căușeni", "name:ru": "Районная больница"}}, {"name": "Поликлиника", "latitude": 47.2849822, "longitude": 29.1456201, "source": "osm", "_tags": {"amenity": "hospital", "healthcare": "hospital", "name": "Поликлиника", "name:md": "Поликлиника", "name:ro": "Policlinica", "name:ru": "Поликлиника", "name:uk": "Поліклініка"}}, {"name": "Дубоссарская центральная районная больница", "latitude": 47.2740362, "longitude": 29.165183, "source": "osm", "_tags": {"addr:city": "Дубоссары", "addr:country": "MD", "addr:housenumber": "46", "addr:postcode": "MD-4500", "addr:street": "улица Фрунзе", "amenity": "hospital", "healthcare": "hospital", "name": "Дубоссарская центральная районная больница", "name:md": "Спиталул районал чентрал дин Дубэсарь", "name:ro": "Spitalul raional central din Dubăsari", "name:ru": "Дубоссарская центральная районная больница", "name:uk": "Дубоссарська центральна районна лікарня", "phone": "+373 (215) 3-39-24"}}, {"name": "Centrul Medicilor de Familie Căinari", "latitude": 46.6852223, "longitude": 29.0579845, "source": "osm", "_tags": {"addr:city": "Căinari", "addr:country": "MD", "addr:housenumber": "57/A", "addr:postcode": "MD-7701", "addr:street": "Strada Trandafirilor", "amenity": "hospital", "healthcare": "hospital", "name": "Centrul Medicilor de Familie Căinari", "name:ru": "Центр Семейных Врачей"}}, {"name": "IMSP Centrul de sănătate", "latitude": 47.0889511, "longitude": 29.0786942, "source": "osm", "_tags": {"addr:country": "MD", "addr:housenumber": "40", "addr:street": "Strada Ștefan cel Mare", "amenity": "hospital", "building": "public", "healthcare": "hospital", "name": "IMSP Centrul de sănătate", "name:ru": "Центр здоровья"}}, {"name": "Spitalul Raional Criuleni", "latitude": 47.2046866, "longitude": 29.1670216, "source": "osm", "_tags": {"addr:city": "Criuleni", "addr:country": "MD", "addr:housenumber": "1", "addr:street": "Strada Ștefan cel Mare și Sfânt", "amenity": "hospital", "barrier": "wall", "healthcare": "hospital", "name": "Spitalul Raional Criuleni", "name:ru": "Криуленская районная больница"}}, {"name": "Spitalul pentru Copii Căușeni", "latitude": 46.6550322, "longitude": 29.407658, "source": "osm", "_tags": {"addr:city": "Căușeni", "addr:country": "MD", "addr:housenumber": "14", "addr:postcode": "4301", "addr:street": "Strada Ana și Alexandru", "amenity": "hospital", "healthcare": "hospital", "name": "Spitalul pentru Copii Căușeni", "name:ru": "Детская больница"}}, {"name": "Григориопольская центральная районная больница", "latitude": 47.1579037, "longitude": 29.3000684, "source": "osm", "_tags": {"addr:city": "Григориополь", "addr:country": "MD", "addr:housenumber": "73а", "addr:street": "улица Урицкого", "amenity": "hospital", "emergency": "yes", "healthcare": "hospital", "healthcare:speciality": "general;maternity;psychiatry;gynaecology;emergency;surgery", "name": "Григориопольская центральная районная больница", "name:md": "Спиталул районал чентрал Григориопол", "name:ro": "Spitalul raional central Grigoriopol", "name:ru": "Григориопольская центральная районная больница", "name:uk": "Григоріопольська центральна районна лікарня", "website": "https://minzdrav.gospmr.org/node/288"}}, {"name": "Больница", "latitude": 46.9496994, "longitude": 29.3827749, "source": "osm", "_tags": {"amenity": "hospital", "name": "Больница", "name:md": "Спиталул", "name:ro": "Spitalul", "name:ru": "Больница", "name:uk": "Лікарня"}}, {"name": "", "latitude": 47.3789653, "longitude": 29.1214242, "source": "osm", "_tags": {"amenity": "hospital", "healthcare": "hospital"}}, {"name": "Петрівська амбулаторія загальної практики сімейної медицини", "latitude": 46.5026575, "longitude": 29.1728626, "source": "osm", "_tags": {"addr:housenumber": "18а", "addr:postcode": "68510", "addr:street": "вулиця Матросова", "amenity": "hospital", "emergency": "no", "healthcare": "hospital", "healthcare:speciality": "general;paediatrics", "name": "Петрівська амбулаторія загальної практики сімейної медицини", "name:uk": "Петрівська амбулаторія загальної практики сімейної медицини"}}, {"name": "", "latitude": 47.1185825, "longitude": 29.0462729, "source": "osm", "_tags": {"amenity": "hospital", "healthcare": "hospital"}}, {"name": "Centrul de Sănătate Publică Criuleni", "latitude": 47.2128415, "longitude": 29.1617225, "source": "osm", "_tags": {"addr:city": "Criuleni", "addr:country": "MD", "addr:housenumber": "1", "addr:street": "Bulevardul Biruinței", "amenity": "hospital", "healthcare": "hospital", "name": "Centrul de Sănătate Publică Criuleni"}}, {"name": "Centrul Medicilor de Familie Căușeni", "latitude": 46.6552571, "longitude": 29.4089172, "source": "osm", "_tags": {"addr:city": "Căușeni", "addr:country": "MD", "addr:housenumber": "18", "addr:postcode": "4301", "addr:street": "Strada Ana și Alexandru", "amenity": "hospital", "healthcare": "hospital", "name": "Centrul Medicilor de Familie Căușeni"}}, {"name": "Spitalul Gangura", "latitude": 46.7319426, "longitude": 29.0174082, "source": "osm", "_tags": {"amenity": "hospital", "healthcare": "hospital", "name": "Spitalul Gangura"}}, {"name": "Spitalul Raional Anenii Noi", "latitude": 46.8757471, "longitude": 29.2280845, "source": "osm", "_tags": {"addr:city": "Anenii Noi", "addr:country": "MD", "addr:housenumber": "30", "addr:street": "Stradela Uzinelor", "amenity": "hospital", "healthcare": "hospital", "name": "Spitalul Raional Anenii Noi", "name:ru": "Районная больница", "type": "multipolygon"}}]