[{"name": "Dispensarul uman", "latitude": 46.4759412, "longitude": 22.4724594, "source": "osm", "_tags": {"amenity": "hospital", "emergency": "no", "name": "Dispensarul uman"}}, {"name": "Policlinica Aleșd", "latitude": 47.0600875, "longitude": 22.3970455, "source": "osm", "_tags": {"addr:city": "Aleșd", "addr:housenumber": "16", "addr:postcode": "415100", "addr:street": "Strada Piața Unirii", "amenity": "hospital", "healthcare": "hospital", "name": "Policlinica Aleșd", "name:ro": "Policlinica Aleșd"}}, {"name": "Spitalul de bolii cronice Crasna", "latitude": 47.161853, "longitude": 22.8801958, "source": "osm", "_tags": {"addr:city": "Crasna", "addr:floor": "G", "addr:housenumber": "363", "addr:postcode": "457085", "addr:street": "Strada Alszeg", "amenity": "hospital", "check_date": "2025-07-16", "emergency": "yes", "healthcare": "hospital", "level": "0", "name": "Spitalul de bolii cronice Crasna", "name:ro": "Spitalul de bolii cronice Crasna", "phone": "0260 636 018"}}, {"name": "Dispensar", "latitude": 47.2084919, "longitude": 22.9127732, "source": "osm", "_tags": {"addr:city": "Vârșolț", "addr:postcode": "457355", "amenity": "hospital", "healthcare": "hospital", "name": "Dispensar"}}, {"name": "Dispensarul uman Archiș", "latitude": 46.4775708, "longitude": 22.0539667, "source": "osm", "_tags": {"addr:city": "Archiș", "addr:postcode": "317015", "addr:street": "Strada 1", "amenity": "hospital", "healthcare": "hospital", "name": "Dispensarul uman Archiș"}}, {"name": "Spitalul Orășenesc Dr. Ioan Pușcaș", "latitude": 47.2254195, "longitude": 22.8039526, "source": "osm", "_tags": {"addr:city": "Șimleu Silvaniei", "amenity": "hospital", "healthcare": "hospital", "name": "Spitalul Orășenesc Dr. Ioan Pușcaș", "name:ro": "Spitalul Orășenesc Dr. Ioan Pușcaș"}}, {"name": "Spitalul de Recuperare", "latitude": 46.9903961, "longitude": 21.9831887, "source": "osm", "_tags": {"addr:city": "Băile Felix", "addr:housenumber": "30", "addr:street": "Calea Beiușului", "amenity": "hospital", "healthcare": "hospital", "healthcare:speciality": "trauma_recovery", "name": "Spitalul de Recuperare", "operator": "Municipal", "operator:type": "public"}}, {"name": "Maternitatea", "latitude": 46.6629863, "longitude": 22.3507754, "source": "osm", "_tags": {"amenity": "hospital", "building": "yes", "name": "Maternitatea"}}, {"name": "Spitalul Municipal", "latitude": 46.6693631, "longitude": 22.349849, "source": "osm", "_tags": {"amenity": "hospital", "building": "yes", "name": "Spitalul Municipal"}}, {"name": "Policlinica Ștei", "latitude": 46.5405459, "longitude": 22.4560763, "source": "osm", "_tags": {"addr:city": "Ștei", "addr:postcode": "415600", "amenity": "hospital", "building": "yes", "name": "Policlinica Ștei"}}, {"name": "Spitalul Orășenesc Ștei", "latitude": 46.535271, "longitude": 22.4587077, "source": "osm", "_tags": {"amenity": "hospital", "building": "yes", "name": "Spitalul Orășenesc Ștei"}}, {"name": "Spitalul de Neuropsihiatrie", "latitude": 46.5474777, "longitude": 22.4655771, "source": "osm", "_tags": {"amenity": "hospital", "building": "yes", "name": "Spitalul de Neuropsihiatrie"}}, {"name": "Spitalul Clinic de Neurologie și Psihiatrie", "latitude": 47.0638051, "longitude": 21.9450195, "source": "osm", "_tags": {"amenity": "hospital", "building": "yes", "healthcare": "hospital", "name": "Spitalul Clinic de Neurologie și Psihiatrie"}}, {"name": "Dispensar", "latitude": 46.5921134, "longitude": 22.3996486, "source": "osm", "_tags": {"amenity": "hospital", "emergency": "no", "name": "Dispensar"}}, {"name": "Dispensarul uman Vașcău", "latitude": 46.4759331, "longitude": 22.4723816, "source": "osm", "_tags": {"addr:city": "Vașcău", "addr:housenumber": "1", "addr:postcode": "415800", "addr:street": "Magurii", "amenity": "hospital", "emergency": "no", "healthcare": "hospital", "healthcare:speciality": "general;stomatology", "name": "Dispensarul uman Vașcău", "operator": "Primaria Vascau/Cabinet medical", "operator:type": "public"}}, {"name": "Cabinet medical", "latitude": 47.0768143, "longitude": 22.7813956, "source": "osm", "_tags": {"amenity": "hospital", "healthcare": "hospital", "name": "Cabinet medical"}}, {"name": "Spitalul Clinic Judetean", "latitude": 47.0640899, "longitude": 21.9539593, "source": "osm", "_tags": {"amenity": "hospital", "building": "yes", "healthcare": "hospital", "name": "Spitalul Clinic Judetean"}}, {"name": "Cabinete medicale.", "latitude": 46.5409143, "longitude": 22.4559309, "source": "osm", "_tags": {"addr:city": "Ștei", "addr:postcode": "415600", "amenity": "hospital", "name": "Cabinete medicale."}}, {"name": "Ambulanta Alesd", "latitude": 47.0531086, "longitude": 22.4018693, "source": "osm", "_tags": {"amenity": "hospital", "name": "Ambulanta Alesd"}}, {"name": "", "latitude": 47.3481192, "longitude": 22.3381276, "source": "osm", "_tags": {"amenity": "hospital", "healthcare": "hospital"}}, {"name": "Centrul de Sănătate Multifuncțional Bratca", "latitude": 46.9262414, "longitude": 22.599128, "source": "osm", "_tags": {"amenity": "hospital", "building": "yes", "name": "Centrul de Sănătate Multifuncțional Bratca"}}, {"name": "", "latitude": 47.0625381, "longitude": 21.9400743, "source": "osm", "_tags": {"amenity": "hospital", "healthcare": "hospital"}}]