[{"name": "Szent Kereszt Kórház", "latitude": 46.5327344, "longitude": 18.9811972, "source": "osm", "_tags": {"addr:city": "Kalocsa", "addr:housenumber": "34-36", "addr:postcode": "6300", "addr:street": "Kossuth Lajos utca", "healthcare": "hospital", "name": "Szent Kereszt Kórház", "phone": "+36 78 564 001", "website": "http://kalocsa-korhaz.hu/", "wheelchair": "yes"}}, {"name": "", "latitude": 46.8766514, "longitude": 19.2203643, "source": "osm", "_tags": {"amenity": "hospital", "healthcare": "hospital"}}, {"name": "", "latitude": 46.8770425, "longitude": 19.2218666, "source": "osm", "_tags": {"amenity": "hospital", "healthcare": "hospital"}}, {"name": "", "latitude": 46.8763054, "longitude": 19.2222153, "source": "osm", "_tags": {"amenity": "hospital", "healthcare": "hospital"}}, {"name": "", "latitude": 46.8782452, "longitude": 19.2216628, "source": "osm", "_tags": {"amenity": "hospital", "healthcare": "hospital"}}, {"name": "Regionális Egészségügyi Központ", "latitude": 46.4937983, "longitude": 19.7353989, "source": "osm", "_tags": {"addr:city": "Kiskunmajsa", "addr:housenumber": "66", "addr:postcode": "6120", "addr:street": "Fő utca", "amenity": "hospital", "emergency": "no", "healthcare": "hospital", "name": "Regionális Egészségügyi Központ", "operator": "Kiskunmajsai Kistérségi Közszolgáltató Nonprofit Kft.", "wheelchair": "yes"}}, {"name": "Dialízis Központ", "latitude": 46.5348667, "longitude": 18.9812413, "source": "osm", "_tags": {"addr:city": "Kalocsa", "addr:housenumber": "1", "addr:postcode": "6300", "addr:street": "Selyemerdő utca", "amenity": "hospital", "name": "Dialízis Központ", "phone": "+36 78 462 782"}}, {"name": "Patológia", "latitude": 46.9100918, "longitude": 19.6735118, "source": "osm", "_tags": {"amenity": "hospital", "healthcare": "hospital", "name": "Patológia"}}, {"name": "Nukleáris medicina", "latitude": 46.9101159, "longitude": 19.6734479, "source": "osm", "_tags": {"amenity": "hospital", "healthcare": "hospital", "name": "Nukleáris medicina"}}, {"name": "Toldy Ferenc kórház", "latitude": 47.1706207, "longitude": 19.818143, "source": "osm", "_tags": {"addr:city": "Cegléd", "amenity": "hospital", "healthcare": "hospital", "name": "Toldy Ferenc kórház", "wikidata": "Q30281185"}}, {"name": "MH Egészségügyi Központ, Repülőkórház", "latitude": 46.9106559, "longitude": 19.6797837, "source": "osm", "_tags": {"addr:city": "Kecskemét", "addr:housenumber": "17", "addr:postcode": "6000", "addr:street": "Balaton utca", "amenity": "hospital", "contact:phone": "+36 76 581 600", "contact:website": "https://www.mhek.hu/ravgyi-index.html", "description": "Kecskeméti telephely, Repülőorvosi-, Alkalmasságvizsgálati és Gyógyító Intézet.", "healthcare": "hospital", "loc_name": "Repülőkórház", "name": "MH Egészségügyi Központ, Repülőkórház", "official_name": "Magyar Honvédség Egészségügyi Központ, Repülőorvosi-, Alkalmasságvizsgáló és Gyógyító Intézet", "operator": "Magyar Honvédség", "short_name": "MH EK RAVGYI", "wheelchair": "yes"}}, {"name": "Szent Pantaleon", "latitude": 46.9644552, "longitude": 18.9433585, "source": "osm", "_tags": {"amenity": "hospital", "healthcare": "hospital", "name": "Szent Pantaleon"}}, {"name": "", "latitude": 47.0222693, "longitude": 19.7913275, "source": "osm", "_tags": {"amenity": "hospital", "building": "yes"}}, {"name": "Kiskunfélegyházi Városi Kórház", "latitude": 46.7112839, "longitude": 19.8367701, "source": "osm", "_tags": {"addr:city": "Kiskunfélegyháza", "addr:housenumber": "4", "addr:postcode": "6100", "addr:street": "Fadrusz János utca", "amenity": "hospital", "email": "kkfh-titkarsag@kmk.hu", "healthcare": "hospital", "name": "Kiskunfélegyházi Városi Kórház", "operator": "Bács-Kiskun Vármegyei Oktatókórház", "operator:type": "government", "phone": "+36 76 463 222", "website": "https://www.kmk.hu"}}, {"name": "", "latitude": 46.5335531, "longitude": 18.9814431, "source": "osm", "_tags": {"amenity": "hospital", "healthcare": "hospital"}}, {"name": "", "latitude": 47.3753819, "longitude": 19.0077143, "source": "osm", "_tags": {"amenity": "hospital", "emergency": "no", "healthcare": "hospital"}}, {"name": "", "latitude": 46.9199206, "longitude": 18.9777077, "source": "osm", "_tags": {"amenity": "hospital", "healthcare": "hospital"}}, {"name": "Bács-Kiskun Megyei Kórház", "latitude": 46.909141, "longitude": 19.6729841, "source": "osm", "_tags": {"addr:city": "Kecskemét", "addr:housenumber": "38", "addr:postcode": "6000", "addr:street": "Nyíri út", "amenity": "hospital", "contact:email": "titkarsag@kmk.hu", "contact:phone": "+36 76 516 700", "contact:website": "https://www.kmk.hu/", "healthcare": "hospital", "name": "Bács-Kiskun Megyei Kórház", "type": "multipolygon", "wheelchair": "yes"}}, {"name": "Semmelweis Kórház", "latitude": 46.4336174, "longitude": 19.4732499, "source": "osm", "_tags": {"amenity": "hospital", "healthcare": "hospital", "name": "Semmelweis Kórház", "type": "multipolygon"}}]