[{"name": "Polyclinique de l'Europe", "latitude": 47.2528183, "longitude": -2.2663829, "source": "osm", "_tags": {"amenity": "hospital", "check_date": "2025-05-06", "contact:fax": "+33251161605", "contact:housenumber": "33", "contact:phone": "+33251161616", "contact:street": "Boulevard de l'Université", "emergency": "no", "healthcare": "yes", "name": "Polyclinique de l'Europe", "name:br": "Liesklinikenn Europa", "ref:FR:FINESS": "440002020", "ref:FR:NAF": "86.10Z", "ref:FR:SIREN": "823036280", "ref:FR:SIRET": "82303628000019", "source": "Le ministère des solidarités et de la santé - 03/2019", "source:name:br": "proper translation", "type:FR:FINESS": "365"}}, {"name": "Hôpital de jour Pédopsychiatrie", "latitude": 47.2575023, "longitude": -2.2432181, "source": "osm", "_tags": {"addr:postcode": "44600", "amenity": "hospital", "contact:housenumber": "116", "contact:street": "Rue Ferdinand Buisson", "healthcare": "hospital", "healthcare:speciality": "paediatrics;psychiatry", "name": "Hôpital de jour Pédopsychiatrie", "ref:FR:FINESS": "440013654", "ref:FR:NAF": "86.10Z", "ref:FR:SIREN": "264400268", "ref:FR:SIRET": "26440026800092", "source": "INSEE - 2025-09", "type:FR:FINESS": "355"}}, {"name": "Résidence Cassiopée", "latitude": 47.2620139, "longitude": -2.27204, "source": "osm", "_tags": {"amenity": "hospital", "healthcare": "hospital", "name": "Résidence Cassiopée", "operator": "Centre Hospitalier de Saint-Nazaire", "operator:type": "public", "ref:FR:NAF": ".", "ref:FR:SIRET": "*", "type:FR:FINESS": "362"}}, {"name": "Hôpital du Croisic", "latitude": 47.2918194, "longitude": -2.5147926, "source": "osm", "_tags": {"amenity": "hospital", "healthcare": "hospital", "name": "Hôpital du Croisic", "name:br": "Ospital ar Groazig", "ref:FR:FINESS": "440001261", "source": "Le ministère des solidarités et de la santé - 03/2019", "source:name:br": "proper translation", "wikidata": "Q21418896"}}, {"name": "Hôpital Intercommunal de la Presqu'ile Guérande", "latitude": 47.3241861, "longitude": -2.4244148, "source": "osm", "_tags": {"amenity": "hospital", "building": "yes", "healthcare": "hospital", "name": "Hôpital Intercommunal de la Presqu'ile Guérande", "name:br": "Ospital etrekumunel Gourenez Gwenrann", "ref:FR:FINESS": "440001253", "ref:FR:NAF": "86.10Z", "ref:FR:SIREN": "264403106", "ref:FR:SIRET": "26440310600018", "source": "cadastre-dgi-fr source : Direction Générale des Impôts - Cadastre. Mise à jour : 2010", "type:FR:FINESS": "106", "wikidata": "Q92062539"}}, {"name": "Clinique de la Brière", "latitude": 47.3327973, "longitude": -2.4336652, "source": "osm", "_tags": {"addr:city": "Guérande", "addr:postcode": "44350", "addr:street": "Route de Mesquer", "amenity": "hospital", "healthcare": "hospital", "name": "Clinique de la Brière", "name:br": "Klinikenn ar Briver", "ref:FR:FINESS": "440003390", "source": "cadastre-dgi-fr source : Direction Générale des Impôts - Cadastre. Mise à jour : 2010", "source:name:br": "proper translation", "type:FR:FINESS": "161"}}, {"name": "Hôpital intercommunal du Pays de Retz", "latitude": 47.111093, "longitude": -2.0646772, "source": "osm", "_tags": {"amenity": "hospital", "name": "Hôpital intercommunal du Pays de Retz", "name:br": "Ospital Etrekumunel Bro-Raez", "ref:FR:FINESS": "440041531", "source:name:br": "proper translation", "wikidata": "Q105174407"}}, {"name": "Centre hospitalier Saint-Nazaire", "latitude": 47.2672782, "longitude": -2.2571158, "source": "osm", "_tags": {"addr:city": "Saint-Nazaire", "addr:housenumber": "11", "addr:postcode": "44600", "addr:street": "Boulevard Georges Charpak", "alt_name": "Centre hospitalier Georges Charpak", "amenity": "hospital", "emergency": "yes", "fax": "+33 2 72 27 89 01", "healthcare": "hospital", "healthcare:speciality": "intensive", "loc_name": "Cité sanitaire", "name": "Centre hospitalier Saint-Nazaire", "operator:type": "public", "phone": "+33 2 72 27 80 00", "ref:FR:FINESS": "440000016", "short_name": "CH Saint-Nazaire", "type:FR:FINESS": "355", "website": "https://www.hopital-saintnazaire.fr/"}}, {"name": "Hôpital local Dumonté", "latitude": 46.7221341, "longitude": -2.3526285, "source": "osm", "_tags": {"amenity": "hospital", "email": "hopital.dumonte@ch-yeu.fr", "fax": "+33 2 51 58 75 90", "healthcare": "hospital", "name": "Hôpital local Dumonté", "phone": "+33 2 51 26 08 00", "ref:FR:FINESS": "850000191", "type:FR:FINESS": "106", "wikidata": "Q92063416"}}, {"name": "Centre hospitalier Saint-Nazaire - Site d'Heinlex", "latitude": 47.2630445, "longitude": -2.2703986, "source": "osm", "_tags": {"amenity": "hospital", "healthcare": "hospital", "name": "Centre hospitalier Saint-Nazaire - Site d'Heinlex", "ref:FR:FINESS": "440007607"}}]