[{"name": "Casa della Sanità", "latitude": 46.5176969, "longitude": 10.1244373, "source": "osm", "_tags": {"addr:city": "Livigno", "addr:housenumber": "1521", "addr:postcode": "23030", "addr:street": "Via Freita", "amenity": "hospital", "building": "yes", "emergency": "yes", "healthcare": "hospital", "healthcare:speciality": "emergency;general;guardia_medica", "name": "Casa della Sanità", "note": "Punto di Primo Intervento (Pronto Soccorso)\nGuardia Medica attiva dal Lunedì al Giovedì dalle 20.00 alle 8.00 e dal Venerdì alle ore 20.00 al Lunedì alle 8.00 (contatto al 116117)", "operator": "ASST Valtellina", "operator:type": "public"}}, {"name": "", "latitude": 47.3261426, "longitude": 9.9771178, "source": "osm", "_tags": {"amenity": "hospital", "building": "hospital", "healthcare": "hospital", "source": "geoimage.at"}}, {"name": "Bezirkskrankenhaus Schlanders - Ospedale di distretto Silandro", "latitude": 46.6290074, "longitude": 10.7783469, "source": "osm", "_tags": {"addr:city": "Schlanders", "addr:housenumber": "3", "addr:postcode": "39028", "addr:street": "Krankenhausstraße", "amenity": "hospital", "building": "yes", "building:levels": "7", "check_date": "2024-05-09", "emergency": "yes", "healthcare": "hospital", "name": "Bezirkskrankenhaus Schlanders - Ospedale di distretto Silandro", "name:de": "Bezirkskrankenhaus Schlanders", "name:it": "Ospedale di distretto Silandro", "operator:wikidata": "Q16294907", "source": "bing", "wikidata": "Q53734597"}}, {"name": "Stillachhaus", "latitude": 47.4070258, "longitude": 10.2585415, "source": "osm", "_tags": {"addr:city": "Oberstdorf", "addr:country": "DE", "addr:housenumber": "15", "addr:postcode": "87561", "addr:street": "Alte Walserstraße", "building": "hospital", "building:levels": "4", "contact:email": "info@stillachhaus.de", "healthcare": "hospital", "healthcare:speciality": "psychiatry", "name": "Stillachhaus", "operator": "CuraMed Kliniken GmbH", "operator:type": "business", "operator:website": "https://www.curamed-kliniken.de/", "website": "https://www.stillachhaus.de", "wikidata": "Q116446129"}}, {"name": "International Medical Center", "latitude": 46.5526792, "longitude": 10.132561, "source": "osm", "_tags": {"amenity": "hospital", "building": "yes", "healthcare": "hospital", "name": "International Medical Center"}}, {"name": "Adula Klinik", "latitude": 47.4149784, "longitude": 10.2608633, "source": "osm", "_tags": {"addr:city": "Oberstdorf", "addr:country": "DE", "addr:housenumber": "6", "addr:postcode": "87561", "addr:street": "In der Leite", "amenity": "hospital", "healthcare": "hospital", "name": "Adula Klinik", "website": "https://www.dr-reisach-kliniken.de/adula-klinik.html", "wikidata": "Q124220499", "wikipedia": "de:Adula-Klinik"}}, {"name": "Center da sandà Val Müstair", "latitude": 46.6066148, "longitude": 10.4327189, "source": "osm", "_tags": {"amenity": "hospital", "check_date": "2024-01-29", "emergency": "yes", "healthcare": "hospital", "name": "Center da sandà Val Müstair", "name:de": "Gesundheitszentrum Val Müstair", "phone": "+41 81 851 61 00", "website": "https://www.csvm.ch/", "wheelchair": "yes"}}, {"name": "Ospidal d'Engiadina Bassa", "latitude": 46.7998634, "longitude": 10.3038206, "source": "osm", "_tags": {"addr:city": "Scuol", "addr:country": "CH", "addr:housenumber": "280", "addr:postcode": "7550", "addr:street": "Via da l'Ospidal", "amenity": "hospital", "emergency": "yes", "healthcare": "hospital", "name": "Ospidal d'Engiadina Bassa", "name:de": "Gesundheitszentrum Unterengadin", "old_name": "Spital Schuls, Regionalspital Unterengadin", "phone": "+41 81 861 10 00", "website": "https://cseb.ch/"}}, {"name": "Krankenhaus St. Vinzenz Zams", "latitude": 47.16121, "longitude": 10.5934954, "source": "osm", "_tags": {"amenity": "hospital", "healthcare": "hospital", "healthcare:speciality": "emergency", "name": "Krankenhaus St. Vinzenz Zams", "short_name": "Krankenhaus Zams", "wikidata": "Q38046333", "wikipedia": "de:Krankenhaus St. Vinzenz Zams"}}, {"name": "Klinik Oberstdorf", "latitude": 47.4105032, "longitude": 10.2820922, "source": "osm", "_tags": {"addr:city": "Oberstdorf", "addr:country": "DE", "addr:housenumber": "16", "addr:postcode": "87561", "addr:street": "Trettachstraße", "amenity": "hospital", "healthcare": "hospital", "name": "Klinik Oberstdorf", "operator": "Klinikverbund Allgäu gGmbH"}}, {"name": "Struttura Sanitaria di Bormio", "latitude": 46.4615201, "longitude": 10.3595803, "source": "osm", "_tags": {"addr:city": "Bormio", "addr:housenumber": "8", "addr:postcode": "23032", "addr:street": "Via Agoi", "amenity": "hospital", "emergency": "yes", "healthcare": "hospital", "healthcare:speciality": "general", "name": "Struttura Sanitaria di Bormio", "operator": "ASST VALTELLINA", "operator:type": "public", "wheelchair": "yes"}}, {"name": "CuraMed Privatklinik Stillachhaus", "latitude": 47.4067939, "longitude": 10.2581675, "source": "osm", "_tags": {"amenity": "hospital", "healthcare": "hospital", "healthcare:speciality": "psychiatry", "name": "CuraMed Privatklinik Stillachhaus", "operator": "CuraMed Kliniken GmbH", "operator:type": "private", "website": "https://www.stillachhaus.de"}}]