[{"name": "Zdravstveni dom Spodnji Duplek", "latitude": 46.5011, "longitude": 15.7488249, "source": "osm", "_tags": {"amenity": "hospital", "name": "Zdravstveni dom Spodnji Duplek"}}, {"name": "Militärspital", "latitude": 47.0520436, "longitude": 15.395523, "source": "osm", "_tags": {"access": "military", "amenity": "hospital", "healthcare": "hospital", "name": "Militärspital"}}, {"name": "Služba nujne medicinske pomoči", "latitude": 46.4255521, "longitude": 15.8750406, "source": "osm", "_tags": {"addr:city": "Ptuj", "addr:housenumber": "19A", "addr:postcode": "2250", "addr:street": "Potrčeva cesta", "amenity": "hospital", "emergency": "no", "healthcare": "hospital", "healthcare:speciality": "emergency", "name": "Služba nujne medicinske pomoči", "operator": "JZ Zdravstveni dom Ptuj"}}, {"name": "Landeskrankenhaus-Universitätsklinikum Graz", "latitude": 47.0840468, "longitude": 15.4655544, "source": "osm", "_tags": {"addr:city": "Graz", "addr:country": "AT", "addr:housenumber": "1", "addr:postcode": "8036", "addr:street": "Auenbruggerplatz", "amenity": "hospital", "emergency": "yes", "health_specialty": "stroke_unit", "healthcare": "hospital", "healthcare:speciality": "emergency", "loc_name": "LKH", "name": "Landeskrankenhaus-Universitätsklinikum Graz", "operator": "KAGes;Medizinische Universität Graz", "short_name": "LKH Graz", "smoking:outside": "seperated", "start_date": "1912-05-12", "toilets:wheelchair": "yes", "website": "https://www.lkh-graz.at/", "wheelchair": "yes", "wikidata": "Q1798169", "wikimedia_commons": "Category:LKH Universitätsklinikum Graz", "wikipedia": "de:LKH-Universitätsklinikum Graz"}}, {"name": "LKH Südweststeiemark, Standort Wagna", "latitude": 46.7698991, "longitude": 15.5584696, "source": "osm", "_tags": {"addr:city": "Wagna", "addr:country": "AT", "addr:housenumber": "18", "addr:postcode": "8435", "addr:street": "Pelzmannstraße", "amenity": "hospital", "emergency": "yes", "healthcare": "hospital", "healthcare:speciality": "emergency", "name": "LKH Südweststeiemark, Standort Wagna", "old_name": "Landeskrankenhaus Wagna", "operator": "Steiermärkische Krankenanstaltengesellschaft m.b.H.", "operator:type": "private", "operator:wikidata": "Q15849047", "operator:wikipedia": "de:Steiermärkische Krankenanstaltengesellschaft", "phone": "+43 3452 701 0", "short_name": "LKH Wagna", "source": "GeoImage.at High-Res", "website": "https://www.lkh-suedweststeiermark.at"}}, {"name": "Landeskrankenhaus Hochsteiermark - Standort Leoben", "latitude": 47.3803169, "longitude": 15.0849985, "source": "osm", "_tags": {"addr:city": "Leoben", "addr:country": "AT", "addr:housenumber": "42", "addr:postcode": "8700", "addr:street": "Vordernberger Straße", "addr:suburb": "Waasen", "alt_name": "LKH Leoben", "amenity": "hospital", "emergency": "yes", "healthcare": "hospital", "healthcare:speciality": "emergency", "name": "Landeskrankenhaus Hochsteiermark - Standort Leoben", "old_name": "Landeskrankenhaus Leoben", "operator": "Steiermärkische Krankenanstaltengesellschaft m.b.H.", "operator:type": "public", "operator:wikidata": "Q15849047", "operator:wikipedia": "de:Steiermärkische Krankenanstaltengesellschaft", "phone": "+43 3842 401 0", "short_name": "LKH Hochsteiermark", "website": "https://www.lkh-hochsteiermark.at/"}}, {"name": "Unfallkrankenhaus Steiermark, Standort Graz", "latitude": 47.0786791, "longitude": 15.3980807, "source": "osm", "_tags": {"addr:city": "Graz", "addr:country": "AT", "addr:housenumber": "24", "addr:postcode": "8020", "addr:street": "Göstinger Straße", "amenity": "hospital", "emergency": "yes", "healthcare": "hospital", "healthcare:speciality": "trauma", "name": "Unfallkrankenhaus Steiermark, Standort Graz", "operator": "Allgemeine Unfallversicherungsanstalt", "toilets:wheelchair": "yes", "website": "https://www.ukh-steiermark.at/", "wheelchair": "yes", "wikidata": "Q2493157", "wikipedia": "de:Unfallkrankenhaus Graz"}}, {"name": "LKH Graz II Standort Süd", "latitude": 47.0379788, "longitude": 15.4186322, "source": "osm", "_tags": {"addr:city": "Graz", "addr:country": "AT", "addr:housenumber": "1", "addr:postcode": "8053", "addr:street": "Wagner-Jauregg-Platz", "amenity": "hospital", "emergency": "neurology;psychiatry", "health_specialty": "stroke_unit", "healthcare": "hospital", "healthcare:speciality": "emergencyhealthcare:speciality=psychiatry;neurology", "name": "LKH Graz II Standort Süd", "operator": "KAGes", "operator:type": "public", "source": "geoimage.at", "wikidata": "Q1341799", "wikipedia": "de:LKH Graz II Standort Süd"}}, {"name": "LKH Graz II Standort West", "latitude": 47.0777264, "longitude": 15.3995497, "source": "osm", "_tags": {"addr:city": "Graz", "addr:country": "AT", "addr:housenumber": "22", "addr:postcode": "8020", "addr:street": "Göstinger Straße", "amenity": "hospital", "emergency": "yes", "healthcare": "hospital", "healthcare:speciality": "emergency", "layer": "-1", "loc_name": "LKH", "name": "LKH Graz II Standort West", "operator": "Steiermärkische Krankenanstaltengesellschaft m.b.H.", "operator:type": "private", "operator:wikidata": "Q15849047", "phone": "+43 316 5466 0", "toilets:wheelchair": "yes", "website": "https://www.lkh-graz2.at/", "wheelchair": "yes", "wikidata": "Q1168883", "wikipedia": "de:LKH Graz II Standort West"}}, {"name": "Landeskrankenhaus Hochsteiermark - Standort Bruck an der Mur", "latitude": 47.4231146, "longitude": 15.2676566, "source": "osm", "_tags": {"addr:city": "Bruck an der Mur", "addr:country": "AT", "addr:housenumber": "1", "addr:postcode": "8600", "addr:street": "Tragößer Straße", "amenity": "hospital", "emergency": "yes", "health_specialty": "stroke_unit", "healthcare": "hospital", "healthcare:speciality": "emergency", "name": "Landeskrankenhaus Hochsteiermark - Standort Bruck an der Mur", "operator": "Steiermärkische Krankenanstaltengesellschaft m.b.H.", "operator:type": "public", "operator:wikidata": "Q15849047", "phone": "+43 3862 895 0", "short_name": "LKH Bruck a. d. Mur", "website": "https://www.lkh-hochsteiermark.at", "wheelchair": "yes"}}, {"name": "LKH Graz II, Standort Voitsberg", "latitude": 47.0524825, "longitude": 15.1404317, "source": "osm", "_tags": {"addr:city": "Voitsberg", "addr:housenumber": "31", "addr:postcode": "8570", "addr:street": "Conrad-von-Hötzendorf-Straße", "amenity": "hospital", "emergency": "yes", "healthcare": "hospital", "healthcare:speciality": "emergency", "name": "LKH Graz II, Standort Voitsberg", "old_name": "Landeskrankenhaus Voitsberg;LKH Weststeiermark, Standort Voitsberg", "operator": "Steiermärkische Krankenanstaltengesellschaft m.b.H.", "operator:type": "private", "operator:wikidata": "Q15849047", "operator:wikipedia": "de:Steiermärkische Krankenanstaltengesellschaft", "phone": "+43 3142 201 0", "short_name": "LKH Voitsberg", "source": "GeoImage.at", "website": "https://www.lkh-graz2.at/", "wikidata": "Q125583231"}}, {"name": "LKH Südweststeiermark, Standort Deutschlandsberg", "latitude": 46.8120796, "longitude": 15.230693, "source": "osm", "_tags": {"addr:city": "Deutschlandsberg", "addr:country": "AT", "addr:housenumber": "29", "addr:postcode": "8530", "addr:street": "Radlpaßstraße", "amenity": "hospital", "emergency": "yes", "healthcare": "hospital", "healthcare:speciality": "emergency", "name": "LKH Südweststeiermark, Standort Deutschlandsberg", "old_name": "Landeskrankenhaus Deutschlandsberg", "operator": "Steiermärkische Krankenanstaltengesellschaft m.b.H.", "operator:type": "private", "operator:wikidata": "Q15849047", "operator:wikipedia": "de:Steiermärkische Krankenanstaltengesellschaft", "phone": "+43 3462 4411 0", "short_name": "LKH Deutschlandsberg", "source": "GeoImage.at", "toilets:wheelchair": "yes", "website": "https://www.lkh-suedweststeiermark.at", "wheelchair": "yes"}}, {"name": "Krankenhaus der Elisabethinen", "latitude": 47.0695809, "longitude": 15.4262715, "source": "osm", "_tags": {"addr:city": "Graz", "addr:country": "AT", "addr:housenumber": "14", "addr:postcode": "8020", "addr:street": "Elisabethinergasse", "amenity": "hospital", "emergency": "no", "healthcare": "hospital", "healthcare:speciality": "emergency", "name": "Krankenhaus der Elisabethinen", "name:de": "Krankenhaus der Elisabethinen", "name:etymology:wikidata": "Q452095", "wheelchair": "yes", "wikidata": "Q1786554", "wikimedia_commons": "Category:Krankenhaus der Elisabethinen, Graz", "wikipedia": "de:Krankenhaus der Elisabethinen Graz"}}, {"name": "Klinikum Theresienhof", "latitude": 47.2705421, "longitude": 15.3241752, "source": "osm", "_tags": {"addr:city": "Frohnleiten", "addr:housenumber": "3-5", "addr:postcode": "8130", "addr:street": "Hauptplatz", "amenity": "hospital", "building": "yes", "building:levels": "3", "description": "Orthopädische Rehabilitation", "email": "info@theresienhof.at", "emergency": "no", "health_facility:type": "rehabilitation", "health_specialty:orthopaedics": "yes", "healthcare": "rehabilitation", "name": "Klinikum Theresienhof", "phone": "+4331264700-0", "roof:levels": "1", "website": "https://www.theresienhof.at/", "wheelchair": "yes"}}, {"name": "Oddelek za pljučne bolezni", "latitude": 46.4830861, "longitude": 15.5770377, "source": "osm", "_tags": {"addr:city": "Pohorje", "addr:housenumber": "7", "addr:postcode": "2208", "addr:street": "Slivniško Pohorje", "amenity": "hospital", "building": "yes", "name": "Oddelek za pljučne bolezni", "operator": "Univerzitetni klinični center Maribor", "ref:gurs:hs_mid": "15989505", "source:addr": "GURS"}}, {"name": "Univerzitetni klinični center Maribor", "latitude": 46.5527755, "longitude": 15.6483495, "source": "osm", "_tags": {"addr:city": "Maribor", "addr:housenumber": "5", "addr:postcode": "2000", "addr:street": "Ljubljanska ulica", "alt_name": "Bolnica Maribor;Bolnišnica Maribor", "amenity": "hospital", "emergency": "yes", "healthcare": "hospital", "name": "Univerzitetni klinični center Maribor", "name:de": "Universitätsklinikum Maribor", "name:en": "University Medical Centre Maribor", "name:ru": "Университетский клинический центр Марибор", "phone": "+386 2 321 10 00", "short_name": "UKC Maribor", "website": "http://www.ukc-mb.si", "wheelchair": "yes", "wikidata": "Q12805065"}}, {"name": "Splošna bolnišnica dr. Jožeta Potrča Ptuj", "latitude": 46.4265348, "longitude": 15.876309, "source": "osm", "_tags": {"amenity": "hospital", "emergency": "yes", "healthcare": "hospital", "name": "Splošna bolnišnica dr. Jožeta Potrča Ptuj", "wheelchair": "yes"}}, {"name": "JZ Zdravstveni dom Ptuj", "latitude": 46.4254978, "longitude": 15.8752862, "source": "osm", "_tags": {"addr:city": "Ptuj", "addr:housenumber": "19A", "addr:postcode": "2250", "addr:street": "Potrčeva cesta", "amenity": "hospital", "building": "yes", "building:levels": "2", "email": "tajnistvo@zd-ptuj.si", "emergency": "yes", "healthcare": "hospital", "healthcare:speciality": "general;emergency;dentistry;vaccination;laboratory;dermatology", "name": "JZ Zdravstveni dom Ptuj", "operator": "JZ Zdravstveni dom Ptuj", "operator:type": "state_primary_health_care", "phone": "+386 (02) 787 15 00"}}, {"name": "Zdravstveni dom Fram", "latitude": 46.4564179, "longitude": 15.6269077, "source": "osm", "_tags": {"amenity": "hospital", "building": "hospital", "healthcare": "hospital", "name": "Zdravstveni dom Fram", "wheelchair": "yes"}}, {"name": "LKH Graz II Standort Enzenbach", "latitude": 47.1533872, "longitude": 15.2949627, "source": "osm", "_tags": {"addr:city": "Gratwein-Straßengel", "addr:country": "AT", "addr:housenumber": "30", "addr:place": "Hörgas", "addr:postcode": "8112", "alt_name": "LKH Enzenbach", "amenity": "hospital", "at_bev:addr_date": "2016-10-02", "building": "hospital", "healthcare": "hospital", "healthcare:speciality": "pneumology;emergency", "heritage": "2", "heritage:operator": "bda", "name": "LKH Graz II Standort Enzenbach", "operator": "Steiermärkische Krankenanstaltengesellschaft m.b.H.", "operator:type": "public", "operator:wikidata": "Q15849047", "phone": "+43-3124/501-0", "ref:at:bda": "115417", "source": "GeoImage.at High-Res", "website": "https://www.lkh-graz2.at", "wikidata": "Q37773906"}}, {"name": "Landeskrankenhaus Oststeiermark, Standort", "latitude": 46.9507177, "longitude": 15.8815829, "source": "osm", "_tags": {"addr:city": "Feldbach", "addr:country": "AT", "addr:housenumber": "18", "addr:postcode": "8330", "addr:street": "Ottokar-Kernstock-Straße", "amenity": "hospital", "emergency": "yes", "health_specialty": "stroke_unit", "healthcare": "hospital", "healthcare:speciality": "emergency", "name": "Landeskrankenhaus Oststeiermark, Standort", "old_name": "Landeskrankenhaus Feldbach", "operator": "Steiermärkische Krankenanstaltengesellschaft m.b.H.", "operator:type": "public", "operator:wikidata": "Q15849047", "operator:wikipedia": "de:Steiermärkische Krankenanstaltengesellschaft", "phone": "+43 3152 899 0", "short_name": "LKH Feldbach", "source": "GeoImage.at High-Res", "website": "https://www.lkh-feldbach.at/"}}, {"name": "Landeskrankenhaus Weiz", "latitude": 47.2125627, "longitude": 15.6367611, "source": "osm", "_tags": {"addr:city": "Weiz", "addr:country": "AT", "addr:housenumber": "85", "addr:postcode": "8160", "addr:street": "Franz-Pichler-Straße", "amenity": "hospital", "healthcare": "hospital", "healthcare:speciality": "emergency", "name": "Landeskrankenhaus Weiz", "operator": "Steiermärkische Krankenanstaltengesellschaft m.b.H.", "operator:wikidata": "Q15849047", "operator:wikipedia": "de:Steiermärkische Krankenanstaltengesellschaft", "phone": "+43 3172 2214 0", "short_name": "LKH Weiz", "source": "GeoImage.at High-Res", "website": "https://www.lkh-weiz.at/", "wikidata": "Q125583233"}}, {"name": "Splošna Bolnišnica Slovenj Gradec", "latitude": 46.50839, "longitude": 15.0815866, "source": "osm", "_tags": {"amenity": "hospital", "emergency": "yes", "healthcare": "hospital", "name": "Splošna Bolnišnica Slovenj Gradec", "wheelchair": "yes"}}, {"name": "Zdravstveni dom Lenart", "latitude": 46.5773222, "longitude": 15.8286668, "source": "osm", "_tags": {"addr:city": "Lenart v Slov. Goricah", "addr:postcode": "2230", "amenity": "hospital", "building": "yes", "name": "Zdravstveni dom Lenart"}}, {"name": "Šolska in pediatrična ambulanta", "latitude": 46.523555, "longitude": 15.6716153, "source": "osm", "_tags": {"addr:city": "Maribor", "addr:housenumber": "103", "addr:postcode": "2000", "addr:street": "Zagrebška cesta", "amenity": "hospital", "building": "yes", "name": "Šolska in pediatrična ambulanta", "operator": "Šolmed", "phone": "08 205 75 70"}}, {"name": "Krankenhaus der Barmherzigen Brüder Graz", "latitude": 47.0718587, "longitude": 15.4320376, "source": "osm", "_tags": {"addr:city": "Graz", "addr:country": "AT", "addr:housenumber": "12", "addr:postcode": "8020", "addr:street": "Marschallgasse", "amenity": "hospital", "emergency": "no", "healthcare": "hospital", "healthcare:speciality": "emergency", "name": "Krankenhaus der Barmherzigen Brüder Graz", "name:etymology:wikidata": "Q808376", "official_name": "Ordenskrankenhaus Graz-Mitte", "opening_hours": "24/7", "opening_hours:phone": "24/7", "operator": "Barmherzige Brüder Österreich", "operator:type": "religious", "phone": "+43 316 7067 0", "toilets:wheelchair": "yes", "wheelchair": "yes"}}, {"name": "", "latitude": 47.1817937, "longitude": 15.4829367, "source": "osm", "_tags": {"addr:city": "St. Radegund bei Graz", "addr:country": "AT", "addr:housenumber": "1", "addr:postcode": "8061", "addr:street": "Quellenstraße", "amenity": "hospital", "covered": "yes", "emergency": "no", "healthcare": "hospital", "layer": "2"}}, {"name": "Sonderkrankenanstalt Rehabilitationszentrum St. Radegund", "latitude": 47.1820613, "longitude": 15.4833102, "source": "osm", "_tags": {"addr:city": "St. Radegund bei Graz", "addr:country": "AT", "addr:housenumber": "1", "addr:postcode": "8061", "addr:street": "Quellenstraße", "amenity": "hospital", "building": "yes", "covered": "yes", "emergency": "no", "healthcare": "hospital", "layer": "2", "name": "Sonderkrankenanstalt Rehabilitationszentrum St. Radegund", "operator": "Pensionsversicherungsanstalt"}}, {"name": "Sonderkrankenanstalt Rehabilitationszentrum St. Radegund", "latitude": 47.1823516, "longitude": 15.4840389, "source": "osm", "_tags": {"amenity": "hospital", "emergency": "no", "healthcare": "hospital", "healthcare:speciality": "cardiology", "name": "Sonderkrankenanstalt Rehabilitationszentrum St. Radegund", "operator": "Pensionsversicherungsanstalt", "website": "https://www.rz-st-radegund.at"}}, {"name": "Privatklinik St. Radegund", "latitude": 47.1806265, "longitude": 15.4991436, "source": "osm", "_tags": {"amenity": "hospital", "emergency": "no", "healthcare": "hospital", "healthcare:speciality": "psychiatry", "name": "Privatklinik St. Radegund", "operator": "Sanlas Holding", "source": "https://sanlas.at/einrichtungen/privatklinik-st-radegund/", "website": "https://sanlas.at/einrichtungen/privatklinik-st-radegund/"}}, {"name": "Krankenhaus der Elisabethinen Graz-Eggenberg", "latitude": 47.0787495, "longitude": 15.3931779, "source": "osm", "_tags": {"addr:city": "Graz", "addr:country": "AT", "addr:housenumber": "26-27", "addr:postcode": "8020", "addr:street": "Bergstraße", "amenity": "hospital", "emergency": "no", "healthcare": "hospital", "name": "Krankenhaus der Elisabethinen Graz-Eggenberg", "toilets:wheelchair": "yes", "wheelchair": "yes"}}, {"name": "Marienkrankenhaus Vorau", "latitude": 47.4049073, "longitude": 15.8818195, "source": "osm", "_tags": {"addr:city": "Vorau", "addr:country": "AT", "addr:housenumber": "101", "addr:postcode": "8250", "addr:street": "Spitalstraße", "amenity": "hospital", "building": "hospital", "emergency": "yes", "healthcare": "hospital", "healthcare:speciality": "emergency", "layer": "1", "name": "Marienkrankenhaus Vorau", "operator": "Vorauer Marienschwestern von der Unbefleckten Empfängnis", "operator:type": "religious", "phone": "+43 3337 2254 0", "source": "GeoImage.at High-Res", "type": "multipolygon", "website": "https://www.marienkrankenhaus.at/", "wikidata": "Q15833942", "wikipedia": "de:Marienkrankenhaus Vorau"}}, {"name": "Landeskrankenhaus Hörgas-Enzenbach", "latitude": 47.1453506, "longitude": 15.3031265, "source": "osm", "_tags": {"amenity": "hospital", "emergency": "yes", "name": "Landeskrankenhaus Hörgas-Enzenbach", "operator": "Steiermärkische Krankenanstaltengesellschaft m.b.H.", "phone": "+43 3124 501 0", "source": "GeoImage.at High-Res", "type": "site", "website": "https://www.lkh-hoergas.at/"}}, {"name": "LKH Hochsteiermark", "latitude": 47.4901418, "longitude": 15.3769048, "source": "osm", "_tags": {"amenity": "hospital", "healthcare": "hospital", "name": "LKH Hochsteiermark", "operator": "Steiermärkische Krankenanstaltengesellschaft m.b.H.", "operator:wikidata": "Q15849047", "operator:wikipedia": "de:Steiermärkische Krankenanstaltengesellschaft", "type": "site", "website": "https://www.lkh-hochsteiermark.at/"}}, {"name": "Landeskrankenhaus Graz II", "latitude": 47.0567982, "longitude": 15.4106644, "source": "osm", "_tags": {"amenity": "hospital", "healthcare": "hospital", "name": "Landeskrankenhaus Graz II", "operator": "Steiermärkische Krankenanstaltengesellschaft m.b.H.", "operator:type": "private", "operator:wikidata": "Q15849047", "operator:wikipedia": "de:Steiermärkische Krankenanstaltengesellschaft", "start_date": "2015-01-01", "type": "site", "website": "https://www.lkh-graz-sw.at/"}}]