[{"name": "Klinikum Klagenfurt am Wörthersee", "latitude": 46.6341247, "longitude": 14.3049771, "source": "osm", "_tags": {"addr:city": "Klagenfurt am Wörthersee", "addr:housenumber": "11", "addr:postcode": "9020", "addr:street": "Feschnigstraße", "amenity": "hospital", "contact:email": "help@lkh-klu.at", "contact:phone": "+434635380", "contact:website": "http://www.klinikum-klagenfurt.at", "emergency": "yes", "health_specialty": "stroke_unit", "healthcare": "hospital", "healthcare:speciality": "emergency", "name": "Klinikum Klagenfurt am Wörthersee", "operator": "KABEG", "outdoor_seating": "no", "source": "geoimage. at", "toilets:wheelchair": "yes", "wheelchair": "yes", "wikidata": "Q1774626", "wikipedia": "de:Klinikum Klagenfurt am Wörthersee"}}, {"name": "Unfallkrankenhaus", "latitude": 46.6182386, "longitude": 14.2961352, "source": "osm", "_tags": {"addr:city": "Klagenfurt am Wörthersee", "addr:country": "AT", "addr:housenumber": "35", "addr:postcode": "9020", "addr:street": "Waidmannsdorfer Straße", "alt_name": "Unfallkrankenhaus Klagenfurt", "amenity": "hospital", "building": "hospital", "emergency": "yes", "healthcare": "hospital", "level": "1", "name": "Unfallkrankenhaus", "roof:shape": "flat", "url": "http://www.auva.at/ukhklagenfurt/", "wheelchair": "yes", "wikidata": "Q2493167", "wikipedia": "de:Unfallkrankenhaus Klagenfurt"}}, {"name": "Landeskrankenhaus Murtal, Standort Stolzalpe Haus 2", "latitude": 47.1206241, "longitude": 14.1937758, "source": "osm", "_tags": {"addr:city": "Stolzalpe", "addr:country": "AT", "addr:housenumber": "38", "addr:place": "Stolzalpe", "addr:postcode": "8852", "amenity": "hospital", "building": "yes", "healthcare": "hospital", "heritage": "2", "heritage:operator": "bda", "name": "Landeskrankenhaus Murtal, Standort Stolzalpe Haus 2", "operator": "Steiermärkische Krankenanstaltengesellschaft m.b.H.", "operator:type": "private", "operator:wikidata": "Q15849047", "phone": "+43 3532 2424 0", "ref:at:bda": "117834", "source": "geoimage.at", "website": "https://www.lkh-murtal.at/", "wheelchair": "yes", "wikidata": "Q37788165"}}, {"name": "Krankenhaus der Barmherzigen Brüder St.Veit/Glan", "latitude": 46.7692181, "longitude": 14.3534516, "source": "osm", "_tags": {"addr:city": "Sankt Veit an der Glan", "addr:country": "AT", "addr:housenumber": "26", "addr:postcode": "9300", "addr:street": "Spitalgasse", "amenity": "hospital", "at_bev:addr_date": "2017-10-01", "building": "yes", "healthcare": "hospital", "healthcare:speciality": "emergency", "name": "Krankenhaus der Barmherzigen Brüder St.Veit/Glan", "operator": "Barmherzige Brüder", "operator:type": "religious", "wheelchair": "yes"}}, {"name": "LKH Klagenfurt", "latitude": 46.6316192, "longitude": 14.3028755, "source": "osm", "_tags": {"amenity": "hospital", "contact:email": "geriatrie.klagenfurt@kabeg.at", "contact:fax": "+43 (0)463 538 23024", "contact:phone": "+43 (0)463 538 22667", "emergency": "no", "healthcare": "hospital", "name": "LKH Klagenfurt", "source": "bing"}}, {"name": "Privatklinik Maria Hilf", "latitude": 46.6274106, "longitude": 14.2963656, "source": "osm", "_tags": {"addr:city": "Klagenfurt am Wörthersee", "addr:country": "AT", "amenity": "hospital", "building": "hospital", "building:levels": "5", "emergency": "no", "healthcare": "hospital", "name": "Privatklinik Maria Hilf", "operator": "Humanomed", "roof:levels": "0", "website": "https://www.humanomed.at/privatklinik-maria-hilf/"}}, {"name": "Landeskrankenhaus Murtal, Standort Judenburg", "latitude": 47.1660657, "longitude": 14.6555788, "source": "osm", "_tags": {"addr:city": "Judenburg", "addr:country": "AT", "addr:housenumber": "18", "addr:postcode": "8750", "addr:street": "Oberweggasse", "amenity": "hospital", "contact:phone": "+43 3572 82560 0", "emergency": "yes", "healthcare": "hospital", "healthcare:speciality": "emergency", "name": "Landeskrankenhaus Murtal, Standort Judenburg", "operator": "Steiermärkische Krankenanstaltengesellschaft m.b.H.", "operator:type": "government", "operator:wikidata": "Q15849047", "short_name": "LKH Judenburg", "source": "GeoImage.at High-Res", "website": "https://www.lkh-murtal.at", "wheelchair": "yes"}}, {"name": "Landeskrankenhaus Murtal, Standort Knittelfeld", "latitude": 47.2154988, "longitude": 14.8204532, "source": "osm", "_tags": {"addr:city": "Knittelfeld", "addr:country": "AT", "addr:district": "Murtal", "addr:housenumber": "10", "addr:postcode": "8720", "addr:street": "Gaaler Straße", "amenity": "hospital", "emergency": "yes", "health_specialty": "stroke_unit", "healthcare": "hospital", "healthcare:speciality": "emergency", "name": "Landeskrankenhaus Murtal, Standort Knittelfeld", "operator": "Steiermärkische Krankenanstaltengesellschaft m.b.H.", "operator:type": "government", "operator:wikidata": "Q15849047", "operator:wikipedia": "de:Steiermärkische Krankenanstaltengesellschaft", "phone": "+43 3512 707 0", "short_name": "LKH Knittelfeld", "source": "GeoImage.at High-Res", "website": "https://www.lkh-murtal.at"}}, {"name": "Öffentliches Krankenhaus Waiern", "latitude": 46.733311, "longitude": 14.0870468, "source": "osm", "_tags": {"addr:city": "Waiern", "addr:country": "AT", "addr:housenumber": "14", "addr:postcode": "9560", "addr:street": "Martin-Luther-Straße", "amenity": "hospital", "at_bev:addr_date": "2017-10-01", "building": "hospital", "building:levels": "5", "healthcare": "hospital", "name": "Öffentliches Krankenhaus Waiern"}}, {"name": "Öffentliches Krankenhaus Waiern Feldkirchen", "latitude": 46.7333698, "longitude": 14.0870691, "source": "osm", "_tags": {"amenity": "hospital", "healthcare": "hospital", "name": "Öffentliches Krankenhaus Waiern Feldkirchen"}}, {"name": "Splošna bolnišnica Jesenice", "latitude": 46.4427253, "longitude": 14.0367225, "source": "osm", "_tags": {"amenity": "hospital", "healthcare": "hospital", "name": "Splošna bolnišnica Jesenice", "wikidata": "Q48767298"}}, {"name": "Zdravstveni dom Jesenice", "latitude": 46.440175, "longitude": 14.0446605, "source": "osm", "_tags": {"addr:city": "Jesenice", "addr:housenumber": "78", "addr:postcode": "4270", "addr:street": "Cesta maršala Tita", "amenity": "hospital", "building": "yes", "healthcare": "hospital", "name": "Zdravstveni dom Jesenice", "ref:gurs:hs_mid": "11912575", "ref:gurs:sta_sid": "25543218"}}, {"name": "Ärztezentrum", "latitude": 46.6115567, "longitude": 14.3593205, "source": "osm", "_tags": {"amenity": "hospital", "healthcare": "hospital", "name": "Ärztezentrum"}}, {"name": "Landeskrankenhaus Wolfsberg", "latitude": 46.8331289, "longitude": 14.8486846, "source": "osm", "_tags": {"addr:city": "Wolfsberg", "addr:country": "AT", "addr:housenumber": "9", "addr:postcode": "9400", "addr:street": "Paul-Hackhofer-Straße", "amenity": "hospital", "emergency": "yes", "healthcare": "hospital", "healthcare:speciality": "emergency", "loc_name": "LKH", "name": "Landeskrankenhaus Wolfsberg", "operator": "Kärntner Landeskrankenanstalten-Betriebsgesellschaft - KABEG", "operator:type": "public", "phone": "+43 4352 533 0", "short_name": "LKH Wolfsberg", "smoking:outside": "seperated", "url": "http://www.lymphklinik-wolfsberg.at/", "website": "https://www.lkh-wo.at/"}}, {"name": "Landeskrankenhaus Murtal, Standort Stolzalpe", "latitude": 47.1186163, "longitude": 14.1885041, "source": "osm", "_tags": {"addr:city": "Stolzalpe", "addr:country": "AT", "addr:housenumber": "38", "addr:postcode": "8852", "addr:street": "Stolzalpenstraße", "amenity": "hospital", "building": "yes", "emergency": "yes", "healthcare": "hospital", "healthcare:speciality": "emergency", "name": "Landeskrankenhaus Murtal, Standort Stolzalpe", "operator": "Steiermärkische Krankenanstaltengesellschaft m.b.H.", "operator:type": "private", "operator:wikidata": "Q15849047", "phone": "+43 3532 2424 0", "short_name": "LKH Stolzalpe", "source": "geoimage.at", "website": "https://www.lkh-murtal.at/", "wheelchair": "yes", "wikidata": "Q125578870"}}, {"name": "Krankenhaus des Deutschen Ordens Friesach", "latitude": 46.9466295, "longitude": 14.4103425, "source": "osm", "_tags": {"addr:city": "Friesach", "addr:housenumber": "12", "addr:postcode": "9360", "addr:street": "St.Veiter Straße", "amenity": "hospital", "emergency": "yes", "healthcare": "hospital", "healthcare:speciality": "emergency", "name": "Krankenhaus des Deutschen Ordens Friesach", "operator": "A.ö. Krankenhaus des Deutschen Ordens Friesach GmbH", "operator:type": "private_non_profit", "website": "https://www.dokh.at/"}}, {"name": "Krankenhaus der Elisabethinen", "latitude": 46.626093, "longitude": 14.31737, "source": "osm", "_tags": {"addr:city": "Klagenfurt am Wörthersee", "addr:country": "AT", "addr:housenumber": "19", "addr:street": "Völkermarkter Straße", "amenity": "hospital", "building": "hospital", "emergency": "no", "healthcare": "hospital", "healthcare:speciality": "emergency", "name": "Krankenhaus der Elisabethinen", "type": "multipolygon"}}, {"name": "Landeskrankenhaus Judenburg-Knittelfeld", "latitude": 47.1909487, "longitude": 14.7381077, "source": "osm", "_tags": {"amenity": "hospital", "healthcare": "hospital", "name": "Landeskrankenhaus Judenburg-Knittelfeld", "operator": "Steiermärkische Krankenanstaltengesellschaft m.b.H.", "operator:wikidata": "Q15849047", "operator:wikipedia": "de:Steiermärkische Krankenanstaltengesellschaft", "type": "site", "website": "https://www.lkh-judenburg.at/"}}]