[{"name": "Clos Saint-Victor", "latitude": 47.3595793, "longitude": 0.6665068, "source": "osm", "_tags": {"amenity": "hospital", "healthcare": "hospital", "name": "Clos Saint-Victor", "phone": "+33 2 47 48 70 70", "ref:FR:FINESS": "370000218", "type:FR:FINESS": "109"}}, {"name": "", "latitude": 47.1966968, "longitude": 0.4832764, "source": "osm", "_tags": {"amenity": "hospital", "operator": "Minisitère des Armées - Service de Santé des Armées"}}, {"name": "Centre Médico-Psychologique enfants adolescents de Loudun", "latitude": 47.0117994, "longitude": 0.0835966, "source": "osm", "_tags": {"addr:housenumber": "42", "addr:street": "Avenue de Leuze", "amenity": "social_facility", "contact:phone": "+33 5 16 52 61 03", "emergency": "no", "healthcare": "hospital", "healthcare:speciality": "psychiatry", "name": "Centre Médico-Psychologique enfants adolescents de Loudun", "operator": "Hôpital Henri Laborit", "ref:FR:FINESS": "860782374", "social_facility": "ambulatory_care", "social_facility:for": "mental_health", "type:FR:FINESS": "156", "website": "https://ch-laborit.fr/presentation-du-chl/sectorisation-soins-adultes/secteur-1-poitiers-loudun/", "wheelchair": "yes"}}, {"name": "Centre Médico-Psychologique adulte de Loudun", "latitude": 47.0105526, "longitude": 0.077432, "source": "osm", "_tags": {"amenity": "social_facility", "emergency": "no", "fax": "+33 5 49 98 89 16", "healthcare": "hospital", "healthcare:speciality": "psychiatry", "name": "Centre Médico-Psychologique adulte de Loudun", "operator": "Hôpital Henri Laborit", "phone": "+33 5 49 98 33 33", "ref:FR:FINESS": "860005651", "ref:FR:SIRET": "26860002000401", "social_facility": "ambulatory_care", "social_facility:for": "mental_health", "source": "cadastre-dgi-fr source : Direction Générale des Impôts - Cadastre. Mise à jour : 2010", "type:FR:FINESS": "156", "website": "https://ch-laborit.fr/presentation-du-chl/sectorisation-soins-adultes/secteur-1-poitiers-loudun/"}}, {"name": "", "latitude": 46.5545131, "longitude": 0.3946388, "source": "osm", "_tags": {"alt_name": "Fédération psychiatrique de la personne âgée", "contact:phone": "+33 5 49 44 58 42", "healthcare": "hospital", "healthcare:speciality": "psychiatry"}}, {"name": "", "latitude": 47.010635, "longitude": 0.0774007, "source": "osm", "_tags": {"amenity": "hospital", "fax": "+33549988916", "healthcare": "hospital", "phone": "+33549983333", "ref:FR:FINESS": "860789882", "ref:FR:SIRET": "26860002000468", "source": "Le ministère des solidarités et de la santé - 03/2019", "type:FR:FINESS": "292"}}, {"name": "Pharmacie les 3 Tours", "latitude": 47.3257455, "longitude": 0.4085015, "source": "osm", "_tags": {"addr:city": "Langeais", "addr:housenumber": "4", "addr:postcode": "37130", "addr:street": "Rue Thiers", "amenity": "hospital", "healthcare": "hospital", "name": "Pharmacie les 3 Tours"}}, {"name": "Urgences cardiologiques", "latitude": 46.5574212, "longitude": 0.3862961, "source": "osm", "_tags": {"healthcare": "hospital", "healthcare:speciality": "cardiology;emergency", "name": "Urgences cardiologiques"}}, {"name": "Urgences générales", "latitude": 46.5588358, "longitude": 0.3874629, "source": "osm", "_tags": {"healthcare": "hospital", "healthcare:speciality": "emergency", "name": "Urgences générales"}}, {"name": "Équipe Mobile Liaison Accompagnement", "latitude": 47.3875559, "longitude": 0.6971402, "source": "osm", "_tags": {"amenity": "hospital", "contact:city": "Tours", "contact:housenumber": "19", "contact:postcode": "37000", "contact:street": "Rue Édouard Vaillant", "email": "emla@chu-tours.fr", "healthcare": "hospital", "name": "Équipe Mobile Liaison Accompagnement", "phone": "+33 2 47 47 71 55", "short_name": "EMLA", "website": "https://www.chu-tours.fr/etre-soigne-et-rendre-visite-a-un-patient/joindre-le-chru/liste-des-services/equipe-mobile-liaison-accompagnement-emla/"}}, {"name": "Centre Hospitalier de Saumur", "latitude": 47.2467403, "longitude": -0.0603091, "source": "osm", "_tags": {"amenity": "hospital", "email": "direction@ch-saumur.fr", "emergency": "yes", "fax": "+33 2 41 53 31 29", "healthcare": "hospital", "name": "Centre Hospitalier de Saumur", "operator:type": "public", "phone": "+33 2 41 53 30 30", "ref:FR:FINESS": "490001765", "type:FR:FINESS": "355", "website": "https://www.ch-saumur.fr/"}}, {"name": "Hôpital Bretonneau", "latitude": 47.3877879, "longitude": 0.6696187, "source": "osm", "_tags": {"amenity": "hospital", "contact:city": "Tours", "contact:housenumber": "2", "contact:postcode": "37000", "contact:street": "Boulevard Tonnelé", "emergency": "yes", "fax": "+33 2 47 47 47 84", "healthcare": "hospital", "healthcare:speciality": "intensive", "name": "Hôpital Bretonneau", "name:etymology:wikidata": "Q2004700", "operator": "CHU de Tours", "operator:type": "public", "phone": "+33 2 47 47 47 47", "ref:FR:FINESS": "370000861", "ref:FR:SIRET": "26370018900016", "type:FR:FINESS": "101", "website": "https://www.chu-tours.fr/hopital-bretonneau/", "wikidata": "Q17373221", "wikipedia": "fr:Hôpital Bretonneau (Tours)"}}, {"name": "Hôpital Trousseau", "latitude": 47.350201, "longitude": 0.7119498, "source": "osm", "_tags": {"alt_name": "CHRU de Tours", "amenity": "hospital", "emergency": "yes", "fax": "+33 2 47 47 46 89", "healthcare": "hospital", "healthcare:speciality": "intensive", "name": "Hôpital Trousseau", "operator": "CHU de Tours", "operator:type": "public", "phone": "+33 2 47 47 47 47", "ref:FR:FINESS": "370004467", "type:FR:FINESS": "101", "website": "https://www.chu-tours.fr/hopital-trousseau.html"}}, {"name": "Hôpital de jour de psychothérapie pour adultes", "latitude": 47.1722132, "longitude": 0.2480297, "source": "osm", "_tags": {"addr:city": "Chinon", "addr:country": "FR", "addr:housenumber": "17", "addr:postcode": "37500", "addr:street": "Rue Saint-Jean", "amenity": "hospital", "building": "yes", "name": "Hôpital de jour de psychothérapie pour adultes", "ref:FR:FINESS": "370000895", "source": "cadastre-dgi-fr source : Direction Générale des Impôts - Cadastre. Mise à jour : 2010"}}, {"name": "T23 - Centre Psychothérapique de Tours Sud (CHU)", "latitude": 47.3521445, "longitude": 0.71156, "source": "osm", "_tags": {"amenity": "hospital", "building": "yes", "healthcare": "hospital", "name": "T23 - Centre Psychothérapique de Tours Sud (CHU)", "phone": "+33 2 47 47 47 47", "ref:FR:FINESS": "370004418", "source": "cadastre-dgi-fr source : Direction Générale des Impôts - Cadastre. Mise à jour : 2010", "type:FR:FINESS": "101"}}, {"name": "Pavillon Tony Lainé", "latitude": 46.5510829, "longitude": 0.3961196, "source": "osm", "_tags": {"building": "hospital", "emergency": "no", "healthcare": "hospital", "name": "Pavillon Tony Lainé", "operator": "Centre hospitalier Henri Laborit", "operator:type": "public", "source": "cadastre-dgi-fr source : Direction Générale des Impôts - Cadastre. Mise à jour : 2010", "wheelchair": "yes"}}, {"name": "Pavillon Lagrange", "latitude": 46.553969, "longitude": 0.395156, "source": "osm", "_tags": {"building": "hospital", "contact:phone": "+33549445757", "healthcare": "hospital", "healthcare:speciality": "psychiatry", "name": "Pavillon Lagrange", "operator": "Centre hospitalier Henri Laborit", "ref:FR:FINESS": "860000017", "source": "cadastre-dgi-fr source : Direction Générale des Impôts - Cadastre. Mise à jour : 2010", "type:FR:FINESS": "292"}}, {"name": "Pavillon Pinel", "latitude": 46.5550924, "longitude": 0.3926565, "source": "osm", "_tags": {"alt_name": "Secteur 3", "building": "hospital", "healthcare": "hospital", "healthcare:speciality": "psychiatry", "name": "Pavillon Pinel", "operator": "Centre hospitalier Henri Laborit", "source": "cadastre-dgi-fr source : Direction Générale des Impôts - Cadastre. Mise à jour : 2010", "wheelchair": "yes"}}, {"name": "EMPE (Classes)", "latitude": 46.5521617, "longitude": 0.3952046, "source": "osm", "_tags": {"building": "hospital", "building:levels": "1", "healthcare": "hospital", "name": "EMPE (Classes)"}}, {"name": "", "latitude": 46.5573338, "longitude": 0.3896781, "source": "osm", "_tags": {"building": "hospital", "healthcare": "hospital", "source": "cadastre-dgi-fr source : Direction Générale des Impôts - Cadastre. Mise à jour : 2012", "wall": "no"}}, {"name": "Hôpital Clocheville", "latitude": 47.3899785, "longitude": 0.6804971, "source": "osm", "_tags": {"alt_name": "Hôpital pédiatrique Gatien de Clocheville", "amenity": "hospital", "children": "only", "contact:city": "Tours", "contact:housenumber": "49", "contact:postcode": "37000", "contact:street": "Boulevard Béranger", "emergency": "yes", "fax": "+33 2 47 47 82 02", "healthcare": "hospital", "healthcare:speciality": "paediatrics;intensive", "name": "Hôpital Clocheville", "name:etymology:wikidata": "Q110197530", "operator": "CHU de Tours", "operator:type": "public", "phone": "+33 2 47 47 60 99", "ref:FR:FINESS": "370000499", "ref:FR:SIRET": "26370018900024", "type:FR:FINESS": "101", "website": "https://www.chu-tours.fr/hopital-clocheville/", "wikidata": "Q28039965"}}, {"name": "Le Clos d'Alban", "latitude": 47.2607389, "longitude": 0.9124809, "source": "osm", "_tags": {"addr:city": "Cigogné", "addr:postcode": "37310", "addr:street": "La Marquetterie", "amenity": "hospital", "description": "Établissement d'hébergement et de soins pour adultes polyhandicapés", "email": "arc-en-ciel4@wanadoo.fr", "emergency": "no", "fax": "+33 2 47 43 29 10", "healthcare": "hospital", "name": "Le Clos d'Alban", "operator": "Arc-en-Ciel", "phone": "+33 2 47 65 72 72", "ref:FR:FINESS": "370009078", "type:FR:FINESS": "255", "website": "http://www.arcenciel-asso.org/le-clos-dalban/", "wheelchair": "yes"}}, {"name": "Unité de Recherche Clinique Pierre Deniker", "latitude": 46.553471, "longitude": 0.3954076, "source": "osm", "_tags": {"building": "hospital", "building:levels": "1", "healthcare": "hospital", "healthcare:speciality": "psychiatry", "name": "Unité de Recherche Clinique Pierre Deniker", "operator": "Centre Hospitalier Henri Laborit", "source": "cadastre-dgi-fr source : Direction Générale des Impôts - Cadastre. Mise à jour : 2010", "wheelchair": "yes"}}, {"name": "Centre hospitalier de la Milétrie", "latitude": 46.5568804, "longitude": 0.3848482, "source": "osm", "_tags": {"addr:city": "Poitiers", "addr:housenumber": "2", "addr:postcode": "86021", "addr:street": "Rue de la Milétrie", "amenity": "hospital", "emergency": "yes", "healthcare": "hospital", "healthcare:speciality": "intensive", "name": "Centre hospitalier de la Milétrie", "operator:type": "public", "phone": "+33 5 49 44 44 44", "ref:FR:FINESS": "860000223", "type:FR:FINESS": "355", "website": "https://www.chu-poitiers.fr/", "wikidata": "Q2945769"}}, {"name": "Centre hospitalier de Montmorillon", "latitude": 46.4284979, "longitude": 0.8669039, "source": "osm", "_tags": {"amenity": "hospital", "email": "direction.ch-montmorillon@chu-poitiers.fr", "emergency": "yes", "healthcare": "hospital", "name": "Centre hospitalier de Montmorillon", "operator:type": "public", "ref:FR:FINESS": "860000058", "type:FR:FINESS": "355", "website": "https://www.chu-poitiers.fr/specialites/pole-montmorillon/"}}, {"name": "cabinet de kinesitheraphie", "latitude": 46.785741, "longitude": 0.8812941, "source": "osm", "_tags": {"amenity": "doctors", "building": "retail", "healthcare": "hospital", "healthcare:speciality": "kinésithéraphie", "name": "cabinet de kinesitheraphie"}}, {"name": "Clinique Jeanne d'Arc", "latitude": 47.1883928, "longitude": 0.2922774, "source": "osm", "_tags": {"amenity": "hospital", "healthcare": "hospital", "name": "Clinique Jeanne d'Arc", "operator:type": "private", "phone": "+33 2 47 93 70 00", "ref:FR:FINESS": "370000051", "source": "cadastre-dgi-fr source : Direction Générale des Impôts - Cadastre. Mise à jour : 2012", "type:FR:FINESS": "128", "website": "https://cjda37.fr/"}}, {"name": "Centre hospitalier de Loudun", "latitude": 47.0115783, "longitude": 0.0766145, "source": "osm", "_tags": {"alt_name": "Hôpital Renaudot", "amenity": "hospital", "emergency": "yes", "healthcare": "hospital", "name": "Centre hospitalier de Loudun", "operator": "Groupe hospitalier Nord-Vienne", "operator:type": "public", "phone": "+33 5 49 98 45 42", "ref:FR:FINESS": "860000033", "type:FR:FINESS": "355", "website": "https://www.ghnv.fr/"}}, {"name": "Centre hospitalier de Chatellerault", "latitude": 46.8315333, "longitude": 0.5556605, "source": "osm", "_tags": {"amenity": "hospital", "emergency": "yes", "healthcare": "hospital", "name": "Centre hospitalier de Chatellerault", "operator": "Groupe hospitalier Nord-Vienne", "operator:type": "public", "phone": "+33 5 49 02 90 90", "ref:FR:FINESS": "860000025", "source": "cadastre-dgi-fr source : Direction Générale des Impôts - Cadastre. Mise à jour : 2010", "type:FR:FINESS": "355", "website": "https://www.ghnv.fr/"}}, {"name": "L'Arc en Ciel", "latitude": 47.272622, "longitude": 0.8575022, "source": "osm", "_tags": {"amenity": "hospital", "healthcare": "yes", "name": "L'Arc en Ciel", "ref:FR:FINESS": "370103129", "type:FR:FINESS": "448", "website": "http://www.arcenciel-asso.org/le-hameau-de-larc-en-ciel/"}}, {"name": "Hôpital de Sainte-Maure", "latitude": 47.1062673, "longitude": 0.6117688, "source": "osm", "_tags": {"amenity": "hospital", "healthcare": "hospital", "name": "Hôpital de Sainte-Maure", "official_name": "Centre Hospitalier de Sainte-Maure", "ref:FR:FINESS": "370001158", "ref:FR:NAF": "8610Z", "source": "Le ministère des solidarités et de la santé - 03/2019", "wikidata": "Q92062712"}}, {"name": "Centre hospitalier du Chinonais", "latitude": 47.1876235, "longitude": 0.2938709, "source": "osm", "_tags": {"alt_name": "Hôpital François Rabelais", "amenity": "hospital", "emergency": "yes", "healthcare": "hospital", "name": "Centre hospitalier du Chinonais", "phone": "+33 2 47 93 75 15", "ref:FR:FINESS": "370000531", "type:FR:FINESS": "355", "website": "https://www.ch-chinon.fr/"}}, {"name": "Centre hospitalier Henri laborit", "latitude": 46.8305888, "longitude": 0.5573503, "source": "osm", "_tags": {"amenity": "hospital", "healthcare": "hospital", "healthcare:speciality": "psychiatry", "name": "Centre hospitalier Henri laborit", "ref:FR:FINESS": "860000017", "type:FR:FINESS": "292"}}, {"name": "Centre hospitalier Henri Laborit", "latitude": 46.553135, "longitude": 0.3931416, "source": "osm", "_tags": {"amenity": "hospital", "contact:phone": "+33549445757", "emergency": "yes", "healthcare": "hospital", "healthcare:speciality": "psychiatry", "name": "Centre hospitalier Henri Laborit", "operator": "Centre hospitalier Henri Laborit", "operator:type": "public", "ref:FR:FINESS": "860000017", "source": "cadastre-dgi-fr source : Direction Générale des Impôts - Cadastre. Mise à jour : 2010", "type:FR:FINESS": "292", "website": "https://ch-laborit.fr/"}}, {"name": "Clinique Saint-Charles", "latitude": 46.5635171, "longitude": 0.368942, "source": "osm", "_tags": {"addr:housenumber": "3", "addr:street": "Rue de la Providence", "amenity": "hospital", "healthcare": "hospital", "name": "Clinique Saint-Charles", "ref:FR:FINESS": "860790419", "ref:FR:NAF": "8610Z", "ref:FR:SIREN": "349829952", "ref:FR:SIRET": "34982995200028", "source": "INSEE - 2024-12", "type:FR:FINESS": "109"}}, {"name": "CECAT", "latitude": 46.562045, "longitude": 0.3676426, "source": "osm", "_tags": {"alt_name": "Centre d’écoute, de consultations et d’activités thérapeutiques", "amenity": "health_care", "emergency": "no", "healthcare": "hospital", "healthcare:speciality": "psychiatry", "name": "CECAT", "opening_hours": "Mo-Fr 08:00-17:00", "operator_type": "public", "ref:FR:FINESS": "860005677", "type:FR:FINESS": "292", "website": "https://www.ch-laborit.fr"}}, {"name": "USLD de Lusignan", "latitude": 46.4349876, "longitude": 0.1263445, "source": "osm", "_tags": {"amenity": "hospital", "check_date": "2024-07-11", "fax": "+33549437644", "healthcare": "hospital", "name": "USLD de Lusignan", "phone": "+33549893800", "ref:FR:FINESS": "860000041", "ref:FR:SIRET": "20005535800085", "type:FR:FINESS": "362", "website": "https://www.chu-poitiers.fr/les-plans-des-sites-de-lusignan/"}}, {"name": "Clinique de Châtellerault", "latitude": 46.818912, "longitude": 0.5389461, "source": "osm", "_tags": {"amenity": "hospital", "contact:city": "Châtellerault", "contact:housenumber": "17", "contact:postcode": "86100", "contact:street": "Rue de Verdun", "emergency": "yes", "healthcare": "hospital", "name": "Clinique de Châtellerault", "operator": "Groupe KAPA", "operator:type": "private"}}, {"name": "CESAM", "latitude": 46.5564785, "longitude": 0.392388, "source": "osm", "_tags": {"building": "hospital", "building:levels": "1", "healthcare": "hospital", "name": "CESAM", "wheelchair": "yes"}}, {"name": "Polyclinique de Poitiers", "latitude": 46.5643924, "longitude": 0.3669809, "source": "osm", "_tags": {"addr:housenumber": "1", "addr:street": "Rue de la Providence", "alt_name": "Clinique Saint Charles", "amenity": "hospital", "email": "contact@polycliniquepoitiers.fr", "emergency": "yes", "fax": "+33 5 49 61 71 99", "healthcare": "hospital", "name": "Polyclinique de Poitiers", "operator": "Elsan", "operator:type": "private", "operator:wikidata": "Q48747106", "operator:wikipedia": "fr:Elsan", "phone": "+33 5 49 61 70 00", "ref:FR:FINESS": "860010321", "ref:FR:NAF": "8610Z", "ref:FR:SIREN": "342977683", "ref:FR:SIRET": "34297768300024", "source": "cadastre-dgi-fr source : Direction Générale des Impôts - Cadastre. Mise à jour : 2010", "type:FR:FINESS": "365", "website": "http://www.polycliniquepoitiers.fr/fr/"}}, {"name": "Centre de Soins de Suite et de Réadaptation La Colline Ensoleillée", "latitude": 46.7733844, "longitude": 0.8039628, "source": "osm", "_tags": {"amenity": "hospital", "healthcare": "hospital", "name": "Centre de Soins de Suite et de Réadaptation La Colline Ensoleillée", "operator": "UGECAM", "ref:FR:FINESS": "860780436", "type:FR:FINESS": "109"}}, {"name": "Centre Hospitalier Jean Pagès", "latitude": 47.3946711, "longitude": 0.5535611, "source": "osm", "_tags": {"addr:city": "Luynes", "addr:postcode": "37230", "addr:street": "Avenue du Clos Mignot", "amenity": "hospital", "building": "hospital", "emergency": "no", "healthcare": "hospital", "name": "Centre Hospitalier Jean Pagès", "ref:FR:FINESS": "370001109", "source": "Le ministère des solidarités et de la santé - 03/2019", "type": "multipolygon", "type:FR:FINESS": "355"}}, {"name": "EMPE", "latitude": 46.5521923, "longitude": 0.3956426, "source": "osm", "_tags": {"amenity": "hospital", "emergency": "no", "healthcare": "hospital", "healthcare:speciality": "psychiatry", "name": "EMPE", "operator": "Centre Hospitalier Henri Laborit", "operator:type": "public", "source": "cadastre-dgi-fr source : Direction Générale des Impôts - Cadastre. Mise à jour : 2010", "type": "multipolygon", "website": "https://www.ch-laborit.fr", "wheelchair": "yes"}}, {"name": "Pavillon Toulouse", "latitude": 46.5528539, "longitude": 0.3941037, "source": "osm", "_tags": {"amenity": "social_facility", "building": "hospital", "emergency": "no", "healthcare": "hospital", "healthcare:speciality": "psychiatry", "name": "Pavillon Toulouse", "operator": "Centre Hospitalier Henri Laborit", "operator:type": "public", "phone": "+33 5 49 44 57 57", "social_facility": "nursing_home", "social_facility:for": "mental_health", "source": "cadastre-dgi-fr source : Direction Générale des Impôts - Cadastre. Mise à jour : 2020", "type": "multipolygon", "wheelchair": "yes"}}, {"name": "Clinique du Domaine de Vontes", "latitude": 47.2779903, "longitude": 0.8010302, "source": "osm", "_tags": {"addr:city": "Esvres", "addr:housename": "Clinique du Domaine de Vontes", "addr:postcode": "37320", "addr:street": "Clinique du Domaine de Vontes", "amenity": "hospital", "building": "yes", "healthcare": "hospital", "name": "Clinique du Domaine de Vontes", "opening_hours": "Mo 08:30-13:00, 13:30-18:45; Tu-Sa 08:30-13:00, 13:45-19:15; Su 09:00-13:00, 14:00-18:45", "ref:FR:FINESS": "370000119", "ref:FR:SIRET": "32407644700014", "type": "multipolygon", "type:FR:FINESS": "161"}}]