[{"name": "Polyclinique de l'Atlantique", "latitude": 47.2268805, "longitude": -1.6107852, "source": "osm", "_tags": {"alt_name": "Santé Atlantique", "amenity": "hospital", "healthcare": "hospital", "name": "Polyclinique de l'Atlantique", "name:br": "Liesklinikenn an Atlanteg", "ref:FR:FINESS": "440033819", "source:name:br": "proper translation", "type:FR:FINESS": "365"}}, {"name": "I.R.M. de l'Atlantique", "latitude": 47.226012, "longitude": -1.6115859, "source": "osm", "_tags": {"amenity": "hospital", "healthcare": "hospital", "name": "I.R.M. de l'Atlantique", "name:br": "L.D.M an Atlanteg", "source:name:br": "proper translation"}}, {"name": "Hôpital du Loroux-Bottereau", "latitude": 47.2435903, "longitude": -1.3583349, "source": "osm", "_tags": {"addr:city": "Le Loroux-Bottereau", "addr:housenumber": "51", "addr:postcode": "44430", "addr:street": "Rue de la Loire", "amenity": "hospital", "name": "Hôpital du Loroux-Bottereau", "name:br": "Ospital Lavreer-Botorel", "ref:FR:FINESS": "440000552", "source": "http://etablissements.fhf.fr/annuaire/hopital-site.php?id_etab=1494", "type:FR:FINESS": "106", "wikidata": "Q92062946"}}, {"name": "Clinique Chirurgicale Porte Océane", "latitude": 46.5152343, "longitude": -1.7494534, "source": "osm", "_tags": {"addr:street": "Rue Jacques Monod", "amenity": "hospital", "email": "cliniqueporteoceane@sa3h.fr", "fax": "+33 2 51 21 01 13", "healthcare": "hospital", "name": "Clinique Chirurgicale Porte Océane", "operator:type": "private", "phone": "+33 2 51 21 15 15", "ref:FR:FINESS": "850000134", "type:FR:FINESS": "365", "website": "http://www.clinique-porte-oceane.fr"}}, {"name": "Le Tourville", "latitude": 47.2100405, "longitude": -1.5581837, "source": "osm", "_tags": {"amenity": "hospital", "check_date": "2024-04-15", "contact:city": "Nantes", "contact:housenumber": "5", "contact:phone": "+33 2 40 08 33 33", "contact:postcode": "44000", "contact:street": "Rue du Professeur Yves Boquien", "contact:website": "https://www.chu-nantes.fr/le-tourville--85343.kjsp", "healthcare": "hospital", "name": "Le Tourville", "wheelchair": "yes"}}, {"name": "Institut de la main", "latitude": 47.2237962, "longitude": -1.6126809, "source": "osm", "_tags": {"alt_name": "Clinique de la main", "amenity": "hospital", "check_date": "2024-04-07", "contact:phone": "+33 251 848 884", "contact:website": "http://www.clinique-main-nantes.org", "emergency": "yes", "healthcare": "hospital", "name": "Institut de la main", "operator": "Elsan", "operator:type": "private", "operator:wikidata": "Q48747106", "operator:wikipedia": "fr:Elsan", "wheelchair": "yes"}}, {"name": "Clinique Bretéché", "latitude": 47.2260508, "longitude": -1.5466268, "source": "osm", "_tags": {"amenity": "clinic", "contact:housenumber": "3", "contact:street": "Rue de la Béraudière", "email": "contact@clinique-breteche.fr", "fax": "+33 2 40 37 96 61", "healthcare": "hospital", "name": "Clinique Bretéché", "name:br": "Klinikenn Bretech", "phone": "+33 8 90 71 07 11", "ref:FR:FINESS": "440000412", "ref:FR:NAF": "86.10Z", "ref:FR:SIREN": "866800675", "ref:FR:SIRET": "86680067500021", "source": "INSEE - 2025-08", "source:name:br": "proper translation", "survey:date": "2022-06-11", "website": "https://www.clinique-breteche.fr/"}}, {"name": "Centre du Voyage International", "latitude": 47.2100776, "longitude": -1.5581271, "source": "osm", "_tags": {"addr:housenumber": "5", "addr:street": "Rue du Professeur Yves Boquien", "amenity": "hospital", "check_date": "2024-04-15", "healthcare": "hospital", "name": "Centre du Voyage International", "website": "https://www.chu-nantes.fr/cvi", "wheelchair": "yes"}}, {"name": "Hall santé", "latitude": 47.1973697, "longitude": -1.5382042, "source": "osm", "_tags": {"addr:city": "Nantes", "addr:postcode": "44200", "addr:street": "Rue Saint-Jacques", "amenity": "hospital", "healthcare": "hospital", "healthcare:speciality": "promotion_&_prévention_de_la_santé", "name": "Hall santé", "name:br": "Hall yec'hed", "website": "https://www.chu-nantes.fr/hallsante", "wheelchair": "yes"}}, {"name": "Centre de Convalescence Mutualiste", "latitude": 47.1916512, "longitude": -1.5012899, "source": "osm", "_tags": {"amenity": "hospital", "emergency": "no", "healthcare": "hospital", "name": "Centre de Convalescence Mutualiste", "name:br": "Kreizenn-bareiñ Kenwarez", "ref:FR:FINESS": "440000693", "source:name:br": "proper translation", "type:FR:FINESS": "109"}}, {"name": "C.H.U Saint-Jacques", "latitude": 47.1979147, "longitude": -1.5364717, "source": "osm", "_tags": {"amenity": "hospital", "healthcare": "hospital", "heritage": "3", "heritage:operator": "mhs", "mhs:inscription_date": "1997-04-24", "name": "C.H.U Saint-Jacques", "name:br": "P.O.S. Sant-Jakez", "ref:FR:FINESS": "440003291", "ref:mhs": "PA44000012", "source": "Le ministère des solidarités et de la santé - 03/2019", "source:heritage": "Ministère de la Culture - 06/2019", "source:name:br": "proper translation", "wikidata": "Q3145209", "wikipedia": "fr:Hôpital Saint-Jacques de Nantes"}}, {"name": "Hôpital Nord Guillaume et René Laennec", "latitude": 47.236581, "longitude": -1.6388665, "source": "osm", "_tags": {"addr:city": "Nantes Cedex 1", "addr:postcode": "44093", "addr:street": "Bd professeur Jacques-Monod - Saint-Herblain", "alt_name": "Hôpital Nord Laennec", "amenity": "hospital", "emergency": "no", "healthcare": "hospital", "name": "Hôpital Nord Guillaume et René Laennec", "operator": "établissement du CHU de Nantes", "phone": "+33 3 32 08 33 33", "ref:FR:FINESS": "440017598", "source": "CHU de Nantes", "type:FR:FINESS": "101", "website": "https://www.chu-nantes.fr/", "wikidata": "Q3145161"}}, {"name": "Hopital intercommunal Sèvre et Loire", "latitude": 47.1783303, "longitude": -1.493336, "source": "osm", "_tags": {"amenity": "hospital", "building": "yes", "healthcare": "hospital", "name": "Hopital intercommunal Sèvre et Loire", "ref:FR:FINESS": "440000883", "source": "cadastre-dgi-fr source : Direction Générale des Impôts - Cadastre. Mise à jour : 2010", "wikidata": "Q92062878"}}, {"name": "Hôpital Bellier", "latitude": 47.2223621, "longitude": -1.523168, "source": "osm", "_tags": {"amenity": "hospital", "building": "yes", "check_date": "2025-01-13", "healthcare": "hospital", "name": "Hôpital Bellier", "name:br": "Ospital Bellier", "name:etymology:wikidata": "Q101078057", "ref:FR:FINESS": "440000453", "source": "cadastre-dgi-fr source : Direction Générale des Impôts - Cadastre. Mise à jour : 2010", "source:name:br": "proper translation", "wikidata": "Q3145136"}}, {"name": "Centre Hospitalier Georges Daumezon", "latitude": 47.1770665, "longitude": -1.5602303, "source": "osm", "_tags": {"addr:city": "REZÉ", "addr:housenumber": "24", "addr:postcode": "44400", "addr:street": "Rue des Chalonnières", "building": "yes", "healthcare": "hospital", "healthcare:speciality": "psychiatry", "name": "Centre Hospitalier Georges Daumezon", "phone": "+33 2 40 75 95 38", "ref:FR:NAF": "86.10Z", "ref:FR:SIREN": "264400128", "ref:FR:SIRET": "26440012800023", "source": "cadastre-dgi-fr source : Direction Générale des Impôts - Cadastre. Mise à jour : 2010", "website": "www.ch-gdaumezon.fr"}}, {"name": "C.H.S Georges Mazurelle", "latitude": 46.647586, "longitude": -1.4296711, "source": "osm", "_tags": {"amenity": "hospital", "healthcare": "hospital", "name": "C.H.S Georges Mazurelle", "ref:FR:FINESS": "850000258", "type:FR:FINESS": "292"}}, {"name": "Institut de cancérologie de l'ouest", "latitude": 47.2374225, "longitude": -1.6377805, "source": "osm", "_tags": {"amenity": "hospital", "building": "yes", "healthcare": "hospital", "name": "Institut de cancérologie de l'ouest", "ref:FR:FINESS": "440001113", "short_name": "ICO", "source": "cadastre-dgi-fr source : Direction Générale des Impôts - Cadastre. Mise à jour : 2011", "type:FR:FINESS": "131", "wikidata": "Q91994490"}}, {"name": "Hôpital Local Pierre Delaroche", "latitude": 47.0919169, "longitude": -1.291499, "source": "osm", "_tags": {"amenity": "hospital", "healthcare": "hospital", "name": "Hôpital Local Pierre Delaroche", "ref:FR:FINESS": "440001964", "source": "cadastre-dgi-fr source : Direction Générale des Impôts - Cadastre. Mise à jour : 2011", "type:FR:FINESS": "106", "wikidata": "Q92063394"}}, {"name": "Hôpital de jour Le Pont du Cens", "latitude": 47.2458192, "longitude": -1.5759543, "source": "osm", "_tags": {"amenity": "hospital", "healthcare": "hospital", "name": "Hôpital de jour Le Pont du Cens", "name:br": "Ospital-deiz Pont Kent", "ref:FR:FINESS": "440044394", "source": "cadastre-dgi-fr source : Direction Générale des Impôts - Cadastre. Mise à jour : 2013", "source:name:br": "proper translation"}}, {"name": "Centre Hospitalier de Savenay", "latitude": 47.3560363, "longitude": -1.9386572, "source": "osm", "_tags": {"addr:housenumber": "13", "amenity": "hospital", "healthcare": "hospital", "name": "Centre Hospitalier de Savenay", "name:br": "Pennospital Savenneg", "ref:FR:FINESS": "440001295", "source": "Le ministère des solidarités et de la santé - 03/2019", "source:name:br": "proper translation", "wikidata": "Q92063180"}}, {"name": "Centre Hospitalier Côte de Lumière", "latitude": 46.5149052, "longitude": -1.7517761, "source": "osm", "_tags": {"addr:city": "Olonne-sur-Mer", "addr:housenumber": "4", "addr:street": "Rue Jacques Monod", "alt_name": "Centre Hospitalier Jacques Monod", "amenity": "hospital", "emergency": "yes", "fax": "+33 2 51 21 85 60", "healthcare": "hospital", "name": "Centre Hospitalier Côte de Lumière", "operator:type": "public", "phone": "+33 2 51 21 85 85", "ref:FR:FINESS": "850000241", "ref:FR:NAF": "8610Z", "ref:FR:SIREN": "268500303", "ref:FR:SIRET": "26850030300212", "source": "INSEE - 2024-11", "type:FR:FINESS": "355", "website": "https://www.ch-cotedelumiere.fr/lrportal/"}}, {"name": "Centre Hospitalier Georges Daumézon", "latitude": 47.1797978, "longitude": -1.5789142, "source": "osm", "_tags": {"amenity": "hospital", "barrier": "fence", "healthcare": "hospital", "name": "Centre Hospitalier Georges Daumézon", "name:etymology:wikidata": "Q3102566", "ref:FR:FINESS": "440046001", "type:FR:FINESS": "292"}}, {"name": "Centre hospitalier Loire Vendée Océan", "latitude": 46.9954038, "longitude": -1.8209071, "source": "osm", "_tags": {"amenity": "hospital", "fax": "+33 2 40 31 46 74", "healthcare": "hospital", "name": "Centre hospitalier Loire Vendée Océan", "operator": "Centre hospitalier Loire Vendée Océan", "operator:type": "public", "phone": "+33 2 40 78 44 00", "ref:FR:FINESS": "440000560", "type:FR:FINESS": "355", "wheelchair": "yes"}}, {"name": "La Chimotaie", "latitude": 47.0624505, "longitude": -1.2316559, "source": "osm", "_tags": {"amenity": "hospital", "healthcare": "hospital", "name": "La Chimotaie", "operator": "MGEN", "ref:FR:FANTOIR": "85076B040T", "ref:FR:FINESS": "850000399", "type:FR:FINESS": "109", "website": "https://proximite.mgen.fr/207-etablissement-ssr-de-la-chimotaie"}}, {"name": "Centre Hospitalier Départemental - La-Roche-sur-Yon", "latitude": 46.6683138, "longitude": -1.4137027, "source": "osm", "_tags": {"alt_name": "Centre Hospitalier des Oudairies", "amenity": "hospital", "email": "dg@chd-vendee.fr", "fax": "+33 2 51 44 60 64", "healthcare": "hospital", "healthcare:speciality": "intensive", "name": "Centre Hospitalier Départemental - La-Roche-sur-Yon", "operator:type": "public", "phone": "+33 2 51 44 61 61", "ref:FR:FINESS": "850000142", "type:FR:FINESS": "355", "website": "https://www.chd-vendee.fr/"}}, {"name": "Clinique du Parc", "latitude": 47.2272407, "longitude": -1.5614944, "source": "osm", "_tags": {"amenity": "hospital", "contact:fax": "+33 2 40 14 33 02", "contact:phone": "+33 2 51 86 07 00", "contact:website": "http://clinique-du-parc.ramsaygds.fr", "emergency": "no", "healthcare": "hospital", "name": "Clinique du Parc", "name:br": "Klinikenn ar Park", "operator": "Ramsay Santé", "operator:wikidata": "Q3123085", "ref:FR:FINESS": "440000800", "ref:FR:SIRET": "31097502400012", "source:name:br": "proper translation", "start_date": "1947-03-24", "type:FR:FINESS": "161"}}, {"name": "Centre Hospitalier Départemental - Site de Luçon", "latitude": 46.4505788, "longitude": -1.1722113, "source": "osm", "_tags": {"amenity": "hospital", "email": "direction.lucon@chd-vendee.fr", "emergency": "yes", "fax": "+33 2 51 27 98 23", "name": "Centre Hospitalier Départemental - Site de Luçon", "operator:type": "public", "phone": "+33 2 51 28 33 33", "ref:FR:FINESS": "850000209", "type:FR:FINESS": "355", "website": "https://www.chd-vendee.fr/index.php?id_site=1"}}, {"name": "Hôtel Dieu", "latitude": 47.2104378, "longitude": -1.553398, "source": "osm", "_tags": {"addr:postcode": "44093", "addr:street": "Boulevard Jean Monnet", "amenity": "hospital", "emergency": "yes", "healthcare": "hospital", "image": "https://upload.wikimedia.org/wikipedia/commons/e/ea/H%C3%B4tel-Dieu_Nantes.JPG", "name": "Hôtel Dieu", "name:br": "Ostel Doue", "name:etymology:wikidata": "Q3145385", "operator": "Centre Hospitalier Universitaire de Nantes", "operator:type": "public", "phone": "+33 2 40 08 33 33", "ref:FR:FINESS": "440000271", "source": "cadastre-dgi-fr source : Direction Générale des Impôts - Cadastre. Mise à jour : 2017 + Bing", "source:name:br": "proper translation", "type:FR:FINESS": "101", "website": "https://www.chu-nantes.fr/", "wikidata": "Q2945767"}}, {"name": "Centre Hospitalier Francis Robert", "latitude": 47.3742632, "longitude": -1.1720355, "source": "osm", "_tags": {"amenity": "hospital", "emergency": "yes", "fax": "+33 2 40 09 44 15", "healthcare": "hospital", "name": "Centre Hospitalier Francis Robert", "name:br": "Pennospital Francis Robert", "operator:type": "public", "phone": "+33 2 40 09 44 00", "ref:FR:FANTOIR": "44003B052G", "ref:FR:FINESS": "440000396", "type:FR:FINESS": "355", "website": "http://www.ch-ancenis.fr/"}}, {"name": "Centre Hospitalier Loire-Vendée-Océan - Site de Challans", "latitude": 46.8466799, "longitude": -1.8729544, "source": "osm", "_tags": {"amenity": "hospital", "emergency": "yes", "fax": "+33 2 51 35 69 11", "healthcare": "hospital", "name": "Centre Hospitalier Loire-Vendée-Océan - Site de Challans", "operator": "Centre Hospitalier Loire-Vendée-Océan", "operator:type": "public", "phone": "+33 2 51 49 50 00", "ref:FR:FINESS": "850000175", "source": "cadastre-dgi-fr source : Direction Générale des Impôts - Cadastre. Mise à jour : 2014", "type:FR:FINESS": "355", "website": "http://www.ch-lvo.fr/"}}, {"name": "Centre Hospitalier Départemental - Site de Montaigu", "latitude": 46.9689315, "longitude": -1.3105253, "source": "osm", "_tags": {"amenity": "hospital", "email": "direction.montaigu@chd-vendee.fr", "emergency": "yes", "fax": "+33 2 51 45 40 12", "healthcare": "hospital", "name": "Centre Hospitalier Départemental - Site de Montaigu", "operator:type": "public", "phone": "+33 2 51 45 40 00", "ref:FR:FINESS": "850000225", "type:FR:FINESS": "355", "website": "https://www.chd-vendee.fr/index.php?id_page=235&id_site=1"}}, {"name": "Centre Hospitalier Georges Daumezon", "latitude": 47.1771714, "longitude": -1.5601718, "source": "osm", "_tags": {"addr:city": "REZÉ", "addr:housenumber": "24", "addr:postcode": "44400", "addr:street": "Rue des Chalonnières", "amenity": "hospital", "emergency": "no", "healthcare": "hospital", "healthcare:speciality": "psychiatry", "name": "Centre Hospitalier Georges Daumezon", "name:br": "Pennospital Georges Daumezon", "name:etymology:wikidata": "Q3102566", "phone": "+33 2 40 75 95 38", "source:name:br": "proper translation", "website": "http://ch-gdaumezon.fr"}}, {"name": "Centre Hospitalier Loire Vendée", "latitude": 46.6961685, "longitude": -1.9227093, "source": "osm", "_tags": {"amenity": "hospital", "fax": "+33251551020", "healthcare": "hospital", "name": "Centre Hospitalier Loire Vendée", "phone": "+33251608300", "ref:FR:FINESS": "850000233", "ref:FR:SIRET": "26850445300278", "source": "Le ministère des solidarités et de la santé - 2022-07", "type:FR:FINESS": "355"}}, {"name": "Clinique Saint-Charles", "latitude": 46.6579517, "longitude": -1.4145491, "source": "osm", "_tags": {"amenity": "clinic", "emergency": "yes", "fax": "+33251444510", "healthcare": "hospital", "name": "Clinique Saint-Charles", "operator:type": "private", "phone": "+33251444444", "ref:FR:FINESS": "850000118", "ref:FR:SIRET": "33836135500021", "source": "Le ministère des solidarités et de la santé - 2022-07", "type:FR:FINESS": "365"}}, {"name": "La Tourmaline UGECAM", "latitude": 47.2204143, "longitude": -1.6333349, "source": "osm", "_tags": {"amenity": "hospital", "healthcare:speciality": "physiatry", "name": "La Tourmaline UGECAM", "type:FR:FINESS": "109"}}, {"name": "ESEAN", "latitude": 47.185727, "longitude": -1.5244535, "source": "osm", "_tags": {"amenity": "hospital", "building": "hospital", "building:levels": "2", "emergency": "no", "healthcare": "hospital", "name": "ESEAN", "operator": "APF France Handicap", "phone": "+33 240343884", "ref:FR:FINESS": "440043123", "ref:FR:NAF": "8610Z", "ref:FR:SIRET": "77568873211142", "roof:shape": "flat", "source": "cadastre-dgi-fr source : Direction Générale des Finances Publiques - Cadastre. Mise à jour : 2015", "type": "multipolygon", "type:FR:FINESS": "109", "website": "https://www.esean.fr/"}}, {"name": "Clinique Jules Verne", "latitude": 47.2485417, "longitude": -1.5193989, "source": "osm", "_tags": {"addr:housenumber": "2,4", "addr:street": "Route de Paris", "amenity": "hospital", "building": "hospital", "healthcare": "hospital", "name": "Clinique Jules Verne", "name:br": "Klinikenn Jules Verne", "name:etymology:wikidata": "Q33977", "ref:FR:FINESS": "440029338", "source": "cadastre-dgi-fr source : Direction Générale des Impôts - Cadastre;mise à jour : 2008", "source:name:br": "proper translation", "type": "multipolygon", "type:FR:FINESS": "365", "wheelchair": "yes"}}, {"name": "Hôpital privé du Confluent", "latitude": 47.195248, "longitude": -1.5475509, "source": "osm", "_tags": {"alt_name": "Nouvelles Cliniques Nantaises", "amenity": "hospital", "emergency": "yes", "fax": "+33 2 28 25 52 30", "healthcare": "hospital", "name": "Hôpital privé du Confluent", "name:br": "Ospital Prevez Le Confluent", "operator": "Groupe Confluent", "operator:type": "private", "phone": "+33 2 28 25 50 00", "ref:FR:FINESS": "440041580", "source:name:br": "proper translation", "type": "multipolygon", "type:FR:FINESS": "365", "website": "http://www.groupeconfluent.fr/fr/", "wheelchair": "no", "wikidata": "Q50036576"}}]