[{"name": "Landeskrankenhaus Laas", "latitude": 46.6995002, "longitude": 12.9887397, "source": "osm", "_tags": {"amenity": "hospital", "healthcare": "hospital", "name": "Landeskrankenhaus Laas"}}, {"name": "", "latitude": 47.3854043, "longitude": 13.4671278, "source": "osm", "_tags": {"amenity": "hospital", "healthcare": "hospital"}}, {"name": "Diakonissenkrankenhaus Schladming", "latitude": 47.3919391, "longitude": 13.6765402, "source": "osm", "_tags": {"addr:city": "Schladming", "addr:country": "AT", "addr:housenumber": "777", "addr:postcode": "8970", "addr:street": "Salzburger Straße", "amenity": "hospital", "emergency": "yes", "healthcare": "hospital", "name": "Diakonissenkrankenhaus Schladming", "operator": "Diakonie"}}, {"name": "Poliambulatorio", "latitude": 46.5069032, "longitude": 13.3023754, "source": "osm", "_tags": {"amenity": "hospital", "building": "hospital", "height": "8 m", "it:fvg:ctrn:code": "4AED", "it:fvg:ctrn:revision": "000", "name": "Poliambulatorio"}}, {"name": "Landesklinik St. Veit", "latitude": 47.3322531, "longitude": 13.1609612, "source": "osm", "_tags": {"amenity": "hospital", "healthcare": "hospital", "name": "Landesklinik St. Veit", "wikidata": "Q78197790", "wikipedia": "de:Landesklinik Sankt Veit im Pongau"}}, {"name": "Klinik Diakonissen Schladming", "latitude": 47.3920662, "longitude": 13.6763214, "source": "osm", "_tags": {"addr:city": "Schladming", "addr:country": "AT", "addr:housenumber": "777", "addr:postcode": "8970", "addr:street": "Salzburger Straße", "amenity": "hospital", "contact:email": "bewerbung.schladming@diakonissen.at", "contact:phone": "+43 3687 2020 0", "contact:website": "http://www.schladming.diakonissen.at/", "emergency": "yes", "healthcare": "hospital", "healthcare:speciality": "emergency", "name": "Klinik Diakonissen Schladming", "operator": "Diakoniewerk", "operator:type": "private", "source": "GeoImage.at High-Res", "toilets:wheelchair": "yes", "wheelchair": "yes"}}, {"name": "Landesklinik Tamsweg", "latitude": 47.129165, "longitude": 13.8093774, "source": "osm", "_tags": {"addr:city": "Tamsweg", "addr:country": "AT", "addr:housenumber": "7", "addr:postcode": "5580", "addr:street": "Bahnhofstraße", "amenity": "hospital", "at_bev:addr_date": "2018-04-02", "building": "yes", "emergency": "yes", "healthcare": "hospital", "healthcare:speciality": "emergency", "layer": "1", "name": "Landesklinik Tamsweg", "operator": "Salzburger Landeskliniken - Universitätsklinikum Salzburg", "wheelchair": "yes"}}, {"name": "Krankenhaus Spittal/Drau", "latitude": 46.8019631, "longitude": 13.4911705, "source": "osm", "_tags": {"addr:city": "Spittal an der Drau", "addr:country": "AT", "addr:housenumber": "1", "addr:postcode": "9800", "addr:street": "Billrothstraße", "amenity": "hospital", "contact:phone": "+43 4762 622-0", "healthcare": "hospital", "healthcare:speciality": "emergency", "name": "Krankenhaus Spittal/Drau", "name:en": "Hospital Spittal/Drau", "website": "https://www.khspittal.com", "wheelchair": "yes"}}, {"name": "Landeskrankenhaus Villach", "latitude": 46.6156342, "longitude": 13.8575407, "source": "osm", "_tags": {"addr:city": "Villach", "addr:housenumber": "43", "addr:postcode": "9500", "addr:street": "Nikolaigasse", "amenity": "hospital", "emergency": "yes", "health_specialty": "stroke_unit", "healthcare": "hospital", "healthcare:speciality": "emergency", "name": "Landeskrankenhaus Villach", "operator": "KABEG", "operator:type": "public", "wikidata": "Q59385756", "wikipedia": "de:Landeskrankenhaus Villach"}}, {"name": "Privatklinik Villach", "latitude": 46.5941478, "longitude": 13.8263497, "source": "osm", "_tags": {"addr:city": "Villach", "addr:housenumber": "4", "addr:postcode": "9504", "addr:street": "Doktor-Walter-Hochsteiner-Straße", "amenity": "hospital", "healthcare": "hospital", "name": "Privatklinik Villach"}}, {"name": "", "latitude": 46.5029924, "longitude": 13.5763771, "source": "osm", "_tags": {"amenity": "hospital", "healthcare": "hospital"}}, {"name": "Kardinal Schwarzenberg Klinikum", "latitude": 47.3216487, "longitude": 13.15368, "source": "osm", "_tags": {"addr:city": "Schwarzach im Pongau", "addr:country": "AT", "addr:postcode": "5620", "addr:street": "Kardinal Schwarzenbergplatz", "amenity": "hospital", "building": "yes", "contact:fax": "+43 6415 6766 2207", "contact:phone": "+43 6415 7101", "contact:website": "www.kh-schwarzach.at", "health_specialty": "stroke_unit", "healthcare": "hospital", "healthcare:speciality": "emergency;trauma", "layer": "1", "name": "Kardinal Schwarzenberg Klinikum", "source": "geoimage.at", "type": "multipolygon", "website": "https://www.kh-schwarzach.at/", "wikidata": "Q99943055"}}]