[{"name": "Praxis Dr. Tolouei", "latitude": 46.7878415, "longitude": 8.1604844, "source": "osm", "_tags": {"addr:city": "Lungern", "addr:country": "CH", "addr:housenumber": "69", "addr:postcode": "6078", "addr:street": "Brünigstrasse", "amenity": "doctors", "emergency": "no", "healthcare": "hospital", "healthcare:speciality": "general", "name": "Praxis Dr. Tolouei", "operator": "Mir Tolouei M. Reza", "phone": "+41 41 678 18 69", "wheelchair": "yes"}}, {"name": "Notfallstation Spital Männedorf", "latitude": 47.250619, "longitude": 8.697132, "source": "osm", "_tags": {"amenity": "hospital", "email": "notfall@spitalmaennedorf.ch", "emergency_ward_entrance": "all", "entrance": "yes", "name": "Notfallstation Spital Männedorf", "operator": "Spital Männedorf", "phone": "+41 44 922 25 30", "website": "https://www.spitalmaennedorf.ch/notfall/"}}, {"name": "TellKlinik", "latitude": 47.0106466, "longitude": 8.6435199, "source": "osm", "_tags": {"addr:city": "Ibach", "addr:housenumber": "62", "addr:postcode": "6438", "addr:street": "Gotthardstrasse", "amenity": "hospital", "email": "tellklinik@hin.ch", "fax": "+41 41 818 68 69", "healthcare": "hospital", "healthcare:speciality": "orthopädische_chirurgie;orthopaedics;trauma;paediatric_surgery;kinder-orthopädie;schmerztherapie;rückentherapie", "name": "TellKlinik", "operator": "Tell-Klinik AG", "operator:type": "private", "phone": "+41 41 818 68 68", "website": "https://www.tellklinik.ch"}}, {"name": "Klinik für Mund-, Kiefer- und Gesichtschirurgie", "latitude": 47.389129, "longitude": 8.0587386, "source": "osm", "_tags": {"amenity": "clinic", "healthcare": "hospital", "healthcare:speciality": "dental_oral_maxillo_facial_surgery", "name": "Klinik für Mund-, Kiefer- und Gesichtschirurgie", "phone": "+41 62 838 45 08", "website": "https://www.ksa.ch/de/kantonsspital-aarau/aufenthalt-und-besuch/fachbereiche/mkg-mund-kiefer-gesichtschirurgie"}}, {"name": "", "latitude": 47.2463476, "longitude": 8.1898328, "source": "osm", "_tags": {"amenity": "hospital", "healthcare": "hospital"}}, {"name": "GZO Spital Wetzikon", "latitude": 47.3214755, "longitude": 8.8014015, "source": "osm", "_tags": {"addr:city": "Wetzikon", "addr:housenumber": "48", "addr:postcode": "8620", "addr:street": "Spitalstrasse", "amenity": "hospital", "healthcare": "hospital", "healthcare:speciality": "intensive", "name": "GZO Spital Wetzikon", "toilets:wheelchair": "yes", "website": "https://www.gzo.ch/", "wheelchair": "yes", "wikidata": "Q33121500"}}, {"name": "Luzerner Kantonsspital", "latitude": 47.0585605, "longitude": 8.2969782, "source": "osm", "_tags": {"addr:city": "Luzern 16", "addr:postcode": "6000", "addr:street": "Spitalstrasse", "alt_name": "Kantonsspital Luzern", "amenity": "hospital", "emergency": "yes", "healthcare": "hospital", "name": "Luzerner Kantonsspital", "operator": "Luzerner Kantonsspital", "operator:type": "government", "phone": "+41 41 205 11 11", "short_name": "LUKS", "website": "https://www.luks.ch", "wikidata": "Q1878385", "wikipedia": "de:Luzerner Kantonsspital"}}, {"name": "Fachspital Sune-Egge", "latitude": 47.4149478, "longitude": 8.5174371, "source": "osm", "_tags": {"addr:city": "Zürich", "addr:country": "CH", "addr:housenumber": "11", "addr:postcode": "8046", "addr:street": "Riedenhaldenstrasse", "alt_name": "Sozialwerk Pfarrer Sieber", "amenity": "hospital", "building": "yes", "building:levels": "4", "email": "info@swsieber.ch", "name": "Fachspital Sune-Egge", "opening_hours": "Mo-Fr 08:00-17:00; Sa 10:00-16:00", "operator": "Sozialwerk Pfarrer Sieber", "phone": "+41 43 336 50 80", "social_facility": "outreach", "website": "https://www.swsieber.ch/"}}, {"name": "Kantonsspital Aarau", "latitude": 47.3883663, "longitude": 8.0602927, "source": "osm", "_tags": {"addr:city": "Aarau", "addr:housenumber": "25", "addr:postcode": "5001", "addr:street": "Tellstrasse", "amenity": "hospital", "emergency": "yes", "healthcare": "hospital", "name": "Kantonsspital Aarau", "phone": "+41 62 838 41 41", "short_name": "KSA", "website": "https://www.ksa.ch/", "wikidata": "Q1728146", "wikimedia_commons": "File:2018-Aarau-Kantonsspital-Verwaltung.jpg", "wikipedia": "de:Kantonsspital Aarau"}}, {"name": "Hirslanden Klinik Aarau", "latitude": 47.3907026, "longitude": 8.04256, "source": "osm", "_tags": {"amenity": "hospital", "emergency": "yes", "healthcare": "hospital", "name": "Hirslanden Klinik Aarau", "phone": "+41 62 8367000", "toilets:wheelchair": "yes", "website": "https://www.hirslanden.ch/", "wheelchair": "yes", "wikidata": "Q17123639"}}, {"name": "Haus 31 (Spitalzentrum)", "latitude": 47.059224, "longitude": 8.2968884, "source": "osm", "_tags": {"addr:city": "Luzern 16", "addr:housenumber": "31", "addr:postcode": "6000", "addr:street": "Spitalstrasse", "amenity": "hospital", "building": "hospital", "building:levels": "18", "height": "67", "name": "Haus 31 (Spitalzentrum)", "note": "Die offiziellen Gebäudenamen am Luzerner Kantonsspital sind \"Haus NN\" und werden so in allen Konversationen verwendet.", "roof:shape": "flat", "source": "guesswork, Bing"}}, {"name": "Hirslanden Herzzentrum", "latitude": 47.351893, "longitude": 8.5761561, "source": "osm", "_tags": {"addr:city": "Zürich", "addr:country": "CH", "addr:housenumber": "36", "addr:postcode": "8008", "addr:street": "Witellikerstrasse", "amenity": "hospital", "building": "yes", "email": "herzzentrum@herzzentrum.ch", "healthcare": "hospital", "name": "Hirslanden Herzzentrum", "phone": "+41 44 387 37 11", "website": "https://www.herzzentrum.ch/"}}, {"name": "Klinik Barmelweid", "latitude": 47.4211947, "longitude": 7.971805, "source": "osm", "_tags": {"addr:city": "Barmelweid", "addr:postcode": "5017", "addr:street": "Klinik Barmelweid", "amenity": "hospital", "emergency": "no", "name": "Klinik Barmelweid", "official_name": "Klinik und Pflegezentrum Barmelweid", "operator": "Klinik und Pflegezentrum Barmelweid", "place": "neighbourhood", "website": "https://www.barmelweid.ch/", "wheelchair": "yes", "wikidata": "Q1670503"}}, {"name": "Luzerner Kantonsspital Sursee", "latitude": 47.1682627, "longitude": 8.1173534, "source": "osm", "_tags": {"building": "hospital", "building:levels": "10", "healthcare": "hospital", "name": "Luzerner Kantonsspital Sursee", "roof:levels": "0", "roof:shape": "flat", "wheelchair": "yes"}}, {"name": "Privatklinik Hohenegg", "latitude": 47.2743619, "longitude": 8.6598389, "source": "osm", "_tags": {"addr:city": "Meilen", "addr:housenumber": "1", "addr:postcode": "8706", "addr:street": "Hohenegg", "amenity": "hospital", "emergency": "no", "healthcare": "hospital", "healthcare:speciality": "psychiatry;psychotherapy", "name": "Privatklinik Hohenegg", "website": "https://www.hohenegg.ch/", "wikidata": "Q18629951", "wikipedia": "de:Privatklinik Hohenegg"}}, {"name": "Spital Männedorf", "latitude": 47.2508784, "longitude": 8.6959614, "source": "osm", "_tags": {"addr:city": "Männedorf", "addr:country": "CH", "addr:housenumber": "10", "addr:postcode": "8708", "addr:street": "Asylstrasse", "amenity": "hospital", "contact:phone": "+41 44 922 22 11", "emergency": "yes", "healthcare": "hospital", "healthcare:speciality": "intensive", "name": "Spital Männedorf", "website": "https://www.spitalmaennedorf.ch/", "wikidata": "Q55503256", "wikipedia": "de:Spital Männedorf"}}, {"name": "Spital Zofingen", "latitude": 47.2964109, "longitude": 7.9470705, "source": "osm", "_tags": {"amenity": "hospital", "healthcare": "hospital", "name": "Spital Zofingen"}}, {"name": "See-Spital Horgen", "latitude": 47.2627145, "longitude": 8.5899964, "source": "osm", "_tags": {"addr:city": "Horgen", "addr:housenumber": "19", "addr:postcode": "8810", "addr:street": "Asylstrasse", "amenity": "hospital", "emergency": "yes", "healthcare": "hospital", "name": "See-Spital Horgen", "website": "https://www.see-spital.ch/"}}, {"name": "Spital Lachen", "latitude": 47.1889798, "longitude": 8.8593168, "source": "osm", "_tags": {"addr:city": "Lachen", "addr:housenumber": "41", "addr:postcode": "8853", "addr:street": "Oberdorfstrasse", "amenity": "hospital", "emergency": "yes", "healthcare": "hospital", "name": "Spital Lachen", "old_name": "Bezirksspital March", "website": "https://www.spital-lachen.ch/", "wikidata": "Q33121372"}}, {"name": "Spital Muri", "latitude": 47.277857, "longitude": 8.329881, "source": "osm", "_tags": {"addr:city": "Muri", "addr:housenumber": "144", "addr:postcode": "5630", "addr:street": "Spitalstrasse", "amenity": "hospital", "area": "yes", "contact:email": "info@spital-muri.ch", "contact:fax": "+41 56 675 11 43", "contact:phone": "+41 56 675 11 11", "contact:website": "www.spital-muri.ch", "healthcare": "hospital", "healthcare:speciality": "intensive", "name": "Spital Muri", "wikidata": "Q33121446"}}, {"name": "Spital Uster", "latitude": 47.3529244, "longitude": 8.7241311, "source": "osm", "_tags": {"addr:city": "Uster", "addr:housenumber": "42", "addr:postcode": "8610", "addr:street": "Brunnenstrasse", "amenity": "hospital", "check_date": "2025-03-02", "emergency": "yes", "healthcare": "hospital", "healthcare:speciality": "intensive", "name": "Spital Uster", "phone": "+41 44 911 11 11", "website": "https://www.spitaluster.ch", "wikidata": "Q30270431"}}, {"name": "Stadtspital Triemli", "latitude": 47.3664766, "longitude": 8.4974544, "source": "osm", "_tags": {"addr:city": "Zürich", "addr:country": "CH", "addr:housenumber": "497", "addr:postcode": "8063", "addr:street": "Birmensdorferstrasse", "amenity": "hospital", "emergency": "yes", "healthcare": "hospital", "healthcare:speciality": "intensive", "name": "Stadtspital Triemli", "operator": "Stadt Zürich, GUD", "phone": "+41 44 416 11 11", "website": "http://www.triemli.ch/", "wikidata": "Q1535635", "wikimedia_commons": "Category:Stadtspital Triemli", "wikipedia": "de:Stadtspital Triemli"}}, {"name": "Klinik Bethanien", "latitude": 47.3808225, "longitude": 8.5575122, "source": "osm", "_tags": {"addr:city": "Zürich", "addr:housenumber": "51", "addr:postcode": "8044", "addr:street": "Toblerstrasse", "amenity": "hospital", "email": "info@klinikbethanien.ch", "emergency": "no", "healthcare": "hospital", "name": "Klinik Bethanien", "operator": "Swiss Medical Network", "phone": "+41 43 268 70 70", "toilets:wheelchair": "yes", "website": "https://www.klinikbethanien.ch/", "wheelchair": "yes"}}, {"name": "Stadtspital Waid", "latitude": 47.3984054, "longitude": 8.5204274, "source": "osm", "_tags": {"addr:city": "Zürich", "addr:housenumber": "99", "addr:postcode": "8037", "addr:street": "Tièchestrasse", "amenity": "hospital", "healthcare": "hospital", "healthcare:speciality": "intensive", "name": "Stadtspital Waid", "name:tr": "Waid Şehir Hastanesi", "operator": "Stadt Zürich, GUD", "phone": "+41 44 366 22 11", "website": "http://www.waidspital.ch/", "wikidata": "Q1519815", "wikimedia_commons": "Category:Stadtspital Waid"}}, {"name": "Spital Schwyz", "latitude": 47.0156387, "longitude": 8.6596382, "source": "osm", "_tags": {"addr:city": "Schwyz", "addr:housenumber": "10", "addr:postcode": "6430", "addr:street": "Waldeggstrasse", "amenity": "hospital", "healthcare": "hospital", "healthcare:speciality": "intensive", "name": "Spital Schwyz", "phone": "+41 41 818 41 11", "website": "https://www.spital-schwyz.ch/startseite.html", "wheelchair": "limited"}}, {"name": "Spital und Gesundheitszentrum Einsiedeln", "latitude": 47.1307253, "longitude": 8.7398853, "source": "osm", "_tags": {"amenity": "hospital", "contact:email": "info@spital-einsiedeln.ch", "contact:phone": "+41 55 418 51 11", "contact:website": "https://www.spital-einsiedeln.ch", "name": "Spital und Gesundheitszentrum Einsiedeln", "wikidata": "Q15838825", "wikipedia": "de:Spital Einsiedeln"}}, {"name": "Universitätsspital Zürich", "latitude": 47.3777544, "longitude": 8.5507671, "source": "osm", "_tags": {"addr:city": "Zürich", "addr:country": "CH", "addr:housenumber": "100", "addr:postcode": "8091", "addr:street": "Rämistrasse", "alt_name": "USZ Campus;Universitätsspital Zürich Zentrum", "amenity": "hospital", "emergency": "yes", "healthcare": "hospital", "healthcare:speciality": "intensive", "int_ref": "USZ", "name": "Universitätsspital Zürich", "name:tr": "Zürih Üniversitesi Hastanesi", "phone": "+41 44 255 11 11", "short_name": "USZ", "website": "https://www.usz.ch/", "wheelchair": "yes", "wikidata": "Q450139", "wikimedia_commons": "Category:Universitätsspital Zürich", "wikipedia": "en:University Hospital of Zürich"}}, {"name": "Kinder-Reha Schweiz", "latitude": 47.2773326, "longitude": 8.466881, "source": "osm", "_tags": {"addr:city": "Affoltern am Albis", "addr:country": "CH", "addr:housenumber": "104", "addr:postcode": "8910", "addr:street": "Mühlebergstrasse", "amenity": "hospital", "check_date": "2023-05-20", "email": "rehab@kispi.uzh.ch", "fax": "+41 44 762 51 22", "healthcare": "rehabilitation", "loc_name": "Rehabilitationszentrum des Kinderspitals Zürich", "name": "Kinder-Reha Schweiz", "operator": "Kinderspital Zürich - Eleonorenstiftung", "phone": "+41 44 762 51 11", "website": "https://www.kispi.uzh.ch/rza/de/Seiten/default.aspx"}}, {"name": "Spital Limmattal", "latitude": 47.3935618, "longitude": 8.4304696, "source": "osm", "_tags": {"addr:city": "Schlieren", "addr:housenumber": "100", "addr:postcode": "8952", "addr:street": "Urdorferstrasse", "amenity": "hospital", "contact:phone": "+41 44 733 11 11", "healthcare": "hospital", "healthcare:speciality": "intensive", "name": "Spital Limmattal", "operator": "Spital Limmattal", "website": "https://www.spital-limmattal.ch/", "wikidata": "Q30260556"}}, {"name": "Psychiatriezentrum Uster Alterstagesklinik", "latitude": 47.3522233, "longitude": 8.7277794, "source": "osm", "_tags": {"addr:city": "Uster", "addr:housenumber": "30", "addr:postcode": "8610", "addr:street": "Asylstrasse", "amenity": "hospital", "healthcare": "hospital", "name": "Psychiatriezentrum Uster Alterstagesklinik", "phone": "+41 44 931 39 39", "website": "https://adressverzeichnis.sozialearbeit.zhaw.ch/Detail/Index/Clienia_Schloessli_AG_-_Psychiatriezentrum_Uster-Alterstagesklinik-Uster-2ba9eb04-bc44-e311-8b4f-005056a606f6"}}, {"name": "Spital Zollikerberg", "latitude": 47.3486971, "longitude": 8.5989214, "source": "osm", "_tags": {"addr:city": "Zollikerberg", "addr:country": "CH", "addr:housenumber": "20", "addr:postcode": "8125", "addr:street": "Trichtenhauserstrasse", "amenity": "hospital", "emergency": "yes", "healthcare": "hospital", "healthcare:speciality": "intensive", "name": "Spital Zollikerberg", "official_name": "Trichtenhauser Strasse", "phone": "+41 44 397 21 11", "website": "https://www.spitalzollikerberg.ch/", "wikidata": "Q30270433"}}, {"name": "Kantonsspital Nidwalden", "latitude": 46.9598812, "longitude": 8.3574082, "source": "osm", "_tags": {"addr:city": "Stans", "addr:housenumber": "19", "addr:postcode": "6370", "addr:street": "Ennetmooserstrasse", "amenity": "hospital", "emergency": "yes", "healthcare": "hospital", "healthcare:speciality": "intensive", "name": "Kantonsspital Nidwalden", "phone": "+41 41 618 18 18", "website": "http://www.ksnw.ch", "wikidata": "Q1728152"}}, {"name": "Luzerner Kantonsspital Wolhusen", "latitude": 47.0664718, "longitude": 8.0742143, "source": "osm", "_tags": {"addr:city": "Wolhusen", "addr:country": "CH", "addr:housenumber": "50", "addr:postcode": "6110", "addr:street": "Spitalstrasse", "amenity": "hospital", "emergency": "yes", "healthcare": "hospital", "name": "Luzerner Kantonsspital Wolhusen", "operator": "Luzerner Kantonsspital", "operator:type": "public", "phone": "+41 41 492 82 82", "short_name": "LUKS Wolhusen", "website": "https://www.luks.ch/"}}, {"name": "Luzerner Kantonsspital Sursee", "latitude": 47.1684133, "longitude": 8.1176292, "source": "osm", "_tags": {"addr:city": "Sursee", "addr:country": "CH", "addr:housenumber": "16a", "addr:postcode": "6210", "addr:street": "Spitalstrasse", "amenity": "hospital", "healthcare": "hospital", "healthcare:speciality": "intensive", "name": "Luzerner Kantonsspital Sursee", "phone": "+41 41 926 45 45", "short_name": "LUKS Sursee", "website": "https://www.luks.ch/standorte/standort-sursee"}}, {"name": "Klinik Adelheid", "latitude": 47.1412944, "longitude": 8.5911604, "source": "osm", "_tags": {"addr:city": "Unterägeri", "addr:country": "CH", "addr:housenumber": "71", "addr:postcode": "6314", "addr:street": "Höhenweg", "amenity": "hospital", "email": "info@klinik-adelheid.ch", "healthcare": "hospital", "name": "Klinik Adelheid", "operator": "Klinik Adelheid AG", "phone": "+41 41 754 30 00", "source": "bing", "website": "https://www.klinik-adelheid.ch/"}}, {"name": "Kantonsspital Uri", "latitude": 46.8822997, "longitude": 8.6371561, "source": "osm", "_tags": {"addr:city": "Altdorf UR", "addr:country": "CH", "addr:housenumber": "1", "addr:postcode": "6460", "addr:street": "Spitalstrasse", "amenity": "hospital", "email": "info@ksuri.ch", "emergency": "yes", "healthcare": "hospital", "healthcare:speciality": "intensive", "name": "Kantonsspital Uri", "opening_hours": "Mo-Su 00:00-24:00", "phone": "+41 41 875 51 51", "website": "https://www.ksuri.ch/"}}, {"name": "Seeklinik Brunnen", "latitude": 46.9961632, "longitude": 8.6046354, "source": "osm", "_tags": {"addr:city": "Brunnen", "addr:housenumber": "8", "addr:postcode": "6440", "addr:street": "Gersauerstrasse", "amenity": "hospital", "healthcare": "hospital", "healthcare:speciality": "burnout", "name": "Seeklinik Brunnen", "operator": "AMEOS Gruppe", "phone": "+41 41 825 48 48", "website": "https://seeklinik-brunnen.ch/"}}, {"name": "Schweizer Paraplegiker-Zentrum (SPZ)", "latitude": 47.1421149, "longitude": 8.1308554, "source": "osm", "_tags": {"addr:city": "Nottwil", "addr:housenumber": "1", "addr:postcode": "6207", "addr:street": "Guido A. Zäch Strasse", "amenity": "hospital", "emergency": "yes", "healthcare": "hospital", "healthcare:speciality": "intensive", "name": "Schweizer Paraplegiker-Zentrum (SPZ)", "phone": "+41 41 939 54 54", "website": "https://www.paraplegie.ch/spz/de", "wikidata": "Q16854951", "wikipedia": "de:Schweizer Paraplegiker-Zentrum"}}, {"name": "Asana Spital Menziken", "latitude": 47.2459567, "longitude": 8.1902855, "source": "osm", "_tags": {"addr:city": "Menziken", "addr:country": "CH", "addr:housenumber": "1", "addr:postcode": "5737", "addr:street": "Spitalstrasse", "amenity": "hospital", "email": "info@spitalmenziken.ch", "fax": "+41 62 765 35 25", "healthcare": "hospital", "name": "Asana Spital Menziken", "opening_hours": "Mo-Su 10:00-20:00", "phone": "+41 62 765 31 31", "website": "https://www.spitalmenziken.ch/"}}, {"name": "CLINICA DI RIABILITAZIONE EOC - FAIDO", "latitude": 46.4781316, "longitude": 8.8050559, "source": "osm", "_tags": {"addr:city": "Faido", "addr:housenumber": "32", "addr:postcode": "6760", "addr:street": "Via Ospedale", "amenity": "hospital", "name": "CLINICA DI RIABILITAZIONE EOC - FAIDO", "note": "Outline guessed", "phone": "+41 (91) 811 21 11", "short_name": "Reha Faido EOC"}}, {"name": "", "latitude": 47.2666723, "longitude": 8.1228539, "source": "osm", "_tags": {"amenity": "hospital", "healthcare": "hospital"}}, {"name": "Haus 33 Kinderspital", "latitude": 47.0586814, "longitude": 8.2980087, "source": "osm", "_tags": {"addr:city": "Luzern 16", "addr:housename": "Haus 33", "addr:housenumber": "33", "addr:postcode": "6000", "addr:street": "Spitalstrasse", "alt_name": "Kinderspital Luzern", "amenity": "hospital", "building": "hospital", "building:levels": "5", "emergency": "yes", "internet_access": "wlan", "name": "Haus 33 Kinderspital", "name:en": "Children's Hospital", "note": "Die offiziellen Gebäudenamen am Luzerner Kantonsspital sind \"Haus NN\" und werden so in allen Konversationen verwendet.", "phone": "+41 41 205 31 66", "roof:shape": "flat", "website": "https://www.luks.ch/standorte/standort-luzern/kinderspital", "wheelchair": "yes"}}, {"name": "Zuger Kantonsspital", "latitude": 47.1938832, "longitude": 8.5181932, "source": "osm", "_tags": {"addr:city": "Baar", "addr:country": "CH", "addr:housenumber": "11", "addr:postcode": "6340", "addr:street": "Landhausstrasse", "amenity": "hospital", "contact:phone": "+41 41 399 11 11", "healthcare": "hospital", "healthcare:speciality": "intensive", "name": "Zuger Kantonsspital", "operator": "Zuger Kantonsspital AG", "website": "https://www.zgks.ch/", "wheelchair": "yes"}}, {"name": "See-Spital Onkologie", "latitude": 47.2625889, "longitude": 8.5909575, "source": "osm", "_tags": {"building": "hospital", "building:levels": "5", "healthcare": "hospital", "healthcare:speciality": "oncology", "name": "See-Spital Onkologie", "roof:shape": "flat"}}, {"name": "Luzerner Psychiatrie Sarnen", "latitude": 46.8870035, "longitude": 8.2476343, "source": "osm", "_tags": {"addr:city": "Sarnen", "addr:housenumber": "8", "addr:postcode": "6060", "addr:street": "Militärstrasse", "amenity": "hospital", "email": "klinik-sarnen@lups.ch", "healthcare": "hospital", "healthcare:speciality": "psychiatry", "name": "Luzerner Psychiatrie Sarnen", "operator": "Luzerner Psychiatrie", "phone": "+41 58 856 59 59", "website": "https://www.lups.ch/erwachsenen-psychiatrie/allgemeinpsychiatrie/kliniken/"}}, {"name": "Luzerner Psychiatrie", "latitude": 47.0572462, "longitude": 8.2934118, "source": "osm", "_tags": {"addr:city": "Luzern 16", "addr:postcode": "6000", "addr:street": "Spitalstrasse", "amenity": "hospital", "emergency": "yes", "healthcare": "hospital", "healthcare:speciality": "psychiatry", "name": "Luzerner Psychiatrie", "operator": "Luzerner Psychiatrie AG", "short_name": "lups", "website": "https://www.lups.ch"}}, {"name": "Spital Affoltern am Albis", "latitude": 47.2847406, "longitude": 8.4565599, "source": "osm", "_tags": {"addr:city": "Affoltern am Albis", "addr:housenumber": "27", "addr:postcode": "8910", "addr:street": "Sonnenbergstrasse", "amenity": "hospital", "email": "kontakt@spitalaffoltern.ch", "emergency": "yes", "fax": "+41 44 714 25 32", "healthcare": "hospital", "name": "Spital Affoltern am Albis", "phone": "+41 44 714 21 11", "type": "multipolygon", "website": "https://www.spitalaffoltern.ch"}}, {"name": "AndreasKlinik Cham Zug", "latitude": 47.1813399, "longitude": 8.4553047, "source": "osm", "_tags": {"amenity": "hospital", "emergency": "yes", "healthcare": "hospital", "name": "AndreasKlinik Cham Zug", "phone": "+41 41 784 07 84", "type": "multipolygon", "website": "https://www.andreasklinik.ch/", "wheelchair": "yes", "wikidata": "Q23783969", "wikipedia": "de:AndreasKlinik"}}, {"name": "Klinik St. Anna", "latitude": 47.0586431, "longitude": 8.3262071, "source": "osm", "_tags": {"addr:city": "Luzern", "addr:housenumber": "32", "addr:postcode": "6006", "addr:street": "St.-Anna-Strasse", "amenity": "hospital", "emergency": "yes", "healthcare": "hospital", "healthcare:speciality": "intensive", "name": "Klinik St. Anna", "operator": "Hirslanden", "type": "multipolygon", "website": "http://www.st-anna.ch", "wheelchair": "yes", "wikidata": "Q21036361", "wikipedia": "de:Klinik St. Anna (Luzern)"}}, {"name": "Clienia Schlössli", "latitude": 47.2687567, "longitude": 8.7201265, "source": "osm", "_tags": {"addr:city": "Oetwil am See", "addr:housenumber": "8", "addr:postcode": "8618", "addr:street": "Schlösslistrasse", "amenity": "hospital", "healthcare": "hospital", "healthcare:speciality": "psychiatry", "name": "Clienia Schlössli", "operator": "Clienia", "operator:type": "private", "type": "multipolygon", "website": "https://www.clienia.ch/"}}, {"name": "Universitäts-Kinderspital Zürich", "latitude": 47.3523955, "longitude": 8.571234, "source": "osm", "_tags": {"alt_name": "Kinderspital Zürich", "amenity": "hospital", "contact:city": "Zürich", "contact:email": "info@kispi.uzh.ch", "contact:housenumber": "30", "contact:phone": "+41 44 249 49 49", "contact:postcode": "8008", "contact:street": "Lenggstrasse", "contact:website": "https://www.kispi.uzh.ch/", "description": "Specialized on hospitalized children.", "emergency": "yes", "healthcare": "hospital", "healthcare:speciality": "intensive;paediatric_surgery;paediatrics", "name": "Universitäts-Kinderspital Zürich", "operator": "Eleonorenstiftung", "short_name": "Kispi ZH", "type": "multipolygon", "wikidata": "Q1374004"}}, {"name": "Kantonsspital Obwalden", "latitude": 46.8895511, "longitude": 8.245999, "source": "osm", "_tags": {"amenity": "hospital", "emergency": "yes", "healthcare": "hospital", "name": "Kantonsspital Obwalden", "phone": "+41 41 666 44 22", "type": "multipolygon", "website": "https://www.ksow.ch", "wikidata": "Q14956909"}}]