[{"name": "Pediatrie 2", "latitude": 46.7776962, "longitude": 23.5856202, "source": "osm", "_tags": {"addr:city": "Cluj-Napoca", "addr:street": "Strada Crișan", "amenity": "hospital", "healthcare": "hospital", "name": "Pediatrie 2"}}, {"name": "Spital Iara", "latitude": 46.554806, "longitude": 23.5152585, "source": "osm", "_tags": {"amenity": "hospital", "name": "Spital Iara"}}, {"name": "Spitalul clinic de pneumoftiziologie „Leon Daniello” Cluj-Napoca - Secția de Pneumologie -TBC Săvădisla", "latitude": 46.6746657, "longitude": 23.4565859, "source": "osm", "_tags": {"addr:city": "Săvădisla", "amenity": "hospital", "emergency": "no", "healthcare": "hospital", "name": "Spitalul clinic de pneumoftiziologie „Leon Daniello” Cluj-Napoca - Secția de Pneumologie -TBC Săvădisla", "name:ro": "Spitalul clinic de pneumoftiziologie „Leon Daniello” Cluj-Napoca - Secția de Pneumologie -TBC Săvădisla"}}, {"name": "Dispensarul uman Albac", "latitude": 46.4505639, "longitude": 22.9613765, "source": "osm", "_tags": {"addr:city": "Albac", "addr:postcode": "517005", "addr:street": "Strada Crișan", "amenity": "hospital", "healthcare": "hospital", "name": "Dispensarul uman Albac"}}, {"name": "Spital Jibou", "latitude": 47.2590218, "longitude": 23.2522905, "source": "osm", "_tags": {"addr:city": "Jibou", "amenity": "hospital", "healthcare": "hospital", "name": "Spital Jibou", "name:ro": "Spital Jibou"}}, {"name": "", "latitude": 47.4098785, "longitude": 23.2886719, "source": "osm", "_tags": {"addr:housenumber": "59", "amenity": "hospital", "healthcare": "hospital"}}, {"name": "Institutul Oncologic Prof. Dr. Ion Chiricuță", "latitude": 46.7632921, "longitude": 23.5870763, "source": "osm", "_tags": {"addr:city": "Cluj-Napoca", "addr:country": "RO", "addr:street": "Strada Ion Creangă", "amenity": "hospital", "healthcare": "hospital", "name": "Institutul Oncologic Prof. Dr. Ion Chiricuță", "wikidata": "Q97284995"}}, {"name": "Spitalul Ares", "latitude": 46.7667651, "longitude": 23.5867745, "source": "osm", "_tags": {"addr:city": "Cluj-Napoca", "addr:country": "RO", "addr:housenumber": "8", "addr:street": "Strada Republicii", "amenity": "hospital", "building": "yes", "check_date": "2024-07-05", "healthcare": "hospital", "name": "Spitalul Ares"}}, {"name": "Spitalul Clinic Județean de Urgență Cluj", "latitude": 46.7659406, "longitude": 23.5833249, "source": "osm", "_tags": {"addr:city": "Cluj-Napoca", "addr:country": "RO", "amenity": "hospital", "emergency": "yes", "healthcare": "hospital", "name": "Spitalul Clinic Județean de Urgență Cluj", "url": "http://www.scju-cluj.ro", "wheelchair": "yes"}}, {"name": "Spitalul orășenesc Huedin", "latitude": 46.8624617, "longitude": 23.0153738, "source": "osm", "_tags": {"addr:city": "Huedin", "addr:housenumber": "42", "addr:postcode": "405400", "addr:street": "Strada Spitalului", "amenity": "hospital", "building": "yes", "healthcare": "hospital", "name": "Spitalul orășenesc Huedin"}}, {"name": "", "latitude": 47.1418171, "longitude": 23.8811875, "source": "osm", "_tags": {"amenity": "hospital", "healthcare": "hospital"}}, {"name": "", "latitude": 47.141309, "longitude": 23.8813271, "source": "osm", "_tags": {"amenity": "hospital", "healthcare": "hospital"}}, {"name": "", "latitude": 47.1416438, "longitude": 23.8816502, "source": "osm", "_tags": {"amenity": "hospital", "healthcare": "hospital"}}, {"name": "Spitalul Clinic de Boli Infecțioase", "latitude": 46.7607115, "longitude": 23.5837426, "source": "osm", "_tags": {"addr:city": "Cluj-Napoca", "addr:country": "RO", "addr:housenumber": "23", "addr:postcode": "400348", "addr:postcode:source": "Date de la Poșta Română, publicate sub Licența pentru Guvernare Deschisă v1.0 la http://date.gov.ro/organization/posta-romana", "addr:street": "Strada Iuliu Moldovan", "amenity": "hospital", "building": "yes", "healthcare": "hospital", "name": "Spitalul Clinic de Boli Infecțioase", "name:en": "Clinical Hospital of Infectious Diseases", "name:ro": "Spitalul Clinic de Boli Infecțioase"}}, {"name": "Spitalul Clinic de Ortopedie", "latitude": 46.7711044, "longitude": 23.6050673, "source": "osm", "_tags": {"addr:city": "Cluj-Napoca", "addr:country": "RO", "addr:street": "Strada General Traian Moșoiu", "amenity": "hospital", "building": "yes", "healthcare": "hospital", "name": "Spitalul Clinic de Ortopedie"}}, {"name": "Spitalul Clinic de Urgență pentru Copii Cluj-Napoca", "latitude": 46.7665576, "longitude": 23.5781236, "source": "osm", "_tags": {"addr:city": "Cluj-Napoca", "addr:country": "RO", "addr:housenumber": "66-68", "addr:street": "Calea Moților", "alt_name": "Unitatea de Primire a Urgențelor Pediatrice;UPU Pediatrie;Clinica Pediatrie 1", "amenity": "hospital", "check_date": "2025-02-06", "healthcare": "hospital", "name": "Spitalul Clinic de Urgență pentru Copii Cluj-Napoca"}}, {"name": "Spitalul Militar", "latitude": 46.7692441, "longitude": 23.6028826, "source": "osm", "_tags": {"addr:city": "Cluj-Napoca", "addr:country": "RO", "amenity": "hospital", "healthcare": "hospital", "name": "Spitalul Militar"}}, {"name": "Policlinica", "latitude": 47.0248929, "longitude": 23.9033298, "source": "osm", "_tags": {"addr:city": "Gherla", "amenity": "hospital", "building": "yes", "healthcare": "hospital", "name": "Policlinica", "source": "Bing"}}, {"name": "Spitalul de copii", "latitude": 47.0284732, "longitude": 23.9065699, "source": "osm", "_tags": {"addr:city": "Gherla", "amenity": "hospital", "building": "yes", "healthcare": "hospital", "name": "Spitalul de copii", "name:ro": "Spitalul de copii", "source": "Bing, survey"}}, {"name": "Spitalul Municipal Gherla", "latitude": 47.0242928, "longitude": 23.9047575, "source": "osm", "_tags": {"addr:city": "Gherla", "amenity": "hospital", "building": "no", "emergency": "yes", "healthcare": "hospital", "name": "Spitalul Municipal Gherla", "name:ro": "Spitalul Municipal Gherla"}}, {"name": "Spitalul Clinic Căi Ferate", "latitude": 46.7657708, "longitude": 23.5869853, "source": "osm", "_tags": {"addr:city": "Cluj-Napoca", "addr:country": "RO", "addr:housenumber": "16-20", "addr:street": "Strada Republicii", "alt_name": "Spitalul Clinic C.F. Cluj; Policlinica CFR Cluj", "amenity": "hospital", "building": "yes", "healthcare": "hospital", "name": "Spitalul Clinic Căi Ferate", "operator": "Ministerul Sănătății", "operator:type": "government"}}, {"name": "Affidea", "latitude": 46.75772, "longitude": 23.5941366, "source": "osm", "_tags": {"addr:city": "Cluj-Napoca", "addr:country": "RO", "addr:housenumber": "105A", "addr:postcode": "400489", "addr:province": "Transilvania", "addr:state": "CJ", "addr:street": "Strada Republicii", "alt_name": "Hiperdia Cluj", "amenity": "hospital", "building": "yes", "contact:email": "cluj.republicii@affidea.com", "contact:phone": "+40 21 9338", "contact:website": "https://affidea.ro/centre-medicale/affidea-hiperdia-cluj-republicii", "healthcare": "hospital", "name": "Affidea", "opening_hours": "Mo-Fr 07:30-20:00; Sa 08:00-14:00"}}, {"name": "Spitalul Județean Sălaj", "latitude": 47.1928425, "longitude": 23.0511013, "source": "osm", "_tags": {"addr:city": "Zalău", "amenity": "hospital", "healthcare": "hospital", "name": "Spitalul Județean Sălaj", "name:hu": "Nagy Kórház", "name:ro": "Spitalul Județean Sălaj"}}, {"name": "Cabinet medical", "latitude": 46.8298683, "longitude": 22.9856207, "source": "osm", "_tags": {"amenity": "hospital", "building": "hospital", "name": "Cabinet medical", "name:hu": "Orvosi rendelő"}}, {"name": "Spitalul de Boli Psihice Cronice Borșa", "latitude": 46.9331382, "longitude": 23.6574571, "source": "osm", "_tags": {"amenity": "hospital", "name": "Spitalul de Boli Psihice Cronice Borșa"}}, {"name": "Spitalul Municipal Turda", "latitude": 46.5789227, "longitude": 23.7769408, "source": "osm", "_tags": {"amenity": "hospital", "emergency": "yes", "healthcare": "hospital", "name": "Spitalul Municipal Turda", "website": "https://spitalturda.ro/"}}, {"name": "Spitalul Regina Maria", "latitude": 46.7731692, "longitude": 23.6024559, "source": "osm", "_tags": {"addr:city": "Cluj-Napoca", "addr:country": "RO", "addr:housenumber": "29", "addr:postcode": "400117", "addr:postcode:source": "Date de la Poșta Română, publicate sub Licența pentru Guvernare Deschisă v1.0 la http://date.gov.ro/organization/posta-romana", "addr:street": "Calea Dorobanților", "amenity": "hospital", "building": "yes", "healthcare": "hospital", "name": "Spitalul Regina Maria"}}, {"name": "Digenio - Centrul de Excelență în Afecțiuni Digestive", "latitude": 46.7896907, "longitude": 23.6062329, "source": "osm", "_tags": {"addr:city": "Cluj-Napoca", "addr:housenumber": "2", "addr:postcode": "400061", "addr:street": "Strada Porțelanului", "amenity": "hospital", "building": "hospital", "building:levels": "4", "healthcare": "hospital", "healthcare:speciality": "gastroenterology", "name": "Digenio - Centrul de Excelență în Afecțiuni Digestive", "operator": "TVM MED SERV S.R.L.", "phone": "+40 264 598 465", "website": "https://digenio.ro/"}}, {"name": "Spitalul Municipal Dr Cornel Igna", "latitude": 46.546864, "longitude": 23.8824078, "source": "osm", "_tags": {"amenity": "hospital", "check_date": "2024-12-30", "healthcare": "hospital", "name": "Spitalul Municipal Dr Cornel Igna"}}, {"name": "Spitalul Clinic Municipal Cluj-Napoca", "latitude": 46.7892534, "longitude": 23.60681, "source": "osm", "_tags": {"addr:city": "Cluj-Napoca", "addr:housenumber": "11", "addr:postcode": "400139", "addr:street": "Strada Tăbăcarilor", "amenity": "hospital", "email": "office@spitalclujana.ro", "healthcare": "hospital", "name": "Spitalul Clinic Municipal Cluj-Napoca", "phone": "+ 40 735 406 101", "website": "https://spitalclujana.ro/"}}, {"name": "Spitalul Clinic de Pneumoftiziologie Leon Danello", "latitude": 46.763946, "longitude": 23.5827779, "source": "osm", "_tags": {"addr:city": "Cluj-Napoca", "addr:housenumber": "6", "addr:street": "Strada Bogdan Petriceicu Hașdeu", "amenity": "hospital", "healthcare": "hospital", "name": "Spitalul Clinic de Pneumoftiziologie Leon Danello"}}, {"name": "", "latitude": 46.7620823, "longitude": 23.5853544, "source": "osm", "_tags": {"amenity": "hospital", "healthcare": "hospital"}}, {"name": "Institutul regional de gastroenterologie și hepatologie prof. dr. Octavian Fodor", "latitude": 46.7761707, "longitude": 23.5922991, "source": "osm", "_tags": {"addr:city": "Cluj-Napoca", "addr:housenumber": "19", "addr:street": "Strada Croitorilor", "amenity": "hospital", "emergency": "yes", "healthcare": "hospital", "name": "Institutul regional de gastroenterologie și hepatologie prof. dr. Octavian Fodor"}}, {"name": "Spitalul Clinic de Recuperare", "latitude": 46.754898, "longitude": 23.5823537, "source": "osm", "_tags": {"addr:city": "Cluj-Napoca", "addr:housenumber": "46-50", "addr:postcode": "400437", "addr:street": "Strada Viilor", "amenity": "hospital", "healthcare": "hospital", "name": "Spitalul Clinic de Recuperare"}}, {"name": "Spitalul Transilvania", "latitude": 46.7571647, "longitude": 23.5931489, "source": "osm", "_tags": {"addr:housenumber": "1-3", "addr:postcode": "400486", "addr:street": "Strada Rene Descartes", "amenity": "hospital", "building": "yes", "building:levels": "4", "email": "office@spitalultransilvania.ro", "healthcare": "hospital", "name": "Spitalul Transilvania", "name:ro": "Spitalul Transilvania", "opening_hours": "Mo-Fr 08:00-20:00; Sa 09:00-16:00", "phone": "0364884884", "website": "https://www.spitalultransilvania.ro/"}}, {"name": "Spitalul Medicover", "latitude": 46.7945967, "longitude": 23.483564, "source": "osm", "_tags": {"addr:city": "Suceagu", "addr:housenumber": "323T", "addr:street": "Strada Principală", "amenity": "hospital", "healthcare": "hospital", "name": "Spitalul Medicover", "operator": "Medicover", "operator:type": "private"}}, {"name": "MedLife Spitalul Humanitas", "latitude": 46.7509672, "longitude": 23.571557, "source": "osm", "_tags": {"amenity": "hospital", "building": "yes", "healthcare": "hospital", "name": "MedLife Spitalul Humanitas"}}, {"name": "Ambulatoriu Clinic de Psihiatrie Pedriatică", "latitude": 46.7626497, "longitude": 23.5662439, "source": "osm", "_tags": {"addr:city": "Cluj-Napoca", "addr:housenumber": "54C", "addr:street": "Calea Mănăștur", "amenity": "hospital", "building": "yes", "emergency": "yes", "healthcare": "hospital", "healthcare:speciality": "paediatrics;psychiatry;emergency", "name": "Ambulatoriu Clinic de Psihiatrie Pedriatică", "operator": "Spitalul Clinic de Urgență pentru Copii Cluj"}}, {"name": "Secția de Hematologie a Institutului Oncologic", "latitude": 46.7757871, "longitude": 23.6025994, "source": "osm", "_tags": {"amenity": "hospital", "healthcare": "hospital", "name": "Secția de Hematologie a Institutului Oncologic"}}]