[{"name": "Hôpital Local de Saulieu", "latitude": 47.2821634, "longitude": 4.2296359, "source": "osm", "_tags": {"amenity": "hospital", "heritage": "3", "heritage:operator": "mhs", "mhs:inscription_date": "1984", "name": "Hôpital Local de Saulieu", "ref:FR:FINESS": "210987681", "ref:mhs": "PA00112655", "source": "Le ministère des solidarités et de la santé - 08/2018", "source:heritage": "data.gouv.fr:Ministère de la Culture - 08/2011", "wikidata": "Q22964982"}}, {"name": "EMERGENCY SERVICE", "latitude": 46.4647245, "longitude": 4.1085741, "source": "osm", "_tags": {"healthcare": "hospital", "healthcare:speciality": "emergency", "name": "EMERGENCY SERVICE", "name:fr": "URGENCES", "opening_hours": "24/7"}}, {"name": "", "latitude": 46.5599702, "longitude": 4.9085031, "source": "osm", "_tags": {"amenity": "hospital", "fax": "+33385321698", "phone": "+33385513684", "ref:FR:FINESS": "710009929", "source": "Le ministère des solidarités et de la santé - 03/2019", "type:FR:FINESS": "292"}}, {"name": "Hôtel-Dieu", "latitude": 46.4304407, "longitude": 4.6604354, "source": "osm", "_tags": {"addr:city": "Cluny", "addr:postcode": "71250", "addr:street": "Place de l'Hôpital", "amenity": "hospital", "healthcare": "hospital", "name": "Hôtel-Dieu", "ref:FR:FINESS": "710978131", "source": "cadastre-dgi-fr source : Direction Générale des Impôts - Cadastre. Mise à jour : 2010", "start_date": "1703", "type:FR:FINESS": "106", "website": "http://www.ch-cluny.fr/l-hotel-dieu-et-son-apothicairerie", "wikidata": "Q92062374"}}, {"name": "Centre hospitalier d'Autun - Site Latouche", "latitude": 46.9521471, "longitude": 4.301781, "source": "osm", "_tags": {"alt_name": "Hôpital Saint-Gabriel", "amenity": "hospital", "healthcare": "hospital", "heritage:operator": "mhs", "mhs:inscription_date": "1971-10-15", "name": "Centre hospitalier d'Autun - Site Latouche", "ref:FR:FINESS": "710978248", "ref:mhs": "PA00113079", "source:heritage": "data.gouv.fr:Ministère de la Culture - 04/2015", "type:FR:FINESS": "355", "wikidata": "Q22965602"}}, {"name": "Clinique du Parc", "latitude": 46.950618, "longitude": 4.29382, "source": "osm", "_tags": {"amenity": "hospital", "fax": "+33 3 85 86 57 09", "healthcare": "hospital", "name": "Clinique du Parc", "operator:type": "private", "phone": "+33 3 85 86 56 56", "ref:FR:FINESS": "710781410", "type:FR:FINESS": "365", "website": "http://www.clinique-chirurgicale-autun.com/"}}, {"name": "Hôpital de Jour", "latitude": 46.7818445, "longitude": 4.8501532, "source": "osm", "_tags": {"amenity": "hospital", "building": "yes", "healthcare": "hospital", "name": "Hôpital de Jour", "ref:FR:FINESS": "710007881", "source": "extraction vectorielle v1 cadastre-dgi-fr source : Direction Générale des Impôts - Cadas. Mise à jour : 2010", "type:FR:FINESS": "292"}}, {"name": "Centre Hospitalier de Chagny", "latitude": 46.9103356, "longitude": 4.750432, "source": "osm", "_tags": {"amenity": "hospital", "building": "hospital", "name": "Centre Hospitalier de Chagny", "ref:FR:FINESS": "710978107", "source": "cadastre-dgi-fr source : Direction Générale des Impôts - Cadastre. Mise à jour : 2012", "type:FR:FINESS": "106", "wikidata": "Q92063305"}}, {"name": "Centre Hospitalier Spécialisé de Sevrey", "latitude": 46.7258781, "longitude": 4.8335304, "source": "osm", "_tags": {"addr:city": "Sevrey", "addr:postcode": "71100", "alt_name": "Hôpital Psychiatrique de Sevrey", "amenity": "hospital", "healthcare": "hospital", "name": "Centre Hospitalier Spécialisé de Sevrey", "phone": "+33 3 85 92 82 00", "ref:FR:FINESS": "710978230", "short_name": "CHS", "source": "Le ministère des solidarités et de la santé - 03/2019", "type:FR:FINESS": "292", "website": "https://www.ch-sevrey.fr/"}}, {"name": "Hôpital du Creusot - Site Foch", "latitude": 46.8041229, "longitude": 4.4485131, "source": "osm", "_tags": {"addr:city": "Le Creusot", "addr:housenumber": "175", "addr:postcode": "71200", "addr:street": "Rue du Maréchal Foch", "alt_name": "Hôtel-Dieu", "amenity": "hospital", "emergency": "yes", "fax": "+33 3 85 77 24 30", "healthcare": "hospital", "name": "Hôpital du Creusot - Site Foch", "operator": "Groupe SOS Santé", "operator:type": "private", "phone": "+33 3 85 77 20 00", "ref:FR:FINESS": "710978347", "ref:FR:NAF": "86.10Z", "ref:FR:SIRET": "77857784100019", "start_date": "2009-01-01", "type:FR:FINESS": "365", "website": "https://www.hopital-lecreusot.com/"}}, {"name": "Centre Hospitalier William Morey", "latitude": 46.7770519, "longitude": 4.840724, "source": "osm", "_tags": {"amenity": "hospital", "emergency": "yes", "fax": "+33 3 85 44 66 99", "healthcare": "hospital", "healthcare:speciality": "intensive", "loc_name": "nouvel hôpital", "name": "Centre Hospitalier William Morey", "phone": "+33 3 85 44 66 88", "ref:FR:FINESS": "710978263", "ref:FR:SIRET": "26710076600109", "type:FR:FINESS": "355", "website": "https://www.ch-chalon71.fr/"}}, {"name": "Dracy santé : Centre Orthopédique Médico Chirurgical de Dracy-Le Fort", "latitude": 46.7959521, "longitude": 4.7820726, "source": "osm", "_tags": {"amenity": "hospital", "healthcare": "hospital", "name": "Dracy santé : Centre Orthopédique Médico Chirurgical de Dracy-Le Fort", "ref:FR:FINESS": "710781824", "source": "Bing", "type:FR:FINESS": "365"}}, {"name": "Hôpital du Creusot - Site Harfleur", "latitude": 46.7968638, "longitude": 4.4530196, "source": "osm", "_tags": {"amenity": "hospital", "emergency": "no", "fax": "+33 3 85 77 24 30", "name": "Hôpital du Creusot - Site Harfleur", "operator": "Groupe SOS Santé", "operator:type": "private", "phone": "+33 3 85 77 74 00", "ref:FR:FINESS": "710781154", "type:FR:FINESS": "365", "website": "https://www.hopital-lecreusot.com/"}}, {"name": "Hôpital Privé Sainte-Marie", "latitude": 46.7979224, "longitude": 4.8565233, "source": "osm", "_tags": {"amenity": "hospital", "healthcare": "hospital", "name": "Hôpital Privé Sainte-Marie", "old_name": "Clinique Sainte-Marie", "ref:FR:FINESS": "710977075", "type:FR:FINESS": "109"}}, {"name": "Centre hospitalier Les Marronniers", "latitude": 46.6920702, "longitude": 4.1375515, "source": "osm", "_tags": {"amenity": "hospital", "healthcare": "centre", "name": "Centre hospitalier Les Marronniers", "ref:FR:FINESS": "710978214", "source": "Le ministère des solidarités et de la santé - 10/2018", "type:FR:FINESS": "106", "wheelchair": "yes", "wikidata": "Q92063442"}}, {"name": "Centre Médical Nicolas de Pontoux", "latitude": 46.7980596, "longitude": 4.8538263, "source": "osm", "_tags": {"amenity": "hospital", "healthcare": "hospital", "name": "Centre Médical Nicolas de Pontoux", "source": "cadastre-dgi-fr source : Direction Générale des Impôts - Cadastre. Mise à jour : 2014"}}, {"name": "Hôpital Jean Bouveri", "latitude": 46.649008, "longitude": 4.3326406, "source": "osm", "_tags": {"addr:city": "Saint-Vallier", "addr:place": "Galuzot", "amenity": "hospital", "emergency": "yes", "fax": "+33 3 85 67 60 20", "healthcare": "hospital", "name": "Hôpital Jean Bouveri", "operator:type": "public", "phone": "+33 3 85 67 60 60", "ref:FR:FINESS": "710978313", "type:FR:FINESS": "355", "website": "https://www.ch-montceau71.fr/"}}, {"name": "Centre hospitalier de Charolles", "latitude": 46.4322047, "longitude": 4.2806149, "source": "osm", "_tags": {"addr:city": "Charolles", "addr:housenumber": "6", "addr:postcode": "71120", "addr:street": "Rue du Prieuré", "amenity": "hospital", "healthcare": "hospital", "name": "Centre hospitalier de Charolles", "ref:FR:FINESS": "710978271", "source": "Le ministère des solidarités et de la santé - 03/2019", "website": "http://www.ch-charolles.fr/"}}, {"name": "Hopital Philippe Lebon", "latitude": 47.033376, "longitude": 4.8322362, "source": "osm", "_tags": {"amenity": "hospital", "emergency": "yes", "fax": "+33 3 80 24 45 90", "healthcare": "hospital", "name": "Hopital Philippe Lebon", "operator": "Hospice de Beaune", "operator:type": "public", "phone": "+33 3 80 24 44 44", "ref:FR:FINESS": "210987657", "source": "cadastre-dgi-fr source : Direction Générale des Impôts - Cadastre;mise à jour : 2008", "type:FR:FINESS": "355", "website": "https://www.hospices-de-beaune.com/index.php?/hospicesdebeaune"}}, {"name": "Centre hospitalier de la Haute Côte-d'Or", "latitude": 47.3966549, "longitude": 4.5386863, "source": "osm", "_tags": {"amenity": "hospital", "fax": "+33 3 80 33 91 99", "healthcare": "hospital", "name": "Centre hospitalier de la Haute Côte-d'Or", "phone": "+33 3 80 33 91 91", "ref:FR:FINESS": "210987608", "type:FR:FINESS": "355", "website": "https://hopital-amplitude.fr/"}}, {"name": "Centre hospitalier de Tournus - Romenay", "latitude": 46.5676194, "longitude": 4.8927487, "source": "osm", "_tags": {"amenity": "hospital", "emergency": "no", "fax": "+33 3 85 27 49 69", "healthcare": "hospital", "name": "Centre hospitalier de Tournus - Romenay", "operator:type": "public", "phone": "+33 3 85 27 47 67", "ref:FR:FINESS": "710978180", "type:FR:FINESS": "106", "wikidata": "Q92062366"}}, {"name": "Centre hospitalier des Charmes", "latitude": 46.4642699, "longitude": 4.1092839, "source": "osm", "_tags": {"addr:city": "Paray-le-Monial", "addr:postcode": "71600", "addr:street": "Boulevard des Charmes", "amenity": "hospital", "email": "contact@ch-paray.fr", "emergency": "yes", "fax": "+33 3 85 81 82 82", "healthcare": "hospital", "name": "Centre hospitalier des Charmes", "operator:type": "public", "phone": "+33 3 85 81 80 00", "ref:FR:FINESS": "710010067", "type:FR:FINESS": "355", "website": "https://www.ch-paray.fr/"}}, {"name": "Centre hospitalier d'Autun - Site Parpas", "latitude": 46.951331, "longitude": 4.2931641, "source": "osm", "_tags": {"amenity": "hospital", "emergency": "yes", "fax": "+33 3 85 86 83 00", "healthcare": "hospital", "name": "Centre hospitalier d'Autun - Site Parpas", "operator:type": "public", "phone": "+33 3 85 86 84 84", "ref:FR:FINESS": "710010786", "type:FR:FINESS": "355", "website": "https://ch-autun.fr/", "wikidata": "Q22965602"}}, {"name": "Centre Winnicott", "latitude": 46.7641431, "longitude": 4.8321531, "source": "osm", "_tags": {"addr:housename": "1", "addr:street": "Avenue de l'Europe", "amenity": "hospital", "healthcare": "hospital", "name": "Centre Winnicott", "operator": "Centre hospitalier de Sevrey", "ref:FR:FINESS": "710015769", "type:FR:FINESS": "292"}}, {"name": "Centre Hospitalier Spécialisé de Sevrey", "latitude": 46.7438727, "longitude": 4.8335304, "source": "osm", "_tags": {"amenity": "hospital", "name": "Centre Hospitalier Spécialisé de Sevrey", "type": "site"}}]