[{"name": "Spitalul Sfântul Gheorghe", "latitude": 46.5239569, "longitude": 21.515779, "source": "osm", "_tags": {"amenity": "hospital", "name": "Spitalul Sfântul Gheorghe"}}, {"name": "", "latitude": 47.152146, "longitude": 21.9198089, "source": "osm", "_tags": {"amenity": "hospital", "emergency": "yes"}}, {"name": "Orvosi rendelő", "latitude": 47.166218, "longitude": 21.618782, "source": "osm", "_tags": {"amenity": "hospital", "healthcare": "hospital", "name": "Orvosi rendelő", "source": "turistautak.hu", "source:date": "2010-05-16", "url": "http://turistautak.hu/poi.php?id=82869"}}, {"name": "", "latitude": 46.5368885, "longitude": 21.178892, "source": "osm", "_tags": {"amenity": "hospital"}}, {"name": "Patológia", "latitude": 46.6824206, "longitude": 21.1029972, "source": "osm", "_tags": {"amenity": "hospital", "healthcare": "hospital", "name": "Patológia"}}, {"name": "Sebészet", "latitude": 46.6407756, "longitude": 21.275152, "source": "osm", "_tags": {"amenity": "hospital", "healthcare": "hospital", "name": "Sebészet"}}, {"name": "Izotópdiagnosztika", "latitude": 46.640198, "longitude": 21.2755379, "source": "osm", "_tags": {"amenity": "hospital", "healthcare": "hospital", "name": "Izotópdiagnosztika"}}, {"name": "Infektológia", "latitude": 46.6413365, "longitude": 21.2746374, "source": "osm", "_tags": {"amenity": "hospital", "healthcare": "hospital", "name": "Infektológia"}}, {"name": "Spitalul Municipal Salonta", "latitude": 46.8050818, "longitude": 21.6700258, "source": "osm", "_tags": {"amenity": "hospital", "maxspeed": "RO:urban", "name": "Spitalul Municipal Salonta"}}, {"name": "Spitalul Clinic Municipal Dr. Gavril Curteanu", "latitude": 47.0749167, "longitude": 21.917108, "source": "osm", "_tags": {"amenity": "hospital", "building": "yes", "emergency": "no", "healthcare": "hospital", "name": "Spitalul Clinic Municipal Dr. Gavril Curteanu"}}, {"name": "", "latitude": 47.3195917, "longitude": 21.5727916, "source": "osm", "_tags": {"amenity": "hospital"}}, {"name": "Spitalul Pelican", "latitude": 47.0759891, "longitude": 21.9162861, "source": "osm", "_tags": {"addr:city": "Oradea", "addr:housenumber": "2", "addr:postcode": "410354", "addr:street": "Strada Corneliu Coposu", "amenity": "hospital", "building": "yes", "healthcare": "hospital", "name": "Spitalul Pelican", "phone": "+40259444444", "website": "https://www.spitalpelican.ro/"}}, {"name": "Tüdőkórház", "latitude": 46.7058342, "longitude": 21.3251411, "source": "osm", "_tags": {"amenity": "hospital", "healthcare": "hospital", "name": "Tüdőkórház"}}, {"name": "Debreceni Egyetem - Klinikai Központ - Gróf Tisza István Campus", "latitude": 47.2274389, "longitude": 21.5467747, "source": "osm", "_tags": {"addr:city": "Berettyóújfalu", "addr:housenumber": "1", "addr:postcode": "4100", "addr:street": "Orbán Balázs tér", "amenity": "hospital", "contact:email": "titkarsag@berettyokorhaz.hu", "contact:phone": "+36 54 507 555", "healthcare": "hospital", "name": "Debreceni Egyetem - Klinikai Központ - Gróf Tisza István Campus"}}, {"name": "Spitalul Clinic Căi Ferate", "latitude": 47.0670588, "longitude": 21.9356638, "source": "osm", "_tags": {"amenity": "hospital", "building": "yes", "healthcare": "hospital", "name": "Spitalul Clinic Căi Ferate"}}, {"name": "Spitalul Clinic de Urgență Avram Iancu", "latitude": 47.0615135, "longitude": 21.9365972, "source": "osm", "_tags": {"addr:housenumber": "3", "addr:street": "Strada Dunărea", "amenity": "hospital", "healthcare": "hospital", "name": "Spitalul Clinic de Urgență Avram Iancu"}}, {"name": "", "latitude": 47.0625381, "longitude": 21.9400743, "source": "osm", "_tags": {"amenity": "hospital", "healthcare": "hospital"}}, {"name": "Pándy Kálmán Kórház Szeghalom", "latitude": 47.0123363, "longitude": 21.1704593, "source": "osm", "_tags": {"addr:city": "Szeghalom", "addr:housenumber": "9", "addr:postcode": "5520", "addr:street": "Szabolcs vezér utca", "amenity": "hospital", "contact:phone": "+36 66 371 222", "contact:website": "https://bmkk.eu/gyogyitoosztaly/szeghalmi-utokezelo-korhaz/", "description": "Krónikus Belgyógyászati Osztály Fekvőbetegellátó Egység", "healthcare": "hospital", "name": "Pándy Kálmán Kórház Szeghalom"}}, {"name": "Pándy Kálmán Tagkórház", "latitude": 47.0156149, "longitude": 21.1765205, "source": "osm", "_tags": {"amenity": "hospital", "building": "yes", "emergency": "no", "name": "Pándy Kálmán Tagkórház"}}, {"name": "Réthy Pál Kórház-Rendelőintézet", "latitude": 46.6834645, "longitude": 21.1047179, "source": "osm", "_tags": {"addr:city": "Békéscsaba", "addr:housenumber": "18", "addr:postcode": "5600", "addr:street": "Gyulai út", "amenity": "hospital", "contact:email": "titkar@korhaz.rethy.hu", "contact:fax": "+36 66 441 192", "contact:phone": "+36 66 441 411;+36 66 555 555", "contact:website": "http://www.rethy.hu/", "healthcare": "hospital", "name": "Réthy Pál Kórház-Rendelőintézet", "type": "multipolygon"}}, {"name": "Pándy Kálmán kórház", "latitude": 46.6411564, "longitude": 21.2764339, "source": "osm", "_tags": {"amenity": "hospital", "healthcare": "hospital", "name": "Pándy Kálmán kórház", "source": "survey;FÖMI ortofotó 2005", "type": "multipolygon"}}]