[{"name": "Krankenhaus Maria Ebene", "latitude": 47.2208372, "longitude": 9.6041706, "source": "osm", "_tags": {"addr:city": "Frastanz", "addr:country": "AT", "addr:housenumber": "17", "addr:postcode": "6820", "addr:street": "Maria Ebene", "amenity": "hospital", "email": "krankenhaus@mariaebene.at", "healthcare": "hospital", "name": "Krankenhaus Maria Ebene", "operator": "Stiftung Maria Ebene", "phone": "+43 5522 727460", "website": "https://krankenhaus.mariaebene.at", "wikidata": "Q85911977"}}, {"name": "Krankenhaus Dornbirn", "latitude": 47.4062965, "longitude": 9.7402125, "source": "osm", "_tags": {"addr:city": "Dornbirn", "addr:country": "AT", "addr:housenumber": "4", "addr:postcode": "6850", "addr:street": "Lustenauerstraße", "amenity": "hospital", "email": "verwaltung.kh@dornbirn.at", "fax": "+43 5572 303 109", "healthcare": "hospital", "healthcare:speciality": "internal;orthopaedics;trauma;radiology;anaesthetics;gynaecology;general;emergency", "name": "Krankenhaus Dornbirn", "operator": "Stadt Dornbirn", "phone": "+43 5572 303 0", "source": "http://krankenhaus.dornbirn.at/", "website": "http://krankenhaus.dornbirn.at/", "wheelchair": "yes", "wikidata": "Q1786528", "wikipedia": "de:Krankenhaus Dornbirn"}}, {"name": "", "latitude": 47.3342494, "longitude": 9.4167256, "source": "osm", "_tags": {"amenity": "hospital", "entrance": "yes", "healthcare": "hospital"}}, {"name": "Spital regiunal Surselva", "latitude": 46.7769296, "longitude": 9.2052594, "source": "osm", "_tags": {"addr:city": "Ilanz/Glion", "addr:postcode": "7130", "addr:street": "Via ospedal", "amenity": "hospital", "healthcare": "hospital", "name": "Spital regiunal Surselva", "operator": "Regionalspital Surselva AG", "operator:type": "public"}}, {"name": "Notfallzentrum", "latitude": 47.2981793, "longitude": 9.0838531, "source": "osm", "_tags": {"amenity": "hospital", "healthcare": "hospital", "name": "Notfallzentrum", "operator": "Berit Klinik"}}, {"name": "GNZ Wattwil", "latitude": 47.2980571, "longitude": 9.0843135, "source": "osm", "_tags": {"amenity": "hospital", "healthcare": "hospital", "name": "GNZ Wattwil", "operator": "Berit Klinik", "operator:type": "community", "wheelchair": "yes"}}, {"name": "Tumor Zentrum Ostschweiz", "latitude": 47.2975781, "longitude": 9.0838964, "source": "osm", "_tags": {"amenity": "hospital", "healthcare": "hospital", "name": "Tumor Zentrum Ostschweiz"}}, {"name": "Augenklinik Bellavista", "latitude": 47.4160259, "longitude": 9.4377694, "source": "osm", "_tags": {"amenity": "hospital", "healthcare": "hospital", "name": "Augenklinik Bellavista"}}, {"name": "", "latitude": 46.9696081, "longitude": 9.5637212, "source": "osm", "_tags": {"addr:housenumber": "14a", "addr:street": "Karlihofstrasse", "amenity": "hospital"}}, {"name": "Hochgebirgsklinik Davos", "latitude": 46.8286753, "longitude": 9.8558114, "source": "osm", "_tags": {"addr:city": "Davos Wolfgang", "addr:housenumber": "1", "addr:postcode": "7265", "addr:street": "Herman-Burchard-Strasse", "alt_name": "Rehaklinik Davos Wolfgang", "amenity": "hospital", "emergency": "no", "healthcare": "hospital", "healthcare:speciality": "pulmonology;allergology;psychosomatik;paediatrics;dermatology;cardiology", "name": "Hochgebirgsklinik Davos", "operator": "Hochgebirgsklinik Davos AG", "website": "https://hochgebirgsklinik.ch/", "wheelchair": "yes", "wikidata": "Q1621810", "wikipedia": "de:Hochgebirgsklinik Davos"}}, {"name": "Landeskrankenhaus Feldkirch", "latitude": 47.2306926, "longitude": 9.5806788, "source": "osm", "_tags": {"addr:city": "Feldkirch", "addr:country": "AT", "addr:housenumber": "47", "addr:postcode": "6807", "addr:street": "Carinagasse", "amenity": "hospital", "contact:email": "krankenhausleitung@lkhf.at", "contact:fax": "+43 5522 303 750", "contact:phone": "+43 5522 303 0", "emergency": "yes", "health_specialty": "stroke_unit", "healthcare": "hospital", "healthcare:speciality": "emergency", "name": "Landeskrankenhaus Feldkirch", "operator": "Vlbg. Krankenhaus- Betriebsgesellschaft.m.b.h.", "source": "https://www.landeskrankenhaus.at/gesundheitsunternehmen/standorte", "toilets:wheelchair": "yes", "website": "https://www.landeskrankenhaus.at/gesundheitsunternehmen/standorte/lkh-feldkirch", "wheelchair": "yes", "wikidata": "Q1802323"}}, {"name": "Psychiatrische Klinik Waldhaus", "latitude": 46.8693507, "longitude": 9.5408535, "source": "osm", "_tags": {"amenity": "hospital", "healthcare": "hospital", "healthcare:speciality": "psychiatry", "name": "Psychiatrische Klinik Waldhaus", "name:rm": "Clinica Waldhaus", "operator": "Psychiatrische Dienste Graubünden (PDGR)", "operator:type": "government", "phone": "+41 58 225 25 25", "website": "https://www.pdgr.ch/standorte/klinik-waldhaus-chur/", "wheelchair": "yes", "wikidata": "Q10964876", "wikipedia": "de:Klinik Waldhaus"}}, {"name": "Kantonsspital Graubünden, Standort Walenstadt", "latitude": 47.1208057, "longitude": 9.3105107, "source": "osm", "_tags": {"addr:city": "Walenstadt", "addr:housenumber": "5", "addr:postcode": "8880", "addr:street": "Spitalstrasse", "amenity": "hospital", "emergency": "yes", "healthcare": "hospital", "name": "Kantonsspital Graubünden, Standort Walenstadt", "operator": "Kantonsspital Graubünden", "phone": "+41817361111"}}, {"name": "Spital Davos", "latitude": 46.787518, "longitude": 9.8145124, "source": "osm", "_tags": {"amenity": "hospital", "emergency": "yes", "healthcare": "hospital", "healthcare:speciality": "paediatrics;emergency;community;surgery;internal", "name": "Spital Davos", "wheelchair": "yes", "wikidata": "Q2311207"}}, {"name": "Landeskrankenhaus Hohenems", "latitude": 47.3628515, "longitude": 9.6813683, "source": "osm", "_tags": {"addr:city": "Hohenems", "addr:country": "AT", "addr:housenumber": "31", "addr:postcode": "6845", "addr:street": "Bahnhofstraße", "amenity": "hospital", "building": "hospital", "contact:email": "office@lkhh.at", "contact:phone": "+43 5576 703 0", "contact:website": "https://www.landeskrankenhaus.at/gesundheitsunternehmen/standorte/lkh-hohenems", "healthcare": "hospital", "healthcare:speciality": "emergency", "name": "Landeskrankenhaus Hohenems", "short_name": "LKH Hohenems", "toilets:wheelchair": "yes", "wheelchair": "yes", "wikidata": "Q14532161", "wikipedia": "de:Landeskrankenhaus Hohenems"}}, {"name": "Spital Oberengadin / Ospidel Engiadin'Ota", "latitude": 46.5400078, "longitude": 9.8787667, "source": "osm", "_tags": {"amenity": "hospital", "contact:phone": "+41 818518111", "emergency": "yes", "healthcare": "hospital", "healthcare:speciality": "intensive", "name": "Spital Oberengadin / Ospidel Engiadin'Ota", "name:de": "Spital Oberengadin", "name:rm": "Ospidel Engiadin'Ota", "website": "https://www.spital-oberengadin.ch/", "wikidata": "Q2311225"}}, {"name": "Ambi Wattwil Berit Klinik", "latitude": 47.2981091, "longitude": 9.0839204, "source": "osm", "_tags": {"addr:city": "Wattwil", "addr:postcode": "9630", "addr:street": "Steig", "amenity": "hospital", "emergency": "yes", "healthcare": "hospital", "name": "Ambi Wattwil Berit Klinik", "operator": "Berit Klinik", "operator:type": "private", "website": "https://beritklinik.ch/berit-klinik-wattwil-landingpage/"}}, {"name": "Landeskrankenhaus Bludenz", "latitude": 47.1596454, "longitude": 9.8207834, "source": "osm", "_tags": {"addr:city": "Bludenz", "addr:country": "AT", "addr:housenumber": "13", "addr:postcode": "6700", "addr:street": "Spitalgasse", "amenity": "hospital", "building": "yes", "healthcare": "hospital", "healthcare:speciality": "emergency", "name": "Landeskrankenhaus Bludenz", "wheelchair": "yes", "wikidata": "Q1802320", "wikipedia": "de:Landeskrankenhaus Bludenz"}}, {"name": "Landeskrankenhaus Rankweil", "latitude": 47.2602974, "longitude": 9.6473235, "source": "osm", "_tags": {"addr:city": "Rankweil", "addr:country": "AT", "addr:housenumber": "16", "addr:postcode": "6830", "addr:street": "Valdunastraße", "alt_name": "LKH Rankweil", "amenity": "hospital", "contact:email": "office@lkhr.at", "contact:fax": "+43 5522 403 6500", "contact:phone": "+43 5522 403 0", "contact:website": "http://www.lkhr.at", "healthcare": "hospital", "name": "Landeskrankenhaus Rankweil", "note": "Umriss laut Flächenwidmungsplan", "opening_hours": "Mo-Fr 07:30-16:00", "operator": "Vorarlberger Krankenhaus-Betriebsgesellschaft.m.b.H.", "reg_name": "Valduna", "wikidata": "Q1802326", "wikipedia": "de:Landeskrankenhaus Rankweil"}}, {"name": "Liechtensteinisches Landesspital", "latitude": 47.1346464, "longitude": 9.5226891, "source": "osm", "_tags": {"addr:city": "Vaduz", "addr:country": "LI", "addr:housenumber": "25", "addr:postcode": "9490", "addr:street": "Heiligkreuz", "amenity": "hospital", "emergency": "yes", "healthcare": "hospital", "name": "Liechtensteinisches Landesspital", "phone": "+423 235 44 11", "website": "https://www.landesspital.li/", "wikidata": "Q15825831", "wikipedia": "de:Liechtensteinisches Landesspital"}}, {"name": "Frauenklinik Fontana", "latitude": 46.8609503, "longitude": 9.5420706, "source": "osm", "_tags": {"addr:city": "Chur", "addr:housenumber": "118", "addr:postcode": "7000", "addr:street": "Lürlibadstrasse", "amenity": "hospital", "email": "frauenklinik@ksgr.ch", "healthcare": "hospital", "name": "Frauenklinik Fontana", "operator": "Kantonsspital Graubünden", "phone": "+41 81 254 81 11", "website": "https://www.ksgr.ch/frauenklinik"}}, {"name": "Kantonsspital Graubünden", "latitude": 46.8636829, "longitude": 9.5396867, "source": "osm", "_tags": {"addr:city": "Chur", "addr:housenumber": "170", "addr:postcode": "7000", "addr:street": "Loëstrasse", "amenity": "hospital", "contact:phone": "+41 812566111", "contact:website": "https://www.ksgr.ch/", "emergency": "yes", "healthcare": "hospital", "healthcare:speciality": "intensive", "name": "Kantonsspital Graubünden", "wikidata": "Q1728149", "wikimedia_commons": "File:Kantonsspital Graubünden, Haus D.jpg", "wikipedia": "de:Kantonsspital Graubünden"}}, {"name": "Kreuzspital Chur", "latitude": 46.8602687, "longitude": 9.536271, "source": "osm", "_tags": {"addr:city": "Chur", "addr:housenumber": "99", "addr:postcode": "7000", "addr:street": "Loëstrasse", "amenity": "hospital", "contact:phone": "+41 812552111", "contact:website": "https://www.ksgr.ch/", "healthcare": "hospital", "name": "Kreuzspital Chur", "operator": "Kantonsspital Graubünden", "phone": "+41 81 255 21 11", "wheelchair": "yes"}}, {"name": "Spital Linth", "latitude": 47.2235934, "longitude": 8.994834, "source": "osm", "_tags": {"addr:city": "Uznach", "addr:country": "CH", "addr:housenumber": "25", "addr:postcode": "8730", "addr:street": "Gasterstrasse", "amenity": "hospital", "emergency": "yes", "name": "Spital Linth", "phone": "+41 55 285 41 11", "website": "https://www.spital-linth.ch/", "wikidata": "Q33121426"}}, {"name": "Spital Grabs", "latitude": 47.1735033, "longitude": 9.4488832, "source": "osm", "_tags": {"addr:city": "Grabs", "addr:country": "CH", "addr:housenumber": "44", "addr:postcode": "9472", "addr:street": "Spitalstrasse", "amenity": "hospital", "emergency": "yes", "healthcare": "hospital", "healthcare:speciality": "intensive", "name": "Spital Grabs", "phone": "+41 81 772 51 11", "source": "survey", "website": "https://srrws.ch/", "wheelchair": "yes"}}, {"name": "Kantonsspital Glarus", "latitude": 47.0451334, "longitude": 9.0653615, "source": "osm", "_tags": {"addr:city": "Glarus", "addr:country": "CH", "addr:housenumber": "99", "addr:postcode": "8750", "addr:street": "Burgstrasse", "amenity": "hospital", "emergency": "yes", "internet_access": "wlan", "name": "Kantonsspital Glarus", "name:de": "Kantonsspital Glarus", "opening_hours": "24/7", "phone": "+41 55 646 33 33", "website": "https://www.ksgl.ch"}}, {"name": "Spital regiunal Surselva", "latitude": 46.7769359, "longitude": 9.2052749, "source": "osm", "_tags": {"addr:city": "Glion", "addr:housenumber": "6", "addr:postcode": "7130", "addr:street": "Spitalstrasse", "amenity": "hospital", "email": "info@spitalilanz.ch", "emergency": "yes", "healthcare": "hospital", "name": "Spital regiunal Surselva", "name:de": "Regionalspital Bündner Oberland", "name:rm": "Spital regiunal Surselva", "old_name": "Spital St. Niklaus Ilanz", "phone": "+41 81 926 51 11", "url": "http://www.spitalilanz.ch"}}, {"name": "Spital Thusis", "latitude": 46.6970981, "longitude": 9.436782, "source": "osm", "_tags": {"amenity": "hospital", "emergency": "yes", "healthcare": "hospital", "name": "Spital Thusis", "phone": "+41 81 632 11 11", "website": "https://www.spitalthusis.ch/"}}, {"name": "Reha Seewis", "latitude": 46.9892048, "longitude": 9.6370067, "source": "osm", "_tags": {"addr:city": "Seewis Dorf", "addr:country": "CH", "addr:housename": "Reha Seewis", "addr:housenumber": "1", "addr:postcode": "7212", "addr:street": "Schlossstrasse", "amenity": "hospital", "check_date": "2025-04-21", "healthcare": "rehabilitation", "healthcare:speciality": "cardiology", "name": "Reha Seewis", "phone": "+4181 307 5252", "website": "https://www.rehaseewis.ch/home.html"}}, {"name": "Spital Altstätten", "latitude": 47.3824331, "longitude": 9.5412378, "source": "osm", "_tags": {"addr:city": "Altstätten", "addr:country": "CH", "addr:housenumber": "6", "addr:postcode": "9450", "addr:street": "F.-Marolanistrasse", "amenity": "hospital", "emergency": "yes", "healthcare": "hospital", "name": "Spital Altstätten", "operator": "Spitalregion Rheintal Werdenberg Sarganserland", "phone": "+41 71 757 44 11", "website": "https://www.srrws.ch/ueber-uns/organisation/spitaeler/spital-altstaetten.html"}}, {"name": "Kreisspital Surses", "latitude": 46.595191, "longitude": 9.6005996, "source": "osm", "_tags": {"amenity": "hospital", "healthcare": "hospital", "name": "Kreisspital Surses", "operator": "Center da Sanadad Savognin SA", "phone": "+41 81 669 14 00", "website": "https://www.spital-savognin.ch/"}}, {"name": "Spital Schiers", "latitude": 46.9710672, "longitude": 9.6861621, "source": "osm", "_tags": {"addr:city": "Schiers", "addr:country": "CH", "addr:housenumber": "7", "addr:postcode": "7220", "addr:street": "Tersierstrasse", "amenity": "hospital", "name": "Spital Schiers", "phone": "+41 81 308 08 08", "website": "https://www.flurystiftung.ch/Startseite.20.0.html"}}, {"name": "Klinik Gais", "latitude": 47.3715437, "longitude": 9.4736806, "source": "osm", "_tags": {"addr:city": "Gais", "addr:country": "CH", "addr:housenumber": "1172", "addr:postcode": "9056", "addr:street": "Gäbrisstrasse", "amenity": "hospital", "emergency": "no", "healthcare": "rehabilitation", "healthcare:speciality": "rehabilitation", "name": "Klinik Gais", "operator": "Klinik Gais AG", "phone": "+41 71 791 66 33", "website": "https://www.klinik-gais.ch/home/"}}, {"name": "Klinik St.Pirminsberg", "latitude": 46.9903475, "longitude": 9.5008986, "source": "osm", "_tags": {"amenity": "hospital", "healthcare": "hospital", "name": "Klinik St.Pirminsberg"}}, {"name": "Klinik Gut", "latitude": 46.4834824, "longitude": 9.8352633, "source": "osm", "_tags": {"addr:city": "St. Moritz", "addr:housenumber": "2", "addr:postcode": "7500", "addr:street": "Plazza Paracelsus", "amenity": "hospital", "building": "hospital", "healthcare": "hospital", "name": "Klinik Gut", "name:de": "Klinik Gut", "name:rm": "Clinica Gut"}}, {"name": "Spital Herisau", "latitude": 47.3882537, "longitude": 9.2838516, "source": "osm", "_tags": {"amenity": "hospital", "healthcare": "hospital", "healthcare:speciality": "intensive", "name": "Spital Herisau", "phone": "+41 71 353 21 11", "type": "multipolygon"}}]