[{"name": "Dispensarul Municipal Dermato-Venerologic", "latitude": 47.0182462, "longitude": 28.848198, "source": "osm", "_tags": {"addr:city": "Chișinău", "addr:country": "MD", "addr:district": "Municipiul Chișinău", "addr:housenumber": "47", "addr:postcode": "MD-2001", "addr:street": "Strada Columna", "amenity": "hospital", "check_date": "2023-01-01", "healthcare": "hospital", "name": "Dispensarul Municipal Dermato-Venerologic", "name:ru": "Кожновенерологический диспансер"}}, {"name": "Comisia medicală a conducătorilor mijloacelor de transport", "latitude": 47.0180662, "longitude": 28.8484489, "source": "osm", "_tags": {"addr:city": "Chișinău", "addr:country": "MD", "addr:district": "Municipiul Chișinău", "addr:housenumber": "47", "addr:postcode": "MD-2001", "addr:street": "Strada Ismail", "amenity": "hospital", "check_date": "2022-07-01", "emergency": "no", "healthcare": "hospital", "name": "Comisia medicală a conducătorilor mijloacelor de transport", "website": "https://www.comisieauto.md/"}}, {"name": "", "latitude": 47.1461384, "longitude": 28.6199164, "source": "osm", "_tags": {"amenity": "hospital", "healthcare": "hospital"}}, {"name": "Immuno+", "latitude": 46.9771049, "longitude": 28.8601458, "source": "osm", "_tags": {"addr:city": "Chișinău", "addr:country": "MD", "addr:district": "Municipiul Chișinău", "addr:housenumber": "34/1", "addr:street": "Strada Independenței", "amenity": "hospital", "healthcare": "hospital", "name": "Immuno+", "name:ru": "Иммуно+"}}, {"name": "Centrul de Diagnostic German", "latitude": 47.0139232, "longitude": 28.8518596, "source": "osm", "_tags": {"addr:city": "Chișinău", "addr:country": "MD", "addr:district": "Municipiul Chișinău", "addr:housenumber": "4/2", "addr:street": "Bulevardul Constantin Negruzzi", "amenity": "hospital", "check_date": "2022-10-01", "healthcare": "hospital", "name": "Centrul de Diagnostic German", "name:ru": "Немецкий диагностический центр", "opening_hours": "Mo-Fr 08:00-22:00; Sa 08:00-16:00"}}, {"name": "Centrul Medical „Sfântul Panteleimon”", "latitude": 47.0515477, "longitude": 28.8931644, "source": "osm", "_tags": {"addr:city": "Chișinău", "addr:country": "MD", "addr:district": "Municipiul Chișinău", "addr:housenumber": "15", "addr:street": "Strada Igor Vieru", "amenity": "hospital", "healthcare": "hospital", "name": "Centrul Medical „Sfântul Panteleimon”", "name:ru": "Медицинский центр Святого Пантелеймона", "operator": "Dac Slav Biznes SRL"}}, {"name": "", "latitude": 46.4410409, "longitude": 28.3311178, "source": "osm", "_tags": {"amenity": "hospital"}}, {"name": "Oficiu Medicilor de Familie", "latitude": 47.1689802, "longitude": 28.8296547, "source": "osm", "_tags": {"amenity": "hospital", "name": "Oficiu Medicilor de Familie", "name:ru": "Офис Семейных Врачей"}}, {"name": "Centrul de sănătate Boghiceni", "latitude": 46.9436372, "longitude": 28.323597, "source": "osm", "_tags": {"amenity": "hospital", "name": "Centrul de sănătate Boghiceni"}}, {"name": "Centrul de sănătate „Grătiești“", "latitude": 47.0928967, "longitude": 28.83109, "source": "osm", "_tags": {"addr:city": "Grătiești", "amenity": "hospital", "healthcare": "hospital", "name": "Centrul de sănătate „Grătiești“", "name:en": "\"Gratiesti\" Health Center", "name:ru": "Оздоровительный центр «Гратиешты»"}}, {"name": "Centru Sănătății din sat. Năpădeni", "latitude": 47.4038859, "longitude": 28.1481526, "source": "osm", "_tags": {"amenity": "hospital", "name": "Centru Sănătății din sat. Năpădeni"}}, {"name": "Centrul Medical Consultativ „Lacteia”", "latitude": 47.0159654, "longitude": 28.8261494, "source": "osm", "_tags": {"addr:city": "Chișinău", "addr:country": "MD", "addr:district": "Municipiul Chișinău", "addr:housenumber": "2", "addr:postcode": "MD-2009", "addr:street": "Strada Vlaicu Pîrcălab", "amenity": "clinic", "healthcare": "hospital", "name": "Centrul Medical Consultativ „Lacteia”", "name:ru": "Медицинский консультативный центр «Лактея»", "opening_hours": "Mo-Fr 08:00-19:00; Sa 08:00-14:00"}}, {"name": "Spitalul Raducaneni", "latitude": 46.9634263, "longitude": 27.9426741, "source": "osm", "_tags": {"amenity": "hospital", "name": "Spitalul Raducaneni"}}, {"name": "Clinica de chirurgie estetică „Neogen”", "latitude": 47.0032377, "longitude": 28.8274365, "source": "osm", "_tags": {"addr:city": "Chișinău", "addr:country": "MD", "addr:district": "Municipiul Chișinău", "addr:housenumber": "37", "addr:postcode": "MD-2009", "addr:street": "Strada Mihail Lomonosov", "amenity": "hospital", "healthcare": "hospital", "name": "Clinica de chirurgie estetică „Neogen”"}}, {"name": "Spitalul Municipal Huși", "latitude": 46.6751099, "longitude": 28.0502675, "source": "osm", "_tags": {"amenity": "hospital", "name": "Spitalul Municipal Huși"}}, {"name": "Centrul de Sănătate „Bujor”", "latitude": 46.9180966, "longitude": 28.2685495, "source": "osm", "_tags": {"amenity": "hospital", "emergency": "no", "healthcare": "hospital", "healthcare:speciality": "general", "name": "Centrul de Sănătate „Bujor”"}}, {"name": "Centrul Medical „Neurogen”", "latitude": 47.0401086, "longitude": 28.8891076, "source": "osm", "_tags": {"addr:city": "Chișinău", "addr:country": "MD", "addr:district": "Municipiul Chișinău", "addr:housenumber": "3/2", "addr:postcode": "MD-2044", "addr:street": "Bulevardul Mircea cel Bătrân", "amenity": "hospital", "check_date": "2022-05-01", "contact:email": "neurogenmoldova@gmail.com", "contact:facebook": "https://www.facebook.com/clinicaneurogen/", "contact:phone": "+37379858324", "contact:website": "www.neurogen.md", "healthcare": "hospital", "healthcare:speciality": "general", "name": "Centrul Medical „Neurogen”", "note": "Parking spots available", "opening_hours": "Mo-Fr 08:30-19:00; Sa 08:30-13:00; Su off", "operator": "Neurogen", "operator:type": "public"}}, {"name": "Spital", "latitude": 47.1311418, "longitude": 28.7131358, "source": "osm", "_tags": {"amenity": "hospital", "healthcare": "hospital", "name": "Spital", "name:ru": "Больница"}}, {"name": "", "latitude": 47.2383068, "longitude": 28.8220552, "source": "osm", "_tags": {"addr:city": "Stețcani", "amenity": "hospital", "healthcare": "hospital"}}, {"name": "VITADENT", "latitude": 47.0770399, "longitude": 28.1848522, "source": "osm", "_tags": {"amenity": "hospital", "healthcare": "hospital", "name": "VITADENT"}}, {"name": "Clinica Dentară „Innova”", "latitude": 46.9879222, "longitude": 28.8446806, "source": "osm", "_tags": {"addr:city": "Chișinău", "addr:country": "MD", "addr:district": "Municipiul Chișinău", "addr:housenumber": "6,", "addr:postcode": "MD-2043", "addr:street": "Strada Hristo Botev", "amenity": "hospital", "healthcare": "hospital", "healthcare:speciality": "dentist", "name": "Clinica Dentară „Innova”", "name:ru": "Стоматологическая клиника «Иннова»"}}, {"name": "Centrul de Sănătate Com. Bubueci", "latitude": 46.9805268, "longitude": 28.9350831, "source": "osm", "_tags": {"addr:country": "MD", "addr:housenumber": "22a", "addr:street": "Strada Miorița", "amenity": "hospital", "email": "cs.bubuieci@ms.md", "name": "Centrul de Sănătate Com. Bubueci", "name:en": "Bubuieci Commune Health Center", "name:ro": "Centrul de Sănătate Comuna Bubuieci", "name:ru": "Медицинский центр ком. Бубуечь", "opening_hours": "Mo-Fr 07:00-19:00; Sa 08:00-12:00", "phone": "+373 22 414 958", "website": "https://csbubuieci.md"}}, {"name": "", "latitude": 47.027263, "longitude": 28.8200915, "source": "osm", "_tags": {"amenity": "hospital", "healthcare": "hospital"}}, {"name": "Centrul Republican de Diagnostică Medicală / Institutul de Pneumologie „Chiril Draganiuc”", "latitude": 46.9967617, "longitude": 28.8322032, "source": "osm", "_tags": {"addr:city": "Chișinău", "addr:country": "MD", "addr:district": "Municipiul Chișinău", "addr:housenumber": "13", "addr:street": "Strada Constantin Vârnav", "alt_name": "Centrul Diagnostic", "amenity": "hospital", "check_date": "2023-02-01", "email": "crdm@mednet.md", "healthcare": "hospital", "healthcare:speciality": "general;internal;radiology;biology;dermatology", "name": "Centrul Republican de Diagnostică Medicală / Institutul de Pneumologie „Chiril Draganiuc”", "name:ru": "Республиканский диагностический центр", "website": "http://crdm.ms.md/"}}, {"name": "Spitalul de Stat", "latitude": 47.0069558, "longitude": 28.814107, "source": "osm", "_tags": {"addr:city": "Chișinău", "addr:country": "MD", "addr:district": "Municipiul Chișinău", "addr:housenumber": "34", "addr:postcode": "MD-2021", "addr:street": "Strada Drumul Viilor", "amenity": "hospital", "healthcare": "hospital", "name": "Spitalul de Stat"}}, {"name": "Spitalul Clinic de Boli Infecțioase „Toma Ciorbă”", "latitude": 47.0327255, "longitude": 28.8181113, "source": "osm", "_tags": {"addr:city": "Chișinău", "addr:country": "MD", "addr:district": "Municipiul Chișinău", "addr:housenumber": "163", "addr:postcode": "MD-2004", "addr:street": "Bulevardul Ștefan cel Mare și Sfânt", "amenity": "hospital", "healthcare": "hospital", "name": "Spitalul Clinic de Boli Infecțioase „Toma Ciorbă”", "name:en": "Toma Ciorbă Clinical Hospital of Infectious Diseases", "name:ru": "Республиканская инфекционная больница имени Тома Чорбэ"}}, {"name": "Spitalul Clinic al Ministerului Sănătății (Clinica nr. 2 / Secția Consultativ-Diagnostică nr. 2 / Centrul de Recuperare Sanatorială)", "latitude": 47.0017324, "longitude": 28.8305564, "source": "osm", "_tags": {"addr:city": "Chișinău", "addr:country": "MD", "addr:district": "Municipiul Chișinău", "addr:housenumber": "37", "addr:postcode": "MD-2025", "addr:street": "Strada Gheorghe Cașu", "amenity": "hospital", "healthcare": "hospital", "name": "Spitalul Clinic al Ministerului Sănătății (Clinica nr. 2 / Secția Consultativ-Diagnostică nr. 2 / Centrul de Recuperare Sanatorială)", "name:ru": "Клиническая Больница Министерства Здравоохранения (Клиника №2 / Консультативно-Диагностическое Отделение №2 / Санаторно-Восстановительный Центр)", "operator": "Instituția Medico-Sanitară Publică „Spitalul Clinic al Ministerului Sănătății”", "operator:type": "public", "website": "https://scms.md/"}}, {"name": "Institutul de Medicină Urgentă", "latitude": 47.0292571, "longitude": 28.8185251, "source": "osm", "_tags": {"addr:city": "Chișinău", "addr:country": "MD", "addr:district": "Municipiul Chișinău", "addr:housenumber": "1", "addr:postcode": "MD-2004", "addr:street": "Strada Toma Ciorbă", "amenity": "hospital", "emergency": "yes", "healthcare": "hospital", "healthcare:speciality": "emergency", "name": "Institutul de Medicină Urgentă", "name:de": "Institut für Notfallmedizin", "name:en": "Institute of Emergency Medicine", "name:fr": "Institut de Médecine d'Urgence", "name:ru": "Институт неотложной медицины", "phone": "+373 22 25 07 04", "website": "https://www.urgenta.md/", "wikidata": "Q12741190", "wikipedia": "ro:Spitalul Clinic Municipal de Urgență (Chișinău)"}}, {"name": "Centrul Național de Transfuzie a Sângelui (CNTS)", "latitude": 47.0033764, "longitude": 28.8133772, "source": "osm", "_tags": {"addr:city": "Chișinău", "addr:country": "MD", "addr:district": "Municipiul Chișinău", "addr:housenumber": "11", "addr:street": "Strada Academiei", "amenity": "hospital", "healthcare": "hospital", "name": "Centrul Național de Transfuzie a Sângelui (CNTS)", "name:en": "National Blood Transfusion Center", "name:ru": "Национальный центр переливания крови", "opening_hours": "Mo-Sa 08:00-12:00,12:30-15:00", "phone": "+373 22 109 055", "website": "https://cnts.md/"}}, {"name": "IMSP Spitalul Raional Ialoveni", "latitude": 46.9542268, "longitude": 28.7709051, "source": "osm", "_tags": {"addr:city": "Ialoveni", "addr:country": "MD", "addr:district": "Raionul Ialoveni", "addr:housenumber": "7", "addr:postcode": "MD-6801", "addr:street": "Strada Alexandru cel Bun", "amenity": "hospital", "healthcare": "hospital", "name": "IMSP Spitalul Raional Ialoveni", "name:ru": "Яловенская районная больница", "opening_hours": "Mo-Fr 08:00-17:00", "phone": "+37326821252"}}, {"name": "Spitalul Raional Strășeni", "latitude": 47.1415914, "longitude": 28.6198046, "source": "osm", "_tags": {"addr:city": "Strășeni", "addr:country": "MD", "addr:housenumber": "11/1", "addr:postcode": "MD-3702", "addr:street": "Strada Toma Ciorbă", "amenity": "hospital", "email": "srstraseni@ms.md", "emergency": "yes", "healthcare": "hospital", "healthcare:speciality": "general", "name": "Spitalul Raional Strășeni", "name:ru": "Районная больница г. Страшены", "phone": "0237 22448", "website": "https://imspsrstraseni.md/"}}, {"name": "", "latitude": 47.1327182, "longitude": 28.385554, "source": "osm", "_tags": {"amenity": "hospital"}}, {"name": "Spital", "latitude": 47.1327278, "longitude": 28.3856908, "source": "osm", "_tags": {"amenity": "hospital", "building": "yes", "name": "Spital", "name:ru": "Больница"}}, {"name": "Spitalul Raional Leova", "latitude": 46.4802533, "longitude": 28.2506303, "source": "osm", "_tags": {"addr:city": "Leova", "addr:country": "MD", "addr:street": "Strada Ștefan cel Mare și Sfânt", "amenity": "hospital", "healthcare": "hospital", "name": "Spitalul Raional Leova", "name:bg": "Района болница Леова", "name:ro": "Spitalul Raional Leova", "name:ru": "Районная Больница"}}, {"name": "Centrul Consultativ Diagnostic AMT Rîșcani", "latitude": 47.0438211, "longitude": 28.8663705, "source": "osm", "_tags": {"addr:city": "Chișinău", "addr:country": "MD", "addr:district": "Municipiul Chișinău", "addr:housenumber": "11", "addr:street": "Strada Alecu Russo", "amenity": "hospital", "building:levels": "5", "healthcare": "hospital", "name": "Centrul Consultativ Diagnostic AMT Rîșcani", "name:ru": "Консультативно-Диагностический Центр", "old_name": "Policlinica №6"}}, {"name": "Spitalul Clinic Municipal nr. 2 „Sfântul Arhanghel Mihail”", "latitude": 47.0330579, "longitude": 28.8416863, "source": "osm", "_tags": {"addr:city": "Chișinău", "addr:country": "MD", "addr:district": "Municipiul Chișinău", "addr:housenumber": "38", "addr:postcode": "MD-2005", "addr:street": "Strada Arhanghel Mihail", "amenity": "hospital", "email": "arhanghel_mihail@yahoo.com", "emergency": "yes", "healthcare": "hospital", "name": "Spitalul Clinic Municipal nr. 2 „Sfântul Arhanghel Mihail”", "name:en": "Saint Michael the Archangel Municipal Clinical Hospital no. 2", "name:ru": "Муниципальная клиническая больница Nº2 «Святой Архангел Михаил»", "phone": "+373 22 292 652", "website": "https://www.spital.arhanghelmihail.md/"}}, {"name": "Spitalul Raional Călărași", "latitude": 47.2546403, "longitude": 28.3285016, "source": "osm", "_tags": {"addr:city": "Călărași", "amenity": "hospital", "emergency": "yes", "healthcare": "hospital", "name": "Spitalul Raional Călărași", "name:ru": "Районная Больница"}}, {"name": "Centrul de Medicină Legală", "latitude": 46.9947601, "longitude": 28.8257001, "source": "osm", "_tags": {"addr:city": "Chișinău", "addr:country": "MD", "addr:district": "Municipiul Chișinău", "addr:housenumber": "8", "addr:postcode": "MD-2025", "addr:street": "Strada Vladimir Korolenko", "amenity": "hospital", "healthcare": "hospital", "name": "Centrul de Medicină Legală", "name:ru": "Центр Судебной Медицины"}}, {"name": "Spitalul Clinic Municipal de Boli Contagioase de Copii", "latitude": 46.9988352, "longitude": 28.8260519, "source": "osm", "_tags": {"addr:city": "Chișinău", "addr:country": "MD", "addr:district": "Municipiul Chișinău", "addr:housenumber": "49", "addr:street": "Strada Mihail Lomonosov", "amenity": "hospital", "healthcare": "hospital", "name": "Spitalul Clinic Municipal de Boli Contagioase de Copii", "name:ru": "Детская инфекционная больница"}}, {"name": "Blocul central", "latitude": 47.0179337, "longitude": 28.8281417, "source": "osm", "_tags": {"addr:city": "Chișinău", "addr:country": "MD", "addr:district": "Municipiul Chișinău", "addr:housenumber": "17", "addr:street": "Strada Vlaicu Pârcălab", "amenity": "hospital", "building": "yes", "healthcare": "hospital", "name": "Blocul central"}}, {"name": "Policlinica Stomatologică Republicană, Secția Copii", "latitude": 47.0176531, "longitude": 28.8285766, "source": "osm", "_tags": {"addr:city": "Chișinău", "addr:country": "MD", "addr:district": "Municipiul Chișinău", "addr:housenumber": "48", "addr:street": "Strada Mihail Kogălniceanu", "amenity": "hospital", "building": "yes", "healthcare": "hospital", "healthcare:speciality": "dentistry;paediatrics", "name": "Policlinica Stomatologică Republicană, Secția Copii", "name:ru": "Республиканская стоматологическая поликлиника, Детское Отделение"}}, {"name": "Spitalul Clinic de Traumatologie și Ortopedie", "latitude": 47.0333327, "longitude": 28.8213884, "source": "osm", "_tags": {"addr:country": "MD", "addr:housenumber": "190", "addr:street": "Bulevardul Ștefan cel Mare", "amenity": "hospital", "healthcare": "hospital", "name": "Spitalul Clinic de Traumatologie și Ortopedie", "name:ru": "Клиническая больница Травматологии и Ортопедии"}}, {"name": "Spitalul de Dermatologie și Maladii Comunicabile", "latitude": 46.9505527, "longitude": 28.8326558, "source": "osm", "_tags": {"addr:city": "Codru", "addr:country": "MD", "addr:housenumber": "5/1", "addr:street": "Strada Costiujeni", "amenity": "hospital", "healthcare": "hospital", "healthcare:speciality": "dermatology", "name": "Spitalul de Dermatologie și Maladii Comunicabile", "name:ru": "Республиканский Кожно-Венерологический Диспансер", "website": "https://sdmc.md/"}}, {"name": "Centrul de Sănătate Durlești", "latitude": 47.018035, "longitude": 28.7453827, "source": "osm", "_tags": {"addr:city": "Durlești", "addr:country": "MD", "addr:housenumber": "56", "addr:street": "Strada Cartușa", "amenity": "hospital", "healthcare": "hospital", "name": "Centrul de Sănătate Durlești", "name:ru": "Центр семейных врачей", "official_name": "Instituția Medico - Sanitară Publică Centrul de Sănătate Durlești"}}, {"name": "Spitalul Clinic al Ministerului Sănătății", "latitude": 47.031105, "longitude": 28.8459384, "source": "osm", "_tags": {"addr:city": "Chișinău", "addr:country": "MD", "addr:district": "Municipiul Chișinău", "addr:housenumber": "51", "addr:street": "Strada Alexandr Pușkin", "amenity": "hospital", "emergency": "yes", "healthcare": "hospital", "name": "Spitalul Clinic al Ministerului Sănătății", "name:ru": "Клиническая Больница Министерства Здравоохранения"}}, {"name": "Spital", "latitude": 46.4501771, "longitude": 28.8778346, "source": "osm", "_tags": {"addr:city": "Sadaclia", "amenity": "hospital", "building": "yes", "healthcare": "hospital", "name": "Spital", "name:ru": "Больница"}}, {"name": "ExtraMed&Excellence", "latitude": 46.9894021, "longitude": 28.8280483, "source": "osm", "_tags": {"addr:city": "Chișinău", "addr:country": "MD", "addr:district": "Municipiul Chișinău", "addr:housenumber": "23", "addr:street": "Strada Grenoble", "amenity": "hospital", "building": "yes", "healthcare": "hospital", "name": "ExtraMed&Excellence"}}, {"name": "Punct Medical", "latitude": 46.8248656, "longitude": 28.3680817, "source": "osm", "_tags": {"amenity": "hospital", "building": "yes", "healthcare": "hospital", "name": "Punct Medical", "name:ru": "Медпункт"}}, {"name": "", "latitude": 46.9955075, "longitude": 28.8670059, "source": "osm", "_tags": {"addr:country": "MD", "addr:housenumber": "37", "addr:street": "Strada Nicolae Titulescu", "amenity": "hospital", "building": "yes", "building:levels": "3", "healthcare": "hospital"}}, {"name": "Centrul Medicilor de Familie nr. 4", "latitude": 47.0324384, "longitude": 28.8044949, "source": "osm", "_tags": {"addr:city": "Chișinău", "addr:country": "MD", "addr:district": "Municipiul Chișinău", "addr:housenumber": "24", "addr:postcode": "MD-2064", "addr:street": "Strada Ion Creangă", "amenity": "hospital", "healthcare": "hospital", "name": "Centrul Medicilor de Familie nr. 4", "name:ru": "Центр семейных врачей №4"}}, {"name": "Centrul de Sănătate Stăuceni", "latitude": 47.0914565, "longitude": 28.8665945, "source": "osm", "_tags": {"addr:city": "Stăuceni", "addr:country": "MD", "addr:housenumber": "6", "addr:street": "Strada Păcii", "amenity": "hospital", "healthcare": "hospital", "name": "Centrul de Sănătate Stăuceni", "name:ru": "Центр Здоровья", "opening_hours": "Mo-Sa 08:00-20:00"}}, {"name": "Spitalul Raional Hîncești", "latitude": 46.8345603, "longitude": 28.5797261, "source": "osm", "_tags": {"addr:city": "Hîncești", "addr:country": "MD", "addr:housenumber": "206", "addr:street": "Strada Mihalcea Hîncu", "amenity": "hospital", "healthcare": "hospital", "name": "Spitalul Raional Hîncești", "name:ru": "Хынчештская районная больница", "wheelchair": "limited"}}, {"name": "Clinica Universitară de Asistentă Medicală Primară a USMF „Nicolae Testimițanu”", "latitude": 47.0276804, "longitude": 28.8215767, "source": "osm", "_tags": {"addr:city": "Chișinău", "addr:country": "MD", "addr:district": "Municipiul Chișinău", "addr:housenumber": "137", "addr:postcode": "MD-2004", "addr:street": "Strada 31 August 1989", "amenity": "clinic", "building": "yes", "building:levels": "3", "description": "Policlinica", "emergency": "no", "healthcare": "hospital", "healthcare:speciality": "general", "name": "Clinica Universitară de Asistentă Medicală Primară a USMF „Nicolae Testimițanu”", "name:ru": "Университетская клиника первичной медико-санитарной помощи ГМФУ имени Николае Тестемицану", "operator": "USMF"}}, {"name": "Spitalul de Tuberculoză Vorniceni", "latitude": 47.1653688, "longitude": 28.4151625, "source": "osm", "_tags": {"addr:city": "Vorniceni", "amenity": "hospital", "healthcare": "hospital", "name": "Spitalul de Tuberculoză Vorniceni", "name:ru": "Туберкулёзный диспансер Ворничен"}}, {"name": "Centrul Medicilor de Familie Vorniceni", "latitude": 47.1521927, "longitude": 28.4264632, "source": "osm", "_tags": {"addr:city": "Vorniceni", "amenity": "hospital", "healthcare": "hospital", "name": "Centrul Medicilor de Familie Vorniceni"}}, {"name": "Centrul de Sănătate Iargara", "latitude": 46.4256782, "longitude": 28.4377329, "source": "osm", "_tags": {"addr:city": "Iargara", "addr:country": "MD", "addr:housenumber": "61", "addr:postcode": "MD-6321", "addr:street": "Strada 31 August 1989", "amenity": "hospital", "barrier": "fence", "healthcare": "hospital", "name": "Centrul de Sănătate Iargara", "name:ru": "Больница"}}, {"name": "MagnaMed", "latitude": 46.9980282, "longitude": 28.8365153, "source": "osm", "_tags": {"addr:city": "Chișinău", "addr:country": "MD", "addr:district": "Municipiul Chișinău", "addr:housenumber": "3", "addr:street": "Strada Academician Natalia Gheorghiu", "amenity": "hospital", "building": "yes", "emergency": "no", "healthcare": "hospital", "name": "MagnaMed", "name:ru": "Магна-мед"}}, {"name": "Dispensar medic de familie", "latitude": 46.7059436, "longitude": 28.0390468, "source": "osm", "_tags": {"amenity": "hospital", "emergency": "no", "name": "Dispensar medic de familie"}}, {"name": "", "latitude": 47.4003347, "longitude": 28.0289995, "source": "osm", "_tags": {"amenity": "hospital", "building": "yes"}}, {"name": "Dispensar Hoceni", "latitude": 46.5381503, "longitude": 28.0111896, "source": "osm", "_tags": {"addr:city": "Hoceni", "addr:postcode": "737285", "amenity": "hospital", "emergency": "no", "name": "Dispensar Hoceni", "operator": "Hoceni"}}, {"name": "Farmacia Hoceni", "latitude": 46.5371009, "longitude": 28.0115457, "source": "osm", "_tags": {"addr:city": "Hoceni", "addr:postcode": "737285", "amenity": "hospital", "emergency": "no", "name": "Farmacia Hoceni", "note": "La acesta farmacie se elibereaza retete compensate", "operator": "Santac"}}, {"name": "Spital raducaneni", "latitude": 46.9635267, "longitude": 27.9421306, "source": "osm", "_tags": {"amenity": "hospital", "healthcare": "hospital", "name": "Spital raducaneni"}}, {"name": "Spitalul Boldurești", "latitude": 47.1356767, "longitude": 28.0476507, "source": "osm", "_tags": {"amenity": "hospital", "healthcare": "hospital", "name": "Spitalul Boldurești"}}, {"name": "Spitalul Clinic Militar Central (SCMC)", "latitude": 47.0239916, "longitude": 28.7978518, "source": "osm", "_tags": {"addr:city": "Chișinău", "addr:country": "MD", "addr:district": "Municipiul Chișinău", "addr:housenumber": "32", "addr:street": "Strada Vasile Lupu", "amenity": "hospital", "healthcare": "hospital", "landuse": "military", "name": "Spitalul Clinic Militar Central (SCMC)", "name:ru": "Центральный военный клинический госпиталь", "name:uk": "Центральний військовий клінічний шпиталь"}}, {"name": "", "latitude": 47.0962697, "longitude": 28.6764706, "source": "osm", "_tags": {"amenity": "hospital", "healthcare": "hospital"}}, {"name": "", "latitude": 47.1313909, "longitude": 28.7133689, "source": "osm", "_tags": {"amenity": "hospital", "healthcare": "hospital"}}, {"name": "", "latitude": 47.2506716, "longitude": 28.7709055, "source": "osm", "_tags": {"amenity": "hospital", "healthcare": "hospital"}}, {"name": "Punctul Medical", "latitude": 46.6970481, "longitude": 28.2307559, "source": "osm", "_tags": {"amenity": "hospital", "healthcare": "hospital", "name": "Punctul Medical", "name:en": "Medical Point"}}, {"name": "PUNCTUL MEDEICAL (s. Șendreni)", "latitude": 47.1220884, "longitude": 28.1818772, "source": "osm", "_tags": {"amenity": "hospital", "healthcare": "hospital", "name": "PUNCTUL MEDEICAL (s. Șendreni)"}}, {"name": "Centrul de Sănătate Publică Nisporeni", "latitude": 47.0852499, "longitude": 28.1817931, "source": "osm", "_tags": {"amenity": "hospital", "healthcare": "hospital", "name": "Centrul de Sănătate Publică Nisporeni"}}, {"name": "Centrul medicilor de familie „Brătuleni”", "latitude": 47.1402918, "longitude": 27.9786839, "source": "osm", "_tags": {"addr:city": "Brătuleni", "addr:country": "MD", "addr:housenumber": "6", "addr:postcode": "MD-6417", "addr:street": "Strada Ștefan cel Mare și Sfânt", "amenity": "hospital", "healthcare": "hospital", "healthcare:speciality": "general", "name": "Centrul medicilor de familie „Brătuleni”"}}, {"name": "VITADENT", "latitude": 47.0770474, "longitude": 28.1848559, "source": "osm", "_tags": {"amenity": "hospital", "healthcare": "hospital", "name": "VITADENT"}}, {"name": "Centrul Medicilor de Familie", "latitude": 46.6736558, "longitude": 28.3289013, "source": "osm", "_tags": {"addr:city": "Mingir", "amenity": "hospital", "name": "Centrul Medicilor de Familie"}}, {"name": "", "latitude": 47.2824308, "longitude": 28.1927421, "source": "osm", "_tags": {"amenity": "hospital", "healthcare": "hospital"}}, {"name": "Centrul Medicilor de Familie nr. 5 „Sfânta Maria”", "latitude": 47.0349074, "longitude": 28.790472, "source": "osm", "_tags": {"addr:city": "Chișinău", "addr:country": "MD", "addr:district": "Municipiul Chișinău", "addr:housenumber": "1", "addr:street": "Strada Ion Luca Caragiale", "amenity": "hospital", "healthcare": "hospital", "name": "Centrul Medicilor de Familie nr. 5 „Sfânta Maria”", "name:ru": "Центр семейных врачей №5", "phone": "+37322592338"}}, {"name": "Instituția Medico-Sanitară Publică Asociația Medicală Teritorială Buiucani", "latitude": 47.0351387, "longitude": 28.7891435, "source": "osm", "_tags": {"addr:city": "Chișinău", "addr:country": "MD", "addr:district": "Municipiul Chișinău", "addr:housenumber": "2", "addr:street": "Strada Ion Luca Caragiale", "amenity": "hospital", "healthcare": "hospital", "name": "Instituția Medico-Sanitară Publică Asociația Medicală Teritorială Buiucani", "name:prg": "Государственное медико-санитарное учреждение Территориальная медицинская ассоциация района Буюканы", "phone": "+37322582922", "website": "https://amtbuiucani.md/"}}, {"name": "Centrul Medicilor de Familie nr. 10", "latitude": 47.0604144, "longitude": 28.8396888, "source": "osm", "_tags": {"addr:city": "Chișinău", "addr:country": "MD", "addr:district": "Municipiul Chișinău", "addr:housenumber": "19", "addr:street": "Strada Socoleni", "amenity": "hospital", "healthcare": "hospital", "name": "Centrul Medicilor de Familie nr. 10", "name:ru": "Центр семейных врачей №10", "operator": "Asociația Medicală Teritorială Rîșcani", "operator:type": "government"}}, {"name": "Centrul de Sănătate „Mileştii Mici”", "latitude": 46.9102588, "longitude": 28.8072753, "source": "osm", "_tags": {"addr:city": "Mileștii Mici", "addr:country": "MD", "addr:district": "Raionul Ialoveni", "addr:housenumber": "1", "addr:postcode": "MD-6819", "addr:street": "Strada Nicolae Testemiţanu", "amenity": "hospital", "healthcare": "hospital", "name": "Centrul de Sănătate „Mileştii Mici”", "phone": "+37326868256"}}, {"name": "Direcția Medico-Sanitară a Serviciului de Informații și Securitate", "latitude": 47.0184274, "longitude": 28.8285339, "source": "osm", "_tags": {"addr:city": "Chișinău", "addr:country": "MD", "addr:district": "Municipiul Chișinău", "addr:housenumber": "23", "addr:street": "Strada Vlaicu Pârcălab", "amenity": "hospital", "healthcare": "hospital", "landuse": "military", "name": "Direcția Medico-Sanitară a Serviciului de Informații și Securitate", "name:en": "Medical-Sanitary Department of the Security and Intelligence Service", "name:ru": "Медико-санитарное управление Службы информации и безопасности", "name:uk": "Медико-санітарне управління Служби інформації та безпеки", "operator": "Serviciul de Informații și Securitate", "operator:type": "military"}}, {"name": "Centrul de Sănătate Publică, Raionul Ialoveni", "latitude": 46.9483923, "longitude": 28.774897, "source": "osm", "_tags": {"addr:city": "Ialoveni", "addr:country": "MD", "addr:district": "Raionul Ialoveni", "addr:housenumber": "23", "addr:postcode": "MD-6801", "addr:street": "Strada Alexandru cel Bun", "amenity": "hospital", "healthcare": "hospital", "name": "Centrul de Sănătate Publică, Raionul Ialoveni", "phone": "+37326822142", "website": "https://ansp.md/"}}, {"name": "Maternitatea Spitalului Raional Ialoveni", "latitude": 46.9480228, "longitude": 28.7747316, "source": "osm", "_tags": {"addr:city": "Ialoveni", "addr:country": "MD", "addr:district": "Raionul Ialoveni", "addr:housenumber": "25", "addr:postcode": "MD-6801", "addr:street": "Strada Alexandru cel Bun", "amenity": "hospital", "healthcare": "hospital", "name": "Maternitatea Spitalului Raional Ialoveni", "phone": "+37326822292"}}, {"name": "IMSP Spitalul Clinic de Psihiatrie", "latitude": 46.9542935, "longitude": 28.8342854, "source": "osm", "_tags": {"addr:city": "Codru", "addr:country": "MD", "addr:housenumber": "3", "addr:street": "Strada Costiujeni", "amenity": "hospital", "healthcare": "hospital", "name": "IMSP Spitalul Clinic de Psihiatrie", "phone": "+37378944901", "website": "http://scp.md/?fbclid=IwAR2B98UeTVxlvbDiExMIQKcImzUkRhbQoqQsAB_N-nbOcDlAHq2xSyhLx80"}}, {"name": "Spitalul, Centrul de Sănătate Publică și Comisia Medicală Centrală a Serviciului Medical al Ministerului Afacerilor Interne", "latitude": 47.0009837, "longitude": 28.8241015, "source": "osm", "_tags": {"addr:city": "Chișinău", "addr:country": "MD", "addr:district": "Municipiul Chișinău", "addr:housenumber": "25b", "addr:street": "Strada Gheorghe Asachi", "amenity": "hospital", "healthcare": "hospital", "name": "Spitalul, Centrul de Sănătate Publică și Comisia Medicală Centrală a Serviciului Medical al Ministerului Afacerilor Interne", "name:ru": "Больница, Центр Общественного Здоровья и Центральная Медицинская Комиссия Медицинской Службы Министерства Внутренних Дел", "operator": "Ministerul Afacerilor Interne", "operator:type": "government"}}, {"name": "Centrul de Sănătate Publică Chișinău", "latitude": 47.0242055, "longitude": 28.8479638, "source": "osm", "_tags": {"addr:city": "Chișinău", "addr:country": "MD", "addr:district": "Municipiul Chișinău", "addr:housenumber": "49", "addr:street": "Strada Alexandru Hâjdeu", "amenity": "hospital", "emergency": "no", "healthcare": "hospital", "name": "Centrul de Sănătate Publică Chișinău", "name:en": "Chisinau Public Health Center", "name:ru": "Кишиневский Центр Общественного Здоровья"}}, {"name": "PAMU Marinici", "latitude": 46.9635782, "longitude": 28.1604261, "source": "osm", "_tags": {"addr:city": "Marinici", "addr:country": "MD", "addr:housenumber": "64", "addr:street": "Strada Tineretului", "amenity": "hospital", "healthcare": "hospital", "name": "PAMU Marinici"}}, {"name": "Dispensarul Republican de Narcologie (Secția nr. 4)", "latitude": 47.0599585, "longitude": 28.8399607, "source": "osm", "_tags": {"amenity": "hospital", "healthcare": "hospital", "name": "Dispensarul Republican de Narcologie (Secția nr. 4)"}}, {"name": "Centrul de Sănătate Răzeni", "latitude": 46.7706238, "longitude": 28.8927967, "source": "osm", "_tags": {"addr:city": "Răzeni", "amenity": "hospital", "healthcare": "hospital", "name": "Centrul de Sănătate Răzeni", "phone": "+37326874703"}}, {"name": "Centrul de Medicină „Speranța”", "latitude": 46.4734124, "longitude": 28.403091, "source": "osm", "_tags": {"addr:city": "Sărata Nouă", "addr:country": "MD", "addr:street": "Iargara-Sărata Nouă", "amenity": "hospital", "barrier": "fence", "healthcare": "hospital", "leisure": "resort", "name": "Centrul de Medicină „Speranța”", "resort": "kids_camp"}}, {"name": "Oficiul Medicilor de Familie „Măcărești”", "latitude": 47.0507406, "longitude": 27.9708231, "source": "osm", "_tags": {"addr:city": "Măcărești", "addr:country": "MD", "addr:housenumber": "197", "addr:street": "Strada Națională", "amenity": "hospital", "healthcare": "hospital", "name": "Oficiul Medicilor de Familie „Măcărești”"}}, {"name": "Oficiul Medicilor de Familie Văsieni", "latitude": 46.9684419, "longitude": 28.5839033, "source": "osm", "_tags": {"addr:city": "Văsieni", "addr:country": "MD", "addr:district": "Raionul Ialoveni", "addr:housenumber": "47", "addr:postcode": "MD-6830", "addr:street": "Strada La Poalele Țiglei", "amenity": "hospital", "healthcare": "hospital", "name": "Oficiul Medicilor de Familie Văsieni"}}, {"name": "Oficiul Medicilor de Familie Văsieni", "latitude": 46.973096, "longitude": 28.5791664, "source": "osm", "_tags": {"addr:city": "Văsieni", "addr:country": "MD", "addr:district": "Raionul Ialoveni", "addr:housenumber": "30", "addr:postcode": "MD-6830", "addr:street": "Strada Ion Creangă", "amenity": "hospital", "healthcare": "hospital", "name": "Oficiul Medicilor de Familie Văsieni"}}, {"name": "PAMU Văsieni", "latitude": 46.973253, "longitude": 28.5789045, "source": "osm", "_tags": {"addr:city": "Văsieni", "addr:country": "MD", "addr:district": "Raionul Ialoveni", "addr:housenumber": "34", "addr:postcode": "MD-6830", "addr:street": "Bulevardul Dacia", "amenity": "hospital", "healthcare": "hospital", "name": "PAMU Văsieni"}}, {"name": "Oficiul Medicilor de Familie Ruseștii Noi", "latitude": 46.9301197, "longitude": 28.6523917, "source": "osm", "_tags": {"addr:city": "Ruseștii Noi", "addr:country": "MD", "addr:street": "Strada Victoriei", "amenity": "hospital", "healthcare": "hospital", "name": "Oficiul Medicilor de Familie Ruseștii Noi"}}, {"name": "Centrul de Sănătate Bardar (în reconstrucție)", "latitude": 46.9022808, "longitude": 28.6752184, "source": "osm", "_tags": {"addr:city": "Bardar", "addr:country": "MD", "addr:district": "Raionul Ialoveni", "addr:housenumber": "12", "addr:postcode": "MD-6811", "addr:street": "Strada Limba Noastră", "amenity": "hospital", "healthcare": "hospital", "name": "Centrul de Sănătate Bardar (în reconstrucție)"}}, {"name": "Ambulatoriul Bardar", "latitude": 46.9025115, "longitude": 28.6747131, "source": "osm", "_tags": {"addr:city": "Bardar", "addr:country": "MD", "addr:district": "Raionul Ialoveni", "addr:housenumber": "2", "addr:postcode": "MD-6811", "addr:street": "Strada Limba Noastră", "amenity": "hospital", "healthcare": "hospital", "name": "Ambulatoriul Bardar"}}, {"name": "Spitalul Rădenii Vechi (abandonat)", "latitude": 47.2971931, "longitude": 28.0131267, "source": "osm", "_tags": {"addr:city": "Rădenii Vechi", "addr:country": "MD", "addr:housenumber": "158", "addr:street": "Strada Codrilor", "amenity": "hospital", "barrier": "fence", "healthcare": "hospital", "name": "Spitalul Rădenii Vechi (abandonat)"}}, {"name": "Ambulatoriul Săghieni (abandonat)", "latitude": 47.2458106, "longitude": 27.9720799, "source": "osm", "_tags": {"addr:city": "Săghieni", "addr:country": "MD", "addr:housenumber": "16", "addr:street": "Strada Ștefan cel Mare și Sfânt", "amenity": "hospital", "barrier": "fence", "healthcare": "hospital", "name": "Ambulatoriul Săghieni (abandonat)"}}, {"name": "Spitalul Raional Orhei", "latitude": 47.3867559, "longitude": 28.8224678, "source": "osm", "_tags": {"addr:city": "Orhei", "amenity": "hospital", "barrier": "wall", "healthcare": "hospital", "name": "Spitalul Raional Orhei"}}, {"name": "Centrul de Sănătate Nr. 1 Orhei", "latitude": 47.3871671, "longitude": 28.8239524, "source": "osm", "_tags": {"addr:city": "Orhei", "amenity": "hospital", "healthcare": "hospital", "name": "Centrul de Sănătate Nr. 1 Orhei"}}, {"name": "Centrul de Sănătate Publică Hîncești", "latitude": 46.8333616, "longitude": 28.5833758, "source": "osm", "_tags": {"addr:city": "Hîncești", "addr:country": "MD", "addr:street": "Strada Cuza-Vodă", "amenity": "hospital", "healthcare": "hospital", "name": "Centrul de Sănătate Publică Hîncești"}}, {"name": "Oficiul Mediciul de Familie Hîncești", "latitude": 46.8283147, "longitude": 28.5878951, "source": "osm", "_tags": {"addr:city": "Hîncești", "addr:country": "MD", "addr:housenumber": "151", "addr:street": "Strada Mihalcea Hîncu", "amenity": "hospital", "healthcare": "hospital", "name": "Oficiul Mediciul de Familie Hîncești"}}, {"name": "Spitalul de Psihiatrie Orhei „Igor Sîrghi”", "latitude": 47.3337494, "longitude": 28.8103383, "source": "osm", "_tags": {"addr:city": "Orhei", "amenity": "hospital", "barrier": "fence", "healthcare": "hospital", "name": "Spitalul de Psihiatrie Orhei „Igor Sîrghi”"}}, {"name": "Centrul de Sănătate Călărași", "latitude": 47.2496152, "longitude": 28.3228955, "source": "osm", "_tags": {"addr:city": "Călărași", "addr:country": "MD", "addr:housenumber": "1", "addr:street": "Strada Bojole", "amenity": "hospital", "healthcare": "hospital", "name": "Centrul de Sănătate Călărași"}}, {"name": "Azilul de Bătrâni din Cimișlia", "latitude": 46.5159951, "longitude": 28.7815808, "source": "osm", "_tags": {"addr:city": "Cimișlia", "addr:country": "MD", "addr:housenumber": "27/1", "addr:postcode": "MD-4101", "addr:street": "Strada Cetatea Albă", "amenity": "social_facility", "barrier": "fence", "building:levels": "2", "healthcare": "hospital", "name": "Azilul de Bătrâni din Cimișlia", "name:ru": "Дом престарелых", "social_facility": "nursing_home", "social_facility:for": "senior", "wheelchair": "yes"}}, {"name": "Centrul Medical de Urgență Cimișlia / Serviciu de Ambulanță Cimișlia", "latitude": 46.5247079, "longitude": 28.7753228, "source": "osm", "_tags": {"addr:city": "Cimișlia", "addr:country": "MD", "addr:housenumber": "131/C", "addr:postcode": "MD-4101", "addr:street": "Strada Alexandru cel Bun", "amenity": "hospital", "healthcare": "hospital", "name": "Centrul Medical de Urgență Cimișlia / Serviciu de Ambulanță Cimișlia"}}, {"name": "Spitalul Raional Cimișlia", "latitude": 46.5261585, "longitude": 28.7758246, "source": "osm", "_tags": {"addr:city": "Cimișlia", "addr:country": "MD", "addr:housenumber": "133", "addr:postcode": "MD-4101", "addr:street": "Strada Alexandru cel Bun", "amenity": "hospital", "barrier": "fence", "healthcare": "hospital", "name": "Spitalul Raional Cimișlia", "name:ru": "Районная больница"}}, {"name": "", "latitude": 47.1880686, "longitude": 28.4609121, "source": "osm", "_tags": {"amenity": "hospital", "healthcare": "hospital"}}, {"name": "Centrul de Sănătate „Natalea Munteanu” din Cornești", "latitude": 47.3699335, "longitude": 27.9961385, "source": "osm", "_tags": {"addr:city": "Cornești", "addr:country": "MD", "addr:housenumber": "78", "addr:street": "Strada Ștefan cel Mare și Sfânt", "amenity": "hospital", "healthcare": "hospital", "name": "Centrul de Sănătate „Natalea Munteanu” din Cornești"}}, {"name": "Centrul de Sănătate Cricova", "latitude": 47.1430598, "longitude": 28.864393, "source": "osm", "_tags": {"addr:city": "Cricova", "addr:country": "MD", "addr:housenumber": "108", "addr:street": "Strada Chișinău", "amenity": "hospital", "healthcare": "hospital", "name": "Centrul de Sănătate Cricova"}}, {"name": "Centrul de Sănătate Costești", "latitude": 46.8670072, "longitude": 28.7691266, "source": "osm", "_tags": {"addr:city": "Costești", "addr:country": "MD", "addr:district": "Raionul Ialoveni", "addr:housenumber": "113", "addr:postcode": "MD-6813", "addr:street": "Strada Ștefan cel Mare și Sfânt", "amenity": "hospital", "healthcare": "hospital", "name": "Centrul de Sănătate Costești"}}, {"name": "Centrul de Sănătate Horești", "latitude": 46.8262376, "longitude": 28.8705348, "source": "osm", "_tags": {"addr:city": "Horești", "addr:housenumber": "95", "addr:postcode": "MD-6816", "addr:street": "Strada Ștefan cel Mare și Sfânt", "amenity": "hospital", "healthcare": "hospital", "name": "Centrul de Sănătate Horești", "name:ru": "Поликлиника"}}, {"name": "Spitalul Clinic Republican pentru copii \"Emilian Coțaga\"", "latitude": 47.0064223, "longitude": 28.8282205, "source": "osm", "_tags": {"addr:city": "Chișinău", "addr:country": "MD", "addr:district": "Municipiul Chișinău", "addr:housenumber": "2", "addr:street": "Strada Vasile Alecsandri", "amenity": "hospital", "healthcare": "hospital", "name": "Spitalul Clinic Republican pentru copii \"Emilian Coțaga\"", "name:en": "Emilian Coțaga Children's Republican Clinical Hospital", "name:ru": "Республиканская детская клиническая больница им. Е. Коцага", "opening_hours": "24/7", "phone": "+373 22 727 776;+373 22 727 739", "type": "multipolygon"}}, {"name": "Centrul Fiziopneumologic de Reabilitare pentru Copii din Cornești", "latitude": 47.3683325, "longitude": 27.9971205, "source": "osm", "_tags": {"addr:city": "Cornești", "addr:country": "MD", "addr:housenumber": "70", "addr:street": "Strada Ștefan cel Mare și Sfânt", "amenity": "hospital", "healthcare": "hospital", "name": "Centrul Fiziopneumologic de Reabilitare pentru Copii din Cornești", "name:ru": "Детский санаторий", "name:uk": "Дитячий санаторій", "type": "multipolygon"}}, {"name": "Spitalul Cornești", "latitude": 47.3709647, "longitude": 27.9967409, "source": "osm", "_tags": {"amenity": "hospital", "healthcare": "hospital", "name": "Spitalul Cornești", "name:ru": "Больница", "type": "multipolygon"}}, {"name": "Spitalul Raional Nisporeni", "latitude": 47.0876329, "longitude": 28.1771732, "source": "osm", "_tags": {"addr:city": "Nisporeni", "addr:country": "MD", "addr:housenumber": "1", "addr:street": "Strada Toma Ciorbă", "amenity": "hospital", "healthcare": "hospital", "name": "Spitalul Raional Nisporeni", "type": "multipolygon"}}, {"name": "Maternitatea Municipală nr. 2 / Centrul Municipal de Andrologie", "latitude": 47.0300366, "longitude": 28.8416836, "source": "osm", "_tags": {"amenity": "hospital", "healthcare": "hospital", "healthcare:speciality": "andrology;maternity;emergency", "name": "Maternitatea Municipală nr. 2 / Centrul Municipal de Andrologie", "name:ru": "Муниципальный родильный дом №2 / Муниципальный центр Андрологии", "operator": "Ministerul Sănătății al Republiciii Moldova", "operator:type": "public", "type": "multipolygon"}}, {"name": "Punctul traumatologic nr. 1", "latitude": 47.0365847, "longitude": 28.8536263, "source": "osm", "_tags": {"amenity": "hospital", "emergency": "yes", "healthcare": "hospital", "healthcare:speciality": "traumatology", "name": "Punctul traumatologic nr. 1", "name:ru": "Травматологический пункт №1", "type": "multipolygon"}}, {"name": "Spitalul Internațional „Medpark”", "latitude": 47.0337423, "longitude": 28.854226, "source": "osm", "_tags": {"addr:city": "Chișinău", "addr:country": "MD", "addr:district": "Municipiul Chișinău", "addr:housenumber": "24", "addr:postcode": "MD-2024", "addr:street": "Strada Andrei Doga", "amenity": "hospital", "email": "info@medpark.md", "emergency": "yes", "healthcare": "hospital", "name": "Spitalul Internațional „Medpark”", "name:en": "Medpark International Hospital", "name:ru": "Международная больница «Медпарк»", "phone": "+373 22 40 00 40", "type": "multipolygon", "website": "https://medpark.md/"}}, {"name": "Spitalul Clinic Municipal nr. 4", "latitude": 47.0332386, "longitude": 28.8270045, "source": "osm", "_tags": {"addr:city": "Chișinău", "addr:country": "MD", "addr:district": "Municipiul Chișinău", "addr:housenumber": "150", "addr:street": "Strada Columna", "amenity": "hospital", "healthcare": "hospital", "name": "Spitalul Clinic Municipal nr. 4", "name:ru": "Городская Клиническая Больница №4", "type": "multipolygon"}}, {"name": "Spitalul Clinic Municipal de Ftiziopneumologie", "latitude": 46.9880825, "longitude": 28.83215, "source": "osm", "_tags": {"addr:city": "Chișinău", "addr:country": "MD", "addr:district": "Municipiul Chișinău", "addr:housenumber": "147", "addr:street": "Strada Grenoble", "amenity": "hospital", "healthcare": "hospital", "name": "Spitalul Clinic Municipal de Ftiziopneumologie", "name:en": "Municipal Clinical Hospital of Phthisiopneumology", "name:ru": "Муниципальная Клиническая Больница Фтизиопневмологии", "type": "multipolygon"}}, {"name": "Spitalul Polivalent Novamed", "latitude": 46.9884814, "longitude": 28.8343324, "source": "osm", "_tags": {"addr:city": "Chișinău", "addr:country": "MD", "addr:district": "Municipiul Chișinău", "addr:housenumber": "30", "addr:street": "Strada Doctor Tudor Strișcă", "amenity": "hospital", "healthcare": "hospital", "name": "Spitalul Polivalent Novamed", "operator": "Centrul de Medicină Intervenţională - Societatea cu Răspundere Limitată „Cardiomed”", "operator:type": "private", "type": "multipolygon"}}, {"name": "Centrul Republican de Reabilitare pentru Copii (CRRC)", "latitude": 46.989604, "longitude": 28.8340053, "source": "osm", "_tags": {"addr:city": "Chișinău", "addr:country": "MD", "addr:district": "Municipiul Chișinău", "addr:housenumber": "147", "addr:street": "Strada Grenoble", "amenity": "hospital", "healthcare": "hospital", "name": "Centrul Republican de Reabilitare pentru Copii (CRRC)", "phone": "(+373) 22 733 083", "type": "multipolygon", "website": "https://www.crrc.md/"}}, {"name": "Institutul de Cardiologie (Clinica)", "latitude": 46.9912662, "longitude": 28.8340639, "source": "osm", "_tags": {"addr:city": "Chișinău", "addr:country": "MD", "addr:district": "Municipiul Chișinău", "addr:housenumber": "29/1", "addr:street": "Strada Nicolae Testemițanu", "amenity": "hospital", "emergency": "yes", "healthcare": "hospital", "healthcare:speciality": "cardiology", "name": "Institutul de Cardiologie (Clinica)", "name:ru": "Институт Кардиологии", "operator": "Instituţia Medico-Sanitară Publică „Institutul de Cardiologie”", "operator:type": "government", "type": "multipolygon", "website": "https://icardiologie.md/"}}, {"name": "Spitalul Clinic Republican „Timofei Moșneaga”", "latitude": 46.9934205, "longitude": 28.8342298, "source": "osm", "_tags": {"addr:city": "Chișinău", "addr:country": "MD", "addr:district": "Municipiul Chișinău", "addr:housenumber": "29", "addr:postcode": "MD-2025", "addr:street": "Strada Nicolae Testemițanu", "amenity": "hospital", "emergency": "yes", "healthcare": "hospital", "healthcare:speciality": "general", "name": "Spitalul Clinic Republican „Timofei Moșneaga”", "name:en": "Timofei Moşneaga Republican Clinical Hospital", "name:ru": "Республиканская клиническая больница им. Тимофея Мошняги", "operator:type": "public", "type": "multipolygon", "website": "https://scr.md/", "wikidata": "Q30015891", "wikipedia": "ro:Spitalul Clinic Republican „Timofei Moșneaga”", "wikipedia:en": "Timofei Moșneaga Republican Clinical Hospital"}}, {"name": "Institutul Mamei și Copilului", "latitude": 46.9807682, "longitude": 28.87169, "source": "osm", "_tags": {"addr:city": "Chișinău", "addr:country": "MD", "addr:district": "Municipiul Chișinău", "addr:housenumber": "93", "addr:street": "Strada Burebista", "amenity": "hospital", "emergency": "yes", "healthcare": "hospital", "healthcare:speciality": "maternity;paediatrics;gynaecology", "name": "Institutul Mamei și Copilului", "name:en": "Mother and Child Institute", "name:ru": "Институт матери и ребёнка", "phone": "+373 22 781 210", "type": "multipolygon", "website": "https://www.mama-copilul.md/"}}, {"name": "Institutul de Neurologie și Neurochirurgie „Diomid Gherman”", "latitude": 46.9957601, "longitude": 28.8232523, "source": "osm", "_tags": {"addr:city": "Chișinău", "addr:country": "MD", "addr:district": "Municipiul Chișinău", "addr:housenumber": "2/1", "addr:street": "Strada Vladimir Korolenko", "amenity": "hospital", "healthcare": "hospital", "name": "Institutul de Neurologie și Neurochirurgie „Diomid Gherman”", "name:ru": "Институт Неврологии и Нейрохирургии «Диомид Герман»", "type": "multipolygon"}}, {"name": "Centrul Național de Transfuzie a Sângelui (Blocul B)", "latitude": 46.997636, "longitude": 28.8214764, "source": "osm", "_tags": {"addr:city": "Chișinău", "addr:country": "MD", "addr:district": "Municipiul Chișinău", "addr:housenumber": "65", "addr:street": "Strada Gheorghe Asachi", "amenity": "hospital", "healthcare": "blood_donation", "name": "Centrul Național de Transfuzie a Sângelui (Blocul B)", "type": "multipolygon"}}, {"name": "Centrul de Medicină Preventivă", "latitude": 46.9971139, "longitude": 28.8211583, "source": "osm", "_tags": {"addr:city": "Chișinău", "addr:country": "MD", "addr:district": "municipiul Chișinău", "amenity": "hospital", "healthcare": "hospital", "name": "Centrul de Medicină Preventivă", "name:ru": "Центр Превентивной Медицины", "type": "multipolygon"}}, {"name": "Spitalul Clinic Municipal nr. 1 „Gheorghe Paladi”", "latitude": 47.0055426, "longitude": 28.8442667, "source": "osm", "_tags": {"amenity": "hospital", "healthcare": "hospital", "name": "Spitalul Clinic Municipal nr. 1 „Gheorghe Paladi”", "name:ru": "Городская клиническая больница №1 „Георге Палади”", "type": "multipolygon"}}, {"name": "Spitalul Repromed", "latitude": 46.9728185, "longitude": 28.8556307, "source": "osm", "_tags": {"addr:city": "Chișinău", "addr:country": "MD", "addr:district": "Municipiul Chișinău", "addr:housenumber": "19", "addr:street": "Strada Valea Crucii", "amenity": "hospital", "healthcare": "hospital", "healthcare:speciality": "fertility", "name": "Spitalul Repromed", "name:ru": "Репромед", "type": "multipolygon"}}, {"name": "Spitalul Clinic Municipal pentru Copii nr. 3 „Valentin Ignatenco”", "latitude": 46.9859812, "longitude": 28.8342912, "source": "osm", "_tags": {"addr:city": "Chișinău", "addr:country": "MD", "addr:district": "Municipiul Chișinău", "addr:housenumber": "149", "addr:street": "Strada Grenoble", "amenity": "hospital", "healthcare": "hospital", "name": "Spitalul Clinic Municipal pentru Copii nr. 3 „Valentin Ignatenco”", "name:ro": "Spitalul Clinic Municipal pentru Copii nr. 3 „Valentin Ignatenco”", "name:ru": "Детская клиническая больница №3 им. Валентина Игнатенко", "type": "multipolygon"}}, {"name": "Centrul de Medicină Preventivă al Ministerului Apărării", "latitude": 47.0216482, "longitude": 28.7998788, "source": "osm", "_tags": {"addr:city": "Chișinău", "addr:country": "MD", "addr:district": "Municipiul Chișinău", "addr:housenumber": "61", "addr:postcode": "MD-2008", "addr:street": "Strada Vasile Lupu", "amenity": "hospital", "healthcare": "clinic", "landuse": "military", "name": "Centrul de Medicină Preventivă al Ministerului Apărării", "name:ru": "Центр профилактической медицины МО", "name:uk": "Центр профілактичної медицини МО", "opening_hours": "Mo-Fr 08:00-12:00, 22:00-22:00", "type": "multipolygon"}}, {"name": "Clinica Universitară Stomatologică a Universității de Stat de Medicină și Farmacie „Nicolae Testemițanu”", "latitude": 47.0337613, "longitude": 28.8240569, "source": "osm", "_tags": {"amenity": "hospital", "healthcare": "hospital", "healthcare:speciality": "dentistry", "name": "Clinica Universitară Stomatologică a Universității de Stat de Medicină și Farmacie „Nicolae Testemițanu”", "name:en": "Dental University Clinic of the \"Nicolae Testemițanu\" State University of Medicine and Pharmacy", "name:ru": "Стоматологическая Университетская Клиника Государственного Университета Медицины и Фармации им. Николая Тестемицану", "operator": "IMSP Clinica Universitară Stomatologică a USMF „Nicolae Testemițanu”", "type": "multipolygon"}}, {"name": "Asociația Medicală Teritorială Ciocana", "latitude": 47.0312917, "longitude": 28.8866615, "source": "osm", "_tags": {"addr:city": "Chișinău", "addr:country": "MD", "addr:district": "Municipiul Chișinău", "addr:housenumber": "80", "addr:postcode": "MD-2052", "addr:street": "Strada Vadul lui Vodă", "amenity": "clinic", "healthcare": "hospital", "healthcare:speciality": "psychiatry;paediatrics;dentistry;ophthalmology;vaccination;gynaecology;dermatology;cardiology;radiology;oncology", "name": "Asociația Medicală Teritorială Ciocana", "name:ru": "Территориальная медицинская ассоциация Чокана", "opening_hours": "Mo-Fr 08:00-19:00; Sa 08:00-14:00", "phone": "+373022866966", "type": "multipolygon", "website": "https://amt-ciocana.md/"}}, {"name": "Centrul Medicilor de Familie nr. 12", "latitude": 47.0501674, "longitude": 28.8684295, "source": "osm", "_tags": {"addr:city": "Chișinău", "addr:country": "MD", "addr:district": "Municipiul Chișinău", "addr:housenumber": "17", "addr:postcode": "MD-2068", "addr:street": "Strada Miron Costin", "amenity": "hospital", "healthcare": "hospital", "name": "Centrul Medicilor de Familie nr. 12", "name:ru": "Центр семейных врачей №12", "type": "multipolygon"}}, {"name": "Policlinica de Stat", "latitude": 47.0204575, "longitude": 28.8334517, "source": "osm", "_tags": {"addr:city": "Chișinău", "addr:country": "MD", "addr:district": "Municipiul Chișinău", "addr:housenumber": "70", "addr:postcode": "MD-2012", "addr:street": "Strada 31 August 1989", "amenity": "hospital", "healthcare": "hospital", "name": "Policlinica de Stat", "type": "multipolygon"}}, {"name": "Institutul Oncologic", "latitude": 46.9920733, "longitude": 28.8264427, "source": "osm", "_tags": {"addr:country": "MD", "addr:housenumber": "30", "addr:street": "Strada Nicolae Testemițanu", "amenity": "hospital", "emergency": "yes", "healthcare": "hospital", "healthcare:speciality": "oncology", "name": "Institutul Oncologic", "name:bg": "Институт по онкология", "name:ru": "Институт Онкологии", "type": "multipolygon"}}, {"name": "Centrul Național de Asistență Medicală Urgentă Prespitalicească", "latitude": 46.9957771, "longitude": 28.8315263, "source": "osm", "_tags": {"amenity": "hospital", "healthcare": "hospital", "name": "Centrul Național de Asistență Medicală Urgentă Prespitalicească", "type": "multipolygon"}}, {"name": "Institutului de Cardiologie (Dispensarul)", "latitude": 46.9954347, "longitude": 28.8316836, "source": "osm", "_tags": {"amenity": "hospital", "healthcare": "hospital", "name": "Institutului de Cardiologie (Dispensarul)", "type": "multipolygon"}}, {"name": "Centrul Republican Experimental de Protezare, Ortopedie și Reabilitare", "latitude": 47.0288028, "longitude": 28.8478413, "source": "osm", "_tags": {"addr:city": "Chișinău", "addr:country": "MD", "addr:district": "municipiul Chișinău", "amenity": "hospital", "healthcare": "hospital", "name": "Centrul Republican Experimental de Protezare, Ortopedie și Reabilitare", "short_name": "CREPOR", "type": "multipolygon"}}, {"name": "Centrul Clinic Republican „Constructorul”", "latitude": 46.9920316, "longitude": 28.8538054, "source": "osm", "_tags": {"addr:city": "Chișinău", "addr:country": "MD", "addr:district": "Municipiul Chișinău", "addr:housenumber": "15", "addr:postcode": "MD-2038", "addr:street": "Strada Nikolai Zelinski", "amenity": "hospital", "healthcare": "hospital", "name": "Centrul Clinic Republican „Constructorul”", "name:ru": "Профилакторий «Строитель»", "type": "multipolygon"}}, {"name": "Centrul Național de Medicină Sportivă „Atletmed”", "latitude": 47.0631296, "longitude": 28.8475524, "source": "osm", "_tags": {"addr:city": "Chișinău", "addr:country": "MD", "addr:district": "Municipiul Chișinău", "addr:housenumber": "7/1", "addr:postcode": "MD-2020", "addr:street": "Stradela Studenților", "amenity": "hospital", "barrier": "fence", "healthcare": "hospital", "name": "Centrul Național de Medicină Sportivă „Atletmed”", "type": "multipolygon", "website": "https://www.atletmed.md/"}}, {"name": "", "latitude": 47.2426302, "longitude": 28.3143118, "source": "osm", "_tags": {"amenity": "hospital", "healthcare": "hospital", "type": "multipolygon"}}, {"name": "Spitalul Clinic Municipal pentru Copii nr. 1", "latitude": 47.0271746, "longitude": 28.8206169, "source": "osm", "_tags": {"addr:city": "Chișinău", "addr:country": "MD", "addr:district": "Municipiul Chișinău", "addr:housenumber": "7", "addr:postcode": "MD-2004", "addr:street": "Strada Serghei Lazo", "amenity": "hospital", "healthcare": "hospital", "name": "Spitalul Clinic Municipal pentru Copii nr. 1", "type": "multipolygon"}}, {"name": "Spitalul Clinic Municipal nr. 3 „Sfânta Treime“", "latitude": 47.0449091, "longitude": 28.8676712, "source": "osm", "_tags": {"addr:city": "Chișinău", "addr:country": "MD", "addr:district": "Municipiul Chișinău", "addr:street": "Strada Alecu Russo", "amenity": "hospital", "healthcare": "hospital", "name": "Spitalul Clinic Municipal nr. 3 „Sfânta Treime“", "name:ru": "Муниципальная клиническая больница №3 им. Святой Троицы", "type": "multipolygon"}}]