[{"name": "MotionLab", "latitude": 46.5437752, "longitude": 6.6267905, "source": "osm", "_tags": {"addr:housenumber": "29", "addr:street": "Chemin du Petit-Flon", "amenity": "clinic", "baby_feeding": "no", "building": "yes", "healthcare": "hospital", "name": "MotionLab", "opening_hours": "Mo-Th 07:30-19:30, Fr 07:30-18:30", "operator": "Mediclinic", "operator:type": "private", "operator:wikidata": "Q1916123", "phone": "+41 21 512 40 00", "website": "https://www.motion-lab.ch/"}}, {"name": "Hôpital Léon Bérard", "latitude": 46.5325518, "longitude": 6.0173846, "source": "osm", "_tags": {"addr:city": "Hauts de Bienne", "addr:place": "Les Essarts", "addr:postcode": "39400", "addr:street": "Les Essarts", "amenity": "hospital", "fax": "+33 3 84 33 71 29", "healthcare": "hospital", "name": "Hôpital Léon Bérard", "operator:type": "public", "phone": "+33 3 84 34 24 34", "ref:FR:FINESS": "390000057", "type:FR:FINESS": "355", "website": "https://hopitaux-jura.fr/ch-morez/"}}, {"name": "Psychatrie Adulte CHI HTE Comté", "latitude": 47.0580471, "longitude": 6.6061833, "source": "osm", "_tags": {"amenity": "hospital", "name": "Psychatrie Adulte CHI HTE Comté", "ref:FR:FINESS": "250009123", "source": "Le ministère des solidarités et de la santé - 08/2018"}}, {"name": "", "latitude": 47.246546, "longitude": 6.0254989, "source": "osm", "_tags": {"amenity": "hospital", "healthcare": "hospital", "ref:FR:FINESS": "250010493", "source": "Le ministère des solidarités et de la santé - 03/2019", "wheelchair": "no"}}, {"name": "", "latitude": 47.2503164, "longitude": 6.0370358, "source": "osm", "_tags": {"amenity": "hospital", "healthcare": "hospital", "ref:FR:FINESS": "250011186", "source": "Le ministère des solidarités et de la santé - 03/2019"}}, {"name": "Hopital de Jour Catalpa", "latitude": 47.2634514, "longitude": 6.0266114, "source": "osm", "_tags": {"amenity": "hospital", "healthcare": "hospital", "healthcare:speciality": "psychiatry", "name": "Hopital de Jour Catalpa", "ref:FR:FINESS": "250011160", "source": "Le ministère des solidarités et de la santé - 03/2019"}}, {"name": "Hôpital Saint-Jacques", "latitude": 47.2353629, "longitude": 6.0209741, "source": "osm", "_tags": {"amenity": "hospital", "healthcare": "hospital", "name": "Hôpital Saint-Jacques", "ref:FR:FINESS": "250016466", "source": "Le ministère des solidarités et de la santé - 03/2019", "wheelchair": "yes"}}, {"name": "Foyer Postcure Le Colombier", "latitude": 47.2405991, "longitude": 6.0132298, "source": "osm", "_tags": {"amenity": "clinic", "healthcare": "hospital", "healthcare:speciality": "psychiatry", "name": "Foyer Postcure Le Colombier", "opening_hours:signed": "no", "ref:FR:FINESS": "250008109", "source": "Le ministère des solidarités et de la santé - 03/2019"}}, {"name": "Unité d’Accueil Père-Mère-Bébé", "latitude": 47.239429, "longitude": 5.9941596, "source": "osm", "_tags": {"amenity": "hospital", "contact:city": "Besançon", "contact:housenumber": "8A", "contact:phone": "+33 3 81 88 33 62", "contact:postcode": "25000", "contact:street": "Rue Jacquard", "healthcare": "hospital", "name": "Unité d’Accueil Père-Mère-Bébé", "ref:FR:FINESS": "250017308", "source": "Le ministère des solidarités et de la santé - 03/2019", "wheelchair": "yes"}}, {"name": "Clinic Les Alpes", "latitude": 46.4574666, "longitude": 6.9390021, "source": "osm", "_tags": {"addr:housenumber": "37", "addr:street": "Route de Sonloup", "amenity": "hospital", "emergency": "no", "healthcare": "rehabilitation", "name": "Clinic Les Alpes", "website": "https://www.cliniclesalpes.com/"}}, {"name": "Swiss Visio Palézieux", "latitude": 46.555841, "longitude": 6.8301668, "source": "osm", "_tags": {"addr:city": "Palézieux", "addr:housenumber": "3B", "addr:postcode": "1607", "addr:street": "Grand-Rue", "amenity": "hospital", "healthcare": "hospital", "healthcare:speciality": "ophthalmology;optometry", "name": "Swiss Visio Palézieux", "operator": "Swiss Visio Network", "website": "https://www.swissmedical.net/fr/swiss-visio/centres/swiss-visio-palezieux"}}, {"name": "USLD Bellevaux", "latitude": 47.2424339, "longitude": 6.0223078, "source": "osm", "_tags": {"addr:city": "Besançon", "addr:housenumber": "29", "addr:postcode": "25000", "addr:street": "Quai de Strasbourg", "amenity": "hospital", "description": "Etablissement de Soins Longue Durée", "healthcare": "hospital", "name": "USLD Bellevaux", "ref:FR:FINESS": "250001237", "ref:FR:NAF": "86.10Z", "ref:FR:SIRET": "26250175200188", "source": "Le ministère des solidarités et de la santé - 03/2019", "type:FR:FINESS": "362"}}, {"name": "Osteo 7/7", "latitude": 46.5175847, "longitude": 6.6293222, "source": "osm", "_tags": {"addr:city": "Lausanne", "addr:housenumber": "4", "addr:postcode": "1003", "addr:street": "Place de la Gare", "amenity": "hospital", "emergency": "yes", "healthcare": "hospital", "healthcare:speciality": "osteopathy", "name": "Osteo 7/7", "opening_hours": "7/7", "phone": "+41 21 510 50 50", "start_date": "2012-04-01", "website": "https://osteo7-7.ch"}}, {"name": "Jaspers/Ulysse/Octant/Athena/Epione", "latitude": 46.5466972, "longitude": 6.6080041, "source": "osm", "_tags": {"healthcare": "hospital", "healthcare:speciality": "psychiatry", "name": "Jaspers/Ulysse/Octant/Athena/Epione", "operator": "CHUV - Cery"}}, {"name": "Libra/Mensa/Pyxis/Gaia/Gaia/Ulysse/Artémis", "latitude": 46.5467491, "longitude": 6.6084816, "source": "osm", "_tags": {"healthcare": "hospital", "healthcare:speciality": "psychiatry", "name": "Libra/Mensa/Pyxis/Gaia/Gaia/Ulysse/Artémis", "operator": "CHUV - Cery"}}, {"name": "Clinique Saint-Pierre", "latitude": 46.9053971, "longitude": 6.3489785, "source": "osm", "_tags": {"addr:housenumber": "6", "addr:street": "Rue Émile Thomas", "amenity": "clinic", "building": "yes", "contact:facebook": "https://www.facebook.com/clinique.saint.pierre.pontarlier/", "fax": "+33 3 81 39 26 94", "healthcare": "hospital", "name": "Clinique Saint-Pierre", "opening_hours": "Mo-Sa 08:30-17:00", "operator": "Ramsay Santé", "operator:wikidata": "Q3123085", "operator:wikipedia": "fr:Ramsay Santé", "phone": "+33 3 81 38 83 00", "ref:FR:FINESS": "250000288", "ref:FR:SIRET": "31945006000060", "source": "cadastre-dgi-fr source : Direction Générale des Impôts - Cadastre ; mise à jour : 2009", "start_date": "1956-10-25", "type:FR:FINESS": "365", "website": "https://www.elsan.care/fr/Clinique-saint-pierre-pontarlier"}}, {"name": "Clinique de Genolier", "latitude": 46.4449991, "longitude": 6.2167343, "source": "osm", "_tags": {"addr:city": "Genolier", "addr:country": "CH", "addr:housenumber": "3", "addr:postcode": "1272", "addr:street": "Route de Muids", "amenity": "hospital", "emergency": "no", "healthcare": "hospital", "landuse": "commercial", "name": "Clinique de Genolier", "phone": "+41 22 366 90 00", "website": "https://www.genolier.net/", "wheelchair": "yes", "wikidata": "Q30281821"}}, {"name": "Centre hospitalier de Pontarlier", "latitude": 46.9009568, "longitude": 6.3597906, "source": "osm", "_tags": {"alt_name": "Hôpital Les Rives du Doubs", "amenity": "hospital", "contact:youtube": "https://www.youtube.com/channel/UCBRkUzVPWoXJqo_qqVUAcHA", "emergency": "yes", "fax": "+33 3 81 38 54 80", "healthcare": "hospital", "name": "Centre hospitalier de Pontarlier", "old_name": "Hôpital Saint-Etienne", "operator": "Centre hospitalier intercommunal Haute-Comté", "operator:type": "public", "phone": "+33 3 81 38 54 54", "ref:FR:FINESS": "250000700", "short_name": "CHIHC", "type:FR:FINESS": "355", "website": "https://pontarlier-hopital.chi-hautecomte.fr/", "wikidata": "Q98960407"}}, {"name": "Institution de Lavigny", "latitude": 46.5035026, "longitude": 6.4120011, "source": "osm", "_tags": {"addr:city": "Lavigny", "addr:housenumber": "60", "addr:postcode": "1175", "addr:street": "Rue de Vignoble", "amenity": "hospital", "email": "contact@ilavigny.ch", "healthcare": "hospital", "name": "Institution de Lavigny", "phone": "+41 21 821 45 45", "website": "https://www.ilavigny.ch/"}}, {"name": "Clinique de la Source", "latitude": 46.5273394, "longitude": 6.6282214, "source": "osm", "_tags": {"amenity": "hospital", "check_date": "2024-06-17", "healthcare": "hospital", "healthcare:speciality": "intensive", "name": "Clinique de la Source", "source": "Orthophoto Ville de Lausanne 2008", "website": "https://www.lasource.ch/"}}, {"name": "Réseau hospitalier neuchâtelois - La Chaux-de-Fonds", "latitude": 47.1136786, "longitude": 6.832978, "source": "osm", "_tags": {"addr:city": "La Chaux-de-Fonds", "addr:housenumber": "20", "addr:postcode": "2300", "addr:street": "Rue de Chasseral", "amenity": "hospital", "emergency": "yes", "healthcare": "hospital", "healthcare:speciality": "intensive;orthopaedics;gynaecology;ophthalmology;surgery;oncology;dialysis;radiology;internal", "name": "Réseau hospitalier neuchâtelois - La Chaux-de-Fonds", "operator": "Réseau hospitalier neuchâtelois", "operator:type": "public", "phone": "+41 32 967 21 11", "wheelchair": "yes"}}, {"name": "Hôpital neuchâtelois Val-de-Travers", "latitude": 46.9255423, "longitude": 6.6300283, "source": "osm", "_tags": {"amenity": "hospital", "building": "hospital", "healthcare": "hospital", "name": "Hôpital neuchâtelois Val-de-Travers", "operator": "Hôpital neuchâtelois", "phone": "+41 32 864 64 64"}}, {"name": "Polyclinique de Franche-Comté", "latitude": 47.2153389, "longitude": 5.979924, "source": "osm", "_tags": {"addr:city": "Besançon", "addr:housenumber": "4", "addr:postcode": "25000", "addr:street": "Rue Auguste Rodin", "amenity": "hospital", "building": "hospital", "healthcare": "hospital", "name": "Polyclinique de Franche-Comté", "phone": "+33 3 81 41 81 41", "ref:FR:FINESS": "250011848", "source": "extraction vectorielle v1 cadastre-dgi-fr source : Direction Générale des Impôts - Cadas. Mise à jour : 2010", "type:FR:FINESS": "124", "website": "http://www.polyclinique-franchecomte.fr/", "wikidata": "Q50037297"}}, {"name": "Centre de psychiatrie du Nord vaudois", "latitude": 46.7819311, "longitude": 6.6474389, "source": "osm", "_tags": {"building": "yes", "healthcare": "hospital", "healthcare:speciality": "psychiatry", "name": "Centre de psychiatrie du Nord vaudois", "toilets:wheelchair": "yes", "wheelchair": "yes"}}, {"name": "Hôpital d'Yverdon-les-Bains", "latitude": 46.7712838, "longitude": 6.6468863, "source": "osm", "_tags": {"amenity": "hospital", "healthcare": "hospital", "healthcare:speciality": "intensive", "name": "Hôpital d'Yverdon-les-Bains", "operator": "Établissements hospitaliers du Nord vaudois", "operator:short": "EHNV", "operator:wikidata": "Q3591610", "toilets:wheelchair": "yes", "website": "https://www.ehnv.ch/etablissements/hopital-dyverdon-les-bains", "wheelchair": "yes"}}, {"name": "Centre Hospitalier Paul Nappez Morteau", "latitude": 47.0606135, "longitude": 6.6029475, "source": "osm", "_tags": {"amenity": "hospital", "building": "yes", "name": "Centre Hospitalier Paul Nappez Morteau", "ref:FR:FINESS": "250000627", "source": "cadastre-dgi-fr source : Direction Générale des Impôts - Cadastre. Mise à jour : 2010", "wikidata": "Q92063152"}}, {"name": "Hôpital Sainte-Croix", "latitude": 47.3525099, "longitude": 6.3579448, "source": "osm", "_tags": {"amenity": "hospital", "email": "hopital-baume-direction@wanadoo.fr", "emergency": "no", "fax": "+33 3 81 84 70 21", "healthcare": "hospital", "name": "Hôpital Sainte-Croix", "operator:type": "public", "phone": "+33 3 81 84 70 00", "ref:FR:FINESS": "250000635", "ref:FR:SIRET": "26250047300018", "type:FR:FINESS": "106", "wikidata": "Q92062927"}}, {"name": "Hôpital de Morges", "latitude": 46.5221574, "longitude": 6.5001346, "source": "osm", "_tags": {"addr:city": "Morges", "addr:country": "CH", "addr:housenumber": "2", "addr:postcode": "1110", "addr:street": "Chemin du Crêt", "amenity": "hospital", "healthcare": "hospital", "healthcare:speciality": "intensive", "name": "Hôpital de Morges", "phone": "+41 21 804 22 11", "website": "https://www.ehc-vd.ch/hopital-morges"}}, {"name": "Hôpital de Cery", "latitude": 46.5471249, "longitude": 6.6074942, "source": "osm", "_tags": {"amenity": "hospital", "healthcare": "hospital", "name": "Hôpital de Cery", "wikidata": "Q14830615", "wikipedia": "en:Hospital of Cery"}}, {"name": "Fondation de Nant", "latitude": 46.4790737, "longitude": 6.8528152, "source": "osm", "_tags": {"addr:city": "Corsier-sur-Vevey", "addr:country": "CH", "addr:postcode": "1804", "addr:street": "Route de Nant", "amenity": "hospital", "email": "info@nant.ch", "healthcare": "hospital", "healthcare:speciality": "psychiatry;child_psychiatry;neuropsychiatry", "name": "Fondation de Nant", "phone": "+41 21 965 70 00", "source": "Bing", "website": "https://nant.ch/", "wikidata": "Q33121341"}}, {"name": "Hôpital Riviera-Chablais, Site de la Providence", "latitude": 46.4578729, "longitude": 6.8543525, "source": "osm", "_tags": {"amenity": "hospital", "healthcare": "hospital", "name": "Hôpital Riviera-Chablais, Site de la Providence", "phone": "+41 21 977 55 55"}}, {"name": "E - Ateliers & Centre de jour & ADP", "latitude": 46.4703993, "longitude": 6.8615525, "source": "osm", "_tags": {"amenity": "hospital", "healthcare": "hospital", "name": "E - Ateliers & Centre de jour & ADP", "operator": "la Fondation Eben-Hézer."}}, {"name": "Réception & Administration & Piscine", "latitude": 46.4706187, "longitude": 6.8615533, "source": "osm", "_tags": {"addr:city": "Saint-Légier-La Chiésaz", "addr:housenumber": "e", "addr:street": "Chemin du Genévrier", "amenity": "hospital", "healthcare": "hospital", "name": "Réception & Administration & Piscine", "operator": "la Fondation Eben-Hézer", "source": "Bing"}}, {"name": "Canopée & Les Roseaux", "latitude": 46.471, "longitude": 6.8625745, "source": "osm", "_tags": {"addr:city": "Saint-Légier-La Chiésaz", "addr:housenumber": "f", "addr:street": "Chemin du Genévrier", "amenity": "hospital", "healthcare": "hospital", "name": "Canopée & Les Roseaux", "operator": "la Fondation Eben-Hézer.", "source": "Bing"}}, {"name": "EMS Les Lusiades", "latitude": 46.50285, "longitude": 6.4504299, "source": "osm", "_tags": {"addr:city": "Lussy-sur-Morges", "addr:housenumber": "1", "addr:postcode": "1167", "addr:street": "Route de Coinsin", "amenity": "hospital", "healthcare": "hospital", "healthcare:speciality": "psychiatry", "name": "EMS Les Lusiades", "operator": "JBCgroup"}}, {"name": "", "latitude": 46.8194415, "longitude": 6.4948173, "source": "osm", "_tags": {"amenity": "hospital", "healthcare": "hospital", "source": "Bing"}}, {"name": "Centre de Soins et de Réadaptation Les Tilleroyes", "latitude": 47.234646, "longitude": 5.9619303, "source": "osm", "_tags": {"amenity": "hospital", "contact:phone": "+33 3 81 41 60 60", "healthcare": "hospital", "name": "Centre de Soins et de Réadaptation Les Tilleroyes", "operator": "CHRU de Besançon", "ref:FR:FINESS": "250000759", "ref:FR:NAF": "8610Z", "ref:FR:SIRET": "26250177800019", "type:FR:FINESS": "355"}}, {"name": "Centre Hospitalier Saint-Louis", "latitude": 47.1071037, "longitude": 6.143156, "source": "osm", "_tags": {"amenity": "hospital", "contact:phone": "+33 3 81 62 46 00", "healthcare": "hospital", "name": "Centre Hospitalier Saint-Louis", "ref:FR:FINESS": "250000726", "ref:FR:NAF": "8610Z", "ref:FR:SIRET": "26250434300019", "type:FR:FINESS": "106", "wikidata": "Q92063156"}}, {"name": "Hopital d'Aubonne", "latitude": 46.4916164, "longitude": 6.3886828, "source": "osm", "_tags": {"addr:city": "Aubonne", "addr:country": "CH", "addr:housenumber": "67", "addr:postcode": "1170", "addr:street": "Rue de Trévelin", "amenity": "hospital", "name": "Hopital d'Aubonne", "phone": "+41 21 821 44 00", "website": "https://www.ehc-vd.ch/centremedical-aubonne"}}, {"name": "EMS Château des Novalles", "latitude": 46.5404904, "longitude": 6.5889581, "source": "osm", "_tags": {"addr:city": "Renens", "addr:housenumber": "3", "addr:postcode": "1020", "addr:street": "Chemin des Novalles", "amenity": "hospital", "healthcare": "hospital", "healthcare:speciality": "psychiatry", "name": "EMS Château des Novalles", "operator": "JBCgroup", "operator:type": "private"}}, {"name": "EHC Hôpital de Gilly", "latitude": 46.4702974, "longitude": 6.3051945, "source": "osm", "_tags": {"addr:city": "Gilly", "addr:housenumber": "12", "addr:street": "Route du Pavillon", "amenity": "hospital", "building": "hospital", "emergency": "no", "healthcare": "hospital", "name": "EHC Hôpital de Gilly", "operator": "Ensemble Hospitalier de la Côte EHC", "phone": "+41 21 822 47 00", "website": "https://www.ehc-vd.ch/hopital-gilly/"}}, {"name": "Hôpital Intercantonal de la Broye", "latitude": 46.851012, "longitude": 6.8441944, "source": "osm", "_tags": {"addr:city": "Estavayer-le-Lac", "addr:postcode": "1470", "addr:street": "Rue de la Rochette", "amenity": "hospital", "emergency": "yes", "healthcare": "hospital", "healthcare:speciality": "intensive", "name": "Hôpital Intercantonal de la Broye", "phone": "+41 26 664 71 11", "website": "https://www.hopital-broye.ch/", "wikidata": "Q33121134"}}, {"name": "Centre Hospitalier de Novillars", "latitude": 47.2817354, "longitude": 6.1243232, "source": "osm", "_tags": {"amenity": "hospital", "contact:phone": "+33 381605800", "healthcare": "hospital", "name": "Centre Hospitalier de Novillars", "ref:FR:FINESS": "250000718", "ref:FR:SIRET": "26250429300016", "source": "Cadastre", "type:FR:FINESS": "292"}}, {"name": "Hôpital neuchatelois Policlinique pédiatrique des Montagnes", "latitude": 47.10055, "longitude": 6.8249746, "source": "osm", "_tags": {"addr:city": "La Chaux-de-Fonds", "addr:country": "CH", "addr:housenumber": "63", "addr:postcode": "2300", "addr:street": "Rue de la Serre", "amenity": "hospital", "building": "hospital", "healthcare": "hospital", "name": "Hôpital neuchatelois Policlinique pédiatrique des Montagnes", "operator": "Hôpital neuchatelois", "phone": "+41 32 713 38 48"}}, {"name": "DINO - centre de jour et classes spécialisées", "latitude": 46.7942388, "longitude": 6.6204763, "source": "osm", "_tags": {"addr:city": "Montagny-près-Yverdon", "addr:country": "CH", "addr:housenumber": "13", "addr:postcode": "1442", "addr:street": "Route de la Brinaz", "building": "hospital", "healthcare": "hospital", "healthcare:speciality": "child_psychiatry", "name": "DINO - centre de jour et classes spécialisées", "operator": "CHUV", "short_name": "DINO"}}, {"name": "Hôpital de Rolle", "latitude": 46.4642065, "longitude": 6.3464032, "source": "osm", "_tags": {"addr:city": "Rolle", "addr:country": "CH", "addr:housenumber": "26", "addr:postcode": "1180", "addr:street": "Route de l'Hôpital", "amenity": "hospital", "name": "Hôpital de Rolle", "phone": "+41 21 822 11 11", "website": "https://www.ghol.ch/jcms/ghol_5306/fr/votre-admission?portal=ghol_5842"}}, {"name": "Centre Médical de Vidy", "latitude": 46.5182472, "longitude": 6.6005006, "source": "osm", "_tags": {"addr:city": "Lausanne", "addr:country": "CH", "addr:housename": "Vidy-Med", "addr:housenumber": "11", "addr:postcode": "1007", "addr:street": "Route de Chavannes", "amenity": "hospital", "emergency": "yes", "name": "Centre Médical de Vidy", "phone": "+41 21 622 88 88", "source": "Orthophoto Ville de Lausanne 2008", "website": "https://www.vidymed.ch/centre-medical-de-vidy.html"}}, {"name": "Clinique de Montchoisi", "latitude": 46.5096687, "longitude": 6.6356939, "source": "osm", "_tags": {"amenity": "hospital", "copyright": "OpenAddresses", "healthcare": "hospital", "name": "Clinique de Montchoisi", "oa:imported_by": "sbrunner", "oa:lat": "46.50979233", "oa:lon": "6.63567781", "oa:version": "oa2osm - 0.2 - sax", "source": "Orthophotos Ville de Lausanne 2008", "wheelchair": "yes"}}, {"name": "Clinique Bois-Cerf", "latitude": 46.5119115, "longitude": 6.6305194, "source": "osm", "_tags": {"addr:city": "Lausanne", "addr:country": "CH", "addr:housenumber": "31", "addr:postcode": "1006", "addr:street": "Avenue d'Ouchy", "amenity": "hospital", "copyright": "OpenAddresses", "healthcare": "hospital", "name": "Clinique Bois-Cerf", "oa:imported_by": "sbrunner", "oa:lat": "46.51192093", "oa:lon": "6.63059235", "oa:version": "oa2osm - 0.2 - sax", "phone": "+41 21 619 69 69", "source": "Orthophoto Ville de Lausanne 2008", "website": "https://www.hirslanden.ch/fr/clinique-bois-cerf/home.html"}}, {"name": "Clinique Longeraie", "latitude": 46.5159077, "longitude": 6.6361271, "source": "osm", "_tags": {"addr:city": "Lausanne", "addr:country": "CH", "addr:housenumber": "9", "addr:postcode": "1003", "addr:street": "Avenue de la Gare", "amenity": "hospital", "healthcare": "hospital", "name": "Clinique Longeraie", "source": "Orthophoto Ville de Lausanne 2008"}}, {"name": "Clinique Cecil", "latitude": 46.5202546, "longitude": 6.621555, "source": "osm", "_tags": {"addr:city": "Lausanne", "addr:country": "CH", "addr:housenumber": "53", "addr:postcode": "1003", "addr:street": "Avenue Louis-Ruchonnet", "amenity": "hospital", "fax": "+41 21 310 50 01", "healthcare": "hospital", "healthcare:speciality": "intensive", "name": "Clinique Cecil", "operator": "Hirslanden", "operator:type": "private", "phone": "+41 21 310 50 00", "source": "Orthophoto Ville de Lausanne 2008;Site web", "website": "https://www.hirslanden.ch/fr/clinique-cecil/home.html", "wikidata": "Q23783973", "wikimedia_commons": "Category:Clinique Cecil", "wikipedia": "en:Clinique Cecil"}}, {"name": "Asile des aveugles Fondation Hôpital ophtalmique Jules-Gonin", "latitude": 46.5246193, "longitude": 6.6229237, "source": "osm", "_tags": {"addr:city": "Lausanne", "addr:country": "CH", "addr:housenumber": "13", "addr:postcode": "1004", "addr:street": "Avenue de France", "amenity": "hospital", "copyright": "OpenAddresses", "healthcare": "hospital", "name": "Asile des aveugles Fondation Hôpital ophtalmique Jules-Gonin", "oa:imported_by": "sbrunner", "oa:lat": "46.52442551", "oa:lon": "6.62359190", "oa:version": "oa2osm - 0.2 - sax", "source": "Orthophoto Ville de Lausanne 2008"}}, {"name": "Hôpital de la Vallée de Joux", "latitude": 46.6016591, "longitude": 6.2217261, "source": "osm", "_tags": {"addr:city": "Le Sentier", "addr:country": "CH", "addr:housenumber": "3", "addr:postcode": "1347", "addr:street": "Rue de l'Hôpital", "amenity": "hospital", "check_date": "2024-10-13", "healthcare": "hospital", "name": "Hôpital de la Vallée de Joux", "operator": "Etablissements Hospitaliers du Nord Vaudois", "phone": "+41 21 845 18 18", "website": "https://www.ehnv.ch/etablissements/hopital-de-la-vallee-de-joux"}}, {"name": "Hôpital neuchâtelois Le Locle", "latitude": 47.0571082, "longitude": 6.7428744, "source": "osm", "_tags": {"addr:city": "Le Locle", "addr:country": "CH", "addr:housenumber": "40;42", "addr:postcode": "2400", "addr:street": "Rue Bellevue", "amenity": "hospital", "healthcare": "hospital", "name": "Hôpital neuchâtelois Le Locle", "operator": "Hôpital neuchâtelois", "phone": "+41 (32) 933 61 11", "source": "orthophotos2006sitn50cm", "website": "https://www.h-ne.ch/contact/le-locle"}}, {"name": "Hôpital neuchâtelois Val-de-Ruz", "latitude": 47.032509, "longitude": 6.9068031, "source": "osm", "_tags": {"addr:city": "Fontaines", "addr:country": "CH", "addr:postcode": "2046", "addr:street": "Route de Landeyeux", "amenity": "hospital", "healthcare": "hospital", "name": "Hôpital neuchâtelois Val-de-Ruz", "operator": "RHNe", "phone": "+41 32 854 45 45", "source": "Orthophotos 2006 SITN 50cm", "website": "https://www.h-ne.ch/contact/val-de-ruz", "wheelchair": "yes"}}, {"name": "Hôpital catholique de la Providence", "latitude": 46.995288, "longitude": 6.9391459, "source": "osm", "_tags": {"addr:city": "Neuchâtel", "addr:country": "CH", "addr:housenumber": "81", "addr:postcode": "2000", "addr:street": "Faubourg de l'Hôpital", "amenity": "hospital", "healthcare": "hospital", "name": "Hôpital catholique de la Providence", "phone": "+41 32 720 30 30", "source": "Orthophotos 2006 SITN 50cm", "website": "https://www.hopital-providence.ch/"}}, {"name": "Hôpital d'Orbe", "latitude": 46.7291408, "longitude": 6.5333409, "source": "osm", "_tags": {"addr:city": "Orbe", "addr:country": "CH", "addr:housenumber": "2", "addr:postcode": "1350", "addr:street": "Chemin de la Magnenette", "amenity": "hospital", "healthcare": "hospital", "name": "Hôpital d'Orbe", "phone": "+41 24 442 61 11", "website": "https://www.ehnv.ch/jcms/obr_5017/orbe"}}, {"name": "Hôpital de Chamblon", "latitude": 46.7792211, "longitude": 6.6088979, "source": "osm", "_tags": {"addr:city": "Chamblon", "addr:housenumber": "3", "addr:postcode": "1436", "addr:street": "Route de l'Hôpital", "amenity": "hospital", "healthcare": "hospital", "name": "Hôpital de Chamblon", "website": "https://www.ehnv.ch/etablissements/hopital-de-chamblon"}}, {"name": "HFR Hôpital de Billens", "latitude": 46.6942617, "longitude": 6.9022021, "source": "osm", "_tags": {"addr:city": "Billens-Hennens", "addr:housenumber": "1", "addr:postcode": "1681", "addr:street": "Route de l'Hôpital", "amenity": "hospital", "healthcare": "hospital", "healthcare:speciality": "intensive;rehabilitation", "name": "HFR Hôpital de Billens", "operator": "HFR", "phone": "+41 26 651 61 11", "source": "survey", "website": "https://www.h-fr.ch/hfr/de/pub/dashfr/standorte/billens.htm"}}, {"name": "Centre hospitalier régional universitaire Jean Minjoz", "latitude": 47.2250189, "longitude": 5.9616619, "source": "osm", "_tags": {"alt_name": "CHU de Besançon", "amenity": "hospital", "emergency": "yes", "healthcare": "hospital", "name": "Centre hospitalier régional universitaire Jean Minjoz", "phone": "+33 3 81 66 81 66", "ref:FR:FINESS": "250006954", "ref:FR:NAF": "8610Z", "ref:FR:SIRET": "26250176000066", "short_name": "CHRU Jean Minjoz", "source": "cadastre-dgi-fr source : Direction Générale des Impôts - Cadastre ; mise à jour : 2008", "toilets:wheelchair": "yes", "type:FR:FINESS": "101", "website": "https://www.chu-besancon.fr/", "wheelchair": "yes", "wikidata": "Q3145168", "wikipedia": "fr:Centre hospitalier régional universitaire de Besançon"}}, {"name": "Unité de psychiatrie Le Grandvallier", "latitude": 46.9038812, "longitude": 6.3705281, "source": "osm", "_tags": {"alt_name": "CHG Pontarlier", "amenity": "hospital", "check_date": "2025-08-31", "fax": "+33 3 81 38 64 00", "healthcare": "hospital", "name": "Unité de psychiatrie Le Grandvallier", "phone": "+33 3 81 38 64 43", "ref:FR:FINESS": "250000619", "source": "Le ministère des solidarités et de la santé - 10/2018"}}, {"name": "Centre de Long Séjour Bellevaux", "latitude": 47.2424256, "longitude": 6.0224605, "source": "osm", "_tags": {"addr:city": "Besançon", "addr:housenumber": "29", "addr:postcode": "25000", "addr:street": "Quai de Strasbourg", "amenity": "hospital", "healthcare": "hospital", "name": "Centre de Long Séjour Bellevaux", "ref:FR:FINESS": "250007598", "ref:FR:NAF": "86.10Z", "ref:FR:SIREN": "262501752", "source": "cadastre-dgi-fr source : Direction Générale des Impôts - Cadastre;mise à jour : 2009", "website": "https://www.clsbellevaux.com/"}}, {"name": "Hôpital de Gilly", "latitude": 46.4703214, "longitude": 6.3055631, "source": "osm", "_tags": {"amenity": "hospital", "healthcare": "hospital", "name": "Hôpital de Gilly"}}, {"name": "", "latitude": 46.426194, "longitude": 6.2883433, "source": "osm", "_tags": {"amenity": "hospital", "healthcare": "hospital"}}, {"name": "", "latitude": 46.4252351, "longitude": 6.290176, "source": "osm", "_tags": {"amenity": "hospital", "healthcare": "hospital"}}, {"name": "Centre hospitalier universitaire vaudois", "latitude": 46.5255236, "longitude": 6.6423526, "source": "osm", "_tags": {"addr:city": "Lausanne", "addr:country": "CH", "addr:housenumber": "46", "addr:postcode": "1011", "addr:street": "Rue du Bugnon", "amenity": "hospital", "healthcare": "hospital", "healthcare:speciality": "intensive", "name": "Centre hospitalier universitaire vaudois", "operator": "CHUV", "ref": "BH", "short_name": "CHUV", "type": "multipolygon", "website": "https://www.chuv.ch/", "wikidata": "Q2945783", "wikipedia": "fr:Centre hospitalier universitaire vaudois"}}, {"name": "Hôpital de la Béroche", "latitude": 46.8927435, "longitude": 6.7707596, "source": "osm", "_tags": {"addr:city": "St-Aubin-Sauges", "addr:country": "CH", "addr:housenumber": "15", "addr:postcode": "2024", "addr:street": "Rue de l'Hôpital", "amenity": "hospital", "healthcare": "hospital", "name": "Hôpital de la Béroche", "phone": "+41 32 836 42 42", "type": "multipolygon"}}, {"name": "Hôpital de Saint-Loup", "latitude": 46.6666758, "longitude": 6.5035468, "source": "osm", "_tags": {"addr:country": "CH", "addr:housenumber": "13", "addr:postcode": "1318", "addr:street": "St-Loup", "amenity": "hospital", "healthcare": "hospital", "name": "Hôpital de Saint-Loup", "phone": "+41 21 866 51 11", "type": "multipolygon"}}]