[{"name": "Kórház", "latitude": 46.5799201, "longitude": 17.4063768, "source": "osm", "_tags": {"amenity": "hospital", "healthcare": "hospital", "name": "Kórház", "wheelchair": "limited"}}, {"name": "Patológia", "latitude": 46.4524245, "longitude": 16.9994289, "source": "osm", "_tags": {"amenity": "hospital", "healthcare": "hospital", "name": "Patológia"}}, {"name": "Patológia", "latitude": 47.1116147, "longitude": 17.5656052, "source": "osm", "_tags": {"amenity": "hospital", "healthcare": "hospital", "name": "Patológia"}}, {"name": "Markusovszky Egyetemi Oktatókórház", "latitude": 47.2517634, "longitude": 17.0836764, "source": "osm", "_tags": {"addr:city": "Mesteri", "addr:place": "Intaháza", "addr:postcode": "9551", "amenity": "hospital", "barrier": "fence", "branch": "Pszichiátriai és Addiktológiai Rehabilitációs Osztály", "contact:phone": "+36 95 445 070", "contact:website": "https://markusovszky.hu/betegellatas/mesteri-intahaza/fekvobeteg-ellatas/pszichiatriai-es-addiktologiai-rehabilitacios-osztaly/elerhetoseg", "emergency": "no", "healthcare": "hospital", "name": "Markusovszky Egyetemi Oktatókórház", "old_name": "Pszichiátriai rehabilitációs intézet Intaháza", "old_operator": "Kemenesaljai Egyesített Kórház Celldömölk", "old_website": "http://www.korhazcelldomolk.hu/szoci.html"}}, {"name": "Csolnoky Ferenc Kórház", "latitude": 47.0904081, "longitude": 17.9103335, "source": "osm", "_tags": {"addr:city": "Veszprém", "addr:housenumber": "1", "addr:postcode": "8200", "addr:street": "Kórház utca", "amenity": "hospital", "contact:email": "info@csfk.hu", "contact:facebook": "https://www.facebook.com/csolnokyferenckorhaz", "contact:phone": "+36 88 556 000", "contact:website": "https://csfk.hu/", "emergency": "yes", "healthcare": "hospital", "healthcare:speciality": "dental_oral_maxillo_facial_surgery;internal;dermatology;paediatrics;otolaryngology;radiology;anaesthetics;gynaecology;blood_check;neurology;oncology;pathology;child_psychiatry;psychiatry;rheumatology;surgery;vascular_surgery;emergency;ophthalmology;urolog", "name": "Csolnoky Ferenc Kórház", "official_name": "Veszprém Vármegyei Csolnoky Ferenc Kórház", "operator": "Országos Kórházi Főigazgatóság", "operator:type": "government", "wheelchair": "yes"}}, {"name": "Markusovszky Egyetemi Oktatókórház", "latitude": 47.2557099, "longitude": 17.1575027, "source": "osm", "_tags": {"amenity": "hospital", "branch": "Celldömölki részleg", "building": "yes", "healthcare": "hospital", "name": "Markusovszky Egyetemi Oktatókórház", "office": "physician", "old_name": "Kemenesaljai Egyesített Kórház"}}, {"name": "Városi Kórház Keszthely", "latitude": 46.7691337, "longitude": 17.2520653, "source": "osm", "_tags": {"addr:city": "Keszthely", "addr:housenumber": "2", "addr:postcode": "8360", "addr:street": "Ady Endre utca", "amenity": "hospital", "emergency": "yes", "healthcare": "hospital", "name": "Városi Kórház Keszthely", "phone": "+36 83 311 060", "website": "https://vk-keszthely.hu/"}}, {"name": "Magyar Honvédség Balatonfüredi Kardiológiai Rehabilitációs Intézet", "latitude": 46.9566073, "longitude": 17.8986376, "source": "osm", "_tags": {"amenity": "hospital", "healthcare": "hospital", "name": "Magyar Honvédség Balatonfüredi Kardiológiai Rehabilitációs Intézet", "note": "This hospital is in the area of Állami Szívkórház. They have a park together, and by foot you can walk within the area, but Magyar Honvédség hospital only owns 1 building, and they have a different car entry, with own parking spaces."}}, {"name": "Kanizsai Dorottya kórház", "latitude": 46.4516269, "longitude": 16.9993013, "source": "osm", "_tags": {"addr:city": "Nagykanizsa", "addr:housenumber": "2-8", "addr:postcode": "8800", "addr:street": "Szekeres József utca", "amenity": "hospital", "comment": "no helipad, but limited open areas nearby", "email": "titkarsag@nkkorhaz.hu", "emergency": "yes", "healthcare": "hospital", "name": "Kanizsai Dorottya kórház", "phone": "+36 93 502 092", "website": "https://nkkorhaz.hu/"}}, {"name": "Rendelőintézet", "latitude": 46.9621413, "longitude": 17.874351, "source": "osm", "_tags": {"addr:city": "Balatonfüred", "addr:housenumber": "1", "addr:postcode": "8230", "addr:street": "Csárda utca", "alt_name": "Egészségház társasház", "amenity": "hospital", "building": "hospital", "building:colour": "blue", "building:levels": "3", "building:material": "plaster", "check_date": "2024-08-27", "healthcare": "hospital", "healthcare:speciality": "paediatrics;dermatology;surgery;diagnostic_radiology;orthodontics;stomatology;neurology;psychiatry;otolaryngology", "name": "Rendelőintézet", "official_name": "Balatonfüredi Rendelőintézet", "operator:type": "public", "phone": "+36 87 580 886;+36 87 580 888", "roof:colour": "gray", "roof:levels": "0", "roof:material": "tar_paper", "roof:shape": "flat", "website": "https://www.furedrendelo.hu/", "wheelchair": "yes"}}, {"name": "Vasútegészségügyi Rehabilitációs Intézet", "latitude": 46.9590895, "longitude": 17.8973096, "source": "osm", "_tags": {"addr:city": "Balatonfüred", "addr:housenumber": "1", "addr:postcode": "8230", "addr:street": "Mikes Kelemen utca", "amenity": "hospital", "building": "yes", "building:levels": "5", "healthcare": "hospital", "name": "Vasútegészségügyi Rehabilitációs Intézet", "website": "https://www.vasuteu.hu/vasuteu/egeszsegturizmus_intezmenyeink_balatonfured"}}, {"name": "Rendelőintézet", "latitude": 47.2493883, "longitude": 16.9420071, "source": "osm", "_tags": {"amenity": "hospital", "building": "yes", "name": "Rendelőintézet"}}, {"name": "Deák Jenő Kórház", "latitude": 46.8850724, "longitude": 17.441426, "source": "osm", "_tags": {"addr:city": "Tapolca", "addr:housenumber": "1-3", "addr:postcode": "8300", "addr:street": "Ady Endre utca", "amenity": "hospital", "healthcare": "hospital", "name": "Deák Jenő Kórház", "phone": "+36 87 411 655", "website": "http://www.tapolcakorhaz.hu"}}, {"name": "IRIS Ápolási Otthon", "latitude": 46.8512252, "longitude": 17.8783721, "source": "osm", "_tags": {"addr:city": "Balatonföldvár", "addr:housenumber": "2", "addr:postcode": "8623", "addr:street": "Széchenyi Imre utca", "amenity": "hospital", "building": "yes", "contact:email": "info@irisintezet.hu", "contact:mobile": "+36 20 935 1328", "contact:phone": "+36 84 540 055", "contact:website": "http://www.irisotthon.hu/", "name": "IRIS Ápolási Otthon", "old_name": "Kupa-vezér nagyszálló", "opening_hours": "Mo-Su 14:00-16:00", "wheelchair": "yes"}}, {"name": "Gróf Esterházy Kórház és Rendelőintézeti Szakrendelő", "latitude": 47.3265633, "longitude": 17.470373, "source": "osm", "_tags": {"amenity": "hospital", "healthcare": "hospital", "name": "Gróf Esterházy Kórház és Rendelőintézeti Szakrendelő", "website": "http://www.papaikorhaz.hu/"}}, {"name": "Magyar Imre Kórház", "latitude": 47.111135, "longitude": 17.5649272, "source": "osm", "_tags": {"amenity": "hospital", "healthcare": "hospital", "name": "Magyar Imre Kórház"}}, {"name": "Irisz Intézet", "latitude": 46.8506949, "longitude": 17.8773019, "source": "osm", "_tags": {"amenity": "hospital", "building": "yes", "building:levels": "3", "contact:email": "info@irisintezet.hu", "contact:mobile": "+36 20 935 1328", "contact:phone": "+36 84 540 055", "contact:website": "http://www.irisotthon.hu/", "name": "Irisz Intézet", "opening_hours": "Mo-Su 14:00-16:00", "wheelchair": "yes"}}, {"name": "", "latitude": 47.260237, "longitude": 17.866875, "source": "osm", "_tags": {"amenity": "hospital", "healthcare": "hospital"}}, {"name": "Sümeg Városi Kórház és Rendelőintézet", "latitude": 46.9761091, "longitude": 17.284738, "source": "osm", "_tags": {"amenity": "hospital", "building": "yes", "name": "Sümeg Városi Kórház és Rendelőintézet", "type": "multipolygon"}}, {"name": "Tüdőszanatórium", "latitude": 47.2128048, "longitude": 17.6221972, "source": "osm", "_tags": {"amenity": "hospital", "name": "Tüdőszanatórium", "type": "multipolygon"}}, {"name": "Állami Szívkórház", "latitude": 46.9562232, "longitude": 17.8973533, "source": "osm", "_tags": {"addr:city": "Balatonfüred", "addr:housenumber": "2", "addr:postcode": "8230", "addr:street": "Gyógy tér", "amenity": "hospital", "healthcare": "hospital", "name": "Állami Szívkórház", "type": "multipolygon", "website": "http://www.bfkor.hu/", "wikidata": "Q27102747", "wikipedia": "hu:Állami Szívkórház"}}, {"name": "Szent András Reumakórház", "latitude": 46.7867177, "longitude": 17.189482, "source": "osm", "_tags": {"addr:city": "Hévíz", "addr:housenumber": "1", "addr:postcode": "8380", "addr:street": "Dr. Schulhoff Vilmos sétány", "amenity": "hospital", "healthcare": "hospital", "healthcare:speciality": "dermatology;radiology;physiatry;blood_check;neurology;rheumatology", "name": "Szent András Reumakórház", "type": "multipolygon"}}, {"name": "Sárvár Kórház", "latitude": 47.2493782, "longitude": 16.9434817, "source": "osm", "_tags": {"amenity": "hospital", "healthcare": "hospital", "name": "Sárvár Kórház", "type": "multipolygon"}}, {"name": "Csolnoky Ferenc Kórház Pszichiátriai Centrum", "latitude": 46.9763215, "longitude": 17.2863622, "source": "osm", "_tags": {"amenity": "hospital", "name": "Csolnoky Ferenc Kórház Pszichiátriai Centrum", "type": "multipolygon"}}, {"name": "Zirci Erzsébet Kórház - Rendelőintézet", "latitude": 47.260616, "longitude": 17.8659981, "source": "osm", "_tags": {"addr:city": "Zirc", "addr:housenumber": "17", "addr:postcode": "8420", "addr:street": "József Attila utca", "amenity": "hospital", "building": "yes", "healthcare": "hospital", "name": "Zirci Erzsébet Kórház - Rendelőintézet", "type": "multipolygon", "website": "https://www.zirckorhaz.hu/"}}]