[{"name": "Centre neuchâtelois de psychiatrie CNP", "latitude": 47.005933, "longitude": 7.0077443, "source": "osm", "_tags": {"addr:city": "La Tène", "addr:postcode": "2074", "addr:street": "Prefargier", "amenity": "hospital", "healthcare": "hospital", "healthcare:speciality": "psychiatry", "name": "Centre neuchâtelois de psychiatrie CNP"}}, {"name": "Urgences / Notfall", "latitude": 46.8020019, "longitude": 7.1383068, "source": "osm", "_tags": {"alt_name": "Hopital Cantonal Fribourg HFR urgences notfall emergency spital hospital fribourg FR", "amenity": "hospital", "healthcare": "hospital", "name": "Urgences / Notfall", "name:hr": "Kantonalna bolnica Fribourg - hitni prijem"}}, {"name": "Kinderkliniken Inselspital", "latitude": 46.9469004, "longitude": 7.4259426, "source": "osm", "_tags": {"amenity": "hospital", "contact:phone": "+41 31 632 21 11", "contact:website": "http://www.kinderkliniken.insel.ch/", "emergency": "yes", "healthcare": "hospital", "healthcare:speciality": "paediatrics", "name": "Kinderkliniken Inselspital", "operator": "Insel Gruppe AG", "wikidata": "Q30254034"}}, {"name": "Notfallzentrum Spital Thun", "latitude": 46.7617707, "longitude": 7.6322587, "source": "osm", "_tags": {"addr:city": "Thun", "addr:housenumber": "12", "addr:postcode": "3600", "addr:street": "Krankenhausstrasse", "amenity": "hospital", "email": "notfall@spitalstsag.ch", "emergency": "yes", "healthcare": "hospital", "healthcare:speciality": "emergency", "name": "Notfallzentrum Spital Thun", "opening_hours": "24/7", "operator": "Spital Thun", "operator:type": "public", "phone": "+41 58 636 99 99", "website": "https://www.spitalthun.ch/notfallzentrum"}}, {"name": "SRO Spital Oberaargau Langenthal", "latitude": 47.2159329, "longitude": 7.793667, "source": "osm", "_tags": {"addr:housenumber": "67", "addr:postcode": "4900", "addr:street": "St. Urbanstrasse", "amenity": "hospital", "emergency": "yes", "healthcare": "hospital", "healthcare:speciality": "intensive", "name": "SRO Spital Oberaargau Langenthal", "opening_hours": "24/7", "operator": "SRO AG, Langenthal", "phone": "+41 62 916 3131", "toilets:wheelchair": "yes", "website": "https://www.sro.ch/", "wheelchair": "yes"}}, {"name": "Réseau hospitalier neuchâtelois - Pourtalès", "latitude": 46.9968351, "longitude": 6.94278, "source": "osm", "_tags": {"addr:city": "Neuchâtel", "addr:country": "CH", "addr:housenumber": "45", "addr:postcode": "2000", "addr:street": "Rue de la Maladière 45", "amenity": "hospital", "check_date": "2025-05-24", "emergency": "yes", "healthcare": "hospital", "healthcare:speciality": "surgery;orthopaedics;gynaecology;emergency;intensive;radiology;maternity;oncology;paediatrics;cardiology;internal", "name": "Réseau hospitalier neuchâtelois - Pourtalès", "name:de": "Krankenhaus Neuenburg", "operator": "Réseau hospitalier neuchâtelois", "operator:type": "public", "phone": "+41 32 713 30 00", "website": "https://www.rhne.ch", "wheelchair": "yes"}}, {"name": "Spital Burgdorf", "latitude": 47.0483572, "longitude": 7.6206719, "source": "osm", "_tags": {"addr:city": "Burgdorf", "addr:country": "CH", "addr:housenumber": "54", "addr:postcode": "3400", "addr:street": "Oberburgstrasse", "amenity": "hospital", "emergency": "yes", "healthcare": "hospital", "name": "Spital Burgdorf", "operator": "Spital Emmental AG", "phone": "+41 34 421 21 21", "website": "https://www.spital-emmental.ch", "wheelchair": "yes"}}, {"name": "Sonnenhofspital", "latitude": 46.942742, "longitude": 7.4744455, "source": "osm", "_tags": {"addr:city": "Bern", "addr:housenumber": "30", "addr:postcode": "3006", "addr:street": "Buchserstrasse", "amenity": "hospital", "contact:email": "sonnenhof@lindenhofgruppe.ch", "contact:fax": "+41 31 3581901", "contact:phone": "+41 31 3581111", "emergency": "yes", "healthcare": "hospital", "name": "Sonnenhofspital", "operator": "Lindenhofgruppe AG", "operator:type": "private", "source": "Orthofotos Bern", "website": "https://www.lindenhofgruppe.ch/de/standorte/sonnenhof/", "wheelchair": "yes", "wikidata": "Q2301941"}}, {"name": "Klinik Beau-Site", "latitude": 46.9526076, "longitude": 7.4482726, "source": "osm", "_tags": {"addr:city": "Bern", "addr:housenumber": "11", "addr:postcode": "3013", "addr:street": "Schänzlihalde", "amenity": "hospital", "healthcare": "hospital", "healthcare:speciality": "intensive", "name": "Klinik Beau-Site", "operator": "Hirslanden Gruppe", "phone": "+41 31 335 33 33", "website": "https://www.hirslanden.ch/de/klinik-beau-site/home.html", "wheelchair": "yes", "wikidata": "Q27926550"}}, {"name": "Betagtenzentrum Laupen", "latitude": 46.9090125, "longitude": 7.2429266, "source": "osm", "_tags": {"addr:city": "Laupen", "addr:housenumber": "12", "addr:postcode": "3177", "addr:street": "Krankenhausweg", "amenity": "hospital", "healthcare": "hospital", "name": "Betagtenzentrum Laupen"}}, {"name": "Obach", "latitude": 47.205135, "longitude": 7.5304309, "source": "osm", "_tags": {"amenity": "hospital", "email": "obach@obach.ch", "name": "Obach", "phone": "+41 32 626 23 23", "website": "https://www.obach.ch/"}}, {"name": "Engeriedspital", "latitude": 46.9598314, "longitude": 7.4369561, "source": "osm", "_tags": {"addr:city": "Bern", "addr:housenumber": "15", "addr:postcode": "3001", "addr:street": "Riedweg", "amenity": "hospital", "emergency": "no", "healthcare": "hospital", "name": "Engeriedspital", "operator": "Lindenhofgruppe", "operator:type": "private", "website": "https://www.lindenhofgruppe.ch/de/ueber-uns/standorte/", "wikidata": "Q33121316"}}, {"name": "Spital Aarberg", "latitude": 47.0480959, "longitude": 7.2796959, "source": "osm", "_tags": {"addr:city": "Aarberg", "addr:housenumber": "31", "addr:postcode": "3270", "addr:street": "Lyssstrasse", "amenity": "hospital", "healthcare": "hospital", "name": "Spital Aarberg"}}, {"name": "Lindenhofspital", "latitude": 46.9581739, "longitude": 7.427875, "source": "osm", "_tags": {"addr:city": "Bern", "addr:country": "CH", "addr:housenumber": "117", "addr:postcode": "3012", "addr:street": "Bremgartenstrasse", "amenity": "hospital", "contact:email": "lindenhof@lindenhofgruppe.ch", "contact:fax": "+41 31 3008057", "contact:phone": "+41 31 3008811", "emergency": "yes", "healthcare": "hospital", "healthcare:speciality": "intensive", "name": "Lindenhofspital", "source": "survey and website", "website": "https://www.lindenhofgruppe.ch/de/standorte/lindenhof/", "wikidata": "Q30280704"}}, {"name": "Haus C", "latitude": 47.2308284, "longitude": 7.8427958, "source": "osm", "_tags": {"addr:city": "St. Urban", "addr:country": "CH", "addr:housenumber": "1c", "addr:postcode": "4915", "addr:street": "Schafmattstrasse", "amenity": "hospital", "building": "yes", "emergency": "no", "healthcare": "hospital", "name": "Haus C"}}, {"name": "Th. Willy Bern-Bümpliz", "latitude": 46.9339171, "longitude": 7.3929916, "source": "osm", "_tags": {"addr:city": "Bern", "addr:housenumber": "443", "addr:postcode": "3018", "addr:street": "Freiburgstrasse", "amenity": "hospital", "healthcare": "hospital", "industrial": "auto-zentrum", "name": "Th. Willy Bern-Bümpliz"}}, {"name": "Hôpital Riaz", "latitude": 46.6413224, "longitude": 7.0601546, "source": "osm", "_tags": {"addr:city": "Riaz", "addr:country": "CH", "addr:housenumber": "9", "addr:postcode": "1632", "addr:street": "Rue de l'Hôpital", "amenity": "hospital", "healthcare": "hospital", "name": "Hôpital Riaz", "operator": "HFR", "phone": "+41263064000", "website": "https://www.h-fr.ch/hfr/fr/pub/index.htm"}}, {"name": "Hôpital de Marsens", "latitude": 46.6560894, "longitude": 7.066967, "source": "osm", "_tags": {"amenity": "hospital", "healthcare": "hospital", "name": "Hôpital de Marsens"}}, {"name": "Luzerner Psychiatrie St.Urban LUPS", "latitude": 47.2299171, "longitude": 7.8425103, "source": "osm", "_tags": {"addr:city": "St. Urban", "addr:country": "CH", "addr:housenumber": "1", "addr:postcode": "4915", "addr:street": "Schafmattstrasse", "amenity": "hospital", "building": "yes", "healthcare": "hospital", "healthcare:speciality": "psychiatry", "name": "Luzerner Psychiatrie St.Urban LUPS", "operator": "Luzener Psychiatrie LUPS"}}, {"name": "Salem-Spital", "latitude": 46.9520936, "longitude": 7.4536397, "source": "osm", "_tags": {"addr:city": "Bern", "addr:housenumber": "39", "addr:postcode": "3013", "addr:street": "Schänzlistrasse", "amenity": "hospital", "check_date": "2024-07-16", "healthcare": "hospital", "name": "Salem-Spital", "operator": "Hirslanden Gruppe", "phone": "+41 31 337 60 00", "toilets:wheelchair": "yes", "website": "https://www.hirslanden.ch/de/salem-spital/home.html", "wheelchair": "yes", "wikidata": "Q22001404"}}, {"name": "Spital Langnau", "latitude": 46.9432894, "longitude": 7.7865727, "source": "osm", "_tags": {"addr:city": "Langnau im Emmental", "addr:housenumber": "10", "addr:postcode": "3550", "addr:street": "Dorfbergstrasse", "amenity": "hospital", "emergency": "yes", "name": "Spital Langnau", "operator": "Spital Emmental", "website": "https://www.spital-emmental.ch/"}}, {"name": "Inselspital", "latitude": 46.9473091, "longitude": 7.4243945, "source": "osm", "_tags": {"addr:city": "Bern", "addr:housenumber": "18", "addr:postcode": "3010", "addr:street": "Freiburgstrasse", "amenity": "hospital", "emergency": "yes", "healthcare": "hospital", "healthcare:speciality": "intensive", "name": "Inselspital", "operator": "Insel Gruppe AG", "phone": "+41 316322111", "toilets:wheelchair": "yes", "website": "https://www.insel.ch/", "wheelchair": "yes", "wheelchair:description": "Es ist immer ein wenig knapp mit Behindertenparkplätzen vor dem Bettenhochhaus (Haupteingang).", "wikidata": "Q678369", "wikipedia": "de:Inselspital"}}, {"name": "Spital Thun", "latitude": 46.7610936, "longitude": 7.6324954, "source": "osm", "_tags": {"addr:city": "Thun", "addr:housenumber": "12", "addr:postcode": "3600", "addr:street": "Krankenhausstrasse", "amenity": "hospital", "email": "info@spitalstsag.ch", "emergency": "yes", "healthcare": "hospital", "healthcare:speciality": "intensive", "name": "Spital Thun", "operator": "Spital STS AG", "phone": "+41 33 226 26 26", "source": "https://geodienste.ch/", "toilets:wheelchair": "yes", "website": "https://spitalthun.ch/", "wheelchair": "yes"}}, {"name": "Psychiatriezentrum Münsingen", "latitude": 46.8809311, "longitude": 7.552577, "source": "osm", "_tags": {"addr:city": "Münsingen", "addr:housenumber": "1", "addr:postcode": "3110", "addr:street": "Hunzigenallee", "amenity": "hospital", "name": "Psychiatriezentrum Münsingen", "operator": "PZM Psychiatriezentrum Münsingen AG", "wikidata": "Q976078", "wikipedia": "de:Psychiatriezentrum Münsingen"}}, {"name": "Psychiatrische Dienste", "latitude": 47.2185007, "longitude": 7.5224267, "source": "osm", "_tags": {"addr:city": "Solothurn", "addr:country": "CH", "addr:housenumber": "102", "addr:postcode": "4503", "addr:street": "Weissensteinstrasse", "amenity": "clinic", "healthcare": "hospital", "healthcare:speciality": "psychiatry", "name": "Psychiatrische Dienste", "operator": "Solothurner Spitäler", "phone": "+41 32 627 11 11", "website": "https://www.solothurnerspitaeler.ch/unsere-spitaeler/psychiatrische-dienste/"}}, {"name": "Spital Zweisimmen", "latitude": 46.5577131, "longitude": 7.3729799, "source": "osm", "_tags": {"amenity": "hospital", "healthcare": "hospital", "healthcare:speciality": "intensive", "name": "Spital Zweisimmen", "phone": "+41 33 729 26 26", "website": "https://spitalstsag.ch/", "wikidata": "Q23783977"}}, {"name": "Luzerner Psychiatrie St. Urban", "latitude": 47.2301944, "longitude": 7.8433054, "source": "osm", "_tags": {"addr:city": "St. Urban", "addr:housenumber": "1", "addr:postcode": "4915", "addr:street": "Schafmattstrasse", "amenity": "hospital", "healthcare": "hospital", "name": "Luzerner Psychiatrie St. Urban", "website": "https://www.lups.ch/standorte/"}}, {"name": "Hôpital du Pays d'Enhaut", "latitude": 46.478179, "longitude": 7.1407194, "source": "osm", "_tags": {"addr:city": "Château-d'Oex", "addr:housenumber": "17", "addr:postcode": "1660", "addr:street": "Route de l'Hôpital", "amenity": "hospital", "emergency": "yes", "healthcare": "hospital", "name": "Hôpital du Pays d'Enhaut", "phone": "+41 26 923 43 43", "website": "https://www.hopital-pae.ch/jcms/pae_10300/en/bienvenue"}}, {"name": "Hirslanden Klinik Permanence", "latitude": 46.9445978, "longitude": 7.3922701, "source": "osm", "_tags": {"addr:city": "Bern", "addr:country": "CH", "addr:housenumber": "83", "addr:postcode": "3018", "addr:street": "Bümplizstrasse", "amenity": "hospital", "emergency": "yes", "name": "Hirslanden Klinik Permanence", "phone": "+41 31 990 41 11", "website": "https://www.hirslanden.ch/de/klinik-permanence/home.html", "wheelchair": "yes", "wikidata": "Q29015161"}}, {"name": "Spital und Altersheim Belp", "latitude": 46.8920224, "longitude": 7.4941604, "source": "osm", "_tags": {"addr:city": "Belp", "addr:housenumber": "89/91", "addr:postcode": "3123", "addr:street": "Seftigenstrasse", "amenity": "hospital", "emergency": "no", "name": "Spital und Altersheim Belp", "operator": "Inselgruppe", "phone": "+41 31 818 91 11", "website": "https://www.spitalbelp.ch/de/"}}, {"name": "HFR Fribourg – Hôpital cantonal", "latitude": 46.8020355, "longitude": 7.1379925, "source": "osm", "_tags": {"addr:city": "Villars-sur-Glâne", "addr:country": "CH", "addr:housenumber": "2-6", "addr:postcode": "1752", "addr:street": "Chemin des Pensionnats", "amenity": "hospital", "email": "info@h-fr.ch", "healthcare": "hospital", "name": "HFR Fribourg – Hôpital cantonal", "name:de": "HFR Freiburg – Kantonsspital", "name:hr": "Kantonalna bolnica Fribourg", "phone": "+41 264267111", "website": "https://www.h-fr.ch/", "wikidata": "Q23013010"}}, {"name": "Hôpital Daler", "latitude": 46.800929, "longitude": 7.140671, "source": "osm", "_tags": {"addr:city": "Fribourg", "addr:country": "CH", "addr:housenumber": "34", "addr:postcode": "1700", "addr:street": "Route de Bertigny", "amenity": "hospital", "email": "hopital@daler.ch", "fax": "+41 26 429 94 11", "healthcare": "hospital", "name": "Hôpital Daler", "name:de": "Daler Spital", "name:fr": "Hôpital Daler", "phone": "+41 26 429 91 11", "website": "https://www.daler.ch/", "wikidata": "Q28778458"}}, {"name": "Spital des Seebezirks", "latitude": 46.9223007, "longitude": 7.1078727, "source": "osm", "_tags": {"addr:city": "Meyriez", "addr:country": "CH", "addr:housenumber": "24", "addr:street": "Chemin du Village", "amenity": "hospital", "emergency": "yes", "healthcare": "hospital", "name": "Spital des Seebezirks", "name:de": "Spital des Seebezirks", "official_name": "HFR Meyriez-Murten", "phone": "+41 26 306 70 00", "website": "https://www.h-fr.ch/hfr/de/pub/patienten/standorte/meyriez.htm"}}, {"name": "Clinique Générale Ste-Anne", "latitude": 46.7997462, "longitude": 7.1544687, "source": "osm", "_tags": {"addr:city": "Fribourg", "addr:country": "CH", "addr:housenumber": "6", "addr:postcode": "1700", "addr:street": "Rue Hans-Geiler", "amenity": "hospital", "healthcare": "hospital", "name": "Clinique Générale Ste-Anne", "website": "https://www.cliniquegenerale.ch/de/"}}, {"name": "Hôpital de Moutier", "latitude": 47.2819844, "longitude": 7.3737661, "source": "osm", "_tags": {"addr:city": "Moutier", "addr:country": "CH", "addr:postcode": "2740", "addr:street": "Rue Beausite", "amenity": "hospital", "healthcare": "hospital", "name": "Hôpital de Moutier"}}, {"name": "Hôpital du Jura", "latitude": 47.2570743, "longitude": 6.9969472, "source": "osm", "_tags": {"addr:city": "Saignelégier", "addr:country": "CH", "addr:housenumber": "11", "addr:postcode": "2350", "addr:street": "Rue de l'Hôpital", "amenity": "hospital", "name": "Hôpital du Jura", "phone": "+41 32 952 12 12", "website": "https://www.h-ju.ch/fr/L-Hopital-du-jura/Les-4-sites-de-l-hopital/Saignelegier/H-JU-site-de-Saignelegier.html"}}, {"name": "Hôpital du Jura bernois - St-Imier", "latitude": 47.1485952, "longitude": 6.9841363, "source": "osm", "_tags": {"addr:city": "St-Imier", "addr:country": "CH", "addr:housenumber": "17a", "addr:postcode": "2610", "addr:street": "Les Fontenayes", "amenity": "hospital", "check_date": "2024-03-25", "ele": "855", "name": "Hôpital du Jura bernois - St-Imier", "phone": "+41 32 942 24 22"}}, {"name": "Hôpital catholique de la Providence", "latitude": 46.995288, "longitude": 6.9391459, "source": "osm", "_tags": {"addr:city": "Neuchâtel", "addr:country": "CH", "addr:housenumber": "81", "addr:postcode": "2000", "addr:street": "Faubourg de l'Hôpital", "amenity": "hospital", "healthcare": "hospital", "name": "Hôpital catholique de la Providence", "phone": "+41 32 720 30 30", "source": "Orthophotos 2006 SITN 50cm", "website": "https://www.hopital-providence.ch/"}}, {"name": "HFR Spital Tafers", "latitude": 46.8102126, "longitude": 7.2120315, "source": "osm", "_tags": {"addr:city": "Tafers", "addr:country": "CH", "addr:housenumber": "1", "addr:postcode": "1712", "addr:street": "Maggenberg", "amenity": "hospital", "contact:email": "empfang.tafers@h-fr.ch", "emergency": "yes", "healthcare": "hospital", "name": "HFR Spital Tafers", "name:de": "HFR Tafers", "name:fr": "HFR Tafers", "operator": "HFR", "phone": "+41 26 306 60 00", "website": "https://www.h-fr.ch/nos-sites-hospitaliers/hfr-tafers"}}, {"name": "Spital Riggisberg", "latitude": 46.8137387, "longitude": 7.4781597, "source": "osm", "_tags": {"addr:city": "Riggisberg", "addr:country": "CH", "addr:housenumber": "2", "addr:postcode": "3132", "addr:street": "Eyweg", "amenity": "hospital", "emergency": "yes", "name": "Spital Riggisberg", "operator": "Insel", "website": "https://www.spitalriggisberg.ch/de/"}}, {"name": "Hirslanden - Privatklinik Linde - Clinique des Tilleuls", "latitude": 47.1331928, "longitude": 7.263077, "source": "osm", "_tags": {"addr:city": "Biel/Bienne", "addr:housenumber": "105", "addr:postcode": "2503", "addr:street": "Crêt-des-Fleurs / Blumenrain", "addr:street:de": "Blumenrain", "addr:street:fr": "Crêt-des-Fleurs", "amenity": "hospital", "contact:email": "klinik-linde@hirslanden.ch", "contact:phone": "+41 32 366 41 11", "contact:website": "https://www.hirslanden.ch/de/klinik-linde/home.html", "emergency": "yes", "healthcare": "hospital", "name": "Hirslanden - Privatklinik Linde - Clinique des Tilleuls", "name:de": "Hirslanden - Privatklinik Linde", "name:fr": "Hirslanden - Clinique des Tilleuls", "network": "Hirslanden", "operator": "Privatklinikgruppe Hirslanden"}}, {"name": "Hohmad Privatklinik", "latitude": 46.7495656, "longitude": 7.6249706, "source": "osm", "_tags": {"addr:city": "Thun", "addr:country": "CH", "addr:housenumber": "1", "addr:postcode": "3600", "addr:street": "Hohmadstrasse", "amenity": "hospital", "emergency": "no", "healthcare": "hospital", "internet_access": "wlan", "internet_access:fee": "customers", "name": "Hohmad Privatklinik", "operator": "Medaxo", "operator:type": "private", "phone": "+41 33 225 25 80", "source": "https://geodienste.ch/", "website": "https://www.klinikhohmad.ch"}}, {"name": "Clinique le Noirmont", "latitude": 47.2306661, "longitude": 6.959118, "source": "osm", "_tags": {"addr:city": "Le Noirmont", "addr:housenumber": "20", "addr:postcode": "2340", "addr:street": "Chemin Roc-Montès", "amenity": "hospital", "description": "Kardiovaskuläre, psychosomatische, muskuloskelettale Rehabilitation", "healthcare": "hospital", "healthcare:speciality": "rehabilitation", "loc_name": "Roc-Montès", "name": "Clinique le Noirmont", "old_name": "Villa Roc-Montès", "phone": "+41 32 957 51 11", "website": "http://www.clinique-le-noirmont.ch/"}}, {"name": "Hôpital du Jura - Delémont", "latitude": 47.3685294, "longitude": 7.3387326, "source": "osm", "_tags": {"addr:city": "Delémont", "addr:country": "CH", "addr:housenumber": "30", "addr:postcode": "2800", "addr:street": "Fbg des Capucins", "amenity": "hospital", "healthcare": "hospital", "healthcare:speciality": "intensive", "name": "Hôpital du Jura - Delémont", "phone": "+41 32 421 21 21", "website": "https://www.h-ju.ch/", "wheelchair": "yes"}}, {"name": "Hôpital du Jura", "latitude": 47.4193143, "longitude": 7.0584353, "source": "osm", "_tags": {"addr:city": "Porrentruy", "addr:housenumber": "9", "addr:postcode": "2900", "addr:street": "Chemin de l'Hôpital", "amenity": "hospital", "healthcare": "hospital", "name": "Hôpital du Jura", "phone": "+41 32 465 65 65", "website": "https://www.h-ju.ch/"}}, {"name": "Reha Heiligenschwendi", "latitude": 46.7499272, "longitude": 7.6936799, "source": "osm", "_tags": {"addr:city": "Heiligenschwendi", "addr:housenumber": "299", "addr:postcode": "3625", "addr:street": "Schwendi", "amenity": "hospital", "healthcare:speciality": "rehabilitation", "name": "Reha Heiligenschwendi", "phone": "+41 33 244 33 33", "website": "https://www.rehabern.ch/", "wheelchair": "yes"}}, {"name": "Universitäre Psychiatrische Dienste Bern", "latitude": 46.9669583, "longitude": 7.4830216, "source": "osm", "_tags": {"alt_name": "Waldau", "amenity": "hospital", "email": "info@upd.ch", "healthcare": "hospital", "healthcare:speciality": "psychiatry", "name": "Universitäre Psychiatrische Dienste Bern", "phone": "+41 31 930 91 11", "short_name": "UPD", "website": "https://www.upd.ch/", "wikidata": "Q30254073", "wikimedia_commons": "Category:Universitäre Psychiatrische Dienste (UPD) Bern", "wikipedia": "de:Universitäre Psychiatrische Dienste Bern"}}, {"name": "Bürgerspital Solothurn", "latitude": 47.1995997, "longitude": 7.5394685, "source": "osm", "_tags": {"addr:city": "Solothurn", "addr:country": "CH", "addr:housenumber": "42", "addr:postcode": "4500", "addr:street": "Schöngrünstrasse", "amenity": "hospital", "email": "nicola.jedvaj@helion.ch", "emergency": "yes", "fax": "+41 32 627 30 79", "healthcare": "hospital", "healthcare:speciality": "intensive", "name": "Bürgerspital Solothurn", "operator": "Solothurner Spitäler", "phone": "+41 32 627 31 21", "short_name": "BSS", "website": "https://www.solothurnerspitaeler.ch/unsere-spitaeler/buergerspital-solothurn/"}}, {"name": "Haus B", "latitude": 47.2303761, "longitude": 7.8438973, "source": "osm", "_tags": {"addr:city": "St. Urban", "addr:country": "CH", "addr:housenumber": "1b", "addr:postcode": "4915", "addr:street": "Schafmattstrasse", "amenity": "hospital", "building": "yes", "healthcare": "hospital", "healthcare:speciality": "psychiatry", "name": "Haus B", "operator": "Luzerner Psychiatrie LUPS", "source": "AGIS2019"}}, {"name": "Spital Frutigen", "latitude": 46.584114, "longitude": 7.6416826, "source": "osm", "_tags": {"addr:city": "Frutigen", "amenity": "hospital", "healthcare": "hospital", "name": "Spital Frutigen"}}, {"name": "Home les Bouleaux", "latitude": 47.1936523, "longitude": 7.1355309, "source": "osm", "_tags": {"addr:city": "Corgémont", "addr:housenumber": "16", "addr:postcode": "2606", "addr:street": "Sur le Crêt", "building": "hospital", "emergency": "no", "healthcare": "hospital", "name": "Home les Bouleaux"}}, {"name": "Hôpital intercantonal de la Broye", "latitude": 46.8186647, "longitude": 6.9462542, "source": "osm", "_tags": {"addr:city": "Payerne", "addr:housenumber": "3", "addr:postcode": "1530", "addr:street": "Avenue de la Colline", "amenity": "hospital", "check_date": "2025-08-02", "emergency": "yes", "fax": "+41 26 662 85 21", "healthcare": "hospital", "name": "Hôpital intercantonal de la Broye", "phone": "+41 26 662 80 11", "short_name": "HIB", "website": "https://www.hopital-broye.ch"}}, {"name": "Centre médico-psychologique: enfants et adolescents", "latitude": 47.4131486, "longitude": 7.0757734, "source": "osm", "_tags": {"amenity": "hospital", "check_date": "2025-06-17", "emergency": "yes", "healthcare": "hospital", "healthcare:speciality": "paediatrics;child_psychiatry", "name": "Centre médico-psychologique: enfants et adolescents"}}, {"name": "Centre Neuchâtelois de Psychiatrie Préfagier", "latitude": 47.0058526, "longitude": 7.0092221, "source": "osm", "_tags": {"amenity": "hospital", "healthcare": "hospital", "healthcare:speciality": "psychiatry", "name": "Centre Neuchâtelois de Psychiatrie Préfagier", "operator": "Centre neuchâtelois de psychiatrie (CNP)", "operator:type": "public"}}, {"name": "Regionalspital Interlaken", "latitude": 46.6803444, "longitude": 7.8433744, "source": "osm", "_tags": {"addr:city": "Unterseen", "addr:housenumber": "27", "addr:postcode": "3800", "addr:street": "Weissenaustrasse", "amenity": "hospital", "email": "info@spitalfmi.ch", "emergency": "yes", "healthcare": "hospital", "healthcare:speciality": "intensive", "name": "Regionalspital Interlaken", "operator": "FMI", "phone": "+41 33 826 26 26", "type": "multipolygon", "website": "https://www.spitalfmi.ch/index.php?id=2217", "wheelchair": "yes", "wikidata": "Q2311218", "wikipedia": "de:Spital Interlaken"}}, {"name": "Siloah", "latitude": 46.9315563, "longitude": 7.5176975, "source": "osm", "_tags": {"addr:city": "Gümligen", "addr:housenumber": "312", "addr:postcode": "3073", "addr:street": "Worbstrasse", "amenity": "hospital", "name": "Siloah", "phone": "+41 319581111", "type": "multipolygon", "website": "https://www.siloah.ch", "wheelchair": "yes"}}, {"name": "Centre hospitalier Bienne / Spitalzentrum Biel", "latitude": 47.146999, "longitude": 7.2448837, "source": "osm", "_tags": {"addr:city": "Biel/Bienne", "addr:city:de": "Biel", "addr:city:fr": "Bienne", "addr:country": "CH", "addr:housenumber": "84", "addr:postcode": "2501", "addr:street": "Chante-Merle / Vogelsang", "addr:street:de": "Vogelsang", "addr:street:fr": "Chante-Merle", "amenity": "hospital", "contact:phone": "+41 32 324 24 24", "contact:website": "https://www.spitalzentrum-biel.ch", "emergency": "yes", "healthcare": "hospital", "healthcare:speciality": "intensive", "name": "Centre hospitalier Bienne / Spitalzentrum Biel", "name:de": "Spitalzentrum Biel", "name:fr": "Centre hospitalier de Bienne", "toilets:wheelchair": "yes", "type": "multipolygon", "wheelchair": "yes", "wikidata": "Q2311339", "wikimedia_commons": "Category:Spitalzentrum Biel"}}, {"name": "Kantonsspital Olten", "latitude": 47.356448, "longitude": 7.9037129, "source": "osm", "_tags": {"amenity": "hospital", "emergency": "yes", "healthcare": "hospital", "healthcare:speciality": "intensive;anaesthetics;cardiology;emergency;endocrinology;gastroentereology;geriatrics;gynaecology;haematology;infectious_diseases;internal;nephrology;oncology;orthopaedics;otolaryngology;palliative;proctology;pulmonology;radiology;surgery;urology;", "name": "Kantonsspital Olten", "operator": "Solothurner Spitäler AG", "phone": "+41 62 311 41 11", "type": "multipolygon", "website": "https://www.solothurnerspitaeler.ch/unsere-spitaeler/kantonsspital-olten/", "wheelchair": "yes"}}]