[{"name": "Klinik für Psychiatrie, Psychotherapie und Psychosomatik im Kindes- und Jugendalter", "latitude": 48.006963, "longitude": 7.8562083, "source": "osm", "_tags": {"addr:city": "Freiburg im Breisgau", "addr:housenumber": "8", "addr:postcode": "79104", "addr:street": "Hauptstraße", "check_date": "2025-08-17", "healthcare": "hospital", "healthcare:speciality": "psychiatry", "name": "Klinik für Psychiatrie, Psychotherapie und Psychosomatik im Kindes- und Jugendalter", "operator": "Universitätsklinikum Freiburg", "wheelchair": "yes"}}, {"name": "Kreiskrankenhaus Emmendingen", "latitude": 48.1252505, "longitude": 7.855804, "source": "osm", "_tags": {"addr:city": "Emmendingen", "addr:country": "DE", "addr:housenumber": "44", "addr:street": "Gartenstraße", "amenity": "hospital", "contact:email": "verwaltung@krankenhaus-emmendingen.de", "contact:fax": "+49 7641 4542520", "contact:phone": "+49 7641 4540", "contact:website": "http://www.krankenhaus-emmendingen.de/", "healthcare": "hospital", "name": "Kreiskrankenhaus Emmendingen", "toilets:wheelchair": "yes", "wheelchair": "yes", "wheelchair:description": "Rollstuhl-WC im EG", "wikidata": "Q34618638"}}, {"name": "Klinik für Onkologische Rehabilitation", "latitude": 48.0047732, "longitude": 7.8331721, "source": "osm", "_tags": {"amenity": "hospital", "check_date": "2024-03-19", "contact:website": "https://www.ukf-reha.de/", "healthcare": "hospital", "healthcare:speciality": "rehabilitation", "name": "Klinik für Onkologische Rehabilitation", "operator": "UKF Reha gGmbH"}}, {"name": "Adullam Spital und Pflegezentren", "latitude": 47.5601759, "longitude": 7.5796527, "source": "osm", "_tags": {"amenity": "hospital", "check_date": "2024-09-05", "healthcare": "hospital", "name": "Adullam Spital und Pflegezentren"}}, {"name": "Klinik für Psychosomatische Medizin und Psychotherapie", "latitude": 48.0071837, "longitude": 7.8565728, "source": "osm", "_tags": {"addr:city": "Freiburg im Breisgau", "addr:housenumber": "8", "addr:postcode": "79104", "addr:street": "Hauptstraße", "check_date": "2024-11-03", "healthcare": "hospital", "healthcare:speciality": "psychiatry", "name": "Klinik für Psychosomatische Medizin und Psychotherapie", "operator": "Universitätsklinikum Freiburg", "wheelchair": "yes"}}, {"name": "Pflege im Generationenhaus St. Josef", "latitude": 48.2333034, "longitude": 7.713753, "source": "osm", "_tags": {"addr:city": "Rheinhausen", "addr:housenumber": "1", "addr:postcode": "79365", "addr:street": "Im Bürgerzentrum", "amenity": "hospital", "healthcare": "hospital", "name": "Pflege im Generationenhaus St. Josef", "operator": "Schwesternverband"}}, {"name": "Urologie Praxis Schumacher/Strobel/Oumari", "latitude": 47.6233301, "longitude": 7.6754354, "source": "osm", "_tags": {"addr:city": "Lörrach", "addr:housenumber": "85", "addr:postcode": "79539", "addr:street": "Brombacher Straße", "amenity": "hospital", "healthcare": "hospital", "healthcare:speciality": "urology", "name": "Urologie Praxis Schumacher/Strobel/Oumari"}}, {"name": "Sozialpädiatrisches Zentrum", "latitude": 48.0027771, "longitude": 7.8435259, "source": "osm", "_tags": {"amenity": "clinic", "contact:email": "zkj.termin@uniklinik-freiburg.de", "contact:website": "https://www.uniklinik-freiburg.de/kinderklinik/behandlungsspektrum/sozialpaediatrisches-zentrum-spz.html", "healthcare": "hospital", "healthcare:speciality": "child_psychiatry", "name": "Sozialpädiatrisches Zentrum", "operator": "Universitätsklinikum Freiburg", "short_name": "SPZ"}}, {"name": "Praxisklinik 2000", "latitude": 48.0238925, "longitude": 7.8144239, "source": "osm", "_tags": {"amenity": "hospital", "email": "info@praxisklinik2000.com", "healthcare": "clinic", "healthcare:speciality": "orthopaedics;surgery", "name": "Praxisklinik 2000", "opening_hours": "Mo-Fr 09:00-12:00,13:00-16:00", "phone": "+49 761 88 85 890", "website": "https://praxisklinik2000.com/orthopaede_freiburg.html"}}, {"name": "Universitäre Psychiatrische Kliniken Basel", "latitude": 47.5712238, "longitude": 7.5650465, "source": "osm", "_tags": {"amenity": "hospital", "check_date": "2025-01-25", "emergency": "yes", "healthcare": "clinic", "name": "Universitäre Psychiatrische Kliniken Basel", "operator": "Universitäre Psychiatrische Kliniken (UPK) Basel", "phone": "+41 61 325 51 11", "short_name": "UPK", "website": "https://www.upk.ch/startseite.html"}}, {"name": "Zentrum für Psychiatrie Emmendingen", "latitude": 48.1153595, "longitude": 7.8685622, "source": "osm", "_tags": {"addr:housenumber": "25", "addr:street": "Neubronnstraße", "amenity": "hospital", "contact:email": "info@zfp-emmendingen.de", "contact:fax": "+49 7641 4612901", "contact:phone": "+49 7641 4610", "contact:website": "https://www.zfp-emmendingen.de", "name": "Zentrum für Psychiatrie Emmendingen", "toilets:wheelchair": "yes", "wheelchair": "yes", "wikidata": "Q34614311"}}, {"name": "", "latitude": 47.6143421, "longitude": 7.6583697, "source": "osm", "_tags": {"addr:city": "Lörrach", "addr:country": "DE", "addr:housenumber": "25", "addr:postcode": "79539", "addr:street": "Spitalstraße", "building": "hospital", "contact:phone": "+49 7621 416-0", "emergency": "yes", "healthcare": "hospital", "lastcheck": "2016-02-23", "source": "Bing, Webside Krankenhaus", "website": "https://www.klinloe.de/", "wheelchair": "yes", "wikidata": "Q1774579"}}, {"name": "Hôpital du Hasenrain", "latitude": 47.7339563, "longitude": 7.3313447, "source": "osm", "_tags": {"amenity": "hospital", "contact:city": "Mulhouse", "contact:facebook": "CentreHospitalierDeMulhouse", "contact:fax": "+33 3 89 64 70 26", "contact:housenumber": "87", "contact:phone": "+33 3 89 64 64 64", "contact:postcode": "68100", "contact:street": "Avenue d'Altkirch", "contact:twitter": "ghrmsa", "contact:website": "http://www.ghrmsa.fr/", "description": "Établissement Public Hospitalier", "healthcare": "hospital", "name": "Hôpital du Hasenrain", "operator": "Groupe Hospitalier Région de Mulhouse Sud Alsace", "operator:type": "public", "ref:FR:FINESS": "680000627", "type:FR:FINESS": "355", "wheelchair": "no"}}, {"name": "Centre Hospitalier Émile Muller", "latitude": 47.7250109, "longitude": 7.3419435, "source": "osm", "_tags": {"amenity": "hospital", "contact:city": "Mulhouse", "contact:facebook": "CentreHospitalierDeMulhouse", "contact:housenumber": "20", "contact:phone": "+33 3 89 64 64 64", "contact:postcode": "68100", "contact:street": "Avenue du Docteur René Laennec", "contact:twitter": "ghrmsa", "contact:website": "http://www.ghrmsa.fr", "emergency": "yes", "healthcare": "hospital", "healthcare:speciality": "intensive", "name": "Centre Hospitalier Émile Muller", "operator:type": "public", "ref:FR:FINESS": "680004546", "type:FR:FINESS": "355", "wheelchair": "no"}}, {"name": "Loretto-Krankenhaus", "latitude": 47.9829574, "longitude": 7.8398958, "source": "osm", "_tags": {"addr:city": "Freiburg im Breisgau", "addr:country": "DE", "addr:housenumber": "6-14", "addr:postcode": "79100", "addr:street": "Mercystraße", "amenity": "hospital", "contact:email": "info-lok@rkk-klinikum.de", "contact:fax": "+49 761 7084 239", "contact:phone": "+49 761 7084 0", "contact:website": "http://rkk-klinikum.de/", "healthcare": "hospital", "name": "Loretto-Krankenhaus", "name:en": "Loretto-Krankenhaus", "opening_hours": "24/7", "operational_status": "Operational", "operator": "RKK gGmbH", "operator:type": "public/government", "wikidata": "Q126178094"}}, {"name": "Centre Hospitalier de Pfastatt", "latitude": 47.7673805, "longitude": 7.3005788, "source": "osm", "_tags": {"amenity": "hospital", "healthcare": "hospital", "name": "Centre Hospitalier de Pfastatt", "ref:FR:FINESS": "680000577", "source": "cadastre-dgi-fr source : Direction Générale des Impôts - Cadastre. Mise à jour : 2009", "type:FR:FINESS": "355"}}, {"name": "Kreiskrankenhaus-Schopfheim", "latitude": 47.6464532, "longitude": 7.823227, "source": "osm", "_tags": {"addr:city": "Schopfheim", "addr:housenumber": "40", "addr:postcode": "79650", "addr:street": "Schwarzwaldstraße", "amenity": "hospital", "building": "hospital", "check_date": "2025-08-23", "emergency": "yes", "healthcare": "hospital", "name": "Kreiskrankenhaus-Schopfheim", "source:geometry": "maps4bw (LGL, www.lgl-bw.de);Mapbox Satellite"}}, {"name": "Hôpital Pasteur", "latitude": 48.0752245, "longitude": 7.33747, "source": "osm", "_tags": {"addr:city": "Colmar", "addr:housenumber": "39", "addr:postcode": "68000", "addr:street": "Avenue de la Liberté", "amenity": "hospital", "emergency": "yes", "fax": "+33 3 89 12 42 98", "healthcare": "hospital", "healthcare:speciality": "intensive", "name": "Hôpital Pasteur", "operator:type": "public", "phone": "+33 3 89 12 40 00", "ref:FR:FINESS": "680000684", "source": "cadastre-dgi-fr source : Direction Générale des Impôts - Cadastre. Mise à jour : 2010", "type:FR:FINESS": "355", "website": "https://ch-colmar.fr/"}}, {"name": "Centre psychothérapique du Parc", "latitude": 48.0868789, "longitude": 7.3352996, "source": "osm", "_tags": {"amenity": "hospital", "healthcare:speciality": "Psychiatrie", "name": "Centre psychothérapique du Parc", "source": "cadastre-dgi-fr source : Direction Générale des Impôts - Cadastre. Mise à jour : 2010"}}, {"name": "Centre Hospitalier de Rouffach", "latitude": 47.9508099, "longitude": 7.2879981, "source": "osm", "_tags": {"amenity": "hospital", "healthcare": "hospital", "name": "Centre Hospitalier de Rouffach", "operator:type": "public", "phone": "+33 3 89 78 70 70", "ref:FR:FINESS": "680001179", "source": "cadastre-dgi-fr source : Direction Générale des Impôts - Cadastre. Mise à jour : 2010", "type:FR:FINESS": "292", "website": "https://www.ch-rouffach.fr", "wikidata": "Q2945746"}}, {"name": "Hôpital de Ribeauville", "latitude": 48.1970979, "longitude": 7.3160004, "source": "osm", "_tags": {"addr:city": "Ribeauvillé", "addr:country": "FR", "addr:housenumber": "13", "addr:postcode": "68152", "addr:street": "Rue du Château", "amenity": "hospital", "building": "yes", "healthcare": "hospital", "name": "Hôpital de Ribeauville", "ref:FR:FINESS": "680000833", "source": "cadastre-dgi-fr source : Direction Générale des Impôts - Cadastre. Mise à jour : 2010", "type:FR:FINESS": "355"}}, {"name": "", "latitude": 47.9159274, "longitude": 7.1946839, "source": "osm", "_tags": {"addr:city": "Haut-Rhin", "addr:housenumber": "1", "addr:postcode": "68500", "addr:street": "Chemin du Liebenberg", "building": "hospital", "healthcare": "hospital", "healthcare:speciality": "psychiatry", "ref:FR:FINESS": "680001294", "source": "extraction vectorielle v1 cadastre-dgi-fr source : Direction Générale des Impôts - Cadas. Mise à jour : 2010", "type:FR:FINESS": "161", "website": "https://www.korian.fr/clinique-psychiatrique/psy-korian-solisana-guebwiller-68500"}}, {"name": "Helios-Rosmann-Klinik", "latitude": 48.0310286, "longitude": 7.5858317, "source": "osm", "_tags": {"addr:city": "Breisach am Rhein", "addr:country": "DE", "addr:housenumber": "37", "addr:postcode": "79206", "addr:street": "Zeppelinstraße", "amenity": "hospital", "building": "hospital", "healthcare": "hospital", "name": "Helios-Rosmann-Klinik", "website": "http://www.helios-kliniken.de/klinik/breisach.html", "wheelchair": "yes"}}, {"name": "Centre hospitalier Erstein Ville", "latitude": 48.4219081, "longitude": 7.6601317, "source": "osm", "_tags": {"addr:city": "Erstein", "addr:housenumber": "8", "addr:postcode": "67150", "addr:street": "Rue Brûlée", "amenity": "hospital", "contact:city": "Erstein", "contact:country": "FR", "contact:email": "accueil@hl-erstein.fr", "contact:fax": "+33 3 88 64 66 49", "contact:housenumber": "8-14", "contact:phone": "+33 3 88 64 66 46", "contact:postcode": "67151", "contact:street": "Rue Brûlée", "contact:website": "http://www.hopital-erstein.com/", "emergency": "no", "healthcare": "hospital", "name": "Centre hospitalier Erstein Ville", "operator:type": "public", "ref:FR:FINESS": "670000413", "short_name": "CHEV", "source": "Direction Générale des Finances Publiques - Cadastre;mise à jour : 2010", "type:FR:FINESS": "355"}}, {"name": "Hôpital Gériatrique de Cernay", "latitude": 47.8070396, "longitude": 7.1730318, "source": "osm", "_tags": {"building": "hospital", "emergency": "no", "fax": "+33 3 89 38 54 30", "healthcare": "hospital", "name": "Hôpital Gériatrique de Cernay", "operator": "Groupe hospitalier Mulhouse Sud-Alsace", "operator:type": "public", "phone": "+33 3 89 38 54 14", "ref:FR:FINESS": "680000122", "source": "extraction vectorielle v1 cadastre-dgi-fr source : Direction Générale des Impôts - Cadas. Mise à jour : 2010", "type:FR:FINESS": "355", "website": "https://www.ghrmsa.fr/presentation/nos-sites/cernay-433.html"}}, {"name": "Haus Noeggerath", "latitude": 48.0032963, "longitude": 7.8431276, "source": "osm", "_tags": {"building": "hospital", "building:levels": "1", "healthcare": "hospital", "name": "Haus Noeggerath", "operator": "Universitätsklinikum Freiburg", "roof:shape": "hipped", "short_name": "SPZ", "source": "Bing"}}, {"name": "Haus Kandel", "latitude": 48.0027513, "longitude": 7.84368, "source": "osm", "_tags": {"addr:city": "Freiburg im Breisgau", "addr:housenumber": "1", "addr:postcode": "79106", "addr:street": "Mathildenstraße", "building": "hospital", "building:levels": "2", "healthcare": "hospital", "name": "Haus Kandel", "operator": "Universitätsklinikum Freiburg", "roof:shape": "hipped", "source": "Bing"}}, {"name": "Haus Sonne", "latitude": 48.0035902, "longitude": 7.8438115, "source": "osm", "_tags": {"building": "hospital", "building:levels": "3", "healthcare": "hospital", "name": "Haus Sonne", "operator": "Universitätsklinikum Freiburg", "roof:levels": "1", "roof:shape": "hipped", "source": "Bing"}}, {"name": "Haus Schauinsland", "latitude": 48.0040327, "longitude": 7.8431147, "source": "osm", "_tags": {"building": "hospital", "building:levels": "3", "healthcare": "hospital", "name": "Haus Schauinsland", "operator": "Universitätsklinikum Freiburg", "roof:levels": "1", "roof:shape": "gabled", "source": "Bing"}}, {"name": "Kinderklinik", "latitude": 48.0040115, "longitude": 7.8437315, "source": "osm", "_tags": {"building": "hospital", "building:levels": "2", "healthcare": "hospital", "name": "Kinderklinik", "operator": "Universitätsklinikum Freiburg", "roof:shape": "flat", "source": "Bing"}}, {"name": "Haus Feldberg", "latitude": 48.0037329, "longitude": 7.842512, "source": "osm", "_tags": {"building": "hospital", "building:levels": "3", "healthcare": "hospital", "name": "Haus Feldberg", "operator": "Universitätsklinikum Freiburg"}}, {"name": "Haus Belchen", "latitude": 48.0030171, "longitude": 7.8439614, "source": "osm", "_tags": {"building": "hospital", "building:levels": "2", "healthcare": "hospital", "name": "Haus Belchen", "operator": "Universitätsklinikum Freiburg", "roof:shape": "flat", "source": "Bing"}}, {"name": "Ancien Centre de Réadaptation Le Muesberg", "latitude": 48.1971789, "longitude": 7.227091, "source": "osm", "_tags": {"amenity": "hospital", "healthcare": "hospital", "name": "Ancien Centre de Réadaptation Le Muesberg", "ref:FR:FINESS": "680001237", "source": "cadastre-dgi-fr source : Direction Générale des Impôts - Cadastre. Mise à jour : 2011", "type:FR:FINESS": "109"}}, {"name": "Hôpital Intercommunal du Val d'Argent", "latitude": 48.2449335, "longitude": 7.1745395, "source": "osm", "_tags": {"addr:city": "Sainte-Marie-aux-Mines", "addr:housenumber": "17", "addr:postcode": "68160", "addr:street": "Rue Jean-Jacques Bock", "amenity": "hospital", "contact:fax": "+33 3 89 22 42 48", "contact:phone": "+33 3 89 22 42 22", "contact:website": "https://www.hiva.fr/", "healthcare": "hospital", "name": "Hôpital Intercommunal du Val d'Argent", "operator:type": "public", "ref:FR:FINESS": "680000742", "ref:FR:NAF": "86.10Z", "ref:FR:SIRET": "26680200800018", "short_name": "HIVA", "source": "cadastre-dgi-fr source : Direction Générale des Impôts - Cadastre. Mise à jour : 2011", "type:FR:FINESS": "355"}}, {"name": "Psychiatrie", "latitude": 48.0083461, "longitude": 7.8573389, "source": "osm", "_tags": {"addr:city": "Freiburg im Breisgau", "addr:housenumber": "5", "addr:postcode": "79104", "addr:street": "Hauptstraße", "building": "hospital", "building:levels": "4", "healthcare": "hospital", "healthcare:speciality": "psychiatry", "name": "Psychiatrie", "operator": "Universitätsklinikum Freiburg", "roof:levels": "1", "roof:shape": "hipped"}}, {"name": "", "latitude": 47.7888822, "longitude": 7.6721213, "source": "osm", "_tags": {"amenity": "hospital", "healthcare": "hospital"}}, {"name": "Rhein-Jura Klinik", "latitude": 47.562439, "longitude": 7.9392384, "source": "osm", "_tags": {"access": "customers", "addr:city": "Bad Säckingen", "addr:country": "DE", "addr:housenumber": "13", "addr:postcode": "79713", "addr:street": "Schneckenhalde", "amenity": "hospital", "building": "hospital", "contact:email": "info@rhein-jura-klinik.de", "contact:fax": "+49 7761 5600105", "contact:phone": "+49 7761 56000", "contact:website": "http://www.rhein-jura-klinik.de", "health_facility:type": "therapy", "healthcare": "clinic", "healthcare:speciality": "psychiatry", "medical_system:western": "yes", "name": "Rhein-Jura Klinik", "note": "Krankenhaus statt Klinik, da sonst nicht in Karte dargestellt"}}, {"name": "Polyclinique des 3 Frontières", "latitude": 47.5824296, "longitude": 7.551222, "source": "osm", "_tags": {"addr:city": "Saint-Louis", "addr:housenumber": "8", "addr:postcode": "68300", "addr:street": "Rue Saint-Damien", "amenity": "hospital", "emergency": "yes", "name": "Polyclinique des 3 Frontières", "operator:type": "private", "phone": "+33 8 26 30 37 37", "ref:FR:FINESS": "680020096", "type:FR:FINESS": "365", "website": "https://www.ghrmsa.fr/presentation/nos-sites/clinique-des-trois-frontieres-de-saint-louis-431.html"}}, {"name": "Centre Médical Lalance", "latitude": 47.7608162, "longitude": 7.2914625, "source": "osm", "_tags": {"amenity": "hospital", "healthcare": "hospital", "name": "Centre Médical Lalance", "ref:FR:FINESS": "680000247", "source": "Direction Générale des Finances Publiques - Cadastre. Mise à jour : 2012", "type:FR:FINESS": "109"}}, {"name": "Sankt Elisabeth-Krankenhaus", "latitude": 47.9910327, "longitude": 7.8511317, "source": "osm", "_tags": {"addr:city": "Freiburg im Breisgau", "addr:housenumber": "15-17", "addr:postcode": "79098", "addr:street": "Dreisamstraße", "amenity": "hospital", "contact:fax": "+49 761 3887444", "contact:phone": "+49 761 38870", "contact:website": "http://www.rkk-sek.de/index.php?st-elisabeth-krankenhaus", "healthcare": "hospital", "name": "Sankt Elisabeth-Krankenhaus", "operator": "Rkk"}}, {"name": "HELIOS Klinik Müllheim", "latitude": 47.8115859, "longitude": 7.6349902, "source": "osm", "_tags": {"addr:city": "Müllheim im Markgräflerland", "addr:country": "DE", "addr:housenumber": "1", "addr:postcode": "79379", "addr:street": "Heliosweg", "amenity": "hospital", "building": "hospital", "building:levels": "4", "healthcare": "hospital", "name": "HELIOS Klinik Müllheim", "operator": "Helios Kliniken", "operator:wikidata": "Q1254151", "phone": "+49 7631 880", "source:geometry": "maps4bw (LGL, www.lgl-bw.de);Mapbox Satellite", "toilets:wheelchair": "yes", "website": "https://www.helios-gesundheit.de/kliniken/muellheim/", "wheelchair": "yes", "wheelchair:description": "auf jeder der 3 Etagen befindet sich eine Behinderten-Toilette. (nahe Betten-Aufzug)"}}, {"name": "Pôle de psychiatrie pour enfants", "latitude": 47.7376488, "longitude": 7.3510015, "source": "osm", "_tags": {"amenity": "hospital", "building": "yes", "healthcare": "doctor", "name": "Pôle de psychiatrie pour enfants", "phone": "+33 3 89 64 74 51", "ref:FR:FINESS": "680006269", "ref:FR:SIRET": "20004698500095", "source": "Direction Générale des Finances Publiques - Cadastre. Mise à jour : 2011;Mulhouse Alsace Agglomération 2013;Le ministère des solidarités et de la santé - 2025-03", "type:FR:FINESS": "355"}}, {"name": "Hôpital Saint-Jacques", "latitude": 47.8134072, "longitude": 7.0956402, "source": "osm", "_tags": {"addr:city": "Thann", "addr:country": "FR", "addr:housenumber": "1", "addr:postcode": "68800", "addr:street": "Rue Saint-Jacques", "amenity": "hospital", "emergency": "no", "fax": "+33 3 89 37 71 70", "healthcare": "hospital", "name": "Hôpital Saint-Jacques", "operator:type": "public", "phone": "+33 3 89 37 71 00", "ref:FR:FINESS": "680000601", "source": "cadastre-dgi-fr source : Direction Générale des Impôts - Cadastre. Mise à jour : 2011", "type:FR:FINESS": "355", "website": "https://www.ghrmsa.fr/presentation/nos-sites/hopital-saint-jacques-de-thann-432.html"}}, {"name": "Felix-Platter-Spital", "latitude": 47.5653971, "longitude": 7.5653389, "source": "osm", "_tags": {"amenity": "hospital", "contact:website": "https://www.felixplatter.ch/", "healthcare": "hospital", "name": "Felix-Platter-Spital", "wheelchair": "yes", "wikidata": "Q1403737"}}, {"name": "Rehaklinik Kandertal", "latitude": 47.7829113, "longitude": 7.7267756, "source": "osm", "_tags": {"amenity": "hospital", "name": "Rehaklinik Kandertal"}}, {"name": "Rehaklinik Kandertal", "latitude": 47.780733, "longitude": 7.7327064, "source": "osm", "_tags": {"amenity": "hospital", "name": "Rehaklinik Kandertal", "note": "Umriss geschätzt"}}, {"name": "", "latitude": 48.0043302, "longitude": 7.8435522, "source": "osm", "_tags": {"building": "hospital", "healthcare": "hospital", "operator": "Universitätsklinikum Freiburg"}}, {"name": "Centre Hospitalier de Sélestat - GHSO", "latitude": 48.2618235, "longitude": 7.4338068, "source": "osm", "_tags": {"addr:city": "Sélestat", "addr:housenumber": "23", "addr:postcode": "67600", "addr:street": "Avenue Louis Pasteur", "amenity": "hospital", "contact:city": "Sélestat", "contact:country": "FR", "contact:housenumber": "23", "contact:postcode": "67606", "contact:street": "Avenue Louis Pasteur", "emergency": "yes", "fax": "+33 3 88 57 56 79", "healthcare": "hospital", "name": "Centre Hospitalier de Sélestat - GHSO", "opening_hours": "24/7", "operator:type": "public", "phone": "+33 3 88 57 55 55", "ref:FR:FINESS": "670000397", "type:FR:FINESS": "355", "website": "https://www.ghso.fr/"}}, {"name": "Irides Pflege", "latitude": 47.5696473, "longitude": 7.6850246, "source": "osm", "_tags": {"addr:city": "Bettingen", "addr:country": "CH", "addr:housenumber": "30", "addr:postcode": "4126", "addr:street": "Hohe Strasse", "amenity": "hospital", "healthcare": "rehabilitation", "name": "Irides Pflege", "note": "Standort wegen Umbauphase bis Mitte 2024", "website": "https://irides.ch/"}}, {"name": "Kantonsspital Liestal", "latitude": 47.4884481, "longitude": 7.7308515, "source": "osm", "_tags": {"amenity": "hospital", "contact:phone": "+41 61 925 25 25", "contact:website": "http://www.ksbl.ch/das-ksbl/standorte/der-standort-liestal", "emergency": "yes", "healthcare": "hospital", "healthcare:speciality": "intensive", "name": "Kantonsspital Liestal", "wheelchair": "yes"}}, {"name": "Hôpital de Soultz", "latitude": 47.890652, "longitude": 7.2250707, "source": "osm", "_tags": {"amenity": "hospital", "healthcare": "hospital", "name": "Hôpital de Soultz", "ref:FR:FINESS": "680000767", "source": "Le ministère des solidarités et de la santé - 03/2019"}}, {"name": "Centre Medical le Schimmel", "latitude": 47.7657886, "longitude": 6.9846569, "source": "osm", "_tags": {"amenity": "hospital", "healthcare": "hospital", "name": "Centre Medical le Schimmel", "ref:FR:FINESS": "680000072", "type:FR:FINESS": "109"}}, {"name": "Institut für Pathologie Universitätsspital Basel", "latitude": 47.5605573, "longitude": 7.5815841, "source": "osm", "_tags": {"amenity": "hospital", "building": "hospital", "healthcare": "hospital", "name": "Institut für Pathologie Universitätsspital Basel", "opening_hours": "Mo-Fr 07:00-17:00", "phone": "+41 61 265 27 57", "website": "https://www.unispital-basel.ch/ueber-uns/bereiche/medizinische-querschnittsfunktionen/kliniken-institute-abteilungen/institut-fuer-medizinische-genetik-und-pathologie/pathologie/"}}, {"name": "Luppach", "latitude": 47.5066597, "longitude": 7.3302192, "source": "osm", "_tags": {"amenity": "hospital", "healthcare": "hospital", "name": "Luppach", "ref:FR:FINESS": "680000296", "type:FR:FINESS": "109"}}, {"name": "St. Elisabethen Krankenhaus", "latitude": 47.6173684, "longitude": 7.6650828, "source": "osm", "_tags": {"addr:city": "Lörrach", "addr:housenumber": "15", "addr:postcode": "79539", "addr:street": "Feldbergstraße", "amenity": "hospital", "check_date": "2025-08-11", "contact:phone": "+49 7621 1710", "contact:website": "https://www.elikh.de", "emergency": "yes", "healthcare": "hospital", "name": "St. Elisabethen Krankenhaus", "wheelchair": "yes", "wikidata": "Q14912423"}}, {"name": "Kinder- und Jugendpsychiatrie (KJPP), St. Elisabethen Krankenhaus Lörrach", "latitude": 47.6168105, "longitude": 7.6633745, "source": "osm", "_tags": {"amenity": "hospital", "name": "Kinder- und Jugendpsychiatrie (KJPP), St. Elisabethen Krankenhaus Lörrach"}}, {"name": "Sankt Josefskrankenhaus", "latitude": 48.0016989, "longitude": 7.8524318, "source": "osm", "_tags": {"addr:city": "Freiburg im Breisgau", "addr:country": "DE", "addr:housenumber": "1", "addr:postcode": "79104", "addr:street": "Sautierstraße", "amenity": "hospital", "contact:email": "info@rkk-klinikum.de", "contact:fax": "+49 761 2711 2302", "contact:phone": "+49 761 2711 1", "contact:website": "https://rkk-klinikum.de/", "emergency": "yes", "healthcare": "hospital", "name": "Sankt Josefskrankenhaus", "opening_hours": "24/7", "operational_status": "Operational", "operator": "RKK gGmbH", "operator:type": "private/for-profit", "wheelchair": "yes"}}, {"name": "Centre thérapeutique de jour", "latitude": 48.075248, "longitude": 7.330307, "source": "osm", "_tags": {"amenity": "hospital", "name": "Centre thérapeutique de jour", "operator": "Hôpitaux Civils de Colmar", "ref:FR:FINESS": "680006178", "source": "cadastre-dgi-fr source : Direction Générale des Impôts - Cadastre. Mise à jour : 2014"}}, {"name": "AMEOS Klinikum Kaiserstuhl", "latitude": 48.1047135, "longitude": 7.631512, "source": "osm", "_tags": {"addr:city": "Vogtsburg im Kaiserstuhl", "addr:housenumber": "1", "addr:postcode": "79235", "addr:street": "Brunngasse", "addr:suburb": "Bischoffingen", "amenity": "hospital", "building": "hospital", "emergency": "no", "name": "AMEOS Klinikum Kaiserstuhl", "source:outline": "maps4bw (LGL, www.lgl-bw.de); Mapbox Satellite"}}, {"name": "Evangelisches Diakoniekrankenhaus Freiburg", "latitude": 48.0237959, "longitude": 7.8151903, "source": "osm", "_tags": {"alt_name": "Diakonissenkrankenhaus", "amenity": "hospital", "check_date": "2024-04-01", "email": "info@diak-fr.de", "emergency": "yes", "healthcare": "hospital", "healthcare:speciality": "gynaecology;surgery;internal", "name": "Evangelisches Diakoniekrankenhaus Freiburg", "phone": "+49 761 1301-01", "website": "https://www.diakoniekrankenhaus-freiburg.de/", "wikidata": "Q50038356"}}, {"name": "MEDICLIN Herzzentrum Lahr", "latitude": 48.3397909, "longitude": 7.8905512, "source": "osm", "_tags": {"amenity": "hospital", "emergency": "yes", "healthcare": "hospital", "healthcare:speciality": "cardiology", "name": "MEDICLIN Herzzentrum Lahr", "operator": "Mediclin", "operator:wikidata": "Q1916295", "website": "https://www.herzzentrum-lahr.de/", "wheelchair": "yes", "wikidata": "Q23787843"}}, {"name": "Ortenau Klinikum Lahr-Ettenheim", "latitude": 48.3437239, "longitude": 7.8866992, "source": "osm", "_tags": {"amenity": "hospital", "emergency": "yes", "healthcare": "hospital", "name": "Ortenau Klinikum Lahr-Ettenheim", "operator": "Ortenau Klinikum", "toilets:wheelchair": "yes", "wheelchair": "yes", "wikidata": "Q88467260"}}, {"name": "Reha Klinik St. Landelin", "latitude": 48.2167971, "longitude": 7.8203867, "source": "osm", "_tags": {"amenity": "hospital", "healthcare": "rehabilitation", "healthcare:speciality": "behavior", "name": "Reha Klinik St. Landelin", "operator": "AGJ-Fachverbandes für Prävention und Rehabilitation in der Erzdiözese Freiburg e. V"}}, {"name": "Hôpital Local de Senones", "latitude": 48.3959911, "longitude": 6.9760538, "source": "osm", "_tags": {"amenity": "hospital", "emergency": "no", "healthcare": "hospital", "name": "Hôpital Local de Senones", "ref:FR:FINESS": "880000211", "source": "Le ministère des solidarités et de la santé - 03/2019", "type:FR:FINESS": "355"}}, {"name": "Centre hospitalier d'Altkirch", "latitude": 47.6241656, "longitude": 7.2519693, "source": "osm", "_tags": {"addr:city": "Altkirch", "addr:country": "FR", "addr:housenumber": "23", "addr:postcode": "68130", "addr:street": "Rue du 3e Zouaves", "alt_name": "Hôpital Saint-Morand", "amenity": "hospital", "fax": "+33 3 89 08 30 11", "name": "Centre hospitalier d'Altkirch", "operator:type": "public", "phone": "+33 3 89 08 30 30", "ref:FR:FINESS": "680000544", "type:FR:FINESS": "355", "website": "https://www.ghrmsa.fr/presentation/nos-sites/centre-hospitalier-saint-morand-d-altkirch-428.html"}}, {"name": "Hôpital Charles Haby", "latitude": 47.9080188, "longitude": 7.2155788, "source": "osm", "_tags": {"addr:city": "Guebwiller", "addr:housenumber": "2", "addr:postcode": "68500", "addr:street": "Rue Jean Schlumberger", "amenity": "hospital", "emergency": "yes", "fax": "+33 3 89 83 09 48", "healthcare": "hospital", "name": "Hôpital Charles Haby", "operator:type": "public", "phone": "+33 3 89 74 78 00", "ref:FR:FINESS": "680000700", "type:FR:FINESS": "355"}}, {"name": "Centre hospitalier de Sierentz", "latitude": 47.6518619, "longitude": 7.4596976, "source": "osm", "_tags": {"addr:city": "Sierentz", "addr:housenumber": "35", "addr:postcode": "68510", "addr:street": "Rue Rogg-Haas", "alt_name": "Hôpital gériatrique de Sierentz", "amenity": "hospital", "emergency": "no", "fax": "+33 3 89 81 57 58", "healthcare": "hospital", "name": "Centre hospitalier de Sierentz", "operator": "GHR Mulhouse Sud Alsace", "operator:type": "public", "phone": "+33 3 89 26 60 00", "ref:FR:FINESS": "680000031", "source": "cadastre-dgi-fr source : Direction Générale des Impôts - Cadastre. Mise à jour : 2012", "type:FR:FINESS": "355", "website": "https://www.ghrmsa.fr/residents/nos-sites/centre-hospitalier-de-sierentz-619.html"}}, {"name": "Universitätsspital Basel", "latitude": 47.5616684, "longitude": 7.5833861, "source": "osm", "_tags": {"addr:city": "Basel", "addr:country": "CH", "addr:housenumber": "21", "addr:postcode": "4031", "addr:street": "Spitalstrasse", "amenity": "hospital", "emergency": "yes", "healthcare": "hospital", "healthcare:speciality": "maternity;gynaecology;obstetrics", "name": "Universitätsspital Basel", "phone": "+41 61 265 25 25", "short_name": "USB", "website": "https://www.unispital-basel.ch/", "wheelchair": "yes", "wikidata": "Q1689257"}}, {"name": "REHAB Basel", "latitude": 47.5722186, "longitude": 7.5594525, "source": "osm", "_tags": {"addr:city": "Basel", "addr:country": "CH", "addr:housenumber": "40", "addr:postcode": "4055", "addr:street": "Im Burgfelderhof", "amenity": "hospital", "contact:email": "rehab@rehab.ch", "healthcare": "hospital", "name": "REHAB Basel", "phone": "+41 61 325 00 00", "website": "https://www.rehab.ch/home.html", "wheelchair": "yes"}}, {"name": "Bethesda Spital", "latitude": 47.5480044, "longitude": 7.6168493, "source": "osm", "_tags": {"addr:city": "Basel", "addr:housenumber": "144", "addr:postcode": "4052", "addr:street": "Gellertstrasse", "amenity": "hospital", "check_date": "2025-02-22", "emergency": "yes", "healthcare": "hospital", "healthcare:speciality": "gynaecology;musculoskeletal", "name": "Bethesda Spital", "operator": "Bethesda Spital AG", "operator:type": "private", "phone": "+41 61 315 21 21", "website": "https://bethesda-spital.ch/", "wikidata": "Q33121165"}}, {"name": "Kantonsspital Bruderholz", "latitude": 47.5279276, "longitude": 7.5807917, "source": "osm", "_tags": {"amenity": "hospital", "check_date": "2024-08-28", "emergency": "yes", "healthcare": "hospital", "healthcare:speciality": "intensive", "name": "Kantonsspital Bruderholz", "payment:cash": "yes", "payment:credit_cards": "yes", "payment:debit_cards": "yes", "phone": "+41 61 436 36 36", "website": "https://www.ksbl.ch/das-ksbl/standorte/der-standort-bruderholz", "wikidata": "Q30279631"}}, {"name": "Rehaklinik Rheinfelden", "latitude": 47.5586655, "longitude": 7.8073257, "source": "osm", "_tags": {"addr:city": "Rheinfelden", "addr:housenumber": "98", "addr:postcode": "4310", "addr:street": "Salinenstrasse", "amenity": "hospital", "healthcare": "hospital", "name": "Rehaklinik Rheinfelden", "phone": "+41 61 836 51 51", "website": "https://www.reha-rheinfelden.ch/"}}, {"name": "St. Clara-Spital", "latitude": 47.5661175, "longitude": 7.6143084, "source": "osm", "_tags": {"addr:city": "Basel", "addr:country": "CH", "addr:housenumber": "30", "addr:postcode": "4058", "addr:street": "Kleinriehenstrasse", "alt_name": "Rehaklinik Basel", "amenity": "hospital", "emergency": "yes", "healthcare": "hospital", "healthcare:speciality": "intensive;emergency;cardiology", "name": "St. Clara-Spital", "operator": "St. Claraspital AG", "operator:type": "private", "phone": "+41 61 685 85 85", "website": "https://www.claraspital.ch/", "wheelchair": "yes", "wikidata": "Q30274497"}}, {"name": "Merian Iselin Klinik für Orthopädie und Chirurgie", "latitude": 47.5555964, "longitude": 7.5695619, "source": "osm", "_tags": {"addr:city": "Basel", "addr:country": "CH", "addr:housenumber": "2", "addr:postcode": "4054", "addr:street": "Föhrenstrasse", "amenity": "hospital", "check_date": "2024-08-29", "emergency": "no", "level": "0", "name": "Merian Iselin Klinik für Orthopädie und Chirurgie", "payment:cash": "yes", "payment:credit_cards": "yes", "payment:debit_cards": "yes", "phone": "+41 61 305 11 11", "source": "GeoDaten Kanton Basel-Stadt", "website": "https://merianiselin.ch/klinik/", "wheelchair": "yes", "wikidata": "Q13142784", "wikipedia": "als:Merian Iiseli Spiddaal"}}, {"name": "Adullam Spital", "latitude": 47.5857598, "longitude": 7.6554819, "source": "osm", "_tags": {"addr:city": "Riehen", "addr:country": "CH", "addr:housenumber": "60", "addr:postcode": "4125", "addr:street": "Schützengasse", "amenity": "hospital", "name": "Adullam Spital", "phone": "+41 61 266 99 11", "website": "https://www.adullam.ch/"}}, {"name": "Klinik Arlesheim", "latitude": 47.4939289, "longitude": 7.6146237, "source": "osm", "_tags": {"amenity": "hospital", "emergency": "yes", "healthcare": "hospital", "name": "Klinik Arlesheim", "phone": "+41 61 705 71 11", "website": "https://www.klinik-arlesheim.ch/", "wikidata": "Q1675006"}}, {"name": "Gesundheitszentrum Fricktal - Spital Rheinfelden", "latitude": 47.5560072, "longitude": 7.8068831, "source": "osm", "_tags": {"addr:city": "Rheinfelden", "addr:housenumber": "12", "addr:postcode": "4310", "addr:street": "Riburger Strasse", "amenity": "hospital", "emergency": "yes", "healthcare": "hospital", "name": "Gesundheitszentrum Fricktal - Spital Rheinfelden", "phone": "+41 61 835 66 66", "short_name": "GZF Rheinfelden", "shortest_name": "GZF", "source": "AGIS 2016", "website": "https://www.gzf.ch/startseite.html"}}, {"name": "Haus Lukas", "latitude": 47.4953443, "longitude": 7.6151461, "source": "osm", "_tags": {"addr:city": "Arlesheim", "addr:country": "CH", "addr:housenumber": "19", "addr:postcode": "4144", "addr:street": "Brachmattstrasse", "amenity": "hospital", "healthcare": "hospital", "name": "Haus Lukas"}}, {"name": "Centre de réadaption", "latitude": 48.0905762, "longitude": 7.3364053, "source": "osm", "_tags": {"amenity": "hospital", "name": "Centre de réadaption"}}, {"name": "Hôpital intercommunal Ensisheim Neuf-Brisach", "latitude": 47.8678644, "longitude": 7.3500419, "source": "osm", "_tags": {"amenity": "hospital", "contact:city": "Ensisheim", "contact:fax": "+33 3 89 26 42 22", "contact:housenumber": "7", "contact:phone": "+33 3 89 81 12 55", "contact:postcode": "68190", "contact:street": "Rue Colbert", "contact:website": "https://www.hopital-ensisheim.fr/", "healthcare": "hospital", "name": "Hôpital intercommunal Ensisheim Neuf-Brisach", "ref:FR:FINESS": "680000692", "type:FR:FINESS": "355"}}, {"name": "Hôpital local de Munster", "latitude": 48.043586, "longitude": 7.1317441, "source": "osm", "_tags": {"addr:city": "Munster", "addr:country": "FR", "addr:housenumber": "6", "addr:postcode": "68140", "addr:street": "Rue du Moulin", "alt_name": "Hôpital Loewel", "amenity": "hospital", "healthcare": "hospital", "name": "Hôpital local de Munster", "ref:FR:FINESS": "680000783", "type:FR:FINESS": "355", "wikidata": "Q108783127"}}, {"name": "Centre médical MGEN", "latitude": 48.1012869, "longitude": 7.2322774, "source": "osm", "_tags": {"addr:city": "Trois-Epis", "addr:postcode": "68410", "addr:street": "Square Marcel Rivière", "amenity": "hospital", "healthcare": "hospital", "name": "Centre médical MGEN", "ref:FR:FINESS": "680001328", "type:FR:FINESS": "109"}}, {"name": "Clinique Solisana", "latitude": 47.9159277, "longitude": 7.1952314, "source": "osm", "_tags": {"addr:city": "Haut-Rhin", "addr:country": "FR", "addr:housenumber": "1", "addr:postcode": "68500", "addr:street": "Chemin du Liebenberg", "alt_name": "Korian Solisana", "amenity": "hospital", "healthcare": "hospital", "name": "Clinique Solisana"}}, {"name": "Kreiskrankenhaus Lörrach", "latitude": 47.6142821, "longitude": 7.6583759, "source": "osm", "_tags": {"addr:city": "Lörrach", "addr:country": "DE", "addr:housenumber": "25", "addr:postcode": "79539", "addr:street": "Spitalstraße", "amenity": "hospital", "emergency": "yes", "healthcare": "hospital", "name": "Kreiskrankenhaus Lörrach", "wikidata": "Q15117658"}}, {"name": "Sigma-Zentrum", "latitude": 47.5568076, "longitude": 7.9393969, "source": "osm", "_tags": {"addr:city": "Bad Säckingen", "addr:country": "DE", "addr:housenumber": "1", "addr:postcode": "79713", "addr:street": "Weihermatten", "amenity": "hospital", "healthcare": "hospital", "name": "Sigma-Zentrum"}}, {"name": "Universitätsherzzentrum Bad Krozingen", "latitude": 47.9070478, "longitude": 7.7002437, "source": "osm", "_tags": {"addr:city": "Bad Krozingen", "addr:country": "DE", "addr:housenumber": "15", "addr:postcode": "79189", "addr:street": "Südring", "amenity": "hospital", "healthcare": "hospital", "name": "Universitätsherzzentrum Bad Krozingen", "website": "https://www.herzzentrum.de/kliniken-fachbereiche/klinik-fuer-kardiologie-und-angiologie-ii.html"}}, {"name": "", "latitude": 47.9058121, "longitude": 7.701188, "source": "osm", "_tags": {"amenity": "hospital", "healthcare": "hospital"}}, {"name": "", "latitude": 48.1251202, "longitude": 7.8560276, "source": "osm", "_tags": {"amenity": "hospital", "healthcare": "hospital"}}, {"name": "Universitäts-Kinderspital Beider Basel", "latitude": 47.5635952, "longitude": 7.5816117, "source": "osm", "_tags": {"addr:city": "Basel", "addr:housenumber": "33", "addr:postcode": "4056", "addr:street": "Spitalstrasse", "amenity": "hospital", "emergency": "yes", "healthcare": "hospital", "healthcare:speciality": "paediatrics;intensive", "name": "Universitäts-Kinderspital Beider Basel", "phone": "+41617041212", "short_name": "UKBB", "website": "https://www.ukbb.ch/", "wheelchair": "yes", "wikidata": "Q2496240"}}, {"name": "Helios Rosmann Klinik Breisach", "latitude": 48.0310358, "longitude": 7.5863032, "source": "osm", "_tags": {"addr:city": "Breisach am Rhein", "addr:housenumber": "37", "addr:postcode": "79206", "addr:street": "Zeppelinstraße", "amenity": "hospital", "healthcare": "hospital", "name": "Helios Rosmann Klinik Breisach", "operator": "Helios Kliniken", "operator:wikidata": "Q1254151", "website": "https://www.helios-gesundheit.de/standorte-angebote/kliniken/breisach/"}}, {"name": "Spital Dornach", "latitude": 47.4862701, "longitude": 7.6137183, "source": "osm", "_tags": {"addr:city": "Dornach", "addr:country": "CH", "addr:housenumber": "11", "addr:postcode": "4143", "addr:street": "Spitalweg", "amenity": "hospital", "emergency": "yes", "healthcare": "hospital", "name": "Spital Dornach", "phone": "+41 61 704 44 44", "website": "https://www.solothurnerspitaeler.ch/unsere-spitaeler/spital-dornach/"}}, {"name": "Klinik für Dermatologie und Venerologie", "latitude": 48.0082021, "longitude": 7.8589591, "source": "osm", "_tags": {"addr:city": "Freiburg im Breisgau", "addr:housenumber": "7", "addr:postcode": "79104", "addr:street": "Hauptstraße", "alt_name": "Hautklinik", "amenity": "hospital", "healthcare": "hospital", "healthcare:speciality": "dermatology;venereology", "name": "Klinik für Dermatologie und Venerologie", "operator": "Universitätsklinikum Freiburg", "toilets:wheelchair": "yes", "type": "multipolygon", "wheelchair": "yes", "wikidata": "Q101837175"}}, {"name": "Klinik für Psychiatrie und Psychotherapie", "latitude": 48.0075812, "longitude": 7.8570823, "source": "osm", "_tags": {"addr:city": "Freiburg im Breisgau", "addr:housenumber": "5", "addr:postcode": "79104", "addr:street": "Hauptstraße", "amenity": "hospital", "fixme": "incomplete", "healthcare": "hospital", "name": "Klinik für Psychiatrie und Psychotherapie", "operator": "Universitätsklinikum Freiburg", "type": "multipolygon"}}, {"name": "Psychiatrie und Psychotherapie", "latitude": 48.0083192, "longitude": 7.8573391, "source": "osm", "_tags": {"addr:city": "Freiburg im Breisgau", "addr:housenumber": "5", "addr:postcode": "79104", "addr:street": "Hauptstraße", "amenity": "hospital", "fixme": "incomplete", "name": "Psychiatrie und Psychotherapie", "site": "hospital", "type": "site"}}, {"name": "Hôpital Albert Schweitzer", "latitude": 48.0636457, "longitude": 7.3647463, "source": "osm", "_tags": {"amenity": "hospital", "contact:city": "Colmar", "contact:housename": "201", "contact:postcode": "68000", "contact:street": "Avenue d'Alsace", "healthcare": "hospital", "name": "Hôpital Albert Schweitzer", "ref:FR:FINESS": "680001195", "type": "multipolygon", "type:FR:FINESS": "365"}}, {"name": "Universitätsklinikum Freiburg", "latitude": 48.006101, "longitude": 7.844759, "source": "osm", "_tags": {"amenity": "hospital", "contact:website": "https://www.uniklinik-freiburg.de/de.html", "emergency": "yes", "healthcare": "hospital", "name": "Universitätsklinikum Freiburg", "name:de": "Universitätsklinikum Freiburg", "name:gsw": "Universitätsklinikum Friburg", "name:ru": "Университетская клиника Фрайбурга", "operator": "Universitätsklinikum Freiburg", "type": "multipolygon", "wikidata": "Q127773", "wikipedia": "de:Universitätsklinikum Freiburg"}}, {"name": "Centre Hospitalier de Saint-Dié-des-Vosges", "latitude": 48.2889925, "longitude": 6.9644777, "source": "osm", "_tags": {"addr:city": "Saint-Dié-des-Vosges", "addr:country": "FR", "addr:housenumber": "26", "addr:postcode": "88100", "addr:street": "Rue du Nouvel-Hôpital", "amenity": "hospital", "emergency": "yes", "fax": "+33 3 29 52 83 01", "healthcare": "hospital", "name": "Centre Hospitalier de Saint-Dié-des-Vosges", "opening_hours": "24/7", "operator:type": "public", "phone": "+33 3 29 52 83 00", "ref:FR:FINESS": "880000047", "type": "multipolygon", "type:FR:FINESS": "355", "website": "http://www.chi-hmv.fr", "wikidata": "Q30280039"}}, {"name": "Interdisziplinäres Tumorzentrum", "latitude": 48.0054903, "longitude": 7.840375, "source": "osm", "_tags": {"addr:housenumber": "53", "addr:street": "Hugstetter Straße", "building": "hospital", "building:levels": "5", "check_date": "2022-08-15", "healthcare": "hospital", "healthcare:speciality": "oncology;thoracic_surgery", "name": "Interdisziplinäres Tumorzentrum", "operator": "Universitätsklinikum Freiburg", "roof:shape": "flat", "short_name": "UTZ", "type": "multipolygon", "website": "https://www.uniklinik-freiburg.de/interdisziplinaeres-tumorzentrum-itz.html", "wheelchair": "yes"}}, {"name": "Kinder- und Jugendklinik", "latitude": 48.0051237, "longitude": 7.8366198, "source": "osm", "_tags": {"addr:city": "Freiburg im Breisgau", "addr:housenumber": "62", "addr:postcode": "79106", "addr:street": "Breisacher Straße", "architect": "Albert Wimmer, Wien", "architect:website": "https://www.awimmer.at/", "building": "hospital", "building:levels": "4", "check_date": "2024-09-21", "contact:fax": "+49 761 270 96 43000", "contact:phone": "+49 761 270 43000", "contact:website": "https://www.uniklinik-freiburg.de/kinderklinik.html", "healthcare": "hospital", "healthcare:speciality": "paediatrics;paediatric_surgery", "name": "Kinder- und Jugendklinik", "roof:levels": "0", "roof:shape": "flat", "short_name": "KJK", "start_date": "2024-09-11", "type": "multipolygon"}}]