[{"name": "Clinique Saint-Didier", "latitude": 47.4852002, "longitude": -0.5878728, "source": "osm", "_tags": {"addr:housenumber": "13", "addr:street": "Avenue du Commandant Mesnard", "amenity": "hospital", "healthcare": "hospital", "name": "Clinique Saint-Didier", "ref:FR:FINESS": "490000247", "type:FR:FINESS": "161"}}, {"name": "Hôpital d'Evron", "latitude": 48.1575839, "longitude": -0.4092904, "source": "osm", "_tags": {"addr:housenumber": "4", "addr:street": "Rue de la Libération", "amenity": "hospital", "emergency": "no", "name": "Hôpital d'Evron", "ref:FR:FINESS": "530000165", "source": "Le ministère des solidarités et de la santé - 03/2019", "wikidata": "Q92063404"}}, {"name": "Centre hospitalier du Haut Anjou. Site de Segré", "latitude": 47.6780159, "longitude": -0.8663213, "source": "osm", "_tags": {"amenity": "hospital", "healthcare": "hospital", "name": "Centre hospitalier du Haut Anjou. Site de Segré", "operator": "Centre hospitalier du Haut Anjou", "ref:FR:FINESS": "490020245", "ref:FR:NAF": "8610Z", "type:FR:FINESS": "355"}}, {"name": "Clinique Saint-Léonard", "latitude": 47.4555828, "longitude": -0.5129094, "source": "osm", "_tags": {"amenity": "hospital", "name": "Clinique Saint-Léonard", "operator": "SA Clinique Saint-Léonard", "operator:type": "private", "ref:FR:FINESS": "490015906"}}, {"name": "Clinique Saint-Joseph", "latitude": 47.4560512, "longitude": -0.5135706, "source": "osm", "_tags": {"amenity": "hospital", "name": "Clinique Saint-Joseph", "operator": "SA Clinique Saint-Joseph", "operator:type": "private", "ref:FR:FINESS": "490000262"}}, {"name": "Clinique FSEF", "latitude": 47.8425162, "longitude": -0.3153483, "source": "osm", "_tags": {"addr:city": "Sablé-sur-Sarthe", "addr:postcode": "72302", "addr:street": "route du mans", "amenity": "hospital", "healthcare": "hospital", "healthcare:speciality": "psychiatry", "name": "Clinique FSEF", "website": "https://www.fsef.net/etablissements/clinique-fsef-sable-sur-sarthe/"}}, {"name": "Centre médico-psychologique - Hôpital de jour", "latitude": 47.6731985, "longitude": -0.8876315, "source": "osm", "_tags": {"addr:housenumber": "1", "addr:place": "Sainte-Gemmes-d'Andigné", "addr:street": "Rue du Stade", "amenity": "hospital", "building": "yes", "hospital:for": "adult", "name": "Centre médico-psychologique - Hôpital de jour", "operator": "Centre de santé mentale angevin", "operator:type": "public", "phone": "+33 2 41 80 76 21", "ref:FR:FINESS": "490010519", "ref:FR:SIRET": "26490061400290", "source": "cadastre-dgi-fr source : Direction Générale des Impôts - Cadastre. Mise à jour : 2012", "start_date": "2000-12-26", "website": "https://www.ch-cesame-angers.fr/"}}, {"name": "Pôle Santé Sarthe et Loir", "latitude": 47.773904, "longitude": -0.207147, "source": "osm", "_tags": {"addr:city": "Le Bailleul", "addr:country": "FR", "addr:postcode": "72200", "addr:street": "La Chasse du Point du Jour", "amenity": "hospital", "email": "direction@pole-pssl.fr", "emergency": "yes", "fax": "+33 2 44 71 30 09", "healthcare": "hospital", "name": "Pôle Santé Sarthe et Loir", "operator:type": "public", "phone": "+33 2 44 71 30 00", "ref:FR:FINESS": "720016179", "type:FR:FINESS": "355", "website": "https://www.ch-polesantesartheloir.fr/contact"}}, {"name": "Centre de Santé Mentale Angevin (CESAME)", "latitude": 47.4221183, "longitude": -0.5642764, "source": "osm", "_tags": {"alt_name": "CESAME", "amenity": "hospital", "healthcare": "hospital", "healthcare:speciality": "psychiatry", "name": "Centre de Santé Mentale Angevin (CESAME)", "ref:FR:FINESS": "490000106", "type:FR:FINESS": "292", "website": "https://www.ch-cesame-angers.fr/"}}, {"name": "Hôpital du Haut-Anjou", "latitude": 47.8272948, "longitude": -0.700371, "source": "osm", "_tags": {"alt_name": "Hôpital Saint-Julien", "amenity": "hospital", "emergency": "yes", "fax": "+33 2 43 09 33 34", "healthcare": "hospital", "name": "Hôpital du Haut-Anjou", "operator:type": "public", "phone": "+33 2 43 09 33 33", "ref:FR:FINESS": "530000017", "type:FR:FINESS": "355", "website": "https://www.ch-hautanjou.fr/"}}, {"name": "Centre Hospitalier Local du Sud Ouest Mayennais", "latitude": 47.8480432, "longitude": -0.9579489, "source": "osm", "_tags": {"amenity": "hospital", "building": "yes", "healthcare": "hospital", "name": "Centre Hospitalier Local du Sud Ouest Mayennais", "ref:FR:FINESS": "530000132", "source": "Le ministère des solidarités et de la santé - 03/2019", "type:FR:FINESS": "106", "wikidata": "Q92062421"}}, {"name": "Soins de Suite et de Réadaptation Les Claveries", "latitude": 47.4874116, "longitude": -0.5041018, "source": "osm", "_tags": {"amenity": "hospital", "name": "Soins de Suite et de Réadaptation Les Claveries", "operator": "CHU d'Angers", "ref:FR:FINESS": "490529005"}}, {"name": "Institut de Cancérologie de l'Ouest", "latitude": 47.4835364, "longitude": -0.555737, "source": "osm", "_tags": {"addr:city": "Angers", "addr:housenumber": "15", "addr:postbox": "Cedex 02", "addr:postcode": "49100", "addr:street": "Rue André Boquel", "alt_name": "Centre Paul Papin", "amenity": "hospital", "building": "hospital", "name": "Institut de Cancérologie de l'Ouest", "operator": "Institut de Cancérologie de l'Ouest", "operator:type": "private", "ref:FR:FINESS": "490000155", "roof:material": "concrete", "roof:shape": "flat", "short_name": "ICO", "type:FR:FINESS": "131", "wikidata": "Q91994374"}}, {"name": "Centre Hospitalier du Nord-Mayenne", "latitude": 48.304969, "longitude": -0.6048516, "source": "osm", "_tags": {"amenity": "hospital", "emergency": "yes", "fax": "+33 2 43 08 22 08", "healthcare": "hospital", "name": "Centre Hospitalier du Nord-Mayenne", "operator:type": "public", "phone": "+33 2 43 08 73 00", "ref:FR:FINESS": "530000173", "type:FR:FINESS": "355", "website": "https://www.ch-mayenne.fr/"}}, {"name": "Centre Hospitalier de Laval", "latitude": 48.0637015, "longitude": -0.7834437, "source": "osm", "_tags": {"amenity": "hospital", "check_date": "2025-01-02", "emergency": "yes", "fax": "+33 2 43 68 19 26", "healthcare": "hospital", "healthcare:speciality": "intensive", "name": "Centre Hospitalier de Laval", "operator": "Groupement Hospitalier de Territoire de la Mayenne et du Haut-Anjou", "operator:type": "public", "phone": "+33 2 43 66 50 00", "ref:FR:FINESS": "530000264", "type:FR:FINESS": "355", "website": "https://www.chlaval.fr/"}}, {"name": "Clinique de l'Anjou", "latitude": 47.4449635, "longitude": -0.5394554, "source": "osm", "_tags": {"addr:city": "Angers", "addr:housenumber": "9", "addr:postcode": "49000", "addr:street": "Rue de l'Hirondelle", "amenity": "hospital", "emergency": "yes", "fax": "+33 2 41 44 71 02", "healthcare": "hospital", "name": "Clinique de l'Anjou", "operator:type": "private", "phone": "+33 2 41 44 71 71", "ref:FR:FINESS": "490014909", "type:FR:FINESS": "365", "website": "https://www.clinique-anjou.fr/"}}, {"name": "CHU d'Angers", "latitude": 47.4835518, "longitude": -0.5570995, "source": "osm", "_tags": {"addr:full": "4 rue Larrey 49000 Angers", "addr:street": "Rue Larrey", "amenity": "hospital", "emergency": "yes", "fax": "+33 2 41 35 55 06", "healthcare": "hospital", "name": "CHU d'Angers", "operator:type": "public", "phone": "+33 2 41 35 36 37", "ref:FR:FINESS": "490000049", "type:FR:FINESS": "101", "website": "https://www.chu-angers.fr/", "wikidata": "Q2945753"}}, {"name": "Village Santé", "latitude": 47.4563574, "longitude": -0.512735, "source": "osm", "_tags": {"amenity": "hospital", "healthcare": "hospital", "name": "Village Santé", "operator": "Groupement de coopération sanitaire Béllinière", "operator:type": "private"}}, {"name": "Hôpital Intercommunal Baugeois la Vallée", "latitude": 47.5364048, "longitude": -0.1052753, "source": "osm", "_tags": {"amenity": "hospital", "healthcare": "hospital", "name": "Hôpital Intercommunal Baugeois la Vallée", "ref:FR:FINESS": "490000239", "source": "Le ministère des solidarités et de la santé - 03/2019", "website": "https://www.esbv.fr/", "wikidata": "Q92062760"}}, {"name": "Polyclinique du Maine", "latitude": 48.0579236, "longitude": -0.7879942, "source": "osm", "_tags": {"addr:housenumber": "4", "addr:street": "Avenue des Français Libres", "amenity": "hospital", "healthcare": "hospital", "name": "Polyclinique du Maine", "ref:FR:FINESS": "530008671", "wheelchair": "yes"}}, {"name": "Hôpital local d'Ernée", "latitude": 48.2953125, "longitude": -0.9218162, "source": "osm", "_tags": {"amenity": "hospital", "healthcare": "hospital", "name": "Hôpital local d'Ernée", "operator": "Centre hospitalier du Nord-Mayenne", "ref:FR:FINESS": "530000140", "source": "Le ministère des solidarités et de la santé - 03/2019", "website": "https://www.ch-mayenne.fr/", "wikidata": "Q92061589"}}, {"name": "Service Psychiatrique Adulte Lavallois", "latitude": 48.058861, "longitude": -0.7807718, "source": "osm", "_tags": {"amenity": "hospital", "emergency": "no", "healthcare": "hospital", "name": "Service Psychiatrique Adulte Lavallois", "ref:FR:FINESS": "530003466"}}, {"name": "Centre hospitalier Jules Doitteau", "latitude": 48.3416775, "longitude": -0.2830364, "source": "osm", "_tags": {"amenity": "hospital", "emergency": "no", "healthcare": "hospital", "name": "Centre hospitalier Jules Doitteau", "ref:FR:FINESS": "530000611", "type:FR:FINESS": "106", "wikidata": "Q92062862"}}, {"name": "", "latitude": 47.4463687, "longitude": -0.5389115, "source": "osm", "_tags": {"amenity": "hospital", "fixme": "Découper en plusieurs & nommer si pertinent"}}, {"name": "Institut du cœur", "latitude": 47.4556385, "longitude": -0.5143236, "source": "osm", "_tags": {"amenity": "clinic", "building": "hospital", "healthcare": "hospital", "healthcare:speciality": "cardiology", "name": "Institut du cœur", "operator": "Clinique Saint-Joseph", "ref": "2"}}, {"name": "Centre de réadaptation spécialisée Les Capucins", "latitude": 47.4865381, "longitude": -0.5573845, "source": "osm", "_tags": {"addr:city": "Angers", "addr:housenumber": "11", "addr:postcode": "49100", "addr:street": "Boulevard Jean Sauvage", "amenity": "hospital", "emergency": "no", "name": "Centre de réadaptation spécialisée Les Capucins", "operator": "Association Les Capucins", "ref:FR:FINESS": "490531910", "ref:FR:NAF": "8610Z", "type:FR:FINESS": "109"}}, {"name": "IRM 1.5", "latitude": 47.4804738, "longitude": -0.5553774, "source": "osm", "_tags": {"amenity": "hospital", "building": "hospital", "building:colour": "grey", "building:levels": "1", "building:use": "medical", "healthcare": "hospital", "healthcare:speciality": "radiology", "name": "IRM 1.5", "opening_hours": "Mo-Fr 08:00-20:00", "ref": "B5", "roof:levels": "0", "roof:shape": "flat"}}, {"name": "Hôpital local", "latitude": 48.1859275, "longitude": -0.1234956, "source": "osm", "_tags": {"amenity": "hospital", "healthcare": "hospital", "name": "Hôpital local", "ref:FR:FINESS": "720001569", "source": "Le ministère des solidarités et de la santé - 03/2019", "type": "multipolygon"}}]