[{"name": "Nemocnica s poliklinikou", "latitude": 48.2108069, "longitude": 19.3502357, "source": "osm", "_tags": {"amenity": "hospital", "created_by": "JOSM", "emergency": "yes", "name": "Nemocnica s poliklinikou"}}, {"name": "Pohotovostná služba", "latitude": 48.2651077, "longitude": 19.8240804, "source": "osm", "_tags": {"amenity": "hospital", "emergency": "yes", "healthcare": "hospital", "name": "Pohotovostná služba"}}, {"name": "Nemocnica Krupina", "latitude": 48.3527931, "longitude": 19.0639237, "source": "osm", "_tags": {"amenity": "hospital", "contact:website": "https://www.nemocnicakrupina.sk/index.html", "name": "Nemocnica Krupina"}}, {"name": "Péterfy Sándor utcai kórház Szövetség utcai részlege", "latitude": 47.4998964, "longitude": 19.0733468, "source": "osm", "_tags": {"amenity": "hospital", "healthcare": "hospital", "name": "Péterfy Sándor utcai kórház Szövetség utcai részlege", "wheelchair": "yes", "wikidata": "Q122463143"}}, {"name": "Háziorvosi rendelőintézet és Fogászat", "latitude": 47.5806628, "longitude": 19.1151091, "source": "osm", "_tags": {"amenity": "hospital", "name": "Háziorvosi rendelőintézet és Fogászat", "wheelchair": "yes"}}, {"name": "Madarász Utcai Gyermekkórház Szakrendelő", "latitude": 47.5484124, "longitude": 19.0785067, "source": "osm", "_tags": {"amenity": "hospital", "healthcare": "hospital", "name": "Madarász Utcai Gyermekkórház Szakrendelő", "source": "survey", "wheelchair": "yes"}}, {"name": "SZTK", "latitude": 47.5094178, "longitude": 19.1903474, "source": "osm", "_tags": {"amenity": "hospital", "name": "SZTK"}}, {"name": "Péterfy Sándor Utcai Kórház és Rendelőintézet Zsenge utcai épülete", "latitude": 47.5071904, "longitude": 19.2111835, "source": "osm", "_tags": {"amenity": "hospital", "emergency": "no", "healthcare": "hospital", "name": "Péterfy Sándor Utcai Kórház és Rendelőintézet Zsenge utcai épülete", "source": "http://www.peterfykh.hu"}}, {"name": "", "latitude": 47.6117168, "longitude": 19.5989242, "source": "osm", "_tags": {"amenity": "hospital"}}, {"name": "Dr. Kenessey Albert Kórház - Rendelőintézet", "latitude": 48.0796785, "longitude": 19.309431, "source": "osm", "_tags": {"addr:city": "Balassagyarmat", "addr:housenumber": "125-127", "addr:postcode": "2660", "addr:street": "Rákóczi fejedelem útja", "amenity": "hospital", "healthcare": "hospital", "name": "Dr. Kenessey Albert Kórház - Rendelőintézet", "wikidata": "Q41714061"}}, {"name": "IV. sz. Háziorvosi körzet", "latitude": 47.6282327, "longitude": 19.1437567, "source": "osm", "_tags": {"addr:city": "Dunakeszi", "addr:housenumber": "35", "addr:postcode": "2120", "addr:street": "Fóti út", "amenity": "hospital", "description": "Rendelési idő: Hétfő: 14.00 - 18.00 Kedd: 08.00 - 12.00 Szerda: 14.00 - 18.00 Csütörtök: 08.00 - 12.00 Péntek: 14:00 - 18.00", "emergency": "no", "name": "IV. sz. Háziorvosi körzet", "phone": "+36 27 341 089", "website": "http://uj.dunakeszi.hu/onkormanyzat/intezmenyek-szervezetek/egeszsegugyi/iv-sz-haziorvosi-korzet"}}, {"name": "Orvosi rendelő", "latitude": 47.8825128, "longitude": 19.138504, "source": "osm", "_tags": {"addr:city": "Nőtincs", "addr:housenumber": "31", "addr:postcode": "2610", "addr:street": "Szabadság út", "amenity": "hospital", "name": "Orvosi rendelő"}}, {"name": "Gyermekorvosi rendelő", "latitude": 47.5465533, "longitude": 19.0864491, "source": "osm", "_tags": {"addr:city": "Budapest", "addr:housenumber": "19", "addr:postcode": "1131", "addr:street": "Nővér utca", "amenity": "hospital", "check_date": "2025-09-18", "emergency": "no", "healthcare": "hospital", "name": "Gyermekorvosi rendelő", "operator": "XIII. kerületi Egészségügyi Szolgálat Nonprofit Kft.", "phone": "+36 1 320 9292", "wheelchair": "yes"}}, {"name": "", "latitude": 47.483688, "longitude": 19.0704772, "source": "osm", "_tags": {"access": "private", "amenity": "parking", "emergency": "yes", "healthcare": "hospital", "operator": "SOTE", "parking": "surface"}}, {"name": "Országos Reumatológiai és Fizioterápiás Intézet, ORFI", "latitude": 47.5211268, "longitude": 19.0358187, "source": "osm", "_tags": {"addr:city": "Budapest", "addr:housenumber": "4-6", "addr:postcode": "1025", "addr:street": "Kavics utca", "amenity": "hospital", "emergency": "yes", "healthcare": "hospital", "name": "Országos Reumatológiai és Fizioterápiás Intézet, ORFI"}}, {"name": "Fszt: Gyermekhaematológiai részleg, Gyermekintenzív Osztály", "latitude": 47.4731761, "longitude": 19.0927304, "source": "osm", "_tags": {"healthcare": "hospital", "healthcare:speciality": "haematology", "name": "Fszt: Gyermekhaematológiai részleg, Gyermekintenzív Osztály"}}, {"name": "I-II. emelet: Gyermekinfektológiai Osztály", "latitude": 47.4730674, "longitude": 19.09243, "source": "osm", "_tags": {"healthcare": "hospital", "healthcare:speciality": "infectious_diseases", "name": "I-II. emelet: Gyermekinfektológiai Osztály"}}, {"name": "Fszt: Röntgen, Ultrahang, Sterilizáló", "latitude": 47.4740301, "longitude": 19.0912391, "source": "osm", "_tags": {"healthcare": "hospital", "healthcare:speciality": "radiology", "name": "Fszt: Röntgen, Ultrahang, Sterilizáló"}}, {"name": "I. emelet: I. Infektológiai Osztály", "latitude": 47.4741116, "longitude": 19.0912686, "source": "osm", "_tags": {"healthcare": "hospital", "healthcare:speciality": "ininfectious_diseases", "name": "I. emelet: I. Infektológiai Osztály"}}, {"name": "II. emelet: II. Infektológiai Osztály", "latitude": 47.4741968, "longitude": 19.0914724, "source": "osm", "_tags": {"healthcare": "hospital", "healthcare:speciality": "infectious_diseases", "name": "II. emelet: II. Infektológiai Osztály"}}, {"name": "III. emelet: Haematológiai osztály", "latitude": 47.4742748, "longitude": 19.0916602, "source": "osm", "_tags": {"healthcare": "hospital", "healthcare:speciality": "haematology", "name": "III. emelet: Haematológiai osztály"}}, {"name": "IV. emelet, A oldal: Gyermekhaematológiai és Őssejt-transzplantációs Osztály", "latitude": 47.4743781, "longitude": 19.091915, "source": "osm", "_tags": {"healthcare": "hospital", "healthcare:speciality": "transplant", "name": "IV. emelet, A oldal: Gyermekhaematológiai és Őssejt-transzplantációs Osztály"}}, {"name": "IV. emelet, C. oldal Csontvelőtranszplantációs osztály", "latitude": 47.4744815, "longitude": 19.0922288, "source": "osm", "_tags": {"healthcare": "hospital", "healthcare:speciality": "transplant", "name": "IV. emelet, C. oldal Csontvelőtranszplantációs osztály"}}, {"name": "Pszichiátriai- és Pszichoterápiás Klinika", "latitude": 47.4846401, "longitude": 19.0820074, "source": "osm", "_tags": {"check_date": "2024-09-02", "healthcare": "hospital", "healthcare:speciality": "psychiatry", "name": "Pszichiátriai- és Pszichoterápiás Klinika", "operator": "Semmelweis Egyetem"}}, {"name": "Neurológiai Klinika", "latitude": 47.4842577, "longitude": 19.0821093, "source": "osm", "_tags": {"check_date": "2024-09-02", "healthcare": "hospital", "healthcare:speciality": "neurology", "name": "Neurológiai Klinika", "operator": "Semmelweis Egyetem"}}, {"name": "Ortopédiai Klinika", "latitude": 47.482842, "longitude": 19.0817741, "source": "osm", "_tags": {"healthcare": "hospital", "healthcare:speciality": "orthopaedics", "name": "Ortopédiai Klinika", "operator": "Semmelweis Egyetem"}}, {"name": "Szülészeti- és Nőgyógyászati Klinika", "latitude": 47.4824722, "longitude": 19.0821227, "source": "osm", "_tags": {"healthcare": "hospital", "healthcare:speciality": "gynaecology", "name": "Szülészeti- és Nőgyógyászati Klinika", "operator": "Semmelweis Egyetem"}}, {"name": "Radiológiai Klinika", "latitude": 47.4824831, "longitude": 19.0814039, "source": "osm", "_tags": {"healthcare": "hospital", "healthcare:speciality": "radiology", "name": "Radiológiai Klinika", "operator": "Semmelweis Egyetem"}}, {"name": "Onkológiai Központ", "latitude": 47.485126, "longitude": 19.0822737, "source": "osm", "_tags": {"healthcare": "hospital", "healthcare:speciality": "oncology", "name": "Onkológiai Központ", "operator": "Semmelweis Egyetem"}}, {"name": "Semmelweis Egyetem II. Sz. Sebészeti Klinika", "latitude": 47.5109102, "longitude": 19.0055109, "source": "osm", "_tags": {"addr:city": "Budapest", "addr:housenumber": "4", "addr:postcode": "1125", "addr:street": "Kútvölgyi út", "amenity": "hospital", "check_date": "2024-09-11", "healthcare": "clinic", "name": "Semmelweis Egyetem II. Sz. Sebészeti Klinika", "phone": "+36 1 325 1100 ext. 57311;+36 1 375 4291", "website": "https://semmelweis.hu/sebeszet2/"}}, {"name": "TritonLife Róbert Magánkórház", "latitude": 47.5267608, "longitude": 19.0793198, "source": "osm", "_tags": {"addr:city": "Budapest", "addr:housenumber": "59/c", "addr:postcode": "1135", "addr:street": "Lehel utca", "alt_name": "Róbert Károly Magánkórház", "amenity": "hospital", "contact:email": "info@robertkorhaz.hu", "contact:phone": "+36 70 6598888", "healthcare": "hospital", "name": "TritonLife Róbert Magánkórház", "operator": "TritonLife csoport, MedAlliance Holding", "website": "https://tritonlife.hu/budapest/robertmagankorhaz", "wikidata": "Q20438804", "wikipedia": "hu:Róbert Károly Magánkórház"}}, {"name": "Detoxikáló", "latitude": 47.5276994, "longitude": 19.081355, "source": "osm", "_tags": {"amenity": "hospital", "healthcare": "hospital", "name": "Detoxikáló", "operator": "Nyírő Gyula Kórház"}}, {"name": "Pszichiátria OPAI", "latitude": 47.5287965, "longitude": 19.0816373, "source": "osm", "_tags": {"addr:city": "Budapest", "addr:housenumber": "59-61", "addr:postcode": "1135", "addr:street": "Lehel utca", "amenity": "hospital", "contact:email": "ugyfelszolgalat@nyiro-opai.hu", "contact:facebook": "https://www.facebook.com/nyiro.opai/", "contact:fax": "+36 1 451 2601", "contact:phone": "+36 1 451 2600", "healthcare": "hospital", "name": "Pszichiátria OPAI", "official_name": "Nyírő Gyula Országos Pszichiátriai és Addiktológiai Intézet - OPAI", "operator": "Nyírő Gyula Kórház", "source": "Bing", "website": "http://nygy-opai.hu/"}}, {"name": "Pszichiátriai Gondozó OPAI", "latitude": 47.5374129, "longitude": 19.0868314, "source": "osm", "_tags": {"addr:city": "Budapest", "addr:housenumber": "84-88", "addr:postcode": "1135", "addr:street": "Jász utca", "amenity": "clinic", "contact:email": "pgopai@nyiro-opai.hu", "contact:facebook": "https://www.facebook.com/nyiro.opai/", "contact:phone": "+36 1 465 2010;+36 1 465 2016;+36 1 465 2017", "description": "A Pszichiátriai Gondozó Budapest XIII. kerülete lakosainak pszichiátriai szakellátását és gondozását biztosítja.", "healthcare": "hospital", "level": "1", "name": "Pszichiátriai Gondozó OPAI", "operator": "Nyírő Gyula Országos Pszichiátriai és Addiktológiai Intézet - OPAI", "source": "Bing", "url": "https://nygy-opai.hu/altalanos-informaciok/betegellatas/gondozok/99-pszichiatriai-gondozo", "website": "http://nygy-opai.hu/"}}, {"name": "Emineo Magánkorház", "latitude": 47.4889395, "longitude": 19.0332757, "source": "osm", "_tags": {"amenity": "hospital", "contact:facebook": "https://www.facebook.com/Emineo.hu", "contact:instagram": "https://www.instagram.com/emineomagankorhaz", "contact:phone": "+36 1 773 3333", "contact:website": "https://emineo.hu/", "healthcare": "hospital", "name": "Emineo Magánkorház"}}, {"name": "Bajcsy-Zsilinszky Kórház és Rendelőintézet", "latitude": 47.4881829, "longitude": 19.1343793, "source": "osm", "_tags": {"addr:city": "Budapest", "addr:housenumber": "24-26", "addr:postcode": "1102", "addr:street": "Kőrösi Csoma Sándor út", "amenity": "hospital", "branch": "VI. KRÓNIKUS BELGYÓGYÁSZAT, MOZGÁSSZERVI REHABILITÁCIÓ:", "contact:website": "https://bajcsy.hu/korhazunkrol/telephelyeink/", "healthcare": "clinic", "name": "Bajcsy-Zsilinszky Kórház és Rendelőintézet", "operator": "Bajczy-Zsilinszky Kórház és Rendelőintézet"}}, {"name": "Margit Kórház", "latitude": 47.9184533, "longitude": 19.6919323, "source": "osm", "_tags": {"addr:city": "Pásztó", "addr:housenumber": "15-17", "addr:postcode": "3060", "addr:street": "Semmelweis utca", "amenity": "hospital", "healthcare": "hospital", "name": "Margit Kórház", "website": "https://pkorhaz.hu/"}}, {"name": "Neurológia és Reumatológia Magánrendelés", "latitude": 47.5190389, "longitude": 19.1271223, "source": "osm", "_tags": {"addr:city": "Budapest", "addr:housenumber": "148", "addr:postcode": "1148", "addr:street": "Vezér utca", "amenity": "hospital", "emergency": "no", "healthcare": "hospital", "healthcare:speciality": "rheumatology;neurology", "name": "Neurológia és Reumatológia Magánrendelés", "operator": "Koroknai Medical", "operator:type": "business", "website": "https://koroknaimedical.hu"}}, {"name": "Háziorvosi rendelő", "latitude": 47.5176002, "longitude": 18.9817455, "source": "osm", "_tags": {"amenity": "hospital", "healthcare": "doctor", "name": "Háziorvosi rendelő"}}, {"name": "Patológia", "latitude": 48.1154358, "longitude": 19.8088052, "source": "osm", "_tags": {"amenity": "hospital", "healthcare": "hospital", "name": "Patológia"}}, {"name": "Patológia", "latitude": 47.5013867, "longitude": 19.0189998, "source": "osm", "_tags": {"amenity": "hospital", "healthcare": "hospital", "name": "Patológia"}}, {"name": "Izotópdiagnosztika", "latitude": 47.4683513, "longitude": 19.0355785, "source": "osm", "_tags": {"amenity": "hospital", "healthcare": "hospital", "healthcare:speciality": "nuclear", "level": "2", "name": "Izotópdiagnosztika"}}, {"name": "Izotópdiagnosztika", "latitude": 47.4250433, "longitude": 19.1322666, "source": "osm", "_tags": {"amenity": "hospital", "healthcare": "hospital", "level": "2", "name": "Izotópdiagnosztika"}}, {"name": "Műszaki osztály", "latitude": 47.5322321, "longitude": 19.0726363, "source": "osm", "_tags": {"amenity": "hospital", "healthcare": "hospital", "level": "-1", "name": "Műszaki osztály"}}, {"name": "Nukleáris medicina", "latitude": 47.5311216, "longitude": 19.0723933, "source": "osm", "_tags": {"amenity": "hospital", "healthcare": "hospital", "level": "1", "name": "Nukleáris medicina"}}, {"name": "Nukleáris medicina", "latitude": 48.1153302, "longitude": 19.8099893, "source": "osm", "_tags": {"amenity": "hospital", "healthcare": "hospital", "name": "Nukleáris medicina"}}, {"name": "Všeobecná nemocnica s poliklinikou Lučenec, n.o.", "latitude": 48.3277069, "longitude": 19.6597503, "source": "osm", "_tags": {"amenity": "hospital", "contact:website": "https://www.lcnsp.sk/old/web", "emergency": "yes", "healthcare": "hospital", "name": "Všeobecná nemocnica s poliklinikou Lučenec, n.o.", "wheelchair": "limited"}}, {"name": "Péterfy Sándor Utcai Kórház", "latitude": 47.5024126, "longitude": 19.0789944, "source": "osm", "_tags": {"amenity": "hospital", "healthcare": "hospital", "name": "Péterfy Sándor Utcai Kórház", "short_name": "Péterfy Kórház", "wikidata": "Q1243237", "wikimedia_commons": "Category:Péterfy Sándor Street, 8-20 (Péterfy Sándor Street Hospital)", "wikipedia": "hu:Péterfy Sándor Utcai Kórház-Rendelőintézet és Baleseti Központ"}}, {"name": "MH Egészségügyi Központ Podmaniczky utcai telephely", "latitude": 47.5165545, "longitude": 19.0729973, "source": "osm", "_tags": {"addr:city": "Budapest", "addr:housenumber": "109-111", "addr:postcode": "1062", "addr:street": "Podmaniczky utca", "alt_name": "Honvédkórház 2. sz. Podmaniczky utcai telephelye", "amenity": "hospital", "healthcare": "hospital", "name": "MH Egészségügyi Központ Podmaniczky utcai telephely", "old_name": "MÁV Kórház", "phone": "+36 1 465 1800", "website": "http://www.honvedkorhaz.hu/cikk/6/az-allami-egeszsegugyi-kozpont-telep", "wheelchair": "yes"}}, {"name": "Merényi Gusztáv Kórház", "latitude": 47.4666071, "longitude": 19.1002806, "source": "osm", "_tags": {"addr:city": "Budapest", "addr:housenumber": "17-19", "addr:postcode": "1097", "addr:street": "Gyáli út", "amenity": "hospital", "barrier": "fence", "contact:website": "https://www.dpckorhaz.hu/korhazunkrol/galeria/merenyi-gusztav-korhaz/", "healthcare": "hospital", "name": "Merényi Gusztáv Kórház", "wikidata": "Q122462794", "wikipedia": "hu:Merényi Gusztáv Kórház"}}, {"name": "Budai Irgalmasrendi Kórház", "latitude": 47.5191679, "longitude": 19.0370293, "source": "osm", "_tags": {"addr:city": "Budapest", "addr:housenumber": "7", "addr:postcode": "1023", "addr:street": "Árpád fejedelem útja", "amenity": "hospital", "architect": "Kiss Albert", "building": "hospital", "healthcare": "hospital", "name": "Budai Irgalmasrendi Kórház"}}, {"name": "Irgalmasrendi Kórház", "latitude": 47.515996, "longitude": 19.0376194, "source": "osm", "_tags": {"amenity": "hospital", "healthcare": "hospital", "name": "Irgalmasrendi Kórház"}}, {"name": "Irgalmasrendiek Kórháza", "latitude": 47.5188811, "longitude": 19.0369268, "source": "osm", "_tags": {"amenity": "hospital", "healthcare": "hospital", "name": "Irgalmasrendiek Kórháza"}}, {"name": "Kelen kórház", "latitude": 47.46122, "longitude": 19.026002, "source": "osm", "_tags": {"addr:city": "Budapest", "addr:housenumber": "20", "addr:postcode": "1119", "addr:street": "Than Károly utca", "amenity": "hospital", "building": "yes", "healthcare": "hospital", "internet_access:ssid": "Kelen;KelenFree", "name": "Kelen kórház", "phone": "+36 1 205 0205", "website": "https://kelen.hu/"}}, {"name": "Országos Klinikai Idegtudományi Intézet", "latitude": 47.5184957, "longitude": 19.0983448, "source": "osm", "_tags": {"addr:city": "Budapest", "addr:housenumber": "57", "addr:postcode": "1145", "addr:street": "Amerikai út", "alt_name": "OKITI", "amenity": "hospital", "architect": "Lajta Béla", "building": "yes", "healthcare": "hospital", "name": "Országos Klinikai Idegtudományi Intézet", "old_name": "OITI", "source": "bing", "start_date": "1911", "wikidata": "Q56390135", "wikimedia_commons": "Category:National Institute of Neurosciences, Budapest", "wikipedia": "hu:Országos Idegsebészeti Klinikai Intézet"}}, {"name": "Heim Pál Gyermekkórház", "latitude": 47.478948, "longitude": 19.0927181, "source": "osm", "_tags": {"amenity": "hospital", "healthcare": "hospital", "name": "Heim Pál Gyermekkórház", "wikidata": "Q1034998", "wikimedia_commons": "Category:Pál Heim Children's Hospital", "wikipedia": "hu:Heim Pál Gyermekkórház"}}, {"name": "Szent István Kórház", "latitude": 47.4770703, "longitude": 19.0874113, "source": "osm", "_tags": {"addr:city": "Budapest", "addr:housenumber": "1", "addr:postcode": "1097", "addr:street": "Nagyvárad tér", "amenity": "hospital", "healthcare": "hospital", "name": "Szent István Kórház", "website": "http://www.eszszk.hu", "wheelchair": "yes", "wikidata": "Q81704979"}}, {"name": "Manninger Jenő Országos Traumatológiai Intézet", "latitude": 47.496434, "longitude": 19.0815906, "source": "osm", "_tags": {"addr:city": "Budapest", "addr:housenumber": "17", "addr:postcode": "1081", "addr:street": "Fiumei út", "amenity": "hospital", "emergency": "yes", "healthcare": "hospital", "healthcare:speciality": "surgery;emergency", "name": "Manninger Jenő Országos Traumatológiai Intézet", "old_name": "Péterfy Baleseti Központ", "website": "https://www.peterfykh.hu/", "wheelchair": "yes"}}, {"name": "Szent Imre Kórház", "latitude": 47.4693412, "longitude": 19.03526, "source": "osm", "_tags": {"addr:city": "Budapest", "addr:housenumber": "12-16", "addr:postcode": "1115", "addr:street": "Tétényi út", "amenity": "hospital", "barrier": "fence", "contact:phone": "+36 1 464 8600", "contact:website": "https://www.szentimrekorhaz.hu/", "healthcare": "hospital", "name": "Szent Imre Kórház", "official_name": "Szent Imre Egyetemi Oktatókórház", "wheelchair": "yes", "wikidata": "Q30260737"}}, {"name": "Újpesti Szakorvosi Rendelőintézet", "latitude": 47.5657014, "longitude": 19.100555, "source": "osm", "_tags": {"addr:city": "Budapest", "addr:housenumber": "30", "addr:postcode": "1046", "addr:street": "Görgey Artúr út", "amenity": "hospital", "building": "public", "building:levels": "8", "emergency": "no", "healthcare": "hospital", "name": "Újpesti Szakorvosi Rendelőintézet", "phone": "+36 1 369 4777", "roof:levels": "0", "source": "My observation", "website": "https://www.ujpestiszakrendelo.hu/", "wheelchair": "yes"}}, {"name": "Károlyi Sándor Kórház", "latitude": 47.5579276, "longitude": 19.1036918, "source": "osm", "_tags": {"addr:city": "Budapest", "addr:housenumber": "103", "addr:postcode": "1045", "addr:street": "Nyár utca", "amenity": "hospital", "barrier": "fence", "healthcare": "hospital", "name": "Károlyi Sándor Kórház", "phone": "+36 1 369 2111", "source": "Bing", "wikidata": "Q30296005"}}, {"name": "Dr. Vass László Egészségügyi Intézmény", "latitude": 47.5536243, "longitude": 19.1178215, "source": "osm", "_tags": {"addr:city": "Budapest", "addr:housenumber": "77/a", "addr:postcode": "1152", "addr:street": "Rákos út", "alt_name": "Rákos úti szakrendelő", "amenity": "hospital", "building": "public", "check_date": "2024-04-01", "contact:email": "titkarsag@xv-euint.hu;recepcio@xv-euint.hu", "contact:phone": "+36 1 506 0100;+36 1 506 0138;+36 1 506 0139", "emergency": "no", "healthcare": "hospital", "healthcare:speciality": "internal;diabetology;endocrinology;gastroenterology;rheumatology;neurology;ophthalmology;gynaecology;surgery;urology;orthopaedics;osteopathy;dermatology", "loc_name": "Rákos úti SZTK", "name": "Dr. Vass László Egészségügyi Intézmény", "operator": "Budapest XV. Kerületi Önkormányzat", "operator:email": "info@bpxv.hu", "operator:type": "public", "operator:website": "https://www.bpxv.hu/", "source": "website;local knowledge", "website": "https://www.xv-euint.hu/", "wheelchair": "yes"}}, {"name": "Misszió Egészségügyi Központ", "latitude": 47.6622026, "longitude": 19.2726896, "source": "osm", "_tags": {"amenity": "hospital", "building": "yes", "contact:fax": "+36 28 386 795", "email": "titkarsag@misszio.hu", "healthcare:speciality": "general", "name": "Misszió Egészségügyi Központ", "phone": "+36 28 389 625", "website": "https://www.misszio.hu/", "wikimedia_commons": "File:Misszió Egészségügyi Központ, keleti sarok, 2019 Veresegyház.jpg"}}, {"name": "Madarász Utcai Gyermekkórház", "latitude": 47.5486883, "longitude": 19.0750058, "source": "osm", "_tags": {"addr:city": "Budapest", "addr:housenumber": "22-24", "addr:postcode": "1131", "addr:street": "Madarász Viktor utca", "amenity": "hospital", "healthcare": "hospital", "name": "Madarász Utcai Gyermekkórház", "official_name": "Heim Pál Kórház Madarász utcai telephely"}}, {"name": "", "latitude": 47.4898583, "longitude": 19.3320158, "source": "osm", "_tags": {"amenity": "hospital", "building": "yes", "emergency": "yes", "healthcare": "hospital"}}, {"name": "Fül-Orr-Gégészeti és Fej-Nyaksebészeti Klinika", "latitude": 47.4834463, "longitude": 19.0803265, "source": "osm", "_tags": {"addr:city": "Budapest", "addr:housenumber": "36", "addr:postcode": "1083", "addr:street": "Szigony utca", "building": "hospital", "building:levels": "3", "contact:phone": "+36 1 334 2384", "healthcare": "hospital", "healthcare:speciality": "otolaryngology", "name": "Fül-Orr-Gégészeti és Fej-Nyaksebészeti Klinika", "operator": "Semmelweis Egyetem"}}, {"name": "I. sz. Belgyógyászati Klinika", "latitude": 47.4828241, "longitude": 19.0833885, "source": "osm", "_tags": {"addr:city": "Budapest", "addr:housenumber": "2/a", "addr:postcode": "1083", "addr:street": "Korányi Sándor utca", "building": "hospital", "healthcare": "hospital", "healthcare:speciality": "internal", "name": "I. sz. Belgyógyászati Klinika", "operator": "Semmelweis Egyetem", "wheelchair": "no"}}, {"name": "Urológiai Klinika", "latitude": 47.4835961, "longitude": 19.0831769, "source": "osm", "_tags": {"building": "hospital", "healthcare": "hospital", "healthcare:speciality": "urology", "name": "Urológiai Klinika", "operator": "Semmelweis Egyetem"}}, {"name": "I. Sz. Sebészeti Klinika", "latitude": 47.4827046, "longitude": 19.080182, "source": "osm", "_tags": {"addr:city": "Budapest", "addr:housenumber": "78", "addr:postcode": "1082", "addr:street": "Üllői út", "building": "hospital", "building:levels": "4", "check_date": "2025-03-05", "denomination": "roman_catholic", "healthcare": "hospital", "healthcare:speciality": "surgery", "name": "I. Sz. Sebészeti Klinika", "operator": "Semmelweis Egyetem", "phone": "+36 1 313 5216", "religion": "christian", "roof:levels": "0"}}, {"name": "Bőr-, Nemikórtani és Bőronkológiai Klinika", "latitude": 47.4870609, "longitude": 19.0678405, "source": "osm", "_tags": {"addr:city": "Budapest", "addr:housenumber": "41", "addr:postcode": "1085", "addr:street": "Mária utca", "alt_name": "Bőrgyógyászati Klinika", "building": "hospital", "building:levels": "4", "healthcare": "hospital", "healthcare:speciality": "dermatology", "name": "Bőr-, Nemikórtani és Bőronkológiai Klinika", "name:de": "Klinik für Dermatologie, Sexualpathologie und Onkologie", "name:hu": "Bőr-, Nemikórtani és Bőronkológiai Klinika", "operator": "Semmelweis Egyetem", "website": "http://www.borklinika.hu"}}, {"name": "I. Sz. Szülészeti és Nőgyógyászati Klinika", "latitude": 47.4889588, "longitude": 19.0681033, "source": "osm", "_tags": {"addr:city": "Budapest", "addr:housenumber": "27", "addr:postcode": "1082", "addr:street": "Baross utca", "building": "hospital", "building:levels": "3", "check_date": "2025-03-19", "healthcare": "hospital", "healthcare:speciality": "gynaecology", "name": "I. Sz. Szülészeti és Nőgyógyászati Klinika", "name:hu": "I. Sz. Szülészeti és Nőgyógyászati Klinika", "website": "http://noi1.hu/"}}, {"name": "Jahn Ferenc Dél-Pesti Kórház", "latitude": 47.4250551, "longitude": 19.1336074, "source": "osm", "_tags": {"amenity": "hospital", "healthcare": "hospital", "name": "Jahn Ferenc Dél-Pesti Kórház", "website": "https://www.delpestikorhaz.hu/"}}, {"name": "Bugát Pál Kórház", "latitude": 47.7881784, "longitude": 19.9312724, "source": "osm", "_tags": {"amenity": "hospital", "emergency": "yes", "healthcare": "hospital", "name": "Bugát Pál Kórház"}}, {"name": "", "latitude": 47.8172254, "longitude": 19.9337711, "source": "osm", "_tags": {"amenity": "hospital", "building": "yes"}}, {"name": "Transzplantációs és Sebészeti Klinika", "latitude": 47.4888751, "longitude": 19.0671084, "source": "osm", "_tags": {"addr:city": "Budapest", "addr:housenumber": "23-25", "addr:postcode": "1082", "addr:street": "Baross utca", "building": "hospital", "building:levels": "4", "healthcare": "hospital", "healthcare:speciality": "transplant", "name": "Transzplantációs és Sebészeti Klinika", "name:de": "Klinik für Transplantation und Chirurgie", "name:hu": "Transzplantációs és Sebészeti Klinika", "operator": "Semmelweis Egyetem", "website": "http://trans.sote.hu/"}}, {"name": "Szemészeti Klinika", "latitude": 47.4877506, "longitude": 19.0681126, "source": "osm", "_tags": {"addr:city": "Budapest", "addr:housenumber": "39", "addr:postcode": "1085", "addr:street": "Mária utca", "building": "hospital", "building:levels": "4", "check_date": "2024-07-09", "healthcare": "hospital", "healthcare:speciality": "ophthalmology", "name": "Szemészeti Klinika", "name:de": "Klinik für Ophthalmologie", "name:en": "Ophthalmology Clinic", "name:hu": "Szemészeti Klinika", "operator": "Semmelweis Egyetem"}}, {"name": "Arc- Állcsont- Szájsebészeti és Fogászati Klinika", "latitude": 47.4875187, "longitude": 19.0686373, "source": "osm", "_tags": {"addr:city": "Budapest", "addr:housenumber": "52", "addr:postcode": "1085", "addr:street": "Mária utca", "amenity": "hospital", "building": "hospital", "building:levels": "4", "healthcare": "hospital", "healthcare:speciality": "dental_oral_maxillo_facial_surgery", "name": "Arc- Állcsont- Szájsebészeti és Fogászati Klinika", "operator": "Semmelweis Egyetem", "website": "https://semmelweis.hu/szajsebeszet/", "wheelchair": "no"}}, {"name": "Gottsegen György Országos Kardiológiai Intézet", "latitude": 47.4764628, "longitude": 19.0850634, "source": "osm", "_tags": {"addr:city": "Budapest", "addr:housenumber": "29", "addr:postcode": "1096", "addr:street": "Haller utca", "amenity": "hospital", "building": "yes", "building:levels": "10", "emergency": "yes", "healthcare": "hospital", "name": "Gottsegen György Országos Kardiológiai Intézet", "phone": "+36 1 215 1220", "wikidata": "Q30281453"}}, {"name": "Szent Ferenc Kórház", "latitude": 47.5268937, "longitude": 18.9757458, "source": "osm", "_tags": {"addr:city": "Budapest", "addr:housenumber": "73", "addr:postcode": "1021", "addr:street": "Széher út", "amenity": "hospital", "architect": "Kénost Vilmos", "building": "yes", "healthcare": "hospital", "name": "Szent Ferenc Kórház", "start_date": "1937-08-19", "wheelchair": "yes"}}, {"name": "Bethesda Gyermekkórház", "latitude": 47.5175311, "longitude": 19.0886093, "source": "osm", "_tags": {"addr:city": "Budapest", "addr:housenumber": "3", "addr:postcode": "1146", "addr:street": "Bethesda utca", "amenity": "hospital", "contact:fax": "+36 1 364 9070", "email": "bethesda@bethesda.hu", "healthcare": "hospital", "name": "Bethesda Gyermekkórház", "official_name": "Magyarországi Református Egyház Bethesda Gyermekkórháza", "phone": "+36 1 364 9020", "toilets:wheelchair": "yes", "website": "https://www.bethesda.hu/", "wheelchair": "yes", "wikidata": "Q25455945", "wikimedia_commons": "Category:Bethesda Children's Hospital"}}, {"name": "II. Sz. Gyermekgyógyászati Klinika", "latitude": 47.4839761, "longitude": 19.0708648, "source": "osm", "_tags": {"amenity": "hospital", "building": "hospital", "building:levels": "4", "healthcare": "hospital", "healthcare:speciality": "paediatrics", "name": "II. Sz. Gyermekgyógyászati Klinika", "operator": "Semmelweis Egyetem", "roof:levels": "1", "wikidata": "Q1329410", "wikimedia_commons": "Category:Tűzoltó utcai Gyermekklinika", "wikipedia": "hu:Semmelweis Egyetem Gyermekgyógyászati Klinika Tűzoltó Utcai Részleg"}}, {"name": "Érsebészeti Klinika", "latitude": 47.5070329, "longitude": 19.0132429, "source": "osm", "_tags": {"amenity": "hospital", "healthcare": "hospital", "name": "Érsebészeti Klinika", "wheelchair": "yes"}}, {"name": "Kútvölgyi Klinika", "latitude": 47.5109269, "longitude": 19.0052041, "source": "osm", "_tags": {"addr:city": "Budapest", "addr:housenumber": "4", "addr:postcode": "1125", "addr:street": "Kútvölgyi út", "amenity": "hospital", "email": "jarobeteg.kut@semmelweis-univ.hu", "healthcare": "hospital", "name": "Kútvölgyi Klinika", "opening_hours": "Mo-Fr 08:00-20:00", "phone": "+36 1 325 1100", "website": "https://kutvolgyi.hu/"}}, {"name": "Pető Intézet", "latitude": 47.5117566, "longitude": 19.0027934, "source": "osm", "_tags": {"addr:city": "Budapest", "addr:housenumber": "6", "addr:postcode": "1125", "addr:street": "Kútvölgyi út", "amenity": "hospital", "email": "elsovizsgalat@peto.hu", "healthcare": "hospital", "name": "Pető Intézet", "phone": "+36 1 224 1510", "website": "http://www.peto.hu"}}, {"name": "Budai Gyermekkórház", "latitude": 47.5179232, "longitude": 19.0307975, "source": "osm", "_tags": {"addr:city": "Budapest", "addr:housenumber": "5-9", "addr:postcode": "1023", "addr:street": "Bolyai utca", "amenity": "hospital", "emergency": "yes", "healthcare": "hospital", "name": "Budai Gyermekkórház", "name:de": "Budaer Kinderkrankenhaus", "name:en": "Buda Children's Hospital", "website": "https://www.janoskorhaz.hu/megkozelites-budai-gyermekkorhaz/"}}, {"name": "Országos Onkológiai Intézet", "latitude": 47.5014576, "longitude": 19.0205127, "source": "osm", "_tags": {"addr:city": "Budapest", "addr:housenumber": "7-9", "addr:postcode": "1122", "addr:street": "Ráth György utca", "amenity": "hospital", "contact:email": "onkologia@oncol.hu", "contact:facebook": "onkologiaiintezet", "contact:phone": "+36 1 224 8600", "contact:website": "https://onkol.hu/", "healthcare": "hospital", "healthcare:speciality": "oncology", "name": "Országos Onkológiai Intézet", "wikidata": "Q30282192", "wikimedia_commons": "Category:National Institute of Oncology (Budapest)", "wikipedia": "hu:Országos Onkológiai Intézet"}}, {"name": "II. sz. Belgyógyászati Klinika", "latitude": 47.4879398, "longitude": 19.0668272, "source": "osm", "_tags": {"addr:city": "Budapest", "addr:housenumber": "46", "addr:postcode": "1088", "addr:street": "Szentkirályi utca", "building": "hospital", "building:levels": "2", "healthcare": "hospital", "healthcare:speciality": "internal", "name": "II. sz. Belgyógyászati Klinika", "name:hu": "II. sz. Belgyógyászati Klinika", "operator": "Semmelweis Egyetem", "roof:levels": "1", "roof:shape": "gabled", "website": "http://www.bel2.sote.hu/"}}, {"name": "Szociális Otthon", "latitude": 47.6605244, "longitude": 19.2826861, "source": "osm", "_tags": {"amenity": "hospital", "name": "Szociális Otthon"}}, {"name": "Szent Rókus Kórház", "latitude": 47.4952751, "longitude": 19.068145, "source": "osm", "_tags": {"addr:city": "Budapest", "addr:housenumber": "2-4", "addr:postcode": "1085", "addr:street": "Gyulai Pál utca", "amenity": "hospital", "contact:website": "http://www.rokus.hu/", "healthcare": "hospital", "name": "Szent Rókus Kórház", "wikidata": "Q55419375", "wikimedia_commons": "Category:Saint Roch Hospital in Budapest", "wikipedia": "hu:Szent Rókus Kórház"}}, {"name": "Jávorszky Ödön Városi Kórház", "latitude": 47.7839125, "longitude": 19.1485259, "source": "osm", "_tags": {"amenity": "hospital", "emergency": "yes", "healthcare": "hospital", "name": "Jávorszky Ödön Városi Kórház"}}, {"name": "Pest Megyei Flór Ferenc Kórház", "latitude": 47.5398144, "longitude": 19.2565709, "source": "osm", "_tags": {"building": "public", "healthcare": "hospital", "name": "Pest Megyei Flór Ferenc Kórház"}}, {"name": "Irgalmasrendi kórház", "latitude": 47.7786792, "longitude": 19.1261019, "source": "osm", "_tags": {"amenity": "hospital", "healthcare": "hospital", "name": "Irgalmasrendi kórház"}}, {"name": "Péterfy Sándor Utcai Kórház Alsóerdősori Telephelye", "latitude": 47.5007542, "longitude": 19.0752273, "source": "osm", "_tags": {"amenity": "hospital", "healthcare": "hospital", "name": "Péterfy Sándor Utcai Kórház Alsóerdősori Telephelye", "website": "https://www.peterfykh.hu/"}}, {"name": "Szent Kozma és Damján Rehabilitációs Szakkórház", "latitude": 47.7589098, "longitude": 18.9415512, "source": "osm", "_tags": {"addr:city": "Visegrád", "addr:housenumber": "1", "addr:postcode": "2026", "addr:street": "Gizella út", "addr:suburb": "Gizellatelep", "amenity": "hospital", "email": "info@visegradikorhaz.hu", "healthcare": "hospital", "name": "Szent Kozma és Damján Rehabilitációs Szakkórház", "phone": "+36 26 801 700", "website": "https://www.visegradikorhaz.hu/"}}, {"name": "Jahn Ferenc Rehabilitációs Centrum", "latitude": 47.4491469, "longitude": 19.150844, "source": "osm", "_tags": {"addr:city": "Budapest", "addr:housenumber": "62-66", "addr:postcode": "1195", "addr:street": "Jáhn Ferenc utca", "amenity": "hospital", "emergency": "no", "healthcare": "hospital", "name": "Jahn Ferenc Rehabilitációs Centrum", "operator": "Egyesített Szent István és Szent László Kórház-Rendelőintézet", "wheelchair": "limited"}}, {"name": "Jahn Ferenc Dél-pesti Kórház Csepeli Weiss Manfréd Telephelye", "latitude": 47.4247821, "longitude": 19.0594707, "source": "osm", "_tags": {"addr:city": "Budapest", "addr:housenumber": "11", "addr:postcode": "1211", "addr:street": "Déli utca", "amenity": "hospital", "healthcare": "hospital", "name": "Jahn Ferenc Dél-pesti Kórház Csepeli Weiss Manfréd Telephelye", "opening_hours": "Mo-Su 06:00-19:00", "phone": "+36 1 278 2060", "website": "https://www.delpestikorhaz.hu/"}}, {"name": "Nyírő Gyula Kórház - OPAI - Tüdőszűrő állomás", "latitude": 47.518374, "longitude": 19.0666, "source": "osm", "_tags": {"addr:city": "Budapest", "addr:housenumber": "15/a", "addr:postcode": "1134", "addr:street": "Dévai utca", "amenity": "hospital", "healthcare": "hospital", "name": "Nyírő Gyula Kórház - OPAI - Tüdőszűrő állomás"}}, {"name": "Gyógytorna és Fizikoterápiás Részleg", "latitude": 47.4646795, "longitude": 18.9689213, "source": "osm", "_tags": {"addr:city": "Budaörs", "addr:housenumber": "53", "addr:postcode": "2040", "addr:street": "Farkasréti út", "amenity": "hospital", "healthcare": "hospital", "name": "Gyógytorna és Fizikoterápiás Részleg"}}, {"name": "Szent Lázár Megyei Kórház", "latitude": 48.1147835, "longitude": 19.8094557, "source": "osm", "_tags": {"amenity": "hospital", "healthcare": "hospital", "name": "Szent Lázár Megyei Kórház"}}, {"name": "Bajcsy-Zsilinszky Kórház és Rendelőintézet", "latitude": 47.4784908, "longitude": 19.1621514, "source": "osm", "_tags": {"addr:city": "Budapest", "addr:housenumber": "89-91", "addr:postcode": "1106", "addr:street": "Maglódi út", "amenity": "hospital", "email": "bajcsykorhaz@bajcsy.hu", "healthcare": "hospital", "name": "Bajcsy-Zsilinszky Kórház és Rendelőintézet", "operator": "OEP", "phone": "+36 1 432 7500;+36 1 432 7600", "url": "http://bajcsy.hu/a-korhazunkhoz-tartozo-osztalyok-bemutatasa/", "website": "https://bajcsy.hu/fooldal/", "wikidata": "Q788687", "wikipedia": "hu:Fővárosi Önkormányzat Bajcsy-Zsilinszky Kórháza"}}, {"name": "Országos Sportegészségügyi Intézet", "latitude": 47.4789616, "longitude": 19.0305847, "source": "osm", "_tags": {"addr:city": "Budapest", "addr:housenumber": "27", "addr:postcode": "1113", "addr:street": "Karolina út", "amenity": "hospital", "contact:email": "info@osei.hu", "contact:phone": "+36 1 488 6100", "contact:website": "https://www.osei.hu/", "description": "Bejárat a Diószegi út 64. felöl", "healthcare": "yes", "name": "Országos Sportegészségügyi Intézet", "operator": "OSEI - Sportkórház"}}, {"name": "Szent Erzsébet Kórház", "latitude": 47.4927421, "longitude": 19.9113599, "source": "osm", "_tags": {"addr:city": "Jászberény", "addr:housenumber": "2", "addr:postcode": "5100", "addr:street": "Szelei út", "amenity": "hospital", "healthcare": "hospital", "name": "Szent Erzsébet Kórház", "phone": "+3657 500 200", "website": "https://jaszberenykorhaz.hu/"}}, {"name": "Boldog Gellért Szakkórház", "latitude": 47.66513, "longitude": 18.9668662, "source": "osm", "_tags": {"amenity": "hospital", "contact:facebook": "https://www.facebook.com/profile.php?id=100063595223047", "contact:phone": "+36 26 525620", "contact:website": "https://boldoggellert.hu/", "healthcare": "hospital", "healthcare:speciality": "psychiatry", "name": "Boldog Gellért Szakkórház", "old_name": "Gálfi Béla Szakkórház", "operator": "Magyar Máltai Szeretetszolgálat Egyesület > Boldog Gellért Közhasznú Nonprofit Kft."}}, {"name": "Szent Magdolna Magánkórház", "latitude": 47.524356, "longitude": 19.036035, "source": "osm", "_tags": {"addr:city": "Budapest", "addr:housenumber": "10", "addr:postcode": "1023", "addr:street": "Zsigmond tér", "amenity": "hospital", "building": "hospital", "contact:email": "recepcio@szentmagdolna.com", "contact:facebook": "SzentMagdolnaMagankorhaz", "contact:phone": "+36 1 7333 444;+36 1 445 3333", "contact:website": "https://szentmagdolna.com", "healthcare": "hospital", "name": "Szent Magdolna Magánkórház"}}, {"name": "Országos Gerincgyógyászati Központ", "latitude": 47.496266, "longitude": 19.0223692, "source": "osm", "_tags": {"addr:city": "Budapest", "addr:housenumber": "1-3", "addr:postcode": "1126", "addr:street": "Királyhágó utca", "amenity": "hospital", "barrier": "fence", "contact:email": "info@ogk.hu", "contact:facebook": "https://www.facebook.com/orszagos.gerincgyogyaszati.kozpont", "contact:fax": "+36 1 887 7987", "contact:phone": "+36 1 887 7900", "healthcare": "hospital", "name": "Országos Gerincgyógyászati Központ", "old_name": "Honvéd Kórház (1982)", "start_date": "2005", "website": "https://ogk.hu", "wikidata": "Q15295173", "wikipedia": "hu:Országos Gerincgyógyászati Központ"}}, {"name": "", "latitude": 47.4799918, "longitude": 19.0303098, "source": "osm", "_tags": {"amenity": "hospital", "healthcare": "hospital"}}, {"name": "Nemocnica s poliklinikou, Šahy", "latitude": 48.063097, "longitude": 18.9545013, "source": "osm", "_tags": {"amenity": "hospital", "name": "Nemocnica s poliklinikou, Šahy"}}, {"name": "Szécsény és Térsége Egészségügyi Centrum", "latitude": 48.0817969, "longitude": 19.5148643, "source": "osm", "_tags": {"amenity": "hospital", "name": "Szécsény és Térsége Egészségügyi Centrum"}}, {"name": "Magyar Honvédség Egészségügyi Központ", "latitude": 47.5307038, "longitude": 19.0727558, "source": "osm", "_tags": {"addr:city": "Budapest", "addr:housenumber": "44", "addr:postcode": "1134", "addr:street": "Róbert Károly körút", "alt_name": "Honvédkórház", "amenity": "hospital", "healthcare": "hospital", "name": "Magyar Honvédség Egészségügyi Központ", "phone": "+36 1 465 1800", "website": "http://www.honvedkorhaz.hu/", "wheelchair": "yes", "wikidata": "Q96194923", "wikipedia": "hu:MH Egészségügyi Központ"}}, {"name": "Nyírő Gyula kórház - Országos Pszichiátriai és Addiktológiai Intézet", "latitude": 47.527507, "longitude": 19.0804278, "source": "osm", "_tags": {"addr:city": "Budapest", "addr:postcode": "1135", "addr:street": "Lehel utca", "amenity": "hospital", "contact:email": "impresszum@nyiro-opai.hu", "contact:facebook": "https://www.facebook.com/nyiro.opai/", "contact:fax": "+36 1 451 2601", "healthcare": "hospital", "name": "Nyírő Gyula kórház - Országos Pszichiátriai és Addiktológiai Intézet", "official_name": "Nyírő Gyula Országos Pszichiátriai és Addiktológiai Intézet - OPAI", "operator": "Nyírő Gyula Kórház", "website": "http://nygy-opai.hu/", "wheelchair": "yes"}}, {"name": "Ferencvárosi Egészségügyi Szolgáltató Központ", "latitude": 47.4767678, "longitude": 19.0759591, "source": "osm", "_tags": {"amenity": "hospital", "email": "titkarsag@feszrendelo.hu", "healthcare": "hospital", "name": "Ferencvárosi Egészségügyi Szolgáltató Központ", "operator": "Ferencvárosi Egészségügyi Szolgáltató Közhasznú Nonprofit Zrt.", "operator:type": "government", "phone": "+36 1 455 4500", "short_name": "FESZ", "website": "https://www.feszrendelo.hu/"}}, {"name": "Albert Schweitzer Kórház-Rendelőintézet", "latitude": 47.6709561, "longitude": 19.6816245, "source": "osm", "_tags": {"amenity": "hospital", "name": "Albert Schweitzer Kórház-Rendelőintézet"}}, {"name": "", "latitude": 47.5270692, "longitude": 18.9760122, "source": "osm", "_tags": {"amenity": "hospital", "healthcare": "hospital"}}, {"name": "Országos Korányi Pulmonológiai Intézet", "latitude": 47.5204169, "longitude": 18.9458205, "source": "osm", "_tags": {"addr:city": "Budapest", "addr:housenumber": "1", "addr:postcode": "1121", "addr:street": "Korányi Frigyes út", "amenity": "hospital", "contact:website": "https://www.koranyi.hu/", "healthcare": "hospital", "healthcare:speciality": "pulmonology", "name": "Országos Korányi Pulmonológiai Intézet", "type": "multipolygon", "wikidata": "Q30282217"}}, {"name": "Szent János Kórház", "latitude": 47.5096912, "longitude": 19.0049483, "source": "osm", "_tags": {"amenity": "hospital", "healthcare": "hospital", "name": "Szent János Kórház", "official_name": "Észak-budai Szent János Centrumkórház", "type": "multipolygon", "wikidata": "Q30280195", "wikipedia": "hu:Szent János Kórház"}}, {"name": "Flór Ferenc Kórház", "latitude": 47.5391383, "longitude": 19.2535556, "source": "osm", "_tags": {"addr:city": "Kistarcsa", "addr:housenumber": "1", "addr:postcode": "2143", "addr:street": "Semmelweis tér", "amenity": "hospital", "contact:phone": "+36 28 507 600;+36 28 507 700", "contact:website": "https://florhosp.hu/", "healthcare": "hospital", "name": "Flór Ferenc Kórház", "name:de": "Franz-Krankenhaus", "type": "multipolygon"}}, {"name": "Szent Margit Kórház", "latitude": 47.5392384, "longitude": 19.0304615, "source": "osm", "_tags": {"addr:city": "Budapest", "addr:housenumber": "132", "addr:postcode": "1032", "addr:street": "Bécsi út", "alt_name": "Margit Kórház", "amenity": "hospital", "contact:email": "info@sztmargit.hu", "contact:phone": "+36 1 250 2170", "contact:website": "http://www.szentmargitkorhaz.hu/", "healthcare": "hospital", "name": "Szent Margit Kórház", "type": "multipolygon", "wikidata": "Q81696621", "wikipedia": "hu:Fővárosi Önkormányzat Szent Margit Kórháza"}}, {"name": "Gálfi Béla Nonprofit Kft. , Dunaparti pszichiátriai osztály", "latitude": 47.6246598, "longitude": 19.0832003, "source": "osm", "_tags": {"addr:city": "Budakalász", "addr:street": "Kórház utca", "alt_name": "Gálfi Béla Nonprofit Kft. , Dunapart, V. osztály", "amenity": "hospital", "healthcare": "hospital", "healthcare:speciality": "psychiatry", "name": "Gálfi Béla Nonprofit Kft. , Dunaparti pszichiátriai osztály", "type": "multipolygon", "website": "https://www.galfi.hu/"}}, {"name": "Semmelweis Egyetem Belső Klinikai Tömb", "latitude": 47.4880194, "longitude": 19.0675687, "source": "osm", "_tags": {"amenity": "hospital", "healthcare": "hospital", "name": "Semmelweis Egyetem Belső Klinikai Tömb", "type": "multipolygon", "wikimedia_commons": "Category:Semmelweis University internal clinical array"}}, {"name": "", "latitude": 48.0781535, "longitude": 19.3098851, "source": "osm", "_tags": {"amenity": "hospital", "healthcare": "hospital", "type": "multipolygon"}}, {"name": "Semmelweis Egyetem Külső Klinikai Tömb", "latitude": 47.4837486, "longitude": 19.0818363, "source": "osm", "_tags": {"amenity": "hospital", "healthcare": "hospital", "name": "Semmelweis Egyetem Külső Klinikai Tömb", "operator": "Semmelweis Egyetem", "type": "multipolygon", "wheelchair": "no"}}, {"name": "I. Sz. Gyermekgyógyászati Klinika", "latitude": 47.4840358, "longitude": 19.0780067, "source": "osm", "_tags": {"addr:city": "Budapest", "addr:housenumber": "53-54", "addr:postcode": "1083", "addr:street": "Bókay János utca", "amenity": "hospital", "healthcare": "hospital", "healthcare:speciality": "paediatrics", "name": "I. Sz. Gyermekgyógyászati Klinika", "operator": "Semmelweis Egyetem", "phone": "+36 1 334 3186", "type": "multipolygon"}}, {"name": "Uzsoki Utcai Kórház", "latitude": 47.5197691, "longitude": 19.1019073, "source": "osm", "_tags": {"addr:city": "Budapest", "addr:housenumber": "29-41", "addr:postcode": "1145", "addr:street": "Uzsoki utca", "amenity": "hospital", "contact:phone": "+36 1 467 3700", "contact:website": "https://www.uzsoki.hu/", "healthcare": "hospital", "name": "Uzsoki Utcai Kórház", "name:en": "Uzsoki Hospital Budapest", "official_name": "Budapesti Uzsoki Utcai Kórház", "toilets:wheelchair": "yes", "type": "multipolygon", "wheelchair": "yes", "wikidata": "Q30281161"}}, {"name": "Göllesz Viktor Óvoda, Általános Iskola és EGYMI", "latitude": 47.5183491, "longitude": 19.216599, "source": "osm", "_tags": {"addr:city": "Budapest", "addr:housenumber": "7", "addr:postcode": "1164", "addr:street": "Szabadföld út", "amenity": "school", "healthcare": "hospital", "name": "Göllesz Viktor Óvoda, Általános Iskola és EGYMI", "type": "multipolygon"}}, {"name": "Szent László Kórház", "latitude": 47.4735575, "longitude": 19.0918099, "source": "osm", "_tags": {"addr:city": "Budapest", "addr:housenumber": "5-7", "addr:postcode": "1097", "addr:street": "Albert Flórián út", "amenity": "hospital", "healthcare": "hospital", "name": "Szent László Kórház", "type": "multipolygon", "url": "https://www.dpckorhaz.hu/", "website": "http://www.eszszk.hu", "wikidata": "Q81705285", "wikipedia": "hu:Szent László Kórház"}}, {"name": "Vadaskert Alapítvány", "latitude": 47.5299524, "longitude": 18.9753909, "source": "osm", "_tags": {"addr:city": "Budapest", "addr:housenumber": "1-5", "addr:postcode": "1021", "addr:street": "Lipótmezei út", "amenity": "hospital", "emergency": "no", "healthcare": "hospital", "healthcare:speciality": "psychiatry", "name": "Vadaskert Alapítvány", "type": "multipolygon", "website": "https://vadaskert.hu/"}}]