[{"name": "Centre hospitalier de Bourbonne-les-Bains", "latitude": 47.9536497, "longitude": 5.7446855, "source": "osm", "_tags": {"amenity": "hospital", "name": "Centre hospitalier de Bourbonne-les-Bains"}}, {"name": "Centre hospitalier de l’Ouest Vosgien - Site de Neufchâteau", "latitude": 48.3689188, "longitude": 5.7082604, "source": "osm", "_tags": {"alt_name": "Hôpital Champ le Roy", "amenity": "hospital", "emergency": "yes", "fax": "+33 3 29 94 25 54", "healthcare": "hospital", "name": "Centre hospitalier de l’Ouest Vosgien - Site de Neufchâteau", "operator:type": "public", "phone": "+33 3 29 94 80 00", "ref:FR:FINESS": "880000054", "type:FR:FINESS": "355", "website": "http://www.ch-ouestvosgien.fr/"}}, {"name": "Hôpital local de Lamarche", "latitude": 48.0703583, "longitude": 5.7796608, "source": "osm", "_tags": {"amenity": "hospital", "emergency": "no", "fax": "+33 3 29 09 66 77", "healthcare": "hospital", "name": "Hôpital local de Lamarche", "operator:type": "public", "phone": "+33 3 29 09 50 28", "ref:FR:FINESS": "880000187", "type:FR:FINESS": "106", "wikidata": "Q92062941"}}, {"name": "Centre hopitalier de Chaumont", "latitude": 48.1207936, "longitude": 5.1400493, "source": "osm", "_tags": {"addr:city": "Chaumont", "addr:country": "FR", "addr:housenumber": "2", "addr:postcode": "52000", "addr:street": "Rue Jeanne d'Arc", "amenity": "hospital", "email": "secretariat.direction@ch-chaumont.fr", "emergency": "yes", "name": "Centre hopitalier de Chaumont", "operator:type": "public", "phone": "+33 3 25 30 70 30", "ref:FR:FINESS": "520000027", "type:FR:FINESS": "355", "website": "http://www.ch-chaumont.fr/", "wikidata": "Q22985104"}}, {"name": "Clinique de Chaumont", "latitude": 48.1196744, "longitude": 5.1411382, "source": "osm", "_tags": {"alt_name": "Centre Médico Chirurgical de Chaumont le Bois", "amenity": "hospital", "email": "lebois-chaumont@groupe-vitalia.com", "fax": "+33 3 25 32 58 44", "name": "Clinique de Chaumont", "operator": "Groupe Elsan", "operator:type": "private", "phone": "+33 8 25 16 34 34", "ref:FR:FINESS": "520780214", "type:FR:FINESS": "365", "website": "http://www.lebois.groupe-elsan.com/"}}, {"name": "Centre hospitalier de Langres", "latitude": 47.8669388, "longitude": 5.336709, "source": "osm", "_tags": {"addr:city": "Langres", "addr:country": "FR", "addr:housenumber": "10", "addr:postcode": "52200", "addr:street": "Rue de la Charité", "amenity": "hospital", "emergency": "yes", "healthcare": "hospital", "name": "Centre hospitalier de Langres", "operator:type": "public", "phone": "+33 3 25 87 88 88", "ref:FR:FINESS": "520000043", "type:FR:FINESS": "355", "website": "http://www.ch-langres.fr/"}}, {"name": "Clinique de la Compassion", "latitude": 47.8658301, "longitude": 5.3368448, "source": "osm", "_tags": {"amenity": "hospital", "fax": "+33 3 25 87 54 33", "healthcare": "hospital", "name": "Clinique de la Compassion", "operator": "Elsan", "operator:type": "private", "operator:wikidata": "Q48747106", "phone": "+33 3 25 87 59 52", "ref:FR:FINESS": "520780156", "type:FR:FINESS": "365", "website": "http://www.compassion.groupe-elsan.com/"}}, {"name": "Centre hospitalier d'Is-sur-Tille", "latitude": 47.5190198, "longitude": 5.1048838, "source": "osm", "_tags": {"addr:city": "Is-sur-Tille", "addr:postcode": "21120", "amenity": "hospital", "check_date": "2024-09-21", "emergency": "no", "fax": "+33 3 80 95 62 63", "healthcare": "hospital", "healthcare:speciality": "general", "name": "Centre hospitalier d'Is-sur-Tille", "operator:type": "public", "phone": "+33 3 80 95 62 62", "ref:FR:FINESS": "210987582", "type:FR:FINESS": "106", "wikidata": "Q92062917"}}, {"name": "Centre Hospitalier de Bourbonne les Bains", "latitude": 47.9462519, "longitude": 5.7350882, "source": "osm", "_tags": {"amenity": "hospital", "healthcare": "hospital", "name": "Centre Hospitalier de Bourbonne les Bains", "ref:FR:FINESS": "520000019", "type:FR:FINESS": "106", "wikidata": "Q92063188"}}, {"name": "Centre hospitalier de Gray", "latitude": 47.4461168, "longitude": 5.5859069, "source": "osm", "_tags": {"alt_name": "Centre hospitalier Pierre Vitter", "amenity": "hospital", "email": "direction@ch-gray.fr", "emergency": "yes", "fax": "+33 3 84 64 60 65", "healthcare": "hospital", "name": "Centre hospitalier de Gray", "operator": "Centre hospitalier du Val de Saône", "operator:type": "public", "phone": "+33 3 84 64 61 61", "ref:FR:FINESS": "700000011", "source": "cadastre-dgi-fr source : Direction Générale des Impôts - Cadastre. Mise à jour : 2009", "type": "multipolygon", "type:FR:FINESS": "355", "website": "https://www.centre-hospitalier-gray.fr/", "wikidata": "Q21099756"}}]