[{"name": "Fachklinik für Psychiatrie und Psychotherapie", "latitude": 48.0662444, "longitude": 11.3477617, "source": "osm", "_tags": {"addr:city": "Gauting", "addr:country": "DE", "addr:housenumber": "6", "addr:postcode": "82131", "addr:street": "Robert-Koch-Allee", "amenity": "hospital", "email": "info@psychiatrie-gauting.de", "fax": "+49 89 89358 151", "healthcare": "hospital", "healthcare:speciality": "psychiatry", "name": "Fachklinik für Psychiatrie und Psychotherapie", "note": "bitte überprüfen", "phone": "+49 89 893580", "website": "http://www.psychiatrie-gauting.de"}}, {"name": "Wolfartklinik", "latitude": 48.1179807, "longitude": 11.421919, "source": "osm", "_tags": {"addr:city": "Gräfelfing", "addr:country": "DE", "addr:housenumber": "7", "addr:postcode": "82166", "addr:street": "Waldstraße", "amenity": "hospital", "email": "info@wolfartklinik.de", "emergency": "yes", "healthcare": "hospital", "name": "Wolfartklinik", "phone": "+49 89 8587-0", "website": "https://wolfartklinik.de/", "wheelchair": "yes"}}, {"name": "Frauenklinik Dr. Geisenhofer", "latitude": 48.1515148, "longitude": 11.5960485, "source": "osm", "_tags": {"addr:city": "München", "addr:country": "DE", "addr:housenumber": "6", "addr:postcode": "80538", "addr:street": "Hirschauer Straße", "amenity": "hospital", "beds": "82", "emergency": "no", "healthcare": "hospital", "healthcare:speciality": "gynaecology", "name": "Frauenklinik Dr. Geisenhofer", "name:en": "Dr. Geisenhofer Women's Clinic", "opening_hours:visitors": "09:00-17:00", "operator": "Frauenklinik Dr. Geisenhofer GmbH", "operator:type": "private", "phone": "+49 89 38310", "website": "https://geisenhoferklinik.de/", "wheelchair": "no"}}, {"name": "ISAR Klinikum", "latitude": 48.1347002, "longitude": 11.5650239, "source": "osm", "_tags": {"addr:city": "München", "addr:country": "DE", "addr:housenumber": "24", "addr:postcode": "80331", "addr:street": "Sonnenstraße", "amenity": "hospital", "email": "info@isarklinikum.de", "emergency": "yes", "fax": "+49 89 149903-1990", "healthcare": "hospital", "name": "ISAR Klinikum", "operator": "Isar Kliniken GmbH", "phone": "+49 89 149903-0", "website": "https://www.isarklinikum.de", "wheelchair": "yes", "wikidata": "Q22674589"}}, {"name": "Klinik Dr. Robert Schindlbeck", "latitude": 47.9946821, "longitude": 11.1706069, "source": "osm", "_tags": {"addr:city": "Herrsching am Ammersee", "addr:country": "DE", "addr:housenumber": "43", "addr:postcode": "82211", "addr:street": "Seestraße", "amenity": "hospital", "check_date": "2024-09-16", "email": "info@klinik-schindlbeck.de", "emergency": "yes", "fax": "+49 8152 29-216", "healthcare": "hospital", "name": "Klinik Dr. Robert Schindlbeck", "phone": "+49 8152 29-0", "start_date": "1946", "website": "https://www.klinik-schindlbeck.de", "wheelchair": "yes"}}, {"name": "Arabella-Klinik", "latitude": 48.1505955, "longitude": 11.618485, "source": "osm", "_tags": {"addr:city": "München", "addr:country": "DE", "addr:housenumber": "5", "addr:postcode": "81925", "addr:street": "Arabellastraße", "amenity": "hospital", "beds": "60", "emergency": "no", "healthcare": "hospital", "healthcare:speciality": "anaesthetics;ophthalmology;surgery;trauma;plastic_surgery;otolaryngology;dental_oral_maxillo_facial_surgery", "level": "19", "name": "Arabella-Klinik", "operator": "Arabella Klinik GmbH", "operator:type": "private", "phone": "+49 89 92 20 92 0", "website": "https://arabellaklinik.de/", "wheelchair": "limited", "wikidata": "Q106291752", "wikipedia": "de:Arabella Klinik"}}, {"name": "Klinik mednord", "latitude": 48.2018974, "longitude": 11.5872598, "source": "osm", "_tags": {"amenity": "hospital", "emergency": "no", "healthcare": "hospital", "name": "Klinik mednord", "operator": "Klinik mednord Dr. Pfützenreuter", "website": "https://klinik-mednord.de/"}}, {"name": "Belegklinikfür Neurochirurgie, plastisch-ästhetische Chirurgie,Chirurgie und Orthopädie", "latitude": 48.2018439, "longitude": 11.5872518, "source": "osm", "_tags": {"amenity": "hospital", "emergency": "no", "healthcare": "hospital", "name": "Belegklinikfür Neurochirurgie, plastisch-ästhetische Chirurgie,Chirurgie und Orthopädie", "name:en": "Clinic for Neurosurgery, Plastic and Aesthetic Surgery, Surgery, and Orthopedics", "operator": "Klinik mednord Dr. Pfützenreuter"}}, {"name": "Marianne-Strauss-Klinik", "latitude": 47.9880622, "longitude": 11.3643046, "source": "osm", "_tags": {"addr:city": "Berg", "addr:housenumber": "21", "addr:postcode": "82335", "addr:street": "Milchberg", "addr:suburb": "Kempfenhausen", "alt_name": "Marianne-Strauß-Klinik", "amenity": "hospital", "name": "Marianne-Strauss-Klinik", "toilets:wheelchair": "yes", "website": "https://www.ms-klinik.de/", "wheelchair": "yes"}}, {"name": "Heckscher-Klinikum Abt. Rottmannshöhe", "latitude": 47.9487454, "longitude": 11.3467418, "source": "osm", "_tags": {"amenity": "hospital", "name": "Heckscher-Klinikum Abt. Rottmannshöhe"}}, {"name": "Maria-Theresia-Klinik", "latitude": 48.1266722, "longitude": 11.5493435, "source": "osm", "_tags": {"addr:city": "München", "addr:country": "DE", "addr:housenumber": "46", "addr:postcode": "80336", "addr:street": "Bavariaring", "amenity": "hospital", "beds": "52", "email": "info@maria-theresia-klinik.de", "healthcare": "hospital", "healthcare:speciality": "internal;surgery", "name": "Maria-Theresia-Klinik", "official_name": "Maria-Theresia-Klinik - Fachklinik für Chirurgie und Innere Medizin", "operator": "Kongregation der Barmherzigen Schwestern vom hl. Vinzenz von Paul", "operator:type": "religious", "phone": "+49 89 7207-1", "website": "https://www.maria-theresia-klinik.de/", "wheelchair": "no", "wikidata": "Q98644173"}}, {"name": "Zahnarztpraxis Feichtner", "latitude": 48.1125144, "longitude": 11.5511176, "source": "osm", "_tags": {"addr:city": "München", "addr:housenumber": "18", "addr:postcode": "81371", "addr:street": "Brudermühlstraße", "amenity": "dentist", "email": "info@zahnarzt-feichtner.de", "healthcare": "hospital", "healthcare:speciality": "dentist", "level": "0", "name": "Zahnarztpraxis Feichtner", "opening_hours": "Mo-Th 09:00-17:00; Fr 09:00-13:00", "phone": "+49 89 723 27 53", "website": "https://www.feichtner-implantologie.de/"}}, {"name": "kbo-Kinderzentrum München", "latitude": 48.10614, "longitude": 11.477925, "source": "osm", "_tags": {"addr:city": "München", "addr:country": "DE", "addr:housenumber": "69", "addr:postcode": "81377", "addr:street": "Heiglhofstraße", "air_conditioning": "yes", "amenity": "clinic", "check_date": "2025-07-30", "contact:phone": "+49 89 71009-0", "contact:website": "https://kbo-kinderzentrum-muenchen.de/", "email": "info-kinderzentrum@kbo.de", "fax": "+49 89 710091144", "healthcare": "hospital", "healthcare:speciality": "paediatrics", "internet_access": "wlan", "internet_access:fee": "no", "name": "kbo-Kinderzentrum München", "opening_hours": "24/7", "operator": "Bezirk Oberbayern", "operator:type": "county_government", "ref:vatin": "DE262904720", "wheelchair": "yes", "wikidata": "Q15823532", "wikipedia": "de:Kinderzentrum München"}}, {"name": "Psychosomatische Klinik Kloster Dießen", "latitude": 47.9473558, "longitude": 11.0973155, "source": "osm", "_tags": {"addr:city": "Dießen am Ammersee", "addr:housenumber": "20", "addr:postcode": "86911", "addr:street": "Klosterhof", "amenity": "hospital", "healthcare": "hospital", "healthcare:speciality": "psychosomatik", "name": "Psychosomatische Klinik Kloster Dießen", "operator": "Psychosomatische Klinik Kloster Dießen GmbH & Co. KG", "website": "https://www.psychosomatik-diessen.de/"}}, {"name": "LMU Klinikum Campus Innenstadt", "latitude": 48.1315346, "longitude": 11.5607289, "source": "osm", "_tags": {"addr:city": "München", "addr:housenumber": "1", "addr:postcode": "80336", "addr:street": "Ziemssenstraße", "alt_name": "Portalklinik", "amenity": "hospital", "emergency": "yes", "healthcare": "hospital", "name": "LMU Klinikum Campus Innenstadt", "operator": "Ludwig-Maximilians-Universität", "operator:short": "LMU", "operator:type": "university", "operator:wikidata": "Q55044", "operator:wikipedia": "de:Ludwig-Maximilians-Universität München", "phone": "+49 89 44000"}}, {"name": "München Klinik Thalkirchner Straße", "latitude": 48.1289836, "longitude": 11.5642559, "source": "osm", "_tags": {"addr:city": "München", "addr:country": "DE", "addr:housenumber": "48", "addr:postcode": "80337", "addr:street": "Thalkirchner Straße", "amenity": "hospital", "barrier": "wall", "emergency": "no", "fax": "+49 89 51476403", "healthcare": "hospital", "healthcare:speciality": "dermatology;allergology", "name": "München Klinik Thalkirchner Straße", "operator": "Städtisches Klinikum München GmbH", "phone": "+49 89 1476011", "website": "https://www.muenchen-klinik.de/krankenhaus/thalkirchner-strasse/", "wheelchair": "limited", "wikidata": "Q1687174"}}, {"name": "HELIOS Klinikum München West", "latitude": 48.1443992, "longitude": 11.4541663, "source": "osm", "_tags": {"amenity": "hospital", "emergency": "yes", "healthcare": "hospital", "name": "HELIOS Klinikum München West", "operator": "Helios Kliniken", "operator:type": "private", "operator:wikidata": "Q1254151", "operator:wikipedia": "de:Helios Kliniken", "phone": "+49 89 8892 0", "website": "https://www.helios-gesundheit.de/standorte-angebote/kliniken/muenchen-west/", "wheelchair": "yes", "wikidata": "Q1774641"}}, {"name": "Klinikum Dritter Orden", "latitude": 48.1657409, "longitude": 11.5050996, "source": "osm", "_tags": {"addr:city": "München", "addr:country": "DE", "addr:housenumber": "44", "addr:postcode": "80638", "addr:street": "Menzinger Straße", "amenity": "hospital", "beds": "574", "email": "info@dritter-orden.de", "emergency": "yes", "healthcare": "hospital", "name": "Klinikum Dritter Orden", "official_name": "Klinikum Dritter Orden München-Nymphenburg", "operator": "Ordenskliniken München-Passau gGmbH", "phone": "+49 89 1795-0", "toilets:wheelchair": "yes", "website": "https://www.dritter-orden.de/", "wheelchair": "yes", "wikidata": "Q1774605"}}, {"name": "München Klinik Neuperlach", "latitude": 48.0944452, "longitude": 11.656037, "source": "osm", "_tags": {"addr:city": "München", "addr:country": "DE", "addr:housenumber": "51", "addr:postcode": "81737", "addr:street": "Oskar-Maria-Graf-Ring", "amenity": "hospital", "beds": "500", "check_date": "2024-05-05", "emergency": "yes", "healthcare": "hospital", "name": "München Klinik Neuperlach", "name:en": "Munich Clinic Neuperlach", "operator": "München Klinik gGmbH", "phone": "+49 89 6794-0", "website": "https://www.muenchen-klinik.de/krankenhaus/neuperlach/", "wheelchair": "yes", "wikidata": "Q1774646"}}, {"name": "München Klinik Harlaching", "latitude": 48.0856519, "longitude": 11.5574673, "source": "osm", "_tags": {"addr:city": "München", "addr:country": "DE", "addr:housenumber": "2", "addr:postcode": "81545", "addr:street": "Sanatoriumsplatz", "amenity": "hospital", "beds": "673", "contact:email": "info.kh@muenchen-klinik.de", "contact:facebook": "https://www.facebook.com/muenchenklinik", "contact:fax": "+49 89 6210 2442", "contact:instagram": "https://www.instagram.com/muenchenklinik", "contact:phone": "+49 89 6210 0", "contact:twitter": "https://twitter.com/muenchenklinik", "contact:website": "https://www.muenchen-klinik.de/krankenhaus/harlaching/", "contact:youtube": "https://www.youtube.com/user/KlinikumMuenchen", "emergency": "yes", "healthcare": "hospital", "healthcare:speciality": "gastroenterology;cardiology;gynaecology;nephrology;pulmonology;paediatrics;surgery;oncology;physiatry;orthopaedics;neurology;psychiatry;emergency;trauma", "name": "München Klinik Harlaching", "name:en": "Munich Clinic Harlaching", "old_name": "Städtisches Klinikum Harlaching", "operator": "München Klinik gGmbH", "short_name": "MüK", "start_date": "1896-09-15", "wheelchair": "yes", "wikidata": "Q1774619", "wikipedia": "de:München Klinik Harlaching"}}, {"name": "Klinikum Großhadern", "latitude": 48.1105025, "longitude": 11.4694572, "source": "osm", "_tags": {"addr:city": "München", "addr:country": "DE", "addr:housenumber": "15", "addr:postcode": "81377", "addr:street": "Marchioninistraße", "alt_name": "Klinikum München Großhadern", "amenity": "hospital", "beds": "1964", "email": "info@klinikum.uni-muenchen.de", "emergency": "yes", "healthcare": "hospital", "name": "Klinikum Großhadern", "name:en": "LMU Klinikum – Campus Großhadern", "official_name": "Klinikum der Universität München - Campus Großhadern", "phone": "+49-89-4400-0", "toilets:wheelchair": "yes", "website": "https://www.lmu-klinikum.de/das-klinikum/standorte/zukunft-grosshadern/c57c2b5efc57b0df", "wheelchair": "yes", "wikidata": "Q598814", "wikipedia": "en:Klinikum Großhadern"}}, {"name": "Klinikum rechts der Isar", "latitude": 48.1378637, "longitude": 11.6015429, "source": "osm", "_tags": {"addr:city": "München", "addr:country": "DE", "addr:housenumber": "22", "addr:street": "Ismaninger Straße", "amenity": "hospital", "beds": "1161", "emergency": "yes", "healthcare": "hospital", "name": "Klinikum rechts der Isar", "name:en": "Rechts der Isar Hospital", "name:zh": "议会大厦", "operator": "Technische Universität München", "phone": "+49 89 4140-0", "start_date": "1834", "toilets:wheelchair": "yes", "website": "https://www.mri.tum.de/", "wheelchair": "yes", "wikidata": "Q883813", "wikipedia": "de:Klinikum rechts der Isar"}}, {"name": "Krankenhaus Friedberg", "latitude": 48.3564008, "longitude": 10.9863269, "source": "osm", "_tags": {"addr:city": "Friedberg", "addr:housenumber": "3", "addr:postcode": "86316", "addr:street": "Herrgottsruhstraße", "amenity": "hospital", "contact:city": "Friedberg", "contact:country": "DE", "contact:housenumber": "3", "contact:postcode": "86316", "contact:street": "Herrgottsruhstraße", "emergency": "yes", "fax": "+49 821 6004 109", "healthcare": "hospital", "name": "Krankenhaus Friedberg", "phone": "+49 821 6004 0", "website": "https://www.klipa.de/", "wheelchair": "yes"}}, {"name": "kbo-Heckscher-Klinikum", "latitude": 48.1136834, "longitude": 11.5827978, "source": "osm", "_tags": {"addr:city": "München", "addr:housenumber": "28", "addr:postcode": "81539", "addr:street": "Deisenhofener Straße", "amenity": "hospital", "building": "yes", "emergency": "no", "fax": "+49 89 9999-1111", "healthcare": "hospital", "healthcare:speciality": "child_psychiatry", "name": "kbo-Heckscher-Klinikum", "operator": "Kliniken des Bezirks Oberbayern - kbo-Heckscher-Klinikum gGmbH", "operator:type": "public", "phone": "+49 89 9999-0", "website": "https://kbo-heckscher-klinikum.de/", "wheelchair": "yes"}}, {"name": "München Klinik Schwabing", "latitude": 48.1719273, "longitude": 11.5784397, "source": "osm", "_tags": {"addr:city": "München", "addr:housenumber": "1", "addr:postcode": "80804", "addr:street": "Kölner Platz", "amenity": "hospital", "area": "yes", "beds": "650", "emergency": "yes", "healthcare": "hospital", "healthcare:speciality": "gynaecology;paediatrics;paediatric_surgery;otolaryngology;cardiology;orthopaedics;neurosurgery;surgery;thoracic_surgery;endocrinology;physiatry", "name": "München Klinik Schwabing", "name:en": "Munich Clinic Schwabing", "operator": "München Klinik gGmbH", "website": "https://www.muenchen-klinik.de/krankenhaus/schwabing/", "wheelchair": "yes", "wikidata": "Q1170136", "wikipedia": "de:München Klinik Schwabing"}}, {"name": "Benedictus Krankenhaus Tutzing", "latitude": 47.9070289, "longitude": 11.2766051, "source": "osm", "_tags": {"addr:city": "Tutzing", "addr:country": "DE", "addr:housenumber": "5", "addr:postcode": "82327", "addr:street": "Bahnhofstraße", "amenity": "hospital", "building": "hospital", "building:levels": "4", "emergency": "yes", "healthcare": "hospital", "name": "Benedictus Krankenhaus Tutzing", "phone": "+498158230", "roof:levels": "1", "website": "https://www.krankenhaus-tutzing.de/", "wheelchair": "yes"}}, {"name": "Klinikum Garmisch-Partenkirchen", "latitude": 47.4833911, "longitude": 11.1279272, "source": "osm", "_tags": {"amenity": "hospital", "beds": "505", "emergency": "yes", "healthcare": "hospital", "name": "Klinikum Garmisch-Partenkirchen", "toilets:wheelchair": "yes", "wheelchair": "yes"}}, {"name": "Klinik Oberammergau - Zentrum für Rheumatologie, Orthopädie und Schmerztherapie", "latitude": 47.5912573, "longitude": 11.0757529, "source": "osm", "_tags": {"addr:city": "Oberammergau", "addr:country": "DE", "addr:housenumber": "40", "addr:postcode": "82487", "addr:street": "Hubertusstraße", "amenity": "hospital", "emergency": "no", "healthcare": "hospital", "name": "Klinik Oberammergau - Zentrum für Rheumatologie, Orthopädie und Schmerztherapie", "operator": "Waldburg-Zeil Kliniken GmbH & Co. KG", "phone": "+49 8822 9140", "website": "https://www.klinik-oberammergau.de/", "wheelchair": "yes"}}, {"name": "Gebäude 34: Sanitätszentrum Neubiberg", "latitude": 48.0822013, "longitude": 11.6406282, "source": "osm", "_tags": {"addr:city": "Neubiberg", "addr:country": "DE", "addr:housename": "Gebäude 34", "addr:housenumber": "134", "addr:postcode": "85579", "addr:street": "Werner-Heisenberg-Weg", "amenity": "hospital", "building": "yes", "healthcare": "hospital", "name": "Gebäude 34: Sanitätszentrum Neubiberg"}}, {"name": "Helios Klinik München Perlach", "latitude": 48.102096, "longitude": 11.6293096, "source": "osm", "_tags": {"addr:city": "München", "addr:housenumber": "44", "addr:postcode": "81737", "addr:street": "Schmidbauerstraße", "amenity": "hospital", "beds": "150", "email": "info.muenchen-perlach@helios-kliniken.de", "emergency": "yes", "fax": "+49 89 67802-449", "healthcare": "hospital", "healthcare:speciality": "internal;gastroenterology;geriatrics;surgery;trauma;anaesthetics;intensive;radiology", "name": "Helios Klinik München Perlach", "name:en": "Helios Hospital München Perlach", "operator": "Helios Kliniken GmbH", "operator:type": "private", "operator:wikidata": "Q1254151", "operator:wikipedia": "de:Helios Kliniken", "phone": "+49 89 67802-1", "toilets:wheelchair": "yes", "website": "https://www.helios-gesundheit.de/standorte-angebote/kliniken/muenchen-perlach/", "wheelchair": "yes"}}, {"name": "Würmtalklinik", "latitude": 48.1271027, "longitude": 11.4188713, "source": "osm", "_tags": {"amenity": "hospital", "healthcare": "hospital", "name": "Würmtalklinik", "operator": "Deutscher Orden", "website": "https://www.suchtklinik-muenchen.de/"}}, {"name": "Klinikum Seefeld", "latitude": 48.0341978, "longitude": 11.2134523, "source": "osm", "_tags": {"addr:city": "Seefeld", "addr:housenumber": "23", "addr:postcode": "82229", "addr:street": "Hauptstraße", "amenity": "hospital", "building": "hospital", "building:levels": "2", "check_date": "2025-06-17", "email": "info@klinikum-seefeld.de", "emergency": "yes", "healthcare": "hospital", "healthcare:speciality": "surgery;emergency", "name": "Klinikum Seefeld", "operator": "Klinik Seefeld GmbH", "phone": "+49 8152 795-0", "roof:levels": "1", "roof:shape": "gabled", "website": "https://www.klinikum-seefeld.de", "wheelchair": "yes"}}, {"name": "Fachklinik Bad Heilbrunn", "latitude": 47.7493784, "longitude": 11.4602813, "source": "osm", "_tags": {"addr:city": "Bad Heilbrunn", "addr:country": "DE", "addr:housenumber": "30", "addr:postcode": "83670", "addr:street": "Wörnerweg", "amenity": "hospital", "building": "yes", "contact:email": "info@fachklinik-bad-heilbrunn.de", "contact:phone": "+49 8046 180", "emergency": "no", "healthcare": "hospital", "healthcare:speciality": "nephrology;transplantationsmedizin;orthopaedics;schmerztherapie;neurology;diabetology", "name": "Fachklinik Bad Heilbrunn", "operator": "m&i Klinikgruppe Enzensberg", "operator:type": "private", "social_facility": "group_home", "url": "https://www.fachklinik-bad-heilbrunn.de/", "website": "https://www.fachklinik-bad-heilbrunn.de/", "wheelchair": "yes"}}, {"name": "Fachklinik Gaißach", "latitude": 47.7451665, "longitude": 11.5798641, "source": "osm", "_tags": {"alt_name": "Zentrum für Chronische Erkrankungen", "amenity": "hospital", "check_date": "2025-01-08", "email": "info@fachklinik-gaissach.de", "emergency": "no", "fax": "+49 8041 798-222", "name": "Fachklinik Gaißach", "operator": "Deutsche Rentenversicherung", "phone": "+49 8041 798-0", "website": "https://www.fachklinik-gaissach.de/"}}, {"name": "Augenklinik Herzog Carl Theodor", "latitude": 48.148444, "longitude": 11.5503804, "source": "osm", "_tags": {"addr:housenumber": "43", "addr:street": "Nymphenburger Straße", "amenity": "hospital", "building": "yes", "healthcare": "hospital", "healthcare:speciality": "ophthalmology", "name": "Augenklinik Herzog Carl Theodor", "name:en": "Eye Clinic Herzog Carl Theodor", "operator": "Stiftung Augenklinik Herzog Carl Theodor", "smoking": "no", "website": "https://www.augenklinik-muenchen.de/", "wheelchair": "yes", "wikidata": "Q510979"}}, {"name": "Klinik des Max-Planck-Instituts für Psychiatrie", "latitude": 48.1738768, "longitude": 11.5764439, "source": "osm", "_tags": {"addr:city": "München", "addr:country": "DE", "addr:housenumber": "10", "addr:postcode": "80804", "addr:street": "Kraepelinstraße", "amenity": "hospital", "building:part": "yes", "healthcare": "hospital", "healthcare:speciality": "physiatry", "name": "Klinik des Max-Planck-Instituts für Psychiatrie", "name:en": "Max Planck Institute of Psychiatry", "name:ru": "Институт психиатрии имени Макса Планки", "name:uk": "Інститут психіатрії імені Макса Планки", "source": "Bing"}}, {"name": "HNO-Klinik Bogenhausen Dr. Gaertner", "latitude": 48.1438322, "longitude": 11.6062594, "source": "osm", "_tags": {"amenity": "hospital", "beds": "20", "check_date": "2025-08-14", "check_date:opening_hours": "2024-06-30", "emergency": "no", "fax": "+49 89 998902-24", "healthcare": "hospital", "healthcare:speciality": "otolaryngology", "name": "HNO-Klinik Bogenhausen Dr. Gaertner", "name:en": "Otorhinolaryngology clinic Bogenhausen Dr. Gaertner", "opening_hours:signed": "no", "operator:type": "private", "phone": "+49 89 998902-0", "website": "https://gaertnerklinik.de/", "wikidata": "Q23930105"}}, {"name": "Dr. Lubos Klinik", "latitude": 48.14649, "longitude": 11.4576537, "source": "osm", "_tags": {"addr:city": "München", "addr:housenumber": "2-6", "addr:postcode": "81241", "addr:street": "Schmiedwegerl", "amenity": "hospital", "emergency": "no", "healthcare": "hospital", "healthcare:speciality": "gynaecology;surgery;anaesthetics", "name": "Dr. Lubos Klinik", "operator": "Dr. Lubos Kliniken Bogenhausen GmbH", "operator:type": "business", "website": "https://www.lubos-kliniken.de/pasing", "wheelchair": "limited", "wikidata": "Q101509176", "wikimedia_commons": "File:Dr. Lubos Kliniken Pasing Schmiedwegerl 6.jpg", "wikipedia": "de:Dr. Lubos Kliniken Pasing"}}, {"name": "Buchberg-Klinik Bad Tölz", "latitude": 47.7595999, "longitude": 11.5396202, "source": "osm", "_tags": {"addr:city": "Bad Tölz", "addr:country": "DE", "addr:housename": "Buchberg-Klinik Bad Tölz", "addr:housenumber": "20", "addr:postcode": "83646", "addr:street": "Wengleinstraße", "amenity": "hospital", "building": "yes", "check_date": "2024-04-02", "fax": "+49 8041 803–793", "healthcare": "hospital", "healthcare:speciality": "physiatry", "name": "Buchberg-Klinik Bad Tölz", "note": "Fachklinik für Physikalische Medizin und Medizinische Rehabilitation", "phone": "+49 8041 803–0", "website": "http://www.buchberg-klinik.de", "wheelchair": "no"}}, {"name": "Krankenhaus Martha-Maria", "latitude": 48.0854315, "longitude": 11.5348056, "source": "osm", "_tags": {"addr:city": "München", "addr:housenumber": "109", "addr:postcode": "81479", "addr:street": "Wolfratshauser Straße", "amenity": "hospital", "contact:email": "krankenhaus.muenchen@martha-maria.de", "contact:fax": "+49897276203", "contact:phone": "+498972760", "contact:website": "https://kh-muenchen.martha-maria.de/", "emergency": "yes", "healthcare": "hospital", "name": "Krankenhaus Martha-Maria", "operator": "Diakoniewerk Martha-Maria Krankenhaus gGmbH", "wikidata": "Q1786538", "wikipedia": "de:Krankenhaus Martha Maria (München)"}}, {"name": "TUM Klinikum Deutsches Herzzentrum", "latitude": 48.1530641, "longitude": 11.5497845, "source": "osm", "_tags": {"addr:city": "München", "addr:country": "DE", "addr:housenumber": "36", "addr:postcode": "80636", "addr:street": "Lazarettstraße", "amenity": "hospital", "check_date": "2025-02-19", "email": "dhm@dhm.mhn.de", "emergency": "yes", "healthcare": "hospital", "healthcare:speciality": "cardiology", "name": "TUM Klinikum Deutsches Herzzentrum", "name:en": "TUM University Hospital German Heart Center", "phone": "+49 89 1218-0", "website": "https://www.deutsches-herzzentrum-muenchen.de/", "wheelchair": "yes", "wikidata": "Q1205693", "wikipedia": "de:Deutsches Herzzentrum München"}}, {"name": "Kreisklinik Wolfratshausen", "latitude": 47.9118247, "longitude": 11.4284621, "source": "osm", "_tags": {"addr:city": "Wolfratshausen", "addr:country": "DE", "addr:housenumber": "5", "addr:postcode": "82515", "addr:street": "Moosbauerweg", "amenity": "hospital", "building": "hospital", "emergency": "hospital", "healthcare": "hospital", "name": "Kreisklinik Wolfratshausen", "phone": "+49 8171 75-0", "website": "https://www.kreisklinik-wolfratshausen.de/", "wheelchair": "yes"}}, {"name": "Klinikum Freising", "latitude": 48.4049373, "longitude": 11.7450317, "source": "osm", "_tags": {"addr:city": "Freising", "addr:country": "DE", "addr:housenumber": "18", "addr:postcode": "85354", "addr:street": "Alois-Steinecker-Straße", "amenity": "hospital", "beds": "353", "check_date": "2023-10-29", "email": "info@klinikum-freising.de", "emergency": "yes", "fax": "+49 8161 24-3099", "healthcare": "hospital", "name": "Klinikum Freising", "operator": "Technische Universität München", "operator:type": "university", "owner": "Klinikum Freising GmbH", "phone": "+49 8161 24-3000", "website": "https://www.klinikum-freising.de/", "wheelchair": "yes", "wikidata": "Q1774613", "wikipedia": "de:Klinikum Freising"}}, {"name": "Krankenhaus der Barmherzigen Brüder", "latitude": 48.1565428, "longitude": 11.5094942, "source": "osm", "_tags": {"addr:city": "München", "addr:country": "DE", "addr:housenumber": "93", "addr:postcode": "80639", "addr:street": "Romanstraße", "amenity": "hospital", "beds": "405", "check_date": "2024-03-27", "email": "info@barmherzige-muenchen.de", "emergency": "yes", "healthcare": "hospital", "name": "Krankenhaus der Barmherzigen Brüder", "name:ar": "مستشفى دكتور بلتس", "name:de": "Krankenhaus der Barmherzigen Brüder", "operator": "Barmherzige Brüder gemeinnützige Krankenhaus GmbH", "phone": "+49 89 1797-0", "toilets:wheelchair": "yes", "website": "https://www.barmherzige-muenchen.de/", "wheelchair": "yes", "wikidata": "Q1703255", "wikipedia": "de:Krankenhaus Barmherzige Brüder (München)"}}, {"name": "kbo-Isar-Amper-Klinikum München-Ost", "latitude": 48.1172482, "longitude": 11.7491398, "source": "osm", "_tags": {"alt_name": "Isar-Amper-Klinikum München-Ost", "amenity": "hospital", "beds": "790", "emergency": "no", "healthcare": "hospital", "healthcare:speciality": "psychiatry", "name": "kbo-Isar-Amper-Klinikum München-Ost", "operator": "kbo-Isar-Amper-Klinikum gemeinnützige GmbH", "short_name": "kbo IAK", "website": "https://kbo-iak.de/", "wheelchair": "limited"}}, {"name": "Berufsgenossenschaftliche Unfallklinik Murnau", "latitude": 47.671591, "longitude": 11.217932, "source": "osm", "_tags": {"addr:city": "Murnau am Staffelsee", "addr:country": "DE", "addr:housenumber": "8", "addr:postcode": "82418", "addr:street": "Professor-Küntscher-Straße", "amenity": "hospital", "building": "yes", "emergency": "yes", "healthcare": "hospital", "name": "Berufsgenossenschaftliche Unfallklinik Murnau", "phone": "+49 (0)8841 48 -0", "source": "Survey", "toilets:wheelchair": "yes", "website": "https://www.bgu-murnau.de/de-DE/index.php", "wheelchair": "yes", "wikidata": "Q828948"}}, {"name": "Klinikum Landkreis Erding", "latitude": 48.2947103, "longitude": 11.8962424, "source": "osm", "_tags": {"amenity": "hospital", "emergency": "yes", "fax": "+49 8122 591803", "health_facility:type": "hospital", "healthcare": "hospital", "medical_system:western": "yes", "name": "Klinikum Landkreis Erding", "operator": "Landkreis Erding", "operator:type": "government", "phone": "+49 8122 590", "toilets:wheelchair": "yes", "website": "https://www.klinikum-erding.de/", "wheelchair": "yes", "wikidata": "Q15117108", "wikipedia": "de:Klinikum Erding"}}, {"name": "Rehazentrum Isarwinkel", "latitude": 47.7570609, "longitude": 11.5622232, "source": "osm", "_tags": {"amenity": "hospital", "building": "yes", "check_date": "2024-10-09", "emergency": "no", "healthcare": "hospital", "name": "Rehazentrum Isarwinkel"}}, {"name": "Rotkreuzklinikum München", "latitude": 48.1539653, "longitude": 11.5318274, "source": "osm", "_tags": {"addr:city": "München", "addr:country": "DE", "addr:housenumber": "7", "addr:postcode": "80639", "addr:street": "Winthirstraße", "amenity": "hospital", "check_date": "2024-12-01", "email": "rotkreuzklinikum-muenchen@swmbrk.de", "emergency": "yes", "healthcare": "hospital", "name": "Rotkreuzklinikum München", "phone": "+49 89 13030", "website": "https://www.rotkreuzklinikum-muenchen.de/", "wheelchair": "yes", "wikidata": "Q1805959"}}, {"name": "Psychosomatische Klinik Windach", "latitude": 48.0726552, "longitude": 11.0484962, "source": "osm", "_tags": {"amenity": "hospital", "healthcare": "hospital", "healthcare:speciality": "psychiatry", "name": "Psychosomatische Klinik Windach", "website": "https://www.klinik-windach.de/"}}, {"name": "Danuvius Klinik", "latitude": 48.4035626, "longitude": 11.4756217, "source": "osm", "_tags": {"amenity": "hospital", "healthcare": "hospital", "name": "Danuvius Klinik", "note": "geplant: ein Demenzpflegeheim; Erdarbeiten ab Dez. 2014; geplante Fertigstellung: Frühjahr 2016", "source": "Survey"}}, {"name": "Kriegsblindenkursanatorium", "latitude": 48.0052213, "longitude": 11.3204521, "source": "osm", "_tags": {"addr:city": "Starnberg", "addr:country": "DE", "addr:housenumber": "6", "addr:postcode": "82319", "addr:street": "Riedeselstraße", "amenity": "hospital", "healthcare": "hospital", "name": "Kriegsblindenkursanatorium", "operator": "Rummelsberger Stift", "website": "https://www.kurkliniken.de/kriegsblinden-kursanatorium-soecking-3235.html"}}, {"name": "Schön Klinik München Harlaching", "latitude": 48.1040451, "longitude": 11.5670694, "source": "osm", "_tags": {"addr:city": "München", "addr:housenumber": "51", "addr:postcode": "81547", "addr:street": "Harlachinger Straße", "amenity": "hospital", "beds": "212", "building": "hospital", "building:levels": "5", "description": "Orthopädische Klinik", "emergency": "yes", "fax": "+49 89 6211 1111", "healthcare": "hospital", "healthcare:speciality": "orthopaedics", "name": "Schön Klinik München Harlaching", "operator": "Schön Klinik", "operator:type": "private", "operator:wikidata": "Q2258661", "operator:wikipedia": "de:Schön Klinik", "phone": "+49-89-62110", "start_date": "1913", "website": "https://www.schoen-klinik.de/muenchen-harlaching", "wheelchair": "yes"}}, {"name": "Kbo Isar-Amper-Klinikum Fürstenfeldbruck für Psychiatrie und Psychotherapie", "latitude": 48.1822975, "longitude": 11.2613662, "source": "osm", "_tags": {"addr:city": "Fürstenfeldbruck", "addr:country": "DE", "addr:housenumber": "16-22", "addr:postcode": "82256", "addr:street": "Stadelbergerstraße", "amenity": "hospital", "healthcare": "hospital", "name": "Kbo Isar-Amper-Klinikum Fürstenfeldbruck für Psychiatrie und Psychotherapie", "phone": "+49 8141 53470"}}, {"name": "OPAL Palliativteam", "latitude": 47.7595358, "longitude": 11.5860231, "source": "osm", "_tags": {"addr:city": "Bad Tölz", "addr:housenumber": "1b", "addr:postcode": "83646", "addr:street": "Albert-Schäffenacker-Straße", "amenity": "hospital", "building": "yes", "healthcare": "hospital", "name": "OPAL Palliativteam", "operator": "OPAL Oberland Hospiz- und Palliativversorgung GmbH", "phone": "+49 8041 79 621 0", "website": "http://www.sapv-im-oberland.de"}}, {"name": "Krankenhaus Weilheim", "latitude": 47.8369903, "longitude": 11.1442834, "source": "osm", "_tags": {"amenity": "hospital", "building": "hospital", "building:levels": "4", "check_date": "2024-05-21", "emergency": "no", "healthcare": "hospital", "name": "Krankenhaus Weilheim"}}, {"name": "Schön Klinik München Schwabing", "latitude": 48.1717085, "longitude": 11.5849581, "source": "osm", "_tags": {"addr:city": "München", "addr:country": "DE", "addr:housenumber": "4", "addr:postcode": "80804", "addr:street": "Parzivalplatz", "alt_name": "Neurologisches Krankenhaus München", "amenity": "hospital", "beds": "157", "check_date": "2024-05-19", "contact:email": "info@schoen-kliniken.de", "contact:phone": "+49 89 360 870", "contact:website": "https://www.schoen-klinik.de/muenchen-schwabing", "contact:website:en": "https://www.schoen-clinic.com/", "emergency": "no", "healthcare": "hospital", "healthcare:speciality": "rehabilitation;neurology", "name": "Schön Klinik München Schwabing", "name:en": "Schoen Clinic München Schwabing", "operator": "Schön Klinik SE", "operator:type": "private", "operator:wikidata": "Q2258661", "operator:wikipedia": "de:Schön Klinik", "start_date": "1925", "wheelchair": "yes"}}, {"name": "Urologische Klinik München-Planegg", "latitude": 48.1087824, "longitude": 11.4152009, "source": "osm", "_tags": {"addr:city": "Planegg", "addr:country": "DE", "addr:housenumber": "32", "addr:postcode": "82152", "addr:street": "Germeringer Straße", "amenity": "hospital", "check_date": "2024-12-24", "email": "info@ukmp.de", "healthcare": "hospital", "healthcare:speciality": "urology", "name": "Urologische Klinik München-Planegg", "phone": "+49 89 85693-0", "website": "https://www.ukmp.de/", "wheelchair": "limited", "wheelchair:description": "kein Behinderten-WC;lange Zugangsrampe innen;direkt vor dem Gebäude parken, sonst steile Straßenabfahrt zu bewältigen"}}, {"name": "Klinik Höhenried", "latitude": 47.878777, "longitude": 11.2807735, "source": "osm", "_tags": {"addr:city": "Bernried am Starnberger See", "addr:postcode": "82347", "amenity": "hospital", "emergency": "no", "healthcare": "hospital", "name": "Klinik Höhenried", "operator": "Deutschen Rentenversicherung Bayern Süd", "phone": "+49 8158 24-0", "website": "https://www.hoehenried.de/"}}, {"name": "Klinik Augustinum", "latitude": 48.1228138, "longitude": 11.4892654, "source": "osm", "_tags": {"amenity": "hospital", "beds": "140", "contact:phone": "+49 89 70970", "contact:website": "https://augustinum.de/klinik/", "description": "Fachklinik für Innere Medizin. Lehrkrankenhaus der Ludwig-Maximilians-Universität München. Die Schwerpunkte sind Kardiologie, Angiologie, Gastroenterologie, Pneumologie, Nieren-, Hochdruck- und Stoffwechselerkrankungen.", "healthcare": "hospital", "healthcare:speciality": "cardiology", "name": "Klinik Augustinum", "wikidata": "Q27478876"}}, {"name": "Rotkreuzklinikum München Frauenklinik", "latitude": 48.1613536, "longitude": 11.5317567, "source": "osm", "_tags": {"addr:city": "München", "addr:country": "DE", "addr:housenumber": "3", "addr:postcode": "80637", "addr:street": "Taxisstraße", "amenity": "hospital", "email": "rotkreuzklinikum-muenchen@swmbrk.de", "healthcare": "hospital", "name": "Rotkreuzklinikum München Frauenklinik", "phone": "+49 89 15706-0", "website": "https://rotkreuzklinikum-muenchen.de/"}}, {"name": "Diakoniewerk München-Maxvorstadt", "latitude": 48.1513508, "longitude": 11.569379, "source": "osm", "_tags": {"addr:city": "München", "addr:country": "DE", "addr:housenumber": "22", "addr:postcode": "80799", "addr:street": "Heßstraße", "amenity": "hospital", "email": "service@diakoniewerk-muenchen.de", "healthcare": "hospital", "name": "Diakoniewerk München-Maxvorstadt", "official_name": "Diakoniewerk München-Maxvorstadt Körperschaft des öffentlichen Rechts", "phone": "+49 89 21220", "website": "https://diakoniewerk-muenchen.de/", "wheelchair": "yes"}}, {"name": "Benedictus Krankenhaus Feldafing", "latitude": 47.9377302, "longitude": 11.2940379, "source": "osm", "_tags": {"amenity": "hospital", "email": "info@klinik-feldafing.de", "emergency": "no", "healthcare": "rehabilitation", "name": "Benedictus Krankenhaus Feldafing", "operator": "Artemed SE", "operator:type": "private", "phone": "+49 8157 28-0", "website": "https://www.klinik-feldafing.de"}}, {"name": "Internistisches Klinikum München Süd", "latitude": 48.1023929, "longitude": 11.5477936, "source": "osm", "_tags": {"addr:city": "München", "addr:country": "DE", "addr:housenumber": "36", "addr:postcode": "81379", "addr:street": "Am Isarkanal", "alt_name": "Herzzentrum an der Isar", "amenity": "hospital", "beds": "115", "healthcare": "hospital", "healthcare:speciality": "internal;cardiology", "name": "Internistisches Klinikum München Süd", "old_name": "Internistische Klinik Dr. Müller", "operator": "Internistisches Klinikum München Süd GmbH", "phone": "+49 89 724000", "website": "https://stadt.muenchen.de/service/info/internistisches-klinikum-munchen-sud/1067506/", "wheelchair": "limited"}}, {"name": "Artemed Klinikum München Süd", "latitude": 48.1029182, "longitude": 11.5484212, "source": "osm", "_tags": {"amenity": "hospital", "beds": "155", "check_date": "2025-06-06", "email": "info-akms@artemed.de", "emergency": "yes", "fax": "+49 89 72440-400", "healthcare": "hospital", "healthcare:speciality": "anaesthetics;intensive;orthopaedics;trauma;emergency;radiology;surgery;vascular_surgery;cardiac_surgery;gastroenterology", "name": "Artemed Klinikum München Süd", "old_name": "Chirurgisches Klinikum München Süd", "operator": "Artemed SE", "phone": "+49 89 724400", "website": "https://www.artemed-muenchen-sued.de/", "wheelchair": "yes"}}, {"name": "Asklepios Stadtklinik", "latitude": 47.7565875, "longitude": 11.550899, "source": "osm", "_tags": {"amenity": "hospital", "email": "badtoelz@asklepios.com", "emergency": "yes", "fax": "+49 8041 507-1889", "healthcare": "hospital", "name": "Asklepios Stadtklinik", "operator": "Asklepios Kliniken", "operator:type": "private", "operator:wikidata": "Q732068", "operator:wikipedia": "de:Asklepios Kliniken", "phone": "+49 8041 507-01", "website": "https://www.asklepios.com/badtoelz"}}, {"name": "München Klinik Bogenhausen", "latitude": 48.1551458, "longitude": 11.6247718, "source": "osm", "_tags": {"addr:city": "München", "addr:country": "DE", "addr:housenumber": "77", "addr:postcode": "81925", "addr:street": "Englschalkinger Straße", "amenity": "hospital", "email": "kmb@kh-bogenhausen.de", "healthcare": "hospital", "name": "München Klinik Bogenhausen", "operator": "München Klinik gGmbH", "operator:type": "public", "phone": "+49 89 9270-0", "website": "https://www.muenchen-klinik.de/krankenhaus/bogenhausen/", "wikidata": "Q1774595"}}, {"name": "", "latitude": 47.6709402, "longitude": 11.2174927, "source": "osm", "_tags": {"amenity": "hospital", "healthcare": "hospital"}}, {"name": "Helios Amper-Klinikum Dachau", "latitude": 48.2653705, "longitude": 11.4283747, "source": "osm", "_tags": {"addr:city": "Dachau", "addr:country": "DE", "addr:housenumber": "15", "addr:postcode": "85221", "addr:street": "Krankenhausstraße", "alt_name": "Amper-Klinikum", "amenity": "hospital", "brand": "Helios", "capacity": "435", "description": "Akademisches Lehrkrankenhaus der Ludwig-Maximilians-Universität München", "fax": "+49 8131 76-247", "healthcare": "hospital", "healthcare:speciality": "anaesthetics;cardiology;emergency;gastroenterology;geriatrics;gynaecology;internal;neurology;oncology;orthopaedics;otolaryngology;palliative;pulmonology;radiology;surgery;urology", "name": "Helios Amper-Klinikum Dachau", "operator": "Helios Kliniken", "operator:wikidata": "Q1254151", "phone": "+49 8131 76-0", "website": "https://www.helios-gesundheit.de/standorte-angebote/kliniken/dachau/", "wheelchair": "yes"}}, {"name": "Klinik Menterschwaige", "latitude": 48.0798625, "longitude": 11.5567753, "source": "osm", "_tags": {"addr:city": "München", "addr:country": "DE", "addr:housenumber": "203", "addr:postcode": "81545", "addr:street": "Geiselgasteigstraße", "amenity": "hospital", "beds": "62", "building": "hospital", "description": "Fachklinik für Psychiatrie, Psychotherapie und Psychoanalyse", "email": "info@klinik-menterschwaige.de", "fax": "+49 89 642723 95", "healthcare": "hospital", "healthcare:speciality": "psychiatry", "name": "Klinik Menterschwaige", "opening_date": "1979-04-01", "operator": "Klinik für Dynamische Psychiatrie München GmbH", "operator:type": "private", "phone": "+49 89 642723 0", "visiting_hours": "Mo-Fr 16:30-20:00; Sa-Su 0:00-20:00", "website": "https://www.klinik-menterschwaige.de/"}}, {"name": "Ohlstadtklinik", "latitude": 47.6318024, "longitude": 11.2317284, "source": "osm", "_tags": {"addr:city": "Ohlstadt", "addr:country": "DE", "addr:housenumber": "5", "addr:postcode": "82441", "addr:street": "Boschetstraße", "amenity": "hospital", "building": "hospital", "building:levels": "3", "email": "service@ohlstadtklinik.de", "healthcare": "hospital", "name": "Ohlstadtklinik", "operator": "Deutsche Rentenversicherung Nordbayern", "phone": "+49-8841-601-0", "roof:levels": "0", "roof:shape": "gabled", "website": "https://www.ohlstadtklinik.de/", "wheelchair": "yes"}}, {"name": "Klinikum Penzberg", "latitude": 47.7545897, "longitude": 11.3756617, "source": "osm", "_tags": {"addr:city": "Penzberg", "addr:country": "DE", "addr:housenumber": "7", "addr:postcode": "82377", "addr:street": "Am Schloßbichl", "amenity": "hospital", "emergency": "yes", "healthcare": "hospital", "name": "Klinikum Penzberg", "website": "https://www.klinikum-penzberg.de/", "wheelchair": "yes"}}, {"name": "Klinik Indersdorf", "latitude": 48.355629, "longitude": 11.3898606, "source": "osm", "_tags": {"amenity": "hospital", "email": "info@amperkliniken.de", "emergency": "yes", "healthcare": "hospital", "healthcare:speciality": "geriatrics;emergency;palliative;internal;ambulant;rehabilitation", "name": "Klinik Indersdorf", "operator": "Helios Kliniken", "operator:type": "private", "operator:wikidata": "Q1254151", "phone": "+49 8136 939-0", "website": "http://www.unifrauenklinik-kiel.de/Frauen-Kinderklinik-Dachau.html", "wheelchair": "yes"}}, {"name": "Klinikum Fürstenfeldbruck", "latitude": 48.1809057, "longitude": 11.2593141, "source": "osm", "_tags": {"addr:city": "Fürstenfeldbruck", "addr:country": "DE", "addr:housenumber": "33", "addr:postcode": "82256", "addr:street": "Dachauer Straße", "amenity": "hospital", "email": "info@klinikum-ffb.de", "emergency": "yes", "healthcare": "hospital", "name": "Klinikum Fürstenfeldbruck", "phone": "+49 8141 99 0", "wikidata": "Q1267398"}}, {"name": "Artemed Fachklinik München", "latitude": 48.1303175, "longitude": 11.5548266, "source": "osm", "_tags": {"addr:city": "München", "addr:country": "DE", "addr:housenumber": "14a-16", "addr:postcode": "80336", "addr:street": "Mozartstraße", "amenity": "hospital", "contact:email": "info-muc@artemed.de", "contact:fax": "+49 89 51409167", "contact:phone": "+49 89 514090", "contact:website": "https://www.artemedmuenchen.de/", "healthcare": "hospital", "healthcare:speciality": "phlebology", "name": "Artemed Fachklinik München", "operator": "Artemed-Fachklinik München GmbH & Co. KG"}}, {"name": "Krankenhaus für Naturheilweisen", "latitude": 48.0850004, "longitude": 11.5564806, "source": "osm", "_tags": {"addr:city": "München", "addr:country": "DE", "addr:housenumber": "65", "addr:street": "Seybothstraße", "amenity": "hospital", "emergency": "no", "healthcare": "hospital", "name": "Krankenhaus für Naturheilweisen", "website": "https://www.krankenhaus-naturheilweisen.de/"}}, {"name": "Krankenhaus Neuwittelsbach", "latitude": 48.1569669, "longitude": 11.525449, "source": "osm", "_tags": {"amenity": "hospital", "healthcare": "hospital", "healthcare:speciality": "internal;rheumatology", "name": "Krankenhaus Neuwittelsbach", "name:en": "Hospital Neuwittelsbach", "opening_hours": "Mo-Fr 07:30-16:00", "operator": "Barmherzige Schwestern vom heiligen Vinzenz von Paul", "phone": "+49 89 1304 0", "website": "https://www.krankenhaus-neuwittelsbach.de/", "wheelchair": "yes", "wikidata": "Q1786541", "wikipedia": "de:Krankenhaus Neuwittelsbach"}}, {"name": "Paracelsus Klinik München", "latitude": 48.1553013, "longitude": 11.6312626, "source": "osm", "_tags": {"amenity": "hospital", "email": "muenchen@pk-mx.de", "emergency": "no", "fax": "+49 89 917756", "healthcare": "hospital", "healthcare:speciality": "otolaryngology;surgery;maxillofacial_surgery", "name": "Paracelsus Klinik München", "operator": "Paracelsus-Kliniken Deutschland GmbH & Co. KGaA", "operator:type": "private", "operator:wikidata": "Q2051237", "phone": "+49 89 92005-0", "wikidata": "Q64554351"}}, {"name": "Dr. Lubos Kliniken Bogenhausen", "latitude": 48.1485542, "longitude": 11.6145874, "source": "osm", "_tags": {"amenity": "hospital", "check_date": "2024-05-17", "emergency": "yes", "fax": "+49 89 92794 1501", "healthcare": "hospital", "healthcare:speciality": "surgery", "name": "Dr. Lubos Kliniken Bogenhausen", "name:en": "Dr. Lubos Hospital Munich - Bogenhausen", "operator": "Dr. Lubos Kliniken Bogenhausen GmbH", "operator:type": "private", "phone": "+49 89 92794 0", "website": "https://www.lubos-kliniken.de/bogenhausen/", "wheelchair": "yes"}}, {"name": "Josephinum", "latitude": 48.1455229, "longitude": 11.581378, "source": "osm", "_tags": {"amenity": "hospital", "beds": "70", "email": "info@josephinum.de", "healthcare": "hospital", "healthcare:speciality": "surgery;orthopaedics;internal;otolaryngology;anaesthetics", "name": "Josephinum", "opening_hours:visitors": "14:00-18:00", "operator": "Klinik Josephinum gemeinnützige AG", "operator:type": "private_non_profit", "phone": "+49 89 23688-0", "website": "https://www.josephinum.de", "wikidata": "Q18018035"}}, {"name": "Deutsches Zentrum für Kinder- und Jugendrheumatologie", "latitude": 47.4871299, "longitude": 11.1026021, "source": "osm", "_tags": {"addr:city": "Garmisch-Partenkirchen", "addr:country": "DE", "addr:housenumber": "24", "addr:postcode": "82467", "addr:street": "Gehfeldstraße", "amenity": "hospital", "healthcare": "hospital", "name": "Deutsches Zentrum für Kinder- und Jugendrheumatologie", "phone": "+49 8821 7010", "website": "https://www.rheuma-kinderklinik.de/", "wheelchair": "yes", "wikidata": "Q820562", "wikipedia": "de:Deutsches Zentrum für Kinder- und Jugendrheumatologie"}}, {"name": "Klinik und Poliklinik für Dermatologie und Allergologie am Biederstein, Technische Universität München", "latitude": 48.164227, "longitude": 11.5928253, "source": "osm", "_tags": {"addr:city": "München", "addr:country": "DE", "addr:housenumber": "29", "addr:postcode": "80802", "addr:street": "Biedersteiner Straße", "amenity": "hospital", "healthcare": "hospital", "healthcare:speciality": "dermatology", "name": "Klinik und Poliklinik für Dermatologie und Allergologie am Biederstein, Technische Universität München", "operator": "Klinikum der Technischen Universität München (TUM Klinikum)", "short_name": "Universitäts-Hautklinik", "website": "https://derma-allergie.med.tum.de/"}}, {"name": "StOSanZentrum", "latitude": 48.2104103, "longitude": 11.5824233, "source": "osm", "_tags": {"amenity": "hospital", "building": "yes", "healthcare": "hospital", "name": "StOSanZentrum", "type": "multipolygon"}}, {"name": "Klinik Hochried", "latitude": 47.6753231, "longitude": 11.1799743, "source": "osm", "_tags": {"amenity": "hospital", "healthcare": "hospital", "healthcare:speciality": "psychiatry", "name": "Klinik Hochried", "operator": "Katholische Jugendfürsorge der Diözese Augsburg e.V.", "type": "multipolygon", "website": "https://www.klinikhochried.de/de/startseite.html"}}, {"name": "Krankenhaus Agatharied", "latitude": 47.7677815, "longitude": 11.8271574, "source": "osm", "_tags": {"addr:city": "Hausham", "addr:country": "DE", "addr:suburb": "Agatharied", "amenity": "hospital", "building": "yes", "email": "pr@khagatharied.de", "emergency": "yes", "fax": "+49 8026 3934700", "name": "Krankenhaus Agatharied", "operator": "Krankenhaus Agatharied GmbH", "phone": "+49 8026 3930", "type": "multipolygon", "website": "https://www.khagatharied.de/", "wheelchair": "yes"}}, {"name": "Klinikum der Universität München", "latitude": 48.1105025, "longitude": 11.4694572, "source": "osm", "_tags": {"amenity": "hospital", "name": "Klinikum der Universität München", "type": "site", "wikidata": "Q55616095", "wikipedia": "en:LMU Klinikum"}}, {"name": "Asklepios-Klinik", "latitude": 48.0662673, "longitude": 11.3525188, "source": "osm", "_tags": {"addr:city": "Gauting", "addr:housenumber": "2", "addr:postcode": "82131", "addr:street": "Robert-Koch-Allee", "amenity": "hospital", "building": "hospital", "building:levels": "3", "email": "gauting@asklepios.com", "healthcare": "hospital", "healthcare:speciality": "pulmonology;thoracic_surgery", "name": "Asklepios-Klinik", "phone": "+49 89 85791-0", "type": "multipolygon", "website": "https://www.asklepios.com/", "wheelchair": "yes"}}, {"name": "Kreiskrankenhaus Starnberg", "latitude": 48.0067389, "longitude": 11.3352883, "source": "osm", "_tags": {"addr:city": "Starnberg", "addr:country": "DE", "addr:housenumber": "1", "addr:postcode": "82319", "addr:street": "Oßwaldstraße", "amenity": "hospital", "building": "yes", "email": "info@klinikum-starnberg.de", "healthcare": "hospital", "name": "Kreiskrankenhaus Starnberg", "name:hr": "Bolnica Starnberg", "phone": "+49 8151 18-0", "toilets:wheelchair": "yes", "type": "multipolygon", "website": "https://www.klinikum-starnberg.de/", "wheelchair": "yes", "wikidata": "Q50039001"}}, {"name": "Sana Klinik München", "latitude": 48.1039026, "longitude": 11.539702, "source": "osm", "_tags": {"addr:city": "München", "addr:country": "DE", "addr:housenumber": "3", "addr:postcode": "81369", "addr:street": "Steinerstraße", "amenity": "hospital", "capacity": "200", "check_date": "2025-08-30", "email": "info-skm@sana.de", "emergency": "yes", "healthcare": "hospital", "healthcare:speciality": "surgery", "name": "Sana Klinik München", "operator": "Sana Kliniken AG", "phone": "+49 89 72403-0", "type": "multipolygon", "website": "https://www.sana.de/muenchen", "wheelchair": "yes"}}]