[{"name": "Kreiskrankenhaus Rotthalmünster", "latitude": 48.3543489, "longitude": 13.2020002, "source": "osm", "_tags": {"addr:city": "Rotthalmünster", "addr:country": "DE", "addr:housenumber": "35", "addr:postcode": "94094", "addr:street": "Simbacher Straße", "amenity": "hospital", "contact:facebook": "https://fb.com/100063948463453", "emergency": "no", "name": "Kreiskrankenhaus Rotthalmünster", "wheelchair": "yes"}}, {"name": "MVZ", "latitude": 47.629768, "longitude": 13.000686, "source": "osm", "_tags": {"addr:country": "DE", "addr:housenumber": "6", "addr:postcode": "83471", "addr:street": "Franziskanerplatz", "amenity": "hospital", "contact:phone": "+49 8652 2925", "emergency": "no", "healthcare": "hospital", "internet_access": "wlan", "name": "MVZ", "official_name": "MVZ Berchtesgaden GmbH", "opening_hours": "Mo,Th 08:30-12:30,16:30-18:00; Tu,We,Fr 08:30-12:30"}}, {"name": "PMU LKH Gynäkologie Geburtshilfe", "latitude": 47.8062598, "longitude": 13.0325787, "source": "osm", "_tags": {"amenity": "hospital", "healthcare": "hospital", "name": "PMU LKH Gynäkologie Geburtshilfe", "website": "https://salk.at/"}}, {"name": "", "latitude": 48.4039231, "longitude": 13.389269, "source": "osm", "_tags": {"amenity": "hospital"}}, {"name": "Notaufnahme Erwachsene", "latitude": 47.8060751, "longitude": 13.0283207, "source": "osm", "_tags": {"amenity": "hospital", "emergency": "yes", "healthcare": "hospital", "healthcare:speciality": "emergency", "name": "Notaufnahme Erwachsene"}}, {"name": "Christian Doppler Klinik", "latitude": 47.8133916, "longitude": 13.017562, "source": "osm", "_tags": {"addr:housenumber": "79", "addr:postcode": "5020", "addr:street": "Ignaz-Harrer-Straße", "alt_name": "CDK Salzburg", "alt_name1": "CDK", "alt_name2": "Salzburg CDK", "amenity": "hospital", "health_specialty": "stroke_unit", "healthcare": "hospital", "name": "Christian Doppler Klinik", "operator": "Salzburger Landeskliniken", "wheelchair": "yes"}}, {"name": "Strahlenzentrum", "latitude": 48.0032693, "longitude": 13.6381199, "source": "osm", "_tags": {"amenity": "hospital", "building": "yes", "healthcare": "hospital", "name": "Strahlenzentrum"}}, {"name": "Salzkammergut Klinikum Vöcklabruck", "latitude": 48.002271, "longitude": 13.6386652, "source": "osm", "_tags": {"addr:city": "Vöcklabruck", "addr:country": "AT", "addr:housename": "Krankenhaus Vöcklabruck", "addr:housenumber": "1", "addr:postcode": "4840", "addr:street": "Dr. Wilhelm Bock-Straße", "alt_name": "Landeskrankenhaus Vöcklabruck", "amenity": "hospital", "building": "yes", "email": "contact.sk@ooeg.at", "health_specialty": "stroke_unit", "healthcare": "hospital", "healthcare:speciality": "emergency", "layer": "1", "name": "Salzkammergut Klinikum Vöcklabruck", "operator": "Oberösterreichische Gesundheitsholding GmbH", "phone": "+43 5055471 0", "website": "https://www.ooeg.at/sk/vb", "wheelchair": "yes"}}, {"name": "", "latitude": 47.8075873, "longitude": 13.0340422, "source": "osm", "_tags": {"amenity": "hospital", "building": "yes", "healthcare": "hospital"}}, {"name": "Krankenhaus Abtenau", "latitude": 47.5655318, "longitude": 13.3467376, "source": "osm", "_tags": {"addr:city": "Abtenau", "addr:housenumber": "25", "addr:postcode": "5441", "addr:street": "Markt", "amenity": "hospital", "building": "yes", "healthcare": "hospital", "name": "Krankenhaus Abtenau"}}, {"name": "Landeskrankenhaus Salzburg - Universitätsklinikum der PMU", "latitude": 47.806236, "longitude": 13.0307488, "source": "osm", "_tags": {"addr:city": "Salzburg", "addr:housenumber": "48", "addr:postcode": "5020", "addr:street": "Müllner Hauptstraße", "alt_name": "Uniklinikum Salzburg - Landeskrankenhaus", "amenity": "hospital", "emergency": "yes", "healthcare": "hospital", "healthcare:speciality": "emergency", "name": "Landeskrankenhaus Salzburg - Universitätsklinikum der PMU", "operator": "Salzburger Landeskliniken", "operator:type": "gemeinnützige_salzburger_landeskliniken_betriebsgesellschaft_mbh", "short_name": "LKH Salzburg", "wheelchair": "yes"}}, {"name": "Salzkammergut Klinikum Bad Ischl", "latitude": 47.7061358, "longitude": 13.6243758, "source": "osm", "_tags": {"addr:city": "Bad Ischl", "addr:country": "AT", "addr:housenumber": "8-10", "addr:postcode": "4820", "addr:street": "Dr. Mayer Straße", "amenity": "hospital", "building": "yes", "healthcare": "hospital", "healthcare:speciality": "emergency", "name": "Salzkammergut Klinikum Bad Ischl", "name_alt": "LKH Bad Ischl", "operator": "Oberösterreichische Gesundheitsholding GmbH", "source": "bad-ischl.ooe.gv.at/Umpostung_von_PLZ_5351_Aigen-Voglhub_auf_PLZ_4820_Bad_Ischl_ab_26_Februar_2018", "wheelchair": "yes"}}, {"name": "Krankenhaus Oberndorf", "latitude": 47.9365085, "longitude": 12.9470076, "source": "osm", "_tags": {"addr:city": "Oberndorf bei Salzburg", "addr:country": "AT", "addr:housenumber": "37", "addr:postcode": "5110", "addr:street": "Paracelsusstraße", "amenity": "hospital", "building": "hospital", "building:levels": "4", "check_date": "2023-08-22", "healthcare": "clinic", "name": "Krankenhaus Oberndorf", "phone": "+43 6272 4334-0", "website": "https://www.krankenhaus-oberndorf.at/", "wikidata": "Q30261310"}}, {"name": "Klinik Niederbayern", "latitude": 48.3506871, "longitude": 13.3213073, "source": "osm", "_tags": {"addr:city": "Bad Füssing", "addr:country": "DE", "addr:housenumber": "1", "addr:postcode": "94072", "addr:street": "Paracelsusstraße", "amenity": "hospital", "building": "hospital", "emergency": "no", "healthcare": "hospital", "healthcare:speciality": "rehabilitation", "internet_access": "wlan", "internet_access:fee": "yes", "name": "Klinik Niederbayern", "operator": "Waldburg-Zeil Kliniken", "operator:type": "private", "phone": "+49 8531 970-0", "website": "https://www.klinik-niederbayern.de", "wheelchair": "yes"}}, {"name": "Krankenhaus Hallein", "latitude": 47.6853087, "longitude": 13.1126417, "source": "osm", "_tags": {"addr:city": "Hallein", "addr:country": "AT", "addr:housenumber": "34", "addr:postcode": "5400", "addr:street": "Bürgermeisterstraße", "amenity": "hospital", "building": "hospital", "building:use": "hospital", "check_date": "2024-04-16", "emergency": "yes", "healthcare": "hospital", "name": "Krankenhaus Hallein", "operator": "Halleiner Krankenanstaltenbetriebsges. m.b.H.", "phone": "+43 6245 7990", "website": "http://www.kh-hallein.at/", "wheelchair": "yes", "wikidata": "Q55809105", "wikipedia": "de:Landesklinik_Hallein"}}, {"name": "Medizinisches Versorgungszentrum Simbach am Inn", "latitude": 48.2657039, "longitude": 13.0187363, "source": "osm", "_tags": {"amenity": "hospital", "emergency": "no", "fixme": "Umriss geht in südwestl. Richtung evtl. noch weiter (z.B. Volleyballfeld gehört evtl. noch dazu)", "healthcare": "hospital", "name": "Medizinisches Versorgungszentrum Simbach am Inn", "wheelchair": "yes"}}, {"name": "Klinikum Wels/Grieskirchen - Standort Grieskirchen", "latitude": 48.2383926, "longitude": 13.8204811, "source": "osm", "_tags": {"addr:city": "Grieskirchen", "addr:country": "AT", "addr:housenumber": "27", "addr:postcode": "4710", "addr:street": "Georg-Wagenleithner-Straße", "amenity": "hospital", "healthcare": "hospital", "name": "Klinikum Wels/Grieskirchen - Standort Grieskirchen", "operator": "Klinikum Wels-Grieskirchen GmbH", "website": "https://www.klinikum-wegr.at/"}}, {"name": "Klinikum Grieskirchen", "latitude": 48.2382404, "longitude": 13.8207283, "source": "osm", "_tags": {"addr:city": "Grieskirchen", "addr:country": "AT", "addr:housenumber": "27", "addr:postcode": "4710", "addr:street": "Georg-Wagenleithner-Straße", "amenity": "hospital", "building": "yes", "healthcare": "hospital", "healthcare:speciality": "emergency", "name": "Klinikum Grieskirchen", "operator": "Klinikum Wels - Grieskirchen GmbH", "phone": "+43-7248-601-0", "source": "geoimage.at", "website": "https://www.klinikum-wegr.at/", "wheelchair": "yes"}}, {"name": "Lankesklinik Hallein", "latitude": 47.6853374, "longitude": 13.112522, "source": "osm", "_tags": {"addr:city": "Hallein", "addr:housenumber": "34", "addr:postcode": "5400", "addr:street": "Bürgermeisterstraße", "amenity": "hospital", "emergency": "yes", "healthcare": "hospital", "healthcare:speciality": "emergency", "name": "Lankesklinik Hallein", "operator": "Gemeinnützige Salzburger Landeskliniken Betriebsgesellschaft mbH", "short_name": "LKH Hallein", "website": "http://www.kh-hallein.at/", "wheelchair": "yes"}}, {"name": "Kreisklinik Freilassing", "latitude": 47.8480193, "longitude": 12.980322, "source": "osm", "_tags": {"amenity": "hospital", "emergency": "yes", "healthcare": "hospital", "healthcare:speciality": "gynaecology", "name": "Kreisklinik Freilassing", "opening_hours": "24/7", "operator": "Kliniken Südostbayern AG", "wheelchair": "yes"}}, {"name": "Unfallkrankenhaus Salzburg", "latitude": 47.7993089, "longitude": 13.0562265, "source": "osm", "_tags": {"addr:city": "Salzburg", "addr:housenumber": "5", "addr:postcode": "5010", "addr:street": "Dr.-Franz-Rehrl-Platz", "alt_name": "UKH Salzburg", "alt_name_1": "Salzburg UKH", "amenity": "hospital", "emergency": "yes", "healthcare": "hospital", "healthcare:speciality": "trauma", "name": "Unfallkrankenhaus Salzburg", "operator": "AUVA", "wheelchair": "yes", "wikidata": "Q2493177", "wikipedia": "de:Unfallkrankenhaus Salzburg"}}, {"name": "Gesundheitszentrum Linzerheim", "latitude": 48.2315142, "longitude": 13.9177944, "source": "osm", "_tags": {"addr:city": "Bad Schallerbach", "addr:country": "AT", "addr:housenumber": "6", "addr:postcode": "4701", "addr:street": "Grieskirchner Straße", "amenity": "hospital", "building": "yes", "building:colour": "#f5e6e1", "building:levels": "5", "health_facility:type": "health_centre", "healthcare": "rehabilitation", "name": "Gesundheitszentrum Linzerheim", "operator": "OÖGKK", "short_name": "Linzerheim", "source": "geoimage.at"}}, {"name": "Landeskrankenhaus Rottenmann-Bad Aussee, Standort Bad Aussee", "latitude": 47.6066301, "longitude": 13.7743263, "source": "osm", "_tags": {"addr:city": "Lerchenreith", "addr:country": "AT", "addr:housenumber": "396", "addr:postcode": "8990", "addr:street": "Sommersbergseestraße", "amenity": "hospital", "at_bev:addr_date": "2018-10-01", "building": "yes", "emergency": "yes", "healthcare": "hospital", "healthcare:speciality": "emergency", "name": "Landeskrankenhaus Rottenmann-Bad Aussee, Standort Bad Aussee", "operator": "Steiermärkische Krankenanstaltengesellschaft m.b.H.", "operator:type": "government", "operator:wikidata": "Q15849047", "short_name": "LKH Bad Aussee"}}, {"name": "AMEOS Reha Klinikum Inntal", "latitude": 48.2636904, "longitude": 13.0140152, "source": "osm", "_tags": {"addr:city": "Simbach am Inn", "addr:country": "DE", "addr:housenumber": "1", "addr:postcode": "84359", "addr:street": "Jakob-Weindler-Straße", "amenity": "hospital", "contact:phone": "+49 8571 985-0", "contact:website": "https://www.ameos.eu/reha-klinikum-inntal", "name": "AMEOS Reha Klinikum Inntal"}}, {"name": "Krankenhaus Barmherzigen Brüder Salzburg", "latitude": 47.7974119, "longitude": 13.0515527, "source": "osm", "_tags": {"addr:city": "Salzburg", "addr:housenumber": "1", "addr:place": "Kajetanerplatz", "addr:postcode": "5010", "amenity": "hospital", "healthcare": "hospital", "healthcare:speciality": "emergency", "name": "Krankenhaus Barmherzigen Brüder Salzburg", "operator": "Konvent der Barmherzigen Brüder Salzburg", "operator:type": "religious", "short_name": "BHB Salzburg", "website": "https://www.barmherzige-brueder.at/portal/salzburg/home", "wheelchair": "yes"}}, {"name": "Krankenhaus der Barmherzigen Schwestern Ried", "latitude": 48.2104748, "longitude": 13.4928471, "source": "osm", "_tags": {"addr:city": "Ried im Innkreis", "addr:housenumber": "1", "addr:postcode": "4910", "addr:street": "Schloßberg", "amenity": "hospital", "emergency": "yes", "health_specialty": "stroke_unit", "healthcare": "hospital", "healthcare:speciality": "general;paediatrics;ophthalmology;orthopaedics;gynaecology;emergency;surgery;cardiology;oncology;internal;radiology;maternity;geriatrics", "name": "Krankenhaus der Barmherzigen Schwestern Ried", "operator": "Barmherzige Schwestern Ried", "operator:type": "government", "source": "plan.at 2009", "wikidata": "Q37763756"}}, {"name": "Schön Klinik Berchtesgadener Land", "latitude": 47.6022882, "longitude": 12.9794508, "source": "osm", "_tags": {"addr:city": "Schönau am Königssee", "addr:country": "DE", "addr:housenumber": "1", "addr:postcode": "83471", "addr:street": "Malterhöh", "amenity": "hospital", "beds": "320", "emergency": "yes", "healthcare": "hospital", "healthcare:speciality": "intensive;emergency;rehabilitation;orthopaedics;pneumology;psychosomatic", "name": "Schön Klinik Berchtesgadener Land", "operator": "Schön Klinik", "operator:type": "private", "operator:wikidata": "Q2258661", "operator:wikipedia": "de:Schön Klinik", "phone": "+49 8652 930", "start_date": "1996", "website": "https://www.schoen-klinik.de/berchtesgadener-land"}}, {"name": "Krankenhaus Oberndorf", "latitude": 47.9363436, "longitude": 12.9474418, "source": "osm", "_tags": {"addr:city": "Oberndorf bei Salzburg", "addr:housenumber": "37", "addr:postcode": "5110", "addr:street": "Paracelsusstraße", "amenity": "hospital", "healthcare": "hospital", "healthcare:speciality": "emergency", "name": "Krankenhaus Oberndorf", "operator": "Gemeinnützige Oberndorfer Krankenhausbetriebsgesellschaft m.b.H.", "website": "https://www.krankenhaus-oberndorf.at/", "wheelchair": "yes", "wikidata": "Q30261310"}}, {"name": "Landeskrankenhaus Gmunden", "latitude": 47.9162087, "longitude": 13.7804248, "source": "osm", "_tags": {"addr:city": "Gmunden", "addr:country": "AT", "addr:housenumber": "49", "addr:postcode": "4810", "addr:street": "Miller von Aichholz-Straße", "amenity": "hospital", "check_date": "2024-06-01", "emergency": "yes", "healthcare": "hospital", "name": "Landeskrankenhaus Gmunden", "website": "http://www.lkh-gmunden.at/"}}, {"name": "Psychosomatische Fachklinik Simbach", "latitude": 48.2657039, "longitude": 13.0187363, "source": "osm", "_tags": {"amenity": "hospital", "emergency": "no", "name": "Psychosomatische Fachklinik Simbach", "operator": "Rottal Inn Kliniken", "site": "hospital", "type": "site", "url": "http://www.rottalinnkliniken.de/leistungen_angebote/psychosomatische_fachklinik/psychosomatische-fachklinik.php"}}, {"name": "Unfallkrankenhaus Salzburg", "latitude": 47.7993041, "longitude": 13.0562578, "source": "osm", "_tags": {"amenity": "hospital", "emergency": "yes", "name": "Unfallkrankenhaus Salzburg", "type": "collection", "website": "http://www.ukh-salzburg.at", "wheelchair": "yes"}}, {"name": "Krankenhaus St. Josef", "latitude": 48.2559731, "longitude": 13.0334242, "source": "osm", "_tags": {"addr:city": "Braunau am Inn", "addr:housenumber": "60", "addr:postcode": "5280", "addr:street": "Ringstraße", "amenity": "hospital", "building": "yes", "contact:email": "office@khbr.at", "emergency": "yes", "fax": "+43-7722-804-11", "healthcare": "hospital", "healthcare:speciality": "emergency", "name": "Krankenhaus St. Josef", "official_name": "A.ö. Krankenhaus St. Josef Braunau GmbH", "opening_hours": "Mo-Su 00:00-24:00", "operator": "Ordenskrankenhaus der Franzis­kanerinnen von Vöcklabruck", "phone": "+43-7722-804-0", "type": "multipolygon", "website": "https://www.khbr.at/", "wheelchair": "yes"}}, {"name": "Kreisklinik Berchtesgaden", "latitude": 47.6403557, "longitude": 13.0055155, "source": "osm", "_tags": {"addr:city": "Berchtesgaden", "addr:country": "DE", "addr:housenumber": "16", "addr:postcode": "83471", "addr:street": "Locksteinstraße", "amenity": "hospital", "building": "hospital", "emergency": "yes", "fax": "+49 8652 575499", "healthcare": "hospital", "name": "Kreisklinik Berchtesgaden", "operator": "Kliniken Südostbayern", "phone": "+49 8652 570", "type": "multipolygon", "website": "https://www.kliniken-suedostbayern.de/", "wheelchair": "yes"}}, {"name": "Salzkammergut Klinikum Gmunden", "latitude": 47.9163664, "longitude": 13.7804454, "source": "osm", "_tags": {"addr:city": "Gmunden", "addr:country": "AT", "addr:housenumber": "49", "addr:postcode": "4810", "addr:street": "Miller von Aichholz-Straße", "amenity": "hospital", "building": "hospital", "check_date": "2022-11-23", "healthcare": "hospital", "healthcare:speciality": "emergency", "name": "Salzkammergut Klinikum Gmunden", "name_alt": "Landeskrankenhaus Gmunden", "operator": "Oberösterreichische Gesundheitsholding GmbH", "type": "multipolygon"}}]