[{"name": "Dispensar", "latitude": 47.6593039, "longitude": 24.3496722, "source": "osm", "_tags": {"amenity": "hospital", "healthcare": "hospital", "name": "Dispensar"}}, {"name": "Clinică", "latitude": 47.8244139, "longitude": 24.2237306, "source": "osm", "_tags": {"amenity": "hospital", "healthcare": "hospital", "name": "Clinică"}}, {"name": "Clinică", "latitude": 47.8232107, "longitude": 24.2238242, "source": "osm", "_tags": {"amenity": "hospital", "healthcare": "hospital", "name": "Clinică"}}, {"name": "Spitalul De Urgență", "latitude": 47.7840339, "longitude": 24.2750948, "source": "osm", "_tags": {"amenity": "hospital", "healthcare": "hospital", "name": "Spitalul De Urgență"}}, {"name": "Dispensar", "latitude": 47.8251265, "longitude": 24.4271503, "source": "osm", "_tags": {"amenity": "hospital", "healthcare": "hospital", "name": "Dispensar"}}, {"name": "Spitalul Vișeu", "latitude": 47.7086958, "longitude": 24.4246538, "source": "osm", "_tags": {"amenity": "hospital", "healthcare": "hospital", "name": "Spitalul Vișeu"}}, {"name": "Комунальний заклад охорони здоров'я", "latitude": 47.9391651, "longitude": 24.177606, "source": "osm", "_tags": {"amenity": "hospital", "building": "hospital", "building:levels": "2", "healthcare": "hospital", "name": "Комунальний заклад охорони здоров'я", "name:uk": "Комунальний заклад охорони здоров'я"}}, {"name": "", "latitude": 48.2861508, "longitude": 24.5626074, "source": "osm", "_tags": {"amenity": "hospital", "building": "yes", "healthcare": "hospital"}}, {"name": "ФАП", "latitude": 48.2048683, "longitude": 24.9265935, "source": "osm", "_tags": {"amenity": "hospital", "name": "ФАП", "name:uk": "ФАП"}}, {"name": "Верховинська районна лікарня", "latitude": 48.1554373, "longitude": 24.8110086, "source": "osm", "_tags": {"amenity": "hospital", "name": "Верховинська районна лікарня", "name:uk": "Верховинська районна лікарня"}}, {"name": "", "latitude": 47.9170134, "longitude": 24.0193252, "source": "osm", "_tags": {"amenity": "hospital", "healthcare": "hospital"}}, {"name": "", "latitude": 47.916931, "longitude": 24.0185823, "source": "osm", "_tags": {"amenity": "hospital", "healthcare": "hospital"}}, {"name": "Ясінянська міська лікарня", "latitude": 48.2732376, "longitude": 24.365943, "source": "osm", "_tags": {"addr:city": "Ясіня", "addr:housenumber": "25", "addr:street": "вулиця Коцюбинського", "amenity": "hospital", "healthcare": "hospital", "name": "Ясінянська міська лікарня", "name:uk": "Ясінянська міська лікарня"}}, {"name": "Рахівська районна лікарня", "latitude": 48.0539418, "longitude": 24.2074668, "source": "osm", "_tags": {"amenity": "hospital", "contact:email": "rahivrl@ukr.net", "contact:mobile": "+380 67 370 3414", "contact:website": "https://www.knp-rakhiv-rl.com.ua/", "emergency": "yes", "healthcare": "hospital", "name": "Рахівська районна лікарня", "name:uk": "Рахівська районна лікарня", "operator": "Рахівська міська рада", "wikidata": "Q113686871", "wikipedia": "uk:Рахівська районна лікарня"}}, {"name": "DISPENSAR UMAN", "latitude": 47.8304485, "longitude": 24.4016834, "source": "osm", "_tags": {"addr:city": "Repedea", "addr:postcode": "437240", "addr:street": "PRINCIPALA", "amenity": "hospital", "healthcare": "hospital", "name": "DISPENSAR UMAN"}}, {"name": "Spitalul de recuperare Borșa", "latitude": 47.6542222, "longitude": 24.6666204, "source": "osm", "_tags": {"addr:city": "Borșa", "addr:housenumber": "1", "addr:street": "Strada Floare de Colț", "amenity": "hospital", "emergency": "yes", "healthcare": "hospital", "name": "Spitalul de recuperare Borșa"}}]