[{"name": "Centre de Réadaptation", "latitude": 47.5240595, "longitude": -2.488785, "source": "osm", "_tags": {"addr:city": "Billiers", "addr:postcode": "56190", "addr:street": "Domaine de Prières", "amenity": "hospital", "name": "Centre de Réadaptation", "name:br": "Kreizenn Azgouestaat", "ref:FR:FINESS": "560000242", "source:name:br": "ofis publik ar brezhoneg", "type:FR:FINESS": "430"}}, {"name": "Centre hospitalier Centre Bretagne", "latitude": 48.1790585, "longitude": -2.7541384, "source": "osm", "_tags": {"amenity": "hospital", "healthcare": "hospital", "name": "Centre hospitalier Centre Bretagne", "name:br": "Pennospital Kreiz-Breizh", "operator:type": "public", "phone": "+33 2 96 25 32 25", "ref:FR:FINESS": "220000483", "source:name:br": "ofis publik ar brezhoneg", "type:FR:FINESS": "355", "website": "https://www.ch-centre-bretagne.fr/"}}, {"name": "Centre de soins de Bodio", "latitude": 47.4340493, "longitude": -2.1198204, "source": "osm", "_tags": {"amenity": "hospital", "emergency": "no", "fax": "+33 2 40 88 04 36", "name": "Centre de soins de Bodio", "phone": "+33 2 40 17 51 00", "ref:FR:FINESS": "440002459", "type:FR:FINESS": "109"}}, {"name": "Cabinet infirmière Berthe/Le Moal", "latitude": 47.5021121, "longitude": -2.8362608, "source": "osm", "_tags": {"addr:city": "Saint-Gildas-de-Rhuys", "addr:housenumber": "14", "addr:postcode": "56730", "addr:street": "Chemin Jean-Bernard le Bot", "amenity": "hospital", "healthcare": "hospital", "healthcare:speciality": "vaccination;blood_check", "mobile": "+33 6 71 59 69 60", "name": "Cabinet infirmière Berthe/Le Moal", "operator": "Berthe Karine & Le Moal Catherine", "operator:type": "private", "phone": "+33 2 97 45 15 62"}}, {"name": "CMPEA Broons", "latitude": 48.3188646, "longitude": -2.2563808, "source": "osm", "_tags": {"addr:city": "broons", "addr:housenumber": "11", "addr:postcode": "22250", "addr:street": "Rue de la Gare", "amenity": "hospital", "healthcare": "hospital", "healthcare:speciality": "psychiatry", "name": "CMPEA Broons", "operator": "Fondation St Jean de Dieu"}}, {"name": "Centre hospitalier de Saint-Méen le Grand", "latitude": 48.1857875, "longitude": -2.2024305, "source": "osm", "_tags": {"addr:city": "Saint-Méen-le-Grand", "addr:postcode": "35290", "addr:street": "Rue de la Croix Duval", "alt_name": "Centre hospitalier Docteur de Tersannes", "amenity": "hospital", "building": "hospital", "email": "direction@ch-stmeen.fr", "emergency": "no", "fax": "+33 2 99 09 88 50", "healthcare": "hospital", "name": "Centre hospitalier de Saint-Méen le Grand", "phone": "+33 2 99 09 88 88", "ref:FR:FINESS": "350000451", "ref:FR:NAF": "86.10Z", "ref:FR:SIRET": "20009598200076", "source": "cadastre-dgi-fr source : Direction Générale des Impôts - Cadastre. Mise à jour : 2010", "type:FR:FINESS": "106", "website": "http://pole-sante-saint-meen.fr/les-partenaires/centre-hospitalier-de-saint-meen-le-grand/", "wikidata": "Q92063338"}}, {"name": "Clinique du Golfe", "latitude": 47.6459603, "longitude": -2.7294445, "source": "osm", "_tags": {"addr:housenumber": "22", "addr:street": "Rue de Limur", "amenity": "hospital", "name": "Clinique du Golfe", "name:br": "Klinikenn ar Mor Bihan", "ref:FR:FINESS": "560002081", "ref:FR:NAF": "86.10Z", "ref:FR:SIREN": "788071959", "ref:FR:SIRET": "78807195900019", "source": "INSEE - 2025-07", "source:name:br": "proper translation", "type:FR:FINESS": "161"}}, {"name": "Hôpital Prosper Chubert", "latitude": 47.6643825, "longitude": -2.7456812, "source": "osm", "_tags": {"addr:city": "Vannes", "addr:housenumber": "20", "addr:postcode": "56000", "addr:street": "Boulevard du Général Guillaudot", "amenity": "hospital", "emergency": "yes", "health_facility:type": "hospital", "healthcare": "hospital", "healthcare:speciality": "intensive", "level": "0", "medical_system:western": "yes", "name": "Hôpital Prosper Chubert", "name:br": "Ospital Prosper Chubert", "operator": "Centre hospitalier Bretagne Atlantique", "phone": "+33 2 97 01 41 41", "ref:FR:FINESS": "560000127", "short_name": "Centre Hospitalier Chubert", "source": "cadastre-dgi-fr source : Direction Générale des Impôts - Cadastre. Mise à jour : 2012", "type:FR:FINESS": "355", "website": "https://www.ch-bretagne-atlantique.fr/", "wikidata": "Q3145199", "wikipedia": "fr:Hôpital Prosper-Chubert"}}, {"name": "Établissement Public de Santé Mentale", "latitude": 47.6995257, "longitude": -2.7551295, "source": "osm", "_tags": {"amenity": "hospital", "name": "Établissement Public de Santé Mentale", "name:br": "Diazezadur Publik ar Yec'hed-Spered", "ref:FR:FINESS": "560004343", "short_name:br": "DPYS", "source:name:br": "ofis publik ar brezhoneg", "type:FR:FINESS": "292"}}, {"name": "Hôpital Le Pratel", "latitude": 47.6694263, "longitude": -2.9788238, "source": "osm", "_tags": {"addr:city": "Auray", "addr:housenumber": "2", "addr:postcode": "56400", "addr:street": "Rue du Pratel", "amenity": "hospital", "emergency": "yes", "fax": "+33 2 97 24 83 79", "healthcare": "hospital", "name": "Hôpital Le Pratel", "name:br": "Ospital ar Bratell", "operator": "Centre hospitalier Bretagne Atlantique", "operator:type": "public", "phone": "+33 2 97 56 41 41", "ref:FR:FINESS": "560000200", "ref:FR:NAF": "86.10Z", "ref:FR:SIREN": "265613372", "ref:FR:SIRET": "26561337200027", "short_name": "Centre Hospitalier Pratel", "source": "INSEE - 2025-07", "source:name:br": "proper translation", "type:FR:FINESS": "355", "website": "https://www.ch-bretagne-atlantique.fr/"}}, {"name": "Centre hospitalier intercommunal Redon-Carentoir", "latitude": 47.6543561, "longitude": -2.0799138, "source": "osm", "_tags": {"addr:city": "Redon", "addr:country": "FR", "addr:housenumber": "8", "addr:postcode": "35600", "addr:street": "Avenue Étienne Gascon", "amenity": "hospital", "email": "secretariat.direction@ch-redon.fr", "emergency": "yes", "fax": "+33 2 99 72 32 53", "healthcare": "hospital", "healthcare:speciality": "general;psychiatry;cardiology;FR:soins_palliatifs;outpatient_surgery;FR:chirurgie_ambulatoire;hepatology;gastroenterology;maternity;paediatrics;orthopaedics;family_planning;geriatrics;addiction;emergency", "name": "Centre hospitalier intercommunal Redon-Carentoir", "operator": "public", "phone": "+33 2 99 71 71 71", "ref:FR:FINESS": "350000048", "ref:FR:NAF": "86.10Z", "ref:FR:SIRET": "26350012600010", "short_name": "CHIRC", "source": "Bing", "type:FR:FINESS": "355", "website": "http://www.ch-redon-carentoir.fr", "wikidata": "Q105164706"}}, {"name": "Centre hospitalier intercommunal Redon Carentoir", "latitude": 47.818281, "longitude": -2.1336195, "source": "osm", "_tags": {"amenity": "hospital", "building": "hospital", "fax": "+33 2 99 08 82 58", "name": "Centre hospitalier intercommunal Redon Carentoir", "phone": "+33 2 99 93 70 00", "ref:FR:FINESS": "560000473", "ref:FR:SIRET": "26350012600010", "source": "Le ministère des solidarités et de la santé - 2021-01", "type:FR:FINESS": "355", "website": "http://www.ch-redon-carentoir.fr/presentation/structures-1875.html"}}, {"name": "Clinique des Augustines", "latitude": 47.8127592, "longitude": -2.3855678, "source": "osm", "_tags": {"addr:housenumber": "4", "addr:street": "Faubourg Saint Michel", "amenity": "hospital", "fax": "+33297731850", "healthcare": "yes", "name": "Clinique des Augustines", "phone": "+33297731800", "ref:FR:FINESS": "560000184", "ref:FR:NAF": "86.10Z", "ref:FR:SIREN": "777852427", "ref:FR:SIRET": "77785242700015", "source": "Le ministère des solidarités et de la santé - 03/2019", "type:FR:FINESS": "365"}}, {"name": "Hopital local de Malestroit", "latitude": 47.8074448, "longitude": -2.3844562, "source": "osm", "_tags": {"amenity": "hospital", "healthcare": "hospital", "name": "Hopital local de Malestroit", "ref:FR:FINESS": "560027377", "source": "cadastre-dgi-fr source : Direction Générale des Impôts - Cadastre. Mise à jour : 2012", "type:FR:FINESS": "365"}}, {"name": "Centre hospitalier Alphonse Guérin", "latitude": 47.9350691, "longitude": -2.3942843, "source": "osm", "_tags": {"addr:city": "Ploërmel", "addr:housenumber": "7", "addr:postcode": "56800", "addr:street": "Rue du Roi Arthur", "amenity": "hospital", "emergency": "yes", "fax": "+33 2 97 73 26 27", "healthcare": "hospital", "name": "Centre hospitalier Alphonse Guérin", "name:br": "Pennospital Alphonse Guérin", "operator:type": "public", "phone": "+33 2 97 73 26 26", "ref:FR:FINESS": "560000192", "source:name:br": "proper translation", "type:FR:FINESS": "355", "website": "https://www.ch-ploermel.fr/cht/actualites.php"}}, {"name": "Centre hospitalier du Centre-Bretagne", "latitude": 48.0867737, "longitude": -2.9121843, "source": "osm", "_tags": {"addr:city": "Noyal-Pontivy", "addr:place": "Kério", "addr:postcode": "56920", "amenity": "hospital", "emergency": "yes", "fax": "+33 2 97 28 40 00", "healthcare": "hospital", "name": "Centre hospitalier du Centre-Bretagne", "phone": "+33 2 97 79 00 00", "ref:FR:FINESS": "560000143", "type:FR:FINESS": "355", "website": "https://www.ch-centre-bretagne.fr/", "wikidata": "Q16507354"}}, {"name": "Centre Hospitalier du Penthièvre & du Poudouvre", "latitude": 48.4077597, "longitude": -2.9151269, "source": "osm", "_tags": {"addr:housenumber": "8", "addr:street": "Rue de la Corderie", "amenity": "hospital", "healthcare": "hospital", "name": "Centre Hospitalier du Penthièvre & du Poudouvre", "name:br": "Ospital Kintin", "phone": "02 96 79 66 66", "ref:FR:FINESS": "220000574", "type:FR:FINESS": "355", "website": "http://www.ch2p.bzh/"}}, {"name": "Centre hospitalier du Centre Bretagne - Centre de rééducation fonctionnelle", "latitude": 48.170692, "longitude": -2.5976865, "source": "osm", "_tags": {"amenity": "hospital", "healthcare": "hospital", "name": "Centre hospitalier du Centre Bretagne - Centre de rééducation fonctionnelle", "name:br": "Pennospital Kreiz Breizh", "ref:FR:FINESS": "220000194", "type:FR:FINESS": "355"}}, {"name": "Clinique Océane", "latitude": 47.6796077, "longitude": -2.775448, "source": "osm", "_tags": {"amenity": "hospital", "check_date": "2025-04-29", "emergency": "no", "healthcare": "hospital", "name": "Clinique Océane", "name:br": "Klinikenn ar Meurvor", "ref:FR:FINESS": "560008799", "source:name:br": "ofis publik ar brezhoneg", "type:FR:FINESS": "365"}}, {"name": "Centre hospitalier de Josselin", "latitude": 47.957959, "longitude": -2.5479063, "source": "osm", "_tags": {"amenity": "hospital", "fax": "+33 2 97 73 13 59", "name": "Centre hospitalier de Josselin", "name:br": "Pennospital Josilin", "note": "Reconstruction du CH entre mi 2019 et mi 2022 #hopital", "operator:type": "public", "phone": "+33 2 97 73 13 13", "ref:FR:FINESS": "560000283", "source:name:br": "proper translation", "type:FR:FINESS": "106", "wikidata": "Q20971064"}}, {"name": "Centre hospitalier de Basse Vilaine", "latitude": 47.5204083, "longitude": -2.2923902, "source": "osm", "_tags": {"amenity": "hospital", "healthcare": "hospital", "name": "Centre hospitalier de Basse Vilaine", "name:br": "Pennospital ar Goueled-Gwilen", "ref:FR:FINESS": "560000499", "ref:FR:NAF": "86.10Z", "ref:FR:SIREN": "265600437", "ref:FR:SIRET": "26560043700064", "source": "INSEE - 2025-05", "type:FR:FINESS": "106", "wikidata": "Q92063193"}}, {"name": "Maison d'Accueil Spécialisée de Kerblay", "latitude": 47.528361, "longitude": -2.7402222, "source": "osm", "_tags": {"amenity": "hospital", "healthcare": "hospital", "healthcare:speciality": "psychiatry", "name": "Maison d'Accueil Spécialisée de Kerblay", "name:br": "Ti degemer arbennikaet Kerbleiz", "operator": "Etablissement Public de Santé Mentale du Morbihan", "operator:type": "public", "source:name:br": "proper translation", "website": "https://www.epsm-morbihan.fr/"}}]