[{"name": "Maison de Santé Pluridisciplinaire de la Charme", "latitude": 47.9263567, "longitude": 6.6608787, "source": "osm", "_tags": {"addr:city": "Rupt-sur-Moselle", "addr:housenumber": "4 B", "addr:postcode": "88360", "addr:street": "Rue Louis Courroy", "amenity": "hospital", "emergency": "yes", "healthcare": "hospital", "healthcare:speciality": "vaccination;covid19;infirmières;médecins;orthophoniste;kinésithérapeute;psycpsychologue", "name": "Maison de Santé Pluridisciplinaire de la Charme", "phone": "+33 3 29 24 35 69", "website": "https://ruptsante.fr/", "wheelchair": "yes"}}, {"name": "Hôpital Val du Madon", "latitude": 48.3054869, "longitude": 6.1333533, "source": "osm", "_tags": {"amenity": "hospital", "healthcare": "hospital", "name": "Hôpital Val du Madon", "ref:FR:FINESS": "880000138", "type:FR:FINESS": "106", "wikidata": "Q92063245"}}, {"name": "Centre Hospitalier Spécialisé de Clairefontaine", "latitude": 47.8574153, "longitude": 6.0827932, "source": "osm", "_tags": {"amenity": "hospital", "healthcare": "hospital", "healthcare:speciality": "psychiatry", "name": "Centre Hospitalier Spécialisé de Clairefontaine", "ref:FR:FINESS": "700780299", "type:FR:FINESS": "292"}}, {"name": "Centre Hospitalier Spécialisé de Saint-Rémy et Nord Franche Comté - Centre de Psychiatrie Générale de Belfort", "latitude": 47.6316585, "longitude": 6.8480001, "source": "osm", "_tags": {"addr:housenumber": "53", "addr:street": "Boulevard Renaud de Bourgogne", "amenity": "hospital", "healthcare": "hospital", "healthcare:speciality": "psychiatry", "name": "Centre Hospitalier Spécialisé de Saint-Rémy et Nord Franche Comté - Centre de Psychiatrie Générale de Belfort", "opening_hours": "Mo-Fr 09:00-19:00", "operator": "Association hospitalière de Bourgogne-Franche-Comté (AHBFC)", "phone": "+33 3 84 57 45 30", "ref:FR:FINESS": "900002478", "short_name": "CHS St-Rémy et NFC - CPG Belfort", "type:FR:FINESS": "292", "website": "https://www.ahbfc.fr/psychiatrie.html"}}, {"name": "Orthoptiste", "latitude": 48.174725, "longitude": 6.4297931, "source": "osm", "_tags": {"addr:city": "Chantraine", "addr:housenumber": "4", "addr:postcode": "88000", "addr:street": "allée Paul Decauville", "amenity": "hospital", "healthcare": "hospital", "name": "Orthoptiste", "phone": "0372540605"}}, {"name": "Centre Hospitalier Psychiatrique de Ravenel", "latitude": 48.2935529, "longitude": 6.1099452, "source": "osm", "_tags": {"addr:city": "Mirecourt", "addr:housenumber": "1115", "addr:postcode": "88500", "addr:street": "Avenue Porterat", "amenity": "hospital", "emergency": "no", "fax": "+33 3 29 37 83 79", "healthcare": "hospital", "healthcare:speciality": "psychiatry", "name": "Centre Hospitalier Psychiatrique de Ravenel", "phone": "+33 3 29 37 00 77", "ref:FR:FINESS": "880000088", "source": "survey;local knowledge", "type:FR:FINESS": "292", "website": "http://www.ch-ravenel.fr"}}, {"name": "Centre Médico-Psychologique Enfants et Adolscent - Hôpital de jour enfants", "latitude": 48.0126902, "longitude": 6.5970145, "source": "osm", "_tags": {"addr:city": "Remiremont", "addr:housenumber": "7", "addr:postcode": "88200", "addr:street": "Rue du Capitaine Flayelle", "amenity": "clinic", "healthcare": "hospital", "healthcare:speciality": "psychotherapist", "name": "Centre Médico-Psychologique Enfants et Adolscent - Hôpital de jour enfants", "source": "cadastre-dgi-fr source : Direction Générale des Impôts - Cadastre. Mise à jour : 2010"}}, {"name": "Hôpital de Jour La Roche d'Arma", "latitude": 48.0100292, "longitude": 6.588344, "source": "osm", "_tags": {"addr:city": "Remiremont", "addr:housenumber": "11", "addr:postcode": "88200", "addr:street": "Chemin des Granges Puton", "amenity": "clinic", "healthcare": "hospital", "healthcare:speciality": "psychiatry", "name": "Hôpital de Jour La Roche d'Arma", "source": "cadastre-dgi-fr source : Direction Générale des Impôts - Cadastre. Mise à jour : 2010"}}, {"name": "Clinique de la Miotte", "latitude": 47.6431673, "longitude": 6.8635818, "source": "osm", "_tags": {"addr:housenumber": "1", "addr:street": "Avenue de la Miotte", "amenity": "hospital", "building": "hospital", "emergency": "no", "healthcare": "hospital", "name": "Clinique de la Miotte", "ref:FR:FINESS": "900000035", "source": "cadastre-dgi-fr source : Direction Générale des Impôts - Cadastre;mise à jour : 2009", "type:FR:FINESS": "365", "wheelchair": "yes"}}, {"name": "Centre de Réadaptation Fonctionnelle E. Bretegnier", "latitude": 47.5772953, "longitude": 6.7563985, "source": "osm", "_tags": {"amenity": "hospital", "check_date": "2025-05-24", "healthcare": "hospital", "name": "Centre de Réadaptation Fonctionnelle E. Bretegnier", "ref:FR:FINESS": "700780042", "toilets:wheelchair": "yes", "type:FR:FINESS": "109", "wheelchair": "yes"}}, {"name": "Centre Hospitalier de Remiremont", "latitude": 48.0132221, "longitude": 6.592746, "source": "osm", "_tags": {"addr:city": "Remiremont", "addr:housenumber": "1", "addr:postcode": "88200", "addr:street": "Rue Georges Lang", "amenity": "hospital", "email": "direction@ch-remiremont.fr", "emergency": "yes", "fax": "+33 329 234 060", "healthcare": "hospital", "healthcare:speciality": "emergency;gynaecology;radiology;maternity;neurology;surgery;cardiology;geriatrics", "name": "Centre Hospitalier de Remiremont", "operator": "C.H.R.U. de Nancy", "operator:type": "public", "phone": "+33 329 234 141", "ref:FR:FINESS": "880000062", "start_date": "1974-04", "type:FR:FINESS": "355", "website": "http://www.ch-remiremont.fr/", "wheelchair": "yes"}}, {"name": "Centre hospitalier de Lure", "latitude": 47.68235, "longitude": 6.5027902, "source": "osm", "_tags": {"amenity": "hospital", "email": "contact@gh70.fr", "emergency": "yes", "fax": "+33 3 84 62 43 99", "healthcare": "hospital", "name": "Centre hospitalier de Lure", "operator": "Groupe hospitalier de la Haute-Saône", "operator:type": "public", "phone": "+33384624306", "ref:FR:FINESS": "700780208", "source": "cadastre-dgi-fr source : Direction Générale des Impôts - Cadastre. Mise à jour : 2011", "type:FR:FINESS": "355", "website": "https://www.gh70.fr/"}}, {"name": "Centre hospitalier de Luxeuil-les-Bains", "latitude": 47.8221761, "longitude": 6.3802628, "source": "osm", "_tags": {"alt_name": "CHI 70 - Site de Luxeuil", "amenity": "hospital", "email": "contact@gh70.fr", "emergency": "yes", "fax": "+33 3 84 93 35 01", "name": "Centre hospitalier de Luxeuil-les-Bains", "operator": "Groupe hospitalier de la Haute-Saône", "operator:type": "public", "phone": "+33 3 84 93 35 50", "ref:FR:FINESS": "700780059", "type:FR:FINESS": "355", "website": "https://www.gh70.fr/", "wikimedia_commons": "Category:Hôpital de Luxeuil-les-Bains"}}, {"name": "Maison médicale", "latitude": 48.0935525, "longitude": 6.6109471, "source": "osm", "_tags": {"addr:city": "Eloyes", "addr:housenumber": "2", "addr:postcode": "88510", "addr:street": "Rue des Donjons", "amenity": "hospital", "building": "yes", "healthcare": "hospital", "healthcare:speciality": "general", "name": "Maison médicale", "source": "extraction vectorielle v1 cadastre-dgi-fr source : Direction Générale des Impôts - Cadas. Mise à jour : 2010"}}, {"name": "Hôpital spécialisé Centre Psychiatrie Générale", "latitude": 47.685768, "longitude": 6.4892806, "source": "osm", "_tags": {"amenity": "hospital", "healthcare": "hospital", "name": "Hôpital spécialisé Centre Psychiatrie Générale", "ref:FR:FINESS": "700002439", "source": "cadastre-dgi-fr source : Direction Générale des Impôts - Cadastre. Mise à jour : 2011", "type": "292"}}, {"name": "Hôpital Nord Franche-Comté", "latitude": 47.5763149, "longitude": 6.8736241, "source": "osm", "_tags": {"addr:city": "Trévenans", "addr:housenumber": "100", "addr:postcode": "90400", "addr:street": "Route de Moval", "amenity": "hospital", "emergency": "yes", "healthcare": "hospital", "healthcare:speciality": "intensive", "name": "Hôpital Nord Franche-Comté", "operator:type": "public", "phone": "+33 3 84 98 20 20", "ref:FR:FINESS": "900003039", "short_name": "HNFC", "type:FR:FINESS": "355", "website": "https://www.hnfc.fr/", "wikidata": "Q2945688"}}, {"name": "", "latitude": 47.8878015, "longitude": 6.8584975, "source": "osm", "_tags": {"building": "hospital", "fax": "+33 3 29 61 53 85", "healthcare": "hospital", "operator": "Centre hospitalier de la Haute Vallée de la Moselle", "operator:type": "public", "phone": "+33 3 29 61 50 40", "ref:FR:FINESS": "880000153", "source": "cadastre-dgi-fr source : Direction Générale des Impôts - Cadastre. Mise à jour : 2012", "type:FR:FINESS": "355"}}, {"name": "Centre hospitalier de Vesoul", "latitude": 47.6367477, "longitude": 6.1397503, "source": "osm", "_tags": {"amenity": "hospital", "email": "contact@gh70.fr", "emergency": "yes", "fax": "+33 3 84 96 65 90", "healthcare": "hospital", "healthcare:speciality": "intensive", "name": "Centre hospitalier de Vesoul", "operator": "Groupe hospitalier de la Haute-Saône", "operator:type": "public", "phone": "+33 3 84 96 60 60", "ref:FR:FINESS": "700000029", "type:FR:FINESS": "355", "website": "https://www.gh70.fr/", "wikidata": "Q2945707"}}, {"name": "Hôpital Nord Franche-Comté Site du Mittan", "latitude": 47.5254386, "longitude": 6.7865777, "source": "osm", "_tags": {"amenity": "hospital", "healthcare": "hospital", "name": "Hôpital Nord Franche-Comté Site du Mittan", "ref:FR:FINESS": "250004009", "source": "Le ministère des solidarités et de la santé - 08/2018", "website": "https://www.hnfc.fr/l-hopital/les-sites-annexes-de-l-hopital/le-site-du-mittan,303,390.html"}}, {"name": "Centre hospitalier Émile Durkheim", "latitude": 48.1940489, "longitude": 6.4314866, "source": "osm", "_tags": {"amenity": "hospital", "emergency": "no", "fax": "+33 3 29 68 15 29", "healthcare": "hospital", "name": "Centre hospitalier Émile Durkheim", "operator": "CH Emile DURKHEIM", "operator:type": "public", "phone": "+33 3 29 68 15 15", "ref:FR:FINESS": "880000336", "type:FR:FINESS": "355", "wheelchair": "yes"}}, {"name": "", "latitude": 47.6154837, "longitude": 6.8422308, "source": "osm", "_tags": {"amenity": "hospital", "healthcare": "hospital", "ref:FR:FINESS": "900003070", "source": "Le ministère des solidarités et de la santé - 08/2018"}}, {"name": "Centre Hospitalier Intercommunal des 5 Vallées", "latitude": 48.3758854, "longitude": 6.8811411, "source": "osm", "_tags": {"amenity": "hospital", "healthcare": "hospital", "name": "Centre Hospitalier Intercommunal des 5 Vallées"}}, {"name": "Centre Hospitalier de l'Ouest Vosgien - Site de Vittel", "latitude": 48.2066306, "longitude": 5.9475859, "source": "osm", "_tags": {"addr:housenumber": "191", "amenity": "hospital", "email": "direction@ch-ouestvosgien.fr", "emergency": "yes", "fax": "+33 3 29 05 88 15", "healthcare": "hospital", "name": "Centre Hospitalier de l'Ouest Vosgien - Site de Vittel", "operator:type": "public", "phone": "+33 3 29 94 80 00", "ref:FR:FINESS": "880000070", "source": "cadastre-dgi-fr source : Direction Générale des Finances Publiques - Cadastre. Mise à jour : 2014", "type:FR:FINESS": "355", "website": "http://www.ch-ouestvosgien.fr/"}}, {"name": "Centre Hospitalier Spécialisé de Saint-Rémy & Nord Franche-Comté", "latitude": 47.8306791, "longitude": 6.0920733, "source": "osm", "_tags": {"amenity": "hospital", "healthcare": "hospital", "healthcare:speciality": "psychiatry", "name": "Centre Hospitalier Spécialisé de Saint-Rémy & Nord Franche-Comté", "operator": "AHBFC", "ref:FR:FINESS": "700780075", "type:FR:FINESS": "292"}}, {"name": "Unité de Soins Longue Durée La Chênaie", "latitude": 47.8383441, "longitude": 6.0916025, "source": "osm", "_tags": {"amenity": "hospital", "healthcare": "hospital", "name": "Unité de Soins Longue Durée La Chênaie", "ref:FR:FINESS": "700784341", "type:FR:FINESS": "362"}}, {"name": "Hôpital du Thillot", "latitude": 47.876801, "longitude": 6.7687985, "source": "osm", "_tags": {"amenity": "hospital", "email": "hopitallocal@hopital-lethillot.fr", "fax": "+33 3 29 25 30 62", "healthcare": "hospital", "name": "Hôpital du Thillot", "operator": "Centre hospitalier de la Haute Vallée de la Moselle", "operator:type": "public", "phone": "+33 3 29 25 00 79", "ref:FR:FINESS": "880000203", "source": "cadastre-dgi-fr source : Direction Générale des Impôts - Cadastre. Mise à jour : 2013", "type:FR:FINESS": "355"}}, {"name": "Hôpital de l'Avison", "latitude": 48.2064146, "longitude": 6.7235094, "source": "osm", "_tags": {"addr:city": "Bruyères", "addr:country": "FR", "addr:housenumber": "16", "addr:postcode": "88600", "addr:street": "Rue de l'Hôpital", "amenity": "hospital", "name": "Hôpital de l'Avison", "ref:FR:FINESS": "880000104", "type:FR:FINESS": "106", "wikidata": "Q92062558"}}, {"name": "Hôpital local de Bussang", "latitude": 47.8878836, "longitude": 6.8584607, "source": "osm", "_tags": {"addr:city": "Bussang", "addr:country": "FR", "addr:housenumber": "3", "addr:postcode": "88540", "addr:street": "Rue Lutenbacher", "amenity": "hospital", "healthcare": "hospital", "name": "Hôpital local de Bussang", "ref:FR:FINESS": "880000153", "type:FR:FINESS": "355"}}, {"name": "Centre Hospitalier de Gérardmer", "latitude": 48.0726757, "longitude": 6.8775381, "source": "osm", "_tags": {"addr:city": "Gérardmer", "addr:housenumber": "22", "addr:postcode": "88400", "addr:street": "Boulevard Kelsch", "alt_name": "Centre Hospitalier Claudius Regaud", "amenity": "hospital", "healthcare": "hospital", "name": "Centre Hospitalier de Gérardmer", "ref:FR:FINESS": "880000039", "type:FR:FINESS": "355"}}, {"name": "Maison de Santé St Jean", "latitude": 48.1690863, "longitude": 6.4520994, "source": "osm", "_tags": {"addr:city": "Épinal", "addr:housenumber": "31", "addr:postcode": "88000", "addr:street": "Rue Thiers", "amenity": "hospital", "emergency": "no", "healthcare": "hospital", "name": "Maison de Santé St Jean", "operator": "Centre Hospitalier Emile Durkheim", "operator:type": "public", "ref:FR:FINESS": "880006663", "source": "extraction vectorielle v1 cadastre-dgi-fr source : Direction Générale des Impôts - Cadas. Mise à jour : 2010", "type:FR:FINESS": "292"}}, {"name": "Clinique La Ligne Bleue", "latitude": 48.1995804, "longitude": 6.4632251, "source": "osm", "_tags": {"addr:city": "Épinal", "addr:country": "FR", "addr:housenumber": "9", "addr:postcode": "88000", "addr:street": "Avenue du Rose Poirier", "amenity": "hospital", "healthcare": "hospital", "name": "Clinique La Ligne Bleue", "ref:FR:FINESS": "880788591", "type:FR:FINESS": "365"}}, {"name": "Centre Hospitalier Local Les 3 Rivières", "latitude": 48.3150849, "longitude": 6.3925826, "source": "osm", "_tags": {"addr:housenumber": "2", "addr:street": "Rue des Vergers", "amenity": "hospital", "email": "hopital@hl-chatel.fr", "fax": "+33 3 29 67 60 22", "healthcare": "hospital", "name": "Centre Hospitalier Local Les 3 Rivières", "phone": "+33 3 29 67 90 38", "ref:FR:FINESS": "880000112", "ref:FR:SIRET": "26880023200012", "source": "Le ministère des solidarités et de la santé - 2024-09", "type:FR:FINESS": "106", "website": "http://www.chl-les3rivieres.fr/"}}, {"name": "Maison de Santé de la Charme", "latitude": 47.9266197, "longitude": 6.661195, "source": "osm", "_tags": {"addr:city": "Rupt-sur-Moselle", "addr:housenumber": "4 B", "addr:postcode": "88360", "addr:street": "Rue Louis Courroy", "amenity": "hospital", "emergency": "yes", "healthcare": "hospital", "healthcare:speciality": "médecins;infirmières;psycpsychologue;kinésithérapeute;orthophoniste", "name": "Maison de Santé de la Charme", "phone": "+33 3 29 24 35 69", "start_date": "2021-09-07", "website": "https://ruptsante.fr/", "wheelchair": "yes"}}, {"name": "Clinique du Pays de Montbéliard", "latitude": 47.496731, "longitude": 6.8201535, "source": "osm", "_tags": {"amenity": "hospital", "healthcare": "hospital", "name": "Clinique du Pays de Montbéliard", "operator": "Noalys", "operator:type": "private", "website": "https://noalys.com/les-etablissements/"}}, {"name": "", "latitude": 47.6315497, "longitude": 6.8479987, "source": "osm", "_tags": {"amenity": "hospital", "healthcare": "hospital"}}, {"name": "Centre kinésithérapeute", "latitude": 47.6576427, "longitude": 6.7326934, "source": "osm", "_tags": {"addr:city": "Échavanne", "amenity": "hospital", "healthcare": "hospital", "healthcare:speciality": "community", "name": "Centre kinésithérapeute"}}, {"name": "Centre Hospitalier Émile Durkheim", "latitude": 48.1795419, "longitude": 6.453595, "source": "osm", "_tags": {"addr:city": "Épinal", "addr:housenumber": "3", "addr:postcode": "88000", "addr:street": "Avenue Robert Schuman", "amenity": "hospital", "emergency": "yes", "fax": "+33 3 29 31 31 71", "healthcare": "hospital", "healthcare:speciality": "general;paediatrics;surgery;dentistry;emergency;oncology;gynaecology;radiology;cardiology;maternity;neurology;geriatrics;intensive", "name": "Centre Hospitalier Émile Durkheim", "operator:type": "public", "phone": "+33 3 29 68 70 00", "ref:FR:FINESS": "880000021", "type:FR:FINESS": "355"}}, {"name": "Maison de santé", "latitude": 48.2537933, "longitude": 6.4211229, "source": "osm", "_tags": {"addr:city": "Thaon-les-Vosges", "addr:housenumber": "12", "addr:postcode": "88150", "addr:street": "Place Jules Ferry", "amenity": "hospital", "healthcare": "hospital", "healthcare:speciality": "general;kinésithérapie;dentiste;infirmière;sage-femme;psychomotricienne", "name": "Maison de santé"}}, {"name": "Nouvel Hôpital d'Épinal", "latitude": 48.1797017, "longitude": 6.4530315, "source": "osm", "_tags": {"amenity": "hospital", "building": "hospital", "description": "Ouverture prévue mars 2020.", "emergency": "yes", "healthcare": "hospital", "name": "Nouvel Hôpital d'Épinal", "source": "cadastre-dgi-fr source : Direction Générale des Finances Publiques - Cadastre. Mise à jour : 2022", "type": "multipolygon"}}]