[{"name": "Госпіталь інвалідів ВВВ", "latitude": 48.2860268, "longitude": 25.9744746, "source": "osm", "_tags": {"amenity": "hospital", "name": "Госпіталь інвалідів ВВВ", "name:uk": "Госпіталь інвалідів ВВВ"}}, {"name": "Міська поліклініка №5 корпус №2", "latitude": 48.273889, "longitude": 25.9412186, "source": "osm", "_tags": {"healthcare": "hospital", "name": "Міська поліклініка №5 корпус №2", "name:ru": "Городская поликлиника №5 корпус №2", "name:uk": "Міська поліклініка №5 корпус №2"}}, {"name": "Maternitatea Fălticeni", "latitude": 47.4638624, "longitude": 26.3009784, "source": "osm", "_tags": {"amenity": "hospital", "emergency": "no", "name": "Maternitatea Fălticeni"}}, {"name": "Spitalul municipal Fălticeni", "latitude": 47.4612254, "longitude": 26.2957182, "source": "osm", "_tags": {"amenity": "hospital", "emergency": "yes", "name": "Spitalul municipal Fălticeni"}}, {"name": "Шкірно-венерологічний диспансер.", "latitude": 48.2873083, "longitude": 25.9399655, "source": "osm", "_tags": {"amenity": "hospital", "healthcare:speciality": "dermatovenereology", "name": "Шкірно-венерологічний диспансер.", "name:uk": "Шкірно-венерологічний диспансер.", "official_name": "Шкірно-венерологічний диспансер, Анонімний кабінет"}}, {"name": "Обласне Патанатомічне бюро КМУ", "latitude": 48.283607, "longitude": 25.9758639, "source": "osm", "_tags": {"addr:housenumber": "205", "addr:street": "Руська вулиця", "amenity": "hospital", "name": "Обласне Патанатомічне бюро КМУ", "name:uk": "Обласне Патанатомічне бюро КМУ"}}, {"name": "Бюро судово-медичної експертизи", "latitude": 48.289975, "longitude": 25.9559727, "source": "osm", "_tags": {"addr:housenumber": "2", "addr:street": "Кишинівська вулиця", "amenity": "hospital", "healthcare": "hospital", "name": "Бюро судово-медичної експертизи", "name:uk": "Бюро судово-медичної експертизи"}}, {"name": "Діомед", "latitude": 48.2859954, "longitude": 25.9398245, "source": "osm", "_tags": {"addr:housenumber": "25", "addr:street": "вулиця Тараса Шевченка", "amenity": "hospital", "emergency": "yes", "healthcare": "hospital", "name": "Діомед", "name:uk": "Діомед", "official_name": "\"Діомед\" Швидка медична допомога"}}, {"name": "Preventoriu TBC pt Copii", "latitude": 47.4657854, "longitude": 26.8783746, "source": "osm", "_tags": {"amenity": "hospital", "name": "Preventoriu TBC pt Copii"}}, {"name": "Dispensarul comunei Ciprian Porumbescu", "latitude": 47.5684564, "longitude": 26.0622879, "source": "osm", "_tags": {"amenity": "hospital", "healthcare": "hospital", "name": "Dispensarul comunei Ciprian Porumbescu"}}, {"name": "Лікарня сімейної медицини", "latitude": 48.3647289, "longitude": 26.735416, "source": "osm", "_tags": {"amenity": "hospital", "healthcare": "hospital", "healthcare:speciality": "general;paediatrics;gynaecology;stomatology", "name": "Лікарня сімейної медицини", "name:ru": "Больница семейной медицины", "name:uk": "Лікарня сімейної медицини"}}, {"name": "Psihiatrie Cronici", "latitude": 47.9511784, "longitude": 26.0680758, "source": "osm", "_tags": {"addr:street": "Strada 9 Mai", "amenity": "hospital", "healthcare": "hospital", "name": "Psihiatrie Cronici", "name:ro": "Psihiatrie Cronici"}}, {"name": "Spital Orășănesc", "latitude": 47.7707508, "longitude": 26.4401106, "source": "osm", "_tags": {"addr:street": "Strada Nicolae Iorga", "amenity": "hospital", "name": "Spital Orășănesc", "name:en": "Hospital"}}, {"name": "Dispensar Deleni", "latitude": 47.4559039, "longitude": 26.8822403, "source": "osm", "_tags": {"addr:city": "Deleni", "amenity": "hospital", "healthcare": "hospital", "healthcare:speciality": "general", "name": "Dispensar Deleni"}}, {"name": "Горішньошерівецька АЗПСМ", "latitude": 48.3953584, "longitude": 25.9432269, "source": "osm", "_tags": {"addr:street": "Задубрівська вулиця", "amenity": "hospital", "healthcare": "hospital", "healthcare:speciality": "general", "name": "Горішньошерівецька АЗПСМ", "name:uk": "Горішньошерівецька АЗПСМ", "opening_hours": "Mo-Sa 08:30-17:30", "operator": "ЗАСТАВНІВСЬКИЙ РАЙОННИЙ ЦЕНТР ПЕРВИННОЇ МЕДИКО-САНІТАРНОЇ ДОПОМОГИ"}}, {"name": "Spitalul Orasenesc Darabani", "latitude": 48.1840497, "longitude": 26.5913284, "source": "osm", "_tags": {"amenity": "hospital", "healthcare": "hospital", "name": "Spitalul Orasenesc Darabani"}}, {"name": "Обласний санаторій", "latitude": 48.3509666, "longitude": 25.9542686, "source": "osm", "_tags": {"addr:street": "вулиця Івана Підкови", "amenity": "hospital", "name": "Обласний санаторій", "name:uk": "Обласний дитячий протитуберкульозний санаторій"}}, {"name": "Spitalul Municipal Dorohoi", "latitude": 47.9475512, "longitude": 26.4039705, "source": "osm", "_tags": {"addr:city": "Dorohoi", "addr:housenumber": "75", "addr:postcode": "715200", "addr:street": "Bulevardul Victoriei", "amenity": "hospital", "healthcare": "hospital", "name": "Spitalul Municipal Dorohoi", "website": "https://spitaldorohoi.ro/index.html"}}, {"name": "Міська поліклініка №2", "latitude": 48.2640589, "longitude": 25.9503127, "source": "osm", "_tags": {"amenity": "hospital", "name": "Міська поліклініка №2", "name:uk": "Міська поліклініка №2", "official_name": "Міська поліклініка №2, поліклінічне відділення", "phone": "+380 3722 42 209;+380 3722 42 210"}}, {"name": "Spitalul de boli cronice și îngrijiri paliative", "latitude": 47.7526053, "longitude": 26.6359148, "source": "osm", "_tags": {"amenity": "hospital", "healthcare": "hospital", "name": "Spitalul de boli cronice și îngrijiri paliative"}}, {"name": "Kolping", "latitude": 48.2954883, "longitude": 25.9413533, "source": "osm", "_tags": {"amenity": "hospital", "healthcare": "hospital", "name": "Kolping", "name:uk": "Kolping"}}, {"name": "Centrul de Sănătate Larga", "latitude": 48.368903, "longitude": 26.8364431, "source": "osm", "_tags": {"addr:city": "Larga", "addr:country": "MD", "addr:street": "Strada Ștefan cel Mare și Sfînt", "amenity": "hospital", "healthcare": "hospital", "name": "Centrul de Sănătate Larga"}}, {"name": "ЛШМД", "latitude": 48.2839288, "longitude": 25.9734101, "source": "osm", "_tags": {"amenity": "hospital", "healthcare": "hospital", "name": "ЛШМД"}}, {"name": "Policlinica Bethesda", "latitude": 47.6611264, "longitude": 26.2658247, "source": "osm", "_tags": {"amenity": "hospital", "healthcare": "hospital", "name": "Policlinica Bethesda"}}, {"name": "Policlinica", "latitude": 47.6601239, "longitude": 26.4230895, "source": "osm", "_tags": {"amenity": "hospital", "healthcare": "hospital", "name": "Policlinica"}}, {"name": "UNITATE DE ASISTENȚĂ MEDICO SOCIALĂ", "latitude": 47.6604799, "longitude": 26.4233866, "source": "osm", "_tags": {"amenity": "hospital", "healthcare": "hospital", "name": "UNITATE DE ASISTENȚĂ MEDICO SOCIALĂ"}}, {"name": "spitalul judetean Suceava", "latitude": 47.6391502, "longitude": 26.2401111, "source": "osm", "_tags": {"amenity": "hospital", "emergency": "yes", "healthcare": "hospital", "name": "spitalul judetean Suceava"}}, {"name": "A'drian Nicorici Stomatolog", "latitude": 48.2263969, "longitude": 26.5162021, "source": "osm", "_tags": {"addr:housenumber": "8A", "addr:postcode": "60352", "addr:street": "Центральна вулиця", "amenity": "hospital", "email": "andrian.nicorici@gmail.com", "emergency": "yes", "healthcare": "hospital", "healthcare:speciality": "stomatology;dentist;dental_oral_maxillo_facial_surgery", "internet_access": "yes", "name": "A'drian Nicorici Stomatolog", "opening_hours": "24/7", "payment:app": "yes", "payment:cash": "yes", "phone": "+380664282450"}}, {"name": "Dispensarul Stroiești", "latitude": 47.6147806, "longitude": 26.1311258, "source": "osm", "_tags": {"addr:city": "Stroiești", "addr:housenumber": "416", "addr:postcode": "727500", "addr:street": "Aleea Teilor", "amenity": "hospital", "emergency": "no", "healthcare": "hospital", "healthcare:speciality": "general", "name": "Dispensarul Stroiești", "operator": "Clinica ICD", "operator:type": "private", "website": "https://icd.ro/contact/clinica-icd-stroiesti/"}}, {"name": "Міська дитяча поліклініка", "latitude": 48.2674459, "longitude": 25.9429686, "source": "osm", "_tags": {"addr:housenumber": "109", "addr:street": "проспект Незалежності", "amenity": "hospital", "building": "yes", "name": "Міська дитяча поліклініка", "name:uk": "Міська дитяча поліклініка", "phone": "+380 3722 41 319"}}, {"name": "Spitalul Bethesda", "latitude": 47.6733151, "longitude": 26.2826188, "source": "osm", "_tags": {"amenity": "hospital", "building": "yes", "height": "20", "name": "Spitalul Bethesda", "name:en": "Bethesda Hospital"}}, {"name": "", "latitude": 48.2829685, "longitude": 25.976668, "source": "osm", "_tags": {"amenity": "hospital", "building": "yes", "healthcare": "hospital"}}, {"name": "Діагностичний центр", "latitude": 48.2707741, "longitude": 25.9408689, "source": "osm", "_tags": {"addr:housenumber": "5-А", "amenity": "hospital", "building": "yes", "building:levels": "6", "name": "Діагностичний центр", "name:ru": "Диагностический центр", "name:uk": "Діагностичний центр", "official_name": "Чернівецький обласний медичний діагностичний центр", "website": "http://www.omdc.cv.ua", "wheelchair": "yes"}}, {"name": "Міський протитуберкульозний диспансер", "latitude": 48.2894247, "longitude": 25.9392215, "source": "osm", "_tags": {"addr:housenumber": "1", "amenity": "hospital", "building": "yes", "name": "Міський протитуберкульозний диспансер", "name:ru": "Городской противотуберкулезный диспансер", "name:uk": "Міський протитуберкульозний диспансер"}}, {"name": "Міський клінічний пологовий будинок №1", "latitude": 48.2815734, "longitude": 25.9403651, "source": "osm", "_tags": {"addr:housenumber": "129", "amenity": "hospital", "building": "yes", "name": "Міський клінічний пологовий будинок №1", "name:uk": "Міський клінічний пологовий будинок №1"}}, {"name": "", "latitude": 48.2806966, "longitude": 25.946402, "source": "osm", "_tags": {"amenity": "hospital", "building": "yes", "building:levels": "4"}}, {"name": "", "latitude": 48.2743444, "longitude": 25.9438736, "source": "osm", "_tags": {"amenity": "hospital"}}, {"name": "", "latitude": 48.2798875, "longitude": 25.9442386, "source": "osm", "_tags": {"amenity": "hospital"}}, {"name": "", "latitude": 48.2801958, "longitude": 25.9423639, "source": "osm", "_tags": {"amenity": "hospital"}}, {"name": "", "latitude": 48.2817779, "longitude": 25.9408802, "source": "osm", "_tags": {"amenity": "hospital"}}, {"name": "Колінковецька сільська дільнична лікарня", "latitude": 48.408501, "longitude": 26.1296946, "source": "osm", "_tags": {"WroclawGIS:building:ID": "3", "addr:city": "Колінківці", "addr:housenumber": "86", "addr:postcode": "60023", "addr:street": "Головна вулиця", "amenity": "hospital", "building": "yes", "building:colour": "silver", "building:levels": "3", "name": "Колінковецька сільська дільнична лікарня", "name:uk": "Колінковецька сільська дільнична лікарня", "roof:colour": "silver"}}, {"name": "", "latitude": 48.3689388, "longitude": 26.4526029, "source": "osm", "_tags": {"amenity": "hospital", "building": "yes"}}, {"name": "", "latitude": 48.3689771, "longitude": 26.4528148, "source": "osm", "_tags": {"amenity": "hospital", "building": "yes"}}, {"name": "", "latitude": 48.3688853, "longitude": 26.452733, "source": "osm", "_tags": {"amenity": "hospital", "building": "yes"}}, {"name": "", "latitude": 48.3687971, "longitude": 26.4525976, "source": "osm", "_tags": {"amenity": "hospital", "building": "yes"}}, {"name": "Sanatoriul de neuropsihiatrie Podriga", "latitude": 48.0040066, "longitude": 26.8294893, "source": "osm", "_tags": {"amenity": "hospital", "name": "Sanatoriul de neuropsihiatrie Podriga"}}, {"name": "Spitalul Mavromati", "latitude": 47.7410349, "longitude": 26.6610334, "source": "osm", "_tags": {"addr:city": "Botoșani", "addr:housenumber": "11", "addr:postcode": "710211", "addr:street": "Strada Arhimandrit Marchian", "amenity": "hospital", "contact:phone": "0231 / 518812", "email": "spital@spitjudbotosani.ro", "emergency": "yes", "fax": "0231 / 517780", "healthcare": "hospital", "internet_access": "yes", "internet_access:fee": "no", "name": "Spitalul Mavromati", "website": "http://www.spitjudbotosani.ro", "wheelchair": "yes"}}, {"name": "Spitalul de Obstetrică și Ginecologie", "latitude": 47.7403781, "longitude": 26.6554218, "source": "osm", "_tags": {"addr:city": "Botoșani", "addr:housenumber": "6", "addr:street": "Bulevardul George Enescu", "amenity": "hospital", "email": "sog_bt@spitalulmavromati.ro", "emergency": "yes", "healthcare": "hospital", "name": "Spitalul de Obstetrică și Ginecologie", "operator": "Spitalul Județean de Urgență Mavromati", "phone": "0231 584 017", "website": "https://www.spitalulmavromati.ro/"}}, {"name": "Spitalul de Pneumoftiziologie", "latitude": 47.7344591, "longitude": 26.6639843, "source": "osm", "_tags": {"addr:city": "Botoșani", "addr:housenumber": "24", "addr:postcode": "710202", "addr:street": "Strada Trandafirilor", "amenity": "hospital", "email": "sesizari@pneumobt.ro", "emergency": "yes", "fax": "0231-584024", "healthcare": "hospital", "healthcare:speciality": "pneumology;intensive;chirurgie;toracica;anatomia_patologică;cardiologia;boli_interne;cardiology", "internet_access": "yes", "name": "Spitalul de Pneumoftiziologie", "operator": "Spitalul Județean de Urgență Mavromati", "operator:type": "public", "phone": "0231-584083", "website": "https://www.pneumobt.ro/"}}, {"name": "Spitalul de Psihiatrie", "latitude": 47.7338683, "longitude": 26.6907079, "source": "osm", "_tags": {"addr:city": "Botoșani", "addr:housenumber": "116", "addr:postcode": "710319", "addr:street": "Strada I.C. Brătianu", "amenity": "hospital", "emergency": "yes", "healthcare:speciality": "psychiatry", "name": "Spitalul de Psihiatrie", "operator": "Spitalul Județean de Urgență Mavromati", "website": "http://www.spitalpsihiatriebotosani.ro"}}, {"name": "Spitalul de Recuperare Sfântul Gheorghe", "latitude": 47.7530063, "longitude": 26.6363407, "source": "osm", "_tags": {"addr:city": "Botoșani", "addr:housenumber": "2", "addr:postcode": "710010", "addr:street": "Calea Națională", "amenity": "hospital", "healthcare": "hospital", "name": "Spitalul de Recuperare Sfântul Gheorghe"}}, {"name": "Spitalul Orășenesc Hârlău", "latitude": 47.4308733, "longitude": 26.8983617, "source": "osm", "_tags": {"addr:city": "Hârlău", "addr:housenumber": "15", "addr:postcode": "705100", "addr:street": "Strada Bogdan Vodă", "amenity": "hospital", "email": "soh@spitaluloraseneschirlau.ro", "fax": "+40232722259", "healthcare": "hospital", "name": "Spitalul Orășenesc Hârlău", "phone": "+40232720300", "website": "https://spitaluloraseneschirlau.ro/"}}, {"name": "", "latitude": 48.2126524, "longitude": 26.1679278, "source": "osm", "_tags": {"amenity": "hospital"}}, {"name": "", "latitude": 48.0382363, "longitude": 26.1400403, "source": "osm", "_tags": {"amenity": "hospital"}}, {"name": "", "latitude": 48.3810121, "longitude": 26.0828684, "source": "osm", "_tags": {"amenity": "hospital", "healthcare": "hospital"}}, {"name": "", "latitude": 48.2278057, "longitude": 26.0297344, "source": "osm", "_tags": {"amenity": "hospital", "healthcare": "hospital"}}, {"name": "Лікарня Хоспіс", "latitude": 48.2284538, "longitude": 26.0250866, "source": "osm", "_tags": {"amenity": "hospital", "healthcare": "hospital", "name": "Лікарня Хоспіс", "name:uk": "Лікарня Хоспіс"}}, {"name": "", "latitude": 48.2275883, "longitude": 26.0309511, "source": "osm", "_tags": {"amenity": "hospital", "healthcare": "hospital"}}, {"name": "Міська лікарня №4", "latitude": 48.3512718, "longitude": 25.9578619, "source": "osm", "_tags": {"amenity": "hospital", "healthcare": "hospital", "name": "Міська лікарня №4", "name:uk": "Міська лікарня №4"}}, {"name": "", "latitude": 48.3532939, "longitude": 25.9514448, "source": "osm", "_tags": {"amenity": "hospital"}}, {"name": "", "latitude": 48.1993663, "longitude": 26.2232538, "source": "osm", "_tags": {"amenity": "hospital"}}, {"name": "КНП \"Новоселицька Лікарня\"", "latitude": 48.2218137, "longitude": 26.2713052, "source": "osm", "_tags": {"addr:housenumber": "1", "amenity": "hospital", "emergency": "yes", "name": "КНП \"Новоселицька Лікарня\"", "name:ru": "Новоселицкая ЦРБ", "name:uk": "КНП \"Новоселицька Лікарня\"", "operator": "МОЗ України"}}, {"name": "Коровійський ФАП", "latitude": 48.2262209, "longitude": 25.9709585, "source": "osm", "_tags": {"addr:street": "Центральна вулиця", "amenity": "hospital", "name": "Коровійський ФАП", "name:uk": "Коровійський ФАП"}}, {"name": "Secția externă Săveni", "latitude": 47.9587124, "longitude": 26.8604718, "source": "osm", "_tags": {"addr:city": "Săveni", "addr:housenumber": "2", "addr:street": "Strada Avram Iancu", "amenity": "hospital", "email": "sav_bt@spitalulmavromati.ro", "emergency": "yes", "healthcare": "hospital", "healthcare:speciality": "surgery;dermatology;gynaecology;dentistry;paediatrics;ophthalmology;radiology;intensive", "name": "Secția externă Săveni", "operator": "Spitalul Județean de Urgență Marvromati", "operator:type": "government", "phone": "+40231541422", "website": "https://www.spitalulmavromati.ro/?page_id=828"}}, {"name": "", "latitude": 47.7476878, "longitude": 26.6481324, "source": "osm", "_tags": {"addr:city": "Botoșani", "addr:housenumber": "12", "addr:street": "Bulevardul Mihai Eminescu", "amenity": "hospital", "healthcare": "hospital"}}, {"name": "", "latitude": 48.1840496, "longitude": 26.5913248, "source": "osm", "_tags": {"amenity": "hospital", "healthcare": "hospital"}}, {"name": "Обласний наркологічний диспансер", "latitude": 48.2637484, "longitude": 25.9661342, "source": "osm", "_tags": {"amenity": "hospital", "name": "Обласний наркологічний диспансер", "name:uk": "Обласний наркологічний диспансер"}}, {"name": "Відділення фізіотерапії клініки Angelholm", "latitude": 48.2463121, "longitude": 25.9598656, "source": "osm", "_tags": {"amenity": "hospital", "healthcare": "hospital", "name": "Відділення фізіотерапії клініки Angelholm", "name:uk": "Відділення фізіотерапії клініки Angelholm"}}, {"name": "", "latitude": 48.2743126, "longitude": 25.9411428, "source": "osm", "_tags": {"amenity": "hospital"}}, {"name": "", "latitude": 48.2684495, "longitude": 25.9477936, "source": "osm", "_tags": {"amenity": "hospital"}}, {"name": "Міська дитяча лікарня", "latitude": 48.2803708, "longitude": 25.9454859, "source": "osm", "_tags": {"amenity": "hospital", "building": "yes", "building:levels": "3", "healthcare": "hospital", "name": "Міська дитяча лікарня", "name:uk": "Міська дитяча лікарня"}}, {"name": "Spitalul Vechi", "latitude": 47.6378405, "longitude": 26.241903, "source": "osm", "_tags": {"amenity": "hospital", "healthcare": "hospital", "name": "Spitalul Vechi"}}, {"name": "Медпункт", "latitude": 48.3372299, "longitude": 26.0604641, "source": "osm", "_tags": {"amenity": "hospital", "healthcare": "hospital", "healthcare:speciality": "general;stomatology", "name": "Медпункт", "name:uk": "Медпункт"}}, {"name": "Spitalul Clinic CF Iasi, Ambulatoriul de specialitate CF Suceava", "latitude": 47.6704469, "longitude": 26.2676003, "source": "osm", "_tags": {"addr:city": "Suceava", "addr:housenumber": "9", "addr:postcode": "720168", "addr:street": "Strada Nicolae Iorga", "amenity": "hospital", "building": "yes", "healthcare": "hospital", "name": "Spitalul Clinic CF Iasi, Ambulatoriul de specialitate CF Suceava", "phone": "0741 070 264"}}, {"name": "Міська лікарня №3", "latitude": 48.2742408, "longitude": 25.9439218, "source": "osm", "_tags": {"amenity": "hospital", "building": "yes", "name": "Міська лікарня №3", "name:ru": "Городская больница №3", "name:uk": "Міська лікарня №3", "type": "multipolygon"}}, {"name": "Лікарня швидкої медичної допомоги", "latitude": 48.2845628, "longitude": 25.9740003, "source": "osm", "_tags": {"amenity": "hospital", "name": "Лікарня швидкої медичної допомоги", "name:uk": "Лікарня швидкої медичної допомоги", "type": "multipolygon"}}, {"name": "", "latitude": 48.2832561, "longitude": 25.9769986, "source": "osm", "_tags": {"amenity": "hospital", "type": "multipolygon"}}, {"name": "", "latitude": 48.286033, "longitude": 25.9747546, "source": "osm", "_tags": {"amenity": "hospital", "type": "multipolygon"}}, {"name": "", "latitude": 48.1516965, "longitude": 26.2526626, "source": "osm", "_tags": {"amenity": "hospital", "type": "multipolygon"}}, {"name": "", "latitude": 48.2363274, "longitude": 26.5458762, "source": "osm", "_tags": {"amenity": "hospital", "type": "multipolygon"}}, {"name": "", "latitude": 48.2675078, "longitude": 25.9430506, "source": "osm", "_tags": {"amenity": "hospital", "type": "multipolygon"}}, {"name": "Чернівецька обласна психіатрична лікарня", "latitude": 48.2658016, "longitude": 25.9417607, "source": "osm", "_tags": {"amenity": "hospital", "healthcare": "hospital", "name": "Чернівецька обласна психіатрична лікарня", "name:uk": "Чернівецька обласна психіатрична лікарня", "type": "multipolygon"}}, {"name": "", "latitude": 48.2653151, "longitude": 25.9435525, "source": "osm", "_tags": {"amenity": "hospital", "type": "multipolygon"}}, {"name": "Міська поліклініка №3", "latitude": 48.2505138, "longitude": 25.9530138, "source": "osm", "_tags": {"amenity": "hospital", "name": "Міська поліклініка №3", "name:uk": "Міська поліклініка №3", "phone": "+380 3722 43 401;+380 3722 45 024", "type": "multipolygon"}}]