[{"name": "Universitätsklinikum Krems", "latitude": 48.4120096, "longitude": 15.6156832, "source": "osm", "_tags": {"addr:city": "Krems an der Donau", "addr:country": "AT", "addr:housenumber": "10", "addr:postcode": "3500", "addr:street": "Mitterweg", "amenity": "hospital", "emergency": "yes", "healthcare": "hospital", "healthcare:speciality": "emergency", "name": "Universitätsklinikum Krems", "operator": "NÖ Landesgesundheitsagentur", "operator:type": "public", "phone": "+43 2732 9004", "website": "https://www.krems.lknoe.at/", "wikidata": "Q1802293", "wikipedia": "de:Universitätsklinikum Krems"}}, {"name": "Universitätsklinikum St. Pölten", "latitude": 48.2144679, "longitude": 15.6271026, "source": "osm", "_tags": {"addr:city": "St. Pölten", "addr:country": "AT", "addr:housenumber": "1", "addr:place": "Dunant-Platz", "addr:postcode": "3100", "amenity": "hospital", "emergency": "yes", "health_specialty": "stroke_unit", "healthcare": "hospital", "healthcare:speciality": "general;gynaecology;paediatrics;dermatology;orthopaedics;internal;trauma;radiology;urology;surgery;cardiology;neurology;otorhinolaryngology;emergency", "name": "Universitätsklinikum St. Pölten", "old_name": "Landesklinikum St. Pölten", "operator": "Niederösterreichische Landeskliniken-Holding", "operator:type": "public", "phone": "+43 2742 9004", "website": "https://www.stpoelten.lknoe.at/", "wheelchair": "yes", "wikidata": "Q1802295"}}, {"name": "Landesklinikum Lilienfeld", "latitude": 48.0093694, "longitude": 15.5803204, "source": "osm", "_tags": {"addr:city": "Lilienfeld", "addr:country": "AT", "addr:housenumber": "2", "addr:postcode": "3180", "addr:street": "Im Tal", "amenity": "hospital", "building": "hospital", "healthcare": "hospital", "healthcare:speciality": "emergency", "layer": "1", "name": "Landesklinikum Lilienfeld", "operator": "NÖ Landeskliniken-Holding", "phone": "+43 2762/9004-0", "source": "node 204767802", "website": "https://www.lilienfeld.lknoe.at/", "wikidata": "Q1255312"}}, {"name": "Landeskrankenhaus Hochsteiermark - Standort Bruck an der Mur", "latitude": 47.4231146, "longitude": 15.2676566, "source": "osm", "_tags": {"addr:city": "Bruck an der Mur", "addr:country": "AT", "addr:housenumber": "1", "addr:postcode": "8600", "addr:street": "Tragößer Straße", "amenity": "hospital", "emergency": "yes", "health_specialty": "stroke_unit", "healthcare": "hospital", "healthcare:speciality": "emergency", "name": "Landeskrankenhaus Hochsteiermark - Standort Bruck an der Mur", "operator": "Steiermärkische Krankenanstaltengesellschaft m.b.H.", "operator:type": "public", "operator:wikidata": "Q15849047", "phone": "+43 3862 895 0", "short_name": "LKH Bruck a. d. Mur", "website": "https://www.lkh-hochsteiermark.at", "wheelchair": "yes"}}, {"name": "Gesundheitsresort Raxblick", "latitude": 47.6709927, "longitude": 15.7865524, "source": "osm", "_tags": {"addr:city": "Reichenau an der Rax", "addr:country": "AT", "addr:housenumber": "2", "addr:place": "Oberland", "addr:postcode": "2651", "amenity": "hospital", "building": "yes", "health_facility:type": "rehabilitation", "healthcare": "rehabilitation", "name": "Gesundheitsresort Raxblick", "toilets:wheelchair": "yes", "tourism": "hotel", "website": "http://www.raxblick.at/", "wheelchair": "yes"}}, {"name": "Landeskrankenhaus Hochsteiermark - Standort Mürzzuschlag", "latitude": 47.6000265, "longitude": 15.6684948, "source": "osm", "_tags": {"addr:city": "Mürzzuschlag", "addr:country": "AT", "addr:housenumber": "63-65", "addr:postcode": "8680", "addr:street": "Grazer Straße", "amenity": "hospital", "emergency": "yes", "healthcare": "hospital", "healthcare:speciality": "emergency", "name": "Landeskrankenhaus Hochsteiermark - Standort Mürzzuschlag", "old_name": "Landeskrankenhaus Mürzzuschlag", "operator": "Steiermärkische Krankenanstaltengesellschaft m.b.H.", "operator:type": "public", "operator:wikidata": "Q15849047", "operator:wikipedia": "de:Steiermärkische Krankenanstaltengesellschaft", "phone": "+43 3852 2080 0", "short_name": "LKH Mürzzuschlag", "source": "GeoImage.at High-Res", "website": "https://www.lkh-hochsteiermark.at/", "wheelchair": "yes", "wikidata": "Q125576652"}}, {"name": "Landesklinikum Melk", "latitude": 48.2266457, "longitude": 15.3400892, "source": "osm", "_tags": {"amenity": "hospital", "healthcare": "hospital", "healthcare:speciality": "emergency", "name": "Landesklinikum Melk", "operator": "Niederösterreichische Landeskliniken-Holding", "phone": "+43 2752 900 40", "website": "https://melk.lknoe.at/", "wheelchair": "limited", "wikidata": "Q1802294", "wikimedia_commons": "Category:Landesklinikum Melk", "wikipedia": "de:Landesklinikum Melk"}}, {"name": "Therapiezentrum Ybbs", "latitude": 48.1814258, "longitude": 15.0796263, "source": "osm", "_tags": {"addr:city": "Ybbs an der Donau", "addr:housenumber": "1-3", "addr:postcode": "3370", "addr:street": "Persenbeuger Straße", "healthcare": "hospital", "healthcare:speciality": "psychiatry", "hospital": "mental_health", "name": "Therapiezentrum Ybbs", "operator": "Wien KAV", "social_facility:for": "mental_health", "website": "http://www.wienkav.at/kav/tzy/"}}, {"name": "Landesklinikum Scheibbs", "latitude": 48.012115, "longitude": 15.1632956, "source": "osm", "_tags": {"amenity": "hospital", "email": "office@scheibbs.lknoe.at", "emergency": "yes", "healthcare": "hospital", "healthcare:speciality": "surgery;internal;gynaecology;palliative;physiatry;general;emergency;radiology", "name": "Landesklinikum Scheibbs", "phone": "+43 7482 9004 0", "short_name": "Klinikum Scheibbs", "website": "https://scheibbs.lknoe.at/", "wikidata": "Q1638641"}}, {"name": "LKH Hochsteiermark", "latitude": 47.4901418, "longitude": 15.3769048, "source": "osm", "_tags": {"amenity": "hospital", "healthcare": "hospital", "name": "LKH Hochsteiermark", "operator": "Steiermärkische Krankenanstaltengesellschaft m.b.H.", "operator:wikidata": "Q15849047", "operator:wikipedia": "de:Steiermärkische Krankenanstaltengesellschaft", "type": "site", "website": "https://www.lkh-hochsteiermark.at/"}}]