[{"name": "Selye János Kórház", "latitude": 47.7346007, "longitude": 18.1680505, "source": "osm", "_tags": {"amenity": "hospital", "healthcare": "hospital", "name": "Selye János Kórház"}}, {"name": "Bicskei Egészségügyi Központ", "latitude": 47.4923672, "longitude": 18.6361049, "source": "osm", "_tags": {"amenity": "hospital", "name": "Bicskei Egészségügyi Központ", "wheelchair": "yes"}}, {"name": "Selye János Szakrendelő Intézet", "latitude": 47.7425953, "longitude": 18.1224277, "source": "osm", "_tags": {"amenity": "hospital", "emergency": "no", "healthcare": "hospital", "name": "Selye János Szakrendelő Intézet"}}, {"name": "Szakorvosi rendelőintézet", "latitude": 47.6168764, "longitude": 18.902513, "source": "osm", "_tags": {"addr:city": "Pilisvörösvár", "addr:housenumber": "130/A", "addr:postcode": "2085", "addr:street": "Fő utca", "amenity": "hospital", "emergency": "yes", "healthcare": "hospital", "name": "Szakorvosi rendelőintézet"}}, {"name": "Stará nemocnica", "latitude": 47.9867933, "longitude": 18.1735366, "source": "osm", "_tags": {"amenity": "hospital", "healthcare": "hospital", "name": "Stará nemocnica", "source": "local knowledge"}}, {"name": "Tata Városi Kórház Rendelőintézet Fizikoterápiai Részleg", "latitude": 47.647116, "longitude": 18.3155183, "source": "osm", "_tags": {"amenity": "hospital", "healthcare": "hospital", "name": "Tata Városi Kórház Rendelőintézet Fizikoterápiai Részleg", "wheelchair": "yes"}}, {"name": "Batthyány Kázmér Szakkórház és Rendelőintézet", "latitude": 47.4990567, "longitude": 18.0237076, "source": "osm", "_tags": {"addr:city": "Kisbér", "addr:housenumber": "11", "addr:postcode": "2870", "addr:street": "Iskola utca", "amenity": "hospital", "email": "titkarsag@kisberkorhaz.hu", "emergency": "yes", "healthcare": "hospital", "name": "Batthyány Kázmér Szakkórház és Rendelőintézet", "phone": "+36 34 552 600", "website": "http://www.kisberkorhaz.hu", "wheelchair": "yes"}}, {"name": "Tüdőgyógyintézet", "latitude": 47.4284876, "longitude": 18.916975, "source": "osm", "_tags": {"addr:city": "Törökbálint", "addr:housenumber": "70", "addr:postcode": "2045", "addr:street": "Munkácsy Mihály utca", "amenity": "hospital", "healthcare": "hospital", "name": "Tüdőgyógyintézet"}}, {"name": "Szakorvosi Rendelőintézet SZTK", "latitude": 47.8174832, "longitude": 18.8721664, "source": "osm", "_tags": {"addr:city": "Szob", "addr:housenumber": "22", "addr:postcode": "2628", "addr:street": "Arany János utca", "amenity": "hospital", "healthcare": "hospital", "name": "Szakorvosi Rendelőintézet SZTK", "source": "turistautak.hu", "source:date": "2011-06-28", "url": "http://turistautak.hu/poi.php?id=104151"}}, {"name": "Nappali Kórház, OORI", "latitude": 47.5217419, "longitude": 18.9341989, "source": "osm", "_tags": {"amenity": "hospital", "healthcare": "hospital", "name": "Nappali Kórház, OORI", "operator": "Országos Egészségbiztosítási Pénztár", "website": "http://www.rehabint.hu/oldal/nappali"}}, {"name": "OORI: Országos Orvosi Rehabilitációs Intézet", "latitude": 47.5233535, "longitude": 18.9314496, "source": "osm", "_tags": {"alt_name": "Országos Orvosi Rehabilitációs Intézet", "amenity": "hospital", "healthcare": "hospital", "name": "OORI: Országos Orvosi Rehabilitációs Intézet", "operator": "Országos Egészségbiztosítási Pénztár", "toilets:wheelchair": "yes", "website": "http://www.rehabint.hu/", "wheelchair": "yes"}}, {"name": "Oddelenie radiačnej a klinickej onkológie", "latitude": 48.3006876, "longitude": 18.0848033, "source": "osm", "_tags": {"amenity": "hospital", "healthcare": "hospital", "name": "Oddelenie radiačnej a klinickej onkológie"}}, {"name": "Pest Megyei Önkormányzat Tüdőgyógyintézete", "latitude": 47.4297875, "longitude": 18.9150184, "source": "osm", "_tags": {"addr:city": "Törökbálint", "addr:housenumber": "70", "addr:postcode": "2045", "addr:street": "Munkácsy Mihály utca", "addr:suburb": "Ófalu", "amenity": "hospital", "email": "tbti@torokbalintkorhaz.hu", "healthcare": "hospital", "name": "Pest Megyei Önkormányzat Tüdőgyógyintézete", "operator": "Pest Megyei Önkormányzat", "phone": "+36 23 511 570", "website": "http://torokbalintkorhaz.hu"}}, {"name": "Všeobecná nemocnica Komárno", "latitude": 47.7651506, "longitude": 18.1286021, "source": "osm", "_tags": {"amenity": "hospital", "contact:website": "https://www.nemocnicakomarno.sk/index.html", "healthcare": "hospital", "name": "Všeobecná nemocnica Komárno", "operator": "Nemocnica AGEL Komárno s.r.o.", "wikidata": "Q64548979"}}, {"name": "Vaszary Kolos Kórház", "latitude": 47.7904647, "longitude": 18.746808, "source": "osm", "_tags": {"addr:city": "Esztergom", "addr:housenumber": "26-28", "addr:postcode": "2500", "addr:street": "Petőfi Sándor utca", "amenity": "hospital", "barrier": "fence", "emergency": "yes", "healthcare": "hospital", "name": "Vaszary Kolos Kórház", "wheelchair": "yes"}}, {"name": "Dorogi Szent Borbála Szakkórház és Szakorvosi Rendelő", "latitude": 47.7191576, "longitude": 18.7336535, "source": "osm", "_tags": {"amenity": "hospital", "healthcare": "hospital", "name": "Dorogi Szent Borbála Szakkórház és Szakorvosi Rendelő"}}, {"name": "Rehabilitácia ALPHA Nové Zámky", "latitude": 47.9963338, "longitude": 18.1687268, "source": "osm", "_tags": {"addr:city": "Nové Zámky", "addr:conscriptionnumber": "4002", "addr:country": "SK", "addr:housenumber": "4002/40", "addr:postcode": "94002", "addr:street": "Bratislavská cesta", "addr:streetnumber": "40", "addr:suburb": "Nové Zámky", "amenity": "hospital", "building": "yes", "building:levels": "0", "healthcare": "hospital", "image": "https://maps.app.goo.gl/PQkEN4MsRjoHcmDB9", "import": "budovy201004", "name": "Rehabilitácia ALPHA Nové Zámky", "ref:minvskaddress": "1894397A", "source": "kapor2;local knowledge", "source:addr": "minvskaddress 2024-02", "website": "https://www.rehabilitaciaalpha.sk/"}}, {"name": "Fakultná nemocnica Nitra", "latitude": 48.3007219, "longitude": 18.0853843, "source": "osm", "_tags": {"amenity": "hospital", "boundary": "postal_code", "healthcare": "hospital", "name": "Fakultná nemocnica Nitra", "postal_code": "950 01", "source": "kapor2", "website": "https://fnnitra.sk/", "wikidata": "Q22770904"}}, {"name": "Szent Borbála Kórház Szanatórium (megszűnt)", "latitude": 47.6005378, "longitude": 18.3967126, "source": "osm", "_tags": {"abandoned:amenity": "hospital", "building": "yes", "healthcare": "hospital", "name": "Szent Borbála Kórház Szanatórium (megszűnt)"}}, {"name": "Szent Borbála Kórház", "latitude": 47.579771, "longitude": 18.393673, "source": "osm", "_tags": {"addr:city": "Tatabánya", "addr:housenumber": "77", "addr:postcode": "2800", "addr:street": "Dózsa György út", "amenity": "hospital", "healthcare": "hospital", "name": "Szent Borbála Kórház", "wheelchair": "yes"}}, {"name": "Psychiatrická nemocnica Hronovce", "latitude": 48.0018647, "longitude": 18.6592864, "source": "osm", "_tags": {"amenity": "hospital", "contact:website": "https://pnh.sk/", "email": "pnh@pnh.sk", "healthcare": "hospital", "healthcare:speciality": "psychiatry", "name": "Psychiatrická nemocnica Hronovce", "phone": "+421 36 7577 200", "website": "https://pnh.sk/"}}, {"name": "Fakultná nemocnica s poliklinikou Nové Zámky", "latitude": 47.989903, "longitude": 18.1520205, "source": "osm", "_tags": {"amenity": "hospital", "contact:facebook": "https://www.facebook.com/nemocnicanz", "email": "email@nspnz.sk", "healthcare": "hospital", "name": "Fakultná nemocnica s poliklinikou Nové Zámky", "phone": "+421356912111", "source": "kapor2", "website": "https://www.nspnz.sk"}}, {"name": "Árpád-házi Szent Erzsébet Szakkórház", "latitude": 47.6458446, "longitude": 18.3157952, "source": "osm", "_tags": {"addr:city": "Tata", "addr:housenumber": "2", "addr:postcode": "2890", "addr:street": "Hősök tere", "amenity": "hospital", "building": "hospital", "building:colour": "yellow", "building:levels": "2", "healthcare": "hospital", "name": "Árpád-házi Szent Erzsébet Szakkórház", "wikidata": "Q64549066", "wikimedia_commons": "Category:Erzsébet Hospital (Tata)"}}, {"name": "Psychiatrická nemocnica Veľké Zálužie", "latitude": 48.3020815, "longitude": 17.9416515, "source": "osm", "_tags": {"addr:city": "Veľké Zálužie", "addr:conscriptionnumber": "334", "addr:country": "SK", "addr:housenumber": "334/48", "addr:postcode": "95135", "addr:street": "Rínok", "addr:streetnumber": "48", "amenity": "hospital", "building": "hospital", "contact:website": "http://www.pnvz.sk/", "emergency": "no", "healthcare": "hospital", "import": "budovy201004", "name": "Psychiatrická nemocnica Veľké Zálužie", "ref:minvskaddress": "18577988", "source": "kapor2", "source:addr": "minvskaddress 2025-01"}}, {"name": "Nemocnica AGEL Levice", "latitude": 48.2222517, "longitude": 18.6138051, "source": "osm", "_tags": {"amenity": "hospital", "email": "sekretariat@nlv.agel.sk", "name": "Nemocnica AGEL Levice", "operator": "Nemocnica AGEL Levice s.r.o.", "phone": "+421 36 6379 360", "source:shape": "guess", "website": "https://nemocnicalevice.agel.sk/"}}, {"name": "Špecializovaná nemocnica sv. Svorada", "latitude": 48.345224, "longitude": 18.0917036, "source": "osm", "_tags": {"amenity": "hospital", "name": "Špecializovaná nemocnica sv. Svorada", "source": "kapor2", "website": "https://www.snzobor.sk/"}}, {"name": "HM 3. számú Rehabilitációs Osztály", "latitude": 47.5219159, "longitude": 18.9307983, "source": "osm", "_tags": {"amenity": "hospital", "building": "hospital", "healthcare": "hospital", "name": "HM 3. számú Rehabilitációs Osztály", "official_name": "HM 3. számú Rehabilitációs,. Krónikus Utókezelő osztály", "operator": "Honvédelmi Minisztérium"}}, {"name": "Szent Kozma és Damján Rehabilitációs Szakkórház", "latitude": 47.7589098, "longitude": 18.9415512, "source": "osm", "_tags": {"addr:city": "Visegrád", "addr:housenumber": "1", "addr:postcode": "2026", "addr:street": "Gizella út", "addr:suburb": "Gizellatelep", "amenity": "hospital", "email": "info@visegradikorhaz.hu", "healthcare": "hospital", "name": "Szent Kozma és Damján Rehabilitációs Szakkórház", "phone": "+36 26 801 700", "website": "https://www.visegradikorhaz.hu/"}}, {"name": "Komárom-Esztergom Megyei Integrált Szociális Intézmény Pszichiátriai Betegek Otthona", "latitude": 47.7561856, "longitude": 18.7371915, "source": "osm", "_tags": {"addr:city": "Esztergom", "addr:housenumber": "1", "addr:postcode": "2509", "addr:street": "Dr. Niedermann Gyula utca", "addr:suburb": "Kertváros", "amenity": "hospital", "healthcare": "hospital", "name": "Komárom-Esztergom Megyei Integrált Szociális Intézmény Pszichiátriai Betegek Otthona"}}, {"name": "Kastélypark Klinika", "latitude": 47.6481037, "longitude": 18.3175533, "source": "osm", "_tags": {"addr:city": "Tata", "addr:housenumber": "15", "addr:postcode": "2890", "addr:street": "Hajdú utca", "amenity": "hospital", "check_date": "2024-04-01", "healthcare": "hospital", "name": "Kastélypark Klinika"}}, {"name": "Dorogi Szent Borbála Szakkórház", "latitude": 47.7190601, "longitude": 18.7338028, "source": "osm", "_tags": {"addr:city": "Dorog", "addr:housenumber": "6", "addr:postcode": "2510", "addr:street": "Kossuth Lajos utca", "amenity": "hospital", "capacity": "125", "email": "info@dorogkorhaz.hu", "emergency": "yes", "healthcare": "hospital", "name": "Dorogi Szent Borbála Szakkórház"}}, {"name": "Nemocnica Zlaté Moravce a.s.", "latitude": 48.3832077, "longitude": 18.3988177, "source": "osm", "_tags": {"addr:city": "Zlaté Moravce", "addr:housenumber": "4", "addr:postcode": "95301", "addr:street": "Bernolákova", "addr:streetnumber": "4", "amenity": "hospital", "contact:website": "https://www.nemocnicamoravce.sk/index.html", "emergency": "yes", "healthcare": "hospital", "name": "Nemocnica Zlaté Moravce a.s."}}, {"name": "Krónikus Pszichiátriai Osztály", "latitude": 47.7905996, "longitude": 18.7482356, "source": "osm", "_tags": {"building": "hospital", "healthcare": "hospital", "healthcare:speciality": "psychiatry", "name": "Krónikus Pszichiátriai Osztály", "type": "multipolygon"}}, {"name": "Országos Mozgásszervi Intézet - OORI", "latitude": 47.5226593, "longitude": 18.9311414, "source": "osm", "_tags": {"alt_name": "Országos Orvosi Rehabilitációs Intézet", "amenity": "hospital", "barrier": "fence", "fence_type": "chain_link", "healthcare": "hospital", "height": "3", "name": "Országos Mozgásszervi Intézet - OORI", "toilets:wheelchair": "yes", "type": "multipolygon", "website": "http://www.rehabint.hu/", "wheelchair": "yes"}}, {"name": "Magyar Honvédség Egészségügyi Központ", "latitude": 47.5214718, "longitude": 18.9301278, "source": "osm", "_tags": {"amenity": "hospital", "healthcare": "hospital", "name": "Magyar Honvédség Egészségügyi Központ", "type": "multipolygon"}}]