[{"name": "Herz-Jesu-Krankenhaus", "latitude": 48.1955792, "longitude": 16.3984155, "source": "osm", "_tags": {"addr:city": "Wien", "addr:country": "AT", "addr:housenumber": "20A", "addr:postcode": "1030", "addr:street": "Baumgasse", "amenity": "hospital", "check_date": "2025-08-20", "email": "office@kh-herzjesu.at", "fax": "+43 (0)1 / 712 26 84-8650", "healthcare": "hospital", "name": "Herz-Jesu-Krankenhaus", "phone": "+43 (0)1 / 712 26 84-0", "website": "https://www.kh-herzjesu.at/", "wheelchair": "limited", "wikidata": "Q26884361"}}, {"name": "Franziskus Spital Landstraße", "latitude": 48.2050873, "longitude": 16.3860573, "source": "osm", "_tags": {"addr:city": "Wien", "addr:country": "AT", "addr:housenumber": "4a", "addr:postcode": "1030", "addr:street": "Landstraßer Hauptstraße", "amenity": "hospital", "healthcare": "hospital", "name": "Franziskus Spital Landstraße", "phone": "+43 1 71126-0", "website": "https://www.franziskusspital.com", "wheelchair": "yes", "wikidata": "Q1606515", "wikipedia": "de:Krankenhaus St. Elisabeth Wien"}}, {"name": "Krankenhaus der Barmherzigen Schwestern", "latitude": 48.1923503, "longitude": 16.3454714, "source": "osm", "_tags": {"addr:city": "Wien", "addr:country": "AT", "addr:housenumber": "13", "addr:postcode": "1060", "addr:street": "Stumpergasse", "amenity": "hospital", "check_date": "2024-08-13", "contact:website": "https://bhswien.at/", "emergency": "no", "healthcare": "hospital", "healthcare:speciality": "urology;oncology;gastroenterology", "name": "Krankenhaus der Barmherzigen Schwestern", "operator": "Vinzenz Gruppe", "wheelchair": "yes"}}, {"name": "Krankenhaus der Barmherzigen Brüder", "latitude": 47.8384514, "longitude": 16.9224556, "source": "osm", "_tags": {"addr:city": "Frauenkirchen", "addr:country": "AT", "addr:housenumber": "4", "addr:postcode": "7132", "addr:street": "Mühlteich", "amenity": "hospital", "healthcare": "hospital", "name": "Krankenhaus der Barmherzigen Brüder", "opening_hours": "Mo-Sa 08:00-19:00", "phone": "+43 2682 6014350"}}, {"name": "Medizinische Ambulanz", "latitude": 48.1216946, "longitude": 16.560243, "source": "osm", "_tags": {"amenity": "hospital", "healthcare": "hospital", "level": "1", "name": "Medizinische Ambulanz", "name:en": "Medical emergency ambulance", "opening_hours": "24/7", "phone": "+431700722245"}}, {"name": "Universitätsklinikum Tulln", "latitude": 48.3219081, "longitude": 16.0649306, "source": "osm", "_tags": {"addr:city": "Tulln an der Donau", "addr:housenumber": "10", "addr:postcode": "3430", "addr:street": "Alter Ziegelweg", "amenity": "hospital", "health_specialty": "stroke_unit", "healthcare": "hospital", "healthcare:speciality": "psychiatry;child_psychiatry", "name": "Universitätsklinikum Tulln", "operator": "NÖ Landesgesundheitsagentur", "operator:type": "public"}}, {"name": "Landesklinikum Klosterneuburg", "latitude": 48.3078057, "longitude": 16.3237285, "source": "osm", "_tags": {"addr:city": "Klosterneuburg", "addr:country": "AT", "addr:housenumber": "12-14", "addr:postcode": "3400", "addr:street": "Kreutzergasse", "amenity": "hospital", "healthcare": "hospital", "healthcare:speciality": "emergency", "name": "Landesklinikum Klosterneuburg", "operator": "Niederösterreichische Landeskliniken-Holding", "wheelchair": "yes"}}, {"name": "Landesklinikum Stockerau", "latitude": 48.3864959, "longitude": 16.2050471, "source": "osm", "_tags": {"addr:city": "Stockerau", "addr:country": "AT", "addr:housenumber": "18", "addr:postcode": "2000", "addr:street": "Landstraße", "amenity": "hospital", "building": "hospital", "building:levels": "4", "emergency": "yes", "healthcare": "hospital", "healthcare:speciality": "emergency", "layer": "1", "name": "Landesklinikum Stockerau", "source": "basemap.at", "wheelchair": "yes", "wikidata": "Q1288884"}}, {"name": "", "latitude": 48.3219361, "longitude": 16.0653459, "source": "osm", "_tags": {"building": "hospital", "building:levels": "3", "emergency": "yes", "healthcare": "hospital"}}, {"name": "Unfallkrankenhaus Meidling", "latitude": 48.1727477, "longitude": 16.3440504, "source": "osm", "_tags": {"addr:city": "Wien", "addr:country": "AT", "addr:housenumber": "37-39", "addr:postcode": "1120", "addr:street": "Kundratstraße", "alt_name": "UKH Meidling", "amenity": "hospital", "building": "hospital", "building:levels": "6", "contact:facebook": "MeineAUVA", "email": "TWV@auva.at", "healthcare": "hospital", "name": "Unfallkrankenhaus Meidling", "phone": "+43 5 93 93-45000", "roof:levels": "0", "website": "https://www.auva.at/ukhmeidling", "wheelchair": "yes", "wikidata": "Q2493175", "wikipedia": "de:Unfallkrankenhaus Meidling"}}, {"name": "Heeresspital", "latitude": 48.2935993, "longitude": 16.4196196, "source": "osm", "_tags": {"addr:city": "Wien", "addr:country": "AT", "addr:housenumber": "238", "addr:postcode": "1210", "addr:street": "Brünner Straße", "amenity": "hospital", "building": "yes", "emergency": "yes", "healthcare": "hospital", "military": "yes", "name": "Heeresspital", "roof:material": "roof_tiles", "roof:shape": "gabled"}}, {"name": "Klinik Favoriten", "latitude": 48.1735489, "longitude": 16.3510213, "source": "osm", "_tags": {"addr:city": "Wien", "addr:country": "AT", "addr:housenumber": "3", "addr:postcode": "1100", "addr:street": "Kundratstraße", "alt_name": "SMZ Süd;KFJ", "amenity": "hospital", "email": "kfj.post@wienkav.at", "emergency": "yes", "fax": "+43 1 601911929", "health_specialty": "stroke_unit", "healthcare": "hospital", "healthcare:speciality": "emergency", "name": "Klinik Favoriten", "old_name": "Sozialmedizinisches Zentrum Süd - Kaiser-Franz-Josef-Spital", "operator": "Wiener Gesundheitsverbund", "operator:type": "public", "phone": "+43 1 601910", "ref": "KFN", "short_name": "Kaiser-Franz-Josef-Spital", "toilets:wheelchair": "yes", "website": "https://klinik-favoriten.gesundheitsverbund.at/", "wheelchair": "yes", "wikidata": "Q2305900", "wikipedia": "de:Klinik Favoriten"}}, {"name": "Klinik Oberpullendorf", "latitude": 47.5070596, "longitude": 16.5095684, "source": "osm", "_tags": {"addr:city": "Oberpullendorf/Felsőpulya", "addr:housenumber": "32", "addr:postcode": "7350", "addr:street": "Spitalstraße", "amenity": "hospital", "building": "yes", "contact:phone": "+57 979 34 000", "emergency": "yes", "healthcare": "hospital", "healthcare:speciality": "emergency", "name": "Klinik Oberpullendorf", "old_name": "Allgemeines öffentliches Krankenhaus Oberpullendorf", "operator": "Burgenländische Krankenanstalten-Gesellschaft m. b. H.", "operator:type": "government", "source": "plan.at 2009", "website": "https://www.krages.at/index.php?id=98", "wikidata": "Q1014859", "wikipedia": "de:Burgenländische Krankenanstalten"}}, {"name": "Landesklinikum Mödling - Standort Hinterbrühl", "latitude": 48.0914834, "longitude": 16.257892, "source": "osm", "_tags": {"addr:city": "Hinterbrühl", "addr:country": "AT", "addr:housenumber": "8", "addr:postcode": "2371", "addr:street": "Fürstenweg", "amenity": "hospital", "building": "yes", "healthcare": "hospital", "healthcare:speciality": "child_psychiatry", "name": "Landesklinikum Mödling - Standort Hinterbrühl", "operator": "Niederösterreichische Landeskliniken-Holding", "operator:type": "public", "website": "https://moedling.lknoe.at/fuer-patienten/abteilungen/abteilung-fuer-kinder-und-jugendpsychiatrie-und-psychotherapie-am-standort-hinterbruehl/information"}}, {"name": "Klinik Ottakring", "latitude": 48.2108626, "longitude": 16.3004639, "source": "osm", "_tags": {"addr:city": "Wien", "addr:country": "AT", "addr:housenumber": "37", "addr:postcode": "1160", "addr:street": "Montleartstraße", "amenity": "hospital", "emergency": "yes", "health_specialty": "stroke_unit", "healthcare": "hospital", "healthcare:speciality": "emergency", "landuse": "commercial", "name": "Klinik Ottakring", "old_name": "Wilhelminenspital", "operator": "Wiener Gesundheitsverbund", "phone": "+43 1 491500", "ref": "KOR", "website": "https://klinik-ottakring.gesundheitsverbund.at/", "wikidata": "Q1479663"}}, {"name": "Hanusch-Krankenhaus", "latitude": 48.1995663, "longitude": 16.2918894, "source": "osm", "_tags": {"addr:city": "Wien", "addr:housenumber": "30", "addr:postcode": "1140", "addr:street": "Heinrich-Collin-Straße", "amenity": "hospital", "healthcare": "hospital", "healthcare:speciality": "emergency", "name": "Hanusch-Krankenhaus", "ref": "HAN", "website": "https://www.wgkk.at/portal27/wgkkgeportal/content/contentWindow?viewmode=content&contentid=10007.724455", "wheelchair": "yes", "wikidata": "Q1584031", "wikimedia_commons": "Category:Hanusch-Krankenhaus", "wikipedia": "de:Hanusch-Krankenhaus"}}, {"name": "Klinik Penzing", "latitude": 48.2069362, "longitude": 16.2717122, "source": "osm", "_tags": {"addr:city": "Wien", "addr:country": "AT", "addr:housenumber": "2", "addr:postcode": "1140", "addr:street": "Sanatoriumstraße", "alt_name": "Sozialmedizinisches Zentrum Baumgartner Höhe - Otto Wagner-Spital", "amenity": "hospital", "emergency": "no", "healthcare": "hospital", "healthcare:speciality": "orthopaedics;pulmonology;psychiatry", "name": "Klinik Penzing", "ref": "KPE", "website": "https://klinik-penzing.gesundheitsverbund.at/", "wikidata": "Q992631", "wikimedia_commons": "Category:Otto-Wagner-Spital", "wikipedia": "de:Klinik Penzing"}}, {"name": "Landesklinikum Korneuburg", "latitude": 48.3434463, "longitude": 16.3370127, "source": "osm", "_tags": {"addr:city": "Korneuburg", "addr:housenumber": "3-5", "addr:postcode": "2100", "addr:street": "Wiener Ring", "amenity": "hospital", "building": "yes", "contact:phone": "+43 2262 9004-0", "healthcare": "hospital", "healthcare:speciality": "emergency", "name": "Landesklinikum Korneuburg", "operator": "Niederösterreichische Landeskliniken-Holding", "website": "https://korneuburg.lknoe.at/fuer-besucher/kontakt-und-anfahrt", "wheelchair": "yes", "wikidata": "Q30269967"}}, {"name": "St. Josef Krankenhaus", "latitude": 48.1940696, "longitude": 16.2623486, "source": "osm", "_tags": {"addr:city": "Wien", "addr:country": "AT", "addr:housenumber": "189", "addr:postcode": "1130", "addr:street": "Auhofstraße", "alt_name": "St. Josef Spital", "amenity": "hospital", "building": "yes", "check_date": "2024-06-06", "emergency": "no", "healthcare": "hospital", "name": "St. Josef Krankenhaus", "website": "https://www.sjk-wien.at/", "wikidata": "Q1532717"}}, {"name": "Universitätsklinikum Wiener Neustadt", "latitude": 47.815115, "longitude": 16.2484737, "source": "osm", "_tags": {"addr:housenumber": "3-5", "addr:street": "Corvinusring", "amenity": "hospital", "emergency": "yes", "health_specialty": "stroke_unit", "healthcare": "hospital", "healthcare:speciality": "cardiology;emergency;dermatovenereology;gynaecology;intensive;internal;nephrology;dialysis;nuclear;neurosurgery;paediatrics;radiotherapy;surgery;trauma;urology", "name": "Universitätsklinikum Wiener Neustadt", "operator": "NÖ Landesgesundheitsagentur", "phone": "+43 2622 321-0", "toilets:wheelchair": "yes", "website": "https://www.wienerneustadt.lknoe.at/", "wheelchair": "yes"}}, {"name": "Klinik Hietzing", "latitude": 48.1722435, "longitude": 16.2756965, "source": "osm", "_tags": {"addr:city": "Wien", "addr:housenumber": "1", "addr:postcode": "1030", "addr:street": "Wolkersbergenstraße", "alt_name": "Krankenhaus Lainz", "amenity": "hospital", "emergency": "yes", "health_specialty": "stroke_unit", "healthcare": "hospital", "healthcare:speciality": "emergency", "int_name": "Hietzing hospital", "name": "Klinik Hietzing", "official_name": "Klinik Hietzing", "old_name": "Krankenhaus Hietzing mit Neurologischem Zentrum Rosenhügel;Kaiser-Jubiläums-Spital der Gemeinde Wien", "operator": "Wiener Gesundheitsverbund", "ref": "KHI", "source": "wien.gv.at", "wheelchair": "yes", "wikidata": "Q1786533", "wikipedia": "de:Klinik Hietzing"}}, {"name": "Rudolfinerhaus", "latitude": 48.243664, "longitude": 16.3468951, "source": "osm", "_tags": {"addr:city": "Wien", "addr:country": "AT", "addr:housenumber": "78", "addr:postcode": "1190", "addr:street": "Billrothstraße", "amenity": "hospital", "contact:website": "http://www.rudolfinerhaus.at", "healthcare": "hospital", "name": "Rudolfinerhaus", "wikidata": "Q1427278", "wikipedia": "de:Rudolfinerhaus"}}, {"name": "Evangelisches Krankenhaus Wien", "latitude": 48.2240127, "longitude": 16.3461862, "source": "osm", "_tags": {"addr:city": "Wien", "addr:country": "AT", "addr:housename": "Evangelisches Krankenhaus Wien", "addr:housenumber": "10-12", "addr:postcode": "1180", "addr:street": "Hans-Sachs-Gasse", "amenity": "hospital", "building": "yes", "building:levels": "4", "contact:phone": "+43 1 40422 0", "emergency": "no", "healthcare": "hospital", "name": "Evangelisches Krankenhaus Wien", "roof:levels": "2", "short_name": "EKH", "source": "ViennaGIS", "website": "https://www.ekhwien.at/", "wheelchair": "yes", "wikidata": "Q1381355", "wikipedia": "de:Evangelisches Krankenhaus Wien"}}, {"name": "Klinik Floridsdorf", "latitude": 48.2670899, "longitude": 16.406583, "source": "osm", "_tags": {"addr:city": "Wien", "addr:postcode": "1210", "alt_name": "Krankenhaus Nord", "amenity": "hospital", "emergency": "yes", "health_specialty": "stroke_unit", "healthcare": "hospital", "healthcare:speciality": "psychiatry;intensive;orthopaedics;emergency;gynaecology;surgery;cardiology;maternity;traumatology", "name": "Klinik Floridsdorf", "old_name": "Krankenhaus Nord", "operator": "Wiener Gesundheitsverbund", "operator:type": "community", "phone": "+43 1 27700 - 0", "ref": "KFL", "start_date": "2019-05", "website": "https://klinik-floridsdorf.gesundheitsverbund.at/", "wikidata": "Q1786542", "wikipedia": "de:Klinik Floridsdorf"}}, {"name": "Landesklinikum Mödling", "latitude": 48.0893666, "longitude": 16.2972365, "source": "osm", "_tags": {"addr:city": "Mödling", "addr:housenumber": "12", "addr:postcode": "2340", "addr:street": "Schwester-Maria-Restituta-Gasse", "amenity": "hospital", "emergency": "yes", "health_specialty": "stroke_unit", "healthcare": "hospital", "healthcare:speciality": "emergency;orthopaedics", "name": "Landesklinikum Mödling", "operator": "Niederösterreichische Landeskliniken-Holding", "website": "https://www.moedling.lknoe.at/", "wheelchair": "yes", "wikidata": "Q1802296", "wikipedia": "de:Landesklinikum Mödling"}}, {"name": "Neurologisches Zentrum Rosenhügel", "latitude": 48.1609356, "longitude": 16.2844387, "source": "osm", "_tags": {"addr:city": "Wien", "addr:country": "AT", "addr:housenumber": "5", "addr:postcode": "1130", "addr:street": "Riedelgasse", "amenity": "hospital", "healthcare": "rehabilitation", "name": "Neurologisches Zentrum Rosenhügel", "note": "Teil von \"Krankenhaus Hietzing mit Neurologischem Zentrum Rosenhügel\"", "operator": "Krankenanstaltenverbund Wien (KAV)", "wikidata": "Q1715258", "wikipedia": "de:Neurologisches Zentrum Rosenhügel"}}, {"name": "Orthopädisches Spital Speising", "latitude": 48.1636413, "longitude": 16.2820922, "source": "osm", "_tags": {"addr:city": "Wien", "addr:country": "AT", "addr:housenumber": "109", "addr:postcode": "1130", "addr:street": "Speisinger Straße", "amenity": "hospital", "contact:email": "office@oss.at", "contact:fax": "+43 1 80182 - 1487", "contact:phone": "+43 1 80182 - 0", "contact:website": "http://www.oss.at/", "healthcare": "hospital", "name": "Orthopädisches Spital Speising", "operator": "Orthopädisches Spital Speising GmbH", "ref": "OSS", "smoking": "no", "smoking:outside": "separated", "wikidata": "Q1620018"}}, {"name": "Klinik Donaustadt", "latitude": 48.2179385, "longitude": 16.4636846, "source": "osm", "_tags": {"addr:city": "Wien", "addr:country": "AT", "addr:housenumber": "122", "addr:postcode": "1220", "addr:street": "Langobardenstraße", "alt_name": "Donauspital / SMZ-Ost", "amenity": "hospital", "at_bev:addr_date": "2017-10-01", "designation": "Spital", "emergency": "yes", "health_specialty": "stroke_unit", "healthcare": "hospital", "healthcare:speciality": "emergency", "name": "Klinik Donaustadt", "official_name": "Klinik Donaustadt", "operator": "Wiener Gesundheitsverbund", "operator:type": "public", "ref": "KDO", "website": "https://klinik-donaustadt.gesundheitsverbund.at/", "wheelchair": "yes", "wikidata": "Q2305892"}}, {"name": "Universitätsklinikum Tulln", "latitude": 48.3221401, "longitude": 16.0655082, "source": "osm", "_tags": {"addr:city": "Tulln", "addr:country": "AT", "addr:housenumber": "10", "addr:postcode": "3430", "addr:street": "Alter Ziegelweg", "amenity": "hospital", "email": "office@tulln.lknoe.at", "healthcare": "hospital", "healthcare:speciality": "emergency", "name": "Universitätsklinikum Tulln", "operator": "Niederösterreichische Landeskliniken-Holding", "phone": "+43 2272/9004-0", "website": "https://www.tulln.lknoe.at/", "wikidata": "Q30260799", "wikipedia": "de:Universitätsklinikum Tulln"}}, {"name": "Soproni Erzsébet Oktató Kórház", "latitude": 47.6770138, "longitude": 16.5992159, "source": "osm", "_tags": {"addr:city": "Sopron", "addr:housenumber": "15", "addr:postcode": "9400", "addr:street": "Győri út", "amenity": "hospital", "contact:phone": "+36 99 514 200", "contact:website": "http://www.sopronkorhaz.hu", "healthcare": "hospital", "name": "Soproni Erzsébet Oktató Kórház", "wheelchair": "yes"}}, {"name": "Landesklinikum Neunkirchen", "latitude": 47.7263083, "longitude": 16.0866846, "source": "osm", "_tags": {"addr:city": "Neunkirchen", "addr:country": "AT", "addr:housenumber": "19", "addr:postcode": "2620", "addr:street": "Peischingerstraße", "amenity": "hospital", "building": "yes", "contact:email": "office@neunkirchen.lknoe.at", "contact:fax": "+43 2635 900449333", "contact:phone": "+43 2635 90040", "healthcare": "hospital", "healthcare:speciality": "emergency;gynaecology;internal;intensive;orthopaedics;physiatry;psychiatry", "name": "Landesklinikum Neunkirchen", "operator": "Niederösterreichische Landeskliniken-Holding", "short_name": "LK Neunkirchen", "type": "multipolygon", "website": "https://www.neunkirchen.lknoe.at/", "wikidata": "Q1802297", "wikipedia": "de:Landesklinikum Neunkirchen"}}, {"name": "Soproni Rehabilitációs Gyógyintézet", "latitude": 47.6692384, "longitude": 16.5776989, "source": "osm", "_tags": {"addr:city": "Sopron", "addr:housenumber": "2", "addr:postcode": "9400", "addr:street": "Várisi út", "amenity": "hospital", "healthcare": "hospital", "name": "Soproni Rehabilitációs Gyógyintézet", "operator": "Soproni Gyógyközpont"}}, {"name": "Landesklinikum Baden", "latitude": 48.0003076, "longitude": 16.2549826, "source": "osm", "_tags": {"addr:city": "Baden", "addr:housenumber": "75", "addr:postcode": "2500", "addr:street": "Waltersdorfer Straße", "amenity": "hospital", "emergency": "yes", "healthcare": "hospital", "healthcare:speciality": "psychiatry;internal;surgery;trauma;urology;emergency", "name": "Landesklinikum Baden", "operator": "NÖ Landesgesundheitsagentur", "operator:type": "public", "wheelchair": "yes", "wikidata": "Q19799153", "wikipedia": "de:Landesklinikum Baden"}}, {"name": "Krankenhaus Göttlicher Heiland", "latitude": 48.2282146, "longitude": 16.3040927, "source": "osm", "_tags": {"addr:city": "Wien", "addr:country": "AT", "addr:housenumber": "20-26", "addr:postcode": "1170", "addr:street": "Dornbacher Straße", "amenity": "hospital", "health_specialty": "stroke_unit", "healthcare": "hospital", "name": "Krankenhaus Göttlicher Heiland", "toilets:wheelchair": "yes", "wheelchair": "yes", "wikidata": "Q1762988"}}, {"name": "St. Anna Kinderspital", "latitude": 48.2161983, "longitude": 16.3443861, "source": "osm", "_tags": {"addr:city": "Wien", "addr:country": "AT", "addr:housename": "St. Anna Kinderspital", "addr:housenumber": "6", "addr:postcode": "1090", "addr:street": "Kinderspitalgasse", "amenity": "hospital", "building": "hospital", "building:levels": "3", "emergency": "children", "healthcare": "hospital", "name": "St. Anna Kinderspital", "roof:levels": "1", "type": "multipolygon", "wheelchair": "yes", "wikidata": "Q2317163", "wikipedia": "de:St. Anna Kinderspital"}}, {"name": "Krankenhaus der Barmherzigen Brüder", "latitude": 48.2151407, "longitude": 16.3816643, "source": "osm", "_tags": {"addr:city": "Wien", "addr:housenumber": "1", "addr:postcode": "1020", "addr:street": "Johannes-von-Gott-Platz", "amenity": "hospital", "building": "hospital", "building:levels": "3", "emergency": "yes", "health_specialty": "stroke_unit", "healthcare": "hospital", "healthcare:speciality": "emergency", "name": "Krankenhaus der Barmherzigen Brüder", "operator": "Konvent der Barmherzigen Brüder Wien", "phone": "+43 1 211210", "roof:levels": "2", "roof:shape": "mansard", "short_name": "KH der Barmherzigen Brüder", "type": "multipolygon", "website": "https://www.bbwien.at", "wheelchair": "yes", "wikidata": "Q1525096", "wikipedia": "de:Krankenhaus der Barmherzigen Brüder Wien"}}, {"name": "Franziskus Spital Margareten GmbH", "latitude": 48.1883316, "longitude": 16.362257, "source": "osm", "_tags": {"amenity": "hospital", "architect": "Josef Seitschek;Ernst Krombholz", "architect:wikidata": "Q98557942;Q98645836", "building": "hospital", "heritage": "2", "heritage:operator": "bda", "name": "Franziskus Spital Margareten GmbH", "old_name": "Hartmannspital", "ref:at:bda": "6446", "start_date": "1891", "type": "multipolygon", "wikidata": "Q1587343", "wikipedia": "de:Hartmannspital"}}, {"name": "Allgemeines Krankenhaus Wien", "latitude": 48.2199536, "longitude": 16.3476548, "source": "osm", "_tags": {"addr:city": "Wien", "addr:country": "AT", "addr:housenumber": "18-20", "addr:postcode": "1090", "addr:street": "Währinger Gürtel", "amenity": "hospital", "email": "postakhint@akhwien.at", "emergency": "yes", "health_specialty": "stroke_unit", "healthcare": "hospital", "healthcare:speciality": "emergency", "name": "Allgemeines Krankenhaus Wien", "name:de": "Allgemeines Krankenhaus Wien", "name:en": "Vienna General Hospital", "operator": "Stadt Wien", "phone": "+43 1 404 00-0", "reg_name": "Allgemeines Krankenhaus", "short_name": "AKH", "type": "multipolygon", "website": "https://www.akhwien.at", "wheelchair": "yes", "wikidata": "Q180080", "wikipedia": "de:Allgemeines Krankenhaus der Stadt Wien"}}, {"name": "Landesklinikum Hochegg", "latitude": 47.6164616, "longitude": 16.0872344, "source": "osm", "_tags": {"addr:city": "Grimmenstein", "addr:housenumber": "88", "addr:postcode": "2840", "addr:street": "Hochegger Straße", "amenity": "hospital", "healthcare": "hospital", "name": "Landesklinikum Hochegg", "operator": "Niederösterreichische Landeskliniken-Holding", "source": "geoimage.at", "type": "multipolygon"}}, {"name": "Krankenhaus der Barmherzigen Brüder", "latitude": 47.8466873, "longitude": 16.5138506, "source": "osm", "_tags": {"addr:city": "Eisenstadt", "addr:country": "AT", "addr:housenumber": "26", "addr:postcode": "7000", "addr:street": "Esterhazystraße", "amenity": "hospital", "building": "hospital", "healthcare": "hospital", "healthcare:speciality": "emergency;internal;gynaecology;neurology;psychiatry;otolaryngology;orthopaedics;trauma;general;palliative;anaesthetics;intensive", "name": "Krankenhaus der Barmherzigen Brüder", "note": "Krankenhaus Ba.Br.", "operator": "Krankenhaus der Barmherzigen Brüder Eisenstadt GmbH", "operator:type": "private", "source": "plan.at 2009", "type": "multipolygon", "url": "http://www.barmherzige-brueder.at/", "wheelchair": "yes"}}, {"name": "Balfi Gyógyfürdőkórház", "latitude": 47.6511455, "longitude": 16.6626907, "source": "osm", "_tags": {"addr:city": "Sopron", "addr:housenumber": "8", "addr:postcode": "9494", "addr:street": "Fürdő sor", "amenity": "hospital", "email": "balfrehab@sopronigyogykozpont.hu", "healthcare": "hospital", "name": "Balfi Gyógyfürdőkórház", "name:de": "Heilbad Wolfs", "phone": "+36 99 314 060;+36 99 314 061", "type": "multipolygon", "website": "http://gyogyfurdobalf.hu/balf.htm", "wikidata": "Q1469589", "wikipedia": "hu:Állami Szanatórium (Balf)"}}, {"name": "Klinik Landstraße", "latitude": 48.1958702, "longitude": 16.3911704, "source": "osm", "_tags": {"addr:city": "Wien", "addr:country": "AT", "addr:housenumber": "25", "addr:postcode": "1030", "addr:street": "Juchgasse", "amenity": "hospital", "email": "kar.post@wienkav.at", "emergency": "yes", "fax": "+43 (1) 711 65-1009", "health_specialty": "stroke_unit", "healthcare": "hospital", "healthcare:speciality": "emergency", "name": "Klinik Landstraße", "old_name": "Krankenanstalt Rudolfstiftung", "operator": "Wiener Gesundheitsverbund", "phone": "+43 (1) 711 65-0", "type": "multipolygon", "website": "https://klinik-landstrasse.gesundheitsverbund.at/", "wheelchair": "yes", "wikidata": "Q1526557", "wikipedia": "de:Klinik Landstraße"}}]