[{"name": "Orthopädische Kinderklinik Aschau", "latitude": 47.7825833, "longitude": 12.3277791, "source": "osm", "_tags": {"addr:city": "Aschau im Chiemgau", "addr:housenumber": "18", "addr:postcode": "83229", "addr:street": "Bernauer Straße", "amenity": "hospital", "emergency": "no", "healthcare": "hospital", "healthcare:speciality": "orthopaedics", "name": "Orthopädische Kinderklinik Aschau", "operator": "Caritas", "toilets:wheelchair": "yes", "wheelchair": "yes"}}, {"name": "Kreiskrankenhaus Burghausen", "latitude": 48.1677438, "longitude": 12.842318, "source": "osm", "_tags": {"amenity": "hospital", "name": "Kreiskrankenhaus Burghausen", "wheelchair": "yes"}}, {"name": "Klinik Dorfen", "latitude": 48.2767065, "longitude": 12.1517614, "source": "osm", "_tags": {"addr:city": "Dorfen", "addr:country": "DE", "addr:housenumber": "17", "addr:postcode": "84405", "addr:street": "Erdinger Straße", "amenity": "hospital", "emergency": "no", "healthcare": "hospital", "healthcare:speciality": "internal", "name": "Klinik Dorfen", "operator": "Landkreis Erding", "toilets:wheelchair": "yes", "wheelchair": "yes"}}, {"name": "", "latitude": 47.6513417, "longitude": 12.7312396, "source": "osm", "_tags": {"amenity": "hospital"}}, {"name": "MVZ Dorfen, Kardiologische Filialpraxis Taufkirchen", "latitude": 48.3445707, "longitude": 12.1307118, "source": "osm", "_tags": {"addr:city": "Taufkirchen (Vils)", "addr:country": "DE", "addr:housenumber": "8", "addr:postcode": "84416", "addr:street": "Landshuter Straße", "amenity": "hospital", "healthcare": "hospital", "name": "MVZ Dorfen, Kardiologische Filialpraxis Taufkirchen", "operator": "MVZ Dorfen, Kardiologische Filialpraxis Taufkirchen", "operator:type": "public"}}, {"name": "MVZro Strahlenzentrum Ebersberg", "latitude": 48.0769898, "longitude": 11.9599958, "source": "osm", "_tags": {"addr:city": "Ebersberg", "addr:country": "DE", "addr:housenumber": "8", "addr:postcode": "85560", "addr:street": "Pfarrer-Guggetzer-Straße", "amenity": "clinic", "emergency": "no", "fax": "+49 8092 857 88 28", "healthcare": "hospital", "healthcare:speciality": "radiology", "name": "MVZro Strahlenzentrum Ebersberg", "operator": "Kliniken der Stadt und des Landkreises Rosenheim GmbH", "operator:type": "business", "phone": "+49 8092 857 88 0", "website": "https://www.romed-mvz.de/de/strahlentherapie/standort-ebersberg.htm"}}, {"name": "Haus Fraueninsel", "latitude": 47.8304255, "longitude": 12.3812797, "source": "osm", "_tags": {"amenity": "hospital", "name": "Haus Fraueninsel"}}, {"name": "Haus Kampenwand", "latitude": 47.8300779, "longitude": 12.3801672, "source": "osm", "_tags": {"amenity": "hospital", "name": "Haus Kampenwand"}}, {"name": "RoMed Klinikum Rosenheim", "latitude": 47.8601936, "longitude": 12.1324795, "source": "osm", "_tags": {"addr:city": "Rosenheim", "addr:country": "DE", "addr:housenumber": "10", "addr:postcode": "83022", "addr:street": "Pettenkoferstraße", "alt_name": "Klinikum Rosenheim", "amenity": "hospital", "beds": "622", "check_date": "2025-07-27", "emergency": "yes", "healthcare": "hospital", "name": "RoMed Klinikum Rosenheim", "phone": "+49 8031 36 02", "short_name": "RoMed Rosenheim", "wheelchair": "yes"}}, {"name": "Inn-Salzach-Klinikum", "latitude": 48.0586356, "longitude": 12.2028723, "source": "osm", "_tags": {"addr:city": "Wasserburg am Inn", "addr:country": "DE", "addr:housenumber": "7", "addr:postcode": "83512", "addr:street": "Gabersee", "amenity": "hospital", "beds": "506", "name": "Inn-Salzach-Klinikum", "operator": "kbo-Inn-Salzach-Klinikum gGmbH", "phone": "+49 807171-0", "website": "https://www.kbo-isk.de/", "wheelchair": "limited", "wikidata": "Q1663850"}}, {"name": "Klinikum Ebersberg München Ost", "latitude": 48.0763015, "longitude": 11.9604668, "source": "osm", "_tags": {"addr:city": "Ebersberg", "addr:country": "DE", "addr:housenumber": "3", "addr:postcode": "85560", "addr:street": "Pfarrer-Guggetzer-Straße", "alt_name": "Kreisklinik Ebersberg", "amenity": "hospital", "email": "klinikleitung@klinik-ebe.de", "emergency": "yes", "fax": "+49 8092 82-2224", "healthcare": "hospital", "healthcare:speciality": "general;gynaecology;oncology;radiology;emergency;surgery;orthopaedics;intensive;cardiology;community;internal", "name": "Klinikum Ebersberg München Ost", "old_name": "Kreisklinik Ebersberg", "operator": "Kreisklinik Ebersberg gemeinnützige GmbH", "operator:type": "public", "phone": "+49 8092 82-0", "website": "https://www.klinik-ebe.de/", "wheelchair": "yes"}}, {"name": "Medical Park Reithofpark", "latitude": 47.7884622, "longitude": 12.0077274, "source": "osm", "_tags": {"amenity": "hospital", "name": "Medical Park Reithofpark", "phone": "+49 8066 18-0"}}, {"name": "Klinik Bad Trissl", "latitude": 47.6579684, "longitude": 12.1546945, "source": "osm", "_tags": {"addr:country": "DE", "addr:housenumber": "73", "addr:postcode": "83080", "addr:street": "Bad-Trißl-Straße", "amenity": "hospital", "name": "Klinik Bad Trissl", "website": "https://www.klinik-bad-trissl.de/"}}, {"name": "", "latitude": 47.5709917, "longitude": 12.1504669, "source": "osm", "_tags": {"addr:city": "Kufstein", "addr:country": "AT", "addr:housenumber": "27", "addr:postcode": "6330", "addr:street": "Endach", "building": "hospital", "emergency": "yes", "healthcare": "hospital", "healthcare:speciality": "ophthalmology;surgery;otolaryngology;internal;paediatrics;neurology;radiology;trauma;urology", "source": "geoimage.at", "wheelchair": "yes"}}, {"name": "Schön Klinik", "latitude": 47.8663766, "longitude": 12.1199955, "source": "osm", "_tags": {"addr:city": "Rosenheim", "addr:country": "DE", "addr:housenumber": "4", "addr:postcode": "83024", "addr:street": "Droste-Hülshoff-Straße", "amenity": "hospital", "building": "yes", "check_date": "2025-09-11", "healthcare": "hospital", "name": "Schön Klinik", "operator": "Schön Klinik", "operator:wikidata": "Q2258661", "source": "Bing"}}, {"name": "A. ö. Bezirkskrankenhaus Kufstein", "latitude": 47.5713033, "longitude": 12.1499529, "source": "osm", "_tags": {"addr:city": "Kufstein", "addr:country": "AT", "addr:housenumber": "27", "addr:postcode": "6330", "addr:street": "Endach", "amenity": "hospital", "health_specialty": "stroke_unit", "healthcare": "hospital", "healthcare:speciality": "emergency", "name": "A. ö. Bezirkskrankenhaus Kufstein", "short_name": "KH Kufstein", "website": "https://www.bkh-kufstein.at/"}}, {"name": "Tagesklinik Rosenheim des Inn-Salzach-Klinikums", "latitude": 47.8622549, "longitude": 12.1257548, "source": "osm", "_tags": {"addr:city": "Rosenheim", "addr:country": "DE", "addr:housenumber": "2", "addr:postcode": "83022", "addr:street": "Freiherr-vom-Stein-Straße", "amenity": "hospital", "building": "yes", "healthcare": "hospital", "name": "Tagesklinik Rosenheim des Inn-Salzach-Klinikums", "source": "Bing"}}, {"name": "Schön Klinik Vogtareuth", "latitude": 47.9477622, "longitude": 12.1882035, "source": "osm", "_tags": {"addr:city": "Vogtareuth", "addr:country": "DE", "addr:housenumber": "20", "addr:postcode": "83569", "addr:street": "Krankenhausstraße", "alt_name": "Spital Schön Klinik Vogtareuth", "amenity": "hospital", "beds": "420", "healthcare": "hospital", "healthcare:speciality": "orthopaedics;surgery", "name": "Schön Klinik Vogtareuth", "operator": "Schön Klinik", "operator:type": "private", "phone": "+49 8038 900", "start_date": "1992", "website": "https://www.schoen-klinik.de/vogtareuth", "wheelchair": "yes"}}, {"name": "Klinik ChiemseeWinkel Seebruck GmbH", "latitude": 47.9327426, "longitude": 12.4755506, "source": "osm", "_tags": {"addr:city": "Seeon-Seebruck", "addr:country": "DE", "addr:housenumber": "17", "addr:postcode": "83358", "addr:street": "Römerstraße", "addr:suburb": "Seebruck", "amenity": "hospital", "building": "yes", "healthcare": "hospital", "name": "Klinik ChiemseeWinkel Seebruck GmbH", "phone": "+49 8667 8793014", "website": "https://www.klinik-chiemseewinkel.de/"}}, {"name": "Klinik St. Irmingard", "latitude": 47.8617598, "longitude": 12.3645932, "source": "osm", "_tags": {"amenity": "hospital", "check_date": "2024-04-09", "designation": "Kurklinik", "emergency": "no", "healthcare": "hospital", "name": "Klinik St. Irmingard", "wheelchair": "yes"}}, {"name": "Veramed Klinik am Wendelstein", "latitude": 47.739184, "longitude": 12.0924539, "source": "osm", "_tags": {"addr:city": "Brannenburg", "addr:country": "DE", "addr:housenumber": "60", "addr:postcode": "83098", "addr:street": "Mühlenstraße", "amenity": "hospital", "building": "yes", "emergency": "no", "healthcare": "hospital", "healthcare:speciality": "oncology", "name": "Veramed Klinik am Wendelstein", "website": "https://www.veramed.de/"}}, {"name": "Kreisklinik Bad Reichenhall", "latitude": 47.7278819, "longitude": 12.8720558, "source": "osm", "_tags": {"amenity": "hospital", "check_date": "2024-07-12", "emergency": "yes", "fax": "+49 8651 772244", "healthcare": "hospital", "name": "Kreisklinik Bad Reichenhall", "opening_hours": "24/7", "operator": "Kliniken Südostbayern AG", "phone": "+49 8651 7720"}}, {"name": "Rehazentrum Bayerisch Gmain - Klinik Hochstaufen", "latitude": 47.7183956, "longitude": 12.8973518, "source": "osm", "_tags": {"addr:city": "Bayerisch Gmain", "addr:country": "DE", "addr:housenumber": "2", "addr:postcode": "83457", "addr:street": "Herkommerstraße", "amenity": "hospital", "building": "yes", "emergency": "no", "healthcare": "hospital", "name": "Rehazentrum Bayerisch Gmain - Klinik Hochstaufen", "operator": "Deutsche Rentenversicherung Bund", "wheelchair": "yes"}}, {"name": "Kreisklinik Trostberg", "latitude": 48.0295288, "longitude": 12.5434947, "source": "osm", "_tags": {"amenity": "hospital", "emergency": "yes", "healthcare": "hospital", "name": "Kreisklinik Trostberg"}}, {"name": "Chiemgau Klinik Marquartstein", "latitude": 47.7485582, "longitude": 12.4600552, "source": "osm", "_tags": {"addr:city": "Marquartstein", "addr:housenumber": "1", "addr:postcode": "83250", "addr:suburb": "Geisenhausen", "amenity": "hospital", "check_date": "2024-12-14", "contact:phone": "+49 8641 6290", "contact:website": "https://www.kbs.de/DE/Kliniken/RehaKliniken/KlinikauswahlNachStandort/Marquartstein/Kontakt/marquartstein_kontakt_node.html", "name": "Chiemgau Klinik Marquartstein"}}, {"name": "Klinik Mühldorf", "latitude": 48.2429274, "longitude": 12.5294941, "source": "osm", "_tags": {"amenity": "hospital", "contact:email": "info@kliniken-muehldorf.de", "contact:phone": "+49 8631 6130", "contact:website": "https://www.kliniken-muehldorf.de", "emergency": "yes", "healthcare": "hospital", "name": "Klinik Mühldorf", "wheelchair": "yes"}}, {"name": "Bezirkskrankenhaus St. Johann in Tirol", "latitude": 47.5207383, "longitude": 12.429818, "source": "osm", "_tags": {"addr:city": "St. Johann in Tirol", "addr:country": "AT", "addr:housenumber": "14", "addr:postcode": "6380", "addr:street": "Bahnhofstraße", "amenity": "hospital", "healthcare": "hospital", "healthcare:speciality": "emergency", "name": "Bezirkskrankenhaus St. Johann in Tirol", "note": "Chirurgie;Unfallchirurgie;Innere Medizin;Allgemeine Chirurgie;Orthopädie und orthopädische Chirurgie;Gynäkologie und Geburtshilfe;Kinder- und Jugendabteilung;Anästhesie;Radiologie;Physiotherapie", "phone": "+43 5352 606-0", "source": "Lokalerhebung 2012-2019", "website": "https://www.khsj.at/", "wheelchair": "yes", "wikidata": "Q15391777", "wikipedia": "de:Bezirkskrankenhaus St. Johann in Tirol"}}, {"name": "InnKlinikum Altötting Mühldorf", "latitude": 48.2339664, "longitude": 12.6763867, "source": "osm", "_tags": {"amenity": "hospital", "beds": "546", "healthcare": "hospital", "name": "InnKlinikum Altötting Mühldorf", "toilets:wheelchair": "yes", "wheelchair": "yes"}}, {"name": "Klinikum Traunstein", "latitude": 47.8739668, "longitude": 12.632203, "source": "osm", "_tags": {"amenity": "hospital", "beds": "548", "check_date": "2024-03-05", "emergency": "yes", "healthcare": "hospital", "name": "Klinikum Traunstein", "website": "https://www.kliniken-suedostbayern.de/de/main/klinikum_traunstein.htm", "wheelchair": "yes", "wikidata": "Q45060250", "wikipedia": "de:Klinikum Traunstein"}}, {"name": "Schlossklinik Abtsee", "latitude": 47.9145899, "longitude": 12.9073614, "source": "osm", "_tags": {"addr:city": "Laufen", "addr:housenumber": "31", "addr:postcode": "83410", "addr:street": "Abtsee", "amenity": "hospital", "building": "yes", "healthcare": "hospital", "name": "Schlossklinik Abtsee"}}, {"name": "Klinik Alpenhof", "latitude": 47.8944298, "longitude": 12.5301076, "source": "osm", "_tags": {"amenity": "hospital", "check_date": "2025-06-05", "name": "Klinik Alpenhof"}}, {"name": "Medical Park Klinik Chiemseeblick", "latitude": 47.8335779, "longitude": 12.3917098, "source": "osm", "_tags": {"addr:city": "Bernau am Chiemsee", "addr:housenumber": "25", "addr:postcode": "83233", "addr:street": "Rasthausstraße", "amenity": "hospital", "emergency": "no", "healthcare": "hospital", "healthcare:speciality": "psychiatry;physiatry", "name": "Medical Park Klinik Chiemseeblick", "phone": "+49 800 5800850", "website": "https://www.medicalpark.de/de/Kliniken_und_Zentren/Chiemseeblick__Bernau-Felden.html"}}, {"name": "Medical Park Klinik Chiemsee", "latitude": 47.8303678, "longitude": 12.3803694, "source": "osm", "_tags": {"amenity": "hospital", "emergency": "no", "healthcare": "hospital", "healthcare:speciality": "orthopaedics;physiatry", "name": "Medical Park Klinik Chiemsee", "operator": "Medical Park", "phone": "+49 800 6337275", "website": "https://www.medicalpark.de/de/Kliniken_und_Zentren/Chiemsee__Bernau-Felden.html"}}, {"name": "Schön Klinik Bad Aibling-Harthausen", "latitude": 47.856961, "longitude": 12.0296484, "source": "osm", "_tags": {"addr:city": "Bad Aibling", "addr:country": "DE", "addr:housenumber": "72", "addr:postcode": "83043", "addr:street": "Kolbermoorer Straße", "amenity": "hospital", "beds": "440", "emergency": "yes", "healthcare": "hospital", "healthcare:speciality": "neurology;orthopaedics;spine", "name": "Schön Klinik Bad Aibling-Harthausen", "operator": "Schön Klinik", "operator:type": "private", "phone": "+49 8061 903 0", "website": "https://www.schoen-klinik.de/bad-aibling-harthausen"}}, {"name": "Simsseeklinik Bad Endorf", "latitude": 47.9018983, "longitude": 12.297696, "source": "osm", "_tags": {"addr:city": "Bad Endorf", "addr:country": "DE", "addr:housenumber": "18a", "addr:postcode": "83093", "addr:street": "Klinikstraße", "amenity": "hospital", "email": "info@simssee-klinik.de", "emergency": "no", "healthcare": "hospital", "healthcare:speciality": "orthopaedics;geriatrics;psychiatry;physiatry", "internet_access": "wlan", "name": "Simsseeklinik Bad Endorf", "operator": "Gesundheitswelt Chiemgau AG", "phone": "+49 8053 2000", "website": "https://www.simssee-klinik.de/", "wheelchair": "yes"}}, {"name": "Schön Klinik Roseneck", "latitude": 47.8595217, "longitude": 12.3625328, "source": "osm", "_tags": {"addr:city": "Prien am Chiemsee", "addr:housenumber": "6", "addr:postcode": "83209", "addr:street": "Am Roseneck", "amenity": "hospital", "beds": "533", "emergency": "no", "healthcare": "hospital", "healthcare:speciality": "psychiatry;child_psychology", "name": "Schön Klinik Roseneck", "operator": "Schön Klinik", "operator:type": "private", "operator:wikidata": "Q2258661", "phone": "+49-8051-680", "start_date": "1984", "website": "https://www.schoen-klinik.de/roseneck"}}, {"name": "Kreiskrankenhaus Eggenfelden", "latitude": 48.4130091, "longitude": 12.7599515, "source": "osm", "_tags": {"amenity": "hospital", "contact:email": "info@rottalinnklinken.de", "contact:fax": "+49 8721 9832249", "contact:phone": "+49 8721 9830", "contact:website": "https://www.rottalinnkliniken.de/", "emergency": "yes", "healthcare": "hospital", "name": "Kreiskrankenhaus Eggenfelden", "operator": "Rottal-Inn Kliniken Kommunalunternehmen", "operator:type": "public", "wheelchair": "yes"}}, {"name": "", "latitude": 48.1679853, "longitude": 12.8420629, "source": "osm", "_tags": {"amenity": "hospital", "healthcare": "hospital"}}, {"name": "RoMed Klinik Wasserburg am Inn", "latitude": 48.0606518, "longitude": 12.1986625, "source": "osm", "_tags": {"amenity": "hospital", "contact:email": "info.was@ro-med.de", "contact:phone": "+49 8071 77-0", "contact:website": "https://www.romed-kliniken.de/de/wasserburg/die-klinik-im-ueberblick.htm", "emergency": "yes", "healthcare": "hospital", "healthcare:speciality": "gynaecology;internal;orthopaedics;otolaryngology;surgery", "name": "RoMed Klinik Wasserburg am Inn", "opening_hours": "24/7", "operator": "Kliniken der Stadt und des Landkreises Rosenheim GmbH", "wheelchair": "yes"}}, {"name": "Gesundheitszentrum Klinik St. Georg", "latitude": 47.8624105, "longitude": 12.01042, "source": "osm", "_tags": {"addr:city": "Bad Aibling", "addr:country": "DE", "addr:housenumber": "6 - 8", "addr:postcode": "83043", "addr:street": "Rosenheimer Straße", "amenity": "hospital", "email": "info@clinicum-stgeorg.de", "emergency": "no", "fax": "+49 8061 398 454", "healthcare": "hospital", "name": "Gesundheitszentrum Klinik St. Georg", "operator": "Clinicum St. Georg GmbH & Co.KG, Bad Aibling", "operator:type": "business", "phone": "+49 8061 398 0", "website": "https://www.klinik-st-georg.de/", "website:en": "https://www.st-george-hospital.com;https://www.klinik-st-georg.de/en"}}, {"name": "Rehabilitationszentrum St. Nikolaus", "latitude": 48.0814832, "longitude": 12.3411086, "source": "osm", "_tags": {"amenity": "hospital", "healthcare": "rehabilitation", "name": "Rehabilitationszentrum St. Nikolaus"}}, {"name": "RoMed Klinik Bad Aibling", "latitude": 47.8657835, "longitude": 12.0172036, "source": "osm", "_tags": {"addr:city": "Bad Aibling", "addr:country": "DE", "addr:housenumber": "16", "addr:postcode": "83043", "addr:street": "Harthauser Straße", "amenity": "hospital", "email": "info.aib@ro-med.de", "emergency": "yes", "fax": "+49 8061 930 224", "healthcare": "hospital", "name": "RoMed Klinik Bad Aibling", "operator": "RoMed Kliniken der Stadt und des Landkreises Rosenheim GmbH", "phone": "+49 8061 930 0", "website": "https://www.romed-kliniken.de/de/bad-aibling/die-klinik-im-ueberblick.htm", "wheelchair": "yes"}}, {"name": "Klinik Roseneck", "latitude": 47.8602507, "longitude": 12.3608766, "source": "osm", "_tags": {"addr:city": "Prien a. Chiemsee", "addr:country": "DE", "addr:housenumber": "89", "addr:postcode": "83209", "addr:street": "Seestraße", "amenity": "hospital", "building": "yes", "healthcare": "hospital", "name": "Klinik Roseneck", "type": "multipolygon"}}, {"name": "RoMed-Klinik Prien", "latitude": 47.8499772, "longitude": 12.3685406, "source": "osm", "_tags": {"addr:housenumber": "61-63", "addr:street": "Harrasser Straße", "amenity": "hospital", "healthcare": "hospital", "name": "RoMed-Klinik Prien", "phone": "+49 8051 6000", "type": "multipolygon", "website": "https://www.romed-kliniken.de/de/prien/die-klinik-im-ueberblick.htm", "wheelchair": "yes"}}]