[{"name": "Clinique du Tertre Rouge", "latitude": 47.9642452, "longitude": 0.2230577, "source": "osm", "_tags": {"amenity": "hospital", "healthcare": "hospital", "name": "Clinique du Tertre Rouge", "operator": "Groupe Elsan", "operator:type": "private", "ref:FR:FINESS": "720000231", "type:FR:FINESS": "365"}}, {"name": "Clinique Victor Hugo", "latitude": 48.0180618, "longitude": 0.1775265, "source": "osm", "_tags": {"amenity": "hospital", "emergency": "no", "fax": "+33243479498", "healthcare": "hospital", "name": "Clinique Victor Hugo", "phone": "+33243479494", "ref:FR:FINESS": "720000249", "ref:FR:SIRET": "30037729800017", "start_date": "2023-02-01", "type:FR:FINESS": "129", "website": "https://www.elsan.care/fr/clinique-victor-hugo"}}, {"name": "Centre de Rééducation Fonctionnelle Neurologique Bel-Air", "latitude": 47.4378803, "longitude": 0.645396, "source": "osm", "_tags": {"alt_name": "Centre de Rééducation Bel-Air", "amenity": "hospital", "name": "Centre de Rééducation Fonctionnelle Neurologique Bel-Air", "operator": "Croix Rouge Française", "phone": "+33 2 47 42 43 00", "ref:FR:FINESS": "370011223", "type:FR:FINESS": "379"}}, {"name": "Hôpital de jour Pradier", "latitude": 47.9670186, "longitude": 0.2120777, "source": "osm", "_tags": {"addr:city": "Le Mans", "addr:housenumber": "35 bis", "addr:postcode": "72100", "addr:street": "Rue James Pradier", "amenity": "hospital", "healthcare": "centre", "healthcare:speciality": "psychiatry", "name": "Hôpital de jour Pradier", "operator": "Établissement public de santé mentale de la Sarthe", "phone": "+33 2 43 50 06 71", "ref:FR:FINESS": "720012251", "ref:FR:SIRET": "26720106900593", "source": "Le ministère des solidarités et de la santé - 03/2019", "type:FR:FINESS": "292"}}, {"name": "Centre Hospitalier Charles Drouet", "latitude": 47.9636354, "longitude": 0.1547082, "source": "osm", "_tags": {"amenity": "hospital", "building": "hospital", "emergency": "no", "healthcare": "hospital", "name": "Centre Hospitalier Charles Drouet", "ref:FR:FINESS": "720005909", "source": "cadastre-dgi-fr source : Direction Générale des Impôts - Cadastre. Mise à jour : 2010", "type:FR:FINESS": "362", "wall": "yes", "wikidata": "Q112975070"}}, {"name": "Centre de soins Louis Sevestre", "latitude": 47.4390524, "longitude": 0.6459352, "source": "osm", "_tags": {"amenity": "hospital", "building": "hospital", "name": "Centre de soins Louis Sevestre", "phone": "+33 2 47 42 46 46", "ref:FR:FINESS": "370000986", "source": "cadastre-dgi-fr source : Direction Générale des Impôts - Cadastre. Mise à jour : 2010", "type:FR:FINESS": "355"}}, {"name": "Centre d'Addictologie", "latitude": 48.0096055, "longitude": 0.2243456, "source": "osm", "_tags": {"addr:city": "Le Mans", "addr:housenumber": "208", "addr:postcode": "72000", "addr:street": "Rue Prémartine", "amenity": "hospital", "building": "yes", "healthcare": "hospital", "name": "Centre d'Addictologie", "operator": "Établissement public de santé mentale de la Sarthe", "phone": "+33 2 43 76 09 09", "ref:FR:FINESS": "720013762", "ref:FR:SIRET": "26720106900189", "source": "cadastre-dgi-fr source : Direction Générale des Impôts - Cadastre. Mise à jour : 2010", "type:FR:FINESS": "292"}}, {"name": "Pôle Santé Sud", "latitude": 47.9658094, "longitude": 0.2259068, "source": "osm", "_tags": {"alt_name": "Centre Médico Chirurgical du Mans", "amenity": "hospital", "emergency": "yes", "fax": "+33 2 43 78 40 18", "healthcare": "hospital", "name": "Pôle Santé Sud", "operator": "Elsan", "operator:type": "private", "operator:wikidata": "Q48747106", "operator:wikipedia": "fr:Elsan", "phone": "+33 2 43 78 38 38", "ref:FR:FINESS": "720017748", "type:FR:FINESS": "365", "website": "https://www.polesantesud.fr/"}}, {"name": "Centre hospitalier du Mans", "latitude": 48.0154609, "longitude": 0.176869, "source": "osm", "_tags": {"amenity": "hospital", "emergency": "yes", "fax": "+33 2 43 43 43 21", "healthcare": "hospital", "name": "Centre hospitalier du Mans", "operator:type": "public", "phone": "+33 2 43 43 43 43", "ref:FR:FINESS": "720000033", "short_name": "CHM", "type": "site", "type:FR:FINESS": "355", "website": "https://ch-lemans.fr/", "wikidata": "Q2945711", "wikipedia": "fr:Centre hospitalier du Mans"}}, {"name": "EPSM de la Sarthe", "latitude": 47.9593096, "longitude": 0.1624086, "source": "osm", "_tags": {"alt_name": "Hôpital Psychiatrique", "amenity": "hospital", "healthcare": "hospital", "healthcare:speciality": "psychiatry", "name": "EPSM de la Sarthe", "official_name": "Etablissement Public de Santé Mentale de la Sarthe", "ref:FR:FINESS": "720007889", "type:FR:FINESS": "292", "website": "https://www.epsm-sarthe.fr"}}, {"name": "Maison de Santé", "latitude": 48.3200111, "longitude": 0.8227885, "source": "osm", "_tags": {"addr:city": "Nogent-le-Rotrou", "addr:housenumber": "37", "addr:postcode": "28400", "addr:street": "Rue du Château", "amenity": "hospital", "building": "yes", "emergency": "no", "healthcare": "hospital", "healthcare:speciality": "general;psychiatry", "name": "Maison de Santé", "operator": "Communauté de communes du Perche", "operator:type": "public", "ref:FR:FINESS": "280007311", "source": "cadastre-dgi-fr source : Direction Générale des Impôts - Cadastre. Mise à jour : 2012", "type:FR:FINESS": "603"}}, {"name": "Centre hospitalier de Nogent-le-Rotrou", "latitude": 48.3154696, "longitude": 0.8390632, "source": "osm", "_tags": {"amenity": "hospital", "email": "direction@ch-nogentlerotrou.fr", "emergency": "yes", "fax": "+33 2 37 53 74 00", "healthcare": "hospital", "name": "Centre hospitalier de Nogent-le-Rotrou", "operator:type": "public", "phone": "+33 2 37 53 75 75", "ref:FR:FINESS": "280502998", "source": "cadastre-dgi-fr source : Direction Générale des Impôts - Cadastre. Mise à jour : 2012", "type:FR:FINESS": "355", "website": "http://www.ch-nogent-le-rotrou.fr/"}}, {"name": "Centre Hospitalier de Château du Loir", "latitude": 47.6912221, "longitude": 0.4198578, "source": "osm", "_tags": {"amenity": "hospital", "building": "hospital", "emergency": "yes", "fax": "+33 2 43 44 51 00", "healthcare": "hospital", "name": "Centre Hospitalier de Château du Loir", "phone": "+33 2 43 44 77 77", "ref:FR:FINESS": "720000124", "ref:FR:RNB": "51VWT8CM49Q3", "source": "cadastre-dgi-fr source : Direction Générale des Finances Publiques - Cadastre. Mise à jour : 2013", "type:FR:FINESS": "355", "website": "http://ch-chateauduloir.fr/accueil.php"}}, {"name": "Hôpital François de Daillon", "latitude": 47.6494857, "longitude": 0.1544717, "source": "osm", "_tags": {"addr:city": "Le Lude", "addr:housenumber": "1", "addr:postcode": "72800", "addr:street": "Chemin des Bichousières", "amenity": "hospital", "healthcare": "hospital", "name": "Hôpital François de Daillon", "phone": "+33243484848", "ref:FR:FINESS": "720000314", "source": "Le ministère des solidarités et de la santé - 03/2019", "wikidata": "Q92063115"}}, {"name": "Clinique du Pré", "latitude": 48.0190512, "longitude": 0.1635713, "source": "osm", "_tags": {"amenity": "hospital", "healthcare": "hospital", "name": "Clinique du Pré", "operator:type": "private", "ref:FR:FINESS": "720000199", "ref:FR:SIRET": "30577626200027", "source": "cadastre-dgi-fr source : Direction Générale des Impôts - Cadastre. Mise à jour : 2014", "type:FR:FINESS": "128", "website": "https://www.cliniquedupre.com/", "wikidata": "Q2979302", "wikipedia": "fr:Clinique du Pré"}}, {"name": "Korian - Rougemont", "latitude": 48.0201962, "longitude": 0.1562406, "source": "osm", "_tags": {"amenity": "hospital", "building": "apartments", "healthcare:speciality": "physiatry", "name": "Korian - Rougemont", "ref:FR:FINESS": "720012509", "ref:FR:SIRET": "42085555300087", "source": "cadastre-dgi-fr source : Direction Générale des Impôts - Cadastre. Mise à jour : 2014", "type:FR:FINESS": "109"}}, {"name": "Centre hospitalier de Saint-Calais", "latitude": 47.9185911, "longitude": 0.7425607, "source": "osm", "_tags": {"amenity": "hospital", "email": "direction@ch-saintcalais.fr", "emergency": "yes", "fax": "+33 2 43 63 64 75", "healthcare": "hospital", "name": "Centre hospitalier de Saint-Calais", "operator:type": "public", "phone": "+33 2 43 63 64 65", "ref:FR:FINESS": "720000520", "source": "cadastre-dgi-fr source : Direction Générale des Impôts - Cadastre. Mise à jour : 2015", "type:FR:FINESS": "355", "website": "http://ch-saintcalais.fr/"}}, {"name": "L'Hospitalet", "latitude": 47.7542467, "longitude": 0.8762277, "source": "osm", "_tags": {"addr:housenumber": "33", "addr:street": "Rue Pasteur", "amenity": "hospital", "name": "L'Hospitalet", "ref:FR:FINESS": "410005391"}}, {"name": "Centre Hospitalier intercommunal Alençon-Mamers", "latitude": 48.3602595, "longitude": 0.3587491, "source": "osm", "_tags": {"amenity": "hospital", "emergency": "yes", "fax": "+33 2 43 31 31 08", "healthcare": "hospital", "name": "Centre Hospitalier intercommunal Alençon-Mamers", "operator:type": "public", "phone": "+33 2 43 31 31 31", "ref:FR:FINESS": "720000470", "short_name": "CHICAM", "type:FR:FINESS": "355", "website": "https://www.ch-alencon.fr/"}}, {"name": "Centre hospitalier de La Ferté-Bernard", "latitude": 48.1893223, "longitude": 0.6626558, "source": "osm", "_tags": {"alt_name": "Hôpital Paul Chapron", "amenity": "hospital", "emergency": "yes", "fax": "+33 2 43 17 61 65", "name": "Centre hospitalier de La Ferté-Bernard", "operator:type": "public", "phone": "+33 2 43 71 61 51", "ref:FR:FINESS": "720001437", "type:FR:FINESS": "355", "website": "https://www.ch-lafertebernard.fr/"}}, {"name": "Centre Médico-Chirurgical de Touraine", "latitude": 47.4328286, "longitude": 0.6698341, "source": "osm", "_tags": {"addr:housenumber": "6", "addr:street": "rue Thérèse et René Planiol", "alt_name": "CMCT", "amenity": "clinic", "building": "hospital", "healthcare": "hospital", "healthcare:speciality": "dermatology;orthopaedics;dentistry;gynaecology;internal", "name": "Centre Médico-Chirurgical de Touraine", "note": "Pas de ref:FR:FINESS", "short_name": "CMCT", "source": "cadastre-dgi-fr source : Direction Générale des Impôts - Cadastre. Mise à jour : 2018", "website": "http://cmct-touraine.com/"}}, {"name": "Clinique NCT+ Saint Gatien Alliance", "latitude": 47.4332673, "longitude": 0.6679201, "source": "osm", "_tags": {"addr:housenumber": "1", "addr:street": "Boulevard Alfred Nobel", "alt_name": "NCT+", "alt_name_1": "Clinique Saint Gatien", "amenity": "hospital", "emergency": "yes", "fax": "+33 2 47 49 11 62", "healthcare": "hospital", "healthcare:speciality": "intensive", "name": "Clinique NCT+ Saint Gatien Alliance", "old_name": "Clinique de l'Alliance", "operator": "Nouvelle Clinique de Tours Plus • Saint-Gatien • Alliance", "operator:type": "private", "phone": "+33 2 47 88 37 37", "ref:FR:FINESS": "370000093", "source": "cadastre-dgi-fr source : Direction Générale des Impôts - Cadastre. Mise à jour : 2018", "type:FR:FINESS": "365", "website": "https://nctplus.com/"}}, {"name": "Centre hospitalier de Château-Renault", "latitude": 47.5876376, "longitude": 0.9193976, "source": "osm", "_tags": {"alt_name": "Hôpital Jean Delaneau", "amenity": "hospital", "email": "contact@chicacr.fr", "fax": "+33 2 47 23 32 67", "name": "Centre hospitalier de Château-Renault", "operator": "Centre hospitalier intercommunal Amboise - Château-Renault", "operator:type": "public", "phone": "+33 2 47 23 33 33", "ref:FR:FINESS": "370000580", "type:FR:FINESS": "355", "website": "https://www.ch-amboise-chateaurenault.fr/"}}, {"name": "Foyer d'Accueil Médicalisé la Vallée Germain", "latitude": 47.6600073, "longitude": 0.7536002, "source": "osm", "_tags": {"amenity": "hospital", "name": "Foyer d'Accueil Médicalisé la Vallée Germain"}}, {"name": "Complexe hospitalier de l'arche", "latitude": 48.0577681, "longitude": 0.162073, "source": "osm", "_tags": {"addr:city": "Saint-Saturnin", "addr:postcode": "72650", "amenity": "hospital", "healthcare": "hospital", "name": "Complexe hospitalier de l'arche"}}, {"name": "Centre Hélène Chaigneau", "latitude": 47.9950298, "longitude": 0.2156127, "source": "osm", "_tags": {"amenity": "hospital", "healthcare": "centre", "healthcare:speciality": "psychiatry", "name": "Centre Hélène Chaigneau", "ref:FR:FINESS": "720019157", "ref:FR:SIRET": "26720106900767", "social_facility": "group_home", "social_facility:for": "mental_health", "type:FR:FINESS": "292"}}, {"name": "Centre Hospitalier de Château du Loir", "latitude": 47.6910027, "longitude": 0.4199027, "source": "osm", "_tags": {"amenity": "hospital", "building": "hospital", "diff:ref:FR:RNB": "not_needed", "emergency": "yes", "fax": "+33 2 43 44 51 00", "healthcare": "hospital", "name": "Centre Hospitalier de Château du Loir", "phone": "+33 2 43 44 77 77", "ref:FR:FINESS": "720000124", "source": "cadastre-dgi-fr source : Direction Générale des Finances Publiques - Cadastre. Mise à jour : 2013", "type:FR:FINESS": "355", "website": "http://ch-chateauduloir.fr/accueil.php"}}, {"name": "Centre Hospitalier de Château du Loir", "latitude": 47.6907316, "longitude": 0.4199112, "source": "osm", "_tags": {"amenity": "hospital", "building": "hospital", "emergency": "yes", "fax": "+33 2 43 44 51 00", "healthcare": "hospital", "name": "Centre Hospitalier de Château du Loir", "phone": "+33 2 43 44 77 77", "ref:FR:FINESS": "720000124", "ref:FR:RNB": "3MB2FHP6T1BZ", "source": "cadastre-dgi-fr source : Direction Générale des Finances Publiques - Cadastre. Mise à jour : 2013", "type:FR:FINESS": "355", "website": "http://ch-chateauduloir.fr/accueil.php"}}, {"name": "Hôpital de l'arche", "latitude": 48.058285, "longitude": 0.1623592, "source": "osm", "_tags": {"amenity": "hospital", "building": "yes", "healthcare": "hospital", "name": "Hôpital de l'arche", "ref:FR:FINESS": "720000744", "type": "multipolygon", "type:FR:FINESS": "109"}}]