[{"name": "Spitalul Județean Satu-Mare", "latitude": 47.7828104, "longitude": 22.8631551, "source": "osm", "_tags": {"amenity": "hospital", "name": "Spitalul Județean Satu-Mare", "wheelchair": "yes"}}, {"name": "Laborator de Sănătate Mintală", "latitude": 47.7871125, "longitude": 22.859015, "source": "osm", "_tags": {"amenity": "hospital", "name": "Laborator de Sănătate Mintală"}}, {"name": "Clinica privată de Chirurgie Plastică și Estetică ELISESTET", "latitude": 47.7988666, "longitude": 22.8622824, "source": "osm", "_tags": {"amenity": "hospital", "name": "Clinica privată de Chirurgie Plastică și Estetică ELISESTET"}}, {"name": "", "latitude": 47.680698, "longitude": 22.4634168, "source": "osm", "_tags": {"addr:city": "Carei", "addr:postcode": "445100", "amenity": "hospital", "healthcare": "hospital"}}, {"name": "Dr. Heim Manuela", "latitude": 47.7938766, "longitude": 22.8793562, "source": "osm", "_tags": {"amenity": "hospital", "designation": "Medic Specialist Obstetrica – Ginecologie", "emergency": "no", "healthcare": "doctor", "healthcare:speciality": "gynaecology", "name": "Dr. Heim Manuela"}}, {"name": "mentők", "latitude": 47.8366941, "longitude": 22.1355822, "source": "osm", "_tags": {"amenity": "hospital", "name": "mentők"}}, {"name": "Secție Exterioară Spitalul Municipal Dr. Pop Mircea Marghita", "latitude": 47.5200534, "longitude": 22.1330836, "source": "osm", "_tags": {"amenity": "hospital", "healthcare": "hospital", "name": "Secție Exterioară Spitalul Municipal Dr. Pop Mircea Marghita"}}, {"name": "Szabolcs-Szatmár-Bereg Vármegyei Kórházak Mátészalkai Kórház", "latitude": 47.9551794, "longitude": 22.3160984, "source": "osm", "_tags": {"amenity": "hospital", "healthcare": "hospital", "name": "Szabolcs-Szatmár-Bereg Vármegyei Kórházak Mátészalkai Kórház"}}, {"name": "Vásárosnaményi Kórház", "latitude": 48.1289356, "longitude": 22.3087887, "source": "osm", "_tags": {"addr:city": "Vásárosnamény", "addr:housenumber": "5", "addr:postcode": "4800", "addr:street": "Ady Endre utca", "amenity": "hospital", "emergency": "no", "healthcare": "hospital", "name": "Vásárosnaményi Kórház", "operator": "Szabolcs-Szatmár-Bereg Megyei Kórházak és Egyetemi Oktatókórház", "phone": "+36 45 570 770", "website": "https://szszbmk.hu/fehergyarmat"}}, {"name": "", "latitude": 47.4765343, "longitude": 22.5850479, "source": "osm", "_tags": {"addr:city": "Tășnad", "addr:postcode": "445300", "amenity": "hospital", "healthcare": "hospital"}}, {"name": "", "latitude": 47.4745698, "longitude": 22.585201, "source": "osm", "_tags": {"amenity": "hospital", "healthcare": "hospital"}}, {"name": "", "latitude": 47.474595, "longitude": 22.5854588, "source": "osm", "_tags": {"amenity": "hospital", "healthcare": "hospital"}}, {"name": "", "latitude": 47.4779797, "longitude": 22.5876024, "source": "osm", "_tags": {"amenity": "hospital", "healthcare": "hospital"}}, {"name": "Policlinica Carei", "latitude": 47.6810566, "longitude": 22.4650552, "source": "osm", "_tags": {"addr:city": "Carei", "amenity": "hospital", "building": "yes", "healthcare": "hospital", "name": "Policlinica Carei"}}, {"name": "Policlinica Carei", "latitude": 47.6809047, "longitude": 22.4656404, "source": "osm", "_tags": {"amenity": "hospital", "building": "yes", "healthcare": "hospital", "name": "Policlinica Carei"}}, {"name": "Policlinica Carei", "latitude": 47.6812894, "longitude": 22.4655652, "source": "osm", "_tags": {"amenity": "hospital", "building": "yes", "healthcare": "hospital", "name": "Policlinica Carei"}}, {"name": "Fehérgyarmati Kórház és Gyógyfürdő", "latitude": 47.9951115, "longitude": 22.513388, "source": "osm", "_tags": {"addr:city": "Fehérgyarmat", "addr:housenumber": "1", "addr:postcode": "4900", "addr:street": "Damjanich utca", "amenity": "hospital", "barrier": "fence", "contact:email": "fgyarmat@szszbmk.hu", "contact:fax": "+36 44 511 130", "contact:phone": "+36 44 511 111", "contact:website": "http://www.szszbmk.hu/", "name": "Fehérgyarmati Kórház és Gyógyfürdő"}}, {"name": "Лікарня ім. Бертолона Ліннера", "latitude": 48.201207, "longitude": 22.649833, "source": "osm", "_tags": {"addr:housenumber": "2", "addr:postcode": "90202", "addr:street": "вулиця Бертолона Ліннера", "amenity": "hospital", "barrier": "fence", "healthcare": "hospital", "name": "Лікарня ім. Бертолона Ліннера", "name:en": "Bertalan Linner Hospital", "name:hu": "Linner Bertalan Beregszászi Kórház", "name:uk": "Лікарня ім. Бертолона Ліннера", "official_name": "Комунальне некомерційне підриємство «Берегівська лікарня імені Бертолона Ліннера» Берегівської міської ради", "old_name": "Берегівська центральна районна лікарня", "operator": "Берегівська міська рада", "website": "https://beregove.crl.net.ua/"}}, {"name": "Обласний заклад з надання психіатричної допомоги", "latitude": 48.2019615, "longitude": 22.6533858, "source": "osm", "_tags": {"addr:housenumber": "41", "addr:street": "Мужайська вулиця", "amenity": "hospital", "healthcare": "hospital", "healthcare:speciality": "psychiatry", "name": "Обласний заклад з надання психіатричної допомоги", "name:hu": "Elmegyógyintézet", "name:uk": "Обласний заклад з надання психіатричної допомоги", "old_name": "Обласна психіатрична лікарня"}}, {"name": "Spitalul Boli Infecțioase", "latitude": 47.794697, "longitude": 22.8856204, "source": "osm", "_tags": {"amenity": "hospital", "building": "hospital", "emergency": "no", "healthcare": "hospital", "name": "Spitalul Boli Infecțioase"}}, {"name": "Nemocnica s poliklinikou n.o. Kráľovský Chlmec", "latitude": 48.4187838, "longitude": 21.9774205, "source": "osm", "_tags": {"amenity": "hospital", "contact:email": "sekretariat@nspkch.sk", "contact:phone": "+421 56 632 1563", "contact:website": "https://www.nspkch.sk", "healthcare": "hospital", "name": "Nemocnica s poliklinikou n.o. Kráľovský Chlmec"}}, {"name": "", "latitude": 48.109844, "longitude": 22.83526, "source": "osm", "_tags": {"amenity": "hospital", "healthcare": "hospital"}}, {"name": "", "latitude": 48.1106882, "longitude": 22.8406035, "source": "osm", "_tags": {"amenity": "hospital", "healthcare": "hospital"}}, {"name": "Szent Damján Görögkatolikus Kórház", "latitude": 48.2087293, "longitude": 22.0899658, "source": "osm", "_tags": {"addr:city": "Kisvárda", "addr:housenumber": "26", "addr:postcode": "4600", "addr:street": "Árpád utca", "amenity": "hospital", "healthcare": "hospital", "name": "Szent Damján Görögkatolikus Kórház", "old_name": "Felső-szabolcsi kórház", "type": "multipolygon"}}]