[{"name": "Vasgyári SZTK", "latitude": 48.0939268, "longitude": 20.7284572, "source": "osm", "_tags": {"amenity": "hospital", "check_date": "2024-10-09", "emergency": "no", "healthcare": "hospital", "name": "Vasgyári SZTK"}}, {"name": "", "latitude": 48.1631099, "longitude": 20.6214331, "source": "osm", "_tags": {"amenity": "hospital"}}, {"name": "", "latitude": 47.8750608, "longitude": 20.6021116, "source": "osm", "_tags": {"amenity": "hospital"}}, {"name": "Parádfürdői Állami Kórház", "latitude": 47.9262559, "longitude": 20.0597328, "source": "osm", "_tags": {"addr:city": "Parád", "addr:housenumber": "221", "addr:postcode": "3240", "addr:street": "Kossuth Lajos út", "addr:suburb": "Parádfürdő", "amenity": "hospital", "name": "Parádfürdői Állami Kórház", "wikidata": "Q64549113", "wikipedia": "hu:Parádfürdői Állami Kórház"}}, {"name": "Mátrai Gyógyintézet", "latitude": 47.864633, "longitude": 19.973833, "source": "osm", "_tags": {"addr:city": "Mátraháza", "addr:postcode": "3233", "amenity": "hospital", "description": "Vizet kérhetünk a Gyógyintézet portáján a biztonsági őrtől.", "email": "igazgatas@magy.eu", "healthcare": "hospital", "name": "Mátrai Gyógyintézet", "phone": "+3637574500", "source": "turistautak.hu", "source:date": "2013-06-22", "url": "http://turistautak.hu/poi.php?id=151618", "website": "http://www.matraigyogyintezet.hu/"}}, {"name": "Szanatórium", "latitude": 47.8713739, "longitude": 20.0109198, "source": "osm", "_tags": {"amenity": "hospital", "name": "Szanatórium", "source": "turistautak.hu", "source:date": "2013-06-22", "url": "http://turistautak.hu/poi.php?id=149953"}}, {"name": "Védőnői szolgálat", "latitude": 48.1719058, "longitude": 20.5339514, "source": "osm", "_tags": {"amenity": "hospital", "healthcare": "hospital", "name": "Védőnői szolgálat"}}, {"name": "Koch Róbert Kórház és Rendelőintézet", "latitude": 48.2950633, "longitude": 20.7258042, "source": "osm", "_tags": {"amenity": "hospital", "name": "Koch Róbert Kórház és Rendelőintézet"}}, {"name": "Patológia", "latitude": 47.9062132, "longitude": 20.3738109, "source": "osm", "_tags": {"amenity": "hospital", "healthcare": "hospital", "name": "Patológia"}}, {"name": "Patológia", "latitude": 48.208838, "longitude": 20.2917657, "source": "osm", "_tags": {"amenity": "hospital", "healthcare": "hospital", "name": "Patológia"}}, {"name": "Semmelweis Tagkórház", "latitude": 48.0915424, "longitude": 20.7885364, "source": "osm", "_tags": {"addr:city": "Miskolc", "addr:housenumber": "9-11", "addr:postcode": "3529", "addr:street": "Csabai kapu", "amenity": "hospital", "healthcare": "hospital", "local_name": "Semmelweis Kórház", "name": "Semmelweis Tagkórház", "official_name": "Borsod-Abaúj-Zemplén Vármegyei Központi Kórház és Egyetemi Oktatókórház Semmelweis Tagkórháza", "old_name": "Erzsébet Kórház", "website": "https://www.bazmkorhaz.hu/", "wikidata": "Q64555484"}}, {"name": "Diósgyőri Tagkórház-Rendelőintézet", "latitude": 48.0903163, "longitude": 20.722444, "source": "osm", "_tags": {"addr:city": "Miskolc", "addr:housenumber": "1", "addr:postcode": "3533", "addr:street": "Kórház utca", "amenity": "hospital", "healthcare": "hospital", "local_name": "Diósgyőri Kórház", "name": "Diósgyőri Tagkórház-Rendelőintézet", "official_name": "Borsod-Abaúj-Zemplén Vármegyei Központi Kórház Diósgyőri Tagkórház-Rendelőintézet", "old_name": "Vasgyári Kórház", "website": "https://www.bazmkorhaz.hu/"}}, {"name": "Markhot Ferenc Oktatókórház és Rendelőintézet", "latitude": 47.9049354, "longitude": 20.3746013, "source": "osm", "_tags": {"amenity": "hospital", "healthcare": "hospital", "name": "Markhot Ferenc Oktatókórház és Rendelőintézet", "website": "https://www.mfkh.hu/", "wheelchair": "yes"}}, {"name": "Almási Balogh Pál Kórház", "latitude": 48.2085501, "longitude": 20.2915535, "source": "osm", "_tags": {"addr:city": "Ózd", "amenity": "hospital", "healthcare": "hospital", "name": "Almási Balogh Pál Kórház"}}, {"name": "Izsófalvi Pszichiátriai Szakkórház", "latitude": 48.3164908, "longitude": 20.6499674, "source": "osm", "_tags": {"addr:city": "Izsófalva", "addr:housenumber": "13", "addr:postcode": "3741", "addr:street": "Mária táró", "amenity": "hospital", "healthcare": "hospital", "name": "Izsófalvi Pszichiátriai Szakkórház"}}, {"name": "II. Rákóczi Ferenc Kórház", "latitude": 48.2050667, "longitude": 20.9348677, "source": "osm", "_tags": {"addr:city": "Szikszó", "addr:housenumber": "45-49", "addr:postcode": "3800", "addr:street": "Kassai út", "amenity": "hospital", "emergency": "no", "name": "II. Rákóczi Ferenc Kórház", "phone": "+36 46 596 600", "website": "http://www.hospital-szikszo.hu/newpage/index.php?bazmkorhaz=1", "wheelchair": "yes"}}, {"name": "", "latitude": 48.2544697, "longitude": 20.6194455, "source": "osm", "_tags": {"amenity": "hospital", "healthcare": "hospital"}}, {"name": "Borsod-Abaúj-Zemplén Vármegyei Központi Kórház és Egyetemi Oktatókórház", "latitude": 48.1208249, "longitude": 20.7905416, "source": "osm", "_tags": {"addr:city": "Miskolc", "addr:housenumber": "72-76", "addr:postcode": "3526", "addr:street": "Szentpéteri kapu", "alt_name": "Központi Telephely", "amenity": "hospital", "emergency": "yes", "healthcare": "hospital", "name": "Borsod-Abaúj-Zemplén Vármegyei Központi Kórház és Egyetemi Oktatókórház", "type": "multipolygon", "website": "https://www.bazmkorhaz.hu/"}}, {"name": "Szent Ferenc Tagkórház", "latitude": 48.0884907, "longitude": 20.7847215, "source": "osm", "_tags": {"amenity": "hospital", "building": "yes", "healthcare": "hospital", "local_name": "Szent Ferenc Kórház", "name": "Szent Ferenc Tagkórház", "official_name": "Borsod-Abaúj-Zemplén Vármegyei Központi Kórház és Egyetemi Oktatókórház Szent Ferenc Kórháza", "old_name": "Tüdőkórház", "type": "multipolygon", "website": "https://www.bazmkorhaz.hu/szent-ferenc-tagkorhaz-jarobeteg-ellatas"}}, {"name": "Všeobecná nemocnica Rimavská Sobota", "latitude": 48.3834303, "longitude": 20.0249932, "source": "osm", "_tags": {"amenity": "hospital", "contact:website": "https://www.procare.sk/nemocnica/vseobecna-nemocnica-rimavska-sobota/", "emergency": "yes", "healthcare": "hospital", "name": "Všeobecná nemocnica Rimavská Sobota", "toilets:wheelchair": "yes", "type": "multipolygon", "wheelchair": "yes"}}]