[{"name": "Croix-Rouge française USSR Migennes", "latitude": 47.9644226, "longitude": 3.5109407, "source": "osm", "_tags": {"addr:city": "Migennes", "addr:housenumber": "82", "addr:postcode": "89400", "addr:street": "Avenue Jean Jaurès", "amenity": "hospital", "check_date": "2025-05-31", "emergency": "no", "healthcare": "hospital", "name": "Croix-Rouge française USSR Migennes", "ref:FR:FINESS": "890000250", "type:FR:FINESS": "109", "wheelchair": "yes"}}, {"name": "Clinique Psychiatrique du Château de Régennes", "latitude": 47.8753229, "longitude": 3.5416364, "source": "osm", "_tags": {"amenity": "hospital", "healthcare": "hospital", "healthcare:speciality": "psychiatry", "name": "Clinique Psychiatrique du Château de Régennes", "opening_hours": "Mo-Fr 08:30-18:30; Sa-Su 10:00-13:00, 13:30-18:00", "ref:FR:FINESS": "890002298", "ref:FR:SIRET": "30346714600013", "type:FR:FINESS": "161", "wikipedia": "fr:Château de Régennes"}}, {"name": "CHS de l'Yonne", "latitude": 47.8050262, "longitude": 3.5697247, "source": "osm", "_tags": {"amenity": "hospital", "description": "Ancien asile des aliénés, aujourd'hui Centre Hospitalier Spécialisé de l'Yonne", "heritage": "3", "heritage:operator": "mhs", "mhs:inscription_date": "2002-04-02", "name": "CHS de l'Yonne", "ref:FR:FINESS": "890975519", "ref:mhs": "PA89000030", "source:heritage": "Ministère de la Culture - 07/2018", "type:FR:FINESS": "292"}}, {"name": "Centre hospitalier d’Auxerre", "latitude": 47.8044781, "longitude": 3.5559711, "source": "osm", "_tags": {"alt_name": "Hôpital d'Auxerre", "amenity": "hospital", "emergency": "yes", "fax": "+33 3 86 48 47 19", "healthcare": "hospital", "healthcare:speciality": "intensive", "name": "Centre hospitalier d’Auxerre", "operator:type": "public", "phone": "+33 3 86 48 48 48", "ref:FR:FINESS": "890975527", "source": "cadastre-dgi-fr source : Direction Générale des Impôts - Cadastre. Mise à jour : 2010", "type:FR:FINESS": "355", "website": "https://www.ght-unyon.fr/index.php", "wikidata": "Q104875167"}}, {"name": "Unité de Soin Paliatif - Unité Gaïa", "latitude": 48.1973026, "longitude": 3.2941629, "source": "osm", "_tags": {"addr:city": "Sens", "addr:housenumber": "7", "addr:postcode": "89100", "addr:street": "Boulevard Maréchal Foch", "amenity": "hospital", "healthcare": "hospital", "name": "Unité de Soin Paliatif - Unité Gaïa", "phone": "+33 3 86 96 75 05", "short_name": "USP", "source": "extraction vectorielle v1 cadastre-dgi-fr source : Direction Générale des Impôts - Cadas. Mise à jour : 2010"}}, {"name": "Centre Hospitalier Spécialisé de l’Yonne - Unité Henri EY", "latitude": 48.1976897, "longitude": 3.2942723, "source": "osm", "_tags": {"addr:city": "Sens", "addr:housenumber": "7", "addr:postcode": "89100", "addr:street": "Boulevard Maréchal Foch", "amenity": "hospital", "email": "secteur1@chs-yonne.fr", "emergency": "yes", "fax": "+33 3 86 64 45 44", "healthcare": "hospital", "healthcare:speciality": "psychiatry", "name": "Centre Hospitalier Spécialisé de l’Yonne - Unité Henri EY", "phone": "+33 3 86 64 45 43", "source": "extraction vectorielle v1 cadastre-dgi-fr source : Direction Générale des Impôts - Cadas. Mise à jour : 2010", "website": "https://www.chs-yonne.fr/ou-consulter/plus-de-18-ans/sens/"}}, {"name": "Centre hospitalier de Sens", "latitude": 48.1929653, "longitude": 3.2984219, "source": "osm", "_tags": {"addr:city": "Sens", "addr:housenumber": "1", "addr:postcode": "89100", "addr:street": "Avenue Pierre de Coubertin", "alt_name": "Centre hospitalier Gaston Ramon", "amenity": "hospital", "emergency": "yes", "facebook": "Centre Hospitalier de Sens", "fax": "+33386861055", "healthcare": "hospital", "healthcare:speciality": "intensive;emergency", "name": "Centre hospitalier de Sens", "operator": "Groupement Hospitalier Nord Yonne", "operator:type": "public", "phone": "+33386861515", "ref:FR:FINESS": "890975550", "twitter": "chdesens", "type:FR:FINESS": "355", "website": "https://www.ch-sens.fr/"}}, {"name": "Centre hospitalier de Montereau", "latitude": 48.3831366, "longitude": 2.9523117, "source": "osm", "_tags": {"amenity": "hospital", "emergency": "yes", "fax": "+33 1 64 31 66 35", "healthcare": "hospital", "name": "Centre hospitalier de Montereau", "operator": "Centre hospitalier du sud Seine-et-Marne", "operator:type": "public", "phone": "+33 1 64 31 64 31", "ref:FR:FINESS": "770000164", "type:FR:FINESS": "355", "website": "https://www.ch-sud-seine-et-marne.fr/"}}, {"name": "Centre hospitalier de Clamecy", "latitude": 47.4534695, "longitude": 3.5090299, "source": "osm", "_tags": {"amenity": "hospital", "emergency": "yes", "fax": "+33 3 86 27 61 04", "name": "Centre hospitalier de Clamecy", "operator:type": "public", "phone": "+33 3 86 27 60 00", "ref:FR:FINESS": "580972669", "type:FR:FINESS": "355", "website": "https://www.ght-unyon.fr/"}}, {"name": "Clinique Ker Yonnec", "latitude": 48.3062991, "longitude": 3.1243763, "source": "osm", "_tags": {"amenity": "hospital", "healthcare": "hospital", "name": "Clinique Ker Yonnec", "ref:FR:FINESS": "890002371", "type:FR:FINESS": "161", "website": "https://www.keryonnec.com/"}}, {"name": "Clinique Paul Picquet", "latitude": 48.2071632, "longitude": 3.2946652, "source": "osm", "_tags": {"addr:city": "Sens", "addr:housenumber": "12", "addr:postcode": "89100", "addr:street": "Rue Pierre Castets", "amenity": "hospital", "healthcare": "hospital", "name": "Clinique Paul Picquet", "ref:FR:FINESS": "890000169", "type:FR:FINESS": "365", "website": "https://www.clinique-paul-picquet.fr"}}, {"name": "Polyclinique Sainte-Marguerite", "latitude": 47.8123052, "longitude": 3.5650967, "source": "osm", "_tags": {"amenity": "hospital", "building": "hospital", "email": "contact@polyclinique-auxerre.fr", "fax": "+33 3 86 52 37 44", "healthcare": "hospital", "name": "Polyclinique Sainte-Marguerite", "operator": "C2S", "operator:type": "private", "phone": "+33 3 86 94 49 49", "ref:FR:FINESS": "890002389", "source": "cadastre-dgi-fr source : Direction Générale des Impôts - Cadastre. Mise à jour : 2010", "type:FR:FINESS": "365", "website": "http://www.bourgogne-sante-services.com/", "wheelchair": "yes"}}, {"name": "Centre hospitalier d'Avallon", "latitude": 47.4901981, "longitude": 3.9046059, "source": "osm", "_tags": {"amenity": "hospital", "emergency": "yes", "fax": "+33 3 86 31 61 51", "healthcare": "hospital", "name": "Centre hospitalier d'Avallon", "operator:type": "public", "phone": "+33 3 86 34 66 00", "ref:FR:FINESS": "890975535", "type:FR:FINESS": "355", "website": "https://www.ght-unyon.fr/"}}, {"name": "Centre hospitalier de Joigny", "latitude": 47.9795538, "longitude": 3.3959923, "source": "osm", "_tags": {"amenity": "hospital", "email": "direction@ch-joigny.fr", "emergency": "yes", "fax": "+33 3 86 92 33 07", "healthcare": "hospital", "name": "Centre hospitalier de Joigny", "operator": "Groupement Hospitalier Nord Yonne", "operator:type": "public", "phone": "+33 3 86 92 33 33", "ref:FR:FINESS": "890975543", "type:FR:FINESS": "355", "website": "https://www.ch-joigny.com/"}}, {"name": "Clinique du Petit Pien", "latitude": 47.8636225, "longitude": 3.5871793, "source": "osm", "_tags": {"amenity": "hospital", "building": "hospital", "healthcare": "hospital", "healthcare:speciality": "physiatry", "name": "Clinique du Petit Pien", "operator": "Clinéa", "ref:FR:FINESS": "890000318", "type:FR:FINESS": "109"}}, {"name": "", "latitude": 47.7398565, "longitude": 3.2990009, "source": "osm", "_tags": {"amenity": "hospital", "healthcare": "hospital"}}, {"name": "INICEA", "latitude": 48.196734, "longitude": 3.2942808, "source": "osm", "_tags": {"addr:city": "Sens", "addr:housenumber": "7 ter", "addr:postcode": "89100", "addr:street": "Boulevard Maréchal Foch", "amenity": "clinic", "contact:phone": "+33 3 45 73 53 00", "healthcare": "hospital", "name": "INICEA", "opening_hours": "Mo-Su 09:00-18:00", "ref:FR:SIRET": "65552024500326"}}, {"name": "Unité de dialyse de Sens", "latitude": 48.1965095, "longitude": 3.2971204, "source": "osm", "_tags": {"addr:city": "Sens", "addr:housenumber": "1", "addr:postcode": "89100", "addr:street": "Rue Amédée Guérard", "amenity": "hospital", "email": "dialyse.sens-auto@santelys.fr", "healthcare": "hospital", "healthcare:speciality": "nephrology", "name": "Unité de dialyse de Sens", "operator": "Santélys Bourgogne - Franche-Comté", "operator:type": "private_non_profit", "phone": "+33386131845", "ref:FR:FINESS": "890003130"}}]