[{"name": "Egészségház", "latitude": 47.4448343, "longitude": 21.3925693, "source": "osm", "_tags": {"amenity": "hospital", "name": "Egészségház", "toilets:wheelchair": "yes", "wheelchair": "yes"}}, {"name": "Éjszakai/hétvégi ügyelet", "latitude": 47.4450712, "longitude": 21.3923286, "source": "osm", "_tags": {"addr:city": "Hajdúszoboszló", "addr:housenumber": "1", "addr:postcode": "4200", "addr:street": "Szilfákalja", "amenity": "hospital", "name": "Éjszakai/hétvégi ügyelet", "toilets:wheelchair": "yes", "wheelchair": "yes"}}, {"name": "Egészségügyi Központ", "latitude": 48.2768969, "longitude": 21.186297, "source": "osm", "_tags": {"amenity": "hospital", "name": "Egészségügyi Központ", "source": "turistautak.hu", "url": "http://turistautak.hu/poi.php?id=94461"}}, {"name": "Orvosi rendelő", "latitude": 48.16264, "longitude": 21.1959854, "source": "osm", "_tags": {"amenity": "hospital", "name": "Orvosi rendelő"}}, {"name": "Start Rehabilitációs Kht.", "latitude": 47.9551873, "longitude": 21.7255848, "source": "osm", "_tags": {"addr:city": "Nyíregyháza", "addr:housenumber": "32", "addr:postcode": "4400", "addr:street": "Bujtos utca", "amenity": "hospital", "email": "startrehab@startrehab.hu", "name": "Start Rehabilitációs Kht.", "phone": "+36 42 411 433", "website": "https://www.startrehab.hu/"}}, {"name": "", "latitude": 47.9513666, "longitude": 21.7299646, "source": "osm", "_tags": {"healthcare": "hospital", "website": "https://www.eualapellatas.hu/?page_id=238"}}, {"name": "Debreceni Egyetem Kenézy Gyula Kórház", "latitude": 47.5321965, "longitude": 21.6084205, "source": "osm", "_tags": {"amenity": "hospital", "emergency": "yes", "healthcare": "hospital", "name": "Debreceni Egyetem Kenézy Gyula Kórház", "wheelchair": "yes"}}, {"name": "Művese Állomás", "latitude": 47.5568363, "longitude": 21.6248013, "source": "osm", "_tags": {"amenity": "hospital", "building": "yes", "name": "Művese Állomás"}}, {"name": "Jósa András Oktatókórház", "latitude": 47.951097, "longitude": 21.7305079, "source": "osm", "_tags": {"addr:city": "Nyíregyháza", "addr:housenumber": "68", "addr:postcode": "4400", "addr:street": "Szent István utca", "amenity": "hospital", "contact:fax": "+36 42 461 174", "emergency": "yes", "healthcare": "hospital", "healthcare:speciality": "emergency;cardiology;otolaryngology;ophthalmology;gynaecology;internal;blood_check;child_psychiatry;dental_oral_maxillo_facial_surgery;vascular_surgery;trauma;rheumatology;orthodontics;surgery;endocrinology;hepatology;neurosurgery;infectious_diseases", "name": "Jósa András Oktatókórház", "phone": "+36 42 599 700;+36 42 506 800", "website": "https://www.szszbmk.hu/", "wheelchair": "yes"}}, {"name": "Jósa András Oktató Kórház és Szanatórium", "latitude": 47.9802989, "longitude": 21.7148126, "source": "osm", "_tags": {"addr:city": "Nyíregyháza", "addr:housenumber": "62", "addr:postcode": "4400", "addr:street": "Sóstói út", "amenity": "hospital", "barrier": "fence", "healthcare": "hospital", "healthcare:speciality": "psychiatry;neurology", "name": "Jósa András Oktató Kórház és Szanatórium", "operator": "Szabolcs-Szatmár-Bereg Vármegyei Kórhzak", "wheelchair": "yes"}}, {"name": "Sántha Kálmán Pszichiátriai Szakkórház", "latitude": 47.8749175, "longitude": 21.8454764, "source": "osm", "_tags": {"addr:city": "Nagykálló", "addr:housenumber": "12", "addr:postcode": "4320", "addr:street": "Szabadság tér", "amenity": "hospital", "healthcare": "hospital", "healthcare:speciality": "psychiatry", "name": "Sántha Kálmán Pszichiátriai Szakkórház", "operator": "Szabolcs-Szatmár-Bereg Vármegyei Kórház", "website": "https://www.szszbmk.hu/nagykallo"}}, {"name": "Erzsébet Kórház", "latitude": 48.3979321, "longitude": 21.6498725, "source": "osm", "_tags": {"addr:city": "Sátoraljaújhely", "addr:housenumber": "9", "addr:postcode": "3980", "addr:street": "Mártírok útja", "amenity": "hospital", "healthcare": "hospital", "name": "Erzsébet Kórház", "phone": "+3647 525 300", "website": "https://www.ujhelykorhaz.hu", "wheelchair": "yes"}}, {"name": "Ibrány-Nagyhalász Kistérségi Járóbeteg Szakellátó Intézet", "latitude": 48.1339147, "longitude": 21.7344564, "source": "osm", "_tags": {"amenity": "hospital", "name": "Ibrány-Nagyhalász Kistérségi Járóbeteg Szakellátó Intézet"}}, {"name": "Mentőállomás", "latitude": 48.0682759, "longitude": 21.8003148, "source": "osm", "_tags": {"amenity": "hospital", "healthcare": "hospital", "name": "Mentőállomás"}}, {"name": "Auguszta Hotel és Diákszálló", "latitude": 47.5639509, "longitude": 21.6237261, "source": "osm", "_tags": {"amenity": "hospital", "name": "Auguszta Hotel és Diákszálló", "tourism": "hotel", "type": "multipolygon"}}, {"name": "Auguszta Neurológiai Klinika", "latitude": 47.5624789, "longitude": 21.6214855, "source": "osm", "_tags": {"amenity": "hospital", "name": "Auguszta Neurológiai Klinika", "type": "multipolygon"}}, {"name": "", "latitude": 48.3030512, "longitude": 21.2040433, "source": "osm", "_tags": {"healthcare": "hospital", "leisure": "sports_centre", "type": "multipolygon"}}, {"name": "", "latitude": 48.0099519, "longitude": 21.7284803, "source": "osm", "_tags": {"amenity": "hospital", "healthcare": "hospital", "type": "multipolygon"}}]