[{"name": "Serviciul medical de urgenta Rezina", "latitude": 47.7471327, "longitude": 28.9606578, "source": "osm", "_tags": {"amenity": "hospital", "emergency": "yes", "name": "Serviciul medical de urgenta Rezina", "name:ru": "Скорая помощь г. Резина"}}, {"name": "Centrul Medicilor de Familie (blocul 2)", "latitude": 47.7482565, "longitude": 28.9608807, "source": "osm", "_tags": {"addr:city": "Rezina", "amenity": "hospital", "emergency": "no", "healthcare": "hospital", "name": "Centrul Medicilor de Familie (blocul 2)", "name:en": "Hospital", "name:ro": "Policlinica Veche", "name:ru": "Больница"}}, {"name": "Stefirta Dina", "latitude": 47.7494655, "longitude": 28.9558291, "source": "osm", "_tags": {"addr:city": "Rezina", "addr:country": "MD", "addr:housenumber": "3", "addr:postcode": "MD-5400", "addr:street": "Strada 1 Mai", "amenity": "hospital", "emergency": "no", "name": "Stefirta Dina", "name:en": "Stomatological center", "name:ro": "Stomatologie", "name:ru": "Стоматологический центр"}}, {"name": "Azil de batrini", "latitude": 47.7492504, "longitude": 28.9550802, "source": "osm", "_tags": {"addr:city": "Rezina", "addr:country": "MD", "addr:housenumber": "60", "addr:postcode": "MD-5400", "addr:street": "Strada 27 August 1989", "amenity": "hospital", "emergency": "no", "name": "Azil de batrini", "name:ro": "Azil pentru batrani", "name:ru": "Дом престарелых"}}, {"name": "Centrul de Sănătate Publică Rezina", "latitude": 47.7468155, "longitude": 28.9594375, "source": "osm", "_tags": {"addr:city": "Rezina", "amenity": "hospital", "emergency": "no", "healthcare": "hospital", "name": "Centrul de Sănătate Publică Rezina", "name:ru": "Центр общественного здоровья"}}, {"name": "", "latitude": 47.5290013, "longitude": 29.0260346, "source": "osm", "_tags": {"amenity": "hospital", "name:ru": "медпункт"}}, {"name": "Роддом", "latitude": 47.7712444, "longitude": 28.9991567, "source": "osm", "_tags": {"amenity": "hospital", "healthcare": "hospital", "healthcare:speciality": "gynaecology", "name": "Роддом", "name:md": "Матернитатя", "name:ro": "Maternitatea", "name:ru": "Роддом", "name:uk": "Пологовий будинок"}}, {"name": "Гинекология", "latitude": 47.7715205, "longitude": 28.9984609, "source": "osm", "_tags": {"amenity": "hospital", "healthcare": "hospital", "healthcare:speciality": "gynaecology", "name": "Гинекология", "name:ro": "Ginecologie", "name:ru": "Гинекология", "name:uk": "Гінекологія"}}, {"name": "Хирургия", "latitude": 47.7707782, "longitude": 28.9977652, "source": "osm", "_tags": {"amenity": "hospital", "healthcare": "hospital", "healthcare:speciality": "surgery", "name": "Хирургия", "name:ro": "Chirurgie", "name:ru": "Хирургия", "name:uk": "Хірургія"}}, {"name": "Нервопатология", "latitude": 47.7705667, "longitude": 28.9980986, "source": "osm", "_tags": {"amenity": "hospital", "healthcare": "hospital", "name": "Нервопатология", "name:ro": "Neuropatologie", "name:ru": "Нервопатология", "name:uk": "Нервопатологія"}}, {"name": "Кардиология", "latitude": 47.7707691, "longitude": 28.9984436, "source": "osm", "_tags": {"amenity": "hospital", "healthcare": "hospital", "name": "Кардиология", "name:ro": "Cardiologie", "name:ru": "Кардиология", "name:uk": "Кардіологія"}}, {"name": "Скорая помощь", "latitude": 47.7726144, "longitude": 28.9976568, "source": "osm", "_tags": {"addr:country": "MD", "addr:street": "улица Победы", "amenity": "hospital", "emergency": "yes", "healthcare": "hospital", "name": "Скорая помощь", "name:en": "Ambulance", "name:ro": "Urgența", "name:ru": "Скорая помощь", "name:uk": "Швидка допомога"}}, {"name": "Морг", "latitude": 47.7671375, "longitude": 28.988475, "source": "osm", "_tags": {"addr:city": "Рыбница", "addr:country": "MD", "addr:postcode": "MD-5500", "addr:street": "ул. Вальченко", "amenity": "hospital", "building": "yes", "healthcare": "hospital", "name": "Морг", "name:ro": "Morgă", "name:ru": "Морг", "operator": "Рыбницкая центральная районная больница"}}, {"name": "Рыбницкая центральная районная больница", "latitude": 47.7712917, "longitude": 28.9980575, "source": "osm", "_tags": {"amenity": "hospital", "healthcare": "hospital", "name": "Рыбницкая центральная районная больница", "name:md": "Спиталул районал чентрал дин Рыбница", "name:ro": "Spitalul raional central din Rîbnița", "name:ru": "Рыбницкая центральная районная больница", "name:uk": "Рибницька центральна районна лікарня", "phone": "+373 (555) 4-14-76", "website": "http://rcrb.idknet.com"}}, {"name": "Поликлиника для взрослых", "latitude": 47.7617429, "longitude": 29.0043024, "source": "osm", "_tags": {"addr:city": "Рыбница", "addr:country": "MD", "addr:housenumber": "112", "addr:postcode": "MD-5500", "addr:street": "улица Кирова", "amenity": "hospital", "healthcare": "hospital", "name": "Поликлиника для взрослых", "name:en": "Adult Clinic", "name:ru": "Поликлиника для взрослых", "name:uk": "Поліклініка для дорослих", "opening_hours": "Mo-Fr 08:00-19:00; Sa 08:00-16:00", "operator": "ГУ «Рыбницкий лечебно-диагностический реабилитационный центр»", "phone": "+373 (555) 4-11-00;+373 (555) 4-12-16"}}, {"name": "", "latitude": 48.4029037, "longitude": 29.2442073, "source": "osm", "_tags": {"amenity": "hospital", "healthcare": "hospital", "source": "Bing"}}, {"name": "", "latitude": 47.7070466, "longitude": 29.1147511, "source": "osm", "_tags": {"amenity": "hospital", "building": "yes"}}, {"name": "Centrul Sănătății Familiei „Galaxia”", "latitude": 47.7504981, "longitude": 28.9731381, "source": "osm", "_tags": {"addr:city": "Rezina", "addr:country": "MD", "addr:housenumber": "63", "addr:postcode": "MD-5400", "addr:street": "Strada Păcii", "amenity": "hospital", "building": "yes", "healthcare": "hospital", "name": "Centrul Sănătății Familiei „Galaxia”", "name:ru": "Центра Здоровья Семьи «Galaxia»", "operator": "CSF Galaxia", "phone": "+373-254-25737", "website": "https://galaxia.md/"}}, {"name": "Психоневрологическая больница", "latitude": 47.6580595, "longitude": 28.9977636, "source": "osm", "_tags": {"amenity": "hospital", "name": "Психоневрологическая больница", "name:ro": "Internatul psihoneurologic", "name:ru": "Психоневрологическая больница", "name:uk": "Психоневрологічна лікарня"}}, {"name": "Жабокрицька лікарня", "latitude": 48.3807697, "longitude": 29.005072, "source": "osm", "_tags": {"amenity": "hospital", "healthcare": "hospital", "name": "Жабокрицька лікарня", "name:uk": "Жабокрицька лікарня"}}, {"name": "Недостроенная, заброшенная больница. Ныне выкуплена частным лицом", "latitude": 47.8026955, "longitude": 29.0026167, "source": "osm", "_tags": {"amenity": "hospital", "healthcare": "hospital", "name": "Недостроенная, заброшенная больница. Ныне выкуплена частным лицом"}}, {"name": "Spitalul Raional Rezina", "latitude": 47.7474024, "longitude": 28.9621193, "source": "osm", "_tags": {"addr:city": "Rezina", "addr:country": "MD", "addr:housenumber": "7", "addr:street": "Strada 27 August 1989", "amenity": "hospital", "healthcare": "hospital", "name": "Spitalul Raional Rezina"}}, {"name": "Centrul Medicilor de Familie Rezina", "latitude": 47.7468518, "longitude": 28.9611697, "source": "osm", "_tags": {"addr:city": "Rezina", "addr:country": "MD", "addr:housenumber": "5", "addr:street": "Bulevardul Alexei Șciusev", "amenity": "hospital", "healthcare": "hospital", "name": "Centrul Medicilor de Familie Rezina"}}, {"name": "Пост охраны;Туберкулёзный диспансер", "latitude": 47.7750535, "longitude": 29.012824, "source": "osm", "_tags": {"addr:city": "Рыбница", "addr:country": "MD", "addr:postcode": "MD-5500", "addr:street": "улица Чернышевского", "amenity": "hospital", "building": "yes;school", "healthcare": "hospital", "name": "Пост охраны;Туберкулёзный диспансер", "name:md": "Диспенсарул де туберкулозэ", "name:ro": "Dispensarul de tuberculoză", "name:ru": "Туберкулёзный диспансер", "name:uk": "Туберкульозний диспансер", "operator": "Рыбницкая центральная районная больница", "type": "multipolygon"}}]