[{"name": "Діагностичний центр \"Мавекс\"", "latitude": 48.2937052, "longitude": 25.9389194, "source": "osm", "_tags": {"amenity": "hospital", "name": "Діагностичний центр \"Мавекс\"", "name:ru": "Диагностический центр \"Мавекс\"", "name:uk": "Діагностичний центр \"Мавекс\""}}, {"name": "Діагностичний центр \"Вако\"", "latitude": 48.2668007, "longitude": 25.9390529, "source": "osm", "_tags": {"amenity": "hospital", "name": "Діагностичний центр \"Вако\"", "name:ru": "Диагностический центр \"Вако\"", "name:uk": "Діагностичний центр \"Вако\""}}, {"name": "Spital copii", "latitude": 47.5562037, "longitude": 25.8971132, "source": "osm", "_tags": {"amenity": "hospital", "healthcare": "hospital", "name": "Spital copii"}}, {"name": "Ендокрінологічний диспансер", "latitude": 48.2761551, "longitude": 25.9380598, "source": "osm", "_tags": {"addr:housenumber": "50", "addr:street": "вулиця Юрія Федьковича", "amenity": "hospital", "name": "Ендокрінологічний диспансер", "name:uk": "Ендокрінологічний диспансер"}}, {"name": "Клінічний кардіологічний диспанспансер", "latitude": 48.2623894, "longitude": 25.9259486, "source": "osm", "_tags": {"amenity": "hospital", "name": "Клінічний кардіологічний диспанспансер", "name:ru": "Клинический кардиологический диспансер", "name:uk": "Клінічний кардіологічний диспанспансер"}}, {"name": "Клінічний онкологічний диспансер", "latitude": 48.2602051, "longitude": 25.9251369, "source": "osm", "_tags": {"amenity": "hospital", "name": "Клінічний онкологічний диспансер", "name:ru": "Клинический онкологический диспансер", "name:uk": "Клінічний онкологічний диспансер"}}, {"name": "Наркологічний диспансер", "latitude": 48.2754665, "longitude": 25.9391606, "source": "osm", "_tags": {"addr:city": "Чернівці", "addr:housenumber": "29", "addr:street": "вулиця Юрія Федьковича", "amenity": "hospital", "name": "Наркологічний диспансер", "name:uk": "Наркологічний диспансер"}}, {"name": "Жіноча консультація №1", "latitude": 48.2858255, "longitude": 25.936587, "source": "osm", "_tags": {"addr:housenumber": "70", "addr:street": "Головна вулиця", "amenity": "hospital", "name": "Жіноча консультація №1", "name:uk": "Жіноча консультація №1"}}, {"name": "МОРГ клінічного онкологічного диспансера", "latitude": 48.2596722, "longitude": 25.9250166, "source": "osm", "_tags": {"amenity": "hospital", "name": "МОРГ клінічного онкологічного диспансера", "name:ru": "МОРГ клинического онкологического диспансера", "name:uk": "МОРГ клінічного онкологічного диспансера"}}, {"name": "Cabinet Medical", "latitude": 47.4797191, "longitude": 25.2783977, "source": "osm", "_tags": {"addr:city": "Ciocănești", "addr:housenumber": "39", "addr:postcode": "727120", "addr:street": "Strada Principală", "amenity": "hospital", "healthcare:speciality": "general", "name": "Cabinet Medical", "operator": "Doctor Rusu Iliada Luciana", "phone": "0745 962 295"}}, {"name": "Cabinet Medical Veterinar", "latitude": 47.4836137, "longitude": 25.2738242, "source": "osm", "_tags": {"addr:city": "Ciocănești", "addr:housenumber": "73", "addr:postcode": "727120", "addr:street": "Strada Principală", "amenity": "hospital", "name": "Cabinet Medical Veterinar", "operator": "Doctor Moldovan Ionică Radu"}}, {"name": "OXFORD MEDICAL, ПРИВАТНА КЛІНІКА", "latitude": 48.2663674, "longitude": 25.9344345, "source": "osm", "_tags": {"amenity": "hospital", "name": "OXFORD MEDICAL, ПРИВАТНА КЛІНІКА", "name:uk": "OXFORD MEDICAL, ПРИВАТНА КЛІНІКА", "phone": "+380 372 51 0102"}}, {"name": "Кутська міська лікарня", "latitude": 48.2627971, "longitude": 25.1830164, "source": "osm", "_tags": {"amenity": "hospital", "name": "Кутська міська лікарня", "name:uk": "Кутська міська лікарня"}}, {"name": "", "latitude": 48.2599088, "longitude": 25.1880193, "source": "osm", "_tags": {"amenity": "hospital"}}, {"name": "Психоневрологічний будинок-інтернат", "latitude": 48.0983173, "longitude": 25.593729, "source": "osm", "_tags": {"addr:housenumber": "5", "addr:postcode": "59031", "addr:street": "Центральна вулиця", "amenity": "hospital", "healthcare": "hospital", "name": "Психоневрологічний будинок-інтернат", "name:uk": "Психоневрологічний будинок-інтернат"}}, {"name": "", "latitude": 48.1895178, "longitude": 25.1563516, "source": "osm", "_tags": {"amenity": "hospital", "healthcare": "doctor"}}, {"name": "", "latitude": 48.1590951, "longitude": 25.3821901, "source": "osm", "_tags": {"amenity": "hospital"}}, {"name": "ДУ \"ТМО МВС УКРАЇНИ ПО ЧЕРНІВЕЦЬКІЙ ОБЛАСТІ\"", "latitude": 48.263408, "longitude": 25.926457, "source": "osm", "_tags": {"addr:housenumber": "228", "addr:postcode": "53013", "addr:street": "вулиця Героїв Майдану", "amenity": "hospital", "healthcare": "hospital", "name": "ДУ \"ТМО МВС УКРАЇНИ ПО ЧЕРНІВЕЦЬКІЙ ОБЛАСТІ\"", "name:uk": "ДУ \"ТМО МВС УКРАЇНИ ПО ЧЕРНІВЕЦЬКІЙ ОБЛАСТІ\""}}, {"name": "", "latitude": 48.3606356, "longitude": 25.776409, "source": "osm", "_tags": {"amenity": "hospital", "healthcare": "hospital"}}, {"name": "Базизмед", "latitude": 48.2648312, "longitude": 25.9227557, "source": "osm", "_tags": {"amenity": "hospital", "contact:email": "info@bazismed.com", "contact:phone": "+380 50 448 6721", "healthcare": "hospital", "name": "Базизмед", "name:en": "Bazismed", "name:uk": "Базизмед", "opening_hours": "Mo-Fr 08:00-20:00; Sa 08:00-15:00; Su off"}}, {"name": "Карапчівська комунальна лікарська амбулаторія загальної практики сімейної медицини", "latitude": 48.0857866, "longitude": 25.8357927, "source": "osm", "_tags": {"addr:postcode": "60420", "addr:street": "вулиця Центральна", "amenity": "hospital", "healthcare": "hospital", "healthcare:speciality": "general", "mobile": "+ 38 (097) 395-43-68", "name": "Карапчівська комунальна лікарська амбулаторія загальної практики сімейної медицини", "wheelchair": "yes"}}, {"name": "Міський протитуберкульозний диспансер", "latitude": 48.2894247, "longitude": 25.9392215, "source": "osm", "_tags": {"addr:housenumber": "1", "amenity": "hospital", "building": "yes", "name": "Міський протитуберкульозний диспансер", "name:ru": "Городской противотуберкулезный диспансер", "name:uk": "Міський протитуберкульозний диспансер"}}, {"name": "Міська поліклініка №2", "latitude": 48.2909942, "longitude": 25.9295974, "source": "osm", "_tags": {"addr:housenumber": "11", "addr:street": "вулиця Лесі Українки", "amenity": "hospital", "building": "yes", "name": "Міська поліклініка №2", "name:ru": "Городская поликлиника №2", "name:uk": "Міська поліклініка №2", "phone": "+380 372 52 7122"}}, {"name": "Мікрохірургія ока Ваш Зір", "latitude": 48.2999865, "longitude": 25.9310993, "source": "osm", "_tags": {"addr:housenumber": "21-Б", "amenity": "hospital", "building": "yes", "email": "vash.zir@gmail.com", "name": "Мікрохірургія ока Ваш Зір", "name:uk": "Мікрохірургія ока Ваш Зір", "phone": "+380 372 58 3333", "website": "https://www.vashzir.com/"}}, {"name": "", "latitude": 48.2618504, "longitude": 25.925851, "source": "osm", "_tags": {"amenity": "hospital", "healthcare": "hospital"}}, {"name": "Чернівецький обласний клінічний онкологічний диспансер", "latitude": 48.2599164, "longitude": 25.9257044, "source": "osm", "_tags": {"addr:housenumber": "242", "addr:street": "вулиця Героїв Майдану", "amenity": "hospital", "healthcare": "hospital", "name": "Чернівецький обласний клінічний онкологічний диспансер", "name:ru": "COVID-19: меры безопасности Черновицкий областной клинический онкологический диспансер", "name:uk": "Чернівецький обласний клінічний онкологічний диспансер"}}, {"name": "Аптека", "latitude": 48.3598936, "longitude": 25.7822525, "source": "osm", "_tags": {"addr:housenumber": "48б", "addr:street": "Центральна вулиця", "amenity": "hospital", "building": "yes", "name": "Аптека", "name:uk": "Аптека"}}, {"name": "", "latitude": 48.1639394, "longitude": 25.7202373, "source": "osm", "_tags": {"amenity": "hospital", "emergency": "yes", "healthcare": "hospital"}}, {"name": "", "latitude": 48.007272, "longitude": 25.074185, "source": "osm", "_tags": {"amenity": "hospital", "building": "yes", "healthcare": "hospital"}}, {"name": "", "latitude": 48.090395, "longitude": 25.9294062, "source": "osm", "_tags": {"amenity": "hospital", "healthcare": "hospital"}}, {"name": "", "latitude": 48.0073321, "longitude": 25.0737385, "source": "osm", "_tags": {"amenity": "hospital"}}, {"name": "", "latitude": 47.8409429, "longitude": 25.9112529, "source": "osm", "_tags": {"amenity": "hospital"}}, {"name": "", "latitude": 48.0489756, "longitude": 25.7294503, "source": "osm", "_tags": {"amenity": "hospital"}}, {"name": "", "latitude": 48.2541107, "longitude": 25.9331922, "source": "osm", "_tags": {"amenity": "hospital"}}, {"name": "", "latitude": 48.0920511, "longitude": 25.4885805, "source": "osm", "_tags": {"amenity": "hospital", "building": "yes", "healthcare": "hospital"}}, {"name": "Лікарня", "latitude": 48.3921365, "longitude": 25.3074569, "source": "osm", "_tags": {"amenity": "hospital", "building": "yes", "name": "Лікарня", "name:uk": "Лікарня"}}, {"name": "Амбулаторія ЗПСМ 88", "latitude": 48.2451529, "longitude": 25.7143574, "source": "osm", "_tags": {"addr:housenumber": "88", "addr:street": "вул.Українська", "amenity": "hospital", "healthcare": "hospital", "healthcare:speciality": "general", "name": "Амбулаторія ЗПСМ 88", "name:uk": "Амбулаторія ЗПСМ 88"}}, {"name": "Брусницький санаторій", "latitude": 48.348552, "longitude": 25.5882277, "source": "osm", "_tags": {"amenity": "hospital", "healthcare": "hospital", "name": "Брусницький санаторій", "name:uk": "Брусницький санаторій"}}, {"name": "", "latitude": 48.3606346, "longitude": 25.5991955, "source": "osm", "_tags": {"amenity": "hospital", "healthcare": "hospital"}}, {"name": "", "latitude": 48.3284821, "longitude": 25.4573697, "source": "osm", "_tags": {"amenity": "hospital", "building": "yes", "healthcare": "hospital"}}, {"name": "Spitalul Municipal", "latitude": 47.5322727, "longitude": 25.5437936, "source": "osm", "_tags": {"addr:street": "Strada Sirenei", "amenity": "hospital", "healthcare": "hospital", "name": "Spitalul Municipal"}}, {"name": "", "latitude": 48.170614, "longitude": 25.328925, "source": "osm", "_tags": {"amenity": "hospital", "healthcare": "hospital"}}, {"name": "Амбулаторія ЗПСМ", "latitude": 48.2831977, "longitude": 25.6359431, "source": "osm", "_tags": {"addr:housenumber": "23", "addr:street": "вул.Головна", "amenity": "hospital", "healthcare": "hospital", "name": "Амбулаторія ЗПСМ", "name:uk": "Амбулаторія ЗПСМ"}}, {"name": "Бобовецька амбулаторія ЗПСМ", "latitude": 48.2595516, "longitude": 25.6963631, "source": "osm", "_tags": {"addr:housenumber": "1а", "addr:street": "Нижня Козаківська вулиця", "amenity": "hospital", "healthcare": "hospital", "healthcare:speciality": "general", "name": "Бобовецька амбулаторія ЗПСМ", "name:uk": "Бобовецька амбулаторія ЗПСМ"}}, {"name": "", "latitude": 48.2699858, "longitude": 25.9248094, "source": "osm", "_tags": {"amenity": "hospital", "barrier": "fence"}}, {"name": "Spitalul Orășenesc", "latitude": 47.5549575, "longitude": 25.8895024, "source": "osm", "_tags": {"addr:city": "Gura Humorului", "addr:street": "Strada Ștefan cel Mare", "amenity": "hospital", "building": "yes", "healthcare": "hospital", "name": "Spitalul Orășenesc"}}, {"name": "", "latitude": 47.5539089, "longitude": 25.893485, "source": "osm", "_tags": {"amenity": "hospital", "building": "yes", "healthcare": "hospital"}}, {"name": "", "latitude": 48.2831408, "longitude": 25.6362449, "source": "osm", "_tags": {"amenity": "hospital", "healthcare": "hospital"}}, {"name": "Spitalul Municipal Rădăuți", "latitude": 47.8377402, "longitude": 25.9262941, "source": "osm", "_tags": {"amenity": "hospital", "name": "Spitalul Municipal Rădăuți"}}, {"name": "Косівська центральна районна лікарня", "latitude": 48.3202281, "longitude": 25.1108891, "source": "osm", "_tags": {"amenity": "hospital", "name": "Косівська центральна районна лікарня", "name:uk": "Косівська центральна районна лікарня", "type": "multipolygon"}}, {"name": "", "latitude": 48.2657687, "longitude": 25.92156, "source": "osm", "_tags": {"amenity": "hospital", "type": "multipolygon"}}]