[{"name": "Clinique Philae", "latitude": 48.0042122, "longitude": -1.6966037, "source": "osm", "_tags": {"amenity": "hospital", "healthcare": "hospital", "name": "Clinique Philae", "ref:FR:FINESS": "350044756", "ref:FR:NAF": "86.10Z", "ref:FR:SIREN": "399519834", "ref:FR:SIRET": "39951983400044", "source": "INSEE - 2025-07", "type:FR:FINESS": "109"}}, {"name": "Cabinet Médical", "latitude": 48.4109079, "longitude": -1.8123222, "source": "osm", "_tags": {"addr:city": "Meillac", "addr:housenumber": "10", "addr:postcode": "35270", "addr:street": "Rue Octave de Benaze", "amenity": "hospital", "healthcare": "hospital", "name": "Cabinet Médical"}}, {"name": "Hôpital Thierry de Langeraye", "latitude": 47.7412399, "longitude": -1.1747178, "source": "osm", "_tags": {"amenity": "hospital", "healthcare": "hospital", "name": "Hôpital Thierry de Langeraye", "ref:FR:FINESS": "490000569", "source": "Le ministère des solidarités et de la santé - 08/2018", "type:FR:FINESS": "355"}}, {"name": "CMP-HDJ CHS Blain", "latitude": 47.72135, "longitude": -1.3793837, "source": "osm", "_tags": {"addr:housenumber": "9bis", "amenity": "hospital", "healthcare": "hospital", "name": "CMP-HDJ CHS Blain", "ref:FR:FINESS": "440028975", "type:FR:FINESS": "292"}}, {"name": "Urgences cardiologiques", "latitude": 48.1206895, "longitude": -1.6940313, "source": "osm", "_tags": {"emergency": "yes", "healthcare": "hospital", "healthcare:speciality": "cardiology", "name": "Urgences cardiologiques"}}, {"name": "51-MSG-RDC-NORD", "latitude": 48.1253528, "longitude": -1.2061644, "source": "osm", "_tags": {"amenity": "hospital", "emergency": "yes", "healthcare": "hospital", "name": "51-MSG-RDC-NORD"}}, {"name": "52-MSG-RDC-SUD", "latitude": 48.1251545, "longitude": -1.2062102, "source": "osm", "_tags": {"amenity": "hospital", "ele": "100", "healthcare": "hospital", "name": "52-MSG-RDC-SUD"}}, {"name": "53-MSG-RDJ-OUEST", "latitude": 48.1254042, "longitude": -1.2065252, "source": "osm", "_tags": {"amenity": "hospital", "ele": "96", "healthcare": "hospital", "name": "53-MSG-RDJ-OUEST"}}, {"name": "55-MSG-Logistique", "latitude": 48.1252357, "longitude": -1.2064671, "source": "osm", "_tags": {"amenity": "hospital", "ele": "92", "healthcare": "hospital", "name": "55-MSG-Logistique"}}, {"name": "54-MSG-RDJ-NORD", "latitude": 48.1253692, "longitude": -1.2062236, "source": "osm", "_tags": {"amenity": "hospital", "ele": "96", "healthcare": "hospital", "name": "54-MSG-RDJ-NORD"}}, {"name": "57-JDV-RDC-ACCUEIL", "latitude": 48.1256816, "longitude": -1.2055703, "source": "osm", "_tags": {"amenity": "hospital", "ele": "100", "healthcare": "hospital", "name": "57-JDV-RDC-ACCUEIL"}}, {"name": "58-JDV-Entrée UPD", "latitude": 48.1255712, "longitude": -1.205061, "source": "osm", "_tags": {"amenity": "hospital", "ele": "100", "healthcare": "hospital", "name": "58-JDV-Entrée UPD"}}, {"name": "59-JDV-Garage", "latitude": 48.1256324, "longitude": -1.2048477, "source": "osm", "_tags": {"amenity": "hospital", "ele": "96", "healthcare": "hospital", "name": "59-JDV-Garage"}}, {"name": "60-JDV-Place Publique", "latitude": 48.1258828, "longitude": -1.2054519, "source": "osm", "_tags": {"amenity": "hospital", "ele": "96", "healthcare": "hospital", "name": "60-JDV-Place Publique"}}, {"name": "61-JDV-Salle Animation", "latitude": 48.126009, "longitude": -1.2054243, "source": "osm", "_tags": {"amenity": "hospital", "ele": "92", "healthcare": "hospital", "name": "61-JDV-Salle Animation"}}, {"name": "28-JDV-1er Le Plessis", "latitude": 48.1258157, "longitude": -1.2054539, "source": "osm", "_tags": {"amenity": "hospital", "ele": "104", "healthcare": "hospital", "name": "28-JDV-1er Le Plessis"}}, {"name": "27-JDV-1er Le Plessis côté VAL", "latitude": 48.1259258, "longitude": -1.2054299, "source": "osm", "_tags": {"amenity": "hospital", "ele": "104", "healthcare": "hospital", "name": "27-JDV-1er Le Plessis côté VAL"}}, {"name": "29-JDV-2ème-Les Rochers côté VAL", "latitude": 48.1259875, "longitude": -1.2054299, "source": "osm", "_tags": {"amenity": "hospital", "ele": "108", "healthcare": "hospital", "name": "29-JDV-2ème-Les Rochers côté VAL"}}, {"name": "30-JDV-2ème-Les Rochers", "latitude": 48.125781, "longitude": -1.2054521, "source": "osm", "_tags": {"amenity": "hospital", "ele": "108", "healthcare": "hospital", "name": "30-JDV-2ème-Les Rochers"}}, {"name": "26-JDV-RDC-Les Nétumières", "latitude": 48.1259601, "longitude": -1.2054282, "source": "osm", "_tags": {"amenity": "hospital", "healthcare": "hospital", "name": "26-JDV-RDC-Les Nétumières"}}, {"name": "Polyclinique Saint-Laurent", "latitude": 48.1376597, "longitude": -1.6573222, "source": "osm", "_tags": {"addr:housenumber": "320", "addr:street": "Avenue Général George S. Patton", "amenity": "hospital", "healthcare": "hospital", "name": "Polyclinique Saint-Laurent", "name:br": "Liesklinikenn Sant-Laorañs", "phone": "+33 2 99 25 65 00", "ref:FR:FINESS": "350002192", "ref:FR:NAF": "86.10Z", "ref:FR:SIREN": "777380783", "ref:FR:SIRET": "77738078300053", "source": "cadastre-dgi-fr source : Direction Générale des Finances Publiques - Cadastre. Mise à jour : 2015", "source:name:br": "proper translation", "type:FR:FINESS": "365", "website": "https://www.polyclinique-saint-laurent.fr/"}}, {"name": "Centre hospitalier de Fougères", "latitude": 48.3594147, "longitude": -1.1939481, "source": "osm", "_tags": {"addr:city": "Fougères", "addr:housenumber": "133", "addr:postcode": "35300", "addr:street": "Rue de la Forêt", "amenity": "hospital", "email": "contact@ch-fougeres.fr", "emergency": "yes", "fax": "+33 2 99 17 70 71", "healthcare": "hospital", "name": "Centre hospitalier de Fougères", "name:br": "Pennospital Felger", "name:fr": "Centre hospitalier de Fougères", "operator:type": "public", "phone": "+33 2 99 17 70 00", "ref:FR:FINESS": "350000154", "ref:FR:NAF": "86.10Z", "ref:FR:SIRET": "26350008400011", "source:name:br": "proper translation", "type:FR:FINESS": "355", "website": "https://www.ch-fougeres.fr/", "wikidata": "Q30269795"}}, {"name": "Hôpital Sud", "latitude": 48.0831727, "longitude": -1.6530476, "source": "osm", "_tags": {"addr:city": "Rennes", "addr:housenumber": "16", "addr:postcode": "35200", "addr:street": "Boulevard de Bulgarie", "amenity": "hospital", "emergency": "yes", "fax": "+33 2 99 26 67 45", "healthcare": "hospital", "healthcare:speciality": "intensive", "name": "Hôpital Sud", "name:br": "Ospital Su", "operator:type": "public", "phone": "+33 2 99 28 43 21", "ref:FR:FINESS": "350007084", "ref:FR:NAF": "86.10Z", "ref:FR:SIREN": "263500076", "ref:FR:SIRET": "26350007600025", "source": "INSEE - 2025-08", "source:name:br": "proper translation", "type:FR:FINESS": "101", "website": "https://www.chu-rennes.fr"}}, {"name": "Hôpital de Janzé", "latitude": 47.9634527, "longitude": -1.4981626, "source": "osm", "_tags": {"amenity": "hospital", "building": "yes", "emergency": "no", "healthcare": "hospital", "name": "Hôpital de Janzé", "ref:FR:FINESS": "350000410", "source": "Le ministère des solidarités et de la santé - 03/2019", "type:FR:FINESS": "106", "wikidata": "Q92062818"}}, {"name": "Centre Hospitalier Spécialisé de Blain", "latitude": 47.4661736, "longitude": -1.8197166, "source": "osm", "_tags": {"CLC:code": "112", "CLC:id": "FR-86431", "CLC:year": "2006", "addr:city": "Blain", "addr:postcode": "44130", "alt_name": "Hôpital Pont Piétin", "alt_name:br": "Ospital Pont Piétin", "amenity": "hospital", "emergency": "no", "name": "Centre Hospitalier Spécialisé de Blain", "phone": "+33 2 40 51 51 51", "ref:FR:FINESS": "440000180", "short_name": "C.H.S.", "source": "Union européenne - SOeS, CORINE Land Cover, 2006.", "source:alt_name:br": "ofis publik ar brezhoneg", "type:FR:FINESS": "292", "website": "http://www.ch-blain.fr/", "wheelchair": "yes"}}, {"name": "Clinique de l'Espérance", "latitude": 48.1153881, "longitude": -1.6757902, "source": "osm", "_tags": {"addr:housenumber": "6", "addr:street": "Rue de la Borderie", "amenity": "hospital", "healthcare": "hospital", "name": "Clinique de l'Espérance", "name:br": "Klinikenn ar Spi Mat", "operator": "Ramsay Santé", "operator:wikidata": "Q3123085", "operator:wikipedia": "fr:Ramsay Santé", "ref:FR:FINESS": "350002176", "source": "cadastre-dgi-fr source : Direction Générale des Impôts - Cadastre;mise à jour : 2008", "source:name:br": "proper translation", "type:FR:FINESS": "161", "website": "http://www.clinique-de-l-esperance.ramsaygds.fr"}}, {"name": "Centre Médico-Psychologique \"Adultes\"", "latitude": 48.2614642, "longitude": -1.6045536, "source": "osm", "_tags": {"alt_name": "Le Triskell", "amenity": "hospital", "building": "yes", "healthcare": "hospital", "name": "Centre Médico-Psychologique \"Adultes\"", "ref:FR:FINESS": "350044111", "short_name": "CMP", "source": "Direction general des finances publiques cadastre 2010", "type:FR:FINESS": "292"}}, {"name": "Centre Hospitalier Simone Veil", "latitude": 48.1227676, "longitude": -1.2268314, "source": "osm", "_tags": {"addr:city": "Vitré", "addr:housenumber": "30", "addr:postcode": "35500", "addr:street": "Rue de Rennes", "alt_name": "Centre Hospitalier de Vitré", "amenity": "hospital", "email": "direction@ch-vitre.fr", "emergency": "yes", "fax": "+33 2 99 74 14 00", "healthcare": "hospital", "name": "Centre Hospitalier Simone Veil", "operator:type": "public", "phone": "+33 2 99 74 14 14", "ref:FR:FINESS": "350000188", "ref:FR:NAF": "86.10Z", "ref:FR:SIRET": "26350006800014", "type:FR:FINESS": "355", "website": "https://www.ch-vitre.fr/", "wikidata": "Q30270608"}}, {"name": "Clinique mutualiste La Sagesse", "latitude": 48.1005103, "longitude": -1.7128277, "source": "osm", "_tags": {"addr:city": "Rennes", "addr:housenumber": "4", "addr:postcode": "35000", "addr:street": "Place Saint-Guénolé", "amenity": "hospital", "check_date": "2024-09-16", "emergency": "no", "fax": "+33 2 99 85 76 00", "healthcare": "hospital", "name": "Clinique mutualiste La Sagesse", "name:br": "Klinikenn genwarez ar Furnezh", "name:fr": "Clinique mutualiste La Sagesse", "opening_hours": "Mo-Sa 08:30-20:00", "phone": "+33 2 99 85 75 75", "ref:FR:FINESS": "350000139", "ref:FR:NAF": "86.10Z", "ref:FR:SIRET": "77559107600234", "source:addr": "Rennes Métropole", "source:addr:housenumber:ref": "80193", "source:addr:version": "2016-04-01", "source:name:br": "proper translation", "type:FR:FINESS": "365", "website": "http://clinique-rennes.fr/"}}, {"name": "Hôpital Pontchaillou", "latitude": 48.1207833, "longitude": -1.6946839, "source": "osm", "_tags": {"addr:city": "Rennes", "addr:housenumber": "2", "addr:postcode": "35000", "addr:street": "Rue Henri Le Guilloux", "amenity": "hospital", "emergency": "yes", "fax": "+33 2 99 28 24 08", "healthcare": "hospital", "healthcare:speciality": "intensive", "name": "Hôpital Pontchaillou", "name:br": "Ospital Pontchaillou", "operator": "Centre hospitalier universitaire de Rennes", "operator:type": "public", "phone": "+33 2 99 28 43 21", "ref:FR:FINESS": "350000741", "short_name": "CHU de Rennes", "source:addr": "Rennes Métropole", "source:addr:housenumber:ref": "81203", "source:addr:version": "2016-04-01", "type:FR:FINESS": "101", "website": "https://www.chu-rennes.fr/", "wikidata": "Q2945770", "wikipedia": "fr:Centre hospitalier universitaire de Rennes"}}, {"name": "", "latitude": 48.26249, "longitude": -1.6088621, "source": "osm", "_tags": {"amenity": "hospital", "fixme": "Est-ce vraiment un hôpital ?", "healthcare": "hospital", "source": "cadastre-dgi-fr source : Direction Générale des Finances Publiques - Cadastre. Mise à jour : 2013"}}, {"name": "Centre Hospitalier Guillaume Régnier", "latitude": 48.1125246, "longitude": -1.6516462, "source": "osm", "_tags": {"addr:city": "Rennes", "addr:housenumber": "108", "addr:postcode": "35000", "addr:street": "Avenue Général Leclerc", "amenity": "hospital", "emergency": "no", "fax": "+33 2 99 33 39 93", "healthcare": "hospital", "healthcare:speciality": "psychiatry;child_psychiatry", "name": "Centre Hospitalier Guillaume Régnier", "name:br": "Pennospital Guillaume Régnier", "name:fr": "Centre Hospitalier Guillaume Régnier", "phone": "+33 2 99 33 39 00", "ref:FR:FINESS": "350000337", "ref:FR:NAF": "86.10Z", "ref:FR:SIRET": "26350014200017", "source:name:br": "proper translation", "type:FR:FINESS": "292", "website": "https://www.ch-guillaumeregnier.fr/", "wikidata": "Q16507435"}}, {"name": "Pôle Saint-Hélier", "latitude": 48.1061006, "longitude": -1.6697821, "source": "osm", "_tags": {"amenity": "hospital", "check_date": "2024-09-01", "emergency": "no", "healthcare": "hospital", "name": "Pôle Saint-Hélier", "name:br": "Pol Sant-Heler", "ref:FR:FINESS": "350002564", "source:name:br": "proper translation", "type:FR:FINESS": "109"}}, {"name": "Centre local hospitalier Saint-Joseph", "latitude": 48.4099722, "longitude": -1.7243576, "source": "osm", "_tags": {"addr:city": "Combourg", "addr:postcode": "35270", "addr:street": "Les Rivières", "amenity": "hospital", "building": "hospital", "email": "secretariat.direction@clhsaintjoseph.com", "emergency": "no", "fax": "+33 2 99 73 33 92", "healthcare": "hospital", "name": "Centre local hospitalier Saint-Joseph", "opening_hours": "Mo-Fr 07:30-17:00; Sa 08:00-15:00", "operator:type": "private", "phone": "+33 2 99 73 05 34", "ref:FR:FINESS": "350000204", "ref:FR:NAF": "86.10Z", "ref:FR:SIRET": "77766978900052", "source": "cadastre-dgi-fr source : Direction Générale des Finances Publiques - Cadastre. Mise à jour : 2015", "type:FR:FINESS": "365", "website": "https://www.associationcliniquesaintjoseph.fr/articles/le-centre-local-hospitalier-saint-joseph", "wheelchair": "yes"}}, {"name": "Hôpital Saint-Thomas de Villeneuve", "latitude": 47.8398744, "longitude": -1.6826375, "source": "osm", "_tags": {"addr:city": "Bain-de-Bretagne", "addr:postcode": "35470", "addr:street": "Rue du Docteur Haicault", "amenity": "hospital", "email": "contact@hstv.fr", "emergency": "no", "fax": "+33 2 99 43 32 10", "healthcare": "hospital", "name": "Hôpital Saint-Thomas de Villeneuve", "opening_hours": "Mo-Fr 08:15-19:00; Sa 09:00-12:00,14:00-18:30; Su,PH 10:00-12:00,14:00-18:30", "operator": "Groupe HSTV", "operator:type": "private", "phone": "+33 2 99 43 71 40", "ref:FR:FINESS": "350000063", "ref:FR:NAF": "86.10Z", "ref:FR:SIRET": "77738078300061", "source": "E-mégalis Bretagne et collectivités territoriales bretonnes - 2012", "type:FR:FINESS": "365", "website": "https://bain.hstv.fr/"}}, {"name": "Clinique Saint-Yves", "latitude": 48.101793, "longitude": -1.6632281, "source": "osm", "_tags": {"addr:city": "Rennes", "addr:housenumber": "4", "addr:postcode": "35000", "addr:street": "Rue Adolphe Leray", "amenity": "hospital", "email": "contact@clinique-styves.fr", "emergency": "no", "fax": "+33 2 99 26 25 84", "healthcare": "hospital", "healthcare:speciality": "cardiology;gastroenterology", "name": "Clinique Saint-Yves", "name:br": "Klinikenn Sant-Erwan", "name:fr": "Clinique Saint-Yves", "phone": "+33 2 99 26 26 00", "ref:FR:FINESS": "350002200", "ref:FR:NAF": "86.10Z", "ref:FR:SIRET": "30281978400018", "source": "cadastre-dgi-fr source : Direction Générale des Impôts - Cadastre;mise à jour : 2009", "source:name:br": "proper translation", "type:FR:FINESS": "365", "website": "https://www.clinique-styves.fr/"}}, {"name": "Hôpital de la Tauvrais", "latitude": 48.1378869, "longitude": -1.6604702, "source": "osm", "_tags": {"amenity": "hospital", "emergency": "no", "name": "Hôpital de la Tauvrais", "name:br": "Ospital La Tauvrais", "provided_for": "senior", "ref:FR:FINESS": "350006771", "source": "Le ministère des solidarités et de la santé - 08/2018", "source:name:br": "proper translation"}}, {"name": "Hôpital de jour pour adultes Guillaume Régnier", "latitude": 48.1300447, "longitude": -1.65798, "source": "osm", "_tags": {"alt_name": "Hôpital de jour du Gast", "amenity": "hospital", "healthcare": "hospital", "name": "Hôpital de jour pour adultes Guillaume Régnier", "name:br": "Ospital-deiz evit an oadourien Guillaume Régnier", "phone": "+33 2 99 36 77 10", "ref:FR:FINESS": "350043931", "source:name:br": "proper translation", "type:FR:FINESS": "292"}}, {"name": "Centre Hospitalier La Guerche de Bretagne", "latitude": 47.9443476, "longitude": -1.2437452, "source": "osm", "_tags": {"addr:city": "La Guerche-de-Bretagne", "addr:housenumber": "63", "addr:postcode": "35130", "addr:street": "Faubourg de Rennes", "alt_name": "Centre Hospitalier Saint Jean", "alt_name:br": "Pennospital Sant-Yann", "amenity": "hospital", "email": "accueil@ch-laguerche.fr", "emergency": "no", "fax": "+33 2 99 96 18 50", "healthcare": "hospital", "name": "Centre Hospitalier La Guerche de Bretagne", "name:br": "Pennospital Gwerc'h-Breizh", "phone": "+33 2 99 96 18 30", "ref:FR:FINESS": "350000212", "ref:FR:NAF": "86.10Z", "ref:FR:SIRET": "26350001900017", "source": "Le ministère des solidarités et de la santé - 03/2019", "type:FR:FINESS": "106", "website": "https://www.ch-laguerche.fr/", "wikidata": "Q92062565"}}, {"name": "Centre hospitalier de Grand-Fougeray", "latitude": 47.7255971, "longitude": -1.7323967, "source": "osm", "_tags": {"addr:city": "Grand-Fougeray", "addr:housenumber": "29", "addr:postcode": "35590", "addr:street": "Rue Saint-Roch", "amenity": "hospital", "email": "infos@hopgf.com", "emergency": "no", "healthcare": "hospital", "healthcare:speciality": "general", "name": "Centre hospitalier de Grand-Fougeray", "phone": "+33 2 99 08 30 30", "ref:FR:FINESS": "350000428", "source": "Le ministère des solidarités et de la santé - 10/2018", "website": "https://hopital-gfougeray.com/", "wikidata": "Q92063121"}}, {"name": "Centre hospitalier de Châteaubriant", "latitude": 47.7257115, "longitude": -1.3815616, "source": "osm", "_tags": {"amenity": "hospital", "emergency": "yes", "fax": "+33 2 40 55 88 39", "healthcare": "hospital", "name": "Centre hospitalier de Châteaubriant", "name:br": "Pennospital Kastell-Briant", "operator:type": "public", "phone": "+33 2 40 55 88 00", "ref:FR:FINESS": "440000503", "source": "cadastre-dgi-fr source : Direction Générale des Impôts - Cadastre;mise à jour : 02/10/2007", "type:FR:FINESS": "355", "website": "https://www.ch-cnp.fr/", "wheelchair": "yes"}}, {"name": "Hôpital local sud-ouest mayennais - Site de Renazé", "latitude": 47.7943363, "longitude": -1.0655629, "source": "osm", "_tags": {"addr:housenumber": "28", "addr:street": "Rue Louis Daudier", "alt_name": "Hôpital Louis Daudier", "amenity": "hospital", "contact:facebook": "Centre Hospitalier Local Du Sud Ouest Mayennais - Chlsom", "fax": "+33 2 43 06 83 21", "healthcare": "hospital", "name": "Hôpital local sud-ouest mayennais - Site de Renazé", "operator": "Hôpital local sud-ouest mayennais", "operator:type": "public", "phone": "+33 2 43 09 27 00", "ref:FR:FINESS": "530000181", "short_name": "CHLSOM", "type:FR:FINESS": "106", "wikidata": "Q92061579"}}, {"name": "Centre médical et pédagogique de Rennes Beaulieu", "latitude": 48.1235738, "longitude": -1.6376924, "source": "osm", "_tags": {"amenity": "hospital", "fax": "+33 2 99 25 19 69", "healthcare": "hospital", "name": "Centre médical et pédagogique de Rennes Beaulieu", "name:br": "Vreizenn vezegiezh ha pedagogel Roazhon Kergaer", "phone": "+33 2 99 25 19 19", "ref:FR:FINESS": "350002234", "source:name:br": "proper translation", "type:FR:FINESS": "109", "website": "https://www.fsef.net/index.php/etablissements/centre-rennes-beaulieu/presentation-centre-rennes-beaulieu"}}, {"name": "Centre hospitalier de Montfort", "latitude": 48.1376398, "longitude": -1.951999, "source": "osm", "_tags": {"addr:city": "Montfort-sur-Meu", "addr:housenumber": "33", "addr:postcode": "35160", "addr:street": "Rue Saint-Nicolas", "amenity": "hospital", "emergency": "no", "healthcare": "hospital", "name": "Centre hospitalier de Montfort", "name:br": "Pennospital Moñforzh", "ref:FR:FINESS": "350000436", "source": "cadastre-dgi-fr source : Direction Générale des Impôts - Cadastre. Mise à jour : 2010", "type:FR:FINESS": "106", "wikidata": "Q92062686"}}, {"name": "Centre Hospitalier Nozay", "latitude": 47.5616344, "longitude": -1.6258038, "source": "osm", "_tags": {"addr:housenumber": "1", "amenity": "hospital", "healthcare": "hospital", "name": "Centre Hospitalier Nozay", "phone": "+33 2 40 79 47 55", "ref:FR:FINESS": "440000677"}}, {"name": "Centre hospitalier saint Joseph", "latitude": 48.4100502, "longitude": -1.7249758, "source": "osm", "_tags": {"amenity": "hospital", "healthcare": "hospital", "name": "Centre hospitalier saint Joseph"}}, {"name": "", "latitude": 47.9633966, "longitude": -1.4980344, "source": "osm", "_tags": {"amenity": "hospital", "healthcare": "hospital"}}, {"name": "Centre hospitalier spécialisé", "latitude": 48.1151519, "longitude": -1.6442317, "source": "osm", "_tags": {"amenity": "hospital", "emergency": "no", "healthcare": "hospital", "name": "Centre hospitalier spécialisé", "name:br": "Pennospital Arbennikaet", "source:name:br": "ofis publik ar brezhoneg"}}, {"name": "", "latitude": 48.409143, "longitude": -1.3613117, "source": "osm", "_tags": {"amenity": "hospital", "healthcare": "hospital"}}, {"name": "Hôpital Privé Sévigné", "latitude": 48.1301895, "longitude": -1.6275077, "source": "osm", "_tags": {"addr:city": "Cesson-Sévigné", "addr:housenumber": "3", "addr:postcode": "35510", "addr:street": "Rue du Chêne Germain", "amenity": "hospital", "emergency": "yes", "fax": "+33 2 99 63 58 06", "health_facility:type": "hospital", "healthcare": "hospital", "medical_system:western": "yes", "name": "Hôpital Privé Sévigné", "name:br": "Ospital Prevez Sevigneg", "old_name": "Polyclinique Sévigné", "operator": "Groupe Vivalto Santé", "operator:type": "private", "phone": "+33 8 25 74 35 50", "ref:FR:FINESS": "350005146", "short_name": "HP Sévigné", "source:name:br": "proper translation", "type": "multipolygon", "type:FR:FINESS": "365", "website": "https://www.hopitalprivesevigne.com/"}}, {"name": "Centre hospitalier privé Saint-Grégoire", "latitude": 48.1446104, "longitude": -1.6873431, "source": "osm", "_tags": {"addr:city": "Saint-Grégoire", "addr:housenumber": "6", "addr:postcode": "35760", "addr:street": "Boulevard de la Boutière", "alt_name": "CHP Saint-Grégoire", "amenity": "hospital", "emergency": "yes", "fax": "+33 2 99 23 36 10", "healthcare": "hospital", "name": "Centre hospitalier privé Saint-Grégoire", "name:br": "Pennospital prevez Sant-Gregor", "old_name": "Clinique Saint-Vincent", "operator": "Groupe Vivalto Santé", "operator:type": "private", "phone": "+33 2 99 23 33 33", "ref:FR:FINESS": "350000121", "ref:FR:NAF": "86.10Z", "ref:FR:SIRET": "69920132300069", "type": "multipolygon", "type:FR:FINESS": "365", "website": "https://www.chpsaintgregoire.com/", "wikidata": "Q30270382"}}]