[{"name": "Fachklinik für Othopädie und Rheumatologie", "latitude": 47.4237644, "longitude": 10.2530977, "source": "osm", "_tags": {"amenity": "hospital", "check_date": "2024-09-12", "name": "Fachklinik für Othopädie und Rheumatologie", "source": "survey"}}, {"name": "VAMED", "latitude": 47.8712205, "longitude": 10.2233054, "source": "osm", "_tags": {"amenity": "hospital", "deaf:description:de": "Laut Website (https://www.vamed-gesundheit.de/reha/bad-groenenbach/ihre-reha-bei-uns/somatik/hoerbehinderung-tinnitus-und-schwindelerkrankungen/therapie-fuer-gehoerlose/) werden hier Reha-Therapien für gehörlose Menschen angeboten, und es gibt „gebärdensp", "healthcare": "hospital", "healthcare:speciality": "rehabilitation;physiatry;physiotherapy;cardiology", "name": "VAMED"}}, {"name": "Hochgrat Klinik", "latitude": 47.5816525, "longitude": 10.0084155, "source": "osm", "_tags": {"amenity": "hospital", "contact:email": "info@hochgrat-klinik.de", "contact:phone": "+49 8386 96220", "contact:website": "http://www.dr-reisach-kliniken.de/hochgrat-klinik.html", "emergency": "no", "healthcare": "hospital", "healthcare:speciality": "psychotherapie", "name": "Hochgrat Klinik", "toilets:wheelchair": "no", "wheelchair": "limited"}}, {"name": "Kinderklinik Augsburg Mutter-Kind-Zentrum Schwaben", "latitude": 48.3845961, "longitude": 10.8396143, "source": "osm", "_tags": {"addr:city": "Augsburg", "addr:country": "DE", "addr:housenumber": "2", "addr:postcode": "86156", "addr:street": "Stenglinstraße", "amenity": "hospital", "check_date": "2024-04-20", "healthcare": "hospital", "name": "Kinderklinik Augsburg Mutter-Kind-Zentrum Schwaben", "operator": "Universitätsklinikum Augsburg", "toilets:wheelchair": "yes", "website": "https://www.uk-augsburg.de/kliniken/kinderklinik-augsburg-mutter-kind-zentrum-schwaben/ueberblick", "wheelchair": "yes", "wikidata": "Q1741832", "wikipedia": "de:Kinderklinik Augsburg"}}, {"name": "Staufer Grundschule Schongau", "latitude": 47.8103362, "longitude": 10.8934568, "source": "osm", "_tags": {"amenity": "school", "healthcare": "hospital", "name": "Staufer Grundschule Schongau"}}, {"name": "Bezirkskrankenhaus Memmingen", "latitude": 47.9827901, "longitude": 10.1695794, "source": "osm", "_tags": {"amenity": "hospital", "check_date": "2025-08-02", "healthcare": "hospital", "name": "Bezirkskrankenhaus Memmingen"}}, {"name": "Klinik Schwabenland", "latitude": 47.7096632, "longitude": 10.0347099, "source": "osm", "_tags": {"addr:city": "Isny im Allgäu", "addr:country": "DE", "addr:housenumber": "5", "addr:postcode": "88316", "addr:street": "Waldburgallee", "addr:suburb": "Neutrauchburg", "amenity": "hospital", "healthcare": "hospital", "healthcare:speciality": "internal", "name": "Klinik Schwabenland", "source": "Datenübernahme von Gebäude-Teil;Homepage", "website": "https://www.klinik-schwabenland.de/", "wheelchair": "yes"}}, {"name": "Zahnarzt Andreas Schmid", "latitude": 47.7845949, "longitude": 10.6166917, "source": "osm", "_tags": {"amenity": "hospital", "healthcare": "hospital", "healthcare:speciality": "dentist", "name": "Zahnarzt Andreas Schmid", "operator": "Dr. Manfred Schmid"}}, {"name": "Hochgebirgsklinik Mittelberg", "latitude": 47.6354698, "longitude": 10.4216733, "source": "osm", "_tags": {"addr:city": "Oy-Mittelberg", "addr:country": "DE", "addr:housename": "Hochgebirgsklinik Mittelberg", "addr:housenumber": "45", "addr:postcode": "87466", "addr:street": "Alois-Wagner-Straße", "addr:suburb": "Mittelberg", "amenity": "hospital", "email": "info@hochgebirgs-klinik.de", "healthcare": "hospital", "healthcare:speciality": "paediatrics;child_psychiatry;physiatry", "name": "Hochgebirgsklinik Mittelberg", "phone": "+49 8366 9800", "toilets:wheelchair": "yes", "website": "https://www.hochgebirgs-klinik.de/", "wheelchair": "yes"}}, {"name": "AWO-Fachklinik Legau für suchtmittelabhängige Frauen", "latitude": 47.8463345, "longitude": 10.1222173, "source": "osm", "_tags": {"addr:city": "Legau", "addr:housenumber": "2", "addr:postcode": "87764", "addr:street": "Leutkircher Straße", "amenity": "hospital", "emergency": "no", "healthcare": "hospital", "name": "AWO-Fachklinik Legau für suchtmittelabhängige Frauen", "operator": "Arbeiterwohlfahrt Bezirksverband Schwaben e.V.", "website": "https://www.fachklinik-legau.de/"}}, {"name": "Klinik Füssen", "latitude": 47.5668266, "longitude": 10.7045526, "source": "osm", "_tags": {"addr:city": "Füssen", "addr:country": "DE", "addr:housenumber": "1", "addr:postcode": "87629", "addr:street": "Stadtbleiche", "amenity": "hospital", "email": "info.fuessen@kliniken-oal-kf.de", "fax": "+49 8362 500-113", "healthcare": "hospital", "name": "Klinik Füssen", "operator": "Kliniken Ostallgäu-Kaufbeuren", "phone": "+49 8362 500-0", "website": "https://www.kliniken-oal-kf.de/kliniken/klinik-fuessen", "wikidata": "Q130424747", "wikipedia": "de:Klinik Füssen"}}, {"name": "MVZ Weißenhorn - Filiale Illertissen", "latitude": 48.2257483, "longitude": 10.1054934, "source": "osm", "_tags": {"addr:city": "Illertissen", "addr:housenumber": "7", "addr:postcode": "89257", "addr:street": "Krankenhausstraße", "amenity": "hospital", "healthcare": "hospital", "healthcare:speciality": "surgery;trauma", "name": "MVZ Weißenhorn - Filiale Illertissen"}}, {"name": "St. Vinzenz Klinik", "latitude": 47.5843258, "longitude": 10.5560213, "source": "osm", "_tags": {"addr:city": "Pfronten", "addr:country": "DE", "addr:housenumber": "15", "addr:postcode": "87459", "addr:street": "Kirchenweg", "addr:suburb": "Ried", "amenity": "hospital", "emergency": "yes", "healthcare": "hospital", "healthcare:speciality": "surgery;internal;radiology;geriatrics;anaesthetics", "name": "St. Vinzenz Klinik", "opening_hours": "24/7", "operator": "St. Vinzenz Klinik Pfronten im Allgäu GmbH", "operator:type": "corporation", "website": "https://www.vinzenz-klinik.de/", "wheelchair": "yes", "wikidata": "Q50038888"}}, {"name": "Reha-Klinik Sonthofen", "latitude": 47.5085377, "longitude": 10.2777794, "source": "osm", "_tags": {"amenity": "hospital", "check_date": "2024-07-13", "emergency": "no", "healthcare": "hospital", "healthcare:speciality": "internal", "name": "Reha-Klinik Sonthofen", "operator": "Klinikverbund Kempten Oberallgäu"}}, {"name": "Bezirkskrankenhaus Kaufbeuren", "latitude": 47.8841629, "longitude": 10.6117504, "source": "osm", "_tags": {"addr:city": "Kaufbeuren", "addr:country": "DE", "addr:housenumber": "16", "addr:postcode": "87600", "addr:street": "Kemnater Straße", "amenity": "hospital", "healthcare": "hospital", "name": "Bezirkskrankenhaus Kaufbeuren", "phone": "+49 8341 720", "website": "https://www.bezirkskrankenhaus-kaufbeuren.de/"}}, {"name": "Bezirkskrankenhaus Reutte", "latitude": 47.4735749, "longitude": 10.7124447, "source": "osm", "_tags": {"addr:city": "Ehenbichl", "addr:housenumber": "39", "addr:postcode": "6600", "addr:street": "Krankenhausstraße", "amenity": "hospital", "healthcare": "hospital", "healthcare:speciality": "emergency;trauma", "name": "Bezirkskrankenhaus Reutte", "official_name": "Allgemein öffentliches Bezirkskrankenhaus Reutte", "short_name": "Krankenhaus Reutte", "website": "https://www.bkh-reutte.at/", "wikidata": "Q106824954"}}, {"name": "Klinikum Memmingen", "latitude": 47.9824672, "longitude": 10.1690292, "source": "osm", "_tags": {"addr:city": "Memmingen", "addr:country": "DE", "addr:housenumber": "23", "addr:postcode": "87700", "addr:street": "Bismarckstraße", "emergency": "yes", "healthcare": "hospital", "healthcare:speciality": "general;psychiatry;paediatrics;ophthalmology;emergency;cardiology;gynaecology;surgery;oncology;radiology;dialysis;osteopathy;physiatry;internal;orthodontics;orthopaedics;dermatology;biology", "name": "Klinikum Memmingen", "operator": "Stadt Memmingen", "operator:type": "government", "wheelchair": "yes", "wikidata": "Q1774639"}}, {"name": "Wertachklinik Bobingen", "latitude": 48.2812909, "longitude": 10.8224893, "source": "osm", "_tags": {"addr:city": "Bobingen", "addr:country": "DE", "addr:housenumber": "55", "addr:postcode": "86399", "addr:street": "Wertachstraße", "amenity": "hospital", "building": "hospital", "emergency": "yes", "healthcare": "hospital", "name": "Wertachklinik Bobingen", "phone": "+49 8234 81-0", "source": "Bing", "website": "https://www.wertachkliniken.de"}}, {"name": "AGAPLESION Bethesda Klinik Ulm", "latitude": 48.4021483, "longitude": 10.0067409, "source": "osm", "_tags": {"amenity": "hospital", "building": "hospital", "healthcare": "hospital", "name": "AGAPLESION Bethesda Klinik Ulm", "operator": "Agaplesion", "operator:type": "private", "operator:wikidata": "Q55445", "operator:wikipedia": "de:Agaplesion", "url": "http://www.bethesda-ulm.de/", "wheelchair": "yes"}}, {"name": "Josefinum KJF Fachklinik", "latitude": 47.7261557, "longitude": 10.2987142, "source": "osm", "_tags": {"addr:city": "Kempten (Allgäu)", "addr:country": "DE", "addr:housenumber": "40", "addr:postcode": "87439", "addr:street": "Haubensteigweg", "amenity": "hospital", "healthcare": "hospital", "name": "Josefinum KJF Fachklinik", "operator": "Katholische Jugendfürsorge", "wheelchair": "yes"}}, {"name": "Krankenhaus Sankt Camillus", "latitude": 48.2716722, "longitude": 10.4486085, "source": "osm", "_tags": {"addr:city": "Ursberg", "addr:housenumber": "20", "addr:postcode": "86513", "addr:street": "Dominikus-Ringeisen-Straße", "amenity": "hospital", "building": "yes", "healthcare": "hospital", "name": "Krankenhaus Sankt Camillus"}}, {"name": "Hessing-Klinik", "latitude": 48.3399957, "longitude": 10.8662448, "source": "osm", "_tags": {"addr:city": "Augsburg", "addr:housenumber": "17", "addr:postcode": "86199", "addr:street": "Hessingstraße", "amenity": "hospital", "building": "yes", "emergency": "yes", "healthcare": "hospital", "name": "Hessing-Klinik", "operator": "Hessing Stiftung", "phone": "+49 821 9090", "toilets:wheelchair": "yes", "website": "https://www.hessing-kliniken.de", "wheelchair": "yes"}}, {"name": "Klinikum Kempten-Oberallgäu", "latitude": 47.7324861, "longitude": 10.3025829, "source": "osm", "_tags": {"amenity": "hospital", "emergency": "yes", "healthcare": "hospital", "name": "Klinikum Kempten-Oberallgäu", "website": "https://www.klinikum-kempten.de/", "wheelchair": "yes", "wikidata": "Q12342348"}}, {"name": "Kinder- und Jugendpsychiatrie", "latitude": 48.4103019, "longitude": 10.0030615, "source": "osm", "_tags": {"amenity": "hospital", "check_date": "2024-08-17", "healthcare": "hospital", "healthcare:speciality": "child_psychiatry", "name": "Kinder- und Jugendpsychiatrie", "wheelchair": "no"}}, {"name": "Frauenklinik", "latitude": 48.4104178, "longitude": 9.9933988, "source": "osm", "_tags": {"addr:city": "Ulm", "addr:country": "DE", "addr:housenumber": "43", "addr:postcode": "89075", "addr:street": "Prittwitzstraße", "amenity": "hospital", "building": "hospital", "healthcare": "hospital", "healthcare:speciality": "gynaecology", "name": "Frauenklinik", "wheelchair": "yes"}}, {"name": "Klinikum Kaufbeuren Ostallgäu", "latitude": 47.8880445, "longitude": 10.610967, "source": "osm", "_tags": {"addr:city": "Kaufbeuren", "addr:country": "DE", "addr:housenumber": "2", "addr:postcode": "87600", "addr:street": "Dr.-Gutermann-Straße", "amenity": "hospital", "check_date": "2023-11-29", "healthcare": "hospital", "internet_access": "wlan", "internet_access:fee": "customers", "name": "Klinikum Kaufbeuren Ostallgäu", "phone": "+49 8341 420", "website": "https://www.kliniken-oal-kf.de/", "wheelchair": "yes"}}, {"name": "iTCM-Klinik Illertissen", "latitude": 48.2256173, "longitude": 10.1054197, "source": "osm", "_tags": {"addr:city": "Illertissen", "addr:country": "DE", "addr:housenumber": "7", "addr:postcode": "89257", "addr:street": "Krankenhausstraße", "amenity": "hospital", "building": "yes", "healthcare": "hospital", "name": "iTCM-Klinik Illertissen", "toilets:wheelchair": "no", "wheelchair": "no"}}, {"name": "Fachklinik für Neurologie Dietenbronn", "latitude": 48.1619968, "longitude": 9.9692023, "source": "osm", "_tags": {"addr:city": "Schwendi", "addr:housenumber": "7", "addr:place": "Dietenbronn", "addr:postcode": "88477", "amenity": "hospital", "building": "yes", "healthcare": "hospital", "healthcare:speciality": "neurology", "name": "Fachklinik für Neurologie Dietenbronn", "operator:wikidata": "Q2220152", "source": "Maps4BW ( LGL, www.lgl-bw.de) / Bing", "wheelchair": "yes", "wikidata": "Q19962345"}}, {"name": "m&i Fachklinik Ichenhausen", "latitude": 48.3657536, "longitude": 10.3086514, "source": "osm", "_tags": {"addr:city": "Ichenhausen", "addr:country": "DE", "addr:housenumber": "45", "addr:postcode": "89335", "addr:street": "Krumbacher Straße", "amenity": "hospital", "email": "info@fachklinik-ichenhausen.de", "emergency": "no", "fax": "+49 8223 99-1050", "healthcare": "hospital", "name": "m&i Fachklinik Ichenhausen", "operator": "m&i-Klinikgesellschaft in Ichenhausen GmbH", "operator:type": "private", "phone": "+49 8223 99-0", "website": "https://www.fachklinik-ichenhausen.de/", "wheelchair": "yes"}}, {"name": "Josefinum", "latitude": 48.3857169, "longitude": 10.8749427, "source": "osm", "_tags": {"addr:city": "Augsburg", "addr:country": "DE", "addr:housenumber": "30", "addr:postcode": "86154", "addr:street": "Kapellenstraße", "amenity": "hospital", "email": "info@josefinum.de", "healthcare": "hospital", "name": "Josefinum", "operator": "KJF Klinik Josefinum gGmbH", "phone": "+49 821 2412-0", "website": "https://www.josefinum.de", "wheelchair": "yes", "wikidata": "Q1706229", "wikipedia": "de:Josefinum (Augsburg)"}}, {"name": "Universitätsklinikum Augsburg Süd (Haunstetten)", "latitude": 48.3059193, "longitude": 10.9162796, "source": "osm", "_tags": {"addr:city": "Augsburg", "addr:housenumber": "6", "addr:postcode": "86179", "addr:street": "Sauerbruchstraße", "amenity": "hospital", "emergency": "yes", "healthcare": "hospital", "name": "Universitätsklinikum Augsburg Süd (Haunstetten)", "operator": "Universitätsklinikum Augsburg", "website": "https://www.uk-augsburg.de/patienten-besucher/anreise/uka-in-haunstetten", "wheelchair": "yes", "wikidata": "Q1774589"}}, {"name": "Argentalklinik 1", "latitude": 47.7094653, "longitude": 10.025604, "source": "osm", "_tags": {"amenity": "hospital", "healthcare": "hospital", "name": "Argentalklinik 1"}}, {"name": "Argentalklinik 2", "latitude": 47.7078788, "longitude": 10.0232845, "source": "osm", "_tags": {"amenity": "hospital", "healthcare": "hospital", "name": "Argentalklinik 2"}}, {"name": "Rehaklinik Buching", "latitude": 47.6369143, "longitude": 10.7862779, "source": "osm", "_tags": {"addr:city": "Halblech", "addr:housenumber": "9", "addr:postcode": "87642", "addr:street": "Rauhenbichl", "amenity": "hospital", "description": "Psychosomatische Kurklinik", "email": "rehaklinik.buching@kur.org", "emergency": "no", "fax": "+49 8368 79171", "healthcare": "hospital", "name": "Rehaklinik Buching", "phone": "+49 8368 790", "website": "https://www.rehaklinik-buching.de/"}}, {"name": "Kliniken Oberallgäu", "latitude": 47.562394, "longitude": 10.2286366, "source": "osm", "_tags": {"amenity": "hospital", "healthcare": "hospital", "name": "Kliniken Oberallgäu"}}, {"name": "Stiftungsklinik Weißenhorn", "latitude": 48.3119594, "longitude": 10.1566356, "source": "osm", "_tags": {"amenity": "hospital", "check_date": "2024-04-11", "emergency": "yes", "healthcare": "hospital", "name": "Stiftungsklinik Weißenhorn"}}, {"name": "Illertalklinik", "latitude": 48.225539, "longitude": 10.1049718, "source": "osm", "_tags": {"addr:city": "Illertissen", "addr:country": "DE", "addr:housenumber": "7", "addr:postcode": "89257", "addr:street": "Krankenhausstraße", "amenity": "hospital", "building": "yes", "email": "illertalklinik@kreisspitalstiftung.de", "fax": "+49 7303 6790", "healthcare": "hospital", "name": "Illertalklinik", "operator": "Kreisspitalstiftung Weißenhorn", "phone": "+49 7303 177 0", "website": "https://www.illertalklinik-illertissen.de/", "wheelchair": "yes"}}, {"name": "Rehaklinik Überruh", "latitude": 47.6811828, "longitude": 10.1101691, "source": "osm", "_tags": {"addr:city": "Isny im Allgäu", "addr:housenumber": "4", "addr:place": "Überruh", "addr:postcode": "88316", "addr:suburb": "Bolsternang", "amenity": "hospital", "building": "hospital", "healthcare": "hospital", "name": "Rehaklinik Überruh", "source": "Maps4BW (LGL-BW, www.lgl-bw.de) 10.2020; Bing 2020", "website": "https://www.rehaklinik-ueberruh.de/"}}, {"name": "Sport- und Rehabilitationsmedizin", "latitude": 48.410534, "longitude": 10.0009947, "source": "osm", "_tags": {"addr:city": "Ulm", "addr:country": "DE", "addr:housenumber": "14", "addr:postcode": "89075", "addr:street": "Leimgrubenweg", "amenity": "hospital", "building": "yes", "healthcare": "hospital", "name": "Sport- und Rehabilitationsmedizin", "website": "https://www.uniklinik-ulm.de/innere-medizin-ii/sonstige/sektion-sport-und-rehabilitationsmedizin.html", "wheelchair": "no"}}, {"name": "Universitätsklinikum Ulm", "latitude": 48.4221748, "longitude": 9.9522164, "source": "osm", "_tags": {"addr:postcode": "89081", "amenity": "hospital", "healthcare": "hospital", "name": "Universitätsklinikum Ulm", "source": "http://www.uniklinik-ulm.de/fileadmin/Kliniken/Zahnmedizin/ZMK/Plaene/Lageplan_Ulm_und_OE.pdf", "wheelchair": "yes", "wikidata": "Q2496404"}}, {"name": "Bezirkskrankenhaus Augsburg", "latitude": 48.3859215, "longitude": 10.8332095, "source": "osm", "_tags": {"addr:city": "Augsburg", "addr:country": "DE", "addr:housenumber": "1", "addr:postcode": "86156", "addr:street": "Geschwister-Schönert-Straße", "amenity": "hospital", "description": "Klinik für Psychiatrie, Psychotherapie und Psychosomatik der Universität Augsburg", "emergency": "yes", "fax": "+49 821 4803-2352", "healthcare": "hospital", "healthcare:speciality": "psychiatry", "name": "Bezirkskrankenhaus Augsburg", "operator": "Bezirkskliniken Schwaben (KU)", "phone": "+49 821 4803-0", "toilets:wheelchair": "yes", "website": "https://www.bezirkskliniken-schwaben.de/kliniken/bezirkskrankenhaus-augsburg", "wheelchair": "yes", "wikidata": "Q854264", "wikipedia": "de:Bezirkskrankenhaus Augsburg"}}, {"name": "Fachklinik St. Marien", "latitude": 47.6039515, "longitude": 10.4057852, "source": "osm", "_tags": {"amenity": "hospital", "contact:email": "info@haus-st-marien.de/", "contact:fax": "+49 8365 700-333", "contact:phone": "+49 8365 700-0", "elevator": "yes", "female": "yes", "healthcare": "rehabilitation", "internet_access": "wlan", "name": "Fachklinik St. Marien", "rooms": "70", "service:bicycle:rental": "yes", "source": "Unterkunftsverzeichnis Wertach 2021, S. 36 mit schriftlicher Erlaubnis der Tourist-Info Wertach vom 2019-11-04 für die Verwendung der Daten für OSM", "source:date": "2021-03-31", "swimming_pool": "yes", "washing_machine": "yes", "website": "https://www.haus-st-marien.de/", "wheelchair": "yes"}}, {"name": "", "latitude": 48.0339272, "longitude": 10.7236635, "source": "osm", "_tags": {"amenity": "hospital", "healthcare": "hospital"}}, {"name": "Fachklinik Enzensberg", "latitude": 47.6143706, "longitude": 10.6887028, "source": "osm", "_tags": {"addr:city": "Füssen", "addr:country": "DE", "addr:housenumber": "56", "addr:postcode": "87629", "addr:street": "Höhenstraße", "amenity": "hospital", "email": "info@fachklinik-enzensberg.de", "fax": "+49 (0)8362 12-3060", "healthcare": "hospital", "healthcare:speciality": "orthopaedics;physiatry;neurology;internal;geriatrics", "name": "Fachklinik Enzensberg", "operator": "m&i-Fachklinik Enzensberg", "phone": "+49 (0)8362 12-0", "website": "https://www.fachklinik-enzensberg.de"}}, {"name": "", "latitude": 47.7106565, "longitude": 10.8063308, "source": "osm", "_tags": {"amenity": "hospital"}}, {"name": "", "latitude": 48.409864, "longitude": 9.9939262, "source": "osm", "_tags": {"amenity": "hospital", "building:part": "yes", "healthcare": "hospital", "healthcare:speciality": "urology", "wheelchair": "yes"}}, {"name": "Kliniken Michelsberg", "latitude": 48.4097661, "longitude": 9.9926862, "source": "osm", "_tags": {"amenity": "hospital", "healthcare": "hospital", "name": "Kliniken Michelsberg"}}, {"name": "Klinik Sonnenalm", "latitude": 47.5336375, "longitude": 10.0246423, "source": "osm", "_tags": {"amenity": "hospital", "check_date": "2024-03-13", "name": "Klinik Sonnenalm", "website": "https://www.klinik-sonnenalm.de/"}}, {"name": "Universitätsklinikum Augsburg", "latitude": 48.3849306, "longitude": 10.8399721, "source": "osm", "_tags": {"addr:city": "Augsburg", "addr:country": "DE", "addr:housenumber": "2", "addr:postcode": "86156", "addr:street": "Stenglinstraße", "amenity": "hospital", "contact:email": "info@uk-augsburg.de", "contact:fax": "+49 821 400-4585", "contact:phone": "+49 821 400-01", "emergency": "yes", "healthcare": "hospital", "name": "Universitätsklinikum Augsburg", "website": "https://www.uk-augsburg.de/", "wikidata": "Q1283701", "wikipedia": "de:Universitätsklinikum Augsburg"}}, {"name": "Bundeswehrkrankenhaus Ulm", "latitude": 48.4249898, "longitude": 9.9475863, "source": "osm", "_tags": {"addr:city": "Ulm", "addr:housenumber": "40", "addr:postcode": "89081", "addr:street": "Oberer Eselsberg", "amenity": "hospital", "contact:website": "https://ulm.bwkrankenhaus.de", "email": "BwKrhsUlm@bundeswehr.org", "healthcare": "hospital", "landuse": "military", "name": "Bundeswehrkrankenhaus Ulm", "operator": "Zentraler Sanitätsdienst der Bundeswehr", "operator:type": "military", "phone": "+49 731 17100", "short_name:de": "BWK Ulm", "wikidata": "Q1009277", "wikipedia": "de:Bundeswehrkrankenhaus Ulm"}}, {"name": "Capio Blausteinklinik", "latitude": 48.4112705, "longitude": 9.9415437, "source": "osm", "_tags": {"addr:city": "Blaustein", "addr:country": "DE", "addr:housenumber": "102", "addr:postcode": "89134", "addr:street": "Erhard-Grözinger-Straße", "addr:suburb": "Ehrenstein", "amenity": "hospital", "health_facility:type": "clinic", "healthcare": "hospital", "name": "Capio Blausteinklinik", "operator": "Capio", "operator:wikidata": "Q498606", "operator:wikipedia": "de:Capio", "phone": "+49 731 95350", "website": "https://www.capio-blausteinklinik.de/"}}, {"name": "Oberschwaben Klinik - Krankenhaus Isny Notfall-Ambulanz", "latitude": 47.6890463, "longitude": 10.0400081, "source": "osm", "_tags": {"amenity": "hospital", "healthcare": "hospital", "name": "Oberschwaben Klinik - Krankenhaus Isny Notfall-Ambulanz"}}, {"name": "stadtklinik im diako", "latitude": 48.3678819, "longitude": 10.8879326, "source": "osm", "_tags": {"addr:city": "Augsburg", "addr:country": "DE", "addr:housenumber": "17", "addr:postcode": "86150", "addr:street": "Frölichstraße", "amenity": "hospital", "email": "info@diako-augsburg.de", "emergency": "no", "healthcare": "hospital", "name": "stadtklinik im diako", "operator": "Evanglische Diakonissenanstalt Augsburg", "phone": "+49 821 3160-0", "website": "https://stadtklinik-diako.de"}}, {"name": "Alpenklinik Santa Maria", "latitude": 47.5171647, "longitude": 10.4037554, "source": "osm", "_tags": {"amenity": "hospital", "contact:email": "info@santa-maria.de", "emergency": "no", "healthcare": "rehabilitation", "healthcare:speciality": "paediatrics", "landuse": "residential", "name": "Alpenklinik Santa Maria", "phone": "+49 8324 780", "website": "https://www.santa-maria.de"}}, {"name": "Klinikum Landsberg am Lech", "latitude": 48.0481646, "longitude": 10.8555453, "source": "osm", "_tags": {"amenity": "hospital", "name": "Klinikum Landsberg am Lech"}}, {"name": "Klinik Vincentinum", "latitude": 48.3745635, "longitude": 10.9046769, "source": "osm", "_tags": {"addr:city": "Augsburg", "addr:country": "DE", "addr:housenumber": "12", "addr:postcode": "86152", "addr:street": "Franziskanergasse", "amenity": "hospital", "building": "hospital", "building:levels": "4", "healthcare": "hospital", "name": "Klinik Vincentinum", "name:etymology:wikidata": "Q1406291", "opening_hours:visitors": "Mo-Fr 14:00-19:00; Sa-Su 10:00-19:00; PH 10:00-19:00", "phone": "+49 821 3167-0", "roof:shape": "flat", "website": "https://www.klinik-vincentinum.de", "wheelchair": "yes", "wikidata": "Q1406291"}}, {"name": "Klinik Ottobeuren", "latitude": 47.9439005, "longitude": 10.2934392, "source": "osm", "_tags": {"addr:city": "Ottobeuren", "addr:housenumber": "31", "addr:postcode": "87724", "addr:street": "Memminger Straße", "amenity": "hospital", "emergency": "yes", "healthcare": "hospital", "name": "Klinik Ottobeuren", "operator": "Klinikverbund Allgäu gGmbH", "operator:type": "private", "wheelchair": "yes"}}, {"name": "Waldhausklinik Deuringen", "latitude": 48.3652878, "longitude": 10.8125282, "source": "osm", "_tags": {"addr:city": "Stadtbergen", "addr:country": "DE", "addr:housenumber": "49", "addr:postcode": "86391", "addr:street": "Sandbergstraße", "addr:suburb": "Deuringen", "amenity": "hospital", "description": "Klinik für Naturheilkunde & ganzheitliche Medizin", "healthcare": "hospital", "name": "Waldhausklinik Deuringen", "phone": "+49 821 43050", "website": "https://www.waldhausklinik.de/"}}, {"name": "Kreiskrankenhaus Krumbach", "latitude": 48.2370553, "longitude": 10.3660201, "source": "osm", "_tags": {"amenity": "hospital", "healthcare": "hospital", "name": "Kreiskrankenhaus Krumbach"}}, {"name": "Kreisklinik Mindelheim", "latitude": 48.0408555, "longitude": 10.4931072, "source": "osm", "_tags": {"addr:city": "Mindelheim", "addr:country": "DE", "addr:housenumber": "44", "addr:postcode": "87719", "addr:street": "Bad Wörishofer Straße", "amenity": "hospital", "building": "yes", "healthcare": "hospital", "name": "Kreisklinik Mindelheim", "type": "multipolygon", "wheelchair": "yes"}}, {"name": "Donauklinik", "latitude": 48.3940662, "longitude": 9.9937634, "source": "osm", "_tags": {"addr:city": "Neu-Ulm", "addr:country": "DE", "addr:housenumber": "11", "addr:postcode": "89231", "addr:street": "Krankenhausstraße", "amenity": "hospital", "building": "hospital", "building:colour": "white", "building:levels": "3", "email": "donauklinik@kreisspitalstiftung.de", "emergency": "yes", "fax": "+49 731 / 804 2109", "healthcare": "hospital", "name": "Donauklinik", "operator": "Kreisspitalstiftung Weißenhorn", "phone": "+49 731 / 8040", "roof:colour": "#808080", "type": "multipolygon", "website": "https://www.donauklinik-neu-ulm.de/", "wheelchair": "yes", "wikidata": "Q26794482"}}, {"name": "Kreiskrankenhaus Schongau", "latitude": 47.8250445, "longitude": 10.8990585, "source": "osm", "_tags": {"amenity": "hospital", "emergency": "yes", "healthcare": "hospital", "name": "Kreiskrankenhaus Schongau", "type": "multipolygon", "website": "http://www.kh-gmbh-wm-sog.de"}}, {"name": "HNO-Klinik", "latitude": 48.409177, "longitude": 9.9924794, "source": "osm", "_tags": {"addr:city": "Ulm", "addr:country": "DE", "addr:housenumber": "12", "addr:postcode": "89075", "addr:street": "Frauensteige", "amenity": "hospital", "building": "hospital", "healthcare": "hospital", "healthcare:speciality": "otolaryngology", "name": "HNO-Klinik", "start_date": "2000", "type": "multipolygon", "wheelchair": "yes"}}, {"name": "Klinik Alpenblick", "latitude": 47.7081629, "longitude": 10.0303496, "source": "osm", "_tags": {"addr:city": "Isny im Allgäu", "addr:country": "DE", "addr:housenumber": "9", "addr:postcode": "88316", "addr:street": "Kurweg", "amenity": "hospital", "building": "hospital", "email": "info@klinik-alpenblick.de", "fax": "+49 7562 71-1495", "healthcare": "hospital", "healthcare:speciality": "psychiatry", "name": "Klinik Alpenblick", "operator": "Waldburg-Zeil Kliniken", "phone": "+49 7562 71-1411", "type": "multipolygon", "website": "https://www.klinik-alpenblick.de/"}}, {"name": "Klinikum Landsberg am Lech", "latitude": 48.0483713, "longitude": 10.8556235, "source": "osm", "_tags": {"addr:city": "Landsberg am Lech", "addr:country": "DE", "addr:housenumber": "50", "addr:postcode": "86899", "addr:street": "Bürgermeister-Doktor-Hartmann-Straße", "amenity": "hospital", "building": "hospital", "building:levels": "5", "email": "info@klinikum-landsberg.de", "emergency": "yes", "healthcare": "hospital", "name": "Klinikum Landsberg am Lech", "phone": "+49 8191 333-0", "roof:shape": "flat", "toilets:wheelchair": "yes", "type": "multipolygon", "url": "http://www.klinikum-landsberg.de/", "website": "https://www.klinikum-landsberg.de/kontakt", "wheelchair": "yes"}}, {"name": "Wertachklinik Schwabmünchen", "latitude": 48.1759759, "longitude": 10.7462699, "source": "osm", "_tags": {"addr:city": "Schwabmünchen", "addr:housenumber": "35", "addr:postcode": "86830", "addr:street": "Weidenhartstraße", "amenity": "hospital", "building": "hospital", "emergency": "yes", "fax": "+49 8232 508-510", "healthcare": "hospital", "name": "Wertachklinik Schwabmünchen", "phone": "+49 8232 508-0", "toilets:wheelchair": "yes", "type": "multipolygon", "website": "https://wertachkliniken.de/ueber-uns/unsere-kliniken/klinik-schwabmuenchen/", "wheelchair": "yes"}}]