[{"name": "", "latitude": 47.8821032, "longitude": 28.2788144, "source": "osm", "_tags": {"amenity": "hospital", "healthcare": "hospital"}}, {"name": "Spital", "latitude": 47.6500015, "longitude": 28.3578096, "source": "osm", "_tags": {"amenity": "hospital", "designation": "Spital", "emergency": "yes", "name": "Spital", "source": "Spital"}}, {"name": "", "latitude": 47.8328061, "longitude": 28.4033384, "source": "osm", "_tags": {"amenity": "hospital"}}, {"name": "", "latitude": 47.6440976, "longitude": 28.1311821, "source": "osm", "_tags": {"amenity": "hospital"}}, {"name": "Приёмное отделение", "latitude": 48.034561, "longitude": 28.7059508, "source": "osm", "_tags": {"amenity": "hospital", "healthcare": "hospital", "name": "Приёмное отделение", "name:md": "Департаментул де Речепцие", "name:ro": "Departamentul de Recepție", "name:ru": "Приёмное отделение", "name:uk": "Приймальне відділення"}}, {"name": "", "latitude": 47.7211804, "longitude": 28.0875735, "source": "osm", "_tags": {"amenity": "hospital"}}, {"name": "Spitalul Raional Șoldănești", "latitude": 47.8138204, "longitude": 28.7881392, "source": "osm", "_tags": {"amenity": "hospital", "name": "Spitalul Raional Șoldănești"}}, {"name": "Spitalul raionul Soroca", "latitude": 48.1751323, "longitude": 28.2915029, "source": "osm", "_tags": {"amenity": "hospital", "healthcare": "hospital", "name": "Spitalul raionul Soroca", "name:ru": "Сорокская районная больница"}}, {"name": "", "latitude": 47.814391, "longitude": 28.7910253, "source": "osm", "_tags": {"addr:country": "MD", "addr:street": "Strada Păcii", "amenity": "hospital", "building:levels": "2", "healthcare": "hospital"}}, {"name": "", "latitude": 47.8148063, "longitude": 28.7907208, "source": "osm", "_tags": {"addr:country": "MD", "addr:street": "Strada Păcii", "amenity": "hospital", "building:levels": "4", "healthcare": "hospital"}}, {"name": "Centrul Medicilor de Familie de la Soroca Nouă", "latitude": 48.1759245, "longitude": 28.316104, "source": "osm", "_tags": {"amenity": "hospital", "name": "Centrul Medicilor de Familie de la Soroca Nouă", "name:ru": "Центр семейных врачей"}}, {"name": "Centrul de Sănătate Soroca", "latitude": 48.1542364, "longitude": 28.298482, "source": "osm", "_tags": {"addr:city": "Soroca", "addr:country": "MD", "addr:housenumber": "14", "addr:postcode": "MD-3000", "addr:street": "Strada Mihai Eminescu", "amenity": "hospital", "building": "yes", "emergency": "no", "healthcare": "hospital", "name": "Centrul de Sănătate Soroca", "name:ru": "Центр Здоровья", "operator": "Consiliu Raional Soroca", "operator:type": "government", "phone": "+37323022710", "wheelchair": "yes"}}, {"name": "Spitalul Raional Soroca „A. Prisacari“", "latitude": 48.1545565, "longitude": 28.3037127, "source": "osm", "_tags": {"amenity": "hospital", "name": "Spitalul Raional Soroca „A. Prisacari“", "name:ru": "Сорокская Районная Больница «А. Присакарь»"}}, {"name": "Каменская центраьная районная больница", "latitude": 48.0342797, "longitude": 28.705292, "source": "osm", "_tags": {"amenity": "hospital", "healthcare": "hospital", "name": "Каменская центраьная районная больница", "name:md": "Спиталул районал чентрал дин Каменка", "name:ro": "Spitalul raional central din Camenca", "name:ru": "Каменская центраьная районная больница", "name:uk": "Кам'янська центраьная районна лікарня", "website": "https://minzdrav.gospmr.org/node/291"}}, {"name": "Urgența Medicală", "latitude": 48.1656242, "longitude": 28.3081289, "source": "osm", "_tags": {"addr:city": "Soroca", "addr:country": "MD", "addr:street": "Strada Petrov", "amenity": "hospital", "building": "yes", "healthcare": "hospital", "name": "Urgența Medicală", "name:ru": "Скорая помощь"}}, {"name": "", "latitude": 47.5009692, "longitude": 28.6072566, "source": "osm", "_tags": {"amenity": "hospital"}}, {"name": "", "latitude": 47.4232887, "longitude": 28.0074656, "source": "osm", "_tags": {"amenity": "hospital", "building": "yes"}}, {"name": "Oficiul Medicilor de Familie Drujba", "latitude": 47.4336597, "longitude": 28.0752268, "source": "osm", "_tags": {"addr:city": "Drujba", "amenity": "hospital", "healthcare": "hospital", "name": "Oficiul Medicilor de Familie Drujba"}}, {"name": "", "latitude": 48.3468279, "longitude": 28.2391791, "source": "osm", "_tags": {"amenity": "hospital", "building": "hospital", "source": "Bing"}}, {"name": "", "latitude": 48.3465686, "longitude": 28.2393979, "source": "osm", "_tags": {"amenity": "hospital", "building": "hospital", "source": "Bing"}}, {"name": "Ямпільська центральна районна лікарня", "latitude": 48.2469887, "longitude": 28.2780535, "source": "osm", "_tags": {"amenity": "hospital", "name": "Ямпільська центральна районна лікарня", "name:en": "Central Raion Hospital", "name:ru": "Ямпольская центральная районная больница", "name:uk": "Ямпільська центральна районна лікарня"}}, {"name": "Крижопільський центр ПМСД", "latitude": 48.3831592, "longitude": 28.8731578, "source": "osm", "_tags": {"addr:housenumber": "6", "addr:postcode": "24601", "addr:street": "вулиця Данила Нечая", "amenity": "hospital", "healthcare": "hospital", "name": "Крижопільський центр ПМСД", "name:uk": "Крижопільський центр ПМСД"}}, {"name": "Крижопільська окружна лікарня інтенсивного лікування", "latitude": 48.3847517, "longitude": 28.8712547, "source": "osm", "_tags": {"addr:housenumber": "10", "addr:street": "вулиця Данила Нечая", "amenity": "hospital", "emergency": "no", "healthcare": "hospital", "name": "Крижопільська окружна лікарня інтенсивного лікування", "name:uk": "Крижопільська окружна лікарня інтенсивного лікування"}}, {"name": "Spitalul Raional Sîngerei", "latitude": 47.6446831, "longitude": 28.1299724, "source": "osm", "_tags": {"amenity": "hospital", "healthcare": "hospital", "name": "Spitalul Raional Sîngerei", "name:ru": "Сынжерейская районная больница"}}, {"name": "", "latitude": 48.200594, "longitude": 28.0489236, "source": "osm", "_tags": {"amenity": "hospital", "healthcare": "hospital"}}, {"name": "Закрита", "latitude": 48.3628415, "longitude": 28.6970735, "source": "osm", "_tags": {"amenity": "hospital", "building:levels": "2", "healthcare": "hospital", "name": "Закрита", "name:uk": "Закрита"}}, {"name": "Городківська амбулаторія загальної практики сімейної", "latitude": 48.3796544, "longitude": 28.7022495, "source": "osm", "_tags": {"addr:housenumber": "2А", "addr:postcode": "24615", "addr:street": "Бузкова вулиця", "amenity": "hospital", "healthcare": "hospital", "healthcare:speciality": "medicine", "name": "Городківська амбулаторія загальної практики сімейної", "name:uk": "Городківська амбулаторія загальної практики сімейної"}}, {"name": "Spitalul Raional Telenești", "latitude": 47.5031678, "longitude": 28.3578702, "source": "osm", "_tags": {"addr:city": "Telenești", "addr:country": "MD", "addr:housenumber": "89", "addr:street": "Strada Renașterii", "amenity": "hospital", "barrier": "fence", "healthcare": "hospital", "name": "Spitalul Raional Telenești"}}, {"name": "", "latitude": 47.502221, "longitude": 28.3600382, "source": "osm", "_tags": {"amenity": "hospital", "barrier": "fence", "healthcare": "hospital"}}, {"name": "Spitalul Raional Florești", "latitude": 47.9145788, "longitude": 28.2981113, "source": "osm", "_tags": {"amenity": "hospital", "healthcare": "hospital", "name": "Spitalul Raional Florești", "name:ru": "Больница", "type": "multipolygon"}}, {"name": "Spitalul de Psihiatrie", "latitude": 47.7400246, "longitude": 27.9462697, "source": "osm", "_tags": {"amenity": "hospital", "healthcare": "hospital", "name": "Spitalul de Psihiatrie", "name:ru": "Психиатрическая больница", "type": "multipolygon"}}]