[{"name": "Dispensar Socund", "latitude": 47.5633039, "longitude": 22.9502266, "source": "osm", "_tags": {"amenity": "hospital", "name": "Dispensar Socund"}}, {"name": "", "latitude": 47.6611589, "longitude": 23.5902518, "source": "osm", "_tags": {"amenity": "hospital"}}, {"name": "Обласна алергологічна лікарня", "latitude": 47.9641827, "longitude": 23.8470407, "source": "osm", "_tags": {"amenity": "hospital", "healthcare": "hospital", "name": "Обласна алергологічна лікарня", "name:ru": "Обласная Аллергологическая больница", "name:uk": "Обласна алергологічна лікарня", "opening_hours": "Mo-Su 09:00-18:00"}}, {"name": "medic de familie", "latitude": 47.6531542, "longitude": 23.5763419, "source": "osm", "_tags": {"amenity": "hospital", "healthcare": "hospital", "name": "medic de familie", "name:it": "Medico di Famiglia"}}, {"name": "Unitatea Primire Urgențe UPU", "latitude": 47.8722173, "longitude": 23.4284725, "source": "osm", "_tags": {"addr:city": "Negrești-Oaș", "amenity": "hospital", "emergency": "yes", "healthcare": "hospital", "name": "Unitatea Primire Urgențe UPU"}}, {"name": "Українська алергологічна лікарня МОЗ України", "latitude": 47.9649558, "longitude": 23.8502758, "source": "osm", "_tags": {"addr:city": "Солотвино", "addr:housenumber": "42", "addr:postcode": "90570", "addr:street": "вулиця Пала Терека", "amenity": "hospital", "building": "hospital", "healthcare": "hospital", "name": "Українська алергологічна лікарня МОЗ України", "name:uk": "Українська алергологічна лікарня МОЗ України", "website": "https://www.dzual.org/"}}, {"name": "Spitalul Municipal Sighetul Marmației", "latitude": 47.9285038, "longitude": 23.8754532, "source": "osm", "_tags": {"addr:postcode": "435500", "amenity": "hospital", "emergency": "yes", "name": "Spitalul Municipal Sighetul Marmației", "name:en": "Sighet City Hospital", "opening_hours": "24/7"}}, {"name": "Spitalul Județean de Urgență Dr. Constantin Opriș", "latitude": 47.6548519, "longitude": 23.5544485, "source": "osm", "_tags": {"amenity": "hospital", "emergency": "yes", "healthcare": "hospital", "healthcare:speciality": "general", "name": "Spitalul Județean de Urgență Dr. Constantin Opriș"}}, {"name": "Психо-наркологічне відділення", "latitude": 48.1659531, "longitude": 23.2963824, "source": "osm", "_tags": {"amenity": "hospital", "contact:phone": "+380 3142 25 091", "healthcare": "hospital", "healthcare:speciality": "psychiatry;dermatology", "name": "Психо-наркологічне відділення", "name:uk": "Психо-наркологічне відділення"}}, {"name": "Spitalul de Pneumoftiziologie", "latitude": 47.6626892, "longitude": 23.552112, "source": "osm", "_tags": {"amenity": "hospital", "name": "Spitalul de Pneumoftiziologie"}}, {"name": "Хустська районна лікарня", "latitude": 48.1618527, "longitude": 23.3015508, "source": "osm", "_tags": {"addr:city": "Хуст", "addr:housenumber": "113", "addr:postcode": "90400", "addr:street": "вулиця Івана Франка", "amenity": "hospital", "contact:phone": "+380 3142 42 344", "emergency": "yes", "healthcare": "hospital", "healthcare:speciality": "general", "name": "Хустська районна лікарня", "name:en": "Khust district hospital", "name:uk": "Хустська районна лікарня"}}, {"name": "Spital Orasenesc", "latitude": 47.8719793, "longitude": 23.4284468, "source": "osm", "_tags": {"addr:city": "Negrești-Oaș", "addr:country": "RO", "addr:housenumber": "90", "addr:street": "Strada Victoriei", "amenity": "hospital", "emergency": "yes", "healthcare": "hospital", "healthcare:speciality": "emergency;general;surgery;paediatrics;cardiology;psychiatry;gynaecology;oncology;orthopaedics", "name": "Spital Orasenesc", "name:en": "Negresti Oas Hospital", "operator": "Ministerul Sănătății", "operator:type": "public", "supervised": "yes", "website": "https://www.spitalnegrestioas.ro"}}, {"name": "Dispensar", "latitude": 47.9596385, "longitude": 23.8202466, "source": "osm", "_tags": {"amenity": "hospital", "healthcare": "hospital", "healthcare:speciality": "general;medic_de_familie", "name": "Dispensar"}}, {"name": "Тячівська районна лікарня", "latitude": 48.0068036, "longitude": 23.5674311, "source": "osm", "_tags": {"addr:housenumber": "48", "addr:street": "Нересенська вулиця", "amenity": "hospital", "healthcare": "hospital", "name": "Тячівська районна лікарня", "name:uk": "Тячівська районна лікарня", "website": "http://xn---1-dlc1byaj9a1d4c.xn--j1amh/index.php"}}, {"name": "Виноградівська державна лікарня ветеринарної медицини", "latitude": 48.1518653, "longitude": 23.0221742, "source": "osm", "_tags": {"amenity": "hospital", "healthcare": "hospital", "name": "Виноградівська державна лікарня ветеринарної медицини", "name:uk": "Виноградівська державна лікарня ветеринарної медицини"}}, {"name": "", "latitude": 48.1202322, "longitude": 23.0964483, "source": "osm", "_tags": {"amenity": "hospital", "healthcare": "hospital"}}, {"name": "", "latitude": 48.3036544, "longitude": 23.0404042, "source": "osm", "_tags": {"amenity": "hospital", "healthcare": "hospital"}}, {"name": "Тубдиспансер", "latitude": 48.1365846, "longitude": 23.0239988, "source": "osm", "_tags": {"amenity": "hospital", "healthcare": "hospital", "name": "Тубдиспансер", "name:uk": "Тубдиспансер"}}, {"name": "", "latitude": 47.45535, "longitude": 23.8612063, "source": "osm", "_tags": {"amenity": "hospital", "healthcare": "hospital"}}, {"name": "Селищна Лікарня", "latitude": 48.1598802, "longitude": 23.1364109, "source": "osm", "_tags": {"amenity": "hospital", "healthcare": "hospital", "name": "Селищна Лікарня", "name:uk": "Селищна Лікарня"}}, {"name": "", "latitude": 48.1645001, "longitude": 23.1488387, "source": "osm", "_tags": {"amenity": "hospital", "healthcare": "hospital"}}, {"name": "", "latitude": 48.3691684, "longitude": 23.2804668, "source": "osm", "_tags": {"amenity": "hospital", "healthcare": "hospital"}}, {"name": "", "latitude": 48.1406674, "longitude": 22.9683959, "source": "osm", "_tags": {"amenity": "hospital", "healthcare": "hospital"}}, {"name": "", "latitude": 48.3093569, "longitude": 23.130937, "source": "osm", "_tags": {"amenity": "hospital", "healthcare": "hospital"}}, {"name": "", "latitude": 48.3086852, "longitude": 23.1428723, "source": "osm", "_tags": {"amenity": "hospital", "healthcare": "hospital"}}, {"name": "", "latitude": 48.3102781, "longitude": 23.0426825, "source": "osm", "_tags": {"amenity": "hospital", "healthcare": "hospital"}}, {"name": "", "latitude": 48.1956566, "longitude": 23.1313921, "source": "osm", "_tags": {"amenity": "hospital", "healthcare": "hospital"}}, {"name": "Виноградівська районна лікарня", "latitude": 48.137974, "longitude": 23.0200813, "source": "osm", "_tags": {"addr:housenumber": "13", "addr:postcode": "90300", "addr:street": "Лікарняна вулиця", "amenity": "hospital", "healthcare": "hospital", "name": "Виноградівська районна лікарня", "name:uk": "Виноградівська районна лікарня", "type": "multipolygon"}}, {"name": "Вузлова Лікарня станції Королево", "latitude": 48.1513525, "longitude": 23.1380947, "source": "osm", "_tags": {"addr:postcode": "90332", "addr:street": "Вокзальна вулиця", "amenity": "hospital", "healthcare": "hospital", "name": "Вузлова Лікарня станції Королево", "name:uk": "Вузлова Лікарня станції Королево", "type": "multipolygon"}}]