[{"name": "Unfallkrankenhaus Steiermark, Standort Kalwang", "latitude": 47.4250476, "longitude": 14.7605355, "source": "osm", "_tags": {"addr:city": "Kalwang", "addr:country": "AT", "addr:housenumber": "1", "addr:postcode": "8775", "addr:street": "Rudolf-von-Gutmann-Straße", "amenity": "hospital", "at_bev:addr_date": "2018-10-01", "emergency": "yes", "healthcare": "hospital", "healthcare:speciality": "trauma", "name": "Unfallkrankenhaus Steiermark, Standort Kalwang", "operator": "Allgemeine Unfallversicherungsanstalt", "website": "https://www.ukh-steiermark.at/", "wikidata": "Q2493163", "wikipedia": "de:Unfallkrankenhaus Kalwang"}}, {"name": "Krankenhaus der Barmherzigen Brüder Linz", "latitude": 48.3000103, "longitude": 14.2884471, "source": "osm", "_tags": {"amenity": "hospital", "contact:fax": "+43 732 78971099", "contact:phone": "+43 732 78970", "contact:website": "http://www.barmherzige-brueder.at", "health_specialty": "stroke_unit", "healthcare": "hospital", "healthcare:speciality": "emergency", "landuse": "healthcare", "name": "Krankenhaus der Barmherzigen Brüder Linz", "toilets:wheelchair": "yes", "wheelchair": "yes"}}, {"name": "Klinikum Wels", "latitude": 48.1737117, "longitude": 14.0262798, "source": "osm", "_tags": {"addr:city": "Wels", "addr:country": "AT", "addr:housenumber": "42", "addr:postcode": "4600", "addr:street": "Grieskirchner Straße", "alt_name": "Krankenhaus Wels", "alt_name2": "Spital Wels", "amenity": "hospital", "fax": "+43 7242 415 3774", "health_specialty": "stroke_unit", "healthcare": "hospital", "healthcare:speciality": "emergency;trauma", "image": "http://www.klinikum-wegr.at/klinikum/image/582127231698182011_603710582744388327_70_0_bf_fIlslLQ-.jpg", "name": "Klinikum Wels", "phone": "+43 7242 415 0", "website": "https://www.klinikum-wegr.at/", "wheelchair": "yes"}}, {"name": "Bau 6 - Eltern-Kind-Zentrum", "latitude": 48.1735991, "longitude": 14.0260582, "source": "osm", "_tags": {"addr:city": "Wels", "addr:country": "AT", "addr:postcode": "4600", "addr:street": "Eferdingerstraße", "amenity": "hospital", "building": "yes", "building:levels": "5", "healthcare": "hospital", "healthcare:speciality": "paediatrics", "name": "Bau 6 - Eltern-Kind-Zentrum", "wheelchair": "yes"}}, {"name": "Kepler Universitätsklinikum - Neuromed Campus", "latitude": 48.2805058, "longitude": 14.2969815, "source": "osm", "_tags": {"abbreviation": "KUK - NMC", "alt_name": "Nervenklinik Linz;Med Campus V", "amenity": "hospital", "contact:email": "contact.wj@gespag.at", "contact:fax": "+43 5 05546222564", "contact:phone": "+43 5 0554620", "contact:website": "http://www.wagner-jauregg.at", "health_specialty": "stroke_unit", "healthcare": "hospital", "landuse": "healthcare", "name": "Kepler Universitätsklinikum - Neuromed Campus", "name:en": "Psychiatric clinic Wagner-Jauregg", "old_name": "Landesnervenklinik Wagner-Jauregg", "wheelchair": "yes", "wikidata": "Q1802031", "wikipedia": "de:Landes-Nervenklinik Wagner-Jauregg"}}, {"name": "Krankenhaus Sierning", "latitude": 48.0429016, "longitude": 14.3075152, "source": "osm", "_tags": {"addr:city": "Sierning", "addr:country": "AT", "addr:housenumber": "14", "addr:postcode": "4522", "addr:street": "Neustraße", "amenity": "hospital", "at_bev:addr_date": "2016-10-02", "building": "yes", "email": "office@khs.kreuzschwestern.at", "emergency": "no", "healthcare": "rehabilitation", "name": "Krankenhaus Sierning", "operator": "Kreuzschwestern Sierning GmbH", "operator:type": "religious", "phone": "+43 7259 21420", "website": "https://khs.kreuzschwestern.at/de/krankenhaus-sierning/home"}}, {"name": "Krankenhaus der Elisabethinen Linz", "latitude": 48.3048576, "longitude": 14.2941354, "source": "osm", "_tags": {"alt_name": "Ordensklinikum Linz", "amenity": "hospital", "contact:email": "krankenhaus@elisabethinen.or.at", "contact:fax": "+43 732 76762106", "contact:phone": "+43 732 76760", "contact:website": "http://www.elisabethinen.or.at", "healthcare": "hospital", "healthcare:speciality": "emergency", "landuse": "healthcare", "name": "Krankenhaus der Elisabethinen Linz", "operator": "Ordensklinikum Linz GmbH", "toilets:wheelchair": "yes", "wheelchair": "yes"}}, {"name": "Kepler Universitätsklinikum - Med Campus III", "latitude": 48.3037607, "longitude": 14.3043181, "source": "osm", "_tags": {"abbreviation": "KUK - MC III", "amenity": "hospital", "contact:fax": "+43 732 78061325", "contact:phone": "+43 732 78060", "contact:website": "https://www.kepleruniklinikum.at/", "health_specialty": "stroke_unit", "healthcare": "hospital", "healthcare:speciality": "trauma;cardiology;emergency;intensive;internal;urology;anaesthetics;surgery", "name": "Kepler Universitätsklinikum - Med Campus III", "name:en": "Kepler University Hospital", "old_name": "Allgemeines Krankenhaus Linz", "old_name:en": "General hospital Linz", "wheelchair": "yes", "wikidata": "Q2648976", "wikipedia": "de:Kepler Universitätsklinikum"}}, {"name": "Unfallkrankenhaus Linz", "latitude": 48.3044714, "longitude": 14.3089276, "source": "osm", "_tags": {"amenity": "hospital", "contact:email": "ULV@auva.at", "contact:fax": "+43 732 69201509", "contact:phone": "+43 732 69200", "contact:website": "http://www.auva.at/ukhlinz", "emergency": "yes", "healthcare": "hospital", "healthcare:speciality": "trauma;emergency", "landuse": "healthcare", "name": "Unfallkrankenhaus Linz", "name:en": "Emergency hospital Linz", "opening_hours": "24/7", "wheelchair": "yes", "wikidata": "Q2493172", "wikipedia": "de:Unfallkrankenhaus Linz"}}, {"name": "Krankenhaus der Barmherzigen Schwestern Linz", "latitude": 48.2991078, "longitude": 14.2885608, "source": "osm", "_tags": {"alt_name": "Ordensklinikum Linz", "amenity": "hospital", "contact:email": "office.linz@bhs.at", "contact:fax": "+43 732 76777200", "contact:phone": "+43 732 76770", "contact:website": "http://www.bhs.at/linz/", "healthcare": "hospital", "healthcare:speciality": "emergency", "landuse": "healthcare", "name": "Krankenhaus der Barmherzigen Schwestern Linz", "toilets:wheelchair": "yes", "wheelchair": "yes", "wikidata": "Q22679063"}}, {"name": "Landesklinikum Waidhofen/Ybbs", "latitude": 47.9528279, "longitude": 14.7884331, "source": "osm", "_tags": {"addr:city": "Waidhofen an der Ybbs", "addr:country": "AT", "addr:housenumber": "112", "addr:postcode": "3340", "addr:street": "Ybbsitzerstraße", "amenity": "hospital", "building": "yes", "building:levels": "5", "contact:phone": "+43 7442 9004-0", "emergency": "yes", "healthcare": "hospital", "healthcare:speciality": "emergency", "name": "Landesklinikum Waidhofen/Ybbs", "operator": "Niederösterreichische Landeskliniken-Holding", "operator:wikidata": "Q1988809", "roof:colour": "grey", "roof:shape": "flat", "source": "bing", "website": "https://waidhofen-ybbs.lknoe.at/"}}, {"name": "Kepler Universitätsklinikum - Med Campus IV", "latitude": 48.3018374, "longitude": 14.30596, "source": "osm", "_tags": {"abbreviation": "KUK - MC IV", "amenity": "hospital", "contact:email": "contact.kk@gespag.at", "contact:fax": "+43 5 05546322204", "contact:phone": "+43 5 0554630", "contact:website": "http://www.frauen-kinderklinik-linz.at", "fixme": "contact:website is not working", "healthcare": "hospital", "name": "Kepler Universitätsklinikum - Med Campus IV", "old_name": "Landes- Frauen- und Kinderklinik Linz", "wheelchair": "yes"}}, {"name": "Diakonissen-Krankenhaus Linz", "latitude": 48.3045013, "longitude": 14.3016032, "source": "osm", "_tags": {"alt_name": "Krankenhaus Diakonissen Linz", "amenity": "hospital", "contact:email": "dkh-linz@diakoniewerk.at", "contact:fax": "+43 732 782079", "contact:phone": "+43 732 76750", "contact:website": "http://www.diakonissen-krankenhaus-linz.at", "emergency": "no", "healthcare": "hospital", "landuse": "healthcare", "name": "Diakonissen-Krankenhaus Linz", "wheelchair": "yes", "wikidata": "Q1208342"}}, {"name": "Pyhrn-Eisenwurzen Klinikum Steyr", "latitude": 48.0447, "longitude": 14.3931338, "source": "osm", "_tags": {"addr:city": "Steyr", "addr:housenumber": "170", "addr:postcode": "4400", "addr:street": "Sierninger Straße", "alt_name": "LKH Steyr", "amenity": "hospital", "email": "contact.sr@ooeg.at", "healthcare": "hospital", "healthcare:speciality": "emergency", "name": "Pyhrn-Eisenwurzen Klinikum Steyr", "operator": "Oberösterreichische Gesundheitsholding", "phone": "+435055466", "website": "https://www.ooeg.at/pek/sr", "wikidata": "Q57338062"}}, {"name": "Bau 0", "latitude": 48.1736147, "longitude": 14.0240903, "source": "osm", "_tags": {"alt_name": "Krankenhaus Wels", "amenity": "hospital", "building": "hospital", "building:levels": "6", "healthcare": "hospital", "layer": "-1", "location": "surface", "name": "Bau 0", "wheelchair": "yes"}}, {"name": "Pyhrn-Eisenwurzen Klinikum Kirchdorf", "latitude": 47.9085451, "longitude": 14.1244277, "source": "osm", "_tags": {"addr:city": "Kirchdorf an der Krems", "addr:country": "AT", "addr:housenumber": "8", "addr:postcode": "4560", "addr:street": "Hausmanningerstraße", "alt_name": "LKH Kirchdorf", "amenity": "hospital", "building": "yes", "email": "contact.ki@ooeg.at", "emergency": "yes", "healthcare": "hospital", "healthcare:speciality": "emergency", "name": "Pyhrn-Eisenwurzen Klinikum Kirchdorf", "operator": "Oberösterreichische Gesundheitsholding", "phone": "05 055467-0", "source": "geoimage.at", "toilets:wheelchair": "yes", "website": "https://www.ooeg.at/pek/ki", "wheelchair": "yes"}}, {"name": "LKH Rottenmann", "latitude": 47.5252873, "longitude": 14.3671184, "source": "osm", "_tags": {"addr:city": "Rottenmann", "addr:country": "AT", "addr:housenumber": "2-4", "addr:place": "Sankt Georgen", "addr:postcode": "8786", "amenity": "hospital", "at_bev:addr_date": "2016-10-02", "building": "hospital", "building:levels": "4", "emergency": "yes", "healthcare": "hospital", "healthcare:speciality": "general", "name": "LKH Rottenmann", "source": "geoimage.at", "wheelchair": "yes"}}, {"name": "Landeskrankenhaus Rottenmann-Bad Aussee, Standort Rottenmann", "latitude": 47.5247349, "longitude": 14.3685137, "source": "osm", "_tags": {"addr:city": "Rottenmann", "addr:country": "AT", "addr:housenumber": "2-4", "addr:postcode": "8786", "addr:street": "Sankt Georgen", "amenity": "hospital", "emergency": "yes", "healthcare": "hospital", "healthcare:speciality": "emergency", "name": "Landeskrankenhaus Rottenmann-Bad Aussee, Standort Rottenmann", "operator": "Steiermärkische Krankenanstaltengesellschaft m.b.H.", "operator:type": "private", "operator:wikidata": "Q15849047", "operator:wikipedia": "de:Steiermärkische Krankenanstaltengesellschaft", "phone": "+43 3614 2431 0", "short_name": "LKH Rottenmann", "toilets:wheelchair": "yes", "website": "https://www.lkh-rottenmann.at/", "wheelchair": "yes"}}, {"name": "Landesklinikum Mauer", "latitude": 48.0920043, "longitude": 14.8056383, "source": "osm", "_tags": {"addr:city": "Mauer bei Amstetten", "addr:country": "AT", "addr:housenumber": "221", "addr:postcode": "3362", "addr:street": "Hausmeninger Straße", "alt_name": "Landesklinikum Mostviertel Amstetten-Mauer", "amenity": "hospital", "email": "office@mauer.lknoe.at", "fax": "+43 7475/9004-499", "healthcare": "hospital", "healthcare:speciality": "psychiatry", "name": "Landesklinikum Mauer", "operator": "Landeskliniken-Holding", "phone": "+43 7475/9004", "website": "https://mauer.lknoe.at/", "wheelchair": "yes", "wikidata": "Q38531810"}}, {"name": "Sonderkrankenanstalt Rehabilitationszentrum Weyer", "latitude": 47.8574169, "longitude": 14.6830704, "source": "osm", "_tags": {"addr:city": "Weyer", "addr:country": "AT", "addr:housenumber": "2", "addr:place": "Mühlein", "addr:postcode": "3335", "amenity": "hospital", "building": "yes", "contact:phone": "+43 7355 86 51-0", "healthcare": "rehabilitation", "name": "Sonderkrankenanstalt Rehabilitationszentrum Weyer", "operator": "PVA - Pensionsversicherungsanstalt", "website": "https://www.pv.at/cdscontent/?contentid=10007.707647&portal=pvaportal"}}, {"name": "Landesklinikum Amstetten", "latitude": 48.1275608, "longitude": 14.8811972, "source": "osm", "_tags": {"addr:city": "Amstetten", "addr:country": "AT", "addr:housenumber": "1", "addr:postcode": "3300", "addr:street": "Krankenhausweg", "amenity": "hospital", "area": "yes", "email": "office@amstetten.lknoe.at", "emergency": "yes", "fax": "+43 7472 9004-499", "health_specialty": "stroke_unit", "healthcare": "hospital", "healthcare:speciality": "emergency", "name": "Landesklinikum Amstetten", "operator": "Niederösterreichische Landeskliniken-Holding", "phone": "+43 7472 9004-0", "short_name": "LK Amstetten", "website": "https://amstetten.lknoe.at/"}}, {"name": "Kepler Univeristätsklinikum - Med Campus V", "latitude": 48.3017763, "longitude": 14.3046855, "source": "osm", "_tags": {"amenity": "hospital", "fixme": "Details about contact, specialities, ... missing", "healthcare": "hospital", "name": "Kepler Univeristätsklinikum - Med Campus V"}}, {"name": "Kepler Universitätsklinikum - Med Campus VI", "latitude": 48.3029179, "longitude": 14.3080925, "source": "osm", "_tags": {"abbreviation": "KUK - MC VI", "amenity": "hospital", "check_date": "2025-07-27", "fixme": "Details about contact, specialities, ... missing", "healthcare": "hospital", "name": "Kepler Universitätsklinikum - Med Campus VI"}}, {"name": "Kepler Universitätsklinikum - Med Campus II", "latitude": 48.3027259, "longitude": 14.3049212, "source": "osm", "_tags": {"alt_name": "Blutzentrale Linz", "alt_name:en": "Blood Transfusion Center Linz", "amenity": "hospital", "healthcare": "hospital", "name": "Kepler Universitätsklinikum - Med Campus II"}}, {"name": "Landeskrankenhaus Rottenmann-Bad Aussee", "latitude": 47.5247349, "longitude": 14.3685137, "source": "osm", "_tags": {"amenity": "hospital", "healthcare": "hospital", "name": "Landeskrankenhaus Rottenmann-Bad Aussee", "operator": "Steiermärkische Krankenanstaltengesellschaft m.b.H.", "operator:type": "private", "operator:wikidata": "Q15849047", "operator:wikipedia": "de:Steiermärkische Krankenanstaltengesellschaft", "type": "site", "website": "https://www.lkh-rottenmann.at/"}}]