[{"name": "Nemocnica Modra n.o.", "latitude": 48.3334989, "longitude": 17.3065452, "source": "osm", "_tags": {"FIXME": "Naozaj nemocnica? Alebo len klinika ci zdravotne stredisko?", "amenity": "hospital", "email": "info@nemocnicamodra.sk", "name": "Nemocnica Modra n.o.", "phone": "+421 33 6902 744", "website": "https://nemocnicamodra.sk/"}}, {"name": "Egészségcentrum", "latitude": 47.4945579, "longitude": 17.8493289, "source": "osm", "_tags": {"amenity": "hospital", "name": "Egészségcentrum"}}, {"name": "Dr. Piróth Endre Mentálhigiénés Otthon", "latitude": 47.645687, "longitude": 17.730706, "source": "osm", "_tags": {"amenity": "hospital", "name": "Dr. Piróth Endre Mentálhigiénés Otthon", "source": "turistautak.hu", "source:date": "2015-01-30", "url": "http://turistautak.hu/poi.php?id=56939"}}, {"name": "Városi kórház", "latitude": 47.594957, "longitude": 17.0242171, "source": "osm", "_tags": {"amenity": "hospital", "healthcare": "hospital", "name": "Városi kórház", "source": "turistautak.hu", "source:date": "2010-05-02", "url": "http://turistautak.hu/poi.php?id=47548", "wheelchair": "yes"}}, {"name": "TETIS s.r.o.", "latitude": 48.0814986, "longitude": 17.2685193, "source": "osm", "_tags": {"amenity": "hospital", "contact:website": "https://www.tetis.sk/", "healthcare": "hospital", "healthcare:speciality": "physiatry", "name": "TETIS s.r.o."}}, {"name": "Patológia", "latitude": 47.8734919, "longitude": 17.269744, "source": "osm", "_tags": {"amenity": "hospital", "healthcare": "hospital", "name": "Patológia"}}, {"name": "AGEL Chronicare", "latitude": 48.1551676, "longitude": 17.1553002, "source": "osm", "_tags": {"amenity": "hospital", "healthcare": "hospital", "healthcare:speciality": "intensive", "name": "AGEL Chronicare", "opening_hours": "Mo-Fr 15:00-17:00; Sa,Su,PH 13:00-17:00", "operator": "AGEL, a.s.", "phone": "+421 902 584 140", "source": "survey", "website": "https://chronicare.agel.sk/"}}, {"name": "Izotópdiagnosztika", "latitude": 47.6719536, "longitude": 17.6495359, "source": "osm", "_tags": {"amenity": "hospital", "healthcare": "hospital", "level": "-1", "name": "Izotópdiagnosztika"}}, {"name": "Univerzitná nemocnica Bratislava - Nemocnica Staré Mesto", "latitude": 48.1511364, "longitude": 17.1167314, "source": "osm", "_tags": {"addr:city": "Bratislava", "addr:country": "SK", "addr:housenumber": "13", "addr:postcode": "813 69", "addr:street": "Mickiewiczova", "addr:streetnumber": "13", "amenity": "hospital", "healthcare": "hospital", "name": "Univerzitná nemocnica Bratislava - Nemocnica Staré Mesto", "old_name": "Fakultná nemocnica - Nemocnica Staré Mesto", "operator": "Univerzitná nemocnica Bratislava", "website": "https://www.unb.sk/nemocnica-stare-mesto/"}}, {"name": "Národný onkologický ústav", "latitude": 48.1718238, "longitude": 17.0894766, "source": "osm", "_tags": {"addr:city": "Bratislava", "addr:country": "SK", "addr:housenumber": "1", "addr:postcode": "833 10", "addr:street": "Klenová", "addr:streetnumber": "1", "amenity": "hospital", "healthcare": "hospital", "healthcare:speciality": "oncology", "name": "Národný onkologický ústav", "website": "https://www.nou.sk/", "wikidata": "Q30531348", "wikipedia": "sk:Národný onkologický ústav"}}, {"name": "Klinik Kittsee", "latitude": 48.0927071, "longitude": 17.0656757, "source": "osm", "_tags": {"addr:city": "Kittsee", "addr:country": "AT", "addr:housenumber": "3", "addr:postcode": "2421", "addr:street": "Hauptplatz", "amenity": "hospital", "building": "yes", "emergency": "yes", "healthcare": "hospital", "healthcare:speciality": "emergency", "name": "Klinik Kittsee", "official_name": "Ladislaus-Batthyány-Strattmann-Krankenhaus", "operator": "Burgenländische Krankenanstalten-Gesellschaft m. b. H.", "website": "https://www.krages.at/", "wikidata": "Q1014859", "wikipedia": "de:Burgenländische Krankenanstalten"}}, {"name": "Petz Aladár Megyei Oktató Kórház - Reumatológiai Osztály", "latitude": 47.687475, "longitude": 17.6267296, "source": "osm", "_tags": {"amenity": "hospital", "building": "yes", "building:levels": "3", "healthcare": "hospital", "name": "Petz Aladár Megyei Oktató Kórház - Reumatológiai Osztály", "note": "Kerekesszekkel az imahaz utca felol", "wheelchair": "yes"}}, {"name": "Medissimo", "latitude": 48.1021344, "longitude": 17.1100059, "source": "osm", "_tags": {"amenity": "hospital", "brand": "ProCare", "name": "Medissimo", "network": "Penta Hospitals", "opening_hours": "Mo-Th 07:00-17:00; Fr 07:00-15:30", "operator": "ProCare", "website": "https://pentahospitals.sk/poliklinika/procare-medissimo/"}}, {"name": "Univerzitná nemocnica Bratislava - Nemocnica sv. Cyrila a Metoda", "latitude": 48.1022873, "longitude": 17.1182968, "source": "osm", "_tags": {"addr:city": "Bratislava", "addr:country": "SK", "addr:housenumber": "11", "addr:postcode": "85107", "addr:street": "Antolská", "addr:streetnumber": "11", "addr:suburb": "Petržalka", "alt_name": "Nemocnica Antolská", "amenity": "hospital", "emergency": "yes", "healthcare": "hospital", "name": "Univerzitná nemocnica Bratislava - Nemocnica sv. Cyrila a Metoda", "operator": "Univerzitná nemocnica Bratislava", "website": "https://www.unb.sk/nemocnica-sv-cyrila-a-metoda/", "wikidata": "Q12778090", "wikipedia": "sk:Univerzitná nemocnica Bratislava – Nemocnica svätého Cyrila a Metoda"}}, {"name": "Univerzitná nemocnica Bratislava – Špecializovaná geriatrická nemocnica", "latitude": 48.1249286, "longitude": 17.2082355, "source": "osm", "_tags": {"addr:city": "Bratislava", "addr:country": "SK", "addr:housenumber": "91", "addr:postcode": "825 56", "addr:street": "Krajinská", "addr:streetnumber": "91", "amenity": "hospital", "fixme": "zistit skutocny areal nemocnice", "healthcare": "hospital", "name": "Univerzitná nemocnica Bratislava – Špecializovaná geriatrická nemocnica", "official_name": "Univerzitná nemocnica Bratislava - Špecializovaná geriatrická nemocnica Podunajské Biskupice", "operator": "Univerzitná nemocnica Bratislava", "source:shape": "guess", "website": "https://www.unb.sk/specializovana-geriatricka-nemocnica-podunajske-biskupice/"}}, {"name": "Nemocnica s poliklinikou Dunajská Streda", "latitude": 47.9981554, "longitude": 17.6088523, "source": "osm", "_tags": {"alt_name": "Nemocnica Dunajská Streda", "amenity": "hospital", "brand": "Penta Hospitals", "name": "Nemocnica s poliklinikou Dunajská Streda", "name:hu": "Kórház és Rendelőintézet Rt.", "network": "Penta Hospitals", "operator": "Nemocnica s poliklinikou Dunajská Streda a.s.", "source:shape": "ZBGIS", "website": "https://pentahospitals.sk/nemocnica/nemocnica-s-poliklinikou-dunajska-streda-s/"}}, {"name": "Univerzitná nemocnica - Nemocnica svätého Michala, a.s.,", "latitude": 48.1463582, "longitude": 17.1181298, "source": "osm", "_tags": {"addr:city": "Bratislava", "addr:country": "SK", "addr:housenumber": "1", "addr:postcode": "811 08", "addr:street": "Satinského", "addr:streetnumber": "1", "amenity": "hospital", "healthcare": "hospital", "name": "Univerzitná nemocnica - Nemocnica svätého Michala, a.s.,", "source": "survey", "website": "https://nsmas.sk/", "wheelchair": "limited", "wikidata": "Q77084363"}}, {"name": "Univerzitná nemocnica Bratislava - Nemocnica akademika L. Dérera - Kramáre", "latitude": 48.1661122, "longitude": 17.0861615, "source": "osm", "_tags": {"addr:housenumber": "5", "addr:postcode": "833 05", "addr:street": "Limbová", "addr:streetnumber": "5", "amenity": "hospital", "healthcare": "hospital", "loc_name": "Nemocnica Kramáre", "name": "Univerzitná nemocnica Bratislava - Nemocnica akademika L. Dérera - Kramáre", "old_name": "Fakultná nemocnica s poliklinikou Bratislava – Nemocnica akademika Ladislava Dérera", "operator": "Univerzitná nemocnica Bratislava", "toilets:wheelchair": "yes", "website": "https://www.unb.sk/nemocnica-akademika-ladislava-derera/", "wheelchair": "yes", "wikidata": "Q16519438", "wikipedia": "sk:Univerzitná nemocnica Bratislava – Nemocnica akademika Ladislava Dérera"}}, {"name": "Univerzitná nemocnica s poliklinikou Milosrdní bratia", "latitude": 48.1459662, "longitude": 17.1110814, "source": "osm", "_tags": {"addr:city": "Bratislava", "addr:country": "SK", "addr:housenumber": "10", "addr:street": "Námestie SNP", "addr:streetnumber": "10", "amenity": "hospital", "healthcare": "hospital", "loc_name": "Milosrdní bratia", "name": "Univerzitná nemocnica s poliklinikou Milosrdní bratia", "name:hu": "Irgalmasok Egyetemi Kórháza és Rendelőintézete", "operator": "Hospitalská rehoľa sv.Jána z Boha - Milosrdní bratia", "website": "https://www.milosrdni.eu/site/bratislava/home"}}, {"name": "Univerzitná nemocnica Bratislava – Nemocnica Ružinov", "latitude": 48.1548236, "longitude": 17.1517175, "source": "osm", "_tags": {"amenity": "hospital", "healthcare": "hospital", "name": "Univerzitná nemocnica Bratislava – Nemocnica Ružinov", "old_name": "Nemocnica s poliklinikou Ružinov", "operator": "Univerzitná nemocnica Bratislava", "toilets:wheelchair": "yes", "website": "https://www.unb.sk/nemocnica-ruzinov/", "wheelchair": "yes", "wikidata": "Q12778089", "wikipedia": "sk:Univerzitná nemocnica Bratislava – Nemocnica Ružinov"}}, {"name": "Onkologický ústav sv. Alžbety, s.r.o.", "latitude": 48.1466452, "longitude": 17.1130925, "source": "osm", "_tags": {"addr:city": "Bratislava", "addr:country": "SK", "addr:housenumber": "10", "addr:postcode": "812 50", "addr:street": "Heydukova", "amenity": "hospital", "healthcare": "hospital", "name": "Onkologický ústav sv. Alžbety, s.r.o.", "name:hu": "Szent Erzsébet Onkológiai Intézet", "toilets:wheelchair": "yes", "website": "http://www.ousa.sk", "wheelchair": "yes"}}, {"name": "Margit Kórház", "latitude": 47.6104011, "longitude": 17.2463836, "source": "osm", "_tags": {"addr:city": "Csorna", "addr:housenumber": "46", "addr:postcode": "9300", "addr:street": "Soproni út", "amenity": "hospital", "healthcare": "hospital", "name": "Margit Kórház", "website": "https://www.margitkorhaz.hu/", "wheelchair": "yes"}}, {"name": "Karolina Kórház", "latitude": 47.8732557, "longitude": 17.2701053, "source": "osm", "_tags": {"amenity": "hospital", "healthcare": "hospital", "name": "Karolina Kórház"}}, {"name": "Nemocnica s poliklinikou Sv. Lukáša Galanta", "latitude": 48.1956826, "longitude": 17.7212536, "source": "osm", "_tags": {"addr:city": "Galanta", "addr:conscriptionnumber": "373", "addr:country": "SK", "addr:housenumber": "373/38", "addr:postcode": "924 22", "addr:street": "Hodská", "addr:streetnumber": "38", "alt_name": "Nemocnica Galanta", "amenity": "hospital", "brand": "Penta Hospitals", "contact:website": "https://pentahospitals.sk/nemocnica/nemocnica-galanta/", "name": "Nemocnica s poliklinikou Sv. Lukáša Galanta", "network": "Penta Hospitals", "old_name": "Nemocnica Svet zdravia Galanta", "operator": "Nemocnica s poliklinikou Sv. Lukáša Galanta, a. s."}}, {"name": "Petz Aladár Megyei Oktató Kórház Pszichiátriai, Mentálhigiénés és Addiktológiai Osztály", "latitude": 47.5157881, "longitude": 17.5162003, "source": "osm", "_tags": {"addr:city": "Tét", "addr:housenumber": "10", "addr:postcode": "9100", "addr:street": "Győri út", "amenity": "hospital", "building": "yes", "name": "Petz Aladár Megyei Oktató Kórház Pszichiátriai, Mentálhigiénés és Addiktológiai Osztály", "phone": "+36 96 461 566"}}, {"name": "Nemocnica Bory", "latitude": 48.2081862, "longitude": 17.031438, "source": "osm", "_tags": {"amenity": "hospital", "brand": "Penta Hospitals", "brand:wikidata": "Q96137636", "healthcare": "hospital", "name": "Nemocnica Bory", "network": "Penta Hospitals", "operator": "Svet Zdravia Development", "operator:type": "private", "website": "https://nemocnica-bory.sk/", "wheelchair": "yes"}}, {"name": "Národný ústav detských chorôb", "latitude": 48.1666836, "longitude": 17.0907623, "source": "osm", "_tags": {"addr:housenumber": "1", "addr:postcode": "833 40", "addr:street": "Limbová", "addr:streetnumber": "1", "amenity": "hospital", "healthcare": "hospital", "loc_name": "Detská nemocnica Kramáre", "name": "Národný ústav detských chorôb", "old_name": "Detská fakultná nemocnica s poliklinikou Kramáre", "short_name": "NÚDCH", "toilets:wheelchair": "yes", "website": "http://www.dfnsp.sk/", "wheelchair": "yes", "wikidata": "Q50737502", "wikipedia": "sk:Národný ústav detských chorôb"}}, {"name": "Psychiatrická nemocnica Philippa Pinela Pezinok", "latitude": 48.3159308, "longitude": 17.2523591, "source": "osm", "_tags": {"amenity": "hospital", "contact:website": "https://www.pnpp.sk/", "healthcare": "hospital", "name": "Psychiatrická nemocnica Philippa Pinela Pezinok", "wikidata": "Q61951440", "wikipedia": "sk:Psychiatrická nemocnica Philippa Pinela"}}, {"name": "Špecializovaná nemocnica pre ortopedickú protetiku Bratislava, n. o.", "latitude": 48.1537806, "longitude": 17.1299833, "source": "osm", "_tags": {"addr:city": "Bratislava", "addr:conscriptionnumber": "4880", "addr:country": "SK", "addr:housenumber": "4880/42", "addr:postcode": "821 08", "addr:street": "Záhradnícka", "addr:streetnumber": "42", "addr:suburb": "Ružinov", "amenity": "hospital", "building": "hospital", "building:levels": "4", "healthcare": "hospital", "healthcare:speciality": "orthopaedics", "name": "Špecializovaná nemocnica pre ortopedickú protetiku Bratislava, n. o.", "ref:minvskaddress": "6055687", "roof:shape": "flat", "short_name": "ŠNOP", "source": "kapor2", "source:addr": "minvskaddress 2021-10", "website": "https://www.snop.sk/"}}, {"name": "Landesklinikum Hainburg", "latitude": 48.1433719, "longitude": 16.9578668, "source": "osm", "_tags": {"addr:city": "Hainburg an der Donau", "addr:housenumber": "70", "addr:postcode": "2410", "addr:street": "Hofmeisterstraße", "amenity": "hospital", "healthcare": "hospital", "healthcare:speciality": "emergency", "name": "Landesklinikum Hainburg", "operator": "Niederösterreichische Landeskliniken-Holding"}}, {"name": "Petz Aladár Megyei Oktató Kórház", "latitude": 47.672161, "longitude": 17.6489274, "source": "osm", "_tags": {"amenity": "hospital", "emergency": "yes", "healthcare": "hospital", "name": "Petz Aladár Megyei Oktató Kórház", "type": "multipolygon"}}, {"name": "Národný ústav srdcových a cievnych chorôb", "latitude": 48.1701248, "longitude": 17.0861557, "source": "osm", "_tags": {"amenity": "hospital", "healthcare": "hospital", "healthcare:speciality": "cardiology", "name": "Národný ústav srdcových a cievnych chorôb", "short_name": "NÚSCH", "type": "multipolygon", "website": "https://www.nusch.sk/", "wikidata": "Q30282088"}}, {"name": "Fakultná nemocnica Trnava", "latitude": 48.3683731, "longitude": 17.5918977, "source": "osm", "_tags": {"amenity": "hospital", "email": "fntt@fntt.sk", "emergency": "yes", "healthcare": "hospital", "name": "Fakultná nemocnica Trnava", "name:en": "Trnava University Hospital", "phone": "+421 335 938 111", "type": "multipolygon", "website": "https://www.fntt.sk/", "wikidata": "Q43896603"}}, {"name": "", "latitude": 47.6677154, "longitude": 17.6488837, "source": "osm", "_tags": {"amenity": "hospital", "type": "multipolygon"}}]