[{"name": "Fachklinik Lindenberg-Ried", "latitude": 47.5891154, "longitude": 9.8845632, "source": "osm", "_tags": {"amenity": "hospital", "emergency": "no", "healthcare": "hospital", "name": "Fachklinik Lindenberg-Ried"}}, {"name": "Kurklinik Mayenbad", "latitude": 47.9162172, "longitude": 9.762232, "source": "osm", "_tags": {"amenity": "hospital", "healthcare": "hospital", "name": "Kurklinik Mayenbad"}}, {"name": "Kurklinik Elisabethenbad", "latitude": 47.9149929, "longitude": 9.762499, "source": "osm", "_tags": {"amenity": "hospital", "healthcare": "hospital", "name": "Kurklinik Elisabethenbad"}}, {"name": "Heilig-Geist-Spital", "latitude": 47.7811065, "longitude": 9.6094139, "source": "osm", "_tags": {"amenity": "hospital", "emergency": "no", "healthcare": "hospital", "name": "Heilig-Geist-Spital", "website": "https://www.spital-ravensburg.de/", "wheelchair": "yes", "wikidata": "Q34355079"}}, {"name": "Sinova Klinik", "latitude": 47.7863565, "longitude": 9.623197, "source": "osm", "_tags": {"addr:city": "Ravensburg", "addr:housenumber": "14", "addr:postcode": "88212", "addr:street": "Nikolausstraße", "amenity": "hospital", "healthcare": "hospital", "name": "Sinova Klinik", "operator": "Sinova", "phone": "+49 751 35530"}}, {"name": "Venenklinik Blaustein", "latitude": 48.4143527, "longitude": 9.9194344, "source": "osm", "_tags": {"amenity": "hospital", "check_date": "2024-05-21", "designation": "Praxis für Phlebologie", "emergency": "no", "healthcare": "hospital", "name": "Venenklinik Blaustein", "source": "www.venenklinik-blaustein.de"}}, {"name": "Dialysezentrum Sigmaringen", "latitude": 48.0982819, "longitude": 9.2337831, "source": "osm", "_tags": {"addr:city": "Sigmaringen", "addr:housenumber": "8", "addr:postcode": "72488", "addr:street": "Achbergstraße", "amenity": "hospital", "name": "Dialysezentrum Sigmaringen", "toilets:wheelchair": "yes", "website": "https://www.dtz-gmbh.de/de/standorte/sigmaringen.html", "wheelchair": "yes"}}, {"name": "Tagesklinik", "latitude": 47.7866185, "longitude": 9.623219, "source": "osm", "_tags": {"addr:city": "Ravensburg", "addr:housenumber": "14", "addr:postcode": "88212", "addr:street": "Nikolausstraße", "amenity": "hospital", "healthcare": "hospital", "name": "Tagesklinik", "operator": "Sinova"}}, {"name": "Akutklinik Bad Saulgau", "latitude": 48.0136402, "longitude": 9.4828454, "source": "osm", "_tags": {"addr:city": "Bad Saulgau", "addr:country": "DE", "addr:housenumber": "9", "addr:postcode": "88348", "addr:street": "Am Schönen Moos", "amenity": "hospital", "healthcare": "hospital", "name": "Akutklinik Bad Saulgau", "website": "https://www.akutklinik-badsaulgau.de/"}}, {"name": "Schlossklinik Bad Buchau", "latitude": 48.0677469, "longitude": 9.6109477, "source": "osm", "_tags": {"addr:city": "Bad Buchau", "addr:country": "DE", "addr:housenumber": "2", "addr:postcode": "88422", "addr:street": "Schloßplatz", "amenity": "hospital", "healthcare": "rehabilitation", "name": "Schlossklinik Bad Buchau", "website": "https://schlossklinik-buchau.de/"}}, {"name": "Pforte", "latitude": 47.7639917, "longitude": 9.5978102, "source": "osm", "_tags": {"amenity": "hospital", "contact:email": "poststelle@sfk-weissenau.schule.bwl.de", "contact:fax": "+49 751 7601-2057", "contact:phone": "+49 751 7601-2460", "contact:website": "http://www.sfk-weissenau.de", "healthcare": "hospital", "name": "Pforte"}}, {"name": "Luisenklinik - Ast. Radolfzell", "latitude": 47.7370726, "longitude": 8.9771061, "source": "osm", "_tags": {"amenity": "hospital", "contact:email": "tkradolfzell@luisenklinik.de", "contact:phone": "+49 7732 30276-0", "contact:website": "https://www.luisenklinik.de/startseite.html", "description": "Tagesklinik für Kinder- und Jugendpsychiatrie", "healthcare": "hospital", "name": "Luisenklinik - Ast. Radolfzell"}}, {"name": "Klinik Tettnang", "latitude": 47.672512, "longitude": 9.5979795, "source": "osm", "_tags": {"addr:city": "Tettnang", "addr:country": "DE", "addr:housenumber": "16", "addr:postcode": "88069", "addr:street": "Emil-Münch-Straße", "amenity": "hospital", "building": "yes", "building:levels": "4", "email": "INFO.TT@medizincampus.de", "emergency": "yes", "fax": "+49 7542 531178", "healthcare": "hospital", "name": "Klinik Tettnang", "operator": "Klinik Tettnang GmbH", "phone": "+49 7542 5310", "toilets:wheelchair": "yes", "website": "https://www.medizin-campus-bodensee.de/ueber-uns/standorte/tettnang", "wheelchair": "yes"}}, {"name": "Reha-Klinik Waldburg-Zeil", "latitude": 48.0146174, "longitude": 9.4862966, "source": "osm", "_tags": {"addr:city": "Bad Saulgau", "addr:country": "DE", "addr:housenumber": "18", "addr:postcode": "88348", "addr:street": "Siebenkreuzerweg", "amenity": "hospital", "building": "hospital", "building:levels": "4", "emergency": "no", "name": "Reha-Klinik Waldburg-Zeil", "website": "https://www.rehabilitationsklinik-saulgau.de/"}}, {"name": "Klinik am schönen Moos", "latitude": 48.0142075, "longitude": 9.4844975, "source": "osm", "_tags": {"addr:city": "Bad Saulgau", "addr:country": "DE", "addr:housenumber": "7", "addr:postcode": "88348", "addr:street": "Am Schönen Moos", "amenity": "hospital", "building": "hospital", "healthcare": "hospital", "name": "Klinik am schönen Moos", "source": "Maps4BW ( LGL, www.lgl-bw.de) / Bing"}}, {"name": "St. Elisabethen-Klinikum", "latitude": 47.787999, "longitude": 9.6225671, "source": "osm", "_tags": {"amenity": "hospital", "emergency": "yes", "healthcare": "hospital", "name": "St. Elisabethen-Klinikum", "operator": "Oberschwabenklinik gGmbH", "wheelchair": "yes", "wikidata": "Q1786550", "wikipedia": "de:Krankenhaus St. Elisabeth (Ravensburg)"}}, {"name": "", "latitude": 47.7370496, "longitude": 8.9771302, "source": "osm", "_tags": {"addr:city": "Radolfzell am Bodensee", "addr:country": "DE", "addr:housenumber": "10", "addr:postcode": "78315", "addr:street": "Strandbadstraße", "addr:suburb": "Mettnau", "building": "hospital", "healthcare": "hospital"}}, {"name": "Villa Seehalde", "latitude": 47.7353751, "longitude": 8.9770486, "source": "osm", "_tags": {"addr:city": "Radolfzell am Bodensee", "addr:country": "DE", "addr:housenumber": "14/2", "addr:postcode": "78315", "addr:street": "Scheffelstraße", "addr:suburb": "Mettnau", "building": "hospital", "building:levels": "1", "description:de": "Ehem. Wohnsitz von Joseph Victor v. Scheffel (1", "healthcare": "hospital", "name": "Villa Seehalde", "roof:levels": "1", "roof:shape": "gabled"}}, {"name": "", "latitude": 47.7350428, "longitude": 8.9771996, "source": "osm", "_tags": {"addr:city": "Radolfzell am Bodensee", "addr:country": "DE", "addr:housenumber": "14", "addr:postcode": "78315", "addr:street": "Scheffelstraße", "addr:suburb": "Mettnau", "building": "hospital", "building:levels": "3", "healthcare": "hospital", "roof:levels": "1", "source": "Luftbilder Radolfzell"}}, {"name": "", "latitude": 47.7346527, "longitude": 8.9777173, "source": "osm", "_tags": {"building": "hospital", "healthcare": "hospital"}}, {"name": "Kliniken Schmieder Allensbach", "latitude": 47.715273, "longitude": 9.0834563, "source": "osm", "_tags": {"addr:city": "Allensbach", "addr:country": "DE", "addr:housenumber": "8", "addr:postcode": "78476", "addr:street": "Zum Tafelholz", "amenity": "hospital", "building": "hospital", "healthcare": "hospital", "name": "Kliniken Schmieder Allensbach", "phone": "+49 7533 8080", "website": "https://www.kliniken-schmieder.de/kliniken-und-standorte/allensbach.html", "wheelchair": "yes", "wikidata": "Q1732754", "wikimedia_commons": "Category:Kliniken Schmieder", "wikipedia": "de:Kliniken Schmieder"}}, {"name": "siebenzwerge", "latitude": 47.7591098, "longitude": 9.3553601, "source": "osm", "_tags": {"amenity": "hospital", "check_date": "2024-11-03", "contact:email": "mail@siebenzwerge.info", "contact:phone": "+49 7544 50733", "contact:website": "https://www.siebenzwerge.info", "description": "Fachklinik für Drogenkrankheiten", "emergency": "no", "healthcare": "hospital", "healthcare:speciality": "rehabilitation", "name": "siebenzwerge", "operator": "Kultur-therapeutische Gemeinschaft GmbH"}}, {"name": "", "latitude": 48.2139799, "longitude": 9.0201268, "source": "osm", "_tags": {"addr:city": "Albstadt", "addr:country": "DE", "addr:housenumber": "39", "addr:postcode": "72458", "addr:street": "Friedrichstraße", "addr:suburb": "Ebingen", "building": "hospital", "contact:phone": "+49 7431 9092-0", "contact:website": "http://www.zollernalb-klinikum.de", "emergency": "yes", "healthcare": "hospital", "lastcheck": "2016-01-28", "wheelchair": "yes"}}, {"name": "Seniorenzentrum Horn", "latitude": 47.4949456, "longitude": 9.463187, "source": "osm", "_tags": {"addr:city": "Horn", "addr:country": "CH", "addr:housenumber": "9", "addr:postcode": "9326", "addr:street": "Tübacherstrasse", "amenity": "hospital", "healthcare": "hospital", "healthcare:speciality": "seniorenzentrum;seniorenzentrum_/_pflegeheim", "name": "Seniorenzentrum Horn"}}, {"name": "Birkle Klinik", "latitude": 47.7658686, "longitude": 9.1815241, "source": "osm", "_tags": {"addr:city": "Überlingen", "addr:country": "DE", "addr:housenumber": "55", "addr:postcode": "88662", "addr:street": "Obere Sankt-Leonhard-Straße", "amenity": "hospital", "building": "hospital", "description": "Fachklinik für Innere Medizin und Orthopädie", "fax": "+497551803711", "healthcare": "hospital", "name": "Birkle Klinik", "phone": "+4975518030", "source": "Maps4BW, LGL, www.lgl-bw.de", "website": "https://www.birkle-klinik.de"}}, {"name": "Kantonsspital St. Gallen", "latitude": 47.430683, "longitude": 9.3882991, "source": "osm", "_tags": {"addr:city": "St. Gallen", "addr:housenumber": "95", "addr:postcode": "9007", "addr:street": "Rorschacher Strasse", "amenity": "hospital", "emergency": "yes", "healthcare": "hospital", "healthcare:speciality": "intensive", "name": "Kantonsspital St. Gallen", "phone": "+41 71 494 11 11", "short_name": "KSSG", "toilets:wheelchair": "yes", "website": "https://www.kssg.ch/", "wheelchair": "yes", "wikidata": "Q1728153"}}, {"name": "Klinikum Friedrichshafen", "latitude": 47.6728866, "longitude": 9.4303514, "source": "osm", "_tags": {"addr:city": "Friedrichshafen", "addr:country": "DE", "addr:housenumber": "2", "addr:postcode": "88048", "addr:street": "Röntgenstraße", "alt_name": "Medizin Campus Bodensee", "amenity": "hospital", "emergency": "yes", "fax": "+497541961185", "healthcare": "hospital", "internet_access": "wlan", "name": "Klinikum Friedrichshafen", "operator": "Franz Klöckner", "operator:type": "public", "phone": "+49 7541 96 0", "short_name": "MCB", "start_date": "2005", "toilets:wheelchair": "yes", "website": "https://www.medizin-campus-bodensee.de/", "wheelchair": "yes", "wikidata": "Q1774614", "wikimedia_commons": "Category:Klinikum Friedrichshafen", "wikipedia": "de:Klinikum Friedrichshafen"}}, {"name": "KJP Mariaberg", "latitude": 48.2739922, "longitude": 9.2105992, "source": "osm", "_tags": {"addr:city": "Gammertingen", "addr:housenumber": "12", "addr:postcode": "72501", "addr:street": "Burghaldenstraße", "amenity": "hospital", "building": "yes", "emergency": "no", "healthcare": "hospital", "healthcare:speciality": "psychiatry", "name": "KJP Mariaberg", "operator": "Mariaberg", "website": "https://www.kjp-mariaberg.de/", "wheelchair": "yes"}}, {"name": "Gesundheitszentrum Rorschach", "latitude": 47.4789563, "longitude": 9.5168002, "source": "osm", "_tags": {"addr:city": "Rorschacherberg", "addr:housenumber": "32", "addr:postcode": "9404", "addr:street": "Neuseeland", "amenity": "hospital", "building": "industrial", "building:levels": "3", "email": "gesundheitszentrum.rorschach@h-och.ch", "name": "Gesundheitszentrum Rorschach", "phone": "+41 71 858 31 11", "roof:shape": "gabled", "website": "https://www.h-och.ch/ueber-uns/standorte/rorschach/"}}, {"name": "Psychiatrische Klinik Münsterlingen", "latitude": 47.6341206, "longitude": 9.2310244, "source": "osm", "_tags": {"addr:city": "Münsterlingen", "addr:housenumber": "3", "addr:postcode": "8596", "addr:street": "Seeblickstrasse", "amenity": "hospital", "contact:email": "aaz.pdt@stgag.ch", "contact:phone": "+41 848 41 41 41", "contact:website": "https://www.stgag.ch/fachbereiche/psychiatrische-klinik/psychiatrische-klinik-muensterlingen/", "healthcare": "hospital", "name": "Psychiatrische Klinik Münsterlingen", "short_name": "PKM", "wheelchair": "limited"}}, {"name": "Zentrum für Psychiatrie Reichenau", "latitude": 47.6945646, "longitude": 9.1235823, "source": "osm", "_tags": {"addr:city": "Reichenau", "addr:housenumber": "55", "addr:postcode": "78479", "addr:street": "Feursteinstraße", "amenity": "hospital", "healthcare": "hospital", "name": "Zentrum für Psychiatrie Reichenau", "toilets:wheelchair": "yes", "website": "https://www.zfp-reichenau.de/", "wheelchair": "yes", "wikidata": "Q19312055", "wikipedia": "de:Zentrum für Psychiatrie Reichenau"}}, {"name": "Psychiatrie St.Gallen", "latitude": 47.4674812, "longitude": 9.0374547, "source": "osm", "_tags": {"addr:city": "Wil", "addr:housenumber": "30", "addr:postcode": "9500", "addr:street": "Zürcherstrasse", "amenity": "hospital", "emergency": "no", "healthcare": "hospital", "healthcare:speciality": "psychiatry", "name": "Psychiatrie St.Gallen", "operator": "Psychiatrie St.Gallen", "phone": "+41 71 913 11 11", "website": "https://www.psychiatrie-sg.ch/", "wheelchair": "yes", "wikidata": "Q29787004"}}, {"name": "Clean.Kids", "latitude": 47.7575304, "longitude": 9.5928709, "source": "osm", "_tags": {"addr:city": "Ravensburg", "addr:housenumber": "17/2", "addr:postcode": "88214", "addr:street": "Mariatal", "amenity": "hospital", "building": "yes", "building:levels": "2", "email": "clean.kids@zfp-zentrum.de", "emergency": "no", "fax": "+49 751 7601 2451", "healthcare": "hospital", "healthcare:speciality": "child_psychiatry", "name": "Clean.Kids", "operator": "Zentrum für Psychiatrie Südwürttemberg", "phone": "+49 751 7601 2070", "source": "Bing, 2013-02;local knowledge", "website": "https://www.zfp-web.de/fachgebiete/kinder-und-jugendpsychiatrie/weissenau/cleankids/station/"}}, {"name": "Clean.Kick", "latitude": 47.7572366, "longitude": 9.5927888, "source": "osm", "_tags": {"addr:city": "Ravensburg", "addr:housenumber": "17/2", "addr:postcode": "88214", "addr:street": "Mariatal", "amenity": "hospital", "building": "yes", "building:levels": "2", "email": "clean.kick@zfp-zentrum.de", "emergency": "no", "fax": "+49 751 7601 2451", "healthcare": "hospital", "healthcare:speciality": "child_psychiatry", "name": "Clean.Kick", "operator": "Zentrum für Psychiatrie Südwürttemberg", "phone": "+49 751 7601 2844", "source": "Bing, 2013-02;local knowledge", "website": "https://www.zfp-web.de/fachgebiete/kinder-und-jugendpsychiatrie/weissenau/cleankick/station/"}}, {"name": "", "latitude": 48.402521, "longitude": 9.0127677, "source": "osm", "_tags": {"amenity": "hospital"}}, {"name": "Buchinger Wilhelmi - Fachklinik für Heilfasten", "latitude": 47.7709436, "longitude": 9.14544, "source": "osm", "_tags": {"addr:city": "Überlingen", "addr:country": "DE", "addr:housenumber": "27", "addr:postcode": "88662", "addr:street": "Wilhelm-Beck-Straße", "amenity": "hospital", "healthcare": "hospital", "name": "Buchinger Wilhelmi - Fachklinik für Heilfasten"}}, {"name": "Akutklinik Albstadt", "latitude": 48.2647401, "longitude": 9.020126, "source": "osm", "_tags": {"addr:city": "Albstadt", "addr:country": "DE", "addr:housenumber": "64", "addr:postcode": "72461", "addr:street": "Unter Nank", "addr:suburb": "Tailfingen", "amenity": "hospital", "building": "yes", "healthcare": "hospital", "healthcare:speciality": "psychiatry", "name": "Akutklinik Albstadt", "operator": "CuraMed", "source": "Maps4BW, LGL, www.lgl-bw.de, survey", "website": "https://www.akutklinik-albstadt.de/"}}, {"name": "Oberwaid Hotel & Klink", "latitude": 47.4512529, "longitude": 9.4198354, "source": "osm", "_tags": {"addr:city": "St. Gallen", "addr:housenumber": "311", "addr:postcode": "9016", "addr:street": "Rorschacher Strasse", "amenity": "hospital", "building": "yes", "email": "info@oberweid.ch", "emergency": "no", "healthcare": "hospital", "internet_access": "yes", "name": "Oberwaid Hotel & Klink", "operator": "Oberweid AG", "operator:type": "private", "phone": "+41 71 282 00 00", "tourism": "hotel", "website": "https://oberwaid.ch/"}}, {"name": "Kreiskrankenhaus Ehingen", "latitude": 48.2797875, "longitude": 9.7187551, "source": "osm", "_tags": {"amenity": "hospital", "healthcare": "hospital", "name": "Kreiskrankenhaus Ehingen", "wheelchair": "yes"}}, {"name": "ACURA Kliniken Albstadt GmbH", "latitude": 48.2371761, "longitude": 9.0342015, "source": "osm", "_tags": {"addr:city": "Albstadt", "addr:country": "DE", "addr:housenumber": "26", "addr:postcode": "72461", "addr:street": "Robert-Koch-Straße", "addr:suburb": "Truchtelfingen", "amenity": "hospital", "building": "yes", "healthcare": "hospital", "name": "ACURA Kliniken Albstadt GmbH", "operator": "ACURA Kliniken", "wheelchair": "yes"}}, {"name": "", "latitude": 47.4445743, "longitude": 9.1411384, "source": "osm", "_tags": {"amenity": "hospital", "healthcare": "hospital"}}, {"name": "Krankenhaus Stockach", "latitude": 47.8533142, "longitude": 9.0094838, "source": "osm", "_tags": {"addr:city": "Stockach", "addr:country": "DE", "addr:housename": "Krankenhaus Stockach GmbH", "addr:housenumber": "10", "addr:postcode": "78333", "addr:street": "Am Stadtgarten", "amenity": "hospital", "building": "hospital", "emergency": "yes", "healthcare": "hospital", "name": "Krankenhaus Stockach", "operator": "Krankenhaus Stockach GmbH", "phone": "+4977718030", "website": "https://www.krankenhaus-stockach.de/", "wikidata": "Q126483667"}}, {"name": "Zentrum für Psychatrie Weißenau", "latitude": 47.7615983, "longitude": 9.5995499, "source": "osm", "_tags": {"addr:city": "Ravensburg", "addr:housenumber": "2", "addr:postcode": "88214", "addr:street": "Weingartshofer Straße", "amenity": "hospital", "healthcare": "hospital", "healthcare:speciality": "psychiatry", "name": "Zentrum für Psychatrie Weißenau"}}, {"name": "Klinik Wollmarshöhe", "latitude": 47.7196883, "longitude": 9.6750646, "source": "osm", "_tags": {"amenity": "hospital", "healthcare": "hospital", "healthcare:speciality": "psychosomatic", "name": "Klinik Wollmarshöhe", "operator": "Klinik Wollmarshöhe GmbH", "website": "https://www.wollmarshoehe.de/"}}, {"name": "Klinik Maximilian", "latitude": 47.5773838, "longitude": 9.8610689, "source": "osm", "_tags": {"amenity": "hospital", "healthcare": "hospital", "name": "Klinik Maximilian", "website": "https://www.klinik-maximilian.de", "wheelchair": "yes"}}, {"name": "Kantonsspital Münsterlingen", "latitude": 47.6300701, "longitude": 9.2358445, "source": "osm", "_tags": {"addr:city": "Münsterlingen", "addr:country": "CH", "addr:housenumber": "1", "addr:place": "Spitalcampus", "addr:postcode": "8596", "amenity": "hospital", "emergency": "yes", "healthcare": "hospital", "healthcare:speciality": "intensive", "name": "Kantonsspital Münsterlingen", "phone": "+41 71 686 11 11", "short_name": "KSM", "website": "https://www.stgag.ch/patienten-besucher/kantonsspital-muensterlingen/besuchszeiten/", "wikidata": "Q30260513", "wikimedia_commons": "Category:Kantonsspital Münsterlingen", "wikipedia": "de:Kantonsspital Münsterlingen"}}, {"name": "Ostschweizer Kinderspital St. Gallen", "latitude": 47.4298355, "longitude": 9.3938903, "source": "osm", "_tags": {"addr:city": "St. Gallen", "addr:housenumber": "6", "addr:postcode": "9006", "addr:street": "Claudiusstrasse", "amenity": "hospital", "description": "Spezialized on children's hospitalization.", "emergency": "yes", "healthcare": "hospital", "healthcare:speciality": "intensive", "name": "Ostschweizer Kinderspital St. Gallen", "phone": "+41 71 243 71 11", "short_name": "Kispi SG", "source": "bing", "website": "https://www.kispisg.ch/de", "wheelchair": "yes", "wikidata": "Q30279877"}}, {"name": "Geriatrische Klinik St. Gallen", "latitude": 47.4287761, "longitude": 9.3891044, "source": "osm", "_tags": {"addr:city": "St. Gallen", "addr:country": "CH", "addr:housenumber": "94", "addr:postcode": "9000", "addr:street": "Rorschacher Strasse", "alt_name": "Rehazentrum St. Gallen", "amenity": "hospital", "description": "Geriatrie", "emergency": "no", "healthcare": "hospital", "name": "Geriatrische Klinik St. Gallen", "phone": "+41 71 243 81 11", "website": "https://geriatrie-sg.ch/"}}, {"name": "Spital Wil", "latitude": 47.4653191, "longitude": 9.0579104, "source": "osm", "_tags": {"addr:city": "Wil (SG)", "addr:housenumber": "32", "addr:postcode": "9500", "addr:street": "Fürstenlandstrasse", "amenity": "hospital", "emergency": "yes", "healthcare": "hospital", "healthcare:speciality": "internal;gynaecology;emergency;surgery;orthopaedics;trauma;geriatrics;anaesthetics", "name": "Spital Wil", "operator": "Spitalregion Fürstenland Toggenburg", "phone": "+41 71 914 61 11", "website": "https://www.srft.ch/"}}, {"name": "Hirslanden Klinik am Rosenberg", "latitude": 47.4463911, "longitude": 9.52702, "source": "osm", "_tags": {"amenity": "hospital", "healthcare": "hospital", "name": "Hirslanden Klinik am Rosenberg", "phone": "+41 71 898 52 52", "website": "https://www.hirslanden.ch/global/de/startseite/kliniken_zentren/klinik_am_rosenberg.html", "wikidata": "Q23783920", "wikipedia": "de:Klinik Am Rosenberg"}}, {"name": "Medizinisches Ambulatorium", "latitude": 47.4425154, "longitude": 9.5315038, "source": "osm", "_tags": {"addr:city": "Heiden", "addr:country": "CH", "addr:housenumber": "1a", "addr:postcode": "9410", "addr:street": "Werdstrasse", "amenity": "hospital", "emergency": "yes", "healthcare": "hospital", "name": "Medizinisches Ambulatorium", "operator": "Spitalverbund Appenzell-Ausserrhoden", "phone": "+41 71 898 61 11", "short_name": "KSH", "source": "Bing", "website": "https://www.spitalverbund.ch/angebote-heiden-herisau/home-spital-heiden/", "wheelchair": "yes"}}, {"name": "Klinik Stephanshorn", "latitude": 47.4463812, "longitude": 9.4123366, "source": "osm", "_tags": {"amenity": "hospital", "emergency": "yes", "healthcare": "hospital", "healthcare:speciality": "intensive", "name": "Klinik Stephanshorn", "phone": "+41 71 282 71 11", "website": "https://www.stephanshorn.ch/", "wikidata": "Q23783916"}}, {"name": "Clienia Littenheid", "latitude": 47.4405264, "longitude": 9.0079695, "source": "osm", "_tags": {"addr:city": "Littenheid", "addr:country": "CH", "addr:housenumber": "130", "addr:postcode": "9573", "addr:street": "Hauptstrasse", "amenity": "hospital", "healthcare": "hospital", "healthcare:speciality": "psychiatry", "name": "Clienia Littenheid", "operator": "Clienia Littenheid AG", "phone": "+41 71 929 60 60", "website": "https://www.clienia.ch/de/standorte/standorte-stationaer/thurgau/littenheid", "wheelchair": "yes"}}, {"name": "Klinikum Konstanz, Haus 2", "latitude": 47.6723304, "longitude": 9.1878288, "source": "osm", "_tags": {"building:levels": "7", "building:material": "metal", "building:part": "yes", "check_date": "2024-04-26", "emergency": "yes", "healthcare": "hospital", "name": "Klinikum Konstanz, Haus 2", "roof:material": "metal", "roof:shape": "flat", "source": "Bing", "wheelchair": "yes"}}, {"name": "Klinikum Konstanz, Haus 2", "latitude": 47.6728512, "longitude": 9.1884265, "source": "osm", "_tags": {"addr:city": "Konstanz", "addr:country": "DE", "addr:housenumber": "7", "addr:postcode": "78464", "addr:street": "Luisenstraße", "amenity": "hospital", "building": "hospital", "check_date": "2024-04-26", "emergency": "yes", "healthcare": "hospital", "name": "Klinikum Konstanz, Haus 2", "source": "Bing", "wheelchair": "yes"}}, {"name": "Klinikum Konstanz, Haus 1 / Vincentius Krankenhaus", "latitude": 47.6719114, "longitude": 9.1883742, "source": "osm", "_tags": {"addr:city": "Konstanz", "addr:country": "DE", "addr:housenumber": "35", "addr:postcode": "78464", "addr:street": "Mainaustraße", "amenity": "clinic", "building": "hospital", "healthcare": "hospital", "name": "Klinikum Konstanz, Haus 1 / Vincentius Krankenhaus", "opening_hours": "24/7", "roof:shape": "flat"}}, {"name": "Herz-Zentrum Bodensee", "latitude": 47.6717495, "longitude": 9.1859157, "source": "osm", "_tags": {"addr:city": "Konstanz", "addr:country": "DE", "addr:housenumber": "9a", "addr:postcode": "78464", "addr:street": "Luisenstraße", "addr:suburb": "Petershausen-Ost", "amenity": "hospital", "building": "yes", "email": "info@herz-zentrum.com", "emergency": "no", "fax": "+49 7531 897523", "healthcare": "hospital", "name": "Herz-Zentrum Bodensee", "phone": "+49 7531 8970", "url": "http://www.herz-zentrum.com", "wheelchair": "yes", "wikidata": "Q126391201"}}, {"name": "Oberberg Fachklinik", "latitude": 47.5751938, "longitude": 9.8586626, "source": "osm", "_tags": {"amenity": "hospital", "healthcare": "hospital", "name": "Oberberg Fachklinik", "website": "https://www.oberbergkliniken.de/scheidegg-im-allgaeu"}}, {"name": "Panorama Fachklinik", "latitude": 47.5741787, "longitude": 9.8587288, "source": "osm", "_tags": {"amenity": "hospital", "healthcare": "hospital", "name": "Panorama Fachklinik", "website": "https://www.panorama-fachklinik.de"}}, {"name": "", "latitude": 47.5760728, "longitude": 9.8596245, "source": "osm", "_tags": {"amenity": "hospital", "healthcare": "hospital"}}, {"name": "Fachkliniken Wangen", "latitude": 47.6988406, "longitude": 9.8361987, "source": "osm", "_tags": {"addr:city": "Wangen im Allgäu", "addr:country": "DE", "addr:housenumber": "14", "addr:postcode": "88239", "addr:street": "Am Vogelherd", "amenity": "hospital", "check_date": "2024-05-19", "healthcare": "hospital", "name": "Fachkliniken Wangen", "operator": "Waldburg-Zeil Kliniken"}}, {"name": "Psychosomatisches Zentrum Aulendorf", "latitude": 47.9533587, "longitude": 9.6346461, "source": "osm", "_tags": {"addr:city": "Aulendorf", "addr:housenumber": "5", "addr:postcode": "88326", "addr:street": "Safranmoosstraße", "amenity": "hospital", "contact:phone": "+49 7525 9320", "contact:website": "http://www.schussental-klinik.de/", "emergency": "no", "name": "Psychosomatisches Zentrum Aulendorf", "wheelchair": "yes"}}, {"name": "Klinik im Hofgarten", "latitude": 47.9212744, "longitude": 9.750041, "source": "osm", "_tags": {"addr:city": "Bad Waldsee", "addr:country": "DE", "addr:housenumber": "1", "addr:postcode": "88339", "addr:street": "Am Hofgarten", "amenity": "hospital", "designation": "Reha", "healthcare": "hospital", "name": "Klinik im Hofgarten", "note": "Fachklinik für Orthopädie und Sportmedizin", "source": "http://www.klinik-im-hofgarten.de/", "toilets:wheelchair": "yes", "wheelchair": "yes"}}, {"name": "SRH Krankenhaus Pfullendorf", "latitude": 47.9252713, "longitude": 9.2606862, "source": "osm", "_tags": {"addr:city": "Pfullendorf", "addr:country": "DE", "addr:housenumber": "2/1", "addr:postcode": "88630", "addr:street": "Zum Eichberg", "amenity": "hospital", "name": "SRH Krankenhaus Pfullendorf"}}, {"name": "Kreiskrankenhaus Sigmaringen", "latitude": 48.0964273, "longitude": 9.2256124, "source": "osm", "_tags": {"addr:city": "Sigmaringen", "addr:country": "DE", "addr:housenumber": "40", "addr:postcode": "72488", "addr:street": "Hohenzollernstraße", "alt_name": "SRH Krankenhaus Sigmaringen", "amenity": "hospital", "emergency": "yes", "name": "Kreiskrankenhaus Sigmaringen", "phone": "+49 7531 100-0", "toilets:wheelchair": "yes", "website": "http://www.klksig.de/", "wheelchair": "yes"}}, {"name": "Fachklinik Höchsten", "latitude": 48.0114444, "longitude": 9.4778903, "source": "osm", "_tags": {"addr:city": "Bad Saulgau", "addr:country": "DE", "addr:housenumber": "1", "addr:postcode": "88348", "addr:street": "Sonnenhof", "amenity": "hospital", "name": "Fachklinik Höchsten"}}, {"name": "Nova-Clinic", "latitude": 48.0854674, "longitude": 9.7942257, "source": "osm", "_tags": {"addr:city": "Biberach an der Riß", "addr:housenumber": "5", "addr:postcode": "88400", "addr:street": "Eichendorffweg", "amenity": "hospital", "check_date": "2025-09-22", "healthcare": "hospital", "name": "Nova-Clinic"}}, {"name": "Albklinik Münsingen", "latitude": 48.4046356, "longitude": 9.4896202, "source": "osm", "_tags": {"addr:city": "Münsingen", "addr:country": "DE", "addr:housenumber": "47", "addr:postcode": "72525", "addr:street": "Lautertalstraße", "amenity": "hospital", "name": "Albklinik Münsingen", "wheelchair": "yes"}}, {"name": "Alb-Donau Klinikum", "latitude": 48.4085475, "longitude": 9.7895466, "source": "osm", "_tags": {"addr:city": "Blaubeuren", "addr:country": "DE", "addr:housenumber": "26", "addr:postcode": "89143", "addr:street": "Ulmer Straße", "alt_name": "Gesundheitszentrum Blaubeuren", "amenity": "hospital", "healthcare": "hospital", "name": "Alb-Donau Klinikum", "old_name": "Kreiskrankenhaus Blaubeuren"}}, {"name": "Zollernalbklinikum Ebingen", "latitude": 48.2140524, "longitude": 9.0202833, "source": "osm", "_tags": {"addr:city": "Albstadt", "addr:country": "DE", "addr:housenumber": "39", "addr:postcode": "72458", "addr:street": "Friedrichstraße", "alt_name": "Zollernalb Klinikum Albstadt", "amenity": "hospital", "healthcare": "hospital", "name": "Zollernalbklinikum Ebingen"}}, {"name": "Helios Spital Überlingen", "latitude": 47.7747866, "longitude": 9.1506508, "source": "osm", "_tags": {"addr:city": "Überlingen", "addr:country": "DE", "addr:housenumber": "1", "addr:postcode": "88662", "addr:street": "Härlenweg", "amenity": "hospital", "healthcare": "hospital", "name": "Helios Spital Überlingen", "operator": "Helios Kliniken", "operator:wikidata": "Q1254151", "website": "https://www.helios-gesundheit.de/kliniken/ueberlingen/"}}, {"name": "Oberschwabenklinik Wangen", "latitude": 47.6941254, "longitude": 9.8443755, "source": "osm", "_tags": {"addr:city": "Wangen im Allgäu", "addr:country": "DE", "addr:housenumber": "29", "addr:postcode": "88239", "addr:street": "Am Engelberg", "amenity": "hospital", "healthcare": "hospital", "name": "Oberschwabenklinik Wangen"}}, {"name": "Asklepios Klinik Lindau", "latitude": 47.5634767, "longitude": 9.6836747, "source": "osm", "_tags": {"amenity": "hospital", "name": "Asklepios Klinik Lindau", "wheelchair": "yes"}}, {"name": "PHY-Dialysezentrum", "latitude": 48.1108998, "longitude": 9.7793718, "source": "osm", "_tags": {"addr:city": "Biberach an der Riß", "addr:housenumber": "1", "addr:postcode": "88400", "addr:street": "Paracelsusweg", "amenity": "hospital", "building": "yes", "building:levels": "3", "contact:email": "biberach@phv-dialyse.de", "contact:fax": "+49 7351 5878629", "contact:phone": "+49 7351 587860", "contact:website": "https://www.phv-dialyse.de/biberach", "healthcare": "dialysis", "name": "PHY-Dialysezentrum", "opening_hours": "Mo,We,Fr 06:00-20:30; Tu,Th,Sa 06:00-14:00; Su,PH off", "operator": "Patienten-Heimversorgung Gemeinnützige Stiftung"}}, {"name": "Rehaklinik Dussnang AG", "latitude": 47.4305081, "longitude": 8.9638854, "source": "osm", "_tags": {"addr:city": "Dussnang", "addr:housenumber": "34", "addr:postcode": "8374", "addr:street": "Kurhausstrasse", "amenity": "hospital", "contact:phone": "+41 71 978 63 63", "healthcare": "hospital", "name": "Rehaklinik Dussnang AG"}}, {"name": "Fachklinik Ringgenhof", "latitude": 47.8746658, "longitude": 9.4302607, "source": "osm", "_tags": {"addr:city": "Wilhelmsdorf", "addr:housenumber": "61", "addr:postcode": "88271", "addr:street": "Riedhauser Straße", "amenity": "hospital", "description": "Fachklinik für Suchthilfe", "healthcare": "hospital", "name": "Fachklinik Ringgenhof", "operator": "Die Zieglerschen", "operator:type": "private", "phone": "+4975039200", "website": "https://www.zieglersche.de/ringgenhof"}}, {"name": "Bodenseeklinik", "latitude": 47.5453039, "longitude": 9.6778559, "source": "osm", "_tags": {"amenity": "hospital", "email": "info@bodenseeklinik.de", "healthcare": "hospital", "healthcare:speciality": "plastic_surgery", "name": "Bodenseeklinik", "operator": "Prof. Dr. Dr. Werner Mang", "phone": "+49 8382 260 18", "website": "https://www.bodenseeklinik.de/"}}, {"name": "Sana Klinikum Landkreis Biberach", "latitude": 48.1119692, "longitude": 9.7795695, "source": "osm", "_tags": {"addr:city": "Biberach an der Riß", "addr:housenumber": "4", "addr:postcode": "88400", "addr:street": "Marie-Curie-Straße", "amenity": "hospital", "contact:email": "information.bc@sana.de", "contact:phone": "+49 7351 550", "contact:website": "https://www.sana.de/biberach", "healthcare": "hospital", "name": "Sana Klinikum Landkreis Biberach", "operator": "Sana Kliniken Landkreis Biberach GmbH", "operator:type": "public"}}, {"name": "Herz-Neuro-Zentrum Bodensee", "latitude": 47.6295277, "longitude": 9.2383282, "source": "osm", "_tags": {"addr:city": "Münsterlingen", "addr:country": "CH", "addr:housenumber": "15", "addr:postcode": "8596", "addr:street": "Spitalstrasse", "amenity": "hospital", "emergency": "yes", "healthcare": "hospital", "healthcare:speciality": "cardiology;neurosurgery", "name": "Herz-Neuro-Zentrum Bodensee", "note": "Klinikgelände grob geschätzt. Gerne korrigieren/anpassen", "operator": "CHC Holding AG", "operator:type": "private", "phone": "+41 71 677 51 51", "website": "https://www.herz-zentrum.com/muensterlingen/klinik/standorte"}}, {"name": "Landeskrankenhaus Bregenz", "latitude": 47.4971598, "longitude": 9.7457525, "source": "osm", "_tags": {"addr:city": "Bregenz", "addr:country": "AT", "addr:housenumber": "2", "addr:postcode": "6900", "addr:street": "Carl-Pedenz-Straße", "amenity": "hospital", "email": "office@lkhb.at", "emergency": "yes", "fax": "+43 5574 401 80", "fixme": "exact geometry", "healthcare": "hospital", "healthcare:speciality": "emergency;paediatrics;intensive;surgery;gynaecology;maternity;internal;neonatology;urology", "name": "Landeskrankenhaus Bregenz", "name:en": "Bregenz State Hospital", "note": "Klinikgelände nur ungefähr eingezeichnet", "operator": "Vorarlberger Krankenhaus-Betriebsgesellschaft.m.b.h.", "phone": "+43 5574 401 0", "source": "plan.at 2009, http://www.lkhb.at", "toilets:wheelchair": "yes", "website": "http://www.lkhb.at", "wheelchair": "yes", "wikidata": "Q1802321", "wikipedia": "de:Landeskrankenhaus Bregenz"}}, {"name": "", "latitude": 48.1111811, "longitude": 9.7797437, "source": "osm", "_tags": {"addr:city": "Biberach an der Riß", "addr:postcode": "88400", "addr:street": "Marie-Curie-Straße", "amenity": "hospital", "building": "yes", "healthcare": "hospital", "layer": "-1", "level": "-1"}}, {"name": "", "latitude": 48.1119583, "longitude": 9.7787008, "source": "osm", "_tags": {"addr:city": "Biberach an der Riß", "addr:postcode": "88400", "addr:street": "Marie-Curie-Straße", "amenity": "hospital", "building": "yes", "healthcare": "hospital"}}, {"name": "Asklepios Klinik Lindau", "latitude": 47.5636691, "longitude": 9.6839427, "source": "osm", "_tags": {"addr:city": "Lindau (Bodensee)", "addr:country": "DE", "addr:housenumber": "82", "addr:postcode": "88131", "addr:street": "Friedrichshafener Straße", "addr:suburb": "Hoyren", "amenity": "hospital", "building": "hospital", "contact:fax": "+49 8382 276 50 11 50", "contact:phone": "+49 8382 276 0", "emergency": "yes", "healthcare": "hospital", "name": "Asklepios Klinik Lindau", "opening_hours": "Mo-Su 06:00-22:00", "operator": "Asklepios Kliniken GmbH & Co. KGaA", "operator:type": "private", "operator:wikidata": "Q732068", "operator:wikipedia": "de:Asklepios Kliniken", "roof:shape": "hipped", "type": "multipolygon"}}, {"name": "Reha-Klinik Am schönen Moos", "latitude": 48.0138905, "longitude": 9.4839757, "source": "osm", "_tags": {"addr:city": "Bad Saulgau", "addr:country": "DE", "addr:housenumber": "7", "addr:postcode": "88348", "addr:street": "Am Schönen Moos", "amenity": "hospital", "name": "Reha-Klinik Am schönen Moos", "source": "Datenübernahme von Gebäude", "type": "site"}}, {"name": "Akut-Klinik Am schönen Moos", "latitude": 48.0135235, "longitude": 9.4826695, "source": "osm", "_tags": {"addr:city": "Bad Saulgau", "addr:country": "DE", "addr:housenumber": "9", "addr:postcode": "88348", "addr:street": "Am Schönen Moos", "amenity": "hospital", "name": "Akut-Klinik Am schönen Moos", "source": "Datenübernahme von Gebäude", "type": "site", "website": "https://www.akutklinik-badsaulgau.de/"}}, {"name": "Krankenhaus", "latitude": 48.2799558, "longitude": 9.7182921, "source": "osm", "_tags": {"amenity": "hospital", "building": "hospital", "healthcare": "hospital", "name": "Krankenhaus", "source": "Maps4BW ( LGL, www.lgl-bw.de) / Bing", "type": "multipolygon"}}, {"name": "", "latitude": 48.1118261, "longitude": 9.7794077, "source": "osm", "_tags": {"addr:city": "Biberach an der Riß", "addr:housenumber": "4", "addr:postcode": "88400", "addr:street": "Marie-Curie-Straße", "building": "hospital", "building:levels": "5", "contact:email": "information.bc@sana.de", "contact:phone": "+49 7351 550", "contact:website": "https://www.sana.de/biberach", "healthcare": "hospital", "operator": "Sana Kliniken Landkreis Biberach GmbH", "type": "multipolygon"}}]