[{"name": "Klinik in der Zarten", "latitude": 47.9004917, "longitude": 8.1058484, "source": "osm", "_tags": {"addr:city": "Hinterzarten", "addr:country": "DE", "addr:housenumber": "14", "addr:postcode": "79856", "addr:street": "Erlenbrucker Straße", "amenity": "hospital", "email": "info@klinik-in-der-zarten.de", "fax": "+49 7652 120969", "healthcare": "hospital", "healthcare:speciality": "psychotherapy", "name": "Klinik in der Zarten", "operator": "Klinik in der Zarten GmbH", "operator:type": "private_for_profit", "phone": "+49 7652 12090", "website": "http://www.klinik-in-der-zarten.de"}}, {"name": "Ziegelfeld-Klinik", "latitude": 47.7590658, "longitude": 8.1156043, "source": "osm", "_tags": {"amenity": "hospital", "emergency": "no", "healthcare": "hospital", "name": "Ziegelfeld-Klinik", "wheelchair": "yes"}}, {"name": "St. Marienhaus", "latitude": 47.5546527, "longitude": 7.9480721, "source": "osm", "_tags": {"amenity": "hospital", "healthcare": "hospital", "name": "St. Marienhaus", "wheelchair": "yes"}}, {"name": "Reha-Klinikum", "latitude": 47.5611199, "longitude": 7.9403001, "source": "osm", "_tags": {"amenity": "hospital", "name": "Reha-Klinikum", "toilets:wheelchair": "yes", "wheelchair": "yes"}}, {"name": "St. Georg", "latitude": 47.7351291, "longitude": 8.1657674, "source": "osm", "_tags": {"addr:city": "Höchenschwand", "addr:country": "DE", "addr:housenumber": "1", "addr:postcode": "79862", "addr:street": "Kurhausplatz", "amenity": "hospital", "check_date": "2025-02-02", "name": "St. Georg", "website": "http://www.st-georg-kliniken.de/"}}, {"name": "Helios Klinik Titisee-Neustadt", "latitude": 47.9257773, "longitude": 8.1871541, "source": "osm", "_tags": {"addr:city": "Titisee-Neustadt", "addr:housenumber": "12", "addr:postcode": "79822", "addr:street": "Jostalstraße", "amenity": "hospital", "emergency": "yes", "healthcare": "hospital", "name": "Helios Klinik Titisee-Neustadt", "operator": "Helios Kliniken", "operator:wikidata": "Q1254151", "phone": "+49 7651 290", "website": "https://www.helios-gesundheit.de/titisee"}}, {"name": "Glücksbringer", "latitude": 47.9730065, "longitude": 8.2937502, "source": "osm", "_tags": {"addr:city": "Eisenbach", "addr:housenumber": "17", "addr:street": "Bubenbacher Straße", "healthcare": "hospital", "name": "Glücksbringer", "office": "therapist", "website": "https://www.therapiehof.org"}}, {"name": "ADUS Klinik", "latitude": 47.4785723, "longitude": 8.4512043, "source": "osm", "_tags": {"amenity": "hospital", "healthcare": "hospital", "name": "ADUS Klinik", "phone": "+41 44 854 64 90", "website": "https://www.adus-klinik.ch/", "wheelchair": "yes"}}, {"name": "Deutsches Rotes Kreuz Sanitätsraum", "latitude": 48.0480977, "longitude": 7.9446854, "source": "osm", "_tags": {"addr:city": "Glottertal", "addr:housenumber": "16", "addr:postcode": "79286", "addr:street": "Rathausweg", "amenity": "hospital", "brand": "Deutsches Rotes Kreuz", "brand:wikidata": "Q694104", "emergency": "no", "healthcare": "hospital", "healthcare:speciality": "general", "name": "Deutsches Rotes Kreuz Sanitätsraum", "operator": "DRK Glottertal", "operator:type": "DRK_Glottertal"}}, {"name": "Asklepios Klinik Triberg", "latitude": 48.1280473, "longitude": 8.2315536, "source": "osm", "_tags": {"amenity": "hospital", "healthcare": "hospital", "name": "Asklepios Klinik Triberg", "operator": "Asklepios Kliniken", "operator:type": "private", "operator:wikidata": "Q732068", "phone": "+49 7722 9550", "website": "https://www.asklepios.com/triberg"}}, {"name": "Espan Klinik", "latitude": 48.0166994, "longitude": 8.538748, "source": "osm", "_tags": {"addr:city": "Bad Dürrheim", "addr:country": "DE", "addr:housenumber": "9", "addr:postcode": "78073", "addr:street": "Gartenstraße", "amenity": "hospital", "contact:email": "info@espan-klinik.de", "contact:fax": "+49 7726 9395929", "contact:phone": "+49 7726 65-0", "contact:website": "https://espan-klinik.de/", "healthcare": "rehabilitation", "healthcare:speciality": "pulmonology; oncology", "name": "Espan Klinik", "operator": "Kliniken Benner GmbH & Co. KG"}}, {"name": "KINZIGDENTAL", "latitude": 48.2766753, "longitude": 8.0875609, "source": "osm", "_tags": {"addr:city": "Haslach im Kinzigtal", "addr:housenumber": "26", "addr:postcode": "77716", "addr:street": "Hauptstraße", "amenity": "hospital", "healthcare": "hospital", "healthcare:speciality": "stomatology", "image": "https://kinzig.dental/wp-content/uploads/2019/03/logo-full.svg", "name": "KINZIGDENTAL", "operator": "DRES. SANDER & KOLLEGEN"}}, {"name": "Franz-Alexander-Klinik", "latitude": 48.3998871, "longitude": 8.0821491, "source": "osm", "_tags": {"addr:city": "Nordrach", "addr:housenumber": "44", "addr:postcode": "77787", "addr:street": "Im Dorf", "amenity": "hospital", "healthcare": "hospital", "healthcare:speciality": "psychiatry", "name": "Franz-Alexander-Klinik", "operator": "Median Kliniken", "operator:type": "private", "operator:wikidata": "Q1916200", "phone": "+49 7838 929100"}}, {"name": "SRH Krankenhaus Oberndorf a.N.", "latitude": 48.2958991, "longitude": 8.5784183, "source": "osm", "_tags": {"addr:city": "Oberndorf am Neckar", "addr:country": "DE", "addr:housenumber": "14", "addr:postcode": "78727", "addr:street": "Hölderlinstraße", "amenity": "hospital", "building": "yes", "check_date": "2025-07-03", "healthcare": "hospital", "name": "SRH Krankenhaus Oberndorf a.N.", "wikidata": "Q15843621"}}, {"name": "Hegau-Bodensee-Klinikum", "latitude": 47.7594886, "longitude": 8.8217946, "source": "osm", "_tags": {"addr:city": "Singen (Hohentwiel)", "addr:country": "DE", "addr:housenumber": "10", "addr:postcode": "78224", "addr:street": "Virchowstraße", "amenity": "hospital", "backup_generator": "yes", "content": "Diesel", "emergency": "yes", "hazard_danger": "30", "hazmat": "3", "healthcare": "hospital", "image": "File:Singen_-_Hegau-Bodensee-Klinikum_(Wilhelmswacht)_01_ies.jpg", "name": "Hegau-Bodensee-Klinikum", "operating_time": "- h", "phone": "+49 7731 89 0", "un_number": "1202", "volume": "- m3", "wikimedia_commons": "Category:Hegau-Bodensee_Klinikum_Singen"}}, {"name": "Rehabilitationsklinik Sonnhalde", "latitude": 47.9487766, "longitude": 8.469097, "source": "osm", "_tags": {"amenity": "hospital", "emergency": "no", "healthcare": "rehabilitation", "name": "Rehabilitationsklinik Sonnhalde", "website": "https://www.rehaklinik-sonnhalde.de/"}}, {"name": "Klinik am Doniswald", "latitude": 48.1398243, "longitude": 8.4168176, "source": "osm", "_tags": {"addr:city": "Königsfeld im Schwarzwald", "addr:country": "DE", "addr:housenumber": "10", "addr:postcode": "78126", "addr:street": "Hermann-Voland-Straße", "amenity": "clinic", "building": "yes", "description": "Klinik für Psychotherapie und Seelsorge", "healthcare": "hospital", "name": "Klinik am Doniswald", "phone": "+4977259320", "website": "https://doniswaldklinik.de/"}}, {"name": "MediClin Klinik am Vogelsang", "latitude": 47.9548281, "longitude": 8.4772873, "source": "osm", "_tags": {"addr:city": "Donaueschingen", "addr:country": "DE", "addr:housenumber": "68", "addr:postcode": "78166", "addr:street": "Alte-Wolterdinger-Straße", "amenity": "hospital", "building": "hospital", "contact:website": "https://www.klinik-am-vogelsang.de/", "name": "MediClin Klinik am Vogelsang"}}, {"name": "Gesundheitszentrum Engen", "latitude": 47.8534493, "longitude": 8.7666443, "source": "osm", "_tags": {"addr:city": "Engen", "addr:country": "DE", "addr:housenumber": "19", "addr:postcode": "78234", "addr:street": "Hewenstraße", "amenity": "hospital", "building": "yes", "emergency": "fire_detection_system", "healthcare": "hospital", "name": "Gesundheitszentrum Engen", "toilets:wheelchair": "yes", "wheelchair": "yes"}}, {"name": "", "latitude": 48.2931394, "longitude": 8.2169162, "source": "osm", "_tags": {"addr:city": "Wolfach", "addr:housenumber": "12-16", "addr:postcode": "77709", "addr:street": "Kreuzbergstraße", "building": "hospital", "healthcare": "hospital"}}, {"name": "Thure-von-Uexküll-Klinik", "latitude": 48.0547463, "longitude": 7.9640344, "source": "osm", "_tags": {"addr:city": "Glottertal", "addr:country": "DE", "addr:housenumber": "2", "addr:postcode": "79286", "addr:street": "Badstraße", "alt_name": "ZDF Schwarzwaldklinik", "amenity": "hospital", "building": "yes", "building:colour": "white", "building:levels": "4", "contact:email": "uexkuell.klinik@kur.org", "contact:phone": "+49768490690", "healthcare": "hospital", "image": "https://commons.wikimedia.org/wiki/File:Klinik_Glotterbad_Schwarzwaldklinik.jpg", "int_name": "Schwarzwaldklinik", "name": "Thure-von-Uexküll-Klinik", "operator": "Kur + Reha GmbH des Paritätischen Wohlfahrtsverbandes Landesverband Baden-Württemberg", "roof:levels": "2", "roof:orientation": "along", "roof:shape": "half-hipped", "source": "Bing", "source:housenumber": "Datenquelle: LGL, www.lgl-bw.de", "tourism": "attraction", "website": "https://www.uexkuell-klinik.de/", "wikimedia_commons": "Category:Carlsbau (Glottertal)"}}, {"name": "", "latitude": 48.09824, "longitude": 7.952007, "source": "osm", "_tags": {"amenity": "hospital"}}, {"name": "Schwarzwald-Baar Klinikum", "latitude": 48.0651613, "longitude": 8.4968196, "source": "osm", "_tags": {"amenity": "hospital", "emergency": "yes", "healthcare": "hospital", "healthcare:speciality": "intensive;general;emergency;surgery;dialysis;radiology", "name": "Schwarzwald-Baar Klinikum", "operator": "Schwarzwald-Baar Klinikum Villingen-Schwenningen GmbH", "website": "https://www.sbk-vs.de/", "wikidata": "Q2254434"}}, {"name": "Kliniken Schmieder Gailingen", "latitude": 47.7023526, "longitude": 8.7536698, "source": "osm", "_tags": {"addr:city": "Gailingen am Hochrhein", "addr:country": "DE", "addr:postcode": "78262", "addr:street": "Auf dem Berg", "amenity": "hospital", "check_date": "2025-08-29", "healthcare": "hospital", "name": "Kliniken Schmieder Gailingen", "phone": "+49 7734 860", "toilets:wheelchair": "yes", "website": "https://www.kliniken-schmieder.de/kliniken-und-standorte/gailingen.html", "wheelchair": "limited"}}, {"name": "", "latitude": 48.1744944, "longitude": 8.0795961, "source": "osm", "_tags": {"amenity": "hospital", "wheelchair": "yes"}}, {"name": "Psychiatrische Tagesklinik", "latitude": 47.5629427, "longitude": 7.9431448, "source": "osm", "_tags": {"addr:city": "Bad Säckingen", "addr:country": "DE", "addr:housenumber": "3", "addr:postcode": "79713", "addr:street": "Nagaistraße", "amenity": "hospital", "building": "yes", "check_date": "2025-09-21", "healthcare": "hospital", "name": "Psychiatrische Tagesklinik", "note": "Krankenhaus statt Klinik, da sonst nicht in Karte dargestellt"}}, {"name": "Rhein-Jura Klinik", "latitude": 47.562439, "longitude": 7.9392384, "source": "osm", "_tags": {"access": "customers", "addr:city": "Bad Säckingen", "addr:country": "DE", "addr:housenumber": "13", "addr:postcode": "79713", "addr:street": "Schneckenhalde", "amenity": "hospital", "building": "hospital", "contact:email": "info@rhein-jura-klinik.de", "contact:fax": "+49 7761 5600105", "contact:phone": "+49 7761 56000", "contact:website": "http://www.rhein-jura-klinik.de", "health_facility:type": "therapy", "healthcare": "clinic", "healthcare:speciality": "psychiatry", "medical_system:western": "yes", "name": "Rhein-Jura Klinik", "note": "Krankenhaus statt Klinik, da sonst nicht in Karte dargestellt"}}, {"name": "", "latitude": 48.0927503, "longitude": 8.1888362, "source": "osm", "_tags": {"amenity": "hospital", "healthcare": "hospital", "wheelchair": "yes"}}, {"name": "Hans Carossa Klinik", "latitude": 47.7452887, "longitude": 8.4470214, "source": "osm", "_tags": {"addr:city": "Stühlingen", "addr:housenumber": "19", "addr:postcode": "79780", "addr:street": "Hauptstraße", "amenity": "hospital", "building": "hospital", "healthcare": "hospital", "healthcare:speciality": "psychiatry", "name": "Hans Carossa Klinik", "operator": "Klinik für Psychiatrie, Psychosomatik und Psychotherapeutische Medizin Stühlingen GmbH", "operator:type": "private"}}, {"name": "Janus-Klinik-Eltern-Kind", "latitude": 47.6997625, "longitude": 8.0063932, "source": "osm", "_tags": {"addr:city": "Herrischried", "addr:country": "DE", "addr:housenumber": "20", "addr:postcode": "79737", "addr:street": "Höfstraße", "addr:suburb": "Wehrhalden", "amenity": "hospital", "email": "info@jkek.de", "healthcare": "hospital", "name": "Janus-Klinik-Eltern-Kind", "phone": "+49 7764 94 99 777 7", "website": "https://janus-klinik-eltern-kind.de/"}}, {"name": "DRK Görwihl", "latitude": 47.6418822, "longitude": 8.0754346, "source": "osm", "_tags": {"addr:city": "Görwihl", "addr:country": "DE", "addr:housenumber": "4", "addr:postcode": "79733", "addr:street": "Mühleberg", "amenity": "hospital", "brand": "Deutsches Rotes Kreuz", "brand:wikidata": "Q694104", "building": "yes", "healthcare": "hospital", "name": "DRK Görwihl"}}, {"name": "Kantonsspital Winterthur", "latitude": 47.506883, "longitude": 8.7282975, "source": "osm", "_tags": {"addr:city": "Winterthur", "addr:housenumber": "15", "addr:postcode": "8401", "addr:street": "Brauerstrasse", "amenity": "hospital", "contact:phone": "+41 52 266 21 21", "emergency": "yes", "healthcare": "hospital", "healthcare:speciality": "intensive", "name": "Kantonsspital Winterthur", "short_name": "KSW", "toilets:wheelchair": "yes", "website": "https://www.ksw.ch/", "wheelchair": "yes", "wikidata": "Q1728154"}}, {"name": "Privatklinik Lindberg", "latitude": 47.5103058, "longitude": 8.7299074, "source": "osm", "_tags": {"addr:city": "Winterthur", "addr:housenumber": "11", "addr:postcode": "8400", "addr:street": "Schickstrasse", "alt_name": "Spital Lindberg: Klinik Lindberg", "amenity": "hospital", "email": "info@lindberg.ch", "healthcare": "hospital", "name": "Privatklinik Lindberg", "phone": "+41 52 266 11 11", "short_name": "Lindberg", "website": "https://www.lindberg.ch/", "wheelchair": "yes"}}, {"name": "Zollernalb-Klinikum Balingen", "latitude": 48.277519, "longitude": 8.8575539, "source": "osm", "_tags": {"amenity": "hospital", "healthcare": "hospital", "name": "Zollernalb-Klinikum Balingen"}}, {"name": "Kur- und Gesundheitszentrum Friedborn", "latitude": 47.5892512, "longitude": 7.9961969, "source": "osm", "_tags": {"addr:city": "Rickenbach", "addr:country": "DE", "addr:housenumber": "4", "addr:postcode": "79736", "addr:street": "Lehnhof", "addr:suburb": "Lehnhof", "amenity": "hospital", "building": "hospital", "name": "Kur- und Gesundheitszentrum Friedborn", "website": "https://www.friedborn.de/"}}, {"name": "Friedrich-Husemann-Klinik", "latitude": 47.9682399, "longitude": 7.9964445, "source": "osm", "_tags": {"amenity": "hospital", "healthcare": "hospital", "healthcare:speciality": "psychiatry", "landuse": "residential", "name": "Friedrich-Husemann-Klinik", "operator": "Zentrum für anthroposophische Psychiatrie e.V.", "website": "https://www.friedrich-husemann-klinik.de/"}}, {"name": "BDH-Klinik Waldkirch gGmbH", "latitude": 48.0980505, "longitude": 7.9521836, "source": "osm", "_tags": {"addr:housenumber": "10", "addr:street": "Heitereweg", "amenity": "hospital", "building": "yes", "emergency": "yes", "healthcare": "hospital", "name": "BDH-Klinik Waldkirch gGmbH", "operator": "BDH Bundesverband Rehabilitation", "phone": "+49 7681 2080"}}, {"name": "Integrierte Psychiatrie Winterthur, Klinik Schlosstal", "latitude": 47.5073011, "longitude": 8.6849022, "source": "osm", "_tags": {"addr:city": "Winterthur", "addr:housenumber": "102", "addr:postcode": "8408", "addr:street": "Wieshofstrasse", "amenity": "hospital", "healthcare": "hospital", "healthcare:speciality": "psychiatry", "name": "Integrierte Psychiatrie Winterthur, Klinik Schlosstal", "old_name": "Klinik Schlosstal", "operator": "Integrierte Psychiatrie Winterthur – Zürcher Unterland (ipw)", "operator:type": "government", "short_name": "IPW Schlosstal"}}, {"name": "Weissenstein-Klinik", "latitude": 47.7609214, "longitude": 8.1203643, "source": "osm", "_tags": {"addr:city": "St. Blasien", "addr:country": "DE", "addr:housenumber": "14", "addr:postcode": "79837", "addr:street": "Johann-Rothmeier-Straße", "amenity": "hospital", "building": "hospital", "healthcare": "hospital", "name": "Weissenstein-Klinik", "website": "https://www.weissenstein-klinik.de/", "wheelchair": "yes"}}, {"name": "Kohlwald-Klinik", "latitude": 47.7602936, "longitude": 8.1167799, "source": "osm", "_tags": {"addr:city": "St. Blasien", "addr:country": "DE", "addr:housenumber": "10", "addr:postcode": "79837", "addr:street": "Johann-Rothmeier-Straße", "amenity": "hospital", "building": "hospital", "healthcare": "hospital", "name": "Kohlwald-Klinik", "wheelchair": "yes"}}, {"name": "Zentrum für Stationäre Forensische Therapie und Zentrum für Integrative Psychiatrie", "latitude": 47.6349183, "longitude": 8.6078052, "source": "osm", "_tags": {"addr:city": "Rheinau", "addr:country": "CH", "addr:housenumber": "57", "addr:postcode": "8462", "addr:street": "Alleestrasse", "amenity": "hospital", "emergency": "no", "healthcare": "hospital", "name": "Zentrum für Stationäre Forensische Therapie und Zentrum für Integrative Psychiatrie", "operator": "Psychiatrische Universitätsklinik Zürich", "phone": "+41 52 304 91 11", "website": "https://www.pukzh.ch/standorte/?locationId=07956ecd-155d-0010-0152-012983939def", "wikipedia": "de:Rheinau ZH"}}, {"name": "", "latitude": 47.549136, "longitude": 8.9103893, "source": "osm", "_tags": {"building:colour": "#DCE1D8", "building:levels": "3", "building:material": "concrete", "building:part": "yes", "healthcare": "hospital", "roof:colour": "#6E7472", "roof:shape": "flat", "toilets:wheelchair": "yes", "wheelchair": "yes"}}, {"name": "Ortenau Klinikum Wolfach", "latitude": 48.3031055, "longitude": 8.222656, "source": "osm", "_tags": {"amenity": "hospital", "name": "Ortenau Klinikum Wolfach", "toilets:wheelchair": "yes", "wheelchair": "yes"}}, {"name": "Parkinson-Klinik Wolfach", "latitude": 48.293281, "longitude": 8.217179, "source": "osm", "_tags": {"addr:city": "Wolfach", "addr:housenumber": "12-16", "addr:postcode": "77709", "addr:street": "Kreuzbergstraße", "amenity": "hospital", "healthcare": "hospital", "healthcare:speciality": "Parkinson_'s_disease", "name": "Parkinson-Klinik Wolfach", "operator": "Parkinson-Klinik Ortenau GmbH & Co. KG", "operator:type": "private", "wikidata": "Q16855548"}}, {"name": "Schwarzwald-Baar-Kliniken Donaueschingen", "latitude": 47.9555596, "longitude": 8.4801206, "source": "osm", "_tags": {"amenity": "hospital", "contact:website": "https://www.sbk-vs.de/", "emergency": "yes", "healthcare": "hospital", "name": "Schwarzwald-Baar-Kliniken Donaueschingen", "wheelchair": "yes"}}, {"name": "Földi Klinik", "latitude": 47.9115589, "longitude": 8.1010269, "source": "osm", "_tags": {"amenity": "hospital", "check_date": "2024-05-30", "healthcare": "hospital", "name": "Földi Klinik", "website": "https://www.foeldiklinik.de", "wheelchair": "yes"}}, {"name": "Kantonsspital Frauenfeld", "latitude": 47.548984, "longitude": 8.9107944, "source": "osm", "_tags": {"addr:city": "Frauenfeld", "addr:housenumber": "4", "addr:postcode": "8501", "addr:street": "Pfaffenholzstrasse", "amenity": "hospital", "emergency": "yes", "healthcare": "hospital", "healthcare:speciality": "intensive", "name": "Kantonsspital Frauenfeld", "operator": "Spital Thurgau AG", "operator:type": "public", "phone": "+41 52 723 77 11", "short_name": "KSF", "website": "https://www.stgag.ch/", "wikidata": "Q30260511"}}, {"name": "Kantonsspital Baden", "latitude": 47.4546891, "longitude": 8.2783045, "source": "osm", "_tags": {"addr:city": "Baden", "addr:housenumber": "1", "addr:postcode": "5404", "addr:street": "Im Ergel", "amenity": "hospital", "emergency": "yes", "healthcare": "hospital", "healthcare:speciality": "intensive", "name": "Kantonsspital Baden", "opening_hours": "24/7", "operator": "Kantonsspital Baden AG", "phone": "+41 56 486 21 11", "short_name": "KSB", "website": "https://www.kantonsspitalbaden.ch/", "wikidata": "Q1728147", "wikipedia": "de:Kantonsspital Baden"}}, {"name": "Gesundheitszentrum Dielsdorf", "latitude": 47.4782993, "longitude": 8.451156, "source": "osm", "_tags": {"amenity": "hospital", "contact:city": "Dielsdorf", "contact:housenumber": "11", "contact:postcode": "8157", "contact:street": "Breitestrasse", "email": "info@gzdielsdorf.ch", "emergency": "no", "healthcare": "hospital", "name": "Gesundheitszentrum Dielsdorf", "operator": "Zweckverband Gesundheitszentrum Dielsdorf", "phone": "+41 44 854 64 64", "website": "https://www.gzdielsdorf.ch/"}}, {"name": "", "latitude": 47.4813099, "longitude": 8.2172012, "source": "osm", "_tags": {"addr:city": "Windisch", "addr:housenumber": "1", "addr:street": "Königsfelderstrasse", "amenity": "hospital", "fixme": "Gelände nur geschätzt", "healthcare": "hospital", "healthcare:speciality": "psychiatry", "loc_name": "Psychiatrie Königsfelden", "short_name": "PDAG", "website": "https://www.pdag.ch/", "wikidata": "Q60607340", "wikimedia_commons": "File:Psychiatrische_Klinik_Königsfelden_-_panoramio.jpg"}}, {"name": "Psychiatriezentrum Breitenau", "latitude": 47.7060913, "longitude": 8.6254954, "source": "osm", "_tags": {"addr:city": "Schaffhausen", "addr:country": "CH", "addr:housenumber": "111", "addr:postcode": "8200", "addr:street": "Nordstrasse", "amenity": "hospital", "email": "psychiatriezentrum@spitaeler-sh.ch", "healthcare:speciality": "psychiatry", "name": "Psychiatriezentrum Breitenau", "website": "https://www.spitaeler-sh.ch/Patienten-Besucher/Psychiatriezentrum/index.php"}}, {"name": "ZURZACH Care", "latitude": 47.5905075, "longitude": 8.2878156, "source": "osm", "_tags": {"addr:city": "Bad Zurzach", "addr:country": "CH", "addr:housenumber": "36", "addr:postcode": "5330", "addr:street": "Quellenstrasse", "amenity": "hospital", "healthcare": "hospital", "name": "ZURZACH Care", "website": "https://www.rehaclinic.ch"}}, {"name": "Asana Spital Leuggern", "latitude": 47.5807315, "longitude": 8.2173226, "source": "osm", "_tags": {"addr:city": "Leuggern", "addr:country": "CH", "addr:housenumber": "12", "addr:postcode": "5316", "addr:street": "Kommendeweg", "amenity": "hospital", "contact:phone": "+41 56 269 42 30", "contact:website": "http://www.spitalleuggern.ch/", "emergency": "yes", "healthcare": "hospital", "name": "Asana Spital Leuggern", "operator": "Asana"}}, {"name": "Spital Laufenburg", "latitude": 47.5620777, "longitude": 8.0644031, "source": "osm", "_tags": {"amenity": "hospital", "emergency": "yes", "healthcare": "hospital", "name": "Spital Laufenburg", "operator": "Gesundheitszentrum Fricktal", "phone": "+41 62 874 50 00", "short_name": "GZF Laufenburg", "shortest_name": "GZF", "website": "https://www.gzf.ch/", "wheelchair": "yes"}}, {"name": "Privatklinik Belair", "latitude": 47.7010763, "longitude": 8.6239373, "source": "osm", "_tags": {"addr:city": "Schaffhausen", "addr:country": "CH", "addr:housenumber": "30", "addr:postcode": "8201", "addr:street": "Rietstrasse", "amenity": "hospital", "healthcare": "hospital", "name": "Privatklinik Belair", "phone": "+41 52 632 19 00", "website": "https://www.hirslanden.ch/de/klinik-belair/home.html", "wikidata": "Q23783939"}}, {"name": "Klinik Schloss Mammern", "latitude": 47.6463404, "longitude": 8.9188426, "source": "osm", "_tags": {"addr:city": "Mammern", "addr:country": "CH", "addr:housenumber": "3", "addr:postcode": "8265", "addr:street": "Dr. A. O. Fleisch-Strasse", "amenity": "hospital", "contact:phone": "+41 52 7421111", "contact:website": "http://www.klinik-schloss-mammern.ch", "healthcare": "rehabilitation", "name": "Klinik Schloss Mammern", "phone": "+41 52 742 11 11", "website": "https://klinik-schloss-mammern.ch/de/"}}, {"name": "Klinik St. Blasien", "latitude": 47.763476, "longitude": 8.1283313, "source": "osm", "_tags": {"addr:city": "St. Blasien", "addr:country": "DE", "addr:housenumber": "4", "addr:postcode": "79837", "addr:street": "Muchenländer Straße", "amenity": "hospital", "description": "ehemalige Klinik, leerstehend", "disused": "yes", "emergency": "no", "healthcare": "hospital", "name": "Klinik St. Blasien", "wikidata": "Q1774568"}}, {"name": "Klinikum Hochrhein", "latitude": 47.6224996, "longitude": 8.2077841, "source": "osm", "_tags": {"addr:city": "Waldshut-Tiengen", "addr:country": "DE", "addr:housenumber": "93-101", "addr:postcode": "79761", "addr:street": "Kaiserstraße", "amenity": "hospital", "contact:email": "service@klhr.de", "contact:fax": "+49 7751 854177", "contact:phone": "+49 7751 850", "contact:website": "https://www.klinikum-hochrhein.de/", "emergency": "yes", "healthcare": "hospital", "name": "Klinikum Hochrhein", "old_name": "Spital Waldshut", "operator": "Klinikum Hochrhein GmbH", "start_date": "1411", "wheelchair": "yes", "wikidata": "Q1599015", "wikipedia": "de:Klinikum Hochrhein"}}, {"name": "Sigma-Zentrum", "latitude": 47.5568076, "longitude": 7.9393969, "source": "osm", "_tags": {"addr:city": "Bad Säckingen", "addr:country": "DE", "addr:housenumber": "1", "addr:postcode": "79713", "addr:street": "Weihermatten", "amenity": "hospital", "healthcare": "hospital", "name": "Sigma-Zentrum"}}, {"name": "Rehaklinik Feldberg für Mutter-Vater-Kind", "latitude": 47.8561694, "longitude": 8.1120681, "source": "osm", "_tags": {"addr:city": "Feldberg", "addr:country": "DE", "addr:housenumber": "2", "addr:postcode": "79868", "addr:street": "Falkauer Straße", "addr:suburb": "Altglashütten", "amenity": "hospital", "health_facility:type": "rehabilitation", "healthcare": "hospital", "name": "Rehaklinik Feldberg für Mutter-Vater-Kind", "website": "https://www.kur.org/kliniken/klinik-feldberg.html", "wheelchair": "limited"}}, {"name": "Universitätsspital Flughafen", "latitude": 47.449175, "longitude": 8.5658071, "source": "osm", "_tags": {"addr:city": "Zürich-Flughafen", "addr:housenumber": "59", "addr:postcode": "8058", "addr:street": "The Circle", "amenity": "hospital", "email": "info@usz.ch", "name": "Universitätsspital Flughafen", "operator": "Universitätsspital Zürich", "phone": "+41 44 255 11 11", "short_name": "USZ Flughafen", "website": "https://www.usz.ch/standorte/usz-flughafen/", "wheelchair": "yes"}}, {"name": "Celenus Klinik Kinzigtal", "latitude": 48.4126652, "longitude": 8.0184914, "source": "osm", "_tags": {"addr:city": "Gengenbach", "addr:housenumber": "12", "addr:postcode": "77723", "addr:street": "Wolfsweg", "amenity": "hospital", "contact:facebook": "celenusklinikkinzigtal", "email": "info@klinik-kinzigtal.de", "emergency": "no", "fax": "+49 7803 1651", "healthcare": "clinic", "healthcare:speciality": "psychiatry", "name": "Celenus Klinik Kinzigtal", "phone": "+49 7803 8080", "toilets:wheelchair": "yes", "website": "https://www.klinik-kinzigtal.de/", "wheelchair": "yes"}}, {"name": "Kreisklinik Tuttlingen", "latitude": 47.9847671, "longitude": 8.8320706, "source": "osm", "_tags": {"addr:city": "Tuttlingen", "addr:country": "DE", "addr:housenumber": "21", "addr:postcode": "78532", "addr:street": "Zeppelinstraße", "amenity": "hospital", "healthcare": "hospital", "name": "Kreisklinik Tuttlingen", "operator": "Kli­ni­kum Land­kreis Tutt­lin­gen gGmbH", "operator:type": "public", "wheelchair": "yes", "wikidata": "Q1774627", "wikipedia": "de:Klinikum Landkreis Tuttlingen"}}, {"name": "Helios Klinik Titisee-Neustadt", "latitude": 47.925835, "longitude": 8.1870965, "source": "osm", "_tags": {"addr:city": "Titisee-Neustadt", "addr:housenumber": "12", "addr:postcode": "79822", "addr:street": "Jostalstraße", "amenity": "hospital", "emergency": "yes", "healthcare": "hospital", "name": "Helios Klinik Titisee-Neustadt", "operator": "Helios Kliniken", "operator:type": "private", "operator:wikidata": "Q1254151", "phone": "+49 7651 290", "website": "https://www.helios-gesundheit.de/titisee"}}, {"name": "Katharinenhöhe", "latitude": 48.0927113, "longitude": 8.1888676, "source": "osm", "_tags": {"amenity": "hospital", "name": "Katharinenhöhe", "phone": "+49 7723 65030", "type": "site", "website": "https://www.katharinenhoehe.de/"}}, {"name": "HELIOS Klinik Rottweil", "latitude": 48.1654458, "longitude": 8.6123458, "source": "osm", "_tags": {"addr:city": "Rottweil", "addr:country": "DE", "addr:housenumber": "30", "addr:postcode": "78628", "addr:street": "Krankenhausstraße", "amenity": "hospital", "building": "hospital", "emergency": "yes", "healthcare": "hospital", "healthcare:speciality": "emergency;intensive;surgery;internal;gynaecology;radiology", "name": "HELIOS Klinik Rottweil", "operator": "Helios Kliniken", "operator:type": "private", "operator:wikidata": "Q1254151", "operator:wikipedia": "de:Helios Kliniken", "roof:material": "concrete", "roof:shape": "flat", "type": "multipolygon", "website": "http://www.helios-kliniken.de/klinik/rottweil.html"}}, {"name": "Hegau-Jugendwerk Gailingen", "latitude": 47.6909365, "longitude": 8.7681535, "source": "osm", "_tags": {"addr:city": "Gailingen am Hochrhein", "addr:country": "DE", "addr:housenumber": "31", "addr:postcode": "78262", "addr:street": "Kapellenstraße", "amenity": "hospital", "name": "Hegau-Jugendwerk Gailingen", "type": "multipolygon", "wheelchair": "yes"}}, {"name": "Vinzenz von Paul Hospital", "latitude": 48.149497, "longitude": 8.6344904, "source": "osm", "_tags": {"alt_name": "Rottenmünster", "amenity": "hospital", "contact:email": "info@vvph.de", "contact:fax": "+49 741 241-2265", "contact:phone": "+49 741 241-0", "contact:website": "http://www.vvph.de/", "emergency": "yes", "healthcare": "hospital", "leisure": "park", "name": "Vinzenz von Paul Hospital", "official_name": "Vinzenz von Paul Hospital gGmbH", "operator": "Genossenschaft der Barmherzigen Schwestern vom hl. Vinzenz von Paul in Untermarchtal e.V.", "type": "multipolygon", "wikidata": "Q2527339", "wikipedia": "de:Vinzenz von Paul-Hospital"}}, {"name": "Spital Bülach", "latitude": 47.521322, "longitude": 8.5335466, "source": "osm", "_tags": {"addr:city": "Bülach", "addr:country": "CH", "addr:housenumber": "24", "addr:postcode": "8180", "addr:street": "Spitalstrasse", "amenity": "hospital", "emergency": "yes", "healthcare": "hospital", "healthcare:speciality": "intensive", "name": "Spital Bülach", "phone": "+41 44 863 22 11", "type": "multipolygon", "website": "https://www.spitalbuelach.ch/", "wheelchair": "yes", "wikidata": "Q51682761"}}, {"name": "", "latitude": 47.7119506, "longitude": 8.635888, "source": "osm", "_tags": {"amenity": "hospital", "type": "building"}}, {"name": "Kantonsspital Schaffhausen", "latitude": 47.7122807, "longitude": 8.6361076, "source": "osm", "_tags": {"addr:city": "Schaffhausen", "addr:country": "CH", "addr:housenumber": "81", "addr:postcode": "8208", "addr:street": "Geissbergstrasse", "amenity": "hospital", "emergency": "yes", "healthcare": "hospital", "healthcare:speciality": "intensive", "name": "Kantonsspital Schaffhausen", "phone": "+41 52 634 34 34", "short_name": "KSSH", "type": "multipolygon", "website": "https://www.spitaeler-sh.ch/Patienten-Besucher/Kantonsspital-SH/index.php", "wikimedia_commons": "File:Kantonsspital Schaffhausen. Erweiterungsbau 1976.jpg"}}]