[{"name": "Hopital psychiatrique Henri Ey", "latitude": 48.1790874, "longitude": 1.3871264, "source": "osm", "_tags": {"amenity": "hospital", "healthcare": "hospital", "name": "Hopital psychiatrique Henri Ey", "ref:FR:FINESS": "280000050"}}, {"name": "Centre de jour Marcel Proust", "latitude": 47.8996762, "longitude": 1.8784546, "source": "osm", "_tags": {"amenity": "hospital", "fax": "+33238867767", "healthcare": "hospital", "name": "Centre de jour Marcel Proust", "phone": "+33238721908", "ref:FR:FINESS": "450012620", "ref:FR:SIRET": "26450004200090", "source": "Le ministère des solidarités et de la santé - 03/2019", "type:FR:FINESS": "292"}}, {"name": "SMUR CHARTRES", "latitude": 48.4205088, "longitude": 1.506827, "source": "osm", "_tags": {"amenity": "hospital", "emergency": "ambulance_station", "healthcare": "hospital", "healthcare:speciality": "emergency", "healthcare:speciality:FR": "SMUR", "name": "SMUR CHARTRES", "opening_hours": "24/7", "operator": "SAMU 28", "operator2": "CH CHARTRES", "operator:type": "public"}}, {"name": "Clinique laser vision Orléans", "latitude": 47.9046127, "longitude": 1.9039452, "source": "osm", "_tags": {"addr:city": "Orléans", "addr:housenumber": "4", "addr:postcode": "45000", "amenity": "hospital", "check_date": "2024-11-01", "description": "La Clinique Laser Vision Orléans est ouverte les Lundis, Mercredis et Vendredis, de 08h30 à 12h30 et 13h30 à 17h30. Ouverture toute l'année sauf périodes de congés. Vous accèderez facilement à la Clinique par les transports en commun (tramway ou bus). Vo", "healthcare": "hospital", "healthcare:speciality": "ophthalmology", "image": "https://panoramax-storage-public-fast.s3.gra.perf.cloud.ovh.net/main-pictures/cb/fe/e4/ab/ca86-4037-b1c6-c3cdf0c0e409.jpg", "name": "Clinique laser vision Orléans", "phone": "+33 2 42 04 04 20", "website": "https://www.clvo.fr/", "wheelchair": "yes"}}, {"name": "Pôle Santé Oréliance", "latitude": 47.9396092, "longitude": 1.8783795, "source": "osm", "_tags": {"addr:city": "Saran", "addr:housenumber": "555", "addr:postcode": "45770", "addr:street": "Avenue Jacqueline Auriol", "healthcare": "hospital", "image": "https://oreliance.com/wp-content/uploads/2021/12/pso_slide_urgradio.jpg", "name": "Pôle Santé Oréliance", "operator": "Groupe St Gatien", "phone": "+33 2 38 79 60 00", "website": "https://oreliance.com/"}}, {"name": "Centre de Psychiatrie Les Tournesols", "latitude": 47.8020584, "longitude": 1.0571699, "source": "osm", "_tags": {"amenity": "hospital", "healthcare": "hospital", "name": "Centre de Psychiatrie Les Tournesols", "operator": "Centre hospitalier de Vendôme-Montoire", "phone": "+33 2 54 23 36 41", "ref:FR:FINESS": "410003768", "source": "cadastre-dgi-fr source : Direction Générale des Impôts - Cadastre ; mise à jour :2008"}}, {"name": "Clinique du Saint-Coeur", "latitude": 47.7970162, "longitude": 1.0651958, "source": "osm", "_tags": {"amenity": "hospital", "fax": "+33 2 54 23 50 87", "name": "Clinique du Saint-Coeur", "operator": "Groupe Elsan", "operator:type": "private", "phone": "+33 8 26 39 99 32", "ref:FR:FINESS": "410004998", "source": "cadastre-dgi-fr source : Direction Générale des Impôts - Cadastre ; mise à jour :2008", "type:FR:FINESS": "365", "website": "http://www.saint-coeur.groupe-elsan.com/"}}, {"name": "Clinique de l'Archette", "latitude": 47.8583727, "longitude": 1.9086885, "source": "osm", "_tags": {"amenity": "hospital", "healthcare": "hospital", "name": "Clinique de l'Archette", "ref:FR:FINESS": "450000245", "type:FR:FINESS": "109"}}, {"name": "Centre de réadaptation CRF de Beaurouvre", "latitude": 48.3189272, "longitude": 1.2765421, "source": "osm", "_tags": {"amenity": "hospital", "healthcare": "hospital", "landcover": "wood", "name": "Centre de réadaptation CRF de Beaurouvre", "ref:FR:FINESS": "280000266"}}, {"name": "Centre de soins \"Les Buissonnets\"", "latitude": 47.8569215, "longitude": 1.9101635, "source": "osm", "_tags": {"amenity": "hospital", "building": "yes", "healthcare": "hospital", "name": "Centre de soins \"Les Buissonnets\"", "ref:FR:FINESS": "450000286", "source": "cadastre-dgi-fr source : Direction Générale des Impôts - Cadastre. Mise à jour : 2013", "type:FR:FINESS": "109"}}, {"name": "Centre Hospitalier Louis Pasteur", "latitude": 48.4206782, "longitude": 1.506739, "source": "osm", "_tags": {"amenity": "hospital", "emergency": "yes", "fax": "+33 2 37 30 31 22", "healthcare:speciality": "intensive", "name": "Centre Hospitalier Louis Pasteur", "operator:type": "public", "phone": "+33 2 37 30 30 30", "ref:FR:FINESS": "280504267", "type:FR:FINESS": "355", "website": "https://www.ch-chartres.fr/index.php"}}, {"name": "", "latitude": 47.9164236, "longitude": 1.8723399, "source": "osm", "_tags": {"amenity": "hospital", "healthcare": "hospital"}}, {"name": "Centre Hospitalier Simone Veil de Blois", "latitude": 47.6037254, "longitude": 1.3433445, "source": "osm", "_tags": {"addr:city": "Blois", "addr:postcode": "41000", "alt_name": "Hôpital Simone Veil", "amenity": "hospital", "check_date": "2024-12-31", "emergency": "yes", "fax": "+33 2 54 55 60 78", "healthcare": "hospital", "healthcare:speciality": "intensive", "name": "Centre Hospitalier Simone Veil de Blois", "operator:type": "public", "phone": "+33 2 54 55 66 33", "ref:FR:FINESS": "410000020", "short_name": "CH Blois", "type:FR:FINESS": "355", "website": "https://www.ch-blois.fr/"}}, {"name": "USLD Les Blés d'Or", "latitude": 48.1777275, "longitude": 1.3833315, "source": "osm", "_tags": {"amenity": "hospital", "building": "hospital", "healthcare": "hospital", "name": "USLD Les Blés d'Or", "operator": "Centre Hospitalier Bonneval", "source": "cadastre-dgi-fr source : Direction Générale des Finances Publiques - Cadastre. Mise à jour : 2014"}}, {"name": "Centre Hospitalier Universitaire d'Orléans", "latitude": 47.8358832, "longitude": 1.9209414, "source": "osm", "_tags": {"addr:housenumber": "14", "addr:postcode": "45100", "addr:street": "Avenue de l'Hôpital", "alt_name": "Hôpital de la Source", "amenity": "hospital", "contact:facebook": "chrorleans", "contact:instagram": "chu.orleans", "contact:twitter": "chr_orleans", "emergency": "yes", "fax": "+33 2 38 51 49 50", "healthcare": "hospital", "name": "Centre Hospitalier Universitaire d'Orléans", "operator:type": "public", "phone": "+33 2 38 51 44 44", "ref:FR:FINESS": "450002613", "short_name": "CHRO", "type:FR:FINESS": "101", "website": "https://www.chu-orleans.fr/", "wikidata": "Q30739541"}}, {"name": "Centre hospitalier départemental Georges Daumézon", "latitude": 47.9454553, "longitude": 1.9428807, "source": "osm", "_tags": {"addr:postcode": "45400", "amenity": "hospital", "healthcare": "hospital", "name": "Centre hospitalier départemental Georges Daumézon", "ref:FR:FINESS": "450000930", "source": "Bing", "start_date": "1913", "type:FR:FINESS": "292", "website": "http://www.ch-daumezon45.fr/"}}, {"name": "Maison des Consultations", "latitude": 47.9401413, "longitude": 1.8796473, "source": "osm", "_tags": {"addr:housenumber": "551", "addr:street": "Avenue Jacqueline Auriol", "amenity": "hospital", "building": "yes", "healthcare": "hospital", "name": "Maison des Consultations", "ref:FR:FINESS": "450000294", "type:FR:FINESS": "129"}}, {"name": "Polyclinique de Blois", "latitude": 47.6171252, "longitude": 1.3416585, "source": "osm", "_tags": {"amenity": "hospital", "healthcare": "hospital", "name": "Polyclinique de Blois", "ref:FR:FINESS": "410000202", "website": "https://www.clinique-blois.com"}}, {"name": "", "latitude": 47.9388679, "longitude": 1.8821088, "source": "osm", "_tags": {"addr:city": "Saran", "addr:postcode": "45770", "amenity": "hospital", "healthcare": "hospital", "source": "Le ministère des solidarités et de la santé - 03/2019"}}, {"name": "Centre hospitalier de Châteaudun", "latitude": 48.0743937, "longitude": 1.3573333, "source": "osm", "_tags": {"amenity": "hospital", "email": "contact@ch-chateaudun.fr", "emergency": "yes", "fax": "+33 2 37 44 40 01", "healthcare": "hospital", "name": "Centre hospitalier de Châteaudun", "operator:type": "public", "phone": "+33 2 37 44 40 40", "ref:FR:FINESS": "280000662", "type:FR:FINESS": "355", "website": "https://www.ch-chateaudun.fr/"}}, {"name": "Pôle Santé Oréliance", "latitude": 47.9395759, "longitude": 1.8789262, "source": "osm", "_tags": {"addr:housenumber": "555", "addr:street": "Avenue Jacqueline Auriol", "amenity": "hospital", "emergency": "yes", "fax": "+33 2 38 79 60 60", "healthcare": "hospital", "name": "Pôle Santé Oréliance", "operator": "Groupe Saint-Gatien", "operator:type": "private", "phone": "+33 2 38 79 60 00", "ref:FR:FINESS": "450010079", "type:FR:FINESS": "365", "website": "https://oreliance.com/"}}, {"name": "Centre hospitalier de Vendôme-Montoire", "latitude": 47.7939371, "longitude": 1.0629287, "source": "osm", "_tags": {"alt_name": "Hôpital Daniel Chanet", "amenity": "hospital", "email": "direction@ch-vendome.fr", "healthcare": "hospital", "name": "Centre hospitalier de Vendôme-Montoire", "operator:type": "public", "phone": "+33 2 54 23 33 33", "ref:FR:FINESS": "410000038", "type:FR:FINESS": "355", "website": "https://www.ch-vendome.fr"}}, {"name": "Hopital de Jour Adulte", "latitude": 47.5803701, "longitude": 1.3237693, "source": "osm", "_tags": {"amenity": "hospital", "healthcare": "hospital", "name": "Hopital de Jour Adulte"}}, {"name": "", "latitude": 47.90629, "longitude": 1.91918, "source": "osm", "_tags": {"amenity": "hospital", "healthcare": "hospital"}}]