[{"name": "Polyclinique de la Forêt", "latitude": 48.4124171, "longitude": 2.7015247, "source": "osm", "_tags": {"amenity": "hospital", "healthcare": "hospital", "name": "Polyclinique de la Forêt", "ref:FR:FINESS": "770300275", "type:FR:FINESS": "365"}}, {"name": "Centre hospitalier de Fontainebleau", "latitude": 48.4111166, "longitude": 2.6973835, "source": "osm", "_tags": {"addr:city": "Fontainebleau", "addr:housenumber": "98", "addr:postcode": "65300", "addr:street": "Avenue de Verdun", "amenity": "hospital", "emergency": "yes", "fax": "+33 1 60 36 92 01", "healthcare": "hospital", "healthcare:speciality": "intensive;cardiology;maternity;physiatry", "name": "Centre hospitalier de Fontainebleau", "operator": "Centre hospitalier du sud Seine-et-Marne", "operator:type": "private", "phone": "+33 1 60 05 98 05", "ref:FR:FINESS": "770000149", "type:FR:FINESS": "355", "website": "https://www.ch-sud-seine-et-marne.fr/", "wikidata": "Q97959036"}}, {"name": "Clinique de Montargis", "latitude": 48.0042235, "longitude": 2.7325405, "source": "osm", "_tags": {"amenity": "hospital", "building": "yes", "healthcare": "hospital", "name": "Clinique de Montargis", "ref:FR:FINESS": "450012968", "source": "cadastre-dgi-fr source : Direction Générale des Impôts - Cadastre. Mise à jour : 2011", "type:FR:FINESS": "365"}}, {"name": "Centre hospitalier de Pithiviers", "latitude": 48.1711285, "longitude": 2.2501494, "source": "osm", "_tags": {"amenity": "hospital", "emergency": "yes", "fax": "+33 2 38 32 31 11", "name": "Centre hospitalier de Pithiviers", "operator:type": "public", "phone": "+33 2 38 32 31 31", "ref:FR:FINESS": "450000070", "source": "Bing", "type:FR:FINESS": "355", "website": "https://www.hopital-pithiviers.fr/", "wheelchair": "yes"}}, {"name": "Centre hospitalier Pierre Dezarnaulds", "latitude": 47.6902357, "longitude": 2.6350061, "source": "osm", "_tags": {"amenity": "hospital", "emergency": "yes", "fax": "+33 2 38 29 38 13", "healthcare": "hospital", "name": "Centre hospitalier Pierre Dezarnaulds", "operator:type": "public", "phone": "+33 2 38 29 38 29", "ref:FR:FINESS": "450000047", "type:FR:FINESS": "355", "website": "http://chpdgien.wixsite.com/ch-gien"}}, {"name": "Centre hospitalier d'Étampes", "latitude": 48.4213801, "longitude": 2.1496533, "source": "osm", "_tags": {"amenity": "hospital", "check_date": "2024-07-19", "emergency": "yes", "facebook": "Centre Hospitalier Sud Essonne Dourdan-Etampes", "fax": "+33 1 60 80 78 78", "healthcare": "hospital", "healthcare:speciality": "intensive", "name": "Centre hospitalier d'Étampes", "operator": "Centre hospitalier Sud-Essonne", "operator:type": "public", "phone": "+33 1 60 80 76 76", "ref:FR:FINESS": "910001973", "source": "cadastre-dgi-fr source : Direction Générale des Impôts - Cadastre. Mise à jour : 2015", "twitter": "CHSudEssonne", "type:FR:FINESS": "355", "website": "http://www.ch-sudessonne.fr/"}}, {"name": "", "latitude": 47.9154017, "longitude": 2.0296158, "source": "osm", "_tags": {"amenity": "hospital", "healthcare": "hospital"}}, {"name": "Centre hospitalier départemental Georges Daumézon", "latitude": 47.9454553, "longitude": 1.9428807, "source": "osm", "_tags": {"addr:postcode": "45400", "amenity": "hospital", "healthcare": "hospital", "name": "Centre hospitalier départemental Georges Daumézon", "ref:FR:FINESS": "450000930", "source": "Bing", "start_date": "1913", "type:FR:FINESS": "292", "website": "http://www.ch-daumezon45.fr/"}}, {"name": "Centre hospitalier de Nemours", "latitude": 48.2625247, "longitude": 2.703711, "source": "osm", "_tags": {"amenity": "hospital", "emergency": "yes", "fax": "+33 1 64 45 19 20", "name": "Centre hospitalier de Nemours", "operator": "Centre hospitalier du sud Seine-et-Marne", "operator:type": "public", "phone": "+33 1 64 45 19 00", "ref:FR:FINESS": "770000214", "source": "bing", "type:FR:FINESS": "355", "website": "https://www.ch-sud-seine-et-marne.fr/"}}, {"name": "Unité d'Hospitalisation Psychiatrique Adultes", "latitude": 47.9999233, "longitude": 2.7720478, "source": "osm", "_tags": {"amenity": "social_facility", "barrier": "fence", "beds": "48", "capacity": "48", "healthcare": "hospital", "healthcare:speciality": "psychiatry", "name": "Unité d'Hospitalisation Psychiatrique Adultes", "short_name": "UHP", "social_facility": "group_home", "social_facility:for": "mental_health"}}, {"name": "Institut Médical de Sologne", "latitude": 47.5913283, "longitude": 2.0288005, "source": "osm", "_tags": {"alt_name": "Les Pins", "amenity": "hospital", "healthcare": "hospital", "name": "Institut Médical de Sologne", "ref:FR:FINESS": "410000418", "type:FR:FINESS": "109", "wheelchair": "yes"}}, {"name": "Centre hospitalier de l'agglomération montargoise", "latitude": 47.9970669, "longitude": 2.7726893, "source": "osm", "_tags": {"amenity": "hospital", "emergency": "yes", "fax": "+33 2 38 95 90 22", "healthcare:speciality": "intensive", "name": "Centre hospitalier de l'agglomération montargoise", "operator:type": "public", "phone": "+33 2 38 95 91 11", "ref:FR:FINESS": "450000062", "short_name": "CHAM", "type:FR:FINESS": "355", "website": "https://www.ch-montargis.fr/accueil/"}}, {"name": "Clinique de Saclas", "latitude": 48.3563051, "longitude": 2.1276314, "source": "osm", "_tags": {"amenity": "hospital", "healthcare": "hospital", "name": "Clinique de Saclas", "opening_hours": "Mo-Su 09:00-12:00, 14:00-18:00", "ref:FR:FINESS": "910300235", "ref:FR:SIRET": "97020107500011", "type:FR:FINESS": "109"}}, {"name": "COS CRPF", "latitude": 48.2593724, "longitude": 2.8060005, "source": "osm", "_tags": {"addr:housenumber": "2", "addr:street": "Rue des Arches", "amenity": "hospital", "building": "no", "emergency": "no", "healthcare": "hospital", "healthcare:speciality": "community", "name": "COS CRPF", "operator": "Fondation Alexandre Glasberg", "operator:type": "private_non_profit"}}, {"name": "", "latitude": 47.8768685, "longitude": 1.9533943, "source": "osm", "_tags": {"amenity": "hospital", "healthcare": "hospital"}}]