[{"name": "", "latitude": 47.7545536, "longitude": 27.9054111, "source": "osm", "_tags": {"amenity": "hospital", "healthcare": "hospital"}}, {"name": "Spital Gonța", "latitude": 48.3533677, "longitude": 27.0845424, "source": "osm", "_tags": {"addr:city": "Briceni", "amenity": "hospital", "healthcare": "hospital", "name": "Spital Gonța"}}, {"name": "", "latitude": 48.3537763, "longitude": 27.0842599, "source": "osm", "_tags": {"addr:city": "Briceni", "amenity": "hospital", "healthcare": "hospital"}}, {"name": "", "latitude": 47.7788914, "longitude": 27.7980362, "source": "osm", "_tags": {"amenity": "hospital"}}, {"name": "Centrul medicilor de familie", "latitude": 47.7530556, "longitude": 27.5771288, "source": "osm", "_tags": {"amenity": "hospital", "name": "Centrul medicilor de familie"}}, {"name": "Urgența", "latitude": 48.36117, "longitude": 27.0872695, "source": "osm", "_tags": {"amenity": "hospital", "name": "Urgența", "name:en": "Ambulance", "name:ro": "Urgența", "name:ru": "Скорая помощь"}}, {"name": "Centrul de Sănătate Publică", "latitude": 48.1693952, "longitude": 27.3027158, "source": "osm", "_tags": {"addr:country": "MD", "addr:housenumber": "16", "addr:postcode": "MD-4601", "addr:street": "Strada Alexandr Pușkin", "amenity": "hospital", "name": "Centrul de Sănătate Publică", "name:ru": "Центр общественного здравоохранения", "opening_hours": "Mo-Fr 08:00-16:00", "phone": "024623966"}}, {"name": "Secția exterioară psihiatrie Șipote", "latitude": 47.5188981, "longitude": 27.2157008, "source": "osm", "_tags": {"amenity": "hospital", "emergency": "no", "healthcare": "hospital", "healthcare:speciality": "psychiatry", "name": "Secția exterioară psihiatrie Șipote", "operator": "Institutul de psihiatrie Socola Iași"}}, {"name": "Hospital Fundurii Vechi", "latitude": 47.7379354, "longitude": 27.7117785, "source": "osm", "_tags": {"amenity": "hospital", "healthcare": "hospital", "name": "Hospital Fundurii Vechi", "operator": "Public"}}, {"name": "Policlinica", "latitude": 47.6870547, "longitude": 27.350286, "source": "osm", "_tags": {"amenity": "hospital", "healthcare": "hospital", "name": "Policlinica"}}, {"name": "Centrul de Sănătate Publică Dondușeni", "latitude": 48.2430683, "longitude": 27.5949252, "source": "osm", "_tags": {"amenity": "hospital", "healthcare": "hospital", "name": "Centrul de Sănătate Publică Dondușeni"}}, {"name": "Centrul de Sănătate Publică Briceni", "latitude": 48.3538396, "longitude": 27.0848887, "source": "osm", "_tags": {"amenity": "hospital", "name": "Centrul de Sănătate Publică Briceni"}}, {"name": "centrul medicilor de familie", "latitude": 48.0324236, "longitude": 27.7999363, "source": "osm", "_tags": {"amenity": "hospital", "name": "centrul medicilor de familie", "name:ru": "Центр семейных врачей"}}, {"name": "Spitalul Raional Drochia", "latitude": 48.0306526, "longitude": 27.8011138, "source": "osm", "_tags": {"amenity": "hospital", "name": "Spitalul Raional Drochia", "name:ru": "Районная Больница"}}, {"name": "Spitalul Feroviar", "latitude": 47.7779082, "longitude": 27.892731, "source": "osm", "_tags": {"amenity": "hospital", "healthcare": "hospital", "name": "Spitalul Feroviar", "name:ru": "Железнодорожная больница"}}, {"name": "Staţia Zonală de Asistenţă Medicală Urgentă \"Nord\"", "latitude": 47.7744773, "longitude": 27.8934944, "source": "osm", "_tags": {"amenity": "hospital", "healthcare": "hospital", "name": "Staţia Zonală de Asistenţă Medicală Urgentă \"Nord\"", "name:ru": "Скорая помощь"}}, {"name": "Centrul de transfuzie a sîngelui", "latitude": 47.7734035, "longitude": 27.8940641, "source": "osm", "_tags": {"amenity": "hospital", "healthcare": "hospital", "name": "Centrul de transfuzie a sîngelui", "name:ru": "Центр переливания"}}, {"name": "Centrul Pneumofiziologic", "latitude": 47.7542, "longitude": 27.9062288, "source": "osm", "_tags": {"amenity": "hospital", "healthcare": "hospital", "name": "Centrul Pneumofiziologic", "name:ru": "Центр пульмонологии"}}, {"name": "Maternitatea Bălţi", "latitude": 47.7637553, "longitude": 27.9322456, "source": "osm", "_tags": {"addr:city": "Bălți", "addr:country": "MD", "addr:street": "Strada Ștefan cel Mare și Sfânt", "amenity": "hospital", "healthcare": "hospital", "healthcare:speciality": "maternity", "name": "Maternitatea Bălţi", "name:ru": "Роддом"}}, {"name": "Centru de reabilitare pentru copii", "latitude": 48.1678923, "longitude": 27.6594719, "source": "osm", "_tags": {"amenity": "hospital", "name": "Centru de reabilitare pentru copii", "name:ru": "Реабилитационный центр для детей"}}, {"name": "Fostul Spital nodului feroviar Ocnița", "latitude": 48.4031885, "longitude": 27.4878078, "source": "osm", "_tags": {"addr:city": "Ocniţa", "addr:country": "MD", "addr:housenumber": "4", "addr:street": "Strada Sănătății", "amenity": "hospital", "healthcare": "hospital", "name": "Fostul Spital nodului feroviar Ocnița", "name:ru": "Бывшая Окницкая Узловая железнодорожная больница"}}, {"name": "Instituția Medico-sanitare publice Spitalul Raional Ocnița", "latitude": 48.3993071, "longitude": 27.4915209, "source": "osm", "_tags": {"addr:city": "Ocnița", "addr:country": "MD", "addr:housenumber": "20", "addr:street": "Strada Sănătății", "amenity": "hospital", "barrier": "fence", "healthcare": "hospital", "name": "Instituția Medico-sanitare publice Spitalul Raional Ocnița", "name:ru": "Окницкая районная больница"}}, {"name": "", "latitude": 47.8272336, "longitude": 27.4939577, "source": "osm", "_tags": {"amenity": "hospital", "healthcare": "hospital"}}, {"name": "Spitalul Stroiescu (sec.XIX)", "latitude": 48.0299739, "longitude": 27.3395645, "source": "osm", "_tags": {"amenity": "hospital", "emergency": "no", "healthcare": "hospital", "historic": "monument", "name": "Spitalul Stroiescu (sec.XIX)"}}, {"name": "Policlinica Ochiul Alb", "latitude": 48.0173032, "longitude": 27.6597674, "source": "osm", "_tags": {"addr:city": "Ochiul Alb", "addr:country": "MD", "addr:street": "Strada Mihai Viteazul", "amenity": "hospital", "healthcare": "hospital", "name": "Policlinica Ochiul Alb"}}, {"name": "Spitalul Raional Edineț", "latitude": 48.1843174, "longitude": 27.2974497, "source": "osm", "_tags": {"addr:city": "Edineț", "addr:country": "MD", "addr:street": "Strada Șoseaua Bucovina", "amenity": "hospital", "healthcare": "hospital", "name": "Spitalul Raional Edineț", "name:ro": "Spitalul Raional Edineț"}}, {"name": "Spitalul Raional Rîșcani", "latitude": 47.9535923, "longitude": 27.5619858, "source": "osm", "_tags": {"addr:city": "Rîșcani", "addr:country": "MD", "addr:housenumber": "6", "addr:street": "Strada Nicolae Testemițanu", "amenity": "hospital", "healthcare": "hospital", "name": "Spitalul Raional Rîșcani", "name:ru": "Рышканская районная больница", "type": "multipolygon", "website": "https://srriscani.md/"}}, {"name": "Spitalul Clinic Municipal Bălți", "latitude": 47.7726476, "longitude": 27.8965077, "source": "osm", "_tags": {"addr:city": "Bălți", "amenity": "hospital", "healthcare": "hospital", "name": "Spitalul Clinic Municipal Bălți", "name:ru": "Городская клиническая больница", "type": "multipolygon"}}, {"name": "Centrul Consultativ", "latitude": 47.7730677, "longitude": 27.8975067, "source": "osm", "_tags": {"amenity": "hospital", "healthcare": "hospital", "name": "Centrul Consultativ", "old_name:ru": "Поликлиника №1", "type": "multipolygon"}}, {"name": "Centrul Medicilor de Familie nr. 1", "latitude": 47.7746937, "longitude": 27.8957909, "source": "osm", "_tags": {"addr:city": "Bălți", "addr:country": "MD", "addr:housenumber": "101B", "addr:street": "Strada Decebal", "amenity": "hospital", "healthcare": "hospital", "name": "Centrul Medicilor de Familie nr. 1", "name:ru": "Центр Семейных Врачей №1", "type": "multipolygon"}}, {"name": "Institutul Psihoneurologic", "latitude": 47.740237, "longitude": 27.9178723, "source": "osm", "_tags": {"amenity": "hospital", "healthcare": "hospital", "name": "Institutul Psihoneurologic", "name:uk": "Психоневрологический институт", "type": "multipolygon"}}, {"name": "Spitalul Raional Fălești", "latitude": 47.5779096, "longitude": 27.706586, "source": "osm", "_tags": {"addr:city": "Fălești", "addr:country": "MD", "addr:housenumber": "36", "addr:street": "Strada Ștefan cel Mare și Sfânt", "amenity": "hospital", "healthcare": "hospital", "name": "Spitalul Raional Fălești", "name:ru": "Фалештская районная больница", "phone": "+37325922448", "type": "multipolygon"}}]