[{"name": "Vranovská nemocnica, a.s.", "latitude": 48.8870228, "longitude": 21.691423, "source": "osm", "_tags": {"amenity": "hospital", "contact:website": "https://www.procare.sk/nemocnica/vranovska-nemocnica-s/", "name": "Vranovská nemocnica, a.s."}}, {"name": "", "latitude": 48.7235465, "longitude": 21.2331739, "source": "osm", "_tags": {"addr:city": "Košice", "addr:postcode": "04011", "addr:street": "Ipeľská", "amenity": "hospital", "emergency": "yes", "healthcare": "hospital", "operator": "Ministerstvo zdravotníctva Slovenskej republiky", "operator:short": "MZ SR", "operator:type": "government", "operator:wikidata": "Q12771754"}}, {"name": "Detská fakultná nemocnica", "latitude": 48.7362514, "longitude": 21.2518729, "source": "osm", "_tags": {"amenity": "hospital", "barrier": "fence", "healthcare": "hospital", "name": "Detská fakultná nemocnica"}}, {"name": "Východoslovenský ústav srdcových a cievnych chorôb", "latitude": 48.7213524, "longitude": 21.2407166, "source": "osm", "_tags": {"amenity": "hospital", "building": "yes", "building:levels": "5", "emergency": "yes", "healthcare": "hospital", "healthcare:speciality": "cardiology", "name": "Východoslovenský ústav srdcových a cievnych chorôb", "operator": "Ministerstvo zdravotníctva Slovenskej republiky", "operator:short": "MZ SR", "operator:type": "government", "operator:wikidata": "Q12771754", "short_name": "VÚSCH", "source": "kapor2", "toilets:wheelchair": "yes", "wheelchair": "yes", "wikidata": "Q104588543", "wikipedia": "sk:Východoslovenský ústav srdcových a cievnych chorôb"}}, {"name": "Vysokošpecializovaný odborný ústav geriatrický sv. Lukáša v Košiciach n. o.", "latitude": 48.7270674, "longitude": 21.2499633, "source": "osm", "_tags": {"addr:city": "Košice", "addr:conscriptionnumber": "1099", "addr:country": "SK", "addr:housenumber": "1099/13", "addr:postcode": "04001", "addr:street": "Strojárenská", "addr:streetnumber": "13", "addr:suburb": "Staré Mesto", "amenity": "hospital", "building": "yes", "building:levels": "8", "healthcare": "hospital", "healthcare:speciality": "geriatrics", "name": "Vysokošpecializovaný odborný ústav geriatrický sv. Lukáša v Košiciach n. o.", "ref:minvskaddress": "3655134A", "source": "kapor2", "source:addr": "minvskaddress 2024-02", "website": "https://www.gckosice.sk/"}}, {"name": "Chirurgický monoblok", "latitude": 48.9976529, "longitude": 21.2543532, "source": "osm", "_tags": {"addr:city": "Prešov", "addr:conscriptionnumber": "11254", "addr:country": "SK", "addr:housenumber": "11254", "addr:place": "Prešov", "addr:postcode": "08001", "addr:street": "Jána Hollého", "amenity": "hospital", "building": "hospital", "building:levels": "12", "emergency": "yes", "healthcare": "hospital", "healthcare:speciality": "surgery;dentistry;vaccination;emergency;gynaecology;radiology;angiology;biochemistry;hepatology;urology;plastic_surgery;vascular_surgery;gastroenterology;maternity;cardiothoracic_surgery;neonatology;dental_oral_maxillo_facial_surgery", "name": "Chirurgický monoblok", "operator": "FNsP J. A. Reimana", "ref:minvskaddress": "6701040555", "source": "kapor2", "source:addr": "minvskaddress 2024-02"}}, {"name": "Detská nemocnica", "latitude": 48.9995778, "longitude": 21.2524872, "source": "osm", "_tags": {"addr:city": "Prešov", "addr:conscriptionnumber": "5969", "addr:country": "SK", "addr:housenumber": "5969/40", "addr:postcode": "08001", "addr:street": "Sládkovičova", "addr:streetnumber": "40", "addr:suburb": "Prešov", "amenity": "hospital", "building": "hospital", "emergency": "yes", "healthcare": "hospital", "healthcare:speciality": "paediatrics", "name": "Detská nemocnica", "ref:minvskaddress": "2558126A", "source": "kapor2", "source:addr": "minvskaddress 2021-05"}}, {"name": "Vojenská nemocnica", "latitude": 48.9888426, "longitude": 21.2507081, "source": "osm", "_tags": {"addr:city": "Prešov", "addr:conscriptionnumber": "2768", "addr:country": "SK", "addr:housenumber": "2768/4", "addr:postcode": "08001", "addr:street": "Raymanova", "addr:streetnumber": "4", "addr:suburb": "Prešov", "amenity": "hospital", "building": "yes", "healthcare": "hospital", "name": "Vojenská nemocnica", "ref:minvskaddress": "25539580", "source": "kapor2", "source:addr": "minvskaddress 2024-02"}}, {"name": "Východoslovenský onkologický ústav, a. s.", "latitude": 48.70966, "longitude": 21.2547333, "source": "osm", "_tags": {"amenity": "hospital", "healthcare": "hospital", "name": "Východoslovenský onkologický ústav, a. s.", "source": "EEA-urbanatlas2006", "urbanatlas:CITIES": "Kosice", "urbanatlas:CODE": "12100", "urbanatlas:LUZ_OR_CIT": "SK002L", "urbanatlas:PROD_DATE": "2009"}}, {"name": "Univerzitná nemocnica L. Pasteura", "latitude": 48.7072394, "longitude": 21.2548525, "source": "osm", "_tags": {"alt_name": "Stará nemocnica", "amenity": "hospital", "contact:facebook": "https://www.facebook.com/unlp.sk", "contact:website": "http://www.unlp.sk/", "email": "unlp@unlp.sk", "emergency": "yes", "healthcare": "hospital", "name": "Univerzitná nemocnica L. Pasteura", "note": "Rastislavova", "opening_hours": "24/7", "operator": "Ministerstvo zdravotníctva Slovenskej republiky", "operator:short": "MZ SR", "operator:type": "government", "operator:wikidata": "Q12771754", "phone": "+421 55 615 3111", "ref:vatin": "SK2021141969", "toilets:wheelchair": "yes", "website": "https://www.unlp.sk/", "wheelchair": "limited", "wikidata": "Q16519440", "wikipedia": "sk:Univerzitná nemocnica Louisa Pasteura Košice"}}, {"name": "Univerzitná nemocnica - Nemocnica sv. Michala, pracovisko Košice", "latitude": 48.7175865, "longitude": 21.255736, "source": "osm", "_tags": {"alt_name": "Letecká vojenská nemocnica", "amenity": "hospital", "email": "sekretariatke@nsmas.sk", "healthcare": "hospital", "name": "Univerzitná nemocnica - Nemocnica sv. Michala, pracovisko Košice", "operator": "Univerzitná nemocnica - Nemocnica svätého Michala, a.s.", "phone": "+421 55 6130 111", "toilets:wheelchair": "yes", "website": "https://nsmas.sk/kosice", "wheelchair": "yes"}}, {"name": "Internistický monoblok", "latitude": 48.9984642, "longitude": 21.2540418, "source": "osm", "_tags": {"addr:city": "Prešov", "addr:conscriptionnumber": "14148", "addr:country": "SK", "addr:housenumber": "14148/14C", "addr:postcode": "08001", "addr:street": "Jána Hollého", "addr:streetnumber": "14C", "addr:suburb": "Prešov", "amenity": "hospital", "building": "hospital", "building:levels": "6", "emergency": "yes", "healthcare": "hospital", "healthcare:speciality": "internal;intensive;neurology;cardiology;geriatrics", "name": "Internistický monoblok", "operator": "FNsP J. A. Reimana", "operator:type": "public", "ref:minvskaddress": "700157897A", "source": "kapor2", "source:addr": "minvskaddress 2024-02"}}, {"name": "Nemocnica arm. generála L. Svobodu Svidník, a.s.", "latitude": 49.3128253, "longitude": 21.5703151, "source": "osm", "_tags": {"amenity": "hospital", "contact:website": "https://www.procare.sk/nemocnica/nemocnica-arm-generala-l-svobodu-svidnik-s/", "healthcare": "hospital", "name": "Nemocnica arm. generála L. Svobodu Svidník, a.s."}}, {"name": "Nemocnica s poliklinikou Štefana Kukuru Michalovce, a.s.", "latitude": 48.7535432, "longitude": 21.9156069, "source": "osm", "_tags": {"addr:city": "Michalovce", "addr:conscriptionnumber": "1266", "addr:country": "SK", "addr:housenumber": "1266/2", "addr:postcode": "07101", "addr:street": "Špitálska", "addr:streetnumber": "2", "amenity": "hospital", "brand": "Penta Hospitals", "brand:wikidata": "Q96137636", "contact:website": "https://www.procare.sk/nemocnica/nemocnica-s-poliklinikou-stefana-kukuru-michalovce-s/", "healthcare": "hospital", "name": "Nemocnica s poliklinikou Štefana Kukuru Michalovce, a.s.", "network": "Penta Hospitals", "operator": "Nemocnica s poliklinikou Štefana Kukuru Michalovce", "operator:type": "private", "wikidata": "Q12772420"}}, {"name": "", "latitude": 49.4048501, "longitude": 20.9528409, "source": "osm", "_tags": {"amenity": "hospital"}}, {"name": "Szpital im. dr. J. Dietla", "latitude": 49.4009322, "longitude": 20.9541678, "source": "osm", "_tags": {"amenity": "hospital", "healthcare": "hospital", "name": "Szpital im. dr. J. Dietla"}}, {"name": "Detská fakultná nemocnica Košice", "latitude": 48.7215341, "longitude": 21.239457, "source": "osm", "_tags": {"amenity": "hospital", "emergency": "yes", "healthcare": "hospital", "name": "Detská fakultná nemocnica Košice", "phone": "+421552354101", "source": "http://www.dfnkosice.sk", "toilets:wheelchair": "yes", "website": "http://www.dfnkosice.sk", "wheelchair": "yes"}}, {"name": "Nemocnica s poliklinikou Trebišov, a.s.", "latitude": 48.6180128, "longitude": 21.7154511, "source": "osm", "_tags": {"amenity": "hospital", "contact:website": "https://www.procare.sk/nemocnica/nemocnica-s-poliklinikou-trebisov-s/", "healthcare": "hospital", "name": "Nemocnica s poliklinikou Trebišov, a.s.", "wikidata": "Q12772424"}}, {"name": "Diagnostické, preventívne a výskumné centrum VÚSCH", "latitude": 48.7212306, "longitude": 21.241222, "source": "osm", "_tags": {"addr:city": "Košice", "addr:housenumber": "8", "addr:postcode": "04011", "addr:street": "Ondavská", "amenity": "hospital", "building": "yes", "emergency": "no", "healthcare": "hospital", "name": "Diagnostické, preventívne a výskumné centrum VÚSCH", "operator": "Ministerstvo zdravotníctva Slovenskej republiky", "operator:short": "MZ SR", "operator:type": "government", "operator:wikidata": "Q12771754", "wikidata": "Q104588543", "wikipedia": "sk:Východoslovenský ústav srdcových a cievnych chorôb"}}, {"name": "Železničná nemocnica s poliklinikou Košice", "latitude": 48.727872, "longitude": 21.2598301, "source": "osm", "_tags": {"amenity": "hospital", "brand": "Penta Hospitals", "brand:wikidata": "Q96137636", "emergency": "yes", "healthcare": "hospital", "name": "Železničná nemocnica s poliklinikou Košice", "network": "Penta Hospitals", "official_name": "Železničné zdravotníctvo Košice, s.r.o.", "operator": "Železničné zdravotníctvo Košice", "operator:type": "private", "phone": "+421 55 229 5818", "ref:vatin": "SK7020000669", "website": "https://pentahospitals.sk/nemocnica/zeleznicna-nemocnica-s-poliklinikou-kosice/", "wheelchair": "yes"}}, {"name": "Nemocnica AGEL Košice-Šaca", "latitude": 48.6422582, "longitude": 21.1731688, "source": "osm", "_tags": {"addr:city": "Košice", "amenity": "hospital", "brand": "Agel", "brand:wikidata": "Q41365932", "email": "objednavanie@nke.agel.sk", "emergency": "yes", "fax": "+421 55 723 4444", "healthcare": "hospital", "healthcare:speciality": "surgery;burns", "name": "Nemocnica AGEL Košice-Šaca", "old_name": "Nemocnica Košice-Šaca a.s., 1. súkromná nemocnica", "operator": "AGEL SK a.s.", "operator:type": "private", "phone": "+421 55 723 4111", "start_date": "1970", "website": "https://nemocnicakosicesaca.agel.sk/", "wheelchair": "yes", "wikidata": "Q63967028", "wikimedia_commons": "Category:Hospital Košice-Šaca", "wikipedia": "sk:Nemocnica Košice-Šaca"}}, {"name": "Univerzitná nemocnica Louisa Pasteura", "latitude": 48.7222948, "longitude": 21.2387488, "source": "osm", "_tags": {"addr:city": "Košice", "addr:housenumber": "1", "addr:postcode": "04011", "addr:street": "Trieda SNP", "alt_name": "Nová nemocnica", "amenity": "hospital", "contact:facebook": "https://www.facebook.com/unlp.sk", "email": "unlp@unlp.sk", "emergency": "yes", "healthcare": "hospital", "healthcare:speciality": "general;psychiatry;chiropractic;paediatrics;orthopaedics;gynaecology;radiology;emergency;acupuncture;dermatology;surgery;dentistry;oncology;cardiology;osteopathy;physiatry;internal;neurology", "name": "Univerzitná nemocnica Louisa Pasteura", "opening_hours": "24/7", "operator": "Ministerstvo zdravotníctva Slovenskej republiky", "operator:short": "MZ SR", "operator:type": "government", "operator:wikidata": "Q12771754", "phone": "+421 55 615 3111", "ref:vatin": "SK2021141969", "website": "https://www.unlp.sk/", "wheelchair": "yes", "wikidata": "Q16519440", "wikipedia": "sk:Univerzitná nemocnica Louisa Pasteura Košice"}}, {"name": "Nemocnica Stropkov", "latitude": 49.1985408, "longitude": 21.6550512, "source": "osm", "_tags": {"amenity": "hospital", "healthcare": "hospital", "name": "Nemocnica Stropkov", "website": "https://pentahospitals.sk/nemocnica/nemocnica-stropkov/"}}, {"name": "Nemocnica s poliklinikou Sv. Jakuba, n.o., Bardejov", "latitude": 49.2864217, "longitude": 21.272752, "source": "osm", "_tags": {"amenity": "hospital", "contact:website": "http://www.nsp-bardejov.sk/", "name": "Nemocnica s poliklinikou Sv. Jakuba, n.o., Bardejov"}}, {"name": "Nemocnica A. Leňa Humenné, a.s.", "latitude": 48.9337704, "longitude": 21.8977353, "source": "osm", "_tags": {"amenity": "hospital", "contact:website": "https://www.procare.sk/nemocnica/nemocnica-lena-humenne-s/", "healthcare": "hospital", "name": "Nemocnica A. Leňa Humenné, a.s."}}, {"name": "Psychiatrická nemocnica Michalovce, n.o.", "latitude": 48.7551381, "longitude": 21.9398846, "source": "osm", "_tags": {"amenity": "hospital", "barrier": "fence", "contact:website": "http://www.pnmi.sk/", "healthcare": "hospital", "healthcare:speciality": "psychiatry", "name": "Psychiatrická nemocnica Michalovce, n.o."}}, {"name": "Špecializovaná nemocnica Oáza", "latitude": 48.9988151, "longitude": 21.2204174, "source": "osm", "_tags": {"amenity": "hospital", "description": "Špecializovaná nemocnica v odbore fyziatria, balneólogia a liečebná rehabilitácia", "healthcare": "hospital", "healthcare:speciality": "physiatry;neurology", "name": "Špecializovaná nemocnica Oáza", "operator": "Mineral Slovakia, s. r. o.", "operator:type": "private", "website": "https://www.oazapresov.sk/"}}, {"name": "Poliklinika ProCare Sekčov", "latitude": 48.9944793, "longitude": 21.2672081, "source": "osm", "_tags": {"amenity": "hospital", "brand": "Penta Hospitals", "brand:wikidata": "Q96137636", "emergency": "yes", "healthcare": "hospital", "healthcare:speciality": "general;paediatrics;vaccination;dentistry;orthopaedics;gynaecology;surgery;radiology;internal;biochemistry;zubní;ústní_a_maxilofaciální_chirurgie;trauma;stomatology;ušní;nosní_a_krční;psychiatry;diagnostic_radiology;biology;emergency", "name": "Poliklinika ProCare Sekčov", "operator": "Penta Hospitals", "operator:type": "private", "website": "https://www.procare.sk/poliklinika/procare-presov/https://www.procare.sk/poliklinika/procare-presov/", "wikidata": "Q64554412"}}, {"name": "Detská psychiatrická liečebňa n.o. Hraň", "latitude": 48.532125, "longitude": 21.7809132, "source": "osm", "_tags": {"amenity": "hospital", "healthcare": "hospital", "healthcare:speciality": "child_psychiatry", "name": "Detská psychiatrická liečebňa n.o. Hraň", "phone": "+421 56 679 00 12", "website": "https://www.dplhran.sk/"}}, {"name": "Univerzitná nemocnica L. Pasteura", "latitude": 48.7225807, "longitude": 21.2391246, "source": "osm", "_tags": {"amenity": "hospital", "contact:website": "http://www.unlp.sk/", "name": "Univerzitná nemocnica L. Pasteura", "site": "hospital", "type": "site"}}, {"name": "Detská fakultná nemocnica", "latitude": 48.7215341, "longitude": 21.239457, "source": "osm", "_tags": {"addr:city": "Košice", "addr:country": "SK", "addr:housenumber": "1", "addr:postcode": "040 01", "addr:street": "Trieda SNP", "alt_name": "DFN Košice", "amenity": "hospital", "name": "Detská fakultná nemocnica", "phone": "+421 55 2354101", "source": "http://www.dfnkosice.sk", "type": "site", "website": "http://www.dfnkosice.sk"}}, {"name": "", "latitude": 48.7225807, "longitude": 21.2387675, "source": "osm", "_tags": {"addr:city": "Košice", "addr:country": "SK", "addr:housenumber": "1", "addr:postcode": "04011", "addr:street": "Trieda SNP", "addr:streetnumber": "1", "amenity": "hospital", "building": "yes", "building:levels": "4", "emergency": "yes", "healthcare": "hospital", "operator": "Ministerstvo zdravotníctva Slovenskej republiky", "operator:short": "MZ SR", "operator:type": "government", "operator:wikidata": "Q12771754", "toilets:wheelchair": "yes", "type": "multipolygon", "wheelchair": "yes"}}, {"name": "Fakultná nemocnica s poliklinikou J. A. Reimana Prešov", "latitude": 48.9980557, "longitude": 21.256095, "source": "osm", "_tags": {"addr:city": "Prešov", "addr:housenumber": "5898/14", "addr:postcode": "08001", "addr:street": "Jána Hollého", "amenity": "hospital", "contact:facebook": "https://www.facebook.com/fnsppresov/?locale=sk_SK", "contact:website": "http://www.fnsppresov.sk/", "email": "nemocnica@fnsppresov.sk", "emergency": "yes", "healthcare": "hospital", "healthcare:speciality": "general;psychiatry;paediatrics;dentistry;ophthalmology;intensive;vaccination;biology;orthopaedics;gynaecology;orthodontics;dialysis;emergency;surgery;cardiology;dermatology;radiology;oncology;internal;community;maternity;physiatry;osteopathy;nephrology;an", "name": "Fakultná nemocnica s poliklinikou J. A. Reimana Prešov", "opening_hours": "24/7", "operator": "FNsP J. A. Reimana", "operator:type": "public", "phone": "+421 51/7011111", "ref:vatin": "SK2021281559", "type": "multipolygon", "wheelchair": "yes", "wikidata": "Q110270819", "wikipedia": "sk:Fakultná nemocnica s poliklinikou J. A. Reimana Prešov"}}]