[{"name": "Všeobecná nemocnica Banská Štiavnica", "latitude": 48.4542647, "longitude": 18.9175928, "source": "osm", "_tags": {"amenity": "hospital", "contact:website": "https://www.procare.sk/nemocnica/nemocnica-banska-stiavnica/", "name": "Všeobecná nemocnica Banská Štiavnica"}}, {"name": "11. Interné oddelenie", "latitude": 48.8844049, "longitude": 18.0294862, "source": "osm", "_tags": {"description": "Ambulancie: - príjmová a pohotovostná ambulancia - ambulancia pre rekonvalescentov", "healthcare": "hospital", "healthcare:speciality": "internal;emergency;immunology;endocrinology;diabetology;vascular_surgery;allergology;infectious_diseases", "hospital": "department", "name": "11. Interné oddelenie"}}, {"name": "Psychiatrická nemocnica Prof. Matulaya", "latitude": 48.6964772, "longitude": 18.9284992, "source": "osm", "_tags": {"amenity": "hospital", "contact:website": "http://www.pnkca.sk/", "name": "Psychiatrická nemocnica Prof. Matulaya"}}, {"name": "Nemocnica pre obvinených a odsúdených", "latitude": 48.889539, "longitude": 18.0343004, "source": "osm", "_tags": {"amenity": "hospital", "healthcare": "hospital", "name": "Nemocnica pre obvinených a odsúdených", "name:sk": "Nemocnica pre obvinených a odsúdených"}}, {"name": "Fakultná nemocnica Trenčín", "latitude": 48.8841239, "longitude": 18.0301762, "source": "osm", "_tags": {"amenity": "hospital", "emergency": "yes", "healthcare": "hospital", "name": "Fakultná nemocnica Trenčín", "website": "https://www.fntn.sk/"}}, {"name": "Nemocnica Bánovce - 3. súkromná nemocnica, s.r.o.", "latitude": 48.7202291, "longitude": 18.258189, "source": "osm", "_tags": {"addr:city": "Bánovce nad Bebravou", "addr:conscriptionnumber": "23", "addr:country": "SK", "addr:housenumber": "23/3", "addr:postcode": "95701", "addr:street": "Hviezdoslavova", "addr:streetnumber": "3", "addr:suburb": "Bánovce nad Bebravou", "amenity": "hospital", "building": "hospital", "contact:website": "https://www.nemocnicabanovce.sk/index.html", "name": "Nemocnica Bánovce - 3. súkromná nemocnica, s.r.o.", "ref:minvskaddress": "10309970", "source": "kapor2", "source:addr": "minvskaddress 2022-12"}}, {"name": "Fakultná nemocnica s poliklinikou Žilina", "latitude": 49.2169741, "longitude": 18.7492928, "source": "osm", "_tags": {"amenity": "hospital", "emergency": "yes", "healthcare": "hospital", "name": "Fakultná nemocnica s poliklinikou Žilina", "short_name": "FNsP Žilina", "website": "https://www.fnspza.sk/", "wikidata": "Q30297497"}}, {"name": "Nemocnica s poliklinikou Považská Bystrica", "latitude": 49.1052898, "longitude": 18.4591452, "source": "osm", "_tags": {"amenity": "hospital", "contact:website": "http://www.nemocnicapb.sk/", "emergency": "yes", "healthcare": "hospital", "name": "Nemocnica s poliklinikou Považská Bystrica"}}, {"name": "", "latitude": 48.566827, "longitude": 18.8552843, "source": "osm", "_tags": {"addr:city": "Žiar nad Hronom", "addr:housenumber": "12", "addr:postcode": "96501", "addr:street": "Priemyselná", "amenity": "hospital", "brand": "Agel", "brand:wikidata": "Q41365932", "healthcare": "hospital", "source": "kapor2"}}, {"name": "Nemocnica s poliklinikou Ilava", "latitude": 48.9941359, "longitude": 18.232636, "source": "osm", "_tags": {"amenity": "hospital", "contact:website": "http://www.nspilava.sk/", "emergency": "no", "healthcare": "hospital", "name": "Nemocnica s poliklinikou Ilava", "short_name": "NsP Ilava", "source": "kapor2"}}, {"name": "Nemocnica s poliklinikou Prievidza so sídlom v Bojniciach", "latitude": 48.7856289, "longitude": 18.5898686, "source": "osm", "_tags": {"amenity": "hospital", "emergency": "yes", "healthcare": "hospital", "name": "Nemocnica s poliklinikou Prievidza so sídlom v Bojniciach", "phone": "+421 46 511 21 11", "source": "kapor2", "website": "https://www.hospital-bojnice.sk/"}}, {"name": "Nemocnice Vsetín", "latitude": 49.3319677, "longitude": 17.9986861, "source": "osm", "_tags": {"amenity": "hospital", "healthcare": "hospital", "name": "Nemocnice Vsetín", "website": "https://www.nemocnice-vs.cz/"}}, {"name": "Univerzitná nemocnica Martin", "latitude": 49.0601248, "longitude": 18.9170159, "source": "osm", "_tags": {"amenity": "hospital", "contact:website": "https://www.unm.sk/", "healthcare": "hospital", "name": "Univerzitná nemocnica Martin", "source": "survey"}}, {"name": "Nemocnica AGEL Handlová s.r.o.", "latitude": 48.7291315, "longitude": 18.7572775, "source": "osm", "_tags": {"amenity": "hospital", "contact:phone": "+421 46 5192777", "contact:website": "https://nemocnicahandlova.agel.sk/", "name": "Nemocnica AGEL Handlová s.r.o."}}, {"name": "Svet zdravia Nemocnica Topoľčany, a.s.", "latitude": 48.5520538, "longitude": 18.1677753, "source": "osm", "_tags": {"amenity": "hospital", "contact:website": "https://www.procare.sk/nemocnica/svet-zdravia-nemocnica-topolcany-s/", "emergency": "yes", "healthcare": "hospital", "name": "Svet zdravia Nemocnica Topoľčany, a.s."}}, {"name": "Nemocnica Partizánske", "latitude": 48.6342598, "longitude": 18.4042078, "source": "osm", "_tags": {"amenity": "hospital", "contact:website": "https://www.procare.sk/nemocnica/nemocnica-na-okraji-mesta-partizanske/", "healthcare": "hospital", "name": "Nemocnica Partizánske", "official_name": "Nemocnica na okraji mesta", "operator": "Nemocnica na okraji mesta, n.o."}}, {"name": "Nemocnica Agel Žiari nad Hronom", "latitude": 48.5905966, "longitude": 18.8429931, "source": "osm", "_tags": {"amenity": "hospital", "brand": "Agel", "brand:wikidata": "Q41365932", "emergency": "yes", "healthcare": "hospital", "name": "Nemocnica Agel Žiari nad Hronom", "operator": "Nemocnica AGEL Žiar nad Hronom a Banská Štiavnica", "website": "https://nemocnicaziarnadhronom.agel.sk/index.html", "wheelchair": "yes"}}]