[{"name": "Centre de Soins et de Réadaptation", "latitude": 48.4232816, "longitude": -4.5594685, "source": "osm", "_tags": {"amenity": "hospital", "name": "Centre de Soins et de Réadaptation", "ref:FR:FINESS": "290004365", "wheelchair": "yes"}}, {"name": "Centre hospitalier de Lesneven", "latitude": 48.5706831, "longitude": -4.3191767, "source": "osm", "_tags": {"alt_name": "Hôpital de Lesneven", "amenity": "hospital", "healthcare": "hospital", "name": "Centre hospitalier de Lesneven", "name:br": "Pennospital Lesneven", "old_name": "Hôpital local de Lesneven", "operator:type": "public", "operator:wikidata": "Q105164264", "ref:FR:FINESS": "290000322", "ref:FR:NAF": "8610Z", "ref:FR:SIRET": "26290012900012", "source:name:br": "proper translation", "type:FR:FINESS": "106", "website": "https://www.hopital-lesneven.fr/", "wikidata": "Q92063140"}}, {"name": "Hôpital de jour", "latitude": 48.5608316, "longitude": -4.3394611, "source": "osm", "_tags": {"amenity": "hospital", "contact:street": "Rue de la Gare", "healthcare": "hospital", "healthcare:speciality": "child_psychiatry", "name": "Hôpital de jour", "operator": "Centre hospitalier des pays de Morlaix", "operator:type": "public", "phone": "+33298210443", "ref:FR:FINESS": "290016708", "ref:FR:NAF": "8610Z", "ref:FR:SIRET": "26290009500072", "source": "Le ministère des solidarités et de la santé - 2024-05;api-avis-situation-sirene.insee.fr - 2024-08", "type:FR:FINESS": "355", "website": "https://www.ch-morlaix.fr/hopital-de-jour-pour-enfants-grain-de-sable"}}, {"name": "Clinique de l'Iroise", "latitude": 48.4363733, "longitude": -4.5027418, "source": "osm", "_tags": {"amenity": "hospital", "name": "Clinique de l'Iroise", "ref:FR:FINESS": "290000736", "source": "Brest Metropole Oceane, 2009", "type:FR:FINESS": "161"}}, {"name": "Hôpital Le Jeune", "latitude": 48.4294052, "longitude": -4.6197037, "source": "osm", "_tags": {"amenity": "hospital", "building": "yes", "name": "Hôpital Le Jeune", "name:br": "Ospital Le Jeune", "ref:FR:FINESS": "290001015", "source": "Le ministère des solidarités et de la santé - 03/2019", "source:name:br": "proper translation", "wikidata": "Q92063238"}}, {"name": "Hôpital Psychiatrique de Bohars", "latitude": 48.4340899, "longitude": -4.5057737, "source": "osm", "_tags": {"amenity": "hospital", "healthcare": "hospital", "name": "Hôpital Psychiatrique de Bohars", "ref:FR:FINESS": "290004340", "source": "PhotoBMO2010", "type:FR:FINESS": "101", "website": "https://www.chu-brest.fr/fr/decouvrir-chru/nos-hopitaux-residences/hopital-bohars"}}, {"name": "Polyclinique Keraudren", "latitude": 48.4304119, "longitude": -4.4754786, "source": "osm", "_tags": {"amenity": "hospital", "emergency": "yes", "fax": "+33 2 98 34 29 70", "healthcare": "hospital", "name": "Polyclinique Keraudren", "name:br": "Liesklinikenn Keraodren", "operator": "Groupe Elsan", "operator:type": "private", "operator:wikidata": "Q48747106", "phone": "+33 2 98 34 29 29", "ref:FR:FINESS": "290019777", "source:name:br": "proper translation", "type:FR:FINESS": "365", "website": "http://www.keraudren-grandlarge.com/"}}, {"name": "Centre hospitalier Ferdinand Grall", "latitude": 48.4478313, "longitude": -4.2350272, "source": "osm", "_tags": {"alt_name": "Hôpital de Landerneau;Site Lavallot", "amenity": "hospital", "contact:housenumber": "1", "contact:street": "Route de Pencran", "emergency": "yes", "healthcare": "hospital", "healthcare:speciality": "general;psychiatry;gynaecology", "name": "Centre hospitalier Ferdinand Grall", "operator:wikidata": "Q105164575", "phone": "+33 2 98 21 80 00", "ref:FR:FINESS": "290000173", "ref:FR:NAF": "86.10Z", "ref:FR:SIREN": "262900038", "ref:FR:SIRET": "26290003800015", "source": "INSEE - 2025-07", "type:FR:FINESS": "355", "website": "https://www.hopital-landerneau.fr/", "wheelchair": "yes", "wikidata": "Q129264314"}}, {"name": "Grain de Sable", "latitude": 48.5609561, "longitude": -4.3394968, "source": "osm", "_tags": {"amenity": "hospital", "healthcare": "hospital", "healthcare:speciality": "child_psychiatry", "name": "Grain de Sable", "operator": "Centre hospitalier des pays de Morlaix", "operator:type": "public"}}]