[{"name": "Diabetologické centrum", "latitude": 49.1192141, "longitude": 19.1660011, "source": "osm", "_tags": {"amenity": "hospital", "healthcare": "hospital", "healthcare:speciality": "diabetology", "name": "Diabetologické centrum", "website": "https://nedu.sk/"}}, {"name": "Endokrinologické centrum", "latitude": 49.1199423, "longitude": 19.1677725, "source": "osm", "_tags": {"amenity": "hospital", "healthcare": "hospital", "healthcare:speciality": "endocrinology", "name": "Endokrinologické centrum", "website": "https://nedu.sk/"}}, {"name": "Mammacentrum sv. Agáty", "latitude": 48.7336947, "longitude": 19.133766, "source": "osm", "_tags": {"amenity": "hospital", "brand": "Agel", "brand:wikidata": "Q41365932", "contact:facebook": "mammacentrumsv.agaty", "email": "mammacentrum@mmc.agel.sk", "healthcare": "hospital", "name": "Mammacentrum sv. Agáty", "opening_hours": "Mo-Fr 15:00-17:00; Sa,Su 13:00-17:00; PH off", "operator": "AGEL Mammacentrum sv. Agáty", "operator:type": "private", "phone": "+421 48 420 4911", "website": "https://mammacentrum.agel.sk/index.html"}}, {"name": "Fakultná nemocnica s poliklinikou F.D. Roosevelta", "latitude": 48.7435095, "longitude": 19.1167046, "source": "osm", "_tags": {"addr:city": "Banská Bystrica", "addr:housenumber": "1", "addr:postcode": "97517", "addr:street": "Námestie Ludvíka Svobodu", "amenity": "hospital", "contact:facebook": "https://www.facebook.com/fnspfdr/", "contact:website": "https://www.fnspfdr.sk/", "emergency": "yes", "healthcare": "hospital", "name": "Fakultná nemocnica s poliklinikou F.D. Roosevelta", "wikidata": "Q5423740"}}, {"name": "Zelený Sen", "latitude": 48.7411962, "longitude": 19.1635163, "source": "osm", "_tags": {"addr:city": "Banská Bystrica", "addr:conscriptionnumber": "4443", "addr:country": "SK", "addr:housenumber": "4443/1B", "addr:postcode": "97401", "addr:street": "Cesta k nemocnici", "addr:streetnumber": "1B", "addr:suburb": "Banská Bystrica", "amenity": "hospital", "building": "hospital", "healthcare": "hospital", "healthcare:speciality": "intensive", "name": "Zelený Sen", "ref:minvskaddress": "7100662536", "source:addr": "minvskaddress 2025-06", "website": "https://www.zelenysen.sk/"}}, {"name": "Stredoslovenský ústav srdcových a cievnych chorôb, a.s.", "latitude": 48.7421248, "longitude": 19.1609839, "source": "osm", "_tags": {"addr:city": "Banská Bystrica", "addr:conscriptionnumber": "5600", "addr:country": "SK", "addr:housenumber": "5600/61", "addr:postcode": "97404", "addr:street": "Cesta k nemocnici", "addr:streetnumber": "61", "addr:suburb": "Banská Bystrica", "amenity": "hospital", "building": "hospital", "contact:website": "https://www.suscch.eu/page.php?13", "emergency": "no", "healthcare": "hospital", "name": "Stredoslovenský ústav srdcových a cievnych chorôb, a.s.", "source": "kapor2"}}, {"name": "Hornooravská nemocnica s poliklinikou Trstená", "latitude": 49.3577094, "longitude": 19.601495, "source": "osm", "_tags": {"amenity": "hospital", "barrier": "fence", "emergency": "yes", "healthcare": "hospital", "name": "Hornooravská nemocnica s poliklinikou Trstená"}}, {"name": "Detská fakultná nemocnica s poliklinikou Banská Bystrica", "latitude": 48.7429495, "longitude": 19.1184629, "source": "osm", "_tags": {"addr:city": "Banská Bystrica", "addr:conscriptionnumber": "6818", "addr:country": "SK", "addr:housenumber": "6818/4", "addr:postcode": "97409", "addr:street": "Námestie Ludvika Svobodu", "addr:streetnumber": "4", "addr:suburb": "Banská Bystrica", "amenity": "hospital", "emergency": "yes", "healthcare": "hospital", "healthcare:speciality": "surgery;paediatrics;intensive;oncology;pediatric_surgery;intensive_care_unit", "name": "Detská fakultná nemocnica s poliklinikou Banská Bystrica", "phone": "+421 48 472 65 11", "ref:minvskaddress": "5301033650", "source:addr": "minvskaddress 2023-05", "website": "http://www.dfnbb.sk/", "wheelchair": "yes"}}, {"name": "Liptovská nemocnica s poliklinikou MUDr. Ivana Stodolu", "latitude": 49.0837053, "longitude": 19.5982623, "source": "osm", "_tags": {"addr:city": "Liptovský Mikuláš", "addr:housenumber": "25", "addr:postcode": "03123", "addr:street": "Palúčanská", "amenity": "hospital", "contact:facebook": "https://www.facebook.com/liptovskanemocnica/", "contact:website": "http://nemocnica2.skyweb.sk/", "emergency": "yes", "healthcare": "hospital", "name": "Liptovská nemocnica s poliklinikou MUDr. Ivana Stodolu"}}, {"name": "Ústredná vojenská nemocnica SNP Ružomberok - FN", "latitude": 49.086095, "longitude": 19.3002802, "source": "osm", "_tags": {"amenity": "hospital", "contact:website": "http://www.uvn.sk/", "healthcare": "hospital", "name": "Ústredná vojenská nemocnica SNP Ružomberok - FN", "source": "Bing"}}, {"name": "Ústredná vojenská nemocnica SNP Ružomberok - FN", "latitude": 49.0743222, "longitude": 19.311257, "source": "osm", "_tags": {"amenity": "hospital", "barrier": "fence", "email": "uvn@uvn.sk", "emergency": "yes", "healthcare": "hospital", "healthcare:speciality": "general", "landuse": "military", "name": "Ústredná vojenská nemocnica SNP Ružomberok - FN", "phone": "+421918846302", "source": "Bing;local knowledge", "website": "https://www.uvn.sk/", "wikidata": "Q12781130", "wikipedia": "sk:Ústredná vojenská nemocnica SNP Ružomberok – fakultná nemocnica"}}, {"name": "Liečebňa pre dlhodobo chorých Štiavnička", "latitude": 49.0742094, "longitude": 19.3437032, "source": "osm", "_tags": {"amenity": "hospital", "barrier": "fence", "name": "Liečebňa pre dlhodobo chorých Štiavnička", "operator": "Žilinská župa", "social_facility": "group_home", "source": "Bing", "website": "https://www.ldch.sk/"}}, {"name": "Nemocnica s poliklinikou Brezno, n.o.", "latitude": 48.8087486, "longitude": 19.6232059, "source": "osm", "_tags": {"amenity": "hospital", "contact:website": "https://www.nspbr.sk/web/", "healthcare": "hospital", "name": "Nemocnica s poliklinikou Brezno, n.o.", "source": "Bing"}}, {"name": "Nemocnica Zvolen a. s.", "latitude": 48.5810419, "longitude": 19.1329339, "source": "osm", "_tags": {"amenity": "hospital", "contact:website": "https://www.nemocnicazvolen.sk/index.html", "name": "Nemocnica Zvolen a. s."}}, {"name": "Dolnooravská nemocnica s poliklinikou MUDr. L. N. Jégého Dolný Kubín", "latitude": 49.2137367, "longitude": 19.3020271, "source": "osm", "_tags": {"amenity": "hospital", "contact:website": "http://www.donsp.sk/", "healthcare": "hospital", "name": "Dolnooravská nemocnica s poliklinikou MUDr. L. N. Jégého Dolný Kubín"}}]