[{"name": "Дитяча поліклініка", "latitude": 49.4068657, "longitude": 26.9852327, "source": "osm", "_tags": {"amenity": "clinic", "emergency": "no", "healthcare": "hospital", "name": "Дитяча поліклініка", "name:ru": "Детская поликлиника", "name:uk": "Дитяча поліклініка"}}, {"name": "Анкост Гінекологічний центр", "latitude": 49.4072335, "longitude": 26.9665345, "source": "osm", "_tags": {"amenity": "clinic", "healthcare": "hospital", "name": "Анкост Гінекологічний центр", "name:uk": "Анкост Гінекологічний центр"}}, {"name": "Punct medical", "latitude": 48.4361358, "longitude": 27.6465286, "source": "osm", "_tags": {"amenity": "hospital", "name": "Punct medical", "name:ru": "Медицинский пункт"}}, {"name": "", "latitude": 48.4398735, "longitude": 27.6162996, "source": "osm", "_tags": {"amenity": "hospital"}}, {"name": "Дитяче відділення ЦРЛ", "latitude": 49.0314649, "longitude": 27.2303425, "source": "osm", "_tags": {"addr:city": "Віньківці", "addr:country": "UA", "addr:housenumber": "8", "addr:postcode": "32500", "addr:street": "Центральна вулиця", "amenity": "hospital", "name": "Дитяче відділення ЦРЛ", "name:uk": "Дитяче відділення ЦРЛ"}}, {"name": "Неврологічне відділення ЦРЛ", "latitude": 49.0316821, "longitude": 27.2303572, "source": "osm", "_tags": {"addr:city": "Віньківці", "addr:country": "UA", "addr:housenumber": "8", "addr:postcode": "32500", "addr:street": "Центральна вулиця", "amenity": "hospital", "name": "Неврологічне відділення ЦРЛ", "name:uk": "Неврологічне відділення ЦРЛ"}}, {"name": "Терапевтичне відділення ЦРЛ", "latitude": 49.0317832, "longitude": 27.2308011, "source": "osm", "_tags": {"addr:city": "Віньківці", "addr:country": "UA", "addr:housenumber": "8", "addr:postcode": "32500", "addr:street": "Центральна вулиця", "amenity": "hospital", "name": "Терапевтичне відділення ЦРЛ", "name:uk": "Терапевтичне відділення ЦРЛ"}}, {"name": "Головний корпус Віньковецької ЦРЛ", "latitude": 49.0308125, "longitude": 27.2297913, "source": "osm", "_tags": {"addr:city": "Віньківці", "addr:country": "UA", "addr:housenumber": "8", "addr:postcode": "32500", "addr:street": "Центральна вулиця", "amenity": "hospital", "name": "Головний корпус Віньковецької ЦРЛ", "name:uk": "Головний корпус Віньковецької ЦРЛ"}}, {"name": "Дитячий травмпункт", "latitude": 49.4121807, "longitude": 26.9654129, "source": "osm", "_tags": {"addr:street": "вулиця Олега Ольжича", "amenity": "clinic", "healthcare": "hospital", "name": "Дитячий травмпункт", "name:ru": "Детский травмпункт", "name:uk": "Дитячий травмпункт"}}, {"name": "Обласна клініко-діагностична лабораторія", "latitude": 49.4126493, "longitude": 26.9680687, "source": "osm", "_tags": {"addr:street": "Камʼянецька вулиця", "amenity": "clinic", "healthcare": "hospital", "name": "Обласна клініко-діагностична лабораторія", "name:ru": "Обласная клинико-диагностическая лаборатория", "name:uk": "Обласна клініко-діагностична лабораторія", "opening_hours": "Mo-Fr 09:00-14:00"}}, {"name": "Травмпункт", "latitude": 49.4206018, "longitude": 27.0001915, "source": "osm", "_tags": {"amenity": "clinic", "emergency": "yes", "healthcare": "hospital", "name": "Травмпункт", "name:uk": "Травмпункт"}}, {"name": "Віра", "latitude": 49.4116102, "longitude": 26.9681981, "source": "osm", "_tags": {"amenity": "clinic", "healthcare": "hospital", "name": "Віра", "name:uk": "Віра"}}, {"name": "КНП Новоушицький центр ПМСД", "latitude": 48.8337354, "longitude": 27.265503, "source": "osm", "_tags": {"amenity": "hospital", "healthcare": "hospital", "name": "КНП Новоушицький центр ПМСД", "name:uk": "КНП Новоушицький центр ПМСД"}}, {"name": "Новоушицька центральна районна лікарня", "latitude": 48.8334791, "longitude": 27.2656891, "source": "osm", "_tags": {"amenity": "hospital", "healthcare": "hospital", "name": "Новоушицька центральна районна лікарня", "name:uk": "Новоушицька центральна районна лікарня"}}, {"name": "Фельдшерський пункт", "latitude": 48.8192873, "longitude": 27.1062967, "source": "osm", "_tags": {"amenity": "hospital", "name": "Фельдшерський пункт", "name:uk": "Фельдшерський пункт"}}, {"name": "", "latitude": 48.857217, "longitude": 27.7975264, "source": "osm", "_tags": {"amenity": "hospital", "healthcare": "hospital"}}, {"name": "Могилівська ковідна лікарня", "latitude": 48.4582496, "longitude": 27.7715557, "source": "osm", "_tags": {"amenity": "hospital", "name": "Могилівська ковідна лікарня", "name:uk": "Могилівська ковідна лікарня"}}, {"name": "", "latitude": 48.4447473, "longitude": 27.7794165, "source": "osm", "_tags": {"amenity": "hospital", "healthcare": "hospital"}}, {"name": "Поліклініка", "latitude": 49.077036, "longitude": 27.683348, "source": "osm", "_tags": {"amenity": "hospital", "healthcare": "hospital", "name": "Поліклініка", "name:uk": "Поліклініка"}}, {"name": "Інфекційне відділення", "latitude": 49.0773431, "longitude": 27.6838479, "source": "osm", "_tags": {"amenity": "hospital", "healthcare": "hospital", "name": "Інфекційне відділення", "name:uk": "Інфекційне відділення"}}, {"name": "Бактеріологічне відділення", "latitude": 49.0771955, "longitude": 27.6857126, "source": "osm", "_tags": {"amenity": "hospital", "healthcare": "hospital", "name": "Бактеріологічне відділення", "name:uk": "Бактеріологічне відділення"}}, {"name": "Центр забору крові", "latitude": 49.0775301, "longitude": 27.6851354, "source": "osm", "_tags": {"amenity": "hospital", "healthcare": "hospital", "name": "Центр забору крові", "name:uk": "Центр забору крові"}}, {"name": "Хірургічне та гінекологічне відділення", "latitude": 49.0774218, "longitude": 27.6853135, "source": "osm", "_tags": {"amenity": "hospital", "healthcare": "hospital", "name": "Хірургічне та гінекологічне відділення", "name:uk": "Хірургічне та гінекологічне відділення"}}, {"name": "Поліклініка №4", "latitude": 49.4089218, "longitude": 26.9520888, "source": "osm", "_tags": {"amenity": "clinic", "healthcare": "hospital", "name": "Поліклініка №4", "name:uk": "Поліклініка №4"}}, {"name": "Приймальне відділення", "latitude": 49.4137008, "longitude": 27.0004383, "source": "osm", "_tags": {"amenity": "clinic", "healthcare": "hospital", "name": "Приймальне відділення", "name:uk": "Приймальне відділення"}}, {"name": "Корпус 7", "latitude": 49.4141623, "longitude": 27.000677, "source": "osm", "_tags": {"amenity": "clinic", "healthcare": "hospital", "name": "Корпус 7", "name:uk": "Корпус 7"}}, {"name": "Хмельницький обласний дерматовенерологічний центр", "latitude": 49.4169617, "longitude": 26.9905771, "source": "osm", "_tags": {"amenity": "clinic", "healthcare": "hospital", "healthcare:speciality": "dermatovenereology", "name": "Хмельницький обласний дерматовенерологічний центр", "name:uk": "Хмельницький обласний дерматовенерологічний центр"}}, {"name": "Поліклініка №3", "latitude": 49.3942371, "longitude": 27.0539046, "source": "osm", "_tags": {"amenity": "clinic", "healthcare": "hospital", "name": "Поліклініка №3", "name:ru": "Поликлиника №3", "name:uk": "Поліклініка №3"}}, {"name": "Хмельницький обласний заклад з надання психіатричної допомоги", "latitude": 49.4115412, "longitude": 26.9968013, "source": "osm", "_tags": {"amenity": "clinic", "healthcare": "hospital", "name": "Хмельницький обласний заклад з надання психіатричної допомоги", "name:uk": "Хмельницький обласний заклад з надання психіатричної допомоги"}}, {"name": "Корпус 4", "latitude": 49.412504, "longitude": 27.0019785, "source": "osm", "_tags": {"amenity": "clinic", "healthcare": "hospital", "name": "Корпус 4", "name:uk": "Корпус 4"}}, {"name": "Корпус 1 Обласний перинатальний центр", "latitude": 49.4119433, "longitude": 27.0019488, "source": "osm", "_tags": {"amenity": "clinic", "healthcare": "hospital", "name": "Корпус 1 Обласний перинатальний центр", "name:uk": "Корпус 1 Обласний перинатальний центр"}}, {"name": "Поліклініка", "latitude": 49.4125859, "longitude": 27.0008098, "source": "osm", "_tags": {"amenity": "clinic", "healthcare": "hospital", "name": "Поліклініка", "name:uk": "Поліклініка"}}, {"name": "Корпус 3", "latitude": 49.4121877, "longitude": 27.0002347, "source": "osm", "_tags": {"amenity": "clinic", "healthcare": "hospital", "name": "Корпус 3", "name:uk": "Корпус 3"}}, {"name": "Онкодиспансер", "latitude": 49.4117043, "longitude": 26.9992461, "source": "osm", "_tags": {"amenity": "clinic", "healthcare": "hospital", "name": "Онкодиспансер", "name:uk": "Онкодиспансер"}}, {"name": "Радіологія", "latitude": 49.4114933, "longitude": 27.0000096, "source": "osm", "_tags": {"amenity": "clinic", "healthcare": "hospital", "name": "Радіологія", "name:uk": "Радіологія"}}, {"name": "Хмельницький обласний центр екстреної медичної допомоги та медицини катастроф", "latitude": 49.4112096, "longitude": 27.0003247, "source": "osm", "_tags": {"amenity": "clinic", "healthcare": "hospital", "healthcare:speciality": "emergency", "name": "Хмельницький обласний центр екстреної медичної допомоги та медицини катастроф", "name:uk": "Хмельницький обласний центр екстреної медичної допомоги та медицини катастроф"}}, {"name": "Центр комп'ютерної томографії", "latitude": 49.4113747, "longitude": 27.0004547, "source": "osm", "_tags": {"amenity": "clinic", "healthcare": "hospital", "name": "Центр комп'ютерної томографії", "name:uk": "Центр комп'ютерної томографії"}}, {"name": "Сіліцея", "latitude": 49.4082777, "longitude": 26.9640555, "source": "osm", "_tags": {"amenity": "hospital", "healthcare": "hospital", "internet_access": "wlan", "name": "Сіліцея", "name:en": "Silicea", "name:uk": "Сіліцея", "opening_hours": "Mo-Fr 09:00-18:00", "phone": "0932401381"}}, {"name": "Хмельницька обласна дитяча лікарня", "latitude": 49.4113674, "longitude": 26.9677709, "source": "osm", "_tags": {"amenity": "hospital", "healthcare": "hospital", "name": "Хмельницька обласна дитяча лікарня", "name:uk": "Хмельницька обласна дитяча лікарня", "opening_hours": "24/7"}}, {"name": "МРТ Медичний центр ультрадіагностики", "latitude": 49.4104268, "longitude": 27.0009781, "source": "osm", "_tags": {"addr:housenumber": "1", "addr:street": "Пілотська", "amenity": "hospital", "healthcare": "laboratory", "level": "1", "name": "МРТ Медичний центр ультрадіагностики", "phone": "0382708065", "website": "http://htpp://мрт-кт.укр/"}}, {"name": "", "latitude": 49.4110197, "longitude": 26.9999518, "source": "osm", "_tags": {"amenity": "clinic", "building": "yes", "healthcare": "hospital"}}, {"name": "", "latitude": 49.410956, "longitude": 27.0006634, "source": "osm", "_tags": {"amenity": "clinic", "building": "yes", "healthcare": "hospital"}}, {"name": "", "latitude": 49.4121997, "longitude": 27.0024175, "source": "osm", "_tags": {"amenity": "clinic", "building": "yes", "healthcare": "hospital"}}, {"name": "", "latitude": 49.4126461, "longitude": 26.9631575, "source": "osm", "_tags": {"addr:housenumber": "6", "addr:street": "вулиця Івана Пулюя", "building": "yes", "healthcare": "hospital"}}, {"name": "", "latitude": 49.4117477, "longitude": 26.9635827, "source": "osm", "_tags": {"amenity": "clinic", "building": "yes", "healthcare": "hospital"}}, {"name": "", "latitude": 49.4198447, "longitude": 27.0007074, "source": "osm", "_tags": {"addr:housenumber": "30", "addr:street": "Старокостянтинівське шосе", "amenity": "clinic", "building": "yes", "healthcare": "hospital"}}, {"name": "", "latitude": 49.4203141, "longitude": 27.000115, "source": "osm", "_tags": {"amenity": "clinic", "building": "yes", "healthcare": "hospital"}}, {"name": "", "latitude": 49.4196324, "longitude": 26.9996816, "source": "osm", "_tags": {"addr:housenumber": "1", "building": "yes", "healthcare": "hospital"}}, {"name": "", "latitude": 49.419771, "longitude": 26.9997678, "source": "osm", "_tags": {"building": "yes", "healthcare": "hospital"}}, {"name": "", "latitude": 48.4580318, "longitude": 27.771285, "source": "osm", "_tags": {"amenity": "hospital", "source": "Bing"}}, {"name": "Хмельницька районна лікарня", "latitude": 49.4145743, "longitude": 26.9557748, "source": "osm", "_tags": {"amenity": "hospital", "healthcare": "hospital", "name": "Хмельницька районна лікарня", "name:uk": "Хмельницька районна лікарня"}}, {"name": "Дитячий пульмонологічний санаторій «Каштан»", "latitude": 48.7615204, "longitude": 26.9643083, "source": "osm", "_tags": {"addr:postcode": "32473", "addr:street": "Центральна вулиця", "amenity": "hospital", "building": "yes", "healthcare": "hospital", "name": "Дитячий пульмонологічний санаторій «Каштан»", "name:uk": "Дитячий пульмонологічний санаторій «Каштан»"}}, {"name": "", "latitude": 49.3832054, "longitude": 27.6307342, "source": "osm", "_tags": {"amenity": "hospital", "healthcare": "hospital"}}, {"name": "Староушицька РЛ №3", "latitude": 48.6028771, "longitude": 27.0930497, "source": "osm", "_tags": {"addr:street": "Головна вулиця", "amenity": "hospital", "building": "yes", "building:levels": "2", "healthcare": "hospital", "height": "8", "name": "Староушицька РЛ №3", "name:uk": "Староушицька РЛ №3"}}, {"name": "Обласна дитяча лікарня", "latitude": 49.4117494, "longitude": 26.9667892, "source": "osm", "_tags": {"amenity": "hospital", "healthcare": "hospital", "healthcare:speciality": "paediatrics", "name": "Обласна дитяча лікарня", "name:uk": "Обласна дитяча лікарня"}}, {"name": "", "latitude": 48.8348108, "longitude": 27.2651978, "source": "osm", "_tags": {"addr:postcode": "32600", "addr:street": "вулиця Гагаріна", "amenity": "hospital", "building": "yes", "emergency": "yes", "healthcare": "hospital"}}, {"name": "Терапевтичне відділення", "latitude": 48.8349667, "longitude": 27.2645318, "source": "osm", "_tags": {"amenity": "hospital", "building": "yes", "healthcare": "hospital", "name": "Терапевтичне відділення", "name:uk": "Терапевтичне відділення"}}, {"name": "", "latitude": 48.8338949, "longitude": 27.2654944, "source": "osm", "_tags": {"addr:housenumber": "36", "addr:postcode": "32600", "addr:street": "вулиця Гагаріна", "amenity": "hospital", "building": "yes", "emergency": "no", "healthcare": "hospital", "healthcare:speciality": "general"}}, {"name": "Хмельницька інфекційна лікарня", "latitude": 49.4114326, "longitude": 26.9757959, "source": "osm", "_tags": {"amenity": "hospital", "healthcare": "hospital", "name": "Хмельницька інфекційна лікарня", "name:uk": "Хмельницька інфекційна лікарня"}}, {"name": "Барська ЦРЛ", "latitude": 49.0771726, "longitude": 27.6853583, "source": "osm", "_tags": {"amenity": "hospital", "email": "barlikarnya@i.ua", "emergency": "yes", "healthcare": "hospital", "healthcare:speciality": "general;gynaecology;ophthalmology;paediatrics;dermatology;otolaryngology;psychiatry;urology;surgery;cardiology", "name": "Барська ЦРЛ", "name:ru": "Барская ЦРЛ", "name:uk": "Барська ЦРЛ", "phone": "+380 4341 22 545"}}, {"name": "Лікарня", "latitude": 48.602807, "longitude": 27.7170592, "source": "osm", "_tags": {"amenity": "hospital", "building": "hospital", "healthcare": "hospital", "name": "Лікарня", "name:uk": "Лікарня"}}, {"name": "", "latitude": 48.4363347, "longitude": 27.8110477, "source": "osm", "_tags": {"amenity": "hospital"}}, {"name": "Хмельницька обласна лікарня", "latitude": 49.4122916, "longitude": 27.0007026, "source": "osm", "_tags": {"amenity": "hospital", "healthcare": "hospital", "name": "Хмельницька обласна лікарня", "name:uk": "Хмельницька обласна лікарня"}}, {"name": "Міська лікарня", "latitude": 49.4201164, "longitude": 27.0001886, "source": "osm", "_tags": {"amenity": "hospital", "healthcare": "hospital", "name": "Міська лікарня", "name:uk": "Міська лікарня"}}, {"name": "Гарнізонний госпіталь", "latitude": 49.4048787, "longitude": 27.0342383, "source": "osm", "_tags": {"amenity": "hospital", "healthcare": "hospital", "landuse": "industrial", "name": "Гарнізонний госпіталь", "name:uk": "Гарнізонний госпіталь"}}, {"name": "Барська амбулаторія", "latitude": 49.0330281, "longitude": 27.7182181, "source": "osm", "_tags": {"amenity": "hospital", "emergency": "yes", "healthcare": "hospital", "name": "Барська амбулаторія", "name:uk": "Барська амбулаторія"}}, {"name": "", "latitude": 48.7011054, "longitude": 27.5368341, "source": "osm", "_tags": {"amenity": "hospital"}}, {"name": "Сокирянська ЦЗБ", "latitude": 48.4516793, "longitude": 27.407717, "source": "osm", "_tags": {"amenity": "hospital", "name": "Сокирянська ЦЗБ", "name:uk": "Сокирянська ЦЗБ", "type": "multipolygon"}}]