[{"name": "Hôpital Désandrouins", "latitude": 49.1592253, "longitude": 5.4148272, "source": "osm", "_tags": {"addr:city": "Verdun", "addr:postcode": "55100", "addr:street": "Avenue d'Étain", "amenity": "hospital", "name": "Hôpital Désandrouins", "phone": "+33 3 29 83 84 85", "ref:FR:FINESS": "550003362", "ref:FR:NAF": "8610Z", "source": "cadastre-dgi-fr source : Direction Générale des Impôts - Cadastre ; mise à jour :2006", "type:FR:FINESS": "355", "wikidata": "Q60847167", "wikipedia": "fr:Centre hospitalier intercommunal de Verdun - Saint-Mihiel"}}, {"name": "Centre hospitalier Geneviève de Gaulle Anthonioz", "latitude": 48.6560962, "longitude": 4.9648353, "source": "osm", "_tags": {"addr:city": "Saint-Dizier", "addr:country": "FR", "addr:housenumber": "1", "addr:postcode": "52115", "addr:street": "Rue Albert Schweitzer", "amenity": "hospital", "email": "direction@ch-saintdizier.fr", "emergency": "yes", "facebook": "Centre Hospitalier Geneviève de Gaulle Anthonioz", "fax": "+33 3 25 56 28 73", "healthcare": "hospital", "healthcare:speciality": "intensive", "name": "Centre hospitalier Geneviève de Gaulle Anthonioz", "operator:type": "public", "phone": "+33 3 25 56 84 84", "ref:FR:FINESS": "520000068", "type:FR:FINESS": "355", "website": "http://www.ch-saintdizier.fr/"}}, {"name": "Centre Hospitalier de Toul - Saint-Charles", "latitude": 48.6762499, "longitude": 5.8874591, "source": "osm", "_tags": {"alt_name": "Centre Hospitalier Saint-Charles", "amenity": "hospital", "contact:email": "direction@ch-toul.fr", "contact:fax": "+33 3 83622000", "contact:housenumber": "1", "contact:phone": "+33 3 83622020", "contact:street": "Cours Raymond Poincaré", "contact:website": "http://www.ch-toul.fr/", "emergency": "yes", "healthcare": "hospital", "name": "Centre Hospitalier de Toul - Saint-Charles", "operator:type": "public", "ref:FR:FINESS": "540000023", "ref:FR:SIRET": "26540018400015", "source": "survey", "start_date": "1901-01-01", "type:FR:FINESS": "355"}}, {"name": "Hôpital de Joinville", "latitude": 48.4389999, "longitude": 5.1379635, "source": "osm", "_tags": {"amenity": "hospital", "emergency": "no", "healthcare": "hospital", "name": "Hôpital de Joinville", "note": "Tracé très approximatif", "operator:type": "public", "phone": "+33 3 25 04 30 30", "ref:FR:FINESS": "520000035", "type:FR:FINESS": "106", "wikidata": "Q92062824"}}, {"name": "Hôpital Saint-Nicolas", "latitude": 49.1551295, "longitude": 5.3822433, "source": "osm", "_tags": {"addr:city": "Verdun", "addr:housenumber": "2", "addr:postcode": "55100", "addr:street": "Rue d'Anthouard", "amenity": "hospital", "emergency": "yes", "fax": "+33 3 29 83 84 44", "healthcare:speciality": "intensive", "name": "Hôpital Saint-Nicolas", "operator:type": "public", "phone": "+33 3 29 83 84 85", "ref:FR:FINESS": "550000012", "ref:FR:NAF": "8610Z", "ref:FR:SIRET": "20003978200012", "type:FR:FINESS": "355", "website": "http://www.chvsm.org/", "wikidata": "Q60847167", "wikipedia": "fr:Centre hospitalier intercommunal de Verdun - Saint-Mihiel"}}, {"name": "Centre hospitalier spécialisé de Fains-Véel", "latitude": 48.7898616, "longitude": 5.1305565, "source": "osm", "_tags": {"addr:city": "Fains-Véel", "addr:housenumber": "36", "addr:postcode": "55000", "addr:street": "Rue de Bar", "amenity": "hospital", "healthcare": "hospital", "healthcare:speciality": "psychiatry", "name": "Centre hospitalier spécialisé de Fains-Véel", "phone": "+33 3 29 76 86 86", "ref:FR:FINESS": "550000251", "ref:FR:NAF": "8610Z", "short_name": "CHS Fains-Véel", "type:FR:FINESS": "292", "website": "http://chs-fainsveel.fr/"}}, {"name": "Pharmacie Paquin", "latitude": 49.308667, "longitude": 5.893621, "source": "osm", "_tags": {"amenity": "hospital", "healthcare": "hospital", "name": "Pharmacie Paquin", "source": "cadastre-dgi-fr source : Direction Générale des Finances Publiques - Cadastre. Mise à jour : 2013"}}, {"name": "Dollard-Westrich Florence", "latitude": 49.3088395, "longitude": 5.8947515, "source": "osm", "_tags": {"amenity": "hospital", "healthcare": "hospital", "healthcare:speciality": "general", "name": "Dollard-Westrich Florence", "source": "cadastre-dgi-fr source : Direction Générale des Finances Publiques - Cadastre. Mise à jour : 2013"}}, {"name": "Hôpital Sainte-Anne", "latitude": 48.8896681, "longitude": 5.5396879, "source": "osm", "_tags": {"amenity": "hospital", "healthcare": "hospital", "name": "Hôpital Sainte-Anne", "operator:type": "public", "phone": "+33 3 29 91 81 81", "ref:FR:FINESS": "550000202", "ref:FR:NAF": "8610Z", "source": "Direction Générale des Finances Publiques - cadastre. Mise à jour : 2015", "type:FR:FINESS": "355", "website": "http://www.chvsm.org", "wikidata": "Q60847167", "wikipedia": "fr:Centre hospitalier intercommunal de Verdun - Saint-Mihiel"}}, {"name": "SMR LES ALPAGES", "latitude": 49.1595037, "longitude": 5.4164152, "source": "osm", "_tags": {"amenity": "hospital", "building:levels": "3", "healthcare": "hospital", "healthcare:speciality": "physiatry;geriatrics", "name": "SMR LES ALPAGES", "operator": "CHVSM", "operator:type": "public", "source": "Direction Générale des Finances Publiques - Cadastre. Mise à jour : 2016"}}, {"name": "Centre Hospitalier Georges Heuyer", "latitude": 48.6335649, "longitude": 4.9559099, "source": "osm", "_tags": {"amenity": "hospital", "area": "yes", "healthcare:speciality": "orthopaedics", "name": "Centre Hospitalier Georges Heuyer", "source": "GEOPORTAIL"}}, {"name": "Centre De Soins \"La Fabrique Du Pré\"", "latitude": 48.6334201, "longitude": 4.9616283, "source": "osm", "_tags": {"amenity": "hospital", "healthcare": "hospital", "healthcare:speciality": "psychiatry", "name": "Centre De Soins \"La Fabrique Du Pré\"", "ref:FR:FINESS": "520003146", "type:FR:FINESS": "292"}}, {"name": "Centre Gabriel Pertat", "latitude": 48.4441838, "longitude": 5.1374991, "source": "osm", "_tags": {"addr:housenumber": "4", "amenity": "hospital", "healthcare": "hospital", "name": "Centre Gabriel Pertat", "ref:FR:FINESS": "520783531", "type:FR:FINESS": "292"}}, {"name": "Centre hospitalier de Commercy", "latitude": 48.7602292, "longitude": 5.5883034, "source": "osm", "_tags": {"addr:city": "Commercy", "addr:country": "FR", "addr:housenumber": "1", "addr:postcode": "55205", "addr:street": "Rue Henri Garnier", "alt_name": "Hôpital Saint-Charles", "amenity": "hospital", "email": "sdir@ch-commercy.fr", "emergency": "limited", "fax": "+33 3 29 91 33 73", "heritage": "3", "heritage:operator": "mhs", "mhs:inscription_date": "1998-09-28", "name": "Centre hospitalier de Commercy", "operator:type": "public", "phone": "+33 3 29 91 63 00", "ref:FR:FINESS": "550000038", "ref:mhs": "PA55000017", "source:heritage": "data.gouv.fr:Ministère de la Culture - 04/2015", "type:FR:FINESS": "355", "website": "https://hopital-commercy.fr/", "wikidata": "Q22997173"}}, {"name": "Hôpital André Breton - CH Haute Marne", "latitude": 48.634676, "longitude": 4.9566355, "source": "osm", "_tags": {"amenity": "hospital", "healthcare": "hospital", "name": "Hôpital André Breton - CH Haute Marne", "ref:FR:FINESS": "520000076", "type:FR:FINESS": "292"}}, {"name": "Centre Hospitalier de Bar-le-Duc", "latitude": 48.7855839, "longitude": 5.1658829, "source": "osm", "_tags": {"addr:housenumber": "1", "addr:street": "Boulevard d'Argonne", "amenity": "hospital", "healthcare": "hospital", "name": "Centre Hospitalier de Bar-le-Duc"}}, {"name": "Hôpital Saint-Charles", "latitude": 48.4987912, "longitude": 4.9515994, "source": "osm", "_tags": {"amenity": "hospital", "name": "Hôpital Saint-Charles", "ref:FR:FINESS": "520000084", "source": "Le ministère des solidarités et de la santé - 08/2018", "wikidata": "Q92063435"}}, {"name": "Centre Hospitalier de Briey", "latitude": 49.2524745, "longitude": 5.9316315, "source": "osm", "_tags": {"amenity": "hospital", "contact:email": "direction@ch-briey.fr", "contact:fax": "+33 3 82 47 74 08", "contact:phone": "+33 3 82 47 50 00", "contact:website": "https://www.ch-briey.fr/", "healthcare": "hospital", "name": "Centre Hospitalier de Briey", "operator:type": "public", "ref:FR:FINESS": "540001070", "ref:FR:SIRET": "26540020000019", "source": "Le ministère des solidarités et de la santé - 2024-09", "type": "multipolygon", "type:FR:FINESS": "355"}}]