[{"name": "Hôpital privé de la Baie", "latitude": 48.6777265, "longitude": -1.3491101, "source": "osm", "_tags": {"amenity": "hospital", "healthcare": "hospital", "name": "Hôpital privé de la Baie", "operator": "Vivalto", "ref:FR:FINESS": "500000146", "type:FR:FINESS": "128"}}, {"name": "Salle Polyvalente CH Mémorial St Lô", "latitude": 49.1061924, "longitude": -1.1073655, "source": "osm", "_tags": {"addr:city": "Saint Lô", "addr:housenumber": "715", "addr:postcode": "50000", "addr:street": "Rue Henri Dunant", "amenity": "hospital", "blood:whole": "yes", "healthcare": "hospital", "name": "Salle Polyvalente CH Mémorial St Lô", "opening_hours": "Demi-journée le 1er mardi du mois", "operator": "CH Mémorial St Lô", "operator:type": "public", "ref": "https://dondesang.efs.sante.fr/trouver-une-collecte?ville"}}, {"name": "Batiment H", "latitude": 48.6930371, "longitude": -1.3522546, "source": "osm", "_tags": {"amenity": "hospital", "healthcare": "hospital", "name": "Batiment H"}}, {"name": "C.S.A.P.A. Le Rosais", "latitude": 48.6255736, "longitude": -2.011296, "source": "osm", "_tags": {"amenity": "hospital", "name": "C.S.A.P.A. Le Rosais", "ref:FR:SIRET": "26350005000160"}}, {"name": "Centre hospitalier de l’estran", "latitude": 48.914596, "longitude": -1.5385958, "source": "osm", "_tags": {"amenity": "hospital", "healthcare:speciality": "psychiatry", "name": "Centre hospitalier de l’estran", "type:FR:FINESS": "292", "website": "https://www.ch-estran.fr/"}}, {"name": "CMPEA Dinan", "latitude": 48.455816, "longitude": -2.052031, "source": "osm", "_tags": {"addr:city": "Dinan", "addr:housenumber": "9", "addr:postcode": "22100", "addr:street": "Rue de la Préjentais", "amenity": "hospital", "healthcare": "hospital", "healthcare:speciality": "psychiatry", "name": "CMPEA Dinan", "operator": "Fondation St Jean de Dieu"}}, {"name": "Centre de Réhabilitation Thérapeutique (CRT) Dinan", "latitude": 48.4462392, "longitude": -2.0580671, "source": "osm", "_tags": {"addr:city": "Dinan", "addr:housenumber": "2", "addr:postcode": "22100", "addr:street": "Avenue du Saint-Esprit", "amenity": "hospital", "healthcare": "hospital", "healthcare:speciality": "psychiatry", "name": "Centre de Réhabilitation Thérapeutique (CRT) Dinan", "operator": "Fondation St Jean de Dieu"}}, {"name": "Hôpital de jour Addictologie", "latitude": 48.4474251, "longitude": -2.0556937, "source": "osm", "_tags": {"addr:city": "Dinan", "addr:postcode": "22100", "addr:street": "Avenue Saint-Jean de Dieu", "amenity": "hospital", "healthcare": "hospital", "healthcare:speciality": "psychiatry", "name": "Hôpital de jour Addictologie", "operator": "Fondation St Jean de Dieu"}}, {"name": "Centre Hospitalier Dinan / Saint-Brieuc - Fondation St Jean de Dieu", "latitude": 48.4479372, "longitude": -2.0590436, "source": "osm", "_tags": {"addr:city": "Dinan", "addr:postcode": "22100", "addr:street": "Avenue Saint Jean de Dieu", "amenity": "hospital", "healthcare": "hospital", "healthcare:speciality": "psychiatry", "name": "Centre Hospitalier Dinan / Saint-Brieuc - Fondation St Jean de Dieu", "operator": "Fondation Saint Jean de Dieu"}}, {"name": "Unité Paul de Magallon - Fondation St Jean de Dieu", "latitude": 48.4474647, "longitude": -2.0580205, "source": "osm", "_tags": {"addr:city": "Dinan", "addr:postcode": "22100", "addr:street": "Avenue Saint-Jean de Dieu", "amenity": "hospital", "healthcare": "hospital", "healthcare:speciality": "psychiatry", "name": "Unité Paul de Magallon - Fondation St Jean de Dieu", "operator": "Fondation St Jean de Dieu"}}, {"name": "Hôpital de jour Jeanne Jugan - Sujet âgé", "latitude": 48.4484157, "longitude": -2.0599169, "source": "osm", "_tags": {"addr:city": "Dinan", "addr:postcode": "22100", "addr:street": "avenue saint jean de dieu", "amenity": "hospital", "healthcare": "hospital", "healthcare:speciality": "psychiatry", "name": "Hôpital de jour Jeanne Jugan - Sujet âgé", "operator": "Fondation St Jean de Dieu"}}, {"name": "Centre Hospitalier René Pleven", "latitude": 48.4449524, "longitude": -2.0456085, "source": "osm", "_tags": {"healthcare": "hospital", "name": "Centre Hospitalier René Pleven", "operator": "Groupement Hospitalier Rance Emeraude"}}, {"name": "Clinique du Docteur Guillard", "latitude": 49.0466326, "longitude": -1.4408183, "source": "osm", "_tags": {"amenity": "hospital", "building": "yes", "healthcare": "hospital", "name": "Clinique du Docteur Guillard", "ref:FR:FINESS": "500000401", "source": "cadastre-dgi-fr source : Direction Générale des Impôts - Cadastre. Mise à jour : 2010", "type:FR:FINESS": "365"}}, {"name": "Centre hospitalier de Coutances", "latitude": 49.0416232, "longitude": -1.44382, "source": "osm", "_tags": {"access": "yes", "addr:city": "Coutances", "addr:housenumber": "2", "addr:postcode": "50200", "addr:street": "Rue de la Gare", "alt_name": "Hôtel-Dieu", "amenity": "hospital", "emergency": "yes", "fax": "+33 2 33 47 41 04", "healthcare": "hospital", "heritage": "2", "lit": "yes", "name": "Centre hospitalier de Coutances", "operator:type": "public", "phone": "+33 2 33 47 40 00", "ref:FR:FINESS": "500000591", "surface": "asphalt", "type:FR:FINESS": "355", "website": "https://www.ch-coutances.fr/", "wikidata": "Q22963216"}}, {"name": "Centre William Harvey", "latitude": 49.1761931, "longitude": -1.3332131, "source": "osm", "_tags": {"amenity": "hospital", "healthcare": "hospital", "name": "Centre William Harvey", "opening_hours": "Mo-Su 09:00-12:00, 14:00-18:00", "ref:FR:FINESS": "500012687", "ref:FR:SIRET": "39275210100015", "type:FR:FINESS": "109"}}, {"name": "Le Normandy", "latitude": 48.83956, "longitude": -1.5974695, "source": "osm", "_tags": {"amenity": "hospital", "building": "hospital", "check_date": "2025-06-09", "emergency": "no", "fax": "+33 2 33 90 33 11", "healthcare": "hospital", "name": "Le Normandy", "note": "Centre de reeducation et readaption fonctionelle", "operator": "Sogenor SAS", "operator:type": "private", "phone": "+33 2 33 90 33 33", "ref": "Pôle Rééducation Centre", "ref:FR:FINESS": "500000229", "source": "cadastre-dgi-fr source : Direction Générale des Impôts - Cadastre. Mise à jour : 2011", "type:FR:FINESS": "109", "website": "http://www.lenormandy.com/"}}, {"name": "Centre hospitalier de Saint-Malo", "latitude": 48.6378631, "longitude": -2.007571, "source": "osm", "_tags": {"addr:city": "Saint-Malo", "addr:housenumber": "1", "addr:postcode": "35400", "addr:street": "Rue de la Marne", "alt_name": "Hôpital Broussais", "amenity": "hospital", "emergency": "yes", "fax": "+33 2 99 21 20 00", "healthcare": "hospital", "healthcare:speciality": "intensive", "name": "Centre hospitalier de Saint-Malo", "name:br": "Pennospital Sant-Maloù", "name:fr": "Centre hospitalier de Saint-Malo", "operator:type": "public", "phone": "+33 2 99 21 21 21", "ref:FR:FINESS": "350000147", "ref:FR:NAF": "86.10Z", "ref:FR:SIRET": "26350005000012", "short_name": "CH de Saint-Malo", "source:name:br": "proper translation", "type:FR:FINESS": "355", "website": "https://www.gh-re.fr/"}}, {"name": "Clinique Saint-Jean", "latitude": 49.1150808, "longitude": -1.0687597, "source": "osm", "_tags": {"amenity": "hospital", "fax": "+33233067979", "healthcare": "hospital", "name": "Clinique Saint-Jean", "note": "Le nom Clinique Saint-Jean est celui sur le fronton (cf note 2139850), différent du nom Finess", "phone": "+33233067878", "ref:FR:FINESS": "500000203", "ref:FR:SIRET": "90618004700019", "source": "Le ministère des solidarités et de la santé - 03/2019", "type:FR:FINESS": "292", "wheelchair": "yes"}}, {"name": "Centre hospitalier René Pleven", "latitude": 48.4446664, "longitude": -2.0474908, "source": "osm", "_tags": {"amenity": "hospital", "emergency": "yes", "healthcare": "hospital", "name": "Centre hospitalier René Pleven", "name:br": "Pennospital René Pléven", "operator:type": "public", "phone": "+33 2 96 85 72 85", "ref:FR:FINESS": "220000095", "source": "E-mégalis Bretagne et collectivités territoriales bretonnes - 2012", "source:name:br": "proper translation", "type:FR:FINESS": "355", "website": "http://www.cht-ranceemeraude.fr/centre-hospitalier-rene-pleven-dinan/le-centre-hospitalier-de-dinan/presentation-du-ch-de-dinan.html"}}, {"name": "Centre hospitalier Dinan - Saint-Brieuc, Fondation Saint-Jean de Dieu", "latitude": 48.4486218, "longitude": -2.0608764, "source": "osm", "_tags": {"amenity": "hospital", "healthcare": "hospital", "name": "Centre hospitalier Dinan - Saint-Brieuc, Fondation Saint-Jean de Dieu", "ref:FR:FINESS": "220000616", "source": "E-mégalis Bretagne et collectivités territoriales bretonnes - 2012", "type:FR:FINESS": "292", "website": "https://www.chdinanstbrieuc.fsjd.fr/"}}, {"name": "Centre Hospitalier Avranches - Granville", "latitude": 48.828468, "longitude": -1.5700557, "source": "osm", "_tags": {"alt_name": "Centre Hospitalier Jacques Monod", "amenity": "hospital", "email": "direction@ch-avranches-granville.fr", "emergency": "yes", "fax": "+33 2 33 91 50 01", "name": "Centre Hospitalier Avranches - Granville", "operator": "Centre Hospitalier Avranches - Granville", "operator:type": "public", "phone": "+33 2 33 91 50 00", "ref:FR:FINESS": "500000260", "type:FR:FINESS": "355", "website": "http://www.ch-avranches-granville.fr/", "wikidata": "Q2945687"}}, {"name": "Clinique Pinel", "latitude": 49.2031674, "longitude": -2.044681, "source": "osm", "_tags": {"amenity": "hospital", "emergency": "no", "name": "Clinique Pinel"}}, {"name": "Rosewood House", "latitude": 49.2039054, "longitude": -2.0443952, "source": "osm", "_tags": {"amenity": "hospital", "emergency": "no", "name": "Rosewood House"}}, {"name": "Hôpital du Bon-Sauveur", "latitude": 49.377292, "longitude": -1.428633, "source": "osm", "_tags": {"amenity": "hospital", "healthcare": "hospital", "name": "Hôpital du Bon-Sauveur", "ref:FR:FINESS": "500000237", "source": "Le ministère des solidarités et de la santé - 03/2019"}}, {"name": "Centre Hospitalier Spécialisé - ISTMA", "latitude": 49.1090988, "longitude": -1.0962884, "source": "osm", "_tags": {"amenity": "hospital", "healthcare": "hospital", "name": "Centre Hospitalier Spécialisé - ISTMA", "ref:FR:FINESS": "500000252", "type:FR:FINESS": "292"}}, {"name": "Centre Hospitalier de Saint-Hilaire-du-Harcouet", "latitude": 48.5689201, "longitude": -1.096431, "source": "osm", "_tags": {"amenity": "hospital", "emergency": "yes", "fax": "+33 2 33 79 44 09", "name": "Centre Hospitalier de Saint-Hilaire-du-Harcouet", "operator:type": "public", "phone": "+33 2 33 79 44 44", "ref:FR:FINESS": "500000427", "type:FR:FINESS": "355"}}, {"name": "Centre Hospitalier Mémorial", "latitude": 49.1048393, "longitude": -1.1077456, "source": "osm", "_tags": {"amenity": "hospital", "emergency": "yes", "fax": "+33 2 33 06 32 61", "healthcare": "hospital", "healthcare:speciality": "intensive", "name": "Centre Hospitalier Mémorial", "operator:type": "public", "phone": "+33 2 33 06 33 33", "ref:FR:FINESS": "500000450", "type:FR:FINESS": "355", "website": "https://www.ch-stlo.fr/", "wikidata": "Q2945723"}}, {"name": "Centre Hospitalier Avranches - Granville", "latitude": 48.6932922, "longitude": -1.3519387, "source": "osm", "_tags": {"amenity": "hospital", "contact:phone": "+33 2 33 89 40 00", "contact:website": "http://www.ch-avranches-granville.fr/", "email": "direction@ch-avranches-granville.fr", "emergency": "yes", "fax": "+33 2 33 91 50 01", "healthcare:speciality": "intensive", "name": "Centre Hospitalier Avranches - Granville", "operator": "Centre Hospitalier Avranches - Granville", "operator:type": "public", "phone": "+33 2 33 91 50 00", "ref:FR:FINESS": "500000021", "short_name": "CHAG", "type:FR:FINESS": "355", "website": "http://www.ch-avranches-granville.fr/", "wikidata": "Q2945687"}}, {"name": "Le Normandy II", "latitude": 48.8279261, "longitude": -1.5711297, "source": "osm", "_tags": {"amenity": "hospital", "fax": "+33 2 33 90 33 11", "name": "Le Normandy II", "operator": "Sogenor SAS", "operator:type": "private", "phone": "+33 2 33 90 33 33", "ref": "Pôle Rééducation Sud", "ref:FR:FINESS": "500021423", "type:FR:FINESS": "109", "website": "http://www.lenormandy.com/"}}, {"name": "Hôpital Saint-James", "latitude": 48.5253991, "longitude": -1.328707, "source": "osm", "_tags": {"amenity": "hospital", "email": "contact@hopital-stjames.fr", "fax": "+33 2 33 89 89 40", "healthcare": "hospital", "name": "Hôpital Saint-James", "operator:type": "public", "phone": "+33 2 33 89 89 00", "ref:FR:FINESS": "500000435", "type:FR:FINESS": "106", "website": "https://www.hopitaux-montsaintmichel.fr/le-ght/nos-etablissements/ch-de-saint-james/", "wikidata": "Q92061574"}}, {"name": "Hôpital des Prés Bosgers", "latitude": 48.6831643, "longitude": -1.8663384, "source": "osm", "_tags": {"addr:city": "cancale", "addr:postcode": "35260", "addr:street": "Rue des Artisans", "amenity": "hospital", "contact:email": "hopital@ch-cancale.fr", "healthcare": "hospital", "name": "Hôpital des Prés Bosgers", "operator": "Groupement Hospitalier de Territoire Rance Emeraude", "phone": "+33 2 99 89 51 51", "ref:FR:FINESS": "350040499", "type:FR:FINESS": "106", "website": "https://etablissements.fhf.fr/annuaire/hopital-site.php?id_etab=4616"}}, {"name": "Centre hospitalier de l’Estran", "latitude": 48.6851137, "longitude": -1.3530157, "source": "osm", "_tags": {"amenity": "hospital", "healthcare": "hospital", "name": "Centre hospitalier de l’Estran", "operator": "Centre hospitalier de l’Estran", "operator:type": "public", "phone": "+33 2 33 60 72 00", "ref:FR:FINESS": "500022116", "source": "Le ministère des solidarités et de la santé - 03/2019", "type:FR:FINESS": "292", "website": "https://www.ch-estran.fr/"}}, {"name": "Hôpital Les Poêles", "latitude": 48.8425446, "longitude": -1.2221378, "source": "osm", "_tags": {"addr:housenumber": "12", "addr:street": "Rue Jean Gasté", "amenity": "hospital", "healthcare": "hospital", "name": "Hôpital Les Poêles", "ref:FR:FINESS": "500000476", "source": "Le ministère des solidarités et de la santé - 03/2019", "type:FR:FINESS": "106", "wikidata": "Q92062681"}}, {"name": "Centre hospitalier de l'Estran", "latitude": 48.5507344, "longitude": -1.5173097, "source": "osm", "_tags": {"amenity": "hospital", "healthcare": "hospital", "name": "Centre hospitalier de l'Estran", "old_name": "Centre hospitalier de Pontorson", "ref:FR:FINESS": "500000575", "source": "Le ministère des solidarités et de la santé - 03/2019"}}, {"name": "Centre Hospitalier de Carentan", "latitude": 49.3071427, "longitude": -1.2447843, "source": "osm", "_tags": {"addr:housenumber": "1", "addr:street": "Avenue Qui Qu'en Grogne", "amenity": "hospital", "healthcare": "hospital", "name": "Centre Hospitalier de Carentan", "ref:FR:FINESS": "500000195", "source": "cadastre-dgi-fr source : Direction Générale des Impôts - Cadastre. Mise à jour : 2012", "wikidata": "Q92062893"}}, {"name": "Centre hospitalier d'Antrain", "latitude": 48.4562507, "longitude": -1.4785192, "source": "osm", "_tags": {"amenity": "hospital", "healthcare": "hospital", "name": "Centre hospitalier d'Antrain", "ref:FR:FINESS": "350000444", "type:FR:FINESS": "355"}}, {"name": "Clinique de la Côte d’Émeraude", "latitude": 48.625712, "longitude": -1.9833041, "source": "osm", "_tags": {"addr:city": "Saint-Malo", "addr:housenumber": "1", "addr:postcode": "35400", "addr:street": "Rue de la Maison Neuve", "amenity": "hospital", "building": "yes", "emergency": "no", "fax": "+33 2 99 40 66 50", "healthcare": "hospital", "name": "Clinique de la Côte d’Émeraude", "opening_hours": "Mo-Fr 06:45-20:00; Sa,Su,PH 09:00-18:00", "phone": "+33 2 23 52 20 20", "ref:FR:FINESS": "350000196", "ref:FR:NAF": "86.10Z", "ref:FR:SIRET": "89578026000025", "source": "cadastre-dgi-fr source : Direction Générale des Impôts - Cadastre. Mise à jour : 2021", "type:FR:FINESS": "365", "website": "https://clinique-cote-emeraude.vivalto-sante.com/", "wheelchair": "yes"}}, {"name": "Centre de Santé Mentale Yves Pelicier", "latitude": 48.6201272, "longitude": -1.9772562, "source": "osm", "_tags": {"amenity": "hospital", "name": "Centre de Santé Mentale Yves Pelicier"}}]