[{"name": "Nemocnica Dr. Vojtecha Alexandra v Kežmarku n. o.", "latitude": 49.131849, "longitude": 20.4216464, "source": "osm", "_tags": {"amenity": "hospital", "contact:website": "https://www.nemocnicakezmarok.sk/index.html", "name": "Nemocnica Dr. Vojtecha Alexandra v Kežmarku n. o."}}, {"name": "Nemocnica s poliklinikou Hnúšťa", "latitude": 48.5648031, "longitude": 19.9560813, "source": "osm", "_tags": {"amenity": "hospital", "name": "Nemocnica s poliklinikou Hnúšťa"}}, {"name": "Všeobecná nemocnica s poliklinikou Levoča, a.s.", "latitude": 49.0250038, "longitude": 20.5937047, "source": "osm", "_tags": {"amenity": "hospital", "contact:website": "https://www.nemocnicalevoca.sk/index.html", "emergency": "yes", "name": "Všeobecná nemocnica s poliklinikou Levoča, a.s.", "source": "local knowledge - baramat"}}, {"name": "Nemocnica s poliklinikou Revúca", "latitude": 48.6920279, "longitude": 20.1206294, "source": "osm", "_tags": {"addr:street": "Litovelská", "amenity": "hospital", "healthcare": "hospital", "name": "Nemocnica s poliklinikou Revúca"}}, {"name": "SOR", "latitude": 49.3044572, "longitude": 19.9553926, "source": "osm", "_tags": {"amenity": "clinic", "emergency": "yes", "healthcare": "hospital", "name": "SOR", "official_name": "Szpitalny oddział ratunkowy", "opening_hours": "24/7", "operator": "Szpital Powiatowy imienia doktora Tytusa Chałubińskiego w Zakopanem"}}, {"name": "Národný ústav detskej tuberkulózy a respiračných chorôb", "latitude": 49.1326973, "longitude": 20.2379579, "source": "osm", "_tags": {"amenity": "hospital", "healthcare": "hospital", "name": "Národný ústav detskej tuberkulózy a respiračných chorôb"}}, {"name": "Nemocnica Dr. V. Alexandra", "latitude": 49.1324231, "longitude": 20.4279056, "source": "osm", "_tags": {"addr:city": "Kežmarok", "addr:conscriptionnumber": "253", "addr:country": "SK", "addr:housenumber": "253/27", "addr:postcode": "06001", "addr:street": "Hviezdoslavova", "addr:streetnumber": "27", "amenity": "hospital", "building": "yes", "emergency": "no", "name": "Nemocnica Dr. V. Alexandra", "ref:minvskaddress": "2280332A", "source:addr": "minvskaddress 2022-09"}}, {"name": "Špecializovaná nemocnica respiračných chorób", "latitude": 49.0186006, "longitude": 20.2805007, "source": "osm", "_tags": {"addr:city": "Poprad", "addr:conscriptionnumber": "414", "addr:country": "SK", "addr:housenumber": "414/19", "addr:postcode": "05801", "addr:street": "Kvetnica", "addr:streetnumber": "19", "addr:suburb": "Kvetnica", "amenity": "hospital", "building": "hospital", "name": "Špecializovaná nemocnica respiračných chorób", "ref:minvskaddress": "22823130", "source": "kapor2", "source:addr": "minvskaddress 2024-05"}}, {"name": "Ambulancia pevnej APS pre dospelých Revúca", "latitude": 48.6820459, "longitude": 20.1106836, "source": "osm", "_tags": {"addr:city": "Revúca", "addr:conscriptionnumber": "323", "addr:country": "SK", "addr:housenumber": "323/2", "addr:postcode": "05001", "addr:street": "Šafárikova", "addr:streetnumber": "2", "addr:suburb": "Revúca", "amenity": "hospital", "building": "yes", "healthcare": "hospital", "healthcare:speciality": "urology", "name": "Ambulancia pevnej APS pre dospelých Revúca", "operator": "Miramed", "operator:type": "private", "ref:minvskaddress": "26995848", "source": "kapor2", "source:conscriptionnumber": "kapor2", "source:streetnumber": "minvskaddress 2020-12"}}, {"name": "Nemocnica Krompachy spol. s r.o.", "latitude": 48.9042177, "longitude": 20.8716248, "source": "osm", "_tags": {"amenity": "hospital", "contact:website": "https://www.nemocnicakrompachy.sk/index.html", "emergency": "yes", "healthcare": "hospital", "name": "Nemocnica Krompachy spol. s r.o.", "source": "Bing;survey"}}, {"name": "Uniwersytecki Szpital Ortopedyczno Rehabilitacyjny w Zakopanem", "latitude": 49.2860404, "longitude": 19.9847054, "source": "osm", "_tags": {"alt_name": "Kabeka", "amenity": "hospital", "healthcare": "hospital", "name": "Uniwersytecki Szpital Ortopedyczno Rehabilitacyjny w Zakopanem"}}, {"name": "Szpital Powiatowy im. dr Tytusa Chałubińskiego w Zakopanem", "latitude": 49.3048176, "longitude": 19.9560689, "source": "osm", "_tags": {"amenity": "hospital", "check_date": "2024-07-23", "email": "sekretariat@szpital-zakopane.pl", "emergency": "yes", "healthcare": "hospital", "healthcare:speciality": "general", "name": "Szpital Powiatowy im. dr Tytusa Chałubińskiego w Zakopanem", "operator": "Powiat Tatrzański", "operator:type": "government", "phone": "+48 18 20 120 21", "website": "https://szpital-zakopane.pl", "wheelchair": "yes"}}, {"name": "Pro Vitae", "latitude": 48.85639, "longitude": 20.9337258, "source": "osm", "_tags": {"amenity": "hospital", "contact:email": "provitae@provitaegelnica.sk", "contact:phone": "+421 53 4163 200", "healthcare": "hospital", "name": "Pro Vitae", "operator": "PRO VITAE n. o. Gelnica", "ref:ico": "37886428", "website": "https://nemocnica-gelnica.sk/", "wikidata": "Q12772422"}}, {"name": "Národný ústav tuberkulózy, pľúcnych chorôb a hrudníkovej chirurgie Vyšné Hágy", "latitude": 49.1207218, "longitude": 20.1251767, "source": "osm", "_tags": {"addr:city": "Vysoké Tatry", "addr:housenumber": "1", "addr:place": "Vyšné Hágy", "addr:postcode": "05984", "amenity": "hospital", "email": "hagy@vhagy.sk", "healthcare": "hospital", "healthcare:speciality": "pulmonology", "name": "Národný ústav tuberkulózy, pľúcnych chorôb a hrudníkovej chirurgie Vyšné Hágy", "phone": "+421 52/441 41 11", "short_name": "NÚTPCHaHCH", "website": "http://int.vhagy.sk/hagy/"}}, {"name": "Wojewódzki Szpital Rehabilitacyjny im. dr. S. Jasińskiego w Zakopanem", "latitude": 49.3121757, "longitude": 19.960674, "source": "osm", "_tags": {"amenity": "hospital", "emergency": "no", "healthcare": "hospital", "healthcare:speciality": "physiatry", "name": "Wojewódzki Szpital Rehabilitacyjny im. dr. S. Jasińskiego w Zakopanem"}}, {"name": "Ľubovnianska nemocnica, n.o.", "latitude": 49.2964568, "longitude": 20.6887196, "source": "osm", "_tags": {"amenity": "hospital", "contact:facebook": "https://www.facebook.com/lubovnianskanemocnica.sk", "contact:website": "https://lubovnianskanemocnica.sk/", "healthcare": "hospital", "name": "Ľubovnianska nemocnica, n.o."}}, {"name": "Nemocnica Poprad, a. s.", "latitude": 49.0517861, "longitude": 20.3024994, "source": "osm", "_tags": {"amenity": "hospital", "contact:website": "https://www.nemocnicapp.sk/", "healthcare": "hospital", "name": "Nemocnica Poprad, a. s."}}, {"name": "Szpital Specjalistyczny Chorób Płuc \"Odrodzenie\" im. Klary Jelskiej", "latitude": 49.2974548, "longitude": 19.9439011, "source": "osm", "_tags": {"amenity": "hospital", "healthcare": "hospital", "healthcare:speciality": "pulmonology", "loc_name": "Sokołowski", "name": "Szpital Specjalistyczny Chorób Płuc \"Odrodzenie\" im. Klary Jelskiej", "old_name": "Szpital Specjalistyczny Chorób Płuc im. dr O. Sokołowskiego"}}, {"name": "Nemocnica s poliklinikou sv. Barbory Rožňava, a.s.", "latitude": 48.6656202, "longitude": 20.5342414, "source": "osm", "_tags": {"amenity": "hospital", "email": "nemocnica.rv@pentahospitals.sk", "healthcare": "hospital", "name": "Nemocnica s poliklinikou sv. Barbory Rožňava, a.s.", "phone": "+421 58 777 1118", "ref:ico": "36597341", "type": "multipolygon", "website": "https://www.pentahospitals.sk/nemocnica/nemocnica-s-poliklinikou-sv-barbory-roznava-s/", "wikidata": "Q55432252"}}, {"name": "Odborný liečebný ústav psychiatrický, n. o. Predná Hora", "latitude": 48.7717622, "longitude": 20.1110977, "source": "osm", "_tags": {"addr:city": "Muránska Huta", "addr:conscriptionnumber": "126", "addr:country": "SK", "addr:housenumber": "126", "addr:place": "Muránska Huta", "addr:postcode": "04901", "amenity": "hospital", "building": "yes", "email": "olup@olup-prednahora.sk", "emergency": "no", "import": "budovy201004", "name": "Odborný liečebný ústav psychiatrický, n. o. Predná Hora", "phone": "+421 58 4866 100", "ref:ico": "37954920", "ref:minvskaddress": "10583551", "source:addr": "minvskaddress 2024-02", "type": "multipolygon", "website": "https://olup-prednahora.sk"}}, {"name": "Nemocnica s poliklinikou Spišská Nová Ves, a.s.", "latitude": 48.956555, "longitude": 20.5674537, "source": "osm", "_tags": {"amenity": "hospital", "contact:website": "https://www.procare.sk/nemocnica/nemocnica-s-poliklinikou-spisska-nova-ves-s/", "name": "Nemocnica s poliklinikou Spišská Nová Ves, a.s.", "type": "multipolygon"}}]