[{"name": "Centrum Fyzioterapie BMphysio.cz", "latitude": 49.1825188, "longitude": 16.6191909, "source": "osm", "_tags": {"addr:conscriptionnumber": "539", "addr:housenumber": "539/24", "addr:postcode": "60200", "addr:street": "Plotní", "addr:streetnumber": "24", "amenity": "hospital", "healthcare": "hospital", "healthcare:speciality": "physiatry;physiotherapy", "name": "Centrum Fyzioterapie BMphysio.cz", "operator": "BMphysio.cz", "operator:type": "private", "ref:ruian:addr": "19396074", "source:addr": "cuzk:ruian", "source:position": "cuzk:km"}}, {"name": "Pohotovostní služba", "latitude": 49.3529502, "longitude": 16.021491, "source": "osm", "_tags": {"amenity": "hospital", "check_date": "2025-03-29", "healthcare": "hospital", "name": "Pohotovostní služba"}}, {"name": "Lékařská služba první pomoci", "latitude": 49.0402736, "longitude": 16.6183875, "source": "osm", "_tags": {"amenity": "hospital", "emergency": "yes", "name": "Lékařská služba první pomoci"}}, {"name": "Psychiatrická nemocnice Brno - Detašované pracoviště Slavkov u Brna", "latitude": 49.1511005, "longitude": 16.8782597, "source": "osm", "_tags": {"amenity": "hospital", "contact:phone": "+420544221810", "emergency": "no", "healthcare": "hospital", "healthcare:speciality": "psychiatry", "name": "Psychiatrická nemocnice Brno - Detašované pracoviště Slavkov u Brna"}}, {"name": "Fakultní nemocnice Bohunice", "latitude": 49.1754926, "longitude": 16.5731901, "source": "osm", "_tags": {"amenity": "hospital", "healthcare": "hospital", "name": "Fakultní nemocnice Bohunice", "source": "uhul:ortofoto"}}, {"name": "Porodnice Obilní trh", "latitude": 49.1989179, "longitude": 16.5958319, "source": "osm", "_tags": {"amenity": "hospital", "check_date": "2024-07-17", "healthcare": "hospital", "name": "Porodnice Obilní trh", "old_name": "Zemská porodnice", "operator": "FN Bohunice", "source": "cuzk:km", "wikidata": "Q30091778"}}, {"name": "Landesklinikum Hollabrunn", "latitude": 48.5628057, "longitude": 16.0908426, "source": "osm", "_tags": {"amenity": "hospital", "emergency": "yes", "healthcare": "hospital", "healthcare:speciality": "emergency", "name": "Landesklinikum Hollabrunn", "operator": "Niederösterreichische Landeskliniken-Holding", "operator:type": "public", "wheelchair": "yes", "wikidata": "Q1436774"}}, {"name": "Landesklinikum Mistelbach-Gänserndorf", "latitude": 48.5675598, "longitude": 16.5815791, "source": "osm", "_tags": {"addr:city": "Mistelbach", "addr:country": "AT", "addr:housenumber": "67", "addr:postcode": "2130", "addr:street": "Liechtensteinstraße", "amenity": "hospital", "contact:phone": "+43 2572 900 40", "health_specialty": "stroke_unit", "healthcare": "hospital", "healthcare:speciality": "emergency", "name": "Landesklinikum Mistelbach-Gänserndorf", "operator": "Niederösterreichische Landeskliniken-Holding", "website": "https://mistelbach.lknoe.at/"}}, {"name": "Nemocnice Ivančice", "latitude": 49.1024853, "longitude": 16.3728196, "source": "osm", "_tags": {"addr:city": "Ivančice", "addr:housenumber": "16", "addr:postcode": "66491", "addr:street": "Široká", "amenity": "hospital", "emergency": "yes", "healthcare": "hospital", "name": "Nemocnice Ivančice", "website": "https://www.nspiv.cz/", "wikidata": "Q27048766"}}, {"name": "Psychiatrická nemocnice Brno", "latitude": 49.1829358, "longitude": 16.6395913, "source": "osm", "_tags": {"amenity": "hospital", "email": "sekretariat@pnbrno.cz", "healthcare": "hospital", "name": "Psychiatrická nemocnice Brno", "phone": "+420 548 123 111", "wikidata": "Q27048224"}}, {"name": "Zdravotní středisko", "latitude": 49.0354749, "longitude": 16.5918484, "source": "osm", "_tags": {"amenity": "hospital", "building": "civic", "building:levels": "2", "building:ruian:type": "5", "name": "Zdravotní středisko", "ref:ruian:building": "13215884", "source": "cuzk:ruian"}}, {"name": "Masarykův onkologický ústav", "latitude": 49.1944794, "longitude": 16.5891261, "source": "osm", "_tags": {"addr:city": "Brno", "addr:housenumber": "7", "addr:postcode": "65653", "addr:street": "Žlutý kopec", "amenity": "hospital", "emergency": "no", "healthcare": "hospital", "name": "Masarykův onkologický ústav", "phone": "+420 543 131 111", "source": "cuzk:km", "start_date": "1935", "website": "https://www.mou.cz/", "wikidata": "Q14828023", "wikipedia": "cs:Masarykův onkologický ústav"}}, {"name": "Úrazová nemocnice v Brně", "latitude": 49.197766, "longitude": 16.6152583, "source": "osm", "_tags": {"amenity": "hospital", "building": "civic", "building:levels": "7", "building:ruian:type": "5", "check_date": "2024-05-15", "email": "reditelstvi@unbr.cz", "fax": "+420 545 211 082", "healthcare": "hospital", "healthcare:speciality": "emergency", "name": "Úrazová nemocnice v Brně", "name:cs": "Úrazová nemocnice v Brně", "name:de": "Unfallkrankenhaus in Brünn", "phone": "+420 545 538 111", "ref:ruian:building": "19020449", "source": "cuzk:ruian", "wikidata": "Q26945170"}}, {"name": "Vojenská nemocnice", "latitude": 49.2026197, "longitude": 16.6309649, "source": "osm", "_tags": {"amenity": "hospital", "healthcare": "hospital", "name": "Vojenská nemocnice", "old_name": "klášter premonstrátů", "website": "https://www.vnbrno.cz/", "wikidata": "Q27038324"}}, {"name": "FN u sv. Anny - Doléčovací a rehabilitační oddělení", "latitude": 49.1833123, "longitude": 16.5604839, "source": "osm", "_tags": {"amenity": "hospital", "building": "civic", "building:levels": "1", "building:ruian:type": "15", "check_date": "2024-07-18", "healthcare": "hospital", "name": "FN u sv. Anny - Doléčovací a rehabilitační oddělení", "ref:ruian:building": "19297106", "roof:shape": "flat", "source": "cuzk:ruian", "wheelchair": "yes"}}, {"name": "Nemocnice Břeclav p.o.", "latitude": 48.752519, "longitude": 16.8792676, "source": "osm", "_tags": {"amenity": "hospital", "email": "info@nembv.cz", "fax": "+420 519 372 112", "healthcare": "hospital", "name": "Nemocnice Břeclav p.o.", "phone": "00420519315111", "source": "uhul:ortofoto", "website": "https://www.nembv.cz/", "wikidata": "Q41567459"}}, {"name": "", "latitude": 49.3477939, "longitude": 16.4336277, "source": "osm", "_tags": {"amenity": "hospital", "building": "civic", "building:levels": "3", "building:ruian:type": "5", "ref:ruian:building": "13225073", "source": "cuzk:ruian"}}, {"name": "Nemocnice Milosrdných bratří", "latitude": 49.1853805, "longitude": 16.596969, "source": "osm", "_tags": {"amenity": "hospital", "emergency": "yes", "healthcare": "hospital", "name": "Nemocnice Milosrdných bratří", "name:en": "Brothers of Charity Hospital", "phone": "+420 532 299 111", "website": "http://www.nmbbrno.cz/", "wikidata": "Q27016768"}}, {"name": "Nemocnice Valtice", "latitude": 48.7435015, "longitude": 16.7596273, "source": "osm", "_tags": {"amenity": "hospital", "healthcare": "hospital", "name": "Nemocnice Valtice"}}, {"name": "FN u sv. Anny", "latitude": 49.1887732, "longitude": 16.6015597, "source": "osm", "_tags": {"amenity": "hospital", "healthcare": "hospital", "name": "FN u sv. Anny", "old_name": "klášter dominikánek", "source": "uhul:ortofoto", "website": "https://www.fnusa.cz/"}}, {"name": "Nemocnice Hustopeče p.o.", "latitude": 48.9449625, "longitude": 16.729863, "source": "osm", "_tags": {"amenity": "hospital", "name": "Nemocnice Hustopeče p.o."}}, {"name": "Nemocnice Svaté Zdislavy", "latitude": 49.3916591, "longitude": 16.0083054, "source": "osm", "_tags": {"amenity": "hospital", "healthcare": "hospital", "name": "Nemocnice Svaté Zdislavy", "website": "https://www.nemocnice-mostiste.cz/"}}, {"name": "Nemocnice Znojmo", "latitude": 48.8694012, "longitude": 16.0512891, "source": "osm", "_tags": {"amenity": "hospital", "building": "yes", "emergency": "yes", "name": "Nemocnice Znojmo", "source": "cuzk:km", "type": "multipolygon", "wheelchair": "yes"}}, {"name": "Nemocnice Blansko", "latitude": 49.362158, "longitude": 16.6538378, "source": "osm", "_tags": {"addr:city": "Blansko", "addr:conscriptionnumber": "1596", "addr:country": "CZ", "addr:housenumber": "1596/33", "addr:place": "Blansko", "addr:postcode": "67801", "addr:street": "Sadová", "addr:streetnumber": "33", "amenity": "hospital", "area": "yes", "email": "info@nemobk.cz", "emergency": "yes", "name": "Nemocnice Blansko", "phone": "+420 516 838 111", "ref:ruian:addr": "15236811", "type": "multipolygon", "website": "https://www.nemobk.cz/", "wikidata": "Q41567456"}}, {"name": "Dětská nemocnice", "latitude": 49.2036449, "longitude": 16.6170829, "source": "osm", "_tags": {"amenity": "hospital", "healthcare": "hospital", "healthcare:speciality": "paediatrics", "name": "Dětská nemocnice", "operator": "FN Bohunice", "type": "multipolygon", "wheelchair": "yes", "wikidata": "Q28092878"}}, {"name": "Fakultní nemocnice u svaté Anny", "latitude": 49.1902209, "longitude": 16.5959103, "source": "osm", "_tags": {"amenity": "hospital", "emergency": "yes", "healthcare": "hospital", "healthcare:speciality": "orthopaedics;surgery;ophthalmology;urology;oncology;geriatrics", "name": "Fakultní nemocnice u svaté Anny", "old_name": "klášter dominikánek", "short_name": "FN u sv. Anny", "type": "multipolygon", "website": "https://www.fnusa.cz/", "wikidata": "Q12016624", "wikipedia": "cs:Fakultní nemocnice u sv. Anny v Brně"}}]