[{"name": "Hôpital local de Montmirail", "latitude": 48.8784707, "longitude": 3.5462559, "source": "osm", "_tags": {"amenity": "hospital", "emergency": "no", "fax": "+33 3 26 81 14 69", "healthcare": "hospital", "name": "Hôpital local de Montmirail", "operator:type": "public", "phone": "+33 3 26 81 20 36", "ref:FR:FINESS": "510000359", "type:FR:FINESS": "106", "wikidata": "Q92061577"}}, {"name": "EPSMD de l'Aisne", "latitude": 49.035605, "longitude": 3.4070896, "source": "osm", "_tags": {"amenity": "hospital", "fax": "+33323695742", "healthcare": "hospital", "name": "EPSMD de l'Aisne", "phone": "+33323691039", "ref:FR:FINESS": "020003919", "ref:FR:SIRET": "26020034000172", "source": "Le ministère des solidarités et de la santé - 2021-01", "type:FR:FINESS": "292"}}, {"name": "APS contact", "latitude": 48.5587257, "longitude": 3.2948024, "source": "osm", "_tags": {"addr:city": "Provins", "addr:postcode": "77160", "addr:street": "Rue de la Venière", "amenity": "hospital", "healthcare": "hospital", "healthcare:speciality": "Addictology", "name": "APS contact"}}, {"name": "5 place Aristide-Briand 10400 Nogent-sur-Seine", "latitude": 48.4934428, "longitude": 3.5024602, "source": "osm", "_tags": {"addr:city": "Nogent-sur-Seine", "addr:housenumber": "5", "addr:postcode": "10400", "addr:street": "place Aristide Briand", "amenity": "hospital", "healthcare": "hospital", "name": "5 place Aristide-Briand 10400 Nogent-sur-Seine", "phone": "+33 3 25 39 87 08", "website": "https://www.gham.fr/"}}, {"name": "Centre psychothérapeutique", "latitude": 48.9952523, "longitude": 3.2673393, "source": "osm", "_tags": {"amenity": "hospital", "fax": "+33323829820", "healthcare": "hospital", "healthcare:speciality": "psychiatry", "name": "Centre psychothérapeutique", "operator": "EPSMD de l'Aisne", "operator:type": "public", "phone": "+33323829820", "ref:FR:FINESS": "020002788", "ref:FR:SIRET": "26020034000487", "source": "Le ministère des solidarités et de la santé - 2024-01", "type:FR:FINESS": "292"}}, {"name": "Groupement Hospitalier Aube Marne", "latitude": 48.5162275, "longitude": 3.716131, "source": "osm", "_tags": {"addr:city": "Romilly-sur-Seine", "addr:country": "FR", "addr:housenumber": "83", "addr:postcode": "10100", "addr:street": "Avenue Jean Jaurès", "amenity": "hospital", "building": "hospital", "email": "paysdeseine@groupe-vitalia.com", "emergency": "yes", "fax": "+33 3 25 39 55 56", "healthcare": "hospital", "name": "Groupement Hospitalier Aube Marne", "operator": "Elsan", "operator:type": "private", "operator:wikidata": "Q48747106", "phone": "+33 8 26 39 99 27;+33 3 25 21 96 03", "ref:FR:FINESS": "100000082", "source": "cadastre-dgi-fr source : Direction Générale des Finances Publiques - Cadastre. Mise à jour : 2013", "type:FR:FINESS": "128", "website": "https://www.gham.fr/"}}, {"name": "Centre hospitalier de Soissons", "latitude": 49.3703028, "longitude": 3.3343424, "source": "osm", "_tags": {"amenity": "hospital", "emergency": "yes", "fax": "+33 3 23 59 16 46", "healthcare:speciality": "intensive", "name": "Centre hospitalier de Soissons", "operator:type": "public", "phone": "+33 3 23 75 70 70", "ref:FR:FINESS": "020000519", "type:FR:FINESS": "355", "website": "https://www.ch-soissons.fr", "wikidata": "Q87121335"}}, {"name": "Centre hospitalier de Provins - Léon Binet", "latitude": 48.5447317, "longitude": 3.303365, "source": "osm", "_tags": {"amenity": "hospital", "emergency": "yes", "fax": "+33 1 64 60 40 90", "healthcare": "hospital", "healthcare:speciality": "intensive", "name": "Centre hospitalier de Provins - Léon Binet", "operator:type": "public", "phone": "+33 1 64 60 40 00", "ref:FR:FINESS": "770000172", "type:FR:FINESS": "355", "website": "https://www.ch-provins.fr/"}}, {"name": "Centre hospitalier de Coulommiers", "latitude": 48.8271142, "longitude": 3.096275, "source": "osm", "_tags": {"alt_name": "Site René Arbeltier", "amenity": "hospital", "emergency": "yes", "fax": "+33 1 64 65 38 00", "healthcare": "hospital", "name": "Centre hospitalier de Coulommiers", "operator": "Grand Hôpital de l’Est Francilien", "operator:type": "public", "phone": "+33 1 64 77 64 77", "ref:FR:FINESS": "770000131", "short_name": "GHEF", "type:FR:FINESS": "355", "website": "https://www.ghef.fr/"}}, {"name": "Centre hospitalier de Coulommiers", "latitude": 48.814525, "longitude": 3.082591, "source": "osm", "_tags": {"alt_name": "Hôpital Abel Leblanc", "amenity": "hospital", "emergency": "no", "healthcare": "hospital", "name": "Centre hospitalier de Coulommiers", "operator": "Grand Hôpital de l’Est Francilien", "operator:type": "public", "phone": "+33 1 64 77 64 77", "ref:FR:FINESS": "770001279", "short_name": "GHEF", "source": "Le ministère des solidarités et de la santé - 03/2019", "website": "https://www.ghef.fr/"}}, {"name": "Clinique Eugénie", "latitude": 49.3475394, "longitude": 2.9857674, "source": "osm", "_tags": {"amenity": "hospital", "healthcare": "hospital", "name": "Clinique Eugénie", "ref:FR:FINESS": "600009054", "type:FR:FINESS": "161"}}, {"name": "Centre hospitalier de Fismes", "latitude": 49.3057852, "longitude": 3.6778799, "source": "osm", "_tags": {"addr:city": "Fismes", "addr:housenumber": "12", "addr:postcode": "51170", "addr:street": "Rue des Chailleaux", "amenity": "hospital", "email": "direction@hl-fismes.fr", "fax": "+33 3 26 48 95 88", "healthcare": "hospital", "name": "Centre hospitalier de Fismes", "operator:type": "public", "phone": "+33 3 26 48 95 95", "ref:FR:FINESS": "510024466", "type:FR:FINESS": "355"}}, {"name": "Centre Hospitalier de Sézanne", "latitude": 48.7226588, "longitude": 3.7292442, "source": "osm", "_tags": {"addr:city": "Sézanne", "addr:country": "FR", "addr:housenumber": "16", "addr:postcode": "51120", "addr:street": "Rue des Récollets", "amenity": "hospital", "email": "contact@gham.fr", "fax": "+33 3 26 81 79 70", "name": "Centre Hospitalier de Sézanne", "operator": "Groupement Hospitalier Aube-Marne", "operator:type": "public", "phone": "+33 3 26 81 79 79", "ref:FR:FINESS": "510000177", "source": "cadastre-dgi-fr source : Direction Générale des Impôts - Cadastre. Mise à jour : 2011", "type:FR:FINESS": "355", "website": "https://www.gham.fr/"}}, {"name": "Centre hospitalier de Château-Thierry", "latitude": 49.0531272, "longitude": 3.4126322, "source": "osm", "_tags": {"alt_name": "Centre hospitalier Jeanne de Navarre", "amenity": "hospital", "emergency": "yes", "fax": "+33 3 23 69 69 00", "healthcare": "hospital", "healthcare:speciality": "general;paediatrics;ophthalmology;dentistry;orthopaedics;gynaecology;surgery;emergency;cardiology;radiology;internal;biology;maternity;geriatrics;intensive", "name": "Centre hospitalier de Château-Thierry", "operator:type": "public", "phone": "+33 3 23 69 66 00", "ref:FR:FINESS": "020001061", "type:FR:FINESS": "355", "website": "http://www.ch-chateau-thierry.fr"}}, {"name": "", "latitude": 48.516116, "longitude": 3.716725, "source": "osm", "_tags": {"amenity": "hospital"}}, {"name": "Hôpital de Villiers-Saint-Denis", "latitude": 48.9982023, "longitude": 3.2638078, "source": "osm", "_tags": {"amenity": "hospital", "fax": "+33323707440", "healthcare": "hospital", "name": "Hôpital de Villiers-Saint-Denis", "phone": "+33323707522", "ref:FR:FINESS": "020000303", "ref:FR:SIRET": "77566179600034", "source": "Le ministère des solidarités et de la santé - 2021-01", "type:FR:FINESS": "365"}}]