[{"name": "Centre de Rééducation Fonctionnelle Léopold Bellan", "latitude": 49.2593795, "longitude": 1.8832761, "source": "osm", "_tags": {"addr:full": "7 rue Raymond Pillon 60240 Chaumont-en-Vexin", "amenity": "hospital", "email": "centre.chaumont@fondationbellan.org", "emergency": "no", "fax": "+33 3 44 49 31 91", "healthcare": "hospital", "name": "Centre de Rééducation Fonctionnelle Léopold Bellan", "operator": "Fondation Léopold Bellan", "operator:wikidata": "Q37669450", "phone": "+33 8 26 30 55 55", "ref:FR:FINESS": "600100796", "type:FR:FINESS": "129", "website": "https://www.reeducation-bellan-chaumont-vexin.fr/"}}, {"name": "Maison Médicale du Vexin", "latitude": 48.98786, "longitude": 1.809976, "source": "osm", "_tags": {"addr:city": "Gargenville", "addr:country": "FR", "addr:housenumber": "59", "addr:postcode": "78440", "addr:street": "Avenue Lucie Desnos", "amenity": "hospital", "emergency": "no", "healthcare": "hospital", "name": "Maison Médicale du Vexin"}}, {"name": "", "latitude": 49.0227805, "longitude": 1.1266553, "source": "osm", "_tags": {"amenity": "hospital", "healthcare": "hospital", "ref:FR:FINESS": "270019888", "source": "Le ministère des solidarités et de la santé - 03/2019"}}, {"name": "Centre médico-psychologique Charles Perrault pour enfants et adolescents", "latitude": 49.3980549, "longitude": 1.0630315, "source": "osm", "_tags": {"amenity": "hospital", "name": "Centre médico-psychologique Charles Perrault pour enfants et adolescents", "opening_hours": "Mo-Fr 09:00-17:00", "ref:FR:FINESS": "760023846", "source": "Le ministère des solidarités et de la santé - 03/2019", "website": "https://www.ch-lerouvray.fr/centre-medico-psychologique-charles-perrault-pour-enfants-et-adolescents"}}, {"name": "Hôpital de jour Adosphère", "latitude": 49.3957094, "longitude": 1.1028647, "source": "osm", "_tags": {"amenity": "hospital", "healthcare": "hospital", "name": "Hôpital de jour Adosphère", "ref:FR:FINESS": "760023945", "source": "Le ministère des solidarités et de la santé - 03/2019"}}, {"name": "Centre médico-Psychologique pour enfants", "latitude": 49.3403341, "longitude": 1.0979852, "source": "osm", "_tags": {"amenity": "hospital", "name": "Centre médico-Psychologique pour enfants", "ref:FR:FINESS": "760806018", "source": "Le ministère des solidarités et de la santé - 03/2019"}}, {"name": "I.M.B.S (Imagerie Médicale des Boucles de la Seine)", "latitude": 49.3041408, "longitude": 1.0406291, "source": "osm", "_tags": {"addr:city": "Saint-Aubin-lès-Elbeuf", "addr:housenumber": "9", "addr:postcode": "76410", "addr:street": "Avenue de l'Europe", "amenity": "hospital", "healthcare": "hospital", "healthcare:speciality": "radiology", "name": "I.M.B.S (Imagerie Médicale des Boucles de la Seine)"}}, {"name": "Hôpital de jour pour adultes", "latitude": 49.2882117, "longitude": 1.0171699, "source": "osm", "_tags": {"amenity": "hospital", "fax": "+33235786292", "name": "Hôpital de jour pour adultes", "phone": "+33235774199", "ref:FR:FINESS": "760913558", "ref:FR:SIRET": "26760217500056", "source": "Le ministère des solidarités et de la santé - 2024-11", "type:FR:FINESS": "292"}}, {"name": "Hôpital de jour pour enfants", "latitude": 49.2875611, "longitude": 1.0171029, "source": "osm", "_tags": {"amenity": "hospital", "fax": "+33235819055", "name": "Hôpital de jour pour enfants", "phone": "+33235771741", "ref:FR:FINESS": "760807594", "ref:FR:SIRET": "26760217500254", "source": "Le ministère des solidarités et de la santé - 2024-11", "type:FR:FINESS": "292"}}, {"name": "Cabinet paramédical du Jardin des Plantes", "latitude": 49.420801, "longitude": 1.073205, "source": "osm", "_tags": {"addr:city": "Rouen", "addr:housenumber": "7", "addr:postcode": "76000", "addr:street": "Rue de Trianon", "amenity": "hospital", "check_date": "2025-08-02", "check_date:currency:XBT": "2025-08-02", "currency:EUR": "yes", "currency:XBT": "yes", "healthcare": "hospital", "healthcare:speciality": "kinesitherapy", "name": "Cabinet paramédical du Jardin des Plantes", "payment:app": "yes", "payment:apple_pay": "yes", "payment:cards": "yes", "payment:cash": "yes", "payment:contactless": "yes", "payment:credit_cards": "yes", "payment:debit_cards": "yes", "payment:google_pay": "yes", "payment:lightning": "yes", "payment:lightning_contactless": "yes", "payment:mastercard": "yes", "payment:onchain": "yes", "payment:visa": "yes", "phone": "+33 2 35 72 55 19", "website": "https://www.niromathe.com/", "wheelchair": "yes"}}, {"name": "Centre hospitalier de Meulan-en-Yvelines", "latitude": 49.0026873, "longitude": 1.9115473, "source": "osm", "_tags": {"amenity": "hospital", "emergency": "yes", "fax": "+33 1 30 22 16 41", "healthcare": "hospital", "healthcare:speciality": "intensive", "name": "Centre hospitalier de Meulan-en-Yvelines", "operator": "Centre hospitalier intercommunal de Meulan-Les Mureaux", "operator:type": "public", "phone": "+33 1 30 91 85 00", "ref:FR:FINESS": "780000295", "type:FR:FINESS": "355", "website": "https://www.chimm.fr/"}}, {"name": "Centre Cardiologique d'Évecquemont", "latitude": 49.0106, "longitude": 1.9372298, "source": "osm", "_tags": {"amenity": "hospital", "healthcare": "hospital", "healthcare:speciality": "cardiology", "name": "Centre Cardiologique d'Évecquemont", "ref:FR:FINESS": "780300075", "type:FR:FINESS": "129"}}, {"name": "Centre hospitalier Eure-Seine", "latitude": 49.0905765, "longitude": 1.4878544, "source": "osm", "_tags": {"addr:city": "Vernon", "addr:housenumber": "5", "addr:postcode": "27200", "addr:street": "Rue du Docteur Burnet", "alt_name": "Hôpital Saint-Louis", "amenity": "hospital", "contact:facebook": "Centre Hospitalier Eure-Seine", "emergency": "yes", "fax": "+33 2 32 71 66 65", "healthcare": "hospital", "name": "Centre hospitalier Eure-Seine", "operator:type": "public", "phone": "+33 2 32 71 66 00", "ref:FR:FINESS": "270000458", "short_name": "CH Eure-Seine", "source": "https://actu.fr/normandie/vernon_27681/urgences-maternite-pole-sante-lhopital-vernon-sactive_17588831.html", "type:FR:FINESS": "355", "website": "http://www.chi-eureseine.fr", "wikidata": "Q104875583"}}, {"name": "Centre hospitalier François Quesnay", "latitude": 48.9984026, "longitude": 1.6740774, "source": "osm", "_tags": {"amenity": "hospital", "emergency": "yes", "fax": "+33 1 34 97 40 15", "healthcare:speciality": "intensive", "name": "Centre hospitalier François Quesnay", "operator:type": "public", "phone": "+33 1 34 97 40 00", "ref:FR:FINESS": "780000287", "type:FR:FINESS": "365", "website": "http://www.ch-mantes.fr/"}}, {"name": "Clinique Pasteur", "latitude": 49.0285016, "longitude": 1.1607667, "source": "osm", "_tags": {"addr:full": "58 boulevard Pasteur 27000 Évreux", "amenity": "hospital", "building": "hospital", "email": "contact@clinique-pasteur.fr", "emergency": "yes", "fax": "+33 2 32 38 57 78", "name": "Clinique Pasteur", "operator:type": "private", "phone": "+33 2 32 38 95 00", "ref:FR:FINESS": "270000326", "type:FR:FINESS": "128", "website": "http://www.clinique-pasteur.fr/"}}, {"name": "Centre hospitalier de Plaisir-Site Mansart", "latitude": 48.8256323, "longitude": 1.9394725, "source": "osm", "_tags": {"amenity": "hospital", "fax": "+33 1 30 79 88 01", "healthcare": "hospital", "name": "Centre hospitalier de Plaisir-Site Mansart", "operator:type": "public", "phone": "+33 1 30 79 57 57", "ref:FR:FINESS": "780000303", "type:FR:FINESS": "355", "website": "https://hopital-plaisir-grignon.fr/"}}, {"name": "Clinique d'Yvelines", "latitude": 48.6640563, "longitude": 1.8680606, "source": "osm", "_tags": {"amenity": "hospital", "healthcare": "hospital", "name": "Clinique d'Yvelines", "ref:FR:FINESS": "780140042", "type:FR:FINESS": "161"}}, {"name": "Clinique La Mare", "latitude": 49.2977757, "longitude": 1.1734115, "source": "osm", "_tags": {"amenity": "hospital", "healthcare": "hospital", "healthcare:speciality": "psychiatry", "name": "Clinique La Mare", "opening_hours": "Mo-Fr 09:15-18:00", "ref:FR:FINESS": "270025984", "ref:FR:SIRET": "64050148200031", "type:FR:FINESS": "161"}}, {"name": "Hôpital de Houdan", "latitude": 48.7933989, "longitude": 1.5990954, "source": "osm", "_tags": {"amenity": "hospital", "fax": "+33 1 30 46 18 59", "healthcare": "hospital", "name": "Hôpital de Houdan", "operator:type": "public", "phone": "+33 1 30 46 18 00", "ref:FR:FINESS": "780000378", "type:FR:FINESS": "106", "website": "https://www.hopitalhoudan.fr/", "wikidata": "Q92063279"}}, {"name": "Hôpital de La Loupe", "latitude": 48.4670056, "longitude": 1.0106921, "source": "osm", "_tags": {"amenity": "hospital", "healthcare": "hospital", "name": "Hôpital de La Loupe", "ref:FR:FINESS": "280000100", "type:FR:FINESS": "106", "website": "https://www.hopital-laloupe.fr", "wikidata": "Q92062829"}}, {"name": "Centre hospitalier de Dreux", "latitude": 48.7268392, "longitude": 1.3852164, "source": "osm", "_tags": {"alt_name": "Centre hospitalier Victor Jousselin", "amenity": "hospital", "emergency": "yes", "fax": "+33 2 37 51 52 24", "healthcare": "hospital", "healthcare:speciality": "intensive", "name": "Centre hospitalier de Dreux", "operator:type": "public", "phone": "+33 2 37 51 52 53", "ref:FR:FINESS": "280000084", "source": "Bing", "type:FR:FINESS": "355", "website": "https://www.ch-dreux.fr/"}}, {"name": "Hôpital de Jouars-Pontchartrain", "latitude": 48.8056938, "longitude": 1.9036926, "source": "osm", "_tags": {"amenity": "hospital", "emergency": "no", "healthcare": "hospital", "name": "Hôpital de Jouars-Pontchartrain", "ref:FR:FINESS": "780000386", "source": "Le ministère des solidarités et de la santé - 03/2019", "wikidata": "Q92063251"}}, {"name": "Hôpital Saint-Julien", "latitude": 49.4197415, "longitude": 1.0566469, "source": "osm", "_tags": {"addr:city": "Le Petit-Quevilly", "addr:postcode": "76140", "addr:street": "Rue Guillaume Lecointe", "amenity": "hospital", "emergency": "yes", "healthcare": "hospital", "name": "Hôpital Saint-Julien", "operator": "Centre hospitalier universitaire de Rouen", "operator:type": "public", "phone": "+33 2 32 88 64 00", "ref:FR:FINESS": "760000141", "source": "cadastre-dgi-fr source : Direction Générale des Impôts - Cadastre;mise à jour : 2009", "type:FR:FINESS": "101", "website": "https://www.chu-rouen.fr/hopital-saint-julien/"}}, {"name": "Centre Hospitalier de Gisors - Pôle Sanitaire du Vexin", "latitude": 49.2812119, "longitude": 1.7585211, "source": "osm", "_tags": {"amenity": "hospital", "contact:facebook": "Centre Hospitalier de Gisors - Pôle Sanitaire du Vexin", "emergency": "yes", "fax": "+33 2 32 27 76 20", "name": "Centre Hospitalier de Gisors - Pôle Sanitaire du Vexin", "operator:type": "public", "phone": "+33 2 32 27 76 76", "ref:FR:FINESS": "270000367", "type:FR:FINESS": "355", "website": "https://www.ch-gisors.fr/"}}, {"name": "Centre Hospitalier Louis Pasteur", "latitude": 48.4206782, "longitude": 1.506739, "source": "osm", "_tags": {"amenity": "hospital", "emergency": "yes", "fax": "+33 2 37 30 31 22", "healthcare:speciality": "intensive", "name": "Centre Hospitalier Louis Pasteur", "operator:type": "public", "phone": "+33 2 37 30 30 30", "ref:FR:FINESS": "280504267", "type:FR:FINESS": "355", "website": "https://www.ch-chartres.fr/index.php"}}, {"name": "Centre Hospitalier de Rambouillet", "latitude": 48.6514303, "longitude": 1.8251817, "source": "osm", "_tags": {"amenity": "hospital", "email": "hopital@ch-rambouillet.fr", "emergency": "yes", "fax": "+33 1 34 83 76 65", "healthcare": "hospital", "healthcare:speciality": "intensive", "name": "Centre Hospitalier de Rambouillet", "operator:type": "public", "phone": "+33 1 34 83 78 78", "ref:FR:FINESS": "780000329", "type:FR:FINESS": "355", "website": "https://www.ch-rambouillet.fr/"}}, {"name": "Hôpital de la Musse", "latitude": 49.0018264, "longitude": 1.0793748, "source": "osm", "_tags": {"amenity": "hospital", "healthcare": "hospital", "name": "Hôpital de la Musse", "ref:FR:FINESS": "270000912", "website": "https://www.larenaissancesanitaire.fr/", "wikidata": "Q116008580"}}, {"name": "Centre de soins", "latitude": 49.255783, "longitude": 0.980688, "source": "osm", "_tags": {"amenity": "hospital", "healthcare": "hospital", "name": "Centre de soins", "source": "cadastre-dgi-fr source : Direction Générale des Finances Publiques - Cadastre. Mise à jour : 2015"}}, {"name": "", "latitude": 48.9886618, "longitude": 1.81283, "source": "osm", "_tags": {"addr:city": "Gargenville", "addr:postcode": "78440", "amenity": "hospital", "healthcare": "hospital", "source": "cadastre-dgi-fr source : Direction Générale des Finances Publiques - Cadastre. Mise à jour : 2015"}}, {"name": "", "latitude": 48.989091, "longitude": 1.8183168, "source": "osm", "_tags": {"addr:city": "gargenville", "addr:postcode": "78440", "amenity": "hospital", "healthcare": "hospital", "healthcare:speciality": "general", "source": "cadastre-dgi-fr source : Direction Générale des Finances Publiques - Cadastre. Mise à jour : 2015"}}, {"name": "Hôpital La Roche-Guyon", "latitude": 49.079554, "longitude": 1.6258893, "source": "osm", "_tags": {"amenity": "hospital", "branch": "Sorbonne Université", "healthcare": "hospital", "name": "Hôpital La Roche-Guyon", "operator": "Assistance publique - Hôpitaux de Paris", "operator:short": "APHP", "operator:type": "public", "operator:wikidata": "Q2867205", "phone": "+33130638330", "ref:FR:FINESS": "950100024", "ref:FR:SIRET": "26750045200649", "source": "Le ministère des solidarités et de la santé - 03/2019", "type:FR:FINESS": "101", "website": "https://larocheguyon.aphp.fr/", "wikidata": "Q3145278"}}, {"name": "Centre de Convalescence l'Hostrea", "latitude": 49.241, "longitude": 1.6809861, "source": "osm", "_tags": {"amenity": "hospital", "building": "yes", "healthcare": "hospital", "healthcare:speciality": "physiatry", "name": "Centre de Convalescence l'Hostrea", "phone": "+33 2 32 27 75 75", "ref:FR:FINESS": "270000417", "type:FR:FINESS": "109"}}, {"name": "Hôpital privé d'Eure-et-Loir", "latitude": 48.4555596, "longitude": 1.4510175, "source": "osm", "_tags": {"addr:city": "Mainvilliers", "addr:housenumber": "2", "addr:postcode": "28300", "addr:street": "Rue Roland Buthier", "amenity": "hospital", "emergency": "yes", "fax": "+33 2 37 18 41 05", "name": "Hôpital privé d'Eure-et-Loir", "old_name": "Clinique Saint-François", "operator": "Groupe Elsan", "operator:type": "private", "phone": "+33 2 37 18 41 00", "ref:FR:FINESS": "280505777", "type:FR:FINESS": "365", "website": "https://www.hpel.care/"}}, {"name": "Centre hospitalier intercommunal Elbeuf Louviers Val-de-Reuil", "latitude": 49.2114964, "longitude": 1.1756825, "source": "osm", "_tags": {"addr:city": "Louviers", "addr:postcode": "27400", "alt_name": "Centre hospitalier de Louviers", "amenity": "hospital", "emergency": "yes", "fax": "+33 2 32 25 75 32", "healthcare": "hospital", "name": "Centre hospitalier intercommunal Elbeuf Louviers Val-de-Reuil", "old_name": "Hôpital Saint-Jean de Louviers", "operator:type": "public", "phone": "+33 2 32 25 75 00", "ref:FR:FINESS": "270000391", "short_name": "CHIELVR - Site de Louviers", "type:FR:FINESS": "355", "website": "https://chi-elbeuf-louviers.fr/", "wikidata": "Q2945715"}}, {"name": "Centre hospitalier Eure-Seine", "latitude": 49.0319928, "longitude": 1.1147324, "source": "osm", "_tags": {"addr:city": "Évreux", "addr:place": "ZAC de Cambolle", "addr:postcode": "27000", "addr:street": "Rue Louis Gillain", "alt_name": "Hôpital de Cambolle", "amenity": "hospital", "emergency": "yes", "fax": "+33 2 32 33 81 99", "healthcare": "hospital", "healthcare:speciality": "general;intensive", "name": "Centre hospitalier Eure-Seine", "operator": "Centre hospitalier Eure-Seine", "phone": "+33 2 32 33 80 00", "ref:FR:FINESS": "270000359", "type:FR:FINESS": "355", "website": "http://www.chi-eureseine.fr", "wikidata": "Q2945717"}}, {"name": "Groupement Hospitalier Intercommunal du Vexin - Site de Magny", "latitude": 49.1551082, "longitude": 1.7844665, "source": "osm", "_tags": {"amenity": "hospital", "emergency": "yes", "fax": "+33 1 34 79 44 79", "healthcare": "hospital", "name": "Groupement Hospitalier Intercommunal du Vexin - Site de Magny", "operator:type": "public", "phone": "+33 1 34 79 44 44", "ref:FR:FINESS": "950000349", "source": "cadastre-dgi-fr source : Direction Générale des Impôts - Cadastre;mise à jour : 2009", "type:FR:FINESS": "355", "website": "http://www.ghi-vexin.fr/index.html"}}, {"name": "Centre hospitalier intercommunal Meulan-Les Mureaux", "latitude": 48.9860132, "longitude": 1.9359423, "source": "osm", "_tags": {"amenity": "hospital", "fax": "+33 1 30 22 16 41", "healthcare": "hospital", "name": "Centre hospitalier intercommunal Meulan-Les Mureaux", "operator": "Centre hospitalier intercommunal de Meulan-Les Mureaux", "operator:type": "public", "phone": "+33 1 30 91 85 00", "ref:FR:FINESS": "780000428", "short_name": "CHI Meulan-Les Mureaux", "type:FR:FINESS": "355", "website": "https://www.chimm.fr/"}}, {"name": "Centre hospitalier privé du Montgardé", "latitude": 48.9560252, "longitude": 1.8467663, "source": "osm", "_tags": {"amenity": "hospital", "building": "hospital", "check_date": "2025-05-26", "email": "contact@ch-montgarde.fr", "emergency": "yes", "fax": "+33 1 30 90 01 67", "healthcare": "hospital", "name": "Centre hospitalier privé du Montgardé", "operator:type": "private", "phone": "+33 1 30 95 52 00", "ref:FR:FINESS": "780300455", "source": "cadastre-dgi-fr source : Direction Générale des Finances Publiques - Cadastre. Mise à jour : 2018", "type:FR:FINESS": "365", "website": "https://chp-montgarde.fr/"}}, {"name": "Hôtel Dieu", "latitude": 48.4409568, "longitude": 1.4806824, "source": "osm", "_tags": {"addr:housenumber": "34", "addr:street": "Rue du Docteur Maunoury", "amenity": "hospital", "emergency": "no", "healthcare": "hospital", "name": "Hôtel Dieu", "note": "présence au rdc de l'UGOS, au 1er du SSR, ainsi que d'une maison de retraite", "phone": "+33237303030", "ref:FR:FINESS": "280000043", "website": "https://www.ch-chartres.fr/index.php/etablissement"}}, {"name": "Polyclinique mantaise", "latitude": 48.9837974, "longitude": 1.7170919, "source": "osm", "_tags": {"amenity": "hospital", "healthcare": "hospital", "name": "Polyclinique mantaise", "ref:FR:FINESS": "780300125", "type:FR:FINESS": "128"}}, {"name": "Maison de santé de l'Epte", "latitude": 49.208816, "longitude": 1.6689863, "source": "osm", "_tags": {"addr:city": "Château-sur-Epte", "addr:housenumber": "2", "addr:postcode": "27420", "addr:street": "Rue de Gisors", "amenity": "hospital", "building": "yes", "emergency": "no", "healthcare": "hospital", "healthcare:speciality": "general", "name": "Maison de santé de l'Epte", "ref:FR:FINESS": "270027774", "type:FR:FINESS": "603"}}, {"name": "Nouvel Hôpital de Navarre", "latitude": 49.0195346, "longitude": 1.1139402, "source": "osm", "_tags": {"addr:city": "Évreux", "addr:postcode": "27000", "addr:street": "Rue de Conches", "amenity": "hospital", "healthcare": "hospital", "name": "Nouvel Hôpital de Navarre", "ref:FR:FINESS": "270000573", "source": "cadastre-dgi-fr source : Direction Générale des Impôts - Cadastre. Mise à jour : 2020 + Bing", "source:name": "User: \"zorglubu\" Changeset: \"958669251\"", "website": "https://www.chs-navarre.fr"}}, {"name": "Hôpital de jour pour enfants Bleu soleil", "latitude": 49.3790229, "longitude": 1.1038042, "source": "osm", "_tags": {"amenity": "hospital", "name": "Hôpital de jour pour enfants Bleu soleil", "ref:FR:FINESS": "760922047", "source": "Le ministère des solidarités et de la santé - 03/2019"}}, {"name": "Hôpital Saint-Jacques", "latitude": 49.2462166, "longitude": 1.3954842, "source": "osm", "_tags": {"amenity": "hospital", "building": "hospital", "healthcare": "hospital", "heritage": "2", "heritage:operator": "mhs", "mhs:inscription_date": "1964-09-17", "name": "Hôpital Saint-Jacques", "ref:FR:FINESS": "270000474", "ref:mhs": "PA00099308", "source": "Le ministère des solidarités et de la santé - 03/2019", "source:heritage": "data.gouv.fr:Ministère de la Culture - 04/2015", "type:FR:FINESS": "106", "wikidata": "Q22950217"}}, {"name": "SSR d'Aincourt", "latitude": 49.0821421, "longitude": 1.7586832, "source": "osm", "_tags": {"amenity": "hospital", "healthcare": "hospital", "name": "SSR d'Aincourt", "operator": "Groupement Hospitalier Intercommunal du Vexin", "ref:FR:FINESS": "950500017", "source": "BDOrtho IGN - available 2023 at the latest", "type:FR:FINESS": "355"}}, {"name": "Nouvel Hôpital Saint-Jacques des Andelys", "latitude": 49.253366, "longitude": 1.4141759, "source": "osm", "_tags": {"amenity": "hospital", "name": "Nouvel Hôpital Saint-Jacques des Andelys", "source": "https://actu.fr/normandie/les-andelys_27016/video-eure-le-nouvel-hopital-des-andelys-doit-etre-livre-en-octobre-2022_42048661.html", "start_date": "2022", "website": "https://www.hopital-lesandelys.fr/"}}, {"name": "Centre hospitalier Bertinot Juel", "latitude": 49.2692346, "longitude": 1.8895021, "source": "osm", "_tags": {"addr:city": "Chaumont-en-Vexin", "addr:housenumber": "34", "addr:postcode": "60240", "addr:street": "Rue Pierre Budin", "amenity": "hospital", "fax": "+33344495455", "healthcare": "hospital", "name": "Centre hospitalier Bertinot Juel", "phone": "+33344495454", "ref:FR:FINESS": "600000152", "ref:FR:SIRET": "26600026400017", "source": "Le ministère des solidarités et de la santé - 2024-01", "type:FR:FINESS": "355"}}, {"name": "Hôpital de Oissel", "latitude": 49.350936, "longitude": 1.085029, "source": "osm", "_tags": {"addr:city": "Oissel", "addr:postcode": "76350", "addr:street": "Rue Pierre Curie", "amenity": "hospital", "building": "yes", "healthcare": "hospital", "healthcare:speciality": "geriatrics", "name": "Hôpital de Oissel", "operator": "CHU Rouen Normandie", "phone": "+332 32 88 65 19", "ref:FR:FINESS": "760783530", "source": "Le ministère des solidarités et de la santé - 03/2019", "type": "multipolygon"}}, {"name": "Centre hospitalier du Rouvray", "latitude": 49.3987414, "longitude": 1.0937865, "source": "osm", "_tags": {"addr:city": "Sotteville-lès-Rouen", "addr:housenumber": "4", "addr:postcode": "76300", "addr:street": "Rue Paul Éluard", "amenity": "hospital", "dog": "leashed", "fax": "+33 2 32 95 11 50", "healthcare": "hospital", "healthcare:speciality": "physiatry", "name": "Centre hospitalier du Rouvray", "operator": "Centre hospitalier universitaire de Rouen", "operator:type": "public", "phone": "+33 2 32 95 12 34", "ref:FR:FINESS": "760000190", "short_name": "CH du Rouvray", "source": "cadastre-dgi-fr source : Direction Générale des Impôts - Cadastre;mise à jour : 2008", "type": "multipolygon", "type:FR:FINESS": "292", "website": "https://www.ch-lerouvray.fr"}}, {"name": "Centre hospitalier du Bois-Petit", "latitude": 49.4123314, "longitude": 1.0842387, "source": "osm", "_tags": {"amenity": "hospital", "healthcare": "hospital", "name": "Centre hospitalier du Bois-Petit", "ref:FR:FINESS": "760000802", "source": "cadastre-dgi-fr source : Direction Générale des Impôts - Cadastre. Mise à jour : 2013", "type": "multipolygon"}}, {"name": "Centre hospitalier d'Elbeuf", "latitude": 49.3055824, "longitude": 1.0424537, "source": "osm", "_tags": {"addr:city": "Saint-Aubin-lès-Elbeuf", "addr:postcode": "76410", "addr:street": "Rue du Docteur Villiers", "alt_name": "Centre hospitalier Les Feugrais", "amenity": "hospital", "emergency": "yes", "fax": "+33 2 32 96 36 27", "healthcare": "hospital", "healthcare:speciality": "intensive", "name": "Centre hospitalier d'Elbeuf", "operator": "Centre hospitalier intercommunal Elbeuf-Louviers-Val de Reuil", "operator:type": "public", "phone": "+33 2 32 96 35 35", "ref:FR:FINESS": "760000463", "type": "multipolygon", "type:FR:FINESS": "355", "website": "https://www.chi-elbeuf-louviers.fr/"}}]