[{"name": "Східницьке відділення Львівської обласної лікарні відновного лікування", "latitude": 49.2264208, "longitude": 23.3470785, "source": "osm", "_tags": {"amenity": "hospital", "healthcare": "hospital", "name": "Східницьке відділення Львівської обласної лікарні відновного лікування", "name:uk": "Східницьке відділення Львівської обласної лікарні відновного лікування"}}, {"name": "Філія дитячої поліклініки", "latitude": 49.2711471, "longitude": 23.8661066, "source": "osm", "_tags": {"amenity": "hospital", "emergency": "no", "healthcare": "hospital", "name": "Філія дитячої поліклініки", "name:uk": "Філія дитячої поліклініки"}}, {"name": "Бальнеоозокеритна лікарня №1", "latitude": 49.2793631, "longitude": 23.5080808, "source": "osm", "_tags": {"amenity": "hospital", "healthcare": "hospital", "name": "Бальнеоозокеритна лікарня №1", "name:en": "Balneological Ozocerite Clinic", "name:ru": "Бальнеоозокеритная больница №1", "name:uk": "Бальнеоозокеритна лікарня №1", "phone": "+380 3247 51 311;+380 3247 54 730"}}, {"name": "Ясеницька дільнична лікарня", "latitude": 49.1764333, "longitude": 23.1841213, "source": "osm", "_tags": {"amenity": "hospital", "name": "Ясеницька дільнична лікарня", "name:uk": "Ясеницька дільнична лікарня", "phone": "+380 3269 32 656"}}, {"name": "Турківська комунальна центральна міська лікарня", "latitude": 49.1631487, "longitude": 23.0197298, "source": "osm", "_tags": {"amenity": "hospital", "name": "Турківська комунальна центральна міська лікарня", "name:uk": "Турківська комунальна центральна міська лікарня"}}, {"name": "Боринська міська комунальна лікарня", "latitude": 49.0579067, "longitude": 23.0322441, "source": "osm", "_tags": {"addr:housenumber": "90", "addr:postcode": "82547", "addr:street": "вулиця Миколайчука", "amenity": "hospital", "emergency": "yes", "healthcare": "hospital", "name": "Боринська міська комунальна лікарня", "name:uk": "Боринська міська комунальна лікарня"}}, {"name": "Ільницька лікарня (недіюча)", "latitude": 49.0824507, "longitude": 23.1039796, "source": "osm", "_tags": {"amenity": "hospital", "name": "Ільницька лікарня (недіюча)", "name:uk": "Ільницька лікарня (недіюча)"}}, {"name": "Турківська комунальна центральна районна лікарня", "latitude": 49.1559409, "longitude": 23.0547481, "source": "osm", "_tags": {"amenity": "hospital", "name": "Турківська комунальна центральна районна лікарня", "name:uk": "Турківська комунальна центральна районна лікарня"}}, {"name": "Верхньовисоцька дільнична лікарня", "latitude": 48.943637, "longitude": 23.0441677, "source": "osm", "_tags": {"amenity": "hospital", "name": "Верхньовисоцька дільнична лікарня", "name:uk": "Верхньовисоцька дільнична лікарня"}}, {"name": "Медичний кабінет", "latitude": 49.3539049, "longitude": 23.5066283, "source": "osm", "_tags": {"addr:postcode": "82100", "amenity": "hospital", "healthcare": "hospital", "name": "Медичний кабінет", "name:uk": "Медичний кабінет"}}, {"name": "Стрийська міська дитяча лікарня", "latitude": 49.2565307, "longitude": 23.8448026, "source": "osm", "_tags": {"addr:street": "вулиця Івана Франка", "amenity": "hospital", "healthcare": "hospital", "name": "Стрийська міська дитяча лікарня", "name:en": "Town hospital for children", "name:uk": "Стрийська міська дитяча лікарня", "opening_hours": "24/7"}}, {"name": "Пункт екстреної медицини катастроф смт. Східниця", "latitude": 49.2263716, "longitude": 23.3474426, "source": "osm", "_tags": {"addr:street": "Промислова вулиця", "amenity": "hospital", "healthcare": "hospital", "name": "Пункт екстреної медицини катастроф смт. Східниця", "name:ru": "Пункт экстренной медицины катастроф пгт. Сходница", "name:uk": "Пункт екстреної медицини катастроф смт. Східниця"}}, {"name": "Центр реабілітації наркозалежних хворих", "latitude": 49.2910595, "longitude": 23.4267035, "source": "osm", "_tags": {"amenity": "hospital", "healthcare": "hospital", "name": "Центр реабілітації наркозалежних хворих", "name:uk": "Центр реабілітації наркозалежних хворих"}}, {"name": "Центр реабілітації", "latitude": 49.302043, "longitude": 23.4233386, "source": "osm", "_tags": {"amenity": "hospital", "name": "Центр реабілітації", "name:uk": "Центр реабілітації"}}, {"name": "Інфекційне відділення Бориславської міської лікарні корпус 1", "latitude": 49.2917824, "longitude": 23.4286757, "source": "osm", "_tags": {"amenity": "hospital", "healthcare": "hospital", "name": "Інфекційне відділення Бориславської міської лікарні корпус 1", "name:uk": "Інфекційне відділення Бориславської міської лікарні корпус 1"}}, {"name": "Терапевтичне відділення Бориславської міської лікарні", "latitude": 49.2996217, "longitude": 23.4061117, "source": "osm", "_tags": {"amenity": "hospital", "name": "Терапевтичне відділення Бориславської міської лікарні", "name:uk": "Терапевтичне відділення Бориславської міської лікарні"}}, {"name": "Відділення неврології Бориславської міської лікарні", "latitude": 49.2992594, "longitude": 23.4057341, "source": "osm", "_tags": {"amenity": "hospital", "name": "Відділення неврології Бориславської міської лікарні", "name:uk": "Відділення неврології Бориславської міської лікарні"}}, {"name": "Відділення хірургії, травматології, анестезигіологічне та інтенсивної терапії", "latitude": 49.2848553, "longitude": 23.404875, "source": "osm", "_tags": {"amenity": "hospital", "name": "Відділення хірургії, травматології, анестезигіологічне та інтенсивної терапії", "name:uk": "Відділення хірургії, травматології, анестезигіологічне та інтенсивної терапії"}}, {"name": "Відділення стоматології та гінекології", "latitude": 49.2894911, "longitude": 23.4427605, "source": "osm", "_tags": {"amenity": "hospital", "name": "Відділення стоматології та гінекології", "name:uk": "Відділення стоматології та гінекології"}}, {"name": "Пункт здоров'я", "latitude": 48.5659722, "longitude": 23.5766168, "source": "osm", "_tags": {"amenity": "hospital", "healthcare": "hospital", "name": "Пункт здоров'я", "name:uk": "Пункт здоров'я"}}, {"name": "Бориславська центральна міська лікарня", "latitude": 49.2901593, "longitude": 23.4221199, "source": "osm", "_tags": {"addr:housenumber": "28", "addr:street": "Весняна вулиця", "amenity": "hospital", "building": "hospital", "building:levels": "2", "healthcare": "hospital", "name": "Бориславська центральна міська лікарня", "name:uk": "Бориславський міський територіальний центр соціального обслуговування", "opening_hours": "Mo-Fr 08:00-12:00, 12:30-17:00", "phone": "+380 3248 50 969"}}, {"name": "Міська поліклініка", "latitude": 49.2994967, "longitude": 23.4061645, "source": "osm", "_tags": {"addr:housenumber": "41А", "amenity": "hospital", "building": "yes", "healthcare": "hospital", "name": "Міська поліклініка", "name:uk": "Міська поліклініка", "phone": "+380 3248 54 047"}}, {"name": "Бориславська міська дитяча лікарня", "latitude": 49.2899908, "longitude": 23.4234607, "source": "osm", "_tags": {"amenity": "hospital", "building": "hospital", "building:levels": "2", "healthcare": "hospital", "name": "Бориславська міська дитяча лікарня", "name:uk": "Бориславська міська дитяча лікарня"}}, {"name": "", "latitude": 48.5472902, "longitude": 22.9949234, "source": "osm", "_tags": {"amenity": "hospital", "healthcare": "hospital"}}, {"name": "Дорожна клінічна лікарня №2", "latitude": 49.2645708, "longitude": 23.8426507, "source": "osm", "_tags": {"amenity": "hospital", "healthcare": "hospital", "name": "Дорожна клінічна лікарня №2", "name:uk": "Дорожна клінічна лікарня №2"}}, {"name": "Дрогобицька міська дитяча лікарня", "latitude": 49.363569, "longitude": 23.4985816, "source": "osm", "_tags": {"amenity": "hospital", "healthcare": "hospital", "name": "Дрогобицька міська дитяча лікарня", "name:en": "Drohobych Children`s Hospital", "name:uk": "Дрогобицька міська дитяча лікарня"}}, {"name": "Дрогобицький міський пологовий будинок", "latitude": 49.3633376, "longitude": 23.5021616, "source": "osm", "_tags": {"amenity": "hospital", "healthcare": "hospital", "name": "Дрогобицький міський пологовий будинок", "name:en": "Drohobych Maternity", "name:uk": "Дрогобицький міський пологовий будинок"}}, {"name": "Підбузька районна лікарня", "latitude": 49.330081, "longitude": 23.2517435, "source": "osm", "_tags": {"amenity": "hospital", "name": "Підбузька районна лікарня", "name:uk": "Підбузька районна лікарня"}}, {"name": "Дрогобицька районна лікарня №4", "latitude": 49.2279456, "longitude": 23.322948, "source": "osm", "_tags": {"addr:housenumber": "4", "amenity": "hospital", "building": "yes", "name": "Дрогобицька районна лікарня №4", "name:uk": "Дрогобицька районна лікарня №4"}}, {"name": "Стрийська центральна міська лікарня", "latitude": 49.2520244, "longitude": 23.835889, "source": "osm", "_tags": {"amenity": "hospital", "healthcare": "hospital", "name": "Стрийська центральна міська лікарня", "name:uk": "Стрийська центральна міська лікарня"}}, {"name": "Стрийська центральна районна лікарня", "latitude": 49.2670203, "longitude": 23.8734452, "source": "osm", "_tags": {"amenity": "hospital", "barrier": "fence", "emergency": "yes", "healthcare": "hospital", "name": "Стрийська центральна районна лікарня", "name:uk": "Стрийська центральна районна лікарня", "phone": "+380 3245 53 401;+380 3245 52 279"}}, {"name": "Колишня психоневрологічна лікарня", "latitude": 49.2147946, "longitude": 23.9057972, "source": "osm", "_tags": {"amenity": "hospital", "name": "Колишня психоневрологічна лікарня", "name:uk": "Колишня психоневрологічна лікарня"}}, {"name": "Болехівська центральна міська лікарня", "latitude": 49.0680328, "longitude": 23.8552877, "source": "osm", "_tags": {"amenity": "hospital", "healthcare": "hospital", "name": "Болехівська центральна міська лікарня", "name:uk": "Болехівська центральна міська лікарня"}}, {"name": "Дрогобицька районна лікарня №2", "latitude": 49.3858844, "longitude": 23.5539431, "source": "osm", "_tags": {"amenity": "hospital", "healthcare": "hospital", "name": "Дрогобицька районна лікарня №2", "name:uk": "Дрогобицька районна лікарня №2"}}, {"name": "Стебницька міська лікарня", "latitude": 49.302933, "longitude": 23.5631297, "source": "osm", "_tags": {"amenity": "hospital", "healthcare": "hospital", "name": "Стебницька міська лікарня", "name:en": "Stebnyk City Hospital", "name:uk": "Стебницька міська лікарня"}}, {"name": "", "latitude": 48.8944293, "longitude": 23.8342393, "source": "osm", "_tags": {"amenity": "hospital", "healthcare": "hospital"}}, {"name": "Міжгірська районна лікарня", "latitude": 48.5215811, "longitude": 23.5047206, "source": "osm", "_tags": {"amenity": "hospital", "healthcare": "hospital", "name": "Міжгірська районна лікарня", "name:uk": "Міжгірська районна лікарня"}}, {"name": "Трускавецька міська лікарня", "latitude": 49.277141, "longitude": 23.5280383, "source": "osm", "_tags": {"amenity": "hospital", "healthcare": "hospital", "name": "Трускавецька міська лікарня", "name:en": "Truskavets hospital", "name:pl": "Szpital Miejski w Truskawcu", "name:uk": "Трускавецька міська лікарня"}}, {"name": "", "latitude": 49.290014, "longitude": 23.4225464, "source": "osm", "_tags": {"amenity": "hospital", "healthcare": "hospital"}}, {"name": "", "latitude": 49.2914177, "longitude": 23.4286877, "source": "osm", "_tags": {"amenity": "hospital", "healthcare": "hospital"}}, {"name": "Бальнеологічна лікарня", "latitude": 49.1487183, "longitude": 23.8695888, "source": "osm", "_tags": {"amenity": "hospital", "healthcare": "hospital", "name": "Бальнеологічна лікарня", "name:en": "Balneological Hospital", "name:ru": "Бальнеологическая больница", "name:uk": "Бальнеологічна лікарня"}}, {"name": "Міська лікарня і поліклініка", "latitude": 49.1538884, "longitude": 23.8646289, "source": "osm", "_tags": {"amenity": "hospital", "healthcare": "hospital", "name": "Міська лікарня і поліклініка", "name:uk": "Міська лікарня і поліклініка"}}, {"name": "", "latitude": 48.4292125, "longitude": 23.2573957, "source": "osm", "_tags": {"amenity": "hospital", "healthcare": "hospital"}}, {"name": "Бальнеоозокеритна лікарня №2", "latitude": 49.2765815, "longitude": 23.4909071, "source": "osm", "_tags": {"addr:housenumber": "64", "amenity": "hospital", "building": "hospital", "building:levels": "3", "healthcare": "hospital", "name": "Бальнеоозокеритна лікарня №2", "name:en": "Balneological Ozocerite Clinic", "name:ru": "Бальнеоозокеритная больница №2", "name:uk": "Бальнеоозокеритна лікарня №2", "phone": "+380 3247 51 241;+380 3247 50 130", "type": "multipolygon"}}, {"name": "Дрогобицька міська лікарня №3", "latitude": 49.3425012, "longitude": 23.5095137, "source": "osm", "_tags": {"amenity": "hospital", "description": "Онкодиспансер (стаціонарне відділення)", "healthcare": "hospital", "name": "Дрогобицька міська лікарня №3", "name:en": "Drohobych Hospital №3", "name:ru": "Дрогобычская городская больница №3", "name:uk": "Дрогобицька міська лікарня №3", "phone": "+380 3244 37 105", "type": "multipolygon"}}, {"name": "Інфекційна лікарня", "latitude": 49.2507039, "longitude": 23.8378539, "source": "osm", "_tags": {"amenity": "hospital", "healthcare": "hospital", "healthcare:speciality": "infectious_diseases", "name": "Інфекційна лікарня", "name:uk": "Інфекційна лікарня", "type": "multipolygon"}}, {"name": "Пологовий будинок", "latitude": 49.2525724, "longitude": 23.8572443, "source": "osm", "_tags": {"amenity": "hospital", "healthcare": "hospital", "name": "Пологовий будинок", "name:uk": "Пологовий будинок", "type": "multipolygon"}}, {"name": "Дрогобицька бальнеологічна лікарня", "latitude": 49.3544829, "longitude": 23.5039824, "source": "osm", "_tags": {"addr:postcode": "82100", "amenity": "hospital", "healthcare": "hospital", "name": "Дрогобицька бальнеологічна лікарня", "name:uk": "Дрогобицька бальнеологічна лікарня", "type": "multipolygon"}}, {"name": "Дрогобицька міська лікарня №4 (Протитуберкульозний диспансер). Корпус №2", "latitude": 49.355238, "longitude": 23.4928472, "source": "osm", "_tags": {"amenity": "hospital", "healthcare": "hospital", "name": "Дрогобицька міська лікарня №4 (Протитуберкульозний диспансер). Корпус №2", "name:uk": "Дрогобицька міська лікарня №4 (Протитуберкульозний диспансер). Корпус №2", "type": "multipolygon"}}, {"name": "Відділення комплексної реабілітації \"Січ\" Центру психічного здоров’я «Кульпарків»", "latitude": 49.3548648, "longitude": 23.494592, "source": "osm", "_tags": {"amenity": "hospital", "healthcare": "hospital", "name": "Відділення комплексної реабілітації \"Січ\" Центру психічного здоров’я «Кульпарків»", "name:uk": "Відділення комплексної реабілітації \"Січ\" Центру психічного здоров’я «Кульпарків»", "type": "multipolygon"}}, {"name": "Колишня Дрогобицька міська лікарня №5", "latitude": 49.3473032, "longitude": 23.5138855, "source": "osm", "_tags": {"amenity": "hospital", "description": "Колись тут був шкірно-венерологічний диспансер (стаціонарне та поліклінічне відділення)", "healthcare": "hospital", "name": "Колишня Дрогобицька міська лікарня №5", "name:en": "Drohobych Hospital №5", "name:ru": "Бывшая Дрогобычская городская больница №5", "name:uk": "Колишня Дрогобицька міська лікарня №5", "type": "multipolygon"}}, {"name": "Дрогобицька міська лікарня №4 (Протитуберкульозний диспансер). Корпус №3 дитячий кабінет", "latitude": 49.353507, "longitude": 23.495952, "source": "osm", "_tags": {"amenity": "hospital", "healthcare": "hospital", "name": "Дрогобицька міська лікарня №4 (Протитуберкульозний диспансер). Корпус №3 дитячий кабінет", "name:uk": "Дрогобицька міська лікарня №4 (Протитуберкульозний диспансер). Корпус №3 дитячий кабінет", "type": "multipolygon"}}, {"name": "Районна лікарня та поліклініка", "latitude": 49.0429951, "longitude": 23.5166403, "source": "osm", "_tags": {"amenity": "hospital", "emergency": "yes", "healthcare": "hospital", "name": "Районна лікарня та поліклініка", "name:uk": "Районна лікарня та поліклініка", "operator": "МОЗ", "type": "multipolygon"}}, {"name": "", "latitude": 49.284859, "longitude": 23.404877, "source": "osm", "_tags": {"amenity": "hospital", "type": "multipolygon"}}, {"name": "Дрогобицька районна лікарня №5", "latitude": 49.3536437, "longitude": 23.5460093, "source": "osm", "_tags": {"amenity": "hospital", "healthcare": "hospital", "name": "Дрогобицька районна лікарня №5", "name:en": "Drohobych District Hospital №5", "name:ru": "Дрогобычская районная больница №5", "name:uk": "Дрогобицька районна лікарня №5", "phone": "+380 3244 22 511;+380 3244 33 467", "type": "multipolygon"}}, {"name": "", "latitude": 49.0866707, "longitude": 23.5805225, "source": "osm", "_tags": {"amenity": "hospital", "healthcare": "hospital", "type": "multipolygon"}}, {"name": "Воловецька центральна районна лікарня", "latitude": 48.7155061, "longitude": 23.1789073, "source": "osm", "_tags": {"amenity": "hospital", "healthcare": "hospital", "healthcare:speciality": "general;paediatrics", "name": "Воловецька центральна районна лікарня", "name:en": "Volovets Central District Hospital", "name:uk": "Воловецька центральна районна лікарня", "type": "multipolygon"}}, {"name": "Дрогобицька міська лікарня №1 (Центральна)", "latitude": 49.3645752, "longitude": 23.5008353, "source": "osm", "_tags": {"amenity": "hospital", "healthcare": "hospital", "name": "Дрогобицька міська лікарня №1 (Центральна)", "name:en": "Drohobych Hospital №1", "name:uk": "Дрогобицька міська лікарня №1 (Центральна)", "type": "multipolygon"}}, {"name": "Міжнародна клініка відновного лікування", "latitude": 49.2736806, "longitude": 23.5197266, "source": "osm", "_tags": {"addr:housenumber": "37", "addr:street": "Помірецька вулиця", "amenity": "hospital", "email": "clinic@kozyavkin.com", "healthcare": "hospital", "name": "Міжнародна клініка відновного лікування", "name:en": "International Clinic of Rehabilitation", "name:uk": "Міжнародна клініка відновного лікування", "phone": "+38 068 22 44 000", "type": "multipolygon", "wikidata": "Q30972764", "wikipedia": "uk:Міжнародна клініка відновного лікування"}}]