[{"name": "Hôpital de jour pour adolescents L'Olivier", "latitude": 48.5006474, "longitude": -2.7537467, "source": "osm", "_tags": {"amenity": "hospital", "contact:city": "Saint-Brieuc", "contact:housenumber": "23", "contact:postcode": "22000", "contact:street": "Rue Georges Palante", "healthcare": "hospital", "healthcare:for": "teen", "name": "Hôpital de jour pour adolescents L'Olivier", "ref:FR:FINESS": "220019574", "ref:FR:NAF": "8610Z", "ref:FR:SIRET": "75331332900132", "type:FR:FINESS": "292"}}, {"name": "Centre Benoit Menni - Fondation St Jean de Dieu", "latitude": 48.4999359, "longitude": -2.7520586, "source": "osm", "_tags": {"addr:city": "Saint-Brieuc", "addr:housenumber": "8", "addr:postcode": "22000", "addr:street": "Rue Charles Pradal", "amenity": "hospital", "check_date": "2025-04-27", "contact:city": "Saint-Brieuc", "contact:housenumber": "8", "contact:phone": "+33 2 96 77 27 17", "contact:postcode": "22000", "contact:street": "Rue Charles Pradal", "healthcare": "hospital", "healthcare:speciality": "psychiatry", "name": "Centre Benoit Menni - Fondation St Jean de Dieu", "operator": "Fondation Saint Jean de Dieu", "operator:type": "private", "ref:FR:FINESS": "220018402", "ref:FR:NAF": "8610Z", "ref:FR:SIRET": "75331332900165", "type:FR:FINESS": "292"}}, {"name": "CMPEA Plancoët", "latitude": 48.5234013, "longitude": -2.2289535, "source": "osm", "_tags": {"addr:city": "Plancoët", "addr:postcode": "22130", "addr:street": "Place du Tramway", "amenity": "hospital", "contact:phone": "+33 2 96841979", "healthcare": "hospital", "healthcare:speciality": "psychiatry", "name": "CMPEA Plancoët", "name:br": "Kreizenn vezegel-ha-psikologel ha Kreizenn degemer yac'hadel darnamzer", "operator": "Fondation Saint-Jean-de-Dieu", "ref:FR:FINESS": "220018584", "ref:FR:SIRET": "33843952400053", "short_name": "CMP/CATTP", "social_facility:for": "mental_health", "source": "survey", "type:FR:FINESS": "292"}}, {"name": "CMP Saint-Brieuc Maria Estrella", "latitude": 48.4957811, "longitude": -2.7450507, "source": "osm", "_tags": {"addr:city": "Saint-Brieuc", "addr:housenumber": "19", "addr:postcode": "22000", "addr:street": "Rue des Gallois", "amenity": "hospital", "healthcare": "hospital", "healthcare:speciality": "psychiatry", "name": "CMP Saint-Brieuc Maria Estrella", "operator": "Fondation Saint Jean de Dieu"}}, {"name": "CMPEA Saint-Brieuc Maria Estrella", "latitude": 48.4959853, "longitude": -2.7447549, "source": "osm", "_tags": {"addr:city": "Saint-Brieuc", "addr:housenumber": "19", "addr:postcode": "22000", "addr:street": "Rue des Gallois", "amenity": "hospital", "healthcare": "hospital", "healthcare:speciality": "psychiatry", "name": "CMPEA Saint-Brieuc Maria Estrella", "operator": "Fondation Saint Jean de Dieu"}}, {"name": "CRP Saint-Brieuc - Fondation St Jean de Dieu", "latitude": 48.5170325, "longitude": -2.7690581, "source": "osm", "_tags": {"addr:city": "Saint-Brieuc", "addr:housenumber": "7", "addr:postcode": "22000", "addr:street": "Rue Jean XXIII", "amenity": "hospital", "healthcare": "hospital", "healthcare:speciality": "psychiatry", "name": "CRP Saint-Brieuc - Fondation St Jean de Dieu", "operator": "Fondation St Jean de Dieu"}}, {"name": "CMP Lamballe", "latitude": 48.4706385, "longitude": -2.516266, "source": "osm", "_tags": {"addr:city": "Lamballe-Armor", "addr:housenumber": "20", "addr:postcode": "22400", "addr:street": "Place du Champ de Foire", "amenity": "hospital", "healthcare": "hospital", "healthcare:speciality": "psychiatry", "name": "CMP Lamballe", "operator": "Fondation Saint Jean de Dieu"}}, {"name": "CMPEA Lamballe", "latitude": 48.4706191, "longitude": -2.5162229, "source": "osm", "_tags": {"addr:city": "Lamballe-Armor", "addr:housenumber": "20", "addr:postcode": "22400", "addr:street": "Place du Champ de Foire", "amenity": "hospital", "healthcare": "hospital", "healthcare:speciality": "psychiatry", "name": "CMPEA Lamballe", "operator": "Fondation Saint Jean de Dieu"}}, {"name": "CMP Dinan", "latitude": 48.4505659, "longitude": -2.0662958, "source": "osm", "_tags": {"addr:city": "Dinan", "addr:housenumber": "117", "addr:postcode": "22100", "addr:street": "Rue de Brest", "amenity": "hospital", "healthcare": "hospital", "healthcare:speciality": "psychiatry", "name": "CMP Dinan", "operator": "Fondatin Saint Jean de Dieu"}}, {"name": "CMPEA Saint-Brieuc Maria Estrella", "latitude": 48.4960363, "longitude": -2.7448033, "source": "osm", "_tags": {"addr:city": "Saint-Brieuc", "addr:housenumber": "19", "addr:postcode": "22000", "addr:street": "Rue des Gallois", "amenity": "hospital", "healthcare": "hospital", "healthcare:speciality": "psychiatry", "name": "CMPEA Saint-Brieuc Maria Estrella", "operator": "Fondation Saint Jean de Dieu", "source": "cadastre-dgi-fr source : Direction Générale des Impôts - Cadastre. Mise à jour : 2010"}}, {"name": "CMP Maria Estrella", "latitude": 48.4959026, "longitude": -2.7450295, "source": "osm", "_tags": {"addr:city": "Saint-Brieuc", "addr:housenumber": "19", "addr:postcode": "22000", "addr:street": "Rue des Gallois", "amenity": "hospital", "emergency": "no", "healthcare": "hospital", "healthcare:speciality": "psychiatry", "name": "CMP Maria Estrella", "operator": "Fondation Saint Jean de Dieu", "source": "cadastre-dgi-fr source : Direction Générale des Impôts - Cadastre. Mise à jour : 2010"}}, {"name": "Centre hospitalier Dinan - Saint-Brieuc, Fondation Saint-Jean de Dieu", "latitude": 48.4486218, "longitude": -2.0608764, "source": "osm", "_tags": {"amenity": "hospital", "healthcare": "hospital", "name": "Centre hospitalier Dinan - Saint-Brieuc, Fondation Saint-Jean de Dieu", "ref:FR:FINESS": "220000616", "source": "E-mégalis Bretagne et collectivités territoriales bretonnes - 2012", "type:FR:FINESS": "292", "website": "https://www.chdinanstbrieuc.fsjd.fr/"}}, {"name": "General Hospital", "latitude": 49.1875953, "longitude": -2.1123541, "source": "osm", "_tags": {"access": "yes", "access:covid19": "permissive", "amenity": "hospital", "area": "yes", "changing_table": "yes", "check_date": "2021-06-16", "contact:phone": "+44 1534 442000", "description:smoking": "http://www.gov.je/smokefree", "emergency": "yes", "fixme:area": "Polygon shape isn't quite right. Should include (staff) parking on south-east side, entirety of building on eastern corner (junction of Parade & Gloucester). Should exclude some non-hospital buildings in north corner (junction of Kensington & Parade).", "healthcare": "hospital", "internet_access": "wlan", "internet_access:description": "Access requires passing a captive portal, which demands agreement to terms & conditions.", "internet_access:fee": "no", "internet_access:ssid": "HCS-VISITORS", "kids_area": "yes", "kids_area:fee": "no", "kids_area:indoor": "yes", "kids_area:outdoor": "no", "kids_area:supervised": "yes", "landuse": "public_services", "lit": "yes", "name": "General Hospital", "note": "Given the many different but related buildings, would seem better to associate them all with a Relation.", "operator": "Health & Community Services", "operator:type": "government", "owner": "Government of Jersey", "smokefree": "yes", "smoking": "no", "source:changing_table": "survey", "source:contact": "local knowledge", "source:emergency": "survey", "source:fixme:area": "survey", "source:healthcare": "survey", "source:kids_area": "survey", "source:lit": "survey", "source:operator": "survey", "source:owner": "local knowledge", "source:smokefree": "survey", "source:smoking": "survey", "source:surveillance": "survey", "source:toilets": "survey", "source:wheelchair": "survey", "surveillance": "indoor; outdoor", "surveillance:type": "camera", "surveillance:zone": "building", "survey:date": "2021-06-16", "toilets": "yes", "toilets:access": "yes", "toilets:wheelchair": "designated", "website": "http://www.gov.je/health/hospitals/", "wheelchair": "yes", "wheelchair:description": "Flat & smooth floors, wide doors, cargo lifts (elevators).", "wikidata": "Q60754278"}}, {"name": "Hôpital Arthur Gardiner", "latitude": 48.6322336, "longitude": -2.0662411, "source": "osm", "_tags": {"addr:city": "Dinard", "addr:housenumber": "1", "addr:postcode": "35800", "addr:street": "Rue Henri Dunant", "amenity": "hospital", "emergency": "no", "fax": "+33 2 99 16 88 12", "healthcare": "hospital", "name": "Hôpital Arthur Gardiner", "name:br": "Ospital Arthur Gardiner", "name:fr": "Hôpital Arthur Gardiner", "phone": "+33 2 99 16 88 88", "ref:FR:FINESS": "350000071", "ref:FR:NAF": "86.10Z", "ref:FR:SIRET": "43997564000434", "source:name:br": "proper translation", "type:FR:FINESS": "365", "website": "https://www.ch-dinard.org/"}}, {"name": "Centre hospitalier de Penthièvre CH2P", "latitude": 48.4695029, "longitude": -2.5204793, "source": "osm", "_tags": {"addr:city": "Lamballe", "addr:housenumber": "13", "addr:postcode": "22400", "addr:street": "Rue du Jeu de Paume", "amenity": "hospital", "healthcare": "hospital", "name": "Centre hospitalier de Penthièvre CH2P", "ref:FR:FINESS": "220000566", "source": "Le ministère des solidarités et de la santé - 03/2019", "type:FR:FINESS": "355"}}, {"name": "Centre hospitalier Yves Le Foll", "latitude": 48.4921293, "longitude": -2.750424, "source": "osm", "_tags": {"amenity": "hospital", "check_date": "2025-06-15", "emergency": "yes", "fax": "+33 2 96 01 71 11", "healthcare": "hospital", "healthcare:speciality": "intensive", "name": "Centre hospitalier Yves Le Foll", "name:br": "Pennospital Yves ar Foll", "operator:type": "public", "phone": "+33 2 96 01 71 23", "ref:FR:FINESS": "220000012", "source:geometry": "source=cadastre-dgi-fr source : Direction Générale des Impôts - Cadastre. Mise à jour : 2020", "source:name:br": "proper translation", "type:FR:FINESS": "355", "website": "https://www.ch-stbrieuc.fr/"}}, {"name": "Centre hospitalier Max Querrien", "latitude": 48.7732286, "longitude": -3.0340223, "source": "osm", "_tags": {"addr:city": "Paimpol", "addr:housename": "CH Max Querrien", "addr:housenumber": "36", "addr:postcode": "22500", "addr:street": "Chemin de Kerpuns", "amenity": "hospital", "emergency": "yes", "healthcare": "hospital", "name": "Centre hospitalier Max Querrien", "operator:type": "public", "ref:FR:FINESS": "220000541", "source": "cadastre-dgi-fr source : Direction Générale des Impôts - Cadastre. Mise à jour : 2012", "type:FR:FINESS": "355"}}, {"name": "Hôpital Privé des Côtes d'Armor", "latitude": 48.548163, "longitude": -2.7882703, "source": "osm", "_tags": {"amenity": "hospital", "contact:website": "http://www.hopitalprive22.fr/", "healthcare": "hospital", "name": "Hôpital Privé des Côtes d'Armor", "name:br": "Ospital prevez Aodoù-an-Arvor", "ref:FR:FINESS": "220022800", "source:name:br": "proper translation", "type:FR:FINESS": "365"}}, {"name": "Clinique de la Cerisaie", "latitude": 48.4758135, "longitude": -2.73241, "source": "osm", "_tags": {"addr:housenumber": "53", "addr:street": "Rue de l'Atlantique", "amenity": "hospital", "healthcare": "hospital", "healthcare:speciality": "psychiatry", "name": "Clinique de la Cerisaie", "phone": "+33 2 96 71 31 00", "ref:FR:FINESS": "220000319", "source": "cadastre-dgi-fr source : Direction Générale des Impôts - Cadastre. Mise à jour : 2012", "type:FR:FINESS": "161", "website": "http://www.cliniquelacerisaie.com/"}}, {"name": "Centre Benoit Menni - Fondation St Jean de Dieu", "latitude": 48.5001338, "longitude": -2.7527037, "source": "osm", "_tags": {"addr:city": "Saint-Brieuc", "addr:housenumber": "8", "addr:postcode": "22000", "addr:street": "Rue Charles Pradal", "amenity": "hospital", "healthcare": "hospital", "name": "Centre Benoit Menni - Fondation St Jean de Dieu", "operator": "Fondation Saint Jean de Dieu", "operator:type": "private", "source": "cadastre-dgi-fr source : Direction Générale des Impôts - Cadastre. Mise à jour : 2020", "website": "https://www.chdinanstbrieuc.fsjd.fr/pages/pole-de-saint-brieuc"}}, {"name": "Altygo Soins de Suite", "latitude": 48.546307, "longitude": -2.7257326, "source": "osm", "_tags": {"amenity": "hospital", "name": "Altygo Soins de Suite", "name:br": "Altygo Prederioù Heuliañ", "note": "Réadaptation Pédiatrique,Institut d'éducation motrice,enfants et adolescents Polyhandicapés", "source:name:br": "proper translation"}}, {"name": "", "latitude": 49.1917843, "longitude": -2.1170063, "source": "osm", "_tags": {"amenity": "hospital", "healthcare": "hospital"}}]