[{"name": "Hôpital local du Neubourg", "latitude": 49.1491358, "longitude": 0.906383, "source": "osm", "_tags": {"amenity": "hospital", "email": "hop.leneub@wanadoo.fr", "emergency": "no", "fax": "+33 2 32 35 68 01", "healthcare": "hospital", "name": "Hôpital local du Neubourg", "phone": "+33 2 32 35 68 00", "ref:FR:FINESS": "270000516", "type:FR:FINESS": "106", "wikidata": "Q92062451"}}, {"name": "Centre Hospitalier de Pont-l'Évêque", "latitude": 49.2837195, "longitude": 0.1829924, "source": "osm", "_tags": {"AUCAME:ID_Source": "140000308", "AUCAME:ID_Unique": "03010102 0006", "AUCAME:addr": "9 RUE DE BROSSARD", "AUCAME:commune": "Pont-l'Évêque", "AUCAME:name": "CENTRE HOSPITALIER DE PONT L'EVEQUE", "AUCAME:postcode": "14130", "AUCAME:ref:INSEE": "14514", "amenity": "hospital", "name": "Centre Hospitalier de Pont-l'Évêque", "ref:FR:FINESS": "140000308", "source": "Le ministère des solidarités et de la santé - 03/2019"}}, {"name": "", "latitude": 49.3835593, "longitude": 0.202702, "source": "osm", "_tags": {"amenity": "hospital", "healthcare": "hospital", "phone": "+33231490930", "ref:FR:FINESS": "140028754", "source": "Le ministère des solidarités et de la santé - 2024-09", "type:FR:FINESS": "292"}}, {"name": "Centre Hospitalier Marescot", "latitude": 48.9237045, "longitude": 0.2024997, "source": "osm", "_tags": {"amenity": "hospital", "healthcare": "hospital", "name": "Centre Hospitalier Marescot", "ref:FR:FINESS": "610000101", "source": "cadastre-dgi-fr source : Direction Générale des Impôts - Cadastre. Mise à jour : 2010", "wikidata": "Q92063170"}}, {"name": "Polyclinique Deauville", "latitude": 49.3538969, "longitude": 0.0690114, "source": "osm", "_tags": {"amenity": "hospital", "building": "yes", "healthcare": "hospital", "name": "Polyclinique Deauville", "ref:FR:FINESS": "140000258", "source": "cadastre-dgi-fr source : Direction Générale des Impôts - Cadastre. Mise à jour : 2010", "type:FR:FINESS": "365"}}, {"name": "Hôpital de Jour - Pôle Pays d'Auge", "latitude": 49.161001, "longitude": 0.2282915, "source": "osm", "_tags": {"addr:city": "Lisieux", "addr:housenumber": "120", "addr:postcode": "14100", "addr:street": "Boulevard Herbet Fournet", "building": "yes", "healthcare": "hospital", "name": "Hôpital de Jour - Pôle Pays d'Auge", "source": "cadastre-dgi-fr source : Direction Générale des Impôts - Cadastre. Mise à jour : 2011", "website": "https://www.epsm-caen.fr/"}}, {"name": "Centre Psychothérapique de l'Orne", "latitude": 48.433693, "longitude": 0.0778858, "source": "osm", "_tags": {"amenity": "hospital", "emergency": "no", "healthcare": "hospital", "name": "Centre Psychothérapique de l'Orne", "ref:FR:FINESS": "610000028", "type:FR:FINESS": "292"}}, {"name": "Centre hospitalier de Bernay", "latitude": 49.0902227, "longitude": 0.5893619, "source": "osm", "_tags": {"addr:city": "Bernay", "addr:housenumber": "5", "addr:postcode": "27300", "addr:street": "Rue Anne de Ticheville", "alt_name": "Hôpital Anne de Ticheville", "amenity": "hospital", "emergency": "yes", "fax": "+33 2 32 45 63 68", "healthcare": "hospital", "name": "Centre hospitalier de Bernay", "operator:type": "public", "phone": "+33 2 32 45 63 00", "ref:FR:FINESS": "270000045", "short_name": "CH de Bernay", "type:FR:FINESS": "355", "website": "https://www.ch-bernay.fr/"}}, {"name": "Hôpital Local de Breteuil", "latitude": 48.8364574, "longitude": 0.9219176, "source": "osm", "_tags": {"addr:housenumber": "230", "alt_name": "CMP Adultes Breteuil", "amenity": "hospital", "healthcare": "hospital", "name": "Hôpital Local de Breteuil", "phone": "+33 2 32 34 78 34", "ref:FR:FINESS": "270012818", "source": "cadastre-dgi-fr source : Direction Générale des Impôts - Cadastre. Mise à jour : 2013", "type:FR:FINESS": "156"}}, {"name": "Centre hospitalier d'Alençon", "latitude": 48.4254494, "longitude": 0.0844081, "source": "osm", "_tags": {"addr:city": "Alençon", "addr:housenumber": "25", "addr:postcode": "61000", "addr:street": "Rue de Fresnay", "amenity": "hospital", "email": "direction@ch-alencon.fr", "emergency": "yes", "fax": "+33 2 33 32 31 14", "healthcare": "hospital", "healthcare:speciality": "intensive", "name": "Centre hospitalier d'Alençon", "phone": "+33 2 33 32 30 30", "ref:FR:FINESS": "610000051", "type:FR:FINESS": "355", "website": "https://www.ch-alencon.fr/", "wheelchair": "no"}}, {"name": "Clinique Saint-Joseph", "latitude": 48.4286336, "longitude": 0.0760522, "source": "osm", "_tags": {"amenity": "hospital", "emergency": "no", "healthcare": "hospital", "name": "Clinique Saint-Joseph", "ref:FR:FINESS": "610006421", "type:FR:FINESS": "365"}}, {"name": "Centre Hospitalier de l'Aigle", "latitude": 48.7676659, "longitude": 0.6119716, "source": "osm", "_tags": {"amenity": "hospital", "emergency": "yes", "fax": "+33 2 33 24 95 33", "healthcare": "hospital", "name": "Centre Hospitalier de l'Aigle", "operator:type": "public", "phone": "+33 2 33 24 95 95", "ref:FR:FINESS": "610000044", "type:FR:FINESS": "355", "website": "https://www.ch-laigle.fr/"}}, {"name": "Centre hospitalier Robert Bisson", "latitude": 49.1447135, "longitude": 0.2323421, "source": "osm", "_tags": {"amenity": "hospital", "emergency": "yes", "fax": "+33 2 31 61 30 05", "healthcare": "hospital", "healthcare:speciality": "intensive", "name": "Centre hospitalier Robert Bisson", "name:etymology:wikidata": "Q3434586", "operator:type": "public", "phone": "+33 2 31 61 31 31", "ref:FR:FINESS": "140000027", "type:FR:FINESS": "355", "website": "https://www.ch-lisieux.fr/", "wheelchair": "yes", "wikidata": "Q2945693", "wikipedia": "fr:Centre hospitalier de Lisieux"}}, {"name": "Centre Hospitalier Fernand Léger", "latitude": 48.7471053, "longitude": -0.0178868, "source": "osm", "_tags": {"addr:city": "Argentan", "addr:country": "FR", "addr:housenumber": "47", "addr:postcode": "61200", "addr:street": "Rue Aristide Briand", "alt_name": "Centre hospitalier Maréchal Leclerc", "amenity": "hospital", "emergency": "yes", "fax": "+33 2 33 12 33 10", "healthcare": "hospital", "name": "Centre Hospitalier Fernand Léger", "operator:type": "public", "phone": "+33 2 33 12 33 12", "ref:FR:FINESS": "610000069", "type:FR:FINESS": "355", "website": "https://www.ch-argentan.fr/"}}, {"name": "Centre Hospitalier Marguerite de Lorraine", "latitude": 48.523494, "longitude": 0.551823, "source": "osm", "_tags": {"amenity": "hospital", "email": "ch.mortagne@ch-mortagne.fr", "emergency": "yes", "fax": "+33 2 33 83 42 82", "healthcare": "hospital", "name": "Centre Hospitalier Marguerite de Lorraine", "operator:type": "public", "phone": "+33 2 33 83 40 40", "ref:FR:FINESS": "610000077", "type:FR:FINESS": "355", "website": "http://www.ch-mortagne.fr/"}}, {"name": "Centre Hospitalier de la Côte Fleurie", "latitude": 49.3826289, "longitude": 0.1292376, "source": "osm", "_tags": {"AUCAME:ID_Source": "140026717", "AUCAME:ID_Unique": "03010300 0009", "addr:place": "La Brèche du Bois", "addr:street": "La Brèche du Bois", "amenity": "hospital", "emergency": "yes", "fax": "+33 2 31 89 88 81", "healthcare": "hospital", "name": "Centre Hospitalier de la Côte Fleurie", "operator:type": "public", "phone": "+33 2 31 89 89 89", "ref:FR:FINESS": "140026410", "type:FR:FINESS": "355", "website": "http://ch-cotefleurie.com/", "wikidata": "Q65155782"}}, {"name": "Centre hospitalier de Verneuil d'Avre et d'Iton", "latitude": 48.7410446, "longitude": 0.9206641, "source": "osm", "_tags": {"addr:city": "Verneuil-sur-Avre", "addr:street": "Rue Hubert Latham", "amenity": "hospital", "emergency": "yes", "fax": "+33 2 32 23 60 60", "healthcare": "hospital", "healthcare:speciality": "emergency", "name": "Centre hospitalier de Verneuil d'Avre et d'Iton", "phone": "+33 2 32 23 60 00", "ref:FR:FINESS": "270000441", "type:FR:FINESS": "355", "website": "http://www.vbr-sudeure.fr/"}}, {"name": "Centre hospitalier de la Risle", "latitude": 49.3484508, "longitude": 0.5147337, "source": "osm", "_tags": {"addr:city": "Pont-Audemer", "addr:housenumber": "64", "addr:postcode": "27500", "addr:street": "Route de Lisieux", "amenity": "hospital", "email": "direction@ch-pont-audemer.fr", "emergency": "yes", "fax": "+33 2 32 42 64 65", "healthcare": "hospital", "name": "Centre hospitalier de la Risle", "operator:type": "public", "payment:cash": "yes", "payment:credit_cards": "yes", "phone": "+33 2 32 41 64 64", "ref:FR:FINESS": "270000425", "short_name": "CH de la Risle", "type:FR:FINESS": "355", "website": "https://ch-pont-audemer.fr/"}}, {"name": "Hôpital Pierre Hurabielle", "latitude": 49.3490102, "longitude": 0.8146365, "source": "osm", "_tags": {"amenity": "hospital", "name": "Hôpital Pierre Hurabielle", "ref:FR:FINESS": "270000482", "source": "Le ministère des solidarités et de la santé - 03/2019", "wikidata": "Q92062988"}}, {"name": "Polyclinique", "latitude": 49.1460134, "longitude": 0.2581465, "source": "osm", "_tags": {"AUCAME:ID_Source": "140018730", "AUCAME:ID_Unique": "03010300 0006", "addr:street": "Rond-Point de l'Espérance", "amenity": "hospital", "healthcare": "hospital", "name": "Polyclinique", "ref:FR:FINESS": "140018730", "source": "cadastre-dgi-fr source : Direction Générale des Impôts - Cadastre. Mise à jour : 2011", "type:FR:FINESS": "365"}}]