[{"name": "Nemocnica s Poliklinikou Hlohovec, s. r. o.", "latitude": 48.4247387, "longitude": 17.7888378, "source": "osm", "_tags": {"amenity": "hospital", "contact:website": "http://www.nsphlohovec.sk/", "name": "Nemocnica s Poliklinikou Hlohovec, s. r. o."}}, {"name": "Nemocnice Kroměříž budova A", "latitude": 49.2922906, "longitude": 17.378665, "source": "osm", "_tags": {"amenity": "hospital", "healthcare": "hospital", "highway": "emergency_access_point", "name": "Nemocnice Kroměříž budova A", "wheelchair": "yes"}}, {"name": "Nemocnica s poliklinikou, Nové Mesto nad Váhom, n. o.", "latitude": 48.7535855, "longitude": 17.8311453, "source": "osm", "_tags": {"amenity": "hospital", "email": "nspnm@nspnm.sk", "healthcare": "hospital", "name": "Nemocnica s poliklinikou, Nové Mesto nad Váhom, n. o.", "phone": "+421 32  774 04 11", "website": "http://www.nspnm.sk/", "wheelchair": "yes"}}, {"name": "ADELI Medical Center", "latitude": 48.576195, "longitude": 17.8197771, "source": "osm", "_tags": {"amenity": "hospital", "healthcare": "hospital", "healthcare:speciality": "rehabilitation;logopaedia;neurology;kinesitherapy;physiotherapy", "internet_access": "wlan", "internet_access:fee": "no", "name": "ADELI Medical Center", "phone": "+421337915900", "toilets:wheelchair": "yes", "website": "https://adelicenter.eu/", "wheelchair": "yes"}}, {"name": "Městská nemocnice Slavičín", "latitude": 49.0903822, "longitude": 17.8736981, "source": "osm", "_tags": {"amenity": "hospital", "emergency": "no", "name": "Městská nemocnice Slavičín"}}, {"name": "", "latitude": 49.3619784, "longitude": 17.3680366, "source": "osm", "_tags": {"amenity": "hospital"}}, {"name": "Zdravotní středisko Kozlany", "latitude": 49.203201, "longitude": 17.0342753, "source": "osm", "_tags": {"amenity": "hospital", "emergency": "no", "name": "Zdravotní středisko Kozlany"}}, {"name": "Medicentrum", "latitude": 48.5937508, "longitude": 17.8339743, "source": "osm", "_tags": {"amenity": "hospital", "contact:email": "medicentrum@klinika.sk", "contact:phone": "+421337735091", "emergency": "no", "healthcare": "hospital", "name": "Medicentrum"}}, {"name": "Dětská Nemocnice", "latitude": 49.0112007, "longitude": 17.1261563, "source": "osm", "_tags": {"amenity": "hospital", "healthcare": "hospital", "internet_access": "wlan", "name": "Dětská Nemocnice", "name:cs": "Dětská Nemocnice", "name:en": "Child Hospital"}}, {"name": "Nemocnica Alexandra Wintera, n.o.", "latitude": 48.5881438, "longitude": 17.8381122, "source": "osm", "_tags": {"amenity": "hospital", "contact:website": "http://www.naw.sk/", "healthcare": "hospital", "name": "Nemocnica Alexandra Wintera, n.o."}}, {"name": "AMEM klinika estetické a plastické medicíny", "latitude": 49.2268854, "longitude": 17.665163, "source": "osm", "_tags": {"addr:city": "Zlín", "addr:housenumber": "4393", "addr:postcode": "76001", "addr:street": "Bartošova", "amenity": "hospital", "email": "info@amem.cz", "healthcare": "hospital", "healthcare:speciality": "plastic_surgery;estetická_medicína", "name": "AMEM klinika estetické a plastické medicíny", "operator": "KR institut s.r.o.", "operator:type": "private"}}, {"name": "Uherskohradišťská nemocnice a.s.", "latitude": 49.0632461, "longitude": 17.4534407, "source": "osm", "_tags": {"amenity": "hospital", "emergency": "yes", "name": "Uherskohradišťská nemocnice a.s.", "source": "cuzk:km", "website": "https://www.nemuh.cz/"}}, {"name": "Krajská nemocnice Tomáše Bati", "latitude": 49.228266, "longitude": 17.6998027, "source": "osm", "_tags": {"amenity": "hospital", "healthcare": "hospital", "name": "Krajská nemocnice Tomáše Bati", "wikidata": "Q21598513"}}, {"name": "nemocnice Atlas", "latitude": 49.2226895, "longitude": 17.6569542, "source": "osm", "_tags": {"amenity": "hospital", "building": "civic", "building:ruian:type": "15", "check_date": "2024-10-31", "healthcare": "hospital", "name": "nemocnice Atlas", "ref:ruian:building": "24530859", "source": "cuzk:ruian", "start_date": "1999-05-01"}}, {"name": "Městská nemocnice s poliklinikou Uh. Brod, s.r.o.", "latitude": 49.0290919, "longitude": 17.652692, "source": "osm", "_tags": {"addr:city": "Uherský Brod", "addr:housenumber": "2174", "addr:postcode": "68801", "addr:street": "Partyzánů", "amenity": "hospital", "building": "civic", "building:ruian:type": "15", "contact:email": "reditel@nemub.cz", "contact:phone": "572 629 111", "contact:website": "www.nemub.cz", "emergency": "yes", "name": "Městská nemocnice s poliklinikou Uh. Brod, s.r.o.", "operator": "Město Uherský Brod", "ref:ruian:building": "4992822", "source": "cuzk:ruian"}}, {"name": "Nemocnice Vyškov", "latitude": 49.2780916, "longitude": 16.9796741, "source": "osm", "_tags": {"amenity": "hospital", "emergency": "yes", "healthcare": "hospital", "name": "Nemocnice Vyškov", "wikidata": "Q41567491"}}, {"name": "Nemocnice Kyjov", "latitude": 49.0086352, "longitude": 17.1123591, "source": "osm", "_tags": {"amenity": "hospital", "emergency": "yes", "healthcare": "hospital", "name": "Nemocnice Kyjov", "source": "cuzk:km", "wikidata": "Q23210489"}}, {"name": "", "latitude": 49.0633774, "longitude": 17.0245088, "source": "osm", "_tags": {"amenity": "hospital", "building": "civic", "building:flats": "24", "building:levels": "2", "building:ruian:type": "5", "ref:ruian:building": "13562754", "source": "cuzk:ruian"}}, {"name": "Nemocnice Milosrdných bratří", "latitude": 49.2191302, "longitude": 17.8504488, "source": "osm", "_tags": {"amenity": "hospital", "building": "civic", "building:levels": "1", "building:ruian:type": "15", "healthcare": "hospital", "name": "Nemocnice Milosrdných bratří", "ref:ruian:building": "3923223", "source": "cuzk:ruian"}}, {"name": "Nemocnica Malacky", "latitude": 48.4402774, "longitude": 17.0338386, "source": "osm", "_tags": {"amenity": "hospital", "contact:website": "http://www.nemocnicamalacky.sk/kontakt", "healthcare": "hospital", "name": "Nemocnica Malacky", "operator": "Nemocničná a.s.", "source": "Bing", "wikidata": "Q77084085"}}, {"name": "", "latitude": 49.0365438, "longitude": 17.4740227, "source": "osm", "_tags": {"amenity": "hospital", "healthcare": "hospital"}}, {"name": "", "latitude": 49.0378771, "longitude": 17.4745707, "source": "osm", "_tags": {"amenity": "hospital", "healthcare": "hospital"}}, {"name": "", "latitude": 49.0401081, "longitude": 17.4717708, "source": "osm", "_tags": {"amenity": "hospital", "healthcare": "hospital"}}, {"name": "Psychiatrická nemocnice v Kroměříži", "latitude": 49.2950432, "longitude": 17.3774089, "source": "osm", "_tags": {"amenity": "hospital", "healthcare": "hospital", "name": "Psychiatrická nemocnice v Kroměříži", "website": "http://www.pnkm.cz/cs/uvod", "wikidata": "Q12047509"}}, {"name": "", "latitude": 49.2919667, "longitude": 17.3802177, "source": "osm", "_tags": {"amenity": "hospital", "healthcare": "hospital"}}, {"name": "", "latitude": 49.2226219, "longitude": 17.6571683, "source": "osm", "_tags": {"amenity": "hospital", "healthcare": "hospital"}}, {"name": "", "latitude": 49.2190418, "longitude": 17.6422022, "source": "osm", "_tags": {"amenity": "hospital", "healthcare": "hospital"}}, {"name": "", "latitude": 49.2206166, "longitude": 17.7065447, "source": "osm", "_tags": {"amenity": "hospital"}}, {"name": "", "latitude": 49.0400801, "longitude": 17.4719925, "source": "osm", "_tags": {"amenity": "hospital", "healthcare": "hospital"}}, {"name": "", "latitude": 49.2244541, "longitude": 17.690107, "source": "osm", "_tags": {"amenity": "hospital", "healthcare": "hospital"}}, {"name": "Fakultná nemocnica Agel Skalica", "latitude": 48.8435085, "longitude": 17.2283092, "source": "osm", "_tags": {"amenity": "hospital", "brand": "Agel", "brand:wikidata": "Q41365932", "contact:facebook": "https://www.facebook.com/Fakultn%C3%A1-nemocnica-s-poliklinikou-Skalica-a-s-143500882364888/", "email": "nsi@careservices.sk", "emergency": "yes", "healthcare": "hospital", "healthcare:speciality": "general", "name": "Fakultná nemocnica Agel Skalica", "old_name": "Fakultná nemocnica s poliklinikou Skalica", "operator": "Fakultná nemocnica Agel Skalica", "phone": "+421 34 69 69 206", "website": "https://www.nspskalica.sk/", "wheelchair": "yes"}}, {"name": "Nemocnice TGM Hodonín", "latitude": 48.8641942, "longitude": 17.1456228, "source": "osm", "_tags": {"amenity": "hospital", "check_date": "2025-06-01", "emergency": "yes", "name": "Nemocnice TGM Hodonín", "website": "https://www.nemho.cz/", "wikidata": "Q58507279", "wikipedia": "cs:Nemocnice TGM Hodonín"}}, {"name": "Nemocnica s poliklinikou Myjava", "latitude": 48.7629178, "longitude": 17.5614109, "source": "osm", "_tags": {"amenity": "hospital", "contact:website": "http://www.nspmyjava.sk/", "healthcare": "hospital", "name": "Nemocnica s poliklinikou Myjava"}}]