[{"name": "", "latitude": 48.5321545, "longitude": 24.3503048, "source": "osm", "_tags": {"amenity": "hospital"}}, {"name": "ФАП с. Гриньків", "latitude": 48.6896347, "longitude": 24.1068269, "source": "osm", "_tags": {"amenity": "hospital", "name": "ФАП с. Гриньків", "name:uk": "ФАП с. Гриньків"}}, {"name": "Амбулаторія", "latitude": 48.9564743, "longitude": 24.3380035, "source": "osm", "_tags": {"amenity": "hospital", "name": "Амбулаторія", "name:uk": "Амбулаторія"}}, {"name": "Букачівська лікарня", "latitude": 49.2567663, "longitude": 24.4975347, "source": "osm", "_tags": {"amenity": "hospital", "name": "Букачівська лікарня", "name:uk": "Букачівська лікарня"}}, {"name": "Амбулаторія", "latitude": 48.73745, "longitude": 24.1581585, "source": "osm", "_tags": {"addr:street": "вулиця Івана Вагилевича", "amenity": "hospital", "name": "Амбулаторія", "name:uk": "Амбулаторія"}}, {"name": "", "latitude": 49.0817621, "longitude": 24.5038958, "source": "osm", "_tags": {"amenity": "hospital"}}, {"name": "", "latitude": 49.2587606, "longitude": 24.2865959, "source": "osm", "_tags": {"amenity": "hospital"}}, {"name": "Єзупільська міська лікарня", "latitude": 49.0434513, "longitude": 24.7842658, "source": "osm", "_tags": {"amenity": "hospital", "name": "Єзупільська міська лікарня", "name:uk": "Єзупільська міська лікарня"}}, {"name": "Поліклініка", "latitude": 49.1854377, "longitude": 24.7395909, "source": "osm", "_tags": {"amenity": "hospital", "name": "Поліклініка", "name:uk": "Поліклініка", "wheelchair": "yes"}}, {"name": "ФАП", "latitude": 48.8596605, "longitude": 24.2781957, "source": "osm", "_tags": {"amenity": "hospital", "name": "ФАП", "name:uk": "ФАП"}}, {"name": "Педіатричне відділення №6", "latitude": 48.9290546, "longitude": 24.7378073, "source": "osm", "_tags": {"addr:housenumber": "50", "addr:street": "Молодіжна вулиця", "amenity": "hospital", "healthcare": "hospital", "healthcare:speciality": "paediatrics", "name": "Педіатричне відділення №6", "name:uk": "Педіатричне відділення №6"}}, {"name": "Амбулаторія", "latitude": 48.5714992, "longitude": 24.4229469, "source": "osm", "_tags": {"amenity": "hospital", "name": "Амбулаторія", "name:uk": "Амбулаторія"}}, {"name": "Фельдшерсько-акушерський пункт", "latitude": 48.514796, "longitude": 24.3830744, "source": "osm", "_tags": {"amenity": "hospital", "healthcare": "hospital", "name": "Фельдшерсько-акушерський пункт", "name:uk": "Фельдшерсько-акушерський пункт"}}, {"name": "Амбулаторія", "latitude": 48.7569495, "longitude": 24.1891238, "source": "osm", "_tags": {"amenity": "hospital", "name": "Амбулаторія", "name:uk": "Амбулаторія"}}, {"name": "Міський перинатальний центр", "latitude": 48.9153658, "longitude": 24.7050531, "source": "osm", "_tags": {"amenity": "hospital", "healthcare": "birthing_centre", "name": "Міський перинатальний центр", "name:uk": "Міський перинатальний центр"}}, {"name": "Обласний перинатальний центр", "latitude": 48.9160613, "longitude": 24.7056123, "source": "osm", "_tags": {"amenity": "hospital", "healthcare": "birthing_centre", "name": "Обласний перинатальний центр", "name:en": "Oblast Perinatal Center", "name:uk": "Обласний перинатальний центр"}}, {"name": "Лисецька центральна районна лікарня", "latitude": 48.8673369, "longitude": 24.6144278, "source": "osm", "_tags": {"amenity": "hospital", "designation": "Лисецька лікарня", "emergency": "yes", "name": "Лисецька центральна районна лікарня", "name:uk": "Лисецька центральна районна лікарня"}}, {"name": "Асклепій", "latitude": 48.9268476, "longitude": 24.7140312, "source": "osm", "_tags": {"addr:housenumber": "55", "addr:street": "Дністровська вулиця", "amenity": "hospital", "building": "yes", "email": "asklepiy@ukr.net", "healthcare": "hospital", "name": "Асклепій", "name:en": "Asklepii", "name:uk": "Асклепій", "payment:mastercard": "yes", "payment:visa": "yes", "phone": "+38 066 670 29 66;+38 034 254 81 42;+38 034 254 91 34", "website": "https://asklepiy.if.ua/", "wheelchair": "limited", "wheelchair:description": "дуже крутий пандус"}}, {"name": "Брошнівська міська лікарня", "latitude": 48.9931897, "longitude": 24.184751, "source": "osm", "_tags": {"amenity": "hospital", "emergency": "yes", "name": "Брошнівська міська лікарня", "name:en": "Broshniv-Osada hospital", "name:ru": "Брошневская городская больница", "name:uk": "Брошнівська міська лікарня"}}, {"name": "Рожнятівська районна лікарня", "latitude": 48.9341625, "longitude": 24.1475826, "source": "osm", "_tags": {"addr:housenumber": "2", "amenity": "hospital", "building": "hospital", "building:levels": "5", "emergency": "yes", "name": "Рожнятівська районна лікарня", "name:uk": "Рожнятівська районна лікарня"}}, {"name": "Обласний клінічний кардіологічний диспансер", "latitude": 48.915457, "longitude": 24.6973868, "source": "osm", "_tags": {"addr:housenumber": "114", "addr:street": "вулиця Гетьмана Мазепи", "amenity": "hospital", "building": "hospital", "building:levels": "5", "healthcare": "hospital", "name": "Обласний клінічний кардіологічний диспансер", "name:uk": "Обласний клінічний кардіологічний диспансер", "wheelchair": "yes"}}, {"name": "", "latitude": 48.9355496, "longitude": 24.1514954, "source": "osm", "_tags": {"amenity": "hospital"}}, {"name": "", "latitude": 48.9337678, "longitude": 24.1480618, "source": "osm", "_tags": {"amenity": "hospital"}}, {"name": "Перегінська номерна районна лікарня №2", "latitude": 48.8168221, "longitude": 24.1909568, "source": "osm", "_tags": {"addr:housenumber": "51", "amenity": "hospital", "building": "yes", "name": "Перегінська номерна районна лікарня №2", "name:uk": "Перегінська номерна районна лікарня №2"}}, {"name": "Яремчанська центральна міська лікарня", "latitude": 48.4502626, "longitude": 24.5509121, "source": "osm", "_tags": {"addr:housenumber": "5", "addr:street": "вулиця Довбуша", "amenity": "hospital", "building": "hospital", "contact:website": "http://www.uozoda.if.net.ua/cont46.htm", "name": "Яремчанська центральна міська лікарня", "name:ru": "Яремчанская центральная городская больница", "name:uk": "Яремчанська центральна міська лікарня", "website": "http://www.uozoda.if.net.ua/cont46.htm"}}, {"name": "Обласний фтизіопульмонологічний центр (диспансерне відділення)", "latitude": 48.934646, "longitude": 24.736728, "source": "osm", "_tags": {"addr:housenumber": "1", "addr:street": "вулиця Героїв УПА", "amenity": "hospital", "building": "hospital", "building:levels": "2", "healthcare": "hospital", "name": "Обласний фтизіопульмонологічний центр (диспансерне відділення)", "name:uk": "Обласний фтизіопульмонологічний центр (диспансерне відділення)", "phone": "+380 342 75 6522", "wheelchair": "limited", "wheelchair:description": "перший поверх безбар'єрний"}}, {"name": "Дитяча лікарня", "latitude": 48.9687374, "longitude": 23.9971332, "source": "osm", "_tags": {"amenity": "hospital", "building": "yes", "name": "Дитяча лікарня", "name:uk": "Дитяча лікарня"}}, {"name": "Надвірнянська дитяча лікарня", "latitude": 48.6336522, "longitude": 24.554972, "source": "osm", "_tags": {"addr:city": "Надвірна", "addr:postcode": "78400", "amenity": "hospital", "healthcare": "hospital", "name": "Надвірнянська дитяча лікарня", "name:uk": "Надвірнянська дитяча лікарня"}}, {"name": "Надвірнянська районна лікарня", "latitude": 48.6313411, "longitude": 24.5601472, "source": "osm", "_tags": {"amenity": "hospital", "healthcare": "hospital", "name": "Надвірнянська районна лікарня", "name:uk": "Надвірнянська районна лікарня"}}, {"name": "Рогатинська центральна районна лікарня", "latitude": 49.4139751, "longitude": 24.6038901, "source": "osm", "_tags": {"addr:city": "Рогатин", "addr:housenumber": "9", "addr:postcode": "77000", "addr:street": "вулиця Вʼячеслава Чорновола", "amenity": "hospital", "building": "yes", "emergency": "yes", "name": "Рогатинська центральна районна лікарня", "name:uk": "Рогатинська центральна районна лікарня", "phone": "+380 3435 21 233"}}, {"name": "Амбулаторія", "latitude": 49.0080026, "longitude": 24.2525424, "source": "osm", "_tags": {"amenity": "hospital", "name": "Амбулаторія", "name:uk": "Амбулаторія"}}, {"name": "Лікарська амбулаторія", "latitude": 48.4632158, "longitude": 24.2507375, "source": "osm", "_tags": {"addr:postcode": "78436", "addr:street": "вулиця Центр", "amenity": "hospital", "healthcare": "hospital", "name": "Лікарська амбулаторія", "name:uk": "Лікарська амбулаторія"}}, {"name": "Івано-Франківська обласна клінічна лікарня", "latitude": 48.9391185, "longitude": 24.6863254, "source": "osm", "_tags": {"amenity": "hospital", "healthcare": "hospital", "name": "Івано-Франківська обласна клінічна лікарня", "name:en": "Ivano-Frankivsk oblast Clinical Hospital", "name:ru": "Ивано-Франковская областная клиническая больница", "name:uk": "Івано-Франківська обласна клінічна лікарня", "website": "https://okl.if.ua/"}}, {"name": "Обласний фтизіопульмонологічний центр (пульмонологічне відділення)", "latitude": 48.9206487, "longitude": 24.7155125, "source": "osm", "_tags": {"amenity": "hospital", "healthcare": "hospital", "name": "Обласний фтизіопульмонологічний центр (пульмонологічне відділення)", "name:en": "Oblast Phthisiopulmonological Center (pulmonological part)", "name:uk": "Обласний фтизіопульмонологічний центр (пульмонологічне відділення)", "wheelchair": "limited", "wheelchair:description": "пандус дещо крутий"}}, {"name": "Отинійська районна лікарня №1", "latitude": 48.7385987, "longitude": 24.8608393, "source": "osm", "_tags": {"amenity": "hospital", "healthcare": "hospital", "name": "Отинійська районна лікарня №1", "name:uk": "Отинійська районна лікарня №1"}}, {"name": "Калуська центральна районна лікарня", "latitude": 49.0394494, "longitude": 24.4282137, "source": "osm", "_tags": {"amenity": "hospital", "contact:email": "kalushlik@ukr.net", "contact:phone": "+380 3472 63 317", "contact:website": "https://kalush-crl.if.ua/", "healthcare": "hospital", "name": "Калуська центральна районна лікарня", "name:uk": "Калуська центральна міська лікарня"}}, {"name": "Колишній палац Кржечуновичів", "latitude": 49.1844943, "longitude": 24.7385138, "source": "osm", "_tags": {"amenity": "hospital", "historic": "manor", "name": "Колишній палац Кржечуновичів", "name:uk": "Колишній палац Кржечуновичів"}}, {"name": "", "latitude": 49.1330231, "longitude": 24.49642, "source": "osm", "_tags": {"amenity": "hospital"}}, {"name": "Бурштинська центральна міська лікарня", "latitude": 49.2482886, "longitude": 24.6275346, "source": "osm", "_tags": {"amenity": "hospital", "healthcare": "hospital", "name": "Бурштинська центральна міська лікарня", "name:uk": "Бурштинська центральна міська лікарня"}}, {"name": "", "latitude": 48.5260871, "longitude": 24.6302964, "source": "osm", "_tags": {"amenity": "hospital", "healthcare": "hospital"}}, {"name": "Центральна міська клінічна лікарня", "latitude": 48.9148099, "longitude": 24.6964166, "source": "osm", "_tags": {"amenity": "hospital", "healthcare": "hospital", "name": "Центральна міська клінічна лікарня", "name:uk": "Центральна міська клінічна лікарня"}}, {"name": "Солотвинська районна лікарня", "latitude": 48.7066126, "longitude": 24.4165161, "source": "osm", "_tags": {"amenity": "hospital", "healthcare": "hospital", "name": "Солотвинська районна лікарня", "name:uk": "Солотвинська районна лікарня"}}, {"name": "Поліклініка", "latitude": 49.2493075, "longitude": 24.6279711, "source": "osm", "_tags": {"amenity": "hospital", "healthcare": "hospital", "name": "Поліклініка", "name:uk": "Поліклініка"}}, {"name": "Міська поліклініка №4", "latitude": 48.939227, "longitude": 24.7429912, "source": "osm", "_tags": {"amenity": "hospital", "healthcare": "hospital", "name": "Міська поліклініка №4", "name:uk": "Міська поліклініка №4"}}, {"name": "Жидачівська Центральна Районна Лікарня", "latitude": 49.3921701, "longitude": 24.1327618, "source": "osm", "_tags": {"addr:housenumber": "29", "addr:street": "вулиця Ярослава Мудрого", "amenity": "hospital", "healthcare": "hospital", "healthcare:speciality": "general;intensive;paediatrics;gynaecology;emergency;dentistry;vaccination;surgery;ophthalmology;internal;psychiatry;maternity;cardiology;dermatology;radiology", "name": "Жидачівська Центральна Районна Лікарня", "name:uk": "Жидачівська Центральна Районна Лікарня", "operator": "Жидачівська громада"}}, {"name": "Обласний фтизіопульмонологічний центр (фтизіатричний корпус)", "latitude": 48.9120783, "longitude": 24.7087261, "source": "osm", "_tags": {"amenity": "hospital", "healthcare": "hospital", "name": "Обласний фтизіопульмонологічний центр (фтизіатричний корпус)", "name:en": "Oblast Phthisiopulmonological Center (phthisiatric part)", "name:uk": "Обласний фтизіопульмонологічний центр (фтизіатричний корпус)"}}, {"name": "Міська дитяча клінічна лікарня", "latitude": 48.9164352, "longitude": 24.7040687, "source": "osm", "_tags": {"amenity": "hospital", "healthcare": "hospital", "name": "Міська дитяча клінічна лікарня", "name:en": "City Children's Clinical Hospital", "name:ru": "Городская детская клиническая больница", "name:uk": "Міська дитяча клінічна лікарня"}}, {"name": "Пологовий будинок", "latitude": 48.9155461, "longitude": 24.705865, "source": "osm", "_tags": {"amenity": "hospital", "healthcare": "hospital", "name": "Пологовий будинок", "name:en": "Maternity Hospital", "name:uk": "Пологовий будинок"}}, {"name": "Обласна психіатрична клінічна лікарня № 1", "latitude": 48.9262198, "longitude": 24.6940702, "source": "osm", "_tags": {"amenity": "hospital", "healthcare": "hospital", "name": "Обласна психіатрична клінічна лікарня № 1", "name:en": "Oblast Psychiatric Clinical Hospital №1", "name:uk": "Обласна психіатрична клінічна лікарня № 1", "source": "Bing Aerial"}}, {"name": "Обласний фтизіопульмонологічний центр (дитяче відділення)", "latitude": 48.91404, "longitude": 24.7044404, "source": "osm", "_tags": {"addr:housenumber": "6", "addr:street": "вулиця Желехівського", "amenity": "hospital", "healthcare": "hospital", "name": "Обласний фтизіопульмонологічний центр (дитяче відділення)", "name:en": "Oblast Phthisiopulmonological Center (children's department)", "name:uk": "Обласний фтизіопульмонологічний центр (дитяче відділення)"}}, {"name": "Обласна клінічна інфекційна лікарня", "latitude": 48.9388444, "longitude": 24.7195892, "source": "osm", "_tags": {"alt_name": "Обласний центр профілактики та боротьби зі СНІДом", "amenity": "hospital", "contact:phone": "+380 342 50 4906", "contact:website": "http://ifaidscenter.org.ua", "healthcare": "hospital", "name": "Обласна клінічна інфекційна лікарня", "name:uk": "Обласна клінічна інфекційна лікарня", "type": "multipolygon"}}, {"name": "Обласна психоневрологічна лікарня №3", "latitude": 48.8680079, "longitude": 24.7003963, "source": "osm", "_tags": {"addr:housenumber": "15", "addr:street": "Медична вулиця", "amenity": "hospital", "healthcare": "hospital", "name": "Обласна психоневрологічна лікарня №3", "name:uk": "Обласна психоневрологічна лікарня №3", "type": "multipolygon"}}, {"name": "Прикарпатський клінічний онкологічний центр", "latitude": 48.8671703, "longitude": 24.6973675, "source": "osm", "_tags": {"addr:housenumber": "17", "addr:street": "Медична вулиця", "amenity": "hospital", "healthcare": "hospital", "name": "Прикарпатський клінічний онкологічний центр", "name:uk": "Прикарпатський клінічний онкологічний центр", "type": "multipolygon", "website": "https://onkocentr.com.ua/"}}, {"name": "Калуська міська лікарня", "latitude": 49.0178814, "longitude": 24.3518465, "source": "osm", "_tags": {"amenity": "hospital", "healthcare": "hospital", "name": "Калуська міська лікарня", "name:uk": "Калуська міська лікарня", "type": "multipolygon"}}, {"name": "Богородчанська центральна районна лікарня", "latitude": 48.8118479, "longitude": 24.5451523, "source": "osm", "_tags": {"amenity": "hospital", "healthcare": "hospital", "name": "Богородчанська центральна районна лікарня", "name:en": "Bohorodchany Central District Hospital", "name:ru": "Богородчанская центральная районная больница", "name:uk": "Богородчанська центральна районна лікарня", "type": "multipolygon"}}, {"name": "Галицька районна лікарня", "latitude": 49.1193569, "longitude": 24.7375786, "source": "osm", "_tags": {"amenity": "hospital", "name": "Галицька районна лікарня", "name:uk": "Галицька районна лікарня", "type": "multipolygon"}}, {"name": "Долинська районна лікарня", "latitude": 48.9718539, "longitude": 23.9913744, "source": "osm", "_tags": {"amenity": "hospital", "name": "Долинська районна лікарня", "name:uk": "Долинська районна лікарня", "type": "multipolygon"}}, {"name": "Міська клінічна лікарня №1", "latitude": 48.9121262, "longitude": 24.7044479, "source": "osm", "_tags": {"amenity": "hospital", "healthcare": "hospital", "name": "Міська клінічна лікарня №1", "name:en": "City Clinical Hospital №1", "name:uk": "Міська клінічна лікарня №1", "type": "multipolygon"}}, {"name": "Обласна дитяча клінічна лікарня", "latitude": 48.9064381, "longitude": 24.7113253, "source": "osm", "_tags": {"amenity": "hospital", "healthcare": "hospital", "name": "Обласна дитяча клінічна лікарня", "name:uk": "Обласна дитяча клінічна лікарня", "type": "multipolygon"}}, {"name": "Обласний фтизіопульмонологічний центр", "latitude": 48.9231267, "longitude": 24.7204787, "source": "osm", "_tags": {"amenity": "hospital", "email": "ofpc@ukr.net", "healthcare": "hospital", "name": "Обласний фтизіопульмонологічний центр", "name:en": "Oblast Phthisiopulmonological Center", "name:uk": "Обласний фтизіопульмонологічний центр", "type": "multipolygon", "website": "https://ofpc.if.ua/"}}]