[{"name": "", "latitude": 48.5292211, "longitude": 25.0406977, "source": "osm", "_tags": {"amenity": "hospital"}}, {"name": "Стоматологія", "latitude": 48.6368653, "longitude": 25.7333369, "source": "osm", "_tags": {"amenity": "hospital", "name": "Стоматологія", "name:uk": "Стоматологія"}}, {"name": "Стоматологія", "latitude": 48.6378227, "longitude": 25.7339646, "source": "osm", "_tags": {"amenity": "hospital", "name": "Стоматологія", "name:ru": "Стоматология", "name:uk": "Стоматологія"}}, {"name": "Аптека", "latitude": 48.5393016, "longitude": 25.0462057, "source": "osm", "_tags": {"amenity": "hospital", "name": "Аптека", "name:uk": "Аптека"}}, {"name": "", "latitude": 48.5230375, "longitude": 25.8404424, "source": "osm", "_tags": {"amenity": "hospital"}}, {"name": "", "latitude": 48.5303111, "longitude": 25.0531685, "source": "osm", "_tags": {"amenity": "hospital"}}, {"name": "Медичний пункт", "latitude": 48.4705668, "longitude": 25.4220261, "source": "osm", "_tags": {"amenity": "hospital", "emergency": "no", "name": "Медичний пункт", "name:uk": "Медичний пункт"}}, {"name": "Микулинецька обласна лікарня реабілітації", "latitude": 49.3975868, "longitude": 25.6068001, "source": "osm", "_tags": {"amenity": "hospital", "name": "Микулинецька обласна лікарня реабілітації", "name:uk": "Микулинецька обласна лікарня реабілітації"}}, {"name": "Онкодиспансер", "latitude": 48.5352278, "longitude": 25.0318535, "source": "osm", "_tags": {"amenity": "hospital", "name": "Онкодиспансер", "name:uk": "Онкодиспансер"}}, {"name": "Швидка допомога", "latitude": 49.1213582, "longitude": 25.8904136, "source": "osm", "_tags": {"amenity": "hospital", "name": "Швидка допомога", "name:uk": "Швидка допомога"}}, {"name": "Пологовий будинок", "latitude": 49.29439, "longitude": 25.6900491, "source": "osm", "_tags": {"amenity": "hospital", "name": "Пологовий будинок", "name:uk": "Пологовий будинок"}}, {"name": "ФАП", "latitude": 48.4385208, "longitude": 25.280436, "source": "osm", "_tags": {"amenity": "hospital", "emergency": "no", "healthcare": "hospital", "name": "ФАП", "name:uk": "ФАП"}}, {"name": "Медпункт", "latitude": 49.1202277, "longitude": 25.5161453, "source": "osm", "_tags": {"amenity": "hospital", "healthcare": "hospital", "name": "Медпункт", "name:uk": "Медпункт"}}, {"name": "ФАП", "latitude": 48.9902192, "longitude": 25.9232076, "source": "osm", "_tags": {"amenity": "hospital", "healthcare": "hospital", "name": "ФАП", "name:uk": "ФАП"}}, {"name": "Неробочий госпіталь", "latitude": 48.5279694, "longitude": 25.0433066, "source": "osm", "_tags": {"addr:housenumber": "76", "addr:street": "вулиця Романа Шухевича", "amenity": "hospital", "building": "yes", "destroyed:building": "yes", "healthcare": "hospital", "name": "Неробочий госпіталь", "name:uk": "Неробочий госпіталь"}}, {"name": "", "latitude": 48.5244947, "longitude": 25.0561517, "source": "osm", "_tags": {"amenity": "hospital", "building": "yes"}}, {"name": "", "latitude": 48.5241867, "longitude": 25.0566181, "source": "osm", "_tags": {"addr:housenumber": "26", "amenity": "hospital", "building": "yes"}}, {"name": "Лікарня", "latitude": 48.9989056, "longitude": 25.8465389, "source": "osm", "_tags": {"addr:city": "Заводське", "addr:housenumber": "7", "addr:postcode": "48523", "addr:street": "Галицька вулиця", "amenity": "hospital", "building": "yes", "name": "Лікарня", "name:uk": "Лікарня"}}, {"name": "Районна лікарня", "latitude": 48.4514643, "longitude": 25.5513639, "source": "osm", "_tags": {"addr:city": "Снятин", "addr:housenumber": "6", "addr:postcode": "78300", "addr:street": "вулиця Василя Стефаника", "amenity": "hospital", "healthcare": "hospital", "name": "Районна лікарня", "name:uk": "Районна лікарня"}}, {"name": "Копичинецька комунальна районна лікарня", "latitude": 49.1211459, "longitude": 25.8913164, "source": "osm", "_tags": {"addr:city": "Копичинці", "addr:housenumber": "106", "addr:postcode": "48260", "addr:state": "Тернопільська область", "addr:street": "вулиця Тараса Шевченка", "amenity": "hospital", "barrier": "fence", "name": "Копичинецька комунальна районна лікарня", "name:uk": "Копичинецька комунальна районна лікарня"}}, {"name": "Пологовий будинок", "latitude": 48.4679351, "longitude": 25.2801778, "source": "osm", "_tags": {"amenity": "hospital", "building": "yes", "name": "Пологовий будинок", "name:uk": "Пологовий будинок"}}, {"name": "", "latitude": 48.9441476, "longitude": 25.7456978, "source": "osm", "_tags": {"amenity": "hospital", "building": "yes"}}, {"name": "", "latitude": 48.6639015, "longitude": 25.4911473, "source": "osm", "_tags": {"amenity": "hospital", "building": "yes", "building:levels": "3"}}, {"name": "", "latitude": 48.6643957, "longitude": 25.4918692, "source": "osm", "_tags": {"amenity": "hospital", "building": "yes", "building:levels": "2"}}, {"name": "", "latitude": 49.2128276, "longitude": 25.9228636, "source": "osm", "_tags": {"addr:city": "Хоростків", "amenity": "hospital", "building": "yes"}}, {"name": "", "latitude": 48.8449837, "longitude": 25.7238186, "source": "osm", "_tags": {"amenity": "hospital"}}, {"name": "", "latitude": 49.295645, "longitude": 25.6896227, "source": "osm", "_tags": {"addr:housenumber": "21", "addr:street": "вулиця Січових Стрільців", "amenity": "hospital", "building": "hospital"}}, {"name": "Лікувальний корпус № 3", "latitude": 49.3907391, "longitude": 25.5732712, "source": "osm", "_tags": {"alt_name": "Лікувально-діагностичне відділення № 3", "amenity": "hospital", "building": "yes", "name": "Лікувальний корпус № 3", "name:uk": "Лікувальний корпус № 3"}}, {"name": "Корпус № 4", "latitude": 49.3919259, "longitude": 25.5715893, "source": "osm", "_tags": {"amenity": "hospital", "building": "yes", "name": "Корпус № 4", "name:uk": "Корпус № 4"}}, {"name": "Корпус № 2", "latitude": 49.3912861, "longitude": 25.5736559, "source": "osm", "_tags": {"addr:housenumber": "22", "addr:street": "вулиця Лесі Українки", "amenity": "hospital", "building": "yes", "name": "Корпус № 2", "name:uk": "Корпус № 2"}}, {"name": "Корпус № 1", "latitude": 49.3911073, "longitude": 25.5722491, "source": "osm", "_tags": {"amenity": "hospital", "building": "yes", "building:levels": "5", "name": "Корпус № 1", "name:uk": "Корпус № 1"}}, {"name": "Терапевтичне відділення ЦРКЛ", "latitude": 49.0868519, "longitude": 25.1685956, "source": "osm", "_tags": {"amenity": "hospital", "building": "yes", "name": "Терапевтичне відділення ЦРКЛ", "name:uk": "Терапевтичне відділення ЦРКЛ"}}, {"name": "", "latitude": 48.5898627, "longitude": 25.8865717, "source": "osm", "_tags": {"amenity": "hospital"}}, {"name": "", "latitude": 48.6649124, "longitude": 25.4906947, "source": "osm", "_tags": {"addr:housenumber": "24", "amenity": "hospital", "building": "yes", "building:levels": "4"}}, {"name": "Гвіздецька районна лікарня № 2", "latitude": 48.580118, "longitude": 25.282894, "source": "osm", "_tags": {"amenity": "hospital", "emergency": "yes", "name": "Гвіздецька районна лікарня № 2", "name:uk": "Гвіздецька районна лікарня № 2"}}, {"name": "", "latitude": 49.212731, "longitude": 25.922725, "source": "osm", "_tags": {"amenity": "hospital"}}, {"name": "Медичний пункт", "latitude": 49.3436292, "longitude": 25.6830524, "source": "osm", "_tags": {"addr:postcode": "48135", "addr:street": "вулиця Слобода", "amenity": "hospital", "building:levels": "1", "healthcare": "hospital", "name": "Медичний пункт", "name:uk": "Медичний пункт"}}, {"name": "", "latitude": 48.6571473, "longitude": 25.017739, "source": "osm", "_tags": {"amenity": "hospital"}}, {"name": "", "latitude": 49.0506874, "longitude": 25.6716037, "source": "osm", "_tags": {"amenity": "hospital", "building": "yes"}}, {"name": "Буданівська обласна психоневрологічна лікарня", "latitude": 49.1615852, "longitude": 25.7088984, "source": "osm", "_tags": {"amenity": "hospital", "building": "hospital", "name": "Буданівська обласна психоневрологічна лікарня", "name:uk": "Буданівська обласна психоневрологічна лікарня"}}, {"name": "Кіцманська районна лікарня", "latitude": 48.4311675, "longitude": 25.7616337, "source": "osm", "_tags": {"amenity": "hospital", "emergency": "yes", "healthcare": "hospital", "name": "Кіцманська районна лікарня", "name:ru": "Кицманская районная больница", "name:uk": "Кіцманська районна лікарня"}}, {"name": "Лікарня", "latitude": 48.7340008, "longitude": 25.8038973, "source": "osm", "_tags": {"addr:city": "Блищанка", "addr:housenumber": "15", "addr:street": "Українська вулиця", "amenity": "hospital", "building:levels": "2", "name": "Лікарня", "name:uk": "Лікарня"}}, {"name": "Амбулоторія", "latitude": 49.2568777, "longitude": 25.6948637, "source": "osm", "_tags": {"amenity": "hospital", "healthcare": "hospital", "name": "Амбулоторія", "name:uk": "Амбулоторія"}}, {"name": "Протитуберкульозний диспансер", "latitude": 48.6609007, "longitude": 25.5146417, "source": "osm", "_tags": {"amenity": "hospital", "name": "Протитуберкульозний диспансер", "name:uk": "Протитуберкульозний диспансер"}}, {"name": "Коломийська центральна районна лікарня", "latitude": 48.5237929, "longitude": 25.0546746, "source": "osm", "_tags": {"addr:housenumber": "26", "addr:street": "вулиця Родини Крушельницьких", "amenity": "hospital", "healthcare": "hospital", "name": "Коломийська центральна районна лікарня", "name:uk": "Коломийська центральна районна лікарня", "phone": "+380 3433 24 492"}}, {"name": "", "latitude": 48.5253559, "longitude": 25.057771, "source": "osm", "_tags": {"amenity": "hospital", "healthcare": "hospital"}}, {"name": "", "latitude": 48.6546051, "longitude": 25.714915, "source": "osm", "_tags": {"amenity": "hospital", "emergency": "yes", "healthcare": "hospital"}}, {"name": "Амбулаторія", "latitude": 49.2122302, "longitude": 25.7306373, "source": "osm", "_tags": {"addr:housenumber": "21", "addr:street": "вулиця Крушельницького", "amenity": "hospital", "building": "yes", "name": "Амбулаторія", "name:uk": "Амбулаторія"}}, {"name": "Амбулаторія", "latitude": 49.166543, "longitude": 25.5818159, "source": "osm", "_tags": {"addr:housenumber": "127Г", "addr:street": "Центральна вулиця", "amenity": "hospital", "building": "yes", "name": "Амбулаторія", "name:uk": "Амбулаторія"}}, {"name": "", "latitude": 48.5471668, "longitude": 25.1324767, "source": "osm", "_tags": {"amenity": "hospital", "healthcare": "hospital"}}, {"name": "", "latitude": 49.0266117, "longitude": 25.7901007, "source": "osm", "_tags": {"amenity": "hospital", "building": "yes"}}, {"name": "", "latitude": 49.0166666, "longitude": 25.8002338, "source": "osm", "_tags": {"amenity": "hospital"}}, {"name": "Чортківська ЦРЛ", "latitude": 49.0163404, "longitude": 25.7907554, "source": "osm", "_tags": {"amenity": "hospital", "name": "Чортківська ЦРЛ", "name:uk": "Чортківська ЦРЛ", "official_name": "Чортківська центральна районна лікарня"}}, {"name": "", "latitude": 49.0156898, "longitude": 25.7877147, "source": "osm", "_tags": {"amenity": "hospital"}}, {"name": "", "latitude": 49.0141369, "longitude": 25.7869904, "source": "osm", "_tags": {"amenity": "hospital"}}, {"name": "Пологовий будинок", "latitude": 49.0206844, "longitude": 25.7870932, "source": "osm", "_tags": {"amenity": "hospital", "name": "Пологовий будинок", "name:uk": "Пологовий будинок"}}, {"name": "", "latitude": 49.2914605, "longitude": 25.3703715, "source": "osm", "_tags": {"amenity": "hospital", "healthcare": "hospital"}}, {"name": "Монастириська міська лікарня", "latitude": 49.08843, "longitude": 25.1647774, "source": "osm", "_tags": {"amenity": "hospital", "emergency": "yes", "healthcare": "hospital", "name": "Монастириська міська лікарня", "name:uk": "Монастириська міська лікарня", "website": "https://monastr.crl.net.ua"}}, {"name": "Лікарня", "latitude": 48.4688535, "longitude": 25.2851452, "source": "osm", "_tags": {"amenity": "hospital", "building": "hospital", "name": "Лікарня", "name:uk": "Лікарня", "type": "multipolygon"}}, {"name": "Тлумацька центральна районна лікарня", "latitude": 48.8718096, "longitude": 24.9948439, "source": "osm", "_tags": {"amenity": "hospital", "name": "Тлумацька центральна районна лікарня", "name:uk": "Тлумацька центральна районна лікарня", "type": "multipolygon"}}, {"name": "Лікарня", "latitude": 49.2948248, "longitude": 25.6902854, "source": "osm", "_tags": {"amenity": "hospital", "name": "Лікарня", "name:uk": "Лікарня", "note": "вулиця Січ.Стрільців, 27|27/а|27/б|27/в|29|29/а", "type": "multipolygon"}}, {"name": "КНП Заліщицька центральна міська лікарня", "latitude": 48.6484774, "longitude": 25.7320418, "source": "osm", "_tags": {"addr:housenumber": "86", "addr:street": "вулиця Степана Бандери", "amenity": "hospital", "name": "КНП Заліщицька центральна міська лікарня", "name:uk": "КНП Заліщицька центральна міська лікарня", "type": "multipolygon"}}, {"name": "Обертинська районна лікарня", "latitude": 48.6929356, "longitude": 25.1734681, "source": "osm", "_tags": {"amenity": "hospital", "name": "Обертинська районна лікарня", "name:uk": "Обертинська районна лікарня", "type": "multipolygon"}}, {"name": "Госпіталь інвалідів війни", "latitude": 48.6403014, "longitude": 25.7393146, "source": "osm", "_tags": {"amenity": "hospital", "name": "Госпіталь інвалідів війни", "name:uk": "Госпіталь інвалідів війни", "official_name": "Комунальне некомерційне підприємство Заліщицький обласний госпіталь інвалідів війни та реалібітованих Тернопільської обласної ради", "type": "multipolygon"}}]