[{"name": "", "latitude": 48.682878, "longitude": -3.9964775, "source": "osm", "_tags": {"amenity": "hospital", "phone": "+33298690550", "ref:FR:FINESS": "290016724", "ref:FR:SIRET": "26290009500155", "source": "Le ministère des solidarités et de la santé - 2023-09", "type:FR:FINESS": "355"}}, {"name": "", "latitude": 48.5755051, "longitude": -3.8279431, "source": "osm", "_tags": {"amenity": "hospital", "phone": "+33298626160", "ref:FR:FINESS": "290024090", "ref:FR:SIRET": "26290009500247", "source": "Le ministère des solidarités et de la santé - 2023-11", "type:FR:FINESS": "355"}}, {"name": "MRC Morlaix Saint-Fiacre", "latitude": 48.5634108, "longitude": -3.8280071, "source": "osm", "_tags": {"amenity": "hospital", "fax": "+33298632628", "healthcare:speciality": "nephrology", "name": "MRC Morlaix Saint-Fiacre", "operator": "AUB Santé", "phone": "+33298631672", "ref:FR:FINESS": "290018555", "ref:FR:SIRET": "30854923700185", "source": "cadastre-dgi-fr source : Direction Générale des Impôts - Cadastre. Mise à jour : 2023", "type:FR:FINESS": "146"}}, {"name": "Centre Hospitalier des Pays de Morlaix", "latitude": 48.5694949, "longitude": -3.8306165, "source": "osm", "_tags": {"addr:city": "Plourin-lès-Morlaix", "addr:housenumber": "15", "addr:postcode": "29600", "addr:street": "Rue de Kersaint-Gilly", "amenity": "hospital", "name": "Centre Hospitalier des Pays de Morlaix", "phone": "+33 2 98 62 61 60", "source": "cadastre-dgi-fr source : Direction Générale des Impôts - Cadastre. Mise à jour : 2023", "website": "https://www.ch-morlaix.fr/"}}, {"name": "Centre de santé sexuelle de Lannion", "latitude": 48.7220108, "longitude": -3.464703, "source": "osm", "_tags": {"amenity": "hospital", "description": "accès direct par passerelle extérieure", "healthcare": "hospital", "healthcare:speciality": "blood_check;gynaecology;community", "name": "Centre de santé sexuelle de Lannion", "operator": "CH LANNION", "operator:type": "public"}}, {"name": "Centre hospitalier des Pays de Morlaix", "latitude": 48.570405, "longitude": -3.8327882, "source": "osm", "_tags": {"amenity": "hospital", "email": "info@ch-morlaix.fr", "emergency": "yes", "healthcare": "hospital", "healthcare:speciality": "intensive", "name": "Centre hospitalier des Pays de Morlaix", "name:br": "Pennospital Bro Montroulez", "operator:type": "public", "phone": "+33 2 98 62 61 60", "ref:FR:FINESS": "290000033", "source": "cadastre-dgi-fr source : Direction Générale des Impôts - Cadastre;mise à jour : 2009", "source:name:br": "proper translation", "type:FR:FINESS": "355", "website": "https://www.ch-morlaix.fr/", "wikidata": "Q30270135"}}, {"name": "Bâtiment \"Les mouettes\" de la maison Saint-Luc", "latitude": 48.7211444, "longitude": -3.9921511, "source": "osm", "_tags": {"addr:city": "Roscoff", "addr:housenumber": "144", "addr:postcode": "29684", "addr:street": "Rue de la Marquise de Kergariou", "amenity": "hospital", "healthcare": "hospital", "healthcare:speciality": "cardiology", "name": "Bâtiment \"Les mouettes\" de la maison Saint-Luc", "operator": "Fondation ILDYS", "operator:type": "private", "source": "cadastre-dgi-fr source : Direction Générale des Impôts - Cadastre. Mise à jour : 2010;survey", "wheelchair": "yes"}}, {"name": "Maison Saint-Luc - Fondation ILDYS", "latitude": 48.7214489, "longitude": -3.9916455, "source": "osm", "_tags": {"addr:city": "Roscoff", "addr:housenumber": "144", "addr:postcode": "29684", "addr:street": "Rue de la Marquise de Kergariou", "amenity": "hospital", "building": "church", "denomination": "catholic", "healthcare": "hospital", "healthcare:speciality": "radiology", "name": "Maison Saint-Luc - Fondation ILDYS", "operator": "Fondation ILDYS", "operator:type": "private", "source": "cadastre-dgi-fr source : Direction Générale des Impôts - Cadastre. Mise à jour : 2010;survey", "wheelchair": "yes"}}, {"name": "Maison Saint-Luc, Fondation ILDYS", "latitude": 48.7215432, "longitude": -3.9917139, "source": "osm", "_tags": {"addr:city": "Roscoff", "addr:housenumber": "144", "addr:postcode": "29684", "addr:street": "Rue de la Marquise de Kergariou", "amenity": "clinic", "building": "hospital", "building:levels": "3", "building:levels:underground": "1", "description": "La Maison Saint-Luc accueille des patients en soins de suite et en réadaptation cardiovasculaire. Le site héberge également l’un des 2 centres de santé de la Fondation qui proposent des consultations de médecine générale et en nutrition et tabacologie", "fax": "+33298612764", "healthcare": "hospital", "name": "Maison Saint-Luc, Fondation ILDYS", "operator": "Fondation ILDYS", "phone": "+33298292525", "ref:FR:FINESS": "290000983", "ref:FR:SIRET": "77762928800039", "source": "Le ministère des solidarités et de la santé - 2023-09", "type:FR:FINESS": "109", "website": "https://www.ildys.org/etablissements/maison-saint-luc/", "wheelchair": "yes"}}, {"name": "", "latitude": 48.6829338, "longitude": -3.9966495, "source": "osm", "_tags": {"amenity": "hospital", "building": "hospital", "ref:FR:FINESS": "290016724", "source": "cadastre-dgi-fr source : Direction Générale des Impôts - Cadastre. Mise à jour : 2010"}}, {"name": "Clinique d'Addictologie", "latitude": 48.6293693, "longitude": -3.2994655, "source": "osm", "_tags": {"amenity": "hospital", "building": "yes", "check_date": "2024-05-07", "name": "Clinique d'Addictologie", "name:br": "Klinikenn Aaiktologiezh", "source": "cadastre-dgi-fr source : Direction Générale des Impôts - Cadastre. Mise à jour : 2010"}}, {"name": "Centre hospitalier de Guingamp", "latitude": 48.567396, "longitude": -3.1454255, "source": "osm", "_tags": {"amenity": "hospital", "emergency": "yes", "fax": "+33 2 96 44 56 56", "healthcare": "hospital", "name": "Centre hospitalier de Guingamp", "operator:type": "public", "phone": "+33 2 96 44 56 56", "ref:FR:FINESS": "220000343", "type:FR:FINESS": "355", "website": "http://www.ch-guingamp.fr/"}}, {"name": "Centre hospitalier de Tréguier", "latitude": 48.7806497, "longitude": -3.2347922, "source": "osm", "_tags": {"amenity": "hospital", "healthcare": "hospital", "name": "Centre hospitalier de Tréguier", "ref:FR:FINESS": "220001259", "source": "Le ministère des solidarités et de la santé - 03/2019", "type:FR:FINESS": "355", "website": "http://www.ch-treguier.fr/", "wheelchair": "yes"}}, {"name": "Centre Hospitalier Lannion-Trestel", "latitude": 48.8222002, "longitude": -3.3497033, "source": "osm", "_tags": {"alt_name": "Centre Hélio-Marin", "amenity": "hospital", "healthcare": "hospital", "name": "Centre Hospitalier Lannion-Trestel", "ref:FR:FINESS": "220012884", "type:FR:FINESS": "355"}}, {"name": "Centre hospitalier Bon Sauveur", "latitude": 48.6306357, "longitude": -3.2955812, "source": "osm", "_tags": {"amenity": "hospital", "healthcare": "hospital", "healthcare:speciality": "psychiatry", "name": "Centre hospitalier Bon Sauveur", "name:br": "Ospital ar Gwir Salver", "ref:FR:FINESS": "220000608", "source:name:br": "ofis publik ar brezhoneg", "type:FR:FINESS": "292"}}, {"name": "Centre hospitalier de Lannion", "latitude": 48.7219669, "longitude": -3.4644414, "source": "osm", "_tags": {"amenity": "hospital", "emergency": "yes", "fax": "+33 2 96 05 70 84", "healthcare": "hospital", "name": "Centre hospitalier de Lannion", "name:br": "Pennospital Lannuon", "phone": "+33 2 96 05 71 11", "ref:FR:FINESS": "220000368", "source": "cadastre-dgi-fr source : Direction Générale des Impôts - Cadastre. Mise à jour : 2016 + Bing", "source:name:br": "proper translation", "type:FR:FINESS": "355", "website": "https://www.ch-lannion.fr/"}}, {"name": "Polyclinique du Trégor", "latitude": 48.7244486, "longitude": -3.4424882, "source": "osm", "_tags": {"amenity": "hospital", "healthcare": "hospital", "name": "Polyclinique du Trégor", "name:br": "Liesklinikenn Treger", "ref:FR:FINESS": "220000111", "source": "cadastre-dgi-fr source : Direction Générale des Impôts - Cadastre. Mise à jour : 2016 + Bing", "source:name:br": "ofis publik ar brezhoneg", "type:FR:FINESS": "365", "wheelchair": "yes"}}, {"name": "Centre hospitalier de Guervénan", "latitude": 48.5218388, "longitude": -3.7345058, "source": "osm", "_tags": {"amenity": "hospital", "healthcare": "hospital", "name": "Centre hospitalier de Guervénan", "name:br": "Pennospital Gwervenan", "phone": "+33 2 98 78 78 78", "ref:FR:FINESS": "290000553", "source:name:br": "proper translation", "type:FR:FINESS": "355"}}, {"name": "Centre hospitalier de Lanmeur", "latitude": 48.6470159, "longitude": -3.7093314, "source": "osm", "_tags": {"addr:city": "Lanmeur", "addr:housenumber": "9", "addr:postcode": "29620", "addr:street": "Rue de Traonbézéden", "amenity": "hospital", "healthcare": "hospital", "healthcare:speciality": "geriatrics", "name": "Centre hospitalier de Lanmeur", "name:br": "Pennospital Lanneur", "phone": "+33 2 98 78 84 84", "ref:FR:FINESS": "290000389", "source": "https://www.lanmeur.fr/index.php/vivre-a-lanmeur/vie-sociale-et-sante/176-centre-hospitalier-de-lanmeur", "source:name:br": "proper translation"}}, {"name": "Centre de Perharidy", "latitude": 48.7234272, "longitude": -4.0060797, "source": "osm", "_tags": {"amenity": "hospital", "building": "yes", "name": "Centre de Perharidy", "name:br": "Kreizenn Perc'haridi", "ref:FR:FINESS": "290000975", "source:name:br": "proper translation", "type": "multipolygon", "type:FR:FINESS": "101"}}]