[{"name": "Clinique Saint-Dominique", "latitude": 48.7464387, "longitude": -0.5624879, "source": "osm", "_tags": {"addr:city": "Flers", "addr:housenumber": "99", "addr:postcode": "61100", "amenity": "hospital", "healthcare": "hospital", "name": "Clinique Saint-Dominique", "phone": "+33 2 33 98 25 15", "ref:FR:FINESS": "610008815", "source": "Le ministère des solidarités et de la santé - 03/2019"}}, {"name": "Ferme thérapeutique", "latitude": 49.1003524, "longitude": -0.3795577, "source": "osm", "_tags": {"amenity": "hospital", "contact:city": "Saint-Martin-de-May", "contact:housenumber": "4", "contact:place": "May-sur-Orne", "contact:postcode": "14320", "contact:street": "Rue de la Mine", "healthcare": "hospital", "name": "Ferme thérapeutique", "operator": "Etablissement de santé public de Caen", "operator:website": "https://www.epsm-caen.fr/", "phone": "+33 2 31 79 99 90", "ref:FR:FINESS": "140017955", "ref:FR:SIRET": "26140127700155", "source": "Le ministère des solidarités et de la santé - 2024-01", "type:FR:FINESS": "292"}}, {"name": "Hôpital de Jour Adulte - Pôle Calvados Sud - Secteur Vire Évercy", "latitude": 48.8294968, "longitude": -0.8863316, "source": "osm", "_tags": {"addr:city": "Vire Normandie", "addr:housenumber": "17", "addr:postcode": "14500", "addr:street": "Rue Saint-Clair", "healthcare": "hospital", "name": "Hôpital de Jour Adulte - Pôle Calvados Sud - Secteur Vire Évercy"}}, {"name": "Centre Psychotérapique de l'Orne", "latitude": 48.7467635, "longitude": -0.5416112, "source": "osm", "_tags": {"amenity": "hospital", "healthcare": "hospital", "name": "Centre Psychotérapique de l'Orne", "ref:FR:FINESS": "610788689", "type:FR:FINESS": "292"}}, {"name": "Centre Hospitalier de Falaise", "latitude": 48.8904638, "longitude": -0.2041788, "source": "osm", "_tags": {"addr:city": "Falaise", "addr:postcode": "14700", "addr:street": "Boulevard des Bercagnes", "amenity": "hospital", "capacity": "620", "contact:phone": "+33 2 31 40 40 40", "emergency": "yes", "fax": "+33 2 31 40 41 47", "healthcare": "hospital", "name": "Centre Hospitalier de Falaise", "operator:type": "public", "phone": "+33 2 31 40 40 40", "ref:FR:FINESS": "140000233", "ref:FR:NAF": "86.10Z", "ref:FR:SIRET": "26140100400013", "source": "cadastre-dgi-fr source : Direction Générale des Impôts - Cadastre. Mise à jour : 2011", "type:FR:FINESS": "355", "website": "http://www.ch-falaise.fr/"}}, {"name": "Hôpital de Mortain", "latitude": 48.6469545, "longitude": -0.9393297, "source": "osm", "_tags": {"amenity": "hospital", "check_date": "2024-12-23", "name": "Hôpital de Mortain", "ref:FR:FINESS": "500000302", "source": "cadastre-dgi-fr source : Direction Générale des Impôts - Cadastre. Mise à jour : 2010", "wikidata": "Q92062369"}}, {"name": "Polyclinique du Parc", "latitude": 49.1679716, "longitude": -0.3450825, "source": "osm", "_tags": {"addr:city": "Caen", "addr:housenumber": "20", "addr:postcode": "14000", "addr:street": "Avenue Capitaine Georges Guynemer", "amenity": "hospital", "emergency": "yes", "fax": "+33 2 31 82 83 98", "healthcare": "hospital", "name": "Polyclinique du Parc", "operator": "Elsan", "operator:type": "private", "operator:wikidata": "Q48747106", "phone": "+33231828282", "ref:FR:FINESS": "140016759", "source": "knowledge", "type:FR:FINESS": "365", "website": "https://www.elsan.care/fr/polyclinique-parc-caen"}}, {"name": "Hôpital de jour de Maltot", "latitude": 49.1291489, "longitude": -0.4217284, "source": "osm", "_tags": {"addr:city": "Maltot", "addr:housenumber": "13", "addr:postcode": "14930", "addr:street": "Rue du Dorset", "amenity": "hospital", "building": "yes", "name": "Hôpital de jour de Maltot", "operator": "Établissement public de santé mentale de Caen", "phone": "+33231267884", "ref:FR:FINESS": "140017963", "ref:FR:SIRET": "26140127700163", "source": "Le ministère des solidarités et de la santé - 2024-01", "type:FR:FINESS": "292"}}, {"name": "Addictologie", "latitude": 48.8913154, "longitude": -0.2031995, "source": "osm", "_tags": {"amenity": "hospital", "building": "yes", "contact:phone": "+33231404130", "healthcare": "hospital", "name": "Addictologie", "opening_hours": "Mo 12:00-16:30; week 1-53/2 We 12:00-15:00; week 2-52/2 We 14:00-16:00", "ref:FR:FINESS": "140027483", "social_facility": "outreach", "social_facility:for": "juvenile", "source": "cadastre-dgi-fr source : Direction Générale des Impôts - Cadastre. Mise à jour : 2011", "type:FR:FINESS": "228"}}, {"name": "Hopital Psychiatrique Nerval", "latitude": 49.2847705, "longitude": -0.707939, "source": "osm", "_tags": {"addr:city": "Bayeux", "addr:postcode": "14400", "addr:street": "Boulevard d'Eindhoven", "amenity": "hospital", "building": "hospital", "healthcare": "hospital", "name": "Hopital Psychiatrique Nerval", "source": "cadastre-dgi-fr source : Direction Générale des Impôts - Cadastre. Mise à jour : 2011"}}, {"name": "Site Henry Dunant", "latitude": 49.280998, "longitude": -0.7046965, "source": "osm", "_tags": {"AUCAME:ID_Source": "140002445", "AUCAME:ID_Unique": "03010102 0019", "addr:housenumber": "2", "addr:street": "Rue d'Aprigny", "amenity": "hospital", "building": "yes", "healthcare": "hospital", "name": "Site Henry Dunant", "ref:FR:FINESS": "140002445", "source": "cadastre-dgi-fr source : Direction Générale des Impôts - Cadastre. Mise à jour : 2011"}}, {"name": "Centre Esquirol", "latitude": 49.206338, "longitude": -0.351307, "source": "osm", "_tags": {"amenity": "hospital", "building": "yes", "emergency": "no", "healthcare": "hospital", "name": "Centre Esquirol", "ref:FR:FINESS": "140024266", "source": "cadastre-dgi-fr source : Direction Générale des Impôts - Cadastre. Mise à jour : 2012", "type:FR:FINESS": "444"}}, {"name": "Hôpital privé Saint-Martin", "latitude": 49.19816, "longitude": -0.3806705, "source": "osm", "_tags": {"amenity": "hospital", "building": "hospital", "emergency": "yes", "fax": "+33 2 31 43 31 25", "healthcare": "hospital", "healthcare:speciality": "intensive", "name": "Hôpital privé Saint-Martin", "operator": "Ramsay Santé", "operator:type": "private", "operator:wikidata": "Q3123085", "phone": "+33 8 26 46 14 00", "ref:FR:FINESS": "140003278", "source": "cadastre-dgi-fr source : Direction Générale des Impôts - Cadastre. Mise à jour : 2012", "type:FR:FINESS": "365", "website": "https://hopital-prive-saint-martin-caen.ramsaygds.fr/", "wheelchair": "yes"}}, {"name": "Centre Hospitalier Maubert", "latitude": 48.7401714, "longitude": -0.5740236, "source": "osm", "_tags": {"amenity": "hospital", "healthcare": "hospital", "name": "Centre Hospitalier Maubert", "operator": "GHT Les Collines de Normandie", "ref:FR:FINESS": "610788325", "source": "Le ministère des solidarités et de la santé - 03/2019", "type:FR:FINESS": "355", "website": "https://ght-collinesdenormandie.fr/accueil/centre-hospitalier-jacques-monod-flers/"}}, {"name": "Centre Hospitalier Intercommunal des Andaines - Site de la Ferté-Macé", "latitude": 48.5977132, "longitude": -0.3494449, "source": "osm", "_tags": {"amenity": "hospital", "emergency": "yes", "fax": "+33 2 33 30 50 59", "healthcare": "hospital", "name": "Centre Hospitalier Intercommunal des Andaines - Site de la Ferté-Macé", "operator": "CHIC des Andaines", "operator:type": "public", "phone": "+33 2 33 30 50 50", "ref:FR:FINESS": "610780116", "type:FR:FINESS": "355", "website": "https://chic-andaines.fr/fr/index.php"}}, {"name": "Centre de santé mentale d'Évrecy", "latitude": 49.1018697, "longitude": -0.5048947, "source": "osm", "_tags": {"addr:city": "Évrecy", "addr:housenumber": "16", "addr:postcode": "14210", "addr:street": "Rue de la Cabottière", "amenity": "hospital", "building": "yes", "healthcare:speciality": "psychiatry", "name": "Centre de santé mentale d'Évrecy", "official_name": "Centre de Santé Mentale - Pôle Calvados Sud - Secteur Vire Evrecy", "phone": "+33231067010", "ref:FR:FINESS": "140017419", "ref:FR:SIRET": "26140127700122", "source": "Le ministère des solidarités et de la santé - 2024-05", "type:FR:FINESS": "292"}}, {"name": "Centre de Médecine Physique et de Réadaptation de Bagnoles de l’Orne", "latitude": 48.554441, "longitude": -0.4251632, "source": "osm", "_tags": {"addr:city": "Bagnoles-de-l'Orne", "addr:housenumber": "17", "addr:postcode": "61140", "addr:street": "Avenue du Docteur Jacques Aimez", "amenity": "hospital", "emergency": "no", "healthcare": "hospital", "healthcare:speciality": "orthopaedics;cardiology", "name": "Centre de Médecine Physique et de Réadaptation de Bagnoles de l’Orne", "operator": "Association Pierre NOAL", "ref:FR:FINESS": "610784423", "short_name": "CMPR", "type:FR:FINESS": "109", "website": "https://www.cmpr-bagnoles.com/"}}, {"name": "Etablissement Public de Santé Mentale", "latitude": 49.1775892, "longitude": -0.3750701, "source": "osm", "_tags": {"addr:city": "Caen", "addr:housenumber": "15 ter", "addr:postcode": "14000", "addr:street": "Rue Saint-Ouen", "amenity": "hospital", "healthcare": "hospital", "healthcare:speciality": "psychiatry", "name": "Etablissement Public de Santé Mentale", "name:etymology:wikidata": "Q3591567", "ref:FR:FINESS": "140000456", "source": "Le ministère des solidarités et de la santé - 03/2019"}}, {"name": "Centre de Soins de Suite Le parc", "latitude": 48.5508728, "longitude": -0.4189753, "source": "osm", "_tags": {"amenity": "hospital", "healthcare": "hospital", "name": "Centre de Soins de Suite Le parc", "ref:FR:FINESS": "610780371", "type:FR:FINESS": "109"}}, {"name": "Centre Hospitalier Jacques Monod", "latitude": 48.7490384, "longitude": -0.5402104, "source": "osm", "_tags": {"amenity": "hospital", "emergency": "yes", "fax": "+33 2 33 62 62 05", "healthcare": "hospital", "healthcare:speciality": "intensive", "name": "Centre Hospitalier Jacques Monod", "name:etymology:wikidata": "Q231402", "operator:type": "public", "phone": "+33 2 33 62 62 00", "ref:FR:FINESS": "610000119", "type:FR:FINESS": "355", "website": "http://www.ch-flers.fr/"}}, {"name": "Centre Hospitalier Intercommunal des Andaines - Site de Domfront", "latitude": 48.5910406, "longitude": -0.65886, "source": "osm", "_tags": {"amenity": "hospital", "emergency": "no", "fax": "+33 2 33 30 57 00", "name": "Centre Hospitalier Intercommunal des Andaines - Site de Domfront", "operator": "CHIC des Andaines", "operator:type": "public", "phone": "+33 2 33 30 57 57", "ref:FR:FINESS": "610780108", "type:FR:FINESS": "355", "website": "https://chic-andaines.fr/fr/index.php"}}, {"name": "Clinique de la Miséricorde", "latitude": 49.1852937, "longitude": -0.3668969, "source": "osm", "_tags": {"AUCAME:ID_Source": "140002452", "AUCAME:ID_Unique": "03010300 0001", "addr:housenumber": "15", "addr:street": "Fossés Saint-Julien", "amenity": "hospital", "emergency": "limited", "fax": "+33 2 31 38 50 00", "healthcare": "hospital", "name": "Clinique de la Miséricorde", "operator": "Fondation de la Miséricorde", "operator:type": "private", "phone": "+33231152520", "ref:FR:FINESS": "140002452", "ref:FR:SIRET": "34325384500014", "source": "Le ministère des solidarités et de la santé - 2024-05", "type:FR:FINESS": "292", "website": "https://www.fondation-misericorde.fr/les-etablissements/la-clinique-de-la-misericorde/"}}, {"name": "Centre Hospitalier Docteur Louis Lacaine", "latitude": 49.0182507, "longitude": -0.6331258, "source": "osm", "_tags": {"AUCAME:ID_Source": "140017997", "AUCAME:ID_Unique": "03010102 0013", "amenity": "hospital", "contact:city": "Les Monts d'Aunay", "contact:housenumber": "5", "contact:phone": "+33 2 31 71 76 76", "contact:postcode": "14260", "contact:street": "Rue de l'Hôpital", "fax": "+33 2 31 71 76 02", "healthcare": "hospital", "name": "Centre Hospitalier Docteur Louis Lacaine", "operator": "Centre Hospitalier Aunay-Bayeux", "operator:type": "yes", "ref:FR:FINESS": "140000076", "type:FR:FINESS": "355", "website": "http://www.ch-bayeux.fr/"}}, {"name": "Centre hospitalier de Vire", "latitude": 48.8358102, "longitude": -0.8840819, "source": "osm", "_tags": {"amenity": "hospital", "email": "contact@ch-vire.fr", "emergency": "yes", "fax": "+33 2 31 67 65 33", "healthcare": "hospital", "name": "Centre hospitalier de Vire", "operator:type": "public", "phone": "+33 2 31 67 47 47", "ref:FR:FINESS": "140000373", "type:FR:FINESS": "355", "website": "http://www.ch-vire.fr/"}}, {"name": "Clinique Notre-Dame", "latitude": 48.8407893, "longitude": -0.896951, "source": "osm", "_tags": {"AUCAME:ID_Source": "140000290", "AUCAME:ID_Unique": "03010300 0002", "amenity": "hospital", "fax": "+33 2 31 66 64 99", "healthcare": "hospital", "name": "Clinique Notre-Dame", "phone": "+33 2 31 66 64 00", "ref:FR:FINESS": "140000290", "source": "cadastre-dgi-fr source : Direction Générale des Finances Publiques - Cadastre. Mise à jour : 2013", "type:FR:FINESS": "128", "website": "http://cliniquenotredamevire.fr/accueil/"}}, {"name": "SSR Betharram", "latitude": 49.1925251, "longitude": -0.3261789, "source": "osm", "_tags": {"addr:city": "Hérouville-Saint-Clair", "addr:housenumber": "881", "addr:postcode": "14200", "addr:street": "Boulevard de la Paix", "amenity": "hospital", "fax": "+33 2 31 46 85 90", "name": "SSR Betharram", "operator": "Fondation de la Miséricorde", "operator:type": "private", "phone": "+33 2 31 46 85 85", "ref:FR:FINESS": "140000340", "type:FR:FINESS": "109"}}, {"name": "Centre Hospitalier Universitaire Côte de Nacre", "latitude": 49.2059176, "longitude": -0.3551903, "source": "osm", "_tags": {"AUCAME:ID_Source": "140000209", "AUCAME:ID_Unique": "03010102 0010", "addr:postcode": "14033", "addr:street": "Avenue de la Côte de Nacre", "amenity": "hospital", "emergency": "yes", "healthcare": "hospital", "name": "Centre Hospitalier Universitaire Côte de Nacre", "phone": "+33 2 31 06 31 06", "ref:FR:FINESS": "140000209", "source": "http://www.calvados.gouv.fr/IMG/pdf/1_plan_situation.pdf", "type:FR:FINESS": "101", "website": "https://www.chu-caen.fr/", "wikidata": "Q2945740", "wikipedia": "fr:Centre hospitalier régional universitaire de Caen"}}, {"name": "Centre régional anti-cancer François Baclesse", "latitude": 49.2034953, "longitude": -0.3544709, "source": "osm", "_tags": {"amenity": "hospital", "healthcare": "hospital", "name": "Centre régional anti-cancer François Baclesse"}}, {"name": "", "latitude": 49.2065068, "longitude": -0.3603146, "source": "osm", "_tags": {"amenity": "hospital", "healthcare": "hospital"}}, {"name": "Centre Hospitalier Aunay-Bayeux", "latitude": 49.2748519, "longitude": -0.7012851, "source": "osm", "_tags": {"addr:city": "Bayeux", "addr:postcode": "14400", "addr:street": "Rue de Nesmond", "amenity": "hospital", "check_date": "2023-08-21", "emergency": "yes", "fax": "+33231515426", "healthcare": "hospital", "healthcare:speciality": "emergency;maternity;general;gynaecology;cardiology;radiology;internal;ophthalmology;paediatrics;physiatry;surgery;vaccination;pulmonology;community;anaesthetics;rheumatology;urology;diabetology", "name": "Centre Hospitalier Aunay-Bayeux", "phone": "+33231515151", "ref:FR:FINESS": "140024886", "ref:FR:SIRET": "26140092300015", "source": "Le ministère des solidarités et de la santé - 2023-03", "type:FR:FINESS": "355"}}, {"name": "Hôpital privé Saint-Martin", "latitude": 49.1982139, "longitude": -0.3810256, "source": "osm", "_tags": {"amenity": "hospital", "healthcare": "hospital", "name": "Hôpital privé Saint-Martin", "ref:FR:FINESS": "140003278", "type:FR:FINESS": "365", "wheelchair": "yes"}}, {"name": "", "latitude": 49.208353, "longitude": -0.3613434, "source": "osm", "_tags": {"amenity": "hospital", "healthcare": "hospital", "healthcare:speciality": "radiology"}}, {"name": "Clinique Brocéliande", "latitude": 49.1820195, "longitude": -0.4080415, "source": "osm", "_tags": {"amenity": "hospital", "healthcare": "hospital", "name": "Clinique Brocéliande", "opening_hours": "Mo-Su 09:00-12:00, 13:30-18:00", "phone": "+33 2 31 75 83 00", "ref:FR:FINESS": "140025123", "ref:FR:SIRET": "44407627700037", "website": "https://www.inicea.fr/smr/clinique-broceliande-calvados-14000"}}, {"name": "", "latitude": 49.2859466, "longitude": -0.7064985, "source": "osm", "_tags": {"amenity": "hospital", "emergency": "no", "healthcare": "hospital"}}, {"name": "Maison des Adolescents du Calvados", "latitude": 49.1875155, "longitude": -0.3669305, "source": "osm", "_tags": {"amenity": "hospital", "building": "yes", "healthcare": "hospital", "name": "Maison des Adolescents du Calvados", "phone": "+33231152520", "ref:FR:FINESS": "140028127", "ref:FR:SIRET": "26140127700874", "social_facility:for": "juvenile", "source": "Le ministère des solidarités et de la santé - 2024-05", "type": "multipolygon", "type:FR:FINESS": "292"}}, {"name": "Centre François Baclesse", "latitude": 49.2037255, "longitude": -0.3541715, "source": "osm", "_tags": {"amenity": "hospital", "building": "yes", "healthcare": "hospital", "healthcare:speciality": "oncology", "name": "Centre François Baclesse", "ref:FR:FINESS": "140000555", "type": "multipolygon", "type:FR:FINESS": "131", "wheelchair": "yes", "wikidata": "Q2944815", "wikipedia": "fr:Centre François Baclesse"}}]