[{"name": "Evangelisches Diakoniewerk Schwäbisch Hall", "latitude": 49.1247857, "longitude": 9.7422999, "source": "osm", "_tags": {"addr:city": "Schwäbisch Hall", "addr:country": "DE", "addr:housenumber": "1", "addr:postcode": "74523", "addr:street": "Am Mutterhaus", "alt_name": "Diak", "amenity": "hospital", "contact:phone": "+49 791 753-0", "contact:website": "http://www.dasdiak.de/", "fixme": "obsolet, stattdessen Gebäude und area gemappt. Kann diesen Punkt nicht löschen. warum?", "healthcare": "hospital", "lastcheck": "2016-11-19", "name": "Evangelisches Diakoniewerk Schwäbisch Hall", "wheelchair": "yes", "wikidata": "Q1381280"}}, {"name": "Winghofer Medicum Klinik", "latitude": 48.4803926, "longitude": 8.9484496, "source": "osm", "_tags": {"addr:city": "Rottenburg am Neckar", "addr:country": "DE", "addr:housenumber": "38", "addr:postcode": "72108", "addr:street": "Röntgenstraße", "amenity": "hospital", "healthcare": "hospital", "name": "Winghofer Medicum Klinik", "website": "http://winghofer-medicum.de", "wheelchair": "yes", "wikidata": "Q30270618"}}, {"name": "Ambulantes Rehazentrum Hess (Neurologie & Orthopädie)", "latitude": 48.9559055, "longitude": 9.1486854, "source": "osm", "_tags": {"addr:city": "Bietigheim-Bissingen", "addr:housenumber": "7-9", "addr:postcode": "74321", "addr:street": "Steinheimer Straße", "amenity": "hospital", "healthcare": "hospital", "name": "Ambulantes Rehazentrum Hess (Neurologie & Orthopädie)", "phone": "+49 7142 91030", "toilets:wheelchair": "yes", "website": "https://www.reha-hess.de/", "wheelchair": "yes", "wheelchair:description": "Behindertenparkplätze in der Tiefgarage. Eingang für Rollstühle über den Parkplatz hinterm Haus."}}, {"name": "Winghofer Medicum Praxis", "latitude": 48.4771888, "longitude": 8.9414347, "source": "osm", "_tags": {"addr:city": "Rottenburg am Neckar", "addr:country": "DE", "addr:housenumber": "42", "addr:postcode": "72108", "addr:street": "Winghoferstraße", "amenity": "hospital", "check_date": "2024-03-15", "healthcare": "hospital", "name": "Winghofer Medicum Praxis", "website": "http://winghofer-medicum.de", "wheelchair": "yes"}}, {"name": "Vinzenzklinik", "latitude": 48.5887359, "longitude": 9.7020334, "source": "osm", "_tags": {"amenity": "hospital", "contact:email": "kontakt@vinzenz.de", "contact:phone": "+49 7334 76-0", "contact:website": "http://www.vinzenzklinik.de", "healthcare": "hospital", "name": "Vinzenzklinik", "wheelchair": "yes"}}, {"name": "Klinik am Rathenauplatz", "latitude": 49.1315683, "longitude": 9.2189645, "source": "osm", "_tags": {"addr:city": "Heilbronn", "addr:country": "DE", "addr:housenumber": "8", "addr:postcode": "74074", "addr:street": "Happelstraße", "amenity": "hospital", "healthcare": "hospital", "name": "Klinik am Rathenauplatz", "website": "https://www.chirurgie-hn.de/praxis/klinik-am-rathauenplatz/", "wheelchair": "yes"}}, {"name": "Geriatrische Reha-Klinik Bethel Welzheim", "latitude": 48.8695156, "longitude": 9.6322927, "source": "osm", "_tags": {"amenity": "hospital", "check_date": "2025-01-12", "emergency": "no", "healthcare": "rehabilitation", "healthcare:speciality": "geriatrics", "name": "Geriatrische Reha-Klinik Bethel Welzheim", "toilets:wheelchair": "yes", "wheelchair": "yes"}}, {"name": "m&i Fachkliniken Hohenurach Haus 1", "latitude": 48.5043782, "longitude": 9.376891, "source": "osm", "_tags": {"addr:city": "Bad Urach", "addr:housenumber": "33", "addr:postcode": "72574", "addr:street": "Immanuel-Kant-Straße", "healthcare": "hospital", "name": "m&i Fachkliniken Hohenurach Haus 1", "phone": "+49 7125 15101", "website": "https://www.fachkliniken-hohenurach.de/"}}, {"name": "i&m Fachkliniken Hohenurach Haus 2", "latitude": 48.5064833, "longitude": 9.3762711, "source": "osm", "_tags": {"addr:city": "Bad Urach", "addr:housenumber": "47", "addr:postcode": "72574", "addr:street": "Immanuel-Kant-Straße", "healthcare": "hospital", "name": "i&m Fachkliniken Hohenurach Haus 2", "operator": "i&m", "phone": "+49 7125 15101", "website": "https://www.fachkliniken-hohenurach.de/"}}, {"name": "Median Klinik Wilhelmsheim", "latitude": 49.0074521, "longitude": 9.4572297, "source": "osm", "_tags": {"amenity": "hospital", "emergency": "no", "healthcare": "hospital", "healthcare:speciality": "physiatry", "name": "Median Klinik Wilhelmsheim", "operator": "MEDIAN Unternehmensgruppe B.V. & Co. KG Franklinstraße 28-29 D-10587 Berlin", "operator:type": "private"}}, {"name": "Zentrum für Psychische Gesundheit Schwäbisch Hall", "latitude": 49.1084006, "longitude": 9.7321667, "source": "osm", "_tags": {"addr:city": "Schwäbisch Hall", "addr:housenumber": "1", "addr:postcode": "74523", "addr:street": "Ringstraße", "amenity": "school", "healthcare": "hospital", "healthcare:speciality": "psychiatry", "name": "Zentrum für Psychische Gesundheit Schwäbisch Hall"}}, {"name": "Klinikum Esslingen, Psychiatrische Institutsambulanz", "latitude": 48.7359742, "longitude": 9.3321932, "source": "osm", "_tags": {"amenity": "hospital", "healthcare": "hospital", "name": "Klinikum Esslingen, Psychiatrische Institutsambulanz", "wheelchair": "yes"}}, {"name": "Geriatrische Rehaklinik Brackenheim", "latitude": 49.0742323, "longitude": 9.0615186, "source": "osm", "_tags": {"amenity": "hospital", "emergency": "yes", "fax": "+49 7135 101-1115", "healthcare": "hospital", "level": "1", "name": "Geriatrische Rehaklinik Brackenheim", "operator": "SLK-Kliniken", "phone": "+49 7135 101-0", "source:metrics": "Bing"}}, {"name": "Herzog Karl Klinik", "latitude": 48.7653516, "longitude": 9.165559, "source": "osm", "_tags": {"addr:city": "Stuttgart", "addr:housenumber": "7", "addr:postcode": "70178", "addr:street": "Hohenzollernstraße", "amenity": "hospital", "healthcare": "hospital", "healthcare:speciality": "plastic_surgery", "name": "Herzog Karl Klinik", "website": "https://www.plastische-chirurgie-s.de/"}}, {"name": "Luisenklinik - Stuttgart", "latitude": 48.7712998, "longitude": 9.1721348, "source": "osm", "_tags": {"addr:city": "Stuttgart", "addr:housenumber": "21", "addr:postcode": "70178", "addr:street": "Paulinenstraße", "amenity": "hospital", "healthcare": "hospital", "name": "Luisenklinik - Stuttgart", "website": "https://luisenklinik.de/"}}, {"name": "MVZ Hämatologie Onkologie Stuttgart", "latitude": 48.7765782, "longitude": 9.1649393, "source": "osm", "_tags": {"addr:city": "Stuttgart", "addr:housenumber": "119A", "addr:postcode": "70176", "addr:street": "Silberburgstraße", "amenity": "hospital", "healthcare": "hospital", "healthcare:speciality": "oncology", "name": "MVZ Hämatologie Onkologie Stuttgart", "website": "https://onkologie.dks-mvz.de/"}}, {"name": "Klinikum Stuttgart", "latitude": 48.7916756, "longitude": 9.1789558, "source": "osm", "_tags": {"addr:city": "Stuttgart", "addr:housenumber": "22", "addr:postcode": "70191", "addr:street": "Türlenstraße", "amenity": "hospital", "healthcare": "hospital", "healthcare:speciality": "psychology", "name": "Klinikum Stuttgart", "website": "https://www.klinikum-stuttgart.de/medizin-pflege/zentrum-seelische-gesundheit/wohnortnah-fuer-menschen-in-seelischer-not/behandlungszentrum-mitte"}}, {"name": "Zentrum für Psychische Gesundheit Neckar-Odenwald (ZfpG)", "latitude": 49.3559224, "longitude": 9.1532199, "source": "osm", "_tags": {"addr:city": "Mosbach", "addr:housenumber": "1", "addr:postcode": "74821", "addr:street": "Knopfweg", "amenity": "hospital", "healthcare": "hospital", "healthcare:speciality": "psychiatry", "name": "Zentrum für Psychische Gesundheit Neckar-Odenwald (ZfpG)", "operator": "Psychiatrischen Zentrums Nordbaden", "operator:type": "public"}}, {"name": "Robert-Bosch-Krankenhaus", "latitude": 48.8142575, "longitude": 9.1862984, "source": "osm", "_tags": {"amenity": "hospital", "beds": "677", "emergency": "yes", "healthcare": "hospital", "name": "Robert-Bosch-Krankenhaus", "opening_hours": "24/7", "phone": "+4971181010", "website": "https://www.rbk.de/", "wheelchair": "yes", "wikidata": "Q7341140", "wikimedia_commons": "Category:Robert-Bosch-Krankenhaus", "wikipedia": "de:Robert-Bosch-Krankenhaus"}}, {"name": "Berufsgenossenschaftliche Unfallklinik", "latitude": 48.5338518, "longitude": 9.035194, "source": "osm", "_tags": {"alt_name": "BG Klinik Tübingen", "amenity": "hospital", "healthcare": "hospital", "name": "Berufsgenossenschaftliche Unfallklinik", "wheelchair": "yes", "wikidata": "Q28778987", "wikimedia_commons": "File:BG in Tübingen zur blauen Stunde 1.jpg", "wikipedia": "de:BG Klinik Tübingen"}}, {"name": "Krankenhaus Leonberg", "latitude": 48.802829, "longitude": 9.0003844, "source": "osm", "_tags": {"amenity": "hospital", "beds": "239", "email": "info.leo@klinikverbund-suedwest.de", "healthcare": "hospital", "name": "Krankenhaus Leonberg", "opening_hours": "24/7", "operational_status": "Operational", "operator": "Kreiskliniken Böblingen gGmbH", "operator:type": "private", "phone": "+49 7152 2020", "toilets:wheelchair": "yes", "website": "https://www.klinikverbund-suedwest.de/krankenhaus-leonberg/", "wheelchair": "yes", "wikidata": "Q126371578"}}, {"name": "St. Anna-Klinik", "latitude": 48.8072049, "longitude": 9.2303812, "source": "osm", "_tags": {"addr:city": "Stuttgart", "addr:country": "DE", "addr:housenumber": "101", "addr:postcode": "70374", "addr:street": "Obere Waiblinger Straße", "amenity": "hospital", "building": "yes", "comment": "no helipad, congested area", "description": "Belegklinik", "designation": "St. Anna-Klinik", "emergency": "yes", "healthcare": "hospital", "name": "St. Anna-Klinik", "website": "https://www.st-anna-klinik.de/"}}, {"name": "Kliniken Sindelfingen", "latitude": 48.7152047, "longitude": 9.0248459, "source": "osm", "_tags": {"addr:city": "Sindelfingen", "addr:country": "DE", "addr:housenumber": "70", "addr:postcode": "71065", "addr:street": "Arthur-Gruber-Straße", "amenity": "hospital", "building": "hospital", "building:levels": "10", "check_date": "2024-06-28", "healthcare": "hospital", "name": "Kliniken Sindelfingen", "roof:levels": "0", "roof:shape": "flat", "wheelchair": "yes", "wheelchair:description": "Seit Umbau des Haupteingangs noch besser zugänglich."}}, {"name": "Klinikum Esslingen", "latitude": 48.7374468, "longitude": 9.3263819, "source": "osm", "_tags": {"addr:city": "Esslingen am Neckar", "addr:housenumber": "97", "addr:postcode": "73730", "addr:street": "Hirschlandstraße", "amenity": "hospital", "beds": "655", "contact:email": "info@klinikum-esslingen.de", "contact:phone": "+49 711 310 30", "contact:website": "https://www.klinikum-esslingen.de", "healthcare": "hospital", "name": "Klinikum Esslingen", "operator": "Klinikum Esslingen GmbH", "toilets:wheelchair": "yes", "wheelchair": "yes", "wikidata": "Q1774611"}}, {"name": "Klinik am Eichert", "latitude": 48.6903224, "longitude": 9.6512396, "source": "osm", "_tags": {"addr:city": "Göppingen", "addr:housenumber": "3", "addr:postcode": "73035", "addr:street": "Eichertstraße", "addr:suburb": "Jebenhausen", "amenity": "hospital", "beds": "625", "building": "hospital", "contact:fax": "+49 7161 64-1829", "contact:phone": "+49 7161 64-0", "contact:website": "http://www.kae.de", "name": "Klinik am Eichert", "wheelchair": "yes"}}, {"name": "Zentrum für Psychiatrie Winnenden", "latitude": 48.8716753, "longitude": 9.3962975, "source": "osm", "_tags": {"amenity": "hospital", "healthcare": "hospital", "leisure": "park", "name": "Zentrum für Psychiatrie Winnenden"}}, {"name": "Klinikum Schloß Winnenden", "latitude": 48.8723545, "longitude": 9.3982117, "source": "osm", "_tags": {"addr:city": "Winnenden", "addr:housenumber": "50", "addr:postcode": "71364", "addr:street": "Schloßstraße", "alt_name": "Schloß Winnenden", "amenity": "hospital", "beds": "572", "building": "hospital", "healthcare": "hospital", "historic": "castle", "name": "Klinikum Schloß Winnenden", "operator": "Zentrum für Psychiatrie Winnenden"}}, {"name": "Haus B - Klinik für Alterspsychiatrie", "latitude": 48.8708087, "longitude": 9.3970565, "source": "osm", "_tags": {"addr:city": "Winnenden", "addr:housenumber": "58", "addr:postcode": "71364", "addr:street": "Schloßstraße", "building": "hospital", "healthcare": "hospital", "name": "Haus B - Klinik für Alterspsychiatrie", "operator": "Zentrum für Psychiatrie Winnenden"}}, {"name": "Haus A - Klinik für Alterspsychiatrie", "latitude": 48.8716886, "longitude": 9.3963909, "source": "osm", "_tags": {"addr:city": "Winnenden", "addr:housenumber": "56", "addr:postcode": "71364", "addr:street": "Schloßstraße", "building": "hospital", "healthcare": "hospital", "healthcare:speciality": "psychiatry", "name": "Haus A - Klinik für Alterspsychiatrie", "operator": "Zentrum für Psychiatrie Winnenden"}}, {"name": "Haus D - Klinik für Psychiatrie;Ergotherapie", "latitude": 48.8726558, "longitude": 9.3955465, "source": "osm", "_tags": {"addr:city": "Winnenden", "addr:housenumber": "36", "addr:postcode": "71364", "addr:street": "Schloßstraße", "building": "hospital", "healthcare": "hospital", "healthcare:speciality": "occupational;psychiatry", "name": "Haus D - Klinik für Psychiatrie;Ergotherapie", "operator": "Zentrum für Psychiatrie Winnenden"}}, {"name": "Klinikum am Weissenhof", "latitude": 49.1663791, "longitude": 9.2921797, "source": "osm", "_tags": {"amenity": "hospital", "healthcare": "hospital", "healthcare:speciality": "psychiatry;child_psychiatry", "name": "Klinikum am Weissenhof", "wikidata": "Q1774661", "wikipedia": "de:Klinikum am Weissenhof"}}, {"name": "Helfensteinklinik", "latitude": 48.6258775, "longitude": 9.8426299, "source": "osm", "_tags": {"amenity": "hospital", "healthcare": "hospital", "name": "Helfensteinklinik", "wheelchair": "yes"}}, {"name": "Furtbachkrankenhaus", "latitude": 48.7703861, "longitude": 9.1716672, "source": "osm", "_tags": {"addr:city": "Stuttgart", "addr:country": "DE", "addr:housenumber": "6", "addr:postcode": "70178", "addr:street": "Furtbachstraße", "alt_name": "Furtbachhaus", "amenity": "hospital", "architect": "Heinrich Dolmetsch", "architect:wikidata": "Q1597057", "architect:wikipedia": "de:Heinrich Dolmetsch", "beds": "124", "building": "yes", "healthcare": "hospital", "name": "Furtbachkrankenhaus", "start_date": "1902", "website": "https://www.fbkh.org/", "wikidata": "Q62269165"}}, {"name": "Hochhaus", "latitude": 49.1247444, "longitude": 9.7425805, "source": "osm", "_tags": {"addr:city": "Schwäbisch Hall", "addr:housenumber": "10", "addr:postcode": "74523", "addr:street": "Diakoniestraße", "building": "hospital", "healthcare": "hospital", "name": "Hochhaus", "wheelchair": "yes", "wikidata": "Q1381280"}}, {"name": "Kliniken Böblingen", "latitude": 48.6901578, "longitude": 9.0323573, "source": "osm", "_tags": {"amenity": "hospital", "healthcare": "hospital", "name": "Kliniken Böblingen", "wheelchair": "yes", "wikidata": "Q108791844"}}, {"name": "Libermenta Klinik Schloss Freudental", "latitude": 49.0087275, "longitude": 9.061526, "source": "osm", "_tags": {"addr:city": "Freudental", "addr:country": "DE", "addr:housenumber": "4", "addr:postcode": "74392", "addr:street": "Schlossplatz", "amenity": "hospital", "building": "yes", "email": "kliniken@libermenta.com", "healthcare": "hospital", "healthcare:speciality": "psychiatry", "name": "Libermenta Klinik Schloss Freudental", "operator": "BühlerHealthCare AG", "phone": "+49 7143 330880", "website": "https://www.libermenta.com/standorte/schloss-freudental/", "wikipedia": "de:Schloss Freudental (Freudental)"}}, {"name": "Psychiatrische Tagesklinik", "latitude": 49.1382951, "longitude": 9.231798, "source": "osm", "_tags": {"amenity": "hospital", "check_date": "2024-04-20", "healthcare": "hospital", "name": "Psychiatrische Tagesklinik", "website": "https://www.klinikum-weissenhof.de/"}}, {"name": "SLK-Klinik Gesundbrunnen", "latitude": 49.1532797, "longitude": 9.19082, "source": "osm", "_tags": {"addr:city": "Heilbronn", "addr:country": "DE", "addr:housenumber": "20-26", "addr:postcode": "74078", "addr:street": "Am Gesundbrunnen", "amenity": "hospital", "beds": "969", "healthcare": "hospital", "name": "SLK-Klinik Gesundbrunnen", "website": "https://www.slk-kliniken.de/", "wheelchair": "yes", "wikidata": "Q50039763"}}, {"name": "Rems-Murr-Klinikum Winnenden", "latitude": 48.869197, "longitude": 9.3927256, "source": "osm", "_tags": {"addr:city": "Winnenden", "addr:postcode": "71364", "addr:street": "Am Jakobsweg", "amenity": "hospital", "healthcare": "hospital", "name": "Rems-Murr-Klinikum Winnenden", "wheelchair": "yes", "wikidata": "Q30260683"}}, {"name": "Krankenhaus Marbach", "latitude": 48.943233, "longitude": 9.2578928, "source": "osm", "_tags": {"addr:city": "Marbach am Neckar", "addr:country": "DE", "addr:housenumber": "8", "addr:postcode": "71672", "addr:street": "Im Bannmüller", "amenity": "hospital", "building": "yes", "emergency": "no", "healthcare": "hospital", "name": "Krankenhaus Marbach", "source:geometry": "Maps4BW, LGL, www.lgl-bw.de", "toilets:wheelchair": "yes", "wheelchair": "yes"}}, {"name": "Kliniken Berg", "latitude": 48.529916, "longitude": 9.0387091, "source": "osm", "_tags": {"amenity": "hospital", "name": "Kliniken Berg", "wikimedia_commons": "File:Langzeitbelichtung der Crona in Tübingen mit Rettungshubschrauber.jpg"}}, {"name": "Klinikum am Plattenwald", "latitude": 49.2117124, "longitude": 9.2371254, "source": "osm", "_tags": {"amenity": "hospital", "contact:fax": "+49 7136 28-4750001", "contact:phone": "+49 7136 28-0", "contact:website": "https://www.slk-kliniken.de/ueber-uns/standorte/klinikum-am-plattenwald", "emergency": "yes", "healthcare": "hospital", "name": "Klinikum am Plattenwald", "opening_hours": "24/7", "operator": "SLK-Kliniken Heilbronn GmbH", "wheelchair": "yes"}}, {"name": "Rosentrittklinik", "latitude": 49.2377248, "longitude": 9.1133685, "source": "osm", "_tags": {"addr:city": "Bad Rappenau", "addr:country": "DE", "addr:housenumber": "28", "addr:postcode": "74906", "addr:street": "Salinenstraße", "amenity": "hospital", "email": "info@rosentrittklinik.de", "emergency": "no", "health_facility:type": "therapy", "healthcare": "hospital", "healthcare:speciality": "oncology;rheumatology;orthopaedics;dermatology;pulmonology", "medical_system:western": "yes", "name": "Rosentrittklinik", "note": "Die Lokalisierung der Klinik innerhalb des Gesamtgebäudes ist nur ungefähr, zumal die Kliniken ja eng zusammenarbeiten. Immerhin sollte sie ausreichen, um das Klinik-Symbol (samt Name) an der richtigen Stelle des Komplexes anzuzeigen.", "operator": "Kur- und Klinikverwaltung Bad Rappenau GmbH", "phone": "+49 7264 830", "website": "https://www.kurbadrappenau.de/kliniken/rosentrittklinik/", "wheelchair": "yes"}}, {"name": "Vulpius Klinik", "latitude": 49.243801, "longitude": 9.0926158, "source": "osm", "_tags": {"addr:housenumber": "29", "addr:street": "Vulpiusstraße", "amenity": "hospital", "building": "hospital", "email": "info@vulpiusklinik.de", "healthcare": "hospital", "healthcare:speciality": "orthopaedics", "name": "Vulpius Klinik", "phone": "+49 7264 600", "website": "https://www.vulpiusklinik.de", "wheelchair": "yes", "wikidata": "Q15134186"}}, {"name": "Katharinenhospital", "latitude": 48.7836788, "longitude": 9.1719798, "source": "osm", "_tags": {"addr:city": "Stuttgart", "addr:housenumber": "60", "addr:postcode": "70174", "addr:street": "Kriegsbergstraße", "amenity": "hospital", "brand": "Klinikum Stuttgart", "emergency": "yes", "healthcare": "hospital", "healthcare:speciality": "general;orthopaedics;ophthalmology;radiology;emergency;dermatology;osteopathy;surgery;cardiology;otolaryngology;oncology;neurology;urology;stomatology", "landuse": "healthcare", "name": "Katharinenhospital", "phone": "+49 711 27801", "website": "https://www.klinikum-stuttgart.de/ueber-uns/struktur/standorte/katharinenhospital.html", "website:map": "https://www.klinikum-stuttgart.de/patienten-besucher/ihr-aufenthalt/vor-dem-aufenthalt/anfahrt/katharinenhospital", "wheelchair": "yes", "wikidata": "Q1329014"}}, {"name": "Salinenklinik", "latitude": 49.2390308, "longitude": 9.1128275, "source": "osm", "_tags": {"addr:city": "Bad Rappenau", "addr:country": "DE", "addr:housenumber": "43", "addr:postcode": "74906", "addr:street": "Salinenstraße", "amenity": "hospital", "building": "yes", "email": "info@salinenklinik.de", "emergency": "no", "fax": "+49 7264 825165", "health_facility:type": "therapy", "healthcare": "hospital", "healthcare:speciality": "orthopaedics", "medical_system:western": "yes", "name": "Salinenklinik", "operator": "Kur- und Klinikverwaltung Bad Rappenau GmbH", "phone": "+49 7264 825170", "source:geometry": "Maps4BW, LGL, www.lgl-bw.de/Esri World Imagery (Clarity) Beta/Bing aerial imagery", "website": "http://www.salinen-klinik.de/", "wheelchair": "yes"}}, {"name": "Sophie-Luisen-Klinik", "latitude": 49.238036, "longitude": 9.1136226, "source": "osm", "_tags": {"addr:city": "Bad Rappenau", "addr:country": "DE", "addr:housenumber": "28", "addr:postcode": "74906", "addr:street": "Salinenstraße", "amenity": "hospital", "email": "info@sophie-luisen-klinik.de", "emergency": "no", "fax": "+49 7264 933444", "health_facility:type": "therapy", "healthcare": "hospital", "medical_system:western": "yes", "name": "Sophie-Luisen-Klinik", "note": "Die Lokalisierung der Klinik innerhalb des Gesamtgebäudes ist nur ungefähr, zumal die Kliniken ja eng zusammenarbeiten. Immerhin sollte sie ausreichen, um das Klinik-Symbol (samt Name) an der richtigen Stelle des Komplexes anzuzeigen.", "operator": "Kur- und Klinikverwaltung Bad Rappenau GmbH", "phone": "+49 7264 93300", "website": "http://www.sophie-luisen-klinik.de/", "wheelchair": "yes"}}, {"name": "Kraichgau-Klinik", "latitude": 49.2408188, "longitude": 9.109879, "source": "osm", "_tags": {"addr:city": "Bad Rappenau", "addr:country": "DE", "addr:housenumber": "15", "addr:postcode": "74906", "addr:street": "Fritz-Hagner-Promenade", "amenity": "hospital", "building": "yes", "emergency": "no", "fax": "+49 7264 802115", "health_facility:type": "therapy", "healthcare": "hospital", "medical_system:western": "yes", "name": "Kraichgau-Klinik", "operator": "MediClin AG", "phone": "+49 7264 8020", "website": "https://www.kraichgau-klinik.de/", "wheelchair": "yes"}}, {"name": "Hohenloher Krankenhaus Öhringen", "latitude": 49.2053694, "longitude": 9.4979375, "source": "osm", "_tags": {"amenity": "hospital", "building": "yes", "check_date": "2024-12-23", "emergency": "yes", "healthcare": "hospital", "name": "Hohenloher Krankenhaus Öhringen", "wheelchair": "yes"}}, {"name": "Klinik Am Lerchenberg", "latitude": 49.1372794, "longitude": 9.2327884, "source": "osm", "_tags": {"amenity": "hospital", "check_date": "2024-04-20", "healthcare": "hospital", "name": "Klinik Am Lerchenberg", "wheelchair": "limited"}}, {"name": "Fachklinik Friedrichshof", "latitude": 49.1167736, "longitude": 9.4152587, "source": "osm", "_tags": {"amenity": "hospital", "healthcare": "hospital", "name": "Fachklinik Friedrichshof", "website": "http://www.friedrichshof.info/"}}, {"name": "medius KLINIK Kirchheim", "latitude": 48.652367, "longitude": 9.4416021, "source": "osm", "_tags": {"amenity": "hospital", "check_date": "2024-05-16", "emergency": "yes", "healthcare": "hospital", "name": "medius KLINIK Kirchheim", "phone": "+49 7021/88-0", "website": "http://www.kk-es.de/", "wheelchair": "yes"}}, {"name": "Krankenhaus Ludwigsburg", "latitude": 48.8988016, "longitude": 9.2037305, "source": "osm", "_tags": {"amenity": "hospital", "name": "Krankenhaus Ludwigsburg", "wheelchair": "yes"}}, {"name": "Luise von Marillac Klinik", "latitude": 48.5972265, "longitude": 9.7917653, "source": "osm", "_tags": {"addr:city": "Bad Überkingen", "addr:housenumber": "7", "addr:postcode": "73337", "addr:street": "Elly-Heuss-Knapp-Weg", "amenity": "hospital", "building": "yes", "emergency": "no", "healthcare": "yes", "healthcare:speciality": "oncology", "name": "Luise von Marillac Klinik", "operator": "Vinzenz von Paul Kliniken gGmbH"}}, {"name": "Karl-Olga-Krankenhaus", "latitude": 48.7897032, "longitude": 9.204228, "source": "osm", "_tags": {"addr:city": "Stuttgart", "addr:housenumber": "61", "addr:postcode": "70190", "addr:street": "Hackstraße", "amenity": "hospital", "check_date": "2024-03-16", "email": "kok-info@sana.de", "emergency": "yes", "fax": "+49 711 2639 2212", "healthcare": "hospital", "internet_access:fee": "yes", "name": "Karl-Olga-Krankenhaus", "operator": "Sana Kliniken AG", "phone": "+49 711 2639 0", "website": "https://www.karl-olga-krankenhaus.de/", "wheelchair": "yes", "wikidata": "Q1730121"}}, {"name": "Die Filderklinik", "latitude": 48.6473198, "longitude": 9.2040008, "source": "osm", "_tags": {"amenity": "hospital", "beds": "225", "contact:phone": "+49 711 7703-0", "contact:website": "http://www.filderklinik.de/", "healthcare": "hospital", "name": "Die Filderklinik", "operator": "FILDERKLINIK gemeinnützige GmbH", "toilets:wheelchair": "yes", "wheelchair": "yes", "wikidata": "Q1412547", "wikipedia": "de:Filderklinik"}}, {"name": "Frauen-Kind-Zentrum", "latitude": 48.8977697, "longitude": 9.2035341, "source": "osm", "_tags": {"amenity": "hospital", "building": "yes", "healthcare": "hospital", "name": "Frauen-Kind-Zentrum", "operator": "Regionale Kliniken Holding RKH GmbH"}}, {"name": "Marienhospital", "latitude": 48.7602668, "longitude": 9.1633591, "source": "osm", "_tags": {"amenity": "hospital", "check_date": "2025-06-05", "emergency": "yes", "healthcare": "hospital", "name": "Marienhospital", "name:de": "Marienhospital", "website": "https://www.marienhospital-stuttgart.de/", "wheelchair": "limited", "wikidata": "Q1552763"}}, {"name": "Olgahospital und Frauenklinik", "latitude": 48.784267, "longitude": 9.1722948, "source": "osm", "_tags": {"addr:city": "Stuttgart", "addr:housenumber": "60", "addr:postcode": "70174", "addr:street": "Kriegsbergstraße", "amenity": "hospital", "check_date": "2024-07-08", "emergency": "yes", "healthcare": "hospital", "healthcare:speciality": "paediatrics;gynaecology", "loc_name": "Olgäle", "name": "Olgahospital und Frauenklinik", "phone": "+49 711 27804", "toilets:wheelchair": "yes", "website": "https://www.klinikum-stuttgart.de/ueber-uns/startseite/olgahospital-frauenklinik/", "website:map": "https://www.klinikum-stuttgart.de/patienten-besucher/ihr-aufenthalt/vor-dem-aufenthalt/anfahrt/olgahospital-frauenklinik", "website:map:osm": "no", "wheelchair": "yes", "wikidata": "Q2019759", "wikimedia_commons": "Category:Olgahospital_(Stuttgart)"}}, {"name": "Orthopädische Klinik Markgröningen", "latitude": 48.9084835, "longitude": 9.1073604, "source": "osm", "_tags": {"addr:city": "Markgröningen", "addr:housenumber": "10", "addr:postcode": "71706", "addr:street": "Kurt-Lindemann-Weg", "alt_name": "Klinik", "amenity": "hospital", "health_specialty": "orthopedics", "healthcare": "hospital", "name": "Orthopädische Klinik Markgröningen", "phone": "+49 7145 91-0", "toilets:wheelchair": "yes", "website": "http://www.okm.de", "wheelchair": "yes", "wheelchair:description": "Querschnittstation"}}, {"name": "Rems-Murr-Klinik Schorndorf", "latitude": 48.7974547, "longitude": 9.5293051, "source": "osm", "_tags": {"amenity": "hospital", "beds": "248", "check_date": "2024-05-31", "healthcare": "hospital", "name": "Rems-Murr-Klinik Schorndorf", "operator": "Rems-Murr-Kliniken gGmbH", "phone": "+49 7181 67-0", "website": "https://rems-murr-kliniken.de", "wikidata": "Q2143132"}}, {"name": "MVZ Schelztorklinik", "latitude": 48.7415721, "longitude": 9.300691, "source": "osm", "_tags": {"amenity": "hospital", "email": "info@schelztor-klinik.de", "healthcare": "hospital", "name": "MVZ Schelztorklinik", "opening_hours": "Mo-Th 06:30-21:00; Fr 06:30-17:00", "phone": "+49 711 39 69 09 0", "website": "https://www.schelztor-klinik.de/"}}, {"name": "Christophsbad", "latitude": 48.7005764, "longitude": 9.6441051, "source": "osm", "_tags": {"addr:city": "Göppingen", "addr:housenumber": "6-28", "addr:postcode": "73035", "addr:street": "Faurndauer Straße", "amenity": "hospital", "beds": "491", "email": "info@christophsbad.de", "fax": "+49 7161 601-9332", "healthcare": "hospital", "name": "Christophsbad", "phone": "+49 7161 601-0", "website": "https://christophsbad.de", "wikidata": "Q1087117"}}, {"name": "Diakoneo", "latitude": 49.1249213, "longitude": 9.7417323, "source": "osm", "_tags": {"addr:city": "Schwäbisch Hall", "addr:country": "DE", "addr:housenumber": "10", "addr:postcode": "74523", "addr:street": "Diakoniestraße", "alt_name": "Diak", "amenity": "hospital", "contact:phone": "+49 791 753-0", "contact:website": "https://www.diak-klinikum.de/", "emergency": "yes", "healthcare": "hospital", "landuse": "commercial", "name": "Diakoneo", "operator": "Diakoneo Diak Schwäbisch Hall gGmbH", "website": "https://www.diak-klinikum.de/", "wheelchair": "yes", "wikidata": "Q1381280"}}, {"name": "Klinik Nürtingen", "latitude": 48.6294698, "longitude": 9.3570336, "source": "osm", "_tags": {"amenity": "hospital", "healthcare": "hospital", "name": "Klinik Nürtingen", "operator": "medius Klinik Nürtingen", "wheelchair": "yes"}}, {"name": "Krankenhaus Bietigheim-Bissingen", "latitude": 48.957268, "longitude": 9.1353273, "source": "osm", "_tags": {"addr:housenumber": "12", "addr:street": "Riedstraße", "amenity": "hospital", "check_date": "2024-02-23", "emergency": "yes", "healthcare": "hospital", "internet_access": "wlan", "internet_access:fee": "no", "internet_access:ssid": "Patienten_Internet_RKH", "name": "Krankenhaus Bietigheim-Bissingen", "opening_hours": "24/7", "operator": "RKH Regionale Kliniken Holding und Services GmbH", "phone": "+49 7142 790", "toilets:wheelchair": "yes", "website": "https://www.rkh-gesundheit.de/kliniken-zentren/unsere-kliniken/krankenhaus-bietigheim-vaihingen/", "wheelchair": "yes"}}, {"name": "Gesundheitszentrum Besigheim", "latitude": 48.9981818, "longitude": 9.1371966, "source": "osm", "_tags": {"amenity": "hospital", "building": "yes", "healthcare": "hospital", "name": "Gesundheitszentrum Besigheim"}}, {"name": "medius Klinik Ostfildern-Ruit", "latitude": 48.7412976, "longitude": 9.2549865, "source": "osm", "_tags": {"addr:city": "Ostfildern", "addr:country": "DE", "addr:housenumber": "166", "addr:postcode": "73760", "addr:street": "Hedelfinger Straße", "addr:suburb": "Ruit", "amenity": "hospital", "beds": "280", "emergency": "yes", "healthcare": "hospital", "loc_name": "Paracelsus-Krankenhaus Ruit", "name": "medius Klinik Ostfildern-Ruit", "operator": "medius Kliniken gemeinnützige GmbH", "phone": "+49 711 4488-0", "website": "https://www.medius-kliniken.de/standorte/medius-klinik-ostfildern-ruit/startseite-ostfildern-ruit/", "wheelchair": "yes", "wheelchair:description": "außen 5 Parkplätze und im Parkhaus 7 Stück"}}, {"name": "Tropenklinik Paul-Lechler-Krankenhaus", "latitude": 48.5311791, "longitude": 9.0606698, "source": "osm", "_tags": {"alt_name": "Paul-Lechler-Krankenhaus", "alt_name_1": "Tropenklinik", "amenity": "hospital", "check_date": "2024-12-08", "email": "info@tropenklinik.de", "name": "Tropenklinik Paul-Lechler-Krankenhaus", "phone": "+49 7071 206-0", "short_name": "PLK", "website": "https://www.tropenklinik.de/", "wikidata": "Q2455430", "wikimedia_commons": "File:Neubau des Paul-Lechler-Krankenhauses in Tübingen.jpg", "wikipedia": "de:Tropenklinik Paul-Lechler-Krankenhaus"}}, {"name": "Klinik Dres. Denzel", "latitude": 49.1355335, "longitude": 9.2316069, "source": "osm", "_tags": {"addr:city": "Heilbronn", "addr:country": "DE", "addr:housenumber": "51", "addr:postcode": "74074", "addr:street": "Gutenbergstraße", "amenity": "hospital", "check_date": "2024-11-20", "description": "Praxis und Fachklinik in Heilbronn", "healthcare": "hospital", "name": "Klinik Dres. Denzel", "website": "https://klinik-denzel.de/"}}, {"name": "Neckar-Odenwald Kliniken Mosbach", "latitude": 49.3557174, "longitude": 9.1532576, "source": "osm", "_tags": {"addr:city": "Mosbach", "addr:country": "DE", "addr:housenumber": "1", "addr:postcode": "74821", "addr:street": "Knopfweg", "amenity": "hospital", "healthcare": "hospital", "name": "Neckar-Odenwald Kliniken Mosbach", "operator": "Neckar-Odenwald Kliniken gGmbH"}}, {"name": "Ermstalklinik", "latitude": 48.4963561, "longitude": 9.3888513, "source": "osm", "_tags": {"addr:city": "Bad Urach", "addr:country": "DE", "addr:housenumber": "100", "addr:postcode": "72574", "addr:street": "Stuttgarter Straße", "amenity": "hospital", "healthcare": "hospital", "name": "Ermstalklinik", "website": "https://www.kreiskliniken-reutlingen.de/ermstalklinik-bad-urach.html"}}, {"name": "Klinikum am Steinenberg", "latitude": 48.4838017, "longitude": 9.2187168, "source": "osm", "_tags": {"addr:city": "Reutlingen", "addr:country": "DE", "addr:housenumber": "31", "addr:postcode": "72764", "addr:street": "Steinenbergstraße", "amenity": "hospital", "check_date": "2025-04-01", "email": "info@kreiskliniken-reutlingen.de", "emergency": "yes", "healthcare": "hospital", "name": "Klinikum am Steinenberg", "operator": "Kreiskliniken Reutlingen GmbH", "phone": "+49 7121 2000", "website": "https://www.kreiskliniken-reutlingen.de"}}, {"name": "m&i Fachkliniken Hohenurach", "latitude": 48.5043405, "longitude": 9.3767138, "source": "osm", "_tags": {"addr:city": "Bad Urach", "addr:housenumber": "33", "addr:postcode": "72574", "addr:street": "Immanuel-Kant-Straße", "amenity": "hospital", "healthcare": "hospital", "name": "m&i Fachkliniken Hohenurach"}}, {"name": "m&i Fachkliniken Hohenurach Haus 2", "latitude": 48.5063734, "longitude": 9.375967, "source": "osm", "_tags": {"addr:city": "Bad Urach", "addr:housenumber": "47", "addr:postcode": "72574", "addr:street": "Immanuel-Kant-Straße", "amenity": "hospital", "healthcare": "hospital", "name": "m&i Fachkliniken Hohenurach Haus 2"}}, {"name": "Stauferklinikum Mutlangen", "latitude": 48.8196771, "longitude": 9.7871172, "source": "osm", "_tags": {"amenity": "hospital", "check_date": "2024-10-17", "healthcare": "hospital", "name": "Stauferklinikum Mutlangen", "wheelchair": "yes"}}, {"name": "Robert-Bosch-Krankenhaus, Standort City", "latitude": 48.7721051, "longitude": 9.1880601, "source": "osm", "_tags": {"addr:city": "Stuttgart", "addr:country": "DE", "addr:housenumber": "21", "addr:postcode": "70184", "addr:street": "Hohenheimer Straße", "amenity": "hospital", "beds": "150", "building": "yes", "building:levels": "1", "contact:phone": "+49 711 2156-0", "healthcare": "hospital", "name": "Robert-Bosch-Krankenhaus, Standort City", "old_name": "Sana Klinik Bethesda Stuttgart", "operator": "Robert-Bosch-Krankenhaus Standort City GmbH", "website": "https://www.rbk.de/standorte/robert-bosch-krankenhaus-standort-city.html", "wikidata": "Q121326941", "wikipedia": "de:Robert-Bosch-Krankenhaus"}}, {"name": "Krankenhaus Bad Cannstatt", "latitude": 48.8105206, "longitude": 9.2372339, "source": "osm", "_tags": {"addr:city": "Stuttgart", "addr:country": "DE", "addr:housenumber": "24", "addr:postcode": "70374", "addr:street": "Prießnitzweg", "addr:suburb": "Bad Cannstatt", "amenity": "hospital", "branch": "Bad Cannstatt", "brand": "Klinikum Stuttgart", "check_date": "2024-01-03", "emergency": "yes", "healthcare": "hospital;dialysis", "healthcare:speciality": "gastroenterology", "name": "Krankenhaus Bad Cannstatt", "operator": "Klinikum Stuttgart", "operator:wikidata": "Q1374794", "phone": "+49 711 27802", "website": "https://www.klinikum-stuttgart.de/ueber-uns/startseite/krankenhaus-bad-cannstatt/", "wheelchair": "yes", "wikidata": "Q85414785", "wikimedia_commons": "Category:Krankenhaus_Bad_Cannstatt", "wikipedia": "de:Klinikum_Stuttgart#Krankenhaus Bad Cannstatt"}}, {"name": "Universitäts-Frauenklinik, Neonatologie und Medizinische-Genetik", "latitude": 48.5263949, "longitude": 9.0507914, "source": "osm", "_tags": {"amenity": "hospital", "building:colour": "#CC937F", "building:material": "brick", "emergency": "yes", "healthcare": "hospital", "healthcare:speciality": "gynaecology", "name": "Universitäts-Frauenklinik, Neonatologie und Medizinische-Genetik", "website": "https://www.medizin.uni-tuebingen.de/de/das-klinikum/einrichtungen/kliniken/frauenklinik", "wikimedia_commons": "File:UKT Frauenklinik.jpeg"}}, {"name": "", "latitude": 49.0072097, "longitude": 9.4565928, "source": "osm", "_tags": {"amenity": "hospital", "healthcare": "hospital"}}, {"name": "MEDIAN Vesalius-Klinik Bad Rappenau", "latitude": 49.2369121, "longitude": 9.1068197, "source": "osm", "_tags": {"addr:housenumber": "12", "addr:street": "Salinenstraße", "amenity": "hospital", "email": "vesalius-klinik@median-kliniken.de", "emergency": "no", "healthcare": "hospital", "healthcare:speciality": "orthopaedics;psychosomatic medicine", "name": "MEDIAN Vesalius-Klinik Bad Rappenau", "operator": "RHM-Klinikbeteiligungs GmbH", "phone": "+49 7264 966000", "website": "https://www.median-kliniken.de/de/median-vesalius-klinik-bad-rappenau/", "wheelchair": "yes"}}, {"name": "Klinikum Schloß Winnenden", "latitude": 48.8736874, "longitude": 9.3984138, "source": "osm", "_tags": {"amenity": "hospital", "healthcare": "physiotherapist", "name": "Klinikum Schloß Winnenden"}}, {"name": "Diakonie-Klinik Mosbach", "latitude": 49.3621137, "longitude": 9.1522454, "source": "osm", "_tags": {"amenity": "hospital", "healthcare": "hospital", "healthcare:speciality": "psychiatry", "name": "Diakonie-Klinik Mosbach"}}, {"name": "Marienhospital", "latitude": 48.7602668, "longitude": 9.1634667, "source": "osm", "_tags": {"addr:city": "Stuttgart", "addr:postcode": "70199", "amenity": "hospital", "name": "Marienhospital", "name:de": "Marienhospital", "site": "hospital", "type": "site", "website": "https://www.marienhospital-stuttgart.de/"}}, {"name": "Sonnenberg Klinik", "latitude": 48.7450539, "longitude": 9.1441912, "source": "osm", "_tags": {"addr:city": "Stuttgart", "addr:country": "DE", "addr:housenumber": "79", "addr:postcode": "70597", "addr:street": "Christian-Belser-Straße", "amenity": "hospital", "building": "yes", "healthcare": "hospital", "name": "Sonnenberg Klinik", "type": "multipolygon", "website": "https://www.sonnenbergklinik.de/"}}, {"name": "Hauptgebäude Klinikum Ludwigsburg", "latitude": 48.8989042, "longitude": 9.203417, "source": "osm", "_tags": {"addr:city": "Ludwigsburg", "addr:country": "DE", "addr:housenumber": "4", "addr:postcode": "71640", "addr:street": "Posilipostraße", "amenity": "hospital", "beds": "1005", "building": "hospital", "building:levels": "12", "building:levels:underground": "4", "fixme": "Besteht aus mehreren Gebäudenteilen mit unterschiedlichen Nutzungen/Fachrichtungen und Stockwerkszahlen", "healthcare": "hospital", "height": "35", "name": "Hauptgebäude Klinikum Ludwigsburg", "opening_hours": "24/7", "operational_status": "Operational", "operator": "Regionale Kliniken Holding RKH GmbH", "operator:type": "private/for-profit", "phone": "+49 7141 9990", "smoking": "isolated", "type": "multipolygon", "website": "https://www.rkh-gesundheit.de/kliniken-zentren/unsere-kliniken/klinikum-ludwigsburg/", "wheelchair": "yes"}}, {"name": "Diakonie-Klinikum Stuttgart", "latitude": 48.7816357, "longitude": 9.1639077, "source": "osm", "_tags": {"addr:city": "Stuttgart", "addr:country": "DE", "addr:housenumber": "38", "addr:postcode": "70176", "addr:street": "Rosenbergstraße", "alt_name": "Diakonissen", "amenity": "hospital", "beds": "400", "building": "hospital", "building:levels": "7", "emergency": "yes", "healthcare": "hospital", "name": "Diakonie-Klinikum Stuttgart", "old_name": "Diakonissenkrankenhaus Stuttgart", "roof:levels": "0", "type": "multipolygon", "website": "https://www.diakonie-klinik.de/", "wheelchair": "yes", "wikidata": "Q1000307", "wikimedia_commons": "Category:Diakonie-Klinikum_Stuttgart", "wikipedia": "de:Diakonie-Klinikum Stuttgart"}}]