[{"name": "Clinique Sainte-Barbe", "latitude": 48.5819895, "longitude": 7.7353506, "source": "osm", "_tags": {"addr:city": "Strasbourg", "addr:country": "FR", "addr:housenumber": "19", "addr:postcode": "67000", "addr:street": "Faubourg National", "amenity": "hospital", "emergency": "no", "healthcare": "hospital", "name": "Clinique Sainte-Barbe", "ref:FR:FINESS": "670780188", "type:FR:FINESS": "365"}}, {"name": "Centre Régional de Réadaptation Fonctionnelle Clémenceau", "latitude": 48.59276, "longitude": 7.7543833, "source": "osm", "_tags": {"amenity": "hospital", "healthcare": "hospital", "name": "Centre Régional de Réadaptation Fonctionnelle Clémenceau", "ref:FR:FINESS": "670780121", "source": "cadastre-dgi-fr source : Direction Générale des Impôts - Cadastre ; mise à jour : 2009", "toilets:wheelchair": "yes", "type:FR:FINESS": "109", "wheelchair": "yes"}}, {"name": "Hôpital Alexandre Millerand", "latitude": 48.7302613, "longitude": 7.7218052, "source": "osm", "_tags": {"amenity": "hospital", "healthcare": "hospital", "name": "Hôpital Alexandre Millerand", "ref:FR:FINESS": "670000041", "source": "cadastre-dgi-fr source : Direction Générale des Impôts - Cadastre. Mise à jour : 2009", "type:FR:FINESS": "355"}}, {"name": "Landstuhl Regional Medical Center", "latitude": 49.4042184, "longitude": 7.5602942, "source": "osm", "_tags": {"amenity": "hospital", "email": "LRMCPublicAffairs@amedd.army.mil", "emergency": "yes", "healthcare": "hospital", "name": "Landstuhl Regional Medical Center", "opening_hours": "24/7", "operator": "US Army Europe Regional Medical Command", "phone": "+49 6371868106", "website": "https://ermc.amedd.army.mil/landstuhl/", "wikidata": "Q778782", "wikipedia": "en:Landstuhl Regional Medical Center"}}, {"name": "Centre Hospitalier Départemental de Bichwiller", "latitude": 48.7594984, "longitude": 7.8570413, "source": "osm", "_tags": {"amenity": "hospital", "name": "Centre Hospitalier Départemental de Bichwiller", "ref:FR:FINESS": "670000306", "source": "Le ministère des solidarités et de la santé - 03/2019"}}, {"name": "Centre de Réadaptation Fonctionnelle", "latitude": 48.9501479, "longitude": 7.6420859, "source": "osm", "_tags": {"amenity": "hospital", "emergency": "no", "healthcare": "hospital", "name": "Centre de Réadaptation Fonctionnelle", "ref:FR:FINESS": "670780592", "type:FR:FINESS": "109"}}, {"name": "Centre SAMU/SMUR et CESU 67", "latitude": 48.5845221, "longitude": 7.7051635, "source": "osm", "_tags": {"addr:housenumber": "70", "addr:street": "Rue de l'Engelbreit", "amenity": "hospital", "email": "CESU67@chru-strasbourg.fr", "name": "Centre SAMU/SMUR et CESU 67", "website": "https://formation.chru-strasbourg.fr/les-formations-aux-gestes-et-soins-durgences-au-cesu-67/"}}, {"name": "", "latitude": 48.6297934, "longitude": 7.753868, "source": "osm", "_tags": {"amenity": "hospital", "healthcare": "hospital", "operator": "Kinesitérapeuthe"}}, {"name": "Clinique Sainte-Anne", "latitude": 48.6148875, "longitude": 7.7880104, "source": "osm", "_tags": {"addr:city": "Strasbourg", "addr:country": "FR", "addr:postcode": "67000", "addr:street": "Rue Philippe Thys", "amenity": "hospital", "email": "sainte-anne@ghsv.org", "fax": "+33 3 88 21 72 99", "healthcare": "hospital", "name": "Clinique Sainte-Anne", "operator": "Groupe Hospitalier Saint-Vincent", "operator:type": "private", "phone": "+33 3 88 45 81 81", "ref:FR:FINESS": "670780212", "source": "v2; Direction Générale des Finances Publiques - Cadastre ; mise à jour : 2009", "type:FR:FINESS": "365", "website": "https://www.ghsv.org/le-ghsv/nos-etablissements/clinique-sainte-anne/"}}, {"name": "Nardiniklinikum St. Elisabeth", "latitude": 49.2463611, "longitude": 7.3630101, "source": "osm", "_tags": {"amenity": "hospital", "check_date": "2025-07-14", "contact:phone": "+49 6332 472191", "emergency": "yes", "healthcare": "hospital", "name": "Nardiniklinikum St. Elisabeth", "wheelchair": "yes"}}, {"name": "Argos", "latitude": 48.5746795, "longitude": 7.7448267, "source": "osm", "_tags": {"amenity": "social_facility", "building": "hospital", "building:use": "office", "email": "ithaque@ithaque-asso.fr", "healthcare": "hospital", "level": "0;1", "name": "Argos", "office": "supervised_injection_site", "opening_hours": "Mo-Su 13:00-19:00", "operator": "Ithaque", "phone": "+33 3 68 00 19 14", "social_facility": "group_home", "social_facility:for": "drug_addicted", "source": "cadastre-dgi-fr source : Direction Générale des Impôts - Cadastre ; mise à jour : 2009", "start_date": "2016-11-07", "website": "https://www.ithaque-asso.fr/"}}, {"name": "Centre médical et dentaire de la MGEN", "latitude": 48.5810293, "longitude": 7.7567544, "source": "osm", "_tags": {"addr:housenumber": "4", "addr:postcode": "67085", "addr:street": "Place du Pont aux Chats", "amenity": "clinic", "building": "yes", "check_date": "2024-03-15", "fax": "+33388240806", "healthcare": "hospital", "name": "Centre médical et dentaire de la MGEN", "opening_hours": "Mo-Fr 07:30-19:30; Sa 07:30-13:30", "phone": "+33388211460", "ref:FR:FINESS": "670017110", "source": "cadastre-dgi-fr source : Direction Générale des Impôts - Cadastre. Mise à jour : 2009;Le ministère des solidarités et de la santé - 03/2019", "type:FR:FINESS": "347", "website": "https://proximite.mgen.fr/177-centre-medical-et-dentaire-de-strasbourg"}}, {"name": "Hôpital Civil", "latitude": 48.5761071, "longitude": 7.7448917, "source": "osm", "_tags": {"addr:city": "Strasbourg", "addr:housenumber": "1", "addr:postcode": "67091", "addr:street": "Place de l'Hôpital", "amenity": "hospital", "fax": "+33 3 88 11 60 99", "healthcare": "hospital", "healthcare:speciality": "intensive", "name": "Hôpital Civil", "name:de": "Bürgerhospital", "name:fr": "Hôpital Civil", "phone": "+33 3 88 11 67 68", "ref:FR:FINESS": "670000025", "source": "cadastre-dgi-fr source : Direction Générale des Impôts - Cadastre;mise à jour : 2009", "type:FR:FINESS": "101", "website": "https://www.chru-strasbourg.fr/index.php", "wikidata": "Q3145261", "wikipedia": "fr:Hôpital civil (Strasbourg)"}}, {"name": "clinique Ste Barbe", "latitude": 48.5817039, "longitude": 7.735331, "source": "osm", "_tags": {"addr:city": "Strasbourg", "addr:country": "FR", "addr:housenumber": "19", "addr:postcode": "67000", "addr:street": "Faubourg National", "amenity": "hospital", "building": "hospital", "building:levels": "3", "emergency": "no", "healthcare": "hospital", "name": "clinique Ste Barbe", "operator": "Groupe hospitalier St Vincent", "operator:type": "ESPIC", "ref:FR:FINESS": "670780188", "source": "cadastre-dgi-fr source : Direction Générale des Impôts - Cadastre. Mise à jour : 2009"}}, {"name": "Hôpital de Hautepierre", "latitude": 48.5932911, "longitude": 7.7070877, "source": "osm", "_tags": {"addr:city": "Strasbourg", "addr:country": "FR", "addr:postcode": "67200", "addr:street": "Avenue Molière", "amenity": "hospital", "emergency": "yes", "fax": "+33 3 88 12 70 99", "healthcare": "hospital", "healthcare:speciality": "intensive", "name": "Hôpital de Hautepierre", "operator:type": "public", "phone": "+33 3 88 11 67 68", "ref:FR:FINESS": "670783273", "source": "cadastre-dgi-fr source : Direction Générale des Impôts - Cadastre. Mise à jour : 2009", "type:FR:FINESS": "101", "url": "http://www.chru-strasbourg.fr/", "website": "https://www.chru-strasbourg.fr/Hopital-de-Hautepierre"}}, {"name": "Service psychothérapique pour enfants et adolescents", "latitude": 48.5648673, "longitude": 7.7170133, "source": "osm", "_tags": {"addr:city": "Strasbourg", "addr:housenumber": "15", "addr:postcode": "67200", "addr:street": "Rue Cranach", "amenity": "hospital", "healthcare": "hospital", "name": "Service psychothérapique pour enfants et adolescents", "ref:FR:FINESS": "670790161", "source": "cadastre-dgi-fr source : Direction Générale des Impôts - Cadastre;mise à jour : 2009", "type:FR:FINESS": "101"}}, {"name": "Hôpital de la Robertsau", "latitude": 48.6022549, "longitude": 7.7896583, "source": "osm", "_tags": {"addr:city": "Strasbourg", "addr:country": "FR", "addr:housenumber": "83", "addr:postcode": "67091", "addr:street": "Rue Himmerich", "amenity": "hospital", "healthcare": "hospital", "name": "Hôpital de la Robertsau", "ref:FR:FINESS": "670783133", "source": "cadastre-dgi-fr source : Direction Générale des Impôts - Cadastre. Mise à jour : 2009"}}, {"name": "Centre hospitalier de Haguenau", "latitude": 48.7973632, "longitude": 7.7778547, "source": "osm", "_tags": {"addr:city": "Haguenau", "addr:country": "FR", "addr:housenumber": "64", "addr:postcode": "67500", "addr:street": "Avenue du Professeur René Leriche", "amenity": "hospital", "emergency": "yes", "fax": "+33 3 88 06 30 30", "healthcare": "hospital", "healthcare:speciality": "intensive", "name": "Centre hospitalier de Haguenau", "operator:type": "public", "phone": "+33 3 88 06 33 33", "ref:FR:FINESS": "670000157", "source": "Direction Générale des Finances Publiques - Cadastre;mise à jour : 2009", "toilets:wheelchair": "yes", "type:FR:FINESS": "355", "website": "http://www.ch-haguenau.fr/", "wheelchair": "yes"}}, {"name": "Clinique Rhéna", "latitude": 48.5714423, "longitude": 7.7927311, "source": "osm", "_tags": {"addr:city": "Strasbourg", "addr:housenumber": "10", "addr:postcode": "67000", "addr:street": "Rue Catherine Kany", "amenity": "hospital", "check_date": "2025-10-02", "emergency": "yes", "fax": "+33 3 69 06 07 27", "healthcare": "hospital", "name": "Clinique Rhéna", "operator:type": "private", "phone": "+33 3 69 06 07 08", "ref:FR:FINESS": "670018068", "source": "survey, BDOrtho IGN", "type:FR:FINESS": "697", "website": "https://www.clinique-rhena.fr/"}}, {"name": "Institue univers de réadaptation Clémenceau", "latitude": 48.5369233, "longitude": 7.7232388, "source": "osm", "_tags": {"addr:city": "Illkirch-Graffenstaden", "addr:housenumber": "10", "addr:postcode": "67400", "addr:street": "Avenue Achille Baumann", "amenity": "hospital", "healthcare": "hospital", "name": "Institue univers de réadaptation Clémenceau", "operator": "UGECAM", "ref:FR:FINESS": "670781129", "source": "cadastre-dgi-fr source : Direction Générale des Impôts - Cadastre. Mise à jour : 2010", "type:FR:FINESS": "109"}}, {"name": "Clinique Saint-Luc", "latitude": 48.4827291, "longitude": 7.2240873, "source": "osm", "_tags": {"addr:city": "Schirmeck", "addr:country": "FR", "addr:housenumber": "10", "addr:postcode": "67130", "addr:street": "Rue des Forges", "amenity": "hospital", "emergency": "limited", "name": "Clinique Saint-Luc", "operator": "Fondation Vincent de Paul", "operator:type": "private", "phone": "+33 3 88 47 41 41", "ref:FR:FINESS": "670798636", "source": "cadastre-dgi-fr source : Direction Générale des Impôts - Cadastre. Mise à jour : 2010", "type:FR:FINESS": "365", "website": "https://www.ghsv.org/le-ghsv/nos-etablissements/clinique-saint-luc/"}}, {"name": "Centre Hospitalier Sainte-Catherine", "latitude": 48.7461877, "longitude": 7.3490899, "source": "osm", "_tags": {"addr:city": "Saverne", "addr:country": "FR", "addr:housenumber": "19", "addr:postcode": "67703", "addr:street": "Côte de Saverne", "amenity": "hospital", "emergency": "yes", "fax": "+33 3 88 71 66 34", "healthcare": "hospital", "healthcare:speciality": "intensive", "name": "Centre Hospitalier Sainte-Catherine", "operator:type": "public", "phone": "+33 3 88 71 67 67", "ref:FR:FINESS": "670000165", "source": "cadastre-dgi-fr source : Direction Générale des Impôts - Cadastre. Mise à jour : 2010", "type:FR:FINESS": "355", "website": "https://www.ch-saverne.fr/"}}, {"name": "CaritasKlinikum Saarbrücken St. Theresia", "latitude": 49.2484354, "longitude": 6.9597121, "source": "osm", "_tags": {"addr:city": "Saarbrücken", "addr:country": "DE", "addr:housenumber": "2", "addr:postcode": "66113", "addr:street": "Rheinstraße", "alt_name": "Caritas-Klinik St. Theresia", "amenity": "hospital", "contact:fax": "+49 681 406-2979", "contact:phone": "+49 681 406-0", "contact:website": "https://www.caritasklinik.de/", "emergency": "yes", "healthcare": "hospital", "name": "CaritasKlinikum Saarbrücken St. Theresia", "old_name": "Rastpfuhl-Krankenhaus", "operator": "Caritas Trägergesellschaft Saarbrücken mbH (cts)", "operator:wikidata": "Q1036345", "wheelchair": "yes", "wikidata": "Q1036327", "wikipedia": "de:CaritasKlinikum Saarbrücken"}}, {"name": "CaritasKlinikum Saarbrücken St. Josef Dudweiler", "latitude": 49.2770456, "longitude": 7.0412831, "source": "osm", "_tags": {"addr:city": "Saarbrücken", "addr:country": "DE", "addr:housenumber": "14", "addr:postcode": "66125", "addr:street": "Klosterstraße", "amenity": "hospital", "check_date": "2025-05-31", "contact:website": "https://www.caritasklinikum.de/", "emergency": "yes", "healthcare": "hospital", "name": "CaritasKlinikum Saarbrücken St. Josef Dudweiler", "operator": "Caritas Trägergesellschaft Saarbrücken mbH (cts)", "operator:wikidata": "Q1036345", "wheelchair": "yes", "wikidata": "Q1036327", "wikipedia": "de:CaritasKlinikum Saarbrücken"}}, {"name": "Hôpital de Jour Brumath", "latitude": 48.7168814, "longitude": 7.7097411, "source": "osm", "_tags": {"addr:city": "Brumath", "addr:housenumber": "108", "addr:postcode": "67170", "addr:street": "Avenue de Strasbourg", "amenity": "hospital", "healthcare": "hospital", "name": "Hôpital de Jour Brumath", "operator": "Etablissement Public de Santé Alsace Nord", "ref:FR:FINESS": "670017276", "type:FR:FINESS": "292"}}, {"name": "Klinikum Winterberg", "latitude": 49.2207818, "longitude": 6.9962557, "source": "osm", "_tags": {"addr:city": "Saarbrücken", "addr:country": "DE", "addr:housenumber": "1", "addr:postcode": "66119", "addr:street": "Winterberg", "amenity": "hospital", "contact:email": "info@klinikum-saarbruecken.de", "contact:phone": "+49 681 9630", "contact:website": "https://www.klinikum-saarbruecken.de/", "healthcare": "hospital", "name": "Klinikum Winterberg", "wheelchair": "yes", "wikidata": "Q1774651", "wikimedia_commons": "Category:Klinikum Saarbrücken"}}, {"name": "Kreiskrankenhaus St. Ingbert", "latitude": 49.2905501, "longitude": 7.1143481, "source": "osm", "_tags": {"amenity": "hospital", "area": "yes", "name": "Kreiskrankenhaus St. Ingbert", "wheelchair": "yes"}}, {"name": "Hôpital Saint-Jacques", "latitude": 48.4945852, "longitude": 7.462755, "source": "osm", "_tags": {"addr:city": "Rosheim", "addr:housenumber": "14", "addr:postcode": "67560", "addr:street": "Rue du Général de Gaulle", "amenity": "hospital", "healthcare": "hospital", "name": "Hôpital Saint-Jacques", "ref:FR:FINESS": "670000371", "source": "Le ministère des solidarités et de la santé - 03/2019", "type:FR:FINESS": "355"}}, {"name": "Städtisches Krankenhaus Pirmasens", "latitude": 49.1930324, "longitude": 7.6176774, "source": "osm", "_tags": {"addr:city": "Pirmasens", "addr:country": "DE", "addr:housenumber": "22", "addr:postcode": "66955", "addr:street": "Pettenkoferstraße", "amenity": "hospital", "building": "hospital", "contact:fax": "+49 6331 714 1023", "contact:phone": "+49 6331 714 0", "contact:website": "https://www.kh-pirmasens.de/", "emergency": "yes", "healthcare": "hospital", "name": "Städtisches Krankenhaus Pirmasens", "operator": "Städtisches Krankenhaus Pirmasens gGmbH", "toilets:wheelchair": "yes", "wheelchair": "yes"}}, {"name": "Diakonie-Klinikum Neunkirchen", "latitude": 49.3409204, "longitude": 7.1830697, "source": "osm", "_tags": {"addr:city": "Neunkirchen", "addr:country": "DE", "addr:housenumber": "20", "addr:postcode": "66538", "addr:street": "Brunnenstraße", "amenity": "hospital", "brand:wikidata": "Q1293073", "emergency": "yes", "healthcare": "hospital", "name": "Diakonie-Klinikum Neunkirchen", "operator": "Diakonie Klinikum Neunkirchen gGmbH", "phone": "+49 6821 18-0", "website": "https://www.kreuznacherdiakonie.de/Krankenhaeuser/Diakonie-Klinikum-Neunkirchen/", "wheelchair": "yes"}}, {"name": "Hôpital Saint-Joseph", "latitude": 48.9981818, "longitude": 7.0268503, "source": "osm", "_tags": {"addr:city": "Sarralbe", "addr:country": "FR", "addr:housenumber": "12", "addr:postcode": "57430", "addr:street": "rue de l'Hôpital", "amenity": "hospital", "email": "er@hopital-sarralbe.fr", "emergency": "no", "fax": "+33 3 87 97 02 66", "healthcare": "hospital", "name": "Hôpital Saint-Joseph", "operator:type": "private", "phone": "+33 3 87 97 32 00", "ref:FR:FINESS": "570000026", "type:FR:FINESS": "129", "website": "http://www.hopital-sarralbe.fr/"}}, {"name": "Centre Hospitalier Spécialisé de Sarreguemines", "latitude": 49.0990505, "longitude": 7.0904801, "source": "osm", "_tags": {"addr:city": "Sarreguemines", "addr:country": "FR", "addr:housenumber": "1", "addr:postcode": "57200", "addr:street": "Rue Calmette", "amenity": "hospital", "description:de": "Spezialisierte Zentralspital Steinbach", "emergency": "no", "fax": "+33 3 87 27 98 08", "healthcare": "hospital", "name": "Centre Hospitalier Spécialisé de Sarreguemines", "operator:type": "public", "phone": "+33 3 87 27 98 00", "ref:FR:FANTOIR": "57631A010B", "ref:FR:FINESS": "570000893", "type:FR:FINESS": "292", "website": "http://www.hopitaux-sarreguemines.fr/", "wikidata": "Q2945748", "wikipedia": "fr:Centre hospitalier spécialisé de Sarreguemines"}}, {"name": "Centre de Réadaptation Spécialisé Saint-Luc", "latitude": 48.6275767, "longitude": 7.1226923, "source": "osm", "_tags": {"addr:city": "Abreschviller", "addr:country": "FR", "addr:housenumber": "8", "addr:postcode": "57560", "addr:street": "Rue du Moulin de France", "amenity": "hospital", "healthcare": "hospital", "name": "Centre de Réadaptation Spécialisé Saint-Luc", "ref:FR:FINESS": "570000380", "source": "Le ministère des solidarités et de la santé - 03/2019"}}, {"name": "Fliedner Krankenhaus Neunkirchen", "latitude": 49.3481651, "longitude": 7.1859385, "source": "osm", "_tags": {"amenity": "hospital", "emergency": "yes", "healthcare": "hospital", "name": "Fliedner Krankenhaus Neunkirchen", "opening_hours": "24/7", "phone": "+49 6821 901-0", "website": "https://www.kreuznacherdiakonie.de/krankenhaeuser/fliedner-krankenhaus-neunkirchen/"}}, {"name": "Nardini Klinikum St. Johannis", "latitude": 49.3990394, "longitude": 7.5824246, "source": "osm", "_tags": {"addr:city": "Landstuhl", "addr:country": "DE", "addr:housenumber": "30", "addr:postcode": "66849", "addr:street": "Nardinistraße", "amenity": "hospital", "building": "hospital", "emergency": "yes", "healthcare": "hospital", "healthcare:speciality": "surgery;gynaecology;internal;cardiology;anaesthetics;emergency;orthopaedics;radiology;trauma", "name": "Nardini Klinikum St. Johannis", "opening_hours": "24/7", "operator": "Nardini Klinikum GmbH", "wheelchair": "yes"}}, {"name": "Hôpital Saint-Nicolas", "latitude": 48.7293827, "longitude": 7.0515903, "source": "osm", "_tags": {"addr:city": "Sarrebourg", "addr:country": "FR", "addr:housenumber": "25", "addr:postcode": "57400", "addr:street": "Avenue du Général de Gaulle", "amenity": "hospital", "emergency": "yes", "fax": "+33 3 87 23 23 00", "healthcare": "hospital", "name": "Hôpital Saint-Nicolas", "operator:type": "public", "phone": "+33 3 87 23 24 25", "ref:FR:FINESS": "570000117", "type:FR:FINESS": "355", "website": "https://www.ch-sarrebourg.fr/"}}, {"name": "Gebäude 1", "latitude": 49.3121302, "longitude": 7.3427953, "source": "osm", "_tags": {"addr:city": "Homburg", "addr:country": "DE", "addr:housenumber": "52", "addr:postcode": "66424", "addr:street": "Ringstraße", "blood:platelets": "yes", "blood:whole": "yes", "building": "yes", "healthcare": "hospital", "name": "Gebäude 1"}}, {"name": "SHG Kliniken Sonnenberg", "latitude": 49.201021, "longitude": 7.0110284, "source": "osm", "_tags": {"addr:city": "Saarbrücken", "addr:housenumber": "10", "addr:postcode": "66119", "addr:street": "Sonnenbergstraße", "amenity": "hospital", "contact:website": "https://sb.shg-kliniken.de/", "emergency": "no", "name": "SHG Kliniken Sonnenberg", "name:fr": "Clinique SHG du Sonnenberg", "operator:wikidata": "Q2209199", "wheelchair": "yes", "wikidata": "Q83439062"}}, {"name": "SHG Fachklinik Tiefental", "latitude": 49.1985354, "longitude": 7.0162285, "source": "osm", "_tags": {"amenity": "hospital", "healthcare": "hospital", "name": "SHG Fachklinik Tiefental", "operator:wikidata": "Q2209199"}}, {"name": "SHG-Klinik für Kinder- und Jugendpsychiatrie und -psychotherapie", "latitude": 49.153145, "longitude": 7.0482445, "source": "osm", "_tags": {"amenity": "hospital", "name": "SHG-Klinik für Kinder- und Jugendpsychiatrie und -psychotherapie", "operator": "SHG-Kliniken Sonnenberg"}}, {"name": "Marienhaus Klinikum Neunkirchen", "latitude": 49.3177614, "longitude": 7.2273199, "source": "osm", "_tags": {"addr:city": "Neunkirchen", "addr:housenumber": "1-5", "addr:postcode": "66539", "addr:street": "Klinikweg", "amenity": "hospital", "email": "info.koh@marienhaus.de", "emergency": "yes", "fax": "+49 6821 363-2600", "healthcare": "hospital", "name": "Marienhaus Klinikum Neunkirchen", "old_name": "Marienhausklinik St. Josef Kohlhof", "opening_hours": "24/7", "phone": "+49 6821 363-0", "website": "https://www.marienhausklinik-st-josef-kohlhof.de/", "wheelchair": "yes"}}, {"name": "Diakonie Kork", "latitude": 48.5667293, "longitude": 7.8657791, "source": "osm", "_tags": {"amenity": "hospital", "healthcare": "hospital", "name": "Diakonie Kork", "phone": "+49 7851 840", "toilets:wheelchair": "yes", "website": "https://www.diakonie-kork.de/", "wheelchair": "yes", "wikidata": "Q50038581", "wikipedia": "de:Epilepsiezentrum_Kork"}}, {"name": "Centre Hospitalier Spécialisé de Lorquin", "latitude": 48.6737004, "longitude": 7.0027842, "source": "osm", "_tags": {"amenity": "hospital", "emergency": "no", "healthcare": "hospital", "landuse": "healthcare", "name": "Centre Hospitalier Spécialisé de Lorquin", "ref:FR:FINESS": "570000885", "source": "Le ministère des solidarités et de la santé - 03/2019", "type:FR:FINESS": "292"}}, {"name": "Centre hospitalier intercommunal de la Lauter", "latitude": 49.0415645, "longitude": 7.9321852, "source": "osm", "_tags": {"addr:city": "Wissembourg", "addr:housenumber": "24", "addr:postcode": "67166", "addr:street": "Route de Weiler", "amenity": "hospital", "check_date": "2025-03-10", "emergency": "yes", "fax": "+33 3 88 54 11 12", "healthcare": "hospital", "name": "Centre hospitalier intercommunal de la Lauter", "operator:type": "public", "phone": "+33 3 88 54 11 11", "ref:FR:FINESS": "670000272", "type:FR:FINESS": "355", "website": "https://www.ch-wissembourg.fr/"}}, {"name": "Centre de Réadaptation Château Walk", "latitude": 48.7932393, "longitude": 7.7691238, "source": "osm", "_tags": {"addr:city": "Haguenau", "addr:housenumber": "1", "addr:postcode": "67500", "addr:street": "Rue du Château Walk", "amenity": "hospital", "healthcare": "hospital", "name": "Centre de Réadaptation Château Walk", "ref:FR:FINESS": "670000249", "type:FR:FINESS": "109"}}, {"name": "Nouvel Hôpital d'Obernai", "latitude": 48.4552441, "longitude": 7.4886071, "source": "osm", "_tags": {"addr:city": "Obernai", "addr:country": "FR", "addr:housenumber": "3", "addr:postcode": "67210", "addr:street": "Avenue du Maire Gillmann", "amenity": "hospital", "healthcare": "hospital", "name": "Nouvel Hôpital d'Obernai", "operator": "Groupe hospitalier Sélestat-Obernai", "operator:type": "public", "phone": "+33 3 88 95 14 00", "ref:FR:FINESS": "670000405", "short_name": "NHO", "start_date": "2019-05-20", "type:FR:FINESS": "355", "website": "https://www.ghso.fr/"}}, {"name": "Centre de Réadaptation fonctionnelle de Schirmeck", "latitude": 48.4870752, "longitude": 7.21596, "source": "osm", "_tags": {"addr:city": "Schirmeck", "addr:country": "FR", "addr:housenumber": "32", "addr:postcode": "67130", "addr:street": "Rue de l'Ancien Sanatorium", "amenity": "hospital", "healthcare": "hospital", "name": "Centre de Réadaptation fonctionnelle de Schirmeck", "ref:FR:FINESS": "670780915", "type:FR:FINESS": "109"}}, {"name": "ehemalige Knappschaftsklinik Quierschied", "latitude": 49.3119058, "longitude": 7.0366443, "source": "osm", "_tags": {"amenity": "hospital", "emergency": "no", "healthcare": "hospital", "name": "ehemalige Knappschaftsklinik Quierschied"}}, {"name": "Centre Médico-Chirurgical et Obstétrical", "latitude": 48.6004476, "longitude": 7.7500196, "source": "osm", "_tags": {"addr:city": "Schiltigheim", "addr:country": "FR", "addr:housenumber": "19", "addr:postcode": "67300", "addr:street": "Rue Louis Pasteur", "alt_name": "C.M.C.O.", "amenity": "hospital", "check_date": "2025-03-25", "fax": "+33388628370", "healthcare": "hospital", "name": "Centre Médico-Chirurgical et Obstétrical", "phone": "+33388628300", "ref:FR:FINESS": "670780113", "ref:FR:SIRET": "26670057400459", "source": "Le ministère des solidarités et de la santé - 2021-01", "type:FR:FINESS": "101"}}, {"name": "Centre Paul Strauss", "latitude": 48.5764092, "longitude": 7.7510095, "source": "osm", "_tags": {"addr:city": "Strasbourg", "addr:country": "FR", "addr:housenumber": "3", "addr:postcode": "67065", "addr:street": "Rue de la Porte de l'Hôpital", "amenity": "hospital", "healthcare": "hospital", "name": "Centre Paul Strauss", "ref:FR:FINESS": "670000033", "type:FR:FINESS": "131", "website": "https://www.centre-paul-strauss.fr/", "wikidata": "Q89798279"}}, {"name": "Hôpital Saint-Joseph", "latitude": 49.0459087, "longitude": 7.4220063, "source": "osm", "_tags": {"addr:city": "Bitche", "addr:country": "FR", "addr:housenumber": "1a", "addr:postcode": "57230", "addr:street": "Rue de Lebach", "amenity": "hospital", "emergency": "yes", "fax": "+33387987676", "healthcare": "hospital", "name": "Hôpital Saint-Joseph", "name:de": "St. Joseph Krankenhaus", "name:en": "St. Joseph Hospital", "name:pfl": "Bitscher Spital", "phone": "+33387987600", "ref:FR:FINESS": "570000661", "ref:FR:SIRET": "26570005400066", "source": "Le ministère des solidarités et de la santé - 2021-01", "type:FR:FINESS": "355"}}, {"name": "Clinique Sainte-Odile", "latitude": 48.8187638, "longitude": 7.7925561, "source": "osm", "_tags": {"addr:city": "Haguenau", "addr:country": "FR", "addr:housenumber": "6", "addr:postcode": "67500", "addr:street": "Rue des Prémontrés", "amenity": "hospital", "check_date": "2025-05-27", "healthcare": "hospital", "name": "Clinique Sainte-Odile", "ref:FR:FINESS": "670780386", "type:FR:FINESS": "365"}}, {"name": "Clinique de l'Orangerie", "latitude": 48.5881667, "longitude": 7.7647546, "source": "osm", "_tags": {"addr:city": "Strasbourg", "addr:country": "FR", "addr:housenumber": "29", "addr:postcode": "67000", "addr:street": "Allée de la Robertsau", "amenity": "hospital", "check_date": "2024-08-20", "healthcare": "hospital", "name": "Clinique de l'Orangerie", "ref:FR:FINESS": "670780170", "type:FR:FINESS": "365"}}, {"name": "Centre de rééducation et de réadaptation d’Alsace du Nord (CERRAN)", "latitude": 48.9064938, "longitude": 7.7470122, "source": "osm", "_tags": {"addr:city": "Morsbronn-les-Bains", "addr:housenumber": "12", "addr:postcode": "67360", "addr:street": "Route de Haguenau", "amenity": "hospital", "healthcare": "hospital", "healthcare:speciality": "rheumatology", "name": "Centre de rééducation et de réadaptation d’Alsace du Nord (CERRAN)", "ref:FR:FINESS": "670780550", "type:FR:FINESS": "109"}}, {"name": "Hôpital Le Neuenberg", "latitude": 48.8718753, "longitude": 7.4859908, "source": "osm", "_tags": {"addr:city": "Ingwiller", "addr:housenumber": "38", "addr:postcode": "67340", "addr:street": "Rue du Pasteur Herrmann", "amenity": "hospital", "healthcare": "hospital", "name": "Hôpital Le Neuenberg"}}, {"name": "Knappschaftskrankenhaus Sulzbach", "latitude": 49.2977707, "longitude": 7.0547666, "source": "osm", "_tags": {"amenity": "hospital", "name": "Knappschaftskrankenhaus Sulzbach", "wikidata": "Q1776900", "wikimedia_commons": "Category:Klinik Sulzbach"}}, {"name": "Hôpital Psychiatrique EPSAN à Cronenbourg", "latitude": 48.6045632, "longitude": 7.7149985, "source": "osm", "_tags": {"addr:city": "Strasbourg", "addr:housenumber": "20", "addr:postcode": "67200", "addr:street": "Rue Becquerel", "amenity": "hospital", "healthcare": "hospital", "name": "Hôpital Psychiatrique EPSAN à Cronenbourg"}}, {"name": "", "latitude": 49.1559581, "longitude": 7.7920247, "source": "osm", "_tags": {"amenity": "hospital", "healthcare": "hospital"}}, {"name": "", "latitude": 48.4297941, "longitude": 7.6837752, "source": "osm", "_tags": {"addr:city": "Erstein", "addr:housenumber": "13", "addr:postcode": "67150", "addr:street": "Route de Kraft", "amenity": "hospital", "healthcare": "hospital"}}, {"name": "Centre Hospitalier Spécialisé d'Erstein", "latitude": 48.4297941, "longitude": 7.6837752, "source": "osm", "_tags": {"CLC:id": "FR-43557", "amenity": "hospital", "healthcare": "hospital", "name": "Centre Hospitalier Spécialisé d'Erstein", "ref:FR:FINESS": "670000603", "source": "Direction Générale des Finances Publiques - Cadastre ; mise à jour : 2010", "type:FR:FINESS": "292"}}, {"name": "Nouvel Hôpital Civil", "latitude": 48.5752252, "longitude": 7.7409899, "source": "osm", "_tags": {"addr:housename": "Nouvel hôpital civil", "addr:street": "Quai Menachem Taffel", "building": "hospital", "building:colour": "gray", "building:levels": "6", "building:material": "metal", "emergency": "yes", "healthcare": "hospital", "healthcare:speciality": "intensive", "name": "Nouvel Hôpital Civil", "operator:type": "public", "short_name": "NHC", "source": "cadastre-dgi-fr source : Direction Générale des Impôts - Cadastre;mise à jour : 2009", "type": "multipolygon", "wikidata": "Q3345109", "wikipedia": "fr:Nouvel Hôpital civil"}}, {"name": "Ortenau Klinikum Offenburg-Kehl", "latitude": 48.5677063, "longitude": 7.811834, "source": "osm", "_tags": {"addr:city": "Kehl", "addr:country": "DE", "addr:housenumber": "2", "addr:postcode": "77694", "addr:street": "Kanzmattstraße", "amenity": "hospital", "building": "yes", "emergency": "yes", "healthcare": "hospital", "name": "Ortenau Klinikum Offenburg-Kehl", "phone": "+49 7851 8730", "source": "LGL-BW", "type": "multipolygon", "website": "https://offenburg-kehl.ortenau-klinikum.de/", "wheelchair": "yes"}}, {"name": "Universitätsklinikum des Saarlandes", "latitude": 49.3068447, "longitude": 7.3453577, "source": "osm", "_tags": {"addr:city": "Homburg", "addr:country": "DE", "addr:housenumber": "100", "addr:postcode": "66424", "addr:street": "Kirrberger Straße", "amenity": "hospital", "contact:email": "info@uniklinikum-saarland.de", "contact:phone": "+49 6841 160", "contact:website": "http://www.uniklinikum-saarland.de/", "emergency": "yes", "health_facility:type": "hospital", "healthcare": "hospital", "medical_system:western": "yes", "name": "Universitätsklinikum des Saarlandes", "short_name": "UKS", "type": "multipolygon", "wikidata": "Q47507885"}}, {"name": "Hals-, Nasen- und Ohrenheilkunde, Urologie, Schule für Logopädie (Geb. 6)", "latitude": 49.3097722, "longitude": 7.3418881, "source": "osm", "_tags": {"building": "hospital", "healthcare": "hospital", "healthcare:speciality": "otolaryngology;urologie", "name": "Hals-, Nasen- und Ohrenheilkunde, Urologie, Schule für Logopädie (Geb. 6)", "type": "multipolygon", "wheelchair": "yes"}}, {"name": "St. Elisabeth-Krankenhaus", "latitude": 49.2415628, "longitude": 7.6342085, "source": "osm", "_tags": {"addr:city": "Rodalben", "addr:country": "DE", "addr:housenumber": "14", "addr:postcode": "66976", "addr:street": "Kirchbergstraße", "amenity": "hospital", "building": "hospital", "contact:email": "info@rod.marienhaus-gmbh.de", "contact:fax": "+49 6331 177-96", "contact:phone": "+49 6331 177-0", "contact:website": "https://www.krankenhaus-rodalben.de", "healthcare": "hospital", "name": "St. Elisabeth-Krankenhaus", "operator": "St. Elisabeth-Stiftung Rodalben", "type": "multipolygon", "wheelchair": "yes"}}]