[{"name": "MEDIAN Klinik Gunzenbachhof", "latitude": 48.7486287, "longitude": 8.244032, "source": "osm", "_tags": {"addr:city": "Baden-Baden", "addr:country": "DE", "addr:housenumber": "6", "addr:postcode": "76530", "addr:street": "Gunzenbachstraße", "amenity": "hospital", "emergency": "yes", "healthcare": "hospital", "healthcare:speciality": "psychiatry", "name": "MEDIAN Klinik Gunzenbachhof", "operator": "MEDIAN Kliniken", "phone": "+49 7221 9360", "website": "https://www.median-kliniken.de/de/median-klinik-gunzenbachhof-baden-baden/"}}, {"name": "Ortenau Klinikum Offenburg-Gengenbach", "latitude": 48.4761467, "longitude": 7.9555411, "source": "osm", "_tags": {"addr:city": "Offenburg", "addr:housenumber": "12", "addr:postcode": "77654", "addr:street": "Ebertplatz", "amenity": "hospital", "check_date": "2025-01-25", "contact:phone": "+49 781 472-0", "emergency": "yes", "healthcare": "hospital", "name": "Ortenau Klinikum Offenburg-Gengenbach", "website": "https://offenburg-gengenbach.ortenau-klinikum.de/", "wheelchair": "yes", "wikidata": "Q1359970", "wikipedia": "de:Ortenau Klinikum"}}, {"name": "Arcus Sportklinik", "latitude": 48.8977899, "longitude": 8.664974, "source": "osm", "_tags": {"addr:city": "Pforzheim", "addr:housenumber": "17-19", "addr:postcode": "75179", "addr:street": "Rastatter Straße", "amenity": "hospital", "fax": "+49 7231 605563044", "healthcare": "hospital", "healthcare:speciality": "orthopaedics;surgery;radiology;anaesthetics;podiatry;trauma", "name": "Arcus Sportklinik", "phone": "+49 7231 605560", "website": "https://www.sportklinik.de/", "wheelchair": "yes"}}, {"name": "CELENUS Klinik Schömberg", "latitude": 48.7895451, "longitude": 8.6560649, "source": "osm", "_tags": {"amenity": "hospital", "healthcare": "hospital", "name": "CELENUS Klinik Schömberg", "operator": "Psychosomatische Fachklinik Schömberg GmbH", "website": "https://www.klinik-schoemberg.de/", "wheelchair": "yes"}}, {"name": "Paracelsus Krankenhaus", "latitude": 48.7818812, "longitude": 8.7233692, "source": "osm", "_tags": {"addr:city": "Bad Liebenzell", "addr:country": "DE", "addr:housenumber": "60", "addr:postcode": "75378", "addr:street": "Burghaldenweg", "addr:suburb": "Unterlengenhardt", "amenity": "hospital", "check_date": "2024-05-10", "healthcare:speciality": "homeopathy;oncology;internal;physiotherapy;emergency;acupuncture;covid19;gastroenterology;blood_check;massage_therapy", "internet_access:fee": "customers", "name": "Paracelsus Krankenhaus", "website": "https://www.paracelsus-krankenhaus.de/", "wheelchair": "yes", "wikidata": "Q63342548"}}, {"name": "Rochus Klinik", "latitude": 49.2199506, "longitude": 8.6664432, "source": "osm", "_tags": {"addr:city": "Bad Schönborn", "addr:country": "DE", "addr:housenumber": "1", "addr:postcode": "76669", "addr:street": "Sankt-Rochus-Allee", "addr:suburb": "Bad Mingolsheim", "amenity": "hospital", "name": "Rochus Klinik", "operator:wikidata": "Q1036345", "website": "https://www.sankt-rochus-kliniken.de/", "wheelchair": "yes"}}, {"name": "Kurpfalzkrankenhaus", "latitude": 49.4136043, "longitude": 8.6538078, "source": "osm", "_tags": {"amenity": "hospital", "healthcare": "hospital", "healthcare:speciality": "neurology;cardiology;internal;haematology;angiology;urology", "name": "Kurpfalzkrankenhaus", "official_name": "SRH Kurpfalzkrankenhaus", "toilets:wheelchair": "yes", "website": "https://www.srh.de/de/kk-heidelberg/index.html", "wheelchair": "yes", "wikidata": "Q19521035", "wikipedia": "de:SRH Kurpfalzkrankenhaus Heidelberg"}}, {"name": "Sigel Klinik", "latitude": 49.203044, "longitude": 8.6501044, "source": "osm", "_tags": {"amenity": "hospital", "check_date": "2024-04-26", "emergency": "no", "name": "Sigel Klinik", "wheelchair": "yes"}}, {"name": "Klinik für Allgemeine Innere Medizin und Psychosomatik", "latitude": 49.4155972, "longitude": 8.6663847, "source": "osm", "_tags": {"addr:city": "Heidelberg", "addr:housenumber": "410", "addr:postcode": "69120", "addr:street": "Im Neuenheimer Feld", "amenity": "hospital", "check_date": "2024-05-24", "name": "Klinik für Allgemeine Innere Medizin und Psychosomatik", "phone": "+49 6221 565888", "source": "Universitätsklinikum Heidelberg", "toilets:wheelchair": "yes", "website": "https://www.klinikum.uni-heidelberg.de/Klinik-fuer-Allgemeine-Innere-Medizin-und-Psychosomatik.1088.0.html", "wheelchair": "yes"}}, {"name": "Medizinisches Versorgungszentrum", "latitude": 48.4449541, "longitude": 8.6912146, "source": "osm", "_tags": {"addr:city": "Horb am Neckar", "addr:country": "DE", "addr:housenumber": "9", "addr:postcode": "72160", "addr:street": "Burgstall", "amenity": "hospital", "healthcare": "hospital", "name": "Medizinisches Versorgungszentrum", "website": "https://www.klf-web.de/"}}, {"name": "Klinik für Geriatrische Rehabilitation", "latitude": 48.4449328, "longitude": 8.6915405, "source": "osm", "_tags": {"addr:city": "Horb am Neckar", "addr:country": "DE", "addr:housenumber": "9", "addr:postcode": "72160", "addr:street": "Burgstall", "amenity": "hospital", "healthcare": "rehabilitation", "healthcare:speciality": "geriatrics", "name": "Klinik für Geriatrische Rehabilitation", "website": "https://www.klf-web.de/"}}, {"name": "Institut für Humangenetik", "latitude": 49.4168447, "longitude": 8.6628963, "source": "osm", "_tags": {"addr:city": "Heidelberg", "addr:housenumber": "440", "addr:postcode": "69120", "addr:street": "Im Neuenheimer Feld", "amenity": "hospital", "name": "Institut für Humangenetik", "phone": "+49 6221 565087", "source": "Universitätsklinikum Heidelberg", "website": "https://www.klinikum.uni-heidelberg.de/Institut-fuer-Humangenetik.5035.0.html", "wheelchair": "yes"}}, {"name": "Frauenklinik", "latitude": 49.4166199, "longitude": 8.6628954, "source": "osm", "_tags": {"addr:city": "Heidelberg", "addr:housenumber": "440", "addr:postcode": "69120", "addr:street": "Im Neuenheimer Feld", "amenity": "hospital", "healthcare": "hospital", "name": "Frauenklinik", "phone": "+49 6221 567856", "source": "Universitätsklinikum Heidelberg", "website": "https://www.klinikum.uni-heidelberg.de/Universitaets-Frauenklinik.331.0.html", "wheelchair": "yes", "wikidata": "Q30265164"}}, {"name": "Hautklinik", "latitude": 49.4169203, "longitude": 8.662535, "source": "osm", "_tags": {"addr:city": "Heidelberg", "addr:housenumber": "440", "addr:postcode": "69120", "addr:street": "Im Neuenheimer Feld", "amenity": "hospital", "healthcare": "hospital", "name": "Hautklinik", "phone": "+49 6221 568589", "source": "Universitätsklinkum Heidelberg", "website": "https://www.klinikum.uni-heidelberg.de/Hautklinik.113977.0.html", "wheelchair": "yes", "wikidata": "Q30265165"}}, {"name": "Augenklinik OP-Zentrum", "latitude": 48.971135, "longitude": 8.4087624, "source": "osm", "_tags": {"amenity": "hospital", "healthcare": "hospital", "name": "Augenklinik OP-Zentrum", "operator": "ViDia Christliche Kliniken", "operator:type": "religious"}}, {"name": "Mobiler Defibrillator", "latitude": 49.0985953, "longitude": 8.0551513, "source": "osm", "_tags": {"addr:city": "Oberhausen", "addr:housenumber": "14", "addr:postcode": "76887", "addr:street": "Raiffeisenstraße", "description": "Mobiler Defibrillator in der Gemeinschaftshalle", "emergency": "defibrillator", "healthcare": "hospital", "name": "Mobiler Defibrillator", "operator": "Gemeinde Oberhausen", "operator:type": "public"}}, {"name": "Dr. Römer Kliniken", "latitude": 48.7362333, "longitude": 8.7321104, "source": "osm", "_tags": {"amenity": "hospital", "healthcare": "hospital", "healthcare:speciality": "depth", "name": "Dr. Römer Kliniken", "source": "survey", "website": "https://www.roemerklinik.de/"}}, {"name": "Asklepios Südpfalzklinik Kandel", "latitude": 49.0861819, "longitude": 8.2008986, "source": "osm", "_tags": {"amenity": "hospital", "email": "kandel@asklepios.com", "fax": "+49 7275 71-2603", "healthcare": "hospital", "name": "Asklepios Südpfalzklinik Kandel", "operator": "Asklepios Kliniken", "operator:type": "private", "operator:wikidata": "Q732068", "phone": "+49 7275 71-0", "website": "https://www.asklepios.com/kandel/"}}, {"name": "Heidelberger Ionenstrahl-Therapiezentrum", "latitude": 49.4177098, "longitude": 8.6641472, "source": "osm", "_tags": {"addr:city": "Heidelberg", "addr:housenumber": "450", "addr:postcode": "69120", "addr:street": "Im Neuenheimer Feld", "amenity": "hospital", "building": "hospital", "building:levels": "0", "elevator": "yes", "healthcare": "hospital", "name": "Heidelberger Ionenstrahl-Therapiezentrum", "note": "Die südöstliche Gebäudebegrenzung folgt dem 1. UG.", "roof:levels": "1", "roof:shape": "many", "short_name": "HIT", "toilets:wheelchair": "yes", "wheelchair": "yes", "wikidata": "Q1366496", "wikipedia": "de:Heidelberger Ionenstrahl-Therapiezentrum"}}, {"name": "Zentrum für Schmerztherapie und Palliativmedizin", "latitude": 49.4130517, "longitude": 8.6696257, "source": "osm", "_tags": {"addr:city": "Heidelberg", "addr:housenumber": "131", "addr:postcode": "69120", "addr:street": "Im Neuenheimer Feld", "alt_name": "Schmerzzentrum", "amenity": "hospital", "building": "yes", "building:levels": "11", "check_date": "2024-06-04", "description": "Behindertenparkplätze vorhanden", "elevator": "yes", "name": "Zentrum für Schmerztherapie und Palliativmedizin", "phone": "+49 6221 566254", "roof:shape": "flat", "toilets:wheelchair": "yes", "website": "https://www.klinikum.uni-heidelberg.de/Zentrum-fuer-Schmerztherapie-und-Palliativmedizin.503.0.html", "wheelchair": "yes"}}, {"name": "Nierenzentrum Heidelberg", "latitude": 49.4141468, "longitude": 8.665817, "source": "osm", "_tags": {"addr:city": "Heidelberg", "addr:housenumber": "162", "addr:postcode": "69120", "addr:street": "Im Neuenheimer Feld", "amenity": "hospital", "building": "yes", "description": "Behindertenparkplätze vorhanden", "elevator": "yes", "name": "Nierenzentrum Heidelberg", "short_name": "NZH", "toilets:wheelchair": "yes", "website": "https://www.nierenzentrum-heidelberg.com", "wheelchair": "yes", "wikidata": "Q50038730"}}, {"name": "Diakonissen-Stiftungs-Krankenhaus Speyer (Haus Hilgardstraße)", "latitude": 49.3109941, "longitude": 8.4346812, "source": "osm", "_tags": {"addr:city": "Speyer", "addr:country": "DE", "addr:housenumber": "33", "addr:postcode": "67346", "addr:street": "Paul-Egell-Straße", "alt_name": "Diakonissen-Stiftungs-Krankenhaus Speyer", "amenity": "hospital", "emergency": "yes", "healthcare": "hospital", "name": "Diakonissen-Stiftungs-Krankenhaus Speyer (Haus Hilgardstraße)", "phone": "+49 6232 221796", "toilets:wheelchair": "yes", "website": "https://www.diakonissen.de/", "wheelchair": "yes", "wheelchair:description": "ebenerdig, schwellenlos erreichbar, mit Behinderten WC, mit Behindertenparkplatz"}}, {"name": "Psychiatrisches Zentrum Nordbaden", "latitude": 49.3035368, "longitude": 8.7066767, "source": "osm", "_tags": {"addr:city": "Wiesloch", "addr:country": "DE", "addr:housenumber": "1a", "addr:postcode": "69168", "addr:street": "Heidelberger Straße", "amenity": "hospital", "beds": "603", "email": "info@pzn-wiesloch.de", "fax": "+496222552484", "healthcare": "hospital", "healthcare:speciality": "psychiatry", "iknumber": "260820832", "locationnumber": "772667000", "name": "Psychiatrisches Zentrum Nordbaden", "phone": "+49 6222 550", "short_name": "PZN", "website": "https://www.pzn-wiesloch.de/", "wikidata": "Q2115903", "wikipedia": "de:Psychiatrisches Zentrum Nordbaden"}}, {"name": "Kraichtal-Kliniken Therapiezentrum Münzesheim", "latitude": 49.1226705, "longitude": 8.7306817, "source": "osm", "_tags": {"amenity": "hospital", "email": "info@kraichtal-kliniken.de", "healthcare": "hospital", "internet_access": "wlan", "name": "Kraichtal-Kliniken Therapiezentrum Münzesheim", "opening_hours": "24/7", "phone": "07250 60-511", "website": "https://www.kraichtal-kliniken.de/kliniken/therapiezentrum-muenzesheim/", "wheelchair": "yes"}}, {"name": "Quellenhof (Neurologisches Rehabilitationszentrum)", "latitude": 48.748649, "longitude": 8.5499421, "source": "osm", "_tags": {"addr:city": "Bad Wildbad", "addr:housenumber": "2", "addr:postcode": "75323", "addr:street": "Kuranlagenallee", "amenity": "hospital", "building": "hospital", "building:levels": "4", "check_date": "2025-07-19", "description": "Frühreha-Phase, der Phase C sowie der Phase D versorgt.Schwerpunkten der Klinik gehört Multiple Sklerose, Schlaganfall, Post-Polio-Syndrom, Guillain Barré-Syndrom.", "healthcare": "hospital", "name": "Quellenhof (Neurologisches Rehabilitationszentrum)", "phone": "+49 7081 173-0", "roof:levels": "1", "toilets:wheelchair": "yes", "website": "https://www.quellenhof.de/home.html", "wheelchair": "yes"}}, {"name": "Marienhaus Klinikum Hetzelstift Neustadt/Weinstraße", "latitude": 49.3461013, "longitude": 8.1502651, "source": "osm", "_tags": {"amenity": "hospital", "emergency": "yes", "healthcare": "hospital", "name": "Marienhaus Klinikum Hetzelstift Neustadt/Weinstraße", "opening_hours": "24/7", "operator": "Marienhaus", "operator:wikidata": "Q20828783", "short_name": "Hetzelstift", "wheelchair": "yes", "wikidata": "Q42916743"}}, {"name": "Sana Kliniken", "latitude": 48.7496685, "longitude": 8.5493391, "source": "osm", "_tags": {"amenity": "hospital", "building": "hospital", "description": "Sana Gelenk- und Rheumazentrum Baden-Württemberg; Sana Klinik für Innere Medizin Bad Wildbad", "healthcare": "hospital", "name": "Sana Kliniken", "operator": "Sana Kliniken", "operator:wikidata": "Q2220152", "website": "https://www.sana-wildbad.de/", "wheelchair": "yes"}}, {"name": "Nationales Centrum für Tumorerkrankungen", "latitude": 49.4184804, "longitude": 8.6638903, "source": "osm", "_tags": {"addr:city": "Heidelberg", "addr:housenumber": "460", "addr:postcode": "69120", "addr:street": "Im Neuenheimer Feld", "amenity": "hospital", "building": "hospital", "building:levels": "4", "elevator": "yes", "healthcare": "hospital", "name": "Nationales Centrum für Tumorerkrankungen", "roof:shape": "flat", "short_name": "NCT", "toilets:wheelchair": "yes", "wheelchair": "yes", "wikidata": "Q1968269", "wikipedia": "de:Nationales Centrum für Tumorerkrankungen"}}, {"name": "Klinikum Landau-Südliche Weinstraße", "latitude": 49.205821, "longitude": 8.1040769, "source": "osm", "_tags": {"amenity": "hospital", "check_date": "2024-12-01", "email": "mail@klinikum-ld-suew.de", "emergency": "yes", "fax": "+49 6341 908-2509", "healthcare": "hospital", "healthcare:speciality": "endocrinology;gastroenterology;gynaecology;otolaryngology;internal;cardiology;neurology;emergency;orthopaedics;trauma", "name": "Klinikum Landau-Südliche Weinstraße", "opening_hours": "24/7", "operator": "Klinikum Landau-Südliche Weinstraße GmbH", "phone": "+49 6341 908-0", "website": "https://www.klinikum-ld-suew.de/", "wheelchair": "yes"}}, {"name": "", "latitude": 49.4089796, "longitude": 8.6905265, "source": "osm", "_tags": {"addr:city": "Heidelberg", "addr:housenumber": "20", "addr:postcode": "69115", "addr:street": "Bergheimer Straße", "amenity": "hospital", "building": "hospital", "building:colour": "maroon", "building:levels": "3", "description": "Universitätsklinikum Heidelberg", "healthcare": "hospital", "phone": "+49 6221 568151", "ref": "Gebäude 4140", "roof:levels": "1", "roof:shape": "half-hipped", "website": "https://www.klinikum.uni-heidelberg.de/zentrum-fuer-psychosoziale-medizin-zpm/institut-fuer-medizinische-psychologie", "wheelchair": "limited"}}, {"name": "Kreiskrankenhaus Nagold", "latitude": 48.5420851, "longitude": 8.7223368, "source": "osm", "_tags": {"addr:city": "Nagold", "addr:country": "DE", "addr:housenumber": "20", "addr:postcode": "72202", "addr:street": "Röntgenstraße", "amenity": "hospital", "building": "yes", "emergency": "yes", "healthcare": "hospital", "name": "Kreiskrankenhaus Nagold", "toilets:wheelchair": "yes", "wheelchair": "yes"}}, {"name": "Klinik Öschelbronn CIMK", "latitude": 48.9035495, "longitude": 8.82459, "source": "osm", "_tags": {"amenity": "hospital", "building": "hospital", "healthcare": "hospital", "name": "Klinik Öschelbronn CIMK", "note": "Centrum für integrative Medizin und Krebstherapie"}}, {"name": "Fürst-Stirum-Klinik", "latitude": 49.1321559, "longitude": 8.6041556, "source": "osm", "_tags": {"addr:city": "Bruchsal", "addr:housenumber": "1-14", "addr:postcode": "76646", "addr:street": "Gutleutstraße", "amenity": "hospital", "emergency": "yes", "healthcare": "hospital", "name": "Fürst-Stirum-Klinik", "phone": "+49 7251 7080", "toilets:wheelchair": "yes", "website": "http://www.fuerst-stirum-klinik.de/", "wheelchair": "yes", "wheelchair:description": "Eingang ebenerdig, Behinderten-WC vorhanden."}}, {"name": "Rehabilitationseinrichtung für psychisch Kranke", "latitude": 48.902988, "longitude": 8.4991045, "source": "osm", "_tags": {"addr:city": "Karlsbad", "addr:country": "DE", "addr:housenumber": "4", "addr:postcode": "76307", "addr:street": "Guttmannstraße", "addr:suburb": "Langensteinbach", "amenity": "hospital", "building": "yes", "healthcare": "hospital", "name": "Rehabilitationseinrichtung für psychisch Kranke", "short_name": "RPK"}}, {"name": "HELIOS Klinikum Pforzheim", "latitude": 48.8893019, "longitude": 8.713055, "source": "osm", "_tags": {"amenity": "hospital", "fax": "+49 7231 9692417", "healthcare": "hospital", "name": "HELIOS Klinikum Pforzheim", "operator": "Helios Kliniken", "operator:type": "private", "operator:wikidata": "Q1254151", "phone": "+49 7231 9690", "website": "http://www.helios-kliniken.de/klinik/pforzheim.html", "wheelchair": "yes"}}, {"name": "Siloah St. Trudpert Klinikum", "latitude": 48.8972522, "longitude": 8.6742114, "source": "osm", "_tags": {"addr:city": "Pforzheim", "addr:housenumber": "67", "addr:postcode": "75179", "addr:street": "Wilferdinger Straße", "amenity": "hospital", "emergency": "yes", "healthcare": "hospital", "name": "Siloah St. Trudpert Klinikum", "wheelchair": "yes", "wikidata": "Q30260684"}}, {"name": "Klinik für Psychiatrie und psychotherapeutische Medizin", "latitude": 49.0118897, "longitude": 8.3803361, "source": "osm", "_tags": {"amenity": "hospital", "healthcare": "hospital", "healthcare:speciality": "psychiatry", "name": "Klinik für Psychiatrie und psychotherapeutische Medizin", "operator": "Städtisches Klinikum Karlsruhe", "website": "https://www.klinikum-karlsruhe.de/medizin/psychiatrische-kliniken/klinik-fuer-psychiatrie-und-psychotherapeutische-medizin/allgemeine-vorstellung.html", "wheelchair": "yes"}}, {"name": "Kreiskrankenhaus Rastatt", "latitude": 48.8614149, "longitude": 8.2056677, "source": "osm", "_tags": {"addr:city": "Rastatt", "addr:country": "DE", "addr:housenumber": "39", "addr:postcode": "76437", "addr:street": "Engelstraße", "building": "hospital", "building:levels": "4", "emergency": "yes", "healthcare": "hospital", "name": "Kreiskrankenhaus Rastatt", "roof:colour": "grey", "roof:shape": "flat", "wheelchair": "yes"}}, {"name": "Rommel-Klinik", "latitude": 48.7477428, "longitude": 8.5455201, "source": "osm", "_tags": {"addr:city": "Bad Wildbad", "addr:country": "DE", "addr:housenumber": "96", "addr:postcode": "75323", "addr:street": "Bätznerstraße", "amenity": "hospital", "building": "hospital", "healthcare:speciality": "orthopaedics", "name": "Rommel-Klinik", "phone": "+49 7081 171 106", "source": "Bing / Maps4BW, LGL, www.lgl-bw.de", "website": "https://www.rommel-klinik.de/", "wheelchair": "yes"}}, {"name": "Kliniken Schmieder Heidelberg", "latitude": 49.3953953, "longitude": 8.7086102, "source": "osm", "_tags": {"addr:city": "Heidelberg", "addr:country": "DE", "addr:housenumber": "1", "addr:place": "Speyererhof", "addr:postcode": "69117", "amenity": "hospital", "description": "Neurologische Reha-Klinik", "name": "Kliniken Schmieder Heidelberg", "old_name": "Speyererhof", "phone": "+49 6221 65400", "toilets:wheelchair": "yes", "website": "https://www.kliniken-schmieder.de/kliniken-und-standorte/heidelberg.html", "wheelchair": "yes", "wikipedia": "de:Kliniken Schmieder"}}, {"name": "GRN-Betreuungszentrum Sinsheim", "latitude": 49.2522172, "longitude": 8.8877404, "source": "osm", "_tags": {"addr:city": "Sinsheim", "addr:country": "DE", "addr:housenumber": "1", "addr:postcode": "74889", "addr:street": "Alte Waibstadter Straße", "amenity": "hospital", "healthcare": "rehabilitation", "name": "GRN-Betreuungszentrum Sinsheim", "operator": "Gesundheitszentren Rhein-Neckar", "operator:short": "GRN", "operator:type": "private_non_profit", "operator:wikidata": "Q48754438", "wheelchair": "yes", "wikidata": "Q48754438", "wikipedia": "de:GRN-Betreuungszentrum Sinsheim"}}, {"name": "GRN-Klinik Sinsheim", "latitude": 49.2524967, "longitude": 8.8910048, "source": "osm", "_tags": {"amenity": "hospital", "emergency": "yes", "healthcare": "hospital", "healthcare:speciality": "general;gynaecology;surgery;emergency;neurology;angiology;vascular_surgery;gastroenterology", "name": "GRN-Klinik Sinsheim", "operator": "Gesundheitszentren Rhein-Neckar", "operator:short": "GRN", "operator:type": "private_non_profit", "operator:wikidata": "Q48754458", "phone": "+49 7261 660", "wheelchair": "yes", "wikidata": "Q91452965", "wikipedia": "de:GRN-Klinik Sinsheim"}}, {"name": "Unfallchirurgie - ATOS", "latitude": 49.4103451, "longitude": 8.6912209, "source": "osm", "_tags": {"addr:city": "Heidelberg", "addr:country": "DE", "addr:housenumber": "5/1", "addr:postcode": "69115", "addr:street": "Luisenstraße", "amenity": "hospital", "building": "hospital", "building:levels": "4", "name": "Unfallchirurgie - ATOS", "roof:levels": "1", "roof:shape": "many", "source": "Maps4BW, LGL, www.lgl-bw.de", "website": "https://atos-kliniken.com", "wheelchair": "no"}}, {"name": "Reha-Zentrum Schömberg", "latitude": 48.798561, "longitude": 8.6511418, "source": "osm", "_tags": {"alt_name": "Klinik Schwarzwald", "amenity": "hospital", "healthcare": "hospital", "name": "Reha-Zentrum Schömberg", "website": "www.klinik-schwarzwald.de"}}, {"name": "Haus am Rödelsberg", "latitude": 48.4551928, "longitude": 8.559499, "source": "osm", "_tags": {"amenity": "hospital", "email": "info@haus-roedelsberg.de", "name": "Haus am Rödelsberg", "operator": "Maier Gruppe", "phone": "+49 7443 96806-0", "website": "https://unternehmensgruppe-maier.de/haeuser/haus-am-roedelsberg/"}}, {"name": "Klinikum Mittelbaden Hub", "latitude": 48.6646757, "longitude": 8.135317, "source": "osm", "_tags": {"addr:city": "Ottersweier", "addr:country": "DE", "addr:housenumber": "66", "addr:postcode": "77833", "addr:street": "Hubstraße", "amenity": "hospital", "email": "info.hub@klinikum-mittelbaden.de", "emergency": "no", "name": "Klinikum Mittelbaden Hub", "phone": "+49 7223 810", "website": "https://www.klinikum-mittelbaden.de/de/pflegeangebote/klinikum-mittelbaden-hub/index.php", "wheelchair": "yes", "wikidata": "Q38015842", "wikipedia": "de:Klinikum Mittelbaden Hub"}}, {"name": "", "latitude": 48.6825501, "longitude": 8.3578825, "source": "osm", "_tags": {"addr:city": "Forbach", "addr:country": "DE", "addr:housenumber": "17", "addr:postcode": "76596", "addr:street": "Friedrichstraße", "amenity": "hospital", "building": "hospital", "fax": "+49 7228 2031", "note": "ehemals Kreiskrankenhaus Forbach", "old_name": "Klinikum Mittelbaden Forbach"}}, {"name": "Rheumazentrum", "latitude": 48.7642913, "longitude": 8.2467357, "source": "osm", "_tags": {"addr:city": "Baden-Baden", "addr:country": "DE", "addr:housenumber": "5", "addr:postcode": "76530", "addr:street": "Rotenbachtalstraße", "amenity": "hospital", "building": "yes", "check_date": "2024-03-30", "contact:phone": "+49 7221 352-0", "emergency": "no", "healthcare": "hospital", "name": "Rheumazentrum", "source": "Aerowest", "website": "https://www.acura-kliniken.com/baden-baden/rheumazentrum/"}}, {"name": "Klinikum Mittelbaden Bühl", "latitude": 48.6852209, "longitude": 8.1410833, "source": "osm", "_tags": {"addr:city": "Bühl", "addr:country": "DE", "addr:housenumber": "70", "addr:postcode": "77815", "addr:street": "Robert-Koch-Straße", "amenity": "hospital", "emergency": "yes", "healthcare": "hospital", "name": "Klinikum Mittelbaden Bühl", "old_name": "Kreiskrankenhaus Bühl", "phone": "+49 7223 81-0", "website": "https://www.klinikum-mittelbaden.de/de/kliniken/klinikum-mittelbaden-buehl/index.php", "wheelchair": "yes", "wheelchair:description": "Um zu den Rollstuhl gerechten Aufzüge zu gelangen, muss an der Pforte (Haupteingang) angefragt werden. Die Personen-Aufzüge im Treppenhaus sind nicht Rollstuhl gerecht."}}, {"name": "DRK Seniorenzentrum", "latitude": 48.949535, "longitude": 8.8361464, "source": "osm", "_tags": {"addr:city": "Mühlacker", "addr:country": "DE", "addr:housenumber": "12/4", "addr:postcode": "75417", "addr:street": "Goethestraße", "amenity": "hospital", "brand": "Deutsches Rotes Kreuz", "brand:short": "DRK", "brand:wikidata": "Q694104", "brand:wikipedia": "de:Deutsches Rotes Kreuz", "building": "yes", "check_date": "2024-11-24", "healthcare": "hospital", "name": "DRK Seniorenzentrum", "operator": "Kreisverband Pforzheim-Enzkreis e.V."}}, {"name": "Klinikum Balg", "latitude": 48.7842943, "longitude": 8.2165185, "source": "osm", "_tags": {"addr:city": "Baden-Baden", "addr:country": "DE", "addr:housenumber": "50", "addr:postcode": "76532", "addr:street": "Balger Straße", "building": "hospital", "building:levels": "6", "email": "info.stadtklinik@klinikum-mittelbaden.de", "emergency": "yes", "fax": "+49 7221 912800", "healthcare": "hospital", "name": "Klinikum Balg", "official_name": "Klinikum Mittelbaden Baden-Baden Balg", "old_name": "Stadtklinik Baden-Baden", "operator": "Klinikum Mittelbaden gGmbH", "operator:wikidata": "Q1774640", "phone": "+49 7221 910", "roof:shape": "flat", "source": "HiRes Aerial Image", "website": "https://www.klinikum-mittelbaden.de/de/kliniken/klinikum-mittelbaden-baden-baden/klinikum-mittelbaden-baden-baden-balg/", "wheelchair": "yes", "wikidata": "Q38110868", "wikipedia": "de:Klinikum Mittelbaden Baden-Baden Balg"}}, {"name": "Institut für Psychosomatische Kooperationsforschung und Familientherapie, Personalwohngebäude", "latitude": 49.4082582, "longitude": 8.6863492, "source": "osm", "_tags": {"addr:city": "Heidelberg", "addr:country": "DE", "addr:housenumber": "54", "addr:postcode": "69115", "addr:street": "Bergheimer Straße", "amenity": "hospital", "building": "university", "building:colour": "#ff9e6b", "building:levels": "4", "building:material": "brick", "building:roof": "pitched", "name": "Institut für Psychosomatische Kooperationsforschung und Familientherapie, Personalwohngebäude", "phone": "+49 6221 564701", "roof:colour": "#eecfaf", "roof:levels": "1", "roof:shape": "gambrel", "source": "Universitätsklinikum Heidelberg", "website": "https://www.klinikum.uni-heidelberg.de/ZPM-Startseite.106894.0.html", "wheelchair": "no"}}, {"name": "Tropenmedizinische Ambulanz / Heidelberg Institute of Global Health (HIGH) / Zentrum für Infektiologie", "latitude": 49.4158401, "longitude": 8.6698214, "source": "osm", "_tags": {"addr:city": "Heidelberg", "addr:housenumber": "324", "addr:postcode": "69120", "addr:street": "Im Neuenheimer Feld", "amenity": "hospital", "building": "university", "building:colour": "lightyellow", "building:levels": "5", "building:levels:underground": "2", "building:obm": "80", "description": "Behindertengerecht", "elevator": "yes", "healthcare": "hospital", "healthcare:speciality": "tropenmedizin;parasitologie", "name": "Tropenmedizinische Ambulanz / Heidelberg Institute of Global Health (HIGH) / Zentrum für Infektiologie", "operator": "Universitätsklinikum Heidelberg", "phone": "+49 6221 5622999", "roof:shape": "flat", "source": "Universitätsklinikum Heidelberg", "toilets:wheelchair": "yes", "website": "https://www.klinikum.uni-heidelberg.de/Sektion-Klinische-Tropenmedizin.5489.0.html", "wheelchair": "yes"}}, {"name": "ViDia Christliche Kliniken Standort Südendstraße", "latitude": 48.9992211, "longitude": 8.3892653, "source": "osm", "_tags": {"addr:city": "Karlsruhe", "addr:country": "DE", "addr:housenumber": "32", "addr:postcode": "76137", "addr:street": "Südendstraße", "addr:suburb": "Südweststadt", "amenity": "hospital", "brand": "ViDia", "check_date": "2024-08-08", "contact:website": "http://www.vidia-kliniken.de", "emergency": "yes", "healthcare": "hospital", "name": "ViDia Christliche Kliniken Standort Südendstraße", "network": "ViDia Christliche Kliniken Karlsruhe", "operator": "Vincentius-Diakonissen-Kliniken gAG", "operator:type": "private_non_profit"}}, {"name": "Kinder- & Jugendpsychiatrie Heidelberg", "latitude": 49.4087811, "longitude": 8.6852753, "source": "osm", "_tags": {"addr:city": "Heidelberg", "addr:country": "DE", "addr:housenumber": "11", "addr:postcode": "69115", "addr:street": "Voßstraße", "amenity": "hospital", "building": "yes", "emergency": "yes", "healthcare": "doctor", "healthcare:speciality": "psychiatry", "name": "Kinder- & Jugendpsychiatrie Heidelberg", "operator": "Universitätsklinikum Heidelberg", "ref": "Gebäude 4314", "roof:shape": "flat"}}, {"name": "Klinikum Nordschwarzwald", "latitude": 48.7454956, "longitude": 8.715852, "source": "osm", "_tags": {"addr:city": "Calw", "addr:country": "DE", "addr:place": "Im Lützenhardter Hof", "addr:postcode": "75365", "addr:suburb": "Hirsau", "amenity": "hospital", "barrier": "fence", "contact:email": "info@kn-calw.de", "contact:fax": "+49 7051 586-2700", "contact:phone": "+49 7051 586-0", "contact:website": "https://www.kn-calw.de/", "description": "Zentrum für Psychiatrie Calw - Klinikum Nordschwarzwald", "emergency": "no", "landuse": "residential", "name": "Klinikum Nordschwarzwald", "operator": "Zentren für Psychiatrie in Baden-Württemberg", "wikidata": "Q15823872", "wikipedia": "de:Klinikum Nordschwarzwald"}}, {"name": "ViDia Christliche Kliniken Standort Steinhäuserstraße", "latitude": 48.9999115, "longitude": 8.378984, "source": "osm", "_tags": {"amenity": "hospital", "brand": "ViDia", "contact:website": "http://www.vidia-kliniken.de", "healthcare": "hospital", "name": "ViDia Christliche Kliniken Standort Steinhäuserstraße", "network": "ViDia Christliche Kliniken Karlsruhe", "operator": "Vincentius-Diakonissen-Kliniken gAG", "operator:type": "private_non_profit", "toilets:wheelchair": "yes", "wheelchair": "yes"}}, {"name": "Sankt Vincentius Krankenhaus", "latitude": 49.3160554, "longitude": 8.4213194, "source": "osm", "_tags": {"addr:city": "Speyer", "addr:country": "DE", "addr:housenumber": "4a", "addr:postcode": "67346", "addr:street": "Holzstraße", "amenity": "hospital", "check_date": "2024-04-03", "email": "verwaltung@vincentius-speyer.de", "fax": "+49 6232 133 293", "healthcare": "hospital", "name": "Sankt Vincentius Krankenhaus", "operator": "Krankenhausstiftung der Niederbronner Schwestern", "phone": "+49 6232 1330", "website": "https://www.vincentius-speyer.de/", "wheelchair": "yes", "wheelchair:description": "ebenerdig, schwellenlos erreichbar, mit Behinderten WC, mit Behindertenparkplatz", "wikidata": "Q1791754", "wikipedia": "de:Schwestern vom Göttlichen Erlöser"}}, {"name": "Ethianum", "latitude": 49.4093178, "longitude": 8.6843062, "source": "osm", "_tags": {"addr:city": "Heidelberg", "addr:country": "DE", "addr:housenumber": "6", "addr:postcode": "69115", "addr:street": "Voßstraße", "amenity": "hospital", "building": "yes", "building:levels": "4", "building:material": "sandstone", "check_date": "2024-05-15", "healthcare": "hospital", "name": "Ethianum", "roof:shape": "quadruple_saltbox", "toilets:wheelchair": "yes", "website": "https://ethianum-klinik-heidelberg.de", "wheelchair": "yes", "wikidata": "Q22674553"}}, {"name": "MediClin Reha-Zentrum", "latitude": 48.771068, "longitude": 8.3312429, "source": "osm", "_tags": {"amenity": "hospital", "contact:fax": "+49 7224 992410", "contact:phone": "+49 7224 9920", "contact:website": "http://reha-zentrum-gernsbach.de", "emergency": "no", "healthcare": "hospital", "name": "MediClin Reha-Zentrum", "operator": "Mediclin", "operator:wikidata": "Q1916295"}}, {"name": "St. Josefskrankenhaus", "latitude": 49.4025692, "longitude": 8.6891404, "source": "osm", "_tags": {"amenity": "hospital", "contact:phone": "+49 6221 5260", "contact:website": "https://st.josefskrankenhaus.de", "emergency": "yes", "emergency_telephone_code": "+49 6221 526888", "healthcare": "hospital", "name": "St. Josefskrankenhaus", "opening_hours": "24/7", "wheelchair": "yes"}}, {"name": "Centralklinik Pforzheim", "latitude": 48.8908341, "longitude": 8.6968337, "source": "osm", "_tags": {"amenity": "hospital", "building": "yes", "contact:city": "Pforzheim", "contact:country": "DE", "contact:email": "info@centralklinik.de", "contact:fax": "+49 7231 351295", "contact:housenumber": "22-24", "contact:phone": "+49 7231 3880", "contact:postcode": "75172", "contact:street": "Zerrennerstraße", "contact:website": "http://www.centralklinik-pforzheim.de/content.php", "healthcare": "hospital", "name": "Centralklinik Pforzheim", "source": "bing"}}, {"name": "pzm Physiotherapie Zentrum Mittelbaden", "latitude": 48.7658003, "longitude": 8.2542098, "source": "osm", "_tags": {"addr:city": "Baden-Baden", "addr:country": "DE", "addr:housenumber": "5", "addr:postcode": "76530", "addr:street": "Lilienmattstraße", "amenity": "hospital", "building": "yes", "healthcare": "hospital", "name": "pzm Physiotherapie Zentrum Mittelbaden", "name_official": "Klinikum Mittelbaden Baden-Baden Annaberg", "source": "Maps4BW, LGL, www.lgl-bw.de"}}, {"name": "Bethanien-Krankenhaus", "latitude": 49.3917759, "longitude": 8.6910169, "source": "osm", "_tags": {"addr:city": "Heidelberg", "addr:country": "DE", "addr:housenumber": "149", "addr:postcode": "69126", "addr:street": "Rohrbacher Straße", "amenity": "hospital", "healthcare": "hospital", "name": "Bethanien-Krankenhaus", "name:etymology:wikidata": "Q831190", "official_name": "Agaplesion Bethanien Krankenhaus Heidelberg", "website": "https://www.bethanien-heidelberg.de/", "wheelchair": "yes", "wikidata": "Q390555", "wikipedia": "de:Agaplesion Bethanien Krankenhaus Heidelberg"}}, {"name": "Neurologische Klinik Selzer", "latitude": 48.6046168, "longitude": 8.3584378, "source": "osm", "_tags": {"addr:city": "Baiersbronn", "addr:housenumber": "74", "addr:postcode": "72270", "addr:street": "Schifferstraße", "amenity": "hospital", "building": "hospital", "healthcare": "hospital", "name": "Neurologische Klinik Selzer"}}, {"name": "Zentrum für Psychosoziale Medizin", "latitude": 49.4092669, "longitude": 8.6860874, "source": "osm", "_tags": {"amenity": "hospital", "check_date": "2024-05-15", "healthcare": "hospital", "name": "Zentrum für Psychosoziale Medizin", "wheelchair": "limited"}}, {"name": "Klinik für Kinder- und Jugendpsychiatrie, Psychosomatik und Psychotherapie", "latitude": 49.0120252, "longitude": 8.3800276, "source": "osm", "_tags": {"addr:city": "Karlsruhe", "addr:housenumber": "7", "addr:postcode": "76133", "addr:street": "Südliche Hildapromenade", "amenity": "hospital", "building": "hospital", "building:levels": "2", "healthcare": "hospital", "healthcare:speciality": "psychiatry", "name": "Klinik für Kinder- und Jugendpsychiatrie, Psychosomatik und Psychotherapie", "operator": "Städtisches Klinikum Karlsruhe", "roof:shape": "flat", "source:geometry": "Maps4BW, LGL, www.lgl-bw.de;Bing 2013", "start_date": "2011", "website": "https://www.klinikum-karlsruhe.de/einrichtungen/psychiatrische-kliniken/kinder-und-jugendpsychiatrie-psychosomatik-und-psychotherapie/", "wheelchair": "yes", "wikidata": "Q125697636"}}, {"name": "Pfalzklinikum Klingenmünster", "latitude": 49.1502328, "longitude": 8.0143616, "source": "osm", "_tags": {"amenity": "hospital", "email": "info@pfalzklinikum.de", "emergency": "yes", "healthcare": "hospital", "healthcare:speciality": "child_psychiatry;neurology;psychiatry", "name": "Pfalzklinikum Klingenmünster", "phone": "+49 6349 900-0", "website": "https://www.pfalzklinikum.de/standorte/klingenmuenster/"}}, {"name": "Medizinische Klinik", "latitude": 49.416213, "longitude": 8.6664761, "source": "osm", "_tags": {"addr:city": "Heidelberg", "addr:housenumber": "410", "addr:postcode": "69120", "addr:street": "Im Neuenheimer Feld", "alt_name": "Ludolf-Krehl-Klinik", "amenity": "hospital", "description": "behindertengerecht", "elevator": "yes", "healthcare": "hospital", "name": "Medizinische Klinik", "toilets:wheelchair": "yes", "wheelchair": "yes", "wikidata": "Q101426898"}}, {"name": "Klinik Sankt Elisabeth", "latitude": 49.421185, "longitude": 8.6816458, "source": "osm", "_tags": {"addr:city": "Heidelberg", "addr:country": "DE", "addr:housenumber": "5-7", "addr:postcode": "69121", "addr:street": "Furtwänglerstraße", "amenity": "hospital", "check_date": "2024-07-01", "contact:phone": "+49 6221 4880", "emergency": "no", "healthcare": "hospital", "healthcare:speciality": "anaesthetics;gynaecology;orthopaedics;plastic_surgery", "name": "Klinik Sankt Elisabeth", "website": "https://www.sankt-elisabeth.de/", "wheelchair": "limited", "wikidata": "Q1774567", "wikipedia": "de:Klinik Sankt Elisabeth"}}, {"name": "Rechbergklinik", "latitude": 49.0337226, "longitude": 8.6972466, "source": "osm", "_tags": {"addr:city": "Bretten", "addr:housenumber": "15", "addr:postcode": "75015", "addr:street": "Virchowstraße", "amenity": "hospital", "emergency": "yes", "healthcare": "hospital", "name": "Rechbergklinik", "website": "http://www.rechbergklinik.de/", "wheelchair": "yes"}}, {"name": "Kraichtal-Kliniken, Haus Kraichtalblick", "latitude": 49.1083702, "longitude": 8.7092829, "source": "osm", "_tags": {"addr:city": "Kraichtal", "addr:housenumber": "46", "addr:postcode": "76703", "addr:street": "Sternackerstraße", "amenity": "hospital", "building": "hospital", "name": "Kraichtal-Kliniken, Haus Kraichtalblick"}}, {"name": "ViDia Christliche Kliniken Standort Edgar-von-Gierke-Straße", "latitude": 49.0013801, "longitude": 8.3784067, "source": "osm", "_tags": {"amenity": "hospital", "brand": "ViDia", "contact:website": "http://www.vidia-kliniken.de", "name": "ViDia Christliche Kliniken Standort Edgar-von-Gierke-Straße", "network": "ViDia Christliche Kliniken Karlsruhe", "operator": "Vincentius-Diakonissen-Kliniken gAG", "wheelchair": "yes"}}, {"name": "Reha-Fachklinik Haus Renchtal", "latitude": 48.5815979, "longitude": 8.0182379, "source": "osm", "_tags": {"addr:city": "Renchen", "addr:housenumber": "14", "addr:postcode": "77871", "addr:street": "Renchtalstraße", "amenity": "hospital", "emergency": "no", "name": "Reha-Fachklinik Haus Renchtal", "phone": "+49 7843 949113", "website": "https://www.bw-lv.de/de/fachkliniken/fachklinik-haus-renchtal/"}}, {"name": "Thoraxklinik Heidelberg", "latitude": 49.3778774, "longitude": 8.6902949, "source": "osm", "_tags": {"addr:city": "Heidelberg", "addr:housenumber": "1", "addr:postcode": "69126", "addr:street": "Röntgenstraße", "amenity": "hospital", "healthcare": "hospital", "name": "Thoraxklinik Heidelberg", "phone": "+49 6221 3960", "website": "https://www.thoraxklinik-heidelberg.de/", "wheelchair": "yes", "wikidata": "Q1411803", "wikipedia": "de:Thoraxklinik Heidelberg"}}, {"name": "Asklepios Südpfalzklinik Germersheim", "latitude": 49.2200087, "longitude": 8.365767, "source": "osm", "_tags": {"amenity": "hospital", "email": "germersheim@asklepios.com", "emergency": "yes", "fax": "+49 7274 504 113", "healthcare": "hospital", "name": "Asklepios Südpfalzklinik Germersheim", "opening_hours": "24/7", "operator": "Asklepios Kliniken", "operator:type": "private", "operator:wikidata": "Q732068", "phone": "+49 7274 504 0", "website": "https://www.asklepios.com/germersheim/"}}, {"name": "ATOS Klinik", "latitude": 49.4104386, "longitude": 8.6919701, "source": "osm", "_tags": {"amenity": "hospital", "fax": "+49 6221 983-919", "healthcare": "hospital", "name": "ATOS Klinik", "operator": "ATOS Praxisklinik GmbH & Co. KG", "phone": "+49 6221 9830", "source:geometry": "LGL, www.lgl-bw.de", "toilets:wheelchair": "yes", "website": "https://atos-kliniken.com/de/heidelberg/", "wheelchair": "yes"}}, {"name": "SRH Gesundheitszentrum Dobel", "latitude": 48.8013782, "longitude": 8.5034876, "source": "osm", "_tags": {"addr:city": "Dobel", "addr:country": "DE", "addr:housenumber": "49", "addr:postcode": "75335", "addr:street": "Neuenbürger Straße", "amenity": "hospital", "fax": "+497083 747 3617", "healthcare": "hospital", "healthcare:speciality": "oncology;orthopaedics;neurology", "name": "SRH Gesundheitszentrum Dobel", "operator": "SRH Gesundheitszentren Nordschwarzwald GmbH", "phone": "+49 7083 7470", "website": "https://www.gesundheitszentren-nordschwarzwald.de", "wheelchair": "yes"}}, {"name": "Privatklinik Bad Gleisweiler", "latitude": 49.242326, "longitude": 8.0602199, "source": "osm", "_tags": {"amenity": "hospital", "contact:email": "chefarzt@pkbg.de", "contact:fax": "+49 6345 940-188", "contact:phone": "+49 6345 9400", "contact:website": "https://www.privatklinik-bad-gleisweiler.de", "emergency": "no", "healthcare": "hospital", "name": "Privatklinik Bad Gleisweiler", "operator": "Privatklinik Bad Gleisweiler Hilz KG"}}, {"name": "Ortenauklinikum Achern", "latitude": 48.6253504, "longitude": 8.0659637, "source": "osm", "_tags": {"addr:city": "Achern", "addr:housenumber": "7", "addr:postcode": "77855", "addr:street": "Josef-Wurzler-Straße", "amenity": "hospital", "email": "verwaltung.ao@ortenau-klinikum.de", "emergency": "yes", "healthcare": "hospital", "name": "Ortenauklinikum Achern", "phone": "+49 7841 7000", "website": "https://achern-oberkirch.ortenau-klinikum.de/", "wheelchair": "yes"}}, {"name": "Orthopädische Klinik", "latitude": 49.4087725, "longitude": 8.773225, "source": "osm", "_tags": {"addr:city": "Heidelberg", "addr:country": "DE", "addr:housenumber": "200a", "addr:postcode": "69118", "addr:street": "Schlierbacher Landstraße", "addr:suburb": "Schlierbach", "amenity": "hospital", "check_date": "2025-08-31", "healthcare": "hospital", "name": "Orthopädische Klinik", "phone": "+49 6221 5625000", "toilets:wheelchair": "yes", "wheelchair": "yes"}}, {"name": "Hallwang Clinic", "latitude": 48.4899872, "longitude": 8.5017389, "source": "osm", "_tags": {"addr:city": "Dornstetten", "addr:country": "DE", "addr:housenumber": "34", "addr:postcode": "72280", "addr:street": "Silberwaldstraße", "addr:suburb": "Hallwangen", "amenity": "hospital", "name": "Hallwang Clinic", "website": "https://www.hallwang-clinic.com/de", "wikidata": "Q62360128"}}, {"name": "Klinikum Freudenstadt", "latitude": 48.4760881, "longitude": 8.4053324, "source": "osm", "_tags": {"addr:city": "Freudenstadt", "addr:housenumber": "100", "addr:postcode": "72250", "addr:street": "Karl-von-Hahn-Straße", "amenity": "hospital", "building": "construction", "check_date": "2023-02-25", "emergency": "yes", "healthcare": "hospital", "healthcare:speciality": "psychiatry;paediatrics;orthopaedics;gynaecology;emergency;intensive;radiology;surgery;cardiology;oncology;internal;anaesthetics;gastroenterology;trauma", "name": "Klinikum Freudenstadt", "operator": "Landkreis Freudenstadt"}}, {"name": "Chirurgische Klinik", "latitude": 49.4155818, "longitude": 8.6651569, "source": "osm", "_tags": {"addr:city": "Heidelberg", "addr:country": "DE", "addr:housenumber": "420", "addr:postcode": "69120", "addr:street": "Im Neuenheimer Feld", "amenity": "hospital", "healthcare": "hospital", "name": "Chirurgische Klinik", "website": "https://www.klinikum.uni-heidelberg.de/chirurgische-klinik-zentrum"}}, {"name": "Mediclin Schlüsselbad Klinik", "latitude": 48.4296604, "longitude": 8.2054716, "source": "osm", "_tags": {"amenity": "hospital", "healthcare": "hospital", "healthcare:speciality": "orthopaedics;geriatrics", "name": "Mediclin Schlüsselbad Klinik", "operator": "Mediclin", "operator:type": "private", "operator:wikidata": "Q1916295", "phone": "+49 7806 860", "website": "https://www.schluesselbad-klinik.de/"}}, {"name": "Universitätsklinikum Heidelberg", "latitude": 49.4169859, "longitude": 8.6644715, "source": "osm", "_tags": {"amenity": "hospital", "deaf:description:de": "Barrierefreiheits-Infos in Gebärdensprache auf der Website (https://www.klinikum.uni-heidelberg.de/gebaerdensprache) verfügbar.", "deaf:description:en": "Accessibility information in sign language is available on the webpage (https://www.klinikum.uni-heidelberg.de/gebaerdensprache).", "healthcare": "hospital", "name": "Universitätsklinikum Heidelberg", "wikidata": "Q324206", "wikipedia": "de:Universitätsklinikum Heidelberg"}}, {"name": "Kinderklinik Schömberg", "latitude": 48.7921829, "longitude": 8.6473541, "source": "osm", "_tags": {"addr:city": "Schömberg", "addr:country": "DE", "addr:housenumber": "7", "addr:postcode": "75328", "addr:street": "Römerweg", "addr:suburb": "Schömberg", "amenity": "hospital", "healthcare": "hospital", "name": "Kinderklinik Schömberg", "toilets:wheelchair": "yes", "website": "http://www.kiklisch.de", "wheelchair": "yes"}}, {"name": "", "latitude": 48.4765074, "longitude": 7.9562046, "source": "osm", "_tags": {"amenity": "hospital", "healthcare": "hospital"}}, {"name": "Paracelsus-Krankenhaus", "latitude": 48.7817234, "longitude": 8.723877, "source": "osm", "_tags": {"amenity": "hospital", "healthcare": "hospital", "name": "Paracelsus-Krankenhaus"}}, {"name": "", "latitude": 49.3884362, "longitude": 8.7388365, "source": "osm", "_tags": {"amenity": "hospital", "healthcare": "hospital"}}, {"name": "ViDia Christliche Kliniken Standort Diakonissenstraße", "latitude": 48.9710573, "longitude": 8.4106271, "source": "osm", "_tags": {"addr:city": "Karlsruhe", "addr:housenumber": "28", "addr:postcode": "76199", "addr:street": "Diakonissenstraße", "amenity": "hospital", "brand": "ViDia", "healthcare": "hospital", "name": "ViDia Christliche Kliniken Standort Diakonissenstraße", "operator": "ViDia Christliche Kliniken Karlsruhe", "operator:type": "private_non_profit", "website": "https://www.vidia-kliniken.de/", "wheelchair": "yes", "wikidata": "Q1208336", "wikipedia": "de:Diakonissenkrankenhaus Karlsruhe-Rüppurr"}}, {"name": "Reha-Klinik Freiolsheim Psychosoziales Zentrum", "latitude": 48.8443137, "longitude": 8.3798675, "source": "osm", "_tags": {"addr:city": "Gaggenau", "addr:country": "DE", "addr:housenumber": "55", "addr:postcode": "76571", "addr:street": "Max-Hildebrandt-Straße", "amenity": "hospital", "healthcare": "hospital", "name": "Reha-Klinik Freiolsheim Psychosoziales Zentrum", "operator": "AGJ-Fachverband für Prävention und Rehabilitation in der Erzdiözese Freiburg e.V."}}, {"name": "SRH Gesundheitszentrum Waldbronn", "latitude": 48.9258576, "longitude": 8.4701002, "source": "osm", "_tags": {"amenity": "hospital", "check_date": "2024-08-31", "healthcare": "hospital", "name": "SRH Gesundheitszentrum Waldbronn"}}, {"name": "cts-Klinik Schloßberg", "latitude": 48.7790524, "longitude": 8.728919, "source": "osm", "_tags": {"addr:city": "Bad Liebenzell", "addr:housenumber": "47", "addr:postcode": "75378", "addr:street": "Hindenburgstraße", "amenity": "hospital", "email": "info-bl@cts-reha-bw.de", "fax": "+497052509111", "healthcare": "hospital", "name": "cts-Klinik Schloßberg", "note": "Die cts Rehakliniken Baden-Württemberg sind Teil des Verbundes der Caritas Trägergesellschaft Saarbrücken mbH (cts). Die cts ist ein großer konfessioneller Träger mit 34 Einrichtungen im Saarland, Rheinland-Pfalz und Baden-Württemberg und beschäftigt aktu", "operator": "cts Rehakliniken Baden-Württemberg GmbH", "operator:type": "religious", "operator:wikidata": "Q1036345", "phone": "+4970525090", "website": "https://www.cts-reha-bw.de/kliniken/bad-liebenzell/"}}, {"name": "Gesundheitszentren Rhein-Neckar", "latitude": 49.3779779, "longitude": 8.5695953, "source": "osm", "_tags": {"amenity": "hospital", "healthcare": "hospital", "name": "Gesundheitszentren Rhein-Neckar", "operator": "Gesundheitszentren Rhein-Neckar", "operator:short": "GRN", "operator:type": "private", "operator:wikidata": "Q48754458", "operator:wikipedia": "de:Gesundheitszentren Rhein-Neckar"}}, {"name": "Kinderzentrum Maulbronn", "latitude": 49.0006276, "longitude": 8.8009491, "source": "osm", "_tags": {"addr:city": "Maulbronn", "addr:country": "DE", "addr:housenumber": "21", "addr:postcode": "75433", "addr:street": "Knittlinger Steige", "amenity": "hospital", "contact:email": "sekretariat@kize.de", "contact:fax": "+49 7043 16-1340", "contact:phone": "+49 7043 16-0", "contact:website": "https://www.kize.de/", "description": "Sozialpädiatrischen Zentrum (SPZ)", "emergency": "no", "healthcare": "hospital", "healthcare:speciality": "paediatrics", "landuse": "healthcare", "name": "Kinderzentrum Maulbronn", "official_name": "Klinik für Kinderneurologie und Sozialpädiatrie Kinderzentrum Maulbronn", "operator": "Klinik für Kinderneurologie und Sozialpädiatrie Kinderzentrum Maulbronn gGmbH", "short_name": "KIZE"}}, {"name": "RKH Krankenhaus Mühlacker", "latitude": 48.9503898, "longitude": 8.8602289, "source": "osm", "_tags": {"amenity": "hospital", "healthcare": "hospital", "name": "RKH Krankenhaus Mühlacker", "toilets:wheelchair": "yes", "wheelchair": "yes"}}, {"name": "", "latitude": 48.8615767, "longitude": 8.2050969, "source": "osm", "_tags": {"amenity": "hospital", "healthcare": "hospital", "toilets:wheelchair": "yes", "wheelchair": "yes"}}, {"name": "", "latitude": 49.2829562, "longitude": 8.0873245, "source": "osm", "_tags": {"amenity": "hospital", "healthcare": "hospital"}}, {"name": "Vinzentius-Krankenhaus", "latitude": 49.1901089, "longitude": 8.1143065, "source": "osm", "_tags": {"addr:city": "Landau in der Pfalz", "addr:country": "DE", "addr:housenumber": "4", "addr:postcode": "76829", "addr:street": "Cornichonstraße", "amenity": "hospital", "healthcare": "hospital", "name": "Vinzentius-Krankenhaus", "official_name": "Vinzentius-Krankenhaus Landau", "operator:wikidata": "Q1036345", "website": "https://www.vinzentius.de", "wheelchair": "yes", "wikidata": "Q2527243"}}, {"name": "Klinik Bad Bergzabern", "latitude": 49.106257, "longitude": 8.0000136, "source": "osm", "_tags": {"amenity": "hospital", "contact:fax": "+49 6343 950 3509", "contact:phone": "+49 6343 950 0", "emergency": "yes", "healthcare": "hospital", "name": "Klinik Bad Bergzabern", "operator": "Klinikum Landau-SÜW", "source": "http://www.klinikum-ld-suew.de/klinik-bad-bergzabern/", "wikidata": "Q50038975"}}, {"name": "", "latitude": 48.7762075, "longitude": 8.2743765, "source": "osm", "_tags": {"amenity": "hospital", "healthcare": "hospital"}}, {"name": "Enzkreis-Kliniken Neuenbürg", "latitude": 48.8527287, "longitude": 8.5880672, "source": "osm", "_tags": {"amenity": "hospital", "fax": "+49 7082 79652205", "healthcare": "hospital", "name": "Enzkreis-Kliniken Neuenbürg", "phone": "+49 7082 7960", "website": "http://www.enzkreis-kliniken.de/", "wheelchair": "yes"}}, {"name": "Krankenhaus Herrenberg", "latitude": 48.5916881, "longitude": 8.8751692, "source": "osm", "_tags": {"amenity": "hospital", "healthcare": "hospital", "name": "Krankenhaus Herrenberg", "toilets:wheelchair": "yes", "website": "https://www.klinikverbund-suedwest.de/krankenhaus-herrenberg", "wheelchair": "yes"}}, {"name": "", "latitude": 48.7479399, "longitude": 8.2439177, "source": "osm", "_tags": {"amenity": "hospital", "healthcare": "hospital"}}, {"name": "NEXUS-Klinik Baden-Baden", "latitude": 48.7485892, "longitude": 8.2184347, "source": "osm", "_tags": {"addr:city": "Baden-Baden", "addr:housenumber": "80", "addr:postcode": "76530", "addr:street": "Hermann-Sielcken-Straße", "amenity": "hospital", "healthcare": "hospital", "name": "NEXUS-Klinik Baden-Baden", "website": "https://www.nexusklinik.de"}}, {"name": "", "latitude": 48.7644972, "longitude": 8.2345116, "source": "osm", "_tags": {"amenity": "hospital", "healthcare": "hospital"}}, {"name": "Klinikum Balg", "latitude": 48.7848348, "longitude": 8.2163815, "source": "osm", "_tags": {"amenity": "hospital", "healthcare": "hospital", "name": "Klinikum Balg", "wheelchair": "yes"}}, {"name": "Acura Kliniken", "latitude": 48.7642484, "longitude": 8.2468016, "source": "osm", "_tags": {"amenity": "hospital", "healthcare": "hospital", "name": "Acura Kliniken"}}, {"name": "Gotthard-Schettler-Klinik, Sigmund-Weil-Klinik", "latitude": 49.2167664, "longitude": 8.6713777, "source": "osm", "_tags": {"addr:city": "Bad Schönborn", "addr:country": "DE", "addr:housenumber": "4", "addr:postcode": "76669", "addr:street": "Prof.-Kurt-Sauer-Straße", "addr:suburb": "Bad Mingolsheim", "amenity": "hospital", "emergency": "no", "healthcare": "hospital", "name": "Gotthard-Schettler-Klinik, Sigmund-Weil-Klinik", "website": "https://www.celenus-kliniken.de/", "wheelchair": "limited"}}, {"name": "", "latitude": 48.8013294, "longitude": 8.435923, "source": "osm", "_tags": {"amenity": "hospital", "healthcare": "hospital"}}, {"name": "", "latitude": 48.7153656, "longitude": 8.7452172, "source": "osm", "_tags": {"amenity": "hospital", "healthcare": "hospital"}}, {"name": "Kopfklinik", "latitude": 49.4178236, "longitude": 8.6661399, "source": "osm", "_tags": {"addr:city": "Heidelberg", "addr:housenumber": "400", "addr:postcode": "69120", "addr:street": "Im Neuenheimer Feld", "amenity": "hospital", "building": "hospital", "building:levels": "5", "building:obm": "40", "description": "behindertengerecht", "elevator": "yes", "emergency": "yes", "healthcare": "hospital", "name": "Kopfklinik", "phone": "+49 6221 566999", "roof:levels": "1", "roof:shape": "flat", "toilets:wheelchair": "yes", "type": "multipolygon", "website": "https://www.klinikum.uni-heidelberg.de/Kopfklinik-Startseite.1111.0.html", "wheelchair": "yes", "wikidata": "Q104494775"}}, {"name": "Kinderklinik", "latitude": 49.4176806, "longitude": 8.6625235, "source": "osm", "_tags": {"addr:city": "Heidelberg", "addr:housenumber": "430", "addr:postcode": "69120", "addr:street": "Im Neuenheimer Feld", "alt_name": "Angelika-Lautenschläger-Klinik", "amenity": "hospital", "building": "hospital", "building:levels": "5", "elevator": "yes", "emergency": "yes", "healthcare": "hospital", "height": "20", "name": "Kinderklinik", "name:etymology:wikidata": "Q57241077", "roof:levels": "0", "roof:shape": "flat", "toilets:wheelchair": "yes", "type": "multipolygon", "wheelchair": "yes", "wikidata": "Q104494299"}}, {"name": "Enzkreisklinik Mühlacker", "latitude": 48.950666, "longitude": 8.8606918, "source": "osm", "_tags": {"addr:city": "Mühlacker", "addr:country": "DE", "addr:housename": "Enzkreisklinik Mühlacker", "addr:housenumber": "34", "addr:postcode": "75417", "addr:street": "Hermann-Hesse-Straße", "building": "hospital", "email": "info.mu@kliniken-ek.de", "fax": "+49 7041-15-50109", "healthcare": "hospital", "name": "Enzkreisklinik Mühlacker", "phone": "+49 7041-15-1", "type": "multipolygon", "website": "http://www.enzkreis-kliniken.de/"}}, {"name": "Klinik für Allgemeine Psychiatrie", "latitude": 49.4096495, "longitude": 8.6856026, "source": "osm", "_tags": {"addr:city": "Heidelberg", "addr:country": "DE", "addr:housenumber": "4", "addr:postcode": "69115", "addr:street": "Voßstraße", "amenity": "hospital", "building": "hospital", "building:levels": "2", "emergency": "yes", "healthcare": "hospital", "healthcare:speciality": "psychiatry", "internet_access": "wlan", "name": "Klinik für Allgemeine Psychiatrie", "operator": "Universitätsklinikum Heidelberg", "roof:levels": "1", "roof:shape": "flat", "toilets:wheelchair": "yes", "type": "multipolygon", "wheelchair": "yes"}}, {"name": "HELIOS Klinikum Pforzheim", "latitude": 48.8896301, "longitude": 8.7135651, "source": "osm", "_tags": {"amenity": "hospital", "contact:phone": "+49 7231 9690", "contact:website": "http://www.helios-kliniken.de/klinik/pforzheim.html", "name": "HELIOS Klinikum Pforzheim", "type": "site"}}, {"name": "Städtisches Klinikum", "latitude": 49.0154826, "longitude": 8.374507, "source": "osm", "_tags": {"addr:city": "Karlsruhe", "amenity": "hospital", "contact:phone": "+49 721 974-0", "emergency": "yes", "healthcare": "hospital", "name": "Städtisches Klinikum", "toilets:wheelchair": "yes", "type": "multipolygon", "website": "https://www.klinikum-karlsruhe.de/", "wheelchair": "yes", "wikidata": "Q2360061", "wikipedia": "de:Städtisches Klinikum Karlsruhe"}}, {"name": "MEDICLIN Klinik an der Lindenhöhe", "latitude": 48.4796176, "longitude": 7.9560549, "source": "osm", "_tags": {"addr:city": "Offenburg", "addr:country": "DE", "addr:housenumber": "1", "addr:postcode": "77654", "addr:street": "Bertha-von-Suttner-Straße", "amenity": "hospital", "building": "yes", "description": "Es handelt sich um eine rein psychiatrisch, psychosomatisch und psychotherapeutisch ausgerichtete Klinik. Allgemeine medizinische Notfälle können hier nicht betreut werden.", "emergency": "yes", "healthcare": "hospital", "leisure": "sports_centre", "name": "MEDICLIN Klinik an der Lindenhöhe", "operator": "Mediclin", "operator:type": "private", "operator:wikidata": "Q1916295", "phone": "078191920", "sport": "multi", "toilets:wheelchair": "yes", "type": "multipolygon", "website": "https://www.klinik-lindenhoehe.de/", "wheelchair": "yes"}}, {"name": "St. Josefsklinik", "latitude": 48.4687689, "longitude": 7.9665226, "source": "osm", "_tags": {"addr:city": "Offenburg", "addr:housenumber": "70", "addr:postcode": "77654", "addr:street": "Weingartenstraße", "amenity": "hospital", "emergency": "no", "healthcare": "hospital", "healthcare:speciality": "oncology", "name": "St. Josefsklinik", "phone": "+ 49 781 472 0", "toilets:wheelchair": "yes", "type": "multipolygon", "wheelchair": "yes", "wikidata": "Q119046636"}}]