[{"name": "Jugendpsychiatrie", "latitude": 48.9573949, "longitude": 10.1320686, "source": "osm", "_tags": {"healthcare": "hospital", "healthcare:speciality": "child_psychiatry", "name": "Jugendpsychiatrie"}}, {"name": "Bezirksklinikum Ansbach", "latitude": 49.2937963, "longitude": 10.5508941, "source": "osm", "_tags": {"addr:city": "Ansbach", "addr:country": "DE", "addr:housenumber": "38", "addr:postcode": "91522", "addr:street": "Feuchtwanger Straße", "amenity": "hospital", "healthcare": "hospital", "landuse": "residential", "name": "Bezirksklinikum Ansbach", "phone": "+49 981 46530", "toilets:wheelchair": "yes", "website": "https://www.bezirkskliniken-mfr.de/unsere-standorte/ansbach.html", "wheelchair": "limited", "wheelchair:description": "Hauptgebäude barrierefrei. Einzelne Häuser nicht barrierefrei, nachfragen.", "wikidata": "Q35191088"}}, {"name": "Verbundklinikum Landkreis Ansbach - Klinik Rothenburg o.d.T.", "latitude": 49.3780132, "longitude": 10.1997578, "source": "osm", "_tags": {"addr:city": "Rothenburg ob der Tauber", "addr:country": "DE", "addr:housenumber": "121", "addr:postcode": "91541", "addr:street": "Ansbacher Straße", "amenity": "hospital", "emergency": "yes", "healthcare": "hospital", "name": "Verbundklinikum Landkreis Ansbach - Klinik Rothenburg o.d.T.", "phone": "+49-9861-707-0", "website": "http://www.krankenhaus-rothenburg.de", "wheelchair": "yes"}}, {"name": "Stiftungskrankenhaus Nördlingen", "latitude": 48.8367871, "longitude": 10.499842, "source": "osm", "_tags": {"addr:city": "Nördlingen", "addr:country": "DE", "addr:housenumber": "4", "addr:postcode": "86720", "addr:street": "Stoffelsberg", "amenity": "hospital", "emergency": "no", "healthcare": "hospital", "name": "Stiftungskrankenhaus Nördlingen", "website": "https://donkliniken.de/klinik-noerdlingen/"}}, {"name": "Fachklinik Weihersmühle", "latitude": 49.385729, "longitude": 10.7902687, "source": "osm", "_tags": {"addr:city": "Großhabersdorf", "addr:country": "DE", "addr:housenumber": "1", "addr:place": "Weihersmühle", "addr:postcode": "90613", "amenity": "hospital", "healthcare": "hospital", "name": "Fachklinik Weihersmühle", "operator": "Deutscher Orden", "phone": "+49 9105 9944 0", "website": "http://weihersmuehle.de/"}}, {"name": "Klinik für Psychiatrie, Psychotherapie und Psychosomatik", "latitude": 48.672318, "longitude": 10.1409613, "source": "osm", "_tags": {"amenity": "hospital", "building": "yes", "emergency": "yes", "healthcare": "hospital", "name": "Klinik für Psychiatrie, Psychotherapie und Psychosomatik"}}, {"name": "Klinikum Heidenheim", "latitude": 48.6728848, "longitude": 10.1402641, "source": "osm", "_tags": {"addr:city": "Heidenheim", "addr:country": "DE", "addr:housenumber": "100", "addr:postcode": "89522", "addr:street": "Schloßhaustraße", "amenity": "hospital", "building": "yes", "comment": "shape from bing", "email": "info@kliniken-heidenheim.de", "emergency": "yes", "healthcare": "hospital", "level": "3", "name": "Klinikum Heidenheim", "name:en": "Klinikum Heidenheim", "opening_hours": "24/7", "operational_status": "Operational", "operator:type": "private/for-profit", "phone": "+497321 33 0", "website": "https://www.kliniken-heidenheim.de/", "wheelchair": "yes"}}, {"name": "Rangauklinik Ansbach", "latitude": 49.3258371, "longitude": 10.5405994, "source": "osm", "_tags": {"addr:city": "Ansbach", "addr:housenumber": "24", "addr:place": "Strüth", "addr:postcode": "91522", "amenity": "hospital", "fax": "+49-981-840-2900", "healthcare": "hospital", "name": "Rangauklinik Ansbach", "phone": "+49-981-840-0", "source": "bing", "website": "https://www.rangauklinik.de"}}, {"name": "SRH-Fachkrankenhaus für Neurologie", "latitude": 48.7562272, "longitude": 10.3358827, "source": "osm", "_tags": {"addr:city": "Neresheim", "addr:housenumber": "11", "addr:postcode": "73450", "addr:street": "Kösinger Straße", "amenity": "hospital", "building": "yes", "healthcare": "hospital", "name": "SRH-Fachkrankenhaus für Neurologie", "wheelchair": "yes"}}, {"name": "", "latitude": 48.4571583, "longitude": 10.293735, "source": "osm", "_tags": {"building": "hospital", "capacity": "240", "email": "info@kliniken-gz-kru.de", "emergency": "yes", "fax": "+49 8221 9676 1233", "healthcare": "hospital", "wheelchair": "yes"}}, {"name": "Virngrund-Klinik", "latitude": 48.957086, "longitude": 10.1319759, "source": "osm", "_tags": {"addr:city": "Ellwangen (Jagst)", "addr:housenumber": "8-12", "addr:postcode": "73479", "addr:street": "Dalkinger Straße", "amenity": "hospital", "emergency": "yes", "healthcare": "hospital", "healthcare:speciality": "general;radiology;urology;psychiatry;ophthalmology;surgery", "name": "Virngrund-Klinik", "website": "https://www.klinik-ellwangen.de/", "wheelchair": "yes"}}, {"name": "Therapiezentrum Burgau", "latitude": 48.4355694, "longitude": 10.4063958, "source": "osm", "_tags": {"amenity": "hospital", "contact:website": "http://www.therapiezentrum-burgau.de/", "name": "Therapiezentrum Burgau", "wheelchair": "yes"}}, {"name": "Facharztzentrum Aalen", "latitude": 48.8399982, "longitude": 10.0922632, "source": "osm", "_tags": {"addr:city": "Aalen", "addr:country": "DE", "addr:housenumber": "1", "addr:postcode": "73430", "addr:street": "Weidenfelder Straße", "amenity": "hospital", "building": "yes", "healthcare": "centre", "name": "Facharztzentrum Aalen", "name:en": "Facharztzentrum Aalen", "opening_hours": "Mo-Th 08:00-12:00,14:30-18:00; Fr 08:00-12:00; PH off", "operational_status": "Operational", "operator:type": "private/for-profit", "phone": "+49 7361 68666", "source": "OSM", "website": "https://facharztzentrum-aalen.de/"}}, {"name": "Klinikum Crailsheim", "latitude": 49.1356986, "longitude": 10.0771597, "source": "osm", "_tags": {"amenity": "hospital", "emergency": "yes", "healthcare": "hospital", "name": "Klinikum Crailsheim", "old_name": "Kreiskrankenhaus Crailsheim", "operator": "Landkreis Schwäbisch Hall Klinikum gGmbH", "wheelchair": "yes"}}, {"name": "Gesundheitszentrum Langenau", "latitude": 48.500348, "longitude": 10.1165544, "source": "osm", "_tags": {"addr:housenumber": "45", "addr:postcode": "89129", "addr:street": "Karlstraße", "amenity": "hospital", "building": "hospital", "healthcare": "hospital", "name": "Gesundheitszentrum Langenau", "wheelchair": "yes"}}, {"name": "Universitätsklinikum Ulm", "latitude": 48.4221748, "longitude": 9.9522164, "source": "osm", "_tags": {"addr:postcode": "89081", "amenity": "hospital", "healthcare": "hospital", "name": "Universitätsklinikum Ulm", "source": "http://www.uniklinik-ulm.de/fileadmin/Kliniken/Zahnmedizin/ZMK/Plaene/Lageplan_Ulm_und_OE.pdf", "wheelchair": "yes", "wikidata": "Q2496404"}}, {"name": "Bezirkskrankenhaus Günzburg", "latitude": 48.4594191, "longitude": 10.2915903, "source": "osm", "_tags": {"amenity": "hospital", "check_date": "2024-05-30", "healthcare": "hospital", "healthcare:speciality": "psychiatry", "name": "Bezirkskrankenhaus Günzburg", "operator": "Bezirkskliniken Schwaben (KU)", "website": "https://www.bezirkskliniken-schwaben.de/kliniken/bezirkskrankenhaus-guenzburg", "wheelchair": "yes"}}, {"name": "Ostalb-Klinikum Aalen", "latitude": 48.8490433, "longitude": 10.0859887, "source": "osm", "_tags": {"addr:city": "Aalen", "addr:housenumber": "1", "addr:postcode": "73430", "addr:street": "Im Kälblesrain", "alt_name": "Ostalbklinikum", "amenity": "hospital", "emergency": "yes", "healthcare": "hospital", "healthcare:speciality": "general;psychiatry;paediatrics;gynaecology;radiology;emergency;surgery;cardiology;internal;oncology;neurology;trauma", "name": "Ostalb-Klinikum Aalen", "phone": "+49 7361 550", "website": "https://www.ostalbklinikum.de", "wheelchair": "yes", "wheelchair:description": "Am Haupteingang ebenerdiger Zugang zur Eingangshalle (Ebene 3), Aufzüge barrierefrei (teilweise mit akustischer Etagenansage), Rollstühle in der Eingangshalle zum kostenlosen Ausleihen für die BesucherInnen zur Nutzung im Gebäude, barrierefrei zugängliche", "wikidata": "Q30267103"}}, {"name": "Klinikum Heidenheim", "latitude": 48.6723838, "longitude": 10.1410911, "source": "osm", "_tags": {"addr:city": "Heidenheim", "addr:country": "DE", "addr:housenumber": "100", "addr:postcode": "89522", "addr:street": "Schloßhaustraße", "amenity": "hospital", "emergency": "yes", "healthcare": "hospital", "healthcare:speciality": "general;orthopaedics;gynaecology;radiology;emergency;surgery;cardiology;neurology;pediatrics;internal_medicine;oncology;dialysis;diagnostic_radiology;ENT", "name": "Klinikum Heidenheim", "phone": "+49 (0)7321 33 0", "website": "https://www.kliniken-heidenheim.de/"}}, {"name": "Universitäts- und Rehabilitationskliniken Ulm", "latitude": 48.4244038, "longitude": 9.9444536, "source": "osm", "_tags": {"amenity": "hospital", "contact:email": "information@rku.de", "contact:fax": "+49 731 177-1058", "contact:phone": "+49 731 177-0", "contact:website": "http://rku.de", "description:de": "Innere Medizin, Chirurgie, Anästhesiologie, Dermatologie und Allergologie, Neurologie, Nuklearmedizin, Orthopädie, Psychosomatik, Radiologie, Strahlentherapie, Urologie, Zahn-, Mund- und Kieferheilkunde", "healthcare": "hospital", "name": "Universitäts- und Rehabilitationskliniken Ulm", "operator": "Universitäts- und Rehabilitationskliniken Ulm gGmbH", "short_name:de": "RKU", "wheelchair": "yes", "wikidata": "Q43896564", "wikipedia": "de:Universitätsklinikum Ulm"}}, {"name": "Klinikum Altmühlfranken Gunzenhausen", "latitude": 49.1080549, "longitude": 10.773979, "source": "osm", "_tags": {"addr:city": "Gunzenhausen", "addr:country": "DE", "addr:housenumber": "90", "addr:postcode": "91710", "addr:street": "Albert-Schweitzer-Straße", "amenity": "hospital", "email": "info@klinikum-altmuehlfranken.de", "emergency": "yes", "healthcare": "hospital", "name": "Klinikum Altmühlfranken Gunzenhausen", "phone": "+49 9831 520", "website": "https://klinikum-altmuehlfranken.de/", "wheelchair": "yes"}}, {"name": "DRK-Kreisverband", "latitude": 48.8441797, "longitude": 10.0984833, "source": "osm", "_tags": {"addr:city": "Aalen", "addr:country": "DE", "addr:housenumber": "1-5", "addr:postcode": "73431", "addr:street": "Eugen-Hafner-Straße", "amenity": "hospital", "brand": "Deutsches Rotes Kreuz", "brand:short": "DRK", "brand:wikidata": "Q694104", "brand:wikipedia": "de:Deutsches Rotes Kreuz", "building": "yes", "healthcare": "hospital", "name": "DRK-Kreisverband"}}, {"name": "Kreiskrankenhaus Wertingen", "latitude": 48.5654862, "longitude": 10.6789689, "source": "osm", "_tags": {"addr:city": "Wertingen", "addr:housenumber": "36", "addr:postcode": "86637", "addr:street": "Ebersberg", "amenity": "hospital", "healthcare": "hospital", "name": "Kreiskrankenhaus Wertingen"}}, {"name": "Bundeswehrkrankenhaus Ulm", "latitude": 48.4249898, "longitude": 9.9475863, "source": "osm", "_tags": {"addr:city": "Ulm", "addr:housenumber": "40", "addr:postcode": "89081", "addr:street": "Oberer Eselsberg", "amenity": "hospital", "contact:website": "https://ulm.bwkrankenhaus.de", "email": "BwKrhsUlm@bundeswehr.org", "healthcare": "hospital", "landuse": "military", "name": "Bundeswehrkrankenhaus Ulm", "operator": "Zentraler Sanitätsdienst der Bundeswehr", "operator:type": "military", "phone": "+49 731 17100", "short_name:de": "BWK Ulm", "wikidata": "Q1009277", "wikipedia": "de:Bundeswehrkrankenhaus Ulm"}}, {"name": "Donau-Ries-Klinikum Oettingen", "latitude": 48.9564304, "longitude": 10.5973605, "source": "osm", "_tags": {"addr:city": "Oettingen i.Bay.", "addr:housenumber": "15", "addr:postcode": "86732", "addr:street": "Kellerstraße", "amenity": "hospital", "check_date": "2024-12-25", "contact:email": "oet@donkliniken.de", "contact:fax": "+49 9082 79-1111", "contact:phone": "+49 9082 79-0", "contact:website": "https://www.donkliniken.de", "healthcare": "hospital", "name": "Donau-Ries-Klinikum Oettingen", "wheelchair": "yes"}}, {"name": "Kreiskrankenhaus Günzburg", "latitude": 48.4568151, "longitude": 10.2939672, "source": "osm", "_tags": {"addr:city": "Günzburg", "addr:country": "DE", "addr:housenumber": "1", "addr:postcode": "89312", "addr:street": "Lindenallee", "amenity": "hospital", "capacity": "240", "email": "info@kliniken-gz-kru.de", "emergency": "yes", "fax": "+49 8221 9676 1233", "healthcare": "hospital", "name": "Kreiskrankenhaus Günzburg", "operator": "Kommunalunternehmen Kreiskliniken Günzburg-Krumbach", "phone": "+49 8221 9676-0", "website": "https://www.kkhgzkru.de/guenzburg", "wheelchair": "yes"}}, {"name": "Kreiskrankenhaus St. Elisabeth", "latitude": 48.5747002, "longitude": 10.4797302, "source": "osm", "_tags": {"amenity": "hospital", "healthcare": "hospital", "name": "Kreiskrankenhaus St. Elisabeth"}}, {"name": "Donau-Ries-Klinik", "latitude": 48.7246881, "longitude": 10.7541188, "source": "osm", "_tags": {"addr:city": "Donauwörth", "addr:country": "DE", "addr:housenumber": "6", "addr:postcode": "86609", "addr:street": "Neudegger Allee", "amenity": "hospital", "emergency": "yes", "healthcare": "hospital", "name": "Donau-Ries-Klinik", "operator": "Donau-Ries Kliniken und Seniorenheime gKU", "phone": "+49 906 7820", "website": "https://www.donkliniken.de/"}}, {"name": "Klinik Dinkelsbühl", "latitude": 49.0749008, "longitude": 10.3178893, "source": "osm", "_tags": {"addr:city": "Dinkelsbühl", "addr:country": "DE", "addr:housenumber": "6", "addr:postcode": "91550", "addr:street": "Crailsheimer Straße", "amenity": "hospital", "building": "hospital", "name": "Klinik Dinkelsbühl", "type": "multipolygon", "website": "https://anregiomed.de/vkla/kontakt/"}}, {"name": "Ansbach Army Health Clinic", "latitude": 49.3173233, "longitude": 10.6023326, "source": "osm", "_tags": {"access": "military", "amenity": "hospital", "building": "hospital", "healthcare": "hospital", "name": "Ansbach Army Health Clinic", "operator": "US Army", "type": "multipolygon"}}, {"name": "Klinikum Ansbach", "latitude": 49.3206289, "longitude": 10.5588926, "source": "osm", "_tags": {"addr:city": "Ansbach", "addr:housenumber": "1", "addr:postcode": "91522", "addr:street": "Escherichstraße", "amenity": "hospital", "building": "yes", "healthcare": "hospital", "name": "Klinikum Ansbach", "phone": "+49-981-484-0", "source:outline": "bing;DOP_2m_BY", "type": "multipolygon", "wheelchair": "yes", "wikidata": "Q107551264"}}]