[{"name": "", "latitude": 48.679787, "longitude": 29.2278095, "source": "osm", "_tags": {"amenity": "hospital", "wheelchair": "yes"}}, {"name": "", "latitude": 48.6791565, "longitude": 29.2281041, "source": "osm", "_tags": {"amenity": "hospital"}}, {"name": "Наш Дім", "latitude": 48.8614546, "longitude": 29.0207145, "source": "osm", "_tags": {"addr:housenumber": "36", "addr:street": "Лісова вулиця", "amenity": "hospital", "building": "yes", "building:levels": "3", "healthcare": "hospital", "name": "Наш Дім", "name:ru": "Наш Дом", "name:uk": "Наш Дім", "website": "https://ourhome.vin.ua/"}}, {"name": "", "latitude": 48.6595351, "longitude": 29.0166225, "source": "osm", "_tags": {"amenity": "hospital", "healthcare": "hospital", "source": "Bing"}}, {"name": "", "latitude": 48.6761536, "longitude": 29.2567145, "source": "osm", "_tags": {"amenity": "hospital", "healthcare": "hospital", "source": "Bing"}}, {"name": "", "latitude": 48.8229667, "longitude": 28.9407084, "source": "osm", "_tags": {"amenity": "hospital", "healthcare": "hospital"}}, {"name": "Центральна районна лікарня", "latitude": 49.2388088, "longitude": 29.0445079, "source": "osm", "_tags": {"amenity": "hospital", "healthcare": "hospital", "name": "Центральна районна лікарня", "name:uk": "Центральна районна лікарня"}}, {"name": "Центральна района лікарня", "latitude": 48.8136382, "longitude": 29.3914643, "source": "osm", "_tags": {"amenity": "hospital", "healthcare": "hospital", "name": "Центральна района лікарня", "name:uk": "Центральна района лікарня"}}, {"name": "Тростянецька Центральна Районна Лікарня", "latitude": 48.5172955, "longitude": 29.2412869, "source": "osm", "_tags": {"amenity": "hospital", "healthcare": "hospital", "name": "Тростянецька Центральна Районна Лікарня", "name:en": "Trostianets Central District Hospital", "name:uk": "Тростянецька Центральна Районна Лікарня", "ref:edrpou": "01982666"}}, {"name": "", "latitude": 48.5921848, "longitude": 28.9783375, "source": "osm", "_tags": {"amenity": "hospital", "building": "yes", "healthcare": "yes"}}, {"name": "Центральна районна лікарня", "latitude": 49.116261, "longitude": 29.1961604, "source": "osm", "_tags": {"amenity": "hospital", "healthcare": "hospital", "name": "Центральна районна лікарня", "name:uk": "Центральна районна лікарня", "type": "multipolygon"}}]