[{"name": "Unité de soins palliatifs", "latitude": 49.1122844, "longitude": 6.1919975, "source": "osm", "_tags": {"healthcare": "hospital", "healthcare:speciality": "palliative", "name": "Unité de soins palliatifs"}}, {"name": "Centre d'hemodialyse", "latitude": 48.7025608, "longitude": 6.1394152, "source": "osm", "_tags": {"access": "customers", "amenity": "hospital", "contact:housenumber": "5", "contact:street": "Rue Colette", "healthcare": "clinic", "name": "Centre d'hemodialyse", "operator": "Groupe Elsan", "operator:type": "private", "operator:wikidata": "Q48747106"}}, {"name": "", "latitude": 49.1051115, "longitude": 6.1903231, "source": "osm", "_tags": {"amenity": "hospital", "fax": "+33387523266", "healthcare": "hospital", "phone": "+33387523260", "ref:FR:FINESS": "570004176", "ref:FR:SIRET": "26570002100024", "source": "Le ministère des solidarités et de la santé - 2021-11", "type:FR:FINESS": "292"}}, {"name": "", "latitude": 49.1052352, "longitude": 6.1904613, "source": "osm", "_tags": {"amenity": "hospital", "fax": "+33387563961", "healthcare": "hospital", "phone": "+33387769732", "ref:FR:FINESS": "570028662", "ref:FR:SIRET": "26570002100313", "source": "Le ministère des solidarités et de la santé - 2021-11", "type:FR:FINESS": "292"}}, {"name": "Institut national des jeunes sourds", "latitude": 49.1106719, "longitude": 6.2168126, "source": "osm", "_tags": {"amenity": "hospital", "fax": "+33387399718", "healthcare": "hospital", "name": "Institut national des jeunes sourds", "official_name": "Hôpital de jour Centre basse audition", "phone": "+33387399700", "ref:FR:FINESS": "570026575", "source": "Le ministère des solidarités et de la santé - 2021-11", "type:FR:FINESS": "101"}}, {"name": "Hôpital Belle-Isle", "latitude": 49.1233793, "longitude": 6.1706023, "source": "osm", "_tags": {"addr:street": "Rue Belle-Isle", "amenity": "hospital", "healthcare": "hospital", "healthcare:speciality": "cardiology;internal;oncology;ophthalmology;orthopaedics;geriatrics", "internet_access": "wlan", "name": "Hôpital Belle-Isle", "operator": "uneos", "operator:type": "private", "ref:FR:FINESS": "570001057", "source": "cadastre-dgi-fr source : Direction Générale des Impôts - Cadastre. Mise à jour : 2009", "type:FR:FINESS": "365", "website": "https://www.uneos.fr/groupe-uneos/etablissements/hopital-belle-isle/"}}, {"name": "Hôpital Central", "latitude": 48.6845827, "longitude": 6.1917704, "source": "osm", "_tags": {"amenity": "hospital", "contact:housenumber": "29", "contact:street": "Rue Lionnois", "contact:website": "http://www.chu-nancy.fr/", "emergency": "yes", "healthcare": "hospital", "healthcare:speciality": "intensive", "name": "Hôpital Central", "ref:FR:FINESS": "540001138", "ref:FR:NAF": "8610Z", "ref:FR:SIRET": "20004216600013", "short_name": "C.H.U. de Nancy", "source": "cadastre-dgi-fr source : Direction Générale des Impôts - Cadastre;mise à jour : 2009", "type:FR:FINESS": "101", "wikidata": "Q107170073"}}, {"name": "Centre Hospitalier Universitaire Nancy Saint-Stanislas", "latitude": 48.6861248, "longitude": 6.187002, "source": "osm", "_tags": {"amenity": "hospital", "healthcare": "hospital", "name": "Centre Hospitalier Universitaire Nancy Saint-Stanislas"}}, {"name": "Hôpital Saint-Julien", "latitude": 48.6869301, "longitude": 6.1932542, "source": "osm", "_tags": {"amenity": "hospital", "check_date": "2025-04-09", "contact:housenumber": "1", "contact:street": "Rue Foller", "healthcare": "hospital", "name": "Hôpital Saint-Julien", "ref:FR:FINESS": "540003043", "source": "cadastre-dgi-fr source : Direction Générale des Impôts - Cadastre;mise à jour : 2009", "wikidata": "Q2945739", "wikipedia": "fr:Centre hospitalier régional et universitaire de Nancy"}}, {"name": "Hôpital d'enfants", "latitude": 48.6478659, "longitude": 6.1511205, "source": "osm", "_tags": {"building": "hospital", "emergency": "yes", "healthcare": "hospital", "name": "Hôpital d'enfants", "source": "cadastre-dgi-fr source : Direction Générale des Impôts - Cadastre. Mise à jour : 2010"}}, {"name": "Institut de Cancérologie de Lorraine", "latitude": 48.6473275, "longitude": 6.144446, "source": "osm", "_tags": {"amenity": "hospital", "building": "hospital", "contact:phone": "+33 3 83 59 84 00", "contact:website": "http://www.icl-lorraine.fr", "healthcare": "hospital", "name": "Institut de Cancérologie de Lorraine", "old_name": "Centre Alexis Vautrin", "operator:type": "private_non_profit", "ref:FR:FINESS": "540001286", "source": "cadastre-dgi-fr source : Direction Générale des Impôts - Cadastre. Mise à jour : 2010", "type:FR:FINESS": "131", "wikidata": "Q2944792"}}, {"name": "Centre de Rééducation Florentin", "latitude": 48.6880745, "longitude": 6.197635, "source": "osm", "_tags": {"amenity": "hospital", "building": "hospital", "contact:housenumber": "2", "contact:street": "Rue des Cinq Piquets", "healthcare": "hospital", "healthcare:speciality": "physiatry", "name": "Centre de Rééducation Florentin", "ref:FR:FINESS": "540020146", "source": "cadastre-dgi-fr source : Direction Générale des Impôts - Cadastre. Mise à jour : 2011", "type:FR:FINESS": "109", "wheelchair": "yes"}}, {"name": "Hopital St. André", "latitude": 49.1550612, "longitude": 6.8043277, "source": "osm", "_tags": {"amenity": "hospital", "healthcare": "hospital", "name": "Hopital St. André", "ref:FR:FINESS": "570004002", "type:FR:FINESS": "146"}}, {"name": "Hôpital d'instruction des armées Legouest", "latitude": 49.1131222, "longitude": 6.190151, "source": "osm", "_tags": {"alt_name": "Hôpital militaire Legouest", "amenity": "hospital", "emergency": "yes", "healthcare": "hospital", "loc_name": "Legouest", "name": "Hôpital d'instruction des armées Legouest", "operator:type": "public", "phone": "+33 3 87 56 46 46", "ref:FR:FANTOIR": "57463A037L", "ref:FR:FINESS": "570000596", "short_name": "HIA Legouest", "type:FR:FINESS": "114", "website": "http://www.hia-legouest.fr/", "wikidata": "Q3145332"}}, {"name": "Hôpital Bel-Air", "latitude": 49.3732047, "longitude": 6.1494439, "source": "osm", "_tags": {"addr:city": "Thionville", "addr:country": "FR", "addr:housenumber": "2", "addr:postcode": "57100", "addr:street": "Rue du Friscaty", "amenity": "hospital", "check_date": "2024-10-03", "emergency": "yes", "fax": "+33 3 82 55 80 10", "healthcare": "hospital", "healthcare:speciality": "intensive", "name": "Hôpital Bel-Air", "operator:type": "public", "phone": "+33 3 82 55 82 55", "ref:FR:FINESS": "570000349", "type:FR:FINESS": "101", "website": "https://www.chr-metz-thionville.fr/le-chr-nos-etablissements/hopital-bel-air"}}, {"name": "Clinique Ambroise Paré", "latitude": 49.3609814, "longitude": 6.1542196, "source": "osm", "_tags": {"addr:city": "Thionville", "addr:country": "FR", "addr:housenumber": "21", "addr:postcode": "57100", "addr:street": "Route de Guentrange", "amenity": "hospital", "check_date": "2024-10-03", "emergency": "no", "healthcare": "hospital", "name": "Clinique Ambroise Paré", "ref:FR:FINESS": "570000356", "source": "cadastre-dgi-fr source : Direction Générale des Impôts - Cadastre. Mise à jour : 2012", "type": "site", "type:FR:FINESS": "128", "website": "https://clinique-ambroisepare.fr/"}}, {"name": "Clinique Notre-Dame", "latitude": 49.3570428, "longitude": 6.1558759, "source": "osm", "_tags": {"addr:city": "Thionville", "addr:country": "FR", "addr:housenumber": "3", "addr:postcode": "57100", "addr:street": "Rue Paul Albert", "amenity": "hospital", "emergency": "no", "healthcare": "hospital", "name": "Clinique Notre-Dame", "ref:FR:FINESS": "570000364", "source": "cadastre-dgi-fr source : Direction Générale des Impôts - Cadastre. Mise à jour : 2012", "type:FR:FINESS": "128", "website": "https://www.elsan.care/fr/clinique-notre-dame-thionville"}}, {"name": "St. Nikolaus Hospital", "latitude": 49.3290932, "longitude": 6.7129668, "source": "osm", "_tags": {"amenity": "hospital", "contact:email": "info@sankt-nikolaus-hospital.de", "contact:fax": "+49 6831 962-465", "contact:phone": "+49 6831 962-0", "contact:website": "http://www.sankt-nikolaus-hospital.de", "healthcare": "hospital", "healthcare:speciality": "geriatrics", "name": "St. Nikolaus Hospital", "wheelchair": "yes"}}, {"name": "Krankenhaus Saarlouis vom DRK", "latitude": 49.3133614, "longitude": 6.7439744, "source": "osm", "_tags": {"amenity": "hospital", "contact:email": "info@drk-kliniken-saar.de", "contact:website": "http://www.drk-kliniken-saar.de.drktg.de/saarlouis/index.php", "emergency": "yes", "healthcare": "hospital", "name": "Krankenhaus Saarlouis vom DRK", "operator": "DRK gemeinnützige Krankenhausgesellschaft mbH Saarland", "toilets:wheelchair": "yes", "wheelchair": "yes"}}, {"name": "Marienhaus Klinikum St. Elisabeth Saarlouis", "latitude": 49.3151243, "longitude": 6.7572164, "source": "osm", "_tags": {"amenity": "hospital", "contact:phone": "+49 6831 16-0", "contact:website": "http://www.marienhaus-klinikum-saar.de/", "emergency": "yes", "healthcare": "hospital", "name": "Marienhaus Klinikum St. Elisabeth Saarlouis", "operator": "Marienhaus", "operator:wikidata": "Q20828783", "wheelchair": "yes"}}, {"name": "Maternité Régionale Universitaire de Nancy", "latitude": 48.681242, "longitude": 6.1897766, "source": "osm", "_tags": {"amenity": "hospital", "healthcare": "hospital", "name": "Maternité Régionale Universitaire de Nancy", "ref:FR:FINESS": "540000015", "ref:FR:NAF": "8610Z", "ref:FR:SIRET": "20004216600112", "source": "survey", "type:FR:FINESS": "101", "website": "http://www.maternite.chu-nancy.fr", "wikidata": "Q107270237"}}, {"name": "Centre Psychothérapique de Nancy", "latitude": 48.6776554, "longitude": 6.1368289, "source": "osm", "_tags": {"alt_name": "CPN", "amenity": "hospital", "email": "direction@cpn-laxou.com", "fax": "+33 3 83 92 52 52", "healthcare": "hospital", "name": "Centre Psychothérapique de Nancy", "operator:type": "public", "phone": "+33 3 83 92 50 50", "ref:FR:FANTOIR": "543040090A", "ref:FR:FINESS": "540014073", "type:FR:FINESS": "292", "website": "http://www.cpn-laxou.com/", "wikidata": "Q64555579"}}, {"name": "Hôpital-clinique Claude Bernard", "latitude": 49.114088, "longitude": 6.2094812, "source": "osm", "_tags": {"amenity": "hospital", "contact:city": "Metz CEDEX", "contact:housenumber": "97", "contact:phone": "+33 3 87 39 66 66", "contact:pobox": "BP 45050", "contact:postcode": "57072", "contact:street": "Rue Claude Bernard", "email": "laetitia.borre@elsan.care", "emergency": "yes", "fax": "+33 3 87 36 98 12", "healthcare": "hospital", "healthcare:speciality": "intensive", "name": "Hôpital-clinique Claude Bernard", "note": "Déménagement prévu fin 2022 à Maizières-lès-Metz. https://www.francebleu.fr/infos/sante-sciences/la-clinique-claude-bernard-va-demenager-a-maizieres-les-metz-1537468997?tzert", "operator": "Elsan", "operator:type": "private", "operator:wikidata": "Q48747106", "phone": "+33 826 30 66 66", "ref:FR:FINESS": "570000646", "type:FR:FINESS": "365", "website": "https://www.elsan.care/fr/hopital-clinique-claude-bernard-metz", "wikipedia": "fr:Clinique Claude Bernard (Metz)"}}, {"name": "Hôpital Gériatrique Le Kem", "latitude": 49.363173, "longitude": 6.145995, "source": "osm", "_tags": {"addr:city": "Thionville", "addr:country": "FR", "addr:housenumber": "129", "addr:postcode": "57100", "addr:street": "Route de Guentrange", "amenity": "hospital", "barrier": "fence", "healthcare": "hospital", "name": "Hôpital Gériatrique Le Kem", "ref:FR:FINESS": "570003079", "source": "extraction vectorielle v1 cadastre-dgi-fr source : Direction Générale des Impôts - Cadas. Mise à jour : 2010", "type:FR:FINESS": "365", "website": "https://www.hopitalgeriatrique-lekem.com/", "wheelchair": "yes"}}, {"name": "Hôpital Robert-Schuman", "latitude": 49.123899, "longitude": 6.2434363, "source": "osm", "_tags": {"amenity": "hospital", "emergency": "no", "healthcare": "hospital", "healthcare:speciality": "intensive", "name": "Hôpital Robert-Schuman", "operator": "Hôpitaux Privés de Metz", "operator:type": "private", "phone": "+33 3 57 84 28 00", "ref:FR:FINESS": "570026252", "start_date": "2013-03", "type:FR:FINESS": "365", "website": "https://www.hpmetz.fr/fr", "wheelchair": "yes"}}, {"name": "Complexe Hospitalier Spécialisé de Jury", "latitude": 49.0771154, "longitude": 6.2698251, "source": "osm", "_tags": {"amenity": "hospital", "healthcare": "hospital", "name": "Complexe Hospitalier Spécialisé de Jury", "ref:FR:FINESS": "570001016", "ref:FR:SIRET": "26570002100016", "type:FR:FINESS": "292"}}, {"name": "Les Maisons Hospitalières", "latitude": 48.6858585, "longitude": 6.183744, "source": "osm", "_tags": {"amenity": "hospital", "healthcare": "hospital", "healthcare:speciality": "geriatrics", "name": "Les Maisons Hospitalières", "operator": "Association Les Maisons Hospitalières", "operator:type": "private", "phone": "+33 3 83 36 86 00", "ref:FR:FINESS": "540000395", "ref:FR:SIRET": "26540011900300", "source": "GrandNancy Orthophotographie 2012", "type:FR:FINESS": "129", "website": "https://www.les-maisons-hospitalieres.fr/"}}, {"name": "CHRU de Nancy Brabois", "latitude": 48.6471211, "longitude": 6.1496974, "source": "osm", "_tags": {"alt_name": "Hôpitaux de Brabois", "amenity": "hospital", "contact:phone": "+33 3 83 15 30 30", "emergency": "yes", "healthcare": "hospital", "healthcare:speciality": "intensive", "name": "CHRU de Nancy Brabois", "ref:FR:FINESS": "540002698", "ref:FR:NAF": "8610Z", "ref:FR:SIRET": "20004216600161", "type:FR:FINESS": "101", "website": "https://www.chru-nancy.fr/index.php/brabois", "wikidata": "Q104875598"}}, {"name": "Centre Jacques Parisot", "latitude": 48.5883109, "longitude": 6.0954266, "source": "osm", "_tags": {"addr:housenumber": "78", "addr:street": "Rue Jacques Callot", "amenity": "hospital", "email": "cjp@ohs.asso.fr", "healthcare": "hospital", "landuse": "healthcare", "name": "Centre Jacques Parisot", "operator": "OHS", "operator:type": "private", "ref:FR:FINESS": "540000668", "social_facility": "group_home", "social_facility:for": "disabled", "source": "Ortho HR", "type:FR:FINESS": "109"}}, {"name": "Centre de Réadaptation de Lay-Saint-Christophe", "latitude": 48.7477961, "longitude": 6.1825158, "source": "osm", "_tags": {"amenity": "hospital", "healthcare": "hospital", "name": "Centre de Réadaptation de Lay-Saint-Christophe", "ref:FR:FINESS": "540009412", "type:FR:FINESS": "109"}}, {"name": "Centre Chirurgical Émile Gallé", "latitude": 48.6985114, "longitude": 6.1716387, "source": "osm", "_tags": {"amenity": "hospital", "healthcare": "hospital", "name": "Centre Chirurgical Émile Gallé", "phone": "+33 3 83 85 75 00", "ref:FR:FINESS": "540000163", "source": "GrandNancy Orthophotographie 2012", "website": "http://www.centre-chirurgical-emile-galle.fr/", "wheelchair": "yes"}}, {"name": "Hôpital Saint-Jacques", "latitude": 48.8138158, "longitude": 6.721822, "source": "osm", "_tags": {"amenity": "hospital", "fax": "+33 3 87 86 85 23", "healthcare": "hospital", "landuse": "healthcare", "name": "Hôpital Saint-Jacques", "phone": "+33 3 87 05 02 00", "ref:FR:FINESS": "570000992", "type:FR:FINESS": "106", "website": "http://www.hopital-dieuze.fr/", "wikidata": "Q92062534"}}, {"name": "Centre médico-psychologique - Unité pour soins intensifs psychiatriques - Hôpital de jour Maxéville", "latitude": 48.7132248, "longitude": 6.1609604, "source": "osm", "_tags": {"amenity": "hospital", "healthcare": "hospital", "name": "Centre médico-psychologique - Unité pour soins intensifs psychiatriques - Hôpital de jour Maxéville", "ref:FR:FINESS": "540010733", "short_name": "CMP - USIP - HJ Maxéville", "source": "GrandNancy Orthophotographie 2012", "type:FR:FINESS": "292", "website": "http://www.cpn-laxou.com/CMP-USIP-HJ-Maxeville.html"}}, {"name": "Polyclinique Majorelle", "latitude": 48.7012785, "longitude": 6.1438683, "source": "osm", "_tags": {"amenity": "hospital", "healthcare": "hospital", "name": "Polyclinique Majorelle", "ref:FR:FINESS": "540013224", "source": "GrandNancy Orthophotographie 2016", "type:FR:FINESS": "365", "website": "http://www.majorelle.groupe-elsan.com/", "wheelchair": "yes"}}, {"name": "Hôpital de Joeuf", "latitude": 49.225437, "longitude": 6.0112078, "source": "osm", "_tags": {"amenity": "hospital", "emergency": "no", "healthcare": "hospital", "name": "Hôpital de Joeuf", "ref:FR:FINESS": "540001104", "type:FR:FINESS": "129"}}, {"name": "Hôpital Privé Nancy Lorraine", "latitude": 48.7017201, "longitude": 6.1399073, "source": "osm", "_tags": {"amenity": "hospital", "contact:housenumber": "2", "contact:street": "Rue Marie Marvingt", "emergency": "no", "healthcare": "hospital", "healthcare:speciality": "intensive", "name": "Hôpital Privé Nancy Lorraine", "operator": "Elsan", "operator:type": "private", "operator:wikidata": "Q48747106", "ref:FR:FANTOIR": "54395A037S", "ref:FR:FINESS": "540000486", "type:FR:FINESS": "365", "website": "https://www.elsan.care/fr/hopital-prive-nancy-lorraine"}}, {"name": "Centre hospitalier de Pont-à-Mousson", "latitude": 48.9063659, "longitude": 6.052524, "source": "osm", "_tags": {"amenity": "hospital", "email": "hopital@ch-pontamousson.fr", "emergency": "yes", "fax": "+33 3 83 80 2018", "healthcare": "hospital", "name": "Centre hospitalier de Pont-à-Mousson", "operator:type": "public", "phone": "+33 3 83 80 20 00", "ref:FR:FINESS": "540000296", "type:FR:FINESS": "355", "website": "https://www.ch-pontamousson.fr/"}}, {"name": "Hôpital de Saint-Avold", "latitude": 49.1114399, "longitude": 6.7229032, "source": "osm", "_tags": {"addr:city": "Saint-Avold", "addr:postcode": "57502", "addr:street": "Rue Ambroise Paré", "amenity": "hospital", "emergency": "yes", "fax": "+33 3 87 94 62 99", "healthcare": "hospital", "healthcare:speciality": "intensive", "name": "Hôpital de Saint-Avold", "operator": "Groupe SOS", "operator:type": "private", "phone": "+33 3 87 91 14 44", "ref:FR:FINESS": "570000216", "ref:FR:SIRET": "30289111400381", "type:FR:FINESS": "365", "website": "https://www.hopitalsaintavold.fr/"}}, {"name": "Clinique Saint-André", "latitude": 48.6612107, "longitude": 6.1585358, "source": "osm", "_tags": {"amenity": "hospital", "check_date": "2025-07-22", "healthcare": "hospital", "name": "Clinique Saint-André", "network": "Elsan", "operator:type": "private", "ref:FR:FINESS": "540000452", "source": "survey;GrandNancy Orthophotographie 2016", "type:FR:FINESS": "365", "website": "http://www.saint-andre.groupe-elsan.com/"}}, {"name": "Clinique Bellefontaine", "latitude": 48.7034017, "longitude": 6.1406495, "source": "osm", "_tags": {"amenity": "clinic", "healthcare": "hospital", "name": "Clinique Bellefontaine", "network": "Clinea Cliniques", "operator": "Orpea", "operator:type": "private", "ref:FR:FINESS": "540022837", "source": "knowledge;GrandNancy Orthophotographie 2016", "type:FR:FINESS": "109", "website": "https://www.orpea.com/clinique-bellefontaine-nancy-54"}}, {"name": "Clinique Pasteur", "latitude": 48.7024395, "longitude": 6.2302873, "source": "osm", "_tags": {"amenity": "hospital", "healthcare": "hospital", "name": "Clinique Pasteur"}}, {"name": "Centre hospitalier de Lunéville", "latitude": 48.5888823, "longitude": 6.4908177, "source": "osm", "_tags": {"addr:housenumber": "6", "addr:street": "Rue Girardet", "amenity": "hospital", "email": "direction@ch-luneville.fr", "emergency": "yes", "fax": "+33 3 83 74 38 97", "healthcare": "hospital", "name": "Centre hospitalier de Lunéville", "operator:type": "public", "phone": "+33 3 83 76 12 12", "ref:FR:FINESS": "540000155", "type:FR:FINESS": "355", "website": "http://www.ch-luneville.fr/index.php"}}, {"name": "Clinique Pasteur", "latitude": 48.7023662, "longitude": 6.2174035, "source": "osm", "_tags": {"amenity": "hospital", "contact:housenumber": "7", "contact:street": "Rue Parmentier", "email": "direction@clinique-louispasteur.com", "facebook": "Clinique Louis Pasteur", "fax": "+33 3 83 21 30 20", "healthcare": "hospital", "healthcare:speciality": "surgery;cardiology;dialysis;intensive", "name": "Clinique Pasteur", "operator:type": "private", "phone": "+33 3 83 18 83 83", "ref:FR:FINESS": "540000478", "source": "GrandNancy Orthophotographie 2016", "type:FR:FINESS": "365", "website": "http://www.clinique-louispasteur.com/"}}, {"name": "Klinik Püttlingen", "latitude": 49.2770024, "longitude": 6.8679765, "source": "osm", "_tags": {"alt_name": "Knappschaftskrankenhaus Püttlingen", "amenity": "hospital", "emergency": "yes", "fax": "+49 6898 55-2285", "healthcare": "hospital", "name": "Klinik Püttlingen", "operator": "Knappschaftsklinikum Saar GmbH", "phone": "+49 6898 55-0", "toilets:wheelchair": "yes", "website": "https://www.kksaar.de/krankenhaus-puettlingen.php", "wheelchair": "yes"}}, {"name": "Hôpital Félix Maréchal", "latitude": 49.1302623, "longitude": 6.138182, "source": "osm", "_tags": {"addr:housenumber": "1", "addr:street": "Rue Xavier Roussel", "amenity": "hospital", "capacity": "133", "check_date": "2025-03-07", "fax": "+33 3 87 55 79 79", "healthcare": "hospital", "name": "Hôpital Félix Maréchal", "operator": "Centre hospitalier régional Metz-Thionville", "operator:type": "public", "phone": "+33 3 87 55 78 00", "ref:FR:FINESS": "570005215", "source": "cadastre-dgi-fr source : Direction Générale des Finances Publiques - Cadastre. Mise à jour : 2014", "type:FR:FINESS": "101"}}, {"name": "Caritas-Krankenhaus Lebach", "latitude": 49.4190942, "longitude": 6.8896698, "source": "osm", "_tags": {"amenity": "hospital", "check_date": "2023-07-22", "email": "info@caritas-krankenhaus-lebach.de", "emergency": "yes", "fax": "+49 6881 501-142", "healthcare": "hospital", "internet_access": "no", "name": "Caritas-Krankenhaus Lebach", "operator": "cusanus trägergesellschaft trier mbH", "phone": "+49 6881 501-0", "website": "https://www.caritas-krankenhaus-lebach.de/", "wheelchair": "yes"}}, {"name": "Hôpital Saint-Maurice", "latitude": 49.2507583, "longitude": 6.0455737, "source": "osm", "_tags": {"amenity": "hospital", "healthcare": "hospital", "name": "Hôpital Saint-Maurice", "ref:FR:FINESS": "570009670", "type:FR:FINESS": "365"}}, {"name": "Hôpital de Mercy", "latitude": 49.0832214, "longitude": 6.2405267, "source": "osm", "_tags": {"addr:housenumber": "1", "addr:street": "Allée du Château", "amenity": "hospital", "emergency": "yes", "healthcare": "hospital", "healthcare:speciality": "intensive", "name": "Hôpital de Mercy", "operator": "Centre hospitalier régional de Metz-Thionville", "operator:type": "public", "ref:FR:FINESS": "570026682", "type:FR:FINESS": "101", "website": "https://www.chr-metz-thionville.fr/le-chr-nos-etablissements/hopital-de-mercy", "wikidata": "Q3145285"}}, {"name": "Clinique Sainte-Elizabeth", "latitude": 49.3496786, "longitude": 6.1986219, "source": "osm", "_tags": {"addr:city": "Yutz", "addr:housenumber": "2", "addr:postcode": "57970", "addr:street": "Avenue Julien Absalon", "amenity": "hospital", "healthcare": "hospital", "name": "Clinique Sainte-Elizabeth", "website": "https://www.ste-elisabeth.fr/"}}, {"name": "Institut Régional de Médecine Physique et de Réadaptation", "latitude": 48.68651, "longitude": 6.196233, "source": "osm", "_tags": {"addr:housenumber": "75", "alt_name": "Centre de réadaptation fonctionnelle Louis Pierquin", "amenity": "hospital", "check_date": "2024-05-30", "emergency": "no", "healthcare": "hospital", "name": "Institut Régional de Médecine Physique et de Réadaptation", "operator": "Ugecam Nord-Est", "operator:type": "public", "phone": "+33 3 83 52 97 00", "ref:FR:FINESS": "540009701", "short_name": "IRR", "source": "cadastre-dgi-fr source : Direction Générale des Impôts - Cadastre. Mise à jour : 2011", "toilets:wheelchair": "yes", "type:FR:FINESS": "109", "wheelchair": "yes"}}, {"name": "Centre Hospitalier de Pompey-Lay-Saint-Christophe", "latitude": 48.7649646, "longitude": 6.1193856, "source": "osm", "_tags": {"amenity": "hospital", "contact:fax": "+33 3 83243856", "contact:phone": "+33 3 83917000", "contact:website": "https://www.hopital-pompey.fr/", "healthcare": "hospital", "name": "Centre Hospitalier de Pompey-Lay-Saint-Christophe", "ref:FR:FINESS": "540000270", "source": "Ortho HR", "type:FR:FINESS": "106", "wikidata": "Q92062905"}}, {"name": "Centre hospitalier de Boulay \"Le Secq de Crépy\"", "latitude": 49.1838638, "longitude": 6.4995298, "source": "osm", "_tags": {"addr:city": "Boulay-Moselle", "addr:country": "FR", "addr:full": "1, R, DE L'HOPITAL, BP 73, 57220 BOULAY", "addr:housenumber": "1", "addr:postcode": "57220", "addr:street": "Rue de l'Hôpital", "amenity": "hospital", "fax": "+33387794026", "healthcare": "hospital", "name": "Centre hospitalier de Boulay \"Le Secq de Crépy\"", "phone": "+33387794000", "ref:FR:FINESS": "570000968", "ref:FR:SIRET": "26570017900012", "short_name": "C.H. Le Secq de Crépy", "source": "Le ministère des solidarités et de la santé - 03/2019", "type:FR:FINESS": "355"}}, {"name": "Hôpital de Château Salins", "latitude": 48.8253223, "longitude": 6.5071182, "source": "osm", "_tags": {"addr:city": "Château-Salins", "addr:country": "FR", "addr:housenumber": "40", "addr:postcode": "57170", "addr:street": "Rue de Metz", "amenity": "hospital", "emergency": "no", "healthcare": "hospital", "name": "Hôpital de Château Salins", "note": "L'Etablissement d'hébergement pour personnes âgées dépendantes (EHPAD) de 15 lits est situé dans l'hôpital de Château-Salins.", "operator": "Hospitalor", "operator:type": "private", "ref:FR:FINESS": "570000455", "source": "cadastre-dgi-fr source : Direction Générale des Impôts - Cadastre. Mise à jour : 2011", "type:FR:FINESS": "129", "website": "https://www.groupe-sos.org/structures/1105/EHPAD_de_Chateau_Salins"}}, {"name": "Centre hospitalier Lemire", "latitude": 49.0979487, "longitude": 6.7055077, "source": "osm", "_tags": {"addr:city": "Saint-Avold", "addr:housenumber": "7", "addr:postcode": "57500", "addr:street": "Rue Lemire", "alt_name": "Centre hospitalier Lemire de Saint-Avold", "amenity": "hospital", "healthcare": "hospital", "name": "Centre hospitalier Lemire", "ref:FR:FINESS": "570000687", "source": "Le ministère des solidarités et de la santé - 03/2019", "website": "https://www.unisante.fr/centre-hospitalier-lemire-de-st-avold.html"}}, {"name": "Centre Hospitalier Marie-Madeleine", "latitude": 49.1823108, "longitude": 6.9129061, "source": "osm", "_tags": {"addr:city": "Forbach", "addr:country": "FR", "addr:housenumber": "2", "addr:postcode": "57604", "addr:street": "Rue Thérèse", "amenity": "hospital", "fax": "+33387888027", "name": "Centre Hospitalier Marie-Madeleine", "phone": "+33387888000", "ref:FR:FINESS": "570000059", "ref:FR:SIRET": "20002625000015", "source": "Le ministère des solidarités et de la santé - 2021-01", "type:FR:FINESS": "355"}}, {"name": "Centre Hospitalier de Saint-Nicolas-de-Port", "latitude": 48.6333486, "longitude": 6.3007737, "source": "osm", "_tags": {"amenity": "hospital", "contact:phone": "+33 3 83186000", "healthcare": "hospital", "name": "Centre Hospitalier de Saint-Nicolas-de-Port", "network": "Groupe hospitalier de l'est de la Meurthe-et-Moselle", "ref:FR:FINESS": "540000312", "source": "knowledge;Ortho HR", "type:FR:FINESS": "355", "website": "http://www.ghemm.fr/ghemm/#SNDP"}}, {"name": "Clinique Jeanne d'arc", "latitude": 48.5890194, "longitude": 6.5033245, "source": "osm", "_tags": {"amenity": "hospital", "email": "direction@cja-luneville.com", "fax": "+33 3 83 76 36 37", "healthcare": "hospital", "name": "Clinique Jeanne d'arc", "operator": "Louis Pasteur Santé", "operator:type": "private_for_profit", "phone": "+33 3 83 76 36 36", "ref:FR:FINESS": "540000361", "type:FR:FINESS": "128", "website": "http://www.cja-luneville.fr/"}}, {"name": "Bâtiment Principal Adultes", "latitude": 48.6475209, "longitude": 6.14679, "source": "osm", "_tags": {"building": "hospital", "healthcare": "hospital", "height": "10", "name": "Bâtiment Principal Adultes", "source": "cadastre-dgi-fr source : Direction Générale des Impôts - Cadastre. Mise à jour : 2020"}}, {"name": "Clinique Saint-Nabor", "latitude": 49.1217668, "longitude": 6.7225185, "source": "osm", "_tags": {"addr:housenumber": "75", "addr:street": "Rue des Généraux Altmayer", "amenity": "hospital", "healthcare": "hospital", "name": "Clinique Saint-Nabor", "phone": "+33 3 87 29 41 49", "ref:FR:FINESS": "570000083", "type:FR:FINESS": "365", "website": "https://www.clinique-st-nabor.fr/"}}, {"name": "", "latitude": 49.1140288, "longitude": 6.210973, "source": "osm", "_tags": {"amenity": "hospital", "healthcare": "hospital", "source": "knowledge;Ortho HR"}}, {"name": "Centre de Soins Grand Est", "latitude": 49.3664133, "longitude": 6.1608899, "source": "osm", "_tags": {"amenity": "hospital", "barrier": "fence", "healthcare:speciality": "psychiatry", "name": "Centre de Soins Grand Est", "operator": "Emeis"}}, {"name": "Centre hospitalier d'Hayange", "latitude": 49.326394, "longitude": 6.0686262, "source": "osm", "_tags": {"addr:housenumber": "53", "addr:street": "Rue de Wendel", "alt_name": "Hôpital de Hayange", "amenity": "hospital", "healthcare": "hospital", "healthcare:speciality": "general;psychiatry", "height": "53 Rue de Wendel, 57700 Hayange Hours :  Open 24 hours Téléphone : 03 82 57 73 73", "name": "Centre hospitalier d'Hayange", "phone": "+33 3 82 57 73 73", "website": "https://www.chr-metz-thionville.fr/le-chr-nos-etablissements/hopital-de-hayange"}}, {"name": "Centre hospitalier régional et universitaire de Nancy", "latitude": 48.6660194, "longitude": 6.1732715, "source": "osm", "_tags": {"amenity": "hospital", "capacity": "1782", "name": "Centre hospitalier régional et universitaire de Nancy", "ref:FR:FINESS": "540023264", "ref:FR:NAF": "8610Z", "ref:FR:SIREN": "200042166", "type": "site", "website": "https://www.chu-nancy.fr/", "wikidata": "Q2945739", "wikipedia": "fr:Centre hospitalier régional et universitaire de Nancy"}}, {"name": "SHG-Kliniken Völklingen", "latitude": 49.2572554, "longitude": 6.8525006, "source": "osm", "_tags": {"addr:city": "Völklingen", "addr:country": "DE", "addr:housenumber": "5-9", "addr:postcode": "66333", "addr:street": "Richardstraße", "amenity": "hospital", "brand:wikidata": "Q2209199", "contact:fax": "+49 6898 12-2393", "contact:phone": "+49 6898 12-0", "contact:website": "http://vk.shg-kliniken.de", "emergency": "yes", "healthcare": "hospital", "healthcare:speciality": "cardiology;pulmonology;urology;psychiatry;radiology", "name": "SHG-Kliniken Völklingen", "operator": "SHG Kliniken", "type": "multipolygon", "wikidata": "Q1747430", "wikipedia": "de:SHG-Kliniken Völklingen"}}, {"name": "Bâtiment des Spécialités Médicales Philippe Canton", "latitude": 48.6461791, "longitude": 6.1476961, "source": "osm", "_tags": {"building": "hospital", "healthcare": "hospital", "name": "Bâtiment des Spécialités Médicales Philippe Canton", "short_name": "BSM", "type": "multipolygon"}}, {"name": "Institut Lorrain du Cœur et des Vaisseaux Louis Mathieu", "latitude": 48.6470944, "longitude": 6.1486865, "source": "osm", "_tags": {"building": "hospital", "healthcare": "hospital", "healthcare:speciality": "cardiology", "name": "Institut Lorrain du Cœur et des Vaisseaux Louis Mathieu", "short_name": "ILCV", "type": "multipolygon"}}]