[{"name": "Nemocnice Jindřichův Hradec, a.s.", "latitude": 49.1389974, "longitude": 15.0034888, "source": "osm", "_tags": {"amenity": "hospital", "healthcare": "hospital", "name": "Nemocnice Jindřichův Hradec, a.s.", "note": "http://www.hospitaljh.cz", "source": "uhul:ortofoto"}}, {"name": "Landesklinikum Waidhofen/Thaya", "latitude": 48.8126079, "longitude": 15.2852107, "source": "osm", "_tags": {"addr:city": "Waidhofen an der Thaya", "addr:country": "AT", "addr:housenumber": "31", "addr:postcode": "3830", "addr:street": "Moritz Schadekgasse", "amenity": "hospital", "at_bev:addr_date": "2018-04-02", "healthcare": "hospital", "healthcare:speciality": "psychiatry;child_psychiatry", "name": "Landesklinikum Waidhofen/Thaya", "note": "Hauptgebäude", "operator": "NÖ Landesgesundheitsagentur"}}, {"name": "Gesundheitszentrum", "latitude": 48.5994152, "longitude": 15.5480317, "source": "osm", "_tags": {"amenity": "hospital", "healthcare": "hospital", "name": "Gesundheitszentrum"}}, {"name": "Landesklinikum Waidhofen/Thaya", "latitude": 48.8128984, "longitude": 15.2855576, "source": "osm", "_tags": {"addr:city": "Waidhofen an der Thaya", "addr:country": "AT", "addr:housenumber": "31", "addr:postcode": "3830", "addr:street": "Moritz-Schadek-Gasse", "amenity": "hospital", "contact:phone": "+43 2842 9004-0", "emergency": "yes", "healthcare": "hospital", "healthcare:speciality": "emergency", "name": "Landesklinikum Waidhofen/Thaya", "website": "https://waidhofen-thaya.lknoe.at/", "wheelchair": "yes"}}, {"name": "Landesklinikum Horn", "latitude": 48.6685975, "longitude": 15.6613308, "source": "osm", "_tags": {"addr:city": "Horn", "addr:housenumber": "10", "addr:postcode": "3580", "addr:street": "Spitalgasse", "amenity": "hospital", "contact:email": "office@horn.lknoe.at", "contact:fax": "+43 2982 2661-3600", "contact:phone": "+43 2982 2661-0", "emergency": "yes", "health_specialty": "stroke_unit", "healthcare": "hospital", "healthcare:speciality": "emergency", "name": "Landesklinikum Horn", "operator": "Niederösterreichische Landeskliniken-Holding", "source": "geoimage.at", "website": "https://www.horn.lknoe.at/", "wheelchair": "yes"}}, {"name": "Nemocnice Třebíč", "latitude": 49.2124584, "longitude": 15.8923438, "source": "osm", "_tags": {"amenity": "hospital", "healthcare": "hospital", "name": "Nemocnice Třebíč", "source": "cuzk:km", "toilets:wheelchair": "yes", "website": "https://www.nem-tr.cz/", "wheelchair": "yes", "wikidata": "Q12040656"}}, {"name": "Poliklinika Vltavínská", "latitude": 49.2042313, "longitude": 15.878804, "source": "osm", "_tags": {"addr:city": "Třebíč", "addr:housenumber": "1289", "addr:postcode": "67401", "addr:street": "Vltavínská", "amenity": "hospital", "building": "civic", "building:levels": "3", "building:ruian:type": "5", "check_date": "2025-05-17", "emergency": "no", "name": "Poliklinika Vltavínská", "official_name": "Poliklinika Třebíč - Lékařský dům, spol. s r. o.", "ref:ruian:building": "18643809", "source": "cuzk:ruian", "url": "http://www.poliklinikatr.cz/", "wheelchair": "yes"}}, {"name": "Nemocnice Dačice", "latitude": 49.0759804, "longitude": 15.4307814, "source": "osm", "_tags": {"amenity": "hospital", "contact:website": "http://www.nemdac.cz/", "healthcare": "hospital", "name": "Nemocnice Dačice"}}, {"name": "Psychiatrická nemocnice Jihlava", "latitude": 49.3947731, "longitude": 15.6030833, "source": "osm", "_tags": {"addr:housenumber": "455/54", "addr:postcode": "58601", "addr:street": "Brněnská", "amenity": "hospital", "email": "pnj@pnj.cz", "healthcare": "hospital", "healthcare:speciality": "psychiatry", "internet_access": "wlan", "name": "Psychiatrická nemocnice Jihlava", "phone": "567552123", "source": "cuzk:km", "website": "https://www.pnj.cz/"}}, {"name": "Landesklinikum Zwettl", "latitude": 48.5998067, "longitude": 15.1622189, "source": "osm", "_tags": {"addr:city": "Zwettl", "addr:housenumber": "5", "addr:postcode": "3910", "addr:street": "Propstei", "amenity": "hospital", "healthcare": "hospital", "healthcare:speciality": "emergency", "name": "Landesklinikum Zwettl", "operator": "Niederösterreichische Landeskliniken-Holding"}}, {"name": "Landesklinikum Gmünd", "latitude": 48.7611866, "longitude": 14.9752155, "source": "osm", "_tags": {"addr:city": "Gmünd", "addr:country": "AT", "addr:housenumber": "17", "addr:postcode": "3950", "addr:street": "Conrathstraße", "amenity": "hospital", "email": "office@gmuend.lknoe.at", "emergency": "yes", "healthcare": "hospital", "healthcare:speciality": "emergency", "landuse": "healthcare", "name": "Landesklinikum Gmünd", "operator": "Landeskliniken-Holding", "phone": "+43 2852 9004 0", "website": "https://www.gmuend.lknoe.at/", "wikidata": "Q1802299"}}, {"name": "Poliklinika Vltavínská", "latitude": 49.2041192, "longitude": 15.8783954, "source": "osm", "_tags": {"addr:city": "Třebíč", "addr:housenumber": "1289", "addr:postcode": "67401", "addr:street": "Vltavínská", "amenity": "clinic", "building": "civic", "building:levels": "3", "healthcare": "hospital", "name": "Poliklinika Vltavínská", "official_name": "Poliklinika Třebíč - Lékařský dům, spol. s r. o.", "wheelchair": "yes", "wikidata": "Q58827687"}}, {"name": "Landesklinikum Allentsteig", "latitude": 48.7012486, "longitude": 15.3283298, "source": "osm", "_tags": {"addr:city": "Allentsteig", "addr:housenumber": "35", "addr:postcode": "3804", "addr:street": "Bahnhofstraße", "amenity": "hospital", "healthcare": "hospital", "name": "Landesklinikum Allentsteig", "operator": "Niederösterreichische Landeskliniken-Holding"}}, {"name": "Nemocnice Jindřichův Hradec", "latitude": 49.1395825, "longitude": 15.0050755, "source": "osm", "_tags": {"amenity": "hospital", "emergency": "yes", "healthcare": "hospital", "name": "Nemocnice Jindřichův Hradec", "website": "https://nemjh.cz"}}, {"name": "Landesklinikum Zwettl", "latitude": 48.5998252, "longitude": 15.1621057, "source": "osm", "_tags": {"addr:city": "Zwettl", "addr:housenumber": "5", "addr:postcode": "3910", "addr:street": "Propstei", "amenity": "hospital", "building": "yes", "building:levels": "3", "emergency": "yes", "healthcare": "hospital", "name": "Landesklinikum Zwettl", "operator": "Niederösterreichische Landeskliniken-Holding", "roof:shape": "flat", "type": "multipolygon"}}]