[{"name": "Kreiskrankenhaus Pfarrkirchen", "latitude": 48.4367127, "longitude": 12.9265198, "source": "osm", "_tags": {"amenity": "hospital", "name": "Kreiskrankenhaus Pfarrkirchen", "wheelchair": "yes"}}, {"name": "Dialysezentrum Pfarrkirchen", "latitude": 48.4360012, "longitude": 12.9259294, "source": "osm", "_tags": {"amenity": "hospital", "name": "Dialysezentrum Pfarrkirchen", "wheelchair": "yes"}}, {"name": "Arberlandklinik Viechtach", "latitude": 49.0852461, "longitude": 12.8754441, "source": "osm", "_tags": {"addr:city": "Viechtach", "addr:country": "DE", "addr:housenumber": "31", "addr:postcode": "94234", "addr:street": "Karl-Gareis-Straße", "amenity": "hospital", "name": "Arberlandklinik Viechtach", "phone": "+49 9942 200", "website": "http://www.kkhviechtach.de"}}, {"name": "Klinik Bogen", "latitude": 48.9096886, "longitude": 12.6971313, "source": "osm", "_tags": {"addr:city": "Bogen", "addr:housenumber": "8", "addr:postcode": "94327", "addr:street": "Mussinanstraße", "amenity": "hospital", "email": "info@klinik-bogen.de", "fax": "+49 9422 822280", "healthcare": "hospital", "name": "Klinik Bogen", "operator": "Kreiskliniken Bogen-Mallersdorf", "phone": "+49 9422 8220", "website": "https://www.kreiskliniken-bogen-mallersdorf.de", "wheelchair": "yes"}}, {"name": "Schlossklinik Rottenburg", "latitude": 48.6980355, "longitude": 12.0032895, "source": "osm", "_tags": {"addr:city": "Rottenburg a. d. Laaber", "addr:country": "DE", "addr:housenumber": "1", "addr:postcode": "84056", "addr:street": "Schloßstraße", "amenity": "hospital", "email": "verwaltung@schlossklinik-rottenburg.de", "emergency": "no", "healthcare": "hospital", "name": "Schlossklinik Rottenburg", "operator": "LakuMed", "phone": "+49 8781 94990", "website": "https://www.lakumed.de/fachgebiete/schlossklinik-rottenburg/"}}, {"name": "Bayerwald-Klinik", "latitude": 49.2352952, "longitude": 12.7171188, "source": "osm", "_tags": {"addr:city": "Cham", "addr:country": "DE", "addr:housenumber": "22", "addr:postcode": "93413", "addr:street": "Klinikstraße", "amenity": "hospital", "name": "Bayerwald-Klinik"}}, {"name": "TCM-Klinik", "latitude": 49.1741029, "longitude": 12.8561246, "source": "osm", "_tags": {"addr:city": "Bad Kötzting", "addr:country": "DE", "addr:housenumber": "2", "addr:postcode": "93444", "addr:street": "Ludwigstraße", "amenity": "hospital", "email": "kontakt@tcm.info", "healthcare": "hospital", "name": "TCM-Klinik", "operator": "TCM-Klinik Kötzting", "phone": "+49 9941 609-0", "website": "http://www.tcm-klinik-koetzting.de/", "wheelchair": "yes"}}, {"name": "Medizinisches Versorgungszentrum Cham (Onkologie)", "latitude": 49.2248669, "longitude": 12.6598354, "source": "osm", "_tags": {"amenity": "hospital", "description": "Die onkologische Klinik ist eine \"Filiale\" der Barmerzigen Brüder in Regensburg und bietet wohnortnahe Untersuchungen bzw. Behandlungen in dieser Region an.", "health_facility:type": "hospital", "healthcare": "hospital", "healthcare:cholera": "no", "healthcare:speciality": "oncology", "name": "Medizinisches Versorgungszentrum Cham (Onkologie)", "note": "independent hostpital with own operator but attatched to Kreiskrankenhaus, treating cancer", "operator": "Barmherzige Brüder Regensburg", "operator:type": "religious order", "source": "survey", "wheelchair": "yes"}}, {"name": "Klinikum Luitpold", "latitude": 49.1693698, "longitude": 12.858291, "source": "osm", "_tags": {"addr:city": "Bad Kötzting", "addr:country": "DE", "addr:housenumber": "1", "addr:postcode": "93444", "addr:street": "Weißenregener Straße", "amenity": "hospital", "healthcare": "hospital", "name": "Klinikum Luitpold", "website": "https://www.reha-badkoetzting.de/"}}, {"name": "Ambulante Notfallversorgung", "latitude": 49.1894282, "longitude": 12.5192031, "source": "osm", "_tags": {"addr:city": "Roding", "addr:country": "DE", "addr:housenumber": "1", "addr:postcode": "93426", "addr:street": "Arnulfstraße", "amenity": "hospital", "healthcare": "hospital", "name": "Ambulante Notfallversorgung", "opening_hours": "\"Notfalltermine nur nach telefonischer Vereinbarung\"", "operator": "Sana", "phone": "09971- 2005 7500", "toilets:wheelchair": "yes", "wheelchair": "yes"}}, {"name": "Dr. Peter – Faltenbehandlung mit Botox, Meso- & Eigenbluttherapie", "latitude": 48.5556542, "longitude": 12.810539, "source": "osm", "_tags": {"addr:city": "Arnstorf", "addr:country": "DE", "addr:housenumber": "1", "addr:postcode": "94424", "addr:street": "Gerberstraße", "amenity": "hospital", "description": "Dr. B. Peter ist auf minimal-invasive Methoden zur Hautstraffung und Verjüngung des Erscheinungsbildes spezialisiert. Faltenbehandlung mittels Botox, Faltenunterspritzung, Eigenbluttherapie, Medical Needling, Mesolift und Mesotherapie in der Praxis für äs", "email": "info@falten-botox.de", "healthcare": "hospital", "healthcare:speciality": "plastic_surgery", "image": "https://falten-botox.de/fileadmin/_processed_/8/f/csm_3_Kontaktdaten_Praxisgeba%CC%88ude__a3f7e999e0.jpg", "name": "Dr. Peter – Faltenbehandlung mit Botox, Meso- & Eigenbluttherapie", "phone": "+49 8723 509", "website": "https://www.falten-botox.de/"}}, {"name": "SPZ - Sozialpsychiatrische Zentrum", "latitude": 48.8084926, "longitude": 12.8967235, "source": "osm", "_tags": {"amenity": "hospital", "healthcare": "hospital", "name": "SPZ - Sozialpsychiatrische Zentrum"}}, {"name": "medbo Bezirksklinikum Regensburg", "latitude": 48.9979343, "longitude": 12.08788, "source": "osm", "_tags": {"addr:city": "Regensburg", "addr:country": "DE", "addr:housenumber": "84", "addr:postcode": "93053", "addr:street": "Universitätsstraße", "amenity": "hospital", "emergency": "yes", "healthcare": "hospital", "healthcare:speciality": "psychiatry;neurology;emergency", "name": "medbo Bezirksklinikum Regensburg", "old_name": "Bezirkskrankenhaus Regensburg", "operator": "medbo KU", "operator:type": "public", "short_name": "BKR", "website": "https://www.medbo.de/standorte/regensburg.html", "wheelchair": "yes", "wikidata": "Q854257", "wikipedia": "de:Bezirksklinikum Regensburg"}}, {"name": "Kreiskrankenhaus", "latitude": 48.4449008, "longitude": 12.3602427, "source": "osm", "_tags": {"addr:city": "Vilsbiburg", "addr:country": "DE", "addr:housenumber": "2", "addr:postcode": "84137", "addr:street": "Krankenhausstraße", "amenity": "hospital", "email": "info@lakumed.de", "emergency": "yes", "healthcare": "hospital", "name": "Kreiskrankenhaus", "operator": "Landshuter Kommunalunternehmen für medizinische Versorgung", "phone": "+49 8741 60-0", "website": "https://www.lakumed.de/fachgebiete/krankenhaus-vilsbiburg/", "wheelchair": "yes"}}, {"name": "Heiligenfeld Klinik", "latitude": 49.3736627, "longitude": 12.7065302, "source": "osm", "_tags": {"addr:city": "Waldmünchen", "addr:country": "DE", "addr:housenumber": "3", "addr:postcode": "93449", "addr:street": "Krankenhausstraße", "amenity": "hospital", "building": "yes", "healthcare": "hospital", "name": "Heiligenfeld Klinik", "wheelchair": "yes"}}, {"name": "Krankenhaus St. Barbara", "latitude": 49.3162602, "longitude": 12.1139443, "source": "osm", "_tags": {"addr:city": "Schwandorf", "addr:country": "DE", "addr:housenumber": "24", "addr:postcode": "92421", "addr:street": "Steinberger Straße", "alt_name": "Sankt-Barbara-Krankenhaus", "amenity": "hospital", "check_date": "2025-05-11", "email": "info@barmherzige-schwandorf.de", "emergency": "yes", "fax": "+49 9431 64214", "healthcare": "hospital", "name": "Krankenhaus St. Barbara", "operator": "Barmherzige Brüder gemeinnützige Krankenhaus GmbH", "phone": "+49 9431 52-0", "source": "DOP_LVA_BY_01", "website": "https://www.barmherzige-schwandorf.de/", "wheelchair": "yes"}}, {"name": "Krankenhaus der Barmherzigen Brüder", "latitude": 49.0169013, "longitude": 12.0643498, "source": "osm", "_tags": {"addr:street": "Haupteingang", "amenity": "hospital", "changing_table": "yes", "check_date": "2025-02-11", "emergency": "yes", "healthcare": "hospital", "name": "Krankenhaus der Barmherzigen Brüder", "website": "https://www.barmherzige-regensburg.de/", "wheelchair": "yes", "wikidata": "Q1786526"}}, {"name": "Caritas-Krankenhaus Sankt Josef", "latitude": 49.0068486, "longitude": 12.1189805, "source": "osm", "_tags": {"addr:city": "Regensburg", "addr:country": "DE", "addr:housenumber": "65", "addr:postcode": "93053", "addr:street": "Landshuter Straße", "amenity": "hospital", "building": "hospital", "check_date": "2024-10-28", "email": "info@caritasstjosef.de", "emergency": "yes", "fax": "+49 941 782-2015", "healthcare": "hospital", "name": "Caritas-Krankenhaus Sankt Josef", "operator": "Caritasverband für die Diözese Regensburg e. V.", "phone": "+49 941 782-0", "website": "https://www.caritasstjosef.de/", "wheelchair": "yes", "wikidata": "Q1036322"}}, {"name": "Kreisklinik Wörth an der Donau", "latitude": 48.9986811, "longitude": 12.3995138, "source": "osm", "_tags": {"addr:city": "Wörth an der Donau", "addr:country": "DE", "addr:housenumber": "2", "addr:postcode": "93086", "addr:street": "Krankenhausstraße", "building": "hospital", "capacity": "120", "email": "info@kreisklinik-woerth.de", "emergency": "yes", "fax": "+49 9482 202 261", "healthcare": "hospital", "name": "Kreisklinik Wörth an der Donau", "phone": "+49 9482 202 0", "visiting_hours": "Mo-Su 10:00-20:00", "website": "https://www.kreisklinik-woerth.de/", "wheelchair": "yes", "wikidata": "Q19963773", "wikipedia": "de:Kreisklinik Wörth an der Donau"}}, {"name": "Klinik Donaustauf", "latitude": 49.0366675, "longitude": 12.2079961, "source": "osm", "_tags": {"addr:city": "Donaustauf", "addr:country": "DE", "addr:housename": "Klinik Donaustauf", "addr:housenumber": "68", "addr:postcode": "93093", "addr:street": "Ludwigstraße", "amenity": "hospital", "building": "hospital", "check_date": "2024-07-24", "email": "information@klinikum-donaustauf.de", "emergency": "no", "name": "Klinik Donaustauf", "phone": "+49 9403 80-0", "website": "https://www.klinikum-donaustauf.de/", "wheelchair": "yes"}}, {"name": "Krankenhaus Burglengenfeld", "latitude": 49.203643, "longitude": 12.0352888, "source": "osm", "_tags": {"addr:city": "Burglengenfeld", "addr:country": "DE", "addr:housenumber": "1", "addr:postcode": "93133", "addr:street": "Doktor-Sauerbruch-Straße", "amenity": "hospital", "building": "yes", "email": "info@krankenhaus-burglengenfeld.de", "healthcare": "hospital", "name": "Krankenhaus Burglengenfeld", "operator": "Gemeinnützige Krankenhausgesellschaft des Landkreises Schwandorf mbH", "phone": "+49 9471 705-111", "website": "https://www.krankenhaus-burglengenfeld.de/", "wheelchair": "yes"}}, {"name": "Klinik St. Hedwig", "latitude": 49.0167575, "longitude": 12.0788348, "source": "osm", "_tags": {"addr:city": "Regensburg", "addr:housenumber": "1-3", "addr:postcode": "93049", "addr:street": "Steinmetzstraße", "alt_name": "Hedwigsklinik", "alt_name_1": "KUNO", "amenity": "hospital", "changing_table": "yes", "check_date": "2025-03-06", "description": "Kinderklinik, Geburtsklinik, Uniklinik", "emergency": "yes", "healthcare": "hospital", "healthcare:speciality": "maternity;paediatrics", "name": "Klinik St. Hedwig", "operator": "Barmherzige Brüder", "phone": "+49 941 369 98", "website": "https://www.barmherzige-hedwig.de/", "wheelchair": "yes", "wikidata": "Q96581781"}}, {"name": "Sana Klinik des Landkreises Cham", "latitude": 49.2254598, "longitude": 12.659144, "source": "osm", "_tags": {"amenity": "hospital", "emergency": "yes", "health_facility:type": "hospital", "healthcare": "hospital", "name": "Sana Klinik des Landkreises Cham", "old_name": "Kreiskrankenhaus Cham", "operator": "SANA Kliniken; Landkreis Cham", "wheelchair": "yes"}}, {"name": "Universitätsklinikum Regensburg", "latitude": 48.9878505, "longitude": 12.0876291, "source": "osm", "_tags": {"addr:city": "Regensburg", "addr:country": "DE", "addr:housenumber": "11", "addr:postcode": "93053", "addr:street": "Franz-Josef-Strauß-Allee", "amenity": "hospital", "emergency": "yes", "fax": "+49 941 944 4488", "healthcare": "hospital", "name": "Universitätsklinikum Regensburg", "phone": "+49 941 944 0", "short_name": "UKR", "toilets:wheelchair": "yes", "website": "http://www.uniklinikum-regensburg.de/", "wheelchair": "yes", "wikidata": "Q2496399"}}, {"name": "", "latitude": 48.9988212, "longitude": 12.4000064, "source": "osm", "_tags": {"amenity": "hospital", "emergency": "yes", "healthcare": "hospital", "wheelchair": "yes"}}, {"name": "Krankenhaus", "latitude": 49.1838264, "longitude": 12.8600684, "source": "osm", "_tags": {"addr:city": "Bad Kötzting", "addr:country": "DE", "addr:housenumber": "42", "addr:postcode": "93444", "addr:street": "Hauser Straße", "amenity": "hospital", "building": "yes", "healthcare": "hospital", "name": "Krankenhaus"}}, {"name": "Bezirksklinikum Mainkofen", "latitude": 48.8077434, "longitude": 12.8974753, "source": "osm", "_tags": {"addr:city": "Deggendorf", "addr:housenumber": "22", "addr:place": "Mainkofen", "addr:postcode": "94469", "amenity": "hospital", "email": "kontakt@mainkofen.de", "fax": "+49 9931 8730099", "healthcare": "hospital", "heritage": "4", "heritage:operator": "BLfD", "name": "Bezirksklinikum Mainkofen", "operator": "Bezirk Niederbayern", "phone": "+49 9931 870", "ref:BLfD": "D-2-71-119-114", "website": "https://www.mainkofen.de/", "wikidata": "Q854254", "wikipedia": "de:Bezirksklinikum Mainkofen"}}, {"name": "", "latitude": 49.0021323, "longitude": 12.6868967, "source": "osm", "_tags": {"amenity": "hospital", "healthcare": "hospital", "source": "bing"}}, {"name": "DonauIsar Klinikum Landau", "latitude": 48.66571, "longitude": 12.7030103, "source": "osm", "_tags": {"addr:city": "Landau an der Isar", "addr:country": "DE", "addr:housenumber": "17", "addr:postcode": "94405", "addr:street": "Bayerwaldring", "amenity": "hospital", "email": "verwaltung@kkh-lan.de", "emergency": "yes", "name": "DonauIsar Klinikum Landau", "operator": "DONAUISAR Klinikum Deggendorf-Dingolfing-Landau gKU", "phone": "+49 9951 75-1", "website": "http://www.donau-isar-klinikum.de/unser-klinikum/standort-landau/", "wheelchair": "yes"}}, {"name": "Donauisar Klinikum Dingolfing", "latitude": 48.6218205, "longitude": 12.4901208, "source": "osm", "_tags": {"addr:city": "Dingolfing", "addr:country": "DE", "addr:housenumber": "1", "addr:postcode": "84130", "addr:street": "Teisbacher Straße", "amenity": "hospital", "email": "verwaltung@kkh-dgf.de", "name": "Donauisar Klinikum Dingolfing", "operator": "DONAUISAR Klinikum Deggendorf-Dingolfing-Landau gKU", "phone": "+49 8731 880", "toilets:wheelchair": "yes", "website": "http://www.donau-isar-klinikum.de/unser-klinikum/standort-dingolfing/", "wheelchair": "yes"}}, {"name": "Bezirkskrankenhaus Straubing Forensisch-psychiatrische Klinik", "latitude": 48.8824692, "longitude": 12.5298772, "source": "osm", "_tags": {"addr:city": "Straubing", "addr:country": "DE", "addr:housenumber": "32", "addr:postcode": "94315", "addr:street": "Lerchenhaid", "amenity": "hospital", "email": "direktorium@bkh-straubing.de", "emergency": "no", "fax": "+49 9421 8005 298", "healthcare": "hospital", "healthcare:speciality": "forensic_psychiatry", "name": "Bezirkskrankenhaus Straubing Forensisch-psychiatrische Klinik", "operator": "Bezirk Niederbayern", "phone": "+49 9421 8005 0", "short_name": "BKH Straubing", "website": "https://www.bkh-straubing.de/"}}, {"name": "Paul-Gerhard-Haus - Zentrum für Altersmedizin", "latitude": 49.0158519, "longitude": 12.064153, "source": "osm", "_tags": {"addr:city": "Regensburg", "addr:country": "DE", "addr:housenumber": "86", "addr:postcode": "93049", "addr:street": "Prüfeninger Straße", "amenity": "hospital", "building": "hospital", "building:levels": "3", "description": "Ehemaliges Evangelisches Krankenhaus", "healthcare": "hospital", "name": "Paul-Gerhard-Haus - Zentrum für Altersmedizin", "operator": "Barmherzige Brüder", "roof:levels": "0"}}, {"name": "Kreiskrankenhaus Achdorf", "latitude": 48.5233197, "longitude": 12.1499832, "source": "osm", "_tags": {"addr:city": "Landshut", "addr:country": "DE", "addr:housenumber": "3", "addr:postcode": "84036", "addr:street": "Achdorfer Weg", "amenity": "hospital", "check_date": "2023-12-01", "email": "info@lakumed.de", "emergency": "yes", "healthcare": "hospital", "layer": "-1", "name": "Kreiskrankenhaus Achdorf", "operator": "LAKUMED Kliniken Landshuter Kommunalunternehmen für medizinische Versorgung", "operator:type": "public", "phone": "+49 871 4040", "website": "https://www.lakumed.de/achdorf/fachbereiche/fb_start.html"}}, {"name": "Kinderkrankenhaus Sankt Marien", "latitude": 48.5345612, "longitude": 12.1646078, "source": "osm", "_tags": {"addr:city": "Landshut", "addr:country": "DE", "addr:housenumber": "9", "addr:postcode": "84036", "addr:street": "Grillparzerstraße", "amenity": "hospital", "check_date": "2023-12-01", "emergency": "yes", "healthcare": "hospital", "healthcare:speciality": "paediatrics", "name": "Kinderkrankenhaus Sankt Marien", "name:en": "Children's hospital St. Marien", "phone": "+49 871 8520", "website": "https://www.kinderkrankenhaus-landshut.de/"}}, {"name": "Klinikum Landshut", "latitude": 48.5376718, "longitude": 12.1375837, "source": "osm", "_tags": {"addr:city": "Landshut", "addr:country": "DE", "addr:housenumber": "1", "addr:postcode": "84034", "addr:street": "Robert-Koch-Straße", "amenity": "hospital", "beds": "520", "check_date": "2024-06-15", "email": "geschaeftsfuehrung@klinikum-landshut.de", "emergency": "yes", "healthcare": "hospital", "name": "Klinikum Landshut", "operator": "Stadt Landshut", "operator:type": "public", "phone": "+49 871 6980", "website": "https://www.klinikum-landshut.de/", "wheelchair": "yes", "wikidata": "Q1774628", "wikipedia": "de:Klinikum Landshut"}}, {"name": "Gesundheitscampus", "latitude": 49.1889111, "longitude": 12.5196026, "source": "osm", "_tags": {"addr:city": "Roding", "addr:country": "DE", "addr:housenumber": "1", "addr:postcode": "93426", "addr:street": "Arnulfstraße", "area": "yes", "healthcare": "hospital", "name": "Gesundheitscampus", "wheelchair": "yes"}}, {"name": "", "latitude": 49.0069428, "longitude": 12.1188136, "source": "osm", "_tags": {"amenity": "hospital", "healthcare": "hospital"}}, {"name": "Asklepios Klinik Bad Abbach", "latitude": 48.932716, "longitude": 12.0381875, "source": "osm", "_tags": {"addr:city": "Bad Abbach", "addr:housenumber": "3", "addr:postcode": "93077", "addr:street": "Kaiser-Karl-V.-Allee", "amenity": "hospital", "emergency": "no", "healthcare": "hospital", "healthcare:speciality": "orthopaedics;rheumatology", "name": "Asklepios Klinik Bad Abbach", "operator": "Asklepios Kliniken", "operator:type": "private", "operator:wikidata": "Q732068", "website": "https://www.asklepios.com/bad-abbach/klinik/", "wheelchair": "yes", "wikidata": "Q30260666"}}, {"name": "Asklepios Zentrum für Rehabilitation", "latitude": 48.9306907, "longitude": 12.0380198, "source": "osm", "_tags": {"amenity": "hospital", "healthcare": "rehabilitation", "healthcare:speciality": "physiatry", "name": "Asklepios Zentrum für Rehabilitation", "operator": "Asklepios Kliniken", "operator:type": "private", "operator:wikidata": "Q732068", "wheelchair": "yes"}}, {"name": "", "latitude": 49.2035927, "longitude": 12.034576, "source": "osm", "_tags": {"amenity": "hospital", "healthcare": "hospital"}}, {"name": "", "latitude": 49.037047, "longitude": 12.2071887, "source": "osm", "_tags": {"amenity": "hospital", "healthcare": "hospital"}}, {"name": "Kreisklinik Mallersdorf", "latitude": 48.7778187, "longitude": 12.2465132, "source": "osm", "_tags": {"amenity": "hospital", "healthcare": "hospital", "name": "Kreisklinik Mallersdorf"}}, {"name": "", "latitude": 49.235326, "longitude": 12.7168037, "source": "osm", "_tags": {"amenity": "hospital", "healthcare": "hospital"}}, {"name": "Physio", "latitude": 48.7185226, "longitude": 12.4423623, "source": "osm", "_tags": {"amenity": "hospital", "healthcare": "hospital", "name": "Physio"}}, {"name": "Bezirkskrankenhaus Landshut", "latitude": 48.5365218, "longitude": 12.1331538, "source": "osm", "_tags": {"addr:city": "Landshut", "addr:country": "DE", "addr:housenumber": "22", "addr:postcode": "84034", "addr:street": "Prof.-Buchner-Straße", "amenity": "hospital", "check_date": "2024-06-25", "email": "info@bkh-landshut.de", "facebook": "https://www.facebook.com/bezirkskrankenhauslandshut", "fax": "+49 871 6008-143", "healthcare": "hospital", "healthcare:speciality": "psychiatry", "name": "Bezirkskrankenhaus Landshut", "phone": "+49 871 6008-0", "short_name": "BKH Landshut", "source": "Bing", "toilets:wheelchair": "yes", "website": "https://www.bkh-landshut.de/", "wheelchair": "yes", "wikidata": "Q106592199"}}, {"name": "Klinikum St. Elisabeth Straubing", "latitude": 48.8864331, "longitude": 12.5906554, "source": "osm", "_tags": {"addr:city": "Straubing", "addr:country": "DE", "addr:housenumber": "23", "addr:postcode": "94315", "addr:street": "Sankt-Elisabeth-Straße", "amenity": "hospital", "building": "hospital", "email": "info@klinikum-straubing.de", "emergency": "yes", "fax": "+49 9421 710 1015", "healthcare": "hospital", "layer": "-1", "name": "Klinikum St. Elisabeth Straubing", "operator": "Barmherzige Brüder", "phone": "+49 9421 710 0", "reg_name": "Elisabeth-Krankenhaus", "source": "Bing", "type": "multipolygon", "website": "https://www.klinikum-straubing.de/", "wheelchair": "yes", "wikidata": "Q30280939"}}, {"name": "", "latitude": 48.523248, "longitude": 12.1496989, "source": "osm", "_tags": {"addr:city": "Landshut", "addr:country": "DE", "addr:housenumber": "3", "addr:postcode": "84036", "addr:street": "Achdorfer Weg", "building": "hospital", "check_date": "2024-06-25", "healthcare": "hospital", "layer": "0", "phone": "+49 871 4040", "type": "multipolygon"}}, {"name": "Klinik Lindenlohe", "latitude": 49.3593851, "longitude": 12.1580814, "source": "osm", "_tags": {"amenity": "hospital", "building": "yes", "name": "Klinik Lindenlohe", "toilets:wheelchair": "yes", "type": "multipolygon", "wheelchair": "yes"}}]