[{"name": "Nemocnice Český Krumlov", "latitude": 48.8120905, "longitude": 14.3255627, "source": "osm", "_tags": {"addr:city": "Český Krumlov", "addr:postcode": "381 01", "addr:street": "Na Moráni", "amenity": "hospital", "emergency": "yes", "healthcare": "hospital", "healthcare:speciality": "general", "name": "Nemocnice Český Krumlov", "website": "http://www.nemckr.cz", "wheelchair": "yes", "wikidata": "Q58490447"}}, {"name": "Nemocnice Tábor, a.s.", "latitude": 49.4166253, "longitude": 14.6531779, "source": "osm", "_tags": {"amenity": "hospital", "contact:website": "https://www.nemta.cz/", "emergency": "yes", "healthcare": "hospital", "name": "Nemocnice Tábor, a.s.", "source": "local_knowledge;bing", "wikidata": "Q58220056"}}, {"name": "Nemocnice Prachatice", "latitude": 49.0068493, "longitude": 14.0114954, "source": "osm", "_tags": {"amenity": "hospital", "healthcare": "hospital", "name": "Nemocnice Prachatice", "website": "https://www.nempt.cz/"}}, {"name": "Horní areál Nemocnice České Budějovice", "latitude": 48.9600095, "longitude": 14.4669285, "source": "osm", "_tags": {"amenity": "hospital", "emergency": "yes", "fixme": "zmapovat přesně, oddělit od silnice", "healthcare": "hospital", "name": "Horní areál Nemocnice České Budějovice", "operator": "Nemocnice České Budějovice a.s.", "operator:type": "public", "wikidata": "Q30080431"}}, {"name": "Nemocnice Písek, a.s.", "latitude": 49.3021476, "longitude": 14.1576698, "source": "osm", "_tags": {"amenity": "hospital", "contact:website": "https://www.nemopisek.cz/", "healthcare": "hospital", "name": "Nemocnice Písek, a.s."}}, {"name": "", "latitude": 49.0150527, "longitude": 14.004643, "source": "osm", "_tags": {"amenity": "hospital", "healthcare": "hospital"}}, {"name": "", "latitude": 49.3069591, "longitude": 14.1493817, "source": "osm", "_tags": {"amenity": "hospital", "healthcare": "hospital"}}, {"name": "Dolní areál Nemocnice České Budějovice", "latitude": 48.9642509, "longitude": 14.4714082, "source": "osm", "_tags": {"amenity": "hospital", "emergency": "no", "healthcare": "hospital", "name": "Dolní areál Nemocnice České Budějovice", "operator": "NEMOCNICE ČESKÉ BUDĚJOVICE, a.s.,", "operator:type": "public"}}, {"name": "", "latitude": 48.5706299, "longitude": 13.9837127, "source": "osm", "_tags": {"amenity": "hospital", "healthcare": "hospital"}}, {"name": "Klinikum Rohrbach", "latitude": 48.5709823, "longitude": 13.9823076, "source": "osm", "_tags": {"addr:city": "Rohrbach-Berg", "addr:country": "AT", "addr:housenumber": "1", "addr:postcode": "4150", "addr:street": "Krankenhausstraße", "amenity": "hospital", "building": "yes", "emergency": "yes", "healthcare": "hospital", "healthcare:speciality": "emergency", "layer": "2", "name": "Klinikum Rohrbach", "operator": "Oberösterreichische Gesundheitsholding GmbH", "operator:type": "public", "type": "multipolygon"}}, {"name": "Klinikum Freistadt", "latitude": 48.4922426, "longitude": 14.4979369, "source": "osm", "_tags": {"addr:city": "Freistadt", "addr:country": "AT", "addr:housenumber": "1", "addr:postcode": "4240", "addr:street": "Krankenhausstraße", "amenity": "hospital", "building": "yes", "email": "contact.fr@ooeg.at", "emergency": "yes", "healthcare": "hospital", "healthcare:speciality": "emergency", "name": "Klinikum Freistadt", "note": "LKH mit Binnenflächen", "old_name": "Landeskrankenhaus Freistadt", "operator": "OÖG Oberösterreichische Gesundheitsholding", "phone": "+43 5055476-0", "type": "multipolygon", "website": "https://www.ooeg.at/fr", "wikidata": "Q121044184"}}]