[{"name": "Clinique d'Épernay", "latitude": 49.0485226, "longitude": 3.9507764, "source": "osm", "_tags": {"amenity": "hospital", "healthcare": "hospital", "name": "Clinique d'Épernay", "ref:FR:FINESS": "510000243", "type:FR:FINESS": "365"}}, {"name": "Cabinet Infermier & Cabinet Pédicurie - Podologie", "latitude": 49.2609966, "longitude": 4.0499879, "source": "osm", "_tags": {"addr:housenumber": "154", "amenity": "hospital", "healthcare": "hospital", "healthcare:speciality": "kinesitherapy", "name": "Cabinet Infermier & Cabinet Pédicurie - Podologie", "wheelchair": "limited"}}, {"name": "Groupe hospitalier Sud Ardennes - Site de Vouziers", "latitude": 49.3943199, "longitude": 4.7013183, "source": "osm", "_tags": {"amenity": "hospital", "email": "direction@ch-ghsa.fr", "emergency": "yes", "facebook": "Groupe Hospitalier Sud Ardennes", "fax": "+33 3 24 30 71 11", "healthcare": "hospital", "name": "Groupe hospitalier Sud Ardennes - Site de Vouziers", "operator:type": "public", "phone": "+33 3 24 30 71 00", "ref:FR:FINESS": "080000276", "source": "cadastre-dgi-fr source : Direction Générale des Impôts - Cadastre ; mise à jour : 2010", "type:FR:FINESS": "355", "website": "https://www.ch-ghsa.fr/"}}, {"name": "Polyclinique Courlancy", "latitude": 49.2440692, "longitude": 4.0173959, "source": "osm", "_tags": {"addr:housenumber": "38", "amenity": "hospital", "emergency": "yes", "fax": "+33 3 26 77 26 02", "healthcare": "hospital", "name": "Polyclinique Courlancy", "operator": "Courlancy Santé", "operator:type": "private", "phone": "+33 3 26 77 26 77", "ref:FR:FINESS": "510000185", "source": "cadastre-dgi-fr source : Direction Générale des Impôts - Cadastre. Mise à jour : 2011", "type:FR:FINESS": "365", "website": "https://www.courlancy-sante.com/polyclinique/courlancy.html", "zoning:FR": "UEa"}}, {"name": "Polyclinique Les Bleuets", "latitude": 49.2499974, "longitude": 4.0167356, "source": "osm", "_tags": {"amenity": "hospital", "healthcare": "hospital", "name": "Polyclinique Les Bleuets", "ref:FR:FINESS": "510012040", "source": "cadastre-dgi-fr source : Direction Générale des Impôts - Cadastre. Mise à jour : 2011", "type:FR:FINESS": "129"}}, {"name": "CHU Reims - Hôpital Sébastopol", "latitude": 49.2653272, "longitude": 4.048767, "source": "osm", "_tags": {"addr:housenumber": "48", "amenity": "hospital", "healthcare": "hospital", "name": "CHU Reims - Hôpital Sébastopol", "operator": "CHU Reims", "operator:type": "public", "ref:FR:FINESS": "510002454", "ref:FR:SIREN": "265100057", "ref:FR:SIRET": "26510005700040", "source": "cadastre-dgi-fr source : Direction Générale des Impôts - Cadastre. Mise à jour : 2011", "type:FR:FINESS": "101", "type:FR:PLU": "UEa"}}, {"name": "Institut de Cancérologie Jean Godinot", "latitude": 49.2271331, "longitude": 4.0223051, "source": "osm", "_tags": {"addr:housenumber": "1", "amenity": "hospital", "email": "info@reims.unicancer.fr", "fax": "+33 3 26 50 44 49", "healthcare": "hospital", "name": "Institut de Cancérologie Jean Godinot", "phone": "+33 3 26 50 44 44", "ref:FR:FINESS": "510000516", "source": "cadastre-dgi-fr source : Direction Générale des Impôts - Cadastre. Mise à jour : 2011", "type:FR:FINESS": "131", "website": "https://www.institutjeangodinot.fr/accueil/fr/", "wikidata": "Q91994460"}}, {"name": "Centre Hospitalier de Vitry-le-François", "latitude": 48.7159915, "longitude": 4.6005772, "source": "osm", "_tags": {"addr:city": "Vitry-le-François", "addr:country": "FR", "addr:housenumber": "2", "addr:postcode": "51308", "addr:street": "Rue Charles Simon", "amenity": "hospital", "email": "direction-generale@ch-vitrylefrancois.fr", "emergency": "yes", "facebook": "Hôpital de Vitry-le-François", "fax": "+33 3 26 73 47 87", "healthcare": "hospital", "name": "Centre Hospitalier de Vitry-le-François", "operator:type": "public", "phone": "+33 3 26 73 60 60", "ref:FR:FINESS": "510000250", "type:FR:FINESS": "355", "website": "http://www.ch-vitrylefrancois.fr/"}}, {"name": "Centre hospitalier Auban-Moët", "latitude": 49.0320599, "longitude": 3.9550563, "source": "osm", "_tags": {"addr:city": "Epernay", "addr:country": "FR", "addr:housenumber": "137", "addr:postcode": "51200", "addr:street": "Rue de l'Hôpital Auban Moët", "amenity": "hospital", "emergency": "yes", "fax": "+33 3 26 58 71 71", "healthcare": "hospital", "name": "Centre hospitalier Auban-Moët", "operator:type": "public", "phone": "+33 3 26 58 70 00", "ref:FR:FINESS": "510000235", "type:FR:FINESS": "355", "website": "https://www.ch-epernay.fr/", "wikidata": "Q2945659"}}, {"name": "Centre Hospitalier d'Argonne", "latitude": 49.092891, "longitude": 4.9079292, "source": "osm", "_tags": {"amenity": "hospital", "email": "contact@ch-argonne.fr", "emergency": "yes", "name": "Centre Hospitalier d'Argonne", "phone": "+33 3 26 60 81 41", "ref:FR:FINESS": "510000466", "ref:FR:SIRET": "26510006500118", "source": "Bing;cadastre-dgi-fr source : Direction Générale des Impôts - Cadastre. Mise à jour : 2015", "type:FR:FINESS": "355", "website": "http://www.ch-saintemenehould.fr/"}}, {"name": "Centre hospitalier de Châlons-en-Champagne", "latitude": 48.9715968, "longitude": 4.3701975, "source": "osm", "_tags": {"addr:city": "Châlons-en-Champagne", "addr:country": "FR", "addr:housenumber": "51", "addr:postcode": "51005", "addr:street": "Rue du Commandant Derrien", "amenity": "hospital", "emergency": "yes", "fax": "+33 3 26 21 38 20", "healthcare:speciality": "intensive", "name": "Centre hospitalier de Châlons-en-Champagne", "operator:type": "public", "phone": "+33 3 26 69 60 60", "ref:FR:FINESS": "510000169", "type:FR:FINESS": "355", "website": "https://www.ch-chalonsenchampagne.fr/", "wikidata": "Q65503889"}}, {"name": "CHU de Reims", "latitude": 49.2286099, "longitude": 4.0205977, "source": "osm", "_tags": {"amenity": "hospital", "emergency": "yes", "healthcare": "hospital", "healthcare:speciality": "intensive", "name": "CHU de Reims", "operator:type": "public", "phone": "+33 3 26 78 78 78", "ref:FR:FINESS": "510025091", "source": "Le ministère des solidarités et de la santé - 03/2019", "type:FR:FINESS": "292", "website": "https://www.chu-reims.fr"}}, {"name": "Hôpital de Jour Lewis Carroll", "latitude": 48.9608535, "longitude": 4.3647973, "source": "osm", "_tags": {"amenity": "hospital", "healthcare": "hospital", "name": "Hôpital de Jour Lewis Carroll", "ref:FR:FINESS": "510012560", "type:FR:FINESS": "292"}}, {"name": "Hôpital Pierre Briquet", "latitude": 48.9698614, "longitude": 4.3659213, "source": "osm", "_tags": {"addr:city": "Châlons-en-Champagne", "addr:country": "FR", "addr:housenumber": "1", "addr:postcode": "51022", "addr:street": "Chemin de Bouy", "amenity": "hospital", "fax": "+33 3 26 70 37 76", "name": "Hôpital Pierre Briquet", "phone": "+33 3 26 70 37 37", "ref:FR:FINESS": "510000219", "type:FR:FINESS": "292", "website": "https://www.epsm-marne.fr/"}}, {"name": "Centre Rééducation Moteur Cérébral", "latitude": 48.9526254, "longitude": 4.3285813, "source": "osm", "_tags": {"addr:city": "Fagnières", "addr:country": "FR", "addr:housenumber": "2", "addr:postcode": "51510", "addr:street": "Rue Robert Lecomte", "amenity": "hospital", "emergency": "no", "name": "Centre Rééducation Moteur Cérébral", "source": "cadastre-dgi-fr source : Direction Générale des Impôts - Cadastre. Mise à jour : 2012"}}, {"name": "American Memorial Hospital", "latitude": 49.2306807, "longitude": 4.0172684, "source": "osm", "_tags": {"amenity": "hospital", "healthcare": "hospital", "name": "American Memorial Hospital", "operator": "CHU de Reims", "operator:type": "public", "ref:FR:FINESS": "510002470", "ref:FR:SIRET": "26510005700032", "start_date": "1924-01-01"}}, {"name": "Polyclinique de Reims Bezannes", "latitude": 49.2182842, "longitude": 4.0019162, "source": "osm", "_tags": {"addr:housenumber": "109", "addr:street": "Rue Louis Victor de Broglie", "amenity": "hospital", "emergency": "yes", "healthcare": "hospital", "healthcare:speciality": "intensive", "name": "Polyclinique de Reims Bezannes", "operator": "Courlancy Santé", "operator:type": "private", "phone": "+33 3 52 15 16 17", "ref:FR:FINESS": "510024979", "type:FR:FINESS": "365", "website": "https://www.courlancy-sante.com/reims-bezannes"}}, {"name": "Institut Michel Fandre", "latitude": 49.2412116, "longitude": 4.0117223, "source": "osm", "_tags": {"addr:housenumber": "51", "amenity": "hospital", "healthcare": "hospital", "name": "Institut Michel Fandre", "ref:FR:FINESS": "510000300", "type:FR:FINESS": "196"}}, {"name": "Centre hospitalier de Montier-en-Der", "latitude": 48.4762623, "longitude": 4.7746968, "source": "osm", "_tags": {"amenity": "hospital", "emergency": "no", "name": "Centre hospitalier de Montier-en-Der", "operator:type": "public", "phone": "+33 3 25 04 22 20", "ref:FR:FINESS": "520000050", "type:FR:FINESS": "106", "wikidata": "Q92062490"}}, {"name": "Clinique Terre de France", "latitude": 49.2147443, "longitude": 4.0331837, "source": "osm", "_tags": {"addr:city": "Cormontreuil", "addr:housenumber": "4", "addr:postcode": "51350", "addr:street": "Rue des Montépillois", "amenity": "hospital", "healthcare": "rehabilitation", "name": "Clinique Terre de France", "opening_hours": "Mo-Fr  08:30-19:30", "ref:FR:FINESS": "510024359", "ref:FR:SIRET": "30116075000842", "source": "Le ministère des solidarités et de la santé - 2021-01", "type:FR:FINESS": "109"}}]