[{"name": "Пологовий будинок №2", "latitude": 49.2394854, "longitude": 28.4951751, "source": "osm", "_tags": {"amenity": "hospital", "healthcare": "hospital", "name": "Пологовий будинок №2", "name:uk": "Пологовий будинок №2", "phone": "+380 432 27 2524", "website": "https://www.vinroddom.com.ua/"}}, {"name": "Університетська клініка ВНМУ", "latitude": 49.239789, "longitude": 28.5050063, "source": "osm", "_tags": {"amenity": "hospital", "healthcare": "hospital", "name": "Університетська клініка ВНМУ", "name:ru": "Университетская клиника ВНМУ", "name:uk": "Університетська клініка ВНМУ"}}, {"name": "Вінницька міська клінічна лікарня №1", "latitude": 49.2359937, "longitude": 28.4134942, "source": "osm", "_tags": {"amenity": "hospital", "healthcare": "hospital", "name": "Вінницька міська клінічна лікарня №1", "name:ru": "Винницкая городская клиническая больница №1", "name:uk": "Вінницька міська клінічна лікарня №1", "phone": "+380 432 51 1233"}}, {"name": "Вінницька районна лікарня", "latitude": 49.2356384, "longitude": 28.4143567, "source": "osm", "_tags": {"amenity": "hospital", "healthcare": "hospital", "name": "Вінницька районна лікарня", "name:ru": "Винницкая районная больница", "name:uk": "Вінницька районна лікарня", "phone": "+380 432 51 1180", "toilets:wheelchair": "no", "wheelchair": "no"}}, {"name": "Обласна клінічна дитяча лікарня", "latitude": 49.2403037, "longitude": 28.4102136, "source": "osm", "_tags": {"amenity": "hospital", "fax": "+380 432 43 7141", "healthcare": "hospital", "name": "Обласна клінічна дитяча лікарня", "name:en": "Vinnitsa Regional Childrens Clinical Hospital", "name:ru": "Областная клиническая детская больница", "name:uk": "Обласна клінічна дитяча лікарня", "phone": "+380 432 55 2007"}}, {"name": "Центр планування сім'ї та репродукції", "latitude": 49.2312312, "longitude": 28.4552446, "source": "osm", "_tags": {"amenity": "hospital", "healthcare": "hospital", "internet_access": "wlan", "name": "Центр планування сім'ї та репродукції", "name:uk": "Центр планування сім'ї та репродукції", "phone": "+380 432 52 4747"}}, {"name": "Центр первинної медико-санітарної допомоги №5", "latitude": 49.2341397, "longitude": 28.4948262, "source": "osm", "_tags": {"amenity": "hospital", "healthcare": "hospital", "name": "Центр первинної медико-санітарної допомоги №5", "name:ru": "Центр первичной медико-санитарной помощи №5", "name:uk": "Центр первинної медико-санітарної допомоги №5"}}, {"name": "Центр первинної медико-санітарної допомоги №2", "latitude": 49.2366455, "longitude": 28.4699492, "source": "osm", "_tags": {"amenity": "hospital", "healthcare": "hospital", "name": "Центр первинної медико-санітарної допомоги №2", "name:uk": "Центр первинної медико-санітарної допомоги №2", "opening_hours": "08:00-20:00", "phone": "+380 432 67 0224"}}, {"name": "Вінницька районна санітарно-епідеміологічна станція", "latitude": 49.2351323, "longitude": 28.4155854, "source": "osm", "_tags": {"amenity": "hospital", "healthcare": "hospital", "name": "Вінницька районна санітарно-епідеміологічна станція", "name:ru": "Винницкая районная санитарно-эпидемиологическая станция", "name:uk": "Вінницька районна санітарно-епідеміологічна станція", "phone": "+380 432 51 1170"}}, {"name": "Вінницька філія НДІ медико-соціальних проблем інвалідності", "latitude": 49.2364029, "longitude": 28.4096653, "source": "osm", "_tags": {"amenity": "hospital", "healthcare": "centre", "name": "Вінницька філія НДІ медико-соціальних проблем інвалідності", "name:ru": "Винницкий филиал НИИ медико-социальных проблем инвалидности", "name:uk": "Вінницька філія НДІ медико-соціальних проблем інвалідності", "phone": "+380 432 43 8045"}}, {"name": "Вінницький центр реабілітації дітей-інвалідів \"Промінь\"", "latitude": 49.2292656, "longitude": 28.4638205, "source": "osm", "_tags": {"amenity": "hospital", "healthcare": "hospital", "name": "Вінницький центр реабілітації дітей-інвалідів \"Промінь\"", "name:ru": "Винницкий центр реабилитации детей-инвалидов \"Проминь\"", "name:uk": "Вінницький центр реабілітації дітей-інвалідів \"Промінь\""}}, {"name": "Вінницький обласний шкірно-венерологічний диспансер", "latitude": 49.23656, "longitude": 28.4722812, "source": "osm", "_tags": {"amenity": "hospital", "healthcare": "hospital", "name": "Вінницький обласний шкірно-венерологічний диспансер", "name:ru": "Винницкий областной кожно-венерологический диспансер", "name:uk": "Вінницький обласний шкірно-венерологічний диспансер"}}, {"name": "Вінницький обласний лікарсько-фізкультурний диспансер", "latitude": 49.2351375, "longitude": 28.4732724, "source": "osm", "_tags": {"amenity": "hospital", "healthcare": "hospital", "name": "Вінницький обласний лікарсько-фізкультурний диспансер", "name:ru": "Винницкий областной врачебно-физкультурный диспансер", "name:uk": "Вінницький обласний лікарсько-фізкультурний диспансер"}}, {"name": "Вінальфа- Мед", "latitude": 49.2275594, "longitude": 28.4568351, "source": "osm", "_tags": {"amenity": "hospital", "healthcare": "hospital", "name": "Вінальфа- Мед", "name:uk": "Вінальфа- Мед"}}, {"name": "Військово-медичний центр ВПС України", "latitude": 49.2208089, "longitude": 28.4566603, "source": "osm", "_tags": {"amenity": "hospital", "healthcare": "hospital", "name": "Військово-медичний центр ВПС України", "name:uk": "Військово-медичний центр ВПС України"}}, {"name": "Жмеринська районна лікарня", "latitude": 49.0601545, "longitude": 28.118979, "source": "osm", "_tags": {"amenity": "hospital", "healthcare": "hospital", "name": "Жмеринська районна лікарня", "name:en": "Zhmerynka district hospital", "name:ru": "Жмеринская районная больница", "name:uk": "Жмеринська районна лікарня"}}, {"name": "Товмед", "latitude": 49.2308781, "longitude": 28.5079137, "source": "osm", "_tags": {"amenity": "hospital", "healthcare": "hospital", "name": "Товмед", "name:uk": "Товмед"}}, {"name": "Віола Мед", "latitude": 49.2501892, "longitude": 28.4757591, "source": "osm", "_tags": {"amenity": "hospital", "healthcare": "hospital", "name": "Віола Мед", "name:uk": "Віола Мед", "phone": "+380 432 61 0808", "website": "https://violamed.com.ua/"}}, {"name": "Дільнична лікарня", "latitude": 49.1737409, "longitude": 28.5036192, "source": "osm", "_tags": {"amenity": "hospital", "name": "Дільнична лікарня", "name:uk": "Дільнична лікарня"}}, {"name": "", "latitude": 49.1082905, "longitude": 28.6712507, "source": "osm", "_tags": {"amenity": "hospital"}}, {"name": "", "latitude": 49.1091669, "longitude": 28.6716691, "source": "osm", "_tags": {"amenity": "hospital"}}, {"name": "", "latitude": 48.7878834, "longitude": 28.4808872, "source": "osm", "_tags": {"amenity": "hospital"}}, {"name": "", "latitude": 49.3295468, "longitude": 28.0723922, "source": "osm", "_tags": {"amenity": "hospital"}}, {"name": "Лікарня ГУНП у Вінницькій області", "latitude": 49.2545978, "longitude": 28.4501535, "source": "osm", "_tags": {"amenity": "hospital", "healthcare": "hospital", "name": "Лікарня ГУНП у Вінницькій області", "name:uk": "Лікарня ГУНП у Вінницькій області"}}, {"name": "", "latitude": 48.5342536, "longitude": 28.7436569, "source": "osm", "_tags": {"amenity": "hospital"}}, {"name": "Діагностичний центр ім. Івана Павла II", "latitude": 49.2334356, "longitude": 28.4728773, "source": "osm", "_tags": {"amenity": "hospital", "healthcare": "hospital", "name": "Діагностичний центр ім. Івана Павла II", "name:ru": "Диагностический центр им. Иоана Павла II", "name:uk": "Діагностичний центр ім. Івана Павла II", "opening_hours": "9:00-13:00,14:00-17:00", "phone": "+380 432 67 3062;+380 95 634 8111;+380 97 197 4703;+380 93 412 8770"}}, {"name": "КНП Багатопрофільна лікарня", "latitude": 49.0132184, "longitude": 28.5036344, "source": "osm", "_tags": {"amenity": "hospital", "name": "КНП Багатопрофільна лікарня", "name:uk": "КНП Багатопрофільна лікарня", "old_name": "Тиврівська центральна районна лікарня"}}, {"name": "", "latitude": 49.2237672, "longitude": 28.5189264, "source": "osm", "_tags": {"amenity": "hospital"}}, {"name": "Універсальна подольська кліника", "latitude": 49.2093991, "longitude": 28.4129943, "source": "osm", "_tags": {"addr:housenumber": "93а", "addr:street": "4-й провулок Гніванське Шосе", "amenity": "hospital", "name": "Універсальна подольська кліника", "name:uk": "Універсальна подольська кліника"}}, {"name": "Лікарня", "latitude": 48.6452422, "longitude": 28.7299967, "source": "osm", "_tags": {"amenity": "hospital", "healthcare": "hospital", "name": "Лікарня", "name:uk": "Лікарня"}}, {"name": "Spinex", "latitude": 49.2147741, "longitude": 28.4458714, "source": "osm", "_tags": {"amenity": "hospital", "email": "info@spinex.com.ua", "healthcare": "hospital", "name": "Spinex", "name:uk": "Spinex", "official_name": "Центр сучасної хірургії Spinex", "phone": "+380 432 50 7090", "website": "http://spinex.com.ua/"}}, {"name": "Центр В", "latitude": 49.2232597, "longitude": 28.4207911, "source": "osm", "_tags": {"amenity": "hospital", "emergency": "no", "healthcare": "hospital", "name": "Центр В", "name:en": "Center V", "name:ru": "Центр В", "name:uk": "Центр В", "opening_hours": "Mo-Fr 08:00-20:00; Sa 09:00-16:00; Su 10:00-14:00", "phone": "+380 68 103 1103", "website": "https://centrv.com/"}}, {"name": "2-е Інфекційне відділення", "latitude": 49.2362636, "longitude": 28.414871, "source": "osm", "_tags": {"amenity": "hospital", "healthcare": "hospital", "name": "2-е Інфекційне відділення", "name:uk": "2-е Інфекційне відділення", "operator": "Вінницька міська клінічна лікарня №1"}}, {"name": "1-е Інфекційне відділення", "latitude": 49.2360377, "longitude": 28.4159171, "source": "osm", "_tags": {"amenity": "hospital", "healthcare": "hospital", "name": "1-е Інфекційне відділення", "name:uk": "1-е Інфекційне відділення", "operator": "Вінницька міська клінічна лікарня №1"}}, {"name": "Хірургічне відділення", "latitude": 49.2379658, "longitude": 28.4162438, "source": "osm", "_tags": {"amenity": "hospital", "healthcare": "hospital", "name": "Хірургічне відділення", "name:uk": "Хірургічне відділення"}}, {"name": "Альтамедика дит дермат", "latitude": 49.2333494, "longitude": 28.4404331, "source": "osm", "_tags": {"amenity": "hospital", "healthcare": "hospital", "name": "Альтамедика дит дермат", "name:uk": "Альтамедика дит дермат"}}, {"name": "Evidense сучасна педіатрія", "latitude": 49.2350199, "longitude": 28.4667922, "source": "osm", "_tags": {"addr:street": "вулиця Архітектора Артинова", "amenity": "hospital", "healthcare": "hospital", "name": "Evidense сучасна педіатрія", "name:uk": "Evidense сучасна педіатрія", "opening_hours": "Su-Th 09:00-18:00; Fr-Sa 10:00-16:00", "phone": "+380983453333", "website": "https://evidence.vn.ua/"}}, {"name": "Центр Сімейної медицини \"MedSun\" (Медсан)", "latitude": 49.2326429, "longitude": 28.4071428, "source": "osm", "_tags": {"addr:housenumber": "2-Р", "addr:postcode": "21029", "addr:street": "Політехнічна вулиця", "amenity": "hospital", "contact:facebook": "https://www.facebook.com/people/%D0%A1%D1%96%D0%BC%D0%B5%D0%B9%D0%BD%D0%B0-%D0%BC%D0%B5%D0%B4%D0%B8%D1%86%D0%B8%D0%BD%D0%B0-MedSun/61556995375645/", "description": "\"Центр сімейної медицини \"Medsun\" – це новітній приватний медичний центр для дітей та дорослих. До ваших послуг лікарі таких спеціальностей: -для дорослих: сімейний лікар, кардіолог, ендокринолог, невропатолог, офтальмолог, гінеколог, уролог, отоларинголо", "healthcare": "hospital", "healthcare:speciality": "general;ophthalmology;paediatrics;dermatology;otolaryngology;urology;cardiology;endocrinology;gynaecology", "image": "vn.medsunclinic.com.ua", "level": "2-3", "mobile": "0 800 330 999", "name": "Центр Сімейної медицини \"MedSun\" (Медсан)", "opening_hours": "Mo-Fr 08:00-20:00, Sa 8:00-13:00", "payment:apple_pay": "yes", "payment:cash": "yes", "payment:credit_cards": "yes", "payment:debit_cards": "yes", "payment:mastercard": "yes", "payment:visa": "yes", "phone": "093 000 55 18", "website": "vn.medsunclinic.com.ua", "wheelchair": "yes"}}, {"name": "Психіатрична лікарня ім. Ющенка", "latitude": 49.212428, "longitude": 28.4446482, "source": "osm", "_tags": {"addr:housenumber": "109", "addr:postcode": "21018", "addr:street": "Пирогова вулиця", "amenity": "hospital", "building": "hospital", "healthcare": "hospital", "name": "Психіатрична лікарня ім. Ющенка", "name:en": "Yushchenko Mental hospital", "name:ru": "Психиатрическая больница им. Ющенко", "name:uk": "Психіатрична лікарня ім. Ющенка"}}, {"name": "Вінницька обласна клінічна лікарня ім. М. І. Пирогова", "latitude": 49.2298172, "longitude": 28.4511303, "source": "osm", "_tags": {"amenity": "hospital", "healthcare": "hospital", "name": "Вінницька обласна клінічна лікарня ім. М. І. Пирогова", "name:en": "Vinnitsa Regional Clinical Hospital Named After N.I.Pirogov", "name:ru": "Винницкая областная клиническая больница им. М. И. Пирогова", "name:uk": "Вінницька обласна клінічна лікарня ім. М. І. Пирогова", "phone": "+380 432 35 3185", "toilets:wheelchair": "no", "website": "https://vokl.org/", "wheelchair": "limited"}}, {"name": "Лікувально амбулаторний медичний центр імені св. Джанни Беретти Молла", "latitude": 49.2335496, "longitude": 28.4723701, "source": "osm", "_tags": {"amenity": "hospital", "building": "yes", "healthcare": "hospital", "name": "Лікувально амбулаторний медичний центр імені св. Джанни Беретти Молла", "name:ru": "Лечебно амбулаторный медицинский центр им. Джанни Беретти Молли", "name:uk": "Лікувально амбулаторний медичний центр імені св. Джанни Беретти Молла", "phone": "+380 432 35 2073"}}, {"name": "Вінницький обласний диспансер радіаційного захисту населення", "latitude": 49.2295537, "longitude": 28.4587588, "source": "osm", "_tags": {"amenity": "hospital", "building": "yes", "building:levels": "2", "healthcare": "hospital", "name": "Вінницький обласний диспансер радіаційного захисту населення", "name:ru": "Винницкий областной диспансер радиационной защиты населения", "name:uk": "Вінницький обласний диспансер радіаційного захисту населення", "phone": "+380 432 35 1314"}}, {"name": "Госпіталь ветеранів ВВВ", "latitude": 49.2117741, "longitude": 28.4419767, "source": "osm", "_tags": {"addr:housenumber": "109а", "addr:postcode": "21018", "addr:street": "Пирогова вулиця", "amenity": "hospital", "building": "hospital", "healthcare": "hospital", "name": "Госпіталь ветеранів ВВВ", "name:ru": "Госпиталь ветеранов ВОВ", "name:uk": "Госпіталь ветеранів ВВВ", "official_name": "Вінницький обласний клінічний госпіталь для інвалідів ВВВ", "phone": "+380 432 68 2292"}}, {"name": "Міська клінічна лікарня №2", "latitude": 49.249574, "longitude": 28.4773799, "source": "osm", "_tags": {"amenity": "hospital", "healthcare": "hospital", "name": "Міська клінічна лікарня №2", "name:ru": "Городская клиническая больница №2", "name:uk": "Міська клінічна лікарня №2"}}, {"name": "Районна лікарня", "latitude": 48.5465002, "longitude": 28.1235846, "source": "osm", "_tags": {"addr:housenumber": "25-А", "addr:street": "Вінницька вулиця", "amenity": "hospital", "name": "Районна лікарня", "name:uk": "Районна лікарня", "official_name": "КОМУНАЛЬНЕ НЕКОМЕРЦІЙНЕ ПІДПРИЄМСТВО \"ЧЕРНІВЕЦЬКА РАЙОННА ЛІКАРНЯ ЧЕРНІВЕЦЬКОЇ СЕЛИЩНОЇ РАДИ"}}, {"name": "Жмеринська залізнична лікарня", "latitude": 49.0248435, "longitude": 28.1166672, "source": "osm", "_tags": {"amenity": "hospital", "healthcare": "hospital", "name": "Жмеринська залізнична лікарня", "name:ru": "Жмеринская железнодорожная больница", "name:uk": "Жмеринська залізнична лікарня"}}, {"name": "Ендокринологічний центр", "latitude": 49.2496657, "longitude": 28.4561844, "source": "osm", "_tags": {"amenity": "hospital", "building": "yes", "healthcare": "hospital", "name": "Ендокринологічний центр", "name:uk": "Ендокринологічний центр"}}, {"name": "", "latitude": 49.2477991, "longitude": 28.4585216, "source": "osm", "_tags": {"amenity": "hospital", "building": "yes", "healthcare": "hospital"}}, {"name": "", "latitude": 49.2477432, "longitude": 28.4593511, "source": "osm", "_tags": {"amenity": "hospital", "building": "yes", "healthcare": "hospital"}}, {"name": "Міська клінічна лікарня №3, ЦПМСД №4", "latitude": 49.2127102, "longitude": 28.469057, "source": "osm", "_tags": {"amenity": "hospital", "name": "Міська клінічна лікарня №3, ЦПМСД №4", "name:uk": "Міська клінічна лікарня №3, ЦПМСД №4", "phone": "+380 432 60 5821", "website": "https://mkl3.vn.ua/"}}, {"name": "Центральна районна лікарня", "latitude": 48.6754992, "longitude": 28.8412806, "source": "osm", "_tags": {"addr:housenumber": "128", "addr:street": "вулиця Миколи Леонтовича", "amenity": "hospital", "name": "Центральна районна лікарня", "name:uk": "Центральна районна лікарня", "phone": "+380 4335 22 857"}}, {"name": "Вінницький обласний наркологічний диспансер", "latitude": 49.2152183, "longitude": 28.4497682, "source": "osm", "_tags": {"addr:housenumber": "109б", "addr:postcode": "21000", "addr:street": "Пирогова вулиця", "amenity": "hospital", "building": "yes", "healthcare": "hospital", "name": "Вінницький обласний наркологічний диспансер", "name:ru": "Винницкий областной наркологический диспансер", "name:uk": "Вінницький обласний наркологічний диспансер"}}, {"name": "", "latitude": 49.0385605, "longitude": 28.4214613, "source": "osm", "_tags": {"amenity": "hospital"}}, {"name": "", "latitude": 49.2201691, "longitude": 28.3419163, "source": "osm", "_tags": {"amenity": "hospital", "healthcare": "hospital"}}, {"name": "", "latitude": 48.5902845, "longitude": 28.35969, "source": "osm", "_tags": {"amenity": "hospital"}}, {"name": "", "latitude": 48.7412803, "longitude": 28.0751276, "source": "osm", "_tags": {"amenity": "hospital", "healthcare": "hospital", "source": "Bing"}}, {"name": "Жмеринський психо-неврологічний будинок-інтернат", "latitude": 49.0251398, "longitude": 28.1348146, "source": "osm", "_tags": {"amenity": "hospital", "healthcare": "hospital", "name": "Жмеринський психо-неврологічний будинок-інтернат", "name:uk": "Жмеринський психо-неврологічний будинок-інтернат", "phone": "+380 4332 21 830"}}, {"name": "", "latitude": 49.2380012, "longitude": 28.4113771, "source": "osm", "_tags": {"amenity": "hospital", "healthcare": "hospital"}}, {"name": "", "latitude": 49.2435662, "longitude": 28.4935429, "source": "osm", "_tags": {"amenity": "hospital", "healthcare": "hospital"}}, {"name": "Северинівська лікарня поновлювального лікування", "latitude": 49.0544386, "longitude": 27.9544513, "source": "osm", "_tags": {"addr:housenumber": "1", "addr:street": "Санаторська вулиця", "amenity": "hospital", "building": "yes", "healthcare": "hospital", "healthcare:speciality": "фтизіатрія", "name": "Северинівська лікарня поновлювального лікування", "name:uk": "Северинівська лікарня поновлювального лікування"}}, {"name": "", "latitude": 49.2133044, "longitude": 28.4374318, "source": "osm", "_tags": {"amenity": "hospital", "healthcare": "hospital"}}, {"name": "", "latitude": 49.2152525, "longitude": 28.4499342, "source": "osm", "_tags": {"amenity": "hospital", "healthcare": "hospital"}}, {"name": "Вінницький будинок-інтернат геріатричного профілю", "latitude": 49.2386381, "longitude": 28.4101241, "source": "osm", "_tags": {"addr:housenumber": "106", "addr:street": "Хмельницьке шосе", "amenity": "social_facility", "healthcare": "hospital", "name": "Вінницький будинок-інтернат геріатричного профілю", "name:uk": "Вінницький будинок-інтернат геріатричного профілю", "phone": "+380 432 46 5500", "social_facility": "group_home"}}, {"name": "", "latitude": 49.2400552, "longitude": 28.4112419, "source": "osm", "_tags": {"amenity": "hospital", "healthcare": "hospital"}}, {"name": "", "latitude": 49.2370923, "longitude": 28.40949, "source": "osm", "_tags": {"amenity": "hospital", "healthcare": "hospital"}}, {"name": "", "latitude": 49.2367981, "longitude": 28.4117056, "source": "osm", "_tags": {"amenity": "hospital", "healthcare": "hospital"}}, {"name": "Обласний онкологічний диспансер", "latitude": 49.2374401, "longitude": 28.4150595, "source": "osm", "_tags": {"amenity": "hospital", "healthcare": "hospital", "name": "Обласний онкологічний диспансер", "name:uk": "Обласний онкологічний диспансер"}}, {"name": "", "latitude": 49.0601639, "longitude": 28.1190872, "source": "osm", "_tags": {"amenity": "hospital", "healthcare": "hospital"}}, {"name": "", "latitude": 49.2459018, "longitude": 28.482205, "source": "osm", "_tags": {"amenity": "hospital", "healthcare": "hospital"}}, {"name": "", "latitude": 49.2341976, "longitude": 28.4947192, "source": "osm", "_tags": {"amenity": "hospital", "healthcare": "hospital"}}, {"name": "", "latitude": 49.2461552, "longitude": 28.5401322, "source": "osm", "_tags": {"amenity": "hospital", "healthcare": "hospital"}}, {"name": "", "latitude": 49.2399297, "longitude": 28.5050063, "source": "osm", "_tags": {"amenity": "hospital", "healthcare": "hospital"}}, {"name": "Медичний центр «ЦЕНТР•В»", "latitude": 49.2392052, "longitude": 28.4791866, "source": "osm", "_tags": {"addr:housenumber": "5", "addr:postcode": "21000", "addr:street": "Київська вулиця", "amenity": "hospital", "healthcare": "hospital", "name": "Медичний центр «ЦЕНТР•В»"}}, {"name": "", "latitude": 49.2395438, "longitude": 28.4884082, "source": "osm", "_tags": {"amenity": "hospital", "emergency": "yes", "healthcare": "hospital"}}, {"name": "", "latitude": 49.2269929, "longitude": 28.4513431, "source": "osm", "_tags": {"amenity": "hospital", "healthcare": "hospital"}}, {"name": "", "latitude": 49.2432422, "longitude": 28.4924885, "source": "osm", "_tags": {"amenity": "hospital", "healthcare": "hospital"}}, {"name": "", "latitude": 49.2286381, "longitude": 28.455996, "source": "osm", "_tags": {"amenity": "hospital", "healthcare": "hospital"}}, {"name": "", "latitude": 49.2295099, "longitude": 28.4591021, "source": "osm", "_tags": {"amenity": "hospital", "healthcare": "hospital"}}, {"name": "", "latitude": 49.2292184, "longitude": 28.4637829, "source": "osm", "_tags": {"amenity": "hospital", "healthcare": "hospital"}}, {"name": "", "latitude": 49.2126935, "longitude": 28.3980413, "source": "osm", "_tags": {"amenity": "hospital", "healthcare": "hospital"}}, {"name": "Гніванська районна лікарня №1", "latitude": 49.106376, "longitude": 28.3328871, "source": "osm", "_tags": {"amenity": "hospital", "healthcare": "hospital", "name": "Гніванська районна лікарня №1", "name:uk": "Гніванська районна лікарня №1", "phone": "+380 4355 33 903", "type": "multipolygon"}}, {"name": "Вінницька обласна психіатрична лікарня №2", "latitude": 49.2239948, "longitude": 28.3427188, "source": "osm", "_tags": {"amenity": "hospital", "email": "vopl2@ukr.net", "fax": "+380 432 56 6301", "healthcare": "hospital", "name": "Вінницька обласна психіатрична лікарня №2", "name:uk": "Вінницька обласна психіатрична лікарня №2", "phone": "+380 432 56 6382", "type": "multipolygon"}}, {"name": "Вінницький обл. тубдиспансер", "latitude": 49.1923135, "longitude": 28.3923629, "source": "osm", "_tags": {"amenity": "hospital", "healthcare": "hospital", "name": "Вінницький обл. тубдиспансер", "name:uk": "Вінницький обл. тубдиспансер", "type": "multipolygon"}}, {"name": "Вапнярська міська лікарня", "latitude": 48.5279029, "longitude": 28.7518735, "source": "osm", "_tags": {"amenity": "hospital", "name": "Вапнярська міська лікарня", "name:uk": "Вапнярська міська лікарня", "type": "multipolygon"}}, {"name": "", "latitude": 48.5530223, "longitude": 28.5135669, "source": "osm", "_tags": {"amenity": "hospital", "type": "multipolygon"}}, {"name": "Немирівська центральна районна лікарня", "latitude": 48.9726505, "longitude": 28.8451495, "source": "osm", "_tags": {"amenity": "hospital", "healthcare": "hospital", "name": "Немирівська центральна районна лікарня", "name:uk": "Немирівська центральна районна лікарня", "type": "multipolygon"}}, {"name": "", "latitude": 49.1172302, "longitude": 28.1396375, "source": "osm", "_tags": {"amenity": "hospital", "type": "multipolygon"}}]