[{"name": "Klinik Dr. Maul", "latitude": 48.7714915, "longitude": 11.4328451, "source": "osm", "_tags": {"addr:city": "Ingolstadt", "addr:country": "DE", "addr:housenumber": "4", "addr:postcode": "85049", "addr:street": "Östliche Ringstraße", "amenity": "hospital", "contact:email": "krankenhaus@klinik-dr-maul.de", "contact:phone": "+49 841 93580", "contact:website": "http://www.klinik-dr-maul.de", "emergency": "yes", "healthcare": "hospital", "name": "Klinik Dr. Maul"}}, {"name": "Danuvius Klinik", "latitude": 48.75996, "longitude": 11.4236752, "source": "osm", "_tags": {"addr:city": "Ingolstadt", "addr:country": "DE", "addr:housenumber": "3-5", "addr:postcode": "85049", "addr:street": "Preysingstraße", "amenity": "hospital", "contact:email": "info@danuviusklinik.de", "contact:phone": "+49 841 9339-0", "contact:website": "http://www.danuvius-ingolstadt.de", "emergency": "no", "healthcare": "hospital", "name": "Danuvius Klinik", "wheelchair": "yes"}}, {"name": "Diagnosticum Ingolstadt", "latitude": 48.7713033, "longitude": 11.3772047, "source": "osm", "_tags": {"addr:city": "Ingolstadt", "addr:country": "DE", "addr:housenumber": "21", "addr:postcode": "85049", "addr:street": "Levelingstraße", "amenity": "hospital", "healthcare": "hospital", "name": "Diagnosticum Ingolstadt", "toilets:wheelchair": "yes", "website": "https://www.diagnosticum-ingolstadt.de", "wheelchair": "yes"}}, {"name": "Geriatrisches Rehazentrum Neuburg", "latitude": 48.7301323, "longitude": 11.1764662, "source": "osm", "_tags": {"addr:city": "Neuburg an der Donau", "addr:country": "DE", "addr:housenumber": "B 107", "addr:postcode": "86633", "addr:street": "Bahnhofstraße", "amenity": "hospital", "healthcare": "rehabilitation", "healthcare:speciality": "geriatrics", "name": "Geriatrisches Rehazentrum Neuburg", "toilets:wheelchair": "yes", "wheelchair": "yes"}}, {"name": "Psychiatrische Institutsambulanz Parsberg", "latitude": 49.1536854, "longitude": 11.71951, "source": "osm", "_tags": {"amenity": "hospital", "healthcare": "hospital", "name": "Psychiatrische Institutsambulanz Parsberg", "operator": "medbo", "short_name": "PIA", "website": "https://www.medbo.de/kliniken-einrichtungen/psychiatrie-psychotherapie/institutsambulanz-parsberg"}}, {"name": "Dr. Hertzberg", "latitude": 49.3287814, "longitude": 11.0240596, "source": "osm", "_tags": {"addr:city": "Schwabach", "addr:housenumber": "2", "addr:postcode": "91126", "addr:street": "Südliche Ringstraße", "amenity": "doctors", "email": "info@dr-hertzberg.de", "healthcare": "hospital", "healthcare:speciality": "paediatrics", "name": "Dr. Hertzberg", "opening_hours": "Mo,We,Th 08:00-12:00,14:00-18:00; Tu 08:00-13:00; Fr 08:00-16:30", "operator": "Dr. med. Holger Hertzberg", "operator:type": "private", "phone": "+49912214140", "website": "https://www.dr-hertzberg.de"}}, {"name": "Danuvius Klinik", "latitude": 48.5184792, "longitude": 11.4971833, "source": "osm", "_tags": {"amenity": "hospital", "check_date": "2025-04-03", "emergency": "yes", "healthcare": "hospital", "healthcare:speciality": "psychology", "name": "Danuvius Klinik", "operator": "Danuvius Klinik GmbH", "operator:type": "private", "phone": "+49 8441 4059 0", "website": "https://www.danuviusklinik.de/kliniken/pfaffenhofen/"}}, {"name": "Passauer Wolf City-Reha Ingolstadt", "latitude": 48.7700773, "longitude": 11.3817027, "source": "osm", "_tags": {"addr:city": "Ingolstadt", "addr:housenumber": "38", "addr:postcode": "85049", "addr:street": "Krumenauerstraße", "amenity": "hospital", "healthcare": "hospital", "healthcare:speciality": "orthopaedics", "name": "Passauer Wolf City-Reha Ingolstadt"}}, {"name": "Neohrocare Dialysezentrum", "latitude": 48.7680213, "longitude": 11.4002535, "source": "osm", "_tags": {"addr:city": "Ingolstadt", "addr:housenumber": "54", "addr:postcode": "85049", "addr:street": "Neuburger Straße", "healthcare": "hospital", "name": "Neohrocare Dialysezentrum"}}, {"name": "Stadtkrankenhaus Schwabach", "latitude": 49.3328573, "longitude": 11.0131191, "source": "osm", "_tags": {"addr:city": "Schwabach", "addr:country": "DE", "addr:housenumber": "7", "addr:postcode": "91126", "addr:street": "Regelsbacher Straße", "amenity": "hospital", "email": "info@khsc.de", "emergency": "yes", "fax": "+49 9122 182-704", "healthcare": "hospital", "name": "Stadtkrankenhaus Schwabach", "operator": "Ev.-Luth. Diakoniewerk Neuendettelsau", "phone": "+49 9122 182-1", "website": "https://www.stadtkrankenhaus-schwabach.de/", "wikidata": "Q15848822"}}, {"name": "Wichernhaus", "latitude": 49.361964, "longitude": 11.2639885, "source": "osm", "_tags": {"addr:city": "Schwarzenbruck", "addr:country": "DE", "addr:housenumber": "71", "addr:postcode": "90592", "addr:street": "Rummelsberg", "building": "hospital", "email": "mail.khr@rummelsberger.net", "emergency": "yes", "fax": "+49 9128 503150", "healthcare": "hospital", "name": "Wichernhaus", "phone": "+49 9128 500", "website": "https://www.krankenhaus-rummelsberg.de/", "wheelchair": "yes", "wikidata": "Q108552768"}}, {"name": "Klinik Eichstätt", "latitude": 48.8899168, "longitude": 11.1925607, "source": "osm", "_tags": {"addr:city": "Eichstätt", "addr:country": "DE", "addr:housenumber": "31", "addr:postcode": "85072", "addr:street": "Ostenstraße", "amenity": "hospital", "check_date": "2025-07-10", "contact:phone": "+49 8421 601 0", "contact:website": "https://www.kna-online.de/", "emergency": "yes", "healthcare": "hospital", "name": "Klinik Eichstätt", "wheelchair": "yes"}}, {"name": "Klinik Parsberg", "latitude": 49.1590514, "longitude": 11.7252123, "source": "osm", "_tags": {"addr:city": "Parsberg", "addr:country": "DE", "addr:housenumber": "11", "addr:postcode": "92331", "addr:street": "Lupburger Straße", "amenity": "hospital", "email": "info@klinik-parsberg.de", "fax": "+49 9492 603-180", "healthcare": "hospital", "name": "Klinik Parsberg", "phone": "+49 9492 603-0", "website": "https://parsberg.klinikum-neumarkt.de/"}}, {"name": "Klinik Kösching", "latitude": 48.8150448, "longitude": 11.5069051, "source": "osm", "_tags": {"addr:city": "Kösching", "addr:country": "DE", "addr:housenumber": "19", "addr:postcode": "85092", "addr:street": "Krankenhausstraße", "amenity": "hospital", "building": "yes", "email": "info@klinik-koesching.de", "emergency": "yes", "fax": "+49 8456 71-211", "name": "Klinik Kösching", "phone": "+49 8456 710", "website": "http://www.klinik-koesching.de"}}, {"name": "Römerbad-Klinik", "latitude": 48.8257175, "longitude": 11.7786155, "source": "osm", "_tags": {"amenity": "hospital", "check_date": "2024-08-19", "healthcare": "hospital", "name": "Römerbad-Klinik", "wheelchair": "limited"}}, {"name": "", "latitude": 48.7600157, "longitude": 11.423721, "source": "osm", "_tags": {"amenity": "hospital", "building": "yes", "healthcare": "hospital", "healthcare:speciality": "psychiatry", "source": "HiRes aerial imagery"}}, {"name": "Krankenhaus Aichach", "latitude": 48.4621547, "longitude": 11.1403409, "source": "osm", "_tags": {"addr:city": "Aichach", "addr:country": "DE", "addr:housenumber": "11", "addr:postcode": "86551", "addr:street": "Krankenhausstraße", "amenity": "hospital", "capacity": "137", "emergency": "yes", "fax": "+49 8251 343", "healthcare": "hospital", "name": "Krankenhaus Aichach", "operator": "Kliniken an der Paar", "phone": "+49 8251 9090", "website": "https://www.klipa.de/"}}, {"name": "Heil- und Pflegeanstalt Karlshof", "latitude": 49.369842, "longitude": 11.5951335, "source": "osm", "_tags": {"addr:city": "Lauterhofen", "addr:country": "DE", "addr:housenumber": "2", "addr:postcode": "92283", "addr:street": "Karlshof", "amenity": "hospital", "building": "yes", "healthcare": "hospital", "name": "Heil- und Pflegeanstalt Karlshof"}}, {"name": "Kliniken St. Elisabeth", "latitude": 48.7310229, "longitude": 11.1745945, "source": "osm", "_tags": {"addr:city": "Neuburg a. d. Donau", "addr:country": "DE", "addr:housenumber": "4", "addr:postcode": "86633", "addr:street": "Müller-Gnadenegg-Weg", "amenity": "hospital", "building": "yes", "healthcare": "hospital", "name": "Kliniken St. Elisabeth", "toilets:wheelchair": "yes", "wheelchair": "yes", "wikidata": "Q35747869", "wikipedia": "de:Kliniken St. Elisabeth (Neuburg an der Donau)"}}, {"name": "Caritas-Krankenhaus St. Lukas (ehemals Goldberg-Klinik)", "latitude": 48.9239399, "longitude": 11.8858437, "source": "osm", "_tags": {"addr:city": "Kelheim", "addr:country": "DE", "addr:housenumber": "3", "addr:postcode": "93309", "addr:street": "Traubenweg", "amenity": "hospital", "building": "yes", "email": "info@goldbergklinik.de", "emergency": "yes", "healthcare": "hospital", "healthcare:speciality": "general;orthopaedics;gynaecology;emergency;dermatology;urology;intensive;internal", "name": "Caritas-Krankenhaus St. Lukas (ehemals Goldberg-Klinik)", "operator": "Caritas-Krankenhaus St. Lukas GmbH", "phone": "+49 9441 7020", "website": "https://csl-kelheim.de/", "wheelchair": "yes"}}, {"name": "Klinikum Neumarkt i.d.OPf.", "latitude": 49.2862513, "longitude": 11.452035, "source": "osm", "_tags": {"addr:city": "Neumarkt in der Oberpfalz", "addr:country": "DE", "addr:housenumber": "12", "addr:postcode": "92318", "addr:street": "Nürnberger Straße", "amenity": "hospital", "email": "info@klinikum.neumarkt.de", "emergency": "yes", "healthcare": "hospital", "name": "Klinikum Neumarkt i.d.OPf.", "phone": "+49 9181 420-0", "toilets:wheelchair": "yes", "website": "https://www.klinikum-neumarkt.de/", "wheelchair": "yes", "wikidata": "Q1774645"}}, {"name": "Ilmtalklinik Mainburg", "latitude": 48.6430234, "longitude": 11.7792065, "source": "osm", "_tags": {"addr:city": "Mainburg", "addr:country": "DE", "addr:housenumber": "1", "addr:postcode": "84048", "addr:street": "Laurentiusweg", "amenity": "hospital", "emergency": "yes", "fax": "+49 8751 781090", "healthcare": "hospital", "name": "Ilmtalklinik Mainburg", "phone": "+49 8751 780", "website": "http://www.krankenhaus-mainburg.de/", "wheelchair": "yes", "wikidata": "Q41314485"}}, {"name": "Klinikum Altmühlfranken Weißenburg", "latitude": 49.034364, "longitude": 10.9852082, "source": "osm", "_tags": {"addr:city": "Weißenburg in Bayern", "addr:country": "DE", "addr:housenumber": "1", "addr:postcode": "91781", "addr:street": "Krankenhausstraße", "alt_name": "Klinik Weißenburg", "amenity": "hospital", "email": "inof@klinikum-altmuehlfranken.de", "healthcare": "hospital", "name": "Klinikum Altmühlfranken Weißenburg", "operator": "Kommunalunternehmen Klinikum Altmühlfranken", "website": "https://www.klinikum-altmuehlfranken.de", "wikidata": "Q22674599"}}, {"name": "Krankenhaus Rummelsberg", "latitude": 49.3620882, "longitude": 11.2643149, "source": "osm", "_tags": {"amenity": "hospital", "emergency": "yes", "healthcare": "hospital", "name": "Krankenhaus Rummelsberg", "operator": "Sana Kliniken AG", "operator:type": "private", "toilets:wheelchair": "yes", "wheelchair": "yes", "wheelchair:description": "Rollstuhlgerechter Eingang, Schwellenlos, Tür B >90cm"}}, {"name": "Kreiskrankenhaus", "latitude": 49.385002, "longitude": 11.3594052, "source": "osm", "_tags": {"amenity": "hospital", "emergency": "yes", "healthcare": "hospital", "name": "Kreiskrankenhaus", "toilets:wheelchair": "yes", "wheelchair": "yes"}}, {"name": "Ilmtalklinik", "latitude": 48.5185988, "longitude": 11.4986861, "source": "osm", "_tags": {"amenity": "hospital", "healthcare": "hospital", "name": "Ilmtalklinik", "wheelchair": "yes"}}, {"name": "Bezirkskrankenhaus I", "latitude": 49.1559268, "longitude": 11.7207538, "source": "osm", "_tags": {"amenity": "hospital", "healthcare": "hospital", "name": "Bezirkskrankenhaus I"}}, {"name": "Bezirkskrankenhaus II", "latitude": 49.1538014, "longitude": 11.7193175, "source": "osm", "_tags": {"addr:housenumber": "8", "addr:street": "Pfarrer-Fischer-Straße", "amenity": "hospital", "healthcare": "hospital", "name": "Bezirkskrankenhaus II"}}, {"name": "Helios Klinik Kipfenberg", "latitude": 48.9518361, "longitude": 11.3949358, "source": "osm", "_tags": {"addr:city": "Kipfenberg", "addr:country": "DE", "addr:housenumber": "1", "addr:postcode": "85110", "addr:street": "Konrad-Regler-Straße", "amenity": "hospital", "check_date": "2024-05-01", "healthcare": "hospital", "name": "Helios Klinik Kipfenberg", "operator": "Helios Kliniken", "operator:wikidata": "Q1254151", "operator:wikipedia": "de:Helios Kliniken", "website": "http://www.helios-kliniken.de/klinik/kipfenberg.html", "wheelchair": "yes", "wikidata": "Q50038588", "wikimedia_commons": "Category:Klinik Kipfenberg"}}, {"name": "Kreiskrankenhaus Schrobenhausen", "latitude": 48.5725195, "longitude": 11.2636582, "source": "osm", "_tags": {"addr:city": "Schrobenhausen", "addr:country": "DE", "addr:housenumber": "5", "addr:postcode": "86529", "addr:street": "Högenauer Weg", "amenity": "hospital", "fax": "+49 8252 94300", "name": "Kreiskrankenhaus Schrobenhausen", "operator": "Kreiskrankenhaus Schrobenhausen GmbH", "phone": "+49 8252 940", "website": "https://www.kkh-sob.de/"}}, {"name": "Kreisklinik Roth", "latitude": 49.235548, "longitude": 11.0726644, "source": "osm", "_tags": {"addr:city": "Roth", "addr:country": "DE", "addr:housename": "Kreisklinik Roth", "addr:housenumber": "14", "addr:postcode": "91154", "addr:street": "Weinbergweg", "amenity": "hospital", "contact:email": "info@kreisklinik-roth.de", "contact:phone": "+49 9171 802-0", "contact:website": "https://www.kreisklinik-roth.de/", "emergency": "yes", "healthcare": "hospital", "name": "Kreisklinik Roth", "opening_hours:visitors": "14:00-19:00", "phone": "+49 9171 802-0"}}, {"name": "Hotelklinik Passauer Wolf", "latitude": 48.8202129, "longitude": 11.7879365, "source": "osm", "_tags": {"amenity": "hospital", "name": "Hotelklinik Passauer Wolf"}}, {"name": "Klinikum Ingolstadt", "latitude": 48.7698276, "longitude": 11.3764486, "source": "osm", "_tags": {"addr:city": "Ingolstadt", "addr:housenumber": "25", "addr:postcode": "85049", "addr:street": "Krumenauerstraße", "amenity": "hospital", "check_date": "2025-01-28", "contact:phone": "+49 841 8800", "contact:website": "https://www.klinikum-ingolstadt.de", "healthcare": "hospital", "name": "Klinikum Ingolstadt"}}, {"name": "Rehaklinik Berching", "latitude": 49.1090578, "longitude": 11.4471272, "source": "osm", "_tags": {"addr:city": "Berching", "addr:country": "DE", "addr:housenumber": "3", "addr:postcode": "92334", "addr:street": "Krankenhausstraße", "amenity": "hospital", "contact:website": "https://www.vamed-gesundheit.de/reha/berching/", "healthcare": "hospital", "name": "Rehaklinik Berching", "old_name": "Helios Klinik Berching", "old_operator": "Helios", "operator": "Vamed", "operator:wikidata": "Q2509662"}}, {"name": "Goldberg Klinik", "latitude": 48.9239835, "longitude": 11.8854654, "source": "osm", "_tags": {"amenity": "hospital", "healthcare": "hospital", "name": "Goldberg Klinik"}}, {"name": "Psychiatrische Institutsambulanz und Tagesklinik in Roth", "latitude": 49.2369992, "longitude": 11.0740296, "source": "osm", "_tags": {"addr:city": "Roth", "addr:country": "DE", "addr:housenumber": "12a", "addr:postcode": "91154", "addr:street": "Weinbergweg", "amenity": "hospital", "building": "yes", "building:levels": "2", "capacity": "24", "healthcare": "hospital", "healthcare:speciality": "psychiatry", "name": "Psychiatrische Institutsambulanz und Tagesklinik in Roth", "note": "war um 2020/2021 im Bau", "roof:shape": "flat", "source:capacity": "Roth-Hilpoltsteiner Volkszeitung, 16. November 2024, S. 42", "source:start_date": "Roth-Hilpoltsteiner Volkszeitung, 16. November 2024, S. 42", "start_date": "2021"}}, {"name": "Klinikum Nürnberg Süd", "latitude": 49.4125329, "longitude": 11.1485034, "source": "osm", "_tags": {"addr:city": "Nürnberg", "addr:country": "DE", "addr:housenumber": "201", "addr:postcode": "90471", "addr:street": "Breslauer Straße", "amenity": "hospital", "healthcare": "hospital", "name": "Klinikum Nürnberg Süd", "phone": "+49 911 3980", "toilets:wheelchair": "yes", "type": "multipolygon", "website": "https://www.klinikum-nuernberg.de/", "wheelchair": "yes"}}, {"name": "Kreisklinik Roth", "latitude": 49.2361076, "longitude": 11.0721568, "source": "osm", "_tags": {"alt_name": "Krankenhaus Roth", "amenity": "hospital", "healthcare": "hospital", "name": "Kreisklinik Roth", "source": "bing", "type": "multipolygon"}}, {"name": "Klinikum Ingolstadt", "latitude": 48.7698235, "longitude": 11.376945, "source": "osm", "_tags": {"addr:city": "Ingolstadt", "addr:country": "DE", "addr:housenumber": "25", "addr:postcode": "85049", "addr:street": "Krumenauerstraße", "amenity": "hospital", "beds": "1088", "building": "hospital", "healthcare": "hospital", "name": "Klinikum Ingolstadt", "type": "multipolygon", "wikidata": "Q1774621"}}]