[{"name": "Міська лікарня", "latitude": 48.6721718, "longitude": 26.607656, "source": "osm", "_tags": {"amenity": "hospital", "name": "Міська лікарня", "name:ru": "Городская больница", "name:uk": "Міська лікарня"}}, {"name": "Районна лікарня", "latitude": 48.6723135, "longitude": 26.6054673, "source": "osm", "_tags": {"amenity": "hospital", "healthcare": "hospital", "name": "Районна лікарня", "name:uk": "Районна лікарня"}}, {"name": "Тарнорудська Амбулаторія", "latitude": 49.4036639, "longitude": 26.235865, "source": "osm", "_tags": {"amenity": "hospital", "emergency": "yes", "name": "Тарнорудська Амбулаторія", "name:uk": "Тарнорудська Амбулаторія"}}, {"name": "", "latitude": 48.4261362, "longitude": 26.3663952, "source": "osm", "_tags": {"addr:city": "Недобоївці", "addr:postcode": "60035", "amenity": "hospital"}}, {"name": "", "latitude": 48.741921, "longitude": 25.9909738, "source": "osm", "_tags": {"amenity": "hospital"}}, {"name": "Грозинецька Амбулаторія", "latitude": 48.4253281, "longitude": 26.1571556, "source": "osm", "_tags": {"amenity": "hospital", "name": "Грозинецька Амбулаторія", "name:uk": "Грозинецька Амбулаторія"}}, {"name": "Ярмолинецька центральна районна лікарня", "latitude": 49.1857014, "longitude": 26.8296152, "source": "osm", "_tags": {"addr:housenumber": "41", "addr:street": "вулиця Шевченка", "amenity": "hospital", "healthcare": "hospital", "name": "Ярмолинецька центральна районна лікарня", "name:ru": "Ярмолинецкая центральная районная больница", "name:uk": "Ярмолинецька центральна районна лікарня", "phone": "+380 3853 21 853"}}, {"name": "Лікарня", "latitude": 48.5493247, "longitude": 26.4857059, "source": "osm", "_tags": {"amenity": "hospital", "healthcare": "hospital", "name": "Лікарня", "name:uk": "Лікарня"}}, {"name": "Пологовий будинок", "latitude": 48.6700325, "longitude": 26.605804, "source": "osm", "_tags": {"amenity": "hospital", "name": "Пологовий будинок", "name:uk": "Пологовий будинок"}}, {"name": "Лікарня", "latitude": 48.842426, "longitude": 26.2392131, "source": "osm", "_tags": {"amenity": "hospital", "name": "Лікарня", "name:en": "Hospital", "name:ru": "Больница", "name:uk": "Лікарня"}}, {"name": "Жіноча консультація", "latitude": 48.6696846, "longitude": 26.6059018, "source": "osm", "_tags": {"amenity": "hospital", "name": "Жіноча консультація", "name:uk": "Жіноча консультація"}}, {"name": "", "latitude": 48.6646589, "longitude": 26.5770221, "source": "osm", "_tags": {"amenity": "hospital"}}, {"name": "Пункт здоров'я с. Бережанка", "latitude": 48.8185875, "longitude": 26.227954, "source": "osm", "_tags": {"amenity": "hospital", "check_date": "2025-07-27", "healthcare": "health_post", "name": "Пункт здоров'я с. Бережанка", "name:uk": "Пункт здоров'я с. Бережанка", "opening_hours": "Mo-Fr 08:30-17:00"}}, {"name": "Поліклініка", "latitude": 48.8414846, "longitude": 26.1933986, "source": "osm", "_tags": {"addr:housenumber": "103", "addr:street": "вулиця Грушевського", "amenity": "hospital", "building": "yes", "emergency": "yes", "name": "Поліклініка", "name:uk": "Поліклініка"}}, {"name": "ФАП", "latitude": 48.7426555, "longitude": 26.2314269, "source": "osm", "_tags": {"amenity": "hospital", "building": "yes", "name": "ФАП", "name:uk": "ФАП"}}, {"name": "", "latitude": 49.1747063, "longitude": 26.5716533, "source": "osm", "_tags": {"amenity": "hospital"}}, {"name": "Ветеринарна лікарня", "latitude": 49.1794505, "longitude": 26.5617723, "source": "osm", "_tags": {"amenity": "hospital", "building": "yes", "name": "Ветеринарна лікарня", "name:uk": "Ветеринарна лікарня"}}, {"name": "", "latitude": 49.3075101, "longitude": 26.4699942, "source": "osm", "_tags": {"amenity": "hospital", "building": "yes"}}, {"name": "", "latitude": 49.3198898, "longitude": 26.4367561, "source": "osm", "_tags": {"amenity": "hospital", "building": "yes"}}, {"name": "", "latitude": 48.4556764, "longitude": 26.8383508, "source": "osm", "_tags": {"amenity": "hospital", "building": "yes"}}, {"name": "", "latitude": 48.4562492, "longitude": 26.8374647, "source": "osm", "_tags": {"amenity": "hospital", "building": "yes"}}, {"name": "", "latitude": 48.4570456, "longitude": 26.8367446, "source": "osm", "_tags": {"amenity": "hospital", "building": "yes"}}, {"name": "", "latitude": 48.4576935, "longitude": 26.8359223, "source": "osm", "_tags": {"amenity": "hospital", "building": "yes", "healthcare": "hospital"}}, {"name": "", "latitude": 48.6092635, "longitude": 26.1686571, "source": "osm", "_tags": {"addr:city": "смт Мельнице- подыльська", "addr:housenumber": "103", "addr:street": "Головна вулиця", "amenity": "hospital", "building": "yes"}}, {"name": "Чемеровецька районна лікарня", "latitude": 49.0072861, "longitude": 26.3490561, "source": "osm", "_tags": {"amenity": "hospital", "emergency": "yes", "healthcare": "hospital", "name": "Чемеровецька районна лікарня", "name:uk": "Чемеровецька районна лікарня"}}, {"name": "Чемеровецька районна лікарня ветеринарної медицини", "latitude": 49.0066082, "longitude": 26.3461489, "source": "osm", "_tags": {"amenity": "hospital", "healthcare": "hospital", "name": "Чемеровецька районна лікарня ветеринарної медицини", "name:uk": "Чемеровецька районна лікарня ветеринарної медицини"}}, {"name": "Чемеровецька районна поліклініка", "latitude": 49.008054, "longitude": 26.3411556, "source": "osm", "_tags": {"amenity": "hospital", "name": "Чемеровецька районна поліклініка", "name:uk": "Чемеровецька районна поліклініка"}}, {"name": "Борщівська центральна районна лікарня", "latitude": 48.8043683, "longitude": 26.0538368, "source": "osm", "_tags": {"amenity": "hospital", "name": "Борщівська центральна районна лікарня", "name:uk": "Борщівська центральна районна лікарня"}}, {"name": "КП \"Гусятинська бальнеологічна лікарня\"", "latitude": 49.0717328, "longitude": 26.1972758, "source": "osm", "_tags": {"amenity": "hospital", "healthcare": "hospital", "name": "КП \"Гусятинська бальнеологічна лікарня\"", "name:uk": "КП \"Гусятинська бальнеологічна лікарня\""}}, {"name": "Амбулаторія", "latitude": 48.6491092, "longitude": 26.4158038, "source": "osm", "_tags": {"amenity": "hospital", "name": "Амбулаторія", "name:uk": "Амбулаторія"}}, {"name": "", "latitude": 49.2820396, "longitude": 26.3211294, "source": "osm", "_tags": {"amenity": "hospital"}}, {"name": "Медпункт", "latitude": 49.0920253, "longitude": 26.0765198, "source": "osm", "_tags": {"amenity": "hospital", "building": "yes", "name": "Медпункт", "name:uk": "Медпункт"}}, {"name": "Міська лікарня", "latitude": 48.6854156, "longitude": 26.585586, "source": "osm", "_tags": {"amenity": "hospital", "building": "yes", "healthcare": "hospital", "name": "Міська лікарня", "name:en": "City Hospital", "name:uk": "Міська лікарня"}}, {"name": "", "latitude": 48.4250151, "longitude": 26.1566876, "source": "osm", "_tags": {"amenity": "hospital"}}, {"name": "", "latitude": 48.4247663, "longitude": 26.2545256, "source": "osm", "_tags": {"amenity": "hospital", "barrier": "fence", "healthcare": "hospital"}}, {"name": "Медпункт", "latitude": 48.5554384, "longitude": 26.5619149, "source": "osm", "_tags": {"amenity": "hospital", "name": "Медпункт", "name:uk": "Медпункт"}}, {"name": "Скала-Подільський психоневрологічний будинок-інтернат", "latitude": 48.8487535, "longitude": 26.2014954, "source": "osm", "_tags": {"addr:city": "Скала-Подільська", "addr:housenumber": "2", "addr:postcode": "48720", "addr:street": "вулиця Богуна", "amenity": "hospital", "name": "Скала-Подільський психоневрологічний будинок-інтернат", "name:uk": "Скала-Подільський психоневрологічний будинок-інтернат", "phone": "+380 3541 51 236"}}, {"name": "", "latitude": 48.571155, "longitude": 25.9710728, "source": "osm", "_tags": {"amenity": "hospital", "healthcare": "hospital"}}, {"name": "", "latitude": 48.5711018, "longitude": 25.9703727, "source": "osm", "_tags": {"amenity": "hospital", "healthcare": "hospital"}}, {"name": "", "latitude": 48.9366974, "longitude": 26.4701943, "source": "osm", "_tags": {"amenity": "hospital", "healthcare": "hospital"}}, {"name": "Дунаєвецька станція екстреної медичної допомоги", "latitude": 48.8856671, "longitude": 26.8620654, "source": "osm", "_tags": {"addr:housenumber": "7", "addr:postcode": "32400", "addr:street": "Соборна вулиця", "amenity": "hospital", "building": "yes", "emergency": "yes", "healthcare": "hospital", "name": "Дунаєвецька станція екстреної медичної допомоги", "name:uk": "Дунаєвецька станція екстреної медичної допомоги"}}, {"name": "", "latitude": 48.888336, "longitude": 26.8543782, "source": "osm", "_tags": {"amenity": "hospital", "healthcare": "hospital"}}, {"name": "Гусятинська комунальна районна лікарня", "latitude": 49.070732, "longitude": 26.1926307, "source": "osm", "_tags": {"addr:street": "вулиця Богдана Лепкого", "amenity": "hospital", "healthcare": "hospital", "name": "Гусятинська комунальна районна лікарня", "name:uk": "Гусятинська комунальна районна лікарня", "official_name": "Комунальне некомерційне підприємство \"Гусятинська комунальна районна лікарня\" Гусятинської районної ради"}}, {"name": "Зарічанська амбулаторія", "latitude": 48.9010832, "longitude": 26.3757841, "source": "osm", "_tags": {"amenity": "hospital", "healthcare": "hospital", "name": "Зарічанська амбулаторія", "name:uk": "Зарічанська амбулаторія"}}, {"name": "Нестеровецька лікарня (покинута)", "latitude": 48.9685782, "longitude": 26.7871132, "source": "osm", "_tags": {"amenity": "hospital", "emergency": "no", "healthcare": "hospital", "name": "Нестеровецька лікарня (покинута)", "name:uk": "Нестеровецька лікарня (покинута)"}}, {"name": "", "latitude": 48.9693292, "longitude": 26.7871764, "source": "osm", "_tags": {"amenity": "hospital", "healthcare": "hospital"}}, {"name": "", "latitude": 48.9691824, "longitude": 26.7862529, "source": "osm", "_tags": {"amenity": "hospital", "healthcare": "hospital"}}, {"name": "Сховище", "latitude": 48.7584115, "longitude": 26.398812, "source": "osm", "_tags": {"amenity": "hospital", "healthcare": "hospital", "name": "Сховище", "name:uk": "Сховище"}}, {"name": "Хмельницька обласна психіатрична лікарня №1", "latitude": 49.3118503, "longitude": 26.9281203, "source": "osm", "_tags": {"amenity": "hospital", "contact:website": "https://hozznpd.itmed.org/", "healthcare": "hospital", "name": "Хмельницька обласна психіатрична лікарня №1", "name:uk": "Хмельницька обласна психіатрична лікарня №1", "official_name": "Хмельницький обласний заклад з надання психіатрічної допомоги"}}, {"name": "", "latitude": 49.3406729, "longitude": 26.8853139, "source": "osm", "_tags": {"amenity": "hospital", "healthcare": "hospital"}}, {"name": "", "latitude": 48.6725814, "longitude": 26.6044673, "source": "osm", "_tags": {"amenity": "hospital", "area": "yes", "healthcare": "hospital"}}, {"name": "Мілівецький психоневрологічний будинок-інтернат", "latitude": 48.6449779, "longitude": 26.3064511, "source": "osm", "_tags": {"amenity": "hospital", "name": "Мілівецький психоневрологічний будинок-інтернат", "name:uk": "Мілівецький психоневрологічний будинок-інтернат", "type": "multipolygon"}}, {"name": "Борщівська районна санітарно-епідеміологічна станція", "latitude": 48.8056818, "longitude": 26.0350162, "source": "osm", "_tags": {"amenity": "hospital", "name": "Борщівська районна санітарно-епідеміологічна станція", "name:uk": "Борщівська районна санітарно-епідеміологічна станція", "type": "multipolygon"}}, {"name": "Медичний центр", "latitude": 48.8046194, "longitude": 26.0488133, "source": "osm", "_tags": {"amenity": "hospital", "name": "Медичний центр", "name:uk": "Медичний центр", "type": "multipolygon"}}, {"name": "Лікарня", "latitude": 48.7844772, "longitude": 26.6879424, "source": "osm", "_tags": {"amenity": "hospital", "healthcare": "hospital", "name": "Лікарня", "name:uk": "Лікарня", "type": "multipolygon"}}, {"name": "", "latitude": 48.5221429, "longitude": 26.4886299, "source": "osm", "_tags": {"amenity": "hospital", "type": "multipolygon"}}, {"name": "Центральна районна лікарня", "latitude": 48.5058551, "longitude": 26.4994399, "source": "osm", "_tags": {"amenity": "hospital", "emergency": "yes", "name": "Центральна районна лікарня", "name:uk": "Центральна районна лікарня", "type": "multipolygon"}}]