[{"name": "Snina, s.r.o.", "latitude": 48.9839065, "longitude": 22.1485439, "source": "osm", "_tags": {"addr:city": "Snina", "addr:conscriptionnumber": "300", "addr:housenumber": "300/4", "addr:postcode": "06901", "addr:street": "Sládkovičova", "addr:streetnumber": "4", "amenity": "hospital", "contact:website": "http://www.nemocnicasnina.sk/", "healthcare": "hospital", "name": "Snina, s.r.o.", "ref:minvskaddress": "11114697"}}, {"name": "МедСіті3", "latitude": 48.7337542, "longitude": 22.4779676, "source": "osm", "_tags": {"addr:housenumber": "8", "addr:postcode": "89200", "addr:street": "Ужанська вулиця", "amenity": "hospital", "healthcare": "hospital", "name": "МедСіті3", "name:en": "MedCiti3", "name:uk": "МедСіті3", "opening_hours": "Mo-Sa 09:00-16:00", "phone": "+380 66 431 2362"}}, {"name": "Чопська міська лікарня", "latitude": 48.4309263, "longitude": 22.2016388, "source": "osm", "_tags": {"addr:housenumber": "12", "addr:street": "Молодіжна вулиця", "amenity": "hospital", "healthcare": "hospital", "name": "Чопська міська лікарня", "name:ru": "Чопская городская больница", "name:uk": "Чопська міська лікарня"}}, {"name": "Обласний протитуберкульозний диспансер", "latitude": 48.6328387, "longitude": 22.3084518, "source": "osm", "_tags": {"amenity": "hospital", "healthcare": "hospital", "name": "Обласний протитуберкульозний диспансер", "name:uk": "Обласний протитуберкульозний диспансер"}}, {"name": "Обласний онкологічний диспансер", "latitude": 48.6344827, "longitude": 22.3102927, "source": "osm", "_tags": {"amenity": "hospital", "healthcare": "hospital", "healthcare:speciality": "oncology", "name": "Обласний онкологічний диспансер", "name:uk": "Обласний онкологічний диспансер"}}, {"name": "Обласний наркологічний диспансер", "latitude": 48.598143, "longitude": 22.3111857, "source": "osm", "_tags": {"amenity": "hospital", "healthcare": "hospital", "name": "Обласний наркологічний диспансер", "name:uk": "Обласний наркологічний диспансер"}}, {"name": "Кредоклінік", "latitude": 48.6195123, "longitude": 22.2943592, "source": "osm", "_tags": {"addr:housenumber": "6-А", "addr:street": "Капушанська вулиця", "amenity": "hospital", "email": "admin@credoclinic.com.ua", "internet_access": "wlan", "name": "Кредоклінік", "name:en": "Credoclinic", "opening_hours": "Mo-Fr 08:00-19:00; Sa 08:00-16:00", "phone": "+380509113300", "website": "http://credoclinic.com.ua"}}, {"name": "Міський пологовий будинок", "latitude": 48.6379654, "longitude": 22.2813959, "source": "osm", "_tags": {"addr:city": "Ужгород", "addr:housenumber": "20-Б", "addr:postcode": "88017", "addr:street": "вулиця Івана Коршинського", "amenity": "hospital", "building": "hospital", "healthcare": "midwife", "healthcare:speciality": "gynaecology;paediatrics", "name": "Міський пологовий будинок", "name:uk": "Міський пологовий будинок"}}, {"name": "Обласна клінічна інфекційна лікарня", "latitude": 48.638074, "longitude": 22.2828954, "source": "osm", "_tags": {"addr:city": "Ужгород", "addr:housenumber": "20-А", "addr:street": "вулиця Івана Коршинського", "amenity": "hospital", "building": "hospital", "building:levels": "3", "contact:website": "http://okil.org.ua/", "healthcare": "hospital", "healthcare:speciality": "infectious_diseases", "name": "Обласна клінічна інфекційна лікарня", "name:uk": "Обласна клінічна інфекційна лікарня"}}, {"name": "Лікарня УМВС", "latitude": 48.6370054, "longitude": 22.2786298, "source": "osm", "_tags": {"addr:city": "Ужгород", "addr:housenumber": "12", "addr:street": "вулиця Івана Коршинського", "amenity": "hospital", "building": "hospital", "healthcare": "hospital", "name": "Лікарня УМВС", "name:ru": "Больница УМВД", "name:uk": "Лікарня УМВС", "roof:shape": "flat"}}, {"name": "Ужгородська районна лікарня №1", "latitude": 48.4297664, "longitude": 22.2077108, "source": "osm", "_tags": {"amenity": "hospital", "building": "hospital", "healthcare": "hospital", "name": "Ужгородська районна лікарня №1", "name:uk": "Ужгородська районна лікарня №1"}}, {"name": "Лікарня", "latitude": 48.4760899, "longitude": 22.5835549, "source": "osm", "_tags": {"addr:city": "Ракошино", "addr:housenumber": "2", "addr:postcode": "89620", "addr:street": "Бенедиківська вулиця", "amenity": "hospital", "building": "hospital", "healthcare": "hospital", "name": "Лікарня", "name:hu": "Kórház", "name:uk": "Лікарня"}}, {"name": "Regionálna nemocnica Sobrance, n.o.", "latitude": 48.7450606, "longitude": 22.1857523, "source": "osm", "_tags": {"amenity": "hospital", "contact:website": "http://www.rn-sobrance.sk/", "name": "Regionálna nemocnica Sobrance, n.o."}}, {"name": "Науково-практичний медичний центр «Реабілітація»", "latitude": 48.6369729, "longitude": 22.2967547, "source": "osm", "_tags": {"amenity": "hospital", "barrier": "fence", "contact:email": "isl@rehab.uzhgorod.ua", "contact:phone": "+380 3122 32 332", "contact:website": "http://www.rehab.uzhgorod.ua/", "emergency": "no", "healthcare": "hospital", "healthcare:speciality": "otolaryngology", "name": "Науково-практичний медичний центр «Реабілітація»", "name:uk": "Науково-практичний медичний центр «Реабілітація»"}}, {"name": "Psychiatrická nemocnica Michalovce, n.o.", "latitude": 48.7551381, "longitude": 21.9398846, "source": "osm", "_tags": {"amenity": "hospital", "barrier": "fence", "contact:website": "http://www.pnmi.sk/", "healthcare": "hospital", "healthcare:speciality": "psychiatry", "name": "Psychiatrická nemocnica Michalovce, n.o."}}, {"name": "Військовий госпіталь", "latitude": 48.433391, "longitude": 22.7127817, "source": "osm", "_tags": {"amenity": "hospital", "healthcare": "hospital", "name": "Військовий госпіталь", "name:uk": "Військовий госпіталь"}}, {"name": "Міська багатопрофільна клінічна лікарня", "latitude": 48.6001277, "longitude": 22.2867882, "source": "osm", "_tags": {"amenity": "hospital", "contact:website": "http://uzhgorodska.likarnja.org.ua/", "healthcare": "hospital", "name": "Міська багатопрофільна клінічна лікарня", "name:uk": "Міська багатопрофільна клінічна лікарня"}}, {"name": "", "latitude": 48.4468579, "longitude": 22.7399161, "source": "osm", "_tags": {"amenity": "hospital", "healthcare": "hospital"}}, {"name": "Обласна клінічна лікарня ім. Андрія Новака", "latitude": 48.6197419, "longitude": 22.2905465, "source": "osm", "_tags": {"amenity": "hospital", "contact:website": "https://zakarpat.lic.org.ua/", "healthcare": "hospital", "name": "Обласна клінічна лікарня ім. Андрія Новака", "name:ru": "Областная клиническая больница им. Андрея Новака", "name:uk": "Обласна клінічна лікарня ім. Андрія Новака", "type": "multipolygon", "wikidata": "Q12163541", "wikipedia": "uk:Закарпатська обласна клінічна лікарня ім. Андрія Новака"}}, {"name": "Центральна міська клінічна лікарня", "latitude": 48.6395117, "longitude": 22.2817293, "source": "osm", "_tags": {"addr:city": "Ужгород", "addr:housenumber": "20", "addr:street": "вулиця Івана Коршинського", "amenity": "hospital", "building": "hospital", "building:levels": "7", "contact:email": "cmkl@mail.uzhgorod.ua", "contact:phone": "+380 312 24 2332", "contact:website": "https://uzhgorod-cmkl.lic.org.ua/", "healthcare": "hospital", "layer": "1", "name": "Центральна міська клінічна лікарня", "name:uk": "Центральна міська клінічна лікарня", "roof:shape": "flat", "short_name": "Міська клінічна лікарня", "type": "multipolygon"}}, {"name": "Лікарня святого Мартина", "latitude": 48.4415669, "longitude": 22.7275105, "source": "osm", "_tags": {"addr:housenumber": "8-13", "addr:street": "вулиця Андрія Новака", "amenity": "hospital", "contact:email": "01992831@mail.gov.ua", "contact:facebook": "https://www.facebook.com/Mukachevolikarnya/", "contact:website": "https://stmartin.clinic/", "emergency": "yes", "healthcare": "hospital", "healthcare:speciality": "cardiology;general;paediatrics;dentistry;gynaecology;emergency;orthodontics;ophthalmology;surgery", "name": "Лікарня святого Мартина", "name:en": "Saint Martin's Hospital", "name:uk": "Лікарня святого Мартина", "official_name": "Комунальне некомерційне підприємство «Лікарня святого Мартина» Мукачівської міської ради Закарпатської області", "old_name": "Мукачівська центральна районна лікарня", "operator": "Мукачівська міська рада", "phone:UA": "0 800 503 118", "type": "multipolygon", "wikidata": "Q97171627", "wikipedia": "uk:Мукачівська центральна районна лікарня"}}, {"name": "Обласна дитяча лікарня", "latitude": 48.4345587, "longitude": 22.7299083, "source": "osm", "_tags": {"amenity": "hospital", "healthcare": "hospital", "healthcare:speciality": "paediatrics", "name": "Обласна дитяча лікарня", "name:en": "Regional Children's Hospital", "name:uk": "Обласна дитяча лікарня", "type": "multipolygon"}}, {"name": "Міська дитяча клінічна лікарня", "latitude": 48.6256119, "longitude": 22.2928444, "source": "osm", "_tags": {"amenity": "hospital", "healthcare": "hospital", "name": "Міська дитяча клінічна лікарня", "name:ru": "Городская детская клиническая больница", "name:uk": "Міська дитяча клінічна лікарня", "type": "multipolygon"}}, {"name": "Обласний клінічний центр кардіології та кардіохірургії", "latitude": 48.6366404, "longitude": 22.3049135, "source": "osm", "_tags": {"amenity": "hospital", "contact:phone": "+380 312 63 7300", "contact:website": "https://zokkd.com.ua/index.php/uk/", "healthcare": "hospital", "healthcare:speciality": "cardiology", "name": "Обласний клінічний центр кардіології та кардіохірургії", "name:uk": "Обласний клінічний центр кардіології та кардіохірургії", "type": "multipolygon"}}, {"name": "Великоберезнянська центральна районна лікарня", "latitude": 48.8802847, "longitude": 22.4533836, "source": "osm", "_tags": {"amenity": "hospital", "healthcare": "hospital", "name": "Великоберезнянська центральна районна лікарня", "name:uk": "Великоберезнянська центральна районна лікарня", "type": "multipolygon"}}, {"name": "Обласний центр нейрохірургії та неврології", "latitude": 48.6189258, "longitude": 22.2904134, "source": "osm", "_tags": {"amenity": "hospital", "contact:phone": "+380 67 521 6072", "contact:website": "http://uzhneuro.com/", "healthcare": "hospital", "name": "Обласний центр нейрохірургії та неврології", "name:uk": "Обласний центр нейрохірургії та неврології", "type": "multipolygon"}}]