[{"name": "Klinik Prof. Schedel", "latitude": 48.5940902, "longitude": 13.5641282, "source": "osm", "_tags": {"amenity": "hospital", "check_date": "2025-04-13", "healthcare": "hospital", "name": "Klinik Prof. Schedel", "wheelchair": "yes"}}, {"name": "ARBERLANDKlinik Zwiesel", "latitude": 49.0072976, "longitude": 13.2183653, "source": "osm", "_tags": {"addr:city": "Zwiesel", "addr:country": "DE", "addr:housenumber": "1", "addr:postcode": "94227", "addr:street": "Arberlandstraße", "amenity": "hospital", "healthcare": "hospital", "name": "ARBERLANDKlinik Zwiesel", "name:de": "Arberlandklinik", "phone": "+49 9922 990", "website": "https://www.arberlandkliniken.de", "wheelchair": "yes"}}, {"name": "Passauer Wolf Reha-Zentrum Bad Griesbach", "latitude": 48.4296787, "longitude": 13.1848165, "source": "osm", "_tags": {"addr:city": "Bad Griesbach i. Rottal", "addr:housenumber": "1", "addr:postcode": "94086", "addr:street": "Bürgermeister-Hartl-Platz", "amenity": "hospital", "healthcare": "hospital", "healthcare:speciality": "neurology;geriatrics;orthopaedics;cardiology", "name": "Passauer Wolf Reha-Zentrum Bad Griesbach", "note": "FIXME: drawn from memory"}}, {"name": "Léčebna dlouhodobě nemocných", "latitude": 49.1648759, "longitude": 13.8903084, "source": "osm", "_tags": {"amenity": "hospital", "name": "Léčebna dlouhodobě nemocných"}}, {"name": "Nemocnice Vimperk a.s.", "latitude": 49.0568577, "longitude": 13.7643629, "source": "osm", "_tags": {"amenity": "hospital", "emergency": "yes", "healthcare": "hospital", "name": "Nemocnice Vimperk a.s.", "operator": "Bohemia Hospitals", "phone": "+420 388 400 100", "website": "https://www.nemocnicevimperk.cz/"}}, {"name": "Passauer Wolf Lodge & Therme Bad Griesbach", "latitude": 48.426863, "longitude": 13.1871215, "source": "osm", "_tags": {"addr:city": "Bad Griesbach i.Rottal", "addr:country": "DE", "addr:housenumber": "20", "addr:postcode": "94086", "addr:street": "Thermalbadstraße", "amenity": "hospital", "description": "Appartementhotel", "healthcare": "rehabilitation", "name": "Passauer Wolf Lodge & Therme Bad Griesbach", "phone": "+49 8532 27-0", "ref:touristinfo": "12"}}, {"name": "Dr. Gerd Pöschl - Zahnheilkunde Grafenau", "latitude": 48.8564829, "longitude": 13.3974041, "source": "osm", "_tags": {"addr:city": "Grafenau", "addr:country": "DE", "addr:housenumber": "16", "addr:postcode": "94481", "addr:street": "Stadtplatz", "amenity": "hospital", "description": "Zahnmedizin & Zahngesundheit in der Zahnarztpraxis Dr Pöschl in Grafenau, Niederbayern.", "email": "praxis@zahnheilkundegrafenau.de", "fax": "+49 8552 4305", "healthcare": "hospital", "healthcare:speciality": "dentist", "name": "Dr. Gerd Pöschl - Zahnheilkunde Grafenau", "phone": "+49 8552 4325", "website": "https://www.zahnheilkundegrafenau.de/"}}, {"name": "Nemocnice následné péče LDN Horažďovice s.r.o.", "latitude": 49.3238849, "longitude": 13.7080502, "source": "osm", "_tags": {"addr:housenumber": "314", "addr:postcode": "34101", "addr:street": "Blatenská", "amenity": "hospital", "emergency": "no", "healthcare": "hospital", "name": "Nemocnice následné péče LDN Horažďovice s.r.o."}}, {"name": "Krankenhaus Vilshofen", "latitude": 48.6277241, "longitude": 13.198391, "source": "osm", "_tags": {"addr:city": "Vilshofen an der Donau", "addr:country": "DE", "addr:housenumber": "32", "addr:postcode": "94474", "addr:street": "Krankenhausstraße", "amenity": "hospital", "building": "yes", "fax": "+498541206129", "healthcare": "hospital", "name": "Krankenhaus Vilshofen", "phone": "+4985412060", "url": "http://www.krankenhaus-vilshofen.de/"}}, {"name": "Klinikum Schärding", "latitude": 48.4552567, "longitude": 13.435669, "source": "osm", "_tags": {"addr:city": "Schärding", "addr:country": "AT", "addr:housenumber": "2", "addr:postcode": "4780", "addr:street": "Alfred-Kubin-Straße", "alt_name": "Landeskrankenhaus Schärding", "amenity": "hospital", "building": "yes", "email": "contact.sd@ooeg.at", "emergency": "yes", "healthcare": "hospital", "healthcare:speciality": "emergency", "layer": "1", "name": "Klinikum Schärding", "operator": "Oberösterreichische Gesundheitsholding GmbH", "phone": "05 055478-0", "source": "geoimage.at", "website": "https://www.ooeg.at/sd", "wheelchair": "yes"}}, {"name": "Stift Rottal", "latitude": 48.4482845, "longitude": 13.1942143, "source": "osm", "_tags": {"addr:city": "Bad Griesbach i.Rottal", "addr:country": "DE", "addr:housenumber": "3", "addr:postcode": "94086", "addr:street": "Max-Köhler-Straße", "amenity": "hospital", "healthcare": "hospital", "name": "Stift Rottal", "wheelchair": "yes"}}, {"name": "Klinikum Passau", "latitude": 48.5650209, "longitude": 13.4448178, "source": "osm", "_tags": {"addr:city": "Passau", "addr:country": "DE", "addr:housenumber": "76", "addr:postcode": "94032", "addr:street": "Innstraße", "amenity": "hospital", "check_date": "2024-05-01", "emergency": "yes", "name": "Klinikum Passau", "wheelchair": "yes", "wikidata": "Q16216390"}}, {"name": "Kinderklinik Dritter Orden", "latitude": 48.5660874, "longitude": 13.4461345, "source": "osm", "_tags": {"amenity": "hospital", "building": "hospital", "building:colour": "white", "building:levels": "4", "healthcare": "hospital", "name": "Kinderklinik Dritter Orden", "roof:colour": "grey", "roof:shape": "flat", "source": "geoimage.at"}}, {"name": "Krankenhaus Grafenau", "latitude": 48.8588796, "longitude": 13.3931268, "source": "osm", "_tags": {"addr:city": "Grafenau", "addr:country": "DE", "addr:housenumber": "21", "addr:postcode": "94481", "addr:street": "Schwarzmaierstraße", "amenity": "hospital", "building": "yes", "emergency": "yes", "healthcare": "hospital", "name": "Krankenhaus Grafenau", "phone": "+49 8581 981-0"}}, {"name": "Klinikum Passau - Hellge Klinik", "latitude": 48.5698406, "longitude": 13.4476155, "source": "osm", "_tags": {"addr:city": "Passau", "addr:country": "DE", "addr:housenumber": "6", "addr:postcode": "94032", "addr:street": "Hochstraße", "amenity": "hospital", "contact:phone": "+49 851 5300 91000", "contact:website": "https://www.klinikum-passau.de/kliniken-institute/fachabteilungen/hellge-klinik", "emergency": "no", "name": "Klinikum Passau - Hellge Klinik"}}, {"name": "Krankenhaus Wegscheid", "latitude": 48.6013088, "longitude": 13.7930629, "source": "osm", "_tags": {"addr:city": "Wegscheid", "addr:country": "DE", "addr:housenumber": "50", "addr:postcode": "94110", "addr:street": "Marktstraße", "amenity": "hospital", "building": "hospital", "healthcare": "hospital", "name": "Krankenhaus Wegscheid", "phone": "+49 8592 880-0", "toilets:wheelchair": "yes", "website": "http://www.krankenhaus-wegscheid.de/", "wheelchair": "yes"}}, {"name": "", "latitude": 49.404299, "longitude": 13.2923593, "source": "osm", "_tags": {"building": "hospital", "building:levels": "3", "building:ruian:type": "15", "healthcare": "hospital", "ref:ruian:building": "21238545", "source": "cuzk:ruian", "start_date": "2014-05-22"}}, {"name": "Chirurgische Tagesklinik", "latitude": 48.818186, "longitude": 13.5481267, "source": "osm", "_tags": {"addr:city": "Freyung", "addr:housenumber": "4a", "addr:place": "Bannholz", "addr:postcode": "94078", "amenity": "hospital", "building": "hospital", "healthcare": "hospital", "name": "Chirurgische Tagesklinik"}}, {"name": "Krankenhaus Freyung", "latitude": 48.8053542, "longitude": 13.546133, "source": "osm", "_tags": {"addr:city": "Freyung", "addr:housenumber": "6", "addr:postcode": "94078", "addr:street": "Krankenhausstraße", "amenity": "hospital", "healthcare": "hospital", "name": "Krankenhaus Freyung", "operator": "FRG Klinken", "phone": "+49 8551 9770", "website": "https://www.frg-kliniken.de/", "wheelchair": "yes"}}, {"name": "ASKLEPIOS Klinik Schaufling", "latitude": 48.8629014, "longitude": 13.0674971, "source": "osm", "_tags": {"addr:housenumber": "2", "addr:street": "Hausstein", "amenity": "hospital", "email": "schaufling@asklepios.com", "fax": "+49 9904 7299", "healthcare": "hospital", "name": "ASKLEPIOS Klinik Schaufling", "operator": "Asklepios Kliniken", "operator:type": "private", "operator:wikidata": "Q732068", "phone": "+49 9904 770", "toilets:wheelchair": "yes", "website": "https://www.asklepios.com/schaufling", "wheelchair": "yes", "wikidata": "Q1318729"}}, {"name": "DONAUISAR Klinikum Deggendorf", "latitude": 48.8391494, "longitude": 12.9701346, "source": "osm", "_tags": {"addr:city": "Deggendorf", "addr:housenumber": "41", "addr:postcode": "94469", "addr:street": "Perlasberger Straße", "amenity": "hospital", "contact:phone": "+49 991 3803510", "contact:website": "http://www.klinikum-deggendorf.de", "emergency": "yes", "healthcare": "hospital", "name": "DONAUISAR Klinikum Deggendorf", "operator": "DONAUISAR Klinikum Deggendorf-Dingolfing-Landau gKU"}}, {"name": "Bezirkskrankenhaus Passau", "latitude": 48.5666121, "longitude": 13.4470754, "source": "osm", "_tags": {"addr:city": "Passau", "addr:country": "DE", "addr:housenumber": "5", "addr:postcode": "94032", "addr:street": "Wörthstraße", "addr:suburb": "Maierhof", "alt_name": "Bezirksklinikum Passau", "amenity": "hospital", "building": "hospital", "building:levels": "4", "healthcare": "hospital", "name": "Bezirkskrankenhaus Passau", "roof:colour": "grey", "roof:shape": "flat", "website": "https://www.bkh-passau.de/"}}, {"name": "Spezialklinik Neukirchen GmbH & Co. KG", "latitude": 49.2596977, "longitude": 12.9675514, "source": "osm", "_tags": {"addr:city": "Neukirchen beim Heiligen Blut", "addr:country": "DE", "addr:housenumber": "9", "addr:postcode": "93453", "addr:street": "Krankenhausstraße", "amenity": "hospital", "building": "yes", "email": "info@spezialklinik-neukirchen.de", "fax": "+49 9947 28109", "healthcare": "hospital", "name": "Spezialklinik Neukirchen GmbH & Co. KG", "phone": "+49 9947 280", "website": "https://www.spezialklinik-neukirchen.de/"}}, {"name": "Klinik Rosenhof", "latitude": 48.4430214, "longitude": 13.0796512, "source": "osm", "_tags": {"amenity": "hospital", "building": "yes", "healthcare": "hospital", "healthcare:speciality": "physiatry", "name": "Klinik Rosenhof", "website": "https://www.klinik-rosenhof.eu/"}}, {"name": "Nemocnice Klatovy", "latitude": 49.4036648, "longitude": 13.2923978, "source": "osm", "_tags": {"amenity": "hospital", "building": "hospital", "building:levels": "8", "building:ruian:type": "19", "healthcare": "hospital", "name": "Nemocnice Klatovy", "ref:ruian:building": "78254141", "source": "cuzk:ruian", "start_date": "2014-05-22"}}, {"name": "Sušická nemocnice", "latitude": 49.2300099, "longitude": 13.525994, "source": "osm", "_tags": {"amenity": "hospital", "healthcare": "hospital", "name": "Sušická nemocnice", "website": "https://www.susnem.cz/"}}, {"name": "", "latitude": 49.4045664, "longitude": 13.2914553, "source": "osm", "_tags": {"amenity": "hospital", "healthcare": "hospital"}}, {"name": "Nemocnice Strakonice", "latitude": 49.2661164, "longitude": 13.9081011, "source": "osm", "_tags": {"amenity": "hospital", "emergency": "yes", "healthcare": "hospital", "name": "Nemocnice Strakonice", "name:de": "Spital Strakonice", "name:en": "Strakonice hospital", "phone": "+420383314111"}}, {"name": "", "latitude": 48.7273287, "longitude": 13.5986503, "source": "osm", "_tags": {"addr:city": "Waldkirchen", "addr:country": "DE", "addr:housenumber": "6", "addr:postcode": "94065", "addr:street": "Erlenhain", "building": "yes", "emergency": "no", "healthcare": "hospital"}}, {"name": "Kinderklinik Dritter Orden", "latitude": 48.5661566, "longitude": 13.4464967, "source": "osm", "_tags": {"amenity": "hospital", "emergency": "yes", "name": "Kinderklinik Dritter Orden", "type": "site"}}, {"name": "Klinikum Passau", "latitude": 48.5650099, "longitude": 13.4449435, "source": "osm", "_tags": {"amenity": "hospital", "emergency": "yes", "name": "Klinikum Passau", "type": "site"}}]