[{"name": "CMSI Cherbourg", "latitude": 49.6033061, "longitude": -1.5974583, "source": "osm", "_tags": {"addr:city": "Cherbourg-en-Cotentin", "addr:housenumber": "2215", "addr:postcode": "50470", "addr:street": "voie de la liberté", "amenity": "hospital", "contact:city": "La Glacerie", "contact:housenumber": "2215", "contact:phone": "+33 2 19 23 12 71", "contact:postcode": "50470", "contact:street": "Voie de la Liberté", "healthcare": "hospital", "healthcare:speciality": "emergency", "name": "CMSI Cherbourg", "opening_hours": "Mo-Fr 09:00-18:00", "phone": "+33 2 19 23 12 71", "website": "https://www.cmsifrance.fr"}}, {"name": "SMUR Cherbourg", "latitude": 49.6374708, "longitude": -1.6141058, "source": "osm", "_tags": {"amenity": "hospital", "emergency": "ambulance_station", "healthcare": "hospital", "healthcare:speciality": "emergency", "healthcare:speciality:FR": "SMUR", "name": "SMUR Cherbourg", "opening_hours": "24/7", "operator": "SAMU 50", "operator2": "CH CHERBOURG", "operator:type": "public"}}, {"name": "Maternité", "latitude": 49.6378035, "longitude": -1.6119749, "source": "osm", "_tags": {"amenity": "hospital", "healthcare": "hospital", "name": "Maternité"}}, {"name": "Centre Hospitalier de Valognes", "latitude": 49.5019969, "longitude": -1.4639502, "source": "osm", "_tags": {"amenity": "hospital", "contact:facebook": "centrehospitalierCHPC", "description": "Emergency closed but unscheduled consultations Mo-Fr 08h00-18h30. Urgences fermées mais consultation non programmées 08h00-18h30 du L-V", "emergency": "limited", "fax": "+33 2 33 95 70 07", "healthcare": "hospital", "name": "Centre Hospitalier de Valognes", "operator": "Centre Hospitalier Public du Cotentin", "operator:type": "public", "phone": "+33 2 33 95 70 00", "ref:FR:FINESS": "500000468", "source": "cadastre-dgi-fr source : Direction Générale des Impôts - Cadastre. Mise à jour : 2010", "twitter": "CHPC50", "type:FR:FINESS": "355", "website": "https://www.ch-cotentin.fr/"}}, {"name": "Fondation Bon Sauveur", "latitude": 49.601483, "longitude": -1.604685, "source": "osm", "_tags": {"addr:city": "Cherbourg-en-Cotentin", "addr:housenumber": "359", "addr:postcode": "50470", "addr:street": "Avenue de la Banque à Genêts", "amenity": "hospital", "healthcare": "hospital", "healthcare:speciality": "psychiatry", "name": "Fondation Bon Sauveur", "operator": "Fondation Bon Sauveur", "operator:type": "private_non_profit", "phone": "+33 2 33 88 70 46", "ref:FR:FINESS": "500013990", "type:FR:FINESS": "292", "website": "https://www.fbs50.fr/psychiatrie-adulte/", "wheelchair": "yes"}}, {"name": "Polyclinique du Cotentin", "latitude": 49.6363671, "longitude": -1.655894, "source": "osm", "_tags": {"amenity": "hospital", "healthcare": "hospital", "name": "Polyclinique du Cotentin", "ref:FR:FINESS": "500002357", "type:FR:FINESS": "128"}}, {"name": "Hôpital Pasteur", "latitude": 49.6372882, "longitude": -1.6131422, "source": "osm", "_tags": {"amenity": "hospital", "contact:facebook": "centrehospitalierCHPC", "email": "contact@ch-cotentin.fr", "emergency": "yes", "fax": "+33 2 33 20 76 09", "healthcare": "hospital", "healthcare:speciality": "intensive", "name": "Hôpital Pasteur", "name:etymology:wikidata": "Q529", "operator": "Centre Hospitalier Public du Cotentin", "operator:type": "public", "phone": "+33 2 33 20 70 70", "ref:FR:FINESS": "500000187", "subject:wikidata": "Q2945728", "toilets:wheelchair": "yes", "twitter": "CHPC50", "type:FR:FINESS": "355", "website": "https://www.ch-cotentin.fr/", "wheelchair": "yes"}}]