[{"name": "Психо-неврологічний диспансер", "latitude": 49.7339897, "longitude": 22.888937, "source": "osm", "_tags": {"addr:street": "вулиця Шевченка", "amenity": "hospital", "healthcare": "hospital", "name": "Психо-неврологічний диспансер", "name:uk": "Психо-неврологічний диспансер"}}, {"name": "B", "latitude": 49.6920849, "longitude": 22.0257376, "source": "osm", "_tags": {"amenity": "clinic", "healthcare": "hospital", "name": "B"}}, {"name": "Ł", "latitude": 49.6917859, "longitude": 22.0254449, "source": "osm", "_tags": {"amenity": "clinic", "healthcare": "hospital", "name": "Ł"}}, {"name": "J", "latitude": 49.6915428, "longitude": 22.0253463, "source": "osm", "_tags": {"amenity": "clinic", "healthcare": "hospital", "name": "J"}}, {"name": "C", "latitude": 49.6917341, "longitude": 22.0260888, "source": "osm", "_tags": {"amenity": "clinic", "healthcare": "hospital", "name": "C"}}, {"name": "I", "latitude": 49.6919534, "longitude": 22.0267327, "source": "osm", "_tags": {"amenity": "clinic", "healthcare": "hospital", "name": "I"}}, {"name": "Szpital Asklepios", "latitude": 50.0248307, "longitude": 22.0062449, "source": "osm", "_tags": {"amenity": "hospital", "healthcare": "hospital", "name": "Szpital Asklepios", "name:uk": "Лікаря Асклепиос"}}, {"name": "Hospicjum im. Św. Jadwigi", "latitude": 50.056428, "longitude": 22.4969547, "source": "osm", "_tags": {"amenity": "hospital", "name": "Hospicjum im. Św. Jadwigi"}}, {"name": "Wojewódzki Szpital im. Św. Ojca Pio w Przemyślu", "latitude": 49.8093212, "longitude": 22.7842666, "source": "osm", "_tags": {"addr:city": "Przemyśl", "addr:housenumber": "18", "addr:postcode": "37-700", "addr:street": "Monte Cassino", "amenity": "hospital", "email": "sekretariat@wszp.pl", "healthcare": "hospital", "name": "Wojewódzki Szpital im. Św. Ojca Pio w Przemyślu", "name:uk": "Обласна Лікарня ім. Св. Отця Піо в Пшемишлю", "phone": "16 677 50 03", "website": "https://nowa.wszp.pl/"}}, {"name": "Szpital Specjalistyczny w Brzozowie - Podkarpacki Ośrodek Onkologiczny im. Księdza Bronisława Markiewicza", "latitude": 49.6922854, "longitude": 22.025901, "source": "osm", "_tags": {"amenity": "hospital", "email": "onkologia@szpital-brzozow.pl", "emergency": "yes", "healthcare": "hospital", "name": "Szpital Specjalistyczny w Brzozowie - Podkarpacki Ośrodek Onkologiczny im. Księdza Bronisława Markiewicza", "name:uk": "Спеціальна лікарня Підкарпатського онкологічного центру", "phone": "13 43 09 500", "source": "http://ump.waw.pl/ retrieved 01:32:52 09/02/09 (UMP-Przemysl/src/BRZOZOW.obszary.txt)", "website": "https://szpital-brzozow.pl", "wikidata": "Q11836633", "wikipedia": "pl:Szpital Specjalistyczny w Brzozowie"}}, {"name": "Centrum Medyczne w Łańcucie", "latitude": 50.0655122, "longitude": 22.2335984, "source": "osm", "_tags": {"amenity": "hospital", "emergency": "yes", "name": "Centrum Medyczne w Łańcucie", "name:uk": "Медичний центр у Ланьцуті"}}, {"name": "Specjalistyczny Psychiatryczny Zespół Opieki Zdrowotnej im. prof. Antoniego Kępińskiego w Jarosławiu", "latitude": 50.018704, "longitude": 22.6708788, "source": "osm", "_tags": {"amenity": "hospital", "barrier": "wall", "email": "sekretariat@spzozjaroslaw.pl", "healthcare": "hospital", "heritage": "2", "name": "Specjalistyczny Psychiatryczny Zespół Opieki Zdrowotnej im. prof. Antoniego Kępińskiego w Jarosławiu", "name:uk": "Команда спеціалістів з психіатричної допомоги iм.проф. Антонія Кепінського в Ярославі", "phone": "+48 16 6214611", "ref:nid": "A-1169/19-ZN;A-250;A-569", "start_date": "1888", "website": "https://spzozjaroslaw.pl", "wikidata": "Q30232503"}}, {"name": "Regionalny Ośrodek Rehabilitacyjno-Edukacyjny dla Dzieci i Młodzieży", "latitude": 50.0350659, "longitude": 22.0397446, "source": "osm", "_tags": {"amenity": "hospital", "building": "yes", "name": "Regionalny Ośrodek Rehabilitacyjno-Edukacyjny dla Dzieci i Młodzieży", "website": "https://rore.rzeszow.pl/"}}, {"name": "Szpital Wojewódzki Nr 2", "latitude": 50.0346496, "longitude": 22.0377027, "source": "osm", "_tags": {"addr:city": "Rzeszów", "addr:housenumber": "60", "addr:postcode": "35-301", "addr:street": "Lwowska", "amenity": "hospital", "healthcare": "hospital", "name": "Szpital Wojewódzki Nr 2", "name:uk": "Обласна Лікарня", "official_name": "Szpital Wojewódzki Nr 2 im. Św. Jadwigi Królowej", "toilets:wheelchair": "yes", "website": "https://www.szpital2.rzeszow.pl/", "wheelchair": "yes"}}, {"name": "Szpital MSWiA", "latitude": 50.0468846, "longitude": 21.9828119, "source": "osm", "_tags": {"amenity": "hospital", "healthcare": "hospital", "name": "Szpital MSWiA", "name:uk": "Лікарня Міністерства внутрішніх справ та управління"}}, {"name": "Samodzielny Publiczny Zespół Opieki Zdrowotnej - Szpital Specjalistyczny w Sanoku", "latitude": 49.5524031, "longitude": 22.1981563, "source": "osm", "_tags": {"amenity": "hospital", "email": "szpital@zozsanok.pl", "healthcare": "hospital", "name": "Samodzielny Publiczny Zespół Opieki Zdrowotnej - Szpital Specjalistyczny w Sanoku", "name:uk": "Самостійний Публічний Комплекс Оздоровчого Догляду", "phone": "13 46 56 100", "website": "https://www.zozsanok.pl", "wikidata": "Q9352141", "wikipedia": "pl:Szpital Specjalistyczny w Sanoku"}}, {"name": "Arion Szpitale - Zakład Opiekuńczo-Leczniczy w Tarnogrodzie", "latitude": 50.3600708, "longitude": 22.7434563, "source": "osm", "_tags": {"amenity": "hospital", "fixme": "Naprawić nazwę", "healthcare": "hospital", "name": "Arion Szpitale - Zakład Opiekuńczo-Leczniczy w Tarnogrodzie", "name:uk": "Лiкарня Арiон (ЗОЗ) - Заклад опiкунчо-лiкувальный в Тарногроджi", "operator": "ARION Szpitale sp. z o.o.", "operator:type": "private", "phone": "84 689 71 05", "website": "https://www.arion-szpitale.pl/szto_zol"}}, {"name": "Centrum Opieki Medycznej w Jarosławiu", "latitude": 50.012613, "longitude": 22.6936583, "source": "osm", "_tags": {"amenity": "hospital", "email": "sekretariat@comjar.pl", "healthcare": "hospital", "name": "Centrum Opieki Medycznej w Jarosławiu", "name:uk": "Центр Медичної Допомоги", "phone": "+48 16 6215421"}}, {"name": "Uniwersytecki Szpital Kliniczny im. Fryderyka Chopina", "latitude": 50.0357365, "longitude": 22.0077864, "source": "osm", "_tags": {"addr:city": "Rzeszów", "addr:postcode": "35-055", "addr:street": "Fryderyka Szopena", "amenity": "hospital", "contact:email": "sekretariat@szpital.rzeszow.pl", "contact:phone": "+48 17 8666000", "contact:website": "http://www.szpital.rzeszow.pl/", "healthcare": "hospital", "name": "Uniwersytecki Szpital Kliniczny im. Fryderyka Chopina", "wheelchair": "limited"}}, {"name": "Wojewódzki Podkarpacki Szpital Psychiatryczny im. prof. Eugeniusza Brzezickiego", "latitude": 49.8259008, "longitude": 22.7685099, "source": "osm", "_tags": {"addr:city": "Żurawica", "addr:housenumber": "9", "addr:postcode": "37-710", "addr:street": "Różana", "amenity": "hospital", "contact:website": "https://www.wpsp.pl/", "emergency": "no", "healthcare": "hospital", "healthcare:speciality": "psychiatry", "name": "Wojewódzki Podkarpacki Szpital Psychiatryczny im. prof. Eugeniusza Brzezickiego", "name:uk": "Обласна Підкарпатська Психіатрична Лікарня ім. професора Євгена Бжежіцкєго", "source:addr": "EMUiA (emuia.gugik.gov.pl)"}}, {"name": "Szpital Miejski im. Jana Pawła II", "latitude": 50.0487145, "longitude": 22.0017448, "source": "osm", "_tags": {"addr:city": "Rzeszów", "addr:housenumber": "4", "addr:postcode": "35-241", "addr:street": "Rycerska", "amenity": "hospital", "healthcare": "hospital", "name": "Szpital Miejski im. Jana Pawła II", "name:uk": "Міська Лікарня ім. Яна Павла ІІ", "source:addr": "EMUiA (emuia.gugik.gov.pl)", "wheelchair": "limited"}}, {"name": "Samodzielny Publiczny Zespół Opieki Zdrowotnej w Ustrzykach Dolnych", "latitude": 49.4350434, "longitude": 22.6036648, "source": "osm", "_tags": {"amenity": "hospital", "email": "sekretariat@spzoz-ustrzyki.pl", "healthcare": "hospital", "name": "Samodzielny Publiczny Zespół Opieki Zdrowotnej w Ustrzykach Dolnych", "phone": "13 461 10 28", "website": "https://www.spzoz-ustrzyki.pl/"}}, {"name": "S-Med Dydnia POZ ośrodek zdrowia", "latitude": 49.6568079, "longitude": 22.0765167, "source": "osm", "_tags": {"addr:housenumber": "601", "addr:place": "Grabownica Starzeńska", "addr:postcode": "36-207", "amenity": "hospital", "healthcare": "hospital", "name": "S-Med Dydnia POZ ośrodek zdrowia", "operator": "S-Med Dydnia", "operator:type": "private", "source:addr": "EMUiA (emuia.gugik.gov.pl)"}}, {"name": "Szpital Powiatowy - Samodzielny Publiczny Zespół Opieki Zdrowotnej w Lesku", "latitude": 49.4740173, "longitude": 22.3332955, "source": "osm", "_tags": {"addr:city": "Lesko", "addr:city:simc": "0953409", "addr:housenumber": "2", "addr:postcode": "38-600", "addr:street": "Jana Kochanowskiego", "addr:street:sym_ul": "08725", "amenity": "hospital", "email": "spzoz@spzozlesko.pl", "emergency": "yes", "fax": "+48 134608073", "healthcare": "hospital", "name": "Szpital Powiatowy - Samodzielny Publiczny Zespół Opieki Zdrowotnej w Lesku", "name:en": "Hospital", "name:uk": "Районна Лікарня", "phone": "+48 134698072", "ref:vatin": "6881197430", "source:addr": "lesko.e-mapa.net", "website": "https://www.spzozlesko.pl/", "wikidata": "Q9352130", "wikimedia_commons": "Category:Hospital_in_Lesko", "wikipedia": "Szpital Powiatowy w Lesku"}}, {"name": "NTM - Szpital Specjalistyczny im. Świętej Rodziny w Rudnej Małej", "latitude": 50.1048682, "longitude": 21.9792282, "source": "osm", "_tags": {"amenity": "hospital", "email": "sekretariat@klinika-rzeszow.pl", "healthcare": "hospital", "name": "NTM - Szpital Specjalistyczny im. Świętej Rodziny w Rudnej Małej", "name:uk": "Спеціалізована Лікарня ім. Швтей Роджіни", "official_name": "Nowe Techniki Medyczne - Szpital Specjalistyczny im. Świętej Rodziny w Rudnej Małej", "phone": "+48 17 86 66 700", "website": "https://www.klinika-rzeszow.pl", "wheelchair": "yes", "wikidata": "Q121844021"}}, {"name": "Добромильська районна лікарня", "latitude": 49.5716005, "longitude": 22.7902523, "source": "osm", "_tags": {"amenity": "hospital", "name": "Добромильська районна лікарня", "name:uk": "Добромильська районна лікарня"}}, {"name": "", "latitude": 49.5715531, "longitude": 22.7876891, "source": "osm", "_tags": {"amenity": "hospital", "building": "yes", "healthcare": "hospital"}}, {"name": "", "latitude": 49.7339462, "longitude": 22.8890038, "source": "osm", "_tags": {"addr:housenumber": "177", "addr:street": "вулиця Тараса Шевченка", "amenity": "hospital", "healthcare": "hospital", "healthcare:speciality": "psychiatry"}}, {"name": "Szpital Chorób Płuc i Opieka Długoterminowa im. św. Jana Pawła II w Górnie", "latitude": 50.2847374, "longitude": 22.130463, "source": "osm", "_tags": {"addr:city": "Górno", "addr:housenumber": "5", "addr:postcode": "36-051", "addr:street": "Rzeszowska", "amenity": "hospital", "landuse": "commercial", "name": "Szpital Chorób Płuc i Opieka Długoterminowa im. św. Jana Pawła II w Górnie", "name:uk": "Самостійний Публічний Комплекс Підприємств Оздоровчого Догляду \"Санаторію\" ім. Яна Павла II", "old_name": "Samodzielny Publiczny Zespół Zakładów Opieki Zdrowotnej \"Sanatorium\" im. Jana Pawła II", "website": "https://gorno.eu/"}}, {"name": "Територія Хирівської міської лікарні", "latitude": 49.5261118, "longitude": 22.8445544, "source": "osm", "_tags": {"addr:housenumber": "12", "amenity": "hospital", "healthcare": "hospital", "name": "Територія Хирівської міської лікарні", "name:uk": "Територія Хирівської міської лікарні"}}, {"name": "Centrum Leczenia Ambulatoryjnego nr.2", "latitude": 49.7852601, "longitude": 22.7750693, "source": "osm", "_tags": {"addr:city": "Przemyśl", "addr:housenumber": "6", "addr:postcode": "37-700", "addr:street": "Sportowa", "amenity": "hospital", "healthcare": "hospital", "loc_name": "Przychodnia Kolejowa", "name": "Centrum Leczenia Ambulatoryjnego nr.2", "name:uk": "Центр амбулаторного лікування №2", "operator": "Wojewódzki Szpital im. Św. Ojca Pio w Przemyślu", "operator:type": "public"}}, {"name": "Caritas Centrum Medyczno-Charytatywne im. Św. Józefa w Przemyślu", "latitude": 49.7756378, "longitude": 22.7824437, "source": "osm", "_tags": {"addr:city": "Przemyśl", "addr:housenumber": "85", "addr:postcode": "37-700", "addr:street": "Juliusza Słowackiego", "amenity": "hospital", "healthcare": "hospital", "name": "Caritas Centrum Medyczno-Charytatywne im. Św. Józefa w Przemyślu", "name:uk": "Медико-благодійний центр «Карітас». св. Юзефа в Перемишлі", "operator": "Caritas Archidiecezni Przemyskiej", "operator:type": "religious"}}, {"name": "Szpital Specjalistyczny Pro-Familia", "latitude": 50.0308759, "longitude": 22.0397496, "source": "osm", "_tags": {"addr:city": "Rzeszów", "addr:housenumber": "6B", "addr:postcode": "35-302", "addr:street": "Witolda", "amenity": "hospital", "contact:email": "szpital@pro-familia.pl", "contact:phone": "(+48)177735710", "contact:website": "http://www.rzeszow.pro-familia.pl/", "healthcare": "hospital", "name": "Szpital Specjalistyczny Pro-Familia", "name:uk": "Спеціальна Лікарня Про-Фамілія", "wheelchair": "yes"}}, {"name": "Zespół Opieki Zdrowotnej Nr 2 w Rzeszowie - lZakład Opieki Długoterminowej i Paliacji w Błażowej", "latitude": 49.8832572, "longitude": 22.101242, "source": "osm", "_tags": {"amenity": "hospital", "email": "zod.blazowa@zoz2.pl", "emergency": "yes", "name": "Zespół Opieki Zdrowotnej Nr 2 w Rzeszowie - lZakład Opieki Długoterminowej i Paliacji w Błażowej", "name:uk": "Заклад Довготривалого Догляду", "phone": "+48 17 229 70 25", "website": "https://zoz2.pl"}}, {"name": "Szpital Powiatowy - Samodzielny Publiczny Zespół Opieki Zdrowotnej w Leżajsku", "latitude": 50.2722399, "longitude": 22.4013269, "source": "osm", "_tags": {"amenity": "hospital", "email": "sekretariat@spzoz-lezajsk.pl", "emergency": "yes", "healthcare": "hospital", "name": "Szpital Powiatowy - Samodzielny Publiczny Zespół Opieki Zdrowotnej w Leżajsku", "name:uk": "Самостійний Публічний Комплекс Оздоровчого Догляду в Лежайску", "phone": "17 24 04 700", "website": "https://www.spzoz-lezajsk.pl/"}}, {"name": "Samodzielny Publiczny Zakład Opieki Zdrowotnej - Szpital Rejonowy im. Henryka Jankowskiego w Przeworsku", "latitude": 50.0651572, "longitude": 22.4774721, "source": "osm", "_tags": {"amenity": "hospital", "email": "rejestracja@spzoz-przeworsk.pl", "healthcare": "hospital", "name": "Samodzielny Publiczny Zakład Opieki Zdrowotnej - Szpital Rejonowy im. Henryka Jankowskiego w Przeworsku", "name:uk": "Незалежний Центр Громадського Здоров'я ім. Генрик Янковський", "phone": "+48 459 595 505", "website": "https://spzoz-przeworsk.pl"}}, {"name": "Przychodnia Rejonowa w Dynowie", "latitude": 49.8144795, "longitude": 22.2235224, "source": "osm", "_tags": {"addr:city": "Dynów", "addr:housenumber": "32", "addr:postcode": "36-065", "addr:street": "Księdza Józefa Ożoga", "amenity": "hospital", "email": "dynow@zoz2.pl", "emergency": "yes", "healthcare": "hospital", "healthcare:speciality": "general;allergology;internal;trauma;surgery;gynaecology;physiatry", "name": "Przychodnia Rejonowa w Dynowie", "operator": "Zespół Opieki Zdrowotnej Nr 2 w Rzeszowie", "operator:type": "public", "phone": "16 65 21 035", "website": "https://zoz2.pl/przychodnia-rejonowa-w-dynowie/"}}, {"name": "", "latitude": 49.6918064, "longitude": 22.4802999, "source": "osm", "_tags": {"amenity": "hospital", "healthcare": "hospital"}}, {"name": "", "latitude": 50.1944146, "longitude": 22.107804, "source": "osm", "_tags": {"amenity": "hospital", "healthcare": "hospital"}}]