[{"name": "Zdravotní středisko Oskava", "latitude": 49.8914136, "longitude": 17.1350241, "source": "osm", "_tags": {"addr:conscriptionnumber": "167", "addr:country": "CZ", "addr:housenumber": "167", "addr:place": "Oskava", "addr:postcode": "78801", "amenity": "hospital", "designation": "Zdravotní středisko Oskava", "emergency": "no", "name": "Zdravotní středisko Oskava", "ref:ruian:addr": "8048363"}}, {"name": "Krnovská nemocnice", "latitude": 50.0959538, "longitude": 17.6880418, "source": "osm", "_tags": {"amenity": "hospital", "emergency": "yes", "healthcare": "hospital", "name": "Krnovská nemocnice", "website": "https://www.szzkrnov.cz/"}}, {"name": "Porodnice Přerov", "latitude": 49.4570494, "longitude": 17.4716411, "source": "osm", "_tags": {"amenity": "doctors", "emergency": "yes", "healthcare": "hospital", "healthcare:speciality": "gynaecology", "name": "Porodnice Přerov", "source": "Knowladge"}}, {"name": "", "latitude": 49.8093293, "longitude": 17.2281734, "source": "osm", "_tags": {"amenity": "hospital"}}, {"name": "", "latitude": 49.7964267, "longitude": 17.2228276, "source": "osm", "_tags": {"amenity": "hospital"}}, {"name": "Szpital Powiatowy w Głogówku", "latitude": 50.3509734, "longitude": 17.8700954, "source": "osm", "_tags": {"amenity": "hospital", "name": "Szpital Powiatowy w Głogówku"}}, {"name": "", "latitude": 49.4701297, "longitude": 17.5518499, "source": "osm", "_tags": {"amenity": "hospital"}}, {"name": "Fakultní nemocnice Olomouc", "latitude": 49.583792, "longitude": 17.2346015, "source": "osm", "_tags": {"amenity": "hospital", "emergency": "yes", "healthcare": "hospital", "name": "Fakultní nemocnice Olomouc", "website": "https://www.fnol.cz/"}}, {"name": "Nemocnice Hranice", "latitude": 49.5555667, "longitude": 17.7469126, "source": "osm", "_tags": {"amenity": "hospital", "designation": "Nemocnice Hranice a.s.", "healthcare": "hospital", "name": "Nemocnice Hranice", "source": "uhul:ortofoto", "wikidata": "Q54982270"}}, {"name": "Slezská nemocnice v Opavě", "latitude": 49.9348093, "longitude": 17.8783017, "source": "osm", "_tags": {"amenity": "hospital", "emergency": "yes", "healthcare": "hospital", "name": "Slezská nemocnice v Opavě", "source": "CUZK:KM", "website": "https://www.snopava.cz/"}}, {"name": "zdravotní středisko", "latitude": 50.0439858, "longitude": 17.58918, "source": "osm", "_tags": {"amenity": "hospital", "building": "house", "building:flats": "1", "building:levels": "1", "building:ruian:type": "7", "healthcare": "hospital", "name": "zdravotní středisko", "ref:ruian:building": "2789698", "source": "cuzk:ruian"}}, {"name": "Nemocnice Agel Jeseník", "latitude": 50.228171, "longitude": 17.1977657, "source": "osm", "_tags": {"amenity": "hospital", "contact:email": "nemocnice@jen.agel.cz", "contact:website": "https://nemocnicejesenik.agel.cz/", "healthcare": "hospital", "name": "Nemocnice Agel Jeseník", "smoking": "no"}}, {"name": "Pavilon C", "latitude": 49.4751063, "longitude": 17.0874814, "source": "osm", "_tags": {"amenity": "hospital", "building": "industrial", "building:ruian:type": "16", "healthcare": "hospital", "name": "Pavilon C", "ref:ruian:building": "47729465", "source": "cuzk:ruian"}}, {"name": "Pavilon E - Pohotovost", "latitude": 49.4752663, "longitude": 17.0868515, "source": "osm", "_tags": {"amenity": "hospital", "building": "civic", "building:ruian:type": "15", "healthcare": "hospital", "healthcare:speciality": "emergency", "name": "Pavilon E - Pohotovost", "ref:ruian:building": "48099163", "source": "cuzk:ruian"}}, {"name": "Pavilon D - Dětské", "latitude": 49.4748561, "longitude": 17.0880786, "source": "osm", "_tags": {"amenity": "hospital", "building": "civic", "building:ruian:type": "15", "healthcare": "hospital", "name": "Pavilon D - Dětské", "ref:ruian:building": "48099155", "source": "cuzk:ruian"}}, {"name": "Nemocnice - Informace", "latitude": 49.4752674, "longitude": 17.0872496, "source": "osm", "_tags": {"amenity": "hospital", "building": "yes", "healthcare": "hospital", "name": "Nemocnice - Informace", "source": "cuzk:km"}}, {"name": "Pavilon A - Plicní oddělení", "latitude": 49.4752186, "longitude": 17.0883382, "source": "osm", "_tags": {"amenity": "hospital", "building": "yes", "healthcare": "hospital", "name": "Pavilon A - Plicní oddělení", "source": "cuzk:km"}}, {"name": "Nemocnice Prostějov", "latitude": 49.4759086, "longitude": 17.086042, "source": "osm", "_tags": {"amenity": "hospital", "barrier": "fence", "emergency": "yes", "healthcare": "hospital", "name": "Nemocnice Prostějov", "website": "https://nemocniceprostejov.agel.cz/"}}, {"name": "Pavilon K", "latitude": 49.4770357, "longitude": 17.0863578, "source": "osm", "_tags": {"building": "hospital", "building:ruian:type": "19", "healthcare": "hospital", "name": "Pavilon K", "ref:ruian:building": "47664266", "source": "cuzk:ruian"}}, {"name": "Odborný léčebný ústav Paseka o.p.", "latitude": 49.8076236, "longitude": 17.2280485, "source": "osm", "_tags": {"amenity": "hospital", "emergency": "no", "name": "Odborný léčebný ústav Paseka o.p."}}, {"name": "Szpital nr 2", "latitude": 50.3017033, "longitude": 17.3831043, "source": "osm", "_tags": {"addr:city": "Głuchołazy", "addr:city:simc": "0965341", "addr:housenumber": "2", "addr:postcode": "48-340", "addr:street": "Józefa Lompy", "addr:street:sym_ul": "11246", "amenity": "hospital", "building": "hospital", "name": "Szpital nr 2", "operator": "Samodzielny Publiczny Zakład Opieki Zdrowotnej ZOZ w Głuchołazach", "source": "http://sdi.opolskie.pl/mapa_bazowa/request.aspx", "source:addr": "glucholazy.e-mapa.net", "website": "http://www.zoz.glucholazy.pl/"}}, {"name": "Podhorská nemocnice a.s.", "latitude": 49.931376, "longitude": 17.2621542, "source": "osm", "_tags": {"amenity": "hospital", "check_date": "2024-09-10", "name": "Podhorská nemocnice a.s."}}, {"name": "", "latitude": 49.7928485, "longitude": 17.6285184, "source": "osm", "_tags": {"amenity": "hospital", "building": "civic", "building:levels": "1", "building:ruian:type": "5", "healthcare": "hospital", "ref:ruian:building": "4322339", "source": "cuzk:ruian"}}, {"name": "", "latitude": 49.7927469, "longitude": 17.6285399, "source": "osm", "_tags": {"amenity": "hospital", "healthcare": "hospital"}}, {"name": "Nemocnice Odry", "latitude": 49.6655014, "longitude": 17.8276064, "source": "osm", "_tags": {"amenity": "hospital", "name": "Nemocnice Odry"}}, {"name": "Szpital nr 1", "latitude": 50.3158822, "longitude": 17.3854754, "source": "osm", "_tags": {"addr:city": "Głuchołazy", "addr:city:simc": "0965341", "addr:housenumber": "16", "addr:postcode": "48-340", "addr:street": "Marii Curie-Skłodowskiej", "addr:street:sym_ul": "03145", "amenity": "hospital", "building": "hospital", "name": "Szpital nr 1", "operator": "Samodzielny Publiczny Zakład Opieki Zdrowotnej ZOZ w Głuchołazach", "source": "http://sdi.opolskie.pl/mapa_bazowa/request.aspx", "source:addr": "glucholazy.e-mapa.net", "website": "http://www.zoz.glucholazy.pl/"}}, {"name": "Zespół Opieki Zdrowotnej - Szpital im. Świętej Elżbiety w Białej", "latitude": 50.3872287, "longitude": 17.6621585, "source": "osm", "_tags": {"amenity": "hospital", "email": "szpitalbiala@pro.onet.pl", "name": "Zespół Opieki Zdrowotnej - Szpital im. Świętej Elżbiety w Białej", "phone": "+48 77 438 70 33", "website": "https://szpitalbiala.pl/"}}, {"name": "Samodzielny Wojewódzki Szpital dla Nerwowo i Psychicznie Chorych im. Ks. Biskupa Nathana w Branicach", "latitude": 50.0539141, "longitude": 17.7962087, "source": "osm", "_tags": {"addr:city": "Branice", "addr:housenumber": "18A", "addr:postcode": "48-140", "addr:street": "Szpitalna", "amenity": "hospital", "building": "yes", "email": "branice@kki.net.pl", "fax": "+48774868446", "name": "Samodzielny Wojewódzki Szpital dla Nerwowo i Psychicznie Chorych im. Ks. Biskupa Nathana w Branicach", "phone": "+48774868140", "source": "http://sdi.opolskie.pl/mapa_bazowa/request.aspx"}}, {"name": "SP ZOZ Szpital Specjalistyczny MSWiA w Głuchołazach im. św. Jana Pawła II", "latitude": 50.3037138, "longitude": 17.3859901, "source": "osm", "_tags": {"addr:city": "Głuchołazy", "addr:postcode": "48-340", "addr:street": "Mieczysława Karłowicza", "amenity": "hospital", "email": "dyrekcja@szpitalmsw-glucholazy.pl", "fax": "+48 77 43 93 861", "name": "SP ZOZ Szpital Specjalistyczny MSWiA w Głuchołazach im. św. Jana Pawła II", "official_name": "Samodzielny Publiczny Zakład Opieki Zdrowotnej Szpital Specjalistyczny Ministerstwa Spraw Wewnętrznych i Administracji w Głuchołazach im. św. Jana Pawła II", "phone": "+48 77 40 80 123; +48 77 40 80 155; +48 77 40 80 168; +48 77 40 80 169", "short_name": "Szpital MSWiA Głuchołazy", "website": "https://szpitalmsw-glucholazy.pl/"}}, {"name": "Zakład Opiekuńczo-Leczniczy", "latitude": 50.3058228, "longitude": 17.3840098, "source": "osm", "_tags": {"addr:city": "Głuchołazy", "addr:postcode": "48-340", "addr:street": "Parkowa", "amenity": "hospital", "name": "Zakład Opiekuńczo-Leczniczy", "operator": "Samodzielny Publiczny Zakład Opieki Zdrowotnej w Głuchołazach", "short_name": "ZOL", "website": "https://zol-glucholazy.pl/"}}, {"name": "Nemocnice Přerov", "latitude": 49.4573843, "longitude": 17.4738018, "source": "osm", "_tags": {"amenity": "hospital", "brand": "Agel", "brand:wikidata": "Q41365932", "emergency": "yes", "healthcare": "hospital", "name": "Nemocnice Přerov", "website": "https://nemocniceprerov.agel.cz/"}}, {"name": "", "latitude": 49.554715, "longitude": 17.745277, "source": "osm", "_tags": {"amenity": "parking", "healthcare": "hospital"}}, {"name": "Vojenská nemocnice - chirurgie", "latitude": 49.5990606, "longitude": 17.2698746, "source": "osm", "_tags": {"amenity": "hospital", "emergency": "yes", "healthcare": "hospital", "name": "Vojenská nemocnice - chirurgie", "website": "https://www.vnol.cz/", "wheelchair": "yes"}}, {"name": "Šumperská nemocnice", "latitude": 49.9589588, "longitude": 16.9655489, "source": "osm", "_tags": {"amenity": "hospital", "healthcare": "hospital", "name": "Šumperská nemocnice", "website": "https://www.nemocnicesumperk.cz/"}}, {"name": "Szpital Powiatowy", "latitude": 50.3233523, "longitude": 17.5679171, "source": "osm", "_tags": {"amenity": "hospital", "name": "Szpital Powiatowy", "operator": "Prudnickie Centrum Medyczne S.A.", "website": "http://www.pcm.prudnik.pl", "wikidata": "Q86999320", "wikipedia": "pl:Szpital Powiatowy w Prudniku"}}, {"name": "Vojenská nemocnice", "latitude": 49.6066858, "longitude": 17.2653595, "source": "osm", "_tags": {"amenity": "hospital", "healthcare": "hospital", "name": "Vojenská nemocnice"}}, {"name": "Szpital w Głubczycach", "latitude": 50.2034706, "longitude": 17.8118881, "source": "osm", "_tags": {"amenity": "hospital", "healthcare": "hospital", "name": "Szpital w Głubczycach"}}, {"name": "Podhorská nemocnice", "latitude": 49.9946633, "longitude": 17.4702474, "source": "osm", "_tags": {"amenity": "hospital", "brand": "Agel", "brand:wikidata": "Q41365932", "contact:website": "https://nemocnicepodhorska.agel.cz/", "healthcare": "hospital", "name": "Podhorská nemocnice"}}, {"name": "Nemocnice Vítkov", "latitude": 49.7861688, "longitude": 17.7615657, "source": "osm", "_tags": {"CLC:id": "EU-1139588", "amenity": "hospital", "emergency": "no", "landuse": "residential", "name": "Nemocnice Vítkov", "source": "corine;bing"}}, {"name": "", "latitude": 49.934815, "longitude": 17.8812353, "source": "osm", "_tags": {"amenity": "hospital", "barrier": "fence", "healthcare": "hospital"}}]