[{"name": "Szpital Powiatowy w Sędziszowie Małopolskim", "latitude": 50.0692785, "longitude": 21.7002154, "source": "osm", "_tags": {"amenity": "hospital", "emergency": "yes", "name": "Szpital Powiatowy w Sędziszowie Małopolskim", "name:uk": "Районна Лікарня в Сендзішове Маопольским"}}, {"name": "Szpital Powiatowy w Nowej Dębie", "latitude": 50.420326, "longitude": 21.7553939, "source": "osm", "_tags": {"amenity": "hospital", "check_date": "2024-04-10", "email": "sekretariat@zoznowadeba.pl", "name": "Szpital Powiatowy w Nowej Dębie", "name:uk": "Лікаря", "phone": "15 846 26 51", "website": "https://zoznowadeba.pl"}}, {"name": "Szpital Powiatowy - Oddział internistyczny, gruźlicy i chorób płuc", "latitude": 50.4197807, "longitude": 21.7518458, "source": "osm", "_tags": {"amenity": "hospital", "email": "sekretariat@zoznowadeba.pl", "name": "Szpital Powiatowy - Oddział internistyczny, gruźlicy i chorób płuc", "phone": "15 846 26 51", "website": "https://zoznowadeba.pl"}}, {"name": "Szpital Powiatowy w Strzyżowie", "latitude": 49.8695604, "longitude": 21.7841222, "source": "osm", "_tags": {"amenity": "hospital", "building": "hospital", "name": "Szpital Powiatowy w Strzyżowie", "name:uk": "Районна Лікарня в Стжижові"}}, {"name": "Sanatorium Polonia", "latitude": 49.5428505, "longitude": 21.8479923, "source": "osm", "_tags": {"addr:city": "Rymanów-Zdrój", "addr:housenumber": "1", "addr:postcode": "38-481", "addr:street": "Anny i Jana Potockich", "amenity": "hospital", "description": "Podkarpackie Centrum Rehabilitacji Kardiologicznej", "email": "kardiologia@uzdrowisko-rymanow.com.pl", "leisure": "resort", "name": "Sanatorium Polonia", "name:uk": "Санаторій Полонія", "phone": "+4813 43 574 18"}}, {"name": "Sanatorium Uzdrowiskowe Zimowit", "latitude": 49.5425626, "longitude": 21.8538101, "source": "osm", "_tags": {"addr:city": "Rymanów-Zdrój", "addr:housenumber": "4", "addr:postcode": "38-481", "addr:street": "Parkowa", "amenity": "hospital", "description": "Szpital Uzdrowiskowy", "emergency": "no", "healthcare": "hospital", "leisure": "resort", "name": "Sanatorium Uzdrowiskowe Zimowit", "name:uk": "Санаторій Здравниці Zimowit", "phone": "+4813 43 572 31", "website": "http://uzdrowisko-rymanow.com.pl/uzdrowisko/obiekty/szpital-uzdrowiskowy-zimowit/"}}, {"name": "Zespół Opieki Zdrowotnej Szpital Psychiatryczny", "latitude": 50.0583892, "longitude": 21.3686481, "source": "osm", "_tags": {"addr:housenumber": "295", "addr:place": "Straszęcin", "addr:postcode": "39-218", "amenity": "hospital", "building": "yes", "name": "Zespół Opieki Zdrowotnej Szpital Psychiatryczny", "name:uk": "Спілка охорони здоров'я Психіатрична лікарня"}}, {"name": "Szpital Specjalistyczny im. Edmunda Biernackiego", "latitude": 50.2885766, "longitude": 21.4383966, "source": "osm", "_tags": {"alt_name": "Szpital Specjalistyczny im. E. Biernackiego", "amenity": "hospital", "email": "poczta@szpital.mielec.pl", "healthcare": "hospital", "internet_access": "wlan", "internet_access:fee": "no", "name": "Szpital Specjalistyczny im. Edmunda Biernackiego", "name:uk": "Спеціалізована Лікарня ім. Едмунда Бернацкего", "official_name": "Szpital Specjalistyczny im. Edmunda Biernackiego w Mielcu", "phone": "+48 177800100", "reg_name": "Szpital Powiatowy im. Edmunda Biernackiego", "website": "https://szpital.mielec.pl"}}, {"name": "Szpital Specjalistyczny im. H. Klimontowicza", "latitude": 49.6512445, "longitude": 21.1637553, "source": "osm", "_tags": {"amenity": "hospital", "name": "Szpital Specjalistyczny im. H. Klimontowicza", "website": "https://www.szpital.gorlice.pl/"}}, {"name": "Szpital Powiatowy im. Jana Pawła II w Kolbuszowej", "latitude": 50.2422185, "longitude": 21.7619119, "source": "osm", "_tags": {"amenity": "hospital", "email": "sekretariat@szpital.kolbuszowa.pl", "emergency": "yes", "healthcare": "hospital", "name": "Szpital Powiatowy im. Jana Pawła II w Kolbuszowej", "name:uk": "Районна Лікарня в Кобушові", "phone": "+48 17 227 12 22", "website": "https://www.szpital.kolbuszowa.pl/"}}, {"name": "Szpital im.Sebastiana Petrycego", "latitude": 50.1771533, "longitude": 20.9766663, "source": "osm", "_tags": {"addr:city": "Dąbrowa Tarnowska", "addr:housenumber": "1", "addr:postcode": "33-200", "addr:street": "Szpitalna", "amenity": "hospital", "emergency": "no", "healthcare": "hospital", "name": "Szpital im.Sebastiana Petrycego", "note": "Całodobowa Opieka Medyczna", "opening_hours": "24/7", "phone": "+48 14 642 28 31", "source": "http://ump.waw.pl/%20retrieved%2011:18:52%2011/17/09%20(UMP-Tarnow/src/POI-szpitale.pnt-converted.txt)", "website": "https://zozdt.pl/"}}, {"name": "Sanatorium Eskulap", "latitude": 49.5465384, "longitude": 21.8515285, "source": "osm", "_tags": {"addr:city": "Rymanów-Zdrój", "addr:housenumber": "5", "addr:postcode": "38-481", "addr:street": "Parkowa", "amenity": "hospital", "description": "Szpital Uzdrowiskowy", "leisure": "resort", "name": "Sanatorium Eskulap", "name:uk": "Санаторій Ескулап", "phone": "+4813 43 574 64", "website": "http://uzdrowisko-rymanow.com.pl/uzdrowisko/obiekty/szpital-uzdrowiskowy-eskulap/#*"}}, {"name": "Szpital Specjalistyczny im. H. Klimontowicza", "latitude": 49.6489001, "longitude": 21.1636198, "source": "osm", "_tags": {"amenity": "hospital", "name": "Szpital Specjalistyczny im. H. Klimontowicza"}}, {"name": "", "latitude": 49.7523589, "longitude": 21.4801372, "source": "osm", "_tags": {"amenity": "hospital", "healthcare": "hospital"}}, {"name": "Centrum Zdrowia Tuchów", "latitude": 49.8930957, "longitude": 21.0610649, "source": "osm", "_tags": {"addr:city": "Tuchów", "addr:housenumber": "1", "addr:postcode": "33-170", "addr:street": "Szpitalna", "amenity": "hospital", "healthcare": "hospital", "name": "Centrum Zdrowia Tuchów"}}, {"name": "Wojewódzki Szpital Podkarpacki im. Jana Pawła II w Krośnie", "latitude": 49.7028306, "longitude": 21.7837066, "source": "osm", "_tags": {"amenity": "hospital", "email": "szpital@krosno.med.pl", "healthcare": "hospital", "name": "Wojewódzki Szpital Podkarpacki im. Jana Pawła II w Krośnie", "name:uk": "Підкарпатська Обласна Лікарня", "phone": "13 43 78 000", "website": "https://www.krosno.med.pl", "wheelchair": "yes"}}, {"name": "Szpital Wojewódzki im. Świętego Łukasza", "latitude": 50.0139523, "longitude": 21.0326422, "source": "osm", "_tags": {"addr:city": "Tarnów", "addr:housenumber": "178a", "addr:street": "Lwowska", "amenity": "hospital", "emergency": "yes", "healthcare": "hospital", "name": "Szpital Wojewódzki im. Świętego Łukasza", "phone": "+48146315000", "source": "http://ump.waw.pl/ retrieved 11:18:52 11/17/09 (UMP-Tarnow/src/POI-szpitale.pnt-converted.txt)"}}, {"name": "Szpital Specjalistyczny im. Szczeklika", "latitude": 50.0167406, "longitude": 20.9947025, "source": "osm", "_tags": {"addr:city": "Tarnów", "addr:street": "Szpitalna", "amenity": "hospital", "healthcare": "hospital", "name": "Szpital Specjalistyczny im. Szczeklika", "phone": "+48 14 631 03 40", "source": "http://ump.waw.pl/ retrieved 11:18:52 11/17/09 (UMP-Tarnow/src/POI-szpitale.pnt-converted.txt)", "website": "https://www.ssz.tar.pl/", "wikidata": "Q30270287"}}, {"name": "Wojewódzki Szpital Podkarpacki im. Jana Pawła II w Krośnie", "latitude": 49.6845606, "longitude": 21.7658983, "source": "osm", "_tags": {"amenity": "hospital", "email": "szpital@krosno.med.pl", "healthcare": "hospital", "name": "Wojewódzki Szpital Podkarpacki im. Jana Pawła II w Krośnie", "name:uk": "Підкарпатська Обласна Лікарня", "phone": "13 43 78 000", "website": "https://www.krosno.med.pl", "wheelchair": "yes"}}, {"name": "Szpital Powiatowy", "latitude": 50.0389023, "longitude": 21.393518, "source": "osm", "_tags": {"amenity": "hospital", "healthcare": "hospital", "name": "Szpital Powiatowy", "name:uk": "Районна Лікарня"}}, {"name": "Szpital Specjalistyczny w Jaśle Oddział Psychiatryczny", "latitude": 49.7423356, "longitude": 21.4643734, "source": "osm", "_tags": {"amenity": "hospital", "healthcare": "hospital", "healthcare:speciality": "psychiatry", "name": "Szpital Specjalistyczny w Jaśle Oddział Psychiatryczny", "name:uk": "Спеціальна Лікарня Ясле Психіатричне Відділення", "operator": "Szpital Specjalistyczny w Jaśle", "operator:type": "public"}}, {"name": "Orti Szpital Chirurgii Jednego Dnia w Zimnej Wodzie", "latitude": 49.7585437, "longitude": 21.5593192, "source": "osm", "_tags": {"amenity": "hospital", "barrier": "fence", "email": "aiwaniec@onet.pl", "name": "Orti Szpital Chirurgii Jednego Dnia w Zimnej Wodzie", "website": "https://rejestrmedyczny.pl/rpwdl/podmiot/000000229281/"}}, {"name": "", "latitude": 50.0385168, "longitude": 21.3940474, "source": "osm", "_tags": {"amenity": "hospital", "healthcare": "hospital"}}, {"name": "Szpital Powiatowy im. Jana Pawła II w Kolbuszowej", "latitude": 50.2441346, "longitude": 21.7799895, "source": "osm", "_tags": {"amenity": "hospital", "email": "sekretariat@szpital.kolbuszowa.pl", "emergency": "yes", "healthcare": "hospital", "loc_name": "Sztuczna Nerka", "name": "Szpital Powiatowy im. Jana Pawła II w Kolbuszowej", "name:uk": "Районна Лікарня в Кольбушові", "phone": "+48 17 227 12 22", "website": "https://www.szpital.kolbuszowa.pl/oddzial-nefrologii-i-dializoterapii/"}}]