[{"name": "Krankenhaus Tirschenreuth", "latitude": 49.8852041, "longitude": 12.3320245, "source": "osm", "_tags": {"addr:city": "Tirschenreuth", "addr:country": "DE", "addr:housenumber": "31", "addr:postcode": "95643", "addr:street": "St.-Peter-Straße", "amenity": "hospital", "emergency": "yes", "healthcare": "hospital", "name": "Krankenhaus Tirschenreuth", "operator": "Kliniken Nordoberpfalz AG", "phone": "+49 9631 870", "website": "https://www.kliniken-nordoberpfalz.de/tirschenreuth/", "wheelchair": "yes", "wikidata": "Q14956893", "wikipedia": "de:Krankenhaus Tirschenreuth"}}, {"name": "REHOS Nejdek", "latitude": 50.3290788, "longitude": 12.7413515, "source": "osm", "_tags": {"amenity": "hospital", "emergency": "no", "name": "REHOS Nejdek", "website": "http://www.rehos-nejdek.cz/"}}, {"name": "Klinikum Fichtelgebirge (Haus Marktredwitz)", "latitude": 50.0018257, "longitude": 12.0662375, "source": "osm", "_tags": {"addr:city": "Marktredwitz", "addr:country": "DE", "addr:housenumber": "1-8", "addr:postcode": "95615", "addr:street": "Schillerhain", "amenity": "hospital", "emergency": "yes", "fax": "+49 9231 8091409", "healthcare": "hospital", "name": "Klinikum Fichtelgebirge (Haus Marktredwitz)", "operator": "Klinikum Fichtelgebirge gGmbH", "phone": "+49 9231 8090", "website": "https://klinikum-fichtelgebirge.de/", "wheelchair": "yes"}}, {"name": "Steinwaldklinik Erbendorf", "latitude": 49.8370246, "longitude": 12.0438951, "source": "osm", "_tags": {"addr:city": "Erbendorf", "addr:housenumber": "5", "addr:postcode": "92681", "addr:street": "Krankenhaustraße", "amenity": "hospital", "emergency": "no", "name": "Steinwaldklinik Erbendorf", "note": "Fachklinik für Geriatrische Rehabilitation", "operator": "Kliniken Nordoberpfalz AG", "phone": "+49 9682 930-0", "toilets:wheelchair": "yes", "website": "https://www.kliniken-nordoberpfalz.de/erbendorf/", "wheelchair": "yes"}}, {"name": "Klinikum Fichtelgebirge (Haus Selb)", "latitude": 50.1689972, "longitude": 12.1182996, "source": "osm", "_tags": {"addr:city": "Selb", "addr:country": "DE", "addr:housenumber": "62", "addr:postcode": "95100", "addr:street": "Weißenbacher Straße", "amenity": "hospital", "healthcare": "hospital", "name": "Klinikum Fichtelgebirge (Haus Selb)", "phone": "+49 9287 9710", "toilets:wheelchair": "yes", "website": "https://klinikum-fichtelgebirge.de/", "wheelchair": "yes"}}, {"name": "Zahnarzt Freudenberg - Praxis für Zahnheilkunde Freudenberg Dr. Krammer und Kollegen", "latitude": 49.4799368, "longitude": 11.9813885, "source": "osm", "_tags": {"addr:city": "Freudenberg", "addr:housenumber": "36a", "addr:postcode": "92272", "addr:street": "Hauptstraße", "amenity": "hospital", "healthcare": "hospital", "healthcare:speciality": "dentist", "name": "Zahnarzt Freudenberg - Praxis für Zahnheilkunde Freudenberg Dr. Krammer und Kollegen", "operator": "Dr. Krammer", "operator:type": "public"}}, {"name": "Rescue point", "latitude": 49.7425716, "longitude": 12.4100745, "source": "osm", "_tags": {"addr:place": "Pavlův Studenec 1", "amenity": "hospital", "description": "Automatic non-stop communication rescue point", "email": "zsrr@email.cz", "healthcare": "centre", "healthcare:speciality": "emergency", "mobile": "+420 724 800 500", "name": "Rescue point", "opening_hours": "24/7", "operator": "Záchranná služba RR", "operator:type": "private_non_profit", "website": "https://zs-rr.cz/"}}, {"name": "Záchranná služba Royal Rangers", "latitude": 49.8519028, "longitude": 12.8428918, "source": "osm", "_tags": {"amenity": "hospital", "contact:facebook": "https://zs-rr.cz/", "email": "zsrr@email.cz", "healthcare": "hospital", "healthcare:speciality": "emergency", "mobile": "+420 724 800 500", "name": "Záchranná služba Royal Rangers", "operator": "Záchranná služba Royal Rangers", "operator:type": "charitable"}}, {"name": "Krankenhaus Oberviechtach", "latitude": 49.461705, "longitude": 12.4120378, "source": "osm", "_tags": {"addr:city": "Oberviechtach", "addr:country": "DE", "addr:housenumber": "15", "addr:postcode": "92526", "addr:street": "Teunzer Straße", "amenity": "hospital", "beds": "40", "emergency": "yes", "name": "Krankenhaus Oberviechtach", "phone": "+49 9671 9300", "toilets:wheelchair": "no", "website": "https://www.asklepios.com/klinik/default.aspx?name=Asklepios_Klinik_Oberviechtach", "wheelchair": "limited"}}, {"name": "Klinikum Weiden", "latitude": 49.6808915, "longitude": 12.1664627, "source": "osm", "_tags": {"addr:city": "Weiden i.d.OPf.", "addr:country": "DE", "addr:housenumber": "16", "addr:postcode": "92637", "addr:street": "Söllnerstraße", "amenity": "hospital", "check_date": "2024-08-08", "emergency": "yes", "fixme": "Genaue Ausdehnung in Nordwestlicher Richtung unbekannt: Ist der Parkplatz noch Teil des Klinikums?", "healthcare": "hospital", "name": "Klinikum Weiden", "official_name": "Kliniken Nordoberpfalz AG", "website": "https://www.kliniken-nordoberpfalz.ag/", "wheelchair": "yes"}}, {"name": "Klinik Schöneck", "latitude": 50.3971983, "longitude": 12.3359648, "source": "osm", "_tags": {"amenity": "hospital", "check_date": "2024-07-05", "contact:fax": "+49 37464 851712", "contact:phone": "+49 37464 850", "contact:website": "https://www.paracelsus-kliniken.de/schoeneck.html", "emergency": "yes", "healthcare": "hospital", "name": "Klinik Schöneck", "operator": "Paracelsus-Kliniken Deutschland GmbH & Co. KGaA", "wheelchair": "yes"}}, {"name": "Swiss Medic Clinic", "latitude": 49.8696283, "longitude": 12.749691, "source": "osm", "_tags": {"amenity": "hospital", "building": "civic", "building:ruian:type": "15", "name": "Swiss Medic Clinic", "ref:ruian:building": "49212591", "source": "cuzk:ruian"}}, {"name": "Bezirksklinikum Wöllershof", "latitude": 49.7488432, "longitude": 12.1796716, "source": "osm", "_tags": {"addr:housenumber": "1", "addr:postcode": "92721", "addr:street": "Wöllershof", "amenity": "hospital", "name": "Bezirksklinikum Wöllershof"}}, {"name": "Krankenhaus Neustadt", "latitude": 49.7247774, "longitude": 12.1726031, "source": "osm", "_tags": {"addr:city": "Neustadt an der Waldnaab", "addr:country": "DE", "addr:housenumber": "9", "addr:postcode": "92660", "addr:street": "Felixallee", "amenity": "hospital", "building": "yes", "contact:website": "http://www.kliniken-nordoberpfalz.de/neustadt/", "name": "Krankenhaus Neustadt"}}, {"name": "Nemocnice následné péče Svatá Anna", "latitude": 49.8797245, "longitude": 12.7219381, "source": "osm", "_tags": {"amenity": "hospital", "building": "hospital", "building:levels": "1", "building:ruian:type": "15", "contact:databox": "dzmpvbw", "email": "info@nnp.cz", "healthcare": "hospital", "name": "Nemocnice následné péče Svatá Anna", "phone": "+420 374 751 911", "ref:ruian:building": "15544826", "source": "cuzk:ruian", "website": "http://www.nnp.cz/"}}, {"name": "Karlovarská krajská nemocnice a.s.", "latitude": 50.2330465, "longitude": 12.8761044, "source": "osm", "_tags": {"amenity": "hospital", "barrier": "fence", "healthcare": "hospital", "name": "Karlovarská krajská nemocnice a.s."}}, {"name": "Územní zdravotnická záchranná služba Karlovarského kraje", "latitude": 50.2208144, "longitude": 12.8252387, "source": "osm", "_tags": {"addr:city": "Karlovy Vary", "addr:housenumber": "390/98C", "addr:postcode": "36006", "addr:street": "Závodní", "amenity": "hospital", "building": "civic", "building:levels": "4", "building:ruian:type": "15", "emergency": "yes", "healthcare": "hospital", "name": "Územní zdravotnická záchranná služba Karlovarského kraje", "ref:ruian:building": "51498588", "source": "cuzk:ruian", "start_date": "2012-08-10"}}, {"name": "Nemocnice Mariánské Lázně", "latitude": 49.9609082, "longitude": 12.7040259, "source": "osm", "_tags": {"amenity": "hospital", "building": "civic", "building:levels": "1", "building:ruian:type": "5", "healthcare": "hospital", "name": "Nemocnice Mariánské Lázně", "ref:ruian:building": "24806935", "source": "cuzk:ruian"}}, {"name": "Ärztehaus", "latitude": 49.6341517, "longitude": 12.0582094, "source": "osm", "_tags": {"amenity": "hospital", "name": "Ärztehaus"}}, {"name": "Klinik Adorf", "latitude": 50.3292314, "longitude": 12.2900372, "source": "osm", "_tags": {"addr:city": "Adorf/Vogtland", "addr:country": "DE", "addr:housenumber": "51", "addr:postcode": "08626", "addr:street": "Sorger Straße", "amenity": "hospital", "contact:fax": "+49 37423 792712", "contact:phone": "+49 37423 790", "contact:website": "https://www.paracelsus-kliniken.de/adorf.html", "emergency": "yes", "healthcare": "hospital", "name": "Klinik Adorf", "operator": "Paracelsus-Kliniken Deutschland GmbH & Co. KGaA"}}, {"name": "Nemocnice Sokolov", "latitude": 50.1776985, "longitude": 12.6514559, "source": "osm", "_tags": {"addr:city": "Sokolov", "addr:postcode": "35601", "addr:street": "Bratislavská", "amenity": "hospital", "contact:website": "https://www.pentahospitals.cz/nemocnice-sokolov/", "healthcare": "hospital", "name": "Nemocnice Sokolov", "operator": "Penta Hospitals", "operator:type": "public", "operator:wikidata": "Q106671960"}}, {"name": "", "latitude": 50.3291574, "longitude": 12.7414584, "source": "osm", "_tags": {"amenity": "hospital"}}, {"name": "Nemocnice Domažlice", "latitude": 49.4379913, "longitude": 12.9080969, "source": "osm", "_tags": {"amenity": "hospital", "healthcare": "hospital", "name": "Nemocnice Domažlice", "type": "multipolygon", "website": "http://www.donem.cz/"}}, {"name": "Nemocnice Cheb", "latitude": 50.0696803, "longitude": 12.3659941, "source": "osm", "_tags": {"amenity": "hospital", "healthcare": "hospital", "name": "Nemocnice Cheb", "type": "multipolygon", "website": "https://nemcheb.cz/"}}]