[{"name": "Дитяче відділення", "latitude": 49.4864738, "longitude": 29.2479142, "source": "osm", "_tags": {"amenity": "hospital", "name": "Дитяче відділення", "name:uk": "Дитяче відділення"}}, {"name": "Станція переливання крові", "latitude": 49.4866877, "longitude": 29.2475666, "source": "osm", "_tags": {"amenity": "hospital", "name": "Станція переливання крові", "name:uk": "Станція переливання крові"}}, {"name": "Хірургія", "latitude": 49.485448, "longitude": 29.2488696, "source": "osm", "_tags": {"amenity": "hospital", "name": "Хірургія", "name:uk": "Хірургія"}}, {"name": "Травматологія", "latitude": 49.4851779, "longitude": 29.2485316, "source": "osm", "_tags": {"amenity": "hospital", "name": "Травматологія", "name:uk": "Травматологія"}}, {"name": "Поліклініка", "latitude": 50.3148376, "longitude": 29.0578626, "source": "osm", "_tags": {"building": "yes", "healthcare": "hospital", "name": "Поліклініка", "name:uk": "Поліклініка"}}, {"name": "Погребищенська ЦРЛ", "latitude": 49.4860523, "longitude": 29.2479804, "source": "osm", "_tags": {"amenity": "hospital", "name": "Погребищенська ЦРЛ", "name:ru": "Погребищенская ЦРБ", "name:uk": "Погребищенська ЦРЛ"}}, {"name": "Ветеринарна поліклініка", "latitude": 49.4948524, "longitude": 29.248214, "source": "osm", "_tags": {"amenity": "hospital", "building": "yes", "name": "Ветеринарна поліклініка", "name:uk": "Ветеринарна поліклініка"}}, {"name": "Стоматологічний кабінет", "latitude": 49.4971449, "longitude": 29.2703695, "source": "osm", "_tags": {"amenity": "hospital", "building": "yes", "name": "Стоматологічний кабінет", "name:ru": "Стоматологический кабинет", "name:uk": "Стоматологічний кабінет"}}, {"name": "Коростишівська ЦРЛ ім. Д. І. Потєхіна", "latitude": 50.3140811, "longitude": 29.0569892, "source": "osm", "_tags": {"amenity": "hospital", "healthcare": "hospital", "name": "Коростишівська ЦРЛ ім. Д. І. Потєхіна", "name:en": "Korostyshiv D.I.Potiekhin Central Raion Clinic", "name:uk": "Коростишівська ЦРЛ ім. Д. І. Потєхіна"}}, {"name": "", "latitude": 50.098702, "longitude": 28.9510788, "source": "osm", "_tags": {"amenity": "hospital", "healthcare": "hospital"}}, {"name": "Ружинська районна лікарня", "latitude": 49.7237665, "longitude": 29.2090342, "source": "osm", "_tags": {"amenity": "hospital", "check_date": "2025-02-17", "contact:email": "ruzpmsd@gmail.com", "healthcare": "hospital", "internet_access": "no", "name": "Ружинська районна лікарня", "name:uk": "Ружинська районна лікарня", "phone": "+380 67 760 5034;+380 4138 31 861", "wheelchair": "yes"}}, {"name": "Андрушівська центральна районна лікарня", "latitude": 50.0010778, "longitude": 29.0291177, "source": "osm", "_tags": {"amenity": "hospital", "name": "Андрушівська центральна районна лікарня", "name:uk": "Андрушівська центральна районна лікарня", "phone": "+380 4136 21 791"}}, {"name": "", "latitude": 49.7246903, "longitude": 29.2086305, "source": "osm", "_tags": {"amenity": "hospital", "check_date": "2025-02-17", "healthcare": "hospital", "internet_access": "no"}}]