[{"name": "Léčebna dlouhodobě nemocných", "latitude": 50.2121256, "longitude": 15.8399194, "source": "osm", "_tags": {"amenity": "hospital", "check_date": "2024-10-14", "healthcare": "hospital", "name": "Léčebna dlouhodobě nemocných", "website": "https://www.ldnhk.cz/"}}, {"name": "", "latitude": 50.3688294, "longitude": 15.6399156, "source": "osm", "_tags": {"amenity": "hospital", "emergency": "yes", "healthcare": "hospital", "source": "local knowledge"}}, {"name": "Pardubická krajská nemocnice", "latitude": 50.028965, "longitude": 15.7878801, "source": "osm", "_tags": {"addr:city": "Pardubice", "addr:housenumber": "44", "addr:postcode": "53003", "addr:street": "Kyjevská", "amenity": "hospital", "barrier": "fence", "check_date:website": "2024-09-15", "email": "info@nempk.cz", "emergency": "no", "healthcare": "hospital", "name": "Pardubická krajská nemocnice", "phone": "+420 466 011 111", "website": "https://www.nempk.cz", "wikidata": "Q30258599"}}, {"name": "Nemocnice Nový Bydžov", "latitude": 50.2426581, "longitude": 15.4813481, "source": "osm", "_tags": {"amenity": "hospital", "healthcare": "hospital", "name": "Nemocnice Nový Bydžov"}}, {"name": "Oblastní nemocnice Náchod - Nemocnice Jaroměř", "latitude": 50.3574517, "longitude": 15.9063431, "source": "osm", "_tags": {"amenity": "hospital", "healthcare": "hospital", "name": "Oblastní nemocnice Náchod - Nemocnice Jaroměř", "source": "uhul:ortofoto"}}, {"name": "Fakultní nemocnice", "latitude": 50.197654, "longitude": 15.826707, "source": "osm", "_tags": {"amenity": "hospital", "contact:website": "https://www.fnhk.cz/", "emergency": "yes", "healthcare": "hospital", "name": "Fakultní nemocnice"}}, {"name": "Domov pod Kuňkou", "latitude": 50.0709362, "longitude": 15.8054186, "source": "osm", "_tags": {"amenity": "hospital", "barrier": "fence", "healthcare": "hospital", "name": "Domov pod Kuňkou"}}, {"name": "Chrudimská nemocnice", "latitude": 49.9415714, "longitude": 15.808059, "source": "osm", "_tags": {"amenity": "hospital", "healthcare": "hospital", "name": "Chrudimská nemocnice", "website": "https://chrudim.nempk.cz/"}}, {"name": "Psychiatrická nemocnice", "latitude": 49.613946, "longitude": 15.5641885, "source": "osm", "_tags": {"amenity": "hospital", "healthcare": "hospital", "name": "Psychiatrická nemocnice", "source": "uhul:ortofoto", "wikidata": "Q12047506", "wikipedia": "cs:Psychiatrická nemocnice Havlíčkův Brod"}}, {"name": "Psychiatrická nemocnice Kosmonosy - pobočka Sadská", "latitude": 50.1542321, "longitude": 14.9832694, "source": "osm", "_tags": {"amenity": "hospital", "healthcare": "hospital", "name": "Psychiatrická nemocnice Kosmonosy - pobočka Sadská"}}, {"name": "Nemocnice Pelhřimov", "latitude": 49.4347257, "longitude": 15.2304212, "source": "osm", "_tags": {"amenity": "hospital", "healthcare": "hospital", "name": "Nemocnice Pelhřimov"}}, {"name": "Nemocnice Nymburk", "latitude": 50.1870847, "longitude": 15.0370879, "source": "osm", "_tags": {"amenity": "hospital", "contact:website": "http://www.nemnbk.cz/", "emergency": "yes", "healthcare": "hospital", "name": "Nemocnice Nymburk"}}, {"name": "Městská nemocnice Čáslav", "latitude": 49.9041723, "longitude": 15.4013311, "source": "osm", "_tags": {"amenity": "hospital", "emergency": "yes", "healthcare": "hospital", "name": "Městská nemocnice Čáslav"}}, {"name": "Stará fakultní nemocnice", "latitude": 50.2088706, "longitude": 15.8410739, "source": "osm", "_tags": {"amenity": "hospital", "healthcare": "hospital", "name": "Stará fakultní nemocnice"}}, {"name": "Psychiatrická nemocnice Kosmonosy, pracoviště Sadská", "latitude": 50.1519337, "longitude": 14.9815841, "source": "osm", "_tags": {"addr:city": "Sadská", "addr:housenumber": "515", "addr:postcode": "28912", "addr:street": "Lázeňská", "amenity": "hospital", "email": "hts@lsadska.cz", "fax": "+420325594559", "healthcare": "hospital", "name": "Psychiatrická nemocnice Kosmonosy, pracoviště Sadská", "phone": "+420325594473"}}, {"name": "Nemocnice Kutná Hora", "latitude": 49.9461636, "longitude": 15.2534596, "source": "osm", "_tags": {"amenity": "hospital", "emergency": "yes", "healthcare": "hospital", "name": "Nemocnice Kutná Hora", "operator": "Oblastní nemocnice Kolín, a.s., nemocnice Středočeského kraje", "operator:type": "public", "wikidata": "Q12040650", "wikimedia_commons": "Category:Nemocnice_Kutná_Hora", "wikipedia": "cs:Nemocnice Kutná Hora"}}, {"name": "Sanus", "latitude": 50.2043183, "longitude": 15.8230965, "source": "osm", "_tags": {"amenity": "hospital", "check_date": "2025-10-06", "contact:website": "https://www.sanus.cz/", "emergency": "no", "healthcare": "hospital", "name": "Sanus"}}, {"name": "Poliklinika Poděbrady", "latitude": 50.1451438, "longitude": 15.1299562, "source": "osm", "_tags": {"amenity": "hospital", "healthcare": "hospital", "name": "Poliklinika Poděbrady", "website": "https://poliklinikapodebrady.cz/"}}, {"name": "Dětská léčebna Dr. Filipa", "latitude": 50.1469592, "longitude": 15.1196213, "source": "osm", "_tags": {"amenity": "hospital", "email": "filip.podebrady@seznam.cz", "healthcare": "hospital", "name": "Dětská léčebna Dr. Filipa", "operator": "Lázně Poděbrady, a.s.", "phone": "+420 325 612 907", "website": "https://www.lazne-podebrady.cz/detska-lecebna-dr-filipa", "wikidata": "Q110947022"}}, {"name": "Městská nemocnice Městec Králové", "latitude": 50.2054613, "longitude": 15.2880619, "source": "osm", "_tags": {"amenity": "hospital", "healthcare": "hospital", "name": "Městská nemocnice Městec Králové"}}, {"name": "Oblastní nemocnice Kolín", "latitude": 50.0193658, "longitude": 15.1937911, "source": "osm", "_tags": {"amenity": "hospital", "contact:facebook": "https://www.facebook.com/pages/Oblastn%C3%AD-nemocnice-Kol%C3%ADn-as/237832082900135", "contact:instagram": "https://www.instagram.com/nemocnicekolin", "healthcare": "hospital", "name": "Oblastní nemocnice Kolín", "operator": "Středočeský kraj", "operator:ref:ico": "27256391", "phone": "+420 321 756 111", "website": "https://www.nemocnicekolin.cz/", "wheelchair": "yes", "wikidata": "Q15091755"}}, {"name": "", "latitude": 50.3685516, "longitude": 15.6394523, "source": "osm", "_tags": {"amenity": "hospital", "healthcare": "hospital"}}, {"name": "Váš praktik Stěžery", "latitude": 50.2159104, "longitude": 15.747274, "source": "osm", "_tags": {"amenity": "hospital", "healthcare": "hospital", "name": "Váš praktik Stěžery"}}, {"name": "Nemocnice Havlíčkův Brod", "latitude": 49.6098287, "longitude": 15.5711335, "source": "osm", "_tags": {"amenity": "hospital", "healthcare": "hospital", "name": "Nemocnice Havlíčkův Brod", "source": "cuzk:ruian", "type": "multipolygon", "website": "https://www.nemhb.cz/"}}]