[{"name": "Ústav leteckého zdravotnictví Praha", "latitude": 50.0980038, "longitude": 14.3940382, "source": "osm", "_tags": {"addr:city": "Praha 6", "addr:conscriptionnumber": "229", "addr:housenumber": "229/1", "addr:postcode": "16000", "addr:street": "Generála Píky", "addr:streetnumber": "1", "amenity": "hospital", "full_name": "Ústav leteckého zdravotnictví", "healthcare": "hospital", "name": "Ústav leteckého zdravotnictví Praha", "name:en": "Institute of Aviation Medicine", "source:addr": "cuzk:ruian", "website": "https://www.ulc.cz/"}}, {"name": "Nemocnice na Žižkově", "latitude": 50.0817424, "longitude": 14.4478868, "source": "osm", "_tags": {"addr:city": "Praha", "addr:conscriptionnumber": "1250", "addr:country": "CZ", "addr:housenumber": "1250/16", "addr:place": "Žižkov", "addr:postcode": "13000", "addr:street": "Kubelíkova", "addr:streetnumber": "16", "addr:suburb": "Praha 3", "amenity": "hospital", "healthcare": "hospital", "name": "Nemocnice na Žižkově", "operator": "řádu Milosrdných sester sv. Kříže", "phone": "+420 221 012 211", "source:addr": "cuzk:ruian", "source:loc": "survey", "website": "https://www.nskz.cz/"}}, {"name": "Léčebna dlouhodobě nemocných Vojkov", "latitude": 49.9844906, "longitude": 14.7169792, "source": "osm", "_tags": {"amenity": "hospital", "emergency": "no", "name": "Léčebna dlouhodobě nemocných Vojkov"}}, {"name": "Nemocnice Na Podolí", "latitude": 50.3570385, "longitude": 14.475532, "source": "osm", "_tags": {"addr:city": "Mělník", "addr:conscriptionnumber": "715", "addr:country": "CZ", "addr:housenumber": "715/14", "addr:postcode": "27601", "addr:street": "Bezručova", "addr:streetnumber": "14", "amenity": "hospital", "healthcare": "hospital", "name": "Nemocnice Na Podolí", "website": "https://www.nemocnice-melnik.cz/luzkove/689-2/"}}, {"name": "Nemocnice Mělník - ARO", "latitude": 50.3473902, "longitude": 14.4843319, "source": "osm", "_tags": {"amenity": "doctors", "healthcare": "hospital", "healthcare:speciality": "anaesthetics", "name": "Nemocnice Mělník - ARO"}}, {"name": "Nemocnice Mělník - Dialýza", "latitude": 50.3483352, "longitude": 14.4848873, "source": "osm", "_tags": {"amenity": "doctors", "healthcare": "hospital", "healthcare:speciality": "dialysis", "name": "Nemocnice Mělník - Dialýza"}}, {"name": "Nemocnice Mělník - Gynekologicko - Porodnické oddělení", "latitude": 50.3472309, "longitude": 14.4855585, "source": "osm", "_tags": {"amenity": "doctors", "healthcare": "hospital", "healthcare:speciality": "gynaecology", "name": "Nemocnice Mělník - Gynekologicko - Porodnické oddělení"}}, {"name": "Nemocnice Mělník - Neurologie", "latitude": 50.3466783, "longitude": 14.4858829, "source": "osm", "_tags": {"amenity": "doctors", "healthcare": "hospital", "healthcare:speciality": "urology", "name": "Nemocnice Mělník - Neurologie"}}, {"name": "Nemocnice Mělník - Patologie", "latitude": 50.3480167, "longitude": 14.4857827, "source": "osm", "_tags": {"amenity": "doctors", "healthcare": "hospital", "healthcare:speciality": "pathology", "name": "Nemocnice Mělník - Patologie"}}, {"name": "Nemocnice Mělník - Plicní", "latitude": 50.3478566, "longitude": 14.4837883, "source": "osm", "_tags": {"amenity": "doctors", "healthcare": "hospital", "healthcare:speciality": "pulmonary", "name": "Nemocnice Mělník - Plicní"}}, {"name": "Nemocnice Roztoky", "latitude": 50.1574822, "longitude": 14.3949422, "source": "osm", "_tags": {"addr:city": "Roztoky", "addr:housenumber": "376", "addr:postcode": "25263", "addr:street": "Tiché údolí", "amenity": "hospital", "email": "sekretariat.roztoky@rhg.cz", "emergency": "no", "fax": "+420 220 910 027", "healthcare": "hospital", "name": "Nemocnice Roztoky", "operator": "RHG spol. s r.o.", "operator:type": "private", "phone": "+420 220 911 032", "ref:vatin": "CZ61852287", "website": "https://www.nemocniceroztoky.cz/"}}, {"name": "Nemocnice Mělník - Infekční oddělení", "latitude": 50.3467886, "longitude": 14.4860584, "source": "osm", "_tags": {"amenity": "doctors", "healthcare": "hospital", "healthcare:speciality": "infectious_diseases", "name": "Nemocnice Mělník - Infekční oddělení"}}, {"name": "Nemocnice Mělník - Interna", "latitude": 50.3466123, "longitude": 14.4857687, "source": "osm", "_tags": {"amenity": "doctors", "healthcare": "hospital", "healthcare:speciality": "internal", "name": "Nemocnice Mělník - Interna"}}, {"name": "Nemocnice Mělník - Ortopedie", "latitude": 50.3474331, "longitude": 14.4842532, "source": "osm", "_tags": {"amenity": "doctors", "healthcare": "hospital", "healthcare:speciality": "orthopaedics", "name": "Nemocnice Mělník - Ortopedie"}}, {"name": "Nemocnice Mělník - Chirurgie", "latitude": 50.3473458, "longitude": 14.4843873, "source": "osm", "_tags": {"amenity": "doctors", "healthcare": "hospital", "healthcare:speciality": "surgery", "name": "Nemocnice Mělník - Chirurgie"}}, {"name": "AMEM klinika estetické medicíny", "latitude": 50.0964573, "longitude": 14.3649244, "source": "osm", "_tags": {"addr:city": "Praha 6", "addr:postcode": "16000", "addr:street": "Na Dlouhéme lánu", "amenity": "clinic", "healthcare": "hospital", "healthcare:speciality": "plastic_surgery;estetická_medicína", "name": "AMEM klinika estetické medicíny", "operator": "KR institut s.r.o.", "operator:type": "private"}}, {"name": "IKEM", "latitude": 50.0231513, "longitude": 14.4635615, "source": "osm", "_tags": {"addr:city": "Praha", "addr:housenumber": "1958/9", "addr:postcode": "140 21", "addr:street": "Vídeňská", "alt_name": "Institut Klinické a Experimentální Medicíny", "amenity": "hospital", "healthcare": "hospital", "layer": "-1", "name": "IKEM", "name:etymology:wikidata": "Q12021666", "phone": "+420 23 605 1111", "website": "https://www.ikem.cz/cs/", "wikidata": "Q12021666", "wikipedia": "cs:IKEM"}}, {"name": "Ústav pro péči o matku a dítě", "latitude": 50.0623041, "longitude": 14.4197353, "source": "osm", "_tags": {"addr:city": "Praha 4", "addr:housenumber": "157", "addr:postcode": "14700", "addr:street": "Podolské nábřeží", "alt_name": "ÚPMD", "amenity": "hospital", "emergency": "yes", "healthcare": "hospital", "healthcare:speciality": "maternity", "name": "Ústav pro péči o matku a dítě", "name:ru": "Институт здоровья матери и ребенка Подоли", "phone": "+420 296 511 111", "start_date": "1914", "website": "https://www.upmd.cz/", "wikidata": "Q11087656", "wikipedia": "cs:Ústav pro péči o matku a dítě"}}, {"name": "", "latitude": 50.1958236, "longitude": 14.5222653, "source": "osm", "_tags": {"addr:city": "Měšice", "addr:conscriptionnumber": "1", "addr:country": "CZ", "addr:housename": "Zámek Měšice", "addr:housename:cs": "Zámek Měšice", "addr:housename:de": "Schloss Mieschitz", "addr:housenumber": "1/2", "addr:place": "Měšice", "addr:postcode": "25064", "addr:street": "Zámecká", "addr:streetnumber": "2", "amenity": "hospital", "building": "civic", "building:levels": "3", "building:ruian:type": "5", "email": "jaroslava.souckova@nemocnicemesice.cz", "emergency": "no", "healthcare": "hospital", "healthcare:speciality": "oncology", "phone": "+420 283 981 049;+420 283 981 050;+420 283 981 051", "ref:ruian:addr": "14649101", "ref:ruian:building": "14541203", "roof:levels": "2", "roof:material": "roof_tiles", "roof:shape": "mansard", "source": "cuzk:ruian", "website": "https://www.nemocnicemesice.cz", "wikidata": "Q2242569", "wikipedia": "cs:Měšice (zámek)"}}, {"name": "Městská nemocnice následné péče", "latitude": 50.1075442, "longitude": 14.4950603, "source": "osm", "_tags": {"addr:city": "Praha 9", "addr:conscriptionnumber": "343", "addr:housenumber": "343/6", "addr:place": "Vysočany", "addr:postcode": "19000", "addr:street": "K Moravině", "addr:streetnumber": "6", "amenity": "hospital", "building": "civic", "building:levels": "6", "building:ruian:type": "5", "email": "info@mnnp.cz", "healthcare": "hospital", "healthcare:speciality": "cardiology;psychology;internal", "name": "Městská nemocnice následné péče", "operator": "Hlavní město Praha", "operator:type": "public", "ref:ruian:building": "22242813", "roof:shape": "flat", "source": "cuzk:ruian", "website": "https://www.mnnp.cz"}}, {"name": "Fakultní nemocnice Královské Vinohrady", "latitude": 50.074638, "longitude": 14.4789249, "source": "osm", "_tags": {"addr:city": "Praha", "addr:housenumber": "50", "addr:postcode": "10000", "addr:street": "Ruská", "amenity": "hospital", "beds": "1250", "emergency": "yes", "healthcare": "hospital", "healthcare:counselling": "nutrition", "healthcare:speciality": "dermatology;dermatovenereology;emergency;diagnostic_radiology;gastroenterology;infectious_diseases;internal;intensive;occupational;palliative;plastic_surgery;radiology;", "layer": "-1", "loc_name": "Vinohradská nemocnice", "name": "Fakultní nemocnice Královské Vinohrady", "name:ru": "больницы Королевского университета", "wikidata": "Q11989336"}}, {"name": "Fakultní nemocnice Motol", "latitude": 50.0726581, "longitude": 14.3440346, "source": "osm", "_tags": {"amenity": "hospital", "healthcare": "hospital", "name": "Fakultní nemocnice Motol", "name:de": "Universitätskrankenhaus Motol", "website": "https://fnmotol.cz/", "wheelchair": "yes", "wikidata": "Q11989409", "wikipedia": "cs:Fakultní nemocnice v Motole"}}, {"name": "Oblastní nemocnice Kladno", "latitude": 50.141022, "longitude": 14.0882833, "source": "osm", "_tags": {"amenity": "hospital", "emergency": "yes", "healthcare": "hospital", "name": "Oblastní nemocnice Kladno", "official_name": "Oblastní nemocnice Kladno, a.s., nemocnice Středočeského kraje", "operator": "Středočeský kraj, Zborovská 11, 150 21 Praha 5 - Smíchov", "website": "http://www.nemocnicekladno.cz", "wikidata": "Q41567468", "wikipedia": "cs:Oblastní nemocnice Kladno"}}, {"name": "Masarykovo sanatorium", "latitude": 49.7894438, "longitude": 14.1522454, "source": "osm", "_tags": {"amenity": "hospital", "building": "yes", "name": "Masarykovo sanatorium", "note": "Léčebna dlouhodobě nemocných", "source": "cuzk:km"}}, {"name": "", "latitude": 49.7895101, "longitude": 14.1520404, "source": "osm", "_tags": {"amenity": "hospital", "building": "civic", "building:levels": "1", "building:ruian:type": "5", "ref:ruian:building": "12836052", "source": "cuzk:ruian"}}, {"name": "Olivova dětská léčebna", "latitude": 49.9897033, "longitude": 14.6890346, "source": "osm", "_tags": {"amenity": "hospital", "barrier": "fence", "healthcare": "hospital", "name": "Olivova dětská léčebna", "source": "cuzk:km"}}, {"name": "Nemocnice Na Strahově", "latitude": 50.0791993, "longitude": 14.3913534, "source": "osm", "_tags": {"addr:city": "Praha", "addr:conscriptionnumber": "1921", "addr:country": "CZ", "addr:housenumber": "1921/4", "addr:place": "Břevnov", "addr:postcode": "16900", "addr:street": "Šermířská", "addr:streetnumber": "4", "addr:suburb": "Praha 6", "amenity": "hospital", "building": "civic", "building:levels": "4", "building:ruian:type": "5", "emergency": "no", "healthcare": "hospital", "healthcare:speciality": "dialysis", "name": "Nemocnice Na Strahově", "operator": "Všeobecná fakultní nemocnice v Praze", "operator:type": "state_primary_health_care", "phone": "+420 225 003 111", "ref:ruian:building": "22041630", "roof:colour": "gray", "roof:shape": "flat", "source": "cuzk:ruian", "website": "http://www.dialyza-strahov.cz/"}}, {"name": "Oblastní nemocnice Příbram - areál II", "latitude": 49.6739853, "longitude": 13.9886721, "source": "osm", "_tags": {"amenity": "hospital", "healthcare": "hospital", "name": "Oblastní nemocnice Příbram - areál II", "website": "https://www.nemocnicepribram.cz/", "wikidata": "Q58220043", "wikipedia": "cs:Oblastní nemocnice Příbram"}}, {"name": "Oblastní nemocnice Příbram - areál I", "latitude": 49.6925924, "longitude": 14.0117629, "source": "osm", "_tags": {"amenity": "hospital", "healthcare": "hospital", "name": "Oblastní nemocnice Příbram - areál I", "website": "https://www.nemocnicepribram.cz/", "wikidata": "Q58220043", "wikipedia": "cs:Oblastní nemocnice Příbram"}}, {"name": "Psychiatrická nemocnice Horní Beřkovice", "latitude": 50.3588812, "longitude": 14.3512118, "source": "osm", "_tags": {"addr:city": "Horní Beřkovice", "addr:housenumber": "1", "addr:postcode": "41185", "addr:street": "Podřipská", "amenity": "hospital", "barrier": "fence", "emergency": "no", "healthcare": "hospital", "healthcare:speciality": "psychiatry", "name": "Psychiatrická nemocnice Horní Beřkovice", "website": "https://pnhberkovice.cz"}}, {"name": "Rehabilitační Nemocnice Beroun", "latitude": 49.9652318, "longitude": 14.096887, "source": "osm", "_tags": {"amenity": "hospital", "healthcare": "hospital", "name": "Rehabilitační Nemocnice Beroun", "website": "https://www.nemocnice-beroun.cz/"}}, {"name": "Nemocnice Na Pleši", "latitude": 49.8336841, "longitude": 14.2862187, "source": "osm", "_tags": {"building": "civic", "building:levels": "3", "building:ruian:type": "15", "healthcare": "hospital", "healthcare:speciality": "oncology", "layer": "1", "name": "Nemocnice Na Pleši", "operator": "Nemocnice Na Pleši s.r.o.", "operator:type": "private", "ref:ruian:building": "22553762", "source": "cuzk:ruian", "website": "https://naplesi.cz", "wikidata": "Q38036160"}}, {"name": "Nemocnice Na Pleši", "latitude": 49.8339137, "longitude": 14.2866606, "source": "osm", "_tags": {"amenity": "hospital", "emergency": "no", "healthcare": "hospital", "healthcare:speciality": "oncology;radiology;intensive;surgery;internal;physiotherapy;palliative;pulmonology;endocrinology", "name": "Nemocnice Na Pleši", "operator": "Nemocnice Na Pleši s.r.o.", "operator:type": "private", "website": "https://www.naplesi.cz/"}}, {"name": "Thomayerova nemocnice", "latitude": 50.0280995, "longitude": 14.459971, "source": "osm", "_tags": {"amenity": "hospital", "emergency": "yes", "healthcare": "hospital", "name": "Thomayerova nemocnice", "old_name": "Masarykovy domovy", "start_date": "1928", "website": "https://www.ftn.cz/", "wikidata": "Q12058918", "wikipedia": "cs:Thomayerova nemocnice"}}, {"name": "Psychiatrická nemocnice Bohnice", "latitude": 50.1362797, "longitude": 14.4217757, "source": "osm", "_tags": {"addr:housenumber": "91", "addr:postcode": "18102", "addr:street": "Ústavní", "alt_name": "Psychiatrická léčebna Bohnice", "amenity": "hospital", "barrier": "fence", "email": "podatelna@bohnice.cz", "emergency": "no", "healthcare": "hospital", "healthcare:speciality": "psychiatry;child_psychiatry", "heritage": "3", "heritage:operator": "NPU", "historic": "heritage", "name": "Psychiatrická nemocnice Bohnice", "phone": "+420284016111", "ref:NPU": "152683", "website": "http://www.plbohnice.cz", "wheelchair": "yes", "wikidata": "Q12047504", "wikipedia": "cs:Psychiatrická nemocnice Bohnice"}}, {"name": "Nemocnice Mělník", "latitude": 50.3474741, "longitude": 14.4848208, "source": "osm", "_tags": {"amenity": "hospital", "emergency": "yes", "healthcare": "hospital", "name": "Nemocnice Mělník"}}, {"name": "Klaudiánova nemocnice", "latitude": 50.4181519, "longitude": 14.909588, "source": "osm", "_tags": {"alt_name": "Klaudiánka", "amenity": "hospital", "emergency": "yes", "healthcare": "hospital", "healthcare:speciality": "general", "name": "Klaudiánova nemocnice", "website": "http://klaudianovanemocnice.cz/"}}, {"name": "Ústav hematologie a krevní transfuze", "latitude": 50.0744806, "longitude": 14.4211421, "source": "osm", "_tags": {"amenity": "hospital", "healthcare": "hospital", "name": "Ústav hematologie a krevní transfuze", "website": "https://www.uhkt.cz/"}}, {"name": "", "latitude": 50.4084779, "longitude": 14.4469908, "source": "osm", "_tags": {"amenity": "hospital", "building": "residential", "building:levels": "1", "building:ruian:type": "3", "ref:ruian:building": "2058146", "source": "cuzk:ruian"}}, {"name": "Nemocnice Sedlčany", "latitude": 49.6589585, "longitude": 14.4262545, "source": "osm", "_tags": {"addr:city": "Sedlčany", "addr:housenumber": "161", "addr:postcode": "26401", "addr:street": "Tyršova", "amenity": "hospital", "healthcare": "hospital", "name": "Nemocnice Sedlčany", "operator": "MEDITERRA-Sedlčany, s.r.o."}}, {"name": "Nemocnice Rudolfa a Stefanie Benešov", "latitude": 49.7878862, "longitude": 14.6798418, "source": "osm", "_tags": {"amenity": "hospital", "contact:facebook": "https://www.facebook.com/nemocnicebenesov", "contact:website": "https://www.hospital-bn.cz/", "emergency": "yes", "healthcare": "hospital", "name": "Nemocnice Rudolfa a Stefanie Benešov"}}, {"name": "", "latitude": 49.9705963, "longitude": 14.3922687, "source": "osm", "_tags": {"amenity": "hospital", "healthcare": "hospital"}}, {"name": "Nemocnice Brandýs nad Labem", "latitude": 50.1876788, "longitude": 14.6519974, "source": "osm", "_tags": {"amenity": "hospital", "healthcare": "hospital", "name": "Nemocnice Brandýs nad Labem", "operator": "PP Hospitals", "website": "https://www.nemocnicebrandys.cz/"}}, {"name": "Nemocnice", "latitude": 50.0723299, "longitude": 14.8516152, "source": "osm", "_tags": {"addr:housenumber": "282", "addr:postcode": "28201", "addr:street": "Žižkova", "amenity": "hospital", "email": "info@nem-cb.cz", "healthcare": "hospital", "name": "Nemocnice", "opening_hours": "24/7", "phone": "+420 321610 867", "website": "https://www.nem-cb.cz/"}}, {"name": "Nemocnice Slaný", "latitude": 50.2346037, "longitude": 14.083387, "source": "osm", "_tags": {"amenity": "hospital", "contact:website": "http://www.nemsl.cz/", "healthcare": "hospital", "name": "Nemocnice Slaný"}}, {"name": "Nemocnice Říčany", "latitude": 49.9955885, "longitude": 14.6756255, "source": "osm", "_tags": {"amenity": "hospital", "healthcare": "hospital", "name": "Nemocnice Říčany", "website": "https://nemocnicericany.agel.cz/"}}, {"name": "Městská nemocnice Neratovice", "latitude": 50.2586847, "longitude": 14.5106411, "source": "osm", "_tags": {"amenity": "hospital", "emergency": "yes", "fax": "+420315637406", "healthcare": "hospital", "name": "Městská nemocnice Neratovice", "operator": "ALMEDA, a.s.", "phone": "+420315637111", "website": "https://www.nemocnice-neratovice.cz"}}, {"name": "Sanatorium", "latitude": 49.9893165, "longitude": 14.8665919, "source": "osm", "_tags": {"disused:amenity": "hospital", "healthcare": "hospital", "name": "Sanatorium"}}, {"name": "Nemocnice Na Františku", "latitude": 50.0924002, "longitude": 14.4212035, "source": "osm", "_tags": {"addr:city": "Praha 1", "addr:housenumber": "847/8", "addr:postcode": "11000", "addr:street": "Na Františku", "amenity": "hospital", "healthcare": "hospital", "name": "Nemocnice Na Františku", "ref:vatin": "CZ00879444", "website": "https://www.nnfp.cz/", "wheelchair": "yes", "wikidata": "Q23770558", "wikimedia_commons": "Category:Nemocnice Na Františku"}}, {"name": "", "latitude": 50.063918, "longitude": 14.3957572, "source": "osm", "_tags": {"amenity": "hospital", "emergency": "no", "healthcare": "hospital", "healthcare:speciality": "rehabilitation"}}, {"name": "Nemocnice Třebotov", "latitude": 49.9706707, "longitude": 14.2962701, "source": "osm", "_tags": {"amenity": "hospital", "healthcare": "hospital", "name": "Nemocnice Třebotov"}}, {"name": "Nemocnice Roudnice nad Labem", "latitude": 50.422325, "longitude": 14.2482698, "source": "osm", "_tags": {"amenity": "hospital", "contact:website": "https://www.pentahospitals.cz/nemocnice-roudnice/", "healthcare": "hospital", "name": "Nemocnice Roudnice nad Labem", "operator": "Penta Hospitals CZ", "operator:wikidata": "Q106671960"}}, {"name": "Nemocnice Milosrdných sester sv. Karla Boromejského v Praze", "latitude": 50.0868882, "longitude": 14.3955826, "source": "osm", "_tags": {"addr:city": "Praha 1", "addr:conscriptionnumber": "336", "addr:country": "CZ", "addr:housenumber": "336/36", "addr:place": "Malá Strana", "addr:postcode": "11800", "addr:street": "Vlašská", "addr:streetnumber": "36", "addr:suburb": "Praha 1", "amenity": "hospital", "email": "nmskb@nmskb.cz", "emergency": "yes", "healthcare": "hospital", "healthcare:speciality": "internal;lenitive;surgery", "loc_name": "Nemocnice pod Petřínem", "name": "Nemocnice Milosrdných sester sv. Karla Boromejského v Praze", "operator": "Kongregace Milosrdných sester sv. Karla Boromejského", "operator:type": "religious", "phone": "+420 257 197 111", "short_name": "Nemocnice Milosrdných sester sv. Karla Boromejského", "source:addr": "cuzk:ruian", "source:loc": "survey", "website": "https://www.nmskb.cz/", "wikidata": "Q12040652", "wikimedia_commons": "Category:Nemocnice pod Petřínem", "wikipedia": "cs:Nemocnice Milosrdných sester sv. Karla Boromejského"}}, {"name": "", "latitude": 50.0929572, "longitude": 14.4864516, "source": "osm", "_tags": {"amenity": "hospital", "healthcare": "hospital"}}, {"name": "Nemocnice Kralupy", "latitude": 50.2428838, "longitude": 14.3124065, "source": "osm", "_tags": {"amenity": "hospital", "emergency": "no", "healthcare": "hospital", "name": "Nemocnice Kralupy", "phone": "+420 350 704411", "website": "https://www.nemocnicekralupy.cz"}}, {"name": "", "latitude": 50.0345752, "longitude": 14.4112298, "source": "osm", "_tags": {"amenity": "hospital", "healthcare": "hospital"}}, {"name": "Nemocnice svaté Alžběty", "latitude": 50.0692895, "longitude": 14.4215384, "source": "osm", "_tags": {"addr:city": "Praha 2", "addr:housenumber": "448/6", "addr:postcode": "12800", "addr:street": "Na Slupi", "amenity": "hospital", "healthcare": "hospital", "name": "Nemocnice svaté Alžběty", "name:de": "Krankenhaus St. Elisabeth", "website": "https://www.alzbeta.cz/"}}, {"name": "Vojenská nemocnice", "latitude": 50.0896654, "longitude": 14.3610606, "source": "osm", "_tags": {"amenity": "hospital", "healthcare": "hospital", "name": "Vojenská nemocnice", "type": "multipolygon", "wikidata": "Q11088520", "wikipedia": "cs:Ústřední vojenská nemocnice"}}, {"name": "Všeobecná fakultní nemocnice", "latitude": 50.0722969, "longitude": 14.423411, "source": "osm", "_tags": {"alt_name": "VFN Praha", "amenity": "hospital", "healthcare": "hospital", "layer": "-1", "name": "Všeobecná fakultní nemocnice", "name:en": "General University Hospital Prague", "official_name": "Všeobecná fakutlní nemocnice Praha", "source": "cuzk:km", "type": "multipolygon", "website": "https://www.vfn.cz/", "wikidata": "Q11863284", "wikimedia_commons": "Category:Všeobecná fakultní nemocnice v Praze", "wikipedia": "cs:Všeobecná fakultní nemocnice v Praze"}}, {"name": "Thomayerova nemocnice", "latitude": 50.0280995, "longitude": 14.459971, "source": "osm", "_tags": {"amenity": "hospital", "loc_name": "Krčská nemocnice", "name": "Thomayerova nemocnice", "old_name": "Masarykovy domovy", "type": "site", "website": "https://www.ftn.cz/", "wikidata": "Q12058918", "wikipedia": "cs:Thomayerova nemocnice"}}, {"name": "Dětský areál Karlov", "latitude": 50.0700357, "longitude": 14.428892, "source": "osm", "_tags": {"alt_name": "Klinika dětského a dorostového lékařství VFN a 1. LF UK v Praze", "amenity": "hospital", "healthcare": "hospital", "name": "Dětský areál Karlov", "source": "cuzk:km", "type": "multipolygon"}}, {"name": "Nemocnice Na Homolce", "latitude": 50.0747164, "longitude": 14.3547471, "source": "osm", "_tags": {"amenity": "hospital", "healthcare": "hospital", "name": "Nemocnice Na Homolce", "source": "cuzk:km", "type": "multipolygon", "wikidata": "Q14923657", "wikipedia": "cs:Nemocnice Na Homolce"}}, {"name": "Fakultní nemocnice Bulovka", "latitude": 50.1155695, "longitude": 14.4615366, "source": "osm", "_tags": {"amenity": "hospital", "emergency": "yes", "healthcare": "hospital", "internet_access": "wlan", "internet_access:fee": "no", "internet_access:ssid": "bulovkafree", "name": "Fakultní nemocnice Bulovka", "old_name": "Nemocnice Na Bulovce", "start_date": "1931-06-21", "type": "multipolygon", "website": "https://bulovka.cz/", "wikidata": "Q12040654", "wikipedia": "cs:Fakultní nemocnice Bulovka"}}]