[{"name": "Hôpital de Marche", "latitude": 50.2276995, "longitude": 5.3234407, "source": "osm", "_tags": {"addr:city": "Aye", "addr:housenumber": "21", "addr:postcode": "6900", "addr:street": "Rue du Vivier", "amenity": "hospital", "emergency": "yes", "emergency_ward": "complete", "healthcare:speciality": "general", "name": "Hôpital de Marche", "official_name": "Vivalia - Hopital De Marche", "operator": "Vivalia", "operator:type": "public", "phone": "+32 63 55 12 00", "ref:fps_health:campus": "3230", "ref:fps_health:recognition": "164", "website": "https://www.vivalia.be/hopital-de-marche"}}, {"name": "Vivalia Cup - Hôpital psychiatrique La Clairière", "latitude": 49.836605, "longitude": 5.2663377, "source": "osm", "_tags": {"addr:housenumber": "100", "addr:street": "Route des Ardoisières", "amenity": "hospital", "emergency": "no", "healthcare": "hospital", "healthcare:speciality": "psychiatry", "name": "Vivalia Cup - Hôpital psychiatrique La Clairière"}}, {"name": "Centre Hospitalier Spécialisé l'Accueil", "latitude": 50.2871853, "longitude": 5.7882985, "source": "osm", "_tags": {"addr:city": "Lierneux", "addr:housenumber": "15", "addr:street": "Rue du Doyard", "amenity": "hospital", "name": "Centre Hospitalier Spécialisé l'Accueil", "website": "https://www.isosl.be/index.php/left-menu-1-accueil/hopitaux-specialises/site-lierneux", "wikidata": "Q20900481"}}, {"name": "Hôpital Saint-Vincent", "latitude": 50.2645719, "longitude": 4.9450597, "source": "osm", "_tags": {"addr:city": "Dinant", "addr:country": "BE", "addr:housenumber": "501", "addr:postcode": "5500", "addr:street": "Rue Saint-Jacques", "amenity": "hospital", "emergency": "yes", "emergency_ward": "complete", "healthcare:speciality": "general", "name": "Hôpital Saint-Vincent", "name:etymology:wikidata": "Q108247", "operator": "CHU UCL Namur | Site de Dinant", "ref:fps_health:campus": "3260", "ref:fps_health:recognition": "264", "website": "https://www.chdinant.be"}}, {"name": "Hôpital d'Arlon", "latitude": 49.6773701, "longitude": 5.820493, "source": "osm", "_tags": {"addr:city": "Arlon", "addr:housenumber": "137", "addr:postcode": "6700", "addr:street": "Rue des Déportés", "alt_name": "Clinique Saint-Joseph", "amenity": "hospital", "emergency": "yes", "emergency_ward": "complete", "healthcare": "hospital", "healthcare:speciality": "general", "name": "Hôpital d'Arlon", "old_name": "Hôpital Saint-Joseph d'Arlon", "old_name:de": "Josefsklinikum", "opening_hours": "Mo-Su,PH 00:00-24:00", "operator": "Vivalia", "operator:type": "public", "phone": "+32 63 55 15 00", "ref:fps_health:campus": "3690", "ref:fps_health:recognition": "246", "website": "https://www.vivalia.be/hopital-darlon", "wheelchair": "yes"}}, {"name": "Centre de réhabilitation", "latitude": 49.7591265, "longitude": 5.8253207, "source": "osm", "_tags": {"addr:city": "Colpach-Bas", "addr:housenumber": "1", "addr:postcode": "8527", "addr:street": "Am Schlasspark", "amenity": "hospital", "building": "yes", "healthcare": "hospital", "name": "Centre de réhabilitation", "operator": "Croix-Rouge luxembourgeoise", "operator:type": "public", "phone": "+352 2755 4300", "website": "https://www.rehabilitation.lu/"}}, {"name": "Clinique Edmond-Jacques", "latitude": 49.5528074, "longitude": 5.5260653, "source": "osm", "_tags": {"addr:housenumber": "48", "addr:street": "Rue d'Harnoncourt", "amenity": "hospital", "name": "Clinique Edmond-Jacques"}}, {"name": "Hôpital de Libramont", "latitude": 49.9251593, "longitude": 5.3798595, "source": "osm", "_tags": {"addr:housenumber": "35", "addr:street": "Avenue de Houffalize", "amenity": "hospital", "emergency": "yes", "emergency_ward": "complete", "healthcare": "hospital", "healthcare:speciality": "general", "name": "Hôpital de Libramont", "operator": "Vivalia", "ref:fps_health:campus": "3240", "ref:fps_health:recognition": "168", "website": "https://www.vivalia.be/hopital-de-libramont"}}, {"name": "Hôpital intercommunal de Steinfort", "latitude": 49.6609477, "longitude": 5.9125896, "source": "osm", "_tags": {"amenity": "hospital", "healthcare": "hospital", "name": "Hôpital intercommunal de Steinfort"}}, {"name": "Centre hospitalier de Sedan", "latitude": 49.7052102, "longitude": 4.9379555, "source": "osm", "_tags": {"addr:city": "Sedan", "addr:housenumber": "2", "addr:postcode": "40903", "addr:street": "Avenue du Général Margueritte", "amenity": "hospital", "emergency": "yes", "fax": "+33 3 24 22 85 09", "healthcare": "hospital", "name": "Centre hospitalier de Sedan", "operator:type": "public", "phone": "+33 3 24 22 80 00", "ref:FR:FINESS": "080000110", "type:FR:FINESS": "355", "website": "http://www.ch-sedan.fr/"}}, {"name": "Centre hospitalier Hôtel Dieu", "latitude": 49.5375537, "longitude": 5.7801001, "source": "osm", "_tags": {"addr:city": "Mont-Saint-Martin", "addr:country": "FR", "addr:housenumber": "4", "addr:postcode": "54350", "addr:street": "Rue Alfred Labbé", "amenity": "hospital", "emergency": "yes", "fax": "+33 3 82 44 73 55", "healthcare": "hospital", "name": "Centre hospitalier Hôtel Dieu", "operator": "Groupe SOS", "operator:type": "private", "phone": "+33 3 82 44 70 00", "ref:FR:FINESS": "540001096", "type:FR:FINESS": "365", "website": "https://www.groupe-sos.org/structures/876/Centre_hospitalier_Hotel_Dieu"}}, {"name": "Hôpital Intercommunal Princesse Marie-Astrid", "latitude": 49.5328423, "longitude": 5.8867649, "source": "osm", "_tags": {"amenity": "hospital", "healthcare": "hospital", "name": "Hôpital Intercommunal Princesse Marie-Astrid"}}, {"name": "Hôpital de Bastogne", "latitude": 50.0121708, "longitude": 5.7222804, "source": "osm", "_tags": {"addr:housenumber": "1", "addr:street": "Chaussée de Houffalize", "amenity": "hospital", "emergency": "yes", "emergency_ward": "complete", "healthcare:speciality": "general", "name": "Hôpital de Bastogne", "official_name": "Vivalia - Hopital De Bastogne", "old_name": "Vivalia - Hopital Sainte-Therese", "ref:fps_health:campus": "3720", "ref:fps_health:recognition": "168", "website": "https://www.vivalia.be/hopital-de-bastogne"}}, {"name": "Centre Hospitalier du Nord", "latitude": 49.9654316, "longitude": 5.934082, "source": "osm", "_tags": {"addr:city": "Wiltz", "addr:country": "LU", "addr:housenumber": "10", "addr:postcode": "9515", "addr:street": "Rue Grande-Duchesse Charlotte", "amenity": "hospital", "emergency": "yes", "healthcare": "hospital", "name": "Centre Hospitalier du Nord", "old_name": "Clinique St Joseph", "short_name": "CHdN Wiltz"}}]