[{"name": "KCRL", "latitude": 49.4372045, "longitude": 25.1389647, "source": "osm", "_tags": {"amenity": "hospital", "name": "KCRL", "name:uk": "KCRL"}}, {"name": "Шкірно-венерологічний диспансер", "latitude": 49.5470909, "longitude": 25.5988887, "source": "osm", "_tags": {"alt_name": "Шкірвенеричний", "amenity": "hospital", "healthcare": "hospital", "name": "Шкірно-венерологічний диспансер", "name:uk": "Шкірно-венерологічний диспансер", "official_name": "Тернопільський обласний клінічний шкірно-венерологічний диспансер", "operator": "Тернопільський обласний клінчіний шкірно-венерологічний диспансер"}}, {"name": "", "latitude": 49.5469365, "longitude": 25.5990744, "source": "osm", "_tags": {"amenity": "hospital", "healthcare": "hospital"}}, {"name": "", "latitude": 50.2793501, "longitude": 25.596085, "source": "osm", "_tags": {"amenity": "hospital"}}, {"name": "", "latitude": 50.3962744, "longitude": 25.7587792, "source": "osm", "_tags": {"amenity": "hospital"}}, {"name": "", "latitude": 49.6090269, "longitude": 25.5613151, "source": "osm", "_tags": {"amenity": "hospital"}}, {"name": "Міська дитяча поліклініка, педіатричний відділ № 2", "latitude": 49.5442199, "longitude": 25.6256017, "source": "osm", "_tags": {"amenity": "hospital", "healthcare": "hospital", "name": "Міська дитяча поліклініка, педіатричний відділ № 2", "name:uk": "Міська дитяча поліклініка, педіатричний відділ № 2"}}, {"name": "Стаціонарне відділення УМВС", "latitude": 49.5524092, "longitude": 25.59679, "source": "osm", "_tags": {"alt_name": "Лікарня УМВС", "amenity": "hospital", "healthcare": "hospital", "loc_name": "Лікарня сектору медичного забезпечення ГУМВС", "name": "Стаціонарне відділення УМВС", "name:uk": "Стаціонарне відділення УМВС", "official_name": "Стаціонарне відділення Служби охорони здоров’я УМВС України в Тернопільській області", "operator": "Служба охорони здоров’я УМВС України в Тернопільській області"}}, {"name": "Лікарня і амбулаторія", "latitude": 49.5972919, "longitude": 25.9055895, "source": "osm", "_tags": {"amenity": "hospital", "name": "Лікарня і амбулаторія", "name:uk": "Лікарня і амбулаторія"}}, {"name": "Фельдшерсько-акушерський пункт", "latitude": 49.9405453, "longitude": 24.9811564, "source": "osm", "_tags": {"amenity": "hospital", "name": "Фельдшерсько-акушерський пункт", "name:uk": "Фельдшерсько-акушерський пункт"}}, {"name": "Поліклініка", "latitude": 49.9444321, "longitude": 25.3168701, "source": "osm", "_tags": {"amenity": "hospital", "name": "Поліклініка", "name:uk": "Поліклініка"}}, {"name": "Почаївська міська лікарня", "latitude": 50.0049597, "longitude": 25.5099595, "source": "osm", "_tags": {"amenity": "hospital", "healthcare": "hospital", "name": "Почаївська міська лікарня", "name:uk": "Почаївська міська лікарня", "opening_hours": "24/7"}}, {"name": "Зборівська ЦРЛ", "latitude": 49.6658245, "longitude": 25.1390124, "source": "osm", "_tags": {"amenity": "hospital", "name": "Зборівська ЦРЛ", "name:ru": "Зборовская ЦРБ", "name:uk": "Зборівська ЦРЛ"}}, {"name": "Приймальне відділення", "latitude": 49.5546807, "longitude": 25.6149799, "source": "osm", "_tags": {"amenity": "hospital", "healthcare": "hospital", "name": "Приймальне відділення", "name:uk": "Приймальне відділення"}}, {"name": "Малеча", "latitude": 49.5433839, "longitude": 25.5572306, "source": "osm", "_tags": {"addr:housenumber": "15-А", "addr:postcode": "46003", "addr:street": "Тролейбусна вулиця", "amenity": "hospital", "healthcare": "clinic", "healthcare:speciality": "paediatrics", "name": "Малеча", "name:uk": "Малеча"}}, {"name": "Тернопільська університетська лікарня", "latitude": 49.5546281, "longitude": 25.6133009, "source": "osm", "_tags": {"alt_name": "Обласна клінічна лікарня № 1", "amenity": "hospital", "email": "terokkl@ukr.net", "emergency": "no", "fax": "+380 352 52 2606", "healthcare": "hospital", "loc_name": "Обласна лікарня", "name": "Тернопільська університетська лікарня", "name:en": "Ternopil University Hospital", "name:ru": "Тернопольская университетская больница", "name:uk": "Тернопільська університетська лікарня", "official_name": "Комунальний заклад Тернопільської обласної ради «Тернопільська Університетська лікарня»", "old_name": "Тернопільська обласна комунальна клінічна лікарня № 1", "phone": "+380 352 23 5886;+380 352 27 3304", "short_name": "ТУЛ", "website": "http://www.terokl.te.ua"}}, {"name": "КНП Збаразька центральна лікарня", "latitude": 49.6611653, "longitude": 25.7906716, "source": "osm", "_tags": {"addr:housenumber": "2", "addr:street": "вулиця Романа Гралюка", "amenity": "hospital", "building": "hospital", "name": "КНП Збаразька центральна лікарня", "name:uk": "КНП Збаразька центральна лікарня", "old_name:uk": "Збаразька районна лікарня"}}, {"name": "", "latitude": 50.3973484, "longitude": 25.7604758, "source": "osm", "_tags": {"addr:housenumber": "103", "addr:postcode": "35600", "addr:street": "вулиця Михайла Грушевського", "amenity": "hospital", "healthcare": "hospital"}}, {"name": "Інфекційне відділення", "latitude": 49.5489757, "longitude": 25.5987679, "source": "osm", "_tags": {"addr:housenumber": "16", "addr:postcode": "46008", "addr:street": "Пирогова вулиця", "building": "hospital", "healthcare": "hospital", "name": "Інфекційне відділення", "name:ru": "Инфекционное отделение", "name:uk": "Інфекційне відділення", "official_name": "Інфекційне відділення лікарні швидкої медичної допомоги", "start_date": "1936"}}, {"name": "Стаціонар шкірно-венерологічного диспансера", "latitude": 49.5473391, "longitude": 25.5988836, "source": "osm", "_tags": {"addr:housenumber": "37", "addr:postcode": "46001", "addr:street": "вулиця Князя Острозького", "amenity": "hospital", "building": "yes", "description": "На фасаді надписи: Заведение фундацій Констатына князя Острогсокго. 1570, 1735. Водкрыте 1886.", "healthcare": "hospital", "name": "Стаціонар шкірно-венерологічного диспансера", "name:uk": "Стаціонар шкірно-венерологічного диспансера", "official_name": "Стаціонар Тернопільського обласного клінчіного шкірно-венерологічний диспансера", "operator": "Тернопільський обласний клінчіний шкірно-венерологічний диспансер", "roof:shape": "hipped"}}, {"name": "Районна лікарня", "latitude": 49.549669, "longitude": 25.5959241, "source": "osm", "_tags": {"addr:housenumber": "9", "addr:postcode": "46001", "addr:street": "вулиця Князя Острозького", "amenity": "hospital", "building": "yes", "healthcare": "hospital", "name": "Районна лікарня", "name:ru": "Районная больница", "name:uk": "Районна лікарня"}}, {"name": "", "latitude": 49.566243, "longitude": 25.6450638, "source": "osm", "_tags": {"amenity": "hospital", "building": "yes", "healthcare": "hospital"}}, {"name": "Берестечківська районна лікарня №2", "latitude": 50.3665016, "longitude": 25.1009993, "source": "osm", "_tags": {"addr:housenumber": "69", "amenity": "hospital", "contact:phone": "+380 3379 95 177", "healthcare": "hospital", "landuse": "commercial", "name": "Берестечківська районна лікарня №2", "name:uk": "Берестечківська районна лікарня №2"}}, {"name": "Бродівська центральна районна лікарня", "latitude": 50.08569, "longitude": 25.1529095, "source": "osm", "_tags": {"addr:housenumber": "21", "addr:street": "вулиця Лесі Українки", "amenity": "hospital", "barrier": "fence", "emergency": "yes", "healthcare": "hospital", "medical_system:western": "yes", "name": "Бродівська центральна районна лікарня", "name:uk": "Бродівська центральна районна лікарня", "phone": "+380 3266 43 092"}}, {"name": "", "latitude": 50.0856982, "longitude": 25.1503265, "source": "osm", "_tags": {"addr:housenumber": "22", "addr:postcode": "80600", "addr:street": "вулиця Юридика", "amenity": "hospital", "barrier": "fence", "emergency": "no", "health_facility:type": "department", "health_specialty:surgery": "yes", "healthcare": "hospital", "medical_system:western": "yes", "phone": "+380 3266 27 911"}}, {"name": "Дубенська міська лікарня", "latitude": 50.4069852, "longitude": 25.7133989, "source": "osm", "_tags": {"amenity": "hospital", "name": "Дубенська міська лікарня", "name:uk": "Дубенська міська лікарня"}}, {"name": "Менпункт", "latitude": 49.4676838, "longitude": 25.3576383, "source": "osm", "_tags": {"amenity": "hospital", "name": "Менпункт", "name:uk": "Менпункт"}}, {"name": "Районна лікарня", "latitude": 49.5495285, "longitude": 25.596402, "source": "osm", "_tags": {"addr:housenumber": "9", "addr:postcode": "46001", "addr:street": "вулиця Князя Острозького", "amenity": "hospital", "building": "yes", "healthcare": "hospital", "name": "Районна лікарня", "name:ru": "Районная больница", "name:uk": "Районна лікарня"}}, {"name": "Кременецька районна комунальна лікарня", "latitude": 50.1165316, "longitude": 25.6939784, "source": "osm", "_tags": {"addr:city": "Кременець", "addr:housenumber": "1", "addr:street": "вулиця Горбача", "amenity": "hospital", "healthcare": "hospital", "name": "Кременецька районна комунальна лікарня", "name:uk": "Кременецька районна комунальна лікарня", "phone": "+380 3546 26 721", "toilets:wheelchair": "no", "website": "https://kremcrkl.ucoz.com/", "wheelchair": "yes", "wikipedia": "uk:Кременецька РКЛ"}}, {"name": "Кременецька районна комунальна лікарня", "latitude": 50.1043769, "longitude": 25.7276871, "source": "osm", "_tags": {"amenity": "hospital", "healthcare": "hospital", "name": "Кременецька районна комунальна лікарня", "name:ru": "Кременецкая районная коммунальная больница", "name:uk": "Кременецька районна комунальна лікарня"}}, {"name": "Кременецький обласний комунальний протитуберкульозний диспансер", "latitude": 50.1239353, "longitude": 25.7399546, "source": "osm", "_tags": {"amenity": "hospital", "healthcare": "hospital", "name": "Кременецький обласний комунальний протитуберкульозний диспансер", "name:uk": "Кременецький обласний комунальний протитуберкульозний диспансер"}}, {"name": "Тернопільська міська лікарня № 2", "latitude": 49.5529385, "longitude": 25.6446124, "source": "osm", "_tags": {"addr:housenumber": "14", "addr:postcode": "46400", "addr:street": "вулиця Романа Купчинського", "alt_name": "2-га міська лікарня", "amenity": "hospital", "healthcare": "hospital", "name": "Тернопільська міська лікарня № 2", "name:ru": "Тернопольская городская больница № 2", "name:uk": "Тернопільська міська лікарня № 2", "official_name": "Тернопільська комунальна міська лікарня № 2", "short_name": "ТМКЛ № 2", "start_date": "1975-01-19", "website": "https://www.tkml2.te.ua/"}}, {"name": "Обласна дитяча лікарня", "latitude": 49.549553, "longitude": 25.6414023, "source": "osm", "_tags": {"addr:housenumber": "2", "addr:postcode": "46400", "addr:street": "вулиця Академіка Андрія Сахарова", "amenity": "hospital", "healthcare": "hospital", "name": "Обласна дитяча лікарня", "name:ru": "Областная детская больница", "name:uk": "Обласна дитяча лікарня", "official_name": "Тернопільська обласна дитяча клінічна лікарня"}}, {"name": "Міська дитяча лікарня", "latitude": 49.5536049, "longitude": 25.6141745, "source": "osm", "_tags": {"addr:housenumber": "1-А", "addr:street": "Клінічна вулиця", "amenity": "hospital", "healthcare": "hospital", "name": "Міська дитяча лікарня", "name:uk": "Міська дитяча лікарня"}}, {"name": "Тернопільський обласний протитуберкульозний диспансер", "latitude": 49.5215993, "longitude": 25.6126386, "source": "osm", "_tags": {"alt_name": "Тернопільський облтубдиспансер (ТОКТД)", "amenity": "hospital", "email": "toktd@tr.ukrtel.net", "fax": "+380 352 25 1529", "healthcare": "hospital", "name": "Тернопільський обласний протитуберкульозний диспансер", "name:uk": "Тернопільський обласний протитуберкульозний диспансер", "official_name": "Тернопільський обласний комунальний протитуберкульозний диспансер (ТОКТД)", "phone": "+380 352 52 5929", "short_name": "Тубдиспансер"}}, {"name": "Бродівська районна лікарня №2, Інтернат для пристарілих", "latitude": 50.0293088, "longitude": 24.9782438, "source": "osm", "_tags": {"amenity": "hospital", "name": "Бродівська районна лікарня №2, Інтернат для пристарілих", "name:uk": "Бродівська районна лікарня №2, Інтернат для пристарілих"}}, {"name": "Підкамінська лікарня", "latitude": 49.9398081, "longitude": 25.315194, "source": "osm", "_tags": {"amenity": "hospital", "name": "Підкамінська лікарня", "name:uk": "Підкамінська лікарня"}}, {"name": "Радивилівська центральна міська лікарня", "latitude": 50.124473, "longitude": 25.2522019, "source": "osm", "_tags": {"addr:housenumber": "4", "addr:postcode": "35500", "addr:street": "Садова вулиця", "amenity": "hospital", "healthcare": "hospital", "name": "Радивилівська центральна міська лікарня", "name:uk": "Радивилівська центральна міська лікарня"}}, {"name": "", "latitude": 50.1360009, "longitude": 25.4028875, "source": "osm", "_tags": {"amenity": "hospital", "healthcare": "hospital"}}, {"name": "", "latitude": 50.2597108, "longitude": 25.3169626, "source": "osm", "_tags": {"amenity": "hospital", "healthcare": "hospital"}}, {"name": "", "latitude": 50.158914, "longitude": 25.3090429, "source": "osm", "_tags": {"amenity": "hospital", "healthcare": "hospital"}}, {"name": "Приймальне відділення", "latitude": 50.4071567, "longitude": 25.7128764, "source": "osm", "_tags": {"building": "yes", "healthcare": "hospital", "name": "Приймальне відділення", "name:uk": "Приймальне відділення"}}, {"name": "", "latitude": 50.0139013, "longitude": 25.3991406, "source": "osm", "_tags": {"amenity": "hospital"}}, {"name": "", "latitude": 50.2272715, "longitude": 25.4937344, "source": "osm", "_tags": {"amenity": "hospital", "healthcare": "hospital"}}, {"name": "ФАП", "latitude": 50.161468, "longitude": 25.3725976, "source": "osm", "_tags": {"amenity": "hospital", "healthcare": "hospital", "name": "ФАП", "name:uk": "ФАП"}}, {"name": "", "latitude": 50.2485191, "longitude": 25.5098019, "source": "osm", "_tags": {"amenity": "hospital", "healthcare": "hospital"}}, {"name": "Лікарня", "latitude": 49.4362836, "longitude": 25.1394508, "source": "osm", "_tags": {"amenity": "hospital", "healthcare": "hospital", "name": "Лікарня", "name:uk": "Лікарня"}}, {"name": "Почаївський психоневрологічний будинок-інтернат", "latitude": 49.995063, "longitude": 25.5469779, "source": "osm", "_tags": {"addr:housenumber": "36", "addr:street": "Шкільна вулиця", "amenity": "hospital", "healthcare": "hospital", "name": "Почаївський психоневрологічний будинок-інтернат", "name:uk": "Почаївський психоневрологічний будинок-інтернат"}}, {"name": "", "latitude": 49.7956942, "longitude": 25.368311, "source": "osm", "_tags": {"amenity": "hospital", "healthcare": "hospital"}}, {"name": "Озернянська лікарня", "latitude": 49.6377334, "longitude": 25.329527, "source": "osm", "_tags": {"amenity": "hospital", "name": "Озернянська лікарня", "name:uk": "Озернянська лікарня", "official_name": "Комунальне некомерційне підприємство Озернянська однопрофільна лікарня відновного лікування Озернянської сільської ради Зборівського району Тернопільської області", "short_name": "КНП \"Озернянська ОЛВЛ\" Озернянської сільської ради Зборівського району Тернопільської області"}}, {"name": "Баворівська сільська дільнична лікарня", "latitude": 49.4405181, "longitude": 25.7087942, "source": "osm", "_tags": {"amenity": "hospital", "fixme": "Територія показана умовно.", "healthcare": "hospital", "name": "Баворівська сільська дільнична лікарня", "name:uk": "Баворівська сільська дільнична лікарня"}}, {"name": "Обласний клінічний онкологічний диспансер", "latitude": 49.5537525, "longitude": 25.6406913, "source": "osm", "_tags": {"alt_name": "Онкодиспансер", "amenity": "hospital", "contact:facebook": "TernopilRegionalOncologyClinic", "healthcare": "hospital", "healthcare:speciality": "oncology", "name": "Обласний клінічний онкологічний диспансер", "name:uk": "Обласний клінічний онкологічний диспансер", "website": "https://tokod.te.ua"}}, {"name": "", "latitude": 49.5542809, "longitude": 25.5890467, "source": "osm", "_tags": {"amenity": "hospital", "healthcare": "hospital"}}, {"name": "Міська лікарня № 3", "latitude": 49.5531663, "longitude": 25.5559064, "source": "osm", "_tags": {"amenity": "hospital", "healthcare": "hospital", "name": "Міська лікарня № 3", "name:uk": "Міська лікарня № 3", "website": "https://www.tmkl3.te.ua"}}, {"name": "Міська лікарня № 1", "latitude": 49.5488549, "longitude": 25.5994307, "source": "osm", "_tags": {"abbr_name": "ТМКЛШД", "amenity": "hospital", "emergency": "yes", "full_name": "Тернопільська міська комунальна лікарня швидкої допомоги", "healthcare": "hospital", "name": "Міська лікарня № 1", "name:uk": "Міська лікарня № 1", "opening_hours": "24/7", "phone": "+380 352 25 2676"}}, {"name": "Міська дитяча поліклініка", "latitude": 49.5498428, "longitude": 25.6000736, "source": "osm", "_tags": {"amenity": "hospital", "healthcare": "hospital", "name": "Міська дитяча поліклініка", "name:uk": "Міська дитяча поліклініка"}}, {"name": "", "latitude": 49.439057, "longitude": 24.9397978, "source": "osm", "_tags": {"amenity": "hospital", "healthcare": "hospital"}}, {"name": "Тернопільська обласна комунальна клінічна психоневрологічна лікарня", "latitude": 49.541409, "longitude": 25.5490044, "source": "osm", "_tags": {"amenity": "hospital", "email": "tokkpnl@tokkpnl.org.ua", "healthcare": "hospital", "name": "Тернопільська обласна комунальна клінічна психоневрологічна лікарня", "name:en": "Ternopil regional communal clinical psycho-neurological hospital", "name:uk": "Тернопільська обласна комунальна клінічна психоневрологічна лікарня", "phone": "+380 352 43 5716", "website": "https://tokkpnl.org.ua", "wikidata": "Q30966081", "wikipedia": "uk:Тернопільська обласна комунальна клінічна психоневрологічна лікарня"}}]