[{"name": "Pfalzklinikum Standort Rockenhausen", "latitude": 49.6304177, "longitude": 7.8143081, "source": "osm", "_tags": {"amenity": "hospital", "emergency": "yes", "name": "Pfalzklinikum Standort Rockenhausen", "phone": "+49 6361 45950", "website": "https://www.pfalzklinikum.de/standorte/rockenhausen"}}, {"name": "Diakonie Kliniken Bad Kreuznach gGmbH | Ringstraße", "latitude": 49.8367828, "longitude": 7.863625, "source": "osm", "_tags": {"addr:housenumber": "64", "addr:street": "Ringstraße", "amenity": "hospital", "name": "Diakonie Kliniken Bad Kreuznach gGmbH | Ringstraße", "phone": "0671 605 0", "website": "https://www.kreuznacherdiakonie.de/diakonie-kliniken-bad-kreuznach", "wheelchair": "yes"}}, {"name": "Evangelisches Stift Sankt Martin", "latitude": 50.3481962, "longitude": 7.5933444, "source": "osm", "_tags": {"addr:city": "Koblenz", "addr:housenumber": "7", "addr:postcode": "56068", "addr:street": "Johannes-Müller-Straße", "amenity": "hospital", "check_date": "2024-11-05", "healthcare": "hospital", "name": "Evangelisches Stift Sankt Martin", "operator": "Gemeinschaftsklinikum Mittelrhein GmbH", "wheelchair": "yes", "wikipedia": "de:Evangelisches Stift St. Martin Koblenz"}}, {"name": "Katholisches Klinikum Marienhof Koblenz", "latitude": 50.359282, "longitude": 7.5716202, "source": "osm", "_tags": {"addr:city": "Koblenz", "addr:country": "DE", "addr:housenumber": "7", "addr:postcode": "56073", "addr:street": "Rudolf-Virchow-Straße", "amenity": "hospital", "building": "hospital", "building:levels": "3", "check_date": "2024-04-15", "denomination": "roman_catholic", "emergency": "yes", "healthcare": "hospital", "name": "Katholisches Klinikum Marienhof Koblenz", "operator": "Katholisches Klinikum Koblenz", "phone": "+49 261 4960", "religion": "christian", "wikidata": "Q1736453"}}, {"name": "Barmherzige Brüder Saffig", "latitude": 50.3778925, "longitude": 7.4195807, "source": "osm", "_tags": {"addr:city": "Saffig", "addr:postcode": "56648", "amenity": "hospital", "building": "yes", "emergency": "no", "healthcare": "hospital", "name": "Barmherzige Brüder Saffig", "operator": "Barmherzige Brüder Trier gGmbH", "website": "http://www.bb-saffig.de"}}, {"name": "Kemperhof", "latitude": 50.3561716, "longitude": 7.565562, "source": "osm", "_tags": {"alt_name": "Gemeinschaftsklinikum Mittelrhein Kemperhof", "amenity": "hospital", "contact:email": "info@gk.de", "contact:fax": "+49 261 499-2000", "contact:phone": "+49 261 499-0", "contact:website": "https://www.gk.de/krankenhaeuser/kemperhof-koblenz/", "emergency": "yes", "healthcare": "hospital", "name": "Kemperhof", "opening_hours": "24/7", "operator": "Gemeinschaftsklinikum Mittelrhein gGmbH", "wheelchair": "yes", "wikidata": "Q1774624", "wikipedia": "de:Kemperhof"}}, {"name": "Diakonie-Krankenhaus", "latitude": 49.7945675, "longitude": 7.455733, "source": "osm", "_tags": {"amenity": "hospital", "contact:phone": "+49 6752 133-0", "contact:website": "https://www.kreuznacherdiakonie.de/krankenhaeuser/diakonie-krankenhaus-kirn/", "emergency": "yes", "healthcare": "hospital", "name": "Diakonie-Krankenhaus", "opening_hours": "24/7", "wheelchair": "yes"}}, {"name": "Westpfalz-Klinikum", "latitude": 49.4414066, "longitude": 7.7563994, "source": "osm", "_tags": {"addr:city": "Kaiserslautern", "addr:housenumber": "1", "addr:postcode": "67655", "addr:street": "Hellmut-Hartert-Straße", "alt_name": "Westpfalz-Klinikum Kaiserslautern", "amenity": "hospital", "contact:email": "info@westpfalz-klinikum.de", "contact:fax": "+49 631 203-1703", "contact:phone": "+496312030", "contact:website": "http://www.westpfalz-klinikum.de/", "emergency": "yes", "healthcare": "hospital", "name": "Westpfalz-Klinikum", "operator": "Westpfalz-Klinikum GmbH", "wheelchair": "yes", "wikidata": "Q30292564", "wikipedia": "de:Westpfalz-Klinikum"}}, {"name": "Hunsrück Klinik", "latitude": 49.980508, "longitude": 7.5174576, "source": "osm", "_tags": {"addr:city": "Simmern/Hunsrück", "addr:country": "DE", "addr:housenumber": "1", "addr:postcode": "55469", "addr:street": "Holzbacher Straße", "amenity": "hospital", "building": "hospital", "contact:email": "info@kreuznacherdiakonie.de", "contact:phone": "+49 6761 81-0", "contact:website": "https://www.kreuznacherdiakonie.de/", "healthcare": "hospital", "name": "Hunsrück Klinik", "operator": "kreuznacher diakonie", "wheelchair": "yes"}}, {"name": "Lutrina-Klinik", "latitude": 49.4418656, "longitude": 7.7723088, "source": "osm", "_tags": {"addr:city": "Kaiserslautern", "addr:country": "DE", "addr:housenumber": "33", "addr:postcode": "67655", "addr:street": "Karl-Marx-Straße", "amenity": "hospital", "building": "yes", "check_date": "2024-12-14", "emergency": "yes", "healthcare": "hospital", "name": "Lutrina-Klinik", "wheelchair": "yes"}}, {"name": "BDH-Klinik Vallendar", "latitude": 50.3998574, "longitude": 7.6116395, "source": "osm", "_tags": {"amenity": "hospital", "building": "yes", "healthcare": "hospital", "name": "BDH-Klinik Vallendar", "toilets:wheelchair": "yes", "website": "https://www.bdh-reha.de/", "wheelchair": "yes"}}, {"name": "Marienkrankenhaus Sankt Wendel", "latitude": 49.4534166, "longitude": 7.1786714, "source": "osm", "_tags": {"amenity": "hospital", "email": "info.wnd@marienhaus.de", "emergency": "yes", "fax": "+49 6851 70136", "healthcare": "hospital", "healthcare:speciality": "geriatrics;psychiatry", "name": "Marienkrankenhaus Sankt Wendel", "opening_hours": "24/7", "operator": "Marienhaus Kliniken GmbH", "phone": "+49 6851 5901", "website": "https://www.mkh-wnd.de"}}, {"name": "St. Josefs-Hospital Rheingau", "latitude": 49.9831747, "longitude": 7.9264059, "source": "osm", "_tags": {"addr:city": "Rüdesheim am Rhein", "addr:country": "DE", "addr:housenumber": "9", "addr:postcode": "65385", "addr:street": "Eibinger Straße", "amenity": "hospital", "building": "hospital", "capacity:beds": "200", "contact:website": "http://www.joho-rheingau.de", "health_facility:type": "hospital", "health_specialty:general_surgery": "yes", "health_specialty:internal_medicine": "yes", "health_specialty:surgery": "yes", "healthcare": "hospital", "medical_system:western": "yes", "name": "St. Josefs-Hospital Rheingau", "operator": "St. Josefs-Hospital Rheingau GmbH", "toilets:wheelchair": "yes", "wheelchair": "yes"}}, {"name": "Krankenhaus Rockenhausen", "latitude": 49.6307343, "longitude": 7.8144719, "source": "osm", "_tags": {"alt_name": "Westpfalz-Klinikum Rockenhausen", "amenity": "hospital", "contact:fax": "+49 6361 455-441", "contact:phone": "+49 6361 455-0", "contact:website": "https://www.westpfalz-klinikum.de", "emergency": "yes", "healthcare": "hospital", "healthcare:speciality": "geriatrics;internal;cardiology;psychiatry", "name": "Krankenhaus Rockenhausen", "opening_hours": "24/7", "operator": "Westpfalz-Klinikum GmbH", "operator:wikidata": "Q2565555", "wheelchair": "yes", "wikidata": "Q56045754", "wikipedia": "de:Krankenhaus Rockenhausen"}}, {"name": "ACURA Rheuma-Akutzentrum", "latitude": 49.8403356, "longitude": 7.8556199, "source": "osm", "_tags": {"addr:city": "Bad Kreuznach", "addr:housenumber": "9-11", "addr:postcode": "55543", "addr:street": "Kaiser-Wilhelm-Straße", "amenity": "hospital", "building": "hospital", "building:levels": "6", "email": "info@rheumazentrum-rlp.de", "healthcare": "hospital", "name": "ACURA Rheuma-Akutzentrum", "operator": "ACURA Kliniken Rheinland-Pfalz GmbH", "phone": "+49 671 93-0", "roof:levels": "0", "website": "https://kh-acura-kliniken.com"}}, {"name": "Krankenhaus St. Marienwörth", "latitude": 49.8474727, "longitude": 7.862101, "source": "osm", "_tags": {"amenity": "hospital", "contact:email": "kontakt@marienwoerth.de", "contact:fax": "+49 671 372-1517", "contact:phone": "+49 671 372-0", "contact:website": "https://www.st-marienwoerth.de", "emergency": "yes", "healthcare": "hospital", "name": "Krankenhaus St. Marienwörth", "wheelchair": "yes"}}, {"name": "Brüderhaus Koblenz", "latitude": 50.3536069, "longitude": 7.5868732, "source": "osm", "_tags": {"addr:housenumber": "1-5", "addr:postcode": "56073", "addr:street": "Kardinal-Krementz-Straße", "amenity": "hospital", "healthcare": "hospital", "name": "Brüderhaus Koblenz", "operator": "Katholische Kliniken Koblenz", "toilets:wheelchair": "yes", "wheelchair": "yes"}}, {"name": "St. Josef-Krankenhaus Zell", "latitude": 50.0236154, "longitude": 7.1679618, "source": "osm", "_tags": {"amenity": "hospital", "contact:email": "info@krankenhaus-zell.de", "contact:fax": "+49 6542 971721", "contact:phone": "+49 6542 970", "contact:website": "http://www.krankenhaus-zell.de", "emergency": "yes", "healthcare": "hospital", "name": "St. Josef-Krankenhaus Zell", "toilets:wheelchair": "yes", "wheelchair": "yes"}}, {"name": "Heilig Geist", "latitude": 50.232458, "longitude": 7.5874522, "source": "osm", "_tags": {"alt_name": "Hospital zum Heiligen Geist Boppard", "amenity": "hospital", "contact:email": "info@gk.de", "contact:fax": "+49 6472 1016609", "contact:phone": "+49 6472 1010", "contact:website": "https://www.gk.de", "healthcare": "hospital", "name": "Heilig Geist", "old_name": "Gesundheitszentrum zum Heiligen Geist", "operator": "Gemeinschaftsklinikum Mittelrhein gGmbH", "wheelchair": "yes", "wikidata": "Q2700047", "wikipedia": "de:Hospital zum Heiligen Geist Boppard"}}, {"name": "Heilig-Geist-Hospital Bingen", "latitude": 49.9684253, "longitude": 7.8967741, "source": "osm", "_tags": {"addr:city": "Bingen am Rhein", "addr:country": "DE", "addr:housenumber": "15-17", "addr:postcode": "55411", "addr:street": "Kapuzinerstraße", "amenity": "hospital", "building": "hospital", "building:levels": "5", "emergency": "yes", "healthcare": "hospital", "name": "Heilig-Geist-Hospital Bingen", "operator": "Heilig-Geist-Hospital Bingen gGmbH", "phone": "+004967219070", "roof:levels": "0", "roof:shape": "flat", "toilets:wheelchair": "yes", "website": "https://www.heilig-geist-hospital.de/", "wheelchair": "yes", "wikidata": "Q1594840"}}, {"name": "Baumholder Army Health Clinic", "latitude": 49.6154211, "longitude": 7.3291758, "source": "osm", "_tags": {"amenity": "hospital", "email": "LNDBHRweb@amedd.army.mil", "emergency": "yes", "healthcare": "hospital", "name": "Baumholder Army Health Clinic", "operator": "U.S. Army Regional Health Command Europe", "website": "https://rhce.amedd.army.mil/baumholder/"}}, {"name": "Gesundheitszentrum Glantal", "latitude": 49.7065332, "longitude": 7.6768326, "source": "osm", "_tags": {"addr:city": "Meisenheim", "addr:country": "DE", "addr:housenumber": "32", "addr:postcode": "55590", "addr:street": "Liebfrauenberg", "amenity": "hospital", "building": "hospital", "email": "info@gzg.landeskrankenhaus.de", "fax": "+49 6753 910-4350", "healthcare": "hospital", "name": "Gesundheitszentrum Glantal", "operator": "Landeskrankenhaus Rheinland-Pfalz", "phone": "+49 6753 910-0", "website": "https://www.gesundheitszentrum-glantal.de/", "wheelchair": "yes"}}, {"name": "Westpfalz-Klinikum Standort Kusel", "latitude": 49.5466167, "longitude": 7.3773385, "source": "osm", "_tags": {"addr:city": "Ruthweiler", "addr:postcode": "66869", "addr:street": "Im Flur", "alt_name": "Westpfalz-Klinikum Kusel", "amenity": "hospital", "contact:email": "info@westpfalz-klinikum.de", "contact:fax": "+49 6381 93-5702", "contact:phone": "+49 6381 93-0", "contact:website": "http://westpfalz-klinikum.de", "emergency": "yes", "healthcare": "hospital", "name": "Westpfalz-Klinikum Standort Kusel", "operator": "Westpfalz-Klinikum GmbH", "wikipedia": "de:Westpfalz-Klinikum"}}, {"name": "Klinikum Idar-Oberstein", "latitude": 49.7164349, "longitude": 7.3213609, "source": "osm", "_tags": {"amenity": "hospital", "contact:email": "info@io.shg-kliniken.de", "contact:fax": "+49 6781 66-1940", "contact:phone": "+49 6781 66-0", "contact:website": "https://io.shg-kliniken.de", "emergency": "yes", "healthcare": "hospital", "name": "Klinikum Idar-Oberstein", "opening_hours": "24/7", "operator": "Klinikum Idar-Oberstein GmbH", "wheelchair": "yes", "wikipedia": "de:Idar-Oberstein#Klinikum Idar-Oberstein"}}, {"name": "DRK-Elisabeth-Krankenhaus Birkenfeld", "latitude": 49.6456171, "longitude": 7.1598129, "source": "osm", "_tags": {"addr:city": "Birkenfeld", "addr:country": "DE", "addr:postcode": "55765", "addr:street": "Walter-Bleicker-Platz", "amenity": "hospital", "contact:email": "info@e-s-b.org", "contact:fax": "+49 6782 18-1104", "contact:phone": "+49 6782 18-0", "contact:website": "https://www.e-s-b.org/krankenhaus/", "healthcare": "hospital", "name": "DRK-Elisabeth-Krankenhaus Birkenfeld", "toilets:wheelchair": "yes", "wheelchair": "yes"}}, {"name": "St. Josefs-Hospital Rheingau GmbH", "latitude": 49.9833551, "longitude": 7.9268031, "source": "osm", "_tags": {"addr:city": "Rüdesheim am Rhein", "addr:housenumber": "9", "addr:postcode": "65385", "addr:street": "Eibinger Straße", "amenity": "hospital", "healthcare": "hospital", "name": "St. Josefs-Hospital Rheingau GmbH"}}, {"name": "Paulinenstift", "latitude": 50.2024581, "longitude": 7.8559045, "source": "osm", "_tags": {"amenity": "hospital", "capacity:beds": "92", "check_date": "2024-03-12", "contact:email": "info@gk.de", "contact:fax": "+49 6772 804-8156", "contact:phone": "+49 6772 804-0", "contact:website": "https://www.gk.de/krankenhaeuser/paulinenstift-nastaetten/", "emergency": "yes", "healthcare": "hospital", "name": "Paulinenstift", "operator": "Gemeinschaftsklinikum Mittelrhein gGmbH", "toilets:wheelchair": "yes", "wheelchair": "yes", "wikidata": "Q18629742", "wikipedia": "de:Paulinenstift Nastätten"}}, {"name": "Cusanus-Krankenhaus Bernkastel-Kues", "latitude": 49.9155607, "longitude": 7.0629135, "source": "osm", "_tags": {"amenity": "hospital", "emergency": "yes", "healthcare": "hospital", "healthcare:speciality": "surgery;geriatrics;internal;oncology;urology;palliative", "name": "Cusanus-Krankenhaus Bernkastel-Kues", "opening_hours": "24/7", "operator": "Verbundkrankenhaus Bernkastel-Wittlich", "wheelchair": "yes"}}, {"name": "Regioklinik St. Josef", "latitude": 49.6575672, "longitude": 6.9474417, "source": "osm", "_tags": {"amenity": "hospital", "contact:phone": "+49 6503 810", "contact:website": "https://www.marienkrankenhaus-hermeskeil.de/", "emergency": "no", "healthcare": "hospital", "name": "Regioklinik St. Josef", "note": "Das Gesamtgelände nennt sich eigentlich \"Marienhaus Campus Hermeskeil\" mit den Einrichtungen Regioklinik St. Josef, Geriatrische Reha und MVZ", "operator": "Marienhaus Kliniken GmbH", "wheelchair": "yes"}}, {"name": "Haus Pella", "latitude": 49.8362133, "longitude": 7.8643364, "source": "osm", "_tags": {"addr:postcode": "55543", "amenity": "hospital", "email": "info@kreuznacherdiakonie.de", "emergency": "yes", "healthcare": "hospital", "name": "Haus Pella", "operator": "kreuznacher diakonie", "phone": "+49 671 6050", "source": "local_knowledge", "website": "https://www.kreuznacherdiakonie.de", "wheelchair": "yes"}}, {"name": "Marienkrankenhaus Cochem", "latitude": 50.1555986, "longitude": 7.1794418, "source": "osm", "_tags": {"amenity": "hospital", "contact:email": "info@marienkrankenhaus-cochem.de", "contact:fax": "+49 2671 985-103", "contact:phone": "+49 2671 985-0", "contact:website": "http://www.marienkrankenhaus-cochem.de/", "emergency": "yes", "healthcare": "hospital", "name": "Marienkrankenhaus Cochem", "operator": "Marienkrankenhaus Cochem GmbH", "wheelchair": "yes"}}, {"name": "St. Elisabeth Krankenhaus Lahnstein", "latitude": 50.3052488, "longitude": 7.6090213, "source": "osm", "_tags": {"amenity": "hospital", "description:healthcare:specialty": "Seit Februar 2024 nur Psychatrie und Psychotherapie", "email": "info@krankenhaus-lahnstein.de", "emergency": "yes", "fax": "+49 2621 171 1009", "healthcare": "hospital", "healthcare:speciality": "psychiatry", "name": "St. Elisabeth Krankenhaus Lahnstein", "opening_hours": "24/7", "phone": "+49 2621 171 0", "website": "https://krankenhaus-lahnstein.de", "wheelchair": "yes", "wikidata": "Q126505386"}}, {"name": "504A", "latitude": 49.4507103, "longitude": 7.6203682, "source": "osm", "_tags": {"amenity": "hospital", "building": "yes", "healthcare": "hospital", "name": "504A"}}, {"name": "504B", "latitude": 49.4508078, "longitude": 7.6209531, "source": "osm", "_tags": {"amenity": "hospital", "building": "yes", "healthcare": "hospital", "name": "504B"}}, {"name": "504C", "latitude": 49.4509154, "longitude": 7.6215278, "source": "osm", "_tags": {"amenity": "hospital", "building": "yes", "healthcare": "hospital", "name": "504C"}}, {"name": "502C", "latitude": 49.4513065, "longitude": 7.6200742, "source": "osm", "_tags": {"amenity": "hospital", "healthcare": "hospital", "name": "502C"}}, {"name": "502D", "latitude": 49.4514472, "longitude": 7.6203721, "source": "osm", "_tags": {"amenity": "hospital", "healthcare": "hospital", "name": "502D"}}, {"name": "502E", "latitude": 49.4515238, "longitude": 7.6209254, "source": "osm", "_tags": {"amenity": "hospital", "healthcare": "hospital", "name": "502E"}}, {"name": "502F", "latitude": 49.4515112, "longitude": 7.6213342, "source": "osm", "_tags": {"amenity": "hospital", "healthcare": "hospital", "name": "502F"}}, {"name": "502B", "latitude": 49.4512606, "longitude": 7.6195824, "source": "osm", "_tags": {"amenity": "hospital", "healthcare": "hospital", "name": "502B"}}, {"name": "505", "latitude": 49.4513459, "longitude": 7.6228172, "source": "osm", "_tags": {"amenity": "hospital", "building": "yes", "healthcare": "hospital", "name": "505"}}, {"name": "502A", "latitude": 49.4513458, "longitude": 7.6192754, "source": "osm", "_tags": {"amenity": "hospital", "healthcare": "hospital", "name": "502A"}}, {"name": "502H", "latitude": 49.4517266, "longitude": 7.6220785, "source": "osm", "_tags": {"amenity": "hospital", "healthcare": "hospital", "name": "502H"}}, {"name": "502G", "latitude": 49.4515703, "longitude": 7.6217865, "source": "osm", "_tags": {"amenity": "hospital", "healthcare": "hospital", "name": "502G"}}, {"name": "Gemeinschaftsklinikum Koblenz-Mayen St. Elisabeth Mayen", "latitude": 50.3252384, "longitude": 7.2182312, "source": "osm", "_tags": {"addr:city": "Mayen", "addr:housenumber": "20", "addr:postcode": "56727", "addr:street": "Siegfriedstraße", "amenity": "hospital", "building": "yes", "emergency": "yes", "healthcare": "hospital", "name": "Gemeinschaftsklinikum Koblenz-Mayen St. Elisabeth Mayen", "type": "multipolygon", "wheelchair": "yes"}}, {"name": "Bundeswehrzentralkrankenhaus Koblenz", "latitude": 50.3681587, "longitude": 7.5434886, "source": "osm", "_tags": {"addr:city": "Koblenz", "addr:housenumber": "170", "addr:postcode": "56072", "addr:street": "Rübenacher Straße", "amenity": "hospital", "contact:email": "BwZKrhsKoblenz@bundeswehr.org", "contact:phone": "+49 261 281 89", "contact:website": "https://www.bwkrankenhaus.de/de/bundeswehrzentralkrankenhaus-koblenz", "emergency": "yes", "healthcare": "hospital", "healthcare:speciality": "emergency;internal;dermatology;dermatovenereology;allergology;otolaryngology;dental_oral_maxillo_facial_surgery;neurology;urology;pathology;nuclear;cardiothoracic_surgery;dentistry;surgery;psychiatry;radiology;anaesthetics;intensive;neurosurgery", "landuse": "military", "loc_name": "BwZK", "military": "hospital", "name": "Bundeswehrzentralkrankenhaus Koblenz", "official_name": "BundeswehrZentralkrankenhaus Koblenz", "operator": "Bundeswehr", "operator:type": "government", "short_name": "BwZKrhs Koblenz", "start_date": "1957-07-02", "type": "multipolygon", "wheelchair": "yes", "wikidata": "Q1009286", "wikipedia": "de:Bundeswehrzentralkrankenhaus Koblenz"}}, {"name": "Geriatrische Fachklinik Rheinhessen-Nahe", "latitude": 49.810787, "longitude": 7.8457355, "source": "osm", "_tags": {"addr:city": "Bad Kreuznach", "addr:housenumber": "63-65", "addr:postcode": "55583", "addr:street": "Berliner Straße", "addr:suburb": "Bad Münster am Stein-Ebernburg", "amenity": "hospital", "building": "yes", "healthcare": "hospital", "healthcare:speciality": "geriatrics", "name": "Geriatrische Fachklinik Rheinhessen-Nahe", "type": "multipolygon", "wheelchair": "yes"}}]