[{"name": "Krankenhaus für Psychiatrie, Psychotherapie und Psychosomatische Medizin Schloss Werneck", "latitude": 49.9786763, "longitude": 10.0990793, "source": "osm", "_tags": {"addr:city": "Werneck", "addr:country": "DE", "addr:housenumber": "1", "addr:postcode": "97440", "addr:street": "Balthasar-Neumann-Platz", "amenity": "hospital", "email": "info@kh-schloss-werneck.de", "emergency": "yes", "healthcare": "hospital", "healthcare:speciality": "psychosomatic_medicine;psychiatry", "name": "Krankenhaus für Psychiatrie, Psychotherapie und Psychosomatische Medizin Schloss Werneck", "phone": "+49 9722 210", "website": "https://www.psychiatrie-werneck.de", "wheelchair": "yes"}}, {"name": "Orthopädisches Krankenhaus Schloss Werneck", "latitude": 49.9803341, "longitude": 10.1003533, "source": "osm", "_tags": {"addr:city": "Werneck", "addr:country": "DE", "addr:housenumber": "1", "addr:postcode": "97440", "addr:street": "Balthasar-Neumann-Platz", "amenity": "hospital", "email": "info@kh-schloss-werneck.de", "emergency": "yes", "healthcare": "hospital", "healthcare:speciality": "orthopaedics", "name": "Orthopädisches Krankenhaus Schloss Werneck", "phone": "+49 9722 210", "website": "https://www.orthopädie-werneck.de/", "wheelchair": "yes"}}, {"name": "Kinderklinik am Mönchberg", "latitude": 49.7937229, "longitude": 9.9531356, "source": "osm", "_tags": {"amenity": "hospital", "check_date": "2024-04-25", "healthcare": "hospital", "name": "Kinderklinik am Mönchberg", "wheelchair": "yes"}}, {"name": "ZSVA/AEMP", "latitude": 49.867554, "longitude": 10.8919957, "source": "osm", "_tags": {"amenity": "hospital", "emergency": "no", "healthcare": "hospital", "level": "4", "name": "ZSVA/AEMP", "operator": "Service Gesellschaft Sozialstiftung Bamberg mbH", "operator:type": "private"}}, {"name": "Özden Bulut Fahrdienst", "latitude": 49.7350186, "longitude": 10.1725577, "source": "osm", "_tags": {"amenity": "car_rental", "healthcare": "hospital", "name": "Özden Bulut Fahrdienst"}}, {"name": "König-Ludwig-Haus", "latitude": 49.7822437, "longitude": 9.9485815, "source": "osm", "_tags": {"addr:city": "Würzburg", "addr:country": "DE", "addr:housenumber": "11", "addr:postcode": "97074", "addr:street": "Brettreichstraße", "amenity": "hospital", "check_date": "2025-08-04", "email": "info@koenig-ludwig-haus.de", "healthcare": "hospital", "name": "König-Ludwig-Haus", "opening_hours": "Mo-Su 08:00-20:00", "phone": "+49 931 8030", "toilets:wheelchair": "no", "website": "https://www.koenig-ludwig-haus.de/", "wheelchair": "no"}}, {"name": "KfH-Nierenzentrum", "latitude": 49.8075562, "longitude": 9.9531689, "source": "osm", "_tags": {"addr:housenumber": "1", "addr:street": "Hans-Brandmann-Weg", "amenity": "hospital", "building": "hospital", "check_date": "2025-02-26", "emergency": "no", "healthcare": "hospital", "layer": "1", "name": "KfH-Nierenzentrum", "operator": "KfH Kuratorium für Dialyse und Nierentransplantation e.V."}}, {"name": "Fachklinik Herzogenaurach", "latitude": 49.577045, "longitude": 10.8696715, "source": "osm", "_tags": {"addr:city": "Herzogenaurach", "addr:country": "DE", "addr:housenumber": "1", "addr:postcode": "91074", "addr:street": "In der Reuth", "amenity": "hospital", "building": "hospital", "building:levels": "7", "healthcare": "hospital", "name": "Fachklinik Herzogenaurach", "website": "https://www.fachklinik-herzogenaurach.de/", "wheelchair": "yes", "wikipedia": "de:Klinikgruppe Enzensberg"}}, {"name": "Palliativstation St. Joseph-Krankenhaus", "latitude": 50.0471713, "longitude": 10.2267527, "source": "osm", "_tags": {"addr:city": "Schweinfurt", "addr:country": "DE", "addr:housenumber": "9-11", "addr:postcode": "97421", "addr:street": "Neutorstraße", "amenity": "hospital", "building": "yes", "check_date": "2024-09-01", "healthcare": "hospital", "name": "Palliativstation St. Joseph-Krankenhaus", "website": "https://www.josef.de/palliativmedizin_Palliativmedizin_41_kkmenue.html"}}, {"name": "Steigerwaldklinik Burgebrach", "latitude": 49.8189069, "longitude": 10.731628, "source": "osm", "_tags": {"amenity": "hospital", "healthcare": "hospital", "name": "Steigerwaldklinik Burgebrach"}}, {"name": "Steigerwaldklinik", "latitude": 49.8191769, "longitude": 10.7313269, "source": "osm", "_tags": {"amenity": "hospital", "name": "Steigerwaldklinik"}}, {"name": "Klinikum am Bruderwald", "latitude": 49.8673665, "longitude": 10.8906281, "source": "osm", "_tags": {"addr:city": "Bamberg", "addr:country": "DE", "addr:housenumber": "80", "addr:postcode": "96049", "addr:street": "Buger Straße", "amenity": "hospital", "contact:email": "info@sozialstiftung-bamberg.de", "contact:fax": "+49 951 50311009", "contact:phone": "+49 951 5030", "contact:website": "https://www.sozialstiftung-bamberg.de/klinikum-bamberg/", "emergency": "yes", "healthcare": "hospital", "name": "Klinikum am Bruderwald", "opening_hours": "24/7", "operator": "Sozialstiftung Bamberg", "operator:type": "public", "toilets:wheelchair": "yes", "wheelchair": "limited", "wikidata": "Q18022269"}}, {"name": "Klinik Bad Windsheim", "latitude": 49.5152176, "longitude": 10.4111717, "source": "osm", "_tags": {"amenity": "hospital", "emergency": "yes", "healthcare": "hospital", "name": "Klinik Bad Windsheim", "operator": "Kliniken des Landkreises Neustadt a. d. Aisch - Bad Windsheim", "phone": "+49 9841 990", "toilets:wheelchair": "yes", "website": "https://www.kliniken-nea.de/medizin-pflege/klinik-bad-windsheim", "wheelchair": "yes"}}, {"name": "Frankenland-Klinik", "latitude": 49.5086307, "longitude": 10.4137705, "source": "osm", "_tags": {"addr:city": "Bad Windsheim", "addr:country": "DE", "addr:housenumber": "1", "addr:postcode": "91438", "addr:street": "Schwarzallee", "amenity": "clinic", "healthcare": "hospital", "name": "Frankenland-Klinik", "phone": "+49 9841 95102", "toilets:wheelchair": "yes", "website": "https://www.frankenland-klinik.de", "wheelchair": "yes"}}, {"name": "Dr. Becker Kiliani-Klinik", "latitude": 49.5092959, "longitude": 10.4108817, "source": "osm", "_tags": {"addr:city": "Bad Windsheim", "addr:country": "DE", "addr:housenumber": "10", "addr:postcode": "91438", "addr:street": "Schwarzallee", "amenity": "hospital", "healthcare": "hospital", "name": "Dr. Becker Kiliani-Klinik", "toilets:wheelchair": "yes", "wheelchair": "yes"}}, {"name": "Adaptionseinrichtung 'Maria Stern'", "latitude": 50.31848, "longitude": 10.2261317, "source": "osm", "_tags": {"addr:city": "Bad Neustadt an der Saale", "addr:country": "DE", "addr:housenumber": "32", "addr:postcode": "97616", "addr:street": "Kurhausstraße", "addr:suburb": "Mühlbach", "amenity": "hospital", "building": "yes", "healthcare": "hospital", "name": "Adaptionseinrichtung 'Maria Stern'", "operator": "Haus Saaletal GmbH"}}, {"name": "MEDIAN Klinik Römhild", "latitude": 50.3898208, "longitude": 10.5662547, "source": "osm", "_tags": {"addr:city": "Römhild", "addr:housenumber": "2", "addr:postcode": "98630", "addr:street": "Am Großen Gleichberg", "amenity": "hospital", "email": "roemhild-kontakt@median-kliniken.de", "healthcare": "hospital", "name": "MEDIAN Klinik Römhild", "operator": "MEDIAN Unternehmensgruppe B.V. & Co. KG", "phone": "+49 36948 87-0", "website": "https://www.median-kliniken.de/de/median-klinik-roemhild/"}}, {"name": "Kreiskrankenhaus GeoMed Klinik Gerolzhofen", "latitude": 49.9006262, "longitude": 10.3559732, "source": "osm", "_tags": {"addr:city": "Gerolzhofen", "addr:country": "DE", "addr:housenumber": "5", "addr:postcode": "97447", "addr:street": "Dingolshäuser Straße", "amenity": "hospital", "emergency": "yes", "healthcare": "hospital", "name": "Kreiskrankenhaus GeoMed Klinik Gerolzhofen", "phone": "+49 9382 6010", "website": "https://www.geomed-klinik.de/#", "wheelchair": "yes"}}, {"name": "KWM-Missioklinik", "latitude": 49.7944109, "longitude": 9.9547351, "source": "osm", "_tags": {"amenity": "hospital", "healthcare": "hospital", "name": "KWM-Missioklinik"}}, {"name": "Klinik am Greinberg", "latitude": 49.8005675, "longitude": 9.9657241, "source": "osm", "_tags": {"addr:city": "Würzburg", "addr:country": "DE", "addr:housenumber": "2", "addr:postcode": "97076", "addr:street": "Graf-Moritz-Weg", "amenity": "hospital", "building": "yes", "contact:phone": "+49 931 991476 0", "contact:website": "https://www.bezirk-unterfranken.de/einrichtungen/wuerzburg/klinik-am-greinberg/11402.Klinik-am-Greinberg---Spezialklinik-fuer-Kinder--und-Jugendpsychiatrie-Psychosomatik-und-Psychotherapie.html", "healthcare": "hospital", "name": "Klinik am Greinberg"}}, {"name": "Sankt Elisabeth Krankenhaus", "latitude": 50.1895927, "longitude": 10.0829181, "source": "osm", "_tags": {"addr:country": "DE", "addr:postcode": "97688", "alt_name": "Helios St. Elisabeth-Krankenhaus Bad Kissingen", "amenity": "hospital", "contact:housenumber": "150", "contact:street": "Kissinger Straße", "healthcare": "hospital", "name": "Sankt Elisabeth Krankenhaus", "operator": "Helios Kliniken", "operator:type": "private", "operator:wikidata": "Q1254151", "phone": "+49 971 805-0", "url": "http://www.helios-kliniken.de/klinik/bad-kissingen.html", "wheelchair": "yes"}}, {"name": "Haßberg-Kliniken Haus Hassfurt", "latitude": 50.0404247, "longitude": 10.5146057, "source": "osm", "_tags": {"addr:city": "Haßfurt", "addr:country": "DE", "addr:housenumber": "69", "addr:postcode": "97437", "addr:street": "Hofheimer Straße", "alt_name": "Krankenhaus; Haßberg-Kliniken Haßfurt", "amenity": "hospital", "healthcare": "hospital", "name": "Haßberg-Kliniken Haus Hassfurt", "phone": "+49 9521 28-511", "website": "https://www.hassberg-kliniken.de/", "wheelchair": "yes"}}, {"name": "Saaletalklinik", "latitude": 50.3239906, "longitude": 10.2300689, "source": "osm", "_tags": {"addr:city": "Bad Neustadt an der Saale", "addr:country": "DE", "addr:housenumber": "7", "addr:postcode": "97616", "addr:street": "Salzburgweg", "amenity": "hospital", "description": "Gebäude 9 des Campus Bad Neustadt (Campus Süd)", "email": "stk@saaletalklinik.de", "fax": "+49 9771 905 49001", "healthcare": "hospital", "name": "Saaletalklinik", "operator": "Haus Saaletal GmbH", "phone": "+49 9771 905 0", "website": "https://saaletal.campus-nes.de/haus-saaletal-gmbh.html"}}, {"name": "Fachklinik Heiligenfeld", "latitude": 50.1874907, "longitude": 10.0703698, "source": "osm", "_tags": {"addr:city": "Bad Kissingen", "addr:country": "DE", "addr:housenumber": "4-6", "addr:postcode": "97688", "addr:street": "Euerdorfer Straße", "amenity": "hospital", "email": "info@heiligenfeld.de", "healthcare": "hospital", "name": "Fachklinik Heiligenfeld", "phone": "+49 971 840", "website": "https://www.heiligenfeld.de/kliniken/bad-kissingen/fachklinik-heiligenfeld/"}}, {"name": "Thoraxzentrum Bezirk Unterfranken", "latitude": 50.2510645, "longitude": 10.1791546, "source": "osm", "_tags": {"addr:city": "Münnerstadt", "addr:country": "DE", "addr:housenumber": "1", "addr:postcode": "97702", "addr:street": "Michelsberg", "amenity": "hospital", "email": "info@tzbu.de", "healthcare": "hospital", "healthcare:speciality": "thoracic_surgery;pulmonology", "name": "Thoraxzentrum Bezirk Unterfranken", "phone": "+49 9733 620", "website": "https://www.tzbu.de/wir_ueber_uns/index.html", "wheelchair": "yes"}}, {"name": "Klinik am Steigerwald", "latitude": 49.889173, "longitude": 10.408378, "source": "osm", "_tags": {"addr:city": "Gerolzhofen", "addr:postcode": "97447", "addr:street": "Waldesruh", "amenity": "hospital", "description": "Traditionelle Chinesische Medizin", "emergency": "no", "healthcare": "hospital", "healthcare:speciality": "traditional_chinese_medicine", "name": "Klinik am Steigerwald", "website": "https://www.tcmklinik.de/"}}, {"name": "Frankenpark Klinik Bad Kissingen", "latitude": 50.1913549, "longitude": 10.0705005, "source": "osm", "_tags": {"addr:housenumber": "68", "addr:street": "Bismarckstraße", "amenity": "hospital", "building": "hospital", "building:levels": "4", "building:use": "medical", "check_date": "2024-03-23", "healthcare": "hospital", "name": "Frankenpark Klinik Bad Kissingen", "operator": "Median Kliniken", "operator:type": "private", "operator:wikidata": "Q1916200", "operator:wikipedia": "de:Median Kliniken", "roof:levels": "1", "wheelchair": "yes"}}, {"name": "Forensik Schloss Werneck", "latitude": 49.9803855, "longitude": 10.1054456, "source": "osm", "_tags": {"amenity": "prison", "health_speciality": "forensic_psychiatry", "healthcare": "hospital", "name": "Forensik Schloss Werneck", "ref": "Haus J"}}, {"name": "Heiligenfeld Klinik", "latitude": 49.5421387, "longitude": 10.2353859, "source": "osm", "_tags": {"addr:city": "Uffenheim", "addr:housenumber": "1", "addr:postcode": "97215", "addr:street": "Krankenhausstraße", "amenity": "hospital", "building": "hospital", "building:levels": "3", "emergency": "no", "healthcare": "hospital", "name": "Heiligenfeld Klinik", "roof:levels": "1", "roof:shape": "flat", "type": "Psychosomatische Klinik", "website": "https://www.heiligenfeld.de/", "wheelchair": "yes"}}, {"name": "Haßberg-Kliniken Haus Ebern", "latitude": 50.0972332, "longitude": 10.7982507, "source": "osm", "_tags": {"addr:city": "Ebern", "addr:country": "DE", "addr:housenumber": "21", "addr:postcode": "96106", "addr:street": "Coburger Straße", "alt_name": "Haßberg-Kliniken Ebern", "amenity": "hospital", "emergency": "yes", "healthcare": "hospital", "name": "Haßberg-Kliniken Haus Ebern", "phone": "+49-9531-628-0", "website": "https://www.hassberg-kliniken.de/kliniken-hausebn.html"}}, {"name": "Klinikum am Michelsberg", "latitude": 49.8931298, "longitude": 10.871427, "source": "osm", "_tags": {"addr:city": "Bamberg", "addr:country": "DE", "addr:housenumber": "18", "addr:postcode": "96049", "addr:street": "Sankt-Getreu-Straße", "amenity": "hospital", "contact:website": "https://www.sozialstiftung-bamberg.de/klinikum-bamberg/kliniken-und-experten/psychiatrie/", "emergency": "no", "healthcare": "hospital", "name": "Klinikum am Michelsberg", "operator": "Sozialstiftung Bamberg", "toilets:wheelchair": "yes", "wheelchair": "yes"}}, {"name": "Klinik Neustadt", "latitude": 49.5820339, "longitude": 10.6229515, "source": "osm", "_tags": {"addr:city": "Neustadt an der Aisch", "addr:country": "DE", "addr:housenumber": "30", "addr:postcode": "91413", "addr:street": "Paracelsusstraße", "amenity": "hospital", "fax": "+49 9161 702750", "healthcare": "hospital", "name": "Klinik Neustadt", "operator": "Kliniken des Landkreises Neustadt a. d. Aisch - Bad Windsheim", "phone": "+49 9161 700", "website": "https://www.kliniken-nea.de/medizin-pflege/klinik-neustadt-a-d-aisch/", "wheelchair": "yes"}}, {"name": "Klinik Kitzinger Land", "latitude": 49.7436917, "longitude": 10.1392093, "source": "osm", "_tags": {"addr:housenumber": "67", "addr:postcode": "97318", "addr:street": "Keltenstraße", "amenity": "hospital", "healthcare": "hospital", "name": "Klinik Kitzinger Land", "opening_hours": "24/7", "phone": "+49 9321 7040", "website": "https://www.k-kl.de/"}}, {"name": "Main-Klinik Ochsenfurt", "latitude": 49.6602674, "longitude": 10.0879949, "source": "osm", "_tags": {"amenity": "hospital", "healthcare": "hospital", "name": "Main-Klinik Ochsenfurt"}}, {"name": "St. Josef Krankenhaus", "latitude": 50.0436861, "longitude": 10.2252873, "source": "osm", "_tags": {"addr:city": "Schweinfurt", "addr:country": "DE", "addr:housenumber": "1", "addr:postcode": "97421", "addr:street": "Ludwigstraße", "amenity": "hospital", "check_date": "2024-09-21", "email": "info@josef.de", "healthcare": "hospital", "name": "St. Josef Krankenhaus", "phone": "+49 9721 57 0", "website": "https://www.josef.de/"}}, {"name": "Leopoldina-Krankenhaus", "latitude": 50.0516374, "longitude": 10.2432798, "source": "osm", "_tags": {"amenity": "hospital", "emergency": "yes", "healthcare": "hospital", "name": "Leopoldina-Krankenhaus", "operator": "Leopoldina-Krankenhaus der Stadt Schweinfurt GmbH", "website": "https://www.leopoldina-krankenhaus.com/", "wheelchair": "yes"}}, {"name": "Krankenhaus Markt Werneck", "latitude": 49.9813975, "longitude": 10.0994959, "source": "osm", "_tags": {"addr:city": "Werneck", "addr:country": "DE", "addr:housenumber": "5", "addr:postcode": "97440", "addr:street": "Balthasar-Neumann-Platz", "amenity": "hospital", "email": "info@krankenhaus-werneck.de", "healthcare": "hospital", "name": "Krankenhaus Markt Werneck", "phone": "+49 9722 590", "website": "https://www.krankenhaus-werneck.de/"}}, {"name": "Neurologische Klinik", "latitude": 50.3245263, "longitude": 10.2388126, "source": "osm", "_tags": {"addr:city": "Bad Neustadt an der Saale", "addr:country": "DE", "addr:housenumber": "10", "addr:postcode": "97616", "addr:street": "von-Guttenberg-Straße", "alt_name": "Neurologie und Neurologische Intensivmedizin", "amenity": "hospital", "description": "Haus 8 des Campus Bad Neustadt; Akutneurologie und neurologische Internsivstation", "healthcare": "hospital", "name": "Neurologische Klinik", "phone": "+49 9771 908 83100", "website": "https://www.campus-nes.de/behandlungsangebot/unsere-kliniken/neurologie-und-neurologische-intensivmedizin.html", "wheelchair": "yes"}}, {"name": "Psychosomatische Klinik Bad Neustadt", "latitude": 50.3179961, "longitude": 10.2248712, "source": "osm", "_tags": {"addr:city": "Bad Neustadt an der Saale", "addr:country": "DE", "addr:housenumber": "31", "addr:postcode": "97616", "addr:street": "Kurhausstraße", "amenity": "hospital", "description": "Gebäude 7 des Campus Bad Neustadt (Campus Süd)", "email": "psk@psychosomatische-klinik-bad-neustadt.de", "fax": "+49 9771 67-79000", "healthcare": "psychotherapist", "healthcare:speciality": "psychosomatic_medicine", "name": "Psychosomatische Klinik Bad Neustadt", "operator": "Rhön-Klinikum, Campus Bad Neustadt", "phone": "+49 9771 6770", "website": "https://psychosomatik.campus-nes.de/"}}, {"name": "Marbachtalklinik", "latitude": 50.1984023, "longitude": 10.0608312, "source": "osm", "_tags": {"addr:city": "Bad Kissingen", "addr:housenumber": "4", "addr:postcode": "97688", "addr:street": "Doktor-Georg-Heim-Straße", "amenity": "hospital", "check_date": "2024-09-27", "email": "info.marbachtal-klinik@drv-oldenburg-bremen.de", "healthcare": "hospital", "name": "Marbachtalklinik", "operator": "Deutsche Rentenversicherung", "phone": "+49 971 8080", "website": "http://www.marbachtalklinik.de/"}}, {"name": "Deegenbergklinik Bad Kissingen", "latitude": 50.1928436, "longitude": 10.0877969, "source": "osm", "_tags": {"addr:country": "DE", "addr:housenumber": "21", "addr:postcode": "97688", "addr:street": "Burgstraße", "amenity": "hospital", "email": "info@deegenberg.de", "healthcare": "hospital", "name": "Deegenbergklinik Bad Kissingen", "phone": "+49 971 8210", "website": "https://deegenberg.de/"}}, {"name": "Klinik Bavaria", "latitude": 50.1980272, "longitude": 10.0846566, "source": "osm", "_tags": {"addr:city": "Bad Kissingen", "addr:country": "DE", "addr:housenumber": "18-22", "addr:postcode": "97688", "addr:street": "Von-der-Tann-Straße", "amenity": "hospital", "check_date": "2024-10-16", "email": "info@klinik-bavaria.com", "fax": "+49 971 829-1180", "healthcare": "hospital", "name": "Klinik Bavaria", "phone": "+49 971 829-0", "source": "Bing", "website": "https://kissingen.klinikbavaria.de/"}}, {"name": "Klinik Neumühle", "latitude": 50.3502853, "longitude": 10.3057638, "source": "osm", "_tags": {"addr:city": "Hollstadt", "addr:country": "DE", "addr:housenumber": "3", "addr:postcode": "97618", "addr:street": "Neumühle", "amenity": "hospital", "healthcare": "hospital", "name": "Klinik Neumühle", "operator": "Haus Saaletal GmbH", "website": "https://www.rhoen-klinikum-ag.com/rka/cms/stk_2/deu/57962.html"}}, {"name": "Hemera-Klinik", "latitude": 50.1977809, "longitude": 10.0686836, "source": "osm", "_tags": {"addr:city": "Bad Kissingen", "addr:housenumber": "16", "addr:postcode": "97688", "addr:street": "Schönbornstraße", "amenity": "hospital", "check_date": "2025-04-12", "healthcare": "hospital", "healthcare:speciality": "psychiatry", "name": "Hemera-Klinik", "operator": "HEMERA Klinik GmbH", "website": "https://www.hemera.de", "wheelchair": "yes"}}, {"name": "Rhönklinikum", "latitude": 50.3237397, "longitude": 10.2342802, "source": "osm", "_tags": {"amenity": "hospital", "emergency": "yes", "healthcare": "hospital", "name": "Rhönklinikum", "operator": "Rhön-Klinikum", "operator:type": "private", "operator:wikidata": "Q573604", "operator:wikipedia": "de:Rhön-Klinikum", "website": "https://www.campus-nes.de/fileadmin/FILES/CAMPUS_NES/Aktuelles/Downloads/Flyer_Campus_Uebersicht_web.pdf", "wheelchair": "yes"}}, {"name": "Kreiskrankenhaus St. Anna", "latitude": 49.7059849, "longitude": 10.8048746, "source": "osm", "_tags": {"addr:city": "Höchstadt an der Aisch", "addr:country": "DE", "addr:housenumber": "5", "addr:postcode": "91315", "addr:street": "Spitalstraße", "amenity": "hospital", "healthcare": "hospital", "name": "Kreiskrankenhaus St. Anna", "phone": "+49 9193 6200", "website": "https://www.kreiskrankenhaus-hoechstadt.de/", "wheelchair": "yes"}}, {"name": "Medical Park Bad Rodach", "latitude": 50.3310299, "longitude": 10.7664796, "source": "osm", "_tags": {"addr:city": "Bad Rodach", "addr:country": "DE", "addr:housenumber": "16", "addr:postcode": "96476", "addr:street": "Kurring", "amenity": "hospital", "building": "hospital", "healthcare": "hospital", "name": "Medical Park Bad Rodach", "operator": "Medical Park", "operator:wikidata": "Q47087904", "type": "multipolygon"}}, {"name": "Universitätsklinikum Würzburg", "latitude": 49.8044728, "longitude": 9.9436281, "source": "osm", "_tags": {"addr:city": "Würzburg", "addr:housenumber": "2", "addr:postcode": "97080", "addr:street": "Josef-Schneider-Straße", "amenity": "hospital", "contact:phone": "+49 931 2010", "contact:website": "https://www.ukw.de/", "emergency": "yes", "healthcare": "hospital", "name": "Universitätsklinikum Würzburg", "short_name": "UKW", "toilets:wheelchair": "yes", "type": "multipolygon", "wheelchair": "limited", "wheelchair:description": "http://www.wuerzburg.de/de/themen/gesundheit-soziales/menschenmitbehinderung/bsb_/Klinikum_der_Universitaet_Wuerzburg/28177.Barrierefreie-WC-Anlagen.html?text=&kt[sb]=&kt[sd]=&kt[lt]=&kt[cat]=17933&page_anschriftenverzeichnisbsb=1&detID=658", "wikidata": "Q1784848", "wikipedia": "de:Universitätsklinikum Würzburg"}}]