[{"name": "Klinikum Mutterhaus der Borromäerinnen Trier", "latitude": 49.7543938, "longitude": 6.6310015, "source": "osm", "_tags": {"amenity": "hospital", "emergency": "yes", "healthcare": "hospital", "name": "Klinikum Mutterhaus der Borromäerinnen Trier", "opening_hours": "24/7", "website": "https://www.mutterhaus.de/", "wheelchair": "yes", "wikidata": "Q991759", "wikipedia": "de:Klinikum Mutterhaus der Borromäerinnen"}}, {"name": "Marienkliniken Sankt Josef Losheim", "latitude": 49.5088718, "longitude": 6.7400396, "source": "osm", "_tags": {"amenity": "hospital", "healthcare": "hospital", "name": "Marienkliniken Sankt Josef Losheim", "wheelchair": "yes"}}, {"name": "Centre Hospitalier de Luxembourg", "latitude": 49.6178599, "longitude": 6.1013896, "source": "osm", "_tags": {"amenity": "hospital", "healthcare": "hospital", "name": "Centre Hospitalier de Luxembourg", "operator": "Centre Hospitalier de Luxembourg", "short_name": "CHL", "website": "https://www.chl.lu", "wheelchair": "yes", "wikidata": "Q5062271", "wikipedia": "lb:Centre hospitalier de Luxembourg"}}, {"name": "St. Elisabeth Krankenhaus", "latitude": 50.0001647, "longitude": 6.8921278, "source": "osm", "_tags": {"alt_name": "Verbundkrankenhaus Wittlich-Bernkastel", "amenity": "hospital", "contact:city": "Wittlich", "contact:country": "DE", "contact:email": "info@verbund-krankenhaus.de", "contact:fax": "+49 6571 15-39990", "contact:housenumber": "91", "contact:phone": "+49 6571 15-0", "contact:postcode": "54516", "contact:street": "Koblenzer Straße", "contact:website": "http://www.verbund-krankenhaus.de/", "emergency": "yes", "healthcare": "hospital", "healthcare:speciality": "surgery;gynaecology;internal;cardiology;paediatrics;anaesthetics;neurology;emergency;orthopaedics;trauma", "name": "St. Elisabeth Krankenhaus", "opening_hours": "24/7", "operator": "cusanus trägergesellschaft trier mbH", "wheelchair": "yes"}}, {"name": "Sénologie", "latitude": 49.631111, "longitude": 6.1354215, "source": "osm", "_tags": {"amenity": "hospital", "building": "hospital", "name": "Sénologie"}}, {"name": "Centre Hospitalier Émile Mayrisch", "latitude": 49.5017034, "longitude": 5.9815822, "source": "osm", "_tags": {"amenity": "hospital", "healthcare": "hospital", "name": "Centre Hospitalier Émile Mayrisch", "short_name": "CHEM", "toilets:wheelchair": "yes", "wheelchair": "yes"}}, {"name": "Hôpital de la Ville de Dudelange", "latitude": 49.4705765, "longitude": 6.0888279, "source": "osm", "_tags": {"addr:city": "Dudelange", "addr:housenumber": "98", "addr:postcode": "3488", "addr:street": "Rue de l'Hôpital", "amenity": "hospital", "building": "yes", "healthcare": "hospital", "healthcare:speciality": "geriatrics;radiology", "name": "Hôpital de la Ville de Dudelange", "ref:caclr": "221972"}}, {"name": "Krankenhaus Maria Hilf", "latitude": 50.1932148, "longitude": 6.8321818, "source": "osm", "_tags": {"amenity": "hospital", "email": "mariahilf@krankenhaus-daun.de", "emergency": "yes", "fax": "+49 6592 715 2510", "healthcare": "hospital", "healthcare:speciality": "gynaecology;internal;cardiology;trauma", "name": "Krankenhaus Maria Hilf", "operator": "Krankenhaus Maria Hilf GmbH", "phone": "+49 6592 715 0", "website": "https://www.krankenhaus-maria-hilf.de/", "wheelchair": "yes"}}, {"name": "CHL Eich", "latitude": 49.6315715, "longitude": 6.1355549, "source": "osm", "_tags": {"addr:city": "Luxembourg", "addr:country": "LU", "addr:housenumber": "78", "addr:postcode": "1460", "addr:street": "Rue d'Eich", "amenity": "hospital", "healthcare": "hospital", "name": "CHL Eich", "operator": "Centre Hospitalier de Luxembourg", "phone": "+352 44 11 12", "website": "https://eich.chl.lu"}}, {"name": "St. Elisabeth Krankenhaus Gerolstein", "latitude": 50.22645, "longitude": 6.6652663, "source": "osm", "_tags": {"amenity": "hospital", "healthcare": "hospital", "name": "St. Elisabeth Krankenhaus Gerolstein", "website": "http://www.krankenhaus-gerolstein.de/", "wheelchair": "yes"}}, {"name": "MEDIAN Kliniken Daun Altburg", "latitude": 50.1596132, "longitude": 6.8441918, "source": "osm", "_tags": {"amenity": "hospital", "email": "daun-altburg-kontakt@median-kliniken.de", "healthcare": "clinic", "healthcare:speciality": "psychiatry;physiatry", "name": "MEDIAN Kliniken Daun Altburg", "operator": "MEDIAN Unternehmensgruppe B.V. & Co. KG", "phone": "+49 6592 201800", "source": "https://www.median-kliniken.de/de/median-klinik-daun-altburg/", "source:date": "2018_09_30", "website": "https://www.median-kliniken.de/de/median-klinik-daun-altburg/"}}, {"name": "Klinik St Josef", "latitude": 50.2771125, "longitude": 6.1273549, "source": "osm", "_tags": {"addr:city": "Sankt Vith", "addr:housenumber": "9", "addr:street": "Klosterstraße", "amenity": "hospital", "emergency": "yes", "emergency_ward": "complete", "healthcare": "hospital", "healthcare:speciality": "general", "name": "Klinik St Josef", "ref:fps_health:campus": "2980", "ref:fps_health:recognition": "257", "website": "https://www.klinik.be/", "wheelchair": "yes", "wheelchair:description": "Behandlung möglich, ohne den Rollstuhl zu verlassen. 4 rollstuhlgerechte Parkplätze vorhanden."}}, {"name": "Clinique Sainte Marie", "latitude": 49.5011587, "longitude": 5.9858626, "source": "osm", "_tags": {"amenity": "hospital", "emergency": "yes", "healthcare": "hospital", "name": "Clinique Sainte Marie", "operator": "Hôpitaux Robert Schuman", "short_name": "CSM"}}, {"name": "Marienhaus Klinikum Eifel Bitburg", "latitude": 49.9717121, "longitude": 6.5263986, "source": "osm", "_tags": {"addr:city": "Bitburg", "addr:housenumber": "1", "addr:postcode": "54634", "addr:street": "Krankenhausstraße", "amenity": "hospital", "contact:email": "info.eif@marienhaus.de", "contact:fax": "+49 6561 64-2657", "contact:phone": "+49 6561 64-0", "contact:website": "https://www.marienhaus-klinikum-eifel.de", "emergency": "yes", "healthcare": "hospital", "name": "Marienhaus Klinikum Eifel Bitburg", "opening_hours": "24/7", "operator": "Marienhaus Klinikum Eifel", "operator:type": "private", "operator:wikidata": "Q20828783", "operator:wikipedia": "de:Marienhaus", "wheelchair": "yes"}}, {"name": "Klinikum Merzig", "latitude": 49.4570001, "longitude": 6.6332478, "source": "osm", "_tags": {"alt_name": "SHG Klinikum Merzig", "amenity": "hospital", "email": "nfo@mzg.shg-kliniken.de", "emergency": "yes", "fax": "+49 6861 705-1637", "healthcare": "hospital", "name": "Klinikum Merzig", "operator": "Klinikum Merzig gGmbH", "phone": "+49 6861 705-0", "website": "https://mzg.shg-kliniken.de/", "wikidata": "Q35387541"}}, {"name": "Centre hospitalier Neuro-Psychiatrique (CHNP)", "latitude": 49.8429118, "longitude": 6.0961166, "source": "osm", "_tags": {"amenity": "hospital", "healthcare": "hospital", "name": "Centre hospitalier Neuro-Psychiatrique (CHNP)"}}, {"name": "Rehazenter", "latitude": 49.6279127, "longitude": 6.1737327, "source": "osm", "_tags": {"amenity": "hospital", "healthcare": "hospital", "name": "Rehazenter"}}, {"name": "Klinik für Geriatrie und Neurologie", "latitude": 49.563483, "longitude": 6.8078381, "source": "osm", "_tags": {"addr:city": "Weiskirchen", "addr:country": "DE", "addr:housenumber": "41", "addr:postcode": "66709", "addr:street": "Auf der Flachsbach", "amenity": "hospital", "building": "yes", "healthcare:speciality": "geriatrics;neurology", "name": "Klinik für Geriatrie und Neurologie", "operator": "Hochwald-Kliniken", "operator:type": "private"}}, {"name": "Centre Hospitalier du Nord", "latitude": 49.8537244, "longitude": 6.095601, "source": "osm", "_tags": {"amenity": "hospital", "contact:email": "chdn@chdn.lu", "contact:fax": "+352 8166-3049", "contact:phone": "+352 8166-1", "contact:website": "http://www.chdn.lu", "healthcare": "hospital", "name": "Centre Hospitalier du Nord", "name:de": "Nordisches Krankenhauszentrum Ettelbruck", "old_name": "Hôpital St Louis", "short_name": "CHdN Ettelbruck", "wikidata": "Q25583349", "wikipedia": "lb:Centre hospitalier du Nord"}}, {"name": "Kreiskrankenhaus St. Franziskus Saarburg", "latitude": 49.6028926, "longitude": 6.5382056, "source": "osm", "_tags": {"amenity": "hospital", "email": "info@kreiskrankenhaus-saarburg.de", "emergency": "yes", "fax": "+49 6581 82-1700", "healthcare": "hospital", "healthcare:speciality": "internal;emergency;orthopaedics;trauma", "name": "Kreiskrankenhaus St. Franziskus Saarburg", "opening_hours": "24/7", "operator": "Kreiskrankenhaus St. Franziskus Saarburg GmbH", "phone": "+49 6581 82-0", "website": "https://kreiskrankenhaus-saarburg.de/", "wheelchair": "yes"}}, {"name": "Klinikum Mutterhaus der Borromäerinnen Nord", "latitude": 49.7621345, "longitude": 6.6436903, "source": "osm", "_tags": {"amenity": "hospital", "contact:phone": "+49 651 683 0", "emergency": "yes", "healthcare": "hospital", "healthcare:speciality": "internal;plastic_surgery", "name": "Klinikum Mutterhaus der Borromäerinnen Nord", "old_name": "Evangelisches Elisabeth-Krankenhaus", "opening_hours": "24/7", "operator": "Klinikum Mutterhaus der Borromäerinnen gGmbH", "source": "http://www.mutterhaus.de/klinikum-mutterhaus-nord.html", "toilets:wheelchair": "yes", "wheelchair": "yes"}}, {"name": "Krankenhaus der Barmherzigen Brüder Trier", "latitude": 49.7625602, "longitude": 6.6399032, "source": "osm", "_tags": {"alt_name": "Brüderkrankenhaus Trier", "amenity": "hospital", "email": "info@bk-trier.de", "emergency": "yes", "healthcare": "hospital", "name": "Krankenhaus der Barmherzigen Brüder Trier", "opening_hours": "24/7", "phone": "+49 651 208-0", "short_name": "BKT", "type": "site", "website": "http://www.bk-trier.de", "wheelchair": "yes"}}, {"name": "St. Joseph-Krankenhaus", "latitude": 50.2118978, "longitude": 6.4101199, "source": "osm", "_tags": {"addr:city": "Prüm", "addr:housenumber": "4", "addr:postcode": "54595", "addr:street": "Kalvarienbergstraße", "amenity": "hospital", "building": "hospital", "contact:phone": "+49 6551 15 0", "contact:website": "http://www.krankenhaus-pruem.de", "healthcare": "hospital", "name": "St. Joseph-Krankenhaus", "type": "multipolygon", "wheelchair": "yes"}}, {"name": "Krankenhaus der Barmherzigen Brüder Trier", "latitude": 49.762664, "longitude": 6.6404278, "source": "osm", "_tags": {"alt_name": "Brüderkrankenhaus Trier", "amenity": "hospital", "email": "info@bk-trier.de", "emergency": "yes", "healthcare": "hospital", "name": "Krankenhaus der Barmherzigen Brüder Trier", "opening_hours": "24/7", "phone": "+49 651 208-0", "short_name": "BKT", "type": "multipolygon", "website": "http://www.bk-trier.de", "wikidata": "Q1786553"}}, {"name": "ZithaKlinik", "latitude": 49.6037743, "longitude": 6.1282814, "source": "osm", "_tags": {"amenity": "hospital", "healthcare": "hospital", "name": "ZithaKlinik", "operator": "Hôpitaux Robert Schuman", "short_name": "ZHITA", "type": "multipolygon"}}, {"name": "Hôpital Kirchberg", "latitude": 49.6324681, "longitude": 6.176091, "source": "osm", "_tags": {"amenity": "hospital", "healthcare": "hospital", "name": "Hôpital Kirchberg", "operator": "Hôpitaux Robert Schuman", "phone": "+352 2468-1", "short_name": "CHK", "type": "multipolygon", "website": "https://www.hkb.lu", "wheelchair": "yes", "wikipedia": "lb:Hôpitaux Robert-Schuman"}}]