[{"name": "Service des Urgences médicales", "latitude": 49.528879, "longitude": 0.0999512, "source": "osm", "_tags": {"healthcare": "hospital", "name": "Service des Urgences médicales", "opening_hours": "24/7"}}, {"name": "Maison thérapeutique", "latitude": 49.5156102, "longitude": 0.5413373, "source": "osm", "_tags": {"amenity": "hospital", "healthcare": "hospital", "name": "Maison thérapeutique", "phone": "+33235385881", "ref:FR:FINESS": "760026104", "source": "Le ministère des solidarités et de la santé - 03/2019", "type:FR:FINESS": "355"}}, {"name": "Hôpital psychiatrique", "latitude": 49.5684833, "longitude": 0.4705588, "source": "osm", "_tags": {"amenity": "hospital", "fax": "+33235381977", "healthcare": "hospital", "name": "Hôpital psychiatrique", "phone": "+33235381977", "ref:FR:FINESS": "760026112", "source": "Le ministère des solidarités et de la santé - 03/2019", "type:FR:FINESS": "355"}}, {"name": "Hôpital psychiatrie enfants", "latitude": 49.568273, "longitude": 0.485683, "source": "osm", "_tags": {"amenity": "hospital", "fax": "+33235315884", "healthcare": "hospital", "name": "Hôpital psychiatrie enfants", "phone": "+33235310593", "ref:FR:FINESS": "760780882", "ref:FR:SIRET": "26760171400657", "source": "Le ministère des solidarités et de la santé - 03/2019", "type:FR:FINESS": "355"}}, {"name": "Consultations USN1", "latitude": 49.5166688, "longitude": 0.2815853, "source": "osm", "_tags": {"amenity": "hospital", "name": "Consultations USN1", "note": "emplacement à préciser", "ref:FR:FINESS": "760034579", "source": "Le ministère des solidarités et de la santé - 03/2019", "type:FR:FINESS": "355"}}, {"name": "Centre Médico-Psychologique de Graville", "latitude": 49.5018697, "longitude": 0.1508605, "source": "osm", "_tags": {"addr:city": "Le Havre", "addr:housenumber": "63", "addr:postcode": "76600", "addr:street": "Rue de Verdun", "amenity": "hospital", "healthcare": "hospital", "name": "Centre Médico-Psychologique de Graville", "phone": "+33 235496525", "ref:FR:FINESS": "760019208", "ref:FR:SIRET": "26760171400459", "source": "Le ministère des solidarités et de la santé - 03/2019", "type:FR:FINESS": "355"}}, {"name": "Hôpital de jour enfants Dufy", "latitude": 49.5005701, "longitude": 0.1230707, "source": "osm", "_tags": {"amenity": "hospital", "check_date": "2024-04-21", "fax": "+33232733919", "healthcare": "hospital", "name": "Hôpital de jour enfants Dufy", "phone": "+33232733950", "ref:FR:FINESS": "760025411", "ref:FR:SIRET": "26760171400525", "source": "Le ministère des solidarités et de la santé - 03/2019", "type:FR:FINESS": "355"}}, {"name": "Le repère", "latitude": 49.5008581, "longitude": 0.1222316, "source": "osm", "_tags": {"amenity": "hospital", "check_date": "2024-04-21", "name": "Le repère", "note": "emplacement dans l'hôpital à préciser", "ref:FR:FINESS": "760026419", "ref:FR:SIRET": "26760171400053", "source": "Le ministère des solidarités et de la santé - 03/2019", "type:FR:FINESS": "355"}}, {"name": "Hôpital Flaubert - santé mentale adultes", "latitude": 49.4986039, "longitude": 0.1128338, "source": "osm", "_tags": {"amenity": "hospital", "healthcare": "hospital", "name": "Hôpital Flaubert - santé mentale adultes", "note": "emplacement dans l'hôpital à préciser", "operator": "Groupe hospitalier du Havre", "ref:FR:FINESS": "760034165", "source": "cadastre-dgi-fr source : Direction Générale des Impôts - Cadastre. Mise à jour : 2010"}}, {"name": "HAD Estuaire", "latitude": 49.744548, "longitude": 0.386764, "source": "osm", "_tags": {"amenity": "hospital", "fax": "+33227302831", "healthcare": "hospital", "name": "HAD Estuaire", "note": "emplacement à préciser", "phone": "+33235925387", "ref:FR:FINESS": "760027938", "ref:FR:SIRET": "26760172200239", "source": "Le ministère des solidarités et de la santé - 03/2019", "type:FR:FINESS": "355"}}, {"name": "Hôpital Jacques Monod", "latitude": 49.5265171, "longitude": 0.1845867, "source": "osm", "_tags": {"amenity": "hospital", "contact:facebook": "Hôpital Jacques Monod", "emergency": "yes", "fax": "+33 2 32 73 38 90", "healthcare": "hospital", "healthcare:speciality": "intensive", "name": "Hôpital Jacques Monod", "operator": "Groupe hospitalier du Havre", "phone": "+33 2 32 73 32 32", "ref:FR:FINESS": "760805770", "type:FR:FINESS": "355", "website": "https://www.ch-havre.fr/"}}, {"name": "Clinique des Ormeaux", "latitude": 49.4872178, "longitude": 0.1365213, "source": "osm", "_tags": {"amenity": "hospital", "emergency": "yes", "fax": "+33 2 32 74 32 92", "healthcare": "hospital", "healthcare:speciality": "intensive", "name": "Clinique des Ormeaux", "operator:type": "private", "phone": "+33 2 32 74 32 74", "ref:FR:FINESS": "760780791", "ref:FR:SIRET": "78106102300029", "source": "cadastre-dgi-fr source : Direction Générale des Impôts - Cadastre. Mise à jour : 2010", "type:FR:FINESS": "365", "website": "https://www.ormeaux.com/"}}, {"name": "Hôpital Flaubert", "latitude": 49.499504, "longitude": 0.1130624, "source": "osm", "_tags": {"addr:city": "Le Havre", "addr:housenumber": "55 bis", "addr:postcode": "76600", "addr:street": "Rue Gustave Flaubert", "amenity": "hospital", "emergency": "yes", "fax": "+33 2 32 73 38 18", "healthcare": "hospital", "name": "Hôpital Flaubert", "operator": "Groupe hospitalier du Havre", "operator:type": "public", "phone": "+33 2 32 73 32 32", "ref:FR:FINESS": "760000356", "ref:FR:SIRET": "26760171400012", "source": "Le ministère des solidarités et de la santé - 03/2019", "type:FR:FINESS": "355"}}, {"name": "Hôpital Pierre Janet", "latitude": 49.501515, "longitude": 0.1229889, "source": "osm", "_tags": {"addr:housenumber": "4", "addr:street": "Rue de Tourneville", "amenity": "hospital", "check_date": "2024-04-21", "healthcare": "hospital", "name": "Hôpital Pierre Janet", "ref:FR:FINESS": "760781070", "source": "cadastre-dgi-fr source : Direction Générale des Impôts - Cadastre. Mise à jour : 2010", "type:FR:FINESS": "355"}}, {"name": "Psychiatrie infanto juvénile", "latitude": 49.6198808, "longitude": 0.7526052, "source": "osm", "_tags": {"addr:housenumber": "1bis", "addr:street": "Rue Haemers", "amenity": "hospital", "building": "yes", "healthcare": "hospital", "name": "Psychiatrie infanto juvénile", "phone": "+33 2 32 70 47 80", "ref:FR:FINESS": "760806109", "source": "cadastre-dgi-fr source : Direction Générale des Impôts - Cadastre. Mise à jour : 2011", "type:FR:FINESS": "292", "wall": "no"}}, {"name": "Hôpital privé de l'Estuaire", "latitude": 49.529104, "longitude": 0.1004468, "source": "osm", "_tags": {"addr:city": "Le Havre", "addr:housenumber": "505", "addr:postcode": "76620", "addr:street": "Rue Irène Joliot-Curie", "amenity": "hospital", "emergency": "yes", "fax": "+33 2 76 89 96 04", "healthcare": "hospital", "name": "Hôpital privé de l'Estuaire", "operator": "Ramsay Santé", "operator:type": "private", "operator:wikidata": "Q3123085", "phone": "+33 8 25 74 75 76", "ref:FR:FINESS": "760021329", "type:FR:FINESS": "365", "website": "https://hopital-prive-de-l-estuaire-le-havre.ramsaygds.fr/"}}, {"name": "Centre de Rééducation Fonctionnelle de la Hève", "latitude": 49.5197813, "longitude": 0.0869039, "source": "osm", "_tags": {"amenity": "hospital", "barrier": "wall", "fax": "+33235541250", "healthcare": "hospital", "name": "Centre de Rééducation Fonctionnelle de la Hève", "phone": "+33235547700", "ref:FR:FINESS": "760017079", "ref:FR:SIRET": "48226117900014", "source": "Le ministère des solidarités et de la santé - 03/2019", "type:FR:FINESS": "109"}}, {"name": "Etablissement de soins de suite Les Broussailles", "latitude": 49.8237692, "longitude": 0.7060011, "source": "osm", "_tags": {"amenity": "clinic", "fax": "+33235973946", "healthcare": "hospital", "name": "Etablissement de soins de suite Les Broussailles", "phone": "+33235970850", "ref:FR:FINESS": "760780130", "ref:FR:SIRET": "48008096900904", "source": "Le ministère des solidarités et de la santé - 2025-05", "type:FR:FINESS": "109"}}, {"name": "Hôpital Fauquet", "latitude": 49.5682171, "longitude": 0.4684145, "source": "osm", "_tags": {"addr:city": "Bolbec", "addr:housenumber": "365", "addr:postcode": "76210", "addr:street": "Rue Lechaptois", "amenity": "hospital", "emergency": "yes", "healthcare": "hospital", "name": "Hôpital Fauquet", "operator": "Centre hospitalier intercommunal Caux Vallée de Seine", "operator:type": "public", "phone": "+33 2 35 39 36 36", "ref:FR:FINESS": "760000398", "source": "Le ministère des solidarités et de la santé - 03/2019", "website": "http://www.chi-cauxvalleedeseine.fr"}}, {"name": "Clinique Tous Vents", "latitude": 49.5190446, "longitude": 0.5434783, "source": "osm", "_tags": {"amenity": "hospital", "building": "hospital", "email": "direction@cliniquetousvents.com", "fax": "+33 2 35 39 67 72", "healthcare": "hospital", "healthcare:speciality": "intensive", "name": "Clinique Tous Vents", "operator": "Groupe Clinique Développement", "phone": "+33 2 35 39 35 35", "ref:FR:FINESS": "760780783", "ref:FR:SIRET": "35148053800039", "source": "Le ministère des solidarités et de la santé - 03/2019", "type:FR:FINESS": "128", "website": "https://www.cliniquedeveloppement.fr/lillebonne-tous-vents/"}}, {"name": "Hôpital Saint-Romain de Colbosc", "latitude": 49.5248052, "longitude": 0.3642131, "source": "osm", "_tags": {"amenity": "hospital", "healthcare": "hospital", "name": "Hôpital Saint-Romain de Colbosc", "ref:FR:FINESS": "760000380", "source": "Le ministère des solidarités et de la santé - 03/2019", "wikidata": "Q92061570"}}, {"name": "EHPAD Les escales - Résidence Desaint-Jean", "latitude": 49.5214357, "longitude": 0.0876231, "source": "osm", "_tags": {"addr:city": "Le Havre", "addr:housenumber": "13", "addr:postcode": "76620", "addr:street": "Rue Louis Blériot", "amenity": "social_facility", "barrier": "yes", "healthcare": "hospital", "name": "EHPAD Les escales - Résidence Desaint-Jean", "social_facility": "group_home", "social_facility:for": "senior"}}, {"name": "Centre hospitalier intercommunal Caux-Vallée de Seine", "latitude": 49.519493, "longitude": 0.5436207, "source": "osm", "_tags": {"addr:full": "19 avenue du Président René Coty 76170 Lillebonne", "alt_name": "Centre Hospitalier Docteur Rosenberg", "amenity": "hospital", "email": "direction@chi-cauxvalleedeseine.fr", "emergency": "yes", "fax": "+33 2 35 39 35 93", "healthcare": "hospital", "name": "Centre hospitalier intercommunal Caux-Vallée de Seine", "operator:type": "public", "phone": "+33 2 35 39 36 36", "ref:FR:FINESS": "760000372", "short_name": "CHI Caux-Vallée de Seine", "source": "cadastre-dgi-fr source : Direction Générale des Impôts - Cadastre ; mise à jour : 2009", "type": "multipolygon", "type:FR:FINESS": "355", "website": "http://chi-cauxvalleedeseine.fr"}}, {"name": "Centre hospitalier du Grand Large", "latitude": 49.8671046, "longitude": 0.7059815, "source": "osm", "_tags": {"amenity": "hospital", "healthcare": "hospital", "name": "Centre hospitalier du Grand Large", "ref:FR:FINESS": "760000026", "source": "Le ministère des solidarités et de la santé - 03/2019", "type": "multipolygon", "type:FR:FINESS": "106", "wikidata": "Q92062501"}}, {"name": "Pôle santé", "latitude": 49.6188132, "longitude": 0.7455457, "source": "osm", "_tags": {"addr:city": "Yvetot", "addr:housenumber": "14", "addr:postcode": "76190", "addr:street": "Avenue Foch", "amenity": "hospital", "fax": "+33 2 35 95 87 57", "healthcare": "hospital", "healthcare:speciality": "emergency;radiology;biology;vaccination;dialysis", "name": "Pôle santé", "operator:type": "private", "phone": "+33 2 35 95 95 00", "ref:FR:FINESS": "760780668", "type": "multipolygon", "type:FR:FINESS": "128", "website": "https://www.clinique-hemera.com/"}}, {"name": "Hôpital Asselin-Hédelin", "latitude": 49.6194138, "longitude": 0.7439884, "source": "osm", "_tags": {"addr:city": "Yvetot", "addr:housenumber": "7", "addr:postcode": "76190", "addr:street": "Rue du Champ de Courses", "amenity": "hospital", "email": "contact@hopital-yvetot.com", "emergency": "no", "fax": "+33 2 35 95 32 28", "healthcare": "hospital", "name": "Hôpital Asselin-Hédelin", "operator:type": "public", "phone": "+33 2 35 95 73 00", "ref:FR:FINESS": "760000174", "source": "Le ministère des solidarités et de la santé - 10/2018", "type": "multipolygon", "type:FR:FINESS": "106", "website": "https://hopital-yvetot.com/", "wheelchair": "yes", "wikidata": "Q92063262"}}, {"name": "Clinique psychiatrique", "latitude": 49.6206749, "longitude": 0.7426205, "source": "osm", "_tags": {"addr:city": "Yvetot", "addr:postcode": "76190", "amenity": "hospital", "healthcare": "hospital", "name": "Clinique psychiatrique", "type": "multipolygon"}}, {"name": "Hôpital clinique du Pays des Hautes Falaises", "latitude": 49.7443449, "longitude": 0.3867595, "source": "osm", "_tags": {"amenity": "hospital", "contact:facebook": "CH de Fécamp", "email": "secretariatdirection@ch-fecamp.fr", "emergency": "yes", "fax": "+33 2 35 10 91 14", "healthcare": "hospital", "name": "Hôpital clinique du Pays des Hautes Falaises", "operator": "Clinique de l'Abbaye - Centre hospitalier intercommunal du Pays des Hautes Falaises", "operator:type": "public", "phone": "+33 2 35 10 90 00", "ref:FR:FINESS": "760000364", "twitter": "CHFECAMP", "type": "multipolygon", "type:FR:FINESS": "355", "website": "https://www.ch-fecamp.fr/"}}]