[{"name": "Лікарня", "latitude": 50.1207564, "longitude": 27.4897583, "source": "osm", "_tags": {"amenity": "hospital", "name": "Лікарня", "name:uk": "Лікарня"}}, {"name": "Дитяча лікарння", "latitude": 49.4350223, "longitude": 26.9576102, "source": "osm", "_tags": {"amenity": "hospital", "healthcare": "hospital", "healthcare:speciality": "paediatrics", "name": "Дитяча лікарння", "name:uk": "Дитяча лікарння"}}, {"name": "Оксфорд Медікал Хмельницький", "latitude": 49.4263874, "longitude": 26.9878543, "source": "osm", "_tags": {"addr:street": "Подільська вулиця", "amenity": "clinic", "email": "oxf.khm.market@gmail.com", "emergency": "yes", "healthcare": "hospital", "healthcare:speciality": "general;gynaecology;paediatrics;dermatology;otolaryngology;urology;surgery;cardiology;physiotherapy;neurology;clinic;ophthalmology;dentist;community", "name": "Оксфорд Медікал Хмельницький", "name:uk": "Оксфорд Медікал Хмельницький", "operator": "ТОВ \"Клініка Оксфорд Медікал Хмельницький\"", "operator:type": "business", "phone": "+380 382 70 2030", "website": "https://khmelnitsky.oxford-med.com.ua"}}, {"name": "Оксфорд Медікал Озерна", "latitude": 49.4503685, "longitude": 27.0116756, "source": "osm", "_tags": {"addr:street": "вулиця Січових стрільців", "amenity": "clinic", "email": "oxf.khm.market@gmail.com", "emergency": "yes", "healthcare": "hospital", "healthcare:speciality": "general;gynaecology;paediatrics;ophthalmology;orthopaedics;dentist;dermatology;otolaryngology;osteopathy;orthodontics;urology;surgery;cardiology;physiotherapy;neurology;community;clinic", "name": "Оксфорд Медікал Озерна", "name:uk": "Оксфорд Медікал Озерна", "operator": "ТОВ \"Клініка Оксфорд Медікал Хмельницький\"", "operator:type": "business", "phone": "+380 382 70 2030", "website": "https://khmelnitsky.oxford-med.com.ua"}}, {"name": "Поліклініка №1", "latitude": 49.426108, "longitude": 26.9848681, "source": "osm", "_tags": {"amenity": "clinic", "healthcare": "hospital", "internet_access": "wlan", "name": "Поліклініка №1", "name:en": "Polyclinic №1", "name:ru": "Поликлиника №1", "name:uk": "Поліклініка №1"}}, {"name": "Жіноча консультація", "latitude": 49.4357639, "longitude": 26.9880018, "source": "osm", "_tags": {"amenity": "clinic", "healthcare": "hospital", "name": "Жіноча консультація", "name:ru": "Женская консультация", "name:uk": "Жіноча консультація"}}, {"name": "Поліклініка №2", "latitude": 49.4420212, "longitude": 26.9956623, "source": "osm", "_tags": {"amenity": "clinic", "healthcare": "hospital", "name": "Поліклініка №2", "name:uk": "Поліклініка №2"}}, {"name": "Центральна районна лікарня", "latitude": 49.594763, "longitude": 27.6280746, "source": "osm", "_tags": {"addr:housenumber": "15", "addr:street": "вулиця Грушевського", "amenity": "hospital", "building": "yes", "building:levels": "4", "healthcare": "hospital", "name": "Центральна районна лікарня", "name:uk": "Центральна районна лікарня"}}, {"name": "", "latitude": 50.3081772, "longitude": 27.8735698, "source": "osm", "_tags": {"amenity": "hospital", "healthcare": "hospital"}}, {"name": "Шепетівська ЦРЛ", "latitude": 50.1843679, "longitude": 27.0479195, "source": "osm", "_tags": {"amenity": "hospital", "healthcare": "hospital", "name": "Шепетівська ЦРЛ", "name:uk": "Шепетівська ЦРЛ"}}, {"name": "Романівська центральна районна лікарня", "latitude": 50.1495549, "longitude": 27.9262387, "source": "osm", "_tags": {"addr:housenumber": "2", "addr:street": "Медична вулиця", "amenity": "hospital", "healthcare": "hospital", "name": "Романівська центральна районна лікарня", "name:en": "Romaniv District Hospital", "name:uk": "Романівська центральна районна лікарня"}}, {"name": "", "latitude": 49.7597499, "longitude": 27.1985664, "source": "osm", "_tags": {"addr:housenumber": "47", "addr:postcode": "31100", "addr:street": "вулиця Захисників України", "amenity": "hospital", "barrier": "fence", "emergency": "ambulance_station", "healthcare": "hospital", "phone": "+380 3854 32 276"}}, {"name": "Старокостянтинівський військовий госпіталь (в/ч А-1067))", "latitude": 49.7598261, "longitude": 27.1943615, "source": "osm", "_tags": {"addr:housenumber": "8", "addr:postcode": "31100", "addr:street": "вулиця Героїв Крут", "amenity": "hospital", "barrier": "wall", "healthcare": "hospital", "name": "Старокостянтинівський військовий госпіталь (в/ч А-1067))", "name:uk": "Старокостянтинівський військовий госпіталь (в/ч А-1067))"}}, {"name": "", "latitude": 49.4286402, "longitude": 27.4102471, "source": "osm", "_tags": {"amenity": "hospital", "building": "yes"}}, {"name": "", "latitude": 49.4282193, "longitude": 27.4109757, "source": "osm", "_tags": {"amenity": "hospital", "building": "yes"}}, {"name": "", "latitude": 49.4283876, "longitude": 27.4105272, "source": "osm", "_tags": {"amenity": "hospital", "building": "yes"}}, {"name": "", "latitude": 49.4291642, "longitude": 27.4105833, "source": "osm", "_tags": {"amenity": "hospital", "building": "yes"}}, {"name": "Красилівська центральна районна лікарня", "latitude": 49.6620124, "longitude": 26.9919358, "source": "osm", "_tags": {"addr:housenumber": "140", "addr:street": "вулиця Грушевського", "amenity": "hospital", "healthcare": "hospital", "name": "Красилівська центральна районна лікарня", "name:uk": "Красилівська центральна районна лікарня"}}, {"name": "Поліклініка", "latitude": 50.1945028, "longitude": 27.0692207, "source": "osm", "_tags": {"amenity": "hospital", "healthcare": "hospital", "name": "Поліклініка", "name:uk": "Поліклініка"}}, {"name": "Вузлова лікаря", "latitude": 50.1881001, "longitude": 27.0789464, "source": "osm", "_tags": {"amenity": "hospital", "name": "Вузлова лікаря", "name:uk": "Вузлова лікаря"}}, {"name": "Амбулаторія сімейної медицини", "latitude": 50.2053388, "longitude": 27.6421273, "source": "osm", "_tags": {"addr:housenumber": "25", "addr:street": "вулиця Парфірова", "amenity": "hospital", "building": "yes", "name": "Амбулаторія сімейної медицини", "name:ru": "Амбулатория семейной медицины", "name:uk": "Амбулаторія сімейної медицини"}}, {"name": "Центральна районна лікарня", "latitude": 50.3018308, "longitude": 27.6781182, "source": "osm", "_tags": {"addr:housenumber": "66", "addr:street": "Звягельська вулиця", "amenity": "hospital", "building": "hospital", "name": "Центральна районна лікарня", "name:uk": "Центральна районна лікарня", "official_name": "Комунальне некомерційне підприємство Баранівська центральна районна лікарня Баранівської міської ради", "short_name": "КНП Баранівська ЦРЛ", "start_date": "1991"}}, {"name": "ПОЛОНСЬКА МІСЬКА БАГАТОПРОФІЛЬНА ЛІКАРНЯ ім.Н.С. Говорун", "latitude": 50.120226, "longitude": 27.4880122, "source": "osm", "_tags": {"addr:housenumber": "177", "addr:postcode": "30500", "addr:street": "вулиця Лесі Українки", "amenity": "hospital", "emergency": "yes", "healthcare": "hospital", "name": "ПОЛОНСЬКА МІСЬКА БАГАТОПРОФІЛЬНА ЛІКАРНЯ ім.Н.С. Говорун", "name:uk": "ПОЛОНСЬКА МІСЬКА БАГАТОПРОФІЛЬНА ЛІКАРНЯ ім.Н.С. Говорун"}}, {"name": "Любарська лікарня", "latitude": 49.9322775, "longitude": 27.7437491, "source": "osm", "_tags": {"addr:housenumber": "5", "addr:street": "Медична вулиця", "amenity": "hospital", "healthcare": "hospital", "name": "Любарська лікарня", "name:uk": "Любарська лікарня"}}, {"name": "Територіальне медичне об'єднання МВС", "latitude": 49.4256784, "longitude": 26.9704092, "source": "osm", "_tags": {"amenity": "hospital", "healthcare": "hospital", "name": "Територіальне медичне об'єднання МВС", "name:uk": "Територіальне медичне об'єднання МВС", "operator": "Державна установа «Територіальне медичне об'єднання Міністерства внутрішніх справ України по Хмельницькій області»", "operator:type": "public", "website": "https://km-tmo.mvs.gov.ua"}}, {"name": "Обласний санаторій радіаційного захисту дорослого і дитячого населення", "latitude": 50.4136913, "longitude": 27.8324102, "source": "osm", "_tags": {"amenity": "hospital", "healthcare": "hospital", "leisure": "resort", "name": "Обласний санаторій радіаційного захисту дорослого і дитячого населення", "name:uk": "Обласний санаторій радіаційного захисту дорослого і дитячого населення", "resort": "sanatorium"}}, {"name": "", "latitude": 49.5944451, "longitude": 27.6294891, "source": "osm", "_tags": {"amenity": "hospital", "healthcare": "hospital"}}]