[{"name": "Stodská nemocnice", "latitude": 49.6363793, "longitude": 13.1550448, "source": "osm", "_tags": {"amenity": "hospital", "contact:website": "https://stod.nemocnicepk.cz/", "healthcare": "hospital", "name": "Stodská nemocnice"}}, {"name": "Nemocnice Ostrov", "latitude": 50.3122314, "longitude": 12.9638984, "source": "osm", "_tags": {"amenity": "hospital", "healthcare": "hospital", "name": "Nemocnice Ostrov"}}, {"name": "Porodnice Lochotín", "latitude": 49.7624283, "longitude": 13.3774538, "source": "osm", "_tags": {"amenity": "hospital", "healthcare": "centre", "healthcare:speciality": "gynaecology", "name": "Porodnice Lochotín"}}, {"name": "Psychiatrická léčebna Lnáře", "latitude": 49.4523272, "longitude": 13.796473, "source": "osm", "_tags": {"addr:city": "Lnáře", "addr:housenumber": "16", "addr:postcode": "38742", "amenity": "hospital", "email": "info@pllnare.cz", "healthcare": "hospital", "healthcare:speciality": "psychiatry", "name": "Psychiatrická léčebna Lnáře", "phone": "+420 383 495 101", "website": "https://www.pllnare.cz"}}, {"name": "Fakultní nemocnice Plzeň", "latitude": 49.7330281, "longitude": 13.3757955, "source": "osm", "_tags": {"amenity": "hospital", "barrier": "wall", "emergency": "yes", "healthcare": "hospital", "name": "Fakultní nemocnice Plzeň", "website": "https://www.fnplzen.cz/"}}, {"name": "Mulačova nemocnice", "latitude": 49.7273607, "longitude": 13.369865, "source": "osm", "_tags": {"amenity": "hospital", "building": "civic", "building:ruian:type": "5", "contact:website": "http://www.mulacovanemocnice.cz/", "healthcare": "hospital", "name": "Mulačova nemocnice", "ref:ruian:building": "24115878", "source": "cuzk:ruian"}}, {"name": "Poliklinika Plzeň", "latitude": 49.7457446, "longitude": 13.3930795, "source": "osm", "_tags": {"amenity": "hospital", "building": "civic", "building:ruian:type": "5", "healthcare": "hospital", "name": "Poliklinika Plzeň", "ref:ruian:building": "24140376", "source": "cuzk:ruian"}}, {"name": "Nemocnice s poliklinikou Kadaň", "latitude": 50.3914447, "longitude": 13.2702695, "source": "osm", "_tags": {"amenity": "hospital", "healthcare": "hospital", "name": "Nemocnice s poliklinikou Kadaň", "website": "https://www.nemkadan.cz/"}}, {"name": "Nemocnice Žatec", "latitude": 50.3195424, "longitude": 13.5379142, "source": "osm", "_tags": {"amenity": "hospital", "building": "civic", "building:levels": "1", "building:ruian:type": "5", "healthcare": "hospital", "name": "Nemocnice Žatec", "ref:ruian:building": "9230351", "source": "cuzk:ruian"}}, {"name": "", "latitude": 50.3215746, "longitude": 13.536999, "source": "osm", "_tags": {"amenity": "hospital", "building": "civic", "building:ruian:type": "5", "healthcare": "hospital", "ref:ruian:building": "9213856", "source": "cuzk:ruian"}}, {"name": "IV. Poliklinika", "latitude": 49.7546855, "longitude": 13.4167309, "source": "osm", "_tags": {"amenity": "hospital", "building": "hospital", "building:flats": "1", "building:levels": "1", "building:ruian:type": "15", "healthcare": "hospital", "name": "IV. Poliklinika", "ref:ruian:building": "24052191", "source": "cuzk:ruian", "wheelchair": "yes"}}, {"name": "Nemocnice Hořovice", "latitude": 49.8403394, "longitude": 13.9162009, "source": "osm", "_tags": {"amenity": "hospital", "contact:website": "https://www.nemocnice-horovice.cz/", "healthcare": "hospital", "name": "Nemocnice Hořovice", "source": "cuzk:km"}}, {"name": "Léčebna TRN Janov", "latitude": 49.705884, "longitude": 13.6659656, "source": "osm", "_tags": {"addr:city": "Mirošov", "addr:conscriptionnumber": "500", "addr:country": "CZ", "addr:housenumber": "500", "addr:place": "Mirošov", "addr:postcode": "33843", "addr:street": "U léčebny", "amenity": "hospital", "healthcare": "hospital", "leisure": "park", "loc_name": "Sanatorium", "name": "Léčebna TRN Janov", "official_name": "Léčebna tuberkulózy a respiračních nemocí Janov", "phone": "+420 371 512 111", "source": "cuzk:km", "source:addr": "cuzk:ruian", "website": "https://www.janov.cz/"}}, {"name": "Psychiatrická nemocnice v Dobřanech", "latitude": 49.6443991, "longitude": 13.2855826, "source": "osm", "_tags": {"alt_name": "Psychiatrická léčebna Dobřany", "amenity": "hospital", "healthcare": "hospital", "healthcare:speciality": "psychiatry", "name": "Psychiatrická nemocnice v Dobřanech", "website": "https://www.pnvd.cz/", "wikidata": "Q58221834"}}, {"name": "Masarykova nemocnice", "latitude": 50.108052, "longitude": 13.7162123, "source": "osm", "_tags": {"amenity": "hospital", "emergency": "yes", "healthcare": "hospital", "name": "Masarykova nemocnice", "website": "https://www.nemorako.cz/"}}, {"name": "Nemocnice Rokycany", "latitude": 49.748712, "longitude": 13.6044714, "source": "osm", "_tags": {"alt_name": "Rokycanská nemocnice", "amenity": "hospital", "emergency": "yes", "healthcare": "hospital", "name": "Nemocnice Rokycany", "website": "http://www.nemocnice-ro.cz/"}}, {"name": "Nemocnice Louny", "latitude": 50.3495463, "longitude": 13.809386, "source": "osm", "_tags": {"amenity": "hospital", "healthcare": "hospital", "name": "Nemocnice Louny"}}, {"name": "", "latitude": 50.3202634, "longitude": 13.5374866, "source": "osm", "_tags": {"amenity": "hospital", "healthcare": "hospital"}}, {"name": "Fakultní nemocnice Plzeň", "latitude": 49.7618521, "longitude": 13.3808228, "source": "osm", "_tags": {"amenity": "hospital", "healthcare": "hospital", "name": "Fakultní nemocnice Plzeň"}}, {"name": "Transfúzní oddělení FN Plzeň", "latitude": 49.728646, "longitude": 13.3754495, "source": "osm", "_tags": {"amenity": "hospital", "healthcare": "hospital", "name": "Transfúzní oddělení FN Plzeň"}}, {"name": "", "latitude": 50.3126728, "longitude": 12.9642071, "source": "osm", "_tags": {"amenity": "hospital", "healthcare": "hospital"}}, {"name": "Privamed", "latitude": 49.7648985, "longitude": 13.3590863, "source": "osm", "_tags": {"amenity": "hospital", "area": "yes", "healthcare": "hospital", "name": "Privamed"}}, {"name": "Psychiatrická léčebna Petrohrad", "latitude": 50.1256471, "longitude": 13.4427271, "source": "osm", "_tags": {"alt_name": "zámek Petrohrad", "amenity": "hospital", "emergency": "no", "healthcare": "hospital", "healthcare:speciality": "psychiatry", "name": "Psychiatrická léčebna Petrohrad", "phone": "+420 415 236 111", "website": "https://www.plpetrohrad.cz/"}}, {"name": "Psychiatrická léčebna Lnáře", "latitude": 49.4524265, "longitude": 13.7963544, "source": "osm", "_tags": {"addr:city": "Lnáře", "addr:housenumber": "16", "addr:postcode": "38742", "building": "hospital", "building:ruian:type": "3", "healthcare": "hospital", "healthcare:speciality": "psychiatry", "name": "Psychiatrická léčebna Lnáře", "ref:ruian:building": "18243436", "source": "cuzk:ruian", "type": "multipolygon"}}]