[{"name": "Caritas-Krankenhaus", "latitude": 49.4904813, "longitude": 9.7631161, "source": "osm", "_tags": {"amenity": "hospital", "emergency": "yes", "healthcare": "hospital", "name": "Caritas-Krankenhaus", "toilets:wheelchair": "yes", "wheelchair": "yes", "wikidata": "Q19962130", "wikipedia": "de:Caritas-Krankenhaus Bad Mergentheim"}}, {"name": "Hufeland Klinik", "latitude": 49.495874, "longitude": 9.7806203, "source": "osm", "_tags": {"amenity": "hospital", "name": "Hufeland Klinik"}}, {"name": "Knappschaftsklinik", "latitude": 50.2887774, "longitude": 9.3578335, "source": "osm", "_tags": {"addr:city": "Bad Soden-Salmünster", "addr:country": "DE", "addr:housenumber": "2", "addr:postcode": "63628", "addr:street": "Knappschaftsweg", "addr:suburb": "Bad Soden", "alt_name": "Knappschafts-Klinik", "amenity": "hospital", "emergency": "no", "healthcare": "rehabilitation", "name": "Knappschaftsklinik", "website": "https://www.kbs.de/DE/Kliniken/RehaKliniken/KlinikauswahlNachStandort/BadSodenSalmuenster/badsodensalmuenster_node.html"}}, {"name": "Rehaklinik Ob der Tauber", "latitude": 49.4961985, "longitude": 9.7882604, "source": "osm", "_tags": {"amenity": "hospital", "emergency": "no", "name": "Rehaklinik Ob der Tauber", "wheelchair": "yes"}}, {"name": "DAK Klinik Haus Schwaben", "latitude": 49.4943018, "longitude": 9.7865519, "source": "osm", "_tags": {"amenity": "hospital", "healthcare": "hospital", "name": "DAK Klinik Haus Schwaben"}}, {"name": "Vitos Kinder- und Jugendambulanz und Tagesklinik für psychische Gesundheit Höchst im Odenwald", "latitude": 49.7953404, "longitude": 8.9997149, "source": "osm", "_tags": {"addr:city": "Höchst im Odenwald", "addr:country": "DE", "addr:housenumber": "84-86", "addr:postcode": "64739", "addr:street": "Erbacher Straße", "amenity": "hospital", "emergency": "yes", "healthcare": "hospital", "healthcare:speciality": "child_psychiatry", "name": "Vitos Kinder- und Jugendambulanz und Tagesklinik für psychische Gesundheit Höchst im Odenwald", "operator": "Vitos Südhessen", "operator:type": "public"}}, {"name": "Gesundheitszentrum An der Höhle", "latitude": 49.4811058, "longitude": 9.3504518, "source": "osm", "_tags": {"addr:city": "Buchen (Odenwald)", "addr:housenumber": "8", "addr:postcode": "74722", "addr:street": "Höhlenweg", "addr:suburb": "Eberstadt", "amenity": "hospital", "healthcare": "rehabilitation", "healthcare:speciality": "mother_child", "name": "Gesundheitszentrum An der Höhle", "website": "https://www.mutter-vater-kind-kur.de/"}}, {"name": "St. Marien", "latitude": 50.2903286, "longitude": 9.372057, "source": "osm", "_tags": {"amenity": "hospital", "healthcare": "hospital", "healthcare:speciality": "physiatry", "name": "St. Marien", "operator": "Klinik St. Marien GmbH & Co. KG"}}, {"name": "Bergman Clinik Hofgartenklinik Aschaffenburg", "latitude": 49.9752736, "longitude": 9.155114, "source": "osm", "_tags": {"addr:city": "Aschaffenburg", "addr:country": "DE", "addr:housenumber": "6", "addr:postcode": "63739", "addr:street": "Hofgartenstraße", "amenity": "hospital", "building": "yes", "building:levels": "3", "healthcare": "hospital", "healthcare:speciality": "orthopaedics;ophthalmology", "heritage": "4", "heritage:operator": "BLfD", "image": "http://commons.wikimedia.org/wiki/File:AB_Hofgartenstraße_Klinik.JPG", "name": "Bergman Clinik Hofgartenklinik Aschaffenburg", "operator": "Bergman Clinics", "ref:BLfD": "D-6-61-000-127", "start_date": "1913", "website": "https://www.bergmanclinics-hofgartenklinik.de/", "wikidata": "Q1270697"}}, {"name": "MEDIAN Klinik Odenwald", "latitude": 49.8309063, "longitude": 9.0155212, "source": "osm", "_tags": {"addr:city": "Breuberg", "addr:housenumber": "101 - 115", "addr:postcode": "64747", "addr:street": "Ernst-Ludwig-Straße", "addr:suburb": "Sandbach", "amenity": "hospital", "emergency": "no", "healthcare": "rehabilitation", "loc_name": "Ernst-Ludwig-Klinik", "name": "MEDIAN Klinik Odenwald", "old_name": "Ernst-Ludwig-Heilstätte", "old_name_2": "AHG Klinik Hardberg", "phone": "+49 6163 740", "website": "https://www.median-kliniken.de/de/median-klinik-odenwald/", "wikidata": "Q47543175", "wikipedia": "de:Median Klinik Odenwald"}}, {"name": "Rotkreuzklinik", "latitude": 49.7951752, "longitude": 9.9388762, "source": "osm", "_tags": {"addr:city": "Würzburg", "addr:country": "DE", "addr:housenumber": "2", "addr:postcode": "97070", "addr:street": "Kapuzinerstraße", "amenity": "hospital", "building": "hospital", "building:levels": "3", "check_date": "2025-04-21", "contact:email": "kh-lindenberg@swmbrk.de", "contact:fax": "+49 931 3092-132", "contact:phone": "+49 931 3092-0", "contact:website": "https://www.rotkreuzklinik-wuerzburg.de", "healthcare": "hospital", "name": "Rotkreuzklinik", "roof:levels": "1", "roof:shape": "mansard", "wheelchair": "yes", "wikidata": "Q41313101", "wikipedia": "de:Huttenhof (Würzburg)"}}, {"name": "Spessart-Klinik", "latitude": 50.2268959, "longitude": 9.3516641, "source": "osm", "_tags": {"addr:city": "Bad Orb", "addr:country": "DE", "addr:housenumber": "7-11", "addr:postcode": "63619", "addr:street": "Würzburger Straße", "amenity": "hospital", "fax": "+49 6052 87100", "healthcare": "rehabilitation", "name": "Spessart-Klinik", "operator": "Independent", "phone": "+49 6052 870", "website": "https://spessart-klinik.de/", "wheelchair": "limited"}}, {"name": "MediClin Reha-Zentrum Bad Orb", "latitude": 50.2160267, "longitude": 9.3531827, "source": "osm", "_tags": {"amenity": "hospital", "fax": "+49 6052 808649", "healthcare": "rehabilitation", "healthcare:speciality": "neurology;neuropsychology;orthopaedics", "name": "MediClin Reha-Zentrum Bad Orb", "phone": "+49 6052 8080", "website": "https://www.reha-zentrum-bad-orb.de/", "wheelchair": "yes"}}, {"name": "Krankenhaus Hardheim", "latitude": 49.6116916, "longitude": 9.4706125, "source": "osm", "_tags": {"addr:city": "Hardheim", "addr:country": "DE", "addr:housenumber": "95", "addr:postcode": "74736", "addr:street": "Wertheimer Straße", "amenity": "hospital", "building": "hospital", "contact:email": "info@khv-ha-wa.de", "contact:phone": "+49 6283 56-110", "emergency": "yes", "name": "Krankenhaus Hardheim", "website": "https://www.khv-ha-wa.de/krankenhaus/", "wheelchair": "yes", "wikidata": "Q61719611", "wikipedia": "de:Krankenhaus Hardheim"}}, {"name": "Kreiskrankenhaus TBB Haus Ⅰ", "latitude": 49.6297701, "longitude": 9.6737019, "source": "osm", "_tags": {"addr:city": "Tauberbischofsheim", "addr:housenumber": "37", "addr:postcode": "97941", "addr:street": "Albert-Schweitzer-Straße", "amenity": "hospital", "building": "hospital", "healthcare": "hospital", "name": "Kreiskrankenhaus TBB Haus Ⅰ"}}, {"name": "Kreiskrankenhaus TBB Haus Ⅱ", "latitude": 49.6303868, "longitude": 9.6722761, "source": "osm", "_tags": {"addr:city": "Tauberbischofsheim", "addr:housenumber": "16", "addr:postcode": "97941", "addr:street": "Am Heimbergsflur", "amenity": "hospital", "building": "hospital", "healthcare": "hospital", "name": "Kreiskrankenhaus TBB Haus Ⅱ"}}, {"name": "Schmerzklinik Löffelstelzen", "latitude": 49.5062039, "longitude": 9.7903386, "source": "osm", "_tags": {"amenity": "hospital", "check_date": "2024-12-26", "emergency": "no", "name": "Schmerzklinik Löffelstelzen"}}, {"name": "Bezirkskrankenhaus Lohr", "latitude": 49.9887406, "longitude": 9.568589, "source": "osm", "_tags": {"amenity": "hospital", "healthcare": "hospital", "name": "Bezirkskrankenhaus Lohr", "phone": "+49 9352 5030", "website": "https://www.bezirkskrankenhaus-lohr.de/", "wheelchair": "yes", "wikidata": "Q37224192", "wikipedia": "de:Bezirkskrankenhaus Lohr"}}, {"name": "Klinik Rabenstein", "latitude": 50.4193169, "longitude": 8.9859798, "source": "osm", "_tags": {"addr:city": "Nidda", "addr:housenumber": "34", "addr:postcode": "63667", "addr:street": "Kurstraße", "addr:suburb": "Bad Salzhausen", "amenity": "hospital", "building": "hospital", "name": "Klinik Rabenstein", "wheelchair": "yes"}}, {"name": "GRN-Klinik Eberbach", "latitude": 49.4632668, "longitude": 8.9912202, "source": "osm", "_tags": {"addr:city": "Eberbach", "addr:country": "DE", "addr:housenumber": "3", "addr:postcode": "69412", "addr:street": "Scheuerbergstraße", "amenity": "hospital", "name": "GRN-Klinik Eberbach", "old_name": "Kreiskrankenhaus Eberbach", "website": "https://www.grn.de/klinik-eberbach/", "wikidata": "Q92801870"}}, {"name": "", "latitude": 49.8484208, "longitude": 9.6237449, "source": "osm", "_tags": {"amenity": "hospital", "healthcare": "hospital", "wheelchair": "yes"}}, {"name": "Diabetes Zentrum Mergentheim", "latitude": 49.4957103, "longitude": 9.7793963, "source": "osm", "_tags": {"addr:city": "Bad Mergentheim", "addr:country": "DE", "addr:housenumber": "12", "addr:postcode": "97980", "addr:street": "Theodor-Klotzbücher-Straße", "amenity": "hospital", "building": "yes", "healthcare": "hospital", "healthcare:speciality": "diabetology", "name": "Diabetes Zentrum Mergentheim", "toilets:wheelchair": "yes", "website": "https://www.diabetes-zentrum.de/", "wheelchair": "yes", "wikidata": "Q2675657", "wikipedia": "de:Diabetes Zentrum Mergentheim"}}, {"name": "Malteser Klinik von Weckbecker", "latitude": 50.3111497, "longitude": 9.785686, "source": "osm", "_tags": {"addr:city": "Bad Brückenau", "addr:country": "DE", "addr:housenumber": "20", "addr:postcode": "97769", "addr:street": "Rupprechtstraße", "alt_name": "Klinik von Weckbecker Fachklinik für Naturheilverfahren", "amenity": "hospital", "building": "yes", "healthcare": "clinic", "healthcare:speciality": "rehabilitation;naturopathy", "name": "Malteser Klinik von Weckbecker", "website": "https://www.weckbecker.com/"}}, {"name": "Asklepios Klinik Seligenstadt", "latitude": 50.0418547, "longitude": 8.9644898, "source": "osm", "_tags": {"addr:city": "Seligenstadt", "addr:country": "DE", "addr:housenumber": "9", "addr:postcode": "63500", "addr:street": "Dudenhöfer Straße", "amenity": "hospital", "emergency": "yes", "fax": "+49 6182 838100", "healthcare": "hospital", "name": "Asklepios Klinik Seligenstadt", "not:operator:wikidata": "Q732068", "operator": "Asklepios Kliniken GmbH & Co. KGaA", "phone": "+49 6182 830", "website": "https://www.asklepios.com/klinik/default.aspx?name=Asklepios_Klinik_Seligenstadt", "wheelchair": "yes"}}, {"name": "Klinikum Main-Spessart", "latitude": 49.9963025, "longitude": 9.5715656, "source": "osm", "_tags": {"addr:city": "Lohr am Main", "addr:country": "DE", "addr:housenumber": "5", "addr:postcode": "97816", "addr:street": "Grafen-von-Rieneck-Straße", "amenity": "hospital", "building": "yes", "check_date": "2024-04-04", "emergency": "yes", "healthcare": "hospital", "name": "Klinikum Main-Spessart", "phone": "+49 9352 505-0", "toilets:wheelchair": "yes", "website": "https://www.klinikum-msp.de/", "wheelchair": "yes"}}, {"name": "Main-Kinzig-Kliniken Gelnhausen", "latitude": 50.2066396, "longitude": 9.181324, "source": "osm", "_tags": {"addr:city": "Gelnhausen", "addr:country": "DE", "addr:housenumber": "14", "addr:postcode": "63571", "addr:street": "Herzbachweg", "amenity": "hospital", "emergency": "yes", "fax": "+49 6051 87-2617", "healthcare": "hospital", "name": "Main-Kinzig-Kliniken Gelnhausen", "phone": "+49 6051 870", "website": "https://www.mkkliniken.de/", "wheelchair": "yes"}}, {"name": "DRK Dorndiel/Klein-Umstadt", "latitude": 49.8660105, "longitude": 9.0164272, "source": "osm", "_tags": {"addr:city": "Groß-Umstadt", "addr:country": "DE", "addr:housenumber": "12", "addr:postcode": "64823", "addr:street": "Seewiese", "addr:suburb": "Dorndiel", "amenity": "hospital", "brand": "Deutsches Rotes Kreuz", "brand:wikidata": "Q694104", "building": "yes", "emergency": "no", "healthcare": "hospital", "name": "DRK Dorndiel/Klein-Umstadt"}}, {"name": "DRV Reha-Klinik Taubertal", "latitude": 49.4995248, "longitude": 9.7803328, "source": "osm", "_tags": {"addr:city": "Bad Mergentheim", "addr:country": "DE", "addr:housenumber": "2", "addr:postcode": "97980", "addr:street": "Ketterberg", "amenity": "hospital", "building": "yes", "check_date": "2025-08-17", "emergency": "no", "name": "DRV Reha-Klinik Taubertal", "source": "Maps4BW, LGL, www.lgl-bw.de"}}, {"name": "Klinik Hohenlohe", "latitude": 49.4961353, "longitude": 9.781794, "source": "osm", "_tags": {"addr:city": "Bad Mergentheim", "addr:country": "DE", "addr:housenumber": "1", "addr:postcode": "97980", "addr:street": "Lothar-Daiker-Straße", "amenity": "hospital", "building": "hospital", "healthcare": "hospital", "name": "Klinik Hohenlohe", "source": "Maps4BW, LGL, www.lgl-bw.de", "wheelchair": "yes", "wikidata": "Q100492324"}}, {"name": "Klinik Schloss Waldleiningen", "latitude": 49.5669676, "longitude": 9.1170645, "source": "osm", "_tags": {"amenity": "hospital", "email": "info@schloss-waldleiningen.de", "fax": "+49 6284 74140", "healthcare": "rehabilitation", "name": "Klinik Schloss Waldleiningen", "phone": "+49 6284 740", "website": "https://schloss-waldleiningen.de/", "wikidata": "Q114665558"}}, {"name": "Hescuro Klinik Bad Brückenau", "latitude": 50.3076411, "longitude": 9.7852654, "source": "osm", "_tags": {"addr:city": "Bad Brückenau", "addr:country": "DE", "addr:housenumber": "16", "addr:postcode": "97769", "addr:street": "Bahnhofstraße", "amenity": "hospital", "healthcare": "hospital", "name": "Hescuro Klinik Bad Brückenau", "old_name": "Capio Franz von Prümmer Klinik", "website": "https://www.hescuro-bad-brueckenau.de/", "wheelchair": "yes"}}, {"name": "", "latitude": 49.7450592, "longitude": 9.0051162, "source": "osm", "_tags": {"building": "yes", "healthcare": "hospital", "layer": "1"}}, {"name": "Helios Klinik Erlenbach", "latitude": 49.8109545, "longitude": 9.1666382, "source": "osm", "_tags": {"addr:city": "Erlenbach a. Main", "addr:housenumber": "45", "addr:postcode": "63906", "addr:street": "Krankenhausstraße", "alt_name": "Krankenhaus Erlenbach", "amenity": "hospital", "emergency": "yes", "fax": "+49 9372 7001009", "healthcare": "hospital", "name": "Helios Klinik Erlenbach", "operator": "Helios Kliniken", "operator:type": "private", "operator:wikidata": "Q1254151", "phone": "+49 9372 700", "source": "bing", "website": "https://www.helios-gesundheit.de/kliniken/erlenbach/", "wheelchair": "yes"}}, {"name": "Odenwald Hospiz", "latitude": 49.5887404, "longitude": 9.3550058, "source": "osm", "_tags": {"addr:city": "Walldürn", "addr:housenumber": "21a", "addr:postcode": "74731", "addr:street": "Pater-Josef-Eckstein-Straße", "amenity": "hospital", "building": "hospital", "emergency": "no", "healthcare": "hospital", "name": "Odenwald Hospiz", "operator": "OH Odenwald Hospiz gGmbH", "wikidata": "Q110514796"}}, {"name": "Vitos Kinder- und Jugendpsychiatrie Hanau", "latitude": 50.1440823, "longitude": 8.9413197, "source": "osm", "_tags": {"addr:city": "Hanau", "addr:country": "DE", "addr:housenumber": "1a", "addr:postcode": "63452", "addr:street": "Sophie-Scholl-Platz", "amenity": "hospital", "emergency": "yes", "healthcare": "hospital", "healthcare:speciality": "child_psychiatry", "name": "Vitos Kinder- und Jugendpsychiatrie Hanau", "website": "https://www.vitos.de/gesellschaften/vitos-herborn/einrichtungen/vitos-kinder-und-jugendpsychiatrische-tagesklinik-hanau"}}, {"name": "Neckar-Odenwald Kliniken Buchen", "latitude": 49.524074, "longitude": 9.308452, "source": "osm", "_tags": {"addr:city": "Buchen (Odenwald)", "addr:country": "DE", "addr:housenumber": "37", "addr:postcode": "74722", "addr:street": "Dr.-Konrad-Adenauer-Straße", "amenity": "hospital", "emergency": "yes", "healthcare": "hospital", "healthcare:speciality": "intensive;emergency;gynaecology;surgery;internal;orthopaedics", "name": "Neckar-Odenwald Kliniken Buchen", "operator": "Neckar-Odenwald Kliniken gGmbH", "operator:type": "public", "website": "https://www.neckar-odenwald-kliniken.de/"}}, {"name": "Naturklinik", "latitude": 49.8271214, "longitude": 9.5223691, "source": "osm", "_tags": {"amenity": "hospital", "healthcare": "hospital", "name": "Naturklinik"}}, {"name": "Asklepios Neurologische Klinik Bad Salzhausen", "latitude": 50.4196877, "longitude": 8.9884644, "source": "osm", "_tags": {"amenity": "hospital", "healthcare": "hospital", "name": "Asklepios Neurologische Klinik Bad Salzhausen", "operator": "Asklepios", "wheelchair": "limited"}}, {"name": "Asklepios Schlossberg Klinik Bad König", "latitude": 49.7451173, "longitude": 9.0050403, "source": "osm", "_tags": {"addr:city": "Bad König", "addr:country": "DE", "addr:housenumber": "33", "addr:postcode": "64732", "addr:street": "Frankfurter Straße", "amenity": "hospital", "healthcare": "hospital", "healthcare:speciality": "neurology rehabiltation", "name": "Asklepios Schlossberg Klinik Bad König", "operator": "Asklepios Kliniken", "operator:type": "private", "operator:wikidata": "Q732068"}}, {"name": "Kreiskrankenhaus Erbach", "latitude": 49.6516651, "longitude": 9.0006747, "source": "osm", "_tags": {"addr:city": "Erbach", "addr:country": "DE", "addr:housenumber": "10 - 20", "addr:postcode": "64711", "addr:street": "Albert-Schweitzer-Straße", "amenity": "hospital", "emergency": "yes", "healthcare": "hospital", "name": "Kreiskrankenhaus Erbach", "operator": "Gesundheitszentrum Odenwaldkreis GmbH", "wheelchair": "yes"}}, {"name": "Salztal Klinik", "latitude": 50.2840709, "longitude": 9.358733, "source": "osm", "_tags": {"addr:city": "Bad Soden-Salmünster", "addr:housenumber": "18", "addr:postcode": "63628", "addr:street": "Parkstraße", "addr:suburb": "Bad Soden", "alt_name": "Salztalklinik", "amenity": "hospital", "emergency": "no", "healthcare": "hospital", "name": "Salztal Klinik", "website": "https://www.salztalklinik.de/"}}, {"name": "Main-Kinzig-Kliniken Schlüchtern", "latitude": 50.3541778, "longitude": 9.5273952, "source": "osm", "_tags": {"addr:city": "Schlüchtern", "addr:housenumber": "17", "addr:postcode": "36381", "addr:street": "Kurfürstenstraße", "amenity": "hospital", "check_date": "2024-10-09", "contact:phone": "+49 6661 810", "contact:website": "https://www.mkkliniken.de", "emergency": "yes", "healthcare": "hospital", "name": "Main-Kinzig-Kliniken Schlüchtern", "opening_hours": "24/7"}}, {"name": "Bergman Clinics Mathilden-Hospital", "latitude": 50.2871478, "longitude": 9.1136021, "source": "osm", "_tags": {"addr:city": "Büdingen", "addr:country": "DE", "addr:housenumber": "9", "addr:postcode": "63654", "addr:street": "Am Schlag", "amenity": "hospital", "check_date": "2025-04-17", "emergency": "no", "healthcare": "hospital", "healthcare:speciality": "psychiatry", "name": "Bergman Clinics Mathilden-Hospital", "operator": "Bergman Deutsche Klinik Büdingen GmbH", "phone": "+49 6042 86-0", "website": "https://www.bergmanclinics-mathildenhospital.de/", "wheelchair": "yes"}}, {"name": "Juliusspital", "latitude": 49.7979145, "longitude": 9.9312569, "source": "osm", "_tags": {"amenity": "hospital", "contact:website": "https://www.juliusspital.de/", "emergency": "yes", "healthcare": "hospital", "name": "Juliusspital", "name:etymology:wikidata": "Q450861", "operator": "Stiftung Juliusspital Würzburg", "wikidata": "Q2349038", "wikipedia": "de:Stiftung Juliusspital Würzburg"}}, {"name": "Limes Schlossklinik Fürstenhof", "latitude": 50.3047801, "longitude": 9.7468803, "source": "osm", "_tags": {"addr:city": "Bad Brückenau", "addr:housenumber": "16", "addr:postcode": "97769", "addr:street": "Heinrich-von-Bibra-Straße", "amenity": "hospital", "contact:website": "https://www.limes-schlossklinik-fuerstenhof.de/", "emergency": "no", "healthcare": "rehabilitation", "healthcare:speciality": "psychiatry;physiatry", "name": "Limes Schlossklinik Fürstenhof", "operator": "LIMES Schlossklinik Fürstenhof GmbH", "operator:type": "private"}}, {"name": "Reha-Kliniken Küppelsmühle", "latitude": 50.2125055, "longitude": 9.3587159, "source": "osm", "_tags": {"amenity": "hospital", "fax": "+49 6052 82828", "healthcare": "rehabilitation", "name": "Reha-Kliniken Küppelsmühle", "phone": "+49 6052 820", "website": "https://bad-orb.kueppelsmuehle.de/", "wheelchair": "yes"}}, {"name": "Klinikum Aschaffenburg-Alzenau", "latitude": 50.0697991, "longitude": 9.0760149, "source": "osm", "_tags": {"addr:city": "Alzenau", "addr:housenumber": "1", "addr:postcode": "63755", "addr:street": "Schloßhof", "addr:suburb": "Wasserlos", "amenity": "hospital", "description": "Klinikum Aschaffenburg-Alzenau Standort Alzenau", "emergency": "no", "name": "Klinikum Aschaffenburg-Alzenau", "phone": "+49 6023 506-0", "url": "https://www.klinikum-ab-alz.de/unternehmen/ueber-uns/klinik-geschichte/standort-alzenau", "website": "https://www.klinikum-ab-alz.de", "wheelchair": "yes"}}, {"name": "Vital Klinik", "latitude": 50.1005904, "longitude": 9.0919765, "source": "osm", "_tags": {"addr:city": "Alzenau", "addr:housenumber": "100", "addr:postcode": "63755", "addr:street": "Streuweg", "addr:suburb": "Michelbach", "amenity": "hospital", "healthcare": "clinic", "healthcare:speciality": "dermatology", "name": "Vital Klinik", "phone": "+49 6023 50590", "website": "https://www.vital-klinik.de"}}, {"name": "Bürgerspital Wertheim", "latitude": 49.7611739, "longitude": 9.4980076, "source": "osm", "_tags": {"addr:city": "Wertheim", "addr:housenumber": "2", "addr:postcode": "97877", "addr:street": "Rotkreuzstraße", "amenity": "hospital", "healthcare": "hospital", "name": "Bürgerspital Wertheim"}}, {"name": "MEDIAN Kinzigtal-Klinik", "latitude": 50.2867588, "longitude": 9.3601616, "source": "osm", "_tags": {"addr:city": "Bad Soden-Salmünster", "addr:country": "DE", "addr:housenumber": "7-9", "addr:postcode": "63628", "addr:street": "Parkstraße", "amenity": "hospital", "building": "hospital", "contact:email": "kontakt.kinzigtal@median-kliniken.de", "contact:phone": "+49 6056 7370", "contact:website": "https://www.median-kliniken.de/de/median-kinzigtal-klinik-bad-soden-salmuenster/", "healthcare": "hospital", "healthcare:speciality": "orthopaedics;psychosomatic", "name": "MEDIAN Kinzigtal-Klinik", "operator": "MEDIAN Unternehmensgruppe B.V. & Co. KG", "operator:type": "business", "type": "multipolygon"}}, {"name": "Universitätsklinikum Würzburg", "latitude": 49.8044728, "longitude": 9.9436281, "source": "osm", "_tags": {"addr:city": "Würzburg", "addr:housenumber": "2", "addr:postcode": "97080", "addr:street": "Josef-Schneider-Straße", "amenity": "hospital", "contact:phone": "+49 931 2010", "contact:website": "https://www.ukw.de/", "emergency": "yes", "healthcare": "hospital", "name": "Universitätsklinikum Würzburg", "short_name": "UKW", "toilets:wheelchair": "yes", "type": "multipolygon", "wheelchair": "limited", "wheelchair:description": "http://www.wuerzburg.de/de/themen/gesundheit-soziales/menschenmitbehinderung/bsb_/Klinikum_der_Universitaet_Wuerzburg/28177.Barrierefreie-WC-Anlagen.html?text=&kt[sb]=&kt[sd]=&kt[lt]=&kt[cat]=17933&page_anschriftenverzeichnisbsb=1&detID=658", "wikidata": "Q1784848", "wikipedia": "de:Universitätsklinikum Würzburg"}}, {"name": "Klinikum Aschaffenburg", "latitude": 49.9762496, "longitude": 9.1873771, "source": "osm", "_tags": {"addr:city": "Aschaffenburg", "addr:housenumber": "1", "addr:postcode": "63739", "addr:street": "Am Hasenkopf", "amenity": "hospital", "email": "info@klinikum-ab-alz.de", "emergency": "yes", "healthcare": "hospital", "name": "Klinikum Aschaffenburg", "operator": "Klinikum Aschaffenburg-Alzenau gGmbH", "operator:type": "public", "phone": "+49 6021 32", "type": "multipolygon", "website": "https://www.klinikum-ab-alz.de/", "wheelchair": "yes", "wikidata": "Q30282261"}}, {"name": "Psychiatrische Klinik Aschaffenburg", "latitude": 49.9779401, "longitude": 9.1909482, "source": "osm", "_tags": {"addr:housenumber": "3", "addr:street": "Am Hasenkopf", "amenity": "hospital", "building": "hospital", "healthcare:speciality": "psychiatry", "name": "Psychiatrische Klinik Aschaffenburg", "type": "multipolygon", "website": "https://www.bezirkskrankenhaus-lohr.de/unsere-einrichtung/unsere-auenstellen/standort-aschaffenburg/23027.Psychiatrische-Klinik-Aschaffenburg.html"}}, {"name": "Hamm Klinik Bellevue", "latitude": 50.2835242, "longitude": 9.356778, "source": "osm", "_tags": {"addr:city": "Bad Soden-Salmünster", "addr:housenumber": "20", "addr:postcode": "63628", "addr:street": "Brüder-Grimm-Straße", "addr:suburb": "Bad Soden", "amenity": "hospital", "building": "hospital", "fax": "+49 6056 72274", "healthcare": "rehabilitation", "healthcare:speciality": "oncology", "name": "Hamm Klinik Bellevue", "phone": "+49 6056 720", "type": "multipolygon", "website": "https://www.hamm-kliniken.de/kliniken/klinik-bellevue"}}]