[{"name": "Mount Hawke Surgery", "latitude": 50.2807544, "longitude": -5.2098874, "source": "osm", "_tags": {"addr:city": "Truro", "addr:country": "GB", "addr:place": "Mount Hawke", "addr:postcode": "TR4 8UE", "addr:street": "Short Cross Road", "amenity": "hospital", "emergency": "no", "healthcare": "hospital", "name": "Mount Hawke Surgery"}}, {"name": "The Eye Unit", "latitude": 50.2665803, "longitude": -5.0906838, "source": "osm", "_tags": {"amenity": "clinic", "healthcare": "hospital", "healthcare:speciality": "ophthalmology", "name": "The Eye Unit", "operator": "Royal Cornwall Hospitals NHS Trust"}}, {"name": "St. Michael's Hospital", "latitude": 50.1804998, "longitude": -5.4244169, "source": "osm", "_tags": {"amenity": "hospital", "building": "yes", "healthcare": "hospital", "name": "St. Michael's Hospital", "wikidata": "Q7594811"}}, {"name": "Helston Community Hospital", "latitude": 50.0917905, "longitude": -5.2651715, "source": "osm", "_tags": {"addr:city": "Helston", "addr:country": "GB", "addr:postcode": "TR13 8DR", "addr:street": "Meneage Road", "amenity": "hospital", "fhrs:id": "455260", "healthcare": "hospital", "name": "Helston Community Hospital"}}, {"name": "Newquay Hospital", "latitude": 50.4109287, "longitude": -5.0739946, "source": "osm", "_tags": {"alt_name": "Newquay Community Hospital", "amenity": "hospital", "healthcare": "hospital", "name": "Newquay Hospital", "operator": "Cornwall Partnership NHS Foundation Trust", "operator:type": "public", "operator:wikidata": "Q16988175", "source": "bing"}}, {"name": "Diabetes and Endocrine Centre", "latitude": 50.2677738, "longitude": -5.0944774, "source": "osm", "_tags": {"amenity": "clinic", "building": "hospital", "emergency": "no", "healthcare": "hospital", "healthcare:speciality": "endocrinology", "name": "Diabetes and Endocrine Centre", "source": "OS Local", "source:id": "FB5D9F6E-BF1C-43B3-AF0E-D16F6DF1BA9A"}}, {"name": "Falmouth Hospital", "latitude": 50.155613, "longitude": -5.0860695, "source": "osm", "_tags": {"amenity": "hospital", "building": "yes", "healthcare": "hospital", "name": "Falmouth Hospital"}}, {"name": "West Cornwall Hospital (Penzance)", "latitude": 50.1219092, "longitude": -5.5429355, "source": "osm", "_tags": {"addr:city": "Penzance", "addr:postcode": "TR18 2PF", "addr:street": "St Clare Street", "amenity": "hospital", "healthcare": "hospital", "name": "West Cornwall Hospital (Penzance)", "phone": "+44 1736 874000", "website": "https://www.royalcornwall.nhs.uk/", "wikidata": "Q7984877"}}, {"name": "The Duchy Hospital", "latitude": 50.2681529, "longitude": -5.0935435, "source": "osm", "_tags": {"amenity": "hospital", "emergency": "yes", "healthcare": "hospital", "hospital": "private", "name": "The Duchy Hospital", "wikidata": "Q30293081"}}, {"name": "Camborne Redruth Community Hospital", "latitude": 50.229006, "longitude": -5.2454763, "source": "osm", "_tags": {"addr:city": "Redruth", "addr:postcode": "TR15 3ER", "addr:street": "Barncoose Terrace", "amenity": "hospital", "emergency": "no", "fhrs:id": "492687", "healthcare": "hospital", "healthcare:speciality": "minor_injuries;general;psychiatry", "name": "Camborne Redruth Community Hospital", "operator": "Cornwall Partnership NHS Foundation Trust", "operator:type": "public", "operator:wikidata": "Q16988175", "website": "https://www.cornwallft.nhs.uk/hospitals/camborne-redruth/", "wikidata": "Q14956769", "wikipedia": "en:Camborne Redruth Community Hospital"}}, {"name": "Royal Cornwall Hospital", "latitude": 50.2669391, "longitude": -5.0932588, "source": "osm", "_tags": {"amenity": "hospital", "emergency": "yes", "healthcare": "hospital", "name": "Royal Cornwall Hospital", "wikidata": "Q7374067"}}, {"name": "Emergency Department", "latitude": 50.266069, "longitude": -5.0920692, "source": "osm", "_tags": {"amenity": "clinic", "building": "hospital", "emergency": "yes", "healthcare": "hospital", "healthcare:speciality": "emergency", "name": "Emergency Department", "nohousenumber": "yes", "operator": "Royal Cornwall Hospitals NHS Trust"}}, {"name": "Child Development Centre", "latitude": 50.2679824, "longitude": -5.0946687, "source": "osm", "_tags": {"amenity": "clinic", "building": "hospital", "healthcare": "hospital", "name": "Child Development Centre", "operator": "Royal Cornwall Hospitals NHS Trust", "type": "multipolygon"}}]