[{"name": "Szpital Zakonu Bonifratrów Świętego Jana Grandego", "latitude": 50.0475227, "longitude": 19.9451864, "source": "osm", "_tags": {"amenity": "hospital", "contact:email": "informacja@bonifratrzy.krakow.pl", "contact:phone": "+48 12 3797377", "contact:website": "https://bonifratrzy.pl/szpital-krakow/", "healthcare": "hospital", "name": "Szpital Zakonu Bonifratrów Świętego Jana Grandego", "wikidata": "Q18435122", "wikipedia": "pl:Szpital Zakonu Bonifratrów św. Jana Grandego w Krakowie"}}, {"name": "Mościckie Centrum Medyczne SPZOZ", "latitude": 50.0141, "longitude": 20.91835, "source": "osm", "_tags": {"addr:city": "Tarnów", "addr:housenumber": "15", "addr:street": "Eugeniusza Kwiatkowskiego", "amenity": "hospital", "healthcare": "hospital", "name": "Mościckie Centrum Medyczne SPZOZ", "phone": "+48146330071", "source": "http://ump.waw.pl/ retrieved 11:18:52 11/17/09 (UMP-Tarnow/src/POI-szpitale.pnt-converted.txt)"}}, {"name": "Szpital Powiatowy", "latitude": 49.7160365, "longitude": 20.4136574, "source": "osm", "_tags": {"addr:city": "Limanowa", "addr:housenumber": "61", "addr:postcode": "34-600", "addr:street": "Józefa Piłsudskiego", "amenity": "hospital", "emergency": "yes", "healthcare": "hospital", "name": "Szpital Powiatowy"}}, {"name": "Centrum medyczne w Żegocinie", "latitude": 49.8031788, "longitude": 20.4206871, "source": "osm", "_tags": {"amenity": "hospital", "emergency": "yes", "name": "Centrum medyczne w Żegocinie"}}, {"name": "Ośrodek Zdrowia Szczepanów", "latitude": 50.0053003, "longitude": 20.653077, "source": "osm", "_tags": {"amenity": "doctors", "healthcare": "hospital", "name": "Ośrodek Zdrowia Szczepanów"}}, {"name": "SOR", "latitude": 50.0123916, "longitude": 20.0014209, "source": "osm", "_tags": {"amenity": "clinic", "emergency": "yes", "healthcare": "hospital", "name": "SOR", "name:ru": "Отделение скорой медицинской помощи", "name:uk": "Відділення швидкої медичної допомоги", "official_name": "Szpitalny oddział ratunkowy", "opening_hours": "24/7", "operator": "Uniwersytecki Szpital Dziecięcy", "phone": "+48 12 658 2011", "wheelchair": "yes"}}, {"name": "Wojewódzki Specjalistyczny Szpital Dziecięcy im. św. Ludwika", "latitude": 50.0634294, "longitude": 19.9504511, "source": "osm", "_tags": {"addr:city": "Kraków", "addr:housenumber": "2", "addr:postcode": "31-503", "addr:street": "Strzelecka", "amenity": "hospital", "healthcare": "hospital", "healthcare:speciality": "specialist_pediatrician", "name": "Wojewódzki Specjalistyczny Szpital Dziecięcy im. św. Ludwika", "note": "być może powszechnie używana nazwa jest krótsza, wtedy tag name jest do poprawki", "official_name": "Wojewódzki Specjalistyczny Szpital Dziecięcy im. św. Ludwika w Krakowie"}}, {"name": "Szpital Miejski Specjalistyczny imienia Gabriela Narutowicza", "latitude": 50.0830461, "longitude": 19.9392225, "source": "osm", "_tags": {"amenity": "hospital", "contact:phone": "+48 12 416 2266", "contact:website": "http://narutowicz.krakow.pl/", "emergency": "yes", "healthcare": "hospital", "name": "Szpital Miejski Specjalistyczny imienia Gabriela Narutowicza", "wikidata": "Q9352127", "wikipedia": "pl:Szpital Miejski Specjalistyczny im. Gabriela Narutowicza w Krakowie"}}, {"name": "Szpital Specjalistyczny im. Ludwika Rydygiera w Krakowie", "latitude": 50.093124, "longitude": 20.0189461, "source": "osm", "_tags": {"amenity": "hospital", "emergency": "yes", "healthcare": "hospital", "name": "Szpital Specjalistyczny im. Ludwika Rydygiera w Krakowie", "name:etymology:wikidata": "Q342258", "website": "http://www.rydygierkrakow.pl/", "wheelchair": "yes", "wikidata": "Q9377119", "wikipedia": "pl:Wojewódzki Szpital Specjalistyczny im. Ludwika Rydygiera w Krakowie"}}, {"name": "Szpital Uniwersytecki CM UJ", "latitude": 50.0622587, "longitude": 19.9524073, "source": "osm", "_tags": {"amenity": "hospital", "contact:website": "http://www.su.krakow.pl/", "healthcare": "hospital", "name": "Szpital Uniwersytecki CM UJ", "official_name": "Szpital Uniwersytecki Collegium Medicum Uniwersytetu Jagiellońskiego", "short_name": "Szpital Uniwersytecki CM UJ", "wikidata": "Q9352146", "wikipedia": "pl:Szpital Uniwersytecki w Krakowie"}}, {"name": "Szpital w Proszowicach", "latitude": 50.1856228, "longitude": 20.299884, "source": "osm", "_tags": {"addr:city": "Proszowice", "addr:housenumber": "13", "addr:postcode": "32-100", "addr:street": "Mikołaja Kopernika", "amenity": "hospital", "healthcare": "hospital", "name": "Szpital w Proszowicach", "official_name": "Samodzielny Publiczny Zespół Opieki Zdrowotnej w Proszowicach", "website": "https://spzoz.proszowice.pl/"}}, {"name": "Wojewódzki Szpital Okulistyczny w Krakowie", "latitude": 50.0993873, "longitude": 20.0635597, "source": "osm", "_tags": {"addr:city": "Kraków", "addr:country": "PL", "addr:housename": "Wojewódzki Szpital Okulistyczny w Krakowie", "addr:housenumber": "17b", "addr:place": "Osiedle Na Wzgórzach", "addr:postcode": "31-723", "amenity": "hospital", "building": "hospital", "name": "Wojewódzki Szpital Okulistyczny w Krakowie"}}, {"name": "Szpital Położniczo-Ginekologiczny Medikor", "latitude": 49.6190325, "longitude": 20.7058811, "source": "osm", "_tags": {"addr:city": "Nowy Sącz", "addr:housenumber": "5", "addr:postcode": "33-300", "addr:street": "Rzemieślnicza", "amenity": "hospital", "building": "hospital", "healthcare": "hospital", "name": "Szpital Położniczo-Ginekologiczny Medikor", "operator": "Medikor", "source:addr": "EMUiA (emuia.gugik.gov.pl)", "website": "https://medikor.pl/"}}, {"name": "Szpital Kardiologiczny", "latitude": 49.6069629, "longitude": 19.9570407, "source": "osm", "_tags": {"addr:city": "Rabka-Zdrój", "addr:housenumber": "2", "addr:postcode": "34-700", "addr:street": "Aleja Jordana", "amenity": "hospital", "building": "hospital", "healthcare": "hospital", "name": "Szpital Kardiologiczny", "phone": "(18) 267 65 16", "website": "http://uzdrowisko-rabka.pl/", "wheelchair": "yes"}}, {"name": "SP ZOZ \"Szpital Powiatowy\" w Bochni im Bł. Marty Wieckiej", "latitude": 49.966532, "longitude": 20.4211567, "source": "osm", "_tags": {"addr:city": "Bochnia", "addr:housenumber": "31", "addr:postcode": "32-700", "addr:street": "Krakowska", "amenity": "hospital", "building": "yes", "emergency": "yes", "healthcare": "hospital", "healthcare:speciality": "general;paediatrics;emergency;radiology;gynaecology;surgery;dermatology;cardiology;internal", "name": "SP ZOZ \"Szpital Powiatowy\" w Bochni im Bł. Marty Wieckiej", "phone": "+48 14 615 3 400", "source:addr": "EMUiA (emuia.geoportal.gov.pl)", "website": "http://www.szpital-bochnia.pl/"}}, {"name": "Szpital specjalistyczny imienia Stefana Żeromskiego", "latitude": 50.0651898, "longitude": 20.0461253, "source": "osm", "_tags": {"amenity": "hospital", "emergency": "yes", "name": "Szpital specjalistyczny imienia Stefana Żeromskiego", "website": "https://www.zeromski-szpital.pl/", "wheelchair": "no"}}, {"name": "Szpital Świętej Anny w Miechowie", "latitude": 50.3532338, "longitude": 20.0354823, "source": "osm", "_tags": {"amenity": "hospital", "email": "sekretariat@szpital.miechow.pl", "healthcare": "hospital", "name": "Szpital Świętej Anny w Miechowie", "phone": "41 38 20 100", "website": "https://www.szpital.miechow.pl"}}, {"name": "Uniwersytecki Szpital Dziecięcy", "latitude": 50.011643, "longitude": 20.0015839, "source": "osm", "_tags": {"amenity": "hospital", "emergency": "yes", "healthcare": "hospital", "name": "Uniwersytecki Szpital Dziecięcy", "phone": "+48 12 658 20 11", "website": "https://www.szpitalzdrowia.pl/", "wikidata": "Q30280343", "wikipedia": "pl:Uniwersytecki Szpital Dziecięcy w Krakowie"}}, {"name": "", "latitude": 50.0994216, "longitude": 20.0636509, "source": "osm", "_tags": {"amenity": "hospital", "healthcare": "hospital"}}, {"name": "Hospicjum", "latitude": 50.3552408, "longitude": 20.0356215, "source": "osm", "_tags": {"addr:city": "Miechów", "addr:city:simc": "0947225", "addr:housenumber": "1C", "addr:postcode": "32-200", "addr:street": "Szpitalna", "addr:street:sym_ul": "22073", "amenity": "social_facility", "building": "yes", "building:levels": "2", "healthcare": "hospital", "historic": "yes", "name": "Hospicjum", "operator": "Caritas Diecezji Kieleckiej", "social_facility": "outreach", "source:addr": "emuia.gugik.gov.pl", "source:building": "BDOT", "source:geometry": "EGiB"}}, {"name": "Uzdrowiskowy Szpital Dziecięcy „Olszówka”", "latitude": 49.6106513, "longitude": 19.97063, "source": "osm", "_tags": {"addr:city": "Rabka-Zdrój", "addr:city:simc": "0962503", "addr:housenumber": "8", "addr:postcode": "34-700", "addr:street": "Juliusza Słowackiego", "addr:street:sym_ul": "20286", "amenity": "hospital", "building": "hospital", "healthcare": "hospital", "name": "Uzdrowiskowy Szpital Dziecięcy „Olszówka”", "phone": "18 26 77 011", "source:addr": "emuia.gugik.gov.pl"}}, {"name": "Szpital miejski w Rabce Zdroju", "latitude": 49.6084502, "longitude": 19.9708914, "source": "osm", "_tags": {"addr:city": "Rabka-Zdrój", "addr:housenumber": "3", "addr:postcode": "34-700", "addr:street": "Słoneczna", "amenity": "hospital", "emergency": "yes", "healthcare": "hospital", "landuse": "construction", "name": "Szpital miejski w Rabce Zdroju", "website": "http://www.szpitalwrabce.pl/index.php"}}, {"name": "Ujastek Grupa Neomedic", "latitude": 50.0811771, "longitude": 20.0686422, "source": "osm", "_tags": {"amenity": "hospital", "healthcare": "hospital", "name": "Ujastek Grupa Neomedic", "source": "geoportal.gov.pl:ortofoto", "website": "https://ujastek.pl/"}}, {"name": "Instytut Gruźlicy i Chorób Płuc - Oddział Terenowy im. Jana i Ireny Rudników", "latitude": 49.6051958, "longitude": 19.9689364, "source": "osm", "_tags": {"amenity": "hospital", "healthcare": "hospital", "name": "Instytut Gruźlicy i Chorób Płuc - Oddział Terenowy im. Jana i Ireny Rudników"}}, {"name": "Miejskie Centrum Opieki dla Osób Starszych, Przewlekle Niepełnosprawnych oraz Niesamodzielnych", "latitude": 50.0092456, "longitude": 20.0069611, "source": "osm", "_tags": {"addr:city": "Kraków", "addr:street": "Wielicka", "amenity": "hospital", "email": "mco@mco.krakow.pl", "healthcare": "hospital", "landuse": "commercial", "name": "Miejskie Centrum Opieki dla Osób Starszych, Przewlekle Niepełnosprawnych oraz Niesamodzielnych", "official_name": "Miejskie Centrum Opieki dla Osób Starszych, Przewlekle Niepełnosprawnych oraz Niesamodzielnych w Krakowie Samodzielny Publiczny Zakład Opieki Zdrowotnej", "old_name": "Zakład Opiekuńczo-Leczniczy", "phone": "+48 12 4467500", "short_name": "Miejskie Centrum Opieki", "website": "https://www.mco.krakow.pl/"}}, {"name": "Szpital Specjalistyczny im. Jędrzeja Śniadeckiego w Nowym Sączu", "latitude": 49.6198103, "longitude": 20.7002435, "source": "osm", "_tags": {"addr:city": "Nowy Sącz", "addr:housenumber": "10", "addr:postcode": "33-300", "addr:street": "Młyńska", "amenity": "hospital", "emergency": "yes", "healthcare": "hospital", "name": "Szpital Specjalistyczny im. Jędrzeja Śniadeckiego w Nowym Sączu", "website": "https://www.szpitalnowysacz.pl/", "wikidata": "Q65169849", "wikipedia": "pl:Szpital Specjalistyczny im. Jędrzeja Śniadeckiego w Nowym Sączu"}}, {"name": "Szpital Uniwersytecki", "latitude": 50.0081765, "longitude": 19.9998636, "source": "osm", "_tags": {"addr:city": "Kraków", "addr:street": "Macieja Jakubowskiego", "amenity": "hospital", "healthcare": "hospital", "landuse": "commercial", "name": "Szpital Uniwersytecki", "operator": "Szpital Uniwersytecki Collegium Medicum Uniwersytetu Jagiellońskiego", "website": "https://www.su.krakow.pl/nasz-szpital/mapa"}}, {"name": "Centrum Medyczne WAMED", "latitude": 49.9512308, "longitude": 20.9303175, "source": "osm", "_tags": {"addr:city": "Rzuchowa", "addr:city:simc": "0827219", "addr:housenumber": "474", "addr:place": "Rzuchowa", "addr:postcode": "33-114", "amenity": "hospital", "building": "house", "building:levels": "2", "healthcare": "hospital", "name": "Centrum Medyczne WAMED", "source:addr": "emuia.gugik.gov.pl", "source:building": "BDOT"}}, {"name": "SP ZOZ \"Szpital Powiatowy\" w Bochni im Bł. Marty Wieckiej", "latitude": 49.9668474, "longitude": 20.4213958, "source": "osm", "_tags": {"addr:city": "Bochnia", "addr:housenumber": "31", "addr:postcode": "32-700", "addr:street": "Krakowska", "amenity": "hospital", "building": "yes", "emergency": "yes", "healthcare": "hospital", "healthcare:speciality": "general;paediatrics;emergency;radiology;gynaecology;surgery;dermatology;cardiology;internal", "name": "SP ZOZ \"Szpital Powiatowy\" w Bochni im Bł. Marty Wieckiej", "phone": "+48 14 615 3 400", "source:addr": "EMUiA (emuia.geoportal.gov.pl)", "website": "http://www.szpital-bochnia.pl/"}}, {"name": "Podhalański Szpital Specjalistyczny im. Jana Pawła II w Nowym Targu", "latitude": 49.4896217, "longitude": 20.0299933, "source": "osm", "_tags": {"amenity": "hospital", "healthcare": "hospital", "name": "Podhalański Szpital Specjalistyczny im. Jana Pawła II w Nowym Targu"}}, {"name": "Samodzielny Publiczny Zakład Opieki Zdrowotnej w Myślenicach", "latitude": 49.8288781, "longitude": 19.9460245, "source": "osm", "_tags": {"amenity": "hospital", "healthcare": "hospital", "name": "Samodzielny Publiczny Zakład Opieki Zdrowotnej w Myślenicach"}}, {"name": "NZOZ Szpital pw. Św. Jana Jerozolimskiego w Szczyrzycu", "latitude": 49.7813788, "longitude": 20.1897409, "source": "osm", "_tags": {"amenity": "hospital", "check_date": "2025-07-12", "emergency": "yes", "healthcare": "hospital", "name": "NZOZ Szpital pw. Św. Jana Jerozolimskiego w Szczyrzycu", "note": "Całodobowa Opieka Medyczna", "opening_hours": "24/7", "phone": "+48 18 332 00 24", "website": "http://szpitalszczyrzyc.pl/"}}, {"name": "", "latitude": 50.0352567, "longitude": 19.9419636, "source": "osm", "_tags": {"amenity": "hospital", "healthcare": "doctor", "landuse": "commercial"}}, {"name": "", "latitude": 49.8342334, "longitude": 19.9560924, "source": "osm", "_tags": {"amenity": "hospital", "barrier": "fence", "healthcare": "hospital"}}, {"name": "", "latitude": 50.2687808, "longitude": 20.4827267, "source": "osm", "_tags": {"amenity": "hospital", "healthcare": "hospital"}}, {"name": "Szpital Powiatowy", "latitude": 49.9693419, "longitude": 20.5908479, "source": "osm", "_tags": {"addr:city": "Brzesko", "addr:housenumber": "68", "addr:street": "Tadeusza Kościuszki", "amenity": "hospital", "emergency": "yes", "healthcare": "hospital", "name": "Szpital Powiatowy", "note": "szpitale, przychodnie", "opening_hours": "24/7", "phone": "+48146621000", "source": "http://ump.waw.pl/ retrieved 11:18:52 11/17/09 (UMP-Tarnow/src/POI-szpitale.pnt-converted.txt)"}}, {"name": "Szpital Uniwersytecki CM UJ", "latitude": 50.0646823, "longitude": 19.9559578, "source": "osm", "_tags": {"amenity": "hospital", "contact:website": "http://www.su.krakow.pl/", "healthcare": "hospital", "name": "Szpital Uniwersytecki CM UJ", "official_name": "Szpital Uniwersytecki Collegium Medicum Uniwersytetu Jagiellońskiego", "short_name": "Szpital Uniwersytecki CM UJ", "wikidata": "Q9352146", "wikipedia": "pl:Szpital Uniwersytecki w Krakowie"}}, {"name": "RP Clinic", "latitude": 50.1056386, "longitude": 19.9824787, "source": "osm", "_tags": {"amenity": "hospital", "contact:facebook": "https://www.facebook.com/p/RP-Clinic-100027732080475/", "contact:instagram": "https://www.instagram.com/rpclinic.pl/", "description": "klinika chirurgii plastycznej Rafał Pabiańczyk", "email": "rejestracja@rpclinic.pl", "mobile": "+48 519012012", "name": "RP Clinic", "operator": "Surgery Sp. z o.o.", "website": "http://www.rpclinic.pl/"}}, {"name": "Szpital Świętego Rafała w Krakowie", "latitude": 50.0105695, "longitude": 19.9753301, "source": "osm", "_tags": {"amenity": "hospital", "barrier": "fence", "contact:phone": "+48 12 629 8800", "contact:website": "http://www.swrafal.pl/", "healthcare": "hospital", "name": "Szpital Świętego Rafała w Krakowie", "type": "multipolygon"}}]