[{"name": "Hôpital de Jour MGEN", "latitude": 49.4484745, "longitude": 1.089041, "source": "osm", "_tags": {"amenity": "hospital", "healthcare": "hospital", "name": "Hôpital de Jour MGEN", "ref:FR:FINESS": "760780288", "type:FR:FINESS": "161"}}, {"name": "Centre de jour Saint-Gervais - Centre Hospitalier du Rouvray", "latitude": 49.4493077, "longitude": 1.0820638, "source": "osm", "_tags": {"addr:housenumber": "3", "amenity": "hospital", "check_date": "2024-04-12", "healthcare": "hospital", "name": "Centre de jour Saint-Gervais - Centre Hospitalier du Rouvray", "ref:FR:FINESS": "760913491", "ref:FR:SIRET": "26760217500445", "source": "Le ministère des solidarités et de la santé - 03/2019"}}, {"name": "Clinique Sainte-Isabelle", "latitude": 50.0986058, "longitude": 1.8608015, "source": "osm", "_tags": {"amenity": "hospital", "healthcare": "hospital", "name": "Clinique Sainte-Isabelle", "ref:FR:FINESS": "800002503", "type:FR:FINESS": "365"}}, {"name": "Hôpital psychiatrique", "latitude": 49.440937, "longitude": 1.1073852, "source": "osm", "_tags": {"amenity": "hospital", "healthcare": "hospital", "name": "Hôpital psychiatrique", "ref:FR:FINESS": "760023952", "source": "Le ministère des solidarités et de la santé - 03/2019"}}, {"name": "Fondation Jacques Calve", "latitude": 50.4113497, "longitude": 1.5630075, "source": "osm", "_tags": {"amenity": "hospital", "check_date": "2024-12-13", "name": "Fondation Jacques Calve"}}, {"name": "Centre Medico Psychologique des Sources", "latitude": 49.6112442, "longitude": 1.5430338, "source": "osm", "_tags": {"addr:city": "Forges-les-Eaux", "addr:housenumber": "1bis", "addr:postcode": "76440", "addr:street": "Avenue des Sources", "amenity": "hospital", "healthcare": "hospital", "healthcare:speciality": "psychiatry;child_psychiatry", "name": "Centre Medico Psychologique des Sources", "opening_hours": "Mo-Fr 09:30-16:30", "phone": "+33 2 35 09 33 80", "wheelchair": "yes"}}, {"name": "Centre hospitalier de Dieppe", "latitude": 49.9186428, "longitude": 1.0786551, "source": "osm", "_tags": {"addr:city": "Dieppe", "addr:postcode": "76200", "addr:street": "Avenue Pasteur", "amenity": "hospital", "emergency": "yes", "fax": "+33 2 35 82 61 28", "healthcare": "hospital", "healthcare:speciality": "intensive", "name": "Centre hospitalier de Dieppe", "operator:type": "public", "phone": "+33 2 32 14 76 76", "ref:FR:FINESS": "760000018", "short_name": "CH Dieppe", "source": "cadastre-dgi-fr source : Direction Générale des Impôts - Cadastre. Mise à jour : 2009", "type:FR:FINESS": "355", "website": "http://www.ch-dieppe.fr", "wikidata": "Q16627532", "wikipedia": "fr:Centre hospitalier de Dieppe"}}, {"name": "Clinique de l'Europe", "latitude": 49.4255445, "longitude": 1.0858747, "source": "osm", "_tags": {"addr:city": "Rouen", "addr:housenumber": "73", "addr:postcode": "76100", "addr:street": "Boulevard de l'Europe", "amenity": "clinic", "contact:facebook": "https://www.facebook.com/CHPEuroperouen", "email": "contact@clinique-europe.com", "emergency": "yes", "fax": "+33232181132", "healthcare": "hospital", "healthcare:speciality": "intensive", "name": "Clinique de l'Europe", "operator:type": "private", "phone": "+33232181000", "ref:FR:FINESS": "760921809", "ref:FR:SIRET": "39048776700027", "source": "Le ministère des solidarités et de la santé - 2023-01", "type:FR:FINESS": "128", "website": "https://chpeurope-rouen.vivalto-sante.com/"}}, {"name": "Hôpital de Bois-Guillaume", "latitude": 49.4647657, "longitude": 1.1176657, "source": "osm", "_tags": {"amenity": "hospital", "healthcare": "hospital", "name": "Hôpital de Bois-Guillaume", "operator": "CHU de Rouen", "ref:FR:FINESS": "760783522"}}, {"name": "Centre Hospitalier de Eu", "latitude": 50.0503606, "longitude": 1.422132, "source": "osm", "_tags": {"addr:full": "2 rue de Clèves 76260 Eu", "amenity": "hospital", "emergency": "yes", "fax": "+33 2 35 86 43 91", "healthcare": "hospital", "name": "Centre Hospitalier de Eu", "operator:type": "public", "phone": "+33 2 27 28 22 22", "ref:FR:FINESS": "760000042", "type:FR:FINESS": "355"}}, {"name": "Centre hospitalier Durécu-Lavoisier", "latitude": 49.4450153, "longitude": 1.1497494, "source": "osm", "_tags": {"addr:city": "Darnétal", "addr:housenumber": "116", "addr:postcode": "76160", "addr:street": "Rue Louis Pasteur", "amenity": "hospital", "check_date": "2024-12-10", "emergency": "no", "healthcare": "hospital", "name": "Centre hospitalier Durécu-Lavoisier", "phone": "+33 2 32 12 32 32", "ref:FR:FINESS": "760000620", "short_name": "CHDL", "source": "Le ministère des solidarités et de la santé - 03/2019", "website": "http://chdl-darnetal.fr"}}, {"name": "Clinique du Cèdre", "latitude": 49.4641374, "longitude": 1.1125814, "source": "osm", "_tags": {"addr:full": "950 rue de la Haie 76230 Bois-Guillaume", "addr:housenumber": "950", "amenity": "hospital", "emergency": "yes", "fax": "+33 2 35 59 59 99", "healthcare": "hospital", "healthcare:speciality": "intensive", "name": "Clinique du Cèdre", "operator:type": "private", "phone": "+33 2 35 59 59 59", "ref:FR:FINESS": "760780510", "type:FR:FINESS": "365", "website": "https://www.clinique-du-cedre.fr/"}}, {"name": "Centre Régional de Médecine Physique et de Réadaptation Les Herbiers", "latitude": 49.4618844, "longitude": 1.1174854, "source": "osm", "_tags": {"addr:city": "Bois-Guillaume", "addr:housenumber": "111", "addr:postcode": "76230", "addr:street": "Rue Herbeuse", "amenity": "hospital", "fax": "+33 2 35 59 52 46", "healthcare": "rehabilitation", "name": "Centre Régional de Médecine Physique et de Réadaptation Les Herbiers", "phone": "+33 2 35 59 52 00", "ref:FR:FINESS": "760780692", "ref:FR:SIRET": "42403791900091", "short_name": "CRMPR Les Herbiers", "website": "https://www.groupe-ugecam.fr/crmpr-ugecam-les-herbiers"}}, {"name": "Clinique Saint-Antoine", "latitude": 49.4576768, "longitude": 1.1071289, "source": "osm", "_tags": {"amenity": "hospital", "fax": "+33235591527", "healthcare": "hospital", "name": "Clinique Saint-Antoine", "phone": "+33235126000", "ref:FR:FINESS": "760780205", "type:FR:FINESS": "128"}}, {"name": "Cliniques des Aubépines", "latitude": 49.8985472, "longitude": 1.076719, "source": "osm", "_tags": {"addr:city": "Saint-Aubin-sur-Scie", "addr:housenumber": "300", "addr:postcode": "76550", "addr:street": "Rue de la Providence", "amenity": "hospital", "barrier": "fence", "contact:email": "contact@clinique-des-aubepines.fr", "contact:fax": "+33 2 35 06 92 47", "emergency": "no", "healthcare": "hospital", "name": "Cliniques des Aubépines", "phone": "+33 2 35 06 92 00", "ref:FR:FINESS": "760780197", "ref:FR:SIRET": "30393707200021", "type:FR:FINESS": "122", "website": "https://clinique-des-aubepines.fr/"}}, {"name": "Centre hospitalier d'Abbeville", "latitude": 50.1023006, "longitude": 1.8313247, "source": "osm", "_tags": {"amenity": "hospital", "email": "direction@ch-abbeville.fr", "emergency": "yes", "fax": "+33 3 22 25 52 33", "healthcare": "hospital", "healthcare:speciality": "intensive", "name": "Centre hospitalier d'Abbeville", "operator:type": "public", "phone": "+33 3 22 25 52 00", "ref:FR:FINESS": "800000143", "type:FR:FINESS": "355", "website": "https://www.ch-abbeville.fr/"}}, {"name": "Centre Hospitalier Neufchâtel-en-Bray", "latitude": 49.7305236, "longitude": 1.4518796, "source": "osm", "_tags": {"addr:housenumber": "4", "addr:street": "Route de Gaillefontaine", "amenity": "hospital", "healthcare": "hospital", "name": "Centre Hospitalier Neufchâtel-en-Bray", "ref:FR:FINESS": "760000059", "source": "cadastre-dgi-fr source : Direction Générale des Impôts - Cadastre. Mise à jour : 2015"}}, {"name": "Hôpital Maritime de Berck", "latitude": 50.4006366, "longitude": 1.5588011, "source": "osm", "_tags": {"amenity": "hospital", "branch": "Université Paris Saclay", "check_date": "2022-09-05", "healthcare": "hospital", "name": "Hôpital Maritime de Berck", "operator": "Assistance publique - Hôpitaux de Paris", "operator:short": "APHP", "operator:type": "public", "operator:wikidata": "Q2867205", "ref:FR:FINESS": "620100016", "type:FR:FINESS": "101", "website": "https://maritimeberck.aphp.fr/", "wikidata": "Q3145347"}}, {"name": "Groupe thérapeutique Marie Duboccage", "latitude": 49.4286389, "longitude": 1.0873352, "source": "osm", "_tags": {"addr:housenumber": "1", "amenity": "hospital", "emergency": "no", "healthcare": "centre", "healthcare:speciality": "psychiatry", "name": "Groupe thérapeutique Marie Duboccage", "operator": "Centre hospitalier universitaire de Rouen", "operator:type": "public", "ref:FR:FINESS": "760920090", "type:FR:FINESS": "292", "wheelchair": "yes"}}, {"name": "Centre hospitalier du Belvédère", "latitude": 49.4590088, "longitude": 1.0815548, "source": "osm", "_tags": {"addr:city": "Mont-Saint-Aignan", "addr:housenumber": "72", "addr:postcode": "76130", "amenity": "hospital", "emergency": "no", "healthcare": "hospital", "healthcare:speciality": "maternity;surgery;gynaecology;paediatrics", "name": "Centre hospitalier du Belvédère", "operator:type": "public", "phone": "+33 2 35 15 64 64", "ref:FR:FINESS": "760000182", "short_name": "CH du Belvédère", "source": "Le ministère des solidarités et de la santé - 03/2019", "website": "https://www.ch-belvedere.fr/"}}, {"name": "Centre Hospitalier de l'Arrondissement de Montreuil-sur-Mer", "latitude": 50.4143404, "longitude": 1.6628565, "source": "osm", "_tags": {"addr:city": "Rang-du-Fliers", "addr:housenumber": "140", "addr:postcode": "62180", "addr:street": "Route Départementale", "amenity": "hospital", "emergency": "yes", "fax": "+33 3 21 89 38 28", "healthcare": "hospital", "healthcare:speciality": "intensive", "name": "Centre Hospitalier de l'Arrondissement de Montreuil-sur-Mer", "operator:type": "public", "phone": "+33 3 21 89 46 25", "ref:FR:FINESS": "620003202", "short_name": "CHAM", "source": "cadastre-dgi-fr source : Direction Générale des Impôts - Cadastre. Mise à jour : 2011", "type:FR:FINESS": "355", "website": "https://www.ch-montreuil.fr/"}}, {"name": "Centre hospitalier de l’Austreberthe", "latitude": 49.542157, "longitude": 0.953811, "source": "osm", "_tags": {"addr:city": "Barentin", "addr:housenumber": "17", "addr:postcode": "76360", "addr:street": "Rue Pierre et Marie Curie", "amenity": "hospital", "email": "contact@chbarentin.fr", "emergency": "no", "healthcare": "hospital", "name": "Centre hospitalier de l’Austreberthe", "phone": "+33 2 35 92 82 82", "ref:FR:FINESS": "760000133", "source": "Le ministère des solidarités et de la santé - 03/2019", "website": "http://www.chbarentin.fr", "wikidata": "Q92062858"}}, {"name": "Clinique de Soins de Suite de Bois-Guillaume", "latitude": 49.4644646, "longitude": 1.1157289, "source": "osm", "_tags": {"addr:housenumber": "111", "addr:street": "Avenue du Maréchal Juin", "amenity": "hospital", "healthcare": "hospital", "name": "Clinique de Soins de Suite de Bois-Guillaume", "operator": "Clinéa", "phone": "+33826282811", "ref:FR:FINESS": "760029017", "source": "Le ministère des solidarités et de la santé - 03/2019", "type:FR:FINESS": "109", "website": "https://www.clinea.fr/clinique-de-soins-de-suite-bois-guillaume-76"}}, {"name": "Hôpital de Gournay-en-Bray", "latitude": 49.4776169, "longitude": 1.7225601, "source": "osm", "_tags": {"amenity": "hospital", "healthcare": "hospital", "name": "Hôpital de Gournay-en-Bray", "ref:FR:FINESS": "760000034", "type:FR:FINESS": "106", "wikidata": "Q92063357"}}, {"name": "Clinique Mégival", "latitude": 49.8956651, "longitude": 1.0789483, "source": "osm", "_tags": {"amenity": "clinic", "fax": "+33276206041", "healthcare": "hospital", "name": "Clinique Mégival", "phone": "+33276203040", "ref:FR:FINESS": "760027292", "ref:FR:SIRET": "49815816100022", "source": "Le ministère des solidarités et de la santé - 2023-01", "type:FR:FINESS": "365"}}, {"name": "Institut Calot", "latitude": 50.4161175, "longitude": 1.564099, "source": "osm", "_tags": {"amenity": "hospital", "building": "hospital", "description": "Fondation HOPALE - Institut Calot, Centre Hélio-Marin", "healthcare": "hospital", "healthcare:speciality": "intensive", "name": "Institut Calot", "ref:FR:FINESS": "620000026", "type": "multipolygon", "type:FR:FINESS": "365"}}, {"name": "Centre Henri Becquerel", "latitude": 49.4397836, "longitude": 1.1061441, "source": "osm", "_tags": {"addr:city": "Rouen", "addr:postcode": "76000", "amenity": "hospital", "building": "hospital", "building:levels": "5", "healthcare": "hospital", "healthcare:speciality": "intensive", "name": "Centre Henri Becquerel", "ref:FR:FINESS": "760000166", "roof:levels": "0", "type": "multipolygon", "type:FR:FINESS": "131", "wikidata": "Q2944818"}}, {"name": "Clinique Mathilde", "latitude": 49.4287818, "longitude": 1.0967196, "source": "osm", "_tags": {"amenity": "hospital", "emergency": "no", "fax": "+33 2 32 81 10 30", "healthcare": "hospital", "healthcare:speciality": "intensive", "name": "Clinique Mathilde", "phone": "+33 2 32 81 10 10", "ref:FR:FINESS": "760025312", "ref:FR:SIRET": "62050022300040", "type": "multipolygon", "type:FR:FINESS": "365", "website": "https://www.clinique-mathilde.fr/"}}, {"name": "Centre hospitalier de Dieppe le Château Michel", "latitude": 49.9069815, "longitude": 1.0748145, "source": "osm", "_tags": {"addr:city": "Dieppe", "addr:postcode": "76200", "amenity": "hospital", "emergency": "no", "healthcare": "hospital", "name": "Centre hospitalier de Dieppe le Château Michel", "ref:FR:FINESS": "760800938", "source": "Le ministère des solidarités et de la santé - 03/2019", "type": "multipolygon", "website": "http://www.ch-dieppe.fr"}}, {"name": "Unité de Soin de Longue Durée Les Campeaux", "latitude": 49.5243866, "longitude": 0.9499845, "source": "osm", "_tags": {"amenity": "hospital", "healthcare": "hospital", "name": "Unité de Soin de Longue Durée Les Campeaux", "operator": "Centre Hospitalier de l'Austreberthe", "type": "multipolygon"}}, {"name": "Hôpital Charles Nicolle", "latitude": 49.4400647, "longitude": 1.1090285, "source": "osm", "_tags": {"addr:full": "1 rue de Germont 76000 Rouen", "addr:housenumber": "1", "addr:street": "Rue de Germont", "amenity": "hospital", "contact:facebook": "CHU de Rouen", "emergency": "yes", "fax": "+33 2 35 08 81 83", "healthcare": "hospital", "healthcare:speciality": "intensive", "name": "Hôpital Charles Nicolle", "operator": "Centre hospitalier universitaire de Rouen", "operator:type": "public", "phone": "+33 2 32 88 89 90", "ref:FR:FINESS": "760000158", "source": "cadastre-dgi-fr source : Direction Générale des Impôts - Cadastre;mise à jour : 2008", "twitter": "CHURouen", "type": "multipolygon", "type:FR:FINESS": "101", "website": "https://www.chu-rouen.fr/", "wheelchair": "yes", "wikidata": "Q50379036"}}, {"name": "Clinique Saint-Hilaire", "latitude": 49.4413823, "longitude": 1.1140475, "source": "osm", "_tags": {"addr:housenumber": "2", "addr:street": "Place Saint-Hilaire", "amenity": "hospital", "check_date": "2025-05-14", "fax": "+33235700574", "healthcare": "yes", "healthcare:speciality": "intensive", "internet_access": "no", "name": "Clinique Saint-Hilaire", "opening_hours": "24/7", "payment:cash": "yes", "payment:credit_cards": "yes", "payment:debit_cards": "yes", "phone": "+33 2 35 08 66 00", "ref:FR:FINESS": "760780619", "ref:FR:SIRET": "32393354900012", "source": "Le ministère des solidarités et de la santé - 03/2019", "type": "multipolygon", "type:FR:FINESS": "365", "website": "https://www.clinique-sainthilaire.fr/", "wheelchair": "yes"}}, {"name": "Hôpital de la Croix-Rouge", "latitude": 49.4768557, "longitude": 1.1111871, "source": "osm", "_tags": {"addr:housenumber": "459", "amenity": "hospital", "contact:website": "https://www.croix-rouge.fr/hopital-de-bois-guillaume", "fax": "+33235594096", "healthcare": "hospital", "name": "Hôpital de la Croix-Rouge", "opening_hours": "Mo-Fr 08:30-17:30", "operator": "Croix-Rouge Française", "operator:type": "ngo", "phone": "+33235594040", "ref:FR:FINESS": "760783035", "ref:FR:SIRET": "77567227207954", "source": "Le ministère des solidarités et de la santé - 03/2019", "type": "multipolygon", "type:FR:FINESS": "365"}}]