[{"name": "Oddział Hematologii i Transplantacji Szpiku", "latitude": 50.2546802, "longitude": 19.0269821, "source": "osm", "_tags": {"addr:city": "Katowice", "addr:housenumber": "25", "addr:postcode": "40-032", "addr:street": "Henryka Dąbrowskiego", "amenity": "clinic", "email": "klinhem@sum.edu.pl", "fax": "+48 32 255-49-85", "healthcare": "hospital", "name": "Oddział Hematologii i Transplantacji Szpiku", "operator": "Śląski Uniwersytet Medyczny", "phone": "+48 32 259-12-81", "website": "https://spskm.katowice.pl/"}}, {"name": "Klinika 2000", "latitude": 50.2671962, "longitude": 19.0084927, "source": "osm", "_tags": {"addr:city": "Katowice", "addr:housenumber": "1", "addr:postcode": "40-851", "addr:street": "Żelazna", "amenity": "hospital", "check_date": "2025-08-22", "email": "info@klinika2000.pl", "healthcare": "hospital", "name": "Klinika 2000", "phone": "+48 32 359-09-99", "website": "http://www.klinika2000.pl"}}, {"name": "Powiatowy Zakład Opiekuńczo-Leczniczy", "latitude": 49.9794623, "longitude": 19.2365209, "source": "osm", "_tags": {"amenity": "hospital", "name": "Powiatowy Zakład Opiekuńczo-Leczniczy"}}, {"name": "Górnośląski Ośrodek Kardiologii", "latitude": 50.2114572, "longitude": 19.0010334, "source": "osm", "_tags": {"addr:postcode": "40-635", "addr:street": "Ziołowa", "amenity": "hospital", "healthcare": "hospital", "name": "Górnośląski Ośrodek Kardiologii", "name:en": "Upper Silesian Cardiology Center"}}, {"name": "Specjalistyczny Szpital Wieloprofilowy", "latitude": 50.2108673, "longitude": 18.998486, "source": "osm", "_tags": {"addr:postcode": "40-653", "amenity": "hospital", "healthcare": "hospital", "name": "Specjalistyczny Szpital Wieloprofilowy", "name:en": "Upper Silesian Medical Center of the Medical University of Silesia in Katowice", "name:pl": "Górnośląskie Centrum Medyczne im. prof. Leszka Gieca Slaskiego Uniwersytetu Medycznego w Katowicach-Ochojcu", "opening_hours": "24/7", "phone": "+48 32 3598000", "website": "https://www.gcm.pl"}}, {"name": "Beskidzki Zespół Leczniczo-Rehabilitacyjny", "latitude": 49.7928307, "longitude": 18.9468135, "source": "osm", "_tags": {"addr:city": "Jaworze", "addr:postcode": "43-384", "amenity": "hospital", "name": "Beskidzki Zespół Leczniczo-Rehabilitacyjny"}}, {"name": "Beskidzki Zespół Leczniczo-Rehabilitacyjny o. Dzieci i Młodzieży", "latitude": 49.7897697, "longitude": 18.9536427, "source": "osm", "_tags": {"addr:housenumber": "142", "addr:postcode": "43-384", "addr:street": "Wapienicka", "amenity": "hospital", "internet_access": "wlan", "name": "Beskidzki Zespół Leczniczo-Rehabilitacyjny o. Dzieci i Młodzieży", "website": "https://rehabilitacja-jaworze.com.pl/"}}, {"name": "Polsko-Amerykańska Klinika Serca", "latitude": 49.7904407, "longitude": 19.040733, "source": "osm", "_tags": {"amenity": "clinic", "healthcare": "hospital", "name": "Polsko-Amerykańska Klinika Serca"}}, {"name": "Stacja dializ, nefrolog", "latitude": 50.2919766, "longitude": 18.9438943, "source": "osm", "_tags": {"amenity": "clinic", "healthcare": "hospital", "name": "Stacja dializ, nefrolog"}}, {"name": "Szpital Specjalistyczny im. Ludwika Rydygiera w Krakowie sp. z o.o. Zakład Opieki Długoterminowej", "latitude": 49.7285118, "longitude": 19.6935206, "source": "osm", "_tags": {"amenity": "hospital", "healthcare": "hospital", "name": "Szpital Specjalistyczny im. Ludwika Rydygiera w Krakowie sp. z o.o. Zakład Opieki Długoterminowej"}}, {"name": "Oddział Chorób Wewnętrznych i Onkologii Klinicznej", "latitude": 50.2546309, "longitude": 19.0265496, "source": "osm", "_tags": {"amenity": "clinic", "healthcare": "hospital", "name": "Oddział Chorób Wewnętrznych i Onkologii Klinicznej", "operator": "Śląski Uniwersytet Medyczny"}}, {"name": "Nefrolux", "latitude": 50.3040174, "longitude": 19.0310782, "source": "osm", "_tags": {"addr:city": "Siemianowice Śląskie", "addr:housenumber": "6", "addr:postcode": "41-100", "addr:street": "Szpitalna", "amenity": "hospital", "healthcare": "hospital", "name": "Nefrolux"}}, {"name": "Szpital Miejski Specjalistyczny imienia Gabriela Narutowicza", "latitude": 50.0830461, "longitude": 19.9392225, "source": "osm", "_tags": {"amenity": "hospital", "contact:phone": "+48 12 416 2266", "contact:website": "http://narutowicz.krakow.pl/", "emergency": "yes", "healthcare": "hospital", "name": "Szpital Miejski Specjalistyczny imienia Gabriela Narutowicza", "wikidata": "Q9352127", "wikipedia": "pl:Szpital Miejski Specjalistyczny im. Gabriela Narutowicza w Krakowie"}}, {"name": "Centrum Onkologii Instytut imienia Marii Skłodowskiej", "latitude": 50.0616411, "longitude": 19.9272853, "source": "osm", "_tags": {"addr:city": "Kraków", "addr:country": "PL", "addr:housenumber": "11", "addr:street": "Garncarska", "amenity": "hospital", "building": "yes", "building:levels": "5", "healthcare": "hospital", "name": "Centrum Onkologii Instytut imienia Marii Skłodowskiej", "wikidata": "Q9186378", "wikipedia": "pl:Narodowy Instytut Onkologii im. Marii Skłodowskiej-Curie – Państwowy Instytut Badawczy Oddział w Krakowie"}}, {"name": "Centrum Leczenia Oparzeń", "latitude": 50.3048527, "longitude": 19.0294772, "source": "osm", "_tags": {"amenity": "hospital", "contact:phone": "+48 32 735 74 44;+48 32 735 76 16", "healthcare": "hospital", "healthcare:speciality": "surgery;plastic_surgery;emergency;anaesthetics;physiatry;oxygen_therapy;nuclear", "name": "Centrum Leczenia Oparzeń", "official_name": "Centrum Leczenia Oparzeń imienia doktora Stanisława Sakiela", "website": "https://clo.com.pl/", "wikidata": "Q30261011"}}, {"name": "ODDZIAŁ MEDYCYNY PALIATYWNEJ SZPITALA OGÓLNEGO im. dr Edmunda Wojtyły w Bielsku-Białej", "latitude": 49.8203146, "longitude": 19.0237432, "source": "osm", "_tags": {"addr:city": "Bielsko-Biała", "addr:housenumber": "17", "addr:postcode": "43-300", "addr:street": "Emilii Plater", "amenity": "hospital", "building": "yes", "building:levels": "3", "emergency": "no", "name": "ODDZIAŁ MEDYCYNY PALIATYWNEJ SZPITALA OGÓLNEGO im. dr Edmunda Wojtyły w Bielsku-Białej", "website": "http://www.szpital.bielsko.pl/index.php?page=news&id=35"}}, {"name": "Klinika św. Łukasza", "latitude": 49.7821915, "longitude": 19.0669832, "source": "osm", "_tags": {"addr:city": "Bielsko-Biała", "addr:housenumber": "94b", "addr:postcode": "43-300", "addr:street": "Bystrzańska", "amenity": "hospital", "building": "yes", "emergency": "no", "healthcare": "hospital", "name": "Klinika św. Łukasza"}}, {"name": "Szpital Chirurgii Urazowej", "latitude": 50.3721507, "longitude": 18.9456129, "source": "osm", "_tags": {"addr:city": "Piekary Śląskie", "addr:housenumber": "62", "addr:postcode": "41-940", "addr:street": "Bytomska", "amenity": "hospital", "check_date": "2024-10-27", "healthcare": "hospital", "name": "Szpital Chirurgii Urazowej", "website": "http://www.urazowka.piekary.pl/", "wikidata": "Q9377111", "wikipedia": "pl:Wojewódzki Szpital Chirurgii Urazowej im. Janusza Daaba"}}, {"name": "Szpital Ogólny im. dr Edmunda Wojtyły", "latitude": 49.8222386, "longitude": 19.0349745, "source": "osm", "_tags": {"amenity": "hospital", "name": "Szpital Ogólny im. dr Edmunda Wojtyły"}}, {"name": "Szpital Wojewódzki w Bielsku-Białej", "latitude": 49.7908242, "longitude": 19.039633, "source": "osm", "_tags": {"amenity": "hospital", "email": "szpital@hospital.com.pl", "healthcare": "hospital", "name": "Szpital Wojewódzki w Bielsku-Białej", "phone": "33 810 20 00", "website": "https://www.hospital.com.pl"}}, {"name": "Szpital Kliniczny im. doktora Józefa Babińskiego SP ZOZ", "latitude": 50.003671, "longitude": 19.8832499, "source": "osm", "_tags": {"amenity": "hospital", "emergency": "no", "healthcare": "hospital", "healthcare:speciality": "psychiatry", "name": "Szpital Kliniczny im. doktora Józefa Babińskiego SP ZOZ", "website": "https://babinski.pl/", "wikidata": "Q9352138", "wikipedia": "pl:Szpital Kliniczny im. dr. Józefa Babińskiego"}}, {"name": "Szpital Specjalistyczny Oddział Psychiatryczny", "latitude": 50.319722, "longitude": 19.2136771, "source": "osm", "_tags": {"alt_name": "Szpital Specjalistyczny im. S. Starkiewicza Oddział Psychiatryczny", "amenity": "hospital", "barrier": "fence", "healthcare": "hospital", "name": "Szpital Specjalistyczny Oddział Psychiatryczny"}}, {"name": "Szpital Kolejowy", "latitude": 49.772739, "longitude": 19.0910488, "source": "osm", "_tags": {"amenity": "hospital", "healthcare": "hospital", "name": "Szpital Kolejowy"}}, {"name": "Szpital Pediatryczny", "latitude": 49.820347, "longitude": 19.0273189, "source": "osm", "_tags": {"amenity": "hospital", "name": "Szpital Pediatryczny"}}, {"name": "Beskidzkie Centrum Onkologii im. Jana Pawła II", "latitude": 49.8240809, "longitude": 19.0581807, "source": "osm", "_tags": {"amenity": "hospital", "email": "szpital@onkologia.bielsko.pl", "name": "Beskidzkie Centrum Onkologii im. Jana Pawła II", "phone": "+48 33 498 4001", "website": "https://www.onkologia.bielsko.pl/"}}, {"name": "Regionalne Centrum Krwiodawstwa i Krwiolecznictwa", "latitude": 50.2554468, "longitude": 19.0067589, "source": "osm", "_tags": {"amenity": "hospital", "healthcare": "hospital", "name": "Regionalne Centrum Krwiodawstwa i Krwiolecznictwa"}}, {"name": "Uniwersyteckie Centrum Kliniczne im. prof. K. Gibińskiego Śląskiego Uniwersytetu Medycznego w Katowicach", "latitude": 50.244529, "longitude": 19.0167527, "source": "osm", "_tags": {"amenity": "hospital", "healthcare": "hospital", "name": "Uniwersyteckie Centrum Kliniczne im. prof. K. Gibińskiego Śląskiego Uniwersytetu Medycznego w Katowicach", "short_name": "UCK", "website": "http://www.okulistyka.katowice.pl/", "wikidata": "Q9333200", "wikipedia": "pl:Uniwersyteckie Centrum Okulistyki i Onkologii w Katowicach"}}, {"name": "Szpital Specjalistyczny", "latitude": 50.3201663, "longitude": 19.1775787, "source": "osm", "_tags": {"alt_name": "Szpital Specjalistyczny im. S. Starkiewicza", "amenity": "hospital", "healthcare": "hospital", "name": "Szpital Specjalistyczny"}}, {"name": "Szpital Pod Bukami", "latitude": 49.8006545, "longitude": 19.0468111, "source": "osm", "_tags": {"addr:city": "Bielsko-Biała", "addr:housenumber": "5", "addr:postcode": "43-316", "addr:street": "Szara", "amenity": "hospital", "building": "hospital", "name": "Szpital Pod Bukami"}}, {"name": "", "latitude": 50.1376205, "longitude": 19.4302091, "source": "osm", "_tags": {"amenity": "hospital", "healthcare": "hospital"}}, {"name": "", "latitude": 50.2704385, "longitude": 19.132104, "source": "osm", "_tags": {"addr:city": "Sosnowiec", "addr:housenumber": "3", "addr:postcode": "41-200", "addr:street": "Emila Zegadłowicza", "building": "hospital", "healthcare": "hospital"}}, {"name": "Samodzielny Ośrodek Rehabilitacyjno-Oświatowy dla Dzieci Niepełnosprawnych", "latitude": 50.283482, "longitude": 18.9708991, "source": "osm", "_tags": {"amenity": "hospital", "barrier": "fence", "healthcare": "rehabilitation", "name": "Samodzielny Ośrodek Rehabilitacyjno-Oświatowy dla Dzieci Niepełnosprawnych", "source": "Bing", "website": "http://www.osrodek.katowice.pl/"}}, {"name": "Euromedic", "latitude": 50.2455595, "longitude": 19.0125805, "source": "osm", "_tags": {"addr:city": "Katowice", "addr:housenumber": "92", "addr:postcode": "40-519", "addr:street": "Tadeusza Kościuszki", "amenity": "hospital", "healthcare": "hospital", "name": "Euromedic", "website": "http://euromedic.com.pl/"}}, {"name": "Szpital Powiatowy imienia świętego Maksymiliana", "latitude": 50.0404719, "longitude": 19.2367026, "source": "osm", "_tags": {"addr:city": "Oświęcim", "addr:housenumber": "4", "addr:postcode": "32-600", "addr:street": "Wysokie Brzegi", "amenity": "hospital", "barrier": "fence", "healthcare": "hospital", "name": "Szpital Powiatowy imienia świętego Maksymiliana"}}, {"name": "Katowickie Centrum Onkologii", "latitude": 50.2554, "longitude": 19.0048603, "source": "osm", "_tags": {"addr:city": "Katowice", "addr:housenumber": "26", "addr:postcode": "40-074", "addr:street": "Raciborska", "amenity": "hospital", "email": "szpital@kco.katowice.pl", "healthcare": "hospital", "name": "Katowickie Centrum Onkologii", "old_name": "Szpital im. Stanisława Leszczyńskiego", "phone": "+48322515253", "website": "https://www.kco.katowice.pl/"}}, {"name": "Nowy Szpital Olkusz", "latitude": 50.2688658, "longitude": 19.5693816, "source": "osm", "_tags": {"addr:city": "Olkusz", "addr:street": "1000-lecia", "amenity": "hospital", "healthcare": "hospital", "name": "Nowy Szpital Olkusz", "source": "www.Geoportal.gov.pl: Ortofoto"}}, {"name": "Chorzowskie Centrum Pediatrii i Onkologii im. dr Edwarda Hankego", "latitude": 50.296623, "longitude": 18.9485894, "source": "osm", "_tags": {"addr:city": "Chorzów", "addr:city:simc": "0938887", "addr:housenumber": "7", "addr:postcode": "41-500", "addr:street": "Władysława Truchana", "amenity": "hospital", "healthcare": "hospital", "name": "Chorzowskie Centrum Pediatrii i Onkologii im. dr Edwarda Hankego", "name:etymology:wikidata": "Q16542926", "source:addr": "gugik.gov.pl"}}, {"name": "Szpital Specjalistyczny w Chorzowie", "latitude": 50.2917994, "longitude": 18.9523875, "source": "osm", "_tags": {"amenity": "hospital", "healthcare": "hospital", "name": "Szpital Specjalistyczny w Chorzowie"}}, {"name": "Szpital im. Ignacego Mościckiego Lecznica Dzieci i Dorosłych", "latitude": 50.2932697, "longitude": 18.950111, "source": "osm", "_tags": {"addr:city": "Chorzów", "addr:housenumber": "27", "addr:postcode": "41-500", "addr:street": "Powstańców", "amenity": "hospital", "healthcare": "hospital", "name": "Szpital im. Ignacego Mościckiego Lecznica Dzieci i Dorosłych"}}, {"name": "Zespół Szpitali Miejskich w Chorzowie", "latitude": 50.2919378, "longitude": 18.9427293, "source": "osm", "_tags": {"addr:city": "Chorzów", "addr:housenumber": "11", "addr:postcode": "41-500", "addr:street": "Strzelców Bytomskich", "amenity": "hospital", "fax": "+48 32 241 39 52", "healthcare": "hospital", "name": "Zespół Szpitali Miejskich w Chorzowie", "phone": "+48 32 349 91 15", "website": "https://www.zsm.com.pl/"}}, {"name": "Niepubliczny Zakład Opieki Zdrowotnej - Szpital Specjalistyczny im. Prof. E. Michałowskiego", "latitude": 50.2535484, "longitude": 19.0062185, "source": "osm", "_tags": {"addr:city": "Katowice", "addr:housenumber": "9", "addr:postcode": "40-073", "addr:street": "Strzelecka", "amenity": "hospital", "healthcare": "hospital", "name": "Niepubliczny Zakład Opieki Zdrowotnej - Szpital Specjalistyczny im. Prof. E. Michałowskiego", "phone": "+48 32 602-70-00", "website": "https://www.urologia.katowice.pl"}}, {"name": "Górnośląskie Centrum Zdrowia Dziecka im. Jana Pawła II", "latitude": 50.2235378, "longitude": 18.9507165, "source": "osm", "_tags": {"addr:city": "Katowice", "addr:housenumber": "16", "addr:postcode": "40-752", "addr:street": "Medyków", "amenity": "hospital", "emergency": "yes", "fax": "+48 32 207 15 46", "healthcare": "hospital", "internet_access": "wlan", "name": "Górnośląskie Centrum Zdrowia Dziecka im. Jana Pawła II", "opening_hours": "24/7", "phone": "+48 32 207 18 00", "website": "https://gczd.katowice.pl/", "wikidata": "Q9283780", "wikipedia": "pl:Górnośląskie Centrum Zdrowia Dziecka"}}, {"name": "Okręgowy Szpital Kolejowy", "latitude": 50.2266678, "longitude": 18.959238, "source": "osm", "_tags": {"addr:city": "Katowice", "addr:housenumber": "65", "addr:postcode": "40-760", "addr:street": "Panewnicka", "amenity": "hospital", "fax": "+48 32 6053508", "healthcare": "hospital", "name": "Okręgowy Szpital Kolejowy", "phone": "+48 32 6053500", "website": "https://www.kolejowy.katowice.pl/", "wikidata": "Q16583912", "wikipedia": "pl:Okręgowy Szpital Kolejowy w Katowicach"}}, {"name": "Samodzielny Publiczny Centralny Szpital Kliniczny im. prof. Kornela Gibińskiego", "latitude": 50.2237696, "longitude": 18.9542283, "source": "osm", "_tags": {"addr:city": "Katowice", "addr:housenumber": "14", "addr:postcode": "40-752", "addr:street": "Medyków", "amenity": "hospital", "check_date": "2025-08-14", "email": "informacje@csk.katowice.pl", "healthcare": "hospital", "name": "Samodzielny Publiczny Centralny Szpital Kliniczny im. prof. Kornela Gibińskiego", "phone": "+ 48 32 7894000", "website": "http://www.cks.katowice.pl"}}, {"name": "Szpital Specjalistyczny Centrum Medycznego MAVIT", "latitude": 50.2472623, "longitude": 19.0796859, "source": "osm", "_tags": {"addr:city": "Katowice", "addr:housenumber": "65", "addr:postcode": "40-431", "addr:street": "Szopienicka", "amenity": "hospital", "email": "katowice@mavit.pl", "fax": "+48 32 358-77-19", "healthcare": "hospital", "name": "Szpital Specjalistyczny Centrum Medycznego MAVIT", "phone": "+48 32 358-77-00", "website": "https://www.katowice.mavit.pl/"}}, {"name": "Samodzielny Publiczny Zakład Opieki Zdrowotnej Szpital im. św. Elżbiety", "latitude": 50.25852, "longitude": 19.0340109, "source": "osm", "_tags": {"addr:city": "Katowice", "addr:housenumber": "52", "addr:postcode": "40-008", "addr:street": "Warszawska", "amenity": "hospital", "email": "spzozel@o2.pl", "fax": "+48 32 253-08-31", "healthcare": "hospital", "name": "Samodzielny Publiczny Zakład Opieki Zdrowotnej Szpital im. św. Elżbiety", "phone": "+48 32 253-08-31", "wikidata": "Q9352158", "wikipedia": "pl:Szpital im. św. Elżbiety w Katowicach"}}, {"name": "Szpital Miejski", "latitude": 50.3746501, "longitude": 18.9529693, "source": "osm", "_tags": {"amenity": "hospital", "healthcare": "hospital", "name": "Szpital Miejski", "source": "Bing", "website": "https://www.szpital.piekary.pl/"}}, {"name": "Przychodnia", "latitude": 50.2743009, "longitude": 19.1953142, "source": "osm", "_tags": {"addr:city": "Sosnowiec", "addr:housenumber": "124", "addr:street": "Majora Henryka Hubala-Dobrzańskiego", "amenity": "doctors", "building": "yes", "healthcare": "hospital", "name": "Przychodnia", "source:addr": "EMUiA (emuia.gugik.gov.pl)"}}, {"name": "Wojewódzki Szpital Specjalistyczny nr 1", "latitude": 50.1131959, "longitude": 19.0080667, "source": "osm", "_tags": {"addr:city": "Tychy", "addr:housenumber": "102", "addr:postcode": "43-100", "addr:street": "Edukacji", "amenity": "hospital", "contact:phone": "+48 32 325 42 02", "emergency": "yes", "healthcare": "hospital", "name": "Wojewódzki Szpital Specjalistyczny nr 1", "source": "Bing", "wheelchair": "yes"}}, {"name": "Szpital Kliniczny im. Andrzeja Mielęckiego", "latitude": 50.2541525, "longitude": 19.0287752, "source": "osm", "_tags": {"addr:city": "Katowice", "addr:housenumber": "20-24", "addr:postcode": "40-027", "addr:street": "Francuska", "amenity": "hospital", "email": "spskm@spskm.katowice.pl", "fax": "+48 32 255-46-33", "healthcare": "hospital", "name": "Szpital Kliniczny im. Andrzeja Mielęckiego", "operator": "Śląski Uniwersytet Medyczny", "phone": "+48 32 259-12-00", "website": "https://spskm.katowice.pl/", "wikidata": "Q9352123", "wikipedia": "pl:Szpital Kliniczny im. Andrzeja Mielęckiego w Katowicach"}}, {"name": "Szpital Wielospecjalistyczny w Jaworznie", "latitude": 50.2044548, "longitude": 19.2844316, "source": "osm", "_tags": {"amenity": "hospital", "healthcare": "hospital", "name": "Szpital Wielospecjalistyczny w Jaworznie", "source": "Bing, Knowledge"}}, {"name": "Zespół sanatoryjno-Szpitalny \"Gwarek\"", "latitude": 49.9389443, "longitude": 18.9798536, "source": "osm", "_tags": {"amenity": "hospital", "healthcare": "hospital", "name": "Zespół sanatoryjno-Szpitalny \"Gwarek\""}}, {"name": "Centrum Pediatrii", "latitude": 50.2732949, "longitude": 19.1981618, "source": "osm", "_tags": {"addr:city": "Sosnowiec", "addr:housenumber": "3", "addr:postcode": "41-218", "addr:street": "Gabrieli Zapolskiej", "alt_name": "Centrum Pediatrii imienia Jana Pawła II", "amenity": "hospital", "healthcare": "hospital", "name": "Centrum Pediatrii", "source:addr": "gugik.gov.pl"}}, {"name": "", "latitude": 50.3265526, "longitude": 19.0755719, "source": "osm", "_tags": {"addr:city": "Czeladź", "addr:housenumber": "40", "addr:postcode": "41-250", "addr:street": "Szpitalna", "building": "hospital", "building:levels": "4", "building:use:pl": "Szpital lub zakład opieki medycznej, socjalnej", "healthcare": "hospital", "operator": "Powiatowy Zespół Zakładów Opieki Zdrowotnej w Będzinie", "source": "Starostwo Powiatowe Będzin"}}, {"name": "Oddział Psychiatryczny", "latitude": 50.3266045, "longitude": 19.0770406, "source": "osm", "_tags": {"building": "hospital", "building:levels": "2", "building:use:pl": "Szpital lub zakład opieki medycznej, socjalnej", "healthcare": "hospital", "name": "Oddział Psychiatryczny", "operator": "Powiatowy Zespół Zakładów Opieki Zdrowotnej w Będzinie", "source": "Starostwo Powiatowe Będzin", "source:building": "BDOT", "source:geometry": "EGiB"}}, {"name": "Centrum Psychiatrii w Katowicach imienia doktora Krzysztofa Czumy", "latitude": 50.2717291, "longitude": 19.0841674, "source": "osm", "_tags": {"amenity": "hospital", "healthcare": "hospital", "name": "Centrum Psychiatrii w Katowicach imienia doktora Krzysztofa Czumy"}}, {"name": "Krakowski Szpital Reumatologii i Rehabilitacji", "latitude": 50.0573655, "longitude": 19.9139775, "source": "osm", "_tags": {"addr:city": "Kraków", "addr:country": "PL", "addr:housenumber": "33", "addr:postcode": "30-119", "addr:street": "Aleja Marszałka Ferdinanda Focha", "amenity": "hospital", "building": "hospital", "emergency": "yes", "healthcare": "hospital", "name": "Krakowski Szpital Reumatologii i Rehabilitacji", "roof:levels": "0", "roof:shape": "flat", "website": "http://www.dietl.krakow.pl/", "wikidata": "Q11747886", "wikipedia": "pl:Krakowski Szpital Reumatologii i Rehabilitacji"}}, {"name": "Krakowski Szpital Specjalistyczny imienia świętego Jana Pawła II", "latitude": 50.0901803, "longitude": 19.9356765, "source": "osm", "_tags": {"amenity": "hospital", "email": "sekretariat@szpitaljp2.krakow.pl", "healthcare": "hospital", "name": "Krakowski Szpital Specjalistyczny imienia świętego Jana Pawła II", "phone": "+48 12 614 20 00", "website": "https://www.szpitaljp2.krakow.pl/"}}, {"name": "5. Wojskowy Szpital Kliniczny z Polikliniką SP ZOZ w Krakowie", "latitude": 50.0774144, "longitude": 19.9343473, "source": "osm", "_tags": {"addr:city": "Kraków", "addr:housenumber": "1-3", "addr:postcode": "30-901", "addr:range": "no", "addr:street": "Wrocławska", "amenity": "hospital", "emergency": "yes", "healthcare": "hospital", "loc_name": "Szpital Wojskowy", "name": "5. Wojskowy Szpital Kliniczny z Polikliniką SP ZOZ w Krakowie", "official_name": "5. Wojskowy Szpital Kliniczny z Polikliniką Samodzielny Publiczny Zakład Opieki Zdrowotnej w Krakowie im. gen. bryg. prof. dr hab. med. Mariana Garlickiego", "phone": "+48 12 63 08 031", "website": "https://5wszk.com.pl/"}}, {"name": "", "latitude": 49.6928841, "longitude": 19.2044881, "source": "osm", "_tags": {"amenity": "hospital", "emergency": "yes", "fax": "+48 33 861-29-95", "healthcare": "hospital", "phone": "+48 33 861-40-31", "website": "http://www.szpital.zywiec.pl/"}}, {"name": "Szpital Będzin", "latitude": 50.3243511, "longitude": 19.1319031, "source": "osm", "_tags": {"addr:city": "Będzin", "addr:housenumber": "12", "addr:postcode": "42-500", "addr:street": "Stanisława Małachowskiego", "alt_name": "Szpital Powiatowy", "amenity": "hospital", "healthcare": "hospital", "name": "Szpital Będzin", "operator": "Powiatowy Zespół Zakładów Opieki Zdrowotnej", "owner": "Starostwo Powiatowe Będzin", "phone": "32 267 30 11", "website": "https://pzzoz.bedzin.pl/"}}, {"name": "Szpital Zakonu Bonifratów pw. Aniołów Stróżów", "latitude": 50.2687527, "longitude": 19.0397916, "source": "osm", "_tags": {"amenity": "hospital", "contact:email": "szpital@bonifratrzy.katowice.pl", "contact:fax": "+48 32 357 62 38", "contact:phone": "+48 32 357 62 00", "healthcare": "hospital", "healthcare:speciality": "trauma;surgery;orthopaedics;anaesthetics;intensive;internal;gastroenterology;gynaecology;neonatology;palliative", "name": "Szpital Zakonu Bonifratów pw. Aniołów Stróżów", "operator": "Bonifraterskie Centrum Medyczne", "start_date": "1874", "website": "https://bcmbonifratrzy.pl/placowki/katowice", "wikidata": "Q9352151", "wikipedia": "pl:Szpital Zakonu Bonifratrów pw. Aniołów Stróżów w Katowicach"}}, {"name": "Małopolski Szpital Chorób Płuc i Rehabilitacji im. Edmunda Wojtyły", "latitude": 50.3429394, "longitude": 19.6145512, "source": "osm", "_tags": {"addr:city": "Jaroszowiec", "addr:housenumber": "1a", "addr:postcode": "32-310", "addr:street": "Kolejowa", "amenity": "hospital", "name": "Małopolski Szpital Chorób Płuc i Rehabilitacji im. Edmunda Wojtyły"}}, {"name": "Szpital Powiatowy w Chrzanowie", "latitude": 50.1362661, "longitude": 19.4303544, "source": "osm", "_tags": {"amenity": "hospital", "emergency": "yes", "healthcare": "hospital", "name": "Szpital Powiatowy w Chrzanowie", "website": "https://www.szpital-chrzanow.pl/", "wikidata": "Q16608778", "wikipedia": "pl:Szpital Powiatowy w Chrzanowie"}}, {"name": "Szpital Uzdrowiskowy dla Dzieci \"Stokrotka\"", "latitude": 49.9401012, "longitude": 18.9792353, "source": "osm", "_tags": {"amenity": "hospital", "healthcare": "hospital", "name": "Szpital Uzdrowiskowy dla Dzieci \"Stokrotka\""}}, {"name": "Szpital Kliniczny Nr 7 Górnośląskie Centrum Medyczne", "latitude": 50.210905, "longitude": 19.0011092, "source": "osm", "_tags": {"addr:city": "Katowice", "addr:housenumber": "45", "addr:postcode": "40-635", "addr:street": "Ziołowa", "alt_name": "Szpital w Ochojcu", "amenity": "hospital", "contact:email": "sekretariat@gcm.pl", "contact:fax": "+48 32 2028754", "contact:phone": "+48 32 3598000", "healthcare": "hospital", "name": "Szpital Kliniczny Nr 7 Górnośląskie Centrum Medyczne", "official_name": "Samodzielny Publiczny Szpital Kliniczny Nr 7 Śląskiego Uniwersytetu Medycznego w Katowicach Górnośląskie Centrum Medyczne im. prof. Leszka Gieca", "operator": "Śląski Uniwersytet Medyczny w Katowicach", "short_name": "SPSK Nr 7 SUM GCM im. prof. L. Gieca", "website": "https://www.gcm.pl/"}}, {"name": "Wojewódzki Szpital Psychiatryczny", "latitude": 49.8473228, "longitude": 19.3473616, "source": "osm", "_tags": {"addr:city": "Andrychów", "addr:housenumber": "19", "addr:postcode": "34-120", "addr:street": "Jarosława Dąbrowskiego", "amenity": "hospital", "healthcare": "hospital", "name": "Wojewódzki Szpital Psychiatryczny"}}, {"name": "Prywatny Szpital Położniczo Ginekologiczny", "latitude": 50.2060412, "longitude": 18.9900689, "source": "osm", "_tags": {"addr:city": "Katowice", "addr:housenumber": "3", "addr:postcode": "40-647", "addr:street": "Łubinowa", "amenity": "hospital", "email": "szpital@narodziny.com.pl", "healthcare": "hospital", "name": "Prywatny Szpital Położniczo Ginekologiczny", "phone": "+48 32 2025521", "website": "https://www.narodziny.com.pl/"}}, {"name": "Szpital Geriatryczny im. Jana Pawła II", "latitude": 50.2668542, "longitude": 19.0927891, "source": "osm", "_tags": {"amenity": "hospital", "healthcare": "hospital", "name": "Szpital Geriatryczny im. Jana Pawła II"}}, {"name": "Krakowskie Centrum Rehabilitacji", "latitude": 50.0626751, "longitude": 19.867343, "source": "osm", "_tags": {"amenity": "hospital", "healthcare": "hospital", "name": "Krakowskie Centrum Rehabilitacji", "website": "https://www.kcr.pl/"}}, {"name": "Szpital ortopedyczny \"Ortopedicum\"", "latitude": 50.063819, "longitude": 19.8803523, "source": "osm", "_tags": {"addr:city": "Kraków", "addr:housenumber": "3", "addr:postcode": "30-219", "addr:street": "Koło Strzelnicy", "amenity": "hospital", "building": "hospital", "building:levels": "2", "name": "Szpital ortopedyczny \"Ortopedicum\"", "operator": "Ortopedicum", "phone": "+48 12 425 3851", "website": "https://www.ortopedicum.pl/"}}, {"name": "Szpital Rejonowy im. dr Jana Gawlika", "latitude": 49.7368337, "longitude": 19.6051056, "source": "osm", "_tags": {"addr:city": "Sucha Beskidzka", "addr:housenumber": "22", "addr:postcode": "34-200", "addr:street": "Szpitalna", "amenity": "hospital", "emergency": "yes", "healthcare": "hospital", "name": "Szpital Rejonowy im. dr Jana Gawlika", "opening_hours": "24/7", "phone": "+48 33 872 31 00", "wheelchair": "yes"}}, {"name": "Samodzielny Publiczny Zakład Opieki Zdrowotnej Ministerstwa Spraw Wewnętrznych w Katowicach im. sierżanta Grzegorza Załogi", "latitude": 50.2452034, "longitude": 19.0141161, "source": "osm", "_tags": {"addr:city": "Katowice", "addr:housenumber": "39-41", "addr:postcode": "40-519", "addr:street": "Wita Stwosza", "amenity": "hospital", "fence": "yes", "healthcare": "hospital", "name": "Samodzielny Publiczny Zakład Opieki Zdrowotnej Ministerstwa Spraw Wewnętrznych w Katowicach im. sierżanta Grzegorza Załogi"}}, {"name": "Szpital Reumatologiczno-Rehabilitacyjny", "latitude": 49.9380678, "longitude": 18.9811625, "source": "osm", "_tags": {"amenity": "hospital", "healthcare": "hospital", "name": "Szpital Reumatologiczno-Rehabilitacyjny"}}, {"name": "InterHealth Canada Szpital Żywiec", "latitude": 49.6670544, "longitude": 19.2244746, "source": "osm", "_tags": {"amenity": "hospital", "healthcare": "hospital", "name": "InterHealth Canada Szpital Żywiec", "wikimedia_commons": "File:Szpital Żywiec.jpg"}}, {"name": "Katowickie Centrum Onkologii Zespół nr 2", "latitude": 50.286373, "longitude": 19.0126712, "source": "osm", "_tags": {"alt_name": "Szpital Geriatryczno-Onkologiczny", "amenity": "hospital", "contact:phone": "+48 32 420 0 420", "emergency": "no", "healthcare": "hospital", "healthcare:speciality": "geriatrics;dermatovenereology;surgery;diagnostic_radiology;physiotherapy", "name": "Katowickie Centrum Onkologii Zespół nr 2", "old_name": "Szpital im. Stanisława Leszczyńskiego", "wikidata": "Q9352157", "wikipedia": "pl:Katowickie Centrum Onkologii"}}, {"name": "Szpital Wielospecjalistyczny im. Stanleya Dudricka", "latitude": 49.978019, "longitude": 19.8192692, "source": "osm", "_tags": {"addr:city": "Skawina", "addr:housenumber": "15", "addr:postcode": "32-050", "addr:street": "Tyniecka", "amenity": "hospital", "healthcare": "hospital", "name": "Szpital Wielospecjalistyczny im. Stanleya Dudricka", "website": "https://szpitalskawina.pl/"}}, {"name": "Centrum Pulmonologii i Torakochirurgii w Bystrej", "latitude": 49.7653669, "longitude": 19.069497, "source": "osm", "_tags": {"amenity": "hospital", "healthcare": "hospital", "name": "Centrum Pulmonologii i Torakochirurgii w Bystrej"}}, {"name": "Wielospecjalistyczny Szpital TOMMED", "latitude": 50.2101608, "longitude": 18.9770855, "source": "osm", "_tags": {"amenity": "hospital", "email": "fredry22@tommed.pl", "healthcare": "hospital", "name": "Wielospecjalistyczny Szpital TOMMED", "phone": "+48 328800333", "website": "https://tommed.pl/"}}, {"name": "Beskidzkie Centrum Onkologii - Szpital Miejski im. Jana Pawła II", "latitude": 49.8203576, "longitude": 19.0236968, "source": "osm", "_tags": {"amenity": "hospital", "name": "Beskidzkie Centrum Onkologii - Szpital Miejski im. Jana Pawła II"}}, {"name": "Ośrodek Rehabilitacyjno-Reumatologiczny", "latitude": 49.9377509, "longitude": 18.9792784, "source": "osm", "_tags": {"amenity": "hospital", "healthcare": "hospital", "name": "Ośrodek Rehabilitacyjno-Reumatologiczny"}}, {"name": "Beskidzkie Centrum Medyczne", "latitude": 49.7851945, "longitude": 19.0316684, "source": "osm", "_tags": {"addr:city": "Bielsko-Biała", "addr:housenumber": "21", "addr:street": "Młodzieżowa", "amenity": "hospital", "healthcare": "hospital", "name": "Beskidzkie Centrum Medyczne", "operator": "Beskidzkie Centrum Medyczne Sp. z o. o.", "phone": "+48 33 82 63 400", "website": "https://www.bcm.bielsko.pl/"}}, {"name": "Szpital Powiatowy im. Jana Pawła II w Wadowicach", "latitude": 49.8807963, "longitude": 19.4928194, "source": "osm", "_tags": {"amenity": "hospital", "healthcare": "hospital", "name": "Szpital Powiatowy im. Jana Pawła II w Wadowicach", "operator": "ZZOZ Wadowice"}}, {"name": "Szpital Murcki", "latitude": 50.196791, "longitude": 19.0406799, "source": "osm", "_tags": {"addr:city": "Katowice", "addr:housenumber": "2", "addr:postcode": "40-749", "addr:street": "Alfreda Sokołowskiego", "amenity": "hospital", "check_date": "2024-07-24", "fax": "+48 32 255 63 37", "healthcare": "hospital", "name": "Szpital Murcki", "phone": "+48 32 255 61 62", "website": "http://www.szpitalmurcki.pl", "wikidata": "Q60855434", "wikipedia": "pl:Szpital Murcki"}}, {"name": "Szpital Powiatowy w Pszczynie", "latitude": 49.9733681, "longitude": 18.9403895, "source": "osm", "_tags": {"amenity": "hospital", "healthcare": "hospital", "name": "Szpital Powiatowy w Pszczynie"}}, {"name": "Samodzielny Publiczny Zakład Opieki Zdrowotnej MSW", "latitude": 50.072103, "longitude": 19.9124875, "source": "osm", "_tags": {"amenity": "hospital", "emergency": "yes", "healthcare": "hospital", "name": "Samodzielny Publiczny Zakład Opieki Zdrowotnej MSW", "official_name": "Samodzielny Publiczny Zakład Opieki Zdrowotnej MSW w Krakowie", "short_name": "SPZOZ MSW", "wikidata": "Q11836634", "wikipedia": "pl:Szpital MSWiA w Krakowie"}}, {"name": "Szpital Chirurgii Małoinwazjnej i Rekonstrukcyjnej", "latitude": 49.7857343, "longitude": 19.0298037, "source": "osm", "_tags": {"amenity": "hospital", "healthcare": "hospital", "name": "Szpital Chirurgii Małoinwazjnej i Rekonstrukcyjnej"}}, {"name": "NZOZ Szpital na Siemiradzkiego im. R. Czerwiakowskiego", "latitude": 50.0694655, "longitude": 19.9323538, "source": "osm", "_tags": {"amenity": "hospital", "healthcare": "hospital", "healthcare:speciality": "gynaecology", "name": "NZOZ Szpital na Siemiradzkiego im. R. Czerwiakowskiego"}}, {"name": "Szpital Miejski w Tychach", "latitude": 50.1191159, "longitude": 18.9825303, "source": "osm", "_tags": {"amenity": "hospital", "healthcare": "hospital", "name": "Szpital Miejski w Tychach", "website": "https://www.szpitalmiejskitychy.pl/"}}, {"name": "VITA LONGA", "latitude": 50.1758362, "longitude": 18.9695802, "source": "osm", "_tags": {"addr:city": "Katowice", "addr:housenumber": "6", "addr:postcode": "40-748", "addr:street": "Uniczowska", "amenity": "hospital", "healthcare": "hospital", "name": "VITA LONGA"}}, {"name": "Angelius", "latitude": 50.216561, "longitude": 18.9845938, "source": "osm", "_tags": {"amenity": "hospital", "healthcare": "hospital", "name": "Angelius", "website": "https://angelius.pl/"}}, {"name": "Zagłębiowski Szpital Kliniczny", "latitude": 50.3266937, "longitude": 19.0762293, "source": "osm", "_tags": {"addr:city": "Czeladź", "addr:housenumber": "40", "addr:postcode": "41-250", "addr:street": "Szpitalna", "amenity": "hospital", "description": "Zagłębiowski Szpital Kliniczny - Szpital Czeladź", "healthcare": "hospital", "name": "Zagłębiowski Szpital Kliniczny", "operator": "Powiatowy Zespół Zakładów Opieki Zdrowotnej", "owner": "Starostwo Powiatowe Będzin", "wheelchair": "yes"}}, {"name": "Wojewódzki Szpital Specjalistyczny nr 5", "latitude": 50.3033285, "longitude": 19.1233277, "source": "osm", "_tags": {"addr:city": "Sosnowiec", "addr:housenumber": "1", "addr:postcode": "41-200", "addr:street": "Plac Medyków", "alt_name": "Wojewódzki Szpital Specjalistyczny nr 5 imienia Świętej Barbary", "amenity": "hospital", "emergency": "yes", "healthcare": "hospital", "loc_name": "Szpital Górniczy", "name": "Wojewódzki Szpital Specjalistyczny nr 5", "start_date": "03.10.1988", "website": "https://wss5.pl/"}}, {"name": "Szpital Miejski nr.1", "latitude": 50.2703933, "longitude": 19.1323211, "source": "osm", "_tags": {"amenity": "hospital", "healthcare": "hospital", "name": "Szpital Miejski nr.1"}}, {"name": "Szpital Miejski nr 1 im. Karola Boromeusza", "latitude": 50.2395367, "longitude": 19.1376462, "source": "osm", "_tags": {"amenity": "hospital", "contact:phone": "+48 32 222 20 95", "healthcare": "hospital", "heritage": "2", "heritage:operator": "nid", "name": "Szpital Miejski nr 1 im. Karola Boromeusza", "website": "https://mcz.myslowice.pl/"}}, {"name": "Ośrodek Edukacyjno-Leczniczo-Rehabilitacyjny dla Dzieci Niewidomych i Niedowidzących", "latitude": 49.9540005, "longitude": 19.0045196, "source": "osm", "_tags": {"amenity": "hospital", "emergency": "no", "healthcare": "hospital", "name": "Ośrodek Edukacyjno-Leczniczo-Rehabilitacyjny dla Dzieci Niewidomych i Niedowidzących", "website": "https://www.zameczek.org.pl/"}}, {"name": "Szpital Miejski nr 2", "latitude": 50.2468022, "longitude": 19.1331628, "source": "osm", "_tags": {"amenity": "hospital", "contact:phone": "+48 32 318 33 48", "healthcare": "hospital", "name": "Szpital Miejski nr 2"}}, {"name": "Szpital Miejski", "latitude": 50.2982401, "longitude": 19.1813755, "source": "osm", "_tags": {"addr:city": "Sosnowiec", "addr:housenumber": "1", "addr:postcode": "41-219", "addr:street": "Szpitalna", "amenity": "hospital", "email": "sekretariat@szpital.sosnowiec.pl", "fax": "(032) 41 30 112", "healthcare": "hospital", "name": "Szpital Miejski", "phone": "(32) 41 30 100", "website": "https://www.szpital.sosnowiec.pl/"}}, {"name": "SP ZOZ Zakład Pielęgnacyjno-Opiekuńczy w Jaworznie", "latitude": 50.2116843, "longitude": 19.3522245, "source": "osm", "_tags": {"amenity": "hospital", "email": "sekretariat@zpo.jaw.pl", "healthcare": "hospital", "name": "SP ZOZ Zakład Pielęgnacyjno-Opiekuńczy w Jaworznie", "phone": "+48 32 91 60"}}, {"name": "NZOZ Medyk", "latitude": 50.3199518, "longitude": 19.1386172, "source": "osm", "_tags": {"addr:city": "Będzin", "addr:housenumber": "1", "addr:postcode": "42-500", "addr:street": "1 Maja", "healthcare": "hospital", "name": "NZOZ Medyk"}}, {"name": "", "latitude": 49.7402809, "longitude": 19.5870573, "source": "osm", "_tags": {"amenity": "hospital", "healthcare": "hospital"}}, {"name": "Silesia-Med S.A - Szpital Specjalistyczny w Grzawie", "latitude": 49.967498, "longitude": 19.0459162, "source": "osm", "_tags": {"amenity": "hospital", "email": "rejestracja@silesia-med.pl", "name": "Silesia-Med S.A - Szpital Specjalistyczny w Grzawie", "phone": "513 176 929", "website": "http://silesia-med.pl"}}, {"name": "Beskidzkie Centrum Zdrowia Psychicznego", "latitude": 49.7766094, "longitude": 19.2150248, "source": "osm", "_tags": {"amenity": "hospital", "healthcare": "hospital", "name": "Beskidzkie Centrum Zdrowia Psychicznego", "operator": "PZOL sp. z o.o."}}, {"name": "", "latitude": 49.8006687, "longitude": 19.0468239, "source": "osm", "_tags": {"amenity": "hospital"}}, {"name": "Szpital św. Łukasza", "latitude": 49.7821948, "longitude": 19.0670219, "source": "osm", "_tags": {"amenity": "hospital", "name": "Szpital św. Łukasza"}}, {"name": "", "latitude": 49.9391346, "longitude": 19.8149733, "source": "osm", "_tags": {"amenity": "hospital", "healthcare": "hospital"}}, {"name": "Bielskie Centrum Psychiatrii - Olszówka w Bielsku-Białej", "latitude": 49.7833707, "longitude": 19.03547, "source": "osm", "_tags": {"amenity": "hospital", "email": "bcp@psychiatria.bielsko.pl", "healthcare": "hospital", "name": "Bielskie Centrum Psychiatrii - Olszówka w Bielsku-Białej", "phone": "+48 33 812 30 41;+48 33 811 65 45", "website": "https://psychiatria.bielsko.pl/"}}, {"name": "", "latitude": 49.9441389, "longitude": 19.7377534, "source": "osm", "_tags": {"amenity": "hospital", "healthcare": "hospital"}}, {"name": "Szpital Miejski w Siemianowicach Śl.", "latitude": 50.3046816, "longitude": 19.034026, "source": "osm", "_tags": {"addr:city": "Siemianowice Śląskie", "addr:housenumber": "9", "addr:postcode": "41-100", "addr:street": "1 Maja", "amenity": "hospital", "healthcare": "hospital", "name": "Szpital Miejski w Siemianowicach Śl.", "source:addr": "gugik.gov.pl"}}, {"name": "", "latitude": 49.728802, "longitude": 19.6936172, "source": "osm", "_tags": {"amenity": "hospital", "healthcare": "hospital"}}, {"name": "", "latitude": 50.002178, "longitude": 19.8672498, "source": "osm", "_tags": {"amenity": "hospital", "healthcare": "hospital"}}, {"name": "Szpital Specjalistyczny imienia Józefa Dietla", "latitude": 50.0634793, "longitude": 19.9270883, "source": "osm", "_tags": {"addr:city": "Kraków", "addr:country": "PL", "addr:housenumber": "1", "addr:postcode": "31-121", "addr:street": "Skarbowa", "amenity": "hospital", "building": "hospital", "building:levels": "5", "contact:website": "www.dietl.krakow.pl", "healthcare": "hospital", "name": "Szpital Specjalistyczny imienia Józefa Dietla", "type": "multipolygon"}}, {"name": "Szpital Wojewódzki", "latitude": 49.7924442, "longitude": 19.0393607, "source": "osm", "_tags": {"addr:city": "Bielsko-Biała", "addr:housenumber": "101", "addr:street": "Aleja Armii Krajowej", "building": "yes", "healthcare": "hospital", "name": "Szpital Wojewódzki", "type": "multipolygon"}}, {"name": "Szpital Specjalistyczny im. S. Starkiewicza Oddział Psychiatryczny", "latitude": 50.319722, "longitude": 19.2136771, "source": "osm", "_tags": {"amenity": "hospital", "name": "Szpital Specjalistyczny im. S. Starkiewicza Oddział Psychiatryczny", "type": "site"}}, {"name": "Szpital Specjalistyczny im. S. Starkiewicza", "latitude": 50.3201663, "longitude": 19.1775787, "source": "osm", "_tags": {"amenity": "hospital", "name": "Szpital Specjalistyczny im. S. Starkiewicza", "type": "site"}}]