[{"name": "", "latitude": 49.7161728, "longitude": 23.9062153, "source": "osm", "_tags": {"amenity": "hospital", "healthcare": "hospital"}}, {"name": "Городоцька районна поліклініка", "latitude": 49.7856459, "longitude": 23.6471579, "source": "osm", "_tags": {"healthcare": "hospital", "name": "Городоцька районна поліклініка", "name:uk": "Городоцька районна поліклініка", "note": "Не цепляйте точки с тегами объектов инфраструктуры на линии зданий - это вызывает ошибку. Если очень хочется точно указать место расположения входа, используйте для этого отдельную точку Вход/Выход.", "wheelchair": "limited"}}, {"name": "Дитяча лікарня", "latitude": 49.5200066, "longitude": 23.2006057, "source": "osm", "_tags": {"addr:housenumber": "15", "addr:postcode": "81400", "addr:street": "вулиця Миколая Коперника", "amenity": "hospital", "healthcare": "hospital", "healthcare:speciality": "paediatrics", "name": "Дитяча лікарня", "name:uk": "Дитяча лікарня"}}, {"name": "Пологовий будинок", "latitude": 49.5197191, "longitude": 23.198475, "source": "osm", "_tags": {"amenity": "hospital", "healthcare": "hospital", "name": "Пологовий будинок", "name:ru": "Роддом", "name:uk": "Пологовий будинок"}}, {"name": "Городищинське відділення Самбрської центральної районної лікарні", "latitude": 49.4715002, "longitude": 23.3031108, "source": "osm", "_tags": {"amenity": "hospital", "name": "Городищинське відділення Самбрської центральної районної лікарні", "name:uk": "Городищинське відділення Самбрської центральної районної лікарні"}}, {"name": "", "latitude": 49.9619111, "longitude": 23.1616844, "source": "osm", "_tags": {"addr:postcode": "81033", "addr:street": "вулиця Р. Шухевича", "amenity": "hospital", "healthcare": "hospital"}}, {"name": "Медичний центр \"Здоров'я\"", "latitude": 50.2319149, "longitude": 23.6237479, "source": "osm", "_tags": {"addr:housenumber": "18", "addr:postcode": "80316", "addr:street": "Львівська вулиця", "amenity": "hospital", "healthcare": "hospital", "internet_access": "wlan", "name": "Медичний центр \"Здоров'я\"", "name:uk": "Медичний центр \"Здоров'я\"", "opening_hours": "Mo-Fr 09:00-19:00"}}, {"name": "Кардіологічна лікарня", "latitude": 49.9060646, "longitude": 23.9275924, "source": "osm", "_tags": {"addr:housenumber": "74", "addr:postcode": "79491", "addr:street": "вулиця Володимира Івасюка", "amenity": "hospital", "name": "Кардіологічна лікарня", "name:uk": "Кардіологічна лікарня"}}, {"name": "Лікарня", "latitude": 49.6287799, "longitude": 23.680565, "source": "osm", "_tags": {"amenity": "hospital", "healthcare": "hospital", "name": "Лікарня", "name:uk": "Лікарня"}}, {"name": "Швидка допомога", "latitude": 49.5156849, "longitude": 23.2048849, "source": "osm", "_tags": {"amenity": "hospital", "healthcare": "hospital", "healthcare:speciality": "emergency", "name": "Швидка допомога", "name:en": "Emergency", "name:uk": "Швидка допомога", "opening_hours": "24/7"}}, {"name": "Інфекційна лікарня Скелівська", "latitude": 49.5367109, "longitude": 22.9676805, "source": "osm", "_tags": {"amenity": "hospital", "name": "Інфекційна лікарня Скелівська", "name:uk": "Інфекційна лікарня Скелівська"}}, {"name": "Терапевтичне відділення", "latitude": 49.4266381, "longitude": 23.7513436, "source": "osm", "_tags": {"amenity": "hospital", "healthcare": "hospital", "name": "Терапевтичне відділення", "name:uk": "Терапевтичне відділення"}}, {"name": "", "latitude": 49.6429443, "longitude": 23.8555348, "source": "osm", "_tags": {"amenity": "hospital", "healthcare": "hospital"}}, {"name": "Приймальне відділення", "latitude": 49.9372596, "longitude": 23.5639848, "source": "osm", "_tags": {"amenity": "hospital", "name": "Приймальне відділення", "name:en": "Hospital", "name:uk": "Приймальне відділення"}}, {"name": "", "latitude": 49.7213814, "longitude": 23.7234427, "source": "osm", "_tags": {"amenity": "hospital", "building": "yes", "emergency": "yes"}}, {"name": "Терапевтичне відділення", "latitude": 49.7856661, "longitude": 23.6483916, "source": "osm", "_tags": {"amenity": "hospital", "building": "yes", "healthcare": "hospital", "name": "Терапевтичне відділення", "name:uk": "Терапевтичне відділення"}}, {"name": "Городоцька районна поліклініка", "latitude": 49.7858177, "longitude": 23.6469364, "source": "osm", "_tags": {"addr:housenumber": "24", "addr:street": "майдан Гайдамаків", "amenity": "hospital", "building": "yes", "healthcare": "hospital", "name": "Городоцька районна поліклініка", "name:uk": "Городоцька районна поліклініка"}}, {"name": "Городоцька центральна районна лікарня", "latitude": 49.7866132, "longitude": 23.6482209, "source": "osm", "_tags": {"addr:housenumber": "18", "addr:street": "вулиця Михайла Коцюбинського", "amenity": "hospital", "building": "yes", "emergency": "yes", "healthcare": "hospital", "name": "Городоцька центральна районна лікарня", "name:uk": "Городоцька центральна районна лікарня"}}, {"name": "", "latitude": 49.7155756, "longitude": 23.9064128, "source": "osm", "_tags": {"amenity": "hospital", "building": "yes", "building:levels": "1", "healthcare": "hospital"}}, {"name": "Samodzielny Publiczny Zakład Opieki Zdrowotnej - Szpital Powiatowy im. dr Ludwika Rydygiera w Lubaczowie", "latitude": 50.170917, "longitude": 23.1242872, "source": "osm", "_tags": {"amenity": "hospital", "email": "sekretariat@szpital.lubaczowski.com", "emergency": "yes", "healthcare": "hospital", "name": "Samodzielny Publiczny Zakład Opieki Zdrowotnej - Szpital Powiatowy im. dr Ludwika Rydygiera w Lubaczowie", "name:uk": "Незалежний центр oпiки громадського здоров'я - районна лікарня Людвіка Ридигера в Любачові", "phone": "+48 016 632 81 00"}}, {"name": "Неврологічне відділення лікарні", "latitude": 49.4873266, "longitude": 22.9651738, "source": "osm", "_tags": {"amenity": "hospital", "building": "yes", "healthcare": "hospital", "name": "Неврологічне відділення лікарні", "name:uk": "Неврологічне відділення лікарні", "old_name": "Вілла \"Анна\""}}, {"name": "Новояворівська районна лікарня №1", "latitude": 49.9373415, "longitude": 23.5646023, "source": "osm", "_tags": {"amenity": "hospital", "name": "Новояворівська районна лікарня №1", "name:uk": "Новояворівська районна лікарня №1"}}, {"name": "Дублянська районна лікарня", "latitude": 49.5001566, "longitude": 23.3840145, "source": "osm", "_tags": {"amenity": "hospital", "building": "yes", "name": "Дублянська районна лікарня", "name:uk": "Дублянська районна лікарня"}}, {"name": "Центральна лікарня", "latitude": 49.5105534, "longitude": 23.1976395, "source": "osm", "_tags": {"amenity": "hospital", "emergency": "no", "healthcare": "hospital", "name": "Центральна лікарня", "name:en": "Central Hospital", "name:uk": "Центральна лікарня"}}, {"name": "Районна лікарня", "latitude": 49.6574263, "longitude": 23.4828531, "source": "osm", "_tags": {"amenity": "hospital", "building": "hospital", "building:levels": "4", "emergency": "yes", "name": "Районна лікарня", "name:uk": "Районна лікарня"}}, {"name": "", "latitude": 49.6571018, "longitude": 23.4832285, "source": "osm", "_tags": {"amenity": "hospital", "building": "hospital"}}, {"name": "Пологове відділення", "latitude": 49.6572057, "longitude": 23.4832682, "source": "osm", "_tags": {"amenity": "hospital", "building": "hospital", "name": "Пологове відділення", "name:uk": "Пологове відділення"}}, {"name": "", "latitude": 50.2153852, "longitude": 23.6353544, "source": "osm", "_tags": {"amenity": "hospital", "healthcare": "hospital"}}, {"name": "Старосамбірска районна центральна лікарня", "latitude": 49.4355781, "longitude": 22.9972335, "source": "osm", "_tags": {"addr:city": "Старий Самбір", "addr:housenumber": "86", "addr:postcode": "82000", "addr:street": "вулиця Лева Галицького", "amenity": "hospital", "building": "hospital", "building:levels": "2", "emergency": "yes", "name": "Старосамбірска районна центральна лікарня", "name:uk": "Старосамбірска районна центральна лікарня"}}, {"name": "Психоневрологічне відділення Самбірської центральної районної лікарні", "latitude": 49.592021, "longitude": 23.1775958, "source": "osm", "_tags": {"amenity": "hospital", "name": "Психоневрологічне відділення Самбірської центральної районної лікарні", "name:uk": "Психоневрологічне відділення Самбірської центральної районної лікарні"}}, {"name": "Судововишнянська міська лікарня", "latitude": 49.7883901, "longitude": 23.3692002, "source": "osm", "_tags": {"addr:housenumber": "5", "addr:street": "вулиця Петра Сагайдачного", "amenity": "hospital", "healthcare": "hospital", "name": "Судововишнянська міська лікарня", "name:uk": "Судововишнянська міська лікарня"}}, {"name": "Дрогобицька районна лікарня №3", "latitude": 49.4687537, "longitude": 23.6128036, "source": "osm", "_tags": {"amenity": "hospital", "healthcare": "hospital", "name": "Дрогобицька районна лікарня №3", "name:uk": "Дрогобицька районна лікарня №3"}}, {"name": "", "latitude": 49.9413777, "longitude": 23.3884345, "source": "osm", "_tags": {"amenity": "hospital", "healthcare": "hospital"}}, {"name": "Меденицька лікарня", "latitude": 49.4259004, "longitude": 23.7502604, "source": "osm", "_tags": {"amenity": "hospital", "healthcare": "hospital", "name": "Меденицька лікарня", "name:en": "Medenychi hospital", "name:uk": "Меденицька лікарня", "official_name": "Комунальне некомерційне підприємство «Меденицька лікарня» Меденицької селищної ради", "official_name:en": "CNE MH MVI", "official_name:uk": "Комунальне некомерційне підприємство «Меденицька лікарня» Меденицької селищної ради", "type": "multipolygon"}}]