[{"name": "Agaplesion MVZ", "latitude": 50.1367779, "longitude": 8.6464936, "source": "osm", "_tags": {"amenity": "hospital", "healthcare": "hospital", "name": "Agaplesion MVZ", "operator": "Agaplesion", "operator:type": "private", "operator:wikidata": "Q55445", "wheelchair": "yes"}}, {"name": "Flughafen Ambulanz", "latitude": 50.0492356, "longitude": 8.5670965, "source": "osm", "_tags": {"addr:postcode": "60549", "addr:street": "Flughafen Frankfurt am Main", "amenity": "clinic", "contact:fax": "+49 69 690 66598", "contact:phone": "+49 69 690 66767", "email": "med-Aufnahme@fraport.de", "emergency": "no", "healthcare": "hospital", "healthcare:speciality": "general", "level": "0", "name": "Flughafen Ambulanz", "opening_hours": "Mo-Su,PH 07:00-16:00", "operator": "Medizinische Dienste Fraport AG", "wheelchair": "yes"}}, {"name": "Sportklinik Bad Nauheim", "latitude": 50.3526373, "longitude": 8.7433133, "source": "osm", "_tags": {"addr:city": "Bad Nauheim", "addr:country": "DE", "addr:housenumber": "30-32", "addr:postcode": "61231", "addr:street": "In der Au", "amenity": "hospital", "email": "info@sportklinik-bad-nauheim.de", "emergency": "no", "name": "Sportklinik Bad Nauheim", "operator": "MCI GmbH", "phone": "+49 6032 1880", "website": "https://www.sportpark-badnauheim.de/"}}, {"name": "Vitos Kinder- und Jugendtagesklinik für psychische Gesundheit Kelkheim", "latitude": 50.1320202, "longitude": 8.4539451, "source": "osm", "_tags": {"amenity": "hospital", "fax": "+49 6195 97652110", "name": "Vitos Kinder- und Jugendtagesklinik für psychische Gesundheit Kelkheim", "operator": "Vitos Rheingau", "phone": "+49 6195 97652100"}}, {"name": "Kardiocentrum Frankfurt an der Klinik Rotes Kreuz", "latitude": 50.1170756, "longitude": 8.6970108, "source": "osm", "_tags": {"addr:city": "Frankfurt am Main", "addr:housenumber": "10", "addr:postcode": "60316", "addr:street": "Königswarterstraße", "amenity": "hospital", "check_date": "2025-03-13", "contact:email": "hauptpraxis@kardiocentrum.de", "contact:fax": "+49 69 94434140", "contact:phone": "+49 69 944340", "contact:website": "https://kardiocentrum.de/das-kardiocentrum/hauptpraxis/", "healthcare": "hospital", "healthcare:speciality": "cardiology", "name": "Kardiocentrum Frankfurt an der Klinik Rotes Kreuz"}}, {"name": "Rheinhessen-Fachklinik Mainz", "latitude": 50.0153919, "longitude": 8.239119, "source": "osm", "_tags": {"addr:city": "Mainz", "addr:housenumber": "2-4", "addr:postcode": "55122", "addr:street": "Hartmühlenweg", "amenity": "hospital", "healthcare": "hospital", "healthcare:speciality": "child_psychiatry;paediatrics", "name": "Rheinhessen-Fachklinik Mainz", "website": "https://www.landeskrankenhaus.de/rheinhessen-fachklinik-mainz", "wikidata": "Q50038925"}}, {"name": "Kinderneurologisches Zentrum Mainz", "latitude": 50.0154362, "longitude": 8.2398352, "source": "osm", "_tags": {"addr:city": "Mainz", "addr:country": "DE", "addr:housenumber": "2-4", "addr:postcode": "55122", "addr:street": "Hartmühlenweg", "amenity": "hospital", "healthcare": "hospital", "healthcare:speciality": "neurology;paediatrics", "name": "Kinderneurologisches Zentrum Mainz", "wikidata": "Q1741860"}}, {"name": "", "latitude": 49.4251462, "longitude": 8.6878497, "source": "osm", "_tags": {"addr:city": "Heidelberg", "addr:housenumber": "52-54", "addr:postcode": "69121", "addr:street": "Steubenstraße", "amenity": "hospital", "healthcare": "hospital", "healthcare:speciality": "general", "operator": "Dr. med. Schumacher-Herold & Dr. med. Adams"}}, {"name": "Atos Klinik Wiesbaden", "latitude": 50.0488207, "longitude": 8.2144714, "source": "osm", "_tags": {"addr:city": "Wiesbaden", "addr:housenumber": "47", "addr:postcode": "65203", "addr:street": "Hagenauer Straße", "amenity": "hospital", "emergency": "no", "healthcare": "hospital", "healthcare:speciality": "orthopaedics", "name": "Atos Klinik Wiesbaden", "operator": "ATOS Kliniken", "operator:short": "ATOS", "operator:type": "private", "operator:wikidata": "Q109568262", "website": "https://atos-kliniken.com/de/wiesbaden/"}}, {"name": "IKF/Interdisziplinäres Beratungszentrum", "latitude": 50.1516931, "longitude": 8.6156415, "source": "osm", "_tags": {"amenity": "hospital", "healthcare": "hospital", "name": "IKF/Interdisziplinäres Beratungszentrum"}}, {"name": "Kontur - Plastische Chirurgie & Ästhetik", "latitude": 49.9691345, "longitude": 8.2306264, "source": "osm", "_tags": {"addr:city": "Mainz", "addr:housenumber": "18", "addr:postcode": "55128", "addr:street": "Haifa-Allee", "amenity": "hospital", "email": "info@kontur-mainz.de", "healthcare": "hospital", "healthcare:speciality": "plastic_surgery", "name": "Kontur - Plastische Chirurgie & Ästhetik", "phone": "06131 321 30 00", "website": "https://kontur-mainz.de/"}}, {"name": "Median Klinik NRZ Wiesbaden", "latitude": 50.0875394, "longitude": 8.2746966, "source": "osm", "_tags": {"addr:housenumber": "39", "addr:street": "Aukammallee", "amenity": "hospital", "name": "Median Klinik NRZ Wiesbaden"}}, {"name": "Bürgerhospital", "latitude": 50.1304097, "longitude": 8.6862871, "source": "osm", "_tags": {"addr:city": "Frankfurt am Main", "addr:housenumber": "37-41", "addr:postcode": "60318", "addr:street": "Nibelungenallee", "amenity": "hospital", "contact:email": "info@buergerhospital-ffm.de", "contact:fax": "+49 69 1500205", "contact:phone": "+49 69 15000", "contact:website": "https://www.buergerhospital-ffm.de/", "healthcare": "hospital", "name": "Bürgerhospital", "operator": "Verein Frankfurter Stiftungskrankenhäuser", "wheelchair": "yes", "wheelchair:description": "Eingang von Richard-Wagner-Str.", "wikidata": "Q1021117", "wikimedia_commons": "Category:Bürgerhospital Frankfurt", "wikipedia": "de:Bürgerhospital (Frankfurt am Main)"}}, {"name": "Krankenhaus Nordwest", "latitude": 50.1508859, "longitude": 8.617688, "source": "osm", "_tags": {"addr:city": "Frankfurt am Main", "addr:country": "DE", "addr:housenumber": "2-26", "addr:postcode": "60488", "addr:street": "Steinbacher Hohl", "amenity": "hospital", "contact:email": "info@sthhg.de", "contact:phone": "+49 69 7601 1", "contact:website": "https://www.krankenhaus-nordwest.de/", "emergency": "yes", "healthcare": "hospital", "healthcare:speciality": "emergency;orthopaedics;radiology;intensive;cardiology;surgery;physiatry;internal;oncology;anaesthetics;blood_check;clinical_pathology;diagnostic_radiology;gastroenterology;geriatrics;haematology;hepatology;neurology;palliative;urology;vascular_surgery", "loc_name": "Nordwest-Krankenhaus", "name": "Krankenhaus Nordwest", "operator": "Stiftung Hospital zum Heiligen Geist", "operator:type": "foundation", "wheelchair": "yes", "wikidata": "Q30264419"}}, {"name": "Klinik Maingau vom Roten Kreuz", "latitude": 50.1198358, "longitude": 8.6882513, "source": "osm", "_tags": {"addr:city": "Frankfurt am Main", "addr:housenumber": "2-14", "addr:postcode": "60318", "addr:street": "Scheffelstraße", "amenity": "hospital", "contact:email": "info@rotkreuzkliniken.de", "contact:fax": "+49 69 4033235", "contact:phone": "+49 69 40330", "contact:website": "https://www.rotkreuzkliniken.de/klinik-maingau_vom_roten_kreuz.html", "emergency": "no", "healthcare": "hospital", "name": "Klinik Maingau vom Roten Kreuz", "operator": "Frankfurter Rotkreuz-Kliniken e.V.", "wheelchair": "yes", "wikidata": "Q28196010", "wikipedia": "en:Maingau Clinic of the Red Cross"}}, {"name": "Bethanienkrankenhaus", "latitude": 50.1292867, "longitude": 8.7059253, "source": "osm", "_tags": {"addr:city": "Frankfurt am Main", "addr:housenumber": "21-25", "addr:postcode": "60389", "addr:street": "Im Prüfling", "amenity": "hospital", "contact:email": "bethanien@fdk.info", "contact:fax": "+49 69 4608323", "contact:phone": "+49 69 46080", "contact:website": "https://www.bethanien-krankenhaus.de/", "healthcare": "hospital", "name": "Bethanienkrankenhaus", "toilets:wheelchair": "yes", "wheelchair": "yes", "wikidata": "Q63396988", "wikipedia": "de:Bethanien-Krankenhaus (Frankfurt am Main)"}}, {"name": "Sankt Katharinen Krankenhaus", "latitude": 50.1360938, "longitude": 8.7108513, "source": "osm", "_tags": {"addr:city": "Frankfurt am Main", "addr:housenumber": "65", "addr:postcode": "60389", "addr:street": "Seckbacher Landstraße", "amenity": "hospital", "check_date": "2024-03-23", "contact:fax": "+49 69 46031008", "contact:phone": "+49 69 46030", "contact:website": "https://www.sankt-katharinen-ffm.de/", "healthcare": "hospital", "name": "Sankt Katharinen Krankenhaus", "wheelchair": "yes", "wikidata": "Q38317079"}}, {"name": "BG Unfallklinik", "latitude": 50.1447874, "longitude": 8.708794, "source": "osm", "_tags": {"addr:city": "Frankfurt am Main", "addr:country": "DE", "addr:housenumber": "430", "addr:postcode": "60389", "addr:street": "Friedberger Landstraße", "alt_name": "Berufsgenossenschaftliche Unfallklinik Frankfurt am Main", "amenity": "hospital", "contact:email": "info@bgu-frankfurt.de", "contact:fax": "+49 69 4752331", "contact:phone": "+49 69 4750", "contact:website": "https://www.bgu-frankfurt.de/", "emergency": "yes", "healthcare": "hospital", "name": "BG Unfallklinik", "opening_hours": "24/7", "operator": "BG Unfallklinik Frankfurt am Main gGmbH", "short_name": "BGU FFM", "toilets:wheelchair": "yes", "wheelchair": "yes", "wikidata": "Q828946", "wikimedia_commons": "Category:BGU Frankfurt", "wikipedia": "de:Berufsgenossenschaftliche Unfallklinik Frankfurt am Main"}}, {"name": "Asklepios Klinik Langen", "latitude": 49.9983996, "longitude": 8.6840079, "source": "osm", "_tags": {"addr:city": "Langen", "addr:housenumber": "20", "addr:postcode": "63225", "addr:street": "Röntgenstraße", "amenity": "hospital", "emergency": "yes", "healthcare": "hospital", "name": "Asklepios Klinik Langen", "operator": "Asklepios Kliniken", "operator:type": "private", "operator:wikidata": "Q732068", "phone": "+49 6103 9120", "toilets:wheelchair": "yes", "website": "https://www.asklepios.com/langen/", "wheelchair": "yes", "wikidata": "Q50038288", "wikipedia": "de:Asklepios Klinik Langen"}}, {"name": "Klinik für Psychiatrie & Psychotherapie", "latitude": 50.3343701, "longitude": 8.7421877, "source": "osm", "_tags": {"addr:city": "Friedberg (Hessen)", "addr:country": "DE", "addr:housenumber": "3", "addr:postcode": "61169", "addr:street": "Johann-Peter-Schäfer-Straße", "amenity": "hospital", "healthcare": "hospital", "name": "Klinik für Psychiatrie & Psychotherapie", "operator": "Gesundheitszentrum Wetterau gGmbH", "wheelchair": "yes"}}, {"name": "Ketteler Krankenhaus", "latitude": 50.0943532, "longitude": 8.7846122, "source": "osm", "_tags": {"addr:city": "Offenbach am Main", "addr:housenumber": "85", "addr:postcode": "63071", "addr:street": "Lichtenplattenweg", "amenity": "hospital", "fax": "+49 69 873265", "healthcare": "hospital", "name": "Ketteler Krankenhaus", "phone": "+49 69 85850", "website": "https://www.ketteler-krankenhaus.org/", "wheelchair": "yes"}}, {"name": "varisano Krankenhaus Bad Soden", "latitude": 50.1508989, "longitude": 8.5145784, "source": "osm", "_tags": {"alt_name": "Krankenhaus Bad Soden", "amenity": "hospital", "emergency": "yes", "healthcare": "hospital", "loc_name": "Kreiskrankenhaus Bad Soden", "name": "varisano Krankenhaus Bad Soden", "operator": "Kliniken des Main-Taunus-Kreises GmbH", "phone": "+49 6196 656", "website": "https://www.varisano.de/krankenhaus-bad-soden/"}}, {"name": "Helios Klinik Idstein", "latitude": 50.208746, "longitude": 8.2638589, "source": "osm", "_tags": {"addr:city": "Idstein", "addr:country": "DE", "addr:housenumber": "2", "addr:postcode": "65510", "addr:street": "Robert-Koch-Straße", "amenity": "hospital", "fax": "+49 6126 9959200", "healthcare": "hospital", "name": "Helios Klinik Idstein", "operator": "Helios Kliniken", "operator:wikidata": "Q1254151", "phone": "+49 6126 99590", "website": "https://www.helios-gesundheit.de/standorte-angebote/kliniken/idstein/", "wheelchair": "yes"}}, {"name": "Klinikum der Stadt Ludwigshafen", "latitude": 49.48982, "longitude": 8.4258073, "source": "osm", "_tags": {"addr:city": "Ludwigshafen am Rhein", "addr:housenumber": "79", "addr:postcode": "67063", "addr:street": "Bremserstraße", "amenity": "hospital", "barrier": "fence", "emergency": "yes", "healthcare": "hospital", "loc_name": "Klinikum Ludwigshafen", "name": "Klinikum der Stadt Ludwigshafen", "phone": "+49 621 5030", "short_name": "KliLu", "toilets:wheelchair": "yes", "website": "https://www.klilu.de/", "wheelchair": "yes", "wikidata": "Q834559", "wikipedia": "de:Klinikum der Stadt Ludwigshafen"}}, {"name": "Klinik Dr. Amelung", "latitude": 50.1894528, "longitude": 8.4688336, "source": "osm", "_tags": {"alt_name": "Privatklinik Dr. Amelung", "amenity": "hospital", "emergency": "no", "fax": "+49 6174 298154", "healthcare": "hospital", "healthcare:speciality": "psychiatry", "name": "Klinik Dr. Amelung", "phone": "+49 6174 2980", "website": "https://www.klinik-amelung.de/"}}, {"name": "Medical Park Bad Camberg", "latitude": 50.2974825, "longitude": 8.2828246, "source": "osm", "_tags": {"addr:city": "Bad Camberg", "addr:housenumber": "100", "addr:postcode": "65520", "addr:street": "Obertorstraße", "amenity": "hospital", "building": "hospital", "name": "Medical Park Bad Camberg", "old_name": "Neurologische Reha-Klinik", "website": "https://badcamberg.medicalpark.de/", "wheelchair": "yes"}}, {"name": "GPR Klinikum", "latitude": 49.9828613, "longitude": 8.4251799, "source": "osm", "_tags": {"addr:city": "Rüsselsheim am Main", "addr:country": "DE", "addr:housenumber": "59", "addr:postcode": "65428", "addr:street": "August-Bebel-Straße", "amenity": "hospital", "email": "Info@GP-Ruesselsheim.de", "emergency": "yes", "fax": "+49 6142 88-1371", "healthcare": "hospital", "name": "GPR Klinikum", "opening_hours": "24/7", "operator": "GPR Gesundheits- und Pflegezentrum Rüsselsheim", "phone": "+49 6142 88-0", "toilets:wheelchair": "yes", "website": "https://www.gp-ruesselsheim.de/aufenthalt/klinik", "wheelchair": "yes", "wikidata": "Q15111129", "wikipedia": "de:GPR Klinikum"}}, {"name": "Parkklinik Schlangenbad", "latitude": 50.0934487, "longitude": 8.0983918, "source": "osm", "_tags": {"addr:city": "Schlangenbad", "addr:country": "DE", "addr:housenumber": "47", "addr:postcode": "65388", "addr:street": "Rheingauer Straße", "addr:suburb": "Schlangenbad", "amenity": "hospital", "building": "hospital", "contact:fax": "+49 6129 4883444", "contact:mail": "info@parkklinik-schlangenbad.de", "contact:phone": "+49 6129 1819260", "contact:website": "https://parkklinik-schlangenbad.de/", "emergency": "no", "healthcare": "hospital", "heritage": "yes", "name": "Parkklinik Schlangenbad", "operator": "Parkklinik Wiesbaden Schlangenbad GmbH", "wheelchair": "yes"}}, {"name": "Asklepios-Paulinen-Klinik", "latitude": 50.0718304, "longitude": 8.2269773, "source": "osm", "_tags": {"addr:city": "Wiesbaden", "addr:country": "DE", "addr:housenumber": "10", "addr:postcode": "65197", "addr:street": "Geisenheimer Straße", "amenity": "hospital", "contact:fax": "+49 611 847-2028", "contact:phone": "+49 611 847-0", "contact:website": "https://www.asklepios.com/wiesbaden/", "emergency": "yes", "healthcare": "hospital", "loc_name": "Pasti", "name": "Asklepios-Paulinen-Klinik", "old_name": "Paulinenstift", "opening_hours": "24/7", "operator": "Asklepios Kliniken", "operator:type": "private", "operator:wikidata": "Q732068", "operator:wikipedia": "de:Asklepios Kliniken", "toilets:wheelchair": "yes", "wheelchair": "yes"}}, {"name": "Philippshospital", "latitude": 49.8202019, "longitude": 8.5007538, "source": "osm", "_tags": {"amenity": "hospital", "healthcare": "hospital", "name": "Philippshospital"}}, {"name": "MEDIAN Rehazentrum Wiesbaden-Sonnenberg", "latitude": 50.091484, "longitude": 8.2662392, "source": "osm", "_tags": {"addr:city": "Wiesbaden", "addr:country": "DE", "addr:housenumber": "23", "addr:postcode": "65191", "addr:street": "Leibnizstraße", "amenity": "hospital", "building": "hospital", "healthcare": "rehabilitation", "name": "MEDIAN Rehazentrum Wiesbaden-Sonnenberg", "operator": "MEDIAN", "operator:type": "private", "phone": "+49 611 5750", "website": "https://www.median-kliniken.de/de/median-klaus-miehlke-klinik-wiesbaden/", "wikidata": "Q50038952", "wikipedia": "de:"}}, {"name": "Wilhelm Fresenius Klinik", "latitude": 50.0873694, "longitude": 8.2746649, "source": "osm", "_tags": {"addr:city": "Wiesbaden", "addr:country": "DE", "addr:housenumber": "39", "addr:postcode": "65191", "addr:street": "Aukammallee", "amenity": "hospital", "building": "hospital", "description": "Klinik für Psychosomatische Medizin und Psychotherapie", "healthcare": "hospital", "healthcare:speciality": "psychiatry", "name": "Wilhelm Fresenius Klinik", "operator": "Helios Kliniken", "operator:wikidata": "Q1254151", "operator:wikipedia": "de:Helios Kliniken", "phone": "+49 611 43-6161", "website": "https://www.helios-gesundheit.de/kliniken/wiesbaden-hsk/unser-angebot/unsere-fachkliniken-institute-und-zentren/psychosomatische-medizin-und-psychotherapie/", "wheelchair": "yes"}}, {"name": "Sana Klinikum Offenbach", "latitude": 50.0943736, "longitude": 8.7563291, "source": "osm", "_tags": {"addr:city": "Offenbach am Main", "addr:housenumber": "66", "addr:postcode": "63069", "addr:street": "Starkenburgring", "amenity": "hospital", "emergency": "yes", "healthcare": "hospital", "name": "Sana Klinikum Offenbach", "operator": "Sana Klinikum Offenbach GmbH", "phone": "+49 69 8405-0", "toilets:wheelchair": "yes", "website": "https://www.klinikum-offenbach.de/", "wheelchair": "yes", "wikidata": "Q1750506", "wikimedia_commons": "Category:Klinikum Offenbach am Main", "wikipedia": "de:Sana Klinikum Offenbach"}}, {"name": "Universitätsmedizin Mannheim", "latitude": 49.492365, "longitude": 8.4875557, "source": "osm", "_tags": {"addr:city": "Mannheim", "addr:housenumber": "1-3", "addr:postcode": "68167", "addr:street": "Theodor-Kutzer-Ufer", "alt_name": "Universitätsklinikum Mannheim", "amenity": "hospital", "contact:phone": "+49 621 3830", "contact:website": "https://www.umm.de/", "emergency": "yes", "healthcare": "hospital", "hospital:level:DE": "3", "name": "Universitätsmedizin Mannheim", "operator": "Universitätsklinikum Mannheim GmbH", "operator:type": "public", "ownership": "municipal", "short_name": "UMM", "wheelchair": "yes", "wikidata": "Q1276773", "wikimedia_commons": "Category:Universitätsklinikum Mannheim", "wikipedia": "de:Universitätsklinikum Mannheim"}}, {"name": "Klinik Hohe Mark", "latitude": 50.2113353, "longitude": 8.5306464, "source": "osm", "_tags": {"addr:city": "Oberursel (Taunus)", "addr:country": "DE", "addr:housenumber": "2", "addr:postcode": "61440", "addr:street": "Friedländerstraße", "amenity": "hospital", "loc_name": "Klinik Hohemark", "name": "Klinik Hohe Mark", "operator": "Deutscher Gemeinschafts-Diakonieverband GmbH", "phone": "+49 6171 2040", "website": "https://www.hohemark.de", "wikidata": "Q1774563", "wikimedia_commons": "Category:Klinik Hohemark", "wikipedia": "de:Klinik Hohe Mark"}}, {"name": "Migräne- und Kopfschmerzklinik", "latitude": 50.1865419, "longitude": 8.4561164, "source": "osm", "_tags": {"addr:city": "Königstein im Taunus", "addr:housenumber": "31", "addr:postcode": "61462", "addr:street": "Ölmühlweg", "alt_name": "Migräneklinik Königstein", "amenity": "hospital", "building": "hospital", "emergency": "no", "healthcare": "hospital", "loc_name": "Klinik Dr. Brand", "name": "Migräne- und Kopfschmerzklinik", "operator": "Migräne- und Kopfschmerzklinik GmbH & Co. KG", "website": "https://www.migraene-klinik.de/", "wikidata": "Q30270084"}}, {"name": "Stadtklinik Frankenthal", "latitude": 49.5427524, "longitude": 8.3311728, "source": "osm", "_tags": {"amenity": "hospital", "contact:email": "mail@skh-ft.de", "contact:fax": "+49 6233 771-2005", "contact:phone": "+49 6233 7711", "contact:website": "http://skh-ft.de", "healthcare": "hospital", "name": "Stadtklinik Frankenthal"}}, {"name": "Sankt-Josefs-Hospital", "latitude": 50.0764411, "longitude": 8.2544536, "source": "osm", "_tags": {"addr:city": "Wiesbaden", "addr:housenumber": "20", "addr:postcode": "65189", "addr:street": "Beethovenstraße", "amenity": "hospital", "email": "info@joho.de", "emergency": "yes", "fax": "+49 611 177-1185", "healthcare": "hospital", "name": "Sankt-Josefs-Hospital", "phone": "+49 611 177-0", "short_name": "JoHo", "toilets:wheelchair": "yes", "website": "https://www.joho.de/", "wheelchair": "yes", "wikidata": "Q2319647", "wikimedia_commons": "Category:St. Josefs-Hospital Wiesbaden", "wikipedia": "de:St. Josefs-Hospital Wiesbaden"}}, {"name": "Krankenhaus Zum Guten Hirten", "latitude": 49.4878476, "longitude": 8.3847325, "source": "osm", "_tags": {"addr:city": "Ludwigshafen am Rhein", "addr:housenumber": "7", "addr:postcode": "67071", "addr:street": "Semmelweisstraße", "building": "hospital", "emergency": "yes", "healthcare": "hospital", "name": "Krankenhaus Zum Guten Hirten", "operator": "Krankenhaus-Stiftung der Niederbronner Schwestern", "roof:shape": "flat", "website": "https://www.guterhirte-ludwigshafen.de/"}}, {"name": "Eleonoren-Klinik", "latitude": 49.7181004, "longitude": 8.7784961, "source": "osm", "_tags": {"addr:city": "Lindenfels", "addr:country": "DE", "addr:housenumber": "6", "addr:postcode": "64678", "addr:street": "Am Kaiserturm", "addr:suburb": "Winterkasten", "alt_name": "Eleonorenklinik", "amenity": "hospital", "fax": "+49-6255-2599", "healthcare": "hospital", "name": "Eleonoren-Klinik", "operator": "Deutsche Rentenversicherung Hessen", "phone": "+49-6255-3020", "website": "https://www.eleonoren-klinik.de"}}, {"name": "St. Annastiftskrankenhaus", "latitude": 49.4633362, "longitude": 8.4310204, "source": "osm", "_tags": {"addr:city": "Ludwigshafen am Rhein", "addr:country": "DE", "addr:housenumber": "51", "addr:postcode": "67065", "addr:street": "Karolina-Burger-Straße", "addr:suburb": "Mundenheim", "amenity": "hospital", "building": "hospital", "contact:email": "info@st-marienkrankenhaus.de", "contact:phone": "+49 621 57020", "contact:website": "http://st-marienkrankenhaus.de", "healthcare": "hospital", "name": "St. Annastiftskrankenhaus", "wheelchair": "yes", "wikidata": "Q14944575", "wikimedia_commons": "Category:Marienkrankenhaus Ludwigshafen", "wikipedia": "de:St. Annastift"}}, {"name": "St. Vincenz-Krankenhaus Limburg", "latitude": 50.3880646, "longitude": 8.0513579, "source": "osm", "_tags": {"amenity": "hospital", "emergency": "yes", "healthcare": "hospital", "name": "St. Vincenz-Krankenhaus Limburg", "opening_hours": "24/7", "toilets:wheelchair": "yes", "wheelchair": "yes", "wikidata": "Q23787976"}}, {"name": "Bürgerhospital Friedberg", "latitude": 50.3348255, "longitude": 8.7513713, "source": "osm", "_tags": {"addr:city": "Friedberg (Hessen)", "addr:country": "DE", "addr:housenumber": "3-5", "addr:postcode": "61169", "addr:street": "Ockstädter Straße", "amenity": "hospital", "check_date": "2025-08-28", "emergency": "yes", "healthcare": "hospital", "name": "Bürgerhospital Friedberg", "operator": "Gesundheitszentrum Wetterau gGmbH", "toilets:wheelchair": "yes", "website": "https://www.gz-w.de", "wheelchair": "yes"}}, {"name": "Hochtaunus-Kliniken Usingen", "latitude": 50.3431342, "longitude": 8.5306968, "source": "osm", "_tags": {"addr:city": "Usingen", "addr:housenumber": "48", "addr:postcode": "61250", "addr:street": "Weilburger Straße", "amenity": "hospital", "email": "info@hochtaunus-kliniken.de", "emergency": "yes", "fax": "+49 6081 107-1001", "healthcare": "hospital", "name": "Hochtaunus-Kliniken Usingen", "phone": "+49 6081 107-0", "website": "https://www.hochtaunus-kliniken.de/das-unternehmen/standorte/usingen/", "wheelchair": "yes"}}, {"name": "Klinikum Darmstadt", "latitude": 49.8744006, "longitude": 8.6461346, "source": "osm", "_tags": {"amenity": "hospital", "emergency": "yes", "healthcare": "hospital", "name": "Klinikum Darmstadt", "phone": "+49 6151 1070", "website": "https://klinikum-darmstadt.de/", "wheelchair": "yes", "wikidata": "Q1774604", "wikipedia": "de:Klinikum Darmstadt"}}, {"name": "Evangelisches Krankenhaus Elisabethenstift", "latitude": 49.8739035, "longitude": 8.6652057, "source": "osm", "_tags": {"addr:city": "Darmstadt", "addr:country": "DE", "addr:housenumber": "100", "addr:postcode": "64287", "addr:street": "Landgraf-Georg-Straße", "amenity": "hospital", "healthcare": "hospital", "name": "Evangelisches Krankenhaus Elisabethenstift", "wheelchair": "yes"}}, {"name": "Alice-Hospital", "latitude": 49.8772963, "longitude": 8.6650005, "source": "osm", "_tags": {"addr:city": "Darmstadt", "addr:country": "DE", "addr:housenumber": "31", "addr:postcode": "64287", "addr:street": "Dieburger Straße", "addr:suburb": "Darmstadt-Nord", "amenity": "hospital", "healthcare": "hospital", "name": "Alice-Hospital", "name:etymology": "Alice von Großbritannien und Irland", "name:etymology:wikidata": "Q155566", "name:etymology:wikipedia": "de:Alice_von_Gro%C3%9Fbritannien_und_Irland", "wheelchair": "limited", "wikidata": "Q2646821", "wikipedia": "de:Alice-Hospital_Darmstadt"}}, {"name": "Theresien-Krankenhaus", "latitude": 49.4896396, "longitude": 8.4820619, "source": "osm", "_tags": {"amenity": "hospital", "emergency": "yes", "healthcare": "hospital", "name": "Theresien-Krankenhaus", "toilets:wheelchair": "yes", "website": "https://www.theresienkrankenhaus.de/", "wheelchair": "yes", "wikidata": "Q1669425", "wikimedia_commons": "Category:Theresienkrankenhaus (Mannheim)", "wikipedia": "de:Theresienkrankenhaus und St. Hedwig-Klinik Mannheim"}}, {"name": "Diakoniekrankenhaus Mannheim", "latitude": 49.4639218, "longitude": 8.4708953, "source": "osm", "_tags": {"addr:city": "Mannheim", "addr:country": "DE", "addr:housenumber": "91-93", "addr:postcode": "68163", "addr:street": "Speyerer Straße", "amenity": "hospital", "emergency": "yes", "healthcare": "hospital", "name": "Diakoniekrankenhaus Mannheim", "old_name": "Diakonissenkrankenhaus", "opening_hours": "24/7", "phone": "+49 621 81020", "website": "http://www.diako-mannheim.de/", "wheelchair": "yes", "wikidata": "Q1208291", "wikimedia_commons": "Category:Diakonissenkrankenhaus Mannheim", "wikipedia": "de:Diakoniekrankenhaus Mannheim"}}, {"name": "Varisano Klinikum Frankfurt Höchst", "latitude": 50.1085926, "longitude": 8.5464632, "source": "osm", "_tags": {"addr:city": "Frankfurt am Main", "addr:housenumber": "6-8", "addr:postcode": "65929", "addr:street": "Gotenstraße", "amenity": "hospital", "contact:email": "info-frankfurt@varisano.de", "contact:fax": "+49 69 31063030", "contact:phone": "+49 69 31060", "contact:website": "https://www.varisano.de/klinikum-frankfurt-hoechst", "emergency": "yes", "healthcare": "hospital", "name": "Varisano Klinikum Frankfurt Höchst", "toilets:wheelchair": "yes", "wheelchair": "yes", "wikidata": "Q1774612", "wikimedia_commons": "Category:Klinikum Frankfurt Höchst", "wikipedia": "de:Klinikum Frankfurt Höchst"}}, {"name": "Klinikum Worms", "latitude": 49.6493428, "longitude": 8.3197991, "source": "osm", "_tags": {"amenity": "hospital", "check_date": "2023-10-13", "emergency": "yes", "healthcare": "hospital", "name": "Klinikum Worms", "wheelchair": "yes", "wikidata": "Q919201"}}, {"name": "DKD HELIOS Klinik Wiesbaden", "latitude": 50.0866424, "longitude": 8.2699327, "source": "osm", "_tags": {"addr:city": "Wiesbaden", "addr:country": "DE", "addr:housenumber": "33", "addr:postcode": "65191", "addr:street": "Aukammallee", "amenity": "hospital", "email": "gf@dkd-wiesbaden.de", "fax": "+49 611 577-577", "healthcare": "hospital", "name": "DKD HELIOS Klinik Wiesbaden", "official_name": "DKD Helios Klinik", "operator": "Helios Kliniken", "operator:type": "private", "operator:wikidata": "Q1254151", "phone": "+49 611 577-0", "short_name": "DKD", "toilets:wheelchair": "yes", "website": "https://www.helios-gesundheit.de/kliniken/wiesbaden-dkd/", "wheelchair": "yes", "wikidata": "Q1203231", "wikipedia": "de:Deutsche_Klinik_für_Diagnostik"}}, {"name": "Klinikum Hanau", "latitude": 50.1334486, "longitude": 8.9237507, "source": "osm", "_tags": {"addr:city": "Hanau", "addr:housenumber": "20", "addr:postcode": "63450", "addr:street": "Leimenstraße", "amenity": "hospital", "emergency": "yes", "healthcare": "hospital", "name": "Klinikum Hanau", "phone": "+49 6181 2960", "toilets:wheelchair": "yes", "website": "https://www.klinikum-hanau.de/", "wheelchair": "yes", "wikidata": "Q27890135", "wikipedia": "de:Klinikum Hanau"}}, {"name": "GRN-Klinik Weinheim", "latitude": 49.5499419, "longitude": 8.6446953, "source": "osm", "_tags": {"addr:city": "Weinheim", "addr:country": "DE", "addr:housenumber": "1", "addr:postcode": "69469", "addr:street": "Röntgenstraße", "amenity": "hospital", "healthcare": "hospital", "name": "GRN-Klinik Weinheim", "operator": "Gesundheitszentren Rhein-Neckar", "operator:short": "GRN", "operator:wikidata": "Q48754458", "wheelchair": "yes"}}, {"name": "GRN-Klinik Weinheim", "latitude": 49.5496706, "longitude": 8.644652, "source": "osm", "_tags": {"addr:city": "Weinheim", "addr:country": "DE", "addr:housenumber": "1", "addr:postcode": "69469", "addr:street": "Röntgenstraße", "amenity": "hospital", "email": "klinik-weinheim@grn.de", "fax": "+49 6201 17032", "healthcare": "hospital", "name": "GRN-Klinik Weinheim", "operator": "Gesundheitszentren Rhein-Neckar", "operator:short": "GRN", "operator:wikidata": "Q48754458", "operator:wikipedia": "de:Gesundheitszentren Rhein-Neckar", "phone": "+49 6201 890", "website": "https://www.grn.de/klinik-weinheim", "wheelchair": "yes", "wikidata": "Q41762262", "wikipedia": "de:GRN-Klinik Weinheim"}}, {"name": "Kreiskrankenhaus Alzey", "latitude": 49.746157, "longitude": 8.1037983, "source": "osm", "_tags": {"amenity": "hospital", "contact:email": "empfang@drk-kh-alzey.de", "contact:fax": "+49 6731 407 210", "contact:phone": "+49 6731 407 0", "contact:website": "http://drk-kh-alzey.de", "emergency": "yes", "fixme": "neue Kontaktdaten etc. sobald Transition wirklich abgeschlossen", "healthcare": "hospital", "name": "Kreiskrankenhaus Alzey", "opening_hours": "24/7", "operator": "Landkreis Alzey-Worms", "wheelchair": "yes"}}, {"name": "St. Vinzenz Krankenhaus", "latitude": 50.1351427, "longitude": 8.9122132, "source": "osm", "_tags": {"addr:city": "Hanau", "addr:housenumber": "25", "addr:postcode": "63450", "addr:street": "Am Frankfurter Tor", "amenity": "hospital", "emergency": "yes", "healthcare": "hospital", "name": "St. Vinzenz Krankenhaus", "phone": "+49 6181 2720", "website": "https://www.vinzenz-hanau.de/", "wheelchair": "yes", "wikidata": "Q37833463", "wikipedia": "de:St. Vinzenz-Krankenhaus Hanau"}}, {"name": "ZI-Klinik für abhängiges Verhalten", "latitude": 49.4933637, "longitude": 8.4687833, "source": "osm", "_tags": {"addr:city": "Mannheim", "addr:country": "DE", "addr:housenumber": "13", "addr:place": "K3", "addr:postcode": "68159", "amenity": "hospital", "building": "yes", "healthcare": "hospital", "name": "ZI-Klinik für abhängiges Verhalten"}}, {"name": "St. Josef Krankenhaus", "latitude": 50.1839526, "longitude": 8.4622414, "source": "osm", "_tags": {"addr:city": "Königstein im Taunus", "addr:country": "DE", "addr:housenumber": "7", "addr:postcode": "61462", "addr:street": "Woogtalstraße", "alt_name": "Sankt-Josef-Krankenhaus", "amenity": "hospital", "building": "hospital", "emergency": "no", "healthcare": "hospital", "loc_name": "St.-Josefs-Krankenhaus", "name": "St. Josef Krankenhaus", "phone": "+49 6174 2080", "short_name": "St. Josef", "website": "https://www.hochtaunus-kliniken.de/die-hochtaunus-kliniken/standorte/koenigstein", "wheelchair": "yes"}}, {"name": "Augenklinik-Ambulanz", "latitude": 49.4928247, "longitude": 8.4868394, "source": "osm", "_tags": {"amenity": "hospital", "fixme": "Part of UMM, currently no better tagging established", "healthcare": "hospital", "healthcare:speciality": "ophthalmology", "hospital": "department", "name": "Augenklinik-Ambulanz", "wheelchair": "yes"}}, {"name": "Frauenklinik/Ambulanz", "latitude": 49.4930842, "longitude": 8.4872919, "source": "osm", "_tags": {"amenity": "hospital", "fixme": "Part of UMM, currently no better tagging established", "healthcare": "hospital", "healthcare:speciality": "gynaecology", "hospital": "department", "name": "Frauenklinik/Ambulanz", "wheelchair": "yes"}}, {"name": "Frauenklinik/Kreißsaal", "latitude": 49.4933639, "longitude": 8.4863375, "source": "osm", "_tags": {"amenity": "hospital", "fixme": "Part of UMM, currently no better tagging established", "healthcare": "hospital", "healthcare:speciality": "obstetrics", "hospital": "department", "name": "Frauenklinik/Kreißsaal", "wheelchair": "yes"}}, {"name": "HNO-Ambulanz", "latitude": 49.4929782, "longitude": 8.4863189, "source": "osm", "_tags": {"amenity": "hospital", "fixme": "Part of UMM, currently no better tagging established", "healthcare": "hospital", "healthcare:speciality": "otolaryngology", "hospital": "department", "name": "HNO-Ambulanz", "wheelchair": "limited"}}, {"name": "Dr. Horst Schmidt Kliniken", "latitude": 50.0651776, "longitude": 8.1917428, "source": "osm", "_tags": {"addr:city": "Wiesbaden", "addr:housenumber": "90", "addr:postcode": "65199", "addr:street": "Ludwig-Erhard-Straße", "amenity": "hospital", "contact:email": "info@helios-gesundheit.de", "contact:fax": "+49 611 43-2952", "contact:phone": "+49 611 43-0", "contact:website": "https://www.helios-gesundheit.de/kliniken/wiesbaden-hsk/", "emergency": "yes", "healthcare": "hospital", "name": "Dr. Horst Schmidt Kliniken", "official_name": "Helios Dr. Horst Schmidt Kliniken Wiesbaden", "opening_hours": "24/7", "operator": "Helios Kliniken", "operator:type": "private", "operator:wikidata": "Q1254151", "operator:wikipedia": "de:Helios Kliniken", "short_name": "HSK Wiesbaden", "toilets:wheelchair": "yes", "wheelchair": "yes", "wikidata": "Q1253768", "wikimedia_commons": "Category:Dr. Horst-Schmidt-Kliniken", "wikipedia": "de:Helios Dr. Horst Schmidt Kliniken Wiesbaden"}}, {"name": "Hospital zum Heiligen Geist", "latitude": 50.1103289, "longitude": 8.6928758, "source": "osm", "_tags": {"addr:city": "Frankfurt am Main", "addr:country": "DE", "addr:housenumber": "4 - 6", "addr:postcode": "60311", "addr:street": "Lange Straße", "amenity": "hospital", "contact:email": "info@hohg.de", "contact:fax": "+49 69 21962261", "contact:phone": "+49 69 21960", "contact:website": "https://www.hospital-zum-heiligen-geist.de/", "emergency": "yes", "healthcare": "hospital", "name": "Hospital zum Heiligen Geist", "toilets:wheelchair": "yes", "wheelchair": "yes", "wikidata": "Q1630455", "wikimedia_commons": "Category:Hospital zum heiligen Geist (Frankfurt am Main)"}}, {"name": "Asklepios Neurologische Klinik Falkenstein", "latitude": 50.1912349, "longitude": 8.4831095, "source": "osm", "_tags": {"addr:city": "Königstein im Taunus", "addr:country": "DE", "addr:housenumber": "15", "addr:postcode": "61462", "addr:street": "Asklepiosweg", "addr:suburb": "Falkenstein", "amenity": "hospital", "building": "hospital", "emergency": "no", "healthcare": "hospital", "loc_name": "Asklepiosklinik", "name": "Asklepios Neurologische Klinik Falkenstein", "operator": "Asklepios Kliniken", "operator:type": "private", "operator:wikidata": "Q732068", "operator:wikipedia": "de:Asklepios Kliniken", "website": "https://www.asklepios.com/falkenstein/", "wheelchair": "yes", "wikidata": "Q50038537"}}, {"name": "Krankenhaus Sachsenhausen", "latitude": 50.1063183, "longitude": 8.6836318, "source": "osm", "_tags": {"addr:city": "Frankfurt am Main", "addr:housenumber": "31", "addr:postcode": "60594", "addr:street": "Schulstraße", "amenity": "hospital", "check_date": "2025-03-06", "contact:email": "info@khs-ffm.de", "contact:fax": "+49 69 66051769", "contact:phone": "+49 69 66050", "contact:website": "https://www.krankenhaus-sachsenhausen.de/", "emergency": "yes", "healthcare": "hospital", "name": "Krankenhaus Sachsenhausen", "wheelchair": "limited", "wikidata": "Q59536503"}}, {"name": "Westpfalz-Klinikum Standort Kirchheimbolanden", "latitude": 49.6588375, "longitude": 8.0076943, "source": "osm", "_tags": {"alt_name": "Westpfalz-Klinikum Kirchheimbolanden", "amenity": "hospital", "contact:email": "info@westpfalz-klinikum.de", "contact:fax": "+49 6352 405-228", "contact:phone": "+49 6352 4050", "contact:website": "http://westpfalz-klinikum.de", "emergency": "yes", "healthcare": "hospital", "name": "Westpfalz-Klinikum Standort Kirchheimbolanden", "opening_hours": "24/7", "operator": "Westpfalz-Klinikum GmbH", "wheelchair": "yes"}}, {"name": "Salus Klinik", "latitude": 50.3471215, "longitude": 8.7736648, "source": "osm", "_tags": {"addr:city": "Friedberg (Hessen)", "addr:country": "DE", "addr:housenumber": "3", "addr:postcode": "61169", "addr:street": "Warthfeldsiedlung", "amenity": "hospital", "name": "Salus Klinik"}}, {"name": "Zentralinstitut für Seelische Gesundheit", "latitude": 49.4922133, "longitude": 8.4658312, "source": "osm", "_tags": {"amenity": "hospital", "check_date": "2024-06-10", "contact:website": "http://www.zi-mannheim.de/", "healthcare": "hospital", "name": "Zentralinstitut für Seelische Gesundheit", "short_name": "ZI", "toilets:wheelchair": "yes", "wheelchair": "yes", "wikidata": "Q190621", "wikimedia_commons": "Category:Zentralinstitut für Seelische Gesundheit (Mannheim)", "wikipedia": "de:Zentralinstitut für Seelische Gesundheit"}}, {"name": "Kreiskrankenhaus Grünstadt", "latitude": 49.5637826, "longitude": 8.1578416, "source": "osm", "_tags": {"amenity": "hospital", "emergency": "yes", "healthcare": "hospital", "name": "Kreiskrankenhaus Grünstadt", "phone": "+49 6359 8090", "toilets:wheelchair": "yes", "website": "https://www.krankenhausgruenstadt.de/", "wheelchair": "yes", "wheelchair:description": "nach Barrierefreiheit der Zimmer fragen"}}, {"name": "Markus-Krankenhaus", "latitude": 50.1356201, "longitude": 8.6474351, "source": "osm", "_tags": {"addr:city": "Frankfurt am Main", "addr:housenumber": "1", "addr:postcode": "60431", "addr:street": "Wilhelm-Epstein-Straße", "amenity": "hospital", "contact:email": "markus@fdk.info", "contact:fax": "+49 69 95332680", "contact:phone": "+49 69 95330", "contact:website": "https://www.markus-krankenhaus.de/", "healthcare": "hospital", "name": "Markus-Krankenhaus", "toilets:wheelchair": "yes", "wheelchair": "yes", "wikidata": "Q63425725", "wikimedia_commons": "Category:St. Markus Krankenhaus Frankfurt"}}, {"name": "BG Klinik Ludwigshafen", "latitude": 49.4856133, "longitude": 8.3886978, "source": "osm", "_tags": {"addr:city": "Ludwigshafen am Rhein", "addr:housenumber": "13", "addr:postcode": "67071", "addr:street": "Ludwig-Guttmann-Straße", "alt_name": "Berufsgenossenschaftliche Unfallklinik Ludwigshafen", "building": "hospital", "emergency": "yes", "healthcare": "hospital", "name": "BG Klinik Ludwigshafen", "operator": "BG Kliniken Ludwigshafen und Tübingen gGmbH", "short_name": "BGU Ludwigshafen", "website": "https://www.bg-kliniken.de/klinik-ludwigshafen/", "wikidata": "Q828950", "wikipedia": "de:Berufsgenossenschaftliche Unfallklinik Ludwigshafen"}}, {"name": "Hochwaldkrankenhaus", "latitude": 50.3571013, "longitude": 8.7296614, "source": "osm", "_tags": {"addr:city": "Bad Nauheim", "addr:country": "DE", "addr:housenumber": "1", "addr:postcode": "61231", "addr:street": "Chaumontplatz", "amenity": "hospital", "building": "hospital", "email": "info@gz-wetterau.de", "emergency": "yes", "name": "Hochwaldkrankenhaus", "operator": "Gesundheitszentrum Wetterau gGmbH", "phone": "+49 6032 7020", "website": "https://www.gesundheitszentrum-wetterau.de"}}, {"name": "Kreisklinik Groß-Gerau", "latitude": 49.9130732, "longitude": 8.4750413, "source": "osm", "_tags": {"addr:city": "Groß-Gerau", "addr:housenumber": "3", "addr:postcode": "64521", "addr:street": "Wilhelm-Seipp-Straße", "amenity": "hospital", "email": "info@kreisklinik-gg.de", "emergency": "yes", "healthcare": "hospital", "name": "Kreisklinik Groß-Gerau", "opening_hours": "24/7", "operator": "Kreisklinik Groß-Gerau GmbH", "phone": "+49 6152 986-0", "website": "https://www.kreisklinik-gg.de", "wheelchair": "yes"}}, {"name": "Haus Burgwald", "latitude": 49.8070783, "longitude": 8.6807764, "source": "osm", "_tags": {"addr:city": "Mühltal", "addr:housenumber": "3", "addr:postcode": "64367", "addr:street": "In der Mordach", "amenity": "hospital", "check_date": "2025-08-17", "name": "Haus Burgwald"}}, {"name": "Zentralinstitut für Seelische Gesundheit", "latitude": 49.4928932, "longitude": 8.4680637, "source": "osm", "_tags": {"addr:postcode": "68159", "amenity": "hospital", "contact:facebook": "zi.mannheim.j5", "contact:instagram": "zi_mannheim", "contact:twitter": "zi_mannheim", "email": "zentralambulanz@zi-mannheim.de", "emergency": "no", "healthcare": "hospital", "name": "Zentralinstitut für Seelische Gesundheit", "opening_hours": "Mo-Su 08:30-17:00", "phone": "+49 621 17032850", "website": "https://www.zi-mannheim.de/index.html"}}, {"name": "", "latitude": 49.9986243, "longitude": 8.6843201, "source": "osm", "_tags": {"addr:city": "Langen (Hessen)", "addr:country": "DE", "addr:housenumber": "20", "addr:postcode": "63225", "addr:street": "Röntgenstraße", "building": "hospital", "emergency": "yes", "healthcare": "hospital"}}, {"name": "Marienhaus Klinikum Mainz", "latitude": 49.9892976, "longitude": 8.2707191, "source": "osm", "_tags": {"alt_name": "KKM", "amenity": "hospital", "emergency": "yes", "healthcare": "hospital", "healthcare:speciality": "clinic;general;internal", "loc_name": "Vincenzkrankenhaus", "name": "Marienhaus Klinikum Mainz", "old_name": "Katholisches Klinikum Mainz", "operator": "Marienhaus", "operator:wikidata": "Q20828783", "operator:wikipedia": "de:Marienhaus", "phone": "+49 6131 5751199", "short_name": "MKM", "website": "https://www.kkm-mainz.de/", "wheelchair": "yes", "wikidata": "Q1383922", "wikimedia_commons": "Category:Katholisches Klinikum Mainz"}}, {"name": "BG Klinik Ludwigshafen", "latitude": 49.4854583, "longitude": 8.388468, "source": "osm", "_tags": {"amenity": "hospital", "check_date": "2025-01-29", "healthcare": "hospital", "name": "BG Klinik Ludwigshafen", "website": "https://www.bg-kliniken.de/klinik-ludwigshafen/"}}, {"name": "Gebäude A & B - Intensivstation / Innere Medizin / Urologie / Neurologie / Chirurgie / Neurochirurgie", "latitude": 50.1357605, "longitude": 8.7106306, "source": "osm", "_tags": {"addr:housenumber": "65", "addr:street": "Seckbacher Landstraße", "building": "hospital", "check_date": "2024-12-29", "healthcare": "hospital", "healthcare:speciality": "intensive;internal;urulogy;neurology;surgery;neurosurgery", "name": "Gebäude A & B - Intensivstation / Innere Medizin / Urologie / Neurologie / Chirurgie / Neurochirurgie"}}, {"name": "Otto-Fricke-Krankenhaus", "latitude": 50.1348635, "longitude": 8.0604845, "source": "osm", "_tags": {"addr:city": "Bad Schwalbach", "addr:housenumber": "34", "addr:postcode": "65307", "addr:street": "Martha-von-Opel-Weg", "amenity": "hospital", "emergency": "no", "healthcare": "hospital", "healthcare:speciality": "orthopaedics;geriatrics", "name": "Otto-Fricke-Krankenhaus", "operator": "Otto-Fricke-Krankenhaus Paulinenberg GmbH"}}, {"name": "Evangelisches Krankenhaus Bad Dürkheim", "latitude": 49.4665575, "longitude": 8.1791839, "source": "osm", "_tags": {"alt_name": "Ev. Krankenhaus der Inneren Mission Bad Dürkheim", "amenity": "hospital", "email": "krankenhaus-duew@diakonissen.de", "emergency": "yes", "healthcare": "hospital", "name": "Evangelisches Krankenhaus Bad Dürkheim", "phone": "+49 6322 6070", "website": "https://www.diakonissen.de/"}}, {"name": "Clementine Kinderhospital", "latitude": 50.1144038, "longitude": 8.6983053, "source": "osm", "_tags": {"addr:city": "Frankfurt am Main", "addr:housenumber": "16", "addr:postcode": "60316", "addr:street": "Theobald-Christ-Straße", "amenity": "hospital", "contact:email": "info@buergerhospital-ffm.de", "contact:fax": "+49 69 94992109", "contact:phone": "+49 69 949920", "contact:website": "https://www.clementine-kinderhospital.de", "emergency": "yes", "healthcare": "hospital", "healthcare:speciality": "nephrology;endocrinology;paediatrics;neurology;pulmonology;allergology;child_psychiatry;rheumatology", "name": "Clementine Kinderhospital", "operator": "Bürgerhospital und Clementine Kinder­hospital gGmbH", "wikidata": "Q88799591", "wikipedia": "de:Clementine Kinderhospital"}}, {"name": "Vitos Klinik für Psychiatrie, Psychotherapie und Psychosomatik Bad Homburg", "latitude": 50.211993, "longitude": 8.6210601, "source": "osm", "_tags": {"addr:housenumber": "38", "addr:postcode": "61352", "addr:street": "Zeppelinstraße", "amenity": "hospital", "building": "hospital", "emergency": "no", "healthcare": "hospital", "healthcare:speciality": "psychiatry;psychotherapy;psychosomatics", "name": "Vitos Klinik für Psychiatrie, Psychotherapie und Psychosomatik Bad Homburg", "operator": "Vitos Hochtaunus gGmbH", "short_name": "KPP"}}, {"name": "Krankenhaus Hofheim", "latitude": 50.0904539, "longitude": 8.4456231, "source": "osm", "_tags": {"addr:city": "Hofheim am Taunus", "addr:housenumber": "10", "addr:postcode": "65719", "addr:street": "Lindenstraße", "alt_name": "Kliniken des Main-Taunus-Kreises", "amenity": "hospital", "email": "kontakt@kliniken-mtk.de", "emergency": "yes", "fax": "+49 6192 98-4001", "healthcare": "hospital", "name": "Krankenhaus Hofheim", "opening_hours": "24/7", "operator": "Kliniken des Main-Taunus-Kreises GmbH", "phone": "+49 6192 98-0", "website": "https://www.kliniken-mtk.de", "wheelchair": "yes", "wikipedia": "de:Kliniken des Main-Taunus-Kreises"}}, {"name": "Salem", "latitude": 49.4233961, "longitude": 8.6837684, "source": "osm", "_tags": {"addr:city": "Heidelberg", "addr:country": "DE", "addr:housenumber": "33", "addr:postcode": "69121", "addr:street": "Zeppelinstraße", "amenity": "hospital", "beds": "238", "check_date": "2024-04-02", "contact:phone": "+49 6221 4830", "healthcare": "hospital", "name": "Salem", "name:etymology:wikidata": "Q4377375", "operator": "Evangelische Stadtmission Heidelberg gGmb", "roof:colour": "#b6ae9f", "website": "https://www.krankenhaus-salem.de", "wheelchair": "yes"}}, {"name": "Schön Klinik Lorsch", "latitude": 49.6522034, "longitude": 8.5627027, "source": "osm", "_tags": {"addr:city": "Lorsch", "addr:country": "DE", "addr:housenumber": "10", "addr:postcode": "64653", "addr:street": "Wilhelm-Leuschner-Straße", "amenity": "hospital", "beds": "100", "emergency": "yes", "healthcare": "hospital", "healthcare:speciality": "intensive;orthopaedics;emergency", "name": "Schön Klinik Lorsch", "operator": "Schön Klinik", "operator:type": "private", "operator:wikidata": "Q2258661", "phone": "+49 6251 591360", "start_date": "1987", "website": "https://www.schoen-klinik.de/lorsch"}}, {"name": "Klinik Schloss Falkenhof", "latitude": 49.6844917, "longitude": 8.640267, "source": "osm", "_tags": {"addr:city": "Bensheim", "addr:country": "DE", "addr:housenumber": "109", "addr:postcode": "64625", "addr:street": "Nibelungenstraße", "amenity": "hospital", "healthcare": "hospital", "name": "Klinik Schloss Falkenhof", "operator": "Caritasverband Darmstadt e.V.", "source": "Bing Sat", "website": "https://www.klinik-falkenhof.de/", "wheelchair": "limited"}}, {"name": "Spezialklinik Jugenheim", "latitude": 49.7530208, "longitude": 8.6378695, "source": "osm", "_tags": {"addr:city": "Seeheim-Jugenheim", "addr:country": "DE", "addr:housenumber": "30", "addr:postcode": "64342", "addr:street": "Hauptstraße", "amenity": "hospital", "healthcare": "hospital", "name": "Spezialklinik Jugenheim", "old_name": "Kreisklinik Jugenheim", "phone": "+49 6257 508 0", "toilets:wheelchair": "yes", "wheelchair": "yes"}}, {"name": "St. Vincenz-Krankenhaus", "latitude": 50.3747199, "longitude": 8.0089032, "source": "osm", "_tags": {"amenity": "hospital", "email": "info@st-vincenz.de", "emergency": "yes", "fax": "+49 6432 506-2080", "healthcare": "hospital", "name": "St. Vincenz-Krankenhaus", "opening_hours": "24/7", "operator": "Krankenhausgesellschaft St. Vincenz mbH", "phone": "+49 6432 506-0", "website": "https://www.vincenz-diez.de/", "wheelchair": "yes"}}, {"name": "Klinik Dr. Frühauf", "latitude": 50.0911777, "longitude": 8.7889198, "source": "osm", "_tags": {"addr:city": "Offenbach am Main", "addr:housenumber": "83", "addr:postcode": "63071", "addr:street": "Scheffelstraße", "amenity": "hospital", "emergency": "no", "healthcare": "hospital", "healthcare:speciality": "internal;cardiology", "name": "Klinik Dr. Frühauf", "operator:type": "private", "phone": "+49 69 850010", "website": "https://klinik-dr-fruehauf.de/"}}, {"name": "Kreiskrankenhaus Heppenheim", "latitude": 49.6290401, "longitude": 8.6252102, "source": "osm", "_tags": {"amenity": "hospital", "emergency": "yes", "healthcare": "hospital", "name": "Kreiskrankenhaus Heppenheim"}}, {"name": "Paul-Ehrlich-Klinik", "latitude": 50.2302341, "longitude": 8.618701, "source": "osm", "_tags": {"addr:city": "Bad Homburg v.d. Höhe", "addr:housenumber": "2-8", "addr:postcode": "61348", "addr:street": "Landgrafenstraße", "amenity": "hospital", "check_date": "2024-08-16", "emergency": "no", "healthcare": "hospital", "name": "Paul-Ehrlich-Klinik", "operator": "Deutsche Rentenversicherung Knappschaft-Bahn-See", "phone": "+49 6172 1280"}}, {"name": "St. Marien Krankenhaus Lampertheim", "latitude": 49.597042, "longitude": 8.4673311, "source": "osm", "_tags": {"amenity": "hospital", "contact:website": "https://www.stmarienkrankenhaus.de/", "emergency": "yes", "healthcare": "hospital", "healthcare:speciality": "geriatrics;internal", "name": "St. Marien Krankenhaus Lampertheim", "opening_hours": "24/7", "operator": "St. Marien Krankenhaus Lampertheim GmbH", "wheelchair": "yes"}}, {"name": "Kerckhoff Klinik", "latitude": 50.3697055, "longitude": 8.7425366, "source": "osm", "_tags": {"addr:city": "Bad Nauheim", "addr:country": "DE", "addr:housenumber": "2 - 8", "addr:postcode": "61231", "addr:street": "Benekestraße", "amenity": "hospital", "check_date": "2024-05-28", "contact:email": "info@kerckhoff-klinik.de", "contact:fax": "+49 60 32 9 96 23 99", "contact:phone": "+49 6032 99 60", "contact:website": "https://www.kerckhoff-klinik.de/", "name": "Kerckhoff Klinik", "wheelchair": "yes", "wikidata": "Q30282241"}}, {"name": "Elisabethen-Krankenhaus", "latitude": 50.1265675, "longitude": 8.6384716, "source": "osm", "_tags": {"addr:city": "Frankfurt am Main", "addr:housenumber": "3", "addr:postcode": "60487", "addr:street": "Ginnheimer Straße", "amenity": "hospital", "contact:email": "st-elisabethen@artemed.de", "contact:fax": "+49 69 79392392", "contact:phone": "+49 69 79390", "contact:website": "https://www.elisabethen-krankenhaus-frankfurt.de/de/", "healthcare": "hospital", "name": "Elisabethen-Krankenhaus", "toilets:wheelchair": "yes", "wheelchair": "yes"}}, {"name": "Klinik Königstein der KVB", "latitude": 50.1732169, "longitude": 8.4757407, "source": "osm", "_tags": {"addr:city": "Königstein im Taunus", "addr:housenumber": "43", "addr:postcode": "61462", "addr:street": "Sodener Straße", "alt_name": "KVB-Klinik", "amenity": "hospital", "description": "Fachklinik für Anschlußheilbehandlung und Rehabilitaion", "emergency": "no", "fax": "+49 6174 204509", "healthcare": "rehabilitation", "name": "Klinik Königstein der KVB", "operator": "Krankenversorgung der Bundesbahnbeamten", "phone": "+49 6174 2040", "short_name": "Klinik Königstein", "website": "https://www.kvb-klinik.de/", "wikidata": "Q1774569", "wikipedia": "de:Klinik Königstein der KVB"}}, {"name": "Hohenfeldklinik", "latitude": 50.2955876, "longitude": 8.2758202, "source": "osm", "_tags": {"addr:city": "Bad Camberg", "addr:country": "DE", "addr:housenumber": "12-14", "addr:postcode": "65520", "addr:street": "Hohenfeldstraße", "amenity": "hospital", "healthcare": "hospital", "name": "Hohenfeldklinik", "wheelchair": "yes"}}, {"name": "Krankenhaus Zum Guten Hirten", "latitude": 49.487739, "longitude": 8.3844303, "source": "osm", "_tags": {"amenity": "hospital", "healthcare": "hospital", "name": "Krankenhaus Zum Guten Hirten", "website": "https://www.guterhirte-ludwigshafen.de/", "wheelchair": "yes"}}, {"name": "Klinik Dr. Steib", "latitude": 50.1842678, "longitude": 8.4707716, "source": "osm", "_tags": {"amenity": "hospital", "check_date": "2025-04-06", "fax": "+49 6174 24473", "healthcare": "hospital", "name": "Klinik Dr. Steib", "phone": "+49 6174 93880", "website": "https://www.klinik-steib.de/"}}, {"name": "Fachklinik Katzenelnbogen", "latitude": 50.2686196, "longitude": 7.9812932, "source": "osm", "_tags": {"amenity": "hospital", "check_date": "2025-01-28", "name": "Fachklinik Katzenelnbogen", "phone": "+49 6486 91270", "website": "https://www.fachklinik-katzenelnbogen.de/"}}, {"name": "Reha-Zentrum Bad Homburg - Klinik Wingertsberg", "latitude": 50.2321216, "longitude": 8.6293692, "source": "osm", "_tags": {"amenity": "hospital", "healthcare": "hospital", "name": "Reha-Zentrum Bad Homburg - Klinik Wingertsberg", "operator": "Deutsche Rentenversicherung Bund", "phone": "+49 6172 1040", "website": "https://www.reha-klinik-wingertsberg.de/"}}, {"name": "Kreisklinik Groß-Umstadt", "latitude": 49.8673068, "longitude": 8.9359288, "source": "osm", "_tags": {"amenity": "hospital", "healthcare": "hospital", "name": "Kreisklinik Groß-Umstadt", "website": "https://www.kreiskliniken-darmstadt-dieburg.de", "wheelchair": "yes"}}, {"name": "St. Josef-Krankenhaus", "latitude": 49.5360445, "longitude": 8.5744712, "source": "osm", "_tags": {"amenity": "hospital", "contact:email": "krankenhaus@stj-kh-vhm.de", "contact:fax": "+49 6204 703-110", "contact:phone": "+49 6204 7030", "contact:website": "https://www.krankenhaus-viernheim.de", "description": "Belegarztkrankenhaus mit den Fachrichtungen -Chirurgie -Gynäkologie -Hals/ Nasen /Ohren -heilkunde -Innere Medizin -Mund-, Kiefer und Gesichtschirurgie -Anästhesie -Radiologie", "emergency": "yes", "healthcare": "hospital", "name": "St. Josef-Krankenhaus", "opening_hours": "24/7", "wheelchair": "yes"}}, {"name": "Heilig-Geist Hospital Bensheim", "latitude": 49.6784244, "longitude": 8.620266, "source": "osm", "_tags": {"amenity": "hospital", "email": "info@hgh-mail.de", "emergency": "yes", "healthcare": "hospital", "name": "Heilig-Geist Hospital Bensheim", "opening_hours": "24/7", "operator": "Katholischer Klinikverbund Südhessen gemeinnützige GmbH", "phone": "+49 6251 1320", "website": "https://www.hgh-bensheim.de/", "wheelchair": "yes"}}, {"name": "Helios Aukamm-Klinik Wiesbaden", "latitude": 50.091199, "longitude": 8.2654711, "source": "osm", "_tags": {"amenity": "hospital", "healthcare": "hospital", "name": "Helios Aukamm-Klinik Wiesbaden", "operator": "Helios Kliniken", "operator:wikidata": "Q1254151"}}, {"name": "Wolfgang-Winckler-Haus", "latitude": 50.1711903, "longitude": 8.3909403, "source": "osm", "_tags": {"amenity": "hospital", "fax": "+49 6198 574729", "healthcare": "rehabilitation", "name": "Wolfgang-Winckler-Haus", "note": "Entgiftung und medikamentöse Substitution für Suchtmittelabhängige. Außerdem Übergangswohneinrichtung", "phone": "+49 6198 574720", "website": "https://wwh-entgiftung.jj-ev.de/"}}, {"name": "Vitos Klinikum Bad Soden", "latitude": 50.1448654, "longitude": 8.5098354, "source": "osm", "_tags": {"amenity": "hospital", "emergency": "yes", "healthcare": "hospital", "healthcare:speciality": "psychiatry", "name": "Vitos Klinikum Bad Soden", "old_name": "St. Valentinus-Krankenhaus", "opening_hours": "24/7", "operator": "Vitos", "phone": "+49 6196 76620", "website": "https://www.vitos.de/gesellschaften/vitos-rhein-main/einrichtungen/vitos-klinikum-bad-soden/"}}, {"name": "Universitätsklinikum Frankfurt", "latitude": 50.0936814, "longitude": 8.6558742, "source": "osm", "_tags": {"addr:city": "Frankfurt am Main", "addr:country": "DE", "addr:housenumber": "7", "addr:postcode": "60596", "addr:street": "Theodor-Stern-Kai", "alt_name": "Uniklinik Frankfurt", "amenity": "hospital", "contact:email": "info@kgu.de", "contact:fax": "+49 69 63016301", "contact:phone": "+49 69 63010", "contact:website": "https://www.kgu.de/", "healthcare": "hospital", "name": "Universitätsklinikum Frankfurt", "old_name": "Klinikum Johann-Wolfgang Goethe Universität", "short_name": "KGU", "type": "multipolygon", "wheelchair": "yes", "wikidata": "Q2496384", "wikipedia": "de:Universitätsklinikum Frankfurt"}}, {"name": "Psychiatrisches Zentrum für den Rheingau-Taunus-Kreis und Wiesbaden", "latitude": 50.0388344, "longitude": 8.0599981, "source": "osm", "_tags": {"addr:city": "Eltville am Rhein", "addr:housenumber": "4", "addr:postcode": "65346", "addr:street": "Kloster-Eberbach-Straße", "alt_name": "Psychiatrisches Krankenhaus Eichberg", "amenity": "hospital", "healthcare": "hospital", "name": "Psychiatrisches Zentrum für den Rheingau-Taunus-Kreis und Wiesbaden", "operator": "Vitos Rheingau gGmbH", "type": "multipolygon", "website": "https://www.vitos.de/gesellschaften/vitos-rheingau/"}}, {"name": "Klinikum Worms", "latitude": 49.6493847, "longitude": 8.3197991, "source": "osm", "_tags": {"addr:city": "Worms", "addr:country": "DE", "addr:housename": "Klinikum Worms", "addr:housenumber": "81", "addr:postcode": "67550", "addr:street": "Gabriel-von-Seidl-Straße", "addr:suburb": "Herrnsheim", "amenity": "hospital", "contact:email": "info@klinikum-worms.de", "contact:phone": "+49 6241 501-0", "contact:website": "http://www.klinikum-worms.de/", "emergency": "yes", "name": "Klinikum Worms", "type": "site"}}, {"name": "Asklepios Klinik für Psychische Gesundheit", "latitude": 49.9979297, "longitude": 8.6838422, "source": "osm", "_tags": {"addr:city": "Langen (Hessen)", "addr:country": "DE", "addr:housenumber": "22", "addr:postcode": "63225", "addr:street": "Röntgenstraße", "amenity": "hospital", "building": "hospital", "building:levels": "4", "healthcare": "hospital", "healthcare:speciality": "psychiatry", "name": "Asklepios Klinik für Psychische Gesundheit", "operator": "Asklepios Kliniken", "operator:type": "private", "operator:wikidata": "Q732068", "roof:shape": "flat", "type": "multipolygon"}}, {"name": "Marienhospital", "latitude": 49.8530574, "longitude": 8.6623402, "source": "osm", "_tags": {"addr:city": "Darmstadt", "addr:country": "DE", "addr:housenumber": "72", "addr:postcode": "64285", "addr:street": "Martinspfad", "amenity": "hospital", "description": "Klinik für Psychosomatische Medizin und Psychotherapie –Standort Marienhospital", "healthcare": "hospital", "name": "Marienhospital", "name:de": "Marienhospital", "name:en": "Marien hospital", "opening_hours": "24/7", "operator": "Klinikum Darmstadt", "operator:type": "public", "phone": "+49 6151 107 4061", "type": "multipolygon", "website": "https://klinikum-darmstadt.de/medizin-pflege/klinik-fuer-psychosomatische-medizin-und-psychotherapie", "wikidata": "Q16854599"}}, {"name": "Hochtaunus-Kliniken Bad Homburg", "latitude": 50.2121188, "longitude": 8.6190349, "source": "osm", "_tags": {"addr:city": "Bad Homburg", "addr:housenumber": "20", "addr:postcode": "61352", "addr:street": "Zeppelinstraße", "amenity": "hospital", "building": "hospital", "emergency": "yes", "healthcare": "hospital", "name": "Hochtaunus-Kliniken Bad Homburg", "operator": "Hochtaunus-Kliniken gGmbH", "type": "multipolygon", "website": "https://www.hochtaunus-kliniken.de/", "wheelchair": "yes"}}, {"name": "Universitätsmedizin Mainz", "latitude": 49.9923335, "longitude": 8.2595793, "source": "osm", "_tags": {"amenity": "hospital", "contact:website": "http://www.unimedizin-mainz.de/", "emergency": "yes", "healthcare": "hospital", "name": "Universitätsmedizin Mainz", "official_name": "Universitätsmedizin der Johannes Gutenberg-Universität Mainz", "short_name": "Uni-Medizin Mainz", "type": "multipolygon", "wikidata": "Q748094", "wikipedia": "de:Universitätsmedizin der Johannes Gutenberg-Universität Mainz"}}, {"name": "Haus Jakobsberg", "latitude": 49.7400231, "longitude": 8.1291073, "source": "osm", "_tags": {"building": "hospital", "description": "Akut-Psychiatrie", "healthcare": "hospital", "healthcare:speciality": "psychiatry", "name": "Haus Jakobsberg", "type": "multipolygon"}}, {"name": "St. Marienkrankenhaus", "latitude": 49.4575866, "longitude": 8.4088909, "source": "osm", "_tags": {"amenity": "hospital", "email": "info@st-marienkrankenhaus.de", "emergency": "yes", "healthcare": "hospital", "name": "St. Marienkrankenhaus", "operator": "St. Dominikus Krankenhaus und Jugendhilfe gGmbH", "phone": "+49 621 5501-0", "type": "multipolygon", "website": "https://www.st-marienkrankenhaus.de/", "wheelchair": "yes"}}, {"name": "ehem. Waldkrankenhaus Köppern", "latitude": 50.2769116, "longitude": 8.6346064, "source": "osm", "_tags": {"addr:city": "Friedrichsdorf", "addr:housenumber": "1-3", "addr:postcode": "61381", "addr:street": "Emil-Sioli-Weg", "amenity": "hospital", "disused": "yes", "healthcare": "hospital", "name": "ehem. Waldkrankenhaus Köppern", "phone": "+49 6175 7911", "type": "multipolygon", "website": "https://www.vitos-hochtaunus.de/", "wheelchair": "yes", "wikidata": "Q1307540", "wikipedia": "de:Waldkrankenhaus Köppern"}}, {"name": "Klinik Rotes Kreuz", "latitude": 50.117144, "longitude": 8.697921, "source": "osm", "_tags": {"addr:city": "Frankfurt am Main", "addr:housenumber": "8-16", "addr:postcode": "60316", "addr:street": "Königswarterstraße", "amenity": "hospital", "contact:email": "info@rotkreuzkliniken.de", "contact:fax": "+49 69 4071481", "contact:phone": "+49 69 40710", "contact:website": "https://www.rotkreuzkliniken.de/", "healthcare": "hospital", "name": "Klinik Rotes Kreuz", "type": "multipolygon", "wheelchair": "yes"}}]