[{"name": "", "latitude": 49.939003, "longitude": 28.4838187, "source": "osm", "_tags": {"amenity": "hospital"}}, {"name": "Фельдшерський пункт", "latitude": 50.2572318, "longitude": 28.2896195, "source": "osm", "_tags": {"amenity": "hospital", "emergency": "no", "name": "Фельдшерський пункт", "name:uk": "Фельдшерський пункт", "operator": "Комунальна установа \"Центральна районна лікарня\" Житомирської районної ради", "phone": "+380 412 49 8922"}}, {"name": "Амбулаторій", "latitude": 50.2882661, "longitude": 28.8481748, "source": "osm", "_tags": {"amenity": "hospital", "name": "Амбулаторій", "name:uk": "Амбулаторій"}}, {"name": "", "latitude": 50.3869677, "longitude": 28.7152175, "source": "osm", "_tags": {"amenity": "hospital", "healthcare": "hospital"}}, {"name": "", "latitude": 49.7205166, "longitude": 28.8352142, "source": "osm", "_tags": {"amenity": "hospital", "healthcare": "hospital", "source": "bing"}}, {"name": "Житомирська обласна клінічна лікарня ім. О.Ф. Гербачевського", "latitude": 50.2465849, "longitude": 28.6740996, "source": "osm", "_tags": {"addr:housenumber": "3", "addr:street": "вулиця Червоного Хреста", "amenity": "hospital", "name": "Житомирська обласна клінічна лікарня ім. О.Ф. Гербачевського", "name:ru": "Житомирская областная клиническая больница им. О.Ф. Гербачевского", "name:uk": "Житомирська обласна клінічна лікарня ім. О.Ф. Гербачевського"}}, {"name": "Амбулаторія ЗПСМ смт Висока Піч", "latitude": 50.1912492, "longitude": 28.2712504, "source": "osm", "_tags": {"amenity": "hospital", "building": "yes", "name": "Амбулаторія ЗПСМ смт Висока Піч", "name:uk": "Амбулаторія ЗПСМ смт Висока Піч"}}, {"name": "", "latitude": 49.5355663, "longitude": 27.9442008, "source": "osm", "_tags": {"amenity": "hospital", "emergency": "yes", "healthcare": "hospital"}}, {"name": "Міська дитяча лікарня", "latitude": 50.2430338, "longitude": 28.674945, "source": "osm", "_tags": {"amenity": "hospital", "name": "Міська дитяча лікарня", "name:ru": "Городская детская больница", "name:uk": "Міська дитяча лікарня"}}, {"name": "Центральна міська лікарня №1", "latitude": 50.2425783, "longitude": 28.6846903, "source": "osm", "_tags": {"amenity": "hospital", "name": "Центральна міська лікарня №1", "name:ru": "Центральная городская больница №1", "name:uk": "Центральна міська лікарня №1"}}, {"name": "Міська лікарня", "latitude": 49.7212774, "longitude": 28.8351188, "source": "osm", "_tags": {"amenity": "hospital", "emergency": "no", "healthcare": "hospital", "name": "Міська лікарня", "name:en": "City Hospital", "name:uk": "Міська лікарня", "source": "Bing"}}, {"name": "Козятинська центральна районна лікарня Козятинської міської ради", "latitude": 49.7127957, "longitude": 28.8337693, "source": "osm", "_tags": {"addr:housenumber": "4", "addr:postcode": "22100", "addr:street": "вулиця Героїв Майдану", "building": "hospital", "building:levels": "4", "healthcare": "hospital", "name": "Козятинська центральна районна лікарня Козятинської міської ради", "name:uk": "Козятинська центральна районна лікарня\"  Козятинської міської ради", "short_name": "Центральна районна лікарня"}}, {"name": "Центральна районна лікарня Бердичівського району", "latitude": 49.9092869, "longitude": 28.5864977, "source": "osm", "_tags": {"amenity": "hospital", "name": "Центральна районна лікарня Бердичівського району", "name:en": "Central District Hospital of Berdychiv region", "name:ru": "Центральная районная больница Бердичевского района", "name:uk": "Центральна районна лікарня Бердичівського району"}}, {"name": "", "latitude": 49.9026736, "longitude": 28.5869668, "source": "osm", "_tags": {"amenity": "hospital"}}, {"name": "Міська лікарня №2", "latitude": 50.2810327, "longitude": 28.6102568, "source": "osm", "_tags": {"amenity": "hospital", "healthcare": "hospital", "name": "Міська лікарня №2", "name:en": "City Hospital #2", "name:ru": "Городская больница №2", "name:uk": "Міська лікарня №2"}}, {"name": "Санаторій \"Медичний центр реабілітації залізничників\"", "latitude": 49.5497603, "longitude": 27.9489821, "source": "osm", "_tags": {"addr:housenumber": "20", "addr:postcode": "22000", "addr:street": "вулиця Шевченка", "amenity": "hospital", "email": "info@medicalcentr.com", "fax": "+380 4338 22 577", "healthcare": "hospital", "name": "Санаторій \"Медичний центр реабілітації залізничників\"", "name:ru": "Санаторий \"Медицинский центр реабилитации железнодорожников\"", "name:uk": "Санаторій \"Медичний центр реабілітації залізничників\"", "phone": "+380 4338 22 086", "website": "https://medicalcentr.com/", "wheelchair": "yes"}}, {"name": "Житомирська районна лікарня", "latitude": 50.2273905, "longitude": 28.6867304, "source": "osm", "_tags": {"amenity": "hospital", "name": "Житомирська районна лікарня", "name:uk": "Житомирська районна лікарня", "official_name": "Комунальна установа \"Центральна районна лікарня\" Житомирської районної ради"}}, {"name": "Ветеринарна лікарня", "latitude": 49.5650002, "longitude": 27.9529589, "source": "osm", "_tags": {"amenity": "hospital", "healthcare": "hospital", "name": "Ветеринарна лікарня", "name:uk": "Ветеринарна лікарня"}}, {"name": "Госпіталь для ветеранів війни", "latitude": 49.8911922, "longitude": 28.5909538, "source": "osm", "_tags": {"addr:housenumber": "50", "addr:street": "Європейська", "amenity": "hospital", "healthcare": "hospital", "name": "Госпіталь для ветеранів війни", "name:uk": "Госпіталь для ветеранів війни"}}, {"name": "", "latitude": 49.8908577, "longitude": 28.591384, "source": "osm", "_tags": {"amenity": "hospital", "healthcare": "hospital"}}, {"name": "", "latitude": 49.8910879, "longitude": 28.591788, "source": "osm", "_tags": {"amenity": "hospital", "healthcare": "hospital"}}, {"name": "Лікарня", "latitude": 49.8531722, "longitude": 28.2177183, "source": "osm", "_tags": {"amenity": "hospital", "building": "yes", "emergency": "no", "healthcare": "hospital", "name": "Лікарня", "name:uk": "Лікарня"}}, {"name": "", "latitude": 49.8260011, "longitude": 28.3723111, "source": "osm", "_tags": {"amenity": "hospital", "healthcare": "hospital"}}, {"name": "Амбулаторія сімейної медицини", "latitude": 50.4060465, "longitude": 28.8056669, "source": "osm", "_tags": {"amenity": "hospital", "email": "vysoke_med@ukr.net", "healthcare": "hospital", "mobile": "+380 68 041 3118", "name": "Амбулаторія сімейної медицини", "name:uk": "Амбулаторія сімейної медицини", "phone": "+380 4134 96 238", "website": "https://vs-lazpsm.health.org.ua/"}}, {"name": "", "latitude": 50.2847951, "longitude": 28.782025, "source": "osm", "_tags": {"amenity": "hospital", "healthcare": "hospital"}}, {"name": "Станція Швидкої медичної допомоги", "latitude": 50.2779256, "longitude": 28.6626821, "source": "osm", "_tags": {"amenity": "hospital", "healthcare": "hospital", "name": "Станція Швидкої медичної допомоги", "name:ru": "Станция Скорой медицинской помощи", "name:uk": "Станція Швидкої медичної допомоги", "website": "https://103.zt.ua/"}}, {"name": "", "latitude": 49.7126553, "longitude": 28.8333535, "source": "osm", "_tags": {"building": "hospital", "building:levels": "1", "healthcare": "hospital"}}, {"name": "Хмільницька обласна фізіотерапевтична лікарня", "latitude": 49.5518914, "longitude": 27.9502646, "source": "osm", "_tags": {"addr:housenumber": "8", "addr:postcode": "22000", "addr:street": "вулиця Шолом-Алейхема", "amenity": "hospital", "emergency": "no", "healthcare": "hospital", "name": "Хмільницька обласна фізіотерапевтична лікарня", "name:uk": "Хмільницька обласна фізіотерапевтична лікарня", "website": "https://obfiztermed.at.ua/"}}, {"name": "Фельдшерсько-акушерський пункт", "latitude": 49.9797923, "longitude": 28.4166417, "source": "osm", "_tags": {"amenity": "hospital", "building": "yes", "healthcare": "hospital", "name": "Фельдшерсько-акушерський пункт", "name:uk": "Фельдшерсько-акушерський пункт"}}, {"name": "", "latitude": 49.7128163, "longitude": 28.8341443, "source": "osm", "_tags": {"amenity": "hospital", "healthcare": "hospital"}}, {"name": "Житомирська обласна дитяча лікарня", "latitude": 50.23057, "longitude": 28.6869491, "source": "osm", "_tags": {"addr:housenumber": "6", "addr:street": "Сквирське шосе", "amenity": "hospital", "healthcare": "hospital", "name": "Житомирська обласна дитяча лікарня", "name:en": "Zhytomyr Regional Children's Hospital", "name:uk": "Житомирська обласна дитяча лікарня", "phone": "+380 412 34 4481", "type": "multipolygon"}}, {"name": "Калинівська центральна района лікарня", "latitude": 49.4561428, "longitude": 28.5119052, "source": "osm", "_tags": {"amenity": "hospital", "emergency": "yes", "healthcare": "hospital", "name": "Калинівська центральна района лікарня", "name:uk": "Калинівська центральна района лікарня", "operator": "МОЗ України", "phone": "+380 4333 21 203", "type": "multipolygon"}}, {"name": "Військовий шпиталь", "latitude": 50.2445309, "longitude": 28.6720543, "source": "osm", "_tags": {"addr:housenumber": "22", "addr:street": "вулиця Фещенка-Чопівського", "amenity": "hospital", "name": "Військовий шпиталь", "name:uk": "Військовий шпиталь", "type": "multipolygon"}}]