[{"name": "", "latitude": 50.3459479, "longitude": 18.2099461, "source": "osm", "_tags": {"amenity": "hospital", "healthcare": "hospital"}}, {"name": "", "latitude": 49.5746616, "longitude": 18.7646563, "source": "osm", "_tags": {"amenity": "hospital"}}, {"name": "Wojewódzki Szpital Rehabilitacyjny dla Dzieci", "latitude": 49.947139, "longitude": 18.5719908, "source": "osm", "_tags": {"addr:city": "Jastrzębie-Zdrój", "addr:housenumber": "14", "addr:street": "Tadeusza Kościuszki", "amenity": "hospital", "healthcare": "hospital", "name": "Wojewódzki Szpital Rehabilitacyjny dla Dzieci"}}, {"name": "Szpital św. Józefa w Mikołowie", "latitude": 50.1701247, "longitude": 18.9084745, "source": "osm", "_tags": {"addr:city": "Mikołów", "addr:housenumber": "27", "addr:postcode": "43-190", "addr:street": "Stefana Okrzei", "amenity": "hospital", "email": "szpital@boromeuszki.org.pl", "name": "Szpital św. Józefa w Mikołowie", "phone": "+48322265977", "website": "http://www.szpital.boromeuszki.org.pl"}}, {"name": "Hospic sv. Lukáše", "latitude": 49.7784648, "longitude": 18.2160701, "source": "osm", "_tags": {"addr:city": "Ostrava-Výškovice", "addr:housenumber": "8", "addr:postcode": "700 30", "addr:street": "Charvátská", "amenity": "hospital", "emergency": "no", "healthcare": "hospital", "healthcare:speciality": "palliative", "name": "Hospic sv. Lukáše", "website": "https://ostrava.caritas.cz/hospicove-sluzby/luzkova-hospicova-pece-hospic-sv-lukase/", "wheelchair": "yes"}}, {"name": "Karvinská hornická nemocnice a.s.", "latitude": 49.8694377, "longitude": 18.540292, "source": "osm", "_tags": {"amenity": "hospital", "name": "Karvinská hornická nemocnice a.s.", "website": "https://www.khn.cz/"}}, {"name": "Nemocnice s poliklinikou Karviná-Ráj", "latitude": 49.8484664, "longitude": 18.5496464, "source": "osm", "_tags": {"amenity": "hospital", "emergency": "yes", "name": "Nemocnice s poliklinikou Karviná-Ráj"}}, {"name": "Viamedica - chirurgie, gynekologie", "latitude": 49.468842, "longitude": 18.1535399, "source": "osm", "_tags": {"amenity": "hospital", "healthcare": "hospital", "name": "Viamedica - chirurgie, gynekologie"}}, {"name": "Szpital Chorób Płuc w Orzeszu", "latitude": 50.15164, "longitude": 18.7732807, "source": "osm", "_tags": {"addr:city": "Orzesze", "addr:housenumber": "37", "addr:postcode": "43-180", "addr:street": "Gliwicka", "amenity": "hospital", "dispensing": "yes", "healthcare": "hospital", "name": "Szpital Chorób Płuc w Orzeszu", "ref:csioz": "1038485"}}, {"name": "AMEM klinika estetické medicíny a plastické chirurgie", "latitude": 49.463109, "longitude": 17.9766507, "source": "osm", "_tags": {"addr:city": "Valašské Meziříčí", "addr:housenumber": "980", "addr:postcode": "75742", "addr:street": "U Nemocnice", "amenity": "hospital", "healthcare": "hospital", "name": "AMEM klinika estetické medicíny a plastické chirurgie", "operator": "KR institut s.r.o.", "operator:type": "public"}}, {"name": "Centrum Zdrowia Psychicznego", "latitude": 50.3549343, "longitude": 18.9116843, "source": "osm", "_tags": {"addr:city": "Bytom", "addr:housenumber": "10", "addr:postcode": "41-902", "addr:street": "Aleja Legionów", "amenity": "hospital", "healthcare": "hospital", "healthcare:speciality": "psychiatry", "name": "Centrum Zdrowia Psychicznego"}}, {"name": "Niepubliczny Zakład Opieki Zdrowotnej MEDICUS s.c.", "latitude": 50.0936868, "longitude": 18.2334364, "source": "osm", "_tags": {"amenity": "hospital", "healthcare": "hospital", "name": "Niepubliczny Zakład Opieki Zdrowotnej MEDICUS s.c."}}, {"name": "Poliklinika Therapon", "latitude": 49.5955346, "longitude": 18.1459158, "source": "osm", "_tags": {"amenity": "hospital", "building": "yes", "healthcare": "hospital", "name": "Poliklinika Therapon", "source:position": "cuzk:km"}}, {"name": "Szpital Powiatowy w Wodzisławiu Śląskim Oddział w Rydułtowach", "latitude": 50.0587666, "longitude": 18.425129, "source": "osm", "_tags": {"addr:city": "Rydułtowy", "addr:housenumber": "47", "addr:postcode": "44-280", "addr:street": "Plebiscytowa", "amenity": "hospital", "healthcare": "hospital", "healthcare:speciality": "paediatrics;physiatry", "heritage": "2", "heritage:operator": "nid", "name": "Szpital Powiatowy w Wodzisławiu Śląskim Oddział w Rydułtowach", "operator": "Szpital Powiatowy w Wodzisławiu Śląskim", "operator:type": "public", "ref:nid": "A/1445/91", "website": "http://www.zozwodzislaw.pl/", "wheelchair": "yes"}}, {"name": "Léčebna dlouhodobě nemocných", "latitude": 49.818647, "longitude": 18.3525807, "source": "osm", "_tags": {"amenity": "hospital", "building": "yes", "name": "Léčebna dlouhodobě nemocných"}}, {"name": "Městská nemocnice Ostrava Fifejdy", "latitude": 49.8335977, "longitude": 18.2746792, "source": "osm", "_tags": {"amenity": "hospital", "healthcare": "hospital", "name": "Městská nemocnice Ostrava Fifejdy"}}, {"name": "Nemocnice Podlesí, a.s.", "latitude": 49.680773, "longitude": 18.6415245, "source": "osm", "_tags": {"amenity": "hospital", "name": "Nemocnice Podlesí, a.s.", "operator": "AGEL a.s.", "wikidata": "Q30258567"}}, {"name": "Nemocnice Třinec", "latitude": 49.674736, "longitude": 18.6907109, "source": "osm", "_tags": {"amenity": "hospital", "healthcare": "hospital", "name": "Nemocnice Třinec", "wikidata": "Q58221477"}}, {"name": "Szpital Specjalistyczny nr 1", "latitude": 50.3530445, "longitude": 18.9229699, "source": "osm", "_tags": {"amenity": "hospital", "healthcare": "hospital", "healthcare:speciality": "cardiology;radiology;internal;surgery;general", "name": "Szpital Specjalistyczny nr 1", "source": "Ortofotomapa Bytom"}}, {"name": "Wojewódzkie Centrum Pediatrii Kubalonka", "latitude": 49.6014754, "longitude": 18.9011493, "source": "osm", "_tags": {"amenity": "hospital", "architect": "Jadwiga Dobrzyńska, Zygmunt Łoboda", "healthcare": "hospital", "heritage": "2", "heritage:operator": "nid", "name": "Wojewódzkie Centrum Pediatrii Kubalonka", "nid:inscription_date": "2011-12-28", "old_name": "Wojewódzki Zespół Leczniczo-Wychowawczy im. J. Piłsudskiego", "ref:nid": "A/362/11", "start_date": "1930", "wikidata": "Q110389576", "wikipedia": "pl:Wojewódzkie Centrum Pediatrii Kubalonka w Istebnej"}}, {"name": "Nemocnice Český Těšín", "latitude": 49.7459391, "longitude": 18.6104973, "source": "osm", "_tags": {"amenity": "hospital", "healthcare": "hospital", "name": "Nemocnice Český Těšín", "operator": "AGEL a.s.", "website": "https://nemocniceceskytesin.agel.cz/"}}, {"name": "Rehabilitační ústav Hrabyně. Pracoviště Chuchelná", "latitude": 49.9888531, "longitude": 18.1163772, "source": "osm", "_tags": {"addr:conscriptionnumber": "14", "addr:country": "CZ", "addr:housenumber": "14", "addr:place": "Chuchelná", "addr:postcode": "74724", "addr:street": "Komenského", "amenity": "hospital", "building": "civic", "building:levels": "1", "building:ruian:type": "15", "email": "ruchuchelna@ruhrabyne.cz", "name": "Rehabilitační ústav Hrabyně. Pracoviště Chuchelná", "operator": "Rehabilitační ústav Hrabyně", "phone": "+420 553 683 300", "ref:ruian:addr": "4567757", "ref:ruian:building": "4537700", "source": "cuzk:ruian", "website": "https://www.ruhrabyne.cz/"}}, {"name": "Fakultní nemocnice Ostrava", "latitude": 49.828373, "longitude": 18.1577031, "source": "osm", "_tags": {"amenity": "hospital", "healthcare": "hospital", "name": "Fakultní nemocnice Ostrava", "short_name": "FN Ostrava", "website": "https://www.fno.cz/", "wikidata": "Q11989351"}}, {"name": "Vítkovická nemocnice", "latitude": 49.8153023, "longitude": 18.2705633, "source": "osm", "_tags": {"amenity": "hospital", "healthcare": "hospital", "name": "Vítkovická nemocnice", "wikidata": "Q29167819"}}, {"name": "Narodowy Instytut Onkologii im. Marii Skłodowskiej-Curie", "latitude": 50.3019085, "longitude": 18.6645752, "source": "osm", "_tags": {"amenity": "hospital", "healthcare": "hospital", "name": "Narodowy Instytut Onkologii im. Marii Skłodowskiej-Curie", "website": "http://www.io.gliwice.pl", "wikidata": "Q9186375", "wikipedia": "pl:Narodowy Instytut Onkologii im. Marii Skłodowskiej-Curie – Państwowy Instytut Badawczy Oddział w Gliwicach"}}, {"name": "Szpital Miejski nr 4 w Gliwicach", "latitude": 50.2937582, "longitude": 18.6516857, "source": "osm", "_tags": {"addr:housenumber": "29", "addr:street": "Tadeusza Kościuszki", "amenity": "hospital", "healthcare": "hospital", "name": "Szpital Miejski nr 4 w Gliwicach"}}, {"name": "Szpital Powiatowy \"Zespół Opieki Zdrowotnej\"", "latitude": 50.3062286, "longitude": 18.9159869, "source": "osm", "_tags": {"amenity": "hospital", "healthcare": "hospital", "name": "Szpital Powiatowy \"Zespół Opieki Zdrowotnej\"", "website": "https://www.zoz.net.pl/"}}, {"name": "Szpital Wielospecjalistyczny", "latitude": 50.2888826, "longitude": 18.6607043, "source": "osm", "_tags": {"addr:city": "Gliwice", "addr:housenumber": "1", "addr:street": "Tadeusza Kościuszki", "amenity": "hospital", "healthcare": "hospital", "name": "Szpital Wielospecjalistyczny", "phone": "+48 32 238-20-91", "source:addr": "EMUiA (emuia.gugik.gov.pl)", "website": "https://www.szwg.pl/"}}, {"name": "", "latitude": 50.3148, "longitude": 18.8885443, "source": "osm", "_tags": {"amenity": "hospital", "healthcare": "hospital"}}, {"name": "Wojewódzki Szpital Specjalistyczny nr 4", "latitude": 50.3548036, "longitude": 18.9126415, "source": "osm", "_tags": {"amenity": "hospital", "email": "szpital@szpital4.bytom.pl", "healthcare": "hospital", "name": "Wojewódzki Szpital Specjalistyczny nr 4", "phone": "+48 32 281-02-71", "source": "Ortofotomapa Bytom", "website": "http://www.szpital4.bytom.pl/"}}, {"name": "", "latitude": 49.7267686, "longitude": 18.8221673, "source": "osm", "_tags": {"amenity": "hospital", "building": "yes", "healthcare": "hospital"}}, {"name": "Szpital Miejski w Rudzie Śląskiej Sp. z o.o", "latitude": 50.2746616, "longitude": 18.8540042, "source": "osm", "_tags": {"addr:city": "Ruda Śląska", "addr:housenumber": "11", "addr:postcode": "41-700", "addr:street": "Główna", "amenity": "hospital", "emergency": "no", "healthcare": "hospital", "healthcare:speciality": "paediatrics;physiatry;psychiatry;child_psychiatry;oncology", "name": "Szpital Miejski w Rudzie Śląskiej Sp. z o.o", "wheelchair": "yes"}}, {"name": "Nemocnice Nový Jičín", "latitude": 49.5887764, "longitude": 18.0057737, "source": "osm", "_tags": {"amenity": "hospital", "check_date": "2025-09-10", "name": "Nemocnice Nový Jičín"}}, {"name": "Uzdrowiskowy Instytut Zdrowia", "latitude": 49.7215151, "longitude": 18.8253461, "source": "osm", "_tags": {"addr:city": "Ustroń", "addr:housenumber": "7", "addr:postcode": "43-450", "addr:street": "Sanatoryjna", "amenity": "hospital", "building": "yes", "healthcare": "hospital", "name": "Uzdrowiskowy Instytut Zdrowia"}}, {"name": "Szpital w Knurowie", "latitude": 50.2217438, "longitude": 18.6677762, "source": "osm", "_tags": {"amenity": "hospital", "healthcare": "hospital", "name": "Szpital w Knurowie", "survey:date": "2023-09-12"}}, {"name": "Bohumínská městská nemocnice", "latitude": 49.918055, "longitude": 18.3370041, "source": "osm", "_tags": {"amenity": "hospital", "name": "Bohumínská městská nemocnice"}}, {"name": "Szpital Miejski w Zabrzu", "latitude": 50.3257129, "longitude": 18.8266698, "source": "osm", "_tags": {"addr:city": "Zabrze", "addr:housenumber": "4", "addr:postcode": "41-803", "addr:street": "Zamkowa", "amenity": "hospital", "healthcare": "hospital", "name": "Szpital Miejski w Zabrzu"}}, {"name": "Kysucká nemocnica s poliklinikou Čadca", "latitude": 49.4383135, "longitude": 18.7722437, "source": "osm", "_tags": {"addr:city": "Čadca", "addr:housenumber": "2311", "addr:postcode": "022 16", "addr:street": "Palárikova", "amenity": "hospital", "contact:facebook": "https://www.facebook.com/Nemocnica-%C4%8Cadca-444542929026514/?ref=hl", "contact:website": "https://www.kysuckanemocnica.sk/", "emergency": "yes", "healthcare": "hospital", "name": "Kysucká nemocnica s poliklinikou Čadca", "phone": "+421 41 46 04 111", "source": "survey"}}, {"name": "Szpital Specjalistyczny nr 2 w Bytomiu", "latitude": 50.3474223, "longitude": 18.9086829, "source": "osm", "_tags": {"addr:city": "Bytom", "addr:housenumber": "15", "addr:postcode": "41-902", "addr:street": "Stefana Batorego", "amenity": "hospital", "contact:email": "sekretariat@szpital2.bytom.pl", "contact:phone": "+48 32 786 14 00", "healthcare": "hospital", "name": "Szpital Specjalistyczny nr 2 w Bytomiu", "source": "Ortofotomapa Bytom", "website": "https://www.szpital2.bytom.pl/"}}, {"name": "Szpital Obserwacyjno Zakaźny i Hepatologii Zakaźnej", "latitude": 50.3536032, "longitude": 18.9117406, "source": "osm", "_tags": {"amenity": "hospital", "healthcare": "hospital", "name": "Szpital Obserwacyjno Zakaźny i Hepatologii Zakaźnej", "source": "Ortofotomapa Bytom"}}, {"name": "Szpital Śląski", "latitude": 49.7448851, "longitude": 18.6404511, "source": "osm", "_tags": {"amenity": "hospital", "healthcare": "hospital", "name": "Szpital Śląski", "website": "http://szpital.netus.pl/"}}, {"name": "Wojewódzki Szpital Specjalistyczny Nr 2 - Oddział pediatryczny im. J. Korczaka", "latitude": 49.9605316, "longitude": 18.5736554, "source": "osm", "_tags": {"amenity": "hospital", "healthcare": "hospital", "jastrzebiegis:id": "767", "jastrzebiegis:opis": "Tereny usług o charakterze publicznym", "name": "Wojewódzki Szpital Specjalistyczny Nr 2 - Oddział pediatryczny im. J. Korczaka", "source": "UM Jastrzębie-Zdrój"}}, {"name": "Wojewódzki Szpital Specjalistyczny nr 2", "latitude": 49.946002, "longitude": 18.5835144, "source": "osm", "_tags": {"addr:city": "Jastrzębie-Zdrój", "addr:housenumber": "7", "addr:postcode": "44-330", "addr:street": "Aleja Jana Pawła II", "amenity": "hospital", "emergency": "yes", "healthcare": "hospital", "jastrzebiegis:id": "1624", "jastrzebiegis:opis": "Tereny usług o charakterze publicznym", "name": "Wojewódzki Szpital Specjalistyczny nr 2", "operator": "Województwo Śląskie", "operator:type": "public", "phone": "+48 32 47 84 200", "source": "UM Jastrzębie-Zdrój", "website": "https://www.wss2.pl"}}, {"name": "Nemocnice Frýdek-Místek", "latitude": 49.690967, "longitude": 18.353975, "source": "osm", "_tags": {"amenity": "hospital", "contact:email": "sekretariat@nemfm.cz", "contact:fax": "+420 558 415 010", "contact:phone": "+420 558 415 111", "contact:website": "http://www.nemfm.cz/", "healthcare": "hospital", "name": "Nemocnice Frýdek-Místek"}}, {"name": "Szpital Rejonowy im. dr Józefa Rostka", "latitude": 50.1017538, "longitude": 18.2043478, "source": "osm", "_tags": {"addr:city": "Racibórz", "addr:housenumber": "3", "addr:postcode": "47-400", "addr:street": "Gamowska", "amenity": "hospital", "emergency": "yes", "healthcare": "hospital", "name": "Szpital Rejonowy im. dr Józefa Rostka"}}, {"name": "Szpital Powiatowy w Wodzisławiu Śląskim", "latitude": 50.0092214, "longitude": 18.4630058, "source": "osm", "_tags": {"addr:city": "Wodzisław Śląski", "addr:housenumber": "51", "addr:postcode": "44-300", "addr:street": "26 Marca", "amenity": "hospital", "emergency": "yes", "healthcare": "hospital", "healthcare:speciality": "intensive;orthopaedics;gynaecology;emergency;vaccination;internal;maternity;dialysis;surgery;vascular_surgery;neurology", "name": "Szpital Powiatowy w Wodzisławiu Śląskim", "name:en": "Hospital Wodzisław Śląski", "name:pl": "Szpital w Wodzisławiu Śląskim", "opening_hours": "24/7", "operator": "Szpital Powiatowy w Wodzisławiu Śląskim", "operator:type": "public/government", "start_date": "1969", "website": "https://www.zoz.wodzislaw.pl/", "wheelchair": "yes"}}, {"name": "SPZOZ Państwowy Szpital dla Nerwowo i Psychicznie Chorych", "latitude": 50.1050834, "longitude": 18.544568, "source": "osm", "_tags": {"amenity": "hospital", "healthcare": "hospital", "name": "SPZOZ Państwowy Szpital dla Nerwowo i Psychicznie Chorych", "source": "survey, Bing"}}, {"name": "Nemocnice s poliklinikou Karviná-Ráj pracoviště Orlová", "latitude": 49.8750254, "longitude": 18.434351, "source": "osm", "_tags": {"amenity": "hospital", "emergency": "yes", "name": "Nemocnice s poliklinikou Karviná-Ráj pracoviště Orlová"}}, {"name": "Szpital Powiatowy", "latitude": 50.1748129, "longitude": 18.9053199, "source": "osm", "_tags": {"addr:city": "Mikołów", "addr:housenumber": "4", "addr:postcode": "43-190", "addr:street": "Ludwika Waryńskiego", "amenity": "hospital", "healthcare": "hospital", "name": "Szpital Powiatowy", "phone": "+48 32 325 75 00", "website": "https://www.szpital-mikolow.com.pl/"}}, {"name": "Samodzielny Publiczny Szpital Kliniczny nr 1 imienia Prof. Stanisława Szyszko Śląskiego Uniwersytetu Medycznego w Katowicach", "latitude": 50.3012626, "longitude": 18.7847172, "source": "osm", "_tags": {"amenity": "hospital", "healthcare": "hospital", "heritage": "2", "heritage:operator": "nid", "heritage:website": "https://zabytek.pl/pl/obiekty/zabytek?inspire_id=PL.1.9.ZIPOZ.NID_N_24_ZE.29997&rejestr=rejestr-zabytkow", "name": "Samodzielny Publiczny Szpital Kliniczny nr 1 imienia Prof. Stanisława Szyszko Śląskiego Uniwersytetu Medycznego w Katowicach", "nid:inscription_date": "1990-08-01", "ref:inspire": "PL.1.9.ZIPOZ.NID_N_24_ZE.29997", "ref:nid": "A/1399/90"}}, {"name": "", "latitude": 50.2909475, "longitude": 18.6573819, "source": "osm", "_tags": {"addr:housenumber": "20", "addr:postcode": "44-100", "addr:street": "Zygmunta Starego", "amenity": "hospital", "healthcare": "hospital", "official_name": "Szpital Miejski Nr 4 z Przychodnią Samodzielny Publiczny Zakład Opieki Zdrowotnej", "old_name": "106 Szpital Wojskowy z Przychodnią - Samodzielny Publiczny Zakład Opieki Zdrowotnej w Gliwicach", "short_name": "Szpital Wojskowy"}}, {"name": "Szpital Chorób Płuc", "latitude": 50.1516312, "longitude": 18.7729177, "source": "osm", "_tags": {"addr:city": "Orzesze", "addr:housenumber": "20", "addr:postcode": "43-180", "addr:street": "Dworcowa", "amenity": "hospital", "email": "dyrekcja@szpitalorzesze.pl", "fax": "+48 32 2215920", "healthcare": "hospital", "name": "Szpital Chorób Płuc", "operator": "Marszałek Województwa Śląskiego", "phone": "+48 32 2213661", "website": "https://www.szpitalorzesze.pl/"}}, {"name": "Śląskie Centrum Rehabilitacji", "latitude": 49.718038, "longitude": 18.8286399, "source": "osm", "_tags": {"addr:city": "Ustroń", "addr:housenumber": "6", "addr:postcode": "43-450", "addr:street": "Zdrojowa", "amenity": "hospital", "building": "hospital", "name": "Śląskie Centrum Rehabilitacji"}}, {"name": "Nemocnice Bílovec", "latitude": 49.7630769, "longitude": 18.0166871, "source": "osm", "_tags": {"amenity": "hospital", "healthcare": "hospital", "name": "Nemocnice Bílovec"}}, {"name": "Samodzielny Publiczny Szpital Kliniczny nr 3 Śląskiego Uniwersytetu Medycznego", "latitude": 50.3207955, "longitude": 18.8083908, "source": "osm", "_tags": {"addr:city": "Zabrze", "addr:housenumber": "1", "addr:postcode": "41-803", "addr:street": "Księdza Karola Koziołka", "amenity": "hospital", "healthcare": "hospital", "name": "Samodzielny Publiczny Szpital Kliniczny nr 3 Śląskiego Uniwersytetu Medycznego"}}, {"name": "Szpital Zespolony", "latitude": 50.3320397, "longitude": 18.151289, "source": "osm", "_tags": {"amenity": "hospital", "name": "Szpital Zespolony"}}, {"name": "", "latitude": 49.8473584, "longitude": 18.550568, "source": "osm", "_tags": {"amenity": "hospital"}}, {"name": "", "latitude": 49.8186087, "longitude": 18.3521616, "source": "osm", "_tags": {"amenity": "hospital"}}, {"name": "Samodzielny Publiczny Szpital Kliniczny nr 2 Śląskiego Uniwersytetu Medycznego", "latitude": 50.314503, "longitude": 18.7813789, "source": "osm", "_tags": {"addr:city": "Zabrze", "addr:housenumber": "10", "addr:postcode": "41-800", "addr:street": "Marii Curie-Skłodowskiej", "amenity": "hospital", "healthcare": "hospital", "name": "Samodzielny Publiczny Szpital Kliniczny nr 2 Śląskiego Uniwersytetu Medycznego"}}, {"name": "VITO-MED Sp. z o.o.", "latitude": 50.2938867, "longitude": 18.6405982, "source": "osm", "_tags": {"amenity": "hospital", "name": "VITO-MED Sp. z o.o."}}, {"name": "Szpital Powiatowy w Pszczynie", "latitude": 49.9733681, "longitude": 18.9403895, "source": "osm", "_tags": {"amenity": "hospital", "healthcare": "hospital", "name": "Szpital Powiatowy w Pszczynie"}}, {"name": "Szpital Chorób Płuc. im. Św. Józefa w Pilchowicach", "latitude": 50.2148038, "longitude": 18.5642836, "source": "osm", "_tags": {"addr:city": "Pilchowice", "addr:housenumber": "31", "addr:postcode": "44-145", "addr:street": "Dworcowa", "amenity": "hospital", "name": "Szpital Chorób Płuc. im. Św. Józefa w Pilchowicach"}}, {"name": "Wojewódzki Szpital Chorób Płuc im. dr Alojzego Pawelca", "latitude": 49.9972936, "longitude": 18.4904695, "source": "osm", "_tags": {"addr:city": "Wodzisław Śląski", "addr:postcode": "44-300", "addr:street": "Bracka", "amenity": "hospital", "healthcare": "hospital", "name": "Wojewódzki Szpital Chorób Płuc im. dr Alojzego Pawelca", "website": "https://www.wscp.wodzislaw.pl/"}}, {"name": "Nemocnice s poliklinikou Havířov", "latitude": 49.7841537, "longitude": 18.439433, "source": "osm", "_tags": {"amenity": "hospital", "contact:email": "nsphav@nsphav.cz", "contact:phone": "+420 596 491 111", "contact:website": "http://www.nsphav.cz", "healthcare": "hospital", "name": "Nemocnice s poliklinikou Havířov", "operator": "Moravskoslezský kraj"}}, {"name": "", "latitude": 50.3460494, "longitude": 18.2102704, "source": "osm", "_tags": {"amenity": "hospital", "healthcare": "hospital"}}, {"name": "Wojewódzki Szpital Specjalistyczny nr 3", "latitude": 50.1111527, "longitude": 18.5200954, "source": "osm", "_tags": {"addr:city": "Rybnik", "addr:housenumber": "46", "addr:postcode": "44-200", "addr:street": "Energetyków", "amenity": "hospital", "email": "szpital@szpital.rybnik.pl", "emergency": "yes", "name": "Wojewódzki Szpital Specjalistyczny nr 3", "phone": "32 4291000", "website": "http://www.szpital.rybnik.pl"}}, {"name": "Szpital Miejski w Żorach", "latitude": 50.0353204, "longitude": 18.6834674, "source": "osm", "_tags": {"addr:city": "Żory", "addr:housenumber": "20", "addr:postcode": "44-240", "addr:street": "Osiedle Księcia Władysława", "amenity": "hospital", "email": "szpital@mzoz.zory.pl", "emergency": "yes", "healthcare": "hospital", "healthcare:speciality": "gynaecology;surgery", "name": "Szpital Miejski w Żorach", "name:en": "City Hospital", "phone": "+48324341224", "website": "http://www.mzoz.zory.pl", "wheelchair": "yes"}}, {"name": "Wojewódzki Ośrodek Leczenia Odwykowego", "latitude": 49.9593322, "longitude": 18.3796287, "source": "osm", "_tags": {"addr:city": "Gorzyce", "addr:housenumber": "8", "addr:postcode": "44-350", "addr:street": "Zamkowa", "amenity": "hospital", "emergency": "no", "healthcare": "hospital", "healthcare:speciality": "psychiatry", "name": "Wojewódzki Ośrodek Leczenia Odwykowego"}}, {"name": "Nemocnice Valašské Meziříčí", "latitude": 49.4624163, "longitude": 17.9769208, "source": "osm", "_tags": {"amenity": "hospital", "brand": "AGEL", "brand:wikidata": "Q41365932", "contact:website": "https://nemocnicevalasskemezirici.agel.cz/", "emergency": "yes", "healthcare": "hospital", "name": "Nemocnice Valašské Meziříčí", "wheelchair": "yes"}}, {"name": "Szpital w Pyskowicach", "latitude": 50.3992052, "longitude": 18.623914, "source": "osm", "_tags": {"amenity": "hospital", "healthcare": "hospital", "name": "Szpital w Pyskowicach"}}, {"name": "", "latitude": 49.7882283, "longitude": 18.4348418, "source": "osm", "_tags": {"amenity": "hospital", "healthcare": "rehabilitation"}}, {"name": "Centrum Medyczne Sióstr Elżbietanek", "latitude": 49.7529286, "longitude": 18.6395484, "source": "osm", "_tags": {"amenity": "hospital", "healthcare": "hospital", "name": "Centrum Medyczne Sióstr Elżbietanek", "operator": "Zgromadzenie Sióstr św. Elżbiety III Zakonu Regularnego św. Franciszka"}}, {"name": "Ośrodek Leczniczo-Rehabilitacyjny \"Pałac Kamieniec\" Sp. z o.o.", "latitude": 50.4036421, "longitude": 18.7105821, "source": "osm", "_tags": {"amenity": "hospital", "healthcare": "hospital", "name": "Ośrodek Leczniczo-Rehabilitacyjny \"Pałac Kamieniec\" Sp. z o.o."}}, {"name": "", "latitude": 50.2675538, "longitude": 18.8316098, "source": "osm", "_tags": {"amenity": "hospital", "healthcare": "hospital"}}, {"name": "Poliklinika Hlučín", "latitude": 49.899618, "longitude": 18.1867009, "source": "osm", "_tags": {"amenity": "hospital", "healthcare": "hospital", "name": "Poliklinika Hlučín"}}, {"name": "Szpital Reumatologiczny", "latitude": 49.7261966, "longitude": 18.821849, "source": "osm", "_tags": {"amenity": "hospital", "building": "yes", "healthcare": "hospital", "name": "Szpital Reumatologiczny", "type": "multipolygon"}}, {"name": "Śląskie Centrum Chorób Serca", "latitude": 50.3136964, "longitude": 18.7811113, "source": "osm", "_tags": {"addr:city": "Zabrze", "addr:housenumber": "9", "addr:postcode": "41-800", "addr:street": "Marii Curie-Skłodowskiej", "amenity": "hospital", "healthcare": "hospital", "name": "Śląskie Centrum Chorób Serca", "type": "multipolygon"}}, {"name": "NZOZ Szpital Miejski w Rudzie Śląskiej", "latitude": 50.3148072, "longitude": 18.8887828, "source": "osm", "_tags": {"addr:city": "Ruda Śląska", "addr:housenumber": "2", "addr:postcode": "41-712", "addr:street": "Wincentego Lipa", "amenity": "hospital", "healthcare": "hospital", "name": "NZOZ Szpital Miejski w Rudzie Śląskiej", "type": "building", "website": "http://szpitalruda.pl/"}}]