[{"name": "University Hospital Plymouth Derriford", "latitude": 50.4163165, "longitude": -4.1142456, "source": "osm", "_tags": {"amenity": "hospital", "emergency": "no", "healthcare": "hospital", "name": "University Hospital Plymouth Derriford", "wheelchair": "yes"}}, {"name": "Emergency Department", "latitude": 50.4167391, "longitude": -4.1133356, "source": "osm", "_tags": {"amenity": "hospital", "healthcare": "hospital", "name": "Emergency Department", "wheelchair": "yes"}}, {"name": "WW2 American Field Hospital (site of)", "latitude": 50.2506944, "longitude": -5.0379343, "source": "osm", "_tags": {"healthcare": "hospital", "historic": "hospital", "name": "WW2 American Field Hospital (site of)", "operator": "US Military", "operator:type": "military"}}, {"name": "Phlebotomy Services", "latitude": 50.4139601, "longitude": -4.1250295, "source": "osm", "_tags": {"amenity": "hospital", "healthcare": "hospital", "name": "Phlebotomy Services"}}, {"name": "Urgent Treatment Centre", "latitude": 50.4178784, "longitude": -4.1189156, "source": "osm", "_tags": {"amenity": "hospital", "emergency": "no", "healthcare": "hospital", "name": "Urgent Treatment Centre", "opening_hours": "08:00-20:00"}}, {"name": "Dermatology", "latitude": 50.4185469, "longitude": -4.1184204, "source": "osm", "_tags": {"amenity": "hospital", "healthcare": "hospital", "name": "Dermatology"}}, {"name": "Mount Gould Hospital", "latitude": 50.3780503, "longitude": -4.1130814, "source": "osm", "_tags": {"addr:city": "Plymouth", "addr:postcode": "PL4 7QD", "addr:street": "Mount Gould Road", "amenity": "hospital", "check_date": "2025-04-03", "emergency": "no", "healthcare": "hospital", "name": "Mount Gould Hospital"}}, {"name": "Derriford Hospital", "latitude": 50.4171632, "longitude": -4.1162781, "source": "osm", "_tags": {"addr:city": "Plymouth", "addr:postcode": "PL6 8DH", "addr:street": "Derriford Road", "amenity": "hospital", "emergency": "yes", "healthcare": "hospital", "name": "Derriford Hospital", "phone": "+44 1752 202082", "website": "https://www.plymouthhospitals.nhs.uk/", "wheelchair": "yes", "wikidata": "Q5263135", "wikipedia": "en:Derriford Hospital"}}, {"name": "Nuffield Clinic", "latitude": 50.4185648, "longitude": -4.1149566, "source": "osm", "_tags": {"amenity": "hospital", "healthcare": "hospital", "name": "Nuffield Clinic"}}, {"name": "HMS Raleigh Medical Centre", "latitude": 50.3731721, "longitude": -4.2241362, "source": "osm", "_tags": {"amenity": "hospital", "building": "yes", "emergency": "no", "healthcare": "hospital", "name": "HMS Raleigh Medical Centre"}}, {"name": "Renal Unit", "latitude": 50.4188175, "longitude": -4.0938887, "source": "osm", "_tags": {"amenity": "hospital", "building": "yes", "emergency": "no", "healthcare": "hospital", "name": "Renal Unit"}}, {"name": "Urgent Treatment Centre, Cumberland Centre", "latitude": 50.3698925, "longitude": -4.1687115, "source": "osm", "_tags": {"amenity": "hospital", "building": "hospital", "healthcare": "hospital", "name": "Urgent Treatment Centre, Cumberland Centre", "opening_hours": "Fr-We 08:30-22:00; Th 09:00-22:00", "operator": "Livewell South West", "ref:GB:cqc_location": "RK906", "ref:GB:nhs_ods": "RK906"}}, {"name": "Penntorr Health", "latitude": 50.3746965, "longitude": -4.2245753, "source": "osm", "_tags": {"amenity": "hospital", "healthcare": "hospital", "name": "Penntorr Health"}}, {"name": "", "latitude": 50.3711194, "longitude": -4.1471906, "source": "osm", "_tags": {"amenity": "hospital", "healthcare": "hospital"}}, {"name": "St Austell Community Hospital", "latitude": 50.3273746, "longitude": -4.773206, "source": "osm", "_tags": {"addr:postcode": "PL26 6AD", "addr:street": "Porthpean Road", "alt_name": "Penrice Hospital", "amenity": "hospital", "healthcare": "hospital", "name": "St Austell Community Hospital", "operator": "Cornwall Partnership NHS Foundation Trust", "operator:type": "public", "operator:wikidata": "Q16988175", "wikidata": "Q30292913", "wikipedia": "en:St Austell Community Hospital"}}]