[{"name": "Léčebna dlouhodobě nemocných", "latitude": 50.2698185, "longitude": 16.1123794, "source": "osm", "_tags": {"amenity": "hospital", "healthcare": "hospital", "name": "Léčebna dlouhodobě nemocných", "website": "https://ldnopocno.cz/"}}, {"name": "Vysokomýtská nemocnice", "latitude": 49.9484559, "longitude": 16.1500827, "source": "osm", "_tags": {"addr:conscriptionnumber": "271", "addr:country": "CZ", "addr:housenumber": "271", "addr:place": "Litomyšlské Předměstí", "addr:postcode": "56601", "addr:street": "Žižkova", "amenity": "hospital", "description": "Oddělení následné lůžkové péče", "healthcare": "hospital", "name": "Vysokomýtská nemocnice", "ref:ruian:addr": "5708940"}}, {"name": "Ambulantní zařízení", "latitude": 49.9033205, "longitude": 16.4398936, "source": "osm", "_tags": {"amenity": "hospital", "healthcare": "hospital", "name": "Ambulantní zařízení"}}, {"name": "", "latitude": 50.3591497, "longitude": 16.1496793, "source": "osm", "_tags": {"amenity": "hospital", "healthcare": "hospital"}}, {"name": "Oblastní nemocnice Náchod", "latitude": 50.4098413, "longitude": 16.1674058, "source": "osm", "_tags": {"amenity": "hospital", "healthcare": "hospital", "name": "Oblastní nemocnice Náchod"}}, {"name": "Rehabilitační ústav", "latitude": 50.0037918, "longitude": 16.2813492, "source": "osm", "_tags": {"amenity": "hospital", "healthcare": "hospital", "name": "Rehabilitační ústav", "wheelchair": "yes"}}, {"name": "Hamzova dětská léčebna", "latitude": 49.8864626, "longitude": 16.0316884, "source": "osm", "_tags": {"amenity": "hospital", "healthcare": "hospital", "name": "Hamzova dětská léčebna", "source": "uhul:ortofoto"}}, {"name": "Nemocnice Vysoké Mýto", "latitude": 49.9548561, "longitude": 16.1516233, "source": "osm", "_tags": {"amenity": "hospital", "healthcare": "hospital", "name": "Nemocnice Vysoké Mýto"}}, {"name": "Nemocnice Boskovice", "latitude": 49.4903503, "longitude": 16.6444515, "source": "osm", "_tags": {"amenity": "hospital", "healthcare": "hospital", "name": "Nemocnice Boskovice", "wikidata": "Q58606271"}}, {"name": "LDN", "latitude": 49.8821918, "longitude": 16.8625445, "source": "osm", "_tags": {"amenity": "hospital", "building": "civic", "building:flats": "2", "building:levels": "3", "building:ruian:type": "15", "healthcare": "hospital", "name": "LDN", "ref:ruian:building": "8087695", "source": "cuzk:ruian"}}, {"name": "Interna", "latitude": 49.8824008, "longitude": 16.8634002, "source": "osm", "_tags": {"amenity": "hospital", "building": "civic", "building:levels": "3", "building:ruian:type": "15", "healthcare": "hospital", "name": "Interna", "ref:ruian:building": "8087806", "source": "cuzk:ruian"}}, {"name": "", "latitude": 49.8825508, "longitude": 16.862027, "source": "osm", "_tags": {"amenity": "hospital", "building": "hospital", "building:levels": "2", "building:ruian:type": "15", "healthcare": "hospital", "ref:ruian:building": "8088446", "source": "cuzk:ruian"}}, {"name": "", "latitude": 49.7755886, "longitude": 16.920574, "source": "osm", "_tags": {"amenity": "hospital", "building": "civic", "building:levels": "1", "building:ruian:type": "15", "healthcare": "hospital", "phone": "+420 583 452 111", "ref:ruian:building": "8079676", "source": "cuzk:ruian", "website": "http://www.mohelnice.cz/zdravotni-stredisko-okruzni-10/os-14156"}}, {"name": "Svitavská nemocnice, a.s.", "latitude": 49.7529573, "longitude": 16.4696382, "source": "osm", "_tags": {"amenity": "hospital", "healthcare": "hospital", "name": "Svitavská nemocnice, a.s.", "website": "https://svitavy.nempk.cz/"}}, {"name": "23. Wojskowy Szpital Uzdrowiskowo-Rehabilitacyjny", "latitude": 50.3421814, "longitude": 16.890427, "source": "osm", "_tags": {"addr:city": "Lądek-Zdrój", "addr:housenumber": "2a", "addr:postcode": "57-540", "addr:street": "Jadwigi", "amenity": "hospital", "building": "hospital", "building:levels": "5", "emergency": "no", "name": "23. Wojskowy Szpital Uzdrowiskowo-Rehabilitacyjny", "source:building": "BDOT", "source:geometry": "EGiB", "website": "http://www.23wszur.pl"}}, {"name": "Odborný léčebný ústav Jevíčko - Sanatorium", "latitude": 49.63411, "longitude": 16.6666806, "source": "osm", "_tags": {"amenity": "hospital", "barrier": "fence", "emergency": "no", "name": "Odborný léčebný ústav Jevíčko - Sanatorium", "source": "cuzk:km, survey"}}, {"name": "Nemocnice Milosrdných bratří Letovice", "latitude": 49.5452806, "longitude": 16.5804809, "source": "osm", "_tags": {"amenity": "hospital", "healthcare": "hospital", "name": "Nemocnice Milosrdných bratří Letovice", "wikidata": "Q99477034"}}, {"name": "Nemocnice Náchod - Horní areál", "latitude": 50.4067213, "longitude": 16.1646168, "source": "osm", "_tags": {"amenity": "hospital", "healthcare": "hospital", "name": "Nemocnice Náchod - Horní areál"}}, {"name": "Wojewódzkie Centrum Psychiatrii Długoterminowej", "latitude": 50.2908517, "longitude": 16.8788969, "source": "osm", "_tags": {"addr:city": "Stronie Śląskie", "addr:housenumber": "1", "addr:postcode": "57-550", "addr:street": "Morawka", "addr:suburb": "Morawka", "amenity": "hospital", "healthcare": "hospital", "name": "Wojewódzkie Centrum Psychiatrii Długoterminowej"}}, {"name": "Litomyšlská nemocnice", "latitude": 49.8643282, "longitude": 16.3134754, "source": "osm", "_tags": {"amenity": "hospital", "email": "info@litnem.cz", "healthcare": "hospital", "name": "Litomyšlská nemocnice", "phone": "+420 461 655 111", "website": "litomysl.nempk.cz"}}, {"name": "Lečební ústav Červená Voda", "latitude": 50.0442742, "longitude": 16.7359876, "source": "osm", "_tags": {"amenity": "hospital", "email": "aeskulap@ldncv.cz", "fax": "+420 465 626 436", "healthcare": "hospital", "healthcare:speciality": "geriatrics;orthopaedics;surgery;urology;diagnostic_radiology", "name": "Lečební ústav Červená Voda", "operator": "Aesculap s. r. o.", "phone": "+420 465 626 321", "website": "https://www.aeskulap.cz/"}}, {"name": "", "latitude": 49.7163751, "longitude": 16.2625307, "source": "osm", "_tags": {"amenity": "hospital", "healthcare": "hospital"}}, {"name": "Bystrzyckie Centrum Zdrowia", "latitude": 50.2999387, "longitude": 16.6534874, "source": "osm", "_tags": {"amenity": "hospital", "email": "sekretariat@bystrzyckiecentrumzdrowia.pl", "healthcare": "hospital", "name": "Bystrzyckie Centrum Zdrowia", "phone": "+48 748111577", "source": "notes"}}, {"name": "Nemocnice Nové Město na Moravě", "latitude": 49.5605151, "longitude": 16.0641303, "source": "osm", "_tags": {"amenity": "hospital", "name": "Nemocnice Nové Město na Moravě", "website": "https://www.nnm.cz/"}}, {"name": "Centrum biologické ochrany", "latitude": 50.0602842, "longitude": 16.6122317, "source": "osm", "_tags": {"amenity": "hospital", "landuse": "military", "name": "Centrum biologické ochrany", "wikidata": "Q85492086", "wikipedia": "cs:Centrum biologické ochrany Těchonín"}}, {"name": "Oblastní nemocnice Rychnov nad Kněžnou", "latitude": 50.1692235, "longitude": 16.2709198, "source": "osm", "_tags": {"amenity": "hospital", "healthcare": "hospital", "name": "Oblastní nemocnice Rychnov nad Kněžnou"}}, {"name": "Specjalistyczne Centrum Medyczne", "latitude": 50.407476, "longitude": 16.500705, "source": "osm", "_tags": {"addr:city": "Polanica-Zdroj", "addr:housenumber": "2", "addr:postcode": "57-320", "addr:street": "Jana Pawła II", "amenity": "hospital", "building": "hospital", "contact:website": "http://www.scm.pl", "emergency": "yes", "name": "Specjalistyczne Centrum Medyczne", "source:geometry": "geoportal.gov.pl, GPS", "type": "multipolygon"}}, {"name": "Orlickoústecká Nemocnice", "latitude": 49.9701262, "longitude": 16.4031692, "source": "osm", "_tags": {"amenity": "hospital", "healthcare": "hospital", "name": "Orlickoústecká Nemocnice", "phone": "+420465710111", "type": "multipolygon", "website": "https://www.ou-nem.cz/"}}]