[{"name": "", "latitude": 49.4273543, "longitude": 25.982895, "source": "osm", "_tags": {"amenity": "hospital"}}, {"name": "ВІВА-клініка", "latitude": 50.2936091, "longitude": 26.866493, "source": "osm", "_tags": {"addr:housenumber": "27а", "addr:postcode": "30000", "addr:street": "вулиця Соборності", "amenity": "hospital", "email": "vivaclinic.sl@gmail.com", "healthcare": "hospital", "name": "ВІВА-клініка", "name:en": "VIVA-clinic", "name:uk": "ВІВА-клініка", "opening_hours": "Mo-Fr 08:00-17:00; Sa 09:00-18:00", "phone": "+380 68 440 8363", "website": "https://viva-clinic.com/"}}, {"name": "Поліклініка", "latitude": 50.2931293, "longitude": 26.8665567, "source": "osm", "_tags": {"amenity": "hospital", "healthcare": "hospital", "name": "Поліклініка", "name:uk": "Поліклініка"}}, {"name": "Гінекологія", "latitude": 50.293026, "longitude": 26.8673634, "source": "osm", "_tags": {"amenity": "hospital", "healthcare": "hospital", "name": "Гінекологія", "name:uk": "Гінекологія"}}, {"name": "Жіноча консультація", "latitude": 50.2930571, "longitude": 26.86736, "source": "osm", "_tags": {"amenity": "hospital", "healthcare": "hospital", "name": "Жіноча консультація", "name:uk": "Жіноча консультація"}}, {"name": "Приймальне відділення", "latitude": 50.2924238, "longitude": 26.8671167, "source": "osm", "_tags": {"amenity": "hospital", "healthcare": "hospital", "name": "Приймальне відділення", "name:en": "Admissions department", "name:ru": "Приемное отделение", "name:uk": "Приймальне відділення"}}, {"name": "Неврологічне, травматологічне відділення", "latitude": 50.2924317, "longitude": 26.8692471, "source": "osm", "_tags": {"amenity": "hospital", "healthcare": "hospital", "name": "Неврологічне, травматологічне відділення", "name:en": "Neurological, trauma department", "name:ru": "Неврологическое, травматологическое отделение", "name:uk": "Неврологічне, травматологічне відділення"}}, {"name": "Здолбунівська районна лікарня", "latitude": 50.397699, "longitude": 26.1429481, "source": "osm", "_tags": {"amenity": "hospital", "name": "Здолбунівська районна лікарня", "name:uk": "Здолбунівська районна лікарня"}}, {"name": "", "latitude": 49.5367455, "longitude": 26.1437124, "source": "osm", "_tags": {"amenity": "hospital", "building": "yes", "emergency": "yes", "healthcare": "hospital"}}, {"name": "ЦРЛ", "latitude": 50.2926227, "longitude": 26.8684119, "source": "osm", "_tags": {"amenity": "hospital", "healthcare": "hospital", "name": "ЦРЛ", "name:uk": "ЦРЛ"}}, {"name": "Психіатрічна лікарня", "latitude": 50.3311377, "longitude": 26.5080024, "source": "osm", "_tags": {"amenity": "hospital", "loc_name": "Психлікарня", "name": "Психіатрічна лікарня", "name:uk": "Психіатрічна лікарня", "official_name": "КЗ \"Острозька обласна психіатрічна лікарня\" Рівненської обласної ради"}}, {"name": "", "latitude": 49.5361123, "longitude": 26.1443176, "source": "osm", "_tags": {"amenity": "hospital", "building": "yes", "healthcare": "hospital"}}, {"name": "СМСЧ 4", "latitude": 50.3375682, "longitude": 26.6600449, "source": "osm", "_tags": {"amenity": "hospital", "healthcare": "hospital", "name": "СМСЧ 4", "name:uk": "СМСЧ 4"}}, {"name": "Амбулаторія", "latitude": 49.959316, "longitude": 26.2313727, "source": "osm", "_tags": {"amenity": "hospital", "barrier": "fence", "building": "yes", "name": "Амбулаторія", "name:uk": "Амбулаторія", "official_name": "Ямпільська амбулаторія загальної медицини"}}, {"name": "Волочиська Районна Поліклініка", "latitude": 49.5365666, "longitude": 26.2156161, "source": "osm", "_tags": {"amenity": "hospital", "emergency": "yes", "healthcare": "hospital", "name": "Волочиська Районна Поліклініка", "name:uk": "Волочиська Районна Поліклініка"}}, {"name": "Шумська ЦРЛ", "latitude": 50.1181608, "longitude": 26.1204671, "source": "osm", "_tags": {"amenity": "hospital", "healthcare": "hospital", "name": "Шумська ЦРЛ", "name:uk": "Шумська ЦРЛ", "opening_hours": "24/7", "phone": "+380 67 354 2841", "website": "https://shumsk.crl.net.ua"}}, {"name": "Лікарня", "latitude": 49.4923557, "longitude": 26.4426538, "source": "osm", "_tags": {"amenity": "hospital", "healthcare": "hospital", "name": "Лікарня", "name:uk": "Лікарня"}}, {"name": "", "latitude": 49.4683219, "longitude": 26.9294978, "source": "osm", "_tags": {"amenity": "hospital"}}, {"name": "", "latitude": 49.5365968, "longitude": 26.1447493, "source": "osm", "_tags": {"amenity": "hospital", "building": "yes", "emergency": "yes", "healthcare": "hospital"}}, {"name": "Пологовий будинок", "latitude": 50.3296304, "longitude": 26.5162331, "source": "osm", "_tags": {"amenity": "hospital", "name": "Пологовий будинок", "name:uk": "Пологовий будинок"}}, {"name": "", "latitude": 49.7677726, "longitude": 25.9689195, "source": "osm", "_tags": {"amenity": "hospital", "healthcare": "hospital"}}, {"name": "Інфекційне відділення", "latitude": 50.3382712, "longitude": 26.6597951, "source": "osm", "_tags": {"amenity": "hospital", "healthcare": "hospital", "name": "Інфекційне відділення", "name:uk": "Інфекційне відділення"}}, {"name": "Мед Пункт", "latitude": 50.0156384, "longitude": 26.6939748, "source": "osm", "_tags": {"amenity": "hospital", "healthcare": "hospital", "name": "Мед Пункт", "name:uk": "Мед Пункт"}}, {"name": "Лановецька центральна районна клінічна лікарня", "latitude": 49.8609726, "longitude": 26.0981415, "source": "osm", "_tags": {"addr:housenumber": "30", "addr:postcode": "47400", "addr:street": "вулиця Тараса Шевченка", "amenity": "hospital", "healthcare": "hospital", "name": "Лановецька центральна районна клінічна лікарня", "name:en": "Lanovetsky central district hospital", "name:uk": "Лановецька центральна районна клінічна лікарня", "opening_hours": "24/7"}}, {"name": "Амбулаторія", "latitude": 50.128787, "longitude": 26.3807115, "source": "osm", "_tags": {"amenity": "hospital", "barrier": "fence", "name": "Амбулаторія", "name:uk": "Амбулаторія", "type": "multipolygon"}}, {"name": "Лікарня", "latitude": 50.0076334, "longitude": 26.4379504, "source": "osm", "_tags": {"amenity": "hospital", "name": "Лікарня", "name:en": "Hospital", "name:uk": "Лікарня", "official_name": "Білогірська центральна районна лікарня", "type": "multipolygon"}}, {"name": "Ізяславська центральна районна лікарня", "latitude": 50.1160222, "longitude": 26.8134608, "source": "osm", "_tags": {"addr:housenumber": "47", "addr:postcode": "30300", "addr:street": "вулиця Б. Хмельницького", "amenity": "hospital", "email": "icrl_iz@ukr.net", "healthcare": "hospital", "name": "Ізяславська центральна районна лікарня", "name:uk": "Ізяславська центральна районна лікарня", "official_name": "Комунальне некомерційне підприємство \"Ізяславська центральна районна лікарня\"", "short_name": "Ізяславська ЦРЛ", "type": "multipolygon"}}, {"name": "Острозька ЦРЛ", "latitude": 50.3443033, "longitude": 26.5249148, "source": "osm", "_tags": {"amenity": "hospital", "name": "Острозька ЦРЛ", "name:uk": "Острозька ЦРЛ", "official_name": "Комунального некомерційного підприємства «Острозька центральна районна лікарня » Острозької районної ради Рівненської області", "type": "multipolygon"}}, {"name": "Острозький психоневрологічний інтернат", "latitude": 50.3131454, "longitude": 26.488196, "source": "osm", "_tags": {"amenity": "hospital", "name": "Острозький психоневрологічний інтернат", "name:uk": "Острозький психоневрологічний інтернат", "official_name": "Комунальний заклад \"Острозький психоневрологічний інтернат\" Рівненської обласної ради", "type": "multipolygon"}}, {"name": "", "latitude": 50.1645411, "longitude": 26.5501612, "source": "osm", "_tags": {"amenity": "hospital", "type": "multipolygon"}}, {"name": "Лінійна лікарня", "latitude": 50.0832563, "longitude": 26.7759688, "source": "osm", "_tags": {"amenity": "hospital", "name": "Лінійна лікарня", "name:uk": "Лінійна лікарня", "type": "multipolygon"}}]