[{"name": "Cnopf'sche Kinderklinik", "latitude": 49.4567681, "longitude": 11.0666508, "source": "osm", "_tags": {"addr:city": "Nürnberg", "addr:country": "DE", "addr:housenumber": "19", "addr:postcode": "90419", "addr:street": "Sankt-Johannis-Mühlgasse", "amenity": "hospital", "check_date": "2025-01-21", "fax": "+49 911 33405011", "healthcare": "hospital", "name": "Cnopf'sche Kinderklinik", "phone": "+49 911 334001", "website": "https://www.klinik-hallerwiese.de/", "wheelchair": "yes", "wikidata": "Q50037255"}}, {"name": "Klinik am Birkenwald", "latitude": 49.4234503, "longitude": 11.0242719, "source": "osm", "_tags": {"addr:city": "Nürnberg", "addr:country": "DE", "addr:housenumber": "11", "addr:postcode": "90449", "addr:street": "Weiltinger Straße", "amenity": "hospital", "healthcare": "hospital", "name": "Klinik am Birkenwald", "website": "https://www.klinik-am-birkenwald.de/", "wikidata": "Q96579961"}}, {"name": "Altes Universitäts-Krankenhaus: Ärztliche Direktion, Medizinische Fakultät, Pflegedirektion", "latitude": 49.5985388, "longitude": 11.0107326, "source": "osm", "_tags": {"amenity": "hospital", "healthcare": "hospital", "name": "Altes Universitäts-Krankenhaus: Ärztliche Direktion, Medizinische Fakultät, Pflegedirektion", "operator": "Universitätsklinikum Erlangen"}}, {"name": "CCC Erlangen-EMN", "latitude": 49.599543, "longitude": 11.0125554, "source": "osm", "_tags": {"amenity": "hospital", "contact:website": "https://www.ccc.uk-erlangen.de/", "healthcare": "hospital", "healthcare:speciality": "pathology", "name": "CCC Erlangen-EMN", "wheelchair": "no"}}, {"name": "Klinik Fränkische Schweiz", "latitude": 49.7796383, "longitude": 11.17983, "source": "osm", "_tags": {"amenity": "hospital", "healthcare": "hospital", "name": "Klinik Fränkische Schweiz", "toilets:wheelchair": "yes", "wheelchair": "yes"}}, {"name": "Anästhesiologische Klinik des Uni-Klinikums Erlangen", "latitude": 49.5991017, "longitude": 11.0108151, "source": "osm", "_tags": {"addr:city": "Erlangen", "addr:country": "DE", "addr:housenumber": "12", "addr:postcode": "91054", "addr:street": "Krankenhausstraße", "emergency": "no", "healthcare": "hospital", "healthcare:speciality": "anaesthetics", "name": "Anästhesiologische Klinik des Uni-Klinikums Erlangen", "operator": "Universitätsklinikum Erlangen", "wheelchair": "yes"}}, {"name": "Klinik Hallerwiese", "latitude": 49.4568564, "longitude": 11.0666911, "source": "osm", "_tags": {"addr:city": "Nürnberg", "addr:country": "DE", "addr:housenumber": "19", "addr:postcode": "90419", "addr:street": "Sankt-Johannis-Mühlgasse", "amenity": "hospital", "check_date": "2025-01-21", "fax": "+49 911 33405011", "healthcare": "hospital", "name": "Klinik Hallerwiese", "phone": "+49 911 334001", "website": "https://www.klinik-hallerwiese.de/", "wheelchair": "yes", "wikidata": "Q96558336"}}, {"name": "Frauenklinik", "latitude": 49.5981446, "longitude": 11.0124965, "source": "osm", "_tags": {"addr:city": "Erlangen", "addr:country": "DE", "addr:housenumber": "21-23", "addr:postcode": "91054", "addr:street": "Universitätsstraße", "amenity": "hospital", "healthcare": "hospital", "healthcare:speciality": "gynaecology", "name": "Frauenklinik", "operator": "Universitätsklinikum Erlangen", "website": "https://www.frauenklinik.uk-erlangen.de/", "wheelchair": "yes"}}, {"name": "Palliativmedizinische Abteilung", "latitude": 49.5983253, "longitude": 11.0117263, "source": "osm", "_tags": {"addr:city": "Erlangen", "addr:country": "DE", "addr:housenumber": "12", "addr:postcode": "91054", "addr:street": "Krankenhausstraße", "healthcare": "hospital", "healthcare:speciality": "palliative", "name": "Palliativmedizinische Abteilung", "website": "https://www.palliativmedizin.uk-erlangen.de/"}}, {"name": "Blutspende/ Transfusionsmedizin", "latitude": 49.5954742, "longitude": 11.0254189, "source": "osm", "_tags": {"addr:city": "Erlangen", "addr:country": "DE", "addr:housenumber": "14", "addr:postcode": "91052", "addr:street": "Hartmannstraße", "amenity": "hospital", "blood:plasma": "yes", "blood:platelets": "yes", "blood:whole": "yes", "contact:phone": "+49 9131 85-36457", "contact:website": "https://www.transfusionsmedizin.uk-erlangen.de/blutspende", "donation:compensation": "yes", "healthcare": "blood_donation", "name": "Blutspende/ Transfusionsmedizin", "opening_hours": "Mo-Th 08:00-12:00,13:00-16:00; Fr 08:00-13:00", "operator": "Universitätsklinikum Erlangen"}}, {"name": "Bezirkskrankenhaus", "latitude": 49.9560931, "longitude": 11.5689933, "source": "osm", "_tags": {"addr:city": "Bayreuth", "addr:housenumber": "2", "addr:postcode": "95445", "addr:street": "Nordring", "amenity": "hospital", "healthcare": "hospital", "healthcare:speciality": "psychiatry", "name": "Bezirkskrankenhaus", "operator": "Bezirk Oberfranken", "phone": "+49 921 2830", "toilets:wheelchair": "yes", "website": "http://www.bezirkskliniken-oberfranken.de/pages/php/list_aktuelles_bayreuth.php", "wheelchair": "yes", "wheelchair:description": "Psychiatrisches Krankenhaus", "wikidata": "Q854261"}}, {"name": "Klinikum Bayreuth", "latitude": 49.9435669, "longitude": 11.5323759, "source": "osm", "_tags": {"addr:city": "Bayreuth", "addr:housenumber": "101", "addr:postcode": "95445", "addr:street": "Preuschwitzer Straße", "amenity": "hospital", "blind:description:de": "Haupteingang: Taktiles Blindenleitsystem führt aus dem dem Außenbereich in den Innenbereich.", "healthcare": "hospital", "name": "Klinikum Bayreuth", "operator": "Klinikum Bayreuth GmbH", "phone": "+49 921 40000", "toilets:wheelchair": "yes", "website": "https://klinikum-bayreuth.de/", "wheelchair": "yes", "wikidata": "Q13497549"}}, {"name": "Klinik Hohe Warte", "latitude": 49.9684122, "longitude": 11.5839674, "source": "osm", "_tags": {"addr:city": "Bayreuth", "addr:housenumber": "8", "addr:postcode": "95445", "addr:street": "Hohe Warte", "amenity": "hospital", "emergency": "yes", "healthcare": "hospital", "name": "Klinik Hohe Warte", "phone": "+49 921 40001", "toilets:wheelchair": "yes", "website": "https://klinikum-bayreuth.de/", "wheelchair": "yes", "wheelchair:description": "automatischer Türöffner Schwelle 0 cm Tür B 90 cm Aufzug Zugang über Ebene 2 Therapiegebäude E3 WC Tür B 98 cm WC H 46 cm Platz L v.WC 178 cm Platz R v.WC 89 cm davor 165 cm Klappgriff H 85 cm Waschtisch H 83 cm Spiegel H 91-171 cm Kleiderhaken 112 cm.", "wikidata": "Q1774564"}}, {"name": "Juraklinik Scheßlitz", "latitude": 49.978936, "longitude": 11.0379438, "source": "osm", "_tags": {"amenity": "hospital", "contact:website": "https://gkg-bamberg.de/klinik/juraklinik/", "healthcare": "hospital", "name": "Juraklinik Scheßlitz", "operator": "GKG"}}, {"name": "Kliniken Dr. Erler", "latitude": 49.453782, "longitude": 11.0676359, "source": "osm", "_tags": {"addr:city": "Nürnberg", "addr:country": "DE", "addr:housenumber": "4-18", "addr:postcode": "90429", "addr:street": "Kontumazgarten", "amenity": "hospital", "building": "hospital", "building:levels": "7", "check_date": "2025-05-12", "emergency": "yes", "fax": "+49 911 2728 106", "healthcare": "hospital", "loc_name": "Erler-Klinik", "name": "Kliniken Dr. Erler", "phone": "+49 911 2728 0", "roof:levels": "0", "roof:shape": "flat", "website": "https://www.erler-klinik.de", "wheelchair": "yes", "wikidata": "Q97147261"}}, {"name": "Bezirksklinikum Obermain", "latitude": 50.0494937, "longitude": 10.9712418, "source": "osm", "_tags": {"amenity": "hospital", "healthcare": "hospital", "name": "Bezirksklinikum Obermain", "phone": "+49 9547 810", "website": "https://www.gebo-med.de/standorte/bezirksklinikum-obermain", "wikidata": "Q854251"}}, {"name": "Klinikum Coburg", "latitude": 50.2468733, "longitude": 10.9731559, "source": "osm", "_tags": {"addr:city": "Coburg", "addr:country": "DE", "addr:housenumber": "33", "addr:postcode": "96450", "addr:street": "Ketschendorfer Straße", "amenity": "hospital", "building": "yes", "healthcare": "hospital", "name": "Klinikum Coburg", "phone": "+49-9561-22-0", "toilets:wheelchair": "no", "wheelchair": "yes", "wheelchair:description": "Kein geschultes Personal für Rollstuhlfahrer*innen und querscnittsgelähmte Personen.", "wikidata": "Q1774603", "wikipedia": "de:Klinikum Coburg"}}, {"name": "Krankenhaus Kemnath", "latitude": 49.8679483, "longitude": 11.8912453, "source": "osm", "_tags": {"addr:city": "Kemnath", "addr:country": "DE", "addr:housenumber": "7", "addr:postcode": "95478", "addr:street": "Werner-von-Siemens-Straße", "amenity": "hospital", "building": "yes", "healthcare": "hospital", "name": "Krankenhaus Kemnath", "note": "http://www.krankenhaus-kemnath.de/KKH_Tirschenreuth/Default.htm", "wheelchair": "yes"}}, {"name": "Zahn-Mund-Kieferklinik", "latitude": 49.5995267, "longitude": 11.0130866, "source": "osm", "_tags": {"amenity": "hospital", "building": "hospital", "healthcare": "hospital", "healthcare:speciality": "dentist;dental_oral_maxillo_facial_surgery", "name": "Zahn-Mund-Kieferklinik", "wheelchair": "yes"}}, {"name": "Strahlenklinik", "latitude": 49.5983319, "longitude": 11.0143043, "source": "osm", "_tags": {"addr:city": "Erlangen", "addr:country": "DE", "addr:housenumber": "27", "addr:postcode": "91054", "addr:street": "Universitätsstraße", "amenity": "hospital", "building": "hospital", "building:architecture": "neo-baroque", "building:levels": "3", "building:levels:underground": "1", "description": "Ehemalige Universitätsaugenklinik, jetzt Strahlenklinik. Dreigeschossige Anlage, Mansardwalmdächer, Ziegelmauerwerk mit Hausteingliederung. Erbaut 1893 nach Plänen von Friedrich Wilhelm Scharff.", "healthcare": "hospital", "healthcare:speciality": "radiotherapy", "heritage": "4", "heritage:operator": "BLfD", "historic": "yes", "image": "File:Erlangen Universitätsstraße 27 001.JPG", "name": "Strahlenklinik", "old_name": "Universitätsaugenklinik", "operator": "Universitätsklinikum Erlangen", "ref:BLfD": "D-5-62-000-670", "roof:colour": "#6f7074", "roof:material": "slate", "roof:shape": "hipped", "start_date": "1893", "website": "https://www.strahlenklinik.uk-erlangen.de/", "wheelchair": "yes", "wheelchair:description": "Zugang für Rollstuhlfahrer seitlich der Strahlenklinik.", "wikidata": "Q41299097"}}, {"name": "Fachklinik Haus Immanuel", "latitude": 50.0392391, "longitude": 11.414936, "source": "osm", "_tags": {"amenity": "hospital", "name": "Fachklinik Haus Immanuel", "wikidata": "Q22916063"}}, {"name": "Kinderpsychiatrie", "latitude": 49.6032479, "longitude": 11.0077811, "source": "osm", "_tags": {"addr:city": "Erlangen", "addr:country": "DE", "addr:housenumber": "22", "addr:postcode": "91054", "addr:street": "Harfenstraße", "amenity": "hospital", "building": "hospital", "building:levels": "2", "check_date": "2025-08-28", "healthcare": "hospital", "name": "Kinderpsychiatrie", "operator": "Universitätsklinikum Erlangen", "roof:levels": "0", "roof:shape": "flat", "wheelchair": "limited"}}, {"name": "Klinikum am Europakanal", "latitude": 49.6045532, "longitude": 10.9673516, "source": "osm", "_tags": {"amenity": "hospital", "healthcare": "hospital", "name": "Klinikum am Europakanal", "wheelchair": "yes"}}, {"name": "REGIOMED Klinikum Sonneberg/Neuhaus", "latitude": 50.3539763, "longitude": 11.162693, "source": "osm", "_tags": {"addr:city": "Sonneberg", "addr:housenumber": "61", "addr:postcode": "96515", "addr:street": "Neustadter Straße", "amenity": "hospital", "check_date": "2024-03-06", "emergency": "yes", "healthcare": "hospital", "name": "REGIOMED Klinikum Sonneberg/Neuhaus", "short_name": "KH Sonneberg", "toilets:wheelchair": "yes", "website": "https://www.regiomed-kliniken.de/", "wheelchair": "yes", "wikipedia": "de:Medinos-Kliniken Sonneberg/Neuhaus"}}, {"name": "Klinikum St. Marien Amberg", "latitude": 49.4480463, "longitude": 11.8664431, "source": "osm", "_tags": {"amenity": "hospital", "healthcare": "hospital", "name": "Klinikum St. Marien Amberg", "wheelchair": "yes"}}, {"name": "Krankenhaus Martha-Maria", "latitude": 49.4818066, "longitude": 11.1365651, "source": "osm", "_tags": {"addr:city": "Nürnberg", "addr:country": "DE", "addr:housenumber": "58", "addr:postcode": "90491", "addr:street": "Stadenstraße", "amenity": "hospital", "email": "Krankenhaus.Nuernberg@Martha-Maria.de", "emergency": "yes", "healthcare": "hospital", "name": "Krankenhaus Martha-Maria", "phone": "+49 911 9590", "toilets:wheelchair": "yes", "website": "https://www.martha-maria.de/krankenhaus-nuernberg.php", "wheelchair": "yes"}}, {"name": "Krankenhaus Neustadt bei Coburg", "latitude": 50.3267672, "longitude": 11.1283948, "source": "osm", "_tags": {"amenity": "hospital", "emergency": "yes", "name": "Krankenhaus Neustadt bei Coburg", "wheelchair": "yes"}}, {"name": "Universitätsklinikum Erlangen", "latitude": 49.6005976, "longitude": 11.0110178, "source": "osm", "_tags": {"amenity": "hospital", "emergency": "yes", "healthcare": "hospital", "name": "Universitätsklinikum Erlangen", "toilets:wheelchair": "yes", "website": "https://www.uk-erlangen.de/", "wheelchair": "yes", "wikidata": "Q1544159", "wikipedia": "de:Universitätsklinikum Erlangen"}}, {"name": "Fachklinik Stadtsteinach", "latitude": 50.1662145, "longitude": 11.500873, "source": "osm", "_tags": {"amenity": "hospital", "check_date": "2025-05-12", "healthcare": "hospital", "name": "Fachklinik Stadtsteinach", "wheelchair": "yes"}}, {"name": "Klinikum Nürnberg Nord", "latitude": 49.4633165, "longitude": 11.0603118, "source": "osm", "_tags": {"addr:city": "Nürnberg", "addr:country": "DE", "addr:housenumber": "1", "addr:postcode": "90419", "addr:street": "Prof.-Ernst-Nathan-Straße", "amenity": "hospital", "check_date": "2024-10-08", "emergency": "yes", "healthcare": "hospital", "name": "Klinikum Nürnberg Nord", "phone": "+49 911 3980", "website": "https://www.klinikum-nuernberg.de/", "wheelchair": "yes"}}, {"name": "Klinikum Fürth", "latitude": 49.4845821, "longitude": 10.9745616, "source": "osm", "_tags": {"addr:city": "Fürth", "addr:country": "DE", "addr:housenumber": "1", "addr:postcode": "90766", "addr:street": "Jakob-Henle-Straße", "amenity": "hospital", "emergency": "yes", "healthcare": "hospital", "name": "Klinikum Fürth", "phone": "+49 911 75800", "toilets:wheelchair": "yes", "website": "https://www.klinikum-fuerth.de/", "wheelchair": "yes", "wikidata": "Q1503141"}}, {"name": "Helios Frankenwaldklinik Kronach", "latitude": 50.2437656, "longitude": 11.3322307, "source": "osm", "_tags": {"addr:city": "Kronach", "addr:country": "DE", "addr:housenumber": "41", "addr:postcode": "96317", "addr:street": "Friesener Straße", "amenity": "hospital", "healthcare": "hospital", "name": "Helios Frankenwaldklinik Kronach", "operator": "Helios Kliniken", "operator:wikidata": "Q1254151", "operator:wikipedia": "de:Helios Kliniken", "toilets:wheelchair": "yes", "website": "http://www.helios-kliniken.de/klinik/kronach/", "wheelchair": "yes"}}, {"name": "St. Theresien-Krankenhaus", "latitude": 49.4692931, "longitude": 11.11039, "source": "osm", "_tags": {"addr:city": "Nürnberg", "addr:country": "DE", "addr:housenumber": "24", "addr:postcode": "90491", "addr:street": "Mommsenstraße", "alt_name": "St. Theresien-Krankenhaus Nürnberg", "amenity": "hospital", "check_date": "2024-09-27", "healthcare": "hospital", "name": "St. Theresien-Krankenhaus", "phone": "+49 911 56990", "toilets:wheelchair": "yes", "website": "https://www.theresien-krankenhaus.de/", "wheelchair": "yes", "wikidata": "Q53596636"}}, {"name": "Universität Erlangen Nürnberg Medizinische Klinik IV Nephrologische Forschungslaboratorien", "latitude": 49.6001634, "longitude": 11.0071143, "source": "osm", "_tags": {"addr:city": "Erlangen", "addr:country": "DE", "addr:housenumber": "8 1/2", "addr:postcode": "91054", "addr:street": "Loschgestraße", "amenity": "hospital", "building": "yes", "healthcare": "hospital", "name": "Universität Erlangen Nürnberg Medizinische Klinik IV Nephrologische Forschungslaboratorien", "roof:material": "roof_tiles"}}, {"name": "Strahlenklinik Brachytherapie", "latitude": 49.5987408, "longitude": 11.0139528, "source": "osm", "_tags": {"addr:city": "Erlangen", "addr:country": "DE", "addr:housenumber": "25a", "addr:postcode": "91054", "addr:street": "Universitätsstraße", "amenity": "hospital", "building": "yes", "building:levels": "1", "emergency": "no", "healthcare": "hospital", "healthcare:speciality": "strahlentherapie", "name": "Strahlenklinik Brachytherapie", "operator": "Universitätsklinikum Erlangen", "roof:shape": "flat", "start_date": "2010"}}, {"name": "Juraklinik Scheßlitz", "latitude": 49.9791108, "longitude": 11.0380742, "source": "osm", "_tags": {"addr:city": "Scheßlitz", "addr:country": "DE", "addr:housenumber": "29", "addr:postcode": "96110", "addr:street": "Oberend", "amenity": "hospital", "emergency": "yes", "healthcare": "hospital", "healthcare:speciality": "surgery;anaesthetics;intensive;internal", "name": "Juraklinik Scheßlitz", "opening_hours": "24/7", "operator": "Gemeinnützige Krankenhausgesellschaft des Landkreises Bamberg mbH", "operator:type": "public", "phone": "+49 95427790", "wikidata": "Q114009994", "wikipedia": "de:Juraklinik Scheßlitz"}}, {"name": "Klinikum Kulmbach", "latitude": 50.1177637, "longitude": 11.4663904, "source": "osm", "_tags": {"amenity": "hospital", "healthcare": "hospital", "name": "Klinikum Kulmbach", "toilets:wheelchair": "yes", "website": "http://www.klinikum-kulmbach.de", "wheelchair": "yes", "wikidata": "Q124389338", "wikipedia": "de:Klinikum Kulmbach"}}, {"name": "Waldkrankenhaus St. Marien", "latitude": 49.6104392, "longitude": 11.0190535, "source": "osm", "_tags": {"amenity": "hospital", "check_date": "2025-08-21", "healthcare": "hospital", "name": "Waldkrankenhaus St. Marien", "wikidata": "Q2541690"}}, {"name": "Helmuth-G.-Walther Klinikum", "latitude": 50.137809, "longitude": 11.0813193, "source": "osm", "_tags": {"amenity": "hospital", "healthcare": "hospital", "name": "Helmuth-G.-Walther Klinikum", "wheelchair": "yes"}}, {"name": "DRK-Vorsorge- und Rehaeinrichtung für Mutter und Kind - \"Schloss Neuhaus\"", "latitude": 50.3147188, "longitude": 11.2447432, "source": "osm", "_tags": {"addr:city": "Föritztal", "addr:country": "DE", "addr:housenumber": "1", "addr:postcode": "96524", "addr:street": "Schloßbergring", "addr:suburb": "Neuhaus-Schierschnitz", "amenity": "hospital", "brand": "Deutsches Rotes Kreuz", "brand:wikidata": "Q694104", "emergency": "no", "healthcare": "hospital", "name": "DRK-Vorsorge- und Rehaeinrichtung für Mutter und Kind - \"Schloss Neuhaus\""}}, {"name": "Kliniken Hochfranken - Klinik Naila", "latitude": 50.3245857, "longitude": 11.7202997, "source": "osm", "_tags": {"addr:city": "Naila", "addr:housenumber": "45", "addr:postcode": "95119", "addr:street": "Hofer Straße", "amenity": "hospital", "check_date": "2024-05-14", "email": "info@kliniken-hochfranken.de", "emergency": "yes", "fax": "+49928260619", "healthcare": "hospital", "healthcare:speciality": "general;intensive;gynaecology;emergency;surgery;cardiology;radiology;internal;maternity", "internet_access": "wlan", "name": "Kliniken Hochfranken - Klinik Naila", "operator": "Kliniken HochFranken (Anstalt des öffentlichen Rechts)", "operator:type": "public", "phone": "+499282600", "start_date": "1957", "website": "https://www.kliniken-hochfranken.de/"}}, {"name": "HNO-Klinik", "latitude": 49.5961147, "longitude": 11.012726, "source": "osm", "_tags": {"amenity": "hospital", "check_date": "2024-11-25", "healthcare": "hospital", "long_name": "Hals-Nasen-Ohren Klinik", "name": "HNO-Klinik", "operator": "Universitätsklinikum Erlangen", "phone": "+49 9131 8533156", "short_name": "HNO-Klinik", "website": "https://www.hno-klinik.uk-erlangen.de/", "wheelchair": "limited"}}, {"name": "Sana Klinikum Hof", "latitude": 50.3025406, "longitude": 11.914768, "source": "osm", "_tags": {"addr:city": "Hof", "addr:country": "DE", "addr:housenumber": "9", "addr:postcode": "95032", "addr:street": "Eppenreuther Straße", "amenity": "hospital", "check_date": "2025-07-07", "contact:phone": "+49 9281 980", "contact:website": "https://www.sana-klinikum-hof.de/", "emergency": "yes", "healthcare": "hospital", "name": "Sana Klinikum Hof", "operator": "Sana Klinikum Hof GmbH", "toilets:wheelchair": "yes", "wheelchair": "yes", "wikidata": "Q63762104", "wikipedia": "de:Sana Klinikum Hof"}}, {"name": "Sana-Klinik Pegnitz", "latitude": 49.7573292, "longitude": 11.5275792, "source": "osm", "_tags": {"addr:city": "Pegnitz", "addr:country": "DE", "addr:housenumber": "12", "addr:postcode": "91257", "addr:street": "Langer Berg", "amenity": "hospital", "healthcare": "hospital", "name": "Sana-Klinik Pegnitz", "website": "https://www.sana-pegnitz.de/", "wikidata": "Q124387898", "wikipedia": "de:Sana Klinik Pegnitz"}}, {"name": "St. Anna Krankenhaus", "latitude": 49.5046591, "longitude": 11.7289823, "source": "osm", "_tags": {"addr:city": "Sulzbach-Rosenberg", "addr:housenumber": "16", "addr:postcode": "92237", "addr:street": "Krankenhausstraße", "amenity": "hospital", "contact:email": "info@kh-as.de", "contact:phone": "+49 9661 520-0", "contact:website": "https://www.kh-as.de/", "emergency": "yes", "healthcare": "hospital", "name": "St. Anna Krankenhaus", "operator": "Akademische Lehrkrankenhäuser der Paracelsus Medizinischen Privatuniversität Nürnberg"}}, {"name": "Schön Klinik", "latitude": 50.1110989, "longitude": 10.992458, "source": "osm", "_tags": {"addr:city": "Bad Staffelstein", "addr:housenumber": "11", "addr:postcode": "96231", "addr:street": "Am Kurpark", "amenity": "hospital", "beds": "330", "healthcare": "hospital", "healthcare:speciality": "orthopaedics;psychosomatic;psychiatry;neurology", "name": "Schön Klinik", "operator": "Schön Klinik", "operator:type": "private", "operator:wikidata": "Q2258661", "phone": "+49-9573-560", "start_date": "1995", "website": "https://www.schoen-klinik.de/bad-staffelstein", "wheelchair": "yes"}}, {"name": "Kinder- und Jugendklinik", "latitude": 49.6000839, "longitude": 11.008556, "source": "osm", "_tags": {"addr:city": "Erlangen", "addr:country": "DE", "addr:housenumber": "15", "addr:postcode": "91054", "addr:street": "Loschgestraße", "amenity": "hospital", "contact:fax": "+49 9131 85-33113", "contact:phone": "+49 9131 85-33118", "contact:website": "https://www.kinderklinik.uk-erlangen.de/", "healthcare": "hospital", "name": "Kinder- und Jugendklinik", "operator": "Universitätsklinikum Erlangen", "wheelchair": "yes"}}, {"name": "St. Johannes Klinik Auerbach", "latitude": 49.6984229, "longitude": 11.6193094, "source": "osm", "_tags": {"addr:city": "Auerbach in der Oberpfalz", "addr:country": "DE", "addr:housenumber": "1", "addr:postcode": "91275", "addr:street": "Krankenhausstraße", "amenity": "hospital", "name": "St. Johannes Klinik Auerbach", "website": "http://stjohannes.kh-as.de"}}, {"name": "Klinikum Forchheim", "latitude": 49.7132894, "longitude": 11.0783259, "source": "osm", "_tags": {"amenity": "hospital", "check_date": "2024-03-07", "healthcare": "hospital", "name": "Klinikum Forchheim", "toilets:wheelchair": "yes", "wheelchair": "yes"}}, {"name": "Reha-Klinik Lautergrund", "latitude": 50.067286, "longitude": 11.082662, "source": "osm", "_tags": {"amenity": "hospital", "healthcare": "hospital", "name": "Reha-Klinik Lautergrund"}}, {"name": "Krankenhaus Lauf", "latitude": 49.5202921, "longitude": 11.2796541, "source": "osm", "_tags": {"amenity": "hospital", "healthcare": "hospital", "name": "Krankenhaus Lauf", "survey:date": "2024-05-22"}}, {"name": "Alexander-von-Humboldt-Klinik", "latitude": 50.3698487, "longitude": 11.6503927, "source": "osm", "_tags": {"amenity": "hospital", "name": "Alexander-von-Humboldt-Klinik"}}, {"name": "Frankenalb-Klinik Engelthal", "latitude": 49.4768888, "longitude": 11.406473, "source": "osm", "_tags": {"addr:city": "Engelthal", "addr:country": "DE", "addr:housenumber": "20", "addr:postcode": "91238", "addr:street": "Reschenbergstraße", "amenity": "hospital", "name": "Frankenalb-Klinik Engelthal", "operator": "Bezirkskliniken Mittelfranken", "phone": "+49 9158 9260", "website": "http://www.frankenalbklinik.de/", "wikidata": "Q1444580", "wikipedia": "de:Frankenalb-Klinik Engelthal"}}, {"name": "Internistisches Zentrum", "latitude": 49.6015804, "longitude": 11.0113884, "source": "osm", "_tags": {"addr:city": "Erlangen", "addr:country": "DE", "addr:housenumber": "18", "addr:postcode": "91054", "addr:street": "Ulmenweg", "amenity": "hospital", "building": "hospital", "building:levels": "4", "building:levels:underground": "1", "building:material": "glass", "emergency": "no", "healthcare": "hospital", "name": "Internistisches Zentrum", "operator": "Universitätsklinikum Erlangen", "roof:shape": "many", "type": "multipolygon"}}, {"name": "Kopfkliniken", "latitude": 49.602989, "longitude": 11.0085034, "source": "osm", "_tags": {"addr:city": "Erlangen", "addr:country": "DE", "addr:housenumber": "6", "addr:postcode": "91054", "addr:street": "Schwabachanlage", "amenity": "hospital", "building": "hospital", "building:levels": "11", "healthcare": "hospital", "location": "surface", "name": "Kopfkliniken", "operator": "Universitätsklinikum Erlangen", "type": "multipolygon", "wheelchair": "yes"}}, {"name": "Chirurgisches Zentrum", "latitude": 49.5995286, "longitude": 11.0110011, "source": "osm", "_tags": {"addr:city": "Erlangen", "addr:country": "DE", "addr:housenumber": "27", "addr:postcode": "91054", "addr:street": "Östliche Stadtmauerstraße", "building": "hospital", "building:levels": "5", "emergency": "yes", "healthcare": "hospital", "healthcare:speciality": "emergency;surgery;cardiac_surgery", "name": "Chirurgisches Zentrum", "old_name": "Operatives Zentrum", "operator": "Universitätsklinik Erlangen", "roof:shape": "flat", "roof:type": "flat", "type": "multipolygon", "website": "https://www.chirurgie.uk-erlangen.de/", "wheelchair": "yes"}}, {"name": "PsoriSol-Hautklinik", "latitude": 49.5085043, "longitude": 11.4344535, "source": "osm", "_tags": {"addr:city": "Hersbruck", "addr:housenumber": "31", "addr:postcode": "91217", "addr:street": "Mühlstraße", "amenity": "hospital", "contact:email": "info@psorisol.de", "contact:fax": "+49 9151 729-200", "contact:phone": "+49 9151 729-0", "emergency": "no", "healthcare": "hospital", "healthcare:speciality": "dermatology", "name": "PsoriSol-Hautklinik", "operator": "PsoriSol-Hautklinik GmbH", "source": "DOP_LVA_BY_01", "toilets:wheelchair": "yes", "type": "multipolygon", "website": "https://www.psorisol.de/", "wheelchair": "yes"}}, {"name": "Klinikum St. Marien", "latitude": 49.4478648, "longitude": 11.8666483, "source": "osm", "_tags": {"addr:city": "Amberg", "addr:housenumber": "7", "addr:postcode": "92224", "addr:street": "Mariahilfbergweg", "building": "hospital", "emergency": "yes", "healthcare": "hospital", "name": "Klinikum St. Marien", "operator": "Klinikum St. Marien A.d.ö.R.", "operator:type": "public", "type": "multipolygon"}}]