[{"name": "Centre Hospitalier de Vervins", "latitude": 49.8323177, "longitude": 3.9027865, "source": "osm", "_tags": {"addr:city": "Vervins", "addr:housenumber": "20", "addr:postcode": "02140", "addr:street": "Place de la Liberté", "amenity": "hospital", "healthcare": "hospital", "name": "Centre Hospitalier de Vervins", "ref:FR:FINESS": "020000246", "source": "Le ministère des solidarités et de la santé - 10/2018", "type:FR:FINESS": "355"}}, {"name": "Centre de réadaptation cardiaque Léopold Bellan", "latitude": 49.478112, "longitude": 2.9912825, "source": "osm", "_tags": {"addr:full": "470 rue de Choisy, Ollencourt 60170 Tracy-le-Mont", "addr:housenumber": "470", "addr:street": "Rue de Choisy", "amenity": "hospital", "email": "cardio.ollencourt@fondationbellan.org", "fax": "+33 3 44 75 50 04", "healthcare": "hospital", "name": "Centre de réadaptation cardiaque Léopold Bellan", "operator": "Fondation Léopold Bellan", "operator:wikidata": "Q37669450", "phone": "+33 3 44 75 50 00", "ref:FR:FINESS": "600101943", "type:FR:FINESS": "129"}}, {"name": "SSR Les Abeilles", "latitude": 50.161401, "longitude": 3.4853458, "source": "osm", "_tags": {"addr:housenumber": "11", "addr:postcode": "59730", "addr:street": "Rue Foch", "amenity": "hospital", "healthcare": "hospital", "internet_access": "wlan", "name": "SSR Les Abeilles", "opening_hours": "24/7", "phone": "+33 3 27 73 77 77", "ref:FR:FINESS": "590783171", "type:FR:FINESS": "109"}}, {"name": "G.I.E SCANNER DU VERMANDOIS Centre de scanographie", "latitude": 49.8598142, "longitude": 3.3101371, "source": "osm", "_tags": {"addr:city": "Saint-Quentin", "addr:housenumber": "1", "addr:postcode": "02100", "addr:street": "Boulevard du Docteur Schweitzer", "amenity": "hospital", "healthcare": "hospital", "name": "G.I.E SCANNER DU VERMANDOIS Centre de scanographie"}}, {"name": "Imagerie médicale IRM", "latitude": 49.5622858, "longitude": 3.6088737, "source": "osm", "_tags": {"addr:housenumber": "24", "addr:street": "Rue Marcelin Berthelot", "amenity": "hospital", "healthcare": "hospital", "healthcare:speciality": "radiology", "name": "Imagerie médicale IRM", "opening_hours": "Mo-Fr 08:00-18:00", "phone": "+33 3 23 29 06 80", "ref:FR:FINESS": "020002689", "type:FR:FINESS": "698"}}, {"name": "Centre Rééducation et Réadaptation Fonctionnelle", "latitude": 49.6007536, "longitude": 3.415761, "source": "osm", "_tags": {"addr:street": "Route de Saint-Nicolas", "amenity": "hospital", "name": "Centre Rééducation et Réadaptation Fonctionnelle", "phone": "+33 3 23 38 78 00"}}, {"name": "Centre Mormal", "latitude": 50.2411512, "longitude": 3.6371685, "source": "osm", "_tags": {"addr:city": "Le Quesnoy", "addr:housenumber": "3", "addr:postcode": "59530", "addr:street": "Chemin de Ghissignies", "amenity": "hospital", "emergency": "no", "healthcare": "hospital", "healthcare:speciality": "cardiology;otorhinolaryngology;angiology;dentiste;infirmière;kiné;vascular_surgery;voir_https://centremormal.fr", "name": "Centre Mormal", "operator": "SCM Centre Mormal", "operator:type": "private", "website": "https://centremormal.fr", "wheelchair": "yes"}}, {"name": "Les Petits Cygnes", "latitude": 50.1245035, "longitude": 3.4175294, "source": "osm", "_tags": {"amenity": "hospital", "healthcare": "hospital", "healthcare:speciality": "child_psychiatry", "name": "Les Petits Cygnes", "phone": "+33327850297", "ref:FR:FINESS": "590806709", "ref:FR:SIRET": "26590678400094", "source": "Le ministère des solidarités et de la santé - 2023-05", "type:FR:FINESS": "355"}}, {"name": "L'Escale", "latitude": 50.4183374, "longitude": 2.9517632, "source": "osm", "_tags": {"amenity": "hospital", "fax": "+33321963600", "healthcare": "hospital", "name": "L'Escale", "phone": "+33321764700", "ref:FR:FINESS": "620025080", "ref:FR:SIRET": "26620933700143", "source": "Le ministère des solidarités et de la santé - 2024-09", "type:FR:FINESS": "355"}}, {"name": "Centre de jour Froissart", "latitude": 50.3639429, "longitude": 3.5228646, "source": "osm", "_tags": {"amenity": "hospital", "healthcare": "hospital", "name": "Centre de jour Froissart", "phone": "+33327140783", "ref:FR:FINESS": "590064119", "source": "Le ministère des solidarités et de la santé - 2025-05", "type:FR:FINESS": "355"}}, {"name": "Centre de jour-CMP-CATTP", "latitude": 50.3924158, "longitude": 3.532918, "source": "osm", "_tags": {"addr:housenumber": "203bis", "addr:street": "Rue Jean Jaurès", "amenity": "hospital", "healthcare": "hospital", "name": "Centre de jour-CMP-CATTP", "phone": "+33327228784", "ref:FR:FINESS": "590046728;590071767;590071775", "ref:FR:SIRET": "26590673500328", "source": "Le ministère des solidarités et de la santé - 2025-07", "type:FR:FINESS": "355"}}, {"name": "Centre Hospitalier de Chauny", "latitude": 49.6249855, "longitude": 3.2341965, "source": "osm", "_tags": {"addr:full": "94 rue des Anciens Combattants AFN et TOM 02303 Chauny", "amenity": "hospital", "emergency": "yes", "fax": "+33 3 23 39 24 33", "healthcare": "hospital", "name": "Centre Hospitalier de Chauny", "operator:type": "public", "phone": "+33 3 23 38 55 00", "ref:FR:FINESS": "020000535", "source": "cadastre-dgi-fr source : Direction Générale des Impôts - Cadastre ; mise à jour : 2009", "type:FR:FINESS": "355", "wikidata": "Q104875358"}}, {"name": "Centre Hospitalier de La Fère", "latitude": 49.6642316, "longitude": 3.3596777, "source": "osm", "_tags": {"amenity": "hospital", "name": "Centre Hospitalier de La Fère", "ref:FR:FINESS": "020000097", "source": "cadastre-dgi-fr source : Direction Générale des Impôts - Cadastre ; mise à jour : 2009"}}, {"name": "Centre Hospitalier de Noyon", "latitude": 49.5878872, "longitude": 2.9998793, "source": "osm", "_tags": {"alt_name": "Centre Hospitalier de la Haute Vallée de l'Oise", "amenity": "hospital", "emergency": "yes", "fax": "+33 3 44 44 43 01", "healthcare": "hospital", "name": "Centre Hospitalier de Noyon", "operator:type": "public", "phone": "+33 3 44 44 42 22", "ref:FR:FINESS": "600000285", "source": "cadastre-dgi-fr source : Direction Générale des Impôts - Cadastre ; mise à jour : 2009", "type:FR:FINESS": "355", "website": "https://www.ch-compiegnenoyon.fr/fr/accueil.html"}}, {"name": "Centre Hospitalier de Cambrai", "latitude": 50.1652208, "longitude": 3.2240214, "source": "osm", "_tags": {"amenity": "hospital", "contact:city": "Cambrai", "contact:fax": "+33 3 27 73 73 85", "contact:housenumber": "516", "contact:phone": "+33 3 27 73 73 73", "contact:postcode": "59400", "contact:street": "Avenue de Paris", "contact:website": "https://www.ch-cambrai.fr/", "emergency": "yes", "healthcare": "hospital", "healthcare:speciality": "intensive;psychiatry;emergency;clinical_pathology;community;surgery;paediatrics", "name": "Centre Hospitalier de Cambrai", "operator:type": "public", "ref:FR:FINESS": "590000428", "type:FR:FINESS": "355", "updated": "2023-12-29"}}, {"name": "Hôpital Léon Schwartzenberg", "latitude": 50.2518377, "longitude": 3.6271385, "source": "osm", "_tags": {"amenity": "hospital", "building": "yes", "healthcare": "hospital", "name": "Hôpital Léon Schwartzenberg", "ref:FR:FINESS": "590000477", "source": "cadastre-dgi-fr source : Direction Générale des Impôts - Cadastre. Mise à jour : 2010", "type:FR:FINESS": "365"}}, {"name": "Maison de Santé et de Cure Médicale La Plaine de la Scarpe", "latitude": 50.391024, "longitude": 3.174762, "source": "osm", "_tags": {"amenity": "hospital", "building": "yes", "healthcare": "alternative", "healthcare:speciality": "physiatry", "name": "Maison de Santé et de Cure Médicale La Plaine de la Scarpe", "ref:FR:FINESS": "590790473", "source": "cadastre-dgi-fr source : Direction Générale des Impôts - Cadastre. Mise à jour : 2011", "type:FR:FINESS": "109"}}, {"name": "Hôpital de jour Adèle Hugo", "latitude": 50.3574225, "longitude": 3.280868, "source": "osm", "_tags": {"addr:city": "Somain", "addr:housenumber": "28", "addr:postcode": "59490", "addr:street": "Rue Wilson", "amenity": "hospital", "building": "yes", "emergency": "no", "healthcare": "hospital", "healthcare:speciality": "psychiatry", "name": "Hôpital de jour Adèle Hugo", "operator": "Centre hospitalier de Somain", "ref:FR:FINESS": "590808762", "ref:FR:SIRET": "26590699000055", "source": "cadastre-dgi-fr source : Direction Générale des Impôts - Cadastre. Mise à jour : 2011", "type:FR:FINESS": "355"}}, {"name": "CMPP", "latitude": 49.828976, "longitude": 3.2803713, "source": "osm", "_tags": {"addr:city": "Gauchy", "addr:housenumber": "1", "addr:postcode": "02430", "addr:street": "Allée de l'Espoir", "alt_name": "Centre Medico-Psycho-Pédiatrique", "amenity": "hospital", "building": "yes", "building:levels": "1", "healthcare": "hospital", "healthcare:speciality": "psychiatry", "name": "CMPP", "ref:FR:FINESS": "020002481", "type:FR:FINESS": "189"}}, {"name": "Centre hospitalier de Saint-Quentin", "latitude": 49.8605475, "longitude": 3.2686019, "source": "osm", "_tags": {"amenity": "hospital", "emergency": "yes", "fax": "+33 3 23 06 73 01", "healthcare": "hospital", "healthcare:speciality": "maternity;psychiatry;ophthalmology;radiology;intensive", "name": "Centre hospitalier de Saint-Quentin", "operator:type": "public", "phone": "+33 3 23 06 71 71", "ref:FR:FINESS": "020000162", "type:FR:FINESS": "355", "website": "https://www.ch-stquentin.fr/", "wikidata": "Q50039537"}}, {"name": "Hôpital de Warquignies", "latitude": 50.4177751, "longitude": 3.8060763, "source": "osm", "_tags": {"addr:city": "Boussu", "addr:housenumber": "27", "addr:postcode": "7300", "addr:street": "Rue des Chaufours", "amenity": "hospital", "emergency": "yes", "emergency_ward": "complete", "healthcare": "hospital", "healthcare:speciality": "general", "name": "Hôpital de Warquignies", "ref:fps_health:campus": "2720", "ref:fps_health:recognition": "266", "website": "https://www.jolimont.be/hopitaux/hopital-de-warquignies"}}, {"name": "Polyclinique Vauban", "latitude": 50.3605898, "longitude": 3.512818, "source": "osm", "_tags": {"amenity": "hospital", "emergency": "yes", "fax": "+33 3 27 32 42 53", "healthcare": "hospital", "name": "Polyclinique Vauban", "operator": "Groupe Elsan", "operator:type": "private", "operator:wikidata": "Q48747106", "phone": "+33 8 26 20 42 52", "ref:FR:FINESS": "590008041", "type:FR:FINESS": "365", "website": "http://www.vauban.groupe-elsan.com/", "wheelchair": "yes"}}, {"name": "Centre Hospitalier Hornu - Frameries", "latitude": 50.4065204, "longitude": 3.8920525, "source": "osm", "_tags": {"amenity": "hospital", "designation": "CH Hornu-Frameries", "emergency": "no", "healthcare": "hospital", "name": "Centre Hospitalier Hornu - Frameries"}}, {"name": "Centre hospitalier de Laon", "latitude": 49.5632444, "longitude": 3.6112197, "source": "osm", "_tags": {"addr:housenumber": "33", "addr:street": "Rue Marcelin Berthelot", "amenity": "hospital", "emergency": "yes", "fax": "+33 3 23 24 33 60", "healthcare": "hospital", "healthcare:speciality": "intensive", "name": "Centre hospitalier de Laon", "operator:type": "public", "phone": "+33 3 23 24 33 33", "ref:FR:FINESS": "020000394", "type:FR:FINESS": "355", "website": "https://www.ch-laon.fr/"}}, {"name": "Centre de Soins", "latitude": 50.3413755, "longitude": 3.346774, "source": "osm", "_tags": {"amenity": "hospital", "building": "yes", "healthcare": "alternative", "historic": "building", "name": "Centre de Soins", "operator": "CA.R.MI", "ref:FR:FINESS": "590786984", "ref:whc": "1360-019E", "source": "cadastre-dgi-fr source : Direction Générale des Impôts - Cadastre. Mise à jour : 2012", "type:FR:FINESS": "109"}}, {"name": "Polyclinique du Parc", "latitude": 50.373405, "longitude": 3.5511821, "source": "osm", "_tags": {"addr:city": "Saint-Saulve", "addr:housenumber": "62", "addr:postcode": "59880", "addr:street": "Rue Henri Barbusse", "amenity": "hospital", "building": "yes", "healthcare": "hospital", "name": "Polyclinique du Parc", "ref:FR:FINESS": "590782298", "ref:FR:SIRET": "32262352100018", "source": "cadastre-dgi-fr source : Direction Générale des Impôts - Cadastre. Mise à jour : 2013", "type:FR:FINESS": "365"}}, {"name": "Centre Hospitalier de Valenciennes", "latitude": 50.3602739, "longitude": 3.5014134, "source": "osm", "_tags": {"amenity": "hospital", "emergency": "yes", "fax": "+33 3 27 14 31 12", "healthcare": "hospital", "healthcare:speciality": "intensive", "name": "Centre Hospitalier de Valenciennes", "operator:type": "public", "phone": "+33 3 27 14 33 33", "ref:FR:FINESS": "590000618", "type:FR:FINESS": "355", "website": "https://www.ch-valenciennes.fr/", "wikidata": "Q22961088"}}, {"name": "Centre Hospitalier de Ham", "latitude": 49.7417727, "longitude": 3.0855368, "source": "osm", "_tags": {"amenity": "hospital", "healthcare": "hospital", "name": "Centre Hospitalier de Ham", "ref:FR:FINESS": "800015588", "source": "Le ministère des solidarités et de la santé - 03/2019", "website": "https://www.ch-ham.com/"}}, {"name": "Clinique de l'Escrebieux", "latitude": 50.374841, "longitude": 3.0011231, "source": "osm", "_tags": {"amenity": "hospital", "healthcare": "hospital", "name": "Clinique de l'Escrebieux", "ref:FR:FINESS": "590813069", "type:FR:FINESS": "161"}}, {"name": "Centre Hospitalier de Somain", "latitude": 50.3546814, "longitude": 3.2878563, "source": "osm", "_tags": {"addr:city": "Somain", "addr:postcode": "59490", "addr:street": "Rue Joseph Bouliez", "amenity": "hospital", "healthcare": "hospital", "name": "Centre Hospitalier de Somain", "ref:FR:FINESS": "590000014", "short_name": "CH Somain", "type:FR:FINESS": "355"}}, {"name": "Clinique Tessier", "latitude": 50.360358, "longitude": 3.4986985, "source": "osm", "_tags": {"amenity": "hospital", "beds": "118", "building": "hospital", "healthcare": "hospital", "healthcare:speciality": "pulmonology", "name": "Clinique Tessier", "operator:type": "private", "ref:FR:FINESS": "590785374", "source": "cadastre-dgi-fr source : Direction Générale des Finances Publiques - Cadastre. Mise à jour : 2015", "type:FR:FINESS": "365", "website": "https://clinique-teissier.ahnac.com/"}}, {"name": "Centre hospitalier de Guise", "latitude": 49.9022224, "longitude": 3.6399051, "source": "osm", "_tags": {"amenity": "hospital", "healthcare": "hospital", "name": "Centre hospitalier de Guise", "ref:FR:FINESS": "020016366", "source": "Le ministère des solidarités et de la santé - 03/2019"}}, {"name": "Home \"Le Bon Repos\"", "latitude": 50.3954771, "longitude": 3.7704912, "source": "osm", "_tags": {"amenity": "hospital", "healthcare": "hospital", "name": "Home \"Le Bon Repos\""}}, {"name": "Le Roseau Vert", "latitude": 50.3772607, "longitude": 3.6657013, "source": "osm", "_tags": {"addr:housenumber": "2", "addr:street": "Place du Roseau Vert", "amenity": "hospital", "healthcare": "hospital", "name": "Le Roseau Vert"}}, {"name": "Centre hospitalier de Denain", "latitude": 50.328732, "longitude": 3.3937911, "source": "osm", "_tags": {"amenity": "hospital", "emergency": "yes", "fax": "+33 3 27 24 30 14", "healthcare": "hospital", "name": "Centre hospitalier de Denain", "operator:type": "public", "phone": "+33 3 27 24 30 00", "ref:FR:FINESS": "590000592", "type:FR:FINESS": "355", "website": "https://www.ch-denain.fr/"}}, {"name": "Centre hospitalier Le Cateau", "latitude": 50.104637, "longitude": 3.5335827, "source": "osm", "_tags": {"amenity": "hospital", "emergency": "yes", "fax": "+33 3 27 84 66 13", "healthcare": "hospital", "name": "Centre hospitalier Le Cateau", "operator:type": "public", "phone": "+33 3 27 84 66 66", "ref:FR:FINESS": "590000436", "type:FR:FINESS": "355", "website": "https://www.ch-lecateau.fr/"}}, {"name": "Centre Hospitalier de Douai", "latitude": 50.337892, "longitude": 3.1035313, "source": "osm", "_tags": {"amenity": "hospital", "emergency": "yes", "fax": "+33 3 27 99 62 80", "healthcare": "hospital", "healthcare:speciality": "intensive", "name": "Centre Hospitalier de Douai", "operator:type": "public", "phone": "+33 3 27 99 61 61", "ref:FR:FINESS": "590001004", "source": "cadastre-dgi-fr source : Direction Générale des Impôts - Cadastre. Mise à jour : 2011", "type:FR:FINESS": "355", "website": "https://www.ch-douai.fr/", "wikidata": "Q50036400"}}, {"name": "Clinique Saint-Amé", "latitude": 50.3587184, "longitude": 3.0583999, "source": "osm", "_tags": {"amenity": "hospital", "emergency": "yes", "fax": "+33 3 27 71 17 18", "healthcare": "hospital", "name": "Clinique Saint-Amé", "operator": "Ramsay Santé", "operator:type": "private", "operator:wikidata": "Q3123085", "phone": "+33 3 74 82 17 17", "ref:FR:FINESS": "590816310", "source": "cadastre-dgi-fr source : Direction Générale des Impôts - Cadastre. Mise à jour : 2019", "type:FR:FINESS": "365", "website": "https://clinique-saint-ame-douai.ramsaygds.fr/"}}, {"name": "Centre Hospitalier du Pays d'Avesnes", "latitude": 50.1147512, "longitude": 3.9223042, "source": "osm", "_tags": {"amenity": "hospital", "healthcare": "hospital", "name": "Centre Hospitalier du Pays d'Avesnes", "ref:FR:FINESS": "590000527", "type:FR:FINESS": "355", "website": "https://www.ch-avesnes.fr/"}}, {"name": "Centre Hospitalier d'Hautmont", "latitude": 50.2576932, "longitude": 3.9109289, "source": "osm", "_tags": {"amenity": "hospital", "healthcare": "hospital", "name": "Centre Hospitalier d'Hautmont", "ref:FR:FINESS": "590000451", "source": "cadastre-dgi-fr source : Direction Générale des Impôts - Cadastre ; mise à jour : 2009", "type:FR:FINESS": "355"}}, {"name": "Institut ophtalmique", "latitude": 50.3599004, "longitude": 3.2774778, "source": "osm", "_tags": {"addr:city": "Somain", "addr:housenumber": "28", "addr:postcode": "59490", "addr:street": "Rue Anatole France", "amenity": "hospital", "emergency": "no", "healthcare": "hospital", "healthcare:speciality": "surgery;ophthalmology", "name": "Institut ophtalmique", "operator": "Institut ophtalmique", "operator:type": "private", "ref:FR:FINESS": "590780060", "ref:FR:NAF": "8622C", "ref:FR:SIRET": "37858963400013", "type:FR:FINESS": "128"}}, {"name": "Centre de psychothérapie - CH de Saint-Quentin", "latitude": 49.8575707, "longitude": 3.2641501, "source": "osm", "_tags": {"addr:city": "Saint-Quentin", "addr:housenumber": "241", "addr:postcode": "02100", "addr:street": "Rue de Fayet", "amenity": "hospital", "healthcare": "hospital", "healthcare:speciality": "physiatry", "name": "Centre de psychothérapie - CH de Saint-Quentin", "operator": "Centre hospitalier de Saint-Quentin", "operator:type": "public", "ref:FR:FINESS": "020006664", "ref:FR:SIRET": "26020861600094", "type:FR:FINESS": "355"}}, {"name": "Centre de rééducation fonctionnelle La Rougeville", "latitude": 50.3725001, "longitude": 3.5519481, "source": "osm", "_tags": {"amenity": "hospital", "contact:website": "https://www.elsan.care/fr/hopitaux-prives-hainaut", "fax": "+33327239313", "healthcare": "hospital", "healthcare:speciality": "physiatry", "name": "Centre de rééducation fonctionnelle La Rougeville", "operator": "Elsan", "operator:type": "private", "operator:wikidata": "Q48747106", "phone": "+33826209400", "ref:FR:FINESS": "590034732", "ref:FR:SIRET": "32262352100018", "source": "Le ministère des solidarités et de la santé - 2025-05", "type:FR:FINESS": "109"}}, {"name": "Clinique Saint-Roch", "latitude": 50.3327474, "longitude": 3.4014425, "source": "osm", "_tags": {"addr:city": "Denain", "addr:housenumber": "440", "addr:postcode": "59220", "addr:street": "Rue Pierre Nève", "amenity": "hospital", "emergency": "no", "healthcare": "hospital", "healthcare:speciality": "physiatry", "name": "Clinique Saint-Roch", "operator": "SAS Clinique Saint-Roch", "operator:type": "private", "ref:FR:FINESS": "590782280", "ref:FR:SIRET": "35298187200042", "type:FR:FINESS": "109"}}, {"name": "Clinique Marie Savoie", "latitude": 50.0967974, "longitude": 3.5389707, "source": "osm", "_tags": {"addr:city": "Le Cateau-Cambrésis", "addr:housenumber": "26", "addr:postcode": "59360", "addr:street": "Avenue du Maréchal de Lattre de Tassigny", "amenity": "hospital", "description:healthcare:speciality": "Post-cure_psychiatrique;Réhabilitation_psychosociale", "email": "clinique.mariesavoie@orpea.net", "fax": "+33 327770547", "healthcare": "hospital", "healthcare:speciality": "psychiatry", "internet_access": "wlan", "name": "Clinique Marie Savoie", "operator": "CLINEA", "operator:type": "private", "phone": "+33 327071300", "source": "cadastre-dgi-fr source : Direction Générale des Impôts - Cadastre. Mise à jour : 2010", "website": "https://www.clinea.fr/clinique-psychiatrique-marie-savoie-le-cateau-cambresis-59", "wheelchair": "yes"}}, {"name": "Centre Hospitalier Le Quesnoy", "latitude": 50.2517676, "longitude": 3.6273549, "source": "osm", "_tags": {"amenity": "hospital", "name": "Centre Hospitalier Le Quesnoy", "ref:FR:FINESS": "590000477", "website": "https://www.ch-lequesnoy.fr/"}}, {"name": "EpiCURA Polyclinique de Frameries", "latitude": 50.406551, "longitude": 3.8924174, "source": "osm", "_tags": {"addr:city": "Frameries", "addr:housenumber": "2", "addr:postcode": "7080", "addr:street": "Rue de France", "amenity": "hospital", "emergency": "no", "healthcare": "hospital", "name": "EpiCURA Polyclinique de Frameries", "wheelchair": "yes"}}, {"name": "Hôpital de jour Françoise Dolto", "latitude": 49.5825794, "longitude": 2.9979879, "source": "osm", "_tags": {"amenity": "hospital", "healthcare": "hospital", "name": "Hôpital de jour Françoise Dolto", "operator": "Centre hospitalier isarien - EPSM de l'Oise", "operator:type": "public", "phone": "+33344090209", "ref:FR:FINESS": "600109599", "ref:FR:SIRET": "26600711100294", "source": "Le ministère des solidarités et de la santé - 2024-03", "type:FR:FINESS": "292"}}, {"name": "Établissement public de santé mentale de l'Aisne", "latitude": 49.5463622, "longitude": 3.4096148, "source": "osm", "_tags": {"amenity": "hospital", "healthcare": "hospital", "healthcare:speciality": "psychiatry", "name": "Établissement public de santé mentale de l'Aisne", "ref:FR:FINESS": "020000543", "type": "multipolygon", "type:FR:FINESS": "292", "wikidata": "Q60857561"}}]