[{"name": "Clinique Léon Neuens", "latitude": 50.4005854, "longitude": 4.5185732, "source": "osm", "_tags": {"addr:housenumber": "80", "addr:street": "Rue du Beau Moulin", "amenity": "hospital", "name": "Clinique Léon Neuens"}}, {"name": "Dr Laflotte", "latitude": 50.1962718, "longitude": 4.5472048, "source": "osm", "_tags": {"amenity": "hospital", "emergency": "no", "name": "Dr Laflotte"}}, {"name": "Hôpital de jour Georges Galliot", "latitude": 50.2823816, "longitude": 3.9611062, "source": "osm", "_tags": {"amenity": "hospital", "fax": "+33327588041", "healthcare": "hospital", "name": "Hôpital de jour Georges Galliot", "phone": "+33327580337", "ref:FR:FINESS": "590008199", "source": "Le ministère des solidarités et de la santé - 2023-05", "type:FR:FINESS": "355"}}, {"name": "CHSA - Centre de Psychothérapie", "latitude": 50.2795423, "longitude": 3.9588577, "source": "osm", "_tags": {"building": "yes", "healthcare": "hospital", "name": "CHSA - Centre de Psychothérapie", "phone": "+33327694303", "ref:FR:FINESS": "590065785", "source": "cadastre-dgi-fr source : Direction Générale des Impôts - Cadastre;mise à jour : 2009;Le ministère des solidarités et de la santé - 2022-07", "type:FR:FINESS": "355"}}, {"name": "Clinique du Val-de-Sambre", "latitude": 50.2934593, "longitude": 3.9778366, "source": "osm", "_tags": {"amenity": "hospital", "building": "yes", "healthcare": "hospital", "name": "Clinique du Val-de-Sambre", "ref:FR:FINESS": "590813507", "source": "cadastre-dgi-fr source : Direction Générale des Impôts - Cadastre. Mise à jour : 2009", "type:FR:FINESS": "365"}}, {"name": "Hôpital Départemental de Felleries-Liessies", "latitude": 50.1361081, "longitude": 4.0883918, "source": "osm", "_tags": {"amenity": "hospital", "name": "Hôpital Départemental de Felleries-Liessies", "ref:FR:FINESS": "590000543", "source": "Le ministère des solidarités et de la santé - 03/2019"}}, {"name": "CH de Jeumont", "latitude": 50.2890432, "longitude": 4.1017426, "source": "osm", "_tags": {"amenity": "hospital", "building": "yes", "healthcare": "hospital", "name": "CH de Jeumont", "ref:FR:FINESS": "590000444", "source": "cadastre-dgi-fr source : Direction Générale des Impôts - Cadastre. Mise à jour : 2010", "type:FR:FINESS": "355"}}, {"name": "Clinique universitaire de Mont-Godinne", "latitude": 50.3584661, "longitude": 4.8825405, "source": "osm", "_tags": {"addr:housenumber": "1", "addr:street": "Avenue Docteur Gaston Thérasse", "amenity": "hospital", "emergency": "yes", "emergency_ward": "complete", "healthcare": "hospital", "healthcare:speciality": "general", "name": "Clinique universitaire de Mont-Godinne", "operator": "CHU UCL Namur", "ref:fps_health:campus": "3280", "ref:fps_health:recognition": "39", "website": "https://www.chuuclnamur.be/"}}, {"name": "Hôpital de Lobbes", "latitude": 50.3459699, "longitude": 4.2596634, "source": "osm", "_tags": {"addr:city": "Lobbes", "addr:housenumber": "25", "addr:postcode": "6540", "addr:street": "Rue de la Station", "amenity": "hospital", "description": "https://www.helora.be/hopitaux/hopital-de-lobbes", "emergency": "yes", "emergency_ward": "complete", "healthcare:speciality": "general", "name": "Hôpital de Lobbes", "official_name": "CHU Helora - Site Jolimont", "operator": "CHU Helora", "ref:fps_health:campus": "3210", "ref:fps_health:recognition": "146"}}, {"name": "Centre Hospitalier de Hirson", "latitude": 49.925312, "longitude": 4.073176, "source": "osm", "_tags": {"addr:city": "Hirson", "addr:country": "FR", "addr:housenumber": "40", "addr:postcode": "02200", "addr:street": "Rue Aux Loups", "alt_name": "Centre hospitalier Jean-Antoine Brisset", "amenity": "hospital", "building": "hospital", "email": "direction@ch-hirson.fr", "emergency": "yes", "fax": "+33 3 23 58 82 47", "healthcare": "hospital", "name": "Centre Hospitalier de Hirson", "operator:type": "public", "phone": "+33 3 23 58 82 82", "ref:FR:FINESS": "020001087", "source": "cadastre-dgi-fr source : Direction Générale des Finances Publiques - Cadastre. Mise à jour : 2014;website https://finess.sante.gouv.fr/  - 12/2022", "type:FR:FINESS": "355"}}, {"name": "Clinique des Hauts-de-France - emeis", "latitude": 50.2481286, "longitude": 3.9578633, "source": "osm", "_tags": {"addr:city": "Louvroil", "addr:postcode": "59720", "addr:street": "Route d'Avesnes", "amenity": "hospital", "healthcare": "hospital", "name": "Clinique des Hauts-de-France - emeis", "phone": "+33 3 27 62 52 52", "ref:FR:FINESS": "590816427", "type:FR:FINESS": "161", "website": "https://www.emeis-cliniques.fr/clinique-des-hauts-de-france-louvroil-59"}}, {"name": "Centre hospitalier Manchester", "latitude": 49.7622239, "longitude": 4.6985069, "source": "osm", "_tags": {"alt_name": "Centre Hospitalier de Charleville-Mézières", "amenity": "hospital", "contact:city": "Charleville-Mézières", "contact:email": "direction-hopital-charleville@ch-charleville-mezieres.fr", "contact:fax": "+33 3 24 58 70 28", "contact:housenumber": "45", "contact:phone": "+33 3 24 58 70 70", "contact:postcode": "08000", "contact:street": "Avenue de Manchester", "contact:website": "http://www.ch-charleville-mezieres.fr/", "emergency": "yes", "healthcare": "hospital", "healthcare:speciality": "intensive", "name": "Centre hospitalier Manchester", "operator:type": "public", "ref:FR:FINESS": "080000425", "type:FR:FINESS": "355"}}, {"name": "Centre Hospitalier Bélair", "latitude": 49.7899815, "longitude": 4.7189717, "source": "osm", "_tags": {"amenity": "hospital", "contact:city": "Charleville-Mézières", "contact:postcode": "08000", "contact:street": "Rue Pierre Hallali", "emergency": "no", "healthcare": "hospital", "healthcare:speciality": "psychiatry", "name": "Centre Hospitalier Bélair", "ref:FR:FINESS": "080000318", "type:FR:FINESS": "292", "wikidata": "Q2945664"}}, {"name": "Centre hospitalier de Sedan", "latitude": 49.7052102, "longitude": 4.9379555, "source": "osm", "_tags": {"addr:city": "Sedan", "addr:housenumber": "2", "addr:postcode": "40903", "addr:street": "Avenue du Général Margueritte", "amenity": "hospital", "emergency": "yes", "fax": "+33 3 24 22 85 09", "healthcare": "hospital", "name": "Centre hospitalier de Sedan", "operator:type": "public", "phone": "+33 3 24 22 80 00", "ref:FR:FINESS": "080000110", "type:FR:FINESS": "355", "website": "http://www.ch-sedan.fr/"}}, {"name": "Groupe Hospitalier Sud Ardennes", "latitude": 49.5118291, "longitude": 4.3622214, "source": "osm", "_tags": {"addr:city": "Rethel", "addr:country": "FR", "addr:housenumber": "1", "addr:postcode": "08300", "addr:street": "Place Houtourle", "alt_name": "GHSA Site de Rethel", "amenity": "hospital", "email": "direction@ch-ghsa.fr", "emergency": "yes", "facebook": "Groupe Hospitalier Sud Ardennes - Site de Rethel", "fax": "+33 3 24 38 66 23", "healthcare": "hospital", "name": "Groupe Hospitalier Sud Ardennes", "operator:type": "public", "phone": "+33 3 24 38 66 66", "ref:FR:FINESS": "080000219", "type:FR:FINESS": "355", "website": "https://www.ch-ghsa.fr/"}}, {"name": "Centre hospitalier de Fourmies", "latitude": 50.0098687, "longitude": 4.0594385, "source": "osm", "_tags": {"alt_name": "Hôpital Saint-Charles", "amenity": "hospital", "emergency": "yes", "fax": "+33 3 27 56 47 00", "healthcare": "hospital", "name": "Centre hospitalier de Fourmies", "operator:type": "public", "phone": "+33 3 27 56 47 47", "ref:FR:FINESS": "590000469", "type:FR:FINESS": "355", "website": "https://www.ch-fourmies.fr/"}}, {"name": "Centre hospitalier de Maubeuge", "latitude": 50.2802156, "longitude": 3.989216, "source": "osm", "_tags": {"amenity": "hospital", "emergency": "yes", "healthcare": "hospital", "name": "Centre hospitalier de Maubeuge", "operator:type": "public", "ref:FR:FINESS": "590000535", "type:FR:FINESS": "355", "website": "https://www.ch-maubeuge.fr/"}}, {"name": "Centre hospitalier de Fumay", "latitude": 49.9898489, "longitude": 4.7101991, "source": "osm", "_tags": {"addr:city": "Fumay", "addr:country": "FR", "addr:housenumber": "30", "addr:postcode": "08170", "addr:street": "Place du Baty", "amenity": "hospital", "fax": "+33 3 24 41 11 66", "name": "Centre hospitalier de Fumay", "operator:type": "public", "phone": "+33 3 24 41 10 32", "ref:FR:FINESS": "080000284", "type:FR:FINESS": "106"}}, {"name": "Maison de retraite", "latitude": 50.354102, "longitude": 4.0590743, "source": "osm", "_tags": {"amenity": "hospital", "healthcare": "hospital", "name": "Maison de retraite", "operator": "ACIS"}}, {"name": "Polyclinique de la Thiérache", "latitude": 50.0284712, "longitude": 4.0147184, "source": "osm", "_tags": {"amenity": "hospital", "healthcare": "hospital", "name": "Polyclinique de la Thiérache", "ref:FR:FINESS": "590006896", "source": "cadastre-dgi-fr source : Direction Générale des Impôts - Cadastre. Mise à jour : 2011", "type:FR:FINESS": "128"}}, {"name": "Centre Hospitalier de Nouzonville", "latitude": 49.8154332, "longitude": 4.7473678, "source": "osm", "_tags": {"amenity": "hospital", "check_date": "2024-03-24", "healthcare": "hospital", "name": "Centre Hospitalier de Nouzonville", "ref:FR:FINESS": "080000300", "type:FR:FINESS": "355"}}, {"name": "Centre Psychothérapeutique de jour Charles-Albert Frère", "latitude": 50.3676136, "longitude": 4.4337418, "source": "osm", "_tags": {"addr:housenumber": "650", "addr:street": "Rue de Nalinnes", "amenity": "hospital", "healthcare:speciality": "child_psychiatry", "name": "Centre Psychothérapeutique de jour Charles-Albert Frère", "website": "http://centrepsycho.be/"}}, {"name": "Institut Médico-Educatif de Boutancourt", "latitude": 49.6848932, "longitude": 4.7665212, "source": "osm", "_tags": {"amenity": "hospital", "healthcare": "hospital", "name": "Institut Médico-Educatif de Boutancourt", "website": "https://ensemble-boutancourt.fr/"}}, {"name": "Résidence de personnes âgées", "latitude": 49.7351796, "longitude": 4.8260124, "source": "osm", "_tags": {"amenity": "hospital", "healthcare": "hospital", "name": "Résidence de personnes âgées"}}, {"name": "Grand Hopital De Charleroi - Notre-Dame", "latitude": 50.417596, "longitude": 4.4546389, "source": "osm", "_tags": {"addr:housenumber": "3", "addr:street": "Grand'Rue", "alt_name": "GHdC (Notre-Dame)", "amenity": "hospital", "emergency": "no", "emergency_ward": "limited", "healthcare": "hospital", "healthcare:speciality": "general", "name": "Grand Hopital De Charleroi - Notre-Dame", "phone": "+32 71 10 21 11", "ref:fps_health:campus": "3100", "ref:fps_health:recognition": "10", "website": "https://www.ghdc.be/"}}, {"name": "Polyclinique du Mambourg", "latitude": 50.413101, "longitude": 4.453336, "source": "osm", "_tags": {"amenity": "hospital", "healthcare": "hospital", "name": "Polyclinique du Mambourg"}}, {"name": "GHdC - Les Viviers", "latitude": 50.4197137, "longitude": 4.491321, "source": "osm", "_tags": {"amenity": "hospital", "emergency_ward": "complete", "healthcare": "hospital", "healthcare:speciality": "general", "name": "GHdC - Les Viviers", "operator": "Grand Hôpital de Charleroi", "website": "https://www.ghdc.be/implantations/les-viviers"}}, {"name": "Campus Helha/IESCA/UCL", "latitude": 50.4085915, "longitude": 4.4813415, "source": "osm", "_tags": {"addr:city": "Charleroi", "addr:postcode": "6061", "addr:street": "Rue Trieu Kaisin", "amenity": "university", "healthcare": "hospital", "internet_access": "yes", "internet_access:fee": "customers", "name": "Campus Helha/IESCA/UCL"}}, {"name": "Centre de santé des Fagnes", "latitude": 50.0448356, "longitude": 4.3098053, "source": "osm", "_tags": {"addr:housenumber": "18", "addr:street": "Boulevard Louise", "amenity": "hospital", "emergency": "yes", "emergency_ward": "complete", "healthcare": "hospital", "healthcare:speciality": "general", "name": "Centre de santé des Fagnes", "phone": "+32 60 21 88 11", "ref:fps_health:campus": "3160", "ref:fps_health:recognition": "249", "website": "https://csf.be/"}}, {"name": "Hôpital Vincent Van Gogh", "latitude": 50.4044242, "longitude": 4.4011684, "source": "osm", "_tags": {"amenity": "hospital", "fax": "+32 71 92 00 61", "healthcare:speciality": "psychiatry", "name": "Hôpital Vincent Van Gogh", "phone": "+32 71 92 14 11", "website": "https://www.humani.be/chu-charleroi-chimay/nos-sites-hospitaliers/hopital-vincent-van-gogh/"}}, {"name": "CHU Charleroi-Chimay - André Vésale", "latitude": 50.3599139, "longitude": 4.3682237, "source": "osm", "_tags": {"addr:city": "Montigny-le-Tilleul", "addr:housenumber": "706", "addr:postcode": "6110", "addr:street": "Rue de Gozée", "amenity": "hospital", "building": "hospital", "emergency": "yes", "emergency_ward": "complete", "healthcare:speciality": "general", "name": "CHU Charleroi-Chimay - André Vésale", "operator": "CHU Charleroi-Chimay", "operator:type": "university", "ref:fps_health:campus": "2750", "ref:fps_health:recognition": "325", "type": "multipolygon", "website": "https://www.humani.be/chu-charleroi-chimay/nos-sites-hospitaliers/hopital-andre-vesale/"}}]