[{"name": "Золочівська районна лікарня", "latitude": 49.800195, "longitude": 24.8933898, "source": "osm", "_tags": {"amenity": "hospital", "name": "Золочівська районна лікарня", "name:uk": "Золочівська районна лікарня"}}, {"name": "Львівський обласний клінічний психоневрологічний диспансер", "latitude": 49.8290367, "longitude": 24.0463281, "source": "osm", "_tags": {"amenity": "hospital", "healthcare": "hospital", "name": "Львівський обласний клінічний психоневрологічний диспансер", "name:ru": "Львовский областной клинический психоневрологический диспансер", "name:uk": "Львівський обласний клінічний психоневрологічний диспансер"}}, {"name": "Міська лікарня № 10", "latitude": 49.8278513, "longitude": 24.0158857, "source": "osm", "_tags": {"amenity": "hospital", "healthcare": "hospital", "name": "Міська лікарня № 10", "name:ru": "Городская больница № 10", "name:uk": "Міська лікарня № 10"}}, {"name": "Дитяча поліклініка клінічної лікарні Львівської залізниці", "latitude": 49.8413535, "longitude": 24.0170977, "source": "osm", "_tags": {"amenity": "hospital", "healthcare": "hospital", "name": "Дитяча поліклініка клінічної лікарні Львівської залізниці", "name:uk": "Дитяча поліклініка клінічної лікарні Львівської залізниці"}}, {"name": "Львівський обласний клінічний наркологічний диспансер", "latitude": 49.8421704, "longitude": 24.0201736, "source": "osm", "_tags": {"amenity": "hospital", "healthcare": "hospital", "name": "Львівський обласний клінічний наркологічний диспансер", "name:uk": "Львівський обласний клінічний наркологічний диспансер"}}, {"name": "3-тя міська лікарня Дитяче поліклінічне відділення", "latitude": 49.842225, "longitude": 24.0201754, "source": "osm", "_tags": {"amenity": "hospital", "healthcare": "hospital", "name": "3-тя міська лікарня Дитяче поліклінічне відділення", "name:uk": "3-тя міська лікарня Дитяче поліклінічне відділення"}}, {"name": "Філія центру Св. Параскевії", "latitude": 49.8068649, "longitude": 23.9831673, "source": "osm", "_tags": {"amenity": "hospital", "healthcare": "hospital", "name": "Філія центру Св. Параскевії", "name:uk": "Філія центру Св. Параскевії"}}, {"name": "Неонатальна патологія", "latitude": 49.8394669, "longitude": 24.0470903, "source": "osm", "_tags": {"amenity": "clinic", "healthcare": "hospital", "name": "Неонатальна патологія", "name:ru": "неонатальная патология", "name:uk": "Неонатальна патологія"}}, {"name": "", "latitude": 49.8431776, "longitude": 24.0168264, "source": "osm", "_tags": {"amenity": "hospital", "healthcare": "hospital"}}, {"name": "", "latitude": 49.8575641, "longitude": 24.0630629, "source": "osm", "_tags": {"amenity": "hospital"}}, {"name": "Стоматолог", "latitude": 49.8688184, "longitude": 24.0573194, "source": "osm", "_tags": {"amenity": "hospital", "healthcare": "hospital", "name": "Стоматолог", "name:ru": "Стоматолог", "name:uk": "Стоматолог"}}, {"name": "Хронічний гемодіаліз", "latitude": 49.8392134, "longitude": 24.0461499, "source": "osm", "_tags": {"amenity": "clinic", "healthcare": "hospital", "name": "Хронічний гемодіаліз", "name:uk": "Хронічний гемодіаліз"}}, {"name": "Інфекційне відділення", "latitude": 49.8311127, "longitude": 24.0291289, "source": "osm", "_tags": {"amenity": "hospital", "healthcare": "hospital", "name": "Інфекційне відділення", "name:uk": "Інфекційне відділення"}}, {"name": "\"Твоє здоров'я\"", "latitude": 49.8320899, "longitude": 23.9826366, "source": "osm", "_tags": {"amenity": "hospital", "email": "tvoie-zdorovia@gmail.com", "internet_access": "wlan", "name": "\"Твоє здоров'я\"", "name:ru": "\"Твое здоровье\"", "name:uk": "\"Твоє здоров'я\"", "opening_hours": "Mo-Su 08:00-20:00", "phone": "+380 96 081 9980", "website": "https://tvoie-zdorovia.com.ua/"}}, {"name": "Гастроентерологічне відділення № 1, 2", "latitude": 49.8318332, "longitude": 24.0106717, "source": "osm", "_tags": {"amenity": "hospital", "healthcare": "hospital", "name": "Гастроентерологічне відділення № 1, 2", "name:uk": "Гастроентерологічне відділення № 1, 2"}}, {"name": "Гінекологічне відділення № 2 комунальної 3-ї міської лікарні", "latitude": 49.8338238, "longitude": 24.0079867, "source": "osm", "_tags": {"amenity": "hospital", "healthcare": "hospital", "name": "Гінекологічне відділення № 2 комунальної 3-ї міської лікарні", "name:ru": "Гинекологическое отделение № 2 коммунальной 3-й городской больницы", "name:uk": "Гінекологічне відділення № 2 комунальної 3-ї міської лікарні", "operator": "3-я міська клінічна лікарня"}}, {"name": "Лікарня", "latitude": 49.9087879, "longitude": 24.2899821, "source": "osm", "_tags": {"amenity": "hospital", "healthcare": "hospital", "name": "Лікарня", "name:uk": "Лікарня"}}, {"name": "Амбулаторія загальної практики сімейної медицини", "latitude": 49.8229573, "longitude": 24.2976738, "source": "osm", "_tags": {"amenity": "hospital", "name": "Амбулаторія загальної практики сімейної медицини", "name:uk": "Амбулаторія загальної практики сімейної медицини", "opening_hours": "Mo-Fr 09:00-18:00; Sa 09:00-17:00"}}, {"name": "Вік Здоров'я", "latitude": 49.8289637, "longitude": 24.0527118, "source": "osm", "_tags": {"addr:postcode": "79017", "amenity": "hospital", "email": "reception@vikzdorovia.com.ua;reception@vikzdotovia.com.ua", "healthcare": "hospital", "name": "Вік Здоров'я", "name:en": "Vik Zdorovia", "name:uk": "Вік Здоров'я", "opening_hours": "Mo-Fr 09:00-19:00; Sa 10:00-16:00", "phone": "+380 322 32 7814", "website": "https://www.vikzdorovia.com.ua/"}}, {"name": "Поліклінічне відділення №6", "latitude": 50.3298178, "longitude": 24.1946418, "source": "osm", "_tags": {"amenity": "hospital", "name": "Поліклінічне відділення №6", "name:uk": "Поліклінічне відділення №6"}}, {"name": "Дитяча поліклініка \"ВЕСЕЛКА\"", "latitude": 49.7901333, "longitude": 24.0581704, "source": "osm", "_tags": {"addr:housenumber": "68", "addr:street": "проспект Червоної Калини", "amenity": "hospital", "healthcare": "hospital", "name": "Дитяча поліклініка \"ВЕСЕЛКА\"", "name:uk": "Дитяча поліклініка \"ВЕСЕЛКА\"", "wheelchair": "yes"}}, {"name": "Центр здоров'я родини Людмили Лотоцької-Волкової", "latitude": 49.8358481, "longitude": 24.0388239, "source": "osm", "_tags": {"amenity": "hospital", "healthcare": "hospital", "name": "Центр здоров'я родини Людмили Лотоцької-Волкової", "name:en": "Lyudmila Lototska-Volkova family health center", "name:ru": "Центр здоровья семьи Людмилы Лотоцкой-Волковой", "name:uk": "Центр здоров'я родини Людмили Лотоцької-Волкової", "opening_hours": "Mo-Fr 09:00-19:00", "phone": "+380 67 370 8404"}}, {"name": "Навчально-реабілітаційний центр „Джерело“", "latitude": 49.84667, "longitude": 23.964449, "source": "osm", "_tags": {"addr:housenumber": "23", "addr:postcode": "79052", "addr:street": "вулиця Роксоляни", "amenity": "social_facility", "description": "Осередок денного перебування для осіб з інвалідністю, віком від 18 до 45 років.", "emergency": "no", "healthcare": "hospital", "healthcare:speciality": "general", "name": "Навчально-реабілітаційний центр „Джерело“", "name:uk": "Навчально-реабілітаційний центр „Джерело“", "phone": "+380 322 27 3601", "website": "https://www.dzherelocentre.org.ua/", "wheelchair": "yes"}}, {"name": "Грушківський психоневрологічний інтернат", "latitude": 49.7486978, "longitude": 24.543981, "source": "osm", "_tags": {"amenity": "hospital", "name": "Грушківський психоневрологічний інтернат", "name:uk": "Грушківський психоневрологічний інтернат", "operator": "Львівська обласна рада"}}, {"name": "Альтернатива", "latitude": 49.8290869, "longitude": 23.9927157, "source": "osm", "_tags": {"amenity": "hospital", "healthcare": "hospital", "name": "Альтернатива", "name:uk": "Альтернатива"}}, {"name": "Клініка «IQmed»", "latitude": 49.8187298, "longitude": 24.050661, "source": "osm", "_tags": {"addr:postcode": "79035", "amenity": "hospital", "email": "iqmed@iqmed.com.ua", "internet_access": "wlan", "name": "Клініка «IQmed»", "name:en": "IQmed Clinic", "name:uk": "IQmed Clinic", "opening_hours": "Mo-Fr 09:00-19:00", "phone": "+380 93 103 6103", "website": "https://iqmed.com.ua/"}}, {"name": "1-а міська клінічна лікарня імені Князя Лева", "latitude": 49.8642807, "longitude": 24.0162678, "source": "osm", "_tags": {"addr:housenumber": "99", "addr:street": "проспект Чорновола", "amenity": "hospital", "description": "Амбуляторія сімейної медицини 4", "healthcare": "hospital", "name": "1-а міська клінічна лікарня імені Князя Лева", "name:uk": "1-а міська клінічна лікарня імені Князя Лева", "opening_hours": "Mo-Fr 08:00-19:00; Sa 09:00-17:00; Su 09:00-15:00"}}, {"name": "Медичний центр Святої Параскеви", "latitude": 49.8451773, "longitude": 24.007514, "source": "osm", "_tags": {"addr:floor": "2", "addr:housenumber": "19", "addr:street": "вулиця Тараса Шевченка", "amenity": "hospital", "check_date": "2024-12-09", "healthcare": "hospital", "level": "1", "name": "Медичний центр Святої Параскеви", "name:uk": "Медичний центр Святої Параскеви", "opening_hours": "Mo-Su 08:00-20:00", "operator:type": "private", "payment:cash": "yes", "payment:mobile_app": "yes", "phone": "+380672954000", "website": "https://medcenter.lviv.ua"}}, {"name": "MonoDoctor", "latitude": 49.8456218, "longitude": 23.9962369, "source": "osm", "_tags": {"addr:housenumber": "7", "addr:postcode": "79068", "addr:street": "Залізнична вулиця", "amenity": "hospital", "email": "receptionmonodoctor@gmail.com", "healthcare": "hospital", "name": "MonoDoctor", "name:uk": "MonoDoctor", "phone": "+380663090595", "website": "https://www.monodoctor.com/"}}, {"name": "1-а міська комунальна поліклініка", "latitude": 49.8419213, "longitude": 24.0347038, "source": "osm", "_tags": {"amenity": "hospital", "healthcare": "hospital", "name": "1-а міська комунальна поліклініка", "name:uk": "1-а міська комунальна поліклініка", "phone": "+380 322 42 1811"}}, {"name": "Олеська лікарня", "latitude": 49.9616394, "longitude": 24.8704223, "source": "osm", "_tags": {"amenity": "hospital", "name": "Олеська лікарня", "name:uk": "Олеська лікарня"}}, {"name": "Інфекційне віділення Буської районної лікарні", "latitude": 49.9645174, "longitude": 24.4875973, "source": "osm", "_tags": {"amenity": "hospital", "name": "Інфекційне віділення Буської районної лікарні", "name:uk": "Інфекційне віділення Буської районної лікарні"}}, {"name": "5-та стоматологічна поліклініка", "latitude": 49.8559268, "longitude": 24.0416479, "source": "osm", "_tags": {"addr:housenumber": "18", "addr:postcode": "79024", "addr:street": "Промислова вулиця", "amenity": "hospital", "name": "5-та стоматологічна поліклініка", "name:uk": "5-та стоматологічна поліклініка"}}, {"name": "Реабілітаційний центр \"Еліта\"", "latitude": 49.8521335, "longitude": 24.0219102, "source": "osm", "_tags": {"addr:housenumber": "45а к2", "addr:postcode": "79000", "addr:street": "проспект Вʼячеслава Чорновола", "amenity": "hospital", "healthcare": "hospital", "name": "Реабілітаційний центр \"Еліта\"", "name:en": "Elita Rehabilitation Center", "name:it": "Centro di riabilitazione \"Elite\"", "name:uk": "Реабілітаційний центр \"Еліта\""}}, {"name": "Белзька районна лікарня", "latitude": 50.3828944, "longitude": 24.0076925, "source": "osm", "_tags": {"amenity": "hospital", "name": "Белзька районна лікарня"}}, {"name": "ІмплантДентал - стоматологія Львів", "latitude": 49.8373863, "longitude": 24.0306795, "source": "osm", "_tags": {"addr:housenumber": "10", "addr:postcode": "79000", "addr:street": "проспект Тараса Шевченка", "amenity": "hospital", "healthcare": "hospital", "healthcare:speciality": "stomatology", "name": "ІмплантДентал - стоматологія Львів"}}, {"name": "Львівський обласний спеціалізований диспансер радіаційного захисту населення", "latitude": 49.7977608, "longitude": 24.0662012, "source": "osm", "_tags": {"addr:housenumber": "31а", "addr:street": "Морозна вулиця", "amenity": "hospital", "building": "yes", "building:levels": "2", "healthcare": "hospital", "name": "Львівський обласний спеціалізований диспансер радіаційного захисту населення", "name:uk": "Львівський обласний спеціалізований диспансер радіаційного захисту населення", "phone": "+380 322 21 7473"}}, {"name": "", "latitude": 49.7979121, "longitude": 24.0523863, "source": "osm", "_tags": {"addr:housenumber": "57", "addr:postcode": "79070", "addr:street": "проспект Червоної Калини", "amenity": "clinic", "building": "hospital", "building:levels": "2", "building:levels_1": "4", "email": "obm4kmplviv@ukr.net", "emergency": "yes", "healthcare": "hospital", "healthcare:speciality": "general;paediatrics", "operator": "Управління охорони здоров'я Департаменту гуманітарної політики Львівської міської ради", "operator:type": "community", "phone": "+380 322 43 0350", "website": "https://4kmplviv.org.ua/", "wheelchair": "yes"}}, {"name": "Комунальна 3-тя міська стоматологічна поліклініка", "latitude": 49.8218287, "longitude": 23.9800583, "source": "osm", "_tags": {"amenity": "hospital", "building": "yes", "healthcare": "hospital", "name": "Комунальна 3-тя міська стоматологічна поліклініка", "name:uk": "Комунальна 3-тя міська стоматологічна поліклініка"}}, {"name": "Комунальна Міська Клінічна Лікарня Швидкої Медичної Допомоги", "latitude": 49.8743455, "longitude": 24.0392909, "source": "osm", "_tags": {"addr:housenumber": "9", "addr:postcode": "79059", "addr:street": "вулиця Івана Миколайчука", "amenity": "hospital", "building": "yes", "building:levels": "9", "contact:email": "emergencyhospital_uoz_lviv@ukr.net", "contact:phone": "+380 322 52 7590", "contact:website": "http://www.emergency-hospital.lviv.ua/index.html", "healthcare": "hospital", "name": "Комунальна Міська Клінічна Лікарня Швидкої Медичної Допомоги", "name:uk": "Комунальна Міська Клінічна Лікарня Швидкої Медичної Допомоги"}}, {"name": "1-е терапевтичне відділення 4-ї міської клінічної лікарні", "latitude": 49.8268875, "longitude": 24.0345486, "source": "osm", "_tags": {"addr:housenumber": "3", "addr:postcode": "79011", "addr:street": "вулиця Іларіона Свєнціцького", "amenity": "hospital", "building": "yes", "building:levels": "2", "healthcare": "hospital", "name": "1-е терапевтичне відділення 4-ї міської клінічної лікарні", "name:uk": "1-е терапевтичне відділення 4-ї міської клінічної лікарні"}}, {"name": "", "latitude": 49.826816, "longitude": 24.0347734, "source": "osm", "_tags": {"amenity": "hospital", "building": "yes", "building:levels": "2", "healthcare": "hospital"}}, {"name": "Лінкон", "latitude": 49.8526103, "longitude": 24.0214659, "source": "osm", "_tags": {"addr:housenumber": "45а к12", "addr:postcode": "79000", "addr:street": "проспект Вʼячеслава Чорновола", "amenity": "hospital", "building": "hospital", "building:levels": "2", "check_date": "2022-09-06", "healthcare": "hospital", "name": "Лінкон", "name:uk": "Лінкон", "roof:shape": "hipped", "website": "https://linkon.com.ua/"}}, {"name": "Львівська обласна госпрозрахункова поліклініка", "latitude": 49.853148, "longitude": 24.0224213, "source": "osm", "_tags": {"addr:housenumber": "45а к10", "addr:postcode": "79000", "addr:street": "проспект Вʼячеслава Чорновола", "amenity": "hospital", "building": "hospital", "building:levels": "2", "healthcare": "hospital", "name": "Львівська обласна госпрозрахункова поліклініка", "name:uk": "Львівська обласна госпрозрахункова поліклініка", "roof:shape": "hipped"}}, {"name": "", "latitude": 50.0562151, "longitude": 23.9774648, "source": "osm", "_tags": {"amenity": "hospital", "emergency": "yes", "healthcare": "hospital"}}, {"name": "", "latitude": 49.8343613, "longitude": 24.0094798, "source": "osm", "_tags": {"addr:housenumber": "1", "addr:postcode": "79013", "addr:street": "вулиця Євгена Коновальця", "amenity": "hospital", "building": "yes", "building:levels": "4", "healthcare": "hospital"}}, {"name": "Поліклінічне відділення обласного онкодиспансера", "latitude": 49.8304974, "longitude": 24.0047954, "source": "osm", "_tags": {"addr:housenumber": "59", "addr:postcode": "79044", "addr:street": "вулиця Сергія Єфремова", "amenity": "hospital", "building": "yes", "building:levels": "3", "healthcare": "hospital", "name": "Поліклінічне відділення обласного онкодиспансера", "name:uk": "Поліклінічне відділення обласного онкодиспансера", "start_date": "1930"}}, {"name": "Комунальна 3-тя міська клінічна лікарня м. Львова", "latitude": 49.8449437, "longitude": 24.018955, "source": "osm", "_tags": {"addr:housenumber": "8", "addr:postcode": "79007", "addr:street": "вулиця Якова Раппопорта", "amenity": "hospital", "building": "yes", "healthcare": "hospital", "name": "Комунальна 3-тя міська клінічна лікарня м. Львова", "name:uk": "Комунальна 3-тя міська клінічна лікарня м. Львова"}}, {"name": "Пологовий будинок 3-ї міської клінічної лікарні", "latitude": 49.8447169, "longitude": 24.0179666, "source": "osm", "_tags": {"addr:housenumber": "4", "addr:street": "вулиця Якова Раппопорта", "amenity": "hospital", "building": "yes", "healthcare": "hospital", "name": "Пологовий будинок 3-ї міської клінічної лікарні", "name:uk": "Пологовий будинок 3-ї міської клінічної лікарні"}}, {"name": "", "latitude": 49.8428007, "longitude": 24.0437648, "source": "osm", "_tags": {"addr:housenumber": "31а", "addr:postcode": "79008", "addr:street": "вулиця Миколи Лисенка", "amenity": "hospital", "building": "yes", "building:levels": "3", "healthcare": "hospital"}}, {"name": "Львівський обласний дитячий психоневрологічний диспансер", "latitude": 49.8316665, "longitude": 24.0267438, "source": "osm", "_tags": {"addr:housenumber": "58", "addr:postcode": "79005", "addr:street": "вулиця Михайла Драгоманова", "amenity": "hospital", "building": "yes", "building:levels": "3", "name": "Львівський обласний дитячий психоневрологічний диспансер", "name:uk": "Львівський обласний дитячий психоневрологічний диспансер", "start_date": "1900"}}, {"name": "Поліклініка", "latitude": 49.8269214, "longitude": 24.0326122, "source": "osm", "_tags": {"addr:housenumber": "1", "addr:postcode": "79011", "addr:street": "Паркова вулиця", "amenity": "hospital", "architect": "Наполеон Лущкевич", "building": "yes", "building:levels": "3", "healthcare": "hospital", "name": "Поліклініка", "name:uk": "Поліклініка", "start_date": "1887"}}, {"name": "Міський дерматовенерологічний диспансер, стаціонар", "latitude": 49.850233, "longitude": 24.0477049, "source": "osm", "_tags": {"addr:housenumber": "4а", "addr:postcode": "79024", "addr:street": "вулиця Мирона Кордуби", "amenity": "hospital", "building": "yes", "name": "Міський дерматовенерологічний диспансер, стаціонар", "name:uk": "Міський дерматовенерологічний диспансер, стаціонар", "source": "bing"}}, {"name": "Львівська обласна дитяча клінічна лікарня «Охматдит»", "latitude": 49.8426841, "longitude": 24.0441804, "source": "osm", "_tags": {"addr:housenumber": "31", "addr:postcode": "79008", "addr:street": "вулиця Миколи Лисенка", "amenity": "hospital", "building": "hospital", "building:levels": "4", "emergency": "no", "name": "Львівська обласна дитяча клінічна лікарня «Охматдит»", "name:uk": "Львівська обласна дитяча клінічна лікарня «Охматдит»", "source": "bing", "start_date": "1930"}}, {"name": "Бальнеологічне відділення районої лікарні", "latitude": 50.372727, "longitude": 24.6582621, "source": "osm", "_tags": {"amenity": "hospital", "healthcare": "hospital", "name": "Бальнеологічне відділення районої лікарні", "name:uk": "Бальнеологічне відділення районої лікарні"}}, {"name": "", "latitude": 49.7057157, "longitude": 24.1931778, "source": "osm", "_tags": {"amenity": "hospital", "building": "yes"}}, {"name": "Львівський Міський Шкірновенерологічний Диспансер", "latitude": 49.8580774, "longitude": 24.0268715, "source": "osm", "_tags": {"amenity": "hospital", "check_date": "2023-01-05", "healthcare": "hospital", "name": "Львівський Міський Шкірновенерологічний Диспансер", "name:uk": "Львівський Міський Шкірновенерологічний Диспансер"}}, {"name": "Львівська Обласна Дитяча Спеціалізована Клінічна Лікарня", "latitude": 49.8153679, "longitude": 24.0476598, "source": "osm", "_tags": {"addr:postcode": "79035", "amenity": "hospital", "contact:fax": "+380 32 270 4501", "contact:phone": "+380 32 270 3479", "healthcare": "hospital", "name": "Львівська Обласна Дитяча Спеціалізована Клінічна Лікарня", "name:uk": "Львівська Обласна Дитяча Спеціалізована Клінічна Лікарня"}}, {"name": "Львівський обласний кардіологічний центр", "latitude": 49.8310414, "longitude": 23.9920006, "source": "osm", "_tags": {"amenity": "hospital", "healthcare": "hospital", "name": "Львівський обласний кардіологічний центр", "name:uk": "Львівський обласний кардіологічний центр"}}, {"name": "5-та Міська клінічна лікарня відділення стаціонару", "latitude": 49.8307903, "longitude": 24.0095869, "source": "osm", "_tags": {"addr:housenumber": "45", "addr:postcode": "79044", "addr:street": "вулиця Генерала Тараса Чупринки", "amenity": "hospital", "building": "yes", "building:levels": "5", "healthcare": "hospital", "name": "5-та Міська клінічна лікарня відділення стаціонару", "name:uk": "5-та Міська клінічна лікарня відділення стаціонару"}}, {"name": "Львівський обласний лікарсько-фізкультурний диспансер", "latitude": 49.8309367, "longitude": 24.0041545, "source": "osm", "_tags": {"addr:housenumber": "47", "addr:postcode": "79044", "addr:street": "вулиця Євгена Коновальця", "amenity": "hospital", "architect": "Ян Перось", "building": "yes", "building:levels": "3", "healthcare": "hospital", "name": "Львівський обласний лікарсько-фізкультурний диспансер", "name:uk": "Львівський обласний лікарсько-фізкультурний диспансер", "start_date": "1893"}}, {"name": "Міський психоневрологічний диспансер, стаціонар №1", "latitude": 49.8288809, "longitude": 24.0485693, "source": "osm", "_tags": {"addr:housenumber": "15а", "addr:street": "вулиця Йосипа Коциловського", "amenity": "hospital", "building": "yes", "healthcare": "hospital", "name": "Міський психоневрологічний диспансер, стаціонар №1", "name:uk": "Міський психоневрологічний диспансер, стаціонар №1"}}, {"name": "Комунальна 4-та міська клінічна лікарня", "latitude": 49.822509, "longitude": 24.0370144, "source": "osm", "_tags": {"addr:housenumber": "54", "addr:postcode": "79011", "addr:street": "вулиця Юрія Мушака", "amenity": "hospital", "building": "yes", "building:levels": "3", "name": "Комунальна 4-та міська клінічна лікарня", "name:uk": "Комунальна 4-та міська клінічна лікарня", "note": "дитяча поліклініка"}}, {"name": "Львівська обласна клінічна психіатрична лікарня", "latitude": 49.8175098, "longitude": 23.9904136, "source": "osm", "_tags": {"amenity": "hospital", "healthcare": "hospital", "name": "Львівська обласна клінічна психіатрична лікарня", "name:uk": "Львівська обласна клінічна психіатрична лікарня", "wikidata": "Q12119105", "wikipedia": "uk:Львівська обласна клінічна психіатрична лікарня"}}, {"name": "Дитяче стаціонарне протитуберкульозне відділення МО «Фтизіопульмонологія»", "latitude": 49.8777505, "longitude": 24.0056407, "source": "osm", "_tags": {"addr:housenumber": "274", "addr:postcode": "79068", "addr:street": "Замарстинівська вулиця", "amenity": "hospital", "healthcare": "hospital", "name": "Дитяче стаціонарне протитуберкульозне відділення МО «Фтизіопульмонологія»", "name:uk": "Дитяче стаціонарне протитуберкульозне відділення МО «Фтизіопульмонологія»"}}, {"name": "Лікарня УМВС України у Львівській області", "latitude": 49.8734269, "longitude": 24.0135743, "source": "osm", "_tags": {"amenity": "hospital", "check_date": "2025-07-31", "name": "Лікарня УМВС України у Львівській області", "name:uk": "Лікарня УМВС України у Львівській області"}}, {"name": "Медичний центр Святої Параскеви", "latitude": 49.8541666, "longitude": 24.0289109, "source": "osm", "_tags": {"addr:postcode": "79000", "amenity": "hospital", "check_date": "2022-07-28", "healthcare": "hospital", "internet_access": "wlan", "internet_access:fee": "no", "name": "Медичний центр Святої Параскеви", "name:en": "Medical Center of St. Paraskeva", "name:uk": "Медичний центр Святої Параскеви", "opening_hours": "Mo-Fr 08:00-20:00; Sa-Su 09:00-15:00", "phone": "+380 95 295 4000", "website": "https://medcenter.lviv.ua/ua", "wheelchair": "yes"}}, {"name": "Військово-медична служба СБУ", "latitude": 49.8326167, "longitude": 24.0196074, "source": "osm", "_tags": {"addr:housenumber": "9", "addr:postcode": "79013", "addr:street": "вулиця Дениса Лукіяновича", "amenity": "hospital", "building": "yes", "building:levels": "3", "healthcare": "hospital", "name": "Військово-медична служба СБУ", "name:uk": "Військово-медична служба СБУ"}}, {"name": "Комунальна 3-тя міська клінічна лікарня", "latitude": 49.8390193, "longitude": 24.0110919, "source": "osm", "_tags": {"addr:housenumber": "2", "addr:postcode": "79016", "addr:street": "вулиця Євгена Озаркевича", "amenity": "hospital", "building": "yes", "building:levels": "4", "healthcare": "hospital", "name": "Комунальна 3-тя міська клінічна лікарня", "name:uk": "Комунальна 3-тя міська клінічна лікарня", "start_date": "1904", "website": "http://3mkl.lviv.ua/"}}, {"name": "Львівська обласна лікарня позалегеневого туберкульозу", "latitude": 49.827415, "longitude": 24.0151928, "source": "osm", "_tags": {"addr:housenumber": "5", "addr:street": "вулиця Тадеуша Бой-Желенського", "amenity": "hospital", "healthcare": "hospital", "name": "Львівська обласна лікарня позалегеневого туберкульозу", "name:uk": "Львівська обласна лікарня позалегеневого туберкульозу"}}, {"name": "Добротвірська міська лікарня", "latitude": 50.2039943, "longitude": 24.382328, "source": "osm", "_tags": {"addr:postcode": "80411", "addr:street": "вулиця Тараса Шевченка", "amenity": "hospital", "building": "hospital", "healthcare": "hospital", "name": "Добротвірська міська лікарня", "name:uk": "Добротвірська міська лікарня"}}, {"name": "Львівський державний обласний клінічний перинатальний центр", "latitude": 49.8147726, "longitude": 24.0713384, "source": "osm", "_tags": {"addr:housenumber": "6", "addr:postcode": "79032", "addr:street": "вулиця Джорджа Вашингтона", "amenity": "hospital", "barrier": "fence", "healthcare": "hospital", "name": "Львівський державний обласний клінічний перинатальний центр", "name:ru": "Львовский областной клинический перинатальный центр", "name:uk": "Львівський державний обласний клінічний перинатальний центр"}}, {"name": "Лікарня Святого Луки", "latitude": 49.8126498, "longitude": 24.049468, "source": "osm", "_tags": {"addr:housenumber": "23", "addr:postcode": "79034", "addr:street": "вулиця Володимира Навроцького", "amenity": "hospital", "healthcare": "hospital", "healthcare:speciality": "emergency;general;surgery;intensive", "name": "Лікарня Святого Луки", "name:en": "St. Luke's Hospital", "name:uk": "Лікарня Святого Луки", "old_name": "Комунальна 8-а міська клінічна лікарня", "old_name:en": "Hospital #8", "old_name:ru": "Коммунальная 8-я городская клиническая больница", "operator": "Перше териториальне медичне об'єднання", "operator:type": "public/government"}}, {"name": "Комунальна 6-та міська поліклініка №2", "latitude": 49.8172267, "longitude": 24.1356439, "source": "osm", "_tags": {"amenity": "hospital", "healthcare": "hospital", "name": "Комунальна 6-та міська поліклініка №2", "name:uk": "Комунальна 6-та міська поліклініка №2"}}, {"name": "Новороздільська міська лікарня", "latitude": 49.467919, "longitude": 24.1407835, "source": "osm", "_tags": {"amenity": "hospital", "name": "Новороздільська міська лікарня", "name:uk": "Новороздільська міська лікарня"}}, {"name": "Військово-медичний клінічний центр західного регіону", "latitude": 49.8397241, "longitude": 24.0437509, "source": "osm", "_tags": {"amenity": "hospital", "barrier": "fence", "healthcare": "hospital", "name": "Військово-медичний клінічний центр західного регіону", "name:fr": "Centre hospitalier de médecine militaire région ouest", "name:uk": "Військово-медичний клінічний центр західного регіону", "website": "http://www.vmkczr.lviv.ua/ua/"}}, {"name": "Борщовицька амбулаторія загальної практики-сімейної медицини", "latitude": 49.8645525, "longitude": 24.2501832, "source": "osm", "_tags": {"amenity": "hospital", "name": "Борщовицька амбулаторія загальної практики-сімейної медицини", "name:uk": "Борщовицька амбулаторія загальної практики-сімейної медицини", "phone": "+380 3230 73 210"}}, {"name": "Клініка амбулаторно-поліклінічної допомоги", "latitude": 49.8446943, "longitude": 24.0135262, "source": "osm", "_tags": {"addr:housenumber": "2", "addr:postcode": "79039", "addr:street": "вулиця Ярослава Пстрака", "amenity": "hospital", "building": "yes", "check_date": "2025-05-31", "healthcare": "hospital", "name": "Клініка амбулаторно-поліклінічної допомоги", "name:uk": "Клініка амбулаторно-поліклінічної допомоги"}}, {"name": "", "latitude": 49.8819882, "longitude": 24.6318416, "source": "osm", "_tags": {"addr:postcode": "80563", "amenity": "hospital", "healthcare": "hospital", "roof:shape": "hipped"}}, {"name": "Жовківська центральна районна лікарня", "latitude": 50.0552097, "longitude": 23.980314, "source": "osm", "_tags": {"addr:housenumber": "78", "addr:postcode": "80300", "addr:street": "Львівська вулиця", "amenity": "hospital", "emergency": "yes", "healthcare": "hospital", "name": "Жовківська центральна районна лікарня", "name:en": "Zhovkva Central District Hospital", "name:uk": "Жовківська центральна районна лікарня", "opening_hours": "24/7", "phone": "+380 3252 21 856"}}, {"name": "", "latitude": 50.2199217, "longitude": 24.8479228, "source": "osm", "_tags": {"amenity": "hospital", "healthcare": "hospital"}}, {"name": "", "latitude": 49.839115, "longitude": 24.0549825, "source": "osm", "_tags": {"amenity": "hospital", "healthcare": "hospital"}}, {"name": "Психіатрична лікарня", "latitude": 49.5532778, "longitude": 23.9477732, "source": "osm", "_tags": {"amenity": "hospital", "healthcare": "hospital", "name": "Психіатрична лікарня", "name:en": "Psychiatric hospital", "name:uk": "Психіатрична лікарня"}}, {"name": "Буська центральна районна лікарня", "latitude": 49.96373, "longitude": 24.5899456, "source": "osm", "_tags": {"amenity": "hospital", "name": "Буська центральна районна лікарня", "name:uk": "Буська центральна районна лікарня"}}, {"name": "5-та Міська клінічна лікарня відділення стаціонару і поліклінічне відділення", "latitude": 49.8311602, "longitude": 24.0100069, "source": "osm", "_tags": {"addr:housenumber": "43", "addr:postcode": "79044", "addr:street": "вулиця Генерала Тараса Чупринки", "amenity": "hospital", "building": "hospital", "building:levels": "5", "healthcare": "hospital", "name": "5-та Міська клінічна лікарня відділення стаціонару і поліклінічне відділення", "name:uk": "5-та Міська клінічна лікарня відділення стаціонару і поліклінічне відділення"}}, {"name": "Пологове відділення", "latitude": 50.3900704, "longitude": 24.248981, "source": "osm", "_tags": {"addr:housenumber": "2", "addr:street": "вулиця Володимира Івасюка", "amenity": "hospital", "building": "yes", "healthcare": "hospital", "name": "Пологове відділення"}}, {"name": "Онкологічне відділення", "latitude": 50.3896286, "longitude": 24.2499359, "source": "osm", "_tags": {"addr:housenumber": "2", "addr:street": "вулиця Володимира Івасюка", "amenity": "hospital", "building": "yes", "healthcare": "hospital", "name": "Онкологічне відділення", "name:uk": "Онкологічне відділення"}}, {"name": "Міська поліклініка", "latitude": 50.3893675, "longitude": 24.248671, "source": "osm", "_tags": {"addr:housenumber": "2", "addr:street": "вулиця Володимира Івасюка", "amenity": "hospital", "building": "yes", "healthcare": "hospital", "name": "Міська поліклініка", "name:uk": "Міська поліклініка"}}, {"name": "Головний лікувальний корпус", "latitude": 50.3888546, "longitude": 24.2477959, "source": "osm", "_tags": {"addr:housenumber": "2", "addr:street": "вулиця Володимира Івасюка", "amenity": "hospital", "building": "yes", "healthcare": "hospital", "name": "Головний лікувальний корпус", "name:uk": "Головний лікувальний корпус"}}, {"name": "Інфекційне відділення", "latitude": 50.3886207, "longitude": 24.2481534, "source": "osm", "_tags": {"addr:housenumber": "2", "addr:street": "вулиця Володимира Івасюка", "amenity": "hospital", "building": "yes", "healthcare": "hospital", "name": "Інфекційне відділення", "name:uk": "Інфекційне відділення"}}, {"name": "Харчоблок та їдальня", "latitude": 50.3888337, "longitude": 24.2490225, "source": "osm", "_tags": {"addr:housenumber": "2", "addr:street": "вулиця Володимира Івасюка", "amenity": "hospital", "building": "yes", "healthcare": "hospital", "name": "Харчоблок та їдальня", "name:uk": "Харчоблок та їдальня"}}, {"name": "", "latitude": 49.831169, "longitude": 24.0102041, "source": "osm", "_tags": {"addr:housenumber": "10", "addr:street": "вулиця Івана Левинського", "amenity": "hospital", "building": "yes", "building:levels": "2", "healthcare": "hospital"}}, {"name": "Шептицька центральна міська лікарня", "latitude": 50.3891297, "longitude": 24.2486431, "source": "osm", "_tags": {"addr:housenumber": "2", "addr:street": "вулиця Володимира Івасюка", "amenity": "hospital", "healthcare": "hospital", "name": "Шептицька центральна міська лікарня", "name:uk": "Шептицька центральна міська лікарня"}}, {"name": "Психоневрологічний диспансер", "latitude": 50.3898441, "longitude": 24.2396978, "source": "osm", "_tags": {"amenity": "hospital", "healthcare": "hospital", "name": "Психоневрологічний диспансер", "name:uk": "Психоневрологічний диспансер"}}, {"name": "", "latitude": 49.8311201, "longitude": 24.0288502, "source": "osm", "_tags": {"amenity": "hospital", "healthcare": "hospital", "operator": "КЗ ЛОР Львівська обласна інфекційна клінічна лікарня"}}, {"name": "", "latitude": 49.8862153, "longitude": 24.4362798, "source": "osm", "_tags": {"amenity": "hospital", "healthcare": "hospital"}}, {"name": "Амбулаторія", "latitude": 49.748457, "longitude": 24.140499, "source": "osm", "_tags": {"amenity": "hospital", "healthcare": "hospital", "name": "Амбулаторія", "name:uk": "Амбулаторія"}}, {"name": "Глинянська районна лікарня", "latitude": 49.8272467, "longitude": 24.5253779, "source": "osm", "_tags": {"addr:housenumber": "36", "addr:street": "вулиця Андрея Шептицького", "amenity": "hospital", "healthcare": "hospital", "name": "Глинянська районна лікарня", "name:uk": "Глинянська районна лікарня"}}, {"name": "Великомостівська лікарня", "latitude": 50.246236, "longitude": 24.1441922, "source": "osm", "_tags": {"amenity": "hospital", "healthcare": "hospital", "name": "Великомостівська лікарня", "name:uk": "Великомостівська лікарня"}}, {"name": "", "latitude": 50.246403, "longitude": 24.1449804, "source": "osm", "_tags": {"addr:housenumber": "39", "addr:street": "вулиця Петра Сагайдачного", "amenity": "hospital", "healthcare": "hospital"}}, {"name": "", "latitude": 50.2951965, "longitude": 24.2395493, "source": "osm", "_tags": {"amenity": "hospital"}}, {"name": "Наркологічний диспансер", "latitude": 50.3906441, "longitude": 24.2329028, "source": "osm", "_tags": {"amenity": "hospital", "healthcare": "hospital", "name": "Наркологічний диспансер", "name:uk": "Наркологічний диспансер"}}, {"name": "5-а міська клінічна поліклініка", "latitude": 49.8258035, "longitude": 23.9670383, "source": "osm", "_tags": {"alt_name": "5-а міська клінічна поліклініка м. Львова", "amenity": "hospital", "email": "5kmp_uoz_lviv@ukr.net", "healthcare": "clinic", "name": "5-а міська клінічна поліклініка", "name:uk": "5-а міська клінічна поліклініка", "official_name": "Комунальне некомерційне підприємство „5-а міська клінічна поліклініка м. Львова“", "old_name": "5-а комунальна поліклініка", "opening_hours": "Mo-Fr 08:00-19:00; Sa 08:00-18:00; Su 09:00-15:00", "operator": "Управління охорони здоров'я Департаменту гуманітарної політики Львівської міської ради", "operator:type": "community", "phone": "+380 322 36 8700;+380 322 36 8701;+380 322 36 8702", "short_name": "КНП „5 МКП м. Львова“", "website": "https://5poliklinika.lviv.ua/"}}, {"name": "3-я міська поліклініка", "latitude": 49.8448341, "longitude": 23.9677436, "source": "osm", "_tags": {"alt_name": "3-я міська поліклініка м.Львова", "amenity": "hospital", "check_date": "2025-06-13", "healthcare": "hospital", "healthcare:speciality": "general", "name": "3-я міська поліклініка", "name:uk": "3-я міська поліклініка", "official_name": "Комунальне некомерційне підприємство \"3-я міська поліклініка м.Львова\""}}, {"name": "", "latitude": 49.8308228, "longitude": 24.0099737, "source": "osm", "_tags": {"amenity": "hospital"}}, {"name": "Бібрська районна лікарня", "latitude": 49.6297402, "longitude": 24.2844136, "source": "osm", "_tags": {"amenity": "hospital", "healthcare": "hospital", "name": "Бібрська районна лікарня", "name:uk": "Бібрська районна лікарня"}}, {"name": "Золочівська районна лікарня", "latitude": 49.8003442, "longitude": 24.8933457, "source": "osm", "_tags": {"addr:housenumber": "48", "addr:street": "вулиця Академіка Івана Павлова", "amenity": "hospital", "email": "zolcrl@i.ua", "healthcare": "hospital", "name": "Золочівська районна лікарня", "name:uk": "Золочівська районна лікарня"}}, {"name": "Центр первинної медико-санітарної допомоги (Дитяча поліклініка)", "latitude": 50.3951315, "longitude": 24.2518716, "source": "osm", "_tags": {"amenity": "hospital", "healthcare": "hospital", "name": "Центр первинної медико-санітарної допомоги (Дитяча поліклініка)"}}, {"name": "", "latitude": 49.439057, "longitude": 24.9397978, "source": "osm", "_tags": {"amenity": "hospital", "healthcare": "hospital"}}, {"name": "Клінічна лікарня Львівської залізниці", "latitude": 49.841216, "longitude": 24.0181734, "source": "osm", "_tags": {"addr:housenumber": "5", "addr:postcode": "79007", "addr:street": "вулиця Івана Огієнка", "amenity": "hospital", "building": "hospital", "building:levels": "4", "healthcare": "hospital", "name": "Клінічна лікарня Львівської залізниці", "name:ru": "Клиническая больница Львовской железной дороги", "name:uk": "Клінічна лікарня Львівської залізниці", "start_date": "1900", "type": "multipolygon"}}, {"name": "Львівська обласна клінічна лікарня", "latitude": 49.8384844, "longitude": 24.0486188, "source": "osm", "_tags": {"amenity": "hospital", "contact:email": "lokl@ukr.net", "contact:fax": "+380 322 75 7815", "contact:phone": "+380 322 75 5020", "contact:website": "http://www.hospital.lviv.ua", "healthcare": "hospital", "name": "Львівська обласна клінічна лікарня", "name:pl": "Lwowski Obwodowy Szpital Kliniczny", "name:ru": "Львовская областная клиническая больница", "name:uk": "Львівська обласна клінічна лікарня", "official_name": "Львівська обласна клінічна лікарня", "type": "multipolygon"}}, {"name": "Обласний державний онкологічний регіональний лікувально-діагностичний центр", "latitude": 49.7948051, "longitude": 24.0249836, "source": "osm", "_tags": {"amenity": "hospital", "name": "Обласний державний онкологічний регіональний лікувально-діагностичний центр", "name:ru": "Областной государственный онкологический региональный лечебно-диагностический центр", "name:uk": "Обласний державний онкологічний регіональний лікувально-діагностичний центр", "type": "multipolygon", "website": "https://www.cancer.lviv.ua/"}}, {"name": "Львівська обласна інфекційна клінічна лікарня 7-е відділення", "latitude": 49.8421907, "longitude": 24.0463179, "source": "osm", "_tags": {"amenity": "hospital", "building:levels": "3", "building:part": "yes", "healthcare": "hospital", "name": "Львівська обласна інфекційна клінічна лікарня 7-е відділення", "name:ru": "Львовская областная инфекционная больница, 7-е отделение", "name:uk": "Львівська обласна інфекційна клінічна лікарня 7-е відділення", "name_old": "Монастир Кармеліток Босих", "type": "multipolygon"}}, {"name": "Лікарня Святого Миколая", "latitude": 49.8739089, "longitude": 24.0349469, "source": "osm", "_tags": {"addr:housenumber": "4", "addr:postcode": "79059", "addr:street": "вулиця Пилипа Орлика", "amenity": "hospital", "building": "yes", "building:levels": "5", "contact:website": "http://mdkl.lviv.ua/", "emergency": "yes", "healthcare": "hospital", "healthcare:speciality": "general;emergency;paediatrics", "name": "Лікарня Святого Миколая", "name:uk": "Лікарня Святого Миколая", "old_name": "Львівська міська дитяча клінічна лікарня", "type": "multipolygon", "wikidata": "Q30260544"}}, {"name": "Обласна дерматологічна лікарня", "latitude": 49.782547, "longitude": 23.9891461, "source": "osm", "_tags": {"amenity": "hospital", "healthcare": "hospital", "name": "Обласна дерматологічна лікарня", "name:uk": "Обласна дерматологічна лікарня", "type": "multipolygon"}}, {"name": "Львівський обласний госпіталь інвалідів війни та репресованих ім. Юрія Липи", "latitude": 49.8260997, "longitude": 24.1330994, "source": "osm", "_tags": {"amenity": "hospital", "healthcare": "hospital", "name": "Львівський обласний госпіталь інвалідів війни та репресованих ім. Юрія Липи", "name:uk": "Львівський обласний госпіталь інвалідів війни та репресованих ім. Юрія Липи", "type": "multipolygon"}}, {"name": "Радехівська центральна районна лікарня", "latitude": 50.2804927, "longitude": 24.6368852, "source": "osm", "_tags": {"amenity": "hospital", "healthcare": "hospital", "loc_name": "Радехівська лікарня", "name": "Радехівська центральна районна лікарня", "name:uk": "Радехівська центральна районна лікарня", "official_name": "Комунальне некомерційне підприємство \"Радехівська Центральна Районна Лікарня\"", "short_name": "КНП \"Радехівська ЦРЛ\"", "type": "multipolygon"}}, {"name": "Кам'янка-Бузька ЦРЛ", "latitude": 50.0962648, "longitude": 24.3379134, "source": "osm", "_tags": {"amenity": "hospital", "healthcare": "hospital", "name": "Кам'янка-Бузька ЦРЛ", "name:uk": "Кам'янка-Бузька ЦРЛ", "type": "multipolygon"}}, {"name": "Інфекційна комунальна клінічна лікарня", "latitude": 49.8337004, "longitude": 24.0497575, "source": "osm", "_tags": {"amenity": "hospital", "healthcare": "hospital", "name": "Інфекційна комунальна клінічна лікарня", "name:ru": "Коммунальная клиническая инфекционная больница", "name:uk": "Інфекційна комунальна клінічна лікарня", "type": "multipolygon"}}, {"name": "1-ша міська клінічна лікарня ім. Князя Лева", "latitude": 49.8468521, "longitude": 24.0311333, "source": "osm", "_tags": {"addr:housenumber": "1", "addr:street": "Ужгородська вулиця", "amenity": "hospital", "building": "hospital", "healthcare": "hospital", "name": "1-ша міська клінічна лікарня ім. Князя Лева", "name:pl": "Pierwszy Miejski Szpital Kliniczny im. Kniazia Lwa", "name:ru": "1-я городская клиническая больница им. Князя Льва", "name:uk": "1-ша міська клінічна лікарня ім. Князя Лева", "start_date": "1911", "type": "multipolygon"}}, {"name": "Львівський регіональний фтизіопульмонологічний клінічний лікувально-діагностичний центр (Туберкульозна лікарня)", "latitude": 49.7822087, "longitude": 24.0983186, "source": "osm", "_tags": {"addr:city": "Виннички", "amenity": "hospital", "healthcare": "hospital", "landuse": "hospital", "name": "Львівський регіональний фтизіопульмонологічний клінічний лікувально-діагностичний центр (Туберкульозна лікарня)", "name:uk": "Львівський регіональний фтизіопульмонологічний клінічний лікувально-діагностичний центр (Туберкульозна лікарня)", "type": "multipolygon", "website": "https://lunghealthlviv.com/"}}]