[{"name": "SOR", "latitude": 50.9839355, "longitude": 23.1630832, "source": "osm", "_tags": {"amenity": "clinic", "emergency": "yes", "healthcare": "hospital", "healthcare:speciality": "emergency", "name": "SOR", "official_name": "Szpitalny oddział ratunkowy", "operator": "Samodzielny Publiczny Zespół Opieki Zdrowotnej"}}, {"name": "Izba przyjęć", "latitude": 50.9838632, "longitude": 23.1625028, "source": "osm", "_tags": {"amenity": "clinic", "healthcare": "hospital", "name": "Izba przyjęć", "operator": "Samodzielny Publiczny Zespół Opieki Zdrowotnej"}}, {"name": "NZOZ \"Prof-Med\" Sp. z o.o.", "latitude": 51.1276398, "longitude": 23.4700304, "source": "osm", "_tags": {"addr:city": "Chełm", "addr:housenumber": "51", "addr:postcode": "22-100", "addr:street": "Lwowska", "amenity": "hospital", "emergency": "yes", "healthcare": "doctor", "healthcare:speciality": "general;vaccination", "name": "NZOZ \"Prof-Med\" Sp. z o.o.", "phone": "82 5656297"}}, {"name": "Samodzielny Publiczny Szpital Wojewódzki im. Papieża Jana Pawła II", "latitude": 50.7127847, "longitude": 23.2890049, "source": "osm", "_tags": {"addr:city": "Zamość", "addr:city:simc": "0987510", "addr:housenumber": "10", "addr:postcode": "22-400", "addr:street": "Aleje Jana Pawła II", "addr:street:sym_ul": "35344", "amenity": "hospital", "healthcare": "hospital", "name": "Samodzielny Publiczny Szpital Wojewódzki im. Papieża Jana Pawła II", "name:uk": "Незалежна Державна Обласна Лікарня Папи Яна Павла II"}}, {"name": "Oddział pulmonologiczny", "latitude": 50.9840659, "longitude": 23.163806, "source": "osm", "_tags": {"addr:city": "Krasnystaw", "addr:city:simc": "0930070", "addr:housenumber": "17", "addr:postcode": "22-300", "addr:street": "Stefana Okrzei", "amenity": "clinic", "building": "hospital", "emergency": "yes", "healthcare": "hospital", "healthcare:speciality": "pulmonology", "name": "Oddział pulmonologiczny", "operator": "Samodzielny Publiczny Zespół Opieki Zdrowotnej"}}, {"name": "Samodzielny Publiczny Zespół Opieki Zdrowotnej w Tomaszowie Lubelskim", "latitude": 50.4423387, "longitude": 23.4159302, "source": "osm", "_tags": {"amenity": "hospital", "contact:city": "Tomaszów Lubelski", "contact:housenumber": "1", "contact:postcode": "22-600", "contact:street": "Aleje Grunwaldzkie", "email": "szpital@szpital-tomaszow.pl", "emergency": "yes", "healthcare": "hospital", "healthcare:speciality": "general;gynaecology;orthopaedics;surgery;emergency;dialysis;maternity;paediatrics;intensive;internal;cardiology", "internet_access": "wlan", "name": "Samodzielny Publiczny Zespół Opieki Zdrowotnej w Tomaszowie Lubelskim", "name:uk": "Самостійний Публічний Комплекс Оздоровчого Догляду", "phone": "999;+48 84 664 37 55;+48 84 664 44 11;664 44 12;664 44 13;664 44 14;664 44 15;664 44 16;664 44 17;664 44 18;664 44 19", "website": "https://www.szpital-tomaszow.pl/"}}, {"name": "Samodzielne Publiczne Sanatorium Rehabilitacyjne im. Janusza Korczaka", "latitude": 50.5501283, "longitude": 23.1973341, "source": "osm", "_tags": {"addr:city": "Krasnobród", "addr:housenumber": "1", "addr:postcode": "22-440", "addr:street": "Sanatoryjna", "amenity": "hospital", "healthcare": "hospital", "healthcare:speciality": "orthopaedics;neurology", "name": "Samodzielne Publiczne Sanatorium Rehabilitacyjne im. Janusza Korczaka", "name:uk": "Самостійний Громадський Реабілітаційний Санаторій Януш Корчак", "website": "https://sanatorium-krasnobrod.pl/", "wikidata": "Q9333500", "wikipedia": "pl:Sanatorium Dziecięce im. Janusza Korczaka"}}, {"name": "Oddział neurologiczny", "latitude": 50.9828533, "longitude": 23.164826, "source": "osm", "_tags": {"addr:city": "Krasnystaw", "addr:city:simc": "0930070", "addr:housenumber": "4C", "addr:postcode": "22-300", "addr:street": "Marka Sobieskiego", "amenity": "clinic", "building": "hospital", "healthcare": "hospital", "healthcare:speciality": "neurology;rheumatology;trauma", "name": "Oddział neurologiczny", "operator": "Samodzielny Publiczny Zespół Opieki Zdrowotnej", "source:addr": "mkrasnystaw.e-mapa.net"}}, {"name": "Stacja Ratownictwa Medycznego", "latitude": 51.1436887, "longitude": 23.4582976, "source": "osm", "_tags": {"amenity": "hospital", "healthcare": "hospital", "name": "Stacja Ratownictwa Medycznego", "name:uk": "Станція швидкої медичної допомоги"}}, {"name": "Samodzielny Publiczny Zespół Opieki Zdrowotnej", "latitude": 50.9832298, "longitude": 23.1633919, "source": "osm", "_tags": {"amenity": "hospital", "contact:website": "https://www.spzozkrasnystaw.pl/cms/657/wykaz_telefonow", "emergency": "yes", "healthcare": "hospital", "name": "Samodzielny Publiczny Zespół Opieki Zdrowotnej", "name:uk": "Самостійний Публічний Комплекс Оздоровчого Догляду", "short_name": "SPZOZ w Krasnymstawie", "website": "https://www.spzozkrasnystaw.pl/"}}, {"name": "Szpital Powiatowy im. Świętej Jadwigi Królowej w Hrubieszowie", "latitude": 50.8011901, "longitude": 23.8934277, "source": "osm", "_tags": {"amenity": "hospital", "email": "sekretariat@spzozhrubieszow.pl", "emergency": "yes", "healthcare": "hospital", "name": "Szpital Powiatowy im. Świętej Jadwigi Królowej w Hrubieszowie", "name:uk": "Лікарня ім. Святої Ядвіги в Грубешеві", "phone": "84 696 26 11", "website": "http://www.spzozhrubieszow.pl"}}, {"name": "Samodzielny Publiczny Zespół Opieki Zdrowotnej", "latitude": 50.6926911, "longitude": 22.9775878, "source": "osm", "_tags": {"amenity": "hospital", "email": "biuro@zoz-szczebrzeszyn.pl", "emergency": "yes", "healthcare": "hospital", "name": "Samodzielny Publiczny Zespół Opieki Zdrowotnej", "name:uk": "Державна Лікарня", "phone": "84 68 23 520", "website": "https://www.zoz-szczebrzeszyn.pl/"}}, {"name": "Samodzielny Publiczny Wojewódzki Szpital Specjalistyczny w Chełmie", "latitude": 51.1503492, "longitude": 23.4554442, "source": "osm", "_tags": {"amenity": "hospital", "email": "szpital@szpital.chelm.pl", "healthcare": "hospital", "name": "Samodzielny Publiczny Wojewódzki Szpital Specjalistyczny w Chełmie", "phone": "+48 82 5623100", "website": "https://szpital.chelm.pl"}}, {"name": "Zamojski Szpital Niepubliczny", "latitude": 50.7239249, "longitude": 23.2545783, "source": "osm", "_tags": {"addr:street": "Peowiaków", "amenity": "hospital", "healthcare": "hospital", "name": "Zamojski Szpital Niepubliczny", "name:uk": "Замостська приватна лікарня", "phone": "+48846775000", "type": "multipolygon", "website": "https://www.szpital.com.pl/"}}]