[{"name": "Samodzielny Publiczny Wojewódzki Szpital Psychiatryczny", "latitude": 50.751438, "longitude": 22.8253314, "source": "osm", "_tags": {"addr:housenumber": "4", "addr:postcode": "22-463", "addr:street": "Klasztorna", "amenity": "hospital", "healthcare": "hospital", "name": "Samodzielny Publiczny Wojewódzki Szpital Psychiatryczny", "name:uk": "Незалежна Державна Обласна Психіатрична Лікарня", "phone": "+48846818020"}}, {"name": "Uniwersytecki Szpital Dziecięcy", "latitude": 51.26036, "longitude": 22.5610326, "source": "osm", "_tags": {"addr:city": "Lublin", "addr:housenumber": "6", "addr:postcode": "20-097", "addr:street": "Profesora Antoniego Gębali", "amenity": "hospital", "healthcare": "hospital", "name": "Uniwersytecki Szpital Dziecięcy", "name:uk": "Університетська дитяча лікарня"}}, {"name": "Wojewódzki Szpital Specjalistyczny im. Kardynała Stefana Wyszyńskiego SPZOZ w Lublinie", "latitude": 51.2562523, "longitude": 22.5671209, "source": "osm", "_tags": {"amenity": "hospital", "healthcare": "hospital", "name": "Wojewódzki Szpital Specjalistyczny im. Kardynała Stefana Wyszyńskiego SPZOZ w Lublinie", "name:uk": "Обласна Лікарня ім. Яна Божего", "website": "https://www.janbozy.pl"}}, {"name": "Izba Przyjęć USK nr 1 w Lublinie", "latitude": 51.25174, "longitude": 22.5638875, "source": "osm", "_tags": {"amenity": "hospital", "healthcare": "hospital", "name": "Izba Przyjęć USK nr 1 w Lublinie"}}, {"name": "I Klinika Psychiatrii, Psychoterapii i Wczesnej Interwencji SPSK 1", "latitude": 51.2068471, "longitude": 22.5882852, "source": "osm", "_tags": {"addr:city": "Lublin", "addr:housenumber": "1", "addr:postcode": "20-439", "addr:street": "Głuska", "amenity": "hospital", "building": "yes", "healthcare": "hospital", "healthcare:speciality": "psychiatry", "name": "I Klinika Psychiatrii, Psychoterapii i Wczesnej Interwencji SPSK 1", "name:uk": "Клініка Психіатрії, Психотерапії та Раннього втручання СПСК 1", "source": "Bing", "source:addr": "EMUiA (emuia.geoportal.gov.pl)"}}, {"name": "Powiatowy Szpital Specjalistyczny w Stalowej Woli", "latitude": 50.563532, "longitude": 22.070282, "source": "osm", "_tags": {"addr:city": "Stalowa Wola", "addr:housenumber": "4", "addr:postcode": "37-450", "addr:street": "Stanisława Staszica", "amenity": "hospital", "healthcare": "hospital", "name": "Powiatowy Szpital Specjalistyczny w Stalowej Woli", "name:uk": "Повітова спеціалізована лікарня в Стальовій Волі"}}, {"name": "Arion Szpitale - Zespół Opieki Zdrowotnej w Biłgoraju", "latitude": 50.5290109, "longitude": 22.7130887, "source": "osm", "_tags": {"addr:city": "Biłgoraj", "addr:street": "Doktora Stanisława Pojaska", "amenity": "hospital", "barrier": "fence", "email": "sekretariat.bilgoraj@arion-szpitale.pl", "emergency": "yes", "healthcare": "hospital", "name": "Arion Szpitale - Zespół Opieki Zdrowotnej w Biłgoraju", "name:uk": "Лiкарня Арiон (ЗОЗ) - Спiльнота oпiки здоров’я в Бiлгораю", "operator": "ARION Szpitale sp. z o.o.", "operator:type": "private", "phone": "+48 84 688 22 05", "website": "https://www.arion-szpitale.pl/arion_szpitale_zoz_bilgoraj"}}, {"name": "Centrum Onkologii Ziemi Lubelskiej im. św. Jana z Dukli", "latitude": 51.2578863, "longitude": 22.5675078, "source": "osm", "_tags": {"addr:city": "Lublin", "addr:housenumber": "7", "addr:postcode": "20-090", "addr:street": "Doktora Kazimierza Jaczewskiego", "amenity": "hospital", "barrier": "fence", "healthcare": "hospital", "name": "Centrum Onkologii Ziemi Lubelskiej im. św. Jana z Dukli", "name:uk": "Люблінський онкологічний диспансер вул. Іоанна з Дуклі", "short_name": "COZL w Lublinie"}}, {"name": "Szpital im. Jana Bożego", "latitude": 51.2154534, "longitude": 22.5700053, "source": "osm", "_tags": {"addr:city": "Lublin", "addr:housenumber": "21", "addr:postcode": "20-468", "addr:street": "Zbigniewa Herberta", "amenity": "hospital", "building": "hospital", "designation": "szpital", "emergency": "yes", "healthcare": "hospital", "name": "Szpital im. Jana Bożego", "name:uk": "Лікарня ім. Яна Божего", "source": "51°12'57\"N 22°34'7\"E"}}, {"name": "Szpital Powiatowy w Janowie Lubelskim (SPZZOZ)", "latitude": 50.7025676, "longitude": 22.434098, "source": "osm", "_tags": {"addr:city": "Janów Lubelski", "addr:housenumber": "149", "addr:postcode": "23-300", "addr:street": "Jana Zamoyskiego", "amenity": "hospital", "emergency": "yes", "healthcare": "hospital", "name": "Szpital Powiatowy w Janowie Lubelskim (SPZZOZ)", "opening_hours": "24/7", "source:addr": "EMUiA (emuia.geoportal.gov.pl)", "website": "https://www.szpitaljanowlubelski.pl/", "wheelchair": "yes"}}, {"name": "Szpital Powiatowy w Łęcznej (SPZOZ)", "latitude": 51.2908762, "longitude": 22.878202, "source": "osm", "_tags": {"addr:city": "Łęczna", "addr:postcode": "21-010", "addr:street": "Krasnystawska", "amenity": "hospital", "healthcare": "hospital", "name": "Szpital Powiatowy w Łęcznej (SPZOZ)", "phone": "81 75 26 516", "website": "http://www.spzoz.powiatleczynski.pl"}}, {"name": "Instytut Medycyny Wsi im. Witolda Chodźki", "latitude": 51.2561745, "longitude": 22.5630125, "source": "osm", "_tags": {"addr:city": "Lublin", "amenity": "hospital", "healthcare": "hospital", "name": "Instytut Medycyny Wsi im. Witolda Chodźki"}}, {"name": "Uniwersytecki Szpital Dziecięcy", "latitude": 51.2592171, "longitude": 22.56115, "source": "osm", "_tags": {"addr:city": "Lublin", "amenity": "hospital", "email": "sekretariat@uszd.lublin.pl", "healthcare": "hospital", "name": "Uniwersytecki Szpital Dziecięcy", "name:uk": "Університетська дитяча лікарня", "phone": "81 71 85 101", "website": "https://www.uszd.lublin.pl"}}, {"name": "Uniwersytecki Szpital Kliniczny Nr 4 w Lublinie", "latitude": 51.2588789, "longitude": 22.5649371, "source": "osm", "_tags": {"addr:city": "Lublin", "addr:housenumber": "8", "addr:street": "Doktora Kazimierza Jaczewskiego", "amenity": "hospital", "email": "szpital@usk4.lublin.pl", "healthcare": "hospital", "name": "Uniwersytecki Szpital Kliniczny Nr 4 w Lublinie", "name:uk": "Незалежна державна клінічна лікарня № 4 у Любліні", "phone": "81 724 42 26", "short_name": "USK nr 4 w Lublinie", "website": "https://www.usk4.lublin.pl"}}, {"name": "Wojewódzki Szpital Specjalistyczny im. Stefana Wyszyńskiego", "latitude": 51.2392878, "longitude": 22.50414, "source": "osm", "_tags": {"addr:city": "Lublin", "addr:housenumber": "100", "addr:postcode": "20-718", "addr:street": "Aleja Kraśnicka", "amenity": "hospital", "name": "Wojewódzki Szpital Specjalistyczny im. Stefana Wyszyńskiego", "name:uk": "Обласна Спеціалізована Лікарня ім. Стефана Вишинськего", "note:official_name": "na stronie szpitala \"Kardynała\" jest po imieniu a przed nazwiskiem", "official_name": "Wojewódzki Szpital Specjalistyczny im. Stefana Kardynała Wyszyńskiego", "phone": "+48 81 537-41-71", "website": "https://www.szpital.lublin.pl/"}}, {"name": "", "latitude": 51.283582, "longitude": 22.2113001, "source": "osm", "_tags": {"amenity": "hospital", "healthcare": "hospital"}}, {"name": "Żagiel Med Szpital", "latitude": 51.2258437, "longitude": 22.5950685, "source": "osm", "_tags": {"amenity": "hospital", "healthcare:speciality": "general;surgery;physiatry;vaccination", "name": "Żagiel Med Szpital", "name:uk": "Жагель Мед Лікарня", "operator": "Żagiel Med", "operator:type": "private", "website": "https://zagielmed.pl/"}}, {"name": "Samodzielny Publiczny Zakład Opieki Zdrowotnej Nr 1 w Bełżycach", "latitude": 51.1770178, "longitude": 22.2927832, "source": "osm", "_tags": {"amenity": "hospital", "healthcare": "hospital", "name": "Samodzielny Publiczny Zakład Opieki Zdrowotnej Nr 1 w Bełżycach", "name:uk": "Районна Лікарня", "official_name": "Samodzielny Publiczny Zakład Opieki Zdrowotnej Nr 1 - Szpital Powiatowy im. dr. Wojciecha Oczki w Bełżycach", "operator": "Samodzielny Publiczny Zakład Opieki Zdrowotnej Nr 1 w Bełżycach", "phone": "81 516 26 10", "website": "http://www.spzoz1belzyce.pl"}}, {"name": "Szpital Powiatowy w Kraśniku (SPZOZ)", "latitude": 50.9324172, "longitude": 22.2234398, "source": "osm", "_tags": {"addr:city": "Kraśnik", "addr:housenumber": "13", "addr:postcode": "23-200", "addr:street": "Fryderyka Chopina", "amenity": "hospital", "emergency": "yes", "healthcare": "hospital", "name": "Szpital Powiatowy w Kraśniku (SPZOZ)", "opening_hours": "24/7", "wheelchair": "yes"}}, {"name": "Samodzielny Publiczny Zakład Opieki Zdrowotnej w Świdniku", "latitude": 51.2214416, "longitude": 22.6945681, "source": "osm", "_tags": {"amenity": "hospital", "healthcare": "hospital", "name": "Samodzielny Publiczny Zakład Opieki Zdrowotnej w Świdniku", "name:uk": "Незалежний Центр Громадського Здоров'я в Свіднику"}}, {"name": "Samodzielny Publiczny Zakład Opieki Zdrowotnej w Świdniku", "latitude": 51.2209799, "longitude": 22.6980296, "source": "osm", "_tags": {"addr:city": "Świdnik", "addr:housenumber": "4", "addr:postcode": "21-040", "addr:street": "Bolesława Leśmiana", "amenity": "hospital", "healthcare": "hospital", "name": "Samodzielny Publiczny Zakład Opieki Zdrowotnej w Świdniku", "name:uk": "Незалежний Центр Громадського Здоров'я в Свіднику"}}, {"name": "Szpital Powiatowy im. Polskiego Czerwonego Krzyża", "latitude": 50.5199486, "longitude": 22.1430332, "source": "osm", "_tags": {"amenity": "hospital", "email": "sekretariat@szpital-nisko.pl", "emergency": "yes", "fax": "+48 15 841 67 04", "healthcare": "hospital", "healthcare:speciality": "surgery;gynaecology;orthopaedics;physiatry;intensive;anaesthetics;gastroenterology;paediatrics", "name": "Szpital Powiatowy im. Polskiego Czerwonego Krzyża", "name:uk": "Районна Лікарня ім. Польського Червоного Хреста", "official_name": "Szpital Powiatowy im. Polskiego Czerwonego Krzyża w Nisku", "phone": "+48 15 841 67 03", "website": "https://szpital-nisko.pl/"}}, {"name": "Samodzielny Publiczny Zakład Opieki Zdrowotnej - Szpital Specjalistyczny w Puławach", "latitude": 51.4212523, "longitude": 21.9733138, "source": "osm", "_tags": {"amenity": "hospital", "email": "spzoz@szpitalpulawy.pl", "emergency": "yes", "healthcare": "hospital", "name": "Samodzielny Publiczny Zakład Opieki Zdrowotnej - Szpital Specjalistyczny w Puławach", "name:uk": "Самостійне публічне підприємство оздоровчого догляду (СППОД) Спеціалізована Лікарня", "phone": "81 450 22 74", "website": "https://www.szpitalpulawy.pl//"}}, {"name": "Samodzielny Publiczny Zakład Opieki Zdrowotnej w Świdniku", "latitude": 51.2203933, "longitude": 22.6943033, "source": "osm", "_tags": {"addr:city": "Świdnik", "addr:housenumber": "22", "addr:postcode": "21-040", "addr:street": "Aleja Lotników Polskich", "amenity": "hospital", "healthcare": "hospital", "name": "Samodzielny Publiczny Zakład Opieki Zdrowotnej w Świdniku", "name:uk": "Незалежний Центр Громадського Здоров'я в Свіднику"}}, {"name": "Klinika chirurgii onkologicznej SPSK1", "latitude": 51.249929, "longitude": 22.5588749, "source": "osm", "_tags": {"amenity": "hospital", "healthcare": "hospital", "name": "Klinika chirurgii onkologicznej SPSK1"}}, {"name": "Samodzielny Publiczny Zakład Opieki Zdrowotnej w Kraśniku - Oddział Rehabilitacji", "latitude": 50.9618156, "longitude": 22.1558543, "source": "osm", "_tags": {"amenity": "hospital", "healthcare": "hospital", "name": "Samodzielny Publiczny Zakład Opieki Zdrowotnej w Kraśniku - Oddział Rehabilitacji", "phone": "8254803203", "website": "https://www.spzoz.krasnik.pl"}}, {"name": "I Wojskowy Szpital Kliniczny z Polikliniką SPZOZ w Lublinie", "latitude": 51.2515004, "longitude": 22.5344654, "source": "osm", "_tags": {"amenity": "hospital", "email": "sekretariat@1wszk.pl", "healthcare": "hospital", "name": "I Wojskowy Szpital Kliniczny z Polikliniką SPZOZ w Lublinie", "name:uk": "Військовий Госпіталь", "phone": "261 18 32 77", "website": "https://1wszk.pl/"}}, {"name": "Przychodnia \"Maki\"", "latitude": 51.2315599, "longitude": 22.5856162, "source": "osm", "_tags": {"amenity": "clinic", "healthcare": "hospital", "name": "Przychodnia \"Maki\""}}, {"name": "", "latitude": 51.2157993, "longitude": 22.5687085, "source": "osm", "_tags": {"amenity": "hospital", "healthcare": "hospital"}}, {"name": "", "latitude": 51.2517572, "longitude": 22.5575004, "source": "osm", "_tags": {"amenity": "hospital", "email": "sekretariat@spsk1.lublin.pl", "healthcare": "hospital", "phone": "81 532 50 41", "website": "Samodzielny Publiczny Szpital Kliniczny Nr 1"}}, {"name": "Samodzielny Publiczny Zakład Opieki Zdrowotnej - Szpital MSWiA w Lublinie", "latitude": 51.2268427, "longitude": 22.6143734, "source": "osm", "_tags": {"addr:city": "Lublin", "addr:housenumber": "3", "addr:postcode": "20-331", "addr:street": "Grenadierów", "amenity": "hospital", "email": "sekretariat@szpitalmsw.pl", "emergency": "yes", "healthcare": "hospital", "name": "Samodzielny Publiczny Zakład Opieki Zdrowotnej - Szpital MSWiA w Lublinie", "name:uk": "Лікарня Міністерства внутрішніх справ та управління", "operator": "MSWiA", "operator:type": "government", "phone": "81 728 46 26", "website": "https://szpitalmsw.pl/wordpress/"}}, {"name": "Ośrodek Kardiologii Inwazyjnej IKARDIA", "latitude": 51.2843389, "longitude": 22.2086101, "source": "osm", "_tags": {"amenity": "hospital", "healthcare": "hospital", "name": "Ośrodek Kardiologii Inwazyjnej IKARDIA", "name:uk": "Центр інвазивної кардіології IKARDIA", "website": "http://szpital.ikardia.pl/"}}, {"name": "Samodzielny Publiczny Zakład Opieki Zdrowotnej w Bychawie- Szpital Powiatowy", "latitude": 51.0133338, "longitude": 22.5373607, "source": "osm", "_tags": {"amenity": "hospital", "healthcare": "hospital", "name": "Samodzielny Publiczny Zakład Opieki Zdrowotnej w Bychawie- Szpital Powiatowy", "name:short": "Szpital Powiatowy w Bychawie", "name:uk": "Незалежний Центр Громадського Здоров'я в Бихаві - районна лікарня"}}, {"name": "Szpital Neuropsychiatryczny im. prof. Mieczysława Kaczyńskiego", "latitude": 51.2047185, "longitude": 22.5896521, "source": "osm", "_tags": {"addr:city": "Lublin", "addr:housenumber": "2", "addr:postcode": "20-442", "addr:street": "Abramowicka", "amenity": "hospital", "emergency": "no", "healthcare": "hospital", "healthcare:speciality": "psychiatry", "name": "Szpital Neuropsychiatryczny im. prof. Mieczysława Kaczyńskiego", "name:uk": "Нейропсихіатрична лікарня ім. професора M. Качиньського", "source": "http://www.snzoz.lublin.pl/img/body/kontakt/plan.pdf"}}, {"name": "Powiatowe Centrum Zdrowia w Opolu Lubelskim", "latitude": 51.151388, "longitude": 21.9752316, "source": "osm", "_tags": {"addr:city": "Opole Lubelskie", "addr:housenumber": "9", "addr:postcode": "24-300", "addr:street": "Szpitalna", "amenity": "hospital", "email": "sekretariat@pczol.pl", "emergency": "yes", "healthcare": "hospital", "name": "Powiatowe Centrum Zdrowia w Opolu Lubelskim", "name:uk": "Районна Лікарня в Ополю Любелським", "operator": "POWIATOWE CENTRUM ZDROWIA SPÓŁKA Z OGRANICZONĄ ODPOWIEDZIALNOŚCIĄ", "operator:type": "government", "phone": "81 458 21 58", "website": "https://www.pczol.pl"}}, {"name": "Powiatowe Centrum Zdrowia w Opolu Lubelskim, Szpital Powiatowy w Poniatowej", "latitude": 51.1743278, "longitude": 22.0747103, "source": "osm", "_tags": {"amenity": "hospital", "email": "sekretariat@pczol.pl", "name": "Powiatowe Centrum Zdrowia w Opolu Lubelskim, Szpital Powiatowy w Poniatowej", "phone": "81 458 21 58", "website": "https://www.pczol.pl"}}, {"name": "Wojewódzki Szpital Specjalistyczny im. Kardynała Stefana Wyszyńskiego SPZOZ w Lublinie", "latitude": 51.2569013, "longitude": 22.572342, "source": "osm", "_tags": {"amenity": "hospital", "healthcare": "hospital", "name": "Wojewódzki Szpital Specjalistyczny im. Kardynała Stefana Wyszyńskiego SPZOZ w Lublinie", "website": "http://janbozy.lublin.pl/pl/oddzialy"}}, {"name": "Samodzielne Publiczne Sanatorium Gruźlicy i Chorób Płuc", "latitude": 51.1852142, "longitude": 22.0694338, "source": "osm", "_tags": {"amenity": "hospital", "name": "Samodzielne Publiczne Sanatorium Gruźlicy i Chorób Płuc"}}, {"name": "Uniwersytecki Szpital Kliniczny nr 1 w Lublinie", "latitude": 51.251364, "longitude": 22.5636517, "source": "osm", "_tags": {"addr:city": "Lublin", "addr:housenumber": "16", "addr:postcode": "20-081", "addr:street": "Stanisława Staszica", "amenity": "hospital", "email": "sekretariat@usk1.pl", "healthcare": "hospital", "name": "Uniwersytecki Szpital Kliniczny nr 1 w Lublinie", "name:uk": "Університетська клінічна лікарня No1", "phone": "81 532 50 41", "website": "https://www.spsk1.lublin.pl"}}, {"name": "Wojewódzki Szpital Specjalistyczny im. Kardynała Stefana Wyszyńskiego SPZOZ w Lublinie", "latitude": 51.2561003, "longitude": 22.5667926, "source": "osm", "_tags": {"amenity": "hospital", "healthcare": "hospital", "name": "Wojewódzki Szpital Specjalistyczny im. Kardynała Stefana Wyszyńskiego SPZOZ w Lublinie"}}]