[{"name": "Демидівська ЦРЛ", "latitude": 50.4243755, "longitude": 25.3319947, "source": "osm", "_tags": {"amenity": "hospital", "designation": "Hospital", "emergency": "yes", "name": "Демидівська ЦРЛ", "name:uk": "Демидівська ЦРЛ", "source": "http://mozdocs.kiev.ua/phones.php?section=18"}}, {"name": "Медпункт", "latitude": 50.4817708, "longitude": 25.4692002, "source": "osm", "_tags": {"amenity": "hospital", "name": "Медпункт", "name:uk": "Медпункт"}}, {"name": "Обласний госпіталь для інвалідів війни", "latitude": 50.7497315, "longitude": 25.2876609, "source": "osm", "_tags": {"amenity": "hospital", "entrance": "main", "name": "Обласний госпіталь для інвалідів війни", "name:uk": "Обласний госпіталь для інвалідів війни", "official_name": "ЛПЗ \"Волинський обласний госпіталь для інвалідів війни\"", "roof:shape": "flat", "website": "https://hospital.volyn.ua/"}}, {"name": "Волинська обласна психіатрична лікарня №2", "latitude": 50.7237436, "longitude": 25.8098202, "source": "osm", "_tags": {"amenity": "hospital", "healthcare": "hospital", "name": "Волинська обласна психіатрична лікарня №2", "name:uk": "Волинська обласна психіатрична лікарня №2"}}, {"name": "Колківська РЛ", "latitude": 51.1000481, "longitude": 25.6677551, "source": "osm", "_tags": {"addr:housenumber": "26", "addr:postcode": "44661", "addr:street": "вулиця Грушевського", "amenity": "hospital", "email": "likar_mv@yandekx.ru", "name": "Колківська РЛ", "name:en": "Hospital", "name:ru": "Колковская больница", "name:uk": "Колківська РЛ", "opening_hours": "24/7", "phone": "+380 3376 32 437"}}, {"name": "Амбулаторія", "latitude": 50.7132829, "longitude": 25.816139, "source": "osm", "_tags": {"amenity": "hospital", "name": "Амбулаторія", "name:uk": "Амбулаторія"}}, {"name": "Санаторій-профілакторій ВП \"РАЕС\"", "latitude": 51.3365732, "longitude": 25.8433703, "source": "osm", "_tags": {"amenity": "hospital", "barrier": "fence", "healthcare": "hospital", "name": "Санаторій-профілакторій ВП \"РАЕС\"", "name:uk": "Санаторій-профілакторій ВП \"РАЕС\""}}, {"name": "Волинська обласна психіатрична лікарня №2", "latitude": 50.7209872, "longitude": 25.8136685, "source": "osm", "_tags": {"amenity": "hospital", "healthcare": "hospital", "name": "Волинська обласна психіатрична лікарня №2", "name:uk": "Волинська обласна психіатрична лікарня №2"}}, {"name": "Поліклініка", "latitude": 50.8239338, "longitude": 25.4665907, "source": "osm", "_tags": {"amenity": "hospital", "building": "yes", "healthcare": "hospital", "height": "12", "name": "Поліклініка", "name:uk": "Поліклініка"}}, {"name": "Комплекс соціально-медичної реабілітації", "latitude": 51.3559889, "longitude": 25.8613062, "source": "osm", "_tags": {"amenity": "hospital", "building": "no", "healthcare": "hospital", "name": "Комплекс соціально-медичної реабілітації", "name:uk": "Комплекс соціально-медичної реабілітації"}}, {"name": "Центр первинної медико-санітарної допомоги", "latitude": 50.5079399, "longitude": 25.6113714, "source": "osm", "_tags": {"amenity": "hospital", "healthcare": "hospital", "name": "Центр первинної медико-санітарної допомоги", "name:uk": "Центр первинної медико-санітарної допомоги"}}, {"name": "Медпункт", "latitude": 51.1141795, "longitude": 25.060389, "source": "osm", "_tags": {"amenity": "hospital", "healthcare": "hospital", "name": "Медпункт"}}, {"name": "Волинська обласна клінічна лікарня, корпус \"Боголюби\"", "latitude": 50.7570701, "longitude": 25.242405, "source": "osm", "_tags": {"amenity": "hospital", "healthcare": "hospital", "name": "Волинська обласна клінічна лікарня, корпус \"Боголюби\"", "name:uk": "Волинська обласна клінічна лікарня, корпус \"Боголюби\"", "type": "multipolygon"}}, {"name": "ДЗ \"Спеціалізована медико-санітарна частина №3 МОЗ України\"", "latitude": 51.3370411, "longitude": 25.8483488, "source": "osm", "_tags": {"amenity": "hospital", "barrier": "fence", "emergency": "yes", "healthcare": "hospital", "name": "ДЗ \"Спеціалізована медико-санітарна частина №3 МОЗ України\"", "name:en": "Specialized medical and sanitary unit №3 of the Ministry of Health of Ukraine", "name:ru": "ГУ \"Специализированная медико-санитарная часть №3 МОЗ Украины\"", "name:uk": "ДЗ \"Спеціалізована медико-санітарна частина №3 МОЗ України\"", "type": "multipolygon"}}, {"name": "Кузнецовське міськрайонне Управління ГУ Держсанепідслужби у Рівненській області", "latitude": 51.3370034, "longitude": 25.8457506, "source": "osm", "_tags": {"amenity": "hospital", "barrier": "fence", "name": "Кузнецовське міськрайонне Управління ГУ Держсанепідслужби у Рівненській області", "name:uk": "Кузнецовське міськрайонне Управління ГУ Держсанепідслужби у Рівненській області", "type": "multipolygon"}}, {"name": "Волинський обласний протитуберкульозний диспансер", "latitude": 50.7357795, "longitude": 25.2959582, "source": "osm", "_tags": {"amenity": "hospital", "healthcare": "hospital", "name": "Волинський обласний протитуберкульозний диспансер", "name:ru": "Волынский областной против", "name:uk": "Волинський обласний протитуберкульозний диспансер", "operator": "Волинське обласне територіальне протитуберкульозне об'єднання", "operator:type": "government", "type": "multipolygon"}}, {"name": "Волинська обласна інфекційна лікарня", "latitude": 50.7502829, "longitude": 25.3108467, "source": "osm", "_tags": {"amenity": "hospital", "email": "volyninfect@bigmir.net", "emergency": "no", "healthcare": "hospital", "height": "1.5", "name": "Волинська обласна інфекційна лікарня", "name:en": "Volyn Regional Infectious Diseases Hospital", "name:ru": "Волынская областная инфекционная больница", "name:uk": "Волинська обласна інфекційна лікарня", "operator": "КП \"ВОЛИНСЬКА ОБЛАСНА ІНФЕКЦІЙНА ЛІКАРНЯ\"", "operator:en": "THE MUNICIPAL ENTERPRISE VOLYN REGIONAL INFECTIOUS DISEASES HOSPITAL", "operator:type": "government", "phone": "+380 332 24 9444", "type": "multipolygon"}}, {"name": "", "latitude": 50.7498015, "longitude": 25.2882387, "source": "osm", "_tags": {"amenity": "hospital", "healthcare": "hospital", "type": "multipolygon"}}, {"name": "Волинська обласна лікарня", "latitude": 50.7576236, "longitude": 25.3442793, "source": "osm", "_tags": {"amenity": "hospital", "emergency": "yes", "healthcare": "hospital", "name": "Волинська обласна лікарня", "name:en": "Volyn Regional Hospital", "name:ru": "Волынская областная больница", "name:uk": "Волинська обласна лікарня", "type": "multipolygon"}}, {"name": "Луцький гарнізонний військовий госпіталь", "latitude": 50.7416538, "longitude": 25.3207031, "source": "osm", "_tags": {"amenity": "hospital", "emergency": "no", "healthcare": "hospital", "name": "Луцький гарнізонний військовий госпіталь", "name:en": "Lutsk Military Hospital", "name:uk": "Луцький гарнізонний військовий госпіталь", "type": "multipolygon"}}, {"name": "Поліклініка служби охорони здоров'я УМВС", "latitude": 50.7538627, "longitude": 25.3076995, "source": "osm", "_tags": {"amenity": "hospital", "emergency": "no", "healthcare": "hospital", "name": "Поліклініка служби охорони здоров'я УМВС", "name:en": "MIA Hospital", "name:ru": "Поликлиника службы охраны здоровья УМВД", "name:uk": "Поліклініка служби охорони здоров'я УМВС", "type": "multipolygon"}}, {"name": "Луцький геріатричний пансіонат", "latitude": 50.7582904, "longitude": 25.3901573, "source": "osm", "_tags": {"amenity": "hospital", "emergency": "no", "name": "Луцький геріатричний пансіонат", "name:en": "Nursing Home", "name:ru": "Луцкий гериатрический пансионат", "name:uk": "Луцький геріатричний пансіонат", "type": "multipolygon"}}, {"name": "Станція швидкої допомоги", "latitude": 50.7167882, "longitude": 25.3050804, "source": "osm", "_tags": {"amenity": "hospital", "emergency": "yes", "name": "Станція швидкої допомоги", "name:en": "Ambulance Station", "name:uk": "Станція швидкої допомоги", "type": "multipolygon"}}, {"name": "Волинська обласна психіатрична лікарня №1", "latitude": 50.7659087, "longitude": 25.3885393, "source": "osm", "_tags": {"amenity": "hospital", "contact:phone": "+380 332 75 0391", "emergency": "no", "healthcare": "hospital", "name": "Волинська обласна психіатрична лікарня №1", "name:uk": "Волинська обласна психіатрична лікарня №1", "type": "multipolygon"}}, {"name": "Волинський обласний наркологічний диспансер", "latitude": 50.7757358, "longitude": 25.377226, "source": "osm", "_tags": {"amenity": "hospital", "contact:phone": "+380 332 23 6386", "emergency": "no", "name": "Волинський обласний наркологічний диспансер", "name:en": "Volyn Regional Narcological Dispensary", "name:uk": "Волинський обласний наркологічний диспансер", "type": "multipolygon", "website": "http://volnarco.lutsk.ua/"}}, {"name": "Цуманська районна лікарня", "latitude": 50.8232261, "longitude": 25.8908222, "source": "osm", "_tags": {"amenity": "hospital", "healthcare": "hospital", "name": "Цуманська районна лікарня", "name:uk": "Цуманська районна лікарня", "type": "multipolygon"}}, {"name": "Військово-медична служба обласного управління СБУ", "latitude": 50.7475008, "longitude": 25.3339797, "source": "osm", "_tags": {"access": "private", "addr:housenumber": "7", "amenity": "hospital", "emergency": "no", "healthcare": "hospital", "name": "Військово-медична служба обласного управління СБУ", "name:en": "Military Medical Service of the SBU Regional Department", "name:uk": "Військово-медична служба обласного управління СБУ", "opening_hours": "Mo-Fr 08:00-13:00, 14:00-19:00; Sa 09:00-15:00", "operator": "СБУ", "operator:type": "government", "phone": "+380 332 72 0469;+380 332 24 2411", "type": "multipolygon"}}, {"name": "Луцький клінічний пологовий будинок", "latitude": 50.7574809, "longitude": 25.3415298, "source": "osm", "_tags": {"addr:housenumber": "18", "amenity": "hospital", "contact:email": "kzlkpb@gmail.com", "contact:phone": "+380 3322 31 031", "contact:website": "https://lkpb.lic.org.ua", "emergency": "no", "healthcare": "hospital", "name": "Луцький клінічний пологовий будинок", "name:en": "Lutsk maternity hospital", "name:ru": "Луцкий клинический роддом", "name:uk": "Луцький клінічний пологовий будинок", "short_name": "ЛКПБ", "type": "multipolygon"}}, {"name": "Волинський центр онкології", "latitude": 50.7286586, "longitude": 25.3009055, "source": "osm", "_tags": {"addr:housenumber": "1", "addr:postcode": "43018", "amenity": "hospital", "email": "volynood@gmail.com", "emergency": "yes", "healthcare": "hospital", "healthcare:speciality": "oncology", "name": "Волинський центр онкології", "name:en": "Volyn Regional Oncology Center", "name:ru": "Онкологический диспансер", "name:uk": "Волинський центр онкології", "official_name": "Волинський обласний медичний центр онкології", "opening_hours": "24/7", "phone": "+380 332 26 0759", "short_name": "Онкодиспансер", "type": "multipolygon", "website": "https://vood.com.ua/"}}, {"name": "", "latitude": 50.9099086, "longitude": 25.2830636, "source": "osm", "_tags": {"amenity": "hospital", "type": "multipolygon"}}, {"name": "Луцька міська клінічна лікарня", "latitude": 50.7571597, "longitude": 25.3755182, "source": "osm", "_tags": {"amenity": "hospital", "contact:phone": "+380 332 25 2297", "emergency": "yes", "name": "Луцька міська клінічна лікарня", "name:ru": "Луцкая городская клиническая больница", "name:uk": "Луцька міська клінічна лікарня", "operator": "Медичне об'єднання Луцької МТГ", "type": "multipolygon", "website": "https://www.lmkl.lutsk.ua/"}}, {"name": "Луцький центр первинної медичної допомоги", "latitude": 50.7425745, "longitude": 25.3506004, "source": "osm", "_tags": {"addr:housenumber": "66а", "addr:street": "проспект Волі", "alt_name": "Поліклініка №1", "amenity": "hospital", "email": "policlinika_1@ukr.net", "healthcare": "hospital", "name": "Луцький центр первинної медичної допомоги", "name:en": "Lutsk Centre of Primary Health Care", "name:uk": "Луцький центр первинної медичної допомоги", "official_name": "КЗ \"Луцький центр первинної медико–санітарної допомоги\"", "phone": "+380 332 72 9069", "type": "multipolygon", "website": "http://policlinika1.lutsk.ua"}}, {"name": "Волинська обласна дитяча клінічна лікарня", "latitude": 50.7620436, "longitude": 25.3800712, "source": "osm", "_tags": {"amenity": "hospital", "contact:phone": "+380 3322 56 193", "emergency": "yes", "healthcare": "hospital", "name": "Волинська обласна дитяча клінічна лікарня", "name:en": "Volyn Children's Hospital", "name:ru": "Волынская детская больница", "name:uk": "Волинська обласна дитяча клінічна лікарня", "official_name": "Волинська обласна дитяча клінічна лікарня", "type": "multipolygon", "website": "http://vodtmo.org.ua"}}, {"name": "Ківерцівська центральна районна лікарня", "latitude": 50.8245541, "longitude": 25.4668761, "source": "osm", "_tags": {"amenity": "hospital", "emergency": "yes", "name": "Ківерцівська центральна районна лікарня", "name:en": "Kivertsi Central District Hospital", "name:uk": "Ківерцівська центральна районна лікарня", "opening_hours": "24/7", "type": "multipolygon"}}, {"name": "", "latitude": 50.749493, "longitude": 25.3234234, "source": "osm", "_tags": {"amenity": "hospital", "emergency": "yes", "healthcare": "hospital", "type": "multipolygon"}}, {"name": "Торчинська районна лікарня", "latitude": 50.7670216, "longitude": 25.0069246, "source": "osm", "_tags": {"addr:housenumber": "57", "amenity": "hospital", "email": "torchinmed_@ukr.net", "healthcare": "hospital", "name": "Торчинська районна лікарня", "name:en": "Torchyn District Hospital", "name:uk": "Торчинська районна лікарня", "phone": "+380 332 79 1333", "type": "multipolygon", "website": "https://torchin.lic.org.ua/"}}, {"name": "Луцька центральна районна лікарня", "latitude": 50.7688015, "longitude": 25.3881086, "source": "osm", "_tags": {"amenity": "hospital", "contact:phone": "+380 332 75 3775", "contact:website": "http://lcrl.com.ua/", "emergency": "yes", "name": "Луцька центральна районна лікарня", "name:uk": "Луцька центральна районна лікарня", "type": "multipolygon"}}, {"name": "", "latitude": 50.5081206, "longitude": 25.6112812, "source": "osm", "_tags": {"amenity": "hospital", "type": "multipolygon"}}, {"name": "", "latitude": 50.686897, "longitude": 24.9960928, "source": "osm", "_tags": {"amenity": "hospital", "type": "multipolygon"}}, {"name": "", "latitude": 50.6978219, "longitude": 25.3049298, "source": "osm", "_tags": {"amenity": "hospital", "healthcare": "hospital", "type": "multipolygon"}}]