[{"name": "", "latitude": 50.7599783, "longitude": 14.101688, "source": "osm", "_tags": {"amenity": "hospital", "emergency": "no", "healthcare": "hospital"}}, {"name": "LDN", "latitude": 50.4223994, "longitude": 14.2546776, "source": "osm", "_tags": {"amenity": "hospital", "healthcare": "hospital", "name": "LDN"}}, {"name": "", "latitude": 50.9587874, "longitude": 13.9531555, "source": "osm", "_tags": {"addr:city": "Pirna", "addr:country": "DE", "addr:housenumber": "13", "addr:postcode": "01796", "addr:street": "Struppener Straße", "building": "hospital", "building:levels": "5", "emergency": "yes", "healthcare": "hospital", "roof:shape": "flat"}}, {"name": "Krankenhaus Bischofswerda", "latitude": 51.1361328, "longitude": 14.1785653, "source": "osm", "_tags": {"addr:city": "Bischofswerda", "addr:housenumber": "55", "addr:postcode": "01877", "addr:street": "Kamenzer Straße", "amenity": "hospital", "contact:fax": "+49 3591 3632455", "contact:phone": "+49 3591 3630", "contact:website": "https://www.oberlausitz-kliniken.de/kliniken-bereiche/krankenhaus-bischofswerda", "email": "info@oberlausitz-kliniken.de", "emergency": "yes", "fax": "+49 3594 7873177", "healthcare": "hospital", "name": "Krankenhaus Bischofswerda", "operator": "Oberlausitz-Kliniken gGmbH", "phone": "+49 3594 7870", "toilets:wheelchair": "yes", "wheelchair": "yes"}}, {"name": "", "latitude": 50.4786762, "longitude": 13.9889627, "source": "osm", "_tags": {"amenity": "hospital", "building": "civic", "building:flats": "2", "building:levels": "2", "building:ruian:type": "5", "healthcare": "hospital", "ref:ruian:building": "16684371", "source": "cuzk:ruian"}}, {"name": "Sächsisches Krankenhaus Großschweidnitz", "latitude": 51.0741916, "longitude": 14.643814, "source": "osm", "_tags": {"addr:city": "Großschweidnitz", "addr:country": "DE", "addr:housenumber": "41", "addr:postcode": "02708", "addr:street": "Dr.-Max-Krell-Park", "amenity": "hospital", "contact:phone": "+49 3585 4530", "contact:website": "https://www.skh-grossschweidnitz.sachsen.de/startseite", "healthcare": "hospital", "healthcare:speciality": "psychiatry;child_psychiatry;neurology", "name": "Sächsisches Krankenhaus Großschweidnitz", "operator": "Sächsisches Krankenhaus für Psychiatrie, Psychotherapie, Psychosomatik und Neurologie Großschweidnitz"}}, {"name": "Klinikum Oberlausitzer Bergland", "latitude": 50.899379, "longitude": 14.8211595, "source": "osm", "_tags": {"addr:city": "Zittau", "addr:country": "DE", "addr:housenumber": "8", "addr:postcode": "02763", "addr:street": "Görlitzer Straße", "amenity": "hospital", "emergency": "yes", "fax": "+49 3583 881000", "healthcare": "hospital", "name": "Klinikum Oberlausitzer Bergland", "operator": "Klinikum Oberlausitzer Bergland gemeinnützige GmbH", "phone": "+49 3583 880", "website": "https://www.klinikum-oberlausitzer-bergland.de/", "wheelchair": "yes"}}, {"name": "Nemocnice Varnsdorf", "latitude": 50.8936054, "longitude": 14.611524, "source": "osm", "_tags": {"amenity": "hospital", "name": "Nemocnice Varnsdorf", "name:de": "Krankenhaus Varnsdorf", "website": "http://nemvdf.cz"}}, {"name": "Kirnitzschtal-Klinik", "latitude": 50.9236478, "longitude": 14.1614229, "source": "osm", "_tags": {"addr:city": "Bad Schandau", "addr:country": "DE", "addr:housenumber": "6", "addr:postcode": "01814", "addr:street": "Kirnitzschtalstraße", "amenity": "hospital", "building": "hospital", "building:colour": "white", "building:levels": "4", "emergency": "no", "healthcare": "hospital", "name": "Kirnitzschtal-Klinik", "roof:colour": "grey", "roof:levels": "0", "roof:shape": "hipped", "website": "https://www.kirnitzschtal-klinik.de/", "wheelchair": "yes"}}, {"name": "Masarykova nemocnice", "latitude": 50.6802512, "longitude": 14.019645, "source": "osm", "_tags": {"amenity": "hospital", "healthcare": "hospital", "name": "Masarykova nemocnice", "website": "http://www.kzcr.eu/"}}, {"name": "Nemocnice Děčín", "latitude": 50.7815946, "longitude": 14.2262232, "source": "osm", "_tags": {"amenity": "hospital", "healthcare": "hospital", "name": "Nemocnice Děčín", "source": "cuzk:km"}}, {"name": "Oberlausitz-Kliniken", "latitude": 51.18456, "longitude": 14.4309102, "source": "osm", "_tags": {"addr:city": "Bautzen", "addr:country": "DE", "addr:housename": "Krankenhaus Bautzen", "addr:housenumber": "3", "addr:postcode": "02625", "addr:street": "Am Stadtwall", "amenity": "hospital", "email": "info@oberlausitz-kliniken.de", "emergency": "yes", "fax": "+49 3591 3632549", "healthcare": "hospital", "name": "Oberlausitz-Kliniken", "name:hsb": "Hornjołužiske kliniki", "opening_hours": "24/7", "operator": "Oberlausitz-Kliniken gGmbH", "phone": "+49 3591 3630", "website": "https://www.oberlausitz-kliniken.de", "wheelchair": "yes", "wheelchair:description": "voll", "wikidata": "Q21036448"}}, {"name": "Lužická nemocnice Rumburk", "latitude": 50.9486742, "longitude": 14.5466146, "source": "osm", "_tags": {"amenity": "hospital", "healthcare": "hospital", "name": "Lužická nemocnice Rumburk"}}, {"name": "Klinikum Oberlausitzer Bergland", "latitude": 51.0049418, "longitude": 14.5700221, "source": "osm", "_tags": {"addr:city": "Ebersbach-Neugersdorf", "addr:country": "DE", "addr:housenumber": "23", "addr:postcode": "02730", "addr:street": "Röntgenstraße", "addr:suburb": "Ebersbach", "amenity": "hospital", "contact:phone": "+49 3586 7623000", "contact:website": "http://www.klinikum-oberlausitzer-bergland.de/kliniken-bereiche/klinikum-ebersbach/", "emergency": "yes", "healthcare": "hospital", "name": "Klinikum Oberlausitzer Bergland", "operator": "Klinikum Oberlausitzer Bergland gemeinnützige GmbH", "wheelchair": "yes"}}, {"name": "Dětská léčebna Cvikov", "latitude": 50.7858207, "longitude": 14.6387471, "source": "osm", "_tags": {"amenity": "hospital", "emergency": "no", "name": "Dětská léčebna Cvikov"}}, {"name": "Léčebna respiračních chorob pro dospělé", "latitude": 50.7906777, "longitude": 14.6173736, "source": "osm", "_tags": {"amenity": "hospital", "name": "Léčebna respiračních chorob pro dospělé"}}, {"name": "Malteser Krankenhaus St. Johannes", "latitude": 51.2641258, "longitude": 14.1240854, "source": "osm", "_tags": {"addr:city": "Kamenz", "addr:country": "DE", "addr:housenumber": "40", "addr:postcode": "01917", "addr:street": "Nebelschützer Straße", "amenity": "hospital", "brand": "Malteser Hilfsdienst", "brand:wikidata": "Q1318397", "emergency": "ambulance_station", "healthcare": "hospital", "name": "Malteser Krankenhaus St. Johannes", "name:hsb": "Chorownja maltezow swjateho Jana", "operator": "Malteser Sachsen-Brandenburg gGmbH", "short_name": "MHD", "website": "https://www.malteser-krankenhaus-stjohannes.de/", "wheelchair": "yes"}}, {"name": "Wojewódzki Szpital dla Nerwowo i Psychicznie Chorych w Sieniawce", "latitude": 50.8920507, "longitude": 14.8395505, "source": "osm", "_tags": {"addr:city": "Sieniawka", "addr:country": "PL", "addr:housenumber": "25", "addr:postcode": "59-921", "addr:street": "Rolnicza", "amenity": "hospital", "building": "hospital", "healthcare": "hospital", "name": "Wojewódzki Szpital dla Nerwowo i Psychicznie Chorych w Sieniawce"}}, {"name": "Psychiatrická nemocnice Kosmonosy", "latitude": 50.4436333, "longitude": 14.9265332, "source": "osm", "_tags": {"amenity": "hospital", "contact:website": "http://www.plkosmonosy.cz", "healthcare": "hospital", "name": "Psychiatrická nemocnice Kosmonosy", "wikidata": "Q58511900", "wikipedia": "cs:Psychiatrická nemocnice Kosmonosy"}}, {"name": "Krankenhaus Emmaus Niesky", "latitude": 51.2944515, "longitude": 14.8168599, "source": "osm", "_tags": {"addr:city": "Niesky", "addr:housenumber": "24", "addr:postcode": "02906", "addr:street": "Plittstraße", "amenity": "hospital", "building": "hospital", "emergency": "yes", "healthcare": "hospital", "healthcare:speciality": "surgery;internal;anaesthetics", "name": "Krankenhaus Emmaus Niesky", "operator": "Diakonissen Anstalt Dresden", "operator:type": "religious", "phone": "+49 3588 2640", "website": "https://www.diako-dresden.de/medizinische-versorgung/krankenhaus-emmaus-niesky", "wheelchair": "yes"}}, {"name": "Asklepios Fachklinik Hohwald", "latitude": 51.0474181, "longitude": 14.2899167, "source": "osm", "_tags": {"addr:city": "Neustadt in Sachsen", "addr:country": "DE", "addr:housenumber": "40", "addr:postcode": "01844", "addr:street": "Hohwaldstraße", "addr:suburb": "Hohwald", "alt_name": "Hohwaldklinik", "amenity": "hospital", "contact:email": "hohwald@asklepios.com", "contact:fax": "+49 3596 567204", "contact:phone": "+49 3596 5670", "contact:website": "http://www.hohwaldklinik.de", "healthcare": "hospital", "healthcare:speciality": "orthopaedics", "heritage": "4", "heritage:operator": "lfd", "name": "Asklepios Fachklinik Hohwald", "operator": "Asklepios Kliniken", "operator:type": "private", "operator:wikidata": "Q732068", "ref:lfd": "09303127", "wikidata": "Q49462712", "wikimedia_commons": "Category:Hohwaldklinik"}}, {"name": "Nemocnice Česká Lípa", "latitude": 50.6855252, "longitude": 14.5497331, "source": "osm", "_tags": {"addr:city": "Česká Lípa", "addr:housenumber": "1849", "addr:postcode": "47301", "addr:street": "Purkyňova", "amenity": "hospital", "emergency": "yes", "healthcare": "hospital", "healthcare:speciality": "paediatrics;emergency;gynaecology;orthopaedics;general", "name": "Nemocnice Česká Lípa", "wikidata": "Q15119773"}}, {"name": "Nemocnice v Podhájí", "latitude": 50.945534, "longitude": 14.541849, "source": "osm", "_tags": {"amenity": "hospital", "healthcare": "hospital", "name": "Nemocnice v Podhájí"}}, {"name": "Litoměřická nemocnice", "latitude": 50.5408598, "longitude": 14.1442514, "source": "osm", "_tags": {"amenity": "hospital", "healthcare": "hospital", "name": "Litoměřická nemocnice", "website": "https://www.nemocnice-lt.cz/"}}, {"name": "VAMED Klinik Schloss Pulsnitz", "latitude": 51.1795409, "longitude": 14.0139232, "source": "osm", "_tags": {"addr:city": "Pulsnitz", "addr:country": "DE", "addr:housenumber": "1", "addr:postcode": "01896", "addr:street": "Wittgensteiner Straße", "amenity": "hospital", "building": "hospital", "contact:phone": "+493595550", "healthcare": "hospital", "name": "VAMED Klinik Schloss Pulsnitz", "operator": "VAMED Gesundheit Holding Deutschland GmbH", "website": "https://www.vamed-gesundheit.de/reha/schloss-pulsnitz/"}}, {"name": "Nemocnice Roudnice nad Labem", "latitude": 50.422325, "longitude": 14.2482698, "source": "osm", "_tags": {"amenity": "hospital", "contact:website": "https://www.pentahospitals.cz/nemocnice-roudnice/", "healthcare": "hospital", "name": "Nemocnice Roudnice nad Labem", "operator": "Penta Hospitals CZ", "operator:wikidata": "Q106671960"}}, {"name": "Asklepios Klinik Sebnitz", "latitude": 50.9828655, "longitude": 14.2669317, "source": "osm", "_tags": {"addr:city": "Sebnitz", "addr:housenumber": "75b", "addr:postcode": "01855", "addr:street": "Doktor-Steudner-Straße", "amenity": "hospital", "emergency": "yes", "healthcare": "hospital", "name": "Asklepios Klinik Sebnitz", "operator": "Asklepios Kliniken", "operator:type": "private", "operator:wikidata": "Q732068"}}, {"name": "Malteser Krankenhaus St. Carolus", "latitude": 51.1444812, "longitude": 14.9389312, "source": "osm", "_tags": {"addr:city": "Görlitz", "addr:country": "DE", "addr:housenumber": "212", "addr:postcode": "02827", "addr:street": "Carolusstraße", "amenity": "hospital", "brand": "Malteser Hilfsdienst", "brand:wikidata": "Q1318397", "contact:email": "info@carolus-goerlitz.de", "contact:fax": "+49 3581 721993", "contact:phone": "+49 3581 720", "contact:website": "https://www.malteser-krankenhaus-stcarolus.de", "emergency": "yes", "healthcare": "hospital", "heritage": "4", "heritage:operator": "lfd", "name": "Malteser Krankenhaus St. Carolus", "operator": "Malteser Sachsen-Brandenburg gGmbH", "ref:lfd": "09282676", "start": "1927", "start_date": "1927", "wheelchair": "yes", "wikidata": "Q1786549", "wikipedia": "de:Krankenhaus St. Carolus (Görlitz)"}}, {"name": "Falkenstein-Klinik", "latitude": 50.9189623, "longitude": 14.172976, "source": "osm", "_tags": {"amenity": "hospital", "healthcare": "hospital", "name": "Falkenstein-Klinik"}}, {"name": "Klinikum Pirna", "latitude": 50.9586394, "longitude": 13.9543677, "source": "osm", "_tags": {"addr:city": "Pirna", "addr:country": "DE", "addr:housenumber": "13", "addr:postcode": "01796", "addr:street": "Struppener Straße", "amenity": "hospital", "contact:phone": "+49 3501 71180", "contact:website": "https://www.helios-gesundheit.de/kliniken/pirna/", "emergency": "yes", "healthcare": "hospital", "healthcare:speciality": "general;paediatrics;ophthalmology;intensive;dialysis;gynaecology;emergency;cardiology;orthopaedics;surgery;radiology;internal", "name": "Klinikum Pirna", "operator": "Helios Kliniken", "operator:type": "private", "operator:wikidata": "Q1254151", "operator:wikipedia": "de:Helios Kliniken", "source": "survey;Yahoo_aerial_imagery;local knowledge", "wheelchair": "yes"}}]