[{"name": "Vitalisklinik", "latitude": 50.8585678, "longitude": 9.6934134, "source": "osm", "_tags": {"addr:city": "Bad Hersfeld", "addr:country": "DE", "addr:housenumber": "3", "addr:postcode": "36251", "addr:street": "Am Weinberg", "amenity": "hospital", "check_date": "2025-05-16", "description": "Klinik und Rehabilitationszentrum für Verdauungs- und Stoffwechselkrankheiten", "healthcare": "hospital", "internet_access": "wlan", "internet_access:fee": "no", "internet_access:ssid": "Vitalis", "name": "Vitalisklinik", "opening_hours": "Mo-Fr 08:00-18:00; Sa 09:00-12:00", "payment:cash": "yes", "payment:credit_cards": "yes", "payment:debit_cards": "yes", "phone": "+49 6621 205-0", "source": "survey", "toilets:wheelchair": "yes", "website": "https://www.vitalisklinik.de/", "wheelchair": "yes"}}, {"name": "Krankenhausapotheke DRK Eichenzell", "latitude": 50.4931466, "longitude": 9.6995187, "source": "osm", "_tags": {"access": "customers", "addr:city": "Eichenzell", "addr:housename": "DRK Eichenzell", "addr:housenumber": "3", "addr:postcode": "36124", "addr:street": "Munkenstraße", "amenity": "hospital", "brand": "Deutsches Rotes Kreuz", "brand:wikidata": "Q694104", "description": "nichtöffentliche Krankenhausapotheke", "dispensing": "no", "healthcare": "hospital", "name": "Krankenhausapotheke DRK Eichenzell"}}, {"name": "Schön-Klinik", "latitude": 51.377627, "longitude": 9.0207072, "source": "osm", "_tags": {"addr:city": "Bad Arolsen", "addr:country": "DE", "addr:housenumber": "1", "addr:postcode": "34454", "addr:street": "Große Allee", "amenity": "hospital", "healthcare": "hospital", "name": "Schön-Klinik", "old_name": "Neues Schloss", "operator": "Schön Klinik", "operator:wikidata": "Q2258661", "section": "Große Allee", "website": "https://www.schoen-klinik.de/bad-arolsen"}}, {"name": "KJP Tokmak - Kinder- und Jugendpsychiatrie und -psychotherapie", "latitude": 50.5396009, "longitude": 9.7140512, "source": "osm", "_tags": {"addr:city": "Künzell", "addr:housenumber": "3", "addr:postcode": "36093", "addr:street": "Friedrich-Dietz-Straße", "amenity": "hospital", "description": "Facharzt für Kinder- und Jugendpsychiatrie und -psychotherapie", "email": "info@kjp-tokmak.de", "fax": "+49 661 90198118", "healthcare": "hospital", "healthcare:speciality": "child_psychiatry", "level": "über_dem_schuhhaus_zentgraf", "name": "KJP Tokmak - Kinder- und Jugendpsychiatrie und -psychotherapie", "opening_hours": "Mo,Tu,Th 08:15-12:00,14:00-17:00; We,Fr 08:15-12:00", "operator": "Dr. med. univ. Ismayil Tokmak", "operator:type": "business", "phone": "+49 661 90198118", "website": "https://kjp-tokmak.de"}}, {"name": "Werner-Wicker-Klinik", "latitude": 51.1092459, "longitude": 9.08561, "source": "osm", "_tags": {"amenity": "hospital", "emergency": "no", "healthcare": "hospital", "name": "Werner-Wicker-Klinik"}}, {"name": "Helios Kliniken Kassel", "latitude": 51.3114072, "longitude": 9.4546822, "source": "osm", "_tags": {"addr:city": "Kassel", "addr:housenumber": "29", "addr:postcode": "34121", "addr:street": "Hansteinstraße", "amenity": "hospital", "emergency": "yes", "healthcare": "hospital", "name": "Helios Kliniken Kassel", "old_name": "DRK-Kliniken Nordhessen, Standort Wehlheiden", "operator": "Helios Kliniken", "operator:type": "private", "operator:wikidata": "Q1254151", "operator:wikipedia": "de:Helios Kliniken", "phone": "+49 561 30860", "toilets:wheelchair": "yes", "website": "https://www.helios-gesundheit.de/kliniken/kassel", "wheelchair": "yes"}}, {"name": "Elisabeth-Krankenhaus", "latitude": 51.3099596, "longitude": 9.4919159, "source": "osm", "_tags": {"addr:city": "Kassel", "addr:housenumber": "7", "addr:street": "Weinbergstraße", "amenity": "hospital", "emergency": "yes", "healthcare": "hospital", "name": "Elisabeth-Krankenhaus", "operator": "Elisabeth-Krankenhaus gGmbH Kassel", "phone": "+49 56172010", "website": "https://www.elisabeth-krankenhaus-kassel.de/", "wheelchair": "yes"}}, {"name": "Agaplesion Diakonie Kliniken Kassel", "latitude": 51.3141949, "longitude": 9.462728, "source": "osm", "_tags": {"addr:city": "Kassel", "addr:country": "DE", "addr:housenumber": "34", "addr:postcode": "34119", "addr:street": "Herkulesstraße", "alt_name": "Diakonie-Kliniken Kassel;Diakonissen-Krankenhaus", "amenity": "hospital", "emergency": "yes", "healthcare": "hospital", "loc_name": "Diako", "name": "Agaplesion Diakonie Kliniken Kassel", "old_name": "Diakonie Gesundheitszentrum", "source:position": "HiRes aerial imagery", "website": "https://www.diako-kassel.de/", "wheelchair": "yes"}}, {"name": "", "latitude": 50.6631537, "longitude": 9.767112, "source": "osm", "_tags": {"addr:city": "Hünfeld", "addr:country": "DE", "addr:housenumber": "22", "addr:postcode": "36088", "addr:street": "Schillerstraße", "building": "hospital", "building:levels": "5", "healthcare": "hospital", "wheelchair": "yes"}}, {"name": "Kreiskrankenhaus Alsfeld", "latitude": 50.7630268, "longitude": 9.268783, "source": "osm", "_tags": {"addr:city": "Alsfeld", "addr:housenumber": "81", "addr:postcode": "36304", "addr:street": "Schwabenröder Straße", "amenity": "hospital", "check_date": "2025-01-25", "emergency": "yes", "healthcare": "hospital", "name": "Kreiskrankenhaus Alsfeld", "phone": "+49 6631 980", "short_name": "KKH Alsfeld", "website": "https://www.kkh-alsfeld.de/", "wheelchair": "yes"}}, {"name": "Sabine Frimmel Physiotherapie", "latitude": 50.6110672, "longitude": 9.3669037, "source": "osm", "_tags": {"addr:city": "Lauterbach", "addr:country": "DE", "addr:housenumber": "17", "addr:postcode": "36341", "addr:street": "Alte Obergasse", "addr:suburb": "Frischborn", "amenity": "hospital", "building": "yes", "healthcare": "psychotherapist", "name": "Sabine Frimmel Physiotherapie", "phone": "+49 6641 9118650"}}, {"name": "Psychiatrische Abteilung (Krankenhaus Eichhof)", "latitude": 50.6303978, "longitude": 9.3913864, "source": "osm", "_tags": {"building": "yes", "email": "pia@eichhof-online.de", "fax": "+49 6641 82-418", "healthcare": "hospital", "image": "https://www.eichhof-online.de/fileadmin/user_upload/eichhof-online.de/Logos-Stiftung/Logo-Krankenhaus.png", "name": "Psychiatrische Abteilung (Krankenhaus Eichhof)", "phone": "+49 6641 82-530", "website": "https://www.eichhof-online.de/krankenhaus-eichhof/fachabteilungen/psychiatrie-und-psychotherapie.html"}}, {"name": "Ludwig-Noll-Krankenhaus", "latitude": 51.2708906, "longitude": 9.4887998, "source": "osm", "_tags": {"addr:city": "Kassel", "addr:country": "DE", "addr:housenumber": "156", "addr:postcode": "34134", "addr:street": "Dennhäuser Straße", "amenity": "hospital", "emergency": "no", "healthcare": "hospital", "healthcare:speciality": "psychiatry", "name": "Ludwig-Noll-Krankenhaus", "wikidata": "Q1874102"}}, {"name": "Marienkrankenhaus Kassel", "latitude": 51.3281855, "longitude": 9.4806551, "source": "osm", "_tags": {"addr:city": "Kassel", "addr:country": "DE", "addr:housenumber": "85", "addr:postcode": "34127", "addr:street": "Marburger Straße", "amenity": "hospital", "email": "info@marienkrankenhaus-kassel.de", "emergency": "yes", "fax": "+49 561 8073-4000", "healthcare": "hospital", "name": "Marienkrankenhaus Kassel", "phone": "+49 561 8073-0", "website": "https://marienkrankenhaus-kassel.de/", "wheelchair": "yes", "wikidata": "Q15507848", "wikipedia": "de:Marienkrankenhaus Kassel"}}, {"name": "Orthopädie Bad Hersfeld", "latitude": 50.8607629, "longitude": 9.6943949, "source": "osm", "_tags": {"addr:city": "Bad Hersfeld", "addr:country": "DE", "addr:housenumber": "16", "addr:postcode": "36251", "addr:street": "Am Hopfengarten", "amenity": "hospital", "building": "yes", "healthcare": "hospital", "name": "Orthopädie Bad Hersfeld", "wheelchair": "yes"}}, {"name": "Vitos Klinik für Psychiatrie und Psychotherapie", "latitude": 51.2298647, "longitude": 9.2554454, "source": "osm", "_tags": {"addr:city": "Bad Emstal", "addr:housenumber": "9", "addr:postcode": "34308", "addr:street": "Landgraf-Philipp-Straße", "addr:suburb": "Merxhausen", "amenity": "hospital", "contact:phone": "+49 5624 60 0", "healthcare": "hospital", "healthcare:speciality": "psychiatry", "name": "Vitos Klinik für Psychiatrie und Psychotherapie", "operator": "Vitos Kurhessen gGmbH"}}, {"name": "Klinik Birkental", "latitude": 51.1079778, "longitude": 9.083059, "source": "osm", "_tags": {"amenity": "hospital", "healthcare": "hospital", "name": "Klinik Birkental"}}, {"name": "Fachklinik Neue Rhön", "latitude": 50.6870188, "longitude": 9.6881732, "source": "osm", "_tags": {"addr:city": "Burghaun", "addr:housenumber": "4", "addr:postcode": "36151", "addr:street": "Mahlertshof", "amenity": "hospital", "contact:phone": "+49 6652 9910", "contact:website": "https://neue-rhoen.de/", "healthcare": "hospital", "name": "Fachklinik Neue Rhön"}}, {"name": "Asklepios Stadtklinik Bad Wildungen", "latitude": 51.1171898, "longitude": 9.1142051, "source": "osm", "_tags": {"amenity": "hospital", "email": "stadtklinik.badwildungen@asklepios.com", "emergency": "yes", "fax": "+49 5621 795-28 66", "healthcare": "hospital", "name": "Asklepios Stadtklinik Bad Wildungen", "operator": "Asklepios Klinik Bad Wildungen GmbH", "phone": "+49 5621 795 0", "website": "https://www.asklepios.com/bad-wildungen/stadtklinik/", "wheelchair": "yes"}}, {"name": "", "latitude": 51.1168036, "longitude": 9.1060291, "source": "osm", "_tags": {"addr:city": "Bad Wildungen", "addr:country": "DE", "addr:housenumber": "2", "addr:postcode": "34537", "addr:street": "Herzog-Georg-Weg", "amenity": "hospital"}}, {"name": "Hospital zum Heiligen Geist", "latitude": 51.1326455, "longitude": 9.2774269, "source": "osm", "_tags": {"addr:city": "Fritzlar", "addr:housenumber": "6", "addr:postcode": "34560", "addr:street": "Am Hospital", "amenity": "hospital", "emergency": "yes", "healthcare": "hospital", "name": "Hospital zum Heiligen Geist", "phone": "+49 5622 9970", "website": "https://www.hospital-fritzlar.de/", "wheelchair": "yes"}}, {"name": "Vitos Kinder- und Jugendklinik für psychische Gesundheit Kassel", "latitude": 51.3136111, "longitude": 9.4543549, "source": "osm", "_tags": {"addr:city": "Kassel", "addr:country": "DE", "addr:housenumber": "111", "addr:postcode": "34119", "addr:street": "Herkulesstraße", "amenity": "hospital", "emergency": "no", "healthcare": "hospital", "healthcare:speciality": "child_psychiatry", "name": "Vitos Kinder- und Jugendklinik für psychische Gesundheit Kassel", "note": "Wiedereröffnung des Neubaus 16. Oktober 2017, Ambulanzen ab 9.10.17", "old_name": "Vitos Klinik für Kinder- und Jugendpsychiatrie", "operator": "https://www.vitos.de/gesellschaften/vitos-kurhessen/einrichtungen/vitos-klinik-bad-wilhelmshoehe", "phone": "+49 561 310060", "source:position": "HiRes aerial imagery", "website": "https://www.vitos.de/gesellschaften/vitos-kurhessen/einrichtungen/vitos-klinik-bad-wilhelmshoehe"}}, {"name": "Herz-Kreislauf-Zentrum", "latitude": 51.0044858, "longitude": 9.7375233, "source": "osm", "_tags": {"addr:city": "Rotenburg an der Fulda", "addr:country": "DE", "addr:housenumber": "100", "addr:postcode": "36199", "addr:street": "Heinz-Meise-Straße", "amenity": "hospital", "building": "yes", "healthcare": "hospital", "name": "Herz-Kreislauf-Zentrum", "short_name": "HKZ", "wheelchair": "yes"}}, {"name": "Batzenmühle", "latitude": 51.003817, "longitude": 9.3526171, "source": "osm", "_tags": {"addr:city": "Homberg (Efze)", "addr:housenumber": "1", "addr:postcode": "34576", "addr:street": "Batzenmühle", "amenity": "hospital", "description": "Sozialtherapeutische Wohneinrichtung", "healthcare": "hospital", "healthcare:speciality": "psychiatry", "name": "Batzenmühle", "operator": "Hephata Diakonie", "phone": "+49 5684 99840", "website": "https://www.hephata.de/standort/batzenmuehle"}}, {"name": "Vitos Kinder- und Jugendpsychiatrische Ambulanz und Tagesklinik Alsfeld", "latitude": 50.7453712, "longitude": 9.2662664, "source": "osm", "_tags": {"addr:city": "Alsfeld", "addr:country": "DE", "addr:housenumber": "37", "addr:street": "Jahnstraße", "building": "hospital", "emergency": "no", "healthcare": "hospital", "name": "Vitos Kinder- und Jugendpsychiatrische Ambulanz und Tagesklinik Alsfeld", "social_facility": "day_care"}}, {"name": "Klinikum Hann. Münden", "latitude": 51.3981037, "longitude": 9.6582753, "source": "osm", "_tags": {"addr:city": "Hann. Münden", "addr:housenumber": "105", "addr:postcode": "34346", "addr:street": "Vogelsang", "alt_name": "NZN", "amenity": "hospital", "fax": "+49 5541 996-392", "healthcare": "hospital", "name": "Klinikum Hann. Münden", "short_name": "KHM", "toilets:wheelchair": "yes", "website": "https://khmue.de/", "wheelchair": "yes", "wheelchair:description": "In der Notaufnahme / Ambulanz voll taugliche Toilette."}}, {"name": "Vogelsbergklinik", "latitude": 50.5164713, "longitude": 9.3110905, "source": "osm", "_tags": {"addr:city": "Grebenhain", "addr:country": "DE", "addr:housenumber": "31", "addr:postcode": "36355", "addr:street": "Jean-Berlit-Straße", "amenity": "hospital", "building": "hospital", "fixme": "Eine Klinik mit wheelchair=no?", "name": "Vogelsbergklinik", "wheelchair": "no"}}, {"name": "Habichtswald-Klinik", "latitude": 51.3135501, "longitude": 9.4247465, "source": "osm", "_tags": {"addr:city": "Kassel", "addr:housenumber": "1", "addr:postcode": "34131", "addr:street": "Wigandstraße", "amenity": "hospital", "emergency": "no", "healthcare": "hospital", "name": "Habichtswald-Klinik", "operator": "Werner Wilhelm Wicker GmbH & Co. KG", "website": "https://www.habichtswaldklinik.de/", "wheelchair": "yes"}}, {"name": "Parkland-Klinik", "latitude": 51.1081752, "longitude": 9.0845495, "source": "osm", "_tags": {"amenity": "hospital", "healthcare": "hospital", "name": "Parkland-Klinik"}}, {"name": "Klinik am Kurpark", "latitude": 51.1092276, "longitude": 9.0792497, "source": "osm", "_tags": {"addr:city": "Bad Wildungen", "addr:country": "DE", "addr:housenumber": "19", "addr:postcode": "34537", "addr:street": "Ziergartenstraße", "addr:suburb": "Reinhardshausen", "amenity": "hospital", "contact:fax": "+49 5621 702-190", "contact:phone": "+49 5621 702-0", "email": "info@klinik-am-kurpark.de", "healthcare": "hospital", "name": "Klinik am Kurpark", "toilets:wheelchair": "yes", "website": "https://www.klinik-am-kurpark.de/", "wheelchair": "limited"}}, {"name": "Vitos Kliniken", "latitude": 51.3122745, "longitude": 9.4302543, "source": "osm", "_tags": {"addr:city": "Kassel", "addr:housenumber": "345", "addr:postcode": "34131", "addr:street": "Wilhelmshöher Allee", "amenity": "hospital", "healthcare:speciality": "orthopaedics;psychiatry", "name": "Vitos Kliniken", "operator": "Vitos GmbH", "wheelchair": "yes"}}, {"name": "Helios Kliniken Kassel, Standort Kaufungen", "latitude": 51.2831274, "longitude": 9.6494223, "source": "osm", "_tags": {"addr:city": "Kaufungen", "addr:country": "DE", "addr:housenumber": "2", "addr:postcode": "34260", "addr:street": "Sophie-Henschel-Weg", "amenity": "hospital", "emergency": "no", "healthcare": "hospital", "name": "Helios Kliniken Kassel, Standort Kaufungen", "old_name": "DRK Klinik Kaufungen", "operator": "Helios Kliniken", "operator:wikidata": "Q1254151", "phone": "+49 5605 9450"}}, {"name": "Fachklink Fürstenwald", "latitude": 51.3825413, "longitude": 9.3686529, "source": "osm", "_tags": {"amenity": "hospital", "description": "Fachklinik für Suchtkranke", "emergency": "no", "healthcare": "hospital", "name": "Fachklink Fürstenwald", "website": "http://fachklinik-fuerstenwald.de/"}}, {"name": "Asklepios Klinikum Schwalmstadt", "latitude": 50.922145, "longitude": 9.2563194, "source": "osm", "_tags": {"amenity": "hospital", "emergency": "yes", "healthcare": "hospital", "name": "Asklepios Klinikum Schwalmstadt"}}, {"name": "Hephata Klinik", "latitude": 50.9099992, "longitude": 9.1680636, "source": "osm", "_tags": {"amenity": "hospital", "name": "Hephata Klinik"}}, {"name": "Vitos Klinik für forensische Psychiatrie Bad Emstal", "latitude": 51.2267399, "longitude": 9.2605005, "source": "osm", "_tags": {"addr:city": "Bad Emstal", "addr:housenumber": "6", "addr:postcode": "34308", "addr:street": "Klosterweg", "amenity": "hospital", "healthcare": "hospital", "name": "Vitos Klinik für forensische Psychiatrie Bad Emstal"}}, {"name": "Orthopädische Klinik", "latitude": 51.211994, "longitude": 9.7072412, "source": "osm", "_tags": {"addr:city": "Hessisch Lichtenau", "addr:postcode": "37235", "addr:street": "Am Mühlenberg", "amenity": "hospital", "contact:email": "info@lichtenau-ev.de", "name": "Orthopädische Klinik", "phone": "+495602830", "toilets:wheelchair": "yes", "website": "https://www.klinik-lichtenau.de/", "wheelchair": "yes"}}, {"name": "Lebensraum Gombeth", "latitude": 51.062748, "longitude": 9.2912813, "source": "osm", "_tags": {"addr:city": "Borken (Hessen)", "addr:housenumber": "1", "addr:postcode": "34582", "addr:street": "Borkener Straße", "addr:suburb": "Gombeth", "amenity": "hospital", "building": "yes", "emergency": "no", "healthcare": "hospital", "healthcare:speciality": "psychiatry", "name": "Lebensraum Gombeth", "operator": "Hephata Diakonie", "phone": "+49 6691 183051", "website": "https://www.hephata.de/standort/sozialpaedagogisch-therapeutischer-lebensraum-gombeth"}}, {"name": "Klinikum Werra-Meißner Standort Witzenhausen", "latitude": 51.3432284, "longitude": 9.8605796, "source": "osm", "_tags": {"amenity": "hospital", "emergency": "yes", "fax": "+49 5542 504119", "healthcare": "hospital", "name": "Klinikum Werra-Meißner Standort Witzenhausen", "opening_hours": "24/7", "phone": "+49 5542 5040", "website": "https://klinikum-werra-meissner.de/", "wheelchair": "yes"}}, {"name": "Kreiskrankenhaus Rotenburg", "latitude": 50.9957352, "longitude": 9.7207254, "source": "osm", "_tags": {"addr:city": "Rotenburg an der Fulda", "addr:housenumber": "1", "addr:postcode": "36199", "addr:street": "Am Emanuelsberg", "amenity": "hospital", "emergency": "yes", "fax": "+49 6623 861503", "healthcare": "hospital", "name": "Kreiskrankenhaus Rotenburg", "phone": "+49 6623 860", "website": "https://www.kkh-rotenburg.de/", "wheelchair": "yes"}}, {"name": "Kreiskrankenhaus Schotten", "latitude": 50.5065991, "longitude": 9.1041817, "source": "osm", "_tags": {"addr:city": "Schotten", "addr:country": "DE", "addr:housenumber": "1", "addr:postcode": "63679", "addr:street": "Wetterauer Platz", "amenity": "hospital", "name": "Kreiskrankenhaus Schotten", "operator": "Gesundheitszentrum Wetterau gGmbH", "phone": "+49 6044 610", "website": "https://www.gesundheitszentrum-wetterau.de/ueber-uns/standorte-und-betriebsstaetten/kreiskrankenhaus-schotten"}}, {"name": "Wicker Klinik", "latitude": 51.1161386, "longitude": 9.1113555, "source": "osm", "_tags": {"addr:city": "Bad Wildungen", "addr:country": "DE", "addr:housenumber": "2-4", "addr:postcode": "34537", "addr:street": "Fürst-Friedrich-Straße", "amenity": "hospital", "emergency": "no", "healthcare": "rehabilitation", "name": "Wicker Klinik", "operator": "Werner Wicker GmbH & Co. KG", "website": "https://www.wicker.de/kliniken/wicker-klinik"}}, {"name": "Schön Klinik Bad Arolsen", "latitude": 51.3799023, "longitude": 9.0274855, "source": "osm", "_tags": {"addr:city": "Bad Arolsen", "addr:country": "DE", "addr:housenumber": "10", "addr:postcode": "34454", "addr:street": "Hofgarten", "amenity": "hospital", "beds": "300", "healthcare": "hospital", "healthcare:speciality": "psychosomatic;psychiatry", "name": "Schön Klinik Bad Arolsen", "operator": "Schön Klinik", "operator:type": "private", "operator:wikidata": "Q2258661", "phone": "+49-5691-62380", "start_date": "1992", "website": "https://www.schoen-klinik.de/bad-arolsen"}}, {"name": "St. Elisabeth-Krankenhaus", "latitude": 51.4152029, "longitude": 9.1215763, "source": "osm", "_tags": {"amenity": "hospital", "healthcare": "hospital", "name": "St. Elisabeth-Krankenhaus", "website": "https://www.elisabeth-krankenhaus-volkmarsen.de/", "wheelchair": "yes"}}, {"name": "Krankenhaus Eichhof", "latitude": 50.6296369, "longitude": 9.3903261, "source": "osm", "_tags": {"addr:city": "Lauterbach", "addr:country": "DE", "addr:housenumber": "1", "addr:postcode": "36341", "addr:street": "Eichhofstraße", "amenity": "hospital", "email": "info@eichhof-online.de", "fax": "+49 6641 82 208", "healthcare": "hospital", "image": "https://www.eichhof-online.de/fileadmin/templates/eichhof-online.de/Resources/Images/Logo-Stiftung.png", "name": "Krankenhaus Eichhof", "operator": "Eichhof-Stiftung Lauterbach", "phone": "+49 6641 82 0", "website": "https://www.eichhof-online.de/"}}, {"name": "Helios St. Elisabeth Klinik Hünfeld", "latitude": 50.6628028, "longitude": 9.7665828, "source": "osm", "_tags": {"amenity": "hospital", "brand": "Helios Kliniken", "contact:email": "info.huenfeld@helios-gesundheit.de", "contact:fax": "+49 6652 987-699", "contact:phone": "+49 6652 987-0", "contact:website": "https://www.helios-gesundheit.de/standorte-angebote/kliniken/huenfeld/", "emergency": "yes", "healthcare": "hospital", "name": "Helios St. Elisabeth Klinik Hünfeld", "opening_hours": "24/7", "operator": "Helios Kliniken", "operator:type": "private", "operator:wikidata": "Q1254151", "wheelchair": "yes", "wikidata": "Q126368701"}}, {"name": "Herz-Jesu-Krankenhaus Fulda", "latitude": 50.5633071, "longitude": 9.6733013, "source": "osm", "_tags": {"addr:city": "Fulda", "addr:housenumber": "74", "addr:postcode": "36039", "addr:street": "Buttlarstraße", "amenity": "hospital", "emergency": "yes", "fax": "+49 661 155383", "healthcare": "hospital", "name": "Herz-Jesu-Krankenhaus Fulda", "phone": "+49 661 150", "website": "https://herz-jesu-krankenhaus.de/", "wheelchair": "yes", "wikidata": "Q29904077"}}, {"name": "Universitätsmedizin Marburg Campus Fulda", "latitude": 50.5467606, "longitude": 9.7060983, "source": "osm", "_tags": {"addr:city": "Fulda", "addr:housenumber": "4", "addr:postcode": "36043", "addr:street": "Pacelliallee", "amenity": "hospital", "emergency": "yes", "healthcare": "hospital", "loc_name": "Klinikum Fulda", "name": "Universitätsmedizin Marburg Campus Fulda", "operator": "Klinikum Fulda gAG", "reg_name": "Uniklinik Marburg", "website": "https://www.klinikum-fulda.de/", "wikidata": "Q1774615"}}, {"name": "Rhön Klinik Gersfeld", "latitude": 50.4566329, "longitude": 9.9185635, "source": "osm", "_tags": {"addr:city": "Gersfeld", "addr:housenumber": "18", "addr:postcode": "36129", "addr:street": "Wolf-Hirth-Straße", "amenity": "hospital", "check_date": "2024-06-18", "healthcare": "hospital", "name": "Rhön Klinik Gersfeld"}}, {"name": "Hardtwaldklinik I", "latitude": 51.061829, "longitude": 9.1730843, "source": "osm", "_tags": {"addr:city": "Bad Zwesten", "addr:housenumber": "31a", "addr:postcode": "34596", "addr:street": "Hardtstraße", "alt_name": "Hardtwaldklinik", "amenity": "hospital", "emergency": "no", "healthcare": "hospital", "name": "Hardtwaldklinik I", "phone": "+49 5626 870", "website": "https://www.hardtwaldklinik1.de/", "wheelchair": "yes"}}, {"name": "Krankenhaus Bad Arolsen", "latitude": 51.3793857, "longitude": 9.0079263, "source": "osm", "_tags": {"addr:city": "Bad Arolsen", "addr:country": "DE", "addr:housenumber": "50", "addr:postcode": "34454", "addr:street": "Große Allee", "amenity": "hospital", "contact:phone": "+49 5691 8000", "contact:website": "http://www.klinikum-kassel.de/index.php?parent=1220", "emergency": "yes", "healthcare": "hospital", "name": "Krankenhaus Bad Arolsen", "operator": "Krankenhaus Bad Arolsen GmbH", "wheelchair": "yes", "wikidata": "Q1786524"}}, {"name": "Asklepios Helenenklinik Bad Wildungen", "latitude": 51.1181614, "longitude": 9.1140727, "source": "osm", "_tags": {"addr:city": "Bad Wildungen", "addr:housenumber": "35", "addr:postcode": "34537", "addr:street": "Laustraße", "amenity": "hospital", "healthcare": "hospital", "name": "Asklepios Helenenklinik Bad Wildungen"}}, {"name": "Klinikum Bad Hersfeld", "latitude": 50.8762388, "longitude": 9.71465, "source": "osm", "_tags": {"amenity": "hospital", "emergency": "yes", "healthcare": "hospital", "name": "Klinikum Bad Hersfeld", "opening_hours": "24/7", "operator": "Klinikum Bad Hersfeld GmbH", "phone": "+49 6621 880", "website": "https://www.klinikum-bad-hersfeld.de/", "wheelchair": "yes", "wikidata": "Q1706505"}}, {"name": "Hardtwaldklinik II", "latitude": 51.0631408, "longitude": 9.1685884, "source": "osm", "_tags": {"addr:city": "Bad Zwesten", "addr:country": "DE", "addr:housenumber": "32", "addr:postcode": "34596", "addr:street": "Hardtstraße", "alt_name": "Hardtwaldklinik", "amenity": "hospital", "emergency": "no", "name": "Hardtwaldklinik II", "phone": "+49 5626 880", "website": "https://www.hardtwaldklinik2.de/"}}, {"name": "MEDIAN Klinik Wigbertshöhe", "latitude": 50.8598281, "longitude": 9.6928368, "source": "osm", "_tags": {"addr:city": "Bad Hersfeld", "addr:housenumber": "10-12", "addr:postcode": "36251", "addr:street": "Am Hainberg", "amenity": "hospital", "check_date": "2025-05-02", "healthcare": "hospital", "name": "MEDIAN Klinik Wigbertshöhe", "operator": "MEDIAN"}}, {"name": "Klinik am Hainberg", "latitude": 50.8610018, "longitude": 9.6913302, "source": "osm", "_tags": {"addr:city": "Bad Hersfeld", "addr:housenumber": "32", "addr:postcode": "36251", "addr:street": "Ludwig-Braun-Straße", "amenity": "hospital", "healthcare": "hospital", "name": "Klinik am Hainberg"}}, {"name": "Habichtswald Psychosomatische Akut-Klinik", "latitude": 51.3131509, "longitude": 9.4245686, "source": "osm", "_tags": {"addr:city": "Kassel", "addr:housenumber": "3-5", "addr:postcode": "34131", "addr:street": "Wigandstraße", "building": "hospital", "healthcare": "hospital", "name": "Habichtswald Psychosomatische Akut-Klinik"}}, {"name": "Wohnheim des Klinikums Fulda", "latitude": 50.5474191, "longitude": 9.6799376, "source": "osm", "_tags": {"amenity": "hospital", "healthcare": "hospital", "name": "Wohnheim des Klinikums Fulda"}}, {"name": "Vitos psychiatrische Tagesklinik Bad Wildungen", "latitude": 51.123104, "longitude": 9.1308378, "source": "osm", "_tags": {"addr:city": "Bad Wildungen", "addr:housenumber": "7", "addr:postcode": "34537", "addr:street": "Rörigstraße", "building": "hospital", "emergency": "no", "healthcare": "hospital", "healthcare:speciality": "psychiatry", "name": "Vitos psychiatrische Tagesklinik Bad Wildungen", "year_of_construction": "2020..2022"}}, {"name": "", "latitude": 51.1231704, "longitude": 9.1309397, "source": "osm", "_tags": {"addr:city": "Bad Wildungen", "addr:housenumber": "7", "addr:postcode": "34537", "addr:street": "Rörigstraße", "healthcare": "hospital", "healthcare:speciality": "psychiatry"}}, {"name": "Paracelsus-Elena-Klinik", "latitude": 51.3306329, "longitude": 9.4226546, "source": "osm", "_tags": {"addr:city": "Kassel", "addr:country": "DE", "addr:housenumber": "16", "addr:postcode": "34128", "addr:street": "Klinikstraße", "addr:suburb": "Harleshausen", "amenity": "hospital", "emergency": "no", "healthcare": "hospital", "name": "Paracelsus-Elena-Klinik", "operator": "Paracelsus-Kliniken Deutschland GmbH & Co. KGaA", "source": "bing", "website": "https://www.paracelsus-kliniken.de/kassel.html", "wheelchair": "limited"}}, {"name": "Kreisklinik Wolfhagen", "latitude": 51.3205497, "longitude": 9.190788, "source": "osm", "_tags": {"addr:city": "Wolfhagen", "addr:country": "DE", "addr:housenumber": "1", "addr:postcode": "34466", "addr:street": "Am Kleinen Ofenberg", "alt_name": "Hessenklinik Wolfhagen", "amenity": "hospital", "emergency": "yes", "healthcare": "hospital", "healthcare:speciality": "surgery;internal;emergency;intensive", "name": "Kreisklinik Wolfhagen", "official_name": "Eigenbetrieb Kliniken des Landkreises Kassel, Standort Wolfhagen", "phone": "+49 5692 400", "website": "https://kreisklinikenkassel.de/wolfhagen/", "wheelchair": "yes", "wikidata": "Q88978434", "wikipedia": "de:Kreisklinik Wolfhagen"}}, {"name": "Klinikum Kassel", "latitude": 51.3278859, "longitude": 9.5090224, "source": "osm", "_tags": {"addr:city": "Kassel", "addr:housenumber": "41-43", "addr:postcode": "34125", "addr:street": "Mönchebergstraße", "alt_name": "Klinikum Kassel GmbH", "amenity": "hospital", "contact:email": "info@klinikum-kassel.de", "emergency": "yes", "healthcare": "hospital", "hospital:level:DE": "3", "name": "Klinikum Kassel", "old_name": "Städtische Kliniken", "operator": "Gesundheit Nordhessen Holding AG", "phone": "+49 561 9800", "type": "multipolygon", "website": "https://www.gesundheit-nordhessen.de/klinikum-kassel", "wikidata": "Q1377573", "wikipedia": "de:Klinikum Kassel"}}, {"name": "Mediclin Kliniken", "latitude": 51.1099042, "longitude": 9.0781512, "source": "osm", "_tags": {"amenity": "hospital", "healthcare": "hospital", "name": "Mediclin Kliniken", "operator": "Mediclin", "operator:type": "private", "operator:wikidata": "Q1916295", "type": "multipolygon"}}, {"name": "Vitos Haina", "latitude": 51.0290315, "longitude": 8.9759617, "source": "osm", "_tags": {"amenity": "hospital", "name": "Vitos Haina", "phone": "+49 64 56 ‐ 9 10", "type": "multipolygon", "website": "https://www.vitos.de/gesellschaften/vitos-haina/einrichtungen/vitos-klinik-fuer-psychiatrie-und-psychotherapie-haina/kontakt-und-anfahrt"}}]