[{"name": "", "latitude": 51.2105394, "longitude": 27.6032916, "source": "osm", "_tags": {"amenity": "hospital"}}, {"name": "", "latitude": 50.523302, "longitude": 27.6939179, "source": "osm", "_tags": {"amenity": "hospital"}}, {"name": "Комунальне некомерційне підприємство Ємільчинська лікарня", "latitude": 50.8568724, "longitude": 27.8153461, "source": "osm", "_tags": {"addr:housenumber": "133", "addr:postcode": "11201", "addr:street": "вулиця 1 Травня", "amenity": "hospital", "emergency": "yes", "healthcare": "hospital", "healthcare:speciality": "general", "name": "Комунальне некомерційне підприємство Ємільчинська лікарня", "name:uk": "Комунальне некомерційне підприємство Ємільчинська лікарня", "operator": "Ємільчинська селищна рада", "operator:type": "government"}}, {"name": "Рокитнівська ЦРЛ", "latitude": 51.2648792, "longitude": 27.2243096, "source": "osm", "_tags": {"amenity": "hospital", "name": "Рокитнівська ЦРЛ", "name:uk": "Рокитнівська ЦРЛ"}}, {"name": "Звягельська багатопрофільна лікарня", "latitude": 50.5856434, "longitude": 27.6075769, "source": "osm", "_tags": {"addr:housenumber": "13", "addr:street": "вулиця Наталії Оржевської", "amenity": "hospital", "emergency": "yes", "healthcare": "hospital", "name": "Звягельська багатопрофільна лікарня", "name:uk": "Звягельська багатопрофільна лікарня", "official_name": "КОМУНАЛЬНЕ НЕКОМЕРЦІЙНЕ ПІДПРИЄМСТВО ЗВЯГЕЛЬСЬКА БАГАТОПРОФІЛЬНА ЛІКАРНЯ ЗВЯГЕЛЬСЬКОЇ МІСЬКОЇ РАДИ", "old_name": "Новоград-Волинське міськрайонне територіальне медичне об'єднання", "old_official_name": "КНП \"Новоград-Волинське міськрайонне територіальне медичне об'єднання\"", "operator": "КНП \"Звягельська багатопрофільна лікарня\"", "operator:type": "public"}}, {"name": "Амбулаторія", "latitude": 50.563134, "longitude": 27.931385, "source": "osm", "_tags": {"amenity": "hospital", "name": "Амбулаторія", "name:uk": "Амбулаторія"}}, {"name": "Ємільчинська лікарня", "latitude": 50.856265, "longitude": 27.8167715, "source": "osm", "_tags": {"addr:housenumber": "133", "addr:postcode": "11201", "addr:street": "вулиця 1 Травня", "amenity": "hospital", "emergency": "yes", "healthcare": "hospital", "healthcare:speciality": "general", "name": "Ємільчинська лікарня", "name:uk": "Ємільчинська лікарня"}}, {"name": "Фельдшерсько-акушерський пункт (ФАП)", "latitude": 50.9573441, "longitude": 26.9681256, "source": "osm", "_tags": {"addr:housenumber": "97", "addr:street": "вулиця Шевченка", "amenity": "doctors", "building": "yes", "emergency": "no", "healthcare": "hospital", "name": "Фельдшерсько-акушерський пункт (ФАП)", "name:uk": "Фельдшерсько-акушерський пункт (ФАП)", "phone": "+380 3653 34 748"}}, {"name": "Олевська центральна лікарня", "latitude": 51.2155187, "longitude": 27.6426815, "source": "osm", "_tags": {"addr:housenumber": "26", "addr:postcode": "11001", "addr:street": "Промисловий провулок", "amenity": "hospital", "building": "yes", "building:levels": "2", "emergency": "yes", "healthcare": "hospital", "name": "Олевська центральна лікарня", "name:uk": "Олевська центральна лікарня"}}, {"name": "", "latitude": 51.0676452, "longitude": 27.8789171, "source": "osm", "_tags": {"amenity": "hospital", "building": "yes", "healthcare": "hospital"}}, {"name": "", "latitude": 50.458587, "longitude": 27.11976, "source": "osm", "_tags": {"amenity": "hospital", "type": "multipolygon"}}]