[{"name": "Nemocnice Jablonec nad Nisou", "latitude": 50.7298146, "longitude": 15.15903, "source": "osm", "_tags": {"addr:city": "Jablonec nad Nisou", "addr:housenumber": "4446/15", "addr:postcode": "46601", "addr:street": "Nemocniční", "amenity": "hospital", "emergency": "yes", "name": "Nemocnice Jablonec nad Nisou", "phone": "+420 483 345 111", "website": "https://www.nemjbc.cz/", "wheelchair": "yes"}}, {"name": "LDN", "latitude": 50.7409711, "longitude": 15.3018051, "source": "osm", "_tags": {"amenity": "hospital", "healthcare": "hospital", "name": "LDN"}}, {"name": "Rehamedica Žacléř", "latitude": 50.650842, "longitude": 15.9088043, "source": "osm", "_tags": {"amenity": "hospital", "name": "Rehamedica Žacléř"}}, {"name": "Státní léčebné lázně Janské Lázně, s.p.", "latitude": 50.6303297, "longitude": 15.7808618, "source": "osm", "_tags": {"amenity": "hospital", "check_date": "2024-08-17", "emergency": "no", "healthcare": "hospital", "name": "Státní léčebné lázně Janské Lázně, s.p."}}, {"name": "Szpital Bukowiec", "latitude": 50.8092025, "longitude": 15.8385258, "source": "osm", "_tags": {"amenity": "hospital", "name": "Szpital Bukowiec", "website": "https://www.emc-sa.pl/nasze-placowki/kowary-szpital-bukowiec/oddzialy"}}, {"name": "Szpital Wysoka Łąka", "latitude": 50.8112291, "longitude": 15.8428246, "source": "osm", "_tags": {"amenity": "hospital", "name": "Szpital Wysoka Łąka"}}, {"name": "Nemocnice Frýdlant - gynekologie", "latitude": 50.9260298, "longitude": 15.0880617, "source": "osm", "_tags": {"addr:postcode": "46401", "amenity": "doctors", "healthcare": "hospital", "healthcare:speciality": "gynaecology", "name": "Nemocnice Frýdlant - gynekologie", "website": "http://www.nemfry.cz"}}, {"name": "Zakład Opiekuńczo-Leczniczy", "latitude": 51.1615644, "longitude": 14.9945085, "source": "osm", "_tags": {"amenity": "hospital", "healthcare": "hospital", "name": "Zakład Opiekuńczo-Leczniczy"}}, {"name": "Sudeckie Centrum Zdrowia Psychicznego", "latitude": 50.8641412, "longitude": 15.6657425, "source": "osm", "_tags": {"amenity": "hospital", "healthcare": "hospital", "name": "Sudeckie Centrum Zdrowia Psychicznego"}}, {"name": "Zakład Opieki Zdrowotnej", "latitude": 50.8103806, "longitude": 15.7622911, "source": "osm", "_tags": {"amenity": "hospital", "healthcare": "hospital", "image": "https://pl.mapy.cz/s/muhedovate", "name": "Zakład Opieki Zdrowotnej"}}, {"name": "Oblastní Nemocnice Trutnov a.s.", "latitude": 50.5598756, "longitude": 15.9198689, "source": "osm", "_tags": {"amenity": "hospital", "healthcare": "hospital", "name": "Oblastní Nemocnice Trutnov a.s."}}, {"name": "Łużyckie Centrum Medyczne", "latitude": 51.1162022, "longitude": 15.2710671, "source": "osm", "_tags": {"addr:city": "Lubań", "addr:housenumber": "4", "addr:postcode": "59-800", "addr:street": "Zawidowska", "amenity": "hospital", "name": "Łużyckie Centrum Medyczne", "website": "http://www.lcm-luban.pl/"}}, {"name": "Krajská nemocnice Liberec", "latitude": 50.7699676, "longitude": 15.0647613, "source": "osm", "_tags": {"amenity": "hospital", "healthcare": "hospital", "name": "Krajská nemocnice Liberec", "source": "cuzk:km", "website": "https://www.nemlib.cz/"}}, {"name": "Städtisches Klinikum Görlitz", "latitude": 51.1612278, "longitude": 14.9709757, "source": "osm", "_tags": {"addr:city": "Görlitz", "addr:country": "DE", "addr:housenumber": "1-3", "addr:postcode": "02828", "addr:street": "Girbigsdorfer Straße", "amenity": "hospital", "contact:fax": "+49 3581 371109", "contact:phone": "+49 3581 370", "contact:website": "http://www.klinikum-goerlitz.de", "dog": "no", "emergency": "yes", "healthcare": "hospital", "heritage": "4", "heritage:operator": "lfd", "name": "Städtisches Klinikum Görlitz", "operator": "Städtisches Klinikum Görlitz gGmbH", "operator:type": "government", "photography": "no", "ref:lfd": "09302671", "start_date": "1905", "surveillance": "yes", "wikidata": "Q1431657", "wikimedia_commons": "Category:Klinikum Görlitz"}}, {"name": "Ústav chirurgie ruky a plastické chirurgie Vysoké nad Jizerou", "latitude": 50.6824135, "longitude": 15.4046966, "source": "osm", "_tags": {"amenity": "hospital", "email": "vysoke@ruka-kosmetika.cz", "emergency": "yes", "healthcare": "hospital", "name": "Ústav chirurgie ruky a plastické chirurgie Vysoké nad Jizerou", "phone": "+420481350905", "website": "https://www.ruka-kosmetika.cz/"}}, {"name": "Centrum Pulmonologii i alergologii", "latitude": 50.8296247, "longitude": 15.529281, "source": "osm", "_tags": {"addr:city": "Szklarska Poręba", "addr:country": "PL", "addr:housenumber": "30", "addr:postcode": "58-580", "addr:street": "Franciszkańska", "amenity": "hospital", "building": "yes", "name": "Centrum Pulmonologii i alergologii"}}, {"name": "Wojewódzki Szpital dla Nerwowo i Psychicznie Chorych", "latitude": 51.259568, "longitude": 15.586146, "source": "osm", "_tags": {"amenity": "hospital", "barrier": "wall", "covered": "yes", "emergency": "no", "healthcare": "hospital", "name": "Wojewódzki Szpital dla Nerwowo i Psychicznie Chorych"}}, {"name": "", "latitude": 50.4484965, "longitude": 15.8148705, "source": "osm", "_tags": {"amenity": "hospital", "emergency": "no"}}, {"name": "Ośrodek Rehabilitacji im. prof. dr. Wiktora Degi", "latitude": 51.1464339, "longitude": 15.00728, "source": "osm", "_tags": {"addr:city": "Zgorzelec", "addr:housenumber": "5", "addr:postcode": "59-900", "addr:street": "Stanisława Konarskiego", "alt_name": "Centrum Fizjoterapii", "amenity": "hospital", "description": "rehabilitacja w warunkach stacjonarnych", "emergency": "no", "healthcare": "hospital", "name": "Ośrodek Rehabilitacji im. prof. dr. Wiktora Degi", "name:de": "Rehabilitationszentrum Professor Dr. Wiktor Dega", "name:en": "Dega Rehabilitation Centre", "name:pl": "Ośrodek Rehabilitacji im. prof. dr. Wiktora Degi", "official_name": "Ośrodek Rehabilitacji Narządu Ruchu dla Dorosłych i Dzieci im. prof. dr. Wiktora Degi Wielospecjalistycznego Szpitala - SP ZOZ w Zgorzelcu", "operator": "Wielospecjalistyczny Szpital SPZOZ w Zgorzelcu"}}, {"name": "LDN", "latitude": 50.5242482, "longitude": 14.9814563, "source": "osm", "_tags": {"amenity": "hospital", "building": "hospital", "building:levels": "1", "building:ruian:type": "3", "name": "LDN", "ref:ruian:building": "15446395", "source": "cuzk:ruian"}}, {"name": "Szpital SPZOZ w Bogatynii", "latitude": 50.907111, "longitude": 14.9704675, "source": "osm", "_tags": {"addr:city": "Bogatynia", "addr:housenumber": "16", "addr:postcode": "59-920", "addr:street": "Szpitalna", "amenity": "hospital", "building": "public", "building:levels": "3", "name": "Szpital SPZOZ w Bogatynii", "operator": "Samodzielny Publiczny Zespół Opieki Zdrowotnej w Bogatyni", "source:building": "BDOT", "source:geometry": "EGiB", "website": "http://www.zozbogatynia.pl/index.php/szpital"}}, {"name": "Wojewódzkie Centrum Szpitalne Kotliny Jeleniogórskiej", "latitude": 50.9135045, "longitude": 15.7647195, "source": "osm", "_tags": {"addr:city": "Jelenia Góra", "addr:housenumber": "6", "addr:postcode": "58-506", "addr:street": "Michała Kleofasa Ogińskiego", "amenity": "hospital", "contact:email": "poczta@spzoz.jgora.pl", "contact:phone": "75 75-37-100", "contact:website": "http://www.spzoz.jgora.pl", "healthcare": "hospital", "name": "Wojewódzkie Centrum Szpitalne Kotliny Jeleniogórskiej"}}, {"name": "", "latitude": 51.0178728, "longitude": 15.4175123, "source": "osm", "_tags": {"addr:city": "Gryfów Śląski", "addr:housenumber": "25", "addr:postcode": "59-620", "addr:street": "Rzeczna", "healthcare": "hospital", "leaf_cycle": "evergreen", "leaf_type": "needleleaved", "operator": "Powiatowe Centrum Zdrowia", "website": "https://www.pczlwowek.pl"}}, {"name": "Centrum Medyczne Karpacz", "latitude": 50.7808144, "longitude": 15.7410394, "source": "osm", "_tags": {"alt_name": "Szpital Zarzecze", "amenity": "hospital", "name": "Centrum Medyczne Karpacz", "opening_hours": "Mo-Sun 07:00-19:00", "operator": "Centrum Medyczne Karpacz S.A.", "phone": "+48 883 358 135", "website": "https://www.cmkarpacz.pl/"}}, {"name": "Szpital Powiatowy", "latitude": 51.1114496, "longitude": 15.5839829, "source": "osm", "_tags": {"addr:city": "Lwówek Śląski", "addr:postcode": "59-600", "addr:street": "Szpitalna", "amenity": "hospital", "healthcare": "hospital", "name": "Szpital Powiatowy"}}, {"name": "Powiatowe Centrum Zdrowia", "latitude": 51.1119907, "longitude": 15.5858865, "source": "osm", "_tags": {"addr:city": "Lwówek Śląski", "addr:postcode": "59-600", "addr:street": "Gustawa Morcinka", "amenity": "hospital", "healthcare": "hospital", "name": "Powiatowe Centrum Zdrowia", "website": "https://pczlwowek.pl/"}}, {"name": "Panochova nemocnice Turnov", "latitude": 50.5890662, "longitude": 15.1698601, "source": "osm", "_tags": {"amenity": "hospital", "emergency": "yes", "name": "Panochova nemocnice Turnov", "source": "cuzk:ruian"}}, {"name": "Nemocnice následné péče", "latitude": 50.5279256, "longitude": 15.3718643, "source": "osm", "_tags": {"amenity": "hospital", "healthcare": "hospital", "name": "Nemocnice následné péče"}}, {"name": "Nemocnice Semily", "latitude": 50.5978279, "longitude": 15.3530164, "source": "osm", "_tags": {"addr:city": "Semily", "addr:housenumber": "421", "addr:postcode": "51301", "addr:street": "3. května", "amenity": "hospital", "contact:phone": "+420 481 661 111", "contact:website": "https://www.nemjil.cz/semily/", "emergency": "yes", "healthcare": "hospital", "name": "Nemocnice Semily"}}, {"name": "Masarykova městská nemocnice", "latitude": 50.611914, "longitude": 15.5002767, "source": "osm", "_tags": {"amenity": "hospital", "healthcare": "hospital", "name": "Masarykova městská nemocnice", "wikidata": "Q116735759", "wikipedia": "cs:Nemocnice Jilemnice"}}, {"name": "PJ-Med Rehabilitacja", "latitude": 50.9746087, "longitude": 15.5262701, "source": "osm", "_tags": {"amenity": "hospital", "name": "PJ-Med Rehabilitacja", "phone": "+48 75 789 13 30", "website": "http://www.rehabilitacja-popielowek.pl/"}}, {"name": "SP ZOZ Szpital im. Andrzeja Wolańczyka", "latitude": 51.1162242, "longitude": 15.9096168, "source": "osm", "_tags": {"addr:city": "Złotoryja", "addr:housenumber": "11", "addr:postcode": "59-500", "addr:street": "Hoża", "amenity": "hospital", "healthcare": "hospital", "name": "SP ZOZ Szpital im. Andrzeja Wolańczyka"}}, {"name": "Wojewódzki Szpital Psychiatryczny w Złotoryi", "latitude": 51.1223725, "longitude": 15.9079743, "source": "osm", "_tags": {"amenity": "hospital", "healthcare": "hospital", "name": "Wojewódzki Szpital Psychiatryczny w Złotoryi"}}, {"name": "Nemocnice Vrchlabí", "latitude": 50.6219046, "longitude": 15.607266, "source": "osm", "_tags": {"amenity": "hospital", "healthcare": "hospital", "name": "Nemocnice Vrchlabí", "operator": "Penta Hospitals CZ", "operator:wikidata": "Q106671960", "website": "https://www.pentahospitals.cz/nemocnice-vrchlabi/"}}, {"name": "Szpital Powiatowy", "latitude": 51.1578374, "longitude": 15.0109327, "source": "osm", "_tags": {"addr:city": "Zgorzelec", "addr:housenumber": "11-12", "addr:postcode": "59-900", "addr:street": "Lubańska", "amenity": "hospital", "building": "yes", "emergency": "yes", "healthcare": "hospital", "name": "Szpital Powiatowy", "official_name": "Wielospecjalistyczny Szpital SPZOZ w Zgorzelcu"}}, {"name": "Nemocnice Tanvald", "latitude": 50.7401181, "longitude": 15.3018132, "source": "osm", "_tags": {"amenity": "hospital", "emergency": "yes", "healthcare": "hospital", "name": "Nemocnice Tanvald"}}, {"name": "Izerskie Centrum Pulmonologii i Chemioterapii „IZER-MED” Oddział przy ul. Szpitalnej 1", "latitude": 50.8329271, "longitude": 15.522358, "source": "osm", "_tags": {"amenity": "hospital", "name": "Izerskie Centrum Pulmonologii i Chemioterapii „IZER-MED” Oddział przy ul. Szpitalnej 1"}}, {"name": "Zespół Opieki Zdrowotnej w Bolesławcu", "latitude": 51.2545701, "longitude": 15.5675298, "source": "osm", "_tags": {"amenity": "hospital", "healthcare": "hospital", "name": "Zespół Opieki Zdrowotnej w Bolesławcu"}}, {"name": "Wojewódzki Szpital Rehabilitacyjny w Janowicach Wielkich", "latitude": 50.8916442, "longitude": 15.9274802, "source": "osm", "_tags": {"amenity": "hospital", "healthcare": "hospital", "name": "Wojewódzki Szpital Rehabilitacyjny w Janowicach Wielkich"}}, {"name": "", "latitude": 50.4405535, "longitude": 15.3538129, "source": "osm", "_tags": {"amenity": "hospital", "healthcare": "hospital"}}, {"name": "", "latitude": 50.4390164, "longitude": 15.3556321, "source": "osm", "_tags": {"amenity": "hospital", "healthcare": "hospital"}}, {"name": "", "latitude": 50.7690807, "longitude": 15.061911, "source": "osm", "_tags": {"amenity": "hospital", "healthcare": "hospital"}}, {"name": "Malteser Krankenhaus St. Carolus", "latitude": 51.1444812, "longitude": 14.9389312, "source": "osm", "_tags": {"addr:city": "Görlitz", "addr:country": "DE", "addr:housenumber": "212", "addr:postcode": "02827", "addr:street": "Carolusstraße", "amenity": "hospital", "brand": "Malteser Hilfsdienst", "brand:wikidata": "Q1318397", "contact:email": "info@carolus-goerlitz.de", "contact:fax": "+49 3581 721993", "contact:phone": "+49 3581 720", "contact:website": "https://www.malteser-krankenhaus-stcarolus.de", "emergency": "yes", "healthcare": "hospital", "heritage": "4", "heritage:operator": "lfd", "name": "Malteser Krankenhaus St. Carolus", "operator": "Malteser Sachsen-Brandenburg gGmbH", "ref:lfd": "09282676", "start": "1927", "start_date": "1927", "wheelchair": "yes", "wikidata": "Q1786549", "wikipedia": "de:Krankenhaus St. Carolus (Görlitz)"}}, {"name": "", "latitude": 51.3284417, "longitude": 14.9662904, "source": "osm", "_tags": {"building": "hospital", "description": "Stationen 2,3,4", "healthcare": "hospital", "healthcare:speciality": "orthopaedics", "wheelchair": "yes"}}, {"name": "Orthopädisches Zentrum Martin-Ulbrich-Haus", "latitude": 51.328012, "longitude": 14.9656906, "source": "osm", "_tags": {"addr:city": "Rothenburg/Oberlausitz", "addr:country": "DE", "addr:housenumber": "15-21", "addr:postcode": "02929", "addr:street": "Horkaer Straße", "amenity": "hospital", "brand": "Diakonie", "contact:fax": "+49 35891 42170", "contact:phone": "+49 35891 420", "email": "info@klinik-rothenburg.de", "healthcare": "hospital", "healthcare:speciality": "orthopaedics", "heritage": "4", "heritage:operator": "lfd", "name": "Orthopädisches Zentrum Martin-Ulbrich-Haus", "old_name": "Schlesisches Krüppelheim", "operator": "Orthopädischen Zentrums Martin-Ulbrich-Haus Rothenburg gGmbH", "operator:type": "charitable", "ref:lfd": "09300916", "website": "http://klinik-rothenburg.diakonie.foundation"}}, {"name": "Lázně Libverda", "latitude": 50.8901664, "longitude": 15.1897051, "source": "osm", "_tags": {"amenity": "hospital", "emergency": "no", "name": "Lázně Libverda", "site": "hospital", "source": "cuzk:km;uhul:ortofoto;survey", "type": "site"}}, {"name": "Nemocnice Jičín", "latitude": 50.4401074, "longitude": 15.356505, "source": "osm", "_tags": {"amenity": "hospital", "emergency": "yes", "healthcare": "hospital", "name": "Nemocnice Jičín", "type": "multipolygon", "website": "https://www.nemjc.cz/"}}, {"name": "Nemocnice Frýdlant", "latitude": 50.9262757, "longitude": 15.088163, "source": "osm", "_tags": {"amenity": "hospital", "emergency": "yes", "healthcare": "hospital", "name": "Nemocnice Frýdlant", "type": "multipolygon", "website": "https://www.eucnemocnice.cz/frydlant", "wikidata": "Q15211163", "wikipedia": "cs:Nemocnice Frýdlant"}}]