[{"name": "Maiden Castle House", "latitude": 50.7057852, "longitude": -2.446185, "source": "osm", "_tags": {"amenity": "hospital", "healthcare": "hospital", "name": "Maiden Castle House"}}, {"name": "Practice Plus Group Hospital, Shepton Mallet", "latitude": 51.1898321, "longitude": -2.5623233, "source": "osm", "_tags": {"addr:street": "Old Wells road, Shepton Mallet", "amenity": "hospital", "healthcare": "hospital", "name": "Practice Plus Group Hospital, Shepton Mallet"}}, {"name": "NG Cleaning Services", "latitude": 50.9916413, "longitude": -2.6811145, "source": "osm", "_tags": {"amenity": "hospital", "healthcare": "hospital", "name": "NG Cleaning Services"}}, {"name": "Priory Health Park", "latitude": 51.2038891, "longitude": -2.6556584, "source": "osm", "_tags": {"amenity": "hospital", "healthcare": "hospital", "name": "Priory Health Park"}}, {"name": "Royal United Hospital", "latitude": 51.3918302, "longitude": -2.3915606, "source": "osm", "_tags": {"addr:postcode": "BA1 3NG", "addr:street": "Combe Park", "amenity": "hospital", "emergency": "yes", "healthcare": "hospital", "name": "Royal United Hospital", "phone": "+44 1225 428331", "wikidata": "Q7374945", "wikipedia": "en:Royal United Hospital"}}, {"name": "Saint Martin's Hospital", "latitude": 51.3578197, "longitude": -2.3713165, "source": "osm", "_tags": {"addr:postcode": "BA2 5RP", "addr:street": "Clara Cross Lane", "amenity": "hospital", "disused:fhrs:id": "1223135", "healthcare": "hospital", "name": "Saint Martin's Hospital", "toilets:wheelchair": "yes", "website": "https://www.nhs.uk/Services/hospitals/Overview/DefaultView.aspx?id=2893", "wheelchair": "yes", "wikidata": "Q26689006"}}, {"name": "BMI Bath Clinic", "latitude": 51.3641554, "longitude": -2.3323428, "source": "osm", "_tags": {"addr:postcode": "BA2 7BR", "amenity": "hospital", "fhrs:id": "783727", "healthcare": "hospital", "name": "BMI Bath Clinic", "operator": "BMI", "website": "http://www.bmihealthcare.co.uk/bath"}}, {"name": "Yeovil District Hospital", "latitude": 50.9446713, "longitude": -2.6344255, "source": "osm", "_tags": {"addr:city": "Yeovil", "addr:housename": "Yeovil District Hospital", "addr:postcode": "BA21 4AT", "addr:street": "Higher Kingston", "amenity": "hospital", "building": "yes", "emergency": "yes", "healthcare": "hospital", "name": "Yeovil District Hospital", "operator": "Yeovil District Hospital NHS Foundation Trust", "operator:type": "public", "operator:wikidata": "Q8052494", "source": "OS_OpenData_StreetView", "wikidata": "Q50575533", "wikipedia": "en:Yeovil Hospital"}}, {"name": "Westminster Memorial Hospital", "latitude": 51.0047244, "longitude": -2.2001257, "source": "osm", "_tags": {"addr:postcode": "SP7 8BD", "addr:street": "Abbey Walk", "amenity": "hospital", "building": "yes", "fhrs:id": "993995", "healthcare": "hospital", "name": "Westminster Memorial Hospital", "source": "OS_OpenData_StreetView", "source:addr": "FHRS Open Data", "wikidata": "Q14956841", "wikipedia": "en:Westminster Memorial Hospital"}}, {"name": "Frome Community Hospital", "latitude": 51.238099, "longitude": -2.3114668, "source": "osm", "_tags": {"amenity": "hospital", "building": "yes", "healthcare": "hospital", "name": "Frome Community Hospital"}}, {"name": "", "latitude": 51.3392599, "longitude": -2.9688273, "source": "osm", "_tags": {"amenity": "hospital", "building": "yes", "healthcare": "hospital", "source": "OS_OpenData_StreetView"}}, {"name": "Dorothy House Hospice Care", "latitude": 51.3454059, "longitude": -2.2912824, "source": "osm", "_tags": {"addr:city": "Bradford on Avon", "addr:country": "GB", "addr:postcode": "BA15 2LE", "amenity": "hospital", "email": "info@dorothyhouse-hospice.org.uk", "emergency": "no", "fax": "+44 1225 721478", "healthcare": "hospital", "name": "Dorothy House Hospice Care", "phone": "+44 1225 722988", "source": "local knowledge", "website": "https://www.dorothyhouse.co.uk/dorothy-house-information"}}, {"name": "Sulis Hospital", "latitude": 51.3114452, "longitude": -2.4166453, "source": "osm", "_tags": {"addr:postcode": "BA2 8SQ", "addr:street": "Foxcote Avenue", "amenity": "hospital", "fhrs:id": "1388026", "healthcare": "hospital", "name": "Sulis Hospital", "website": "https://www.sulishospital.com"}}, {"name": "Paulton Memorial Hospital", "latitude": 51.298834, "longitude": -2.4933239, "source": "osm", "_tags": {"addr:city": "Paulton", "addr:postcode": "BS39 7SB", "addr:street": "Salisbury Road", "amenity": "hospital", "fhrs:id": "1602793", "healthcare": "hospital", "name": "Paulton Memorial Hospital", "website": "https://bathneshealthandcare.nhs.uk/clinics-and-treatments/community-hospitals/", "wikidata": "Q7155377"}}, {"name": "Shepton Mallet Community Hospital", "latitude": 51.1902719, "longitude": -2.5625125, "source": "osm", "_tags": {"amenity": "hospital", "healthcare": "hospital", "name": "Shepton Mallet Community Hospital"}}, {"name": "West Mendip Community Hospital", "latitude": 51.1602951, "longitude": -2.6992952, "source": "osm", "_tags": {"addr:city": "Glastonbury", "addr:country": "GB", "addr:county": "Somerset", "addr:postcode": "BA6 8JD", "addr:street": "Old Wells Road", "amenity": "hospital", "emergency": "no", "healthcare": "hospital", "name": "West Mendip Community Hospital"}}, {"name": "Westhaven Hospital", "latitude": 50.614883, "longitude": -2.480805, "source": "osm", "_tags": {"addr:postcode": "DT4 0QE", "addr:street": "Radipole Lane", "amenity": "hospital", "fhrs:id": "992562", "healthcare": "hospital", "name": "Westhaven Hospital", "source:addr": "FHRS Open Data"}}, {"name": "South Bristol NHS Community Hospital", "latitude": 51.4127584, "longitude": -2.5831403, "source": "osm", "_tags": {"addr:city": "Bristol", "addr:postcode": "BS14 0DE", "addr:street": "Hengrove Promenade", "amenity": "hospital", "building": "hospital", "emergency": "no", "healthcare": "hospital", "name": "South Bristol NHS Community Hospital", "nohousenumber": "yes", "operator": "NHS", "operator:wikidata": "Q918396", "postal_code": "BS14 0DE", "wikidata": "Q7566412"}}, {"name": "South Petherton Hospital", "latitude": 50.9528662, "longitude": -2.7985461, "source": "osm", "_tags": {"amenity": "hospital", "emergency": "no", "healthcare": "hospital", "name": "South Petherton Hospital"}}, {"name": "Blandford Community Hospital", "latitude": 50.8619475, "longitude": -2.1665878, "source": "osm", "_tags": {"addr:city": "Blandford Forum", "addr:postcode": "DT11 7DD", "addr:street": "Milldown Road", "amenity": "hospital", "building": "yes", "check_date": "2024-09-12", "contact:phone": "+44 1258 456541", "emergency": "no", "fhrs:id": "993757", "healthcare": "hospital", "name": "Blandford Community Hospital"}}, {"name": "Trowbridge Community Hospital", "latitude": 51.3249147, "longitude": -2.2100987, "source": "osm", "_tags": {"amenity": "hospital", "healthcare": "hospital", "name": "Trowbridge Community Hospital", "operator": "NHS", "operator:wikidata": "Q918396", "website": "https://www.nhs.uk/ServiceDirectories/Pages/Hospital.aspx?id=5QK04&v=0"}}, {"name": "Sexey's Hospital", "latitude": 51.1110043, "longitude": -2.4568141, "source": "osm", "_tags": {"addr:city": "Bruton", "addr:housenumber": "1-30", "addr:postcode": "BA10 0AS", "addr:street": "High Street", "amenity": "hospital", "healthcare": "hospital", "name": "Sexey's Hospital", "source": "Bing", "wikidata": "Q7458558", "wikipedia": "en:Sexey's Hospital"}}, {"name": "Keynsham Health Centre", "latitude": 51.4094798, "longitude": -2.4970732, "source": "osm", "_tags": {"amenity": "hospital", "name": "Keynsham Health Centre"}}, {"name": "Bridgwater Community Hospital", "latitude": 51.1405633, "longitude": -2.9740809, "source": "osm", "_tags": {"addr:city": "Bridgwater", "addr:housename": "Bridgwater Community Hospital", "addr:postcode": "TA6 4GU", "addr:street": "Bower Lane", "amenity": "hospital", "healthcare": "hospital", "name": "Bridgwater Community Hospital", "operator": "NHS", "operator:wikidata": "Q918396"}}, {"name": "Warminster Community Hospital", "latitude": 51.2067143, "longitude": -2.1812905, "source": "osm", "_tags": {"amenity": "hospital", "building": "yes", "emergency": "no", "healthcare": "hospital", "name": "Warminster Community Hospital"}}, {"name": "Weymouth Community Hospital and Health Centre", "latitude": 50.6213469, "longitude": -2.4507747, "source": "osm", "_tags": {"addr:housenumber": "3", "addr:postcode": "DT4 7TB", "addr:street": "Melcombe Avenue", "amenity": "hospital", "fhrs:id": "992505", "healthcare": "hospital", "name": "Weymouth Community Hospital and Health Centre", "source:addr": "FHRS Open Data", "wheelchair": "yes"}}, {"name": "Melksham Community Hospital", "latitude": 51.3672204, "longitude": -2.1315435, "source": "osm", "_tags": {"addr:postcode": "SN12 7NZ", "amenity": "hospital", "healthcare": "hospital", "name": "Melksham Community Hospital", "ref:GB:nhs_ods": "92GAD"}}, {"name": "Wareham Hospital", "latitude": 50.687054, "longitude": -2.1171032, "source": "osm", "_tags": {"amenity": "hospital", "healthcare": "hospital", "name": "Wareham Hospital", "wheelchair": "yes"}}, {"name": "Bovington Medical Centre", "latitude": 50.6997746, "longitude": -2.2466377, "source": "osm", "_tags": {"addr:city": "Wareham", "addr:country": "GB", "addr:postcode": "BH20 6PH", "addr:street": "Sir Richard Hull Road", "addr:suburb": "Bovington", "amenity": "hospital", "building": "yes", "healthcare": "hospital", "name": "Bovington Medical Centre", "ref:GB:uprn": "10013732602", "source": "bing"}}, {"name": "Crewkerne Hospital", "latitude": 50.8811208, "longitude": -2.7981764, "source": "osm", "_tags": {"amenity": "hospital", "emergency": "no", "healthcare": "hospital", "name": "Crewkerne Hospital", "operator": "NHS", "operator:wikidata": "Q918396"}}, {"name": "Medical Centre", "latitude": 50.8899098, "longitude": -2.0996892, "source": "osm", "_tags": {"amenity": "hospital", "healthcare": "hospital", "name": "Medical Centre"}}, {"name": "Portland Hospital (Minor Injuries Unit)", "latitude": 50.5658325, "longitude": -2.4449558, "source": "osm", "_tags": {"amenity": "hospital", "building": "yes", "emergency": "no", "healthcare": "hospital", "name": "Portland Hospital (Minor Injuries Unit)", "wikidata": "Q16899469", "wikipedia": "en:Royal Naval Hospital, Portland"}}, {"name": "Yeatman Hospital", "latitude": 50.9494259, "longitude": -2.5195098, "source": "osm", "_tags": {"addr:city": "Sherborne", "addr:postcode": "DT9 3JU", "addr:street": "Hospital Lane", "amenity": "hospital", "fhrs:id": "995118", "healthcare": "hospital", "name": "Yeatman Hospital"}}, {"name": "Dorset County Hospital", "latitude": 50.7126712, "longitude": -2.4470683, "source": "osm", "_tags": {"amenity": "hospital", "healthcare": "hospital", "name": "Dorset County Hospital"}}, {"name": "Summerlands", "latitude": 50.9466794, "longitude": -2.6478021, "source": "osm", "_tags": {"amenity": "hospital", "check_date": "2024-11-16", "healthcare": "hospital", "name": "Summerlands"}}, {"name": "Burnham-on-Sea War Memorial Hospital", "latitude": 51.2388558, "longitude": -2.9942266, "source": "osm", "_tags": {"amenity": "hospital", "emergency": "no", "healthcare": "hospital", "name": "Burnham-on-Sea War Memorial Hospital"}}, {"name": "", "latitude": 51.2277106, "longitude": -2.97895, "source": "osm", "_tags": {"amenity": "hospital", "healthcare": "hospital"}}, {"name": "Weston General Hospital", "latitude": 51.3224266, "longitude": -2.9725604, "source": "osm", "_tags": {"addr:city": "Weston-Super-Mare", "addr:postcode": "BS23 4TQ", "addr:street": "Grange Road", "addr:suburb": "Uphill", "amenity": "hospital", "emergency": "yes", "fhrs:id": "581772", "healthcare": "hospital", "name": "Weston General Hospital", "source:addr": "FHRS Open Data", "wikidata": "Q7989433"}}, {"name": "Cygnet Hospital Kewstoke", "latitude": 51.3648286, "longitude": -2.9606089, "source": "osm", "_tags": {"addr:city": "Weston-super-Mare", "addr:postcode": "BS22 9UZ", "addr:street": "Beach Road", "amenity": "hospital", "check_date": "2025-05-26", "healthcare": "hospital", "healthcare:speciality": "psychiatry", "name": "Cygnet Hospital Kewstoke"}}, {"name": "Chard Community Hospital", "latitude": 50.8747987, "longitude": -2.9521486, "source": "osm", "_tags": {"amenity": "hospital", "healthcare": "hospital", "name": "Chard Community Hospital"}}, {"name": "Axminster Hospital", "latitude": 50.7839597, "longitude": -2.9956277, "source": "osm", "_tags": {"addr:city": "Axminster", "addr:postcode": "EX13 5DU", "addr:street": "Chard Street", "amenity": "hospital", "email": "rduh.axminsterhospitalreception@nhs.net", "emergency": "no", "fhrs:id": "163974", "healthcare": "hospital", "name": "Axminster Hospital", "phone": "+44 1297 630400", "source:addr": "FHRS Open Data", "source:outline": "Bing;land_registry_index_polygons", "website": "https://www.royaldevon.nhs.uk/our-sites/axminster-hospital/"}}, {"name": "Wincanton Community Hospital", "latitude": 51.0587799, "longitude": -2.4180994, "source": "osm", "_tags": {"amenity": "hospital", "building": "yes", "healthcare": "hospital", "name": "Wincanton Community Hospital"}}, {"name": "Yeovil District Hospital", "latitude": 50.9449955, "longitude": -2.6329525, "source": "osm", "_tags": {"amenity": "hospital", "building": "yes", "name": "Yeovil District Hospital"}}, {"name": "Yeovil District Hospital", "latitude": 50.9450213, "longitude": -2.6330038, "source": "osm", "_tags": {"amenity": "hospital", "building": "yes", "name": "Yeovil District Hospital"}}, {"name": "Yeovil District Hospital", "latitude": 50.9449007, "longitude": -2.6329639, "source": "osm", "_tags": {"amenity": "hospital", "building": "yes", "name": "Yeovil District Hospital"}}, {"name": "Yeovil District Hospital", "latitude": 50.9450683, "longitude": -2.6329152, "source": "osm", "_tags": {"amenity": "hospital", "building": "yes", "name": "Yeovil District Hospital"}}, {"name": "Yeovil District Hospital", "latitude": 50.9450709, "longitude": -2.6327023, "source": "osm", "_tags": {"amenity": "hospital", "building": "yes", "name": "Yeovil District Hospital"}}, {"name": "Yeovil District Hospital", "latitude": 50.9448319, "longitude": -2.6331218, "source": "osm", "_tags": {"amenity": "hospital", "building": "yes", "name": "Yeovil District Hospital"}}, {"name": "Yeovil District Hospital", "latitude": 50.9448732, "longitude": -2.6325721, "source": "osm", "_tags": {"amenity": "hospital", "building": "yes", "name": "Yeovil District Hospital"}}, {"name": "Yeovil District Hospital", "latitude": 50.9447954, "longitude": -2.632257, "source": "osm", "_tags": {"amenity": "hospital", "building": "yes", "name": "Yeovil District Hospital"}}, {"name": "Yeovil District Hospital", "latitude": 50.9443244, "longitude": -2.6334922, "source": "osm", "_tags": {"amenity": "hospital", "building": "yes", "name": "Yeovil District Hospital"}}, {"name": "Yeovil District Hospital", "latitude": 50.9445609, "longitude": -2.6331258, "source": "osm", "_tags": {"amenity": "hospital", "building": "yes", "name": "Yeovil District Hospital"}}, {"name": "Wells Health Centre", "latitude": 51.2037746, "longitude": -2.6554136, "source": "osm", "_tags": {"addr:postcode": "BA5 1XJ", "addr:street": "Glastonbury Road", "amenity": "hospital", "building": "yes", "email": "somicb.wellshealthcentre@nhs.net", "healthcare": "hospital", "name": "Wells Health Centre", "opening_hours": "Mo-Fr 08:00-18:30", "phone": "+44 1749 672137", "type": "multipolygon", "website": "https://www.wellshealthcentre.co.uk/"}}, {"name": "Bridport Community Hospital", "latitude": 50.7418016, "longitude": -2.7699299, "source": "osm", "_tags": {"amenity": "hospital", "building": "yes", "healthcare": "hospital", "name": "Bridport Community Hospital", "type": "multipolygon"}}, {"name": "Dorset County Hospital", "latitude": 50.7129913, "longitude": -2.4466291, "source": "osm", "_tags": {"amenity": "hospital", "building": "yes", "healthcare": "hospital", "name": "Dorset County Hospital", "source": "bing", "source:name": "local_knowledge", "type": "multipolygon", "wikidata": "Q5298846"}}, {"name": "The Winterbourne Hospital", "latitude": 50.7010671, "longitude": -2.442005, "source": "osm", "_tags": {"amenity": "hospital", "building": "yes", "healthcare": "hospital", "name": "The Winterbourne Hospital", "operator": "BMI Healthcare", "source": "local_knowledge", "source:building": "OS_OpenData_StreetView", "type": "multipolygon"}}]