[{"name": "Tavistock Hospital", "latitude": 50.5471567, "longitude": -4.1536325, "source": "osm", "_tags": {"addr:city": "Tavistock", "addr:housename": "Tavistock Hospital", "addr:postcode": "PL19 8LD", "addr:street": "Spring Hill", "amenity": "hospital", "fhrs:id": "1421042", "healthcare": "hospital", "name": "Tavistock Hospital", "source:addr": "FHRS Open Data"}}, {"name": "Stratton Hospital", "latitude": 50.8305542, "longitude": -4.5176143, "source": "osm", "_tags": {"addr:city": "Bude", "addr:postcode": "EX23 9BP", "addr:street": "Hospital Road", "addr:suburb": "Stratton", "amenity": "hospital", "healthcare": "hospital", "minor_injury_unit": "yes", "name": "Stratton Hospital"}}, {"name": "WW2 RAF Davidstow Sick Quarters", "latitude": 50.6511583, "longitude": -4.6226582, "source": "osm", "_tags": {"amenity": "hospital", "healthcare": "hospital", "name": "WW2 RAF Davidstow Sick Quarters", "operator": "RAF", "operator:type": "military"}}, {"name": "Liskeard Community Hospital", "latitude": 50.4617525, "longitude": -4.450848, "source": "osm", "_tags": {"addr:postcode": "PL14 3XD", "addr:street": "Clemo Road", "alt_name": "Minor Injuries Unit: 0800-2200", "amenity": "hospital", "building": "yes", "emergency": "yes", "fhrs:id": "408130", "healthcare": "hospital", "name": "Liskeard Community Hospital", "source": "gps_survey; local knowledge"}}, {"name": "Bideford Hospital", "latitude": 51.0179945, "longitude": -4.213255, "source": "osm", "_tags": {"amenity": "hospital", "contact:phone": "+44 1271 322 577", "contact:website": "http://www.northdevonhealth.nhs.uk/", "emergency": "no", "healthcare": "hospital", "name": "Bideford Hospital"}}, {"name": "Bodmin Hospital", "latitude": 50.4676172, "longitude": -4.7421552, "source": "osm", "_tags": {"amenity": "hospital", "emergency": "yes", "healthcare": "hospital", "name": "Bodmin Hospital", "source": "OS_OpenData_Streatview", "website": "https://www.nhs.uk/Services/hospitals/Overview/DefaultView.aspx?id=5QP11", "wheelchair": "yes", "wikidata": "Q4936671"}}, {"name": "Ilfracombe Tyrrell Hospital", "latitude": 51.2046649, "longitude": -4.1246883, "source": "osm", "_tags": {"addr:city": "Ilfracombe", "addr:postcode": "EX34 8JF", "addr:street": "St Brannocks Park Road", "amenity": "hospital", "contact:phone": "+44 1271 863448", "emergency": "no", "healthcare": "hospital", "name": "Ilfracombe Tyrrell Hospital"}}, {"name": "Torrington Community Hospital", "latitude": 50.9547893, "longitude": -4.137064, "source": "osm", "_tags": {"addr:city": "Torrington", "addr:country": "GB", "addr:postcode": "EX38 7BJ", "addr:street": "Calf Street", "addr:suburb": "Great Torrington", "amenity": "hospital", "emergency": "no", "fhrs:id": "233710", "healthcare": "hospital", "name": "Torrington Community Hospital", "phone": "+44 1805 622208"}}, {"name": "Holsworthy Hospital", "latitude": 50.818319, "longitude": -4.3498021, "source": "osm", "_tags": {"amenity": "hospital", "healthcare": "hospital", "name": "Holsworthy Hospital"}}, {"name": "Abbey Surgery", "latitude": 50.4800023, "longitude": -4.1920859, "source": "osm", "_tags": {"addr:city": "Yelverton", "addr:housename": "Health Authority Pcss, The Surgery", "addr:postcode": "PL20 7EJ", "addr:street": "Station Road", "building": "yes", "building:levels": "1", "healthcare": "hospital", "name": "Abbey Surgery"}}, {"name": "", "latitude": 50.5479884, "longitude": -4.1483032, "source": "osm", "_tags": {"amenity": "hospital", "healthcare": "hospital"}}, {"name": "Launceston Community Hospital", "latitude": 50.6279184, "longitude": -4.3591548, "source": "osm", "_tags": {"amenity": "hospital", "healthcare": "hospital", "name": "Launceston Community Hospital", "ref:GB:cqc_location": "RJ870", "ref:GB:nhs_ods": "RJ870"}}]