[{"name": "Хорошівський Центр первинної медико-санітарної допомоги", "latitude": 50.5937479, "longitude": 28.4410601, "source": "osm", "_tags": {"addr:housenumber": "42", "addr:street": "вулиця Шевченка", "amenity": "clinic", "healthcare": "hospital", "name": "Хорошівський Центр первинної медико-санітарної допомоги", "name:uk": "Хорошівський Центр первинної медико-санітарної допомоги", "opening_hours": "Mo-Fr 08:00-18:00; Sa 08:00-13:00", "operator": "Хорошівська селищна рада"}}, {"name": "Терапевтичне відділення ЦРЛ №2", "latitude": 51.0868213, "longitude": 28.7052116, "source": "osm", "_tags": {"addr:housenumber": "7", "addr:street": "Першотравнева вулиця", "amenity": "hospital", "emergency": "no", "healthcare": "hospital", "name": "Терапевтичне відділення ЦРЛ №2", "name:uk": "Терапевтичне відділення ЦРЛ №2"}}, {"name": "Комунальне некомерційне підприємство «АМБУЛАТОРІЯ ЗАГАЛЬНОЇ ПРАКТИКИ-СІМЕЙНОЇ МЕДИЦИНИ» БАРАШІВСЬКОЇ СІЛЬСЬКОЇ РАДИ", "latitude": 50.7130657, "longitude": 28.0336394, "source": "osm", "_tags": {"addr:housenumber": "2", "addr:street": "Соборна вулиця", "amenity": "hospital", "check_date": "2024-02-16", "healthcare": "hospital", "mobile": "+380 68 307 88 13", "name": "Комунальне некомерційне підприємство «АМБУЛАТОРІЯ ЗАГАЛЬНОЇ ПРАКТИКИ-СІМЕЙНОЇ МЕДИЦИНИ» БАРАШІВСЬКОЇ СІЛЬСЬКОЇ РАДИ", "name:uk": "Комунальне некомерційне підприємство «АМБУЛАТОРІЯ ЗАГАЛЬНОЇ ПРАКТИКИ-СІМЕЙНОЇ МЕДИЦИНИ» БАРАШІВСЬКОЇ СІЛЬСЬКОЇ РАДИ"}}, {"name": "", "latitude": 50.5087941, "longitude": 28.1610136, "source": "osm", "_tags": {"addr:housenumber": "13", "addr:postcode": "12013", "addr:street": "вулиця Шевченка", "amenity": "hospital", "opening_hours": "24/7"}}, {"name": "", "latitude": 51.3324185, "longitude": 28.8063042, "source": "osm", "_tags": {"amenity": "hospital"}}, {"name": "КНП \"Центр первинної медико-санітарної допомоги\"", "latitude": 50.7003501, "longitude": 28.644657, "source": "osm", "_tags": {"addr:housenumber": "42", "addr:street": "Казкова вулиця", "amenity": "hospital", "building": "hospital", "building:levels": "4", "healthcare": "hospital", "name": "КНП \"Центр первинної медико-санітарної допомоги\"", "name:uk": "КНП \"Центр первинної медико-санітарної допомоги\"", "roof:shape": "flat"}}, {"name": "КНП «Лікарня» Пулинської селищної ради", "latitude": 50.4667963, "longitude": 28.2595723, "source": "osm", "_tags": {"addr:housenumber": "44", "addr:street": "вулиця Незалежності", "amenity": "hospital", "building": "yes", "building:levels": "3", "emergency": "yes", "healthcare": "hospital", "name": "КНП «Лікарня» Пулинської селищної ради", "name:uk": "КНП «Лікарня» Пулинської селищної ради"}}, {"name": "Обласний міжрайонний діагностичний центр", "latitude": 50.9439472, "longitude": 28.6613162, "source": "osm", "_tags": {"addr:housenumber": "21Б", "addr:postcode": "11509", "addr:street": "Київська вулиця", "amenity": "hospital", "building": "yes", "healthcare": "hospital", "name": "Обласний міжрайонний діагностичний центр", "name:uk": "Обласний міжрайонний діагностичний центр"}}, {"name": "Амбулаторія сімейної медицини", "latitude": 50.6980632, "longitude": 28.6316363, "source": "osm", "_tags": {"addr:street": "Квітнева вулиця", "amenity": "hospital", "building": "yes", "building:levels": "2", "name": "Амбулаторія сімейної медицини", "name:uk": "Амбулаторія сімейної медицини", "roof:levels": "1", "roof:shape": "gabled"}}, {"name": "Центральна районна лікарня", "latitude": 50.4540541, "longitude": 28.6762635, "source": "osm", "_tags": {"amenity": "hospital", "healthcare": "hospital", "name": "Центральна районна лікарня", "name:uk": "Центральна районна лікарня"}}, {"name": "Хорошівська центральна лікарня", "latitude": 50.5968517, "longitude": 28.4362945, "source": "osm", "_tags": {"amenity": "hospital", "email": "volvolcrl@gmail.com", "healthcare": "hospital", "mobile": "+380 68 275 8931", "name": "Хорошівська центральна лікарня", "name:uk": "Хорошівська центральна лікарня", "official_name": "Комунальне некомерційне підприємство «Хорошівська лікарня» Хорошівської селищної ради", "official_name:uk": "Комунальне некомерційне підприємство «Хорошівська лікарня» Хорошівської селищної ради", "operator": "Хорошівська селищна рада", "phone": "+380 4145 32112", "short_name": "КНП «Хорошівська лікарня»", "short_name:uk": "КНП «Хорошівська лікарня»", "website": "https://horoshiv.crl.net.ua/"}}, {"name": "Коростенська центральна міська лікарня", "latitude": 50.9531694, "longitude": 28.6563365, "source": "osm", "_tags": {"addr:housenumber": "8", "addr:street": "вулиця Миколи Амосова", "amenity": "hospital", "contact:website": "https://korostencml.med.ukraina.org.ua/", "emergency": "yes", "healthcare": "hospital", "name": "Коростенська центральна міська лікарня", "name:en": "Korosten Urban Town Hospital", "name:uk": "Коростенська центральна міська лікарня", "official_name": "КОМУНАЛЬНЕ НЕКОМЕРЦІЙНЕ ПІДПРИЄМСТВО \"КОРОСТЕНСЬКА ЦЕНТРАЛЬНА МІСЬКА ЛІКАРНЯ КОРОСТЕНСЬКОЇ МІСЬКОЇ РАДИ\"", "short_name": "Коростенська ЦМЛ", "type": "multipolygon"}}, {"name": "Центральна районна лікарня", "latitude": 50.9487087, "longitude": 28.6187117, "source": "osm", "_tags": {"amenity": "hospital", "contact:website": "https://korosten.crl.org.ua/", "emergency": "yes", "healthcare": "hospital", "name": "Центральна районна лікарня", "name:uk": "Центральна районна лікарня", "official_name": "Коростенська центральна районна лікарня Коростенської районної ради", "old_name": "Відділкова лікарня станції Коростень", "type": "multipolygon"}}]