[{"name": "", "latitude": 51.0673344, "longitude": 10.9332973, "source": "osm", "_tags": {"amenity": "hospital", "healthcare": "hospital"}}, {"name": "", "latitude": 50.9967702, "longitude": 10.5442251, "source": "osm", "_tags": {"amenity": "hospital", "designation": "Arzt", "source": "Stüber"}}, {"name": "Hausarztpraxis", "latitude": 51.1764063, "longitude": 10.2768273, "source": "osm", "_tags": {"amenity": "hospital", "healthcare": "hospital", "healthcare:speciality": "general", "name": "Hausarztpraxis", "operator": "MVZ Mühlhausen", "operator:type": "private"}}, {"name": "KfH-Nierenzentrum", "latitude": 50.9796362, "longitude": 10.3256242, "source": "osm", "_tags": {"abandoned:landuse": "industrial", "addr:city": "Eisenach", "addr:country": "DE", "addr:housenumber": "4", "addr:postcode": "99817", "addr:street": "Rennbahn", "amenity": "hospital", "contact:website": "https://www.kfh.de/", "healthcare": "hospital", "name": "KfH-Nierenzentrum"}}, {"name": "Haus T", "latitude": 50.9892638, "longitude": 10.3168812, "source": "osm", "_tags": {"amenity": "hospital", "healthcare": "hospital", "healthcare:speciality": "general", "name": "Haus T"}}, {"name": "Haus B", "latitude": 50.9885896, "longitude": 10.3155799, "source": "osm", "_tags": {"amenity": "hospital", "healthcare": "hospital", "healthcare:speciality": "general", "name": "Haus B"}}, {"name": "Haus C", "latitude": 50.9883878, "longitude": 10.3166501, "source": "osm", "_tags": {"amenity": "hospital", "healthcare": "hospital", "healthcare:speciality": "general", "name": "Haus C"}}, {"name": "Haus A", "latitude": 50.9886681, "longitude": 10.3151914, "source": "osm", "_tags": {"amenity": "hospital", "healthcare": "hospital", "healthcare:speciality": "general", "name": "Haus A"}}, {"name": "Haus D", "latitude": 50.9881827, "longitude": 10.3150148, "source": "osm", "_tags": {"amenity": "hospital", "healthcare": "hospital", "healthcare:speciality": "general", "name": "Haus D"}}, {"name": "Haus F", "latitude": 50.9876919, "longitude": 10.3156085, "source": "osm", "_tags": {"amenity": "hospital", "healthcare": "hospital", "healthcare:speciality": "general", "name": "Haus F"}}, {"name": "Haus N", "latitude": 50.9895139, "longitude": 10.315123, "source": "osm", "_tags": {"amenity": "hospital", "healthcare": "hospital", "healthcare:speciality": "general", "name": "Haus N"}}, {"name": "Klinikum Bad Salzungen", "latitude": 50.8033203, "longitude": 10.2186291, "source": "osm", "_tags": {"addr:city": "Bad Salzungen", "addr:housenumber": "3", "addr:postcode": "36433", "addr:street": "Lindigallee", "amenity": "hospital", "emergency": "yes", "healthcare": "hospital", "healthcare:speciality": "internal;surgery;intensive;gynaecology;paediatrics;psychiatry;emergency;biology;radiology", "name": "Klinikum Bad Salzungen", "short_name": "KH Bad Salzungen", "wikidata": "Q19965401"}}, {"name": "St. Georg Klinikum Eisenach", "latitude": 50.9885958, "longitude": 10.316079, "source": "osm", "_tags": {"addr:city": "Eisenach", "addr:country": "DE", "addr:housenumber": "94-95", "addr:postcode": "99817", "addr:street": "Mühlhäuser Straße", "amenity": "hospital", "check_date": "2025-05-02", "contact:website": "http://www.stgeorgklinikum.de/", "emergency": "yes", "healthcare": "hospital", "healthcare:speciality": "intensive;surgery;gynaecology;cardiology;oncology;internal;paediatrics;orthopaedics;emergency", "name": "St. Georg Klinikum Eisenach", "phone": "+49 3691 6980", "short_name": "KH Eisenach", "wheelchair": "yes"}}, {"name": "m&i-Fachklinik Bad Liebenstein", "latitude": 50.8139394, "longitude": 10.3539811, "source": "osm", "_tags": {"addr:city": "Bad Liebenstein", "addr:housenumber": "2", "addr:postcode": "36448", "addr:street": "Kurpromenade", "amenity": "hospital", "building": "yes", "building:levels": "4", "healthcare": "rehabilitation", "image": "https://commons.wikimedia.org/wiki/File:WAK_BALI_207.JPG", "name": "m&i-Fachklinik Bad Liebenstein", "phone": "+49 36961 660", "toilets:wheelchair": "yes", "website": "https://www.fachklinik-bad-liebenstein.de/", "wheelchair": "yes", "wikidata": "Q56721930"}}, {"name": "Hennebergklinik", "latitude": 50.5082005, "longitude": 10.7546761, "source": "osm", "_tags": {"amenity": "hospital", "building": "yes", "emergency": "yes", "healthcare": "hospital", "name": "Hennebergklinik", "toilets:wheelchair": "yes", "wheelchair": "yes"}}, {"name": "Ilm-Kreis-Kliniken Arnstadt-Ilmenau - Standort Ilmenau", "latitude": 50.6787084, "longitude": 10.9176093, "source": "osm", "_tags": {"addr:city": "Ilmenau", "addr:country": "DE", "addr:housenumber": "26", "addr:postcode": "98693", "addr:street": "Krankenhausstraße", "amenity": "hospital", "contact:fax": "+49 3677 882035", "contact:phone": "+49 3677 606-0", "contact:website": "http://www.ilm-kreis-kliniken.de/", "emergency": "yes", "healthcare": "hospital", "healthcare:speciality": "intensive;emergency;cardiology;internal;radiology;orthopaedics;surgery", "name": "Ilm-Kreis-Kliniken Arnstadt-Ilmenau - Standort Ilmenau", "operator": "Ilm-Kreis-Kliniken Arnstadt-Ilmenau gGmbH, Bärwinkelstr. 33, 99310 Arnstadt", "short_name": "KH Ilmenau", "wheelchair": "yes"}}, {"name": "Kurparkklinik Dr. Lauterbach", "latitude": 50.8142701, "longitude": 10.3520709, "source": "osm", "_tags": {"addr:city": "Bad Liebenstein", "addr:housenumber": "5", "addr:postcode": "36448", "addr:street": "Heinrich-Mann-Straße", "amenity": "hospital", "building": "yes", "building:levels": "4", "healthcare": "rehabilitation", "layer": "1", "name": "Kurparkklinik Dr. Lauterbach", "phone": "+49 36961 790", "website": "https://www.dr-lauterbach-klinik.de/", "wheelchair": "yes"}}, {"name": "Helios Fachklinken Hildburghausen", "latitude": 50.4251195, "longitude": 10.7419977, "source": "osm", "_tags": {"addr:city": "Hildburghausen", "addr:country": "DE", "addr:postcode": "98646", "addr:street": "Eisfelder Straße", "amenity": "hospital", "contact:phone": "+49 3685 7760", "contact:website": "https://www.helios-gesundheit.de/standorte-angebote/kliniken/hildburghausen/", "healthcare": "hospital", "healthcare:speciality": "psychiatry", "name": "Helios Fachklinken Hildburghausen", "operator": "Helios Kliniken", "operator:wikidata": "Q1254151", "operator:wikipedia": "de:Helios Kliniken", "short_name": "KH Hildburghausen"}}, {"name": "Hufeland Klinikum Mühlhausen", "latitude": 51.2013226, "longitude": 10.4682145, "source": "osm", "_tags": {"addr:city": "Mühlhausen", "addr:housenumber": "1", "addr:postcode": "99974", "addr:street": "Langensalzaer Landstraße", "amenity": "hospital", "emergency": "yes", "healthcare": "hospital", "name": "Hufeland Klinikum Mühlhausen", "short_name": "KH Mühlhausen Hufeland", "source": "Bing", "wheelchair": "yes"}}, {"name": "Helios Klinikum Meiningen", "latitude": 50.5576351, "longitude": 10.3970282, "source": "osm", "_tags": {"addr:city": "Meiningen", "addr:housenumber": "3", "addr:postcode": "98617", "addr:street": "Bergstraße", "amenity": "hospital", "contact:fax": "+49 3693 901234", "contact:phone": "+49 3693 900", "contact:website": "https://www.helios-gesundheit.de/standorte-angebote/kliniken/meiningen/", "emergency": "yes", "healthcare": "hospital", "healthcare:speciality": "ophthalmology;intensive;orthopaedics;gynaecology;emergency;surgery;internal;paediatrics;cardiology;oncology;radiology", "layer": "-1", "name": "Helios Klinikum Meiningen", "operator": "Helios Kliniken", "operator:wikidata": "Q1254151", "operator:wikipedia": "de:Helios Klinikum Meiningen", "short_name": "KH Meiningen", "wheelchair": "yes"}}, {"name": "Ökumenisches Hainich Klinikum", "latitude": 51.2093503, "longitude": 10.4016343, "source": "osm", "_tags": {"addr:city": "Mühlhausen", "addr:housenumber": "102", "addr:postcode": "99974", "addr:street": "Pfafferode", "amenity": "hospital", "emergency": "yes", "healthcare": "hospital", "healthcare:speciality": "psychiatry", "leisure": "park", "name": "Ökumenisches Hainich Klinikum", "short_name": "KH Mühlhausen Hainich", "website": "https://www.oehk.de/", "wikidata": "Q15136352"}}, {"name": "Klinik am Rennsteig", "latitude": 50.8719031, "longitude": 10.5131759, "source": "osm", "_tags": {"addr:city": "Bad Tabarz", "addr:housenumber": "34", "addr:postcode": "99891", "addr:street": "Zimmerbergstraße", "amenity": "hospital", "building": "yes", "building:levels": "5", "emergency": "no", "healthcare": "hospital", "name": "Klinik am Rennsteig", "operator": "Mediclin", "operator:type": "private", "operator:wikidata": "Q1916295", "phone": "+4936259640", "source": "bing", "website": "https://www.klinik-am-rennsteig.de/", "wheelchair": "yes"}}, {"name": "Fachklinik Rusteberg", "latitude": 51.3853517, "longitude": 10.0081408, "source": "osm", "_tags": {"addr:city": "Marth", "addr:country": "DE", "addr:housenumber": "1", "addr:postcode": "37318", "addr:street": "Rusteberger Straße", "amenity": "hospital", "check_date": "2025-02-04", "email": "info@fachklinik-rusteberg.de", "fax": "+49 36081 69141", "healthcare": "hospital", "healthcare:counselling": "addiction", "name": "Fachklinik Rusteberg", "operator": "SiT - Suchthilfe in Thüringen gGmbH", "phone": "+49 36081 6910", "source": "Thüringen DOP20;Esri;website", "website": "https://sit-online.org/suchthilfe-aus-einer-hand/fachklinik-rusteberg"}}, {"name": "MEDIAN Heinrich-Mann-Klinik", "latitude": 50.8103823, "longitude": 10.352396, "source": "osm", "_tags": {"addr:city": "Bad Liebenstein", "addr:housenumber": "34", "addr:postcode": "36448", "addr:street": "Heinrich-Mann-Straße", "amenity": "hospital", "building": "yes", "healthcare": "rehabilitation", "healthcare:speciality": "orthopaedics", "name": "MEDIAN Heinrich-Mann-Klinik"}}, {"name": "Immanuel Therapiezentrum Bad Liebenstein", "latitude": 50.8163192, "longitude": 10.3356289, "source": "osm", "_tags": {"addr:city": "Bad Liebenstein", "addr:housenumber": "131", "addr:postcode": "36448", "addr:street": "Altensteiner Straße", "amenity": "hospital", "building": "yes", "healthcare": "rehabilitation", "name": "Immanuel Therapiezentrum Bad Liebenstein", "old_name": "Landeskrankenhaus Marienthal", "wheelchair": "limited"}}, {"name": "Zentralklinikum Suhl", "latitude": 50.6025147, "longitude": 10.7104915, "source": "osm", "_tags": {"addr:city": "Suhl", "addr:country": "DE", "addr:housenumber": "2", "addr:postcode": "98527", "addr:street": "Albert-Schweitzer-Straße", "alt_name": "SRH Zentralklinikum Suhl", "amenity": "hospital", "healthcare": "hospital", "name": "Zentralklinikum Suhl", "operator": "SRH Zentralklinikum Suhl GmbH", "short_name": "KH Suhl", "wheelchair": "yes", "wikidata": "Q2207716", "wikipedia": "de:SRH Zentralklinikum Suhl"}}, {"name": "Charlottenhall", "latitude": 50.8132206, "longitude": 10.2306799, "source": "osm", "_tags": {"addr:city": "Bad Salzungen", "addr:country": "DE", "addr:housenumber": "7", "addr:postcode": "36433", "addr:street": "Mathilde-Wurm-Straße", "amenity": "hospital", "building": "yes", "description": "CHARLOTTENHALL Rehabilitations- und Vorsorgeklinik gGmbH", "healthcare": "hospital", "name": "Charlottenhall", "phone": "+49 3695 6923-0", "toilets:wheelchair": "yes", "website": "https://charlottenhall.com", "wheelchair": "yes"}}, {"name": "Caritas-Heim Maria am See", "latitude": 50.806927, "longitude": 10.2377579, "source": "osm", "_tags": {"addr:city": "Bad Salzungen", "addr:country": "DE", "addr:housenumber": "14", "addr:postcode": "36433", "addr:street": "Am Stadion", "amenity": "hospital", "building": "yes", "healthcare": "hospital", "name": "Caritas-Heim Maria am See"}}, {"name": "BalzerbornKliniken", "latitude": 51.2625087, "longitude": 9.9672404, "source": "osm", "_tags": {"addr:city": "Bad Sooden-Allendorf", "addr:country": "DE", "addr:housenumber": "27", "addr:postcode": "37242", "addr:street": "Balzerbornweg", "amenity": "hospital", "building": "hospital", "email": "info@bbk-reha.de", "fax": "+49 5652 5876 2018", "healthcare": "hospital", "name": "BalzerbornKliniken", "operator": "Balzerborn Kliniken Bad Sooden-Allendorf GmbH", "phone": "+49 5652 5876 2000", "website": "https://www.balzerborn-reha.de/", "wheelchair": "yes"}}, {"name": "Klinik Werraland", "latitude": 51.2658075, "longitude": 9.9641353, "source": "osm", "_tags": {"addr:city": "Bad Sooden-Allendorf", "addr:country": "DE", "addr:housenumber": "2", "addr:postcode": "37242", "addr:street": "Balzerbornweg", "amenity": "hospital", "building": "hospital", "email": "info@klinik-werraland.de", "fax": "+49 5652 955 100", "healthcare": "hospital", "name": "Klinik Werraland", "operator": "Werraland Stiftung für Familiengesundheit - Stiftung bürgerlichen Rechts", "phone": "+49 5652 955 0", "website": "https://www.klinik-werraland.de/", "wheelchair": "yes", "wikidata": "Q116525754"}}, {"name": "Klinikum Werra-Meißner Standort Eschwege", "latitude": 51.1830091, "longitude": 10.0511387, "source": "osm", "_tags": {"amenity": "hospital", "contact:fax": "+49 5651 82-1016", "contact:phone": "+49 5651 82-0", "contact:website": "https://www.klinikum-werra-meissner.de", "emergency": "yes", "healthcare": "hospital", "name": "Klinikum Werra-Meißner Standort Eschwege", "opening_hours": "24/7", "operator": "Klinikum Werra-Meißner GmbH", "wheelchair": "yes"}}, {"name": "Eichsfeld Klinikum Haus St. Vincenz Heiligenstadt", "latitude": 51.3763467, "longitude": 10.1411296, "source": "osm", "_tags": {"addr:city": "Heilbad Heiligenstadt", "addr:country": "DE", "addr:housenumber": "112", "addr:postcode": "37308", "addr:street": "Windische Gasse", "amenity": "hospital", "check_date": "2024-05-14", "contact:phone": "+49 3606 760", "contact:website": "http://www.eichsfeld-klinikum.de/", "healthcare": "hospital", "healthcare:speciality": "intensive;gynaecology;internal;paediatrics;orthopaedics", "name": "Eichsfeld Klinikum Haus St. Vincenz Heiligenstadt", "operator": "Eichsfeld Klinikum", "operator:type": "religious", "short_name": "KH Heiligenstadt", "wheelchair": "yes"}}, {"name": "Klinik Kurhessen", "latitude": 51.2704386, "longitude": 9.9608401, "source": "osm", "_tags": {"addr:city": "Bad Sooden-Allendorf", "addr:housenumber": "7", "addr:postcode": "37242", "addr:street": "Am Haintor", "amenity": "hospital", "building": "hospital", "email": "klinik-kurhessen@drv-hessen.de", "fax": "+49 5652 953 953", "healthcare": "hospital", "name": "Klinik Kurhessen", "operator": "Deutsche Rentenversicherung Hessen", "phone": "+49 5652 953 0", "website": "https://www.klinik-kurhessen.de/", "wheelchair": "yes"}}, {"name": "Hufeland Klinikum Bad Langensalza", "latitude": 51.1052518, "longitude": 10.6496021, "source": "osm", "_tags": {"addr:city": "Bad Langensalza", "addr:country": "DE", "addr:housenumber": "1-5", "addr:postcode": "99947", "addr:street": "Rudolf-Weiss-Straße", "amenity": "hospital", "contact:email": "info@hufeland.de", "contact:facebook": "https://www.facebook.com/pages/Hufeland-Klinikum-GmbH/764577056885986", "contact:fax": "+49 3603 855-100", "contact:phone": "+49 3603 855-0", "contact:website": "http://www.hufeland.de/", "emergency": "yes", "healthcare": "hospital", "healthcare:speciality": "orthopaedics;emergency;surgery;intensive;gynaecology;internal;paediatrics;biology;radiology;abortion", "name": "Hufeland Klinikum Bad Langensalza", "operator": "Hufeland Klinikum GmbH", "short_name": "KH Bad Langensalza", "toilets:wheelchair": "yes", "wheelchair": "yes", "wikidata": "Q107295076"}}, {"name": "Elisabeth Klinikum Schmalkalden", "latitude": 50.7219866, "longitude": 10.4405294, "source": "osm", "_tags": {"addr:city": "Schmalkalden", "addr:country": "DE", "addr:housenumber": "9", "addr:postcode": "98574", "addr:street": "Eichelbach", "amenity": "hospital", "contact:email": "info@elisabeth-klinikum.de", "contact:fax": "+49 3683 645 108", "contact:phone": "+49 3683 645 0", "contact:website": "https://www.elisabeth-klinikum.de/", "emergency": "yes", "healthcare": "hospital", "name": "Elisabeth Klinikum Schmalkalden", "operator": "Kreiswerke Schmalkalden-Meiningen GmbH", "short_name": "KH Schmalkalden", "start_date": "1945", "toilets:wheelchair": "yes", "wheelchair": "yes", "wikidata": "Q18574995", "wikipedia": "de:Elisabeth Klinikum Schmalkalden"}}, {"name": "KMG Klinikum Sondershausen", "latitude": 51.3736886, "longitude": 10.8786114, "source": "osm", "_tags": {"addr:city": "Sondershausen", "addr:country": "DE", "addr:housenumber": "2", "addr:postcode": "99706", "addr:street": "Hospitalstraße", "amenity": "hospital", "email": "sondershausen@kmg-kliniken.de", "emergency": "yes", "healthcare": "hospital", "name": "KMG Klinikum Sondershausen", "opening_hours": "Mo-Fr 06:30-20:00; Sa-Su 08:00-20:00", "operator": "KMG Kliniken SE", "operator:type": "private", "phone": "+49 3632 670", "short_name": "KH Sondershausen", "toilets:wheelchair": "yes", "website": "https://kmg-kliniken.de/kmg-klinikum-sondershausen", "wheelchair": "yes", "wikidata": "Q23787615", "wikipedia": "de:KMG Klinikum Sondershausen"}}, {"name": "Helios Klinikum Gotha", "latitude": 50.9280885, "longitude": 10.6774405, "source": "osm", "_tags": {"addr:city": "Gotha", "addr:housenumber": "1", "addr:postcode": "99867", "addr:street": "Heliosstraße", "amenity": "hospital", "emergency": "yes", "healthcare": "hospital", "healthcare:speciality": "psychiatry;paediatrics;orthopaedics;gynaecology;emergency;surgery;cardiology;oncology;internal", "name": "Helios Klinikum Gotha", "operator": "Helios Kliniken", "operator:wikidata": "Q1254151", "operator:wikipedia": "de:Helios Kliniken", "short_name": "KH Gotha", "wheelchair": "yes", "wikidata": "Q19965382"}}, {"name": "", "latitude": 51.3470159, "longitude": 10.3631646, "source": "osm", "_tags": {"amenity": "hospital", "healthcare": "hospital"}}, {"name": "Inselsberg Klinik", "latitude": 50.8825047, "longitude": 10.4997578, "source": "osm", "_tags": {"addr:city": "Bad Tabarz", "addr:country": "DE", "addr:housenumber": "36", "addr:postcode": "99891", "addr:street": "Fischbacher Straße", "amenity": "hospital", "contact:email": "info@ibk-bt.de", "contact:fax": "+49 36259 53213", "contact:phone": "+49 36259 530", "contact:website": "https://inselsberg-klinik.de/index.html", "description": "Fachklinik für Onkologie und hämatologische Systemerkrankungen, Zentrum für Lymphologie und Gefäßerkrankungen", "healthcare": "hospital", "healthcare:speciality": "oncology;haematology;angiology;lymphologie", "name": "Inselsberg Klinik", "operator": "Wicker GmbH u. Co. oHG", "wheelchair": "yes"}}, {"name": "Landambulanz", "latitude": 50.9619532, "longitude": 10.0707677, "source": "osm", "_tags": {"addr:city": "Gerstungen", "addr:housenumber": "1", "addr:postcode": "99834", "addr:street": "Jahnstraße", "building": "hospital", "check_date": "2023-05-14", "description": "Das Gebäude war bis zur Auflösung der Praxisgemeinschaft\nDr. med. W. Broßmann, und  Dr. Balinski FA für Innere Medizin und Allgemeinmedizin in Gerstungen genutzt worden.  Zur Zeit ungenutzt.", "healthcare": "hospital", "name": "Landambulanz"}}, {"name": "Dr. Becker Burg-Klinik", "latitude": 50.7824358, "longitude": 10.1275561, "source": "osm", "_tags": {"addr:city": "Dermbach", "addr:housenumber": "19", "addr:postcode": "36466", "addr:street": "Am Burgplatz", "addr:suburb": "Stadtlengsfeld", "amenity": "hospital", "emergency": "no", "healthcare": "hospital", "healthcare:speciality": "psychiatry", "name": "Dr. Becker Burg-Klinik", "operator": "Dr. Becker Klinikgrupe"}}, {"name": "SRH Krankenhaus Waltershausen-Friedrichroda", "latitude": 50.8609546, "longitude": 10.5603936, "source": "osm", "_tags": {"addr:city": "Friedrichroda", "addr:housenumber": "17", "addr:postcode": "99894", "addr:street": "Reinhardsbrunner Straße", "amenity": "hospital", "check_date": "2024-03-12", "emergency": "yes", "healthcare": "hospital", "healthcare:speciality": "intensive;gynaecology;orthopaedics;surgery;internal;emergency", "name": "SRH Krankenhaus Waltershausen-Friedrichroda", "short_name": "KH Waltershausen"}}, {"name": "Eichsfeld Klinikum Haus Reifenstein", "latitude": 51.3473621, "longitude": 10.3638176, "source": "osm", "_tags": {"addr:city": "Niederorschel", "addr:housenumber": "7", "addr:postcode": "37355", "addr:street": "Im Kloster", "amenity": "hospital", "fixme": "bitte Umriss Krankenhausgelände prüfen und ggf. anpassen", "healthcare": "hospital", "healthcare:speciality": "surgery", "name": "Eichsfeld Klinikum Haus Reifenstein", "short_name": "KH Eichsfeld Reifenstein"}}, {"name": "REGIOMED Klinikum Hildburghausen", "latitude": 50.4292246, "longitude": 10.7284895, "source": "osm", "_tags": {"addr:city": "Hildburghausen", "addr:housenumber": "17", "addr:postcode": "98646", "addr:street": "Schleusinger Straße", "amenity": "hospital", "check_date": "2024-05-26", "description": "Anästhesie und Intensivmedizin\n    Chirurgie\n    Gastroenterologie\n    Geriatrie\n    Kardiologie\n    Notfallambulanz\n    Orthopädie und Unfallchirurgie\n    Physiotherapie\n    Radiologie", "email": "info.hbn@regiomed-kliniken.de", "emergency": "yes", "fax": "03685 773-209", "healthcare": "hospital", "healthcare:speciality": "intensive;surgery;oncology;internal;gynaecology;emergency;cardiology;orthopaedics", "image": "https://www.regiomed-kliniken.de/img/inhalt/kliniken/Hildburghausen/hildburghausen.jpg", "name": "REGIOMED Klinikum Hildburghausen", "operator": "REGIOMED", "operator:type": "private", "phone": "+49 3685 7730", "website": "https://www.henneberg-kliniken.de/henneberg-klinik-hildburghausen/", "wheelchair": "yes"}}, {"name": "St. Elisabeth-Krankenhaus Lengenfeld unterm Stein", "latitude": 51.2135397, "longitude": 10.2178664, "source": "osm", "_tags": {"addr:city": "Lengenfeld unterm Stein", "addr:housenumber": "19", "addr:postcode": "99976", "addr:street": "Bahnhofstraße", "amenity": "hospital", "check_date": "2024-03-24", "emergency": "no", "healthcare": "hospital", "internet_access": "wlan", "internet_access:fee": "customers", "name": "St. Elisabeth-Krankenhaus Lengenfeld unterm Stein", "payment:cash": "yes", "payment:credit_cards": "yes", "payment:debit_cards": "yes", "short_name": "KH Lengenfeld u. Stein", "source": "survey", "wheelchair": "yes"}}, {"name": "Geriatrische Fachklinik \"Georgenhaus\"", "latitude": 50.5800136, "longitude": 10.4224739, "source": "osm", "_tags": {"addr:city": "Meiningen", "addr:housenumber": "7", "addr:postcode": "98617", "addr:street": "Ernststraße", "amenity": "hospital", "emergency": "no", "healthcare": "hospital", "healthcare:speciality": "geriatrics", "name": "Geriatrische Fachklinik \"Georgenhaus\"", "operator": "Sozialwerk Meiningen gGmbH", "short_name": "KH Meiningen Geriatrie"}}, {"name": "", "latitude": 50.8138621, "longitude": 10.3532886, "source": "osm", "_tags": {"amenity": "hospital", "healthcare": "hospital"}}, {"name": "", "latitude": 50.810305, "longitude": 10.3523343, "source": "osm", "_tags": {"amenity": "hospital", "healthcare": "hospital"}}, {"name": "m&i-Fachklinik Bad Liebenstein", "latitude": 50.8134734, "longitude": 10.3528973, "source": "osm", "_tags": {"addr:city": "Bad Liebenstein", "addr:housenumber": "2", "addr:postcode": "36448", "addr:street": "Kurpromenade", "amenity": "hospital", "building": "yes", "building:levels": "4", "healthcare": "rehabilitation", "image": "https://commons.wikimedia.org/wiki/File:WAK_BALI_207.JPG", "name": "m&i-Fachklinik Bad Liebenstein", "phone": "+49 36961 660", "toilets:wheelchair": "yes", "website": "https://www.fachklinik-bad-liebenstein.de/", "wheelchair": "yes", "wikidata": "Q56721930"}}, {"name": "Asklepios Burgseekliniken (Parkklinik)", "latitude": 50.8080298, "longitude": 10.2392785, "source": "osm", "_tags": {"addr:city": "Bad Salzungen", "addr:country": "DE", "addr:housenumber": "5", "addr:postcode": "36433", "addr:street": "Burgseestraße", "amenity": "hospital", "emergency": "yes", "healthcare": "hospital", "name": "Asklepios Burgseekliniken (Parkklinik)", "operator": "Asklepios Kliniken", "operator:type": "private", "operator:wikidata": "Q732068", "wheelchair": "yes"}}, {"name": "", "latitude": 50.9884222, "longitude": 10.3164597, "source": "osm", "_tags": {"building": "hospital", "healthcare": "hospital", "type": "multipolygon"}}]