[{"name": "", "latitude": 50.7246676, "longitude": 24.1721738, "source": "osm", "_tags": {"amenity": "hospital", "healthcare": "hospital"}}, {"name": "Червона Лікарня", "latitude": 50.4788663, "longitude": 24.281158, "source": "osm", "_tags": {"addr:street": "Тартаківська вулиця", "amenity": "hospital", "name": "Червона Лікарня", "name:uk": "Червона Лікарня"}}, {"name": "Смідинська амбулаторія загальної практики-сімейної медицини", "latitude": 51.2991579, "longitude": 24.4367095, "source": "osm", "_tags": {"amenity": "hospital", "name": "Смідинська амбулаторія загальної практики-сімейної медицини", "name:uk": "Смідинська амбулаторія загальної практики-сімейної медицини"}}, {"name": "Буцинська амбулаторія загальної практики-сімейної медицини", "latitude": 51.4083791, "longitude": 24.5906435, "source": "osm", "_tags": {"amenity": "hospital", "name": "Буцинська амбулаторія загальної практики-сімейної медицини", "name:uk": "Буцинська амбулаторія загальної практики-сімейної медицини"}}, {"name": "Турійська центральна районна лікарня", "latitude": 51.0832573, "longitude": 24.5441061, "source": "osm", "_tags": {"addr:street": "Лікарська вулиця", "amenity": "hospital", "name": "Турійська центральна районна лікарня", "name:ru": "Турийская центральная районная больница", "name:uk": "Турійська центральна районна лікарня", "opening_hours": "24/7"}}, {"name": "Ławka", "latitude": 50.8589853, "longitude": 24.3175899, "source": "osm", "_tags": {"amenity": "hospital", "healthcare": "hospital", "name": "Ławka"}}, {"name": "Станція переливання крові", "latitude": 50.8603294, "longitude": 24.3169313, "source": "osm", "_tags": {"addr:housenumber": "18", "amenity": "hospital", "building": "hospital", "building:levels": "3", "healthcare": "hospital", "name": "Станція переливання крові", "name:uk": "Станція переливання крові"}}, {"name": "Залізнична лікарня", "latitude": 51.2223057, "longitude": 24.7248571, "source": "osm", "_tags": {"amenity": "hospital", "building": "yes", "healthcare": "hospital", "name": "Залізнична лікарня", "name:uk": "Залізнична лікарня"}}, {"name": "", "latitude": 50.8617091, "longitude": 24.1590353, "source": "osm", "_tags": {"addr:housenumber": "1", "addr:street": "вулиця Івана Франка", "building": "hospital", "healthcare": "hospital"}}, {"name": "", "latitude": 51.1851639, "longitude": 24.6220941, "source": "osm", "_tags": {"addr:housenumber": "7", "addr:street": "вулиця Незалежності", "amenity": "hospital", "building": "hospital", "healthcare": "hospital"}}, {"name": "Любомльська центральна районна лікарня", "latitude": 51.2437123, "longitude": 24.0363611, "source": "osm", "_tags": {"amenity": "hospital", "barrier": "fence", "healthcare": "hospital", "name": "Любомльська центральна районна лікарня", "name:en": "Central County Hospital in Luboml", "name:pl": "Centralny Szpital Powiatowy w Lubomlu", "name:uk": "Любомльська центральна районна лікарня"}}, {"name": "Центральна поліклініка", "latitude": 50.4545849, "longitude": 24.8002162, "source": "osm", "_tags": {"amenity": "hospital", "building": "yes", "name": "Центральна поліклініка", "name:uk": "Центральна поліклініка"}}, {"name": "ТУРІЙСЬКА РАЙОННА ДЕРЖАВНА ЛІКАРНЯ ВЕТЕРИНАРНОЇ МЕДИЦИНИ", "latitude": 51.0775318, "longitude": 24.5371162, "source": "osm", "_tags": {"addr:housenumber": "3", "addr:postcode": "44801", "addr:street": "Дубівська вулиця", "amenity": "hospital", "building:levels": "4", "healthcare": "hospital", "name": "ТУРІЙСЬКА РАЙОННА ДЕРЖАВНА ЛІКАРНЯ ВЕТЕРИНАРНОЇ МЕДИЦИНИ", "name:uk": "ТУРІЙСЬКА РАЙОННА ДЕРЖАВНА ЛІКАРНЯ ВЕТЕРИНАРНОЇ МЕДИЦИНИ"}}, {"name": "Сокальська центральна районна лікарня", "latitude": 50.4662226, "longitude": 24.2855858, "source": "osm", "_tags": {"addr:housenumber": "26", "addr:street": "вулиця Ярослава Мудрого", "amenity": "hospital", "email": "sokal_crl@ukr.net", "emergency": "no", "healthcare": "hospital", "name": "Сокальська центральна районна лікарня", "name:uk": "Сокальська центральна районна лікарня", "operator": "Сокальська міська рада", "phone": "+380 3257 26 001", "website": "http://crl.sokal.lviv.ua"}}, {"name": "Сереховичівська дільнична лікарня", "latitude": 51.4103099, "longitude": 24.6707586, "source": "osm", "_tags": {"amenity": "hospital", "name": "Сереховичівська дільнична лікарня", "name:uk": "Сереховичівська дільнична лікарня"}}, {"name": "Локачинська лікарня", "latitude": 50.741853, "longitude": 24.6459034, "source": "osm", "_tags": {"amenity": "hospital", "contact:facebook": "Локачинська-центральна-районна-лікарня-157301328409904", "contact:phone": "+380 3374 21 421", "contact:website": "https://lokachi-crl.at.ua", "emergency": "yes", "healthcare": "hospital", "name": "Локачинська лікарня", "name:uk": "Локачинська лікарня", "official_name": "Комунальне некомерційне підприємство \"Локачинська лікарня\" Локачинської селищної ради", "operator": "Локачинська селищна рада", "operator:type": "government"}}, {"name": "", "latitude": 50.6334554, "longitude": 24.3485315, "source": "osm", "_tags": {"amenity": "hospital", "healthcare": "hospital"}}, {"name": "", "latitude": 50.4789166, "longitude": 24.2816614, "source": "osm", "_tags": {"amenity": "hospital", "barrier": "wall", "healthcare": "hospital"}}, {"name": "", "latitude": 50.4747135, "longitude": 24.2801125, "source": "osm", "_tags": {"amenity": "hospital", "healthcare": "hospital"}}, {"name": "Нововолинська центральна міська лікарня", "latitude": 50.7242975, "longitude": 24.1716437, "source": "osm", "_tags": {"amenity": "hospital", "emergency": "yes", "healthcare": "hospital", "name": "Нововолинська центральна міська лікарня", "name:uk": "Нововолинська центральна міська лікарня"}}, {"name": "Устилузька міська лікарня", "latitude": 50.8620372, "longitude": 24.1591982, "source": "osm", "_tags": {"amenity": "hospital", "healthcare": "hospital", "name": "Устилузька міська лікарня", "name:uk": "Устилузька міська лікарня", "ref:edrpou": "20130762"}}, {"name": "Центральна районна лікарня", "latitude": 51.2138837, "longitude": 24.7134287, "source": "osm", "_tags": {"amenity": "hospital", "healthcare": "hospital", "name": "Центральна районна лікарня", "name:en": "Central District Hospital", "name:uk": "Центральна районна лікарня"}}, {"name": "Пологовий будинок", "latitude": 51.2079223, "longitude": 24.7076338, "source": "osm", "_tags": {"amenity": "hospital", "healthcare": "hospital", "name": "Пологовий будинок", "name:de": "Geburtsklinik", "name:en": "Maternity Hospital", "name:uk": "Пологовий будинок"}}, {"name": "Інфекційне відділення Володимир-Волинського ЦПМД", "latitude": 50.8506263, "longitude": 24.3230108, "source": "osm", "_tags": {"amenity": "hospital", "healthcare": "hospital", "landuse": "commercial", "name": "Інфекційне відділення Володимир-Волинського ЦПМД", "name:uk": "Інфекційне відділення Володимир-Волинського ЦПМД", "operator": "Володимир-Волинський центр первинноїмедичної допомоги", "operator:type": "government", "type": "multipolygon"}}]