[{"name": "VAMED Klinik Hagen-Ambrock", "latitude": 51.3149273, "longitude": 7.5148275, "source": "osm", "_tags": {"addr:city": "Hagen", "addr:housenumber": "60", "addr:postcode": "58091", "addr:street": "Ambrocker Weg", "amenity": "hospital", "healthcare:speciality": "neurology;pneumology;weading", "name": "VAMED Klinik Hagen-Ambrock", "operator": "VAMED", "operator:type": "business", "website": "https://www.vamed-gesundheit.de/kliniken/hagen-ambrock/", "wheelchair": "yes"}}, {"name": "Krankenhaus Bethanien", "latitude": 51.1379978, "longitude": 7.0126699, "source": "osm", "_tags": {"addr:housenumber": "169", "addr:street": "Aufderhöher Straße", "amenity": "hospital", "check_date": "2025-04-22", "healthcare": "hospital", "name": "Krankenhaus Bethanien", "phone": "+49 212 6300", "postal_code": "42699", "toilets:wheelchair": "yes", "website": "https://www.diakonie-bethanien.de/", "wheelchair": "yes"}}, {"name": "LVR-Klinik Köln, Mülheim", "latitude": 50.9631915, "longitude": 7.0037081, "source": "osm", "_tags": {"addr:city": "Köln", "addr:country": "DE", "addr:housenumber": "12", "addr:postcode": "51063", "addr:street": "Adamsstraße", "amenity": "hospital", "healthcare": "hospital", "name": "LVR-Klinik Köln, Mülheim", "operator": "LVR"}}, {"name": "Berglandklinik Lüdenscheid - dauerhaft geschlossen", "latitude": 51.2072819, "longitude": 7.6373849, "source": "osm", "_tags": {"addr:city": "Lüdenscheid", "addr:country": "DE", "addr:housenumber": "6", "addr:postcode": "58511", "addr:street": "Am Hundebrink", "amenity": "hospital", "contact:phone": "+49 2351 438-0", "healthcare": "hospital", "name": "Berglandklinik Lüdenscheid - dauerhaft geschlossen", "website": "https://www.berglandklinik-luedenscheid.de/"}}, {"name": "Klinik Wersbach", "latitude": 51.1071185, "longitude": 7.1184293, "source": "osm", "_tags": {"amenity": "hospital", "name": "Klinik Wersbach"}}, {"name": "Ev. u. Johanniter-Krankenhaus Dierdorf/Selters", "latitude": 50.5293206, "longitude": 7.7592335, "source": "osm", "_tags": {"amenity": "hospital", "healthcare": "hospital", "name": "Ev. u. Johanniter-Krankenhaus Dierdorf/Selters", "website": "https://www.khsds.de"}}, {"name": "Klinik am Ring", "latitude": 50.9312366, "longitude": 6.9411745, "source": "osm", "_tags": {"addr:city": "Köln", "addr:country": "DE", "addr:housenumber": "28", "addr:postcode": "50674", "addr:street": "Hohenstaufenring", "amenity": "hospital", "healthcare": "hospital", "name": "Klinik am Ring", "toilets:wheelchair": "yes", "wheelchair": "yes"}}, {"name": "Rehazentrum Burgerland GmbH", "latitude": 51.2379255, "longitude": 7.1020061, "source": "osm", "_tags": {"addr:city": "Wuppertal", "addr:country": "DE", "addr:housenumber": "2", "addr:postcode": "42327", "addr:street": "Sonnborner Ufer", "amenity": "hospital", "healthcare": "rehabilitation", "healthcare:speciality": "physiatry", "name": "Rehazentrum Burgerland GmbH", "wheelchair": "yes"}}, {"name": "Konduktive Förderung", "latitude": 50.4374574, "longitude": 7.402254, "source": "osm", "_tags": {"addr:city": "Andernach", "addr:housenumber": "16", "addr:postcode": "56626", "addr:street": "Drususstraße", "amenity": "hospital", "emergency": "no", "healthcare": "hospital", "name": "Konduktive Förderung", "operator": "St. Nikolaus-Stiftshospital"}}, {"name": "Haus für Seelische Gesundheit", "latitude": 51.1816571, "longitude": 7.190659, "source": "osm", "_tags": {"addr:city": "Remscheid", "addr:housenumber": "2", "addr:postcode": "42853", "addr:street": "Konrad-Adenauer-Straße", "amenity": "hospital", "healthcare": "rehabilitation", "name": "Haus für Seelische Gesundheit", "website": "https://www.stiftung-tannenhof.de/klinik/tagesklinik-remscheid"}}, {"name": "Dr. Becker Klinik Juliana", "latitude": 51.309814, "longitude": 7.2379577, "source": "osm", "_tags": {"alt_name": "Kurklinik Juliana", "amenity": "hospital", "contact:email": "info.klinik-juliana@dbkg.de", "contact:fax": "+49 202 281591500", "contact:phone": "+49 202 281590", "contact:website": "https://www.dbkg.de/kliniken/klinik-juliana", "internet_access": "wlan", "internet_access:fee": "no", "name": "Dr. Becker Klinik Juliana"}}, {"name": "Fachklinik Curt-von-Knobelsdorff-Haus, Blaues Kreuz Diakoniewerk mGmbH", "latitude": 51.2050628, "longitude": 7.3480612, "source": "osm", "_tags": {"addr:city": "Radevormwald", "addr:housenumber": "17", "addr:postcode": "42477", "addr:street": "Hermannstraße", "amenity": "hospital", "emergency": "no", "fax": "+49 2195 672-199", "healthcare": "hospital", "healthcare:speciality": "Withdrawal_Clinic", "mapillary": "1198878541403325", "name": "Fachklinik Curt-von-Knobelsdorff-Haus, Blaues Kreuz Diakoniewerk mGmbH", "operator": "Blaues Kreuz", "phone": "+49 2195 672-0", "ref:vatin": "DE814466237", "website": "https://www.blaues-kreuz.de/de/rheinland/radevormwald/fachklinik-curt-von-knobelsdorff-haus/das-haus/", "wheelchair": "limited"}}, {"name": "Integrationsfachdienst im Märkischen Kreis", "latitude": 51.2077158, "longitude": 7.6596547, "source": "osm", "_tags": {"healthcare": "hospital", "name": "Integrationsfachdienst im Märkischen Kreis", "operator": "Märkische Kliniken GmbH"}}, {"name": "Medizinisches Versorgungszentrum (MVZ) Geschäftsführung", "latitude": 50.7041756, "longitude": 7.1010546, "source": "osm", "_tags": {"amenity": "hospital", "healthcare": "hospital", "name": "Medizinisches Versorgungszentrum (MVZ) Geschäftsführung"}}, {"name": "MVZ Psychiatrie", "latitude": 50.7042056, "longitude": 7.1010527, "source": "osm", "_tags": {"amenity": "hospital", "healthcare": "hospital", "name": "MVZ Psychiatrie"}}, {"name": "Strahlenschutz", "latitude": 50.7042853, "longitude": 7.1021384, "source": "osm", "_tags": {"amenity": "hospital", "healthcare": "hospital", "name": "Strahlenschutz", "wheelchair": "yes"}}, {"name": "Hausarztmedizin", "latitude": 50.7042356, "longitude": 7.1010508, "source": "osm", "_tags": {"amenity": "hospital", "healthcare": "hospital", "name": "Hausarztmedizin"}}, {"name": "Klinische Chemie und Pharmakologie / Biochemie", "latitude": 50.7025585, "longitude": 7.1036028, "source": "osm", "_tags": {"amenity": "hospital", "name": "Klinische Chemie und Pharmakologie / Biochemie", "wheelchair": "yes"}}, {"name": "Molekularmedizin und Experimentelle Immunologie", "latitude": 50.7025938, "longitude": 7.1036028, "source": "osm", "_tags": {"amenity": "hospital", "name": "Molekularmedizin und Experimentelle Immunologie", "wheelchair": "yes"}}, {"name": "Zentrales OP Management", "latitude": 50.7026146, "longitude": 7.1024166, "source": "osm", "_tags": {"amenity": "hospital", "check_date": "2024-11-20", "name": "Zentrales OP Management"}}, {"name": "Orthopädie und Unfallchirurgie", "latitude": 50.7022446, "longitude": 7.1022295, "source": "osm", "_tags": {"amenity": "hospital", "check_date": "2024-11-20", "name": "Orthopädie und Unfallchirurgie", "website": "https://www.ortho-unfall-bonn.de/"}}, {"name": "Anästhesiologie und Operative Intensivmedizin", "latitude": 50.7023279, "longitude": 7.1022143, "source": "osm", "_tags": {"amenity": "hospital", "check_date": "2024-11-20", "name": "Anästhesiologie und Operative Intensivmedizin", "website": "https://www.ukbonn.de/42256BC8002AF3E7/direct/anaesthesie"}}, {"name": "Zentrum für ambulantes Operieren (ZAO)", "latitude": 50.7029614, "longitude": 7.1021485, "source": "osm", "_tags": {"amenity": "hospital", "check_date": "2024-11-20", "healthcare": "hospital", "name": "Zentrum für ambulantes Operieren (ZAO)", "wheelchair": "yes"}}, {"name": "Medizinische Kliniken III", "latitude": 50.7030479, "longitude": 7.1021498, "source": "osm", "_tags": {"amenity": "hospital", "check_date": "2024-11-20", "healthcare": "hospital", "name": "Medizinische Kliniken III", "wheelchair": "yes"}}, {"name": "Centrum für Integrierte Onkologie (CIO)", "latitude": 50.7030191, "longitude": 7.1021494, "source": "osm", "_tags": {"amenity": "hospital", "check_date": "2024-11-20", "healthcare": "hospital", "healthcare:speciality": "oncology", "name": "Centrum für Integrierte Onkologie (CIO)", "wheelchair": "yes", "wikidata": "Q25378564"}}, {"name": "Ambulantes Operieren", "latitude": 50.7029902, "longitude": 7.1021489, "source": "osm", "_tags": {"amenity": "hospital", "check_date": "2024-11-20", "healthcare": "hospital", "name": "Ambulantes Operieren", "wheelchair": "yes"}}, {"name": "Kreißsaal", "latitude": 50.7006913, "longitude": 7.1052038, "source": "osm", "_tags": {"amenity": "hospital", "emergency": "yes", "healthcare": "hospital", "name": "Kreißsaal", "phone": "+49 228 287-37900"}}, {"name": "Radiologische Klinik", "latitude": 50.7027418, "longitude": 7.1034671, "source": "osm", "_tags": {"amenity": "hospital", "level": "0", "name": "Radiologische Klinik", "wheelchair": "yes"}}, {"name": "Ambulanz-Zentrum", "latitude": 51.0317792, "longitude": 7.0343144, "source": "osm", "_tags": {"amenity": "hospital", "contact:facebook": "klinikumlev", "contact:instagram": "klinikumleverkusen", "emergency": "yes", "name": "Ambulanz-Zentrum", "ref": "1.FF", "website": "https://www.klinikum-lev.de/notaufnahme"}}, {"name": "PhysioSport Performance Athletic Center", "latitude": 50.9709807, "longitude": 7.0158376, "source": "osm", "_tags": {"addr:city": "Köln", "addr:housenumber": "33", "addr:postcode": "51063", "addr:street": "Schanzenstraße", "amenity": "hospital", "email": "pace@physiosportkoeln.de", "healthcare": "hospital", "healthcare:speciality": "physiotherapy;physiotherapist;osteopathy", "image": "https://physiosportkoeln.de/wp-content/uploads/2021/05/PACE_Training_Start.jpeg", "internet_access": "wlan", "internet_access:fee": "customers", "name": "PhysioSport Performance Athletic Center", "operator": "PhysioSport Köln", "operator:type": "business", "start_date": "01.06.2021", "website": "https://physiosportkoeln.de/", "wheelchair": "yes"}}, {"name": "Augenklinik", "latitude": 51.4214936, "longitude": 7.0005595, "source": "osm", "_tags": {"amenity": "hospital", "healthcare": "hospital", "name": "Augenklinik"}}, {"name": "Diabeteszentrum Bochum/Hattingen", "latitude": 51.4049169, "longitude": 7.2228327, "source": "osm", "_tags": {"addr:city": "Hattingen", "addr:housenumber": "9", "addr:postcode": "45527", "addr:street": "Im Vogelsang", "amenity": "hospital", "emergency": "yes", "healthcare": "hospital", "healthcare:speciality": "diabetology;endocrinology", "name": "Diabeteszentrum Bochum/Hattingen", "operator": "Katholisches Klinikum Bochum gGmbH", "operator:type": "religious", "website": "http://www.endokrinologie-hattingen.de"}}, {"name": "Klinisches Zentrum", "latitude": 50.4285578, "longitude": 7.3964527, "source": "osm", "_tags": {"amenity": "hospital", "healthcare": "hospital", "healthcare:speciality": "neurology", "name": "Klinisches Zentrum", "operator": "Rhein-Mosel-Fachklinik"}}, {"name": "Rhein-Mosel-Fachklinik", "latitude": 50.4277402, "longitude": 7.3977023, "source": "osm", "_tags": {"amenity": "hospital", "healthcare": "hospital", "healthcare:speciality": "psychiatry", "name": "Rhein-Mosel-Fachklinik", "operator": "Landeskrankenhaus"}}, {"name": "St. Josef Krankenhaus", "latitude": 51.0313348, "longitude": 6.9753799, "source": "osm", "_tags": {"amenity": "hospital", "healthcare": "hospital", "name": "St. Josef Krankenhaus"}}, {"name": "Evangelisches Krankenhaus Kalk", "latitude": 50.9412983, "longitude": 7.0093887, "source": "osm", "_tags": {"amenity": "hospital", "denomination": "protestant", "emergency": "yes", "healthcare": "hospital", "name": "Evangelisches Krankenhaus Kalk", "religion": "christian", "toilets:wheelchair": "yes", "website": "https://www.evkk.de/", "wheelchair": "yes", "wikidata": "Q30269773"}}, {"name": "GFO Kliniken Troisdorf Betriebsstätte St. Josef Troisdorf", "latitude": 50.8174585, "longitude": 7.1602286, "source": "osm", "_tags": {"amenity": "hospital", "healthcare": "hospital", "name": "GFO Kliniken Troisdorf Betriebsstätte St. Josef Troisdorf", "toilets:wheelchair": "yes", "wheelchair": "yes"}}, {"name": "LVR-Klinik Bonn", "latitude": 50.7465382, "longitude": 7.0895745, "source": "osm", "_tags": {"amenity": "hospital", "emergency": "yes", "healthcare": "hospital", "name": "LVR-Klinik Bonn", "old_name": "Rheinische Kliniken", "operator": "Landschaftsverband Rheinland", "url": "http://www.rk-bonn.lvr.de/", "wheelchair": "yes", "wikidata": "Q17379401"}}, {"name": "Kinderkrankenhaus Amsterdamer Straße", "latitude": 50.9627397, "longitude": 6.9664631, "source": "osm", "_tags": {"addr:city": "Köln", "addr:country": "DE", "addr:housenumber": "59", "addr:postcode": "50735", "addr:street": "Amsterdamer Straße", "amenity": "hospital", "check_date": "2024-11-19", "emergency": "yes", "healthcare": "hospital", "name": "Kinderkrankenhaus Amsterdamer Straße", "operator": "Kliniken der Stadt Köln", "phone": "+49 221 8907-0", "website": "https://www.kliniken-koeln.de/Kinderkrankenhaus_Index.htm", "wheelchair": "yes"}}, {"name": "St. Vinzenz Hospital", "latitude": 50.9668479, "longitude": 6.9458978, "source": "osm", "_tags": {"addr:city": "Köln", "addr:postcode": "50733", "addr:street": "Merheimer Straße", "amenity": "hospital", "emergency": "yes", "healthcare": "hospital", "name": "St. Vinzenz Hospital", "operator": "Celitinnen zur hl. Maria", "phone": "+49 221 77120", "website": "https://www.vinzenz-hospital.de/", "wheelchair": "yes", "wikidata": "Q116948275", "wikimedia_commons": "Category:St. Vinzenz-Hospital (Köln-Nippes)"}}, {"name": "Remigius-Krankenhaus-Opladen", "latitude": 51.0681805, "longitude": 7.0054361, "source": "osm", "_tags": {"addr:city": "Leverkusen", "addr:country": "DE", "addr:housenumber": "26", "addr:postcode": "51379", "addr:street": "An St. Remigius", "amenity": "hospital", "building": "hospital", "contact:facebook": "stremigiuskrankenhausopladen", "contact:instagram": "alexianer_stremigius", "emergency": "yes", "healthcare": "hospital", "name": "Remigius-Krankenhaus-Opladen", "ref": "Remigius-Krankenhaus-Opladen", "source": "yahoo", "website": "https://www.remigius.de/", "wheelchair": "yes"}}, {"name": "Klinik Blankenstein", "latitude": 51.4050086, "longitude": 7.2229969, "source": "osm", "_tags": {"amenity": "hospital", "healthcare": "hospital", "name": "Klinik Blankenstein", "toilets:wheelchair": "yes", "wheelchair": "yes", "wikidata": "Q15111122", "wikipedia": "de:Klinik Blankenstein"}}, {"name": "Helios Universitätsklinkum Wuppertal", "latitude": 51.2752817, "longitude": 7.1738834, "source": "osm", "_tags": {"addr:city": "Wuppertal", "addr:country": "DE", "addr:housenumber": "40", "addr:postcode": "42283", "addr:street": "Heusnerstraße", "alt_name": "HELIOS Universitätsklinikum Wuppertal - Universität Witten/Herdecke", "amenity": "hospital", "emergency": "yes", "healthcare": "hospital", "name": "Helios Universitätsklinkum Wuppertal", "operator": "Helios Kliniken", "operator:wikidata": "Q1254151", "operator:wikipedia": "de:Helios Kliniken", "website": "https://www.helios-gesundheit.de/wuppertal", "wheelchair": "yes", "wikipedia": "de:Helios Universitätsklinikum Wuppertal"}}, {"name": "St. Josef Krankenhaus Essen-Werden", "latitude": 51.3891577, "longitude": 7.0063882, "source": "osm", "_tags": {"addr:city": "Essen", "addr:country": "DE", "addr:housenumber": "2", "addr:postcode": "45239", "addr:street": "Propsteistraße", "amenity": "hospital", "building": "hospital", "emergency": "yes", "healthcare": "hospital", "name": "St. Josef Krankenhaus Essen-Werden", "operator": "Universitätsklinikum Essen", "wheelchair": "yes"}}, {"name": "Helios Klinikum Schwelm", "latitude": 51.2937271, "longitude": 7.3123069, "source": "osm", "_tags": {"addr:city": "Schwelm", "addr:country": "DE", "addr:housenumber": "15", "addr:postcode": "58332", "addr:street": "Dr.-Moeller-Straße", "amenity": "hospital", "building": "hospital", "contact:phone": "+49 2336 48-0", "contact:website": "https://www.helios-gesundheit.de/kliniken/schwelm/", "emergency": "yes", "healthcare": "hospital", "healthcare:speciality": "paediatrics;emergency;orthopaedics;gynaecology;intensive;radiology;surgery;anaesthetics;urology;geriatrics;oncology", "name": "Helios Klinikum Schwelm", "opening_hours": "24/7", "operator": "Helios Kliniken", "operator:wikidata": "Q1254151", "toilets:wheelchair": "yes", "wheelchair": "yes", "wikidata": "Q56551155"}}, {"name": "Evangelisches Krankenhaus Mettmann", "latitude": 51.2505231, "longitude": 6.9698152, "source": "osm", "_tags": {"addr:city": "Mettmann", "addr:housenumber": "4-8", "addr:postcode": "40822", "addr:street": "Gartenstraße", "amenity": "hospital", "building": "yes", "emergency": "yes", "healthcare": "hospital", "name": "Evangelisches Krankenhaus Mettmann", "phone": "+49 (0)2104 773-0", "website": "https://www.evk-mettmann.de/", "wheelchair": "yes"}}, {"name": "Evangelisches Krankenhaus Essen-Werden", "latitude": 51.3899944, "longitude": 7.0058848, "source": "osm", "_tags": {"addr:city": "Essen", "addr:country": "DE", "addr:housenumber": "1-3", "addr:postcode": "45239", "addr:street": "Pattbergstraße", "amenity": "hospital", "building": "hospital", "emergency": "yes", "healthcare": "hospital", "healthcare:speciality": "cardiology;child_psychiatry;geriatrics;haematology;oncology;ophthalmology;orthopaedics;transplant", "healthcare:speciality:de": "Kardiologie;Geriatrie;Hämatologie;Internistische_Onkologie;Stammzelltransplantation;Augenheilkunde;Orthopädie;Kinder-_und_Jugendpsychiatrie,_-Psychotherapie_und_-Psychosomatik", "name": "Evangelisches Krankenhaus Essen-Werden", "operator": "Kliniken Essen Mitte", "wheelchair": "yes", "wikidata": "Q1381351", "wikipedia": "de:Evangelisches Krankenhaus Essen-Werden"}}, {"name": "St.Josef Krankenhaus", "latitude": 51.3916489, "longitude": 7.0855385, "source": "osm", "_tags": {"addr:city": "Essen", "addr:country": "DE", "addr:housenumber": "22-24", "addr:postcode": "45257", "addr:street": "Heidbergweg", "addr:suburb": "Kupferdreh", "amenity": "hospital", "building": "hospital", "building:levels": "0", "emergency": "yes", "healthcare": "hospital", "name": "St.Josef Krankenhaus", "wheelchair": "yes"}}, {"name": "Klinik Nette-Gut für Forensische Psychiatrie", "latitude": 50.4243073, "longitude": 7.4349691, "source": "osm", "_tags": {"access": "private", "addr:city": "Weißenthurm", "addr:housenumber": "2", "addr:postcode": "56575", "addr:street": "Am Nette-Gut", "amenity": "hospital", "healthcare": "hospital", "name": "Klinik Nette-Gut für Forensische Psychiatrie", "phone": "+49 2637 9110", "toilets:wheelchair": "yes", "website": "https://www.klinik-nette-gut.de/", "wheelchair": "yes", "wikidata": "Q59035919"}}, {"name": "Klinikum Solingen", "latitude": 51.1862228, "longitude": 7.0696368, "source": "osm", "_tags": {"access": "customers", "amenity": "hospital", "fee": "yes", "healthcare": "hospital", "lit": "yes", "name": "Klinikum Solingen", "parking": "surface", "smoothness": "good", "surface": "asphalt"}}, {"name": "Asklepios Kinderklinik Sankt Augustin", "latitude": 50.7755886, "longitude": 7.1816343, "source": "osm", "_tags": {"amenity": "hospital", "contact:phone": "+49 2241 249-0", "contact:website": "https://www.asklepios.com/sankt-augustin/", "emergency": "yes", "healthcare": "hospital", "healthcare:speciality": "paediatrics;child_psychiatry", "name": "Asklepios Kinderklinik Sankt Augustin", "official_name": "Asklepios Klinik Sankt Augustin", "opening_hours": "24/7", "operator": "Asklepios Kliniken", "operator:type": "private", "operator:wikidata": "Q732068", "operator:wikipedia": "de:Asklepios Kliniken", "toilets:wheelchair": "yes", "wheelchair": "yes", "wikidata": "Q107031224"}}, {"name": "Gemeinschaftskrankenhaus Herdecke", "latitude": 51.4111022, "longitude": 7.3989687, "source": "osm", "_tags": {"amenity": "hospital", "check_date": "2023-07-22", "contact:city": "Herdecke", "contact:country": "DE", "contact:housenumber": "4", "contact:street": "Gerhard-Kienle-Weg", "emergency": "yes", "fax": "+49 2330 623995", "healthcare": "hospital", "name": "Gemeinschaftskrankenhaus Herdecke", "phone": "+49 2330 620", "ref:vatin": "DE265321361", "toilets": "yes", "toilets:wheelchair": "yes", "website": "https://www.gemeinschaftskrankenhaus.de/", "wheelchair": "yes", "wikidata": "Q1501014", "wikipedia": "de:Gemeinschaftskrankenhaus Herdecke"}}, {"name": "Kreiskrankenhaus Waldbröl", "latitude": 50.8781432, "longitude": 7.6313965, "source": "osm", "_tags": {"addr:city": "Waldbröl", "addr:housenumber": "10", "addr:postcode": "51545", "addr:street": "Dr.-Goldenbogen-Straße", "amenity": "hospital", "building": "hospital", "healthcare": "hospital", "name": "Kreiskrankenhaus Waldbröl", "wheelchair": "yes", "wikidata": "Q1352214", "wikipedia": "de:Kreiskrankenhaus Waldbröl"}}, {"name": "Ruhrlandklinik", "latitude": 51.3629089, "longitude": 6.9895264, "source": "osm", "_tags": {"addr:city": "Essen", "addr:country": "DE", "addr:housenumber": "40", "addr:postcode": "45239", "addr:street": "Tüschener Weg", "amenity": "hospital", "contact:email": "info.allgemein@ruhrlandklinik.uk-essen.de", "contact:fax": "+49 201 4332009", "contact:phone": "+49 201 43301", "contact:website": "http://www.ruhrlandklinikhausderlunge.de", "emergency": "no", "healthcare": "hospital", "name": "Ruhrlandklinik", "operator": "Ruhrlandklinik, Westdeutsches Lungenzentrum am Universitätsklinikum Essen gGmbH"}}, {"name": "Bethesda Krankenhaus", "latitude": 50.899321, "longitude": 7.8647556, "source": "osm", "_tags": {"addr:city": "Freudenberg", "addr:country": "DE", "addr:housenumber": "39", "addr:postcode": "57258", "addr:street": "Euelsbruchstraße", "amenity": "hospital", "building": "yes", "healthcare": "hospital", "name": "Bethesda Krankenhaus", "phone": "+49 2734 2790", "source": "GDI.SW", "source:phone": "https://www.wilnsdorf.de/Leben-Wohnen/Soziales-Gesundheit-Senioren/Gesundheit/index.php", "wheelchair": "yes"}}, {"name": "Krankenhaus der Augustinerinnen „Klösterchen“", "latitude": 50.9248651, "longitude": 6.9570199, "source": "osm", "_tags": {"addr:city": "Köln", "addr:housenumber": "27–31", "addr:postcode": "50678", "addr:street": "Jakobstraße", "amenity": "hospital", "healthcare": "hospital", "name": "Krankenhaus der Augustinerinnen „Klösterchen“", "phone": "+49-221-3308-0", "source": "survey", "url": "http://www.koeln-kh-augustinerinnen.de"}}, {"name": "Die Johanniter Waldkrankenhaus", "latitude": 50.6822036, "longitude": 7.1283967, "source": "osm", "_tags": {"addr:city": "Bonn", "addr:country": "DE", "addr:housenumber": "73", "addr:postcode": "53177", "addr:street": "Waldstraße", "amenity": "hospital", "brand": "Johanniter-Unfall-Hilfe", "brand:short": "JUH", "brand:wikidata": "Q14751117", "building": "yes", "emergency": "ambulance_station", "healthcare": "hospital", "name": "Die Johanniter Waldkrankenhaus", "ref": "Evangelisches Waldkrankenhaus", "short_name": "JUH", "wheelchair": "yes"}}, {"name": "Dermatologie / MKG-Chirurgie", "latitude": 50.7031518, "longitude": 7.1015445, "source": "osm", "_tags": {"building": "hospital", "building:levels": "3", "healthcare": "hospital", "healthcare:speciality": "dermatology:dental_oral_maxillo_facial_surgery", "name": "Dermatologie / MKG-Chirurgie", "roof:levels": "1", "roof:shape": "hipped"}}, {"name": "Alexianer-Krankenhaus Köln", "latitude": 50.8978869, "longitude": 7.042654, "source": "osm", "_tags": {"amenity": "hospital", "name": "Alexianer-Krankenhaus Köln", "wheelchair": "yes", "wheelchair:description": "Seiteneingang nutzen (keine Stufen)"}}, {"name": "VAMED Klinik Hattingen", "latitude": 51.3898938, "longitude": 7.216765, "source": "osm", "_tags": {"amenity": "hospital", "name": "VAMED Klinik Hattingen"}}, {"name": "Krankenhaus Porz am Rhein", "latitude": 50.8921931, "longitude": 7.0502406, "source": "osm", "_tags": {"amenity": "hospital", "healthcare": "hospital", "name": "Krankenhaus Porz am Rhein", "wheelchair": "yes", "wikidata": "Q15824352", "wikipedia": "de:Krankenhaus Porz am Rhein"}}, {"name": "HELIOS Klinik Attendorn", "latitude": 51.1260573, "longitude": 7.8975003, "source": "osm", "_tags": {"addr:city": "Attendorn", "addr:housenumber": "9", "addr:postcode": "57439", "addr:street": "Hohler Weg", "amenity": "hospital", "contact:phone": "+49 2722 60-0", "emergency": "yes", "healthcare": "hospital", "name": "HELIOS Klinik Attendorn", "old_name": "Krankenhaus St. Barbara Attendorn", "operator": "Helios Kliniken", "operator:wikidata": "Q1254151", "toilets:wheelchair": "yes", "website": "http://www.helios-kliniken.de/klinik/attendorn.html", "wheelchair": "yes"}}, {"name": "LVR-Klinik Langenfeld", "latitude": 51.0949877, "longitude": 6.9627374, "source": "osm", "_tags": {"amenity": "hospital", "healthcare": "hospital", "name": "LVR-Klinik Langenfeld", "wheelchair": "yes", "wikidata": "Q1798443"}}, {"name": "Herz-Jesu-Krankenhaus Dernbach", "latitude": 50.4529747, "longitude": 7.7856144, "source": "osm", "_tags": {"addr:city": "Dernbach (Westerwald)", "addr:housenumber": "8", "addr:postcode": "56428", "addr:street": "Südring", "amenity": "hospital", "contact:email": "info@krankenhaus-dernbach.de", "contact:fax": "+49 2602 684-213", "contact:phone": "+49 2602 684-0", "contact:website": "http://www.krankenhaus-dernbach.de", "healthcare": "hospital", "name": "Herz-Jesu-Krankenhaus Dernbach", "operator": "Katharina Kasper ViaSalus GmbH", "operator:type": "private"}}, {"name": "St. Elisabeth Hospital", "latitude": 51.3796535, "longitude": 7.6907257, "source": "osm", "_tags": {"amenity": "hospital", "contact:website": "https://kkimk.de/standorte/st-elisabeth-hospital-iserlohn/", "emergency": "yes", "healthcare": "hospital", "name": "St. Elisabeth Hospital", "opening_hours": "24/7", "operator": "Kath. Kliniken im Märkischen Kreis gem. GmbH", "wheelchair": "yes"}}, {"name": "Kreiskrankenhaus Gummersbach", "latitude": 51.0155028, "longitude": 7.5674969, "source": "osm", "_tags": {"addr:city": "Gummersbach", "addr:housenumber": "20", "addr:postcode": "51643", "addr:street": "Wilhelm-Breckow-Allee", "amenity": "hospital", "building": "hospital", "email": "info@klinikum-oberberg.de", "emergency": "yes", "fax": "+49 2261 171444", "healthcare": "hospital", "healthcare:speciality": "emergency;paediatrics", "layer": "1", "name": "Kreiskrankenhaus Gummersbach", "opening_hours": "24/7", "phone": "+49 2261 170", "toilets:wheelchair": "yes", "website": "https://www.klinikum-oberberg.de", "wheelchair": "yes", "wheelchair:description": "Ebenerdiger Eingang:! Beh.Toiletten gibt's im Terapiebereich, in der Röntgenabt, sowie auf einigen Etagen.!", "wikidata": "Q1626679"}}, {"name": "Praxisklinik Haan", "latitude": 51.1988689, "longitude": 7.0207852, "source": "osm", "_tags": {"addr:city": "Haan", "addr:country": "DE", "addr:housenumber": "16", "addr:postcode": "42781", "addr:street": "Robert-Koch-Straße", "amenity": "hospital", "building": "yes", "email": "Haan@diepraxiskliniken.de", "healthcare": "hospital", "name": "Praxisklinik Haan", "note": "https://www.gelenkzentrum-bergischland.de/praxisklinik-haan-der-gesundheitscampus-haan-nimmt-gestalt-an/", "old_name": "St. Josef Krankenhaus", "operator": "GZBL Praxiskliniken GmbH", "phone": "+49 2129 929 4600 0", "website": "https://www.diepraxiskliniken.de/", "wheelchair": "yes"}}, {"name": "Aggertalklinik Engelskirchen", "latitude": 50.9873221, "longitude": 7.3837234, "source": "osm", "_tags": {"amenity": "hospital", "building": "yes", "name": "Aggertalklinik Engelskirchen", "wheelchair": "yes"}}, {"name": "ev. Krankenhaus Hattingen", "latitude": 51.3934037, "longitude": 7.1930621, "source": "osm", "_tags": {"amenity": "hospital", "contact:email": "post@krankenhaus-hattingen.de", "contact:phone": "+49 2324/502-0", "healthcare": "hospital", "name": "ev. Krankenhaus Hattingen", "website": "http://www.augusta-bochum.de/", "wheelchair": "yes"}}, {"name": "HELIOS Klinikum Niederberg", "latitude": 51.3504926, "longitude": 7.0116404, "source": "osm", "_tags": {"amenity": "hospital", "check_date": "2018-02-27", "emergency": "yes", "healthcare": "hospital", "name": "HELIOS Klinikum Niederberg", "operator": "Helios Kliniken", "operator:wikidata": "Q1254151", "operator:wikipedia": "de:Helios Kliniken", "website": "https://www.helios-gesundheit.de/kliniken/niederberg/", "wheelchair": "yes", "wikidata": "Q1774649"}}, {"name": "Dr. v. Ehrenwall'sche Klinik", "latitude": 50.539677, "longitude": 7.0914368, "source": "osm", "_tags": {"addr:city": "Bad Neuenahr-Ahrweiler", "addr:country": "DE", "addr:housenumber": "2", "addr:postcode": "53474", "addr:street": "Walporzheimer Straße", "amenity": "hospital", "building": "hospital", "building:levels": "3", "check_date": "2024-03-04", "contact:website": "https://www.ehrenwall.de/", "email": "info@ehrenwall.de", "fax": "+49 2641 37 166", "healthcare": "hospital", "healthcare:speciality": "psychiatry;neurology", "name": "Dr. v. Ehrenwall'sche Klinik", "phone": "+49 2641 3860", "roof:levels": "1", "roof:shape": "hipped", "toilets:wheelchair": "yes", "wheelchair": "yes", "wikidata": "Q1112730", "wikimedia_commons": "Category:Dr. von Ehrenwall’sche Klinik", "wikipedia": "de:Dr. von Ehrenwall’sche Klinik"}}, {"name": "Klinik Königsfeld", "latitude": 51.2760807, "longitude": 7.3309653, "source": "osm", "_tags": {"addr:city": "Ennepetal", "addr:country": "DE", "addr:housenumber": "2", "addr:postcode": "58256", "addr:street": "Holthauser Talstraße", "amenity": "hospital", "building": "yes", "healthcare": "hospital", "name": "Klinik Königsfeld", "operator": "Deutsche Rentenversicherung Westfalen", "website": "http://www.klinik-koenigsfeld.de/", "wheelchair": "limited"}}, {"name": "Agaplesion Klinikum Hagen", "latitude": 51.3546556, "longitude": 7.4664931, "source": "osm", "_tags": {"amenity": "hospital", "building": "hospital", "building:levels": "1", "email": "info.akh@agaplesion.de", "healthcare": "hospital", "name": "Agaplesion Klinikum Hagen", "operator": "Agaplesion Klinikum Hagen gGmbH", "operator:wikidata": "Q55445", "operator:wikipedia": "de:Agaplesion", "phone": "+49 2331 201 0", "roof:shape": "flat", "short_name": "AKH", "website": "https://www.akh-hagen.de", "wheelchair": "yes"}}, {"name": "DRK Krankenhaus Kirchen", "latitude": 50.8061404, "longitude": 7.8792284, "source": "osm", "_tags": {"addr:city": "Kirchen (Sieg)", "addr:housenumber": "24", "addr:postcode": "57548", "addr:street": "Bahnhofstraße", "amenity": "hospital", "building": "hospital", "building:levels": "6", "check_date": "2025-02-23", "contact:email": "info@drk-kh-kirchen.de", "contact:fax": "+49 2741 682-4100", "contact:phone": "+49 2741 682-0", "contact:website": "www.drk-kh-kirchen.de", "healthcare": "hospital", "name": "DRK Krankenhaus Kirchen", "operator": "DRK gemeinnützige Krankenhausgesellschaft mbH Rheinland-Pfalz", "roof:levels": "1", "roof:shape": "pyramidal", "wheelchair": "yes"}}, {"name": "St. Franziskus Hospital", "latitude": 50.7134142, "longitude": 7.1056834, "source": "osm", "_tags": {"addr:city": "Bonn", "addr:country": "DE", "addr:housenumber": "14", "addr:postcode": "53129", "addr:street": "Nikolausstraße", "amenity": "hospital", "building": "yes", "fax": "+492289238224", "healthcare": "hospital", "name": "St. Franziskus Hospital", "phone": "+49228923820"}}, {"name": "St. Nikolaus-Stiftshospital", "latitude": 50.4403691, "longitude": 7.4047616, "source": "osm", "_tags": {"amenity": "hospital", "contact:email": "information@stiftshospital-andernach.de", "contact:fax": "+49 2632 4045272", "contact:phone": "+49 2632 4040", "contact:website": "https://www.stiftshospital-andernach.de/", "emergency": "yes", "healthcare": "hospital", "name": "St. Nikolaus-Stiftshospital", "operator": "St. Nikolaus-Stiftshospital GmbH", "wheelchair": "yes"}}, {"name": "Krankenhaus Maria Hilf Bad Neuenahr-Ahrweiler", "latitude": 50.5406049, "longitude": 7.1272646, "source": "osm", "_tags": {"amenity": "hospital", "check_date": "2025-04-22", "contact:fax": "+49 2641 83-1771", "contact:phone": "+49 2641 83-0", "contact:website": "http://www.marienhaus-klinikum-ahr.de/unserklinikum/standorte/krankenhaus-maria-hilf-bad-neuenahr-ahrweiler/", "emergency": "yes", "healthcare": "hospital", "name": "Krankenhaus Maria Hilf Bad Neuenahr-Ahrweiler", "wheelchair": "yes"}}, {"name": "Fachklinik Im Deerth", "latitude": 51.3375788, "longitude": 7.448157, "source": "osm", "_tags": {"amenity": "hospital", "emergency": "no", "name": "Fachklinik Im Deerth", "operator": "AWO Unterbezirk Hagen-Märkischer Kreis", "social_facility:for": "drug_addicted", "type": "Addiction"}}, {"name": "St. Elisabeth Krankenhaus", "latitude": 51.4031581, "longitude": 7.1353422, "source": "osm", "_tags": {"addr:city": "Hattingen", "addr:housenumber": "31", "addr:postcode": "45529", "addr:street": "Essener Straße", "addr:suburb": "Niederwenigern", "amenity": "hospital", "building": "yes", "healthcare": "hospital", "name": "St. Elisabeth Krankenhaus", "operator": "Katholische Kliniken Ruhrhalbinsel"}}, {"name": "St. Elisabeth Krankenhaus", "latitude": 51.4025391, "longitude": 7.1345099, "source": "osm", "_tags": {"addr:city": "Hattingen", "addr:housenumber": "31a", "addr:postcode": "45529", "addr:street": "Essener Straße", "addr:suburb": "Niederwenigern", "amenity": "hospital", "building": "yes", "healthcare": "hospital", "name": "St. Elisabeth Krankenhaus", "operator": "Katholische Kliniken Ruhrhalbinsel"}}, {"name": "Evangelisches Krankenhaus", "latitude": 50.9900892, "longitude": 7.137488, "source": "osm", "_tags": {"amenity": "hospital", "check_date": "2025-01-15", "healthcare": "hospital", "name": "Evangelisches Krankenhaus", "wheelchair": "yes"}}, {"name": "Sankt-Josefs-Hospital", "latitude": 51.3670536, "longitude": 7.465896, "source": "osm", "_tags": {"addr:city": "Hagen", "addr:country": "DE", "addr:housenumber": "17", "addr:postcode": "58097", "addr:street": "Dreieckstraße", "alt_name": "St. Josefs-Hospital", "amenity": "hospital", "building": "hospital", "check_date": "2024-12-02", "healthcare": "hospital", "name": "Sankt-Josefs-Hospital", "roof:shape": "flat"}}, {"name": "Rehazentrum Burgerland", "latitude": 51.159593, "longitude": 7.1161281, "source": "osm", "_tags": {"addr:city": "Solingen", "addr:country": "DE", "addr:housenumber": "55", "addr:postcode": "42659", "addr:street": "Burger Landstraße", "amenity": "hospital", "building": "yes", "healthcare": "hospital", "name": "Rehazentrum Burgerland", "phone": "+49 212 382060", "website": "https://www.burgerland.de"}}, {"name": "Kliniken St. Antonius - Petrus Krankenhaus", "latitude": 51.2759479, "longitude": 7.1909085, "source": "osm", "_tags": {"amenity": "hospital", "contact:phone": "+49 202 299 4666", "emergency": "yes", "healthcare": "hospital", "name": "Kliniken St. Antonius - Petrus Krankenhaus", "wheelchair": "yes"}}, {"name": "Evangelisches Krankenhaus Dierdorf", "latitude": 50.5480774, "longitude": 7.6617135, "source": "osm", "_tags": {"addr:city": "Dierdorf", "addr:country": "DE", "addr:housenumber": "16", "addr:postcode": "56269", "addr:street": "Hachenburger Straße", "amenity": "hospital", "building": "hospital", "healthcare": "hospital", "name": "Evangelisches Krankenhaus Dierdorf", "operator": "Evangelisches Krankenhaus Dierdorf/Selters gGmbH", "wheelchair": "yes"}}, {"name": "GFO Kliniken Troisdorf St. Johannes Krankenhaus", "latitude": 50.7972676, "longitude": 7.1171181, "source": "osm", "_tags": {"addr:city": "Troisdorf", "addr:country": "DE", "addr:housenumber": "9", "addr:postcode": "53844", "addr:street": "Wilhelm-Busch-Straße", "addr:suburb": "Sieglar", "amenity": "hospital", "building": "yes", "building:colour": "white", "building:levels": "1", "healthcare": "hospital", "height": "4.00", "name": "GFO Kliniken Troisdorf St. Johannes Krankenhaus", "roof:colour": "grey", "roof:shape": "flat", "website": "https://www.gfo-kliniken-troisdorf.de", "wheelchair": "yes"}}, {"name": "Fliedner Tagesklinik", "latitude": 51.3173413, "longitude": 7.3378236, "source": "osm", "_tags": {"addr:city": "Gevelsberg", "addr:country": "DE", "addr:housenumber": "1", "addr:postcode": "58285", "addr:street": "Sudfeldstraße", "amenity": "hospital", "building": "yes", "name": "Fliedner Tagesklinik"}}, {"name": "Krankenhaus Maria Stern", "latitude": 50.5739473, "longitude": 7.2329643, "source": "osm", "_tags": {"addr:city": "Remagen", "addr:housenumber": "1", "addr:postcode": "53424", "addr:street": "Am Anger", "amenity": "hospital", "building": "hospital", "emergency": "yes", "healthcare": "hospital", "name": "Krankenhaus Maria Stern", "opening_hours": "24/7", "website": "http://www.krankenhaus-remagen.de", "wheelchair": "yes"}}, {"name": "Forensische Psychiatrie der LVR-Klinik Köln", "latitude": 50.910327, "longitude": 7.0169235, "source": "osm", "_tags": {"addr:city": "Köln", "addr:country": "DE", "addr:housenumber": "25", "addr:postcode": "51149", "addr:street": "Porzer Ringstraße", "alt_name": "LVR-Klinik Forensische Psychiatrie", "amenity": "hospital", "emergency": "no", "health_specialty": "forensic_psychiatry", "healthcare": "hospital", "name": "Forensische Psychiatrie der LVR-Klinik Köln", "short_name": "Forensische Psychiatrie", "website": "https://klinik-koeln.lvr.de/de/nav_main/fachgebiete___behandlungsangebote/forensische_psychiatrie/forensische_psychiatrie_i/forensische_psychiatrie_i_1.html"}}, {"name": "Lungenklinik Hemer", "latitude": 51.3927624, "longitude": 7.7654113, "source": "osm", "_tags": {"amenity": "hospital", "emergency": "yes", "healthcare": "hospital", "healthcare:speciality": "pulmonology", "name": "Lungenklinik Hemer", "opening_hours": "24/7", "operator": "Deutscher Gemeinschafts-Diakonieverband", "wheelchair": "yes", "wikidata": "Q1877469", "wikipedia": "de:Lungenklinik Hemer"}}, {"name": "DGD Stadtklinik Hemer", "latitude": 51.3903088, "longitude": 7.7574648, "source": "osm", "_tags": {"amenity": "hospital", "emergency": "yes", "healthcare": "hospital", "name": "DGD Stadtklinik Hemer", "old_name": "Paracelsus-Klinik Hemer", "wikidata": "Q88183008"}}, {"name": "Krankenhaus Bethanien Iserlohn", "latitude": 51.3710884, "longitude": 7.6931512, "source": "osm", "_tags": {"addr:city": "Iserlohn", "addr:housenumber": "3", "addr:postcode": "58644", "addr:street": "Bethanienallee", "amenity": "hospital", "emergency": "no", "healthcare": "hospital", "healthcare:speciality": "gynaecology;internal;cardiology;geriatrics;emergency;geburtshilfe", "name": "Krankenhaus Bethanien Iserlohn", "operator": "Katholische Kliniken im Märkischen Kreis", "operator:type": "private_non_profit", "phone": "+492371212-0", "website": "https://kkimk.de/standorte/bethanien-krankenhaus/", "wheelchair": "yes"}}, {"name": "Landesklinik Marienheide - Zentrum für seelische Gesundheit", "latitude": 51.0759619, "longitude": 7.5236851, "source": "osm", "_tags": {"addr:city": "Marienheide", "addr:housenumber": "65-67", "addr:postcode": "51709", "addr:street": "Leppestraße", "amenity": "hospital", "name": "Landesklinik Marienheide - Zentrum für seelische Gesundheit"}}, {"name": "Eduardus-Krankenhaus", "latitude": 50.9325047, "longitude": 6.9808828, "source": "osm", "_tags": {"addr:city": "Köln", "addr:housenumber": "3-17", "addr:postcode": "50679", "addr:street": "Custodisstraße", "addr:suburb": "Deutz", "amenity": "hospital", "check_date": "2024-08-12", "emergency": "yes", "healthcare": "hospital", "name": "Eduardus-Krankenhaus", "wheelchair": "yes"}}, {"name": "Ev. Krankenhaus Hagen-Haspe", "latitude": 51.3475519, "longitude": 7.4124516, "source": "osm", "_tags": {"amenity": "hospital", "healthcare": "hospital", "name": "Ev. Krankenhaus Hagen-Haspe", "operator": "Ev. Stiftung Volmarstein", "wheelchair": "yes"}}, {"name": "St. Marien-Hospital", "latitude": 50.9475069, "longitude": 6.9622107, "source": "osm", "_tags": {"addr:city": "Köln", "addr:country": "DE", "addr:housenumber": "11-13", "addr:postcode": "50668", "addr:street": "Kunibertskloster", "amenity": "hospital", "emergency": "yes", "healthcare": "hospital", "name": "St. Marien-Hospital", "website": "https://www.st-marien-hospital.de/", "wheelchair": "yes", "wikidata": "Q2320771", "wikimedia_commons": "Category:St. Marien-Hospital (Köln)", "wikipedia": "de:St. Marien-Hospital Köln"}}, {"name": "Brüderkrankenhaus Montabaur", "latitude": 50.431676, "longitude": 7.8320138, "source": "osm", "_tags": {"amenity": "hospital", "contact:email": "info@kk-km.de", "contact:fax": "+49 2602-122-709", "contact:phone": "+49 2602-122-0", "contact:website": "http://kk-km.de", "emergency": "yes", "healthcare": "hospital", "healthcare:speciality": "internal;trauma;orthopaedics;urology;vascular_surgery;spinal_surgery;intensive;gastroenterology", "name": "Brüderkrankenhaus Montabaur", "operator": "Katholisches Klinikum Koblenz·Montabaur gGmbH", "wheelchair": "yes", "wikipedia": "de:Katholisches Klinikum Koblenz-Montabaur"}}, {"name": "Zentrum für Seelische Gesundheit Elsey", "latitude": 51.358904, "longitude": 7.5663104, "source": "osm", "_tags": {"addr:city": "Hagen", "addr:housenumber": "43", "addr:postcode": "58119", "addr:street": "Iserlohner Straße", "amenity": "hospital", "check_date": "2025-02-16", "emergency": "no", "healthcare": "yes", "name": "Zentrum für Seelische Gesundheit Elsey", "website": "https://kkh-hagen.de/fachkliniken/psychiatrie-und-psychotherapie-suchtbehandlungszentrum/leistungsspektrum/zentrum-fuer-seelische-gesundheit-elsey/", "wheelchair": "yes"}}, {"name": "St. Josef Krankenhaus", "latitude": 50.9860325, "longitude": 7.3791623, "source": "osm", "_tags": {"addr:city": "Engelskirchen", "addr:housenumber": "30", "addr:postcode": "51766", "addr:street": "Wohlandstraße", "amenity": "hospital", "building": "yes", "emergency": "no", "name": "St. Josef Krankenhaus", "operator": "Katholische Kliniken Oberberg gGmbH", "toilets:wheelchair": "yes", "wheelchair": "yes"}}, {"name": "St. Antonius Krankenhaus", "latitude": 50.7818011, "longitude": 7.7324978, "source": "osm", "_tags": {"addr:city": "Wissen", "addr:country": "DE", "addr:housenumber": "17", "addr:postcode": "57537", "addr:street": "Auf der Rahm", "amenity": "hospital", "building": "hospital", "healthcare": "hospital", "name": "St. Antonius Krankenhaus", "wheelchair": "yes"}}, {"name": "Praxisklinik Remscheid", "latitude": 51.1811776, "longitude": 7.1776943, "source": "osm", "_tags": {"addr:city": "Remscheid", "addr:country": "DE", "addr:housenumber": "203-205", "addr:postcode": "42853", "addr:street": "Freiheitstraße", "amenity": "hospital", "building": "yes", "check_date": "2025-09-17", "healthcare": "hospital", "name": "Praxisklinik Remscheid", "phone": "+49 2191 9516500", "toilets:wheelchair": "yes", "website": "https://www.praxisklinik-remscheid.de/", "wheelchair": "yes"}}, {"name": "DRK Kamillus Klinik Asbach", "latitude": 50.6679294, "longitude": 7.4240214, "source": "osm", "_tags": {"addr:city": "Asbach", "addr:housenumber": "6", "addr:postcode": "53567", "addr:street": "Hospitalstraße", "amenity": "hospital", "name": "DRK Kamillus Klinik Asbach", "phone": "+49 2683 59-0", "toilets:wheelchair": "yes", "website": "http://www.drk-kamillus-klinik.de", "wheelchair": "yes"}}, {"name": "DRK Krankenhaus Hachenburg", "latitude": 50.6564733, "longitude": 7.8303447, "source": "osm", "_tags": {"amenity": "hospital", "check_date": "2024-12-24", "emergency": "yes", "healthcare": "hospital", "name": "DRK Krankenhaus Hachenburg", "name:de": "DRK Krankenhaus Hachenburg", "name:en": "German Red Cross Hospital Hachenburg", "operator": "DRK Trägergesellschaft Süd-West", "phone": "+49 2662 85-0", "wheelchair": "yes"}}, {"name": "Gemeinschaftskrankenhaus Bonn Haus Sankt Elisabeth", "latitude": 50.7275413, "longitude": 7.1027037, "source": "osm", "_tags": {"amenity": "hospital", "check_date": "2025-02-14", "email": "info@gk-bonn.de", "emergency": "yes", "fax": "+49 228 5081503", "healthcare": "hospital", "name": "Gemeinschaftskrankenhaus Bonn Haus Sankt Elisabeth", "old_name": "Sankt Elisabeth-Krankenhaus", "operator": "Gemeinschaftskrankenhaus Bonn gGmbH", "phone": "+49 228 5080", "ref": "Sankt Elisabeth", "short_name": "Elisabeth-Krankenhaus", "website": "http://www.gk-bonn.de/", "wheelchair": "yes"}}, {"name": "Brohltal-Klinik St. Josef", "latitude": 50.4559906, "longitude": 7.2789573, "source": "osm", "_tags": {"addr:city": "Burgbrohl", "addr:housenumber": "16", "addr:postcode": "56659", "addr:street": "Kirchstraße", "amenity": "hospital", "building": "yes", "email": "info.bbr@marienhaus.de", "emergency": "no", "fax": "+49 2636 533799", "healthcare": "hospital", "healthcare:speciality": "physiatry", "name": "Brohltal-Klinik St. Josef", "operator": "Marienhaus", "operator:type": "private", "operator:wikidata": "Q20828783", "phone": "+49 2636 530", "website": "https://www.marienhaus-klinikum-ahr.de/", "wheelchair": "yes"}}, {"name": "Facharztzentrum Mediplus Hilden", "latitude": 51.1685229, "longitude": 6.9438916, "source": "osm", "_tags": {"addr:city": "Hilden", "addr:housenumber": "38", "addr:postcode": "40724", "addr:street": "Walder Straße", "amenity": "hospital", "building": "yes", "designation": "Kplus-Verbund", "healthcare": "centre", "name": "Facharztzentrum Mediplus Hilden", "wheelchair": "yes"}}, {"name": "Reha-Klinik Lüdenscheid", "latitude": 51.20925, "longitude": 7.6651103, "source": "osm", "_tags": {"addr:city": "Lüdenscheid", "addr:country": "DE", "addr:housenumber": "14", "addr:postcode": "58515", "addr:street": "Paulmannshöher Straße", "amenity": "hospital", "building": "yes", "healthcare": "hospital", "name": "Reha-Klinik Lüdenscheid", "website": "https://www.reha-mk.de/RehaLuedenscheid/RehaLuedenscheid.htm", "website2": "https://www.facebook.com/Reha-Klinik-L%C3%BCdenscheid-269473086516612"}}, {"name": "", "latitude": 51.1071723, "longitude": 7.1183823, "source": "osm", "_tags": {"amenity": "hospital", "healthcare": "hospital"}}, {"name": "St. Antonius Krankenhaus", "latitude": 50.9103481, "longitude": 6.9668519, "source": "osm", "_tags": {"amenity": "hospital", "emergency": "yes", "healthcare": "hospital", "name": "St. Antonius Krankenhaus", "ref": "St. Antonius", "source": "survey", "website": "https://www.antonius-koeln.de/", "wheelchair": "yes", "wikidata": "Q23933734", "wikipedia": "de:St. Antonius Krankenhaus Köln"}}, {"name": "Orthopädische Klinik - Volmarstein", "latitude": 51.369359, "longitude": 7.3748619, "source": "osm", "_tags": {"addr:city": "Wetter (Ruhr)", "addr:country": "DE", "addr:housenumber": "11", "addr:postcode": "58300", "addr:street": "Lothar-Gau-Straße", "addr:suburb": "Volmarstein", "amenity": "hospital", "building": "yes", "contact:phone": "+49 2335 639400", "contact:website": "http://klinik-volmarstein.de", "image": "File:Volmarstein-OrthopaedischeKlinik1-Bubo.JPG", "name": "Orthopädische Klinik - Volmarstein", "operator": "Evangelische Stiftung Volmarstein", "wheelchair": "yes", "wheelchair:description": "Aufzüge vorhanden"}}, {"name": "Städtisches Klinikum Leverkusen - Kinderklinikum", "latitude": 51.0315272, "longitude": 7.0346073, "source": "osm", "_tags": {"amenity": "hospital", "building": "yes", "contact:facebook": "klinikumlev", "contact:instagram": "klinikumleverkusen", "emergency": "yes", "healthcare": "hospital", "name": "Städtisches Klinikum Leverkusen - Kinderklinikum", "website": "https://www.klinikum-lev.de/kinderklinik", "wheelchair": "yes"}}, {"name": "St. Agatha Krankenhaus", "latitude": 50.9873383, "longitude": 6.9604557, "source": "osm", "_tags": {"addr:city": "Köln", "addr:housenumber": "97", "addr:postcode": "50735", "addr:street": "Feldgärtenstraße", "amenity": "hospital", "building": "yes", "building:levels": "4", "name": "St. Agatha Krankenhaus", "website": "https://www.st-agatha-krankenhaus.de", "wheelchair": "yes"}}, {"name": "MediClin Fachklinik Rhein/Ruhr", "latitude": 51.3547584, "longitude": 6.9412661, "source": "osm", "_tags": {"amenity": "hospital", "healthcare": "hospital", "healthcare:speciality": "orthopaedics;neurology;cardiology", "name": "MediClin Fachklinik Rhein/Ruhr", "operator": "MediClin", "operator:wikidata": "Q1916295", "operator:wikipedia": "de:Mediclin", "phone": "+49205488-0", "website": "https://www.fachklinik-rheinruhr.de/", "wikidata": "Q60540281"}}, {"name": "Krankenhaus Köln-Merheim", "latitude": 50.9374513, "longitude": 7.0523589, "source": "osm", "_tags": {"addr:city": "Köln", "addr:housenumber": "200", "addr:postcode": "51109", "addr:street": "Ostmerheimer Straße", "amenity": "hospital", "emergency": "yes", "healthcare": "hospital", "name": "Krankenhaus Köln-Merheim", "opening_hours": "24/7", "operator": "Kliniken der Stadt Köln gGmbH", "operator:type": "community", "phone": "+49 221 8907-0", "website": "https://www.kliniken-koeln.de/", "wheelchair": "yes"}}, {"name": "St. Martinus-Hospital", "latitude": 51.0279623, "longitude": 7.8465989, "source": "osm", "_tags": {"addr:city": "Olpe", "addr:housenumber": "6", "addr:postcode": "57462", "addr:street": "Hospitalweg", "amenity": "hospital", "emergency": "yes", "healthcare": "hospital", "name": "St. Martinus-Hospital", "operator": "Katholische Hospitalgesellschaft Südwestfalen gGmbH Olpe", "phone": "+49 2751 85 0", "toilets:wheelchair": "yes", "website": "http://www.martinus-hospital.de", "wheelchair": "yes"}}, {"name": "Bethesda-Krankenhaus", "latitude": 51.2677048, "longitude": 7.1301853, "source": "osm", "_tags": {"addr:city": "Wuppertal", "addr:country": "DE", "addr:housenumber": "15-35", "addr:postcode": "42109", "addr:street": "Hainstraße", "amenity": "hospital", "contact:website": "http://www.bethesda-wuppertal.de/", "emergency": "yes", "healthcare": "hospital", "name": "Bethesda-Krankenhaus", "official_name": "Agaplesion Bethesda Krankenhaus Wuppertal", "toilets:wheelchair": "yes", "wheelchair": "yes", "wikidata": "Q390556", "wikipedia": "de:Agaplesion Bethesda Krankenhaus Wuppertal"}}, {"name": "Klinikum Lüdenscheid", "latitude": 51.2076814, "longitude": 7.6623278, "source": "osm", "_tags": {"addr:city": "Lüdenscheid", "addr:country": "DE", "addr:housename": "Klinikum Lüdenscheid", "addr:housenumber": "14", "addr:postcode": "58515", "addr:street": "Paulmannshöher Straße", "amenity": "hospital", "check_date": "2024-08-18", "emergency": "yes", "healthcare": "hospital", "name": "Klinikum Lüdenscheid", "website": "http://www.maerkische-kliniken.de/M%C3%A4rkische_Kliniken/Startseite_Maerkische_Kliniken.htm", "wheelchair": "yes"}}, {"name": "Sportklinik Hellersen", "latitude": 51.2083329, "longitude": 7.6576303, "source": "osm", "_tags": {"amenity": "hospital", "healthcare": "hospital", "name": "Sportklinik Hellersen"}}, {"name": "Marien-Krankenhaus", "latitude": 50.9937501, "longitude": 7.1305487, "source": "osm", "_tags": {"amenity": "hospital", "check_date": "2024-04-02", "healthcare": "hospital", "name": "Marien-Krankenhaus", "toilets:wheelchair": "yes", "wheelchair": "yes"}}, {"name": "Krankenhaus Wermelskirchen", "latitude": 51.1344507, "longitude": 7.2223201, "source": "osm", "_tags": {"amenity": "hospital", "emergency": "yes", "healthcare": "hospital", "name": "Krankenhaus Wermelskirchen", "operator": "Krankenhaus Wermelskirchen GmbH"}}, {"name": "Johanniter-Krankenhaus", "latitude": 50.7125609, "longitude": 7.1324916, "source": "osm", "_tags": {"amenity": "hospital", "brand": "Johanniter-Unfall-Hilfe", "brand:short": "JUH", "brand:wikidata": "Q14751117", "contact:website": "http://www.johanniter.de/einrichtungen/krankenhaus/bonn/", "emergency": "ambulance_station", "healthcare": "hospital", "name": "Johanniter-Krankenhaus", "short_name": "JUH", "wheelchair": "yes", "wikidata": "Q56582990"}}, {"name": "Vinzenz-Pallotti-Hospital", "latitude": 50.9621118, "longitude": 7.176197, "source": "osm", "_tags": {"amenity": "hospital", "contact:phone": "+49 2204 41-0", "contact:website": "http://www.vph-bensberg.de", "emergency": "yes", "healthcare": "hospital", "name": "Vinzenz-Pallotti-Hospital", "wheelchair": "yes"}}, {"name": "St. Franziskus Krankenhaus Eitorf", "latitude": 50.7678133, "longitude": 7.4518754, "source": "osm", "_tags": {"addr:city": "Eitorf", "addr:country": "DE", "addr:housenumber": "7", "addr:postcode": "53783", "addr:street": "Hospitalstraße", "amenity": "hospital", "building": "hospital", "check_date": "2024-07-14", "emergency": "yes", "healthcare": "hospital", "name": "St. Franziskus Krankenhaus Eitorf", "wheelchair": "yes"}}, {"name": "Marienhaus Klinikum St. Elisabeth Neuwied", "latitude": 50.4275674, "longitude": 7.471172, "source": "osm", "_tags": {"amenity": "hospital", "contact:email": "info@marienhaus-klinikum.de", "contact:fax": "+49 2631 82-1243", "contact:phone": "+49 2631 82-0", "contact:website": "http://marienhaus-klinikum.de", "emergency": "yes", "healthcare": "hospital", "name": "Marienhaus Klinikum St. Elisabeth Neuwied", "operator": "Marienhaus", "operator:type": "private", "operator:wikidata": "Q20828783", "wheelchair": "yes"}}, {"name": "Kinderneurologisches Zentrum KiNZ im Gustav-Heinemann-Haus", "latitude": 50.7522838, "longitude": 7.0434075, "source": "osm", "_tags": {"addr:city": "Bonn", "addr:country": "DE", "addr:housenumber": "46", "addr:postcode": "53119", "addr:street": "Waldenburger Ring", "amenity": "hospital", "building": "public", "building:levels": "4", "description": "Veranstaltungen, Rehabilitation", "emergency": "no", "fax": "+49 228 6683111", "healthcare": "hospital", "healthcare:speciality": "neurology", "name": "Kinderneurologisches Zentrum KiNZ im Gustav-Heinemann-Haus", "operator": "LVR-Klinik Bonn", "phone": "+49 228 66830", "roof:levels": "0", "source": "Yahoo!Sat;knowledge;Bing", "website": "https://klinik-bonn.lvr.de//de/nav_main/fachgebiete/kinderneurologie/kinderneurologie_1.html", "wheelchair": "yes", "wheelchair:description": "Förderzentrum für körperlich und geistige Behinderte Kinder und Jugendliche"}}, {"name": "Klinik Roderbirken", "latitude": 51.1043703, "longitude": 7.0380879, "source": "osm", "_tags": {"amenity": "hospital", "healthcare": "hospital", "name": "Klinik Roderbirken", "operator": "Deutsche Rentenversicherung Rheinland", "website": "https://www.klinik-roderbirken.de/", "wheelchair": "yes", "wikidata": "Q50038635"}}, {"name": "Cura Krankenhaus Bad Honnef", "latitude": 50.6476461, "longitude": 7.2259944, "source": "osm", "_tags": {"amenity": "hospital", "contact:email": "info@gfo-kliniken-bonn.de", "contact:phone": "+49 2224 772-0", "contact:website": "https://www.gfo-kliniken-bonn.de", "denomination": "catholic", "emergency": "yes", "healthcare": "hospital", "name": "Cura Krankenhaus Bad Honnef", "note": "Abgrenzung geschätzt, Fraglich ob Hausnr. 14 noch zum Gelände gehört", "old_name": "St.-Johannes-Krankenhaus", "opening_hours": "24/7", "operator": "Gemeinnützige Gesellschaft der Franziskanerinnen zu Olpe mbH", "religion": "christian", "wheelchair": "yes", "wikidata": "Q15718748", "wikimedia_commons": "Category:Katholisches Krankenhaus im Siebengebirge", "wikipedia": "de:Katholisches Krankenhaus im Siebengebirge"}}, {"name": "Sankt Josef", "latitude": 50.7360583, "longitude": 7.1186239, "source": "osm", "_tags": {"amenity": "hospital", "contact:email": "info@gfo-kliniken-bonn.de", "contact:phone": "+49 228 407-0", "contact:website": "https://www.gfo-kliniken-bonn.de", "emergency": "yes", "healthcare": "hospital", "name": "Sankt Josef", "opening_hours": "24/7", "operator": "Gemeinnützige Gesellschaft der Franziskanerinnen zu Olpe mbH", "short_name": "St. Josef", "wheelchair": "yes"}}, {"name": "Helios Klinikum Siegburg", "latitude": 50.7992103, "longitude": 7.2062373, "source": "osm", "_tags": {"amenity": "hospital", "check_date": "2024-05-29", "contact:phone": "+49 2241 18-0", "contact:website": "https://www.helios-gesundheit.de/kliniken/siegburg/", "emergency": "yes", "healthcare": "hospital", "name": "Helios Klinikum Siegburg", "opening_hours": "24/7", "operator": "Helios Kliniken", "operator:type": "private", "operator:wikidata": "Q1254151", "operator:wikipedia": "de:Helios Kliniken", "wheelchair": "yes", "wikidata": "Q50038603"}}, {"name": "Dreifaltigkeits-Krankenhaus", "latitude": 50.8217851, "longitude": 6.9853126, "source": "osm", "_tags": {"addr:city": "Wesseling", "addr:country": "DE", "addr:housenumber": "84", "addr:postcode": "50389", "addr:street": "Bonner Straße", "amenity": "hospital", "contact:email": "info@krankenhaus-wesseling.de", "contact:fax": "+49 2236 77398", "contact:instagram": "https://www.instagram.com/krankenhaus_wesseling/", "contact:phone": "+49 2236 771", "contact:website": "https://www.krankenhaus-wesseling.de/", "emergency": "yes", "healthcare": "hospital", "heritage": "8", "heritage:operator": "UntereDenkmalbehörde", "historic": "building", "name": "Dreifaltigkeits-Krankenhaus", "operator": "Katharina Kasper ViaSalus GmbH", "operator:type": "religious", "ref": "69", "start_date": "1915", "wikidata": "Q19856805", "wikipedia": "de:Dreifaltigkeits-Krankenhaus Wesseling"}}, {"name": "St. Elisabeth-Krankenhaus", "latitude": 51.4028625, "longitude": 7.1350495, "source": "osm", "_tags": {"amenity": "hospital", "emergency": "yes", "healthcare": "hospital", "healthcare:speciality": "internal;psychiatry", "name": "St. Elisabeth-Krankenhaus", "operator": "Kath.Kliniken Ruhrhalbinsel"}}, {"name": "Klinikum Solingen", "latitude": 51.1847942, "longitude": 7.0701213, "source": "osm", "_tags": {"amenity": "hospital", "healthcare": "hospital", "leisure": "park", "name": "Klinikum Solingen", "notice": "Campus-Plan:https://www.klinikumsolingen.de/media/05-patienten-besucher/Klinikum_Solingen_Uebersichtsplan_final_ZW.pdf"}}, {"name": "Gemeinschaftskrankenhaus Bonn Haus Sankt Petrus", "latitude": 50.728329, "longitude": 7.0983726, "source": "osm", "_tags": {"addr:city": "Bonn", "addr:country": "DE", "addr:housenumber": "4-6", "addr:postcode": "53113", "addr:street": "Bonner Talweg", "amenity": "hospital", "check_date": "2024-10-30", "email": "info@gk-bonn.de", "emergency": "yes", "fax": "+49 228 5062150", "healthcare": "hospital", "name": "Gemeinschaftskrankenhaus Bonn Haus Sankt Petrus", "old_name": "Brüderkrankenhaus St. Petrus", "operator": "Gemeinschaftskrankenhaus Bonn gGmbH", "phone": "+49 228 5060", "ref": "St. Petrus", "source": "NRW Orthophoto", "toilets:wheelchair": "yes", "website": "http://www.gk-bonn.de/", "wheelchair": "yes", "wikidata": "Q46092992", "wikipedia": "de:Gemeinschaftskrankenhaus Bonn"}}, {"name": "Sankt-Marien-Hospital Bonn", "latitude": 50.7172056, "longitude": 7.0938969, "source": "osm", "_tags": {"addr:city": "Bonn", "addr:housenumber": "1", "addr:postcode": "53115", "addr:street": "Robert-Koch-Straße", "alt_name": "Marienhospital", "amenity": "hospital", "email": "info@marien-hospital-bonn.de", "emergency": "yes", "fax": "+49 228 5052019", "healthcare": "hospital", "name": "Sankt-Marien-Hospital Bonn", "note": "Vergroesserung von Relation 1269846", "operator": "Gemeinnützige Gesellschaft der Franziskanerinnen zu Olpe mbH", "phone": "+49 228 5050", "ref": "Sankt-Marien-Hospital", "url": "http://www.marien-hospital-bonn.de/", "website": "https://www.gfo-kliniken-bonn.de/startseite.html", "wheelchair": "yes", "wikidata": "Q17287234", "wikimedia_commons": "Category:Marienhospital (Bonn)", "wikipedia": "de:St. Marien-Hospital Bonn"}}, {"name": "Sana Kinder- und Jugendpsychiatrie", "latitude": 51.2500355, "longitude": 7.1440753, "source": "osm", "_tags": {"amenity": "hospital", "check_date": "2025-05-04", "email": "kjp-wuppertal@sana.de", "healthcare": "hospital", "name": "Sana Kinder- und Jugendpsychiatrie", "opening_hours": "Mo-Th 08:30-12:00,13:00-16:00; Fr 08:30-12:00,13:00-14:30", "phone": "+49 202 758450", "website": "https://www.sana.de/remscheid/medizin-pflege/zentrum-fuer-seelische-gesundheit-des-kindes-und-jugendalters/ambulanzen-sprechstunden-1"}}, {"name": "Sana-Krankenhaus Radevormwald", "latitude": 51.1984382, "longitude": 7.3511309, "source": "osm", "_tags": {"addr:city": "Radevormwald", "addr:housenumber": "33", "addr:postcode": "42477", "addr:street": "Siepenstraße", "amenity": "hospital", "contact:email": "info-rvw@sana.de", "contact:fax": "+49 2195 600155", "contact:phone": "+49 2195 6000", "contact:website": "https://www.sana-radevormwald.de", "emergency": "yes", "healthcare": "hospital", "healthcare:speciality": "anesthesia;geriatrics;internal;surgery", "name": "Sana-Krankenhaus Radevormwald", "opening_hours": "24/7", "operator": "Sana Krankenhaus Radevormwald gGmbH", "wheelchair": "yes"}}, {"name": "Krankenhaus St. Josef", "latitude": 51.2595431, "longitude": 7.14297, "source": "osm", "_tags": {"amenity": "hospital", "contact:email": "info.kh-josef@cellitinnen.de", "contact:fax": "+49 202 485-2909", "contact:phone": "+49 202 485-0", "contact:website": "https://www.krankenhaus-st-josef-wuppertal.de", "emergency": "yes", "healthcare": "hospital", "name": "Krankenhaus St. Josef", "operator": "Klinikverbund St. Antonius und St. Josef GmbH", "operator:wikidata": "Q1774664", "operator:wikipedia": "de:Klinikverbund St. Antonius und St. Josef", "wheelchair": "yes"}}, {"name": "HELIOS-Klinik Elberfeld", "latitude": 51.2501479, "longitude": 7.1331649, "source": "osm", "_tags": {"addr:housenumber": "20", "addr:street": "Arrenberger Straße", "amenity": "hospital", "healthcare": "hospital", "name": "HELIOS-Klinik Elberfeld", "operator": "Helios Kliniken", "operator:type": "private", "operator:wikidata": "Q1254151", "operator:wikipedia": "de:Helios Kliniken", "wheelchair": "yes"}}, {"name": "Evangelische Stiftung Tannenhof", "latitude": 51.2056692, "longitude": 7.2259558, "source": "osm", "_tags": {"addr:city": "Remscheid", "addr:housenumber": "76", "addr:postcode": "42899", "addr:street": "Remscheider Straße", "amenity": "hospital", "healthcare": "hospital", "name": "Evangelische Stiftung Tannenhof", "phone": "+49 2191 120", "website": "https://www.stiftung-tannenhof.de/", "wheelchair": "yes", "wikidata": "Q2349180", "wikipedia": "de:Evangelische Stiftung Tannenhof"}}, {"name": "Krankenhaus Holweide", "latitude": 50.9665107, "longitude": 7.0581037, "source": "osm", "_tags": {"amenity": "hospital", "emergency": "yes", "healthcare": "hospital", "name": "Krankenhaus Holweide", "operator": "Kliniken der Stadt Köln gGmbH", "phone": "+49 221 89070", "website": "https://www.kliniken-koeln.de/Krankenhaus_Holweide_Startseite.htm", "wheelchair": "yes"}}, {"name": "Helios Klinik Wipperfürth", "latitude": 51.1132873, "longitude": 7.3855148, "source": "osm", "_tags": {"addr:city": "Wipperfürth", "addr:housenumber": "9", "addr:postcode": "51688", "addr:street": "Alte-Kölner-Straße", "amenity": "hospital", "healthcare": "hospital", "name": "Helios Klinik Wipperfürth", "operator": "Helios Kliniken", "operator:type": "private", "operator:wikidata": "Q1254151"}}, {"name": "Krankenhaus Plettenberg", "latitude": 51.2131947, "longitude": 7.8867037, "source": "osm", "_tags": {"amenity": "hospital", "contact:email": "info@radprax.de", "contact:phone": "+49 2391 630", "contact:website": "https://www.radprax.de/krankenhaus-plettenberg/", "emergency": "yes", "name": "Krankenhaus Plettenberg", "operator": "radprax Krankenhaus Plettenberg GmbH", "wheelchair": "yes", "wikidata": "Q15117623", "wikipedia": "de:Krankenhaus Plettenberg"}}, {"name": "Stadtklinik Werdohl", "latitude": 51.2570778, "longitude": 7.7654125, "source": "osm", "_tags": {"amenity": "hospital", "contact:fax": "+49 2392 57-357", "contact:phone": "+49 2392 57-0", "contact:website": "https://www.maerkische-kliniken.de/stadtklinik-werdohl/", "emergency": "yes", "healthcare": "hospital", "name": "Stadtklinik Werdohl", "opening_hours": "24/7", "wheelchair": "yes"}}, {"name": "DRK Fachklinik Bad Neuenahr", "latitude": 50.5435323, "longitude": 7.1382406, "source": "osm", "_tags": {"amenity": "hospital", "brand": "Deutsches Rotes Kreuz", "brand:wikidata": "Q694104", "emergency": "yes", "fax": "+49 2641 754200", "healthcare": "hospital", "healthcare:speciality": "child_psychiatry", "name": "DRK Fachklinik Bad Neuenahr", "phone": "+49 2641 7540", "website": "https://www.drk-fk-badneuenahr.de/", "wikidata": "Q15804336"}}, {"name": "GFO Kliniken Mettmann-Süd St. Martinus Krankenhaus", "latitude": 51.1303956, "longitude": 6.9416178, "source": "osm", "_tags": {"amenity": "hospital", "email": "krankenhaus@stmartinus-langenfeld.de", "emergency": "yes", "fax": "+49 2173 77482", "health_facility:type": "hospital", "healthcare": "hospital", "medical_system:western": "yes", "name": "GFO Kliniken Mettmann-Süd St. Martinus Krankenhaus", "operator": "Gemeinnützige Gesellschaft der Franziskanerinnen zu Olpe, Maria-Theresia-Str. 30a, 57462 Olpe"}}, {"name": "Sankt Josefs Krankenhaus", "latitude": 51.1681662, "longitude": 6.9430442, "source": "osm", "_tags": {"addr:city": "Hilden", "addr:housenumber": "34-38", "addr:postcode": "40724", "addr:street": "Walder Straße", "amenity": "hospital", "building": "yes", "emergency": "yes", "fax": "+49  2103 8290", "healthcare": "hospital", "name": "Sankt Josefs Krankenhaus", "operator": "Kplus Gruppe", "phone": "+49 2103 8 99-0", "type": "multipolygon", "website": "https://www.st-josefs-krankenhaus.de", "wheelchair": "yes"}}, {"name": "Fabricius-Klinik", "latitude": 51.1801037, "longitude": 7.1805716, "source": "osm", "_tags": {"addr:city": "Remscheid", "addr:housenumber": "65", "addr:postcode": "42853", "addr:street": "Brüderstraße", "amenity": "hospital", "building": "hospital", "emergency": "no", "healthcare": "hospital", "name": "Fabricius-Klinik", "note:opening_hours": "for visitors", "opening_hours": "10:00-20:00", "type": "multipolygon"}}, {"name": "Verbundkrankenhaus Linz-Remagen", "latitude": 50.5644906, "longitude": 7.3191033, "source": "osm", "_tags": {"amenity": "hospital", "email": "info@krankenhaus-linz.de", "emergency": "yes", "healthcare": "hospital", "name": "Verbundkrankenhaus Linz-Remagen", "phone": "+49 2644 550", "type": "multipolygon", "website": "https://www.krankenhaus-linz-remagen.de"}}, {"name": "Helios Klinikum Bonn/Rhein-Sieg", "latitude": 50.7077079, "longitude": 7.0325135, "source": "osm", "_tags": {"amenity": "hospital", "contact:phone": "+49 228 6481 0", "contact:website": "https://www.helios-gesundheit.de/kliniken/bonn/", "healthcare": "hospital", "loc_name": "Malteser-Krankenhaus", "name": "Helios Klinikum Bonn/Rhein-Sieg", "old_name": "Malteser Krankenhaus Seliger Gerhard Bonn/Rhein-Sieg", "operator": "Helios Kliniken", "operator:wikidata": "Q1254151", "phone": "+4922864810", "source": "Landsat", "type": "multipolygon"}}, {"name": "Sana-Klinikum Remscheid", "latitude": 51.1614079, "longitude": 7.1893804, "source": "osm", "_tags": {"amenity": "hospital", "email": "skr-info@sana.de", "emergency": "yes", "fax": "+49 2191 13-3116", "healthcare": "hospital", "name": "Sana-Klinikum Remscheid", "phone": "+49 2191 13-0", "type": "multipolygon", "website": "https://www.sana.de/remscheid"}}, {"name": "Marienhaus Klinikum St. Matthias Neuwied", "latitude": 50.4294912, "longitude": 7.4649349, "source": "osm", "_tags": {"addr:city": "Neuwied", "addr:country": "DE", "addr:housenumber": "104", "addr:postcode": "56564", "addr:street": "Marktstraße", "amenity": "hospital", "brand": "Deutsches Rotes Kreuz", "brand:wikidata": "Q694104", "building": "hospital", "fax": "+49 2631 98-1002", "healthcare": "hospital", "name": "Marienhaus Klinikum St. Matthias Neuwied", "operator": "Marienhaus Kliniken GmbH", "operator:type": "private", "operator:wikidata": "Q20828783", "phone": "+49 2631 82-0", "toilets:wheelchair": "yes", "type": "multipolygon", "was:name": "DRK Krankenhaus Neuwied", "website": "https://www.marienhaus-klinikum.de", "wheelchair": "yes"}}, {"name": "Städtisches Klinikum Leverkusen", "latitude": 51.0323413, "longitude": 7.0331652, "source": "osm", "_tags": {"addr:city": "Leverkusen", "addr:housenumber": "11", "addr:postcode": "51375", "addr:street": "Am Gesundheitspark", "amenity": "hospital", "building": "hospital", "contact:facebook": "klinikumlev", "contact:instagram": "klinikumleverkusen", "contact:phone": "+49 214 13-0", "contact:website": "http://www.klinikum-lev.de/", "emergency": "yes", "healthcare": "hospital", "name": "Städtisches Klinikum Leverkusen", "name:en": "Leverkusen Municipal Hospital", "name:es": "Hospital Municipal de Leverkusen", "name:it": "Ospedale municipale di Leverkusen", "ref": "1", "toilets:wheelchair": "yes", "type": "multipolygon", "wheelchair": "yes", "wikidata": "Q1774630"}}, {"name": "DRK-Krankenhaus Altenkirchen", "latitude": 50.6828998, "longitude": 7.6304726, "source": "osm", "_tags": {"addr:city": "Altenkirchen", "addr:country": "DE", "addr:housenumber": "21", "addr:postcode": "57610", "addr:street": "Leuzbacher Weg", "amenity": "hospital", "brand": "Deutsches Rotes Kreuz", "brand:wikidata": "Q694104", "brand:wikipedia": "de:Deutsches Rotes Kreuz", "building": "hospital", "contact:phone": "+49 2681 88 0", "emergency": "yes", "healthcare": "hospital", "name": "DRK-Krankenhaus Altenkirchen", "operator": "DRK Gem. Krankenhaus GmbH Rheinland-Pfalz", "type": "multipolygon"}}, {"name": "Helios Klinik Wipperfürth", "latitude": 51.1130653, "longitude": 7.385356, "source": "osm", "_tags": {"addr:city": "Wipperfürth", "addr:housenumber": "9", "addr:postcode": "51688", "addr:street": "Alte-Kölner-Straße", "amenity": "hospital", "building": "hospital", "emergency": "yes", "healthcare": "hospital", "name": "Helios Klinik Wipperfürth", "operator": "Helios Kliniken", "operator:type": "private", "operator:wikidata": "Q1254151", "phone": "+49 2267 8890", "type": "multipolygon", "website": "http://www.helios-kliniken.de/klinik/wipperfuerth"}}, {"name": "Universitätsklinikum Bonn", "latitude": 50.7000917, "longitude": 7.1042362, "source": "osm", "_tags": {"addr:housenumber": "1", "addr:street": "Venusberg-Campus", "alt_name": "Uniklinikum Bonn", "amenity": "hospital", "emergency": "yes", "healthcare": "hospital", "loc_name": "Uniklinik Bonn", "name": "Universitätsklinikum Bonn", "operator": "Universitätsklinikum Bonn AöR", "phone": "+49 228 287 0", "short_name": "UKB", "type": "multipolygon", "website": "https://www.ukb.uni-bonn.de/", "wikidata": "Q2496385", "wikipedia": "de:Universitätsklinikum Bonn"}}, {"name": "A", "latitude": 51.2761339, "longitude": 7.1908582, "source": "osm", "_tags": {"addr:city": "Wuppertal", "addr:country": "DE", "addr:housenumber": "60", "addr:postcode": "42283", "addr:street": "Carnaper Straße", "building": "hospital", "building:levels": "4;3", "healthcare": "hospital", "name": "A", "roof:levels": "1", "toilets:wheelchair": "yes", "type": "multipolygon", "wheelchair": "yes"}}]