[{"name": "Przychodnia Sportowa", "latitude": 50.8712436, "longitude": 20.6032045, "source": "osm", "_tags": {"addr:city": "Kielce", "addr:housenumber": "1", "addr:postcode": "25-734", "addr:street": "Prezydenta Stefana Artwińskiego", "amenity": "clinic", "healthcare": "hospital", "name": "Przychodnia Sportowa", "phone": "+48413671301"}}, {"name": "NZOZ Szpital Specjalistyczny im. W. Biegańskiego w Jędrzejowie", "latitude": 50.6489763, "longitude": 20.3022442, "source": "osm", "_tags": {"amenity": "hospital", "name": "NZOZ Szpital Specjalistyczny im. W. Biegańskiego w Jędrzejowie"}}, {"name": "Gameta", "latitude": 50.781434, "longitude": 20.4646915, "source": "osm", "_tags": {"addr:country": "PL", "addr:housenumber": "45", "addr:place": "Podzamcze", "addr:postcode": "26-060", "amenity": "hospital", "healthcare": "hospital", "name": "Gameta"}}, {"name": "Samodzielny Publiczny Zespół Zakładów Opieki Zdrowotnej - Szpital Powiatowy w Przysusze", "latitude": 51.3595177, "longitude": 20.6303233, "source": "osm", "_tags": {"amenity": "hospital", "email": "sekretariat@spzzozprzysucha.pl", "name": "Samodzielny Publiczny Zespół Zakładów Opieki Zdrowotnej - Szpital Powiatowy w Przysusze", "phone": "48 383 35 05", "website": "https://www.spzzozprzysucha.pl"}}, {"name": "NZOZ \"Nowe Życie\"", "latitude": 50.8544604, "longitude": 19.9667941, "source": "osm", "_tags": {"amenity": "doctors", "healthcare": "hospital", "name": "NZOZ \"Nowe Życie\""}}, {"name": "Szpitalny Oddział Ratunkowy", "latitude": 50.8739532, "longitude": 20.6385998, "source": "osm", "_tags": {"amenity": "clinic", "emergency": "yes", "healthcare": "hospital", "name": "Szpitalny Oddział Ratunkowy", "operator": "Szpital Kielecki Św. Aleksandra Sp. z o.o."}}, {"name": "NOVOMED", "latitude": 50.8421576, "longitude": 19.9770711, "source": "osm", "_tags": {"amenity": "doctors", "healthcare": "hospital", "name": "NOVOMED"}}, {"name": "Wojewódzki Szpital Zespolony w Kielcach", "latitude": 50.8700644, "longitude": 20.6357894, "source": "osm", "_tags": {"amenity": "hospital", "name": "Wojewódzki Szpital Zespolony w Kielcach"}}, {"name": "Klinika Chorób Zakaźnych Wojewódzkiego Szpitala Zespolonego", "latitude": 50.8749098, "longitude": 20.637685, "source": "osm", "_tags": {"addr:city": "Kielce", "addr:housenumber": "7", "addr:postcode": "25-317", "addr:street": "Radiowa", "building": "hospital", "building:levels": "3", "healthcare": "hospital", "name": "Klinika Chorób Zakaźnych Wojewódzkiego Szpitala Zespolonego", "name:en": "Department of Infectious Diseases by the Provincional General Hospital in Kielce", "phone": "+48 41 363 71 37", "source": "Bing", "source:addr": "UM Kielce", "website": "https://wszzkielce.pl/oddzial.php?id=27"}}, {"name": "ZOZ Oddział II Wewnętrzny", "latitude": 51.099824, "longitude": 20.8699907, "source": "osm", "_tags": {"addr:city": "Skarżysko-Kamienna", "addr:housenumber": "4", "addr:postcode": "26-110", "addr:street": "Ekonomii", "alt_name": "Półsanatorium", "amenity": "hospital", "building": "hospital", "healthcare": "hospital", "name": "ZOZ Oddział II Wewnętrzny"}}, {"name": "NZOZ Zakład Opiekuńczo-Leczniczy i Rehabilitacyjny w Bilczy", "latitude": 50.7746331, "longitude": 20.6161829, "source": "osm", "_tags": {"addr:city": "Bilcza", "addr:housenumber": "4", "addr:postcode": "26-026", "addr:street": "Osikowa", "amenity": "hospital", "barrier": "fence", "email": "zolbilcza@tlen.pl", "healthcare": "clinic", "name": "NZOZ Zakład Opiekuńczo-Leczniczy i Rehabilitacyjny w Bilczy", "phone": "+48 41 311 78 70", "website": "http://zolir.pl/"}}, {"name": "", "latitude": 51.1266447, "longitude": 20.8705701, "source": "osm", "_tags": {"amenity": "hospital", "healthcare": "hospital"}}, {"name": "Przychodnia Przyszpitalna", "latitude": 50.8713493, "longitude": 20.6030326, "source": "osm", "_tags": {"addr:city": "Kielce", "addr:housenumber": "1", "addr:postcode": "25-734", "addr:street": "Prezydenta Stefana Artwińskiego", "amenity": "clinic", "building": "yes", "building:levels": "2", "healthcare": "hospital", "name": "Przychodnia Przyszpitalna", "operator": "Wojewódzki Szpital Zespolony w Kielcach", "source": "UM Kielce"}}, {"name": "Świętokrzyskie Centrum Ratownictwa Medycznego i Transportu Sanitarnego", "latitude": 51.125251, "longitude": 20.8682406, "source": "osm", "_tags": {"amenity": "hospital", "emergency": "ambulance_station", "healthcare": "hospital", "name": "Świętokrzyskie Centrum Ratownictwa Medycznego i Transportu Sanitarnego"}}, {"name": "", "latitude": 50.7476682, "longitude": 20.6230386, "source": "osm", "_tags": {"amenity": "hospital", "building": "yes"}}, {"name": "Oddział Dzienny Psychiatryczny Ogólny Świętokrzyskiego Centrum Psychiatrii w Morawicy", "latitude": 50.8544534, "longitude": 20.5984812, "source": "osm", "_tags": {"addr:city": "Kielce", "addr:housenumber": "59", "addr:postcode": "25-045", "addr:street": "Janusza Kusocińskiego", "building": "hospital", "building:levels": "2", "healthcare": "hospital", "name": "Oddział Dzienny Psychiatryczny Ogólny Świętokrzyskiego Centrum Psychiatrii w Morawicy", "source": "Geoportal 2: Ortofotomapa wysokiej rozdzielczości (zdjęcia lotnicze) (WMS)", "source:addr": "UM Kielce"}}, {"name": "Samodzielny Publiczny Zespół Zakładów Opieki Zdrowotnej", "latitude": 51.2257847, "longitude": 20.8629776, "source": "osm", "_tags": {"addr:city": "Szydłowiec", "addr:housenumber": "23", "addr:postcode": "26-500", "addr:street": "Wschodnia", "amenity": "hospital", "building": "yes", "healthcare": "hospital", "name": "Samodzielny Publiczny Zespół Zakładów Opieki Zdrowotnej", "source:addr": "EMUiA (emuia.gugik.gov.pl)", "website": "https://www.zoz.szydlowiec.pl/"}}, {"name": "Wojewódzki Szpital Specjalistyczny im. św. Rafała w Czerwonej Górze", "latitude": 50.8223471, "longitude": 20.4887732, "source": "osm", "_tags": {"amenity": "hospital", "healthcare": "hospital", "name": "Wojewódzki Szpital Specjalistyczny im. św. Rafała w Czerwonej Górze", "phone": "+48 41 346 55 45"}}, {"name": "Wojewódzki Szpital Zespolony", "latitude": 50.8733941, "longitude": 20.6009163, "source": "osm", "_tags": {"addr:city": "Kielce", "addr:housenumber": "45", "addr:postcode": "25-736", "addr:street": "Grunwaldzka", "amenity": "hospital", "email": "szpital@wszzkielce.pl", "healthcare": "hospital", "name": "Wojewódzki Szpital Zespolony", "operator": "Wojewódzki Szpital Zespolony w Kielcach", "phone": "+48 41 367 13 01", "source": "Geoportal 2: Ortofotomapa (aerial image)", "website": "https://www.wszzkielce.pl/"}}, {"name": "Szpital powiatowy w Pińczowie", "latitude": 50.5175323, "longitude": 20.5302303, "source": "osm", "_tags": {"amenity": "hospital", "emergency": "yes", "name": "Szpital powiatowy w Pińczowie"}}, {"name": "Szpital Powiatowy w Chmielniku", "latitude": 50.6179091, "longitude": 20.7492766, "source": "osm", "_tags": {"amenity": "hospital", "building": "yes", "name": "Szpital Powiatowy w Chmielniku"}}, {"name": "Świętokrzyskie Centrum Onkologii", "latitude": 50.8711192, "longitude": 20.5988934, "source": "osm", "_tags": {"addr:city": "Kielce", "addr:housenumber": "3", "addr:postcode": "25-734", "addr:street": "Prezydenta Stefana Artwińskiego", "amenity": "hospital", "healthcare": "hospital", "healthcare:speciality": "oncology", "name": "Świętokrzyskie Centrum Onkologii", "operator": "Świętokrzyskie Centrum Onkologii w Kielcach", "phone": "+48413456882", "wikidata": "Q9396719", "wikipedia": "pl:Świętokrzyskie Centrum Onkologii"}}, {"name": "Szpital Kielecki imienia św. Aleksandra - ArtMedik", "latitude": 50.8742977, "longitude": 20.6383306, "source": "osm", "_tags": {"amenity": "hospital", "healthcare": "hospital", "name": "Szpital Kielecki imienia św. Aleksandra - ArtMedik", "phone": "+48 41 34 17 800", "website": "https://www.szpitalkielecki.pl/szpital-kielecki"}}, {"name": "", "latitude": 51.3753887, "longitude": 20.2856537, "source": "osm", "_tags": {"amenity": "hospital", "landuse": "healthcare"}}, {"name": "Szpital Powiatowy im. Edmunda Biernackiego w Opocznie", "latitude": 51.3792059, "longitude": 20.2789808, "source": "osm", "_tags": {"addr:city": "Opoczno", "addr:housenumber": "30", "addr:postcode": "26-300", "addr:street": "Partyzantów", "amenity": "hospital", "email": "sekretariat1@szpitalopoczno.pl", "healthcare": "hospital", "landuse": "healthcare", "name": "Szpital Powiatowy im. Edmunda Biernackiego w Opocznie", "phone": "44 754 48 04", "website": "https://szpitalopoczno.pl"}}, {"name": "", "latitude": 50.6492206, "longitude": 20.3026986, "source": "osm", "_tags": {"amenity": "hospital", "healthcare": "hospital"}}, {"name": "21 Wojskowy Szpital Uzdrowiskowo-Rehabilitacyjny SP ZOZ", "latitude": 50.4536918, "longitude": 20.7200725, "source": "osm", "_tags": {"amenity": "hospital", "landuse": "military", "name": "21 Wojskowy Szpital Uzdrowiskowo-Rehabilitacyjny SP ZOZ"}}, {"name": "Szpital MSWiA w Kielcach", "latitude": 50.8606248, "longitude": 20.6356597, "source": "osm", "_tags": {"amenity": "hospital", "building": "yes", "healthcare": "hospital", "name": "Szpital MSWiA w Kielcach"}}, {"name": "", "latitude": 51.099935, "longitude": 20.8697311, "source": "osm", "_tags": {"amenity": "hospital", "healthcare": "hospital"}}, {"name": "Świętokrzyskie Centrum Rehabilitacji w Czarnieckiej Górze", "latitude": 51.1367622, "longitude": 20.5295104, "source": "osm", "_tags": {"amenity": "hospital", "name": "Świętokrzyskie Centrum Rehabilitacji w Czarnieckiej Górze"}}, {"name": "", "latitude": 50.8603253, "longitude": 20.6358883, "source": "osm", "_tags": {"amenity": "hospital", "healthcare": "hospital"}}, {"name": "Świętokrzyskie Centrum Matki i Noworodka", "latitude": 50.8618443, "longitude": 20.6362549, "source": "osm", "_tags": {"addr:city": "Kielce", "addr:housenumber": "30", "addr:postcode": "25-371", "addr:street": "Prosta", "amenity": "hospital", "healthcare": "hospital", "name": "Świętokrzyskie Centrum Matki i Noworodka", "phone": "+48413687425", "source": "Bing"}}, {"name": "Zakład Opiekuńczo-Leczniczy", "latitude": 51.3175491, "longitude": 20.686596, "source": "osm", "_tags": {"amenity": "hospital", "healthcare": "hospital", "name": "Zakład Opiekuńczo-Leczniczy", "operator": "SPZOZ Przysucha"}}, {"name": "Świętokrzyskie Centrum Psychiatrii w Morawicy", "latitude": 50.7466641, "longitude": 20.6246856, "source": "osm", "_tags": {"amenity": "hospital", "name": "Świętokrzyskie Centrum Psychiatrii w Morawicy", "phone": "41 36 41 399", "website": "https://www.morawica.com.pl"}}, {"name": "Szpital Powiatowy im. Jana Pawła II we Włoszczowie", "latitude": 50.8466669, "longitude": 19.9736705, "source": "osm", "_tags": {"amenity": "hospital", "healthcare": "hospital", "name": "Szpital Powiatowy im. Jana Pawła II we Włoszczowie", "website": "https://www.zozwloszczowa.pl/"}}, {"name": "Szpital Specjalistyczny św. Łukasza w Końskich", "latitude": 51.1901161, "longitude": 20.3922673, "source": "osm", "_tags": {"amenity": "hospital", "email": "szpital@zoz.konskie.pl", "healthcare": "hospital", "name": "Szpital Specjalistyczny św. Łukasza w Końskich", "phone": "41 39 02 398", "website": "https://www.zoz.konskie.pl/pl/"}}, {"name": "Klinika Chorób Zakaźnych Wojewódzkiego Szpitala Zespolonego", "latitude": 50.8749702, "longitude": 20.6376764, "source": "osm", "_tags": {"amenity": "hospital", "healthcare": "hospital", "name": "Klinika Chorób Zakaźnych Wojewódzkiego Szpitala Zespolonego", "name:en": "Department of Infectious Diseases by the Provincional General Hospital in Kielce", "phone": "+48 41 363 71 37", "website": "https://wszzkielce.pl/oddzial.php?id=27"}}, {"name": "", "latitude": 50.642174, "longitude": 20.2862741, "source": "osm", "_tags": {"amenity": "hospital", "healthcare": "doctor"}}, {"name": "", "latitude": 50.6477141, "longitude": 20.3011425, "source": "osm", "_tags": {"amenity": "hospital", "healthcare": "hospital"}}, {"name": "Oddział Dzienny Psychiatryczny Ogólny Świętokrzyskiego Centrum Psychiatrii w Morawicy", "latitude": 50.8547695, "longitude": 20.5982845, "source": "osm", "_tags": {"addr:city": "Kielce", "addr:housenumber": "59", "addr:postcode": "25-045", "addr:street": "Janusza Kusocińskiego", "amenity": "hospital", "capacity": "30", "healthcare": "hospital", "healthcare:speciality": "psychiatry", "name": "Oddział Dzienny Psychiatryczny Ogólny Świętokrzyskiego Centrum Psychiatrii w Morawicy", "operator": "Świętokrzyskie Centrum Psychiatrii w Morawicy", "operator:type": "public", "phone": "+48 41 366 97 71", "website": "https://morawica.com.pl/dzialalnosc-szpital/209-oddzpsychdzienny"}}, {"name": "Szpital Rejonowy w Busku - Zdroju", "latitude": 50.4675891, "longitude": 20.7040165, "source": "osm", "_tags": {"addr:city": "Busko-Zdrój", "addr:housenumber": "69", "addr:postcode": "28-100", "addr:street": "Bohaterów Warszawy", "amenity": "hospital", "emergency": "yes", "healthcare": "hospital", "name": "Szpital Rejonowy w Busku - Zdroju", "type": "multipolygon"}}, {"name": "Szpital Powiatowy w Skarżysku-Kamiennej", "latitude": 51.1261232, "longitude": 20.8702694, "source": "osm", "_tags": {"addr:city": "Skarżysko-Kamienna", "addr:housenumber": "1", "addr:postcode": "26-110", "addr:street": "Szpitalna", "alt_name": "Zespół Opieki Zdrowotnej w Skarżysku-Kamiennej", "amenity": "hospital", "building": "hospital", "healthcare": "hospital", "name": "Szpital Powiatowy w Skarżysku-Kamiennej", "name:en": "Maria Skłodowska-Curie County Hospital", "name:ru": "Поветовая больница им. Марии Склодовской-Кюри", "official_name": "Szpital Powiatowy im. Marii Skłodowskiej-Curie w Skarżysku-Kamiennej", "source:start_date": "proskarzysko.pl", "start_date": "1959-05-01", "type": "multipolygon"}}]