[{"name": "Defibrilatorstandort", "latitude": 50.4315635, "longitude": 11.0245546, "source": "osm", "_tags": {"amenity": "hospital", "emergency": "yes", "healthcare": "hospital", "name": "Defibrilatorstandort"}}, {"name": "Universitätsklinikum Jena - Standort Bachstraße", "latitude": 50.9291402, "longitude": 11.5785016, "source": "osm", "_tags": {"addr:city": "Jena", "addr:housenumber": "18", "addr:postcode": "07743", "addr:street": "Bachstraße", "amenity": "hospital", "healthcare": "hospital", "name": "Universitätsklinikum Jena - Standort Bachstraße", "short_name": "KH Jena Geriatrie"}}, {"name": "Helios Klinikum Erfurt", "latitude": 50.9926769, "longitude": 11.0130251, "source": "osm", "_tags": {"addr:city": "Erfurt", "addr:country": "DE", "addr:housenumber": "74", "addr:postcode": "99089", "addr:street": "Nordhäuser Straße", "amenity": "hospital", "beds": "1261", "contact:email": "info.erfurt@helios-gesundheit.de", "contact:fax": "+49 361 7811002", "contact:phone": "+49 361 7810", "contact:website": "https://www.helios-gesundheit.de/standorte-angebote/kliniken/erfurt", "emergency": "yes", "healthcare": "hospital", "healthcare:speciality": "paediatrics;intensive;orthopaedics;gynaecology;emergency;surgery;cardiology;ophthalmology;dermatology;radiology;oncology;internal", "hospital:level:DE": "3", "name": "Helios Klinikum Erfurt", "operator": "Helios Kliniken GmbH", "operator:type": "private", "operator:wikidata": "Q1254151", "operator:wikipedia": "de:Helios Kliniken", "short_name": "KH Erfurt Helios", "wheelchair": "yes", "wikidata": "Q1774607", "wikipedia": "de:Klinikum Erfurt"}}, {"name": "Helios Klinik Blankenhain", "latitude": 50.8601016, "longitude": 11.3394497, "source": "osm", "_tags": {"addr:city": "Blankenhain", "addr:housenumber": "5", "addr:postcode": "99444", "addr:street": "Wirthstraße", "amenity": "hospital", "emergency": "yes", "healthcare": "hospital", "healthcare:speciality": "intensive;emergency;surgery;internal", "name": "Helios Klinik Blankenhain", "operator": "Helios Kliniken", "operator:wikidata": "Q1254151", "operator:wikipedia": "de:Helios Kliniken", "short_name": "KH Blankenhain", "wikidata": "Q23936342"}}, {"name": "Mutter-und-Kind-Kurklinik Regenbogenland", "latitude": 50.5300921, "longitude": 11.611574, "source": "osm", "_tags": {"amenity": "hospital", "building": "yes", "check_date": "2023-05-25", "healthcare": "rehabilitation", "name": "Mutter-und-Kind-Kurklinik Regenbogenland", "source": "bing"}}, {"name": "SRH Klinikum Naumburg", "latitude": 51.161012, "longitude": 11.8148405, "source": "osm", "_tags": {"addr:city": "Naumburg (Saale)", "addr:country": "DE", "addr:housenumber": "31", "addr:postcode": "06618", "addr:street": "Humboldtstraße", "amenity": "hospital", "fixme": "Geländegrenzen", "healthcare": "hospital", "name": "SRH Klinikum Naumburg", "operator": "SRH Klinikum Burgenlandkreis GmbH", "short_name": "KH Naumburg", "toilets:wheelchair": "yes", "website": "https://www.klinikum-burgenlandkreis.de/", "wheelchair": "yes", "wikidata": "Q89039351"}}, {"name": "Ilm-Kreis-Kliniken Arnstadt-Ilmenau GmbH - Standort Arnstadt", "latitude": 50.8394141, "longitude": 10.9414569, "source": "osm", "_tags": {"addr:city": "Arnstadt", "addr:country": "DE", "addr:housenumber": "33", "addr:postcode": "99310", "addr:street": "Bärwinkelstraße", "amenity": "hospital", "contact:fax": "+49 3628 919-130", "contact:phone": "+49 3628 919-0", "contact:website": "http://www.ilm-kreis-kliniken.de", "emergency": "yes", "healthcare": "hospital", "healthcare:speciality": "intensive;cardiology;orthopaedics;surgery;paediatrics;gynaecology;internal;radiology;emergency;abortion", "name": "Ilm-Kreis-Kliniken Arnstadt-Ilmenau GmbH - Standort Arnstadt", "operator": "Ilm-Kreis Kliniken", "short_name": "KH Arnstadt", "wikidata": "Q56696650"}}, {"name": "Thüringen-Kliniken \"Georgius Agricola\"- Standort Rudolstadt", "latitude": 50.7071499, "longitude": 11.3155946, "source": "osm", "_tags": {"addr:city": "Rudolstadt", "addr:housenumber": "2-4", "addr:postcode": "07407", "addr:street": "Hugo-Trinckler-Straße", "amenity": "hospital", "check_date": "2025-05-03", "contact:website": "http://www.thueringen-klinik.de", "emergency": "yes", "healthcare": "hospital", "name": "Thüringen-Kliniken \"Georgius Agricola\"- Standort Rudolstadt", "operator": "Thüringen-Kliniken \"Georgius Agricola\" GmbH", "short_name": "KH Rudolstadt", "shortest_name": "TKR", "toilets": "yes", "toilets:wheelchair": "yes", "wheelchair": "yes"}}, {"name": "Klinik an der Weißenburg", "latitude": 50.731318, "longitude": 11.4483644, "source": "osm", "_tags": {"addr:city": "Uhlstädt-Kirchhasel", "addr:housenumber": "1", "addr:postcode": "07407", "addr:street": "Weißen", "amenity": "hospital", "emergency": "no", "healthcare": "hospital", "name": "Klinik an der Weißenburg"}}, {"name": "Katholisches Krankenhaus \"St. Johann Nepomuk\" Erfurt", "latitude": 50.9477408, "longitude": 11.0850534, "source": "osm", "_tags": {"addr:city": "Erfurt", "addr:country": "DE", "addr:housenumber": "72", "addr:postcode": "99097", "addr:street": "Haarbergstraße", "amenity": "hospital", "check_date": "2025-06-12", "emergency": "yes", "healthcare": "hospital", "healthcare:speciality": "psychiatry;orthopaedics;gynaecology;emergency;surgery;internal;intensive;cardiology;radiology", "name": "Katholisches Krankenhaus \"St. Johann Nepomuk\" Erfurt", "operator": "Katholische Hospitalvereinigung Thüringen gGmbH", "short_name": "KKH Erfurt", "wheelchair": "yes", "wikidata": "Q1736457"}}, {"name": "Zentralklinik Bad Berka", "latitude": 50.890018, "longitude": 11.2670446, "source": "osm", "_tags": {"addr:city": "Bad Berka", "addr:housenumber": "9", "addr:postcode": "99438", "addr:street": "Robert-Koch-Allee", "amenity": "hospital", "check_date": "2024-06-27", "emergency": "yes", "healthcare": "hospital", "healthcare:speciality": "intensive;orthopaedics;emergency;surgery;cardiology;oncology;internal;radiology", "name": "Zentralklinik Bad Berka", "operator": "Rhön-Klinikum AG", "short_name": "KH Bad Berka", "shortest_name": "ZBB", "toilets:wheelchair": "yes", "wheelchair": "yes", "wikidata": "Q190638"}}, {"name": "Sani-Hütte", "latitude": 50.4323574, "longitude": 11.0253395, "source": "osm", "_tags": {"amenity": "hospital", "building": "yes", "emergency": "no", "healthcare": "hospital", "name": "Sani-Hütte"}}, {"name": "Marienstift Arnstadt", "latitude": 50.8374888, "longitude": 10.9448779, "source": "osm", "_tags": {"addr:city": "Arnstadt", "addr:country": "DE", "addr:housenumber": "12", "addr:postcode": "99310", "addr:street": "Wachsenburgallee", "amenity": "hospital", "contact:website": "http://www.ms-arn.de", "healthcare": "hospital", "healthcare:speciality": "orthopaedics", "name": "Marienstift Arnstadt", "short_name": "KH Arnstadt Marienstift", "wheelchair": "yes", "wikidata": "Q12352334"}}, {"name": "Gesundheitszentrum \"Am Rennsteig\"", "latitude": 50.4723281, "longitude": 11.0817159, "source": "osm", "_tags": {"addr:city": "Neuhaus am Rennweg", "addr:country": "DE", "addr:housenumber": "15", "addr:postcode": "98724", "addr:street": "Schanzweg", "amenity": "hospital", "building": "hospital", "email": "Kur@awo-sonneberg.de", "fax": "+49 36704 882288", "name": "Gesundheitszentrum \"Am Rennsteig\"", "operator": "AWO Kreisverband Sonneberg e. V.", "phone": "+49 36704 8820", "website": "https://www.haus-am-rennsteig.de/", "wheelchair": "yes"}}, {"name": "Moritz Klinik", "latitude": 50.9183043, "longitude": 11.8602254, "source": "osm", "_tags": {"amenity": "hospital", "name": "Moritz Klinik"}}, {"name": "KMG Klinikum Sömmerda", "latitude": 51.1621496, "longitude": 11.1219341, "source": "osm", "_tags": {"addr:city": "Sömmerda", "addr:country": "DE", "addr:housenumber": "36", "addr:postcode": "99610", "addr:street": "Bahnhofstraße", "amenity": "hospital", "emergency": "yes", "healthcare": "hospital", "name": "KMG Klinikum Sömmerda", "operator": "KMG Kliniken SE", "phone": "+49 3634 520", "short_name": "KH Sömmerda", "website": "https://kmg-kliniken.de/kmg-klinikum-soemmerda/", "wheelchair": "yes", "wikidata": "Q23787623"}}, {"name": "Robert-Koch-Krankenhaus Apolda", "latitude": 51.0126815, "longitude": 11.5122751, "source": "osm", "_tags": {"alt_name": "Robert-Koch-Krankenhaus", "amenity": "hospital", "contact:city": "Apolda", "contact:country": "DE", "contact:email": "info@rkk-apolda.de", "contact:fax": "+49 3644 57 10 80", "contact:housenumber": "66", "contact:phone": "+49 3644 57 0", "contact:postcode": "99510", "contact:street": "Jenaer Straße", "contact:website": "http://www.rkk-apolda.de", "emergency": "yes", "healthcare": "hospital", "healthcare:speciality": "paediatrics;intensive;orthopaedics;gynaecology;emergency;surgery;abortion;radiology;internal", "name": "Robert-Koch-Krankenhaus Apolda", "short_name": "KH Apolda", "shortest_name": "RKK", "wikidata": "Q1404583", "wikipedia": "de:Robert-Koch-Krankenhaus Apolda"}}, {"name": "Thüringen-Kliniken \"Georgius Agricola\"- Standort Saalfeld", "latitude": 50.6444594, "longitude": 11.3439016, "source": "osm", "_tags": {"addr:city": "Saalfeld/Saale", "addr:country": "DE", "addr:housenumber": "68", "addr:postcode": "07318", "addr:street": "Rainweg", "amenity": "hospital", "contact:email": "kontakt@thueringen-kliniken.de", "contact:fax": "+49 3671 35074", "contact:google_plus": "https://plus.google.com/117812659503781619325", "contact:phone": "+49 3671 540", "contact:website": "http://www.thueringen-kliniken.de", "emergency": "yes", "healthcare": "hospital;psychotherapist", "healthcare:speciality": "anaesthetics;intensive;pain_therapy;surgery;dermatology;otolaryngology;internal;vascular_surgery;gynaecology;paediatrics;dental_oral_maxillo_facial_surgery;nephrology;emergency;orthopaedics;trauma;pathology;psychiatry;urology;radiology;spine_therapy", "internet_access": "wlan", "internet_access:fee": "customers", "name": "Thüringen-Kliniken \"Georgius Agricola\"- Standort Saalfeld", "name:etymology:wikidata": "Q76579", "name:etymology:wikipedia": "de:Georgius Agricola", "old_name": "Kreiskrankenhaus Saalfeld", "operator": "Thüringen-Kliniken \"Georgius Agricola\" GmbH", "operator:wikidata": "Q2430744", "operator:wikipedia": "de:Thüringen-Kliniken „Georgius Agricola“", "short_name": "KH Saalfeld;TKS", "shortest_name": "TKS", "website": "https://www.thueringen-kliniken.de/", "wheelchair": "yes"}}, {"name": "Asklepios Fachklinikum Stadtroda", "latitude": 50.8619133, "longitude": 11.7265646, "source": "osm", "_tags": {"addr:city": "Stadtroda", "addr:country": "DE", "addr:housenumber": "1a", "addr:postcode": "07646", "addr:street": "Bahnhofstraße", "amenity": "hospital", "emergency": "no", "healthcare": "hospital", "healthcare:speciality": "psychiatry", "name": "Asklepios Fachklinikum Stadtroda", "operator": "Asklepios Kliniken", "operator:type": "private", "operator:wikidata": "Q732068", "operator:wikipedia": "de:Asklepios Kliniken", "short_name": "KH Stadtroda", "shortest_name": "AFK", "toilets:wheelchair": "yes", "wheelchair": "yes"}}, {"name": "MEDIAN Klinik Bad Lobenstein", "latitude": 50.4418634, "longitude": 11.6321597, "source": "osm", "_tags": {"amenity": "hospital", "area": "yes", "emergency": "no", "name": "MEDIAN Klinik Bad Lobenstein", "operator": "MEDIAN Kliniken GmbH & Co.KG"}}, {"name": "Reha-Klinik am Kyffhäuser für Kinder und Jugendliche", "latitude": 51.3597949, "longitude": 11.0924344, "source": "osm", "_tags": {"addr:city": "Bad Frankenhausen/Kyffhäuser", "addr:housenumber": "4a", "addr:postcode": "06567", "addr:street": "Rottlebener Straße", "amenity": "hospital", "name": "Reha-Klinik am Kyffhäuser für Kinder und Jugendliche", "phone": "+49 34671 6630", "website": "https://www.kinderreha-kyffhaeuser.de/"}}, {"name": "Deutsche Rentenversicherung BUND – Reha-Zentrum Bad Frankenhausen", "latitude": 51.3588575, "longitude": 11.1154982, "source": "osm", "_tags": {"addr:city": "Bad Frankenhausen/Kyffhäuser", "addr:country": "DE", "addr:housenumber": "35", "addr:postcode": "06567", "addr:street": "Udersleber Weg", "amenity": "hospital", "healthcare": "hospital", "name": "Deutsche Rentenversicherung BUND – Reha-Zentrum Bad Frankenhausen", "operator": "Deutsche Rentenversicherung BUNDDeutsche Rentenversicherung BUND"}}, {"name": "Ökumenisches Hainich Klinikum - Klinik Bad Frankenhausen", "latitude": 51.3537502, "longitude": 11.1079495, "source": "osm", "_tags": {"amenity": "hospital", "healthcare": "hospital", "name": "Ökumenisches Hainich Klinikum - Klinik Bad Frankenhausen"}}, {"name": "MVZ Kölleda", "latitude": 51.1841858, "longitude": 11.2463022, "source": "osm", "_tags": {"amenity": "hospital", "emergency": "no", "name": "MVZ Kölleda", "wheelchair": "yes"}}, {"name": "Carl-von-Basedow-Klinikum", "latitude": 51.3702754, "longitude": 11.6074159, "source": "osm", "_tags": {"amenity": "hospital", "area": "yes", "healthcare": "hospital", "name": "Carl-von-Basedow-Klinikum", "wheelchair": "yes"}}, {"name": "Sternbach-Klinik Schleiz", "latitude": 50.5765925, "longitude": 11.8175753, "source": "osm", "_tags": {"addr:city": "Schleiz", "addr:housenumber": "7-9", "addr:postcode": "07907", "addr:street": "Berthold-Schmidt-Straße", "amenity": "hospital", "contact:phone": "+49 3663 4670", "contact:website": "https://www.hospital-schleiz.de/", "emergency": "yes", "healthcare": "hospital", "name": "Sternbach-Klinik Schleiz", "operator": "Sternbach-Klinik Schleiz GmbH", "operator:type": "private", "short_name": "KH Schleiz", "wikidata": "Q23936329"}}, {"name": "Haus A", "latitude": 50.9608418, "longitude": 11.3231848, "source": "osm", "_tags": {"building": "hospital", "healthcare": "hospital", "name": "Haus A"}}, {"name": "Haus B", "latitude": 50.9599429, "longitude": 11.3223361, "source": "osm", "_tags": {"building": "hospital", "healthcare": "hospital", "name": "Haus B"}}, {"name": "Klinik Bergfried Saalfeld", "latitude": 50.6322189, "longitude": 11.3707504, "source": "osm", "_tags": {"addr:city": "Saalfeld/Saale", "addr:country": "DE", "addr:housenumber": "20", "addr:postcode": "07318", "addr:street": "Zum Fuchsturm", "amenity": "hospital", "description": "Fachklinik für Psychosomatik und Psychotherapie", "healthcare": "hospital", "healthcare:speciality": "psychiatry", "name": "Klinik Bergfried Saalfeld", "operator": "Dr. Ebel Fachkliniken Verwaltungs-GmbH", "website": "https://ebel-kliniken.com/klinik-bergfried-saalfeld/"}}, {"name": "Waldkliniken Eisenberg", "latitude": 50.9569235, "longitude": 11.8834066, "source": "osm", "_tags": {"addr:city": "Eisenberg", "addr:country": "DE", "addr:housenumber": "81", "addr:postcode": "07607", "addr:street": "Klosterlausnitzer Straße", "amenity": "hospital", "contact:email": "info@waldkliniken-eisenberg.de", "contact:fax": "+49 36691 81807", "contact:phone": "+49 36691 80", "contact:website": "https://www.waldkliniken-eisenberg.de", "emergency": "yes", "healthcare": "hospital", "healthcare:speciality": "intensive;orthopaedics;emergency;radiology;internal;surgery", "name": "Waldkliniken Eisenberg", "note": "Für Regionalleitstelle Jena u.a einsatzrelevant", "short_name": "KH Eisenberg", "shortest_name": "WKE", "wikidata": "Q27938121"}}, {"name": "Fachkrankenhaus für Dermatologie Schloß Friedensburg", "latitude": 50.5653275, "longitude": 11.45887, "source": "osm", "_tags": {"addr:city": "Leutenberg", "addr:housenumber": "25", "addr:postcode": "07338", "addr:street": "Schloßstraße", "amenity": "hospital", "contact:phone": "+49 36734 800", "contact:website": "https://www.schlossfriedensburg.de", "healthcare": "hospital", "healthcare:speciality": "dermatology", "name": "Fachkrankenhaus für Dermatologie Schloß Friedensburg", "operator": "Schloss Friedensburg GmbH", "website": "https://www.schlossfriedensburg.de/startseite.html", "wikipedia": "de:Schloss_Friedensburg"}}, {"name": "REGIOMED Klinik Neuhaus", "latitude": 50.511143, "longitude": 11.1300531, "source": "osm", "_tags": {"addr:city": "Neuhaus am Rennweg", "addr:housenumber": "39", "addr:postcode": "98724", "addr:street": "Schöne Aussicht", "amenity": "hospital", "healthcare": "hospital", "name": "REGIOMED Klinik Neuhaus", "short_name": "KH Neuhaus"}}, {"name": "Thüringen-Kliniken \"Georgius Agricola\" - Standort Pößneck", "latitude": 50.6983834, "longitude": 11.5906721, "source": "osm", "_tags": {"addr:city": "Pößneck", "addr:housenumber": "8-10", "addr:postcode": "07381", "addr:street": "Hohes Gäßchen", "amenity": "hospital", "emergency": "yes", "healthcare": "hospital", "healthcare:speciality": "chiropractic;intensive", "name": "Thüringen-Kliniken \"Georgius Agricola\" - Standort Pößneck", "short_name": "KH Pößneck", "shortest_name": "TKP"}}, {"name": "Universitätsklinikum Jena", "latitude": 50.8853957, "longitude": 11.6208646, "source": "osm", "_tags": {"addr:city": "Jena", "addr:housenumber": "1", "addr:postcode": "07747", "addr:street": "Am Klinikum", "amenity": "hospital", "emergency": "yes", "healthcare": "hospital", "loc_name": "KH Jena", "name": "Universitätsklinikum Jena", "short_name": "UKJ", "wheelchair": "yes"}}, {"name": "Sophien- und Hufeland- Klinikum Weimar", "latitude": 50.9603358, "longitude": 11.3221058, "source": "osm", "_tags": {"addr:city": "Weimar", "addr:housenumber": "2", "addr:postcode": "99425", "addr:street": "Henry-van-de-Velde-Straße", "amenity": "hospital", "emergency": "yes", "healthcare": "hospital", "name": "Sophien- und Hufeland- Klinikum Weimar", "short_name": "KH Weimar", "shortest_name": "SHW", "website": "https://www.klinikum-weimar.de/", "wheelchair": "limited", "wikidata": "Q30260704", "wikipedia": "de:Sophien- und Hufeland-Klinikum Weimar"}}, {"name": "Fachklinik Bad Blankenburg", "latitude": 50.6758746, "longitude": 11.2664017, "source": "osm", "_tags": {"addr:city": "Bad Blankenburg", "addr:housenumber": "40", "addr:postcode": "07422", "addr:street": "Georgstraße", "amenity": "hospital", "healthcare": "hospital", "name": "Fachklinik Bad Blankenburg", "phone": "+49 36741 41490", "url": "http://www.klinik-bad-blankenburg.de"}}, {"name": "Klinik für Psychiatrie und Psychotherapie", "latitude": 50.9324106, "longitude": 11.5820771, "source": "osm", "_tags": {"alt_name": "Standort Philosophenweg", "amenity": "hospital", "contact:website": "https://www.uniklinikum-jena.de/psychiatrie/", "healthcare": "clinic", "healthcare:speciality": "psychiatry", "name": "Klinik für Psychiatrie und Psychotherapie", "operator": "Universitätsklinikum Jena", "type": "multipolygon"}}]