[{"name": "Sidmouth Victoria Hospital", "latitude": 50.6816055, "longitude": -3.2395673, "source": "osm", "_tags": {"amenity": "hospital", "check_date": "2024-08-03", "emergency": "no", "healthcare": "hospital", "name": "Sidmouth Victoria Hospital", "wheelchair": "yes"}}, {"name": "Dawlish Community Hospital", "latitude": 50.5804017, "longitude": -3.4744584, "source": "osm", "_tags": {"addr:city": "Dawlish", "addr:postcode": "EX7 9QH", "addr:street": "Barton Terrace", "amenity": "hospital", "emergency": "no", "healthcare": "hospital", "name": "Dawlish Community Hospital"}}, {"name": "Moreton Hospital", "latitude": 50.6627778, "longitude": -3.7670412, "source": "osm", "_tags": {"amenity": "hospital", "healthcare": "hospital", "name": "Moreton Hospital"}}, {"name": "Seaton Hospital", "latitude": 50.7119464, "longitude": -3.0718298, "source": "osm", "_tags": {"addr:city": "Seaton", "addr:postcode": "EX12 2UU", "addr:street": "Valley View", "amenity": "hospital", "check_date": "2025-09-30", "healthcare": "hospital", "name": "Seaton Hospital"}}, {"name": "Ottery St Mary Hospital", "latitude": 50.7502411, "longitude": -3.291435, "source": "osm", "_tags": {"amenity": "hospital", "check_date": "2025-08-19", "healthcare": "hospital", "name": "Ottery St Mary Hospital"}}, {"name": "Royal Devon & Exeter Hospital (Heavitree)", "latitude": 50.7247155, "longitude": -3.5139967, "source": "osm", "_tags": {"addr:city": "Exeter", "addr:postcode": "EX1 2ED", "addr:street": "Gladstone Road", "amenity": "hospital", "emergency": "no", "healthcare": "hospital", "name": "Royal Devon & Exeter Hospital (Heavitree)", "wikidata": "Q30293207", "wikipedia": "en:Heavitree hospital"}}, {"name": "Seachange", "latitude": 50.6315439, "longitude": -3.3191654, "source": "osm", "_tags": {"amenity": "hospital", "emergency": "no", "healthcare": "hospital", "name": "Seachange", "operator": "Westbank", "operator:type": "charitable"}}, {"name": "Mardon Neuro-Rehabilitation Centre", "latitude": 50.7172588, "longitude": -3.5135752, "source": "osm", "_tags": {"addr:city": "Exeter", "addr:postcode": "EX2 4UD", "addr:street": "Wonford Road", "amenity": "hospital", "healthcare": "hospital", "name": "Mardon Neuro-Rehabilitation Centre", "operator": "Royal Devon and Exeter NHS Foundation Trust", "phone": "+44 1392 208580", "website": "https://www.rdehospital.nhs.uk/patients/centres/mardon/default.html"}}, {"name": "Nuffield Hospital", "latitude": 50.7164476, "longitude": -3.5119479, "source": "osm", "_tags": {"addr:city": "Exeter", "addr:housename": "The Exeter Nuffield Hospital", "addr:postcode": "EX2 4UG", "addr:street": "Wonford Road", "amenity": "hospital", "emergency": "no", "fhrs:id": "178966", "healthcare": "hospital", "healthcare:speciality": "orthopaedics", "name": "Nuffield Hospital", "operator": "Nuffield Health", "operator:type": "private", "operator:wikidata": "Q7068711", "phone": "+44 1392 249341", "website": "https://www.nuffieldhealth.com/hospitals/exeter", "wikidata": "Q30293063"}}, {"name": "Culm Valley Integrated Centre for Health", "latitude": 50.8643744, "longitude": -3.3926649, "source": "osm", "_tags": {"amenity": "hospital", "healthcare": "hospital", "name": "Culm Valley Integrated Centre for Health"}}, {"name": "Nuffield Taunton", "latitude": 51.028657, "longitude": -3.1282583, "source": "osm", "_tags": {"addr:city": "Taunton", "addr:country": "GB", "addr:county": "Somerset", "addr:postcode": "TA2 6AN", "addr:street": "Showell Park", "addr:village": "Staplegrove", "amenity": "hospital", "building": "yes", "emergency": "no", "fhrs:id": "51288", "healthcare": "hospital", "name": "Nuffield Taunton", "operator": "Nuffield Health", "operator:type": "private", "operator:wikidata": "Q7068711"}}, {"name": "Honiton Community Hospital", "latitude": 50.7952157, "longitude": -3.1869983, "source": "osm", "_tags": {"addr:city": "Honiton", "addr:postcode": "EX14 2DE", "addr:street": "Marlpits Lane", "amenity": "hospital", "email": "rduh.honitonreception@nhs.net", "healthcare": "hospital", "name": "Honiton Community Hospital", "opening_hours": "Mo-Su 08:00-20:00", "phone": "+44 1404 540540", "website": "https://www.royaldevon.nhs.uk/our-sites/honiton-hospital/"}}, {"name": "Barry Hospital", "latitude": 51.4139491, "longitude": -3.2848958, "source": "osm", "_tags": {"amenity": "hospital", "healthcare": "hospital", "name": "Barry Hospital", "source": "OS_OpenData_StreetView;Bing;survey", "wikidata": "Q4864321"}}, {"name": "Musgrove Park Hospital", "latitude": 51.0114811, "longitude": -3.1210308, "source": "osm", "_tags": {"addr:city": "Taunton", "addr:county": "Somerset", "addr:housename": "Musgrove Park Hospital", "addr:postcode": "TA1 5DA", "addr:street": "Parkfield Drive", "amenity": "hospital", "email": "pals@tst.nhs.uk", "emergency": "yes", "fhrs:id": "70008", "healthcare": "hospital", "name": "Musgrove Park Hospital", "operator": "Somerset NHS Foundation Trust", "operator:wikidata": "Q96405998", "phone": "+44 1823 333444", "ref:GB:cqc_location": "RH5A8", "ref:GB:nhs_ods": "RH5A8", "smoking": "no", "website": "https://www.somersetft.nhs.uk/musgrove-park-hospital/", "wheelchair": "yes", "wikidata": "Q6941188", "wikipedia": "en:Musgrove Park Hospital"}}, {"name": "St Margarets Hospice", "latitude": 51.0174913, "longitude": -3.1289305, "source": "osm", "_tags": {"addr:city": "Taunton", "addr:country": "GB", "addr:postcode": "TA1 5HA", "addr:street": "Heron Drive", "amenity": "hospital", "fhrs:id": "145074", "healthcare": "hospital", "name": "St Margarets Hospice"}}, {"name": "", "latitude": 51.0328281, "longitude": -3.1020892, "source": "osm", "_tags": {"addr:city": "Taunton", "addr:country": "GB", "addr:postcode": "TA2 7AZ", "addr:street": "Cheddon Road", "amenity": "hospital", "fhrs:id": "127328", "healthcare": "hospital"}}, {"name": "", "latitude": 51.0323169, "longitude": -3.1016202, "source": "osm", "_tags": {"addr:city": "Taunton", "addr:country": "GB", "addr:postcode": "TA2 7AU", "addr:street": "Cheddon Road", "amenity": "hospital", "building": "yes", "fhrs:id": "127380", "healthcare": "hospital"}}, {"name": "Tiverton and District Hospital", "latitude": 50.9092336, "longitude": -3.4933496, "source": "osm", "_tags": {"addr:city": "Tiverton", "addr:postcode": "EX16 6NT", "addr:street": "Kennedy Way", "amenity": "hospital", "fhrs:id": "8232", "healthcare": "hospital", "name": "Tiverton and District Hospital", "source:addr": "FHRS Open Data", "wikidata": "Q30293055", "wikipedia": "en:Tiverton and District Hospital"}}, {"name": "Totnes Community Hospital", "latitude": 50.4327715, "longitude": -3.6841293, "source": "osm", "_tags": {"addr:city": "Totnes", "addr:postcode": "TQ9 5GH", "amenity": "hospital", "building": "hospital", "emergency": "no", "healthcare": "hospital", "name": "Totnes Community Hospital", "nohousenumber": "yes", "operator": "South West NHS Trust", "source:postcode": "ons_opendata_postcodes"}}, {"name": "Minehead Community Hospital", "latitude": 51.1987822, "longitude": -3.462711, "source": "osm", "_tags": {"addr:city": "Minehead", "addr:country": "GB", "addr:postcode": "TA24 6DF", "addr:street": "Luttrell Way", "amenity": "hospital", "fhrs:authority": "West Somerset", "fhrs:id": "165820", "fhrs:local_authority_id": "PI/000008549", "healthcare": "hospital", "name": "Minehead Community Hospital"}}, {"name": "Tŷ Hafan Children's Hospice", "latitude": 51.4019764, "longitude": -3.2322305, "source": "osm", "_tags": {"addr:postcode": "CF64 5XX", "addr:street": "Hayes Road", "amenity": "hospital", "building": "yes", "emergency": "no", "fhrs:id": "966297", "healthcare": "hospital", "name": "Tŷ Hafan Children's Hospice", "ref:GB:uprn": "200002939505", "source:addr": "FHRS Open Data", "toilets:wheelchair": "yes", "wheelchair": "yes"}}, {"name": "Newton Abbot Community Hospital", "latitude": 50.5391842, "longitude": -3.6125136, "source": "osm", "_tags": {"addr:city": "Newton Abbot", "addr:postcode": "TQ12 2TS", "amenity": "hospital", "building": "hospital", "healthcare": "hospital", "name": "Newton Abbot Community Hospital", "nohousenumber": "yes", "source": "Bing", "source:postcode": "ons_opendata_postcodes"}}, {"name": "Mount Stuart Hospital", "latitude": 50.4751061, "longitude": -3.5416511, "source": "osm", "_tags": {"amenity": "hospital", "emergency": "no", "healthcare": "hospital", "name": "Mount Stuart Hospital", "wikidata": "Q22964879"}}, {"name": "Medical Centre", "latitude": 51.0387221, "longitude": -3.1551029, "source": "osm", "_tags": {"access": "private", "amenity": "hospital", "building": "hospital", "building:levels": "2", "healthcare": "hospital", "name": "Medical Centre", "operator": "Ministry of Defence", "roof:material": "slate", "roof:shape": "hipped"}}, {"name": "Royal Devon & Exeter Hospital (Wonford)", "latitude": 50.7174312, "longitude": -3.5059556, "source": "osm", "_tags": {"amenity": "hospital", "emergency": "yes", "healthcare": "hospital", "name": "Royal Devon & Exeter Hospital (Wonford)"}}, {"name": "The Woodmill", "latitude": 50.846914, "longitude": -3.3925754, "source": "osm", "_tags": {"addr:city": "Cullompton", "addr:postcode": "EX15 1EA", "addr:street": "Exeter Road", "amenity": "hospital", "emergency": "no", "fhrs:id": "8330", "healthcare": "hospital", "name": "The Woodmill", "source:addr": "FHRS Open Data"}}, {"name": "", "latitude": 50.5803238, "longitude": -3.4735359, "source": "osm", "_tags": {"amenity": "hospital", "healthcare": "hospital"}}, {"name": "Crediton Hospital (No A & E)", "latitude": 50.7920325, "longitude": -3.6738964, "source": "osm", "_tags": {"amenity": "hospital", "healthcare": "hospital", "name": "Crediton Hospital (No A & E)"}}, {"name": "Franklyn Hospital", "latitude": 50.7126089, "longitude": -3.5492754, "source": "osm", "_tags": {"addr:city": "Exeter", "addr:postcode": "EX2 9HS", "addr:street": "Franklyn Drive", "amenity": "hospital", "fhrs:id": "163588", "healthcare": "hospital", "name": "Franklyn Hospital", "phone": "+44 1392 674310 x300", "website": "https://www.nhs.uk/services/hospital/franklyn-community-hospital/RWV98", "wikidata": "Q26397920"}}, {"name": "Okehampton Community Hospital", "latitude": 50.7420061, "longitude": -3.9974549, "source": "osm", "_tags": {"amenity": "hospital", "healthcare": "hospital", "name": "Okehampton Community Hospital"}}, {"name": "Dene Barton Community Hospital", "latitude": 51.038548, "longitude": -3.1810977, "source": "osm", "_tags": {"addr:city": "Taunton", "addr:country": "GB", "addr:county": "Somerset", "addr:postcode": "TA4 1DE", "addr:street": "Dene Road", "addr:village": "Cotford St. Luke", "amenity": "hospital", "healthcare": "hospital", "name": "Dene Barton Community Hospital", "operator": "Somerset NHS Foundation Trust", "operator:wikidata": "Q96405998", "phone": "+44 1823 431930", "website": "https://www.nhs.uk/services/hospital/dene-barton-community-hospital/RH5G3"}}, {"name": "Wellington Community Hospital", "latitude": 50.9761173, "longitude": -3.2271827, "source": "osm", "_tags": {"addr:city": "Wellington", "addr:country": "GB", "addr:county": "Somerset", "addr:postcode": "TA21 8QQ", "addr:street": "Bulford", "amenity": "hospital", "fhrs:id": "141289", "healthcare": "hospital", "name": "Wellington Community Hospital", "source:addr": "FHRS Open Data"}}, {"name": "Torbay Hospital", "latitude": 50.4817898, "longitude": -3.5540363, "source": "osm", "_tags": {"amenity": "hospital", "emergency": "yes", "healthcare": "hospital", "name": "Torbay Hospital", "operator": "NHS", "operator:type": "public", "operator:wikidata": "Q918396", "ref:GB:cqc_location": "RA901", "ref:GB:nhs_ods": "RA901", "wikidata": "Q7825446", "wikipedia": "en:Torbay Hospital"}}, {"name": "Exmouth Hospital", "latitude": 50.6208786, "longitude": -3.4015855, "source": "osm", "_tags": {"amenity": "hospital", "name": "Exmouth Hospital"}}, {"name": "Langdon Hospital", "latitude": 50.6010529, "longitude": -3.4701845, "source": "osm", "_tags": {"addr:city": "Dawlish", "addr:postcode": "EX7 0NR", "addr:street": "Exeter Road", "amenity": "hospital", "healthcare": "hospital", "name": "Langdon Hospital", "phone": "+44 1626 888372"}}, {"name": "Williton Community Hospital", "latitude": 51.1628872, "longitude": -3.3231847, "source": "osm", "_tags": {"addr:city": "Taunton", "addr:country": "GB", "addr:county": "Somerset", "addr:postcode": "TA4 4RA", "addr:street": "North Road", "addr:village": "Williton", "amenity": "hospital", "fhrs:authority": "West Somerset", "fhrs:id": "161706", "fhrs:local_authority_id": "PI/000001790", "healthcare": "hospital", "name": "Williton Community Hospital", "operator": "NHS", "operator:wikidata": "Q918396", "phone": "+44 1984 635600"}}, {"name": "Honeylands Children Centre", "latitude": 50.731283, "longitude": -3.4964489, "source": "osm", "_tags": {"amenity": "hospital", "healthcare": "hospital", "name": "Honeylands Children Centre", "wikidata": "Q114940276", "wikipedia": "en:Honeylands"}}, {"name": "Exeter Community Hospital", "latitude": 50.7312964, "longitude": -3.4831766, "source": "osm", "_tags": {"addr:city": "Exeter", "addr:country": "GB", "addr:postcode": "EX1 3RB", "addr:street": "Hospital Lane", "amenity": "hospital", "healthcare": "hospital", "name": "Exeter Community Hospital"}}, {"name": "Wellesley Hospital", "latitude": 50.9791085, "longitude": -3.2058553, "source": "osm", "_tags": {"addr:city": "Wellington", "addr:country": "GB", "addr:county": "Somerset", "addr:postcode": "TA21 9FF", "addr:street": "West Park", "addr:suburb": "Chelston", "amenity": "hospital", "beds": "73", "email": "wellesley@elysiumhealthcare.co.uk", "emergency": "no", "fhrs:id": "975726", "healthcare": "hospital", "hospital:for": "mental_health", "name": "Wellesley Hospital", "not:addr:postcode": "TA21 9AD", "note": "Royal Mail and the hospital state the post code is \"TA21 9FF\", but FHRS lists it as \"TA21 9AD\", so I have added a \"not:addr:postcode\".", "operator": "Elysium Healthcare", "operator:type": "private", "operator:wikidata": "Q39086513", "phone": "+44 1823 668150", "source:addr": "FHRS Open Data", "website": "https://www.elysiumhealthcare.co.uk/location/wellesley-hospital/"}}, {"name": "South Molton Hospital", "latitude": 51.0167441, "longitude": -3.8383212, "source": "osm", "_tags": {"addr:city": "South Molton", "addr:postcode": "EX36 4DP", "addr:street": "Widgery Drive", "amenity": "hospital", "emergency": "no", "healthcare": "hospital", "name": "South Molton Hospital", "operator": "NHS", "operator:type": "public", "operator:wikidata": "Q918396"}}, {"name": "Teignmouth Hospital", "latitude": 50.5483402, "longitude": -3.5108238, "source": "osm", "_tags": {"addr:postcode": "TQ14 9BQ", "addr:street": "Mill Lane", "amenity": "hospital", "contact:phone": "+44 1626 772161", "emergency": "no", "healthcare": "hospital", "name": "Teignmouth Hospital", "opening_hours": "Mo-Fr 08:30-17:00"}}, {"name": "Pinhoe View", "latitude": 50.7313071, "longitude": -3.4692698, "source": "osm", "_tags": {"addr:city": "Exeter", "addr:housename": "Pinhoe View", "addr:postcode": "EX1 3PZ", "addr:street": "College Way", "amenity": "hospital", "beds": "16", "emergency": "no", "healthcare": "hospital", "name": "Pinhoe View", "operator": "Elysium Healthcare", "website": "https://www.elysiumhealthcare.co.uk/location/pinhoe-view-2/"}}, {"name": "Pine Lodge", "latitude": 50.9111244, "longitude": -3.4447186, "source": "osm", "_tags": {"amenity": "hospital", "building": "yes", "name": "Pine Lodge"}}, {"name": "Wellesley Hospital 2", "latitude": 50.9793698, "longitude": -3.2046302, "source": "osm", "_tags": {"addr:city": "Wellington", "addr:country": "GB", "addr:county": "Somerset", "addr:postcode": "TA21 9FF", "addr:street": "West Park", "addr:suburb": "Chelston", "amenity": "hospital", "beds": "30", "developer": "Montpelier Estates", "email": "wellesley@elysiumhealthcare.co.uk", "emergency": "no", "fhrs:id": "975726", "healthcare": "hospital", "hospital:for": "mental_health", "name": "Wellesley Hospital 2", "not:addr:postcode": "TA21 9AD", "note": "Royal Mail and the hospital state the post code is \"TA21 9FF\", but FHRS lists it as \"TA21 9AD\", so I have added a \"not:addr:postcode\".", "operator": "Elysium Healthcare", "operator:type": "private", "operator:wikidata": "Q39086513", "phone": "+44 1823 668150", "source:addr": "FHRS Open Data", "source:name": "sign", "website": "https://www.elysiumhealthcare.co.uk/location/wellesley-hospital/"}}, {"name": "NHS Nightingale Hospital", "latitude": 50.7232417, "longitude": -3.4664588, "source": "osm", "_tags": {"addr:city": "Exeter", "addr:postcode": "EX2 7JG", "addr:street": "Moor Lane", "amenity": "hospital", "healthcare": "hospital", "name": "NHS Nightingale Hospital", "operator": "NHS", "operator:wikidata": "Q918396", "website": "https://nightingale-exeter.nhs.uk/"}}, {"name": "North Devon District Hospital", "latitude": 51.0917158, "longitude": -4.0506535, "source": "osm", "_tags": {"amenity": "hospital", "emergency": "yes", "healthcare": "hospital", "name": "North Devon District Hospital", "wikidata": "Q7055120", "wikipedia": "en:North Devon District Hospital"}}, {"name": "Newton Abbot Community Hospital", "latitude": 50.5394246, "longitude": -3.6134386, "source": "osm", "_tags": {"addr:city": "Newton Abbot", "addr:postcode": "TQ12 2TS", "amenity": "hospital", "building": "hospital", "healthcare": "hospital", "name": "Newton Abbot Community Hospital", "nohousenumber": "yes", "source": "Bing", "source:postcode": "ons_opendata_postcodes"}}, {"name": "Wonford House Hospital", "latitude": 50.7150324, "longitude": -3.5051691, "source": "osm", "_tags": {"amenity": "hospital", "healthcare": "hospital", "name": "Wonford House Hospital", "type": "multipolygon"}}]