[{"name": "St. Martinus", "latitude": 51.2115753, "longitude": 6.7606506, "source": "osm", "_tags": {"amenity": "hospital", "check_date": "2025-01-06", "fixme": "Genau Fläche vom Gelände fehlt. Und dann Krankenhaus als Fläche einzeichnen", "healthcare": "hospital", "name": "St. Martinus", "wheelchair": "limited"}}, {"name": "Privatklinik Eschweiler", "latitude": 50.8183212, "longitude": 6.2385482, "source": "osm", "_tags": {"addr:city": "Eschweiler", "addr:housenumber": "59", "addr:postcode": "52249", "addr:street": "Röher Straße", "amenity": "hospital", "check_date": "2025-03-01", "contact:email": "info@privatklinik-eschweiler.de", "contact:fax": "+49 2403 789 156", "contact:phone": "+49 2403 789 10", "contact:website": "https://www.privatklinik-eschweiler.de", "healthcare": "hospital", "healthcare:speciality": "psychiatry", "image": "https://www.privatklinik-eschweiler.de/wp-content/uploads/privatklinik-echweiler-logo-300-200x256.jpg", "name": "Privatklinik Eschweiler", "old_name": "Röher Parkklinik", "operator": "Privatklinik Eschweiler GmbH", "operator:type": "business", "website": "https://www.privatklinik-eschweiler.de", "wheelchair": "yes"}}, {"name": "Privatklinik Prof. Lenz", "latitude": 50.9364373, "longitude": 6.7748579, "source": "osm", "_tags": {"amenity": "hospital", "name": "Privatklinik Prof. Lenz"}}, {"name": "Krankenhaus Elbroich - Tagesklinik für Psychiatrie und Psychotherapie", "latitude": 51.1941919, "longitude": 6.8111248, "source": "osm", "_tags": {"amenity": "hospital", "healthcare": "hospital", "name": "Krankenhaus Elbroich - Tagesklinik für Psychiatrie und Psychotherapie"}}, {"name": "Florence-Nightingale-Krankenhaus", "latitude": 51.3003466, "longitude": 6.7493957, "source": "osm", "_tags": {"amenity": "hospital", "emergency": "yes", "fax": "+49 211 409-2111", "healthcare": "hospital", "name": "Florence-Nightingale-Krankenhaus", "opening_hours": "24/7", "operator": "Kaiserswerther Diakonie", "phone": "+49 211 409-0", "website": "https://www.florence-nightingale-krankenhaus.de/", "wheelchair": "yes"}}, {"name": "Krankenhaus Elbroich", "latitude": 51.1745154, "longitude": 6.8249818, "source": "osm", "_tags": {"addr:city": "Düsseldorf", "addr:country": "DE", "addr:housenumber": "6", "addr:postcode": "40589", "addr:street": "Am Falder", "amenity": "hospital", "email": "info@krankenhaus-elbroich.de", "fax": "+49 211 7560109", "healthcare": "hospital", "name": "Krankenhaus Elbroich", "phone": "+49 211 75600", "website": "https://www.krankenhaus-elbroich.de/", "wheelchair": "yes"}}, {"name": "Luisenkrankenhaus", "latitude": 51.2347233, "longitude": 6.8208559, "source": "osm", "_tags": {"addr:city": "Düsseldorf", "addr:country": "DE", "addr:housenumber": "6-10", "addr:postcode": "40235", "addr:street": "Luise-Rainer-Straße", "amenity": "hospital", "fax": "+49 211 4477 4499", "healthcare": "hospital", "name": "Luisenkrankenhaus", "operator": "Luisenkrankenhaus GmbH", "phone": "+49 211 4477 1000", "toilets:wheelchair": "yes", "website": "https://www.medical-center-duesseldorf.de/luisenkrankenhaus-2", "wheelchair": "yes"}}, {"name": "Grafental Klinik", "latitude": 51.2345078, "longitude": 6.8208326, "source": "osm", "_tags": {"addr:city": "Düsseldorf", "addr:country": "DE", "addr:housenumber": "6-10", "addr:postcode": "40235", "addr:street": "Luise-Rainer-Straße", "amenity": "hospital", "healthcare": "hospital", "healthcare:speciality": "orthopaedics;gynaecology;surgery", "name": "Grafental Klinik", "website": "https://www.grafental-klinik.de"}}, {"name": "Hospital zum Hl. Geist", "latitude": 51.3630017, "longitude": 6.4116776, "source": "osm", "_tags": {"amenity": "hospital", "healthcare": "hospital", "name": "Hospital zum Hl. Geist", "wheelchair": "yes"}}, {"name": "Notaufnahme liegend", "latitude": 51.3810848, "longitude": 6.7854008, "source": "osm", "_tags": {"amenity": "hospital", "emergency": "yes", "healthcare": "hospital", "healthcare:speciality": "emergency", "name": "Notaufnahme liegend", "operator": "BG Klinik Duisburg", "wheelchair": "yes"}}, {"name": "Phoniatrie, Pädaudiologie, Klinikseelsorge", "latitude": 51.1982136, "longitude": 6.7912367, "source": "osm", "_tags": {"amenity": "hospital", "fixme": "position", "healthcare": "hospital", "name": "Phoniatrie, Pädaudiologie, Klinikseelsorge", "operator": "UKD"}}, {"name": "ME 04", "latitude": 51.1950912, "longitude": 6.790161, "source": "osm", "_tags": {"addr:city": "Düsseldorf", "addr:housenumber": "5", "addr:postcode": "40225", "addr:street": "Moorenstraße", "amenity": "hospital", "emergency": "no", "healthcare": "hospital", "name": "ME 04", "operator": "UKD"}}, {"name": "KMT", "latitude": 51.1950552, "longitude": 6.7901781, "source": "osm", "_tags": {"addr:city": "Düsseldorf", "addr:housenumber": "5", "addr:postcode": "40225", "addr:street": "Moorenstraße", "amenity": "hospital", "emergency": "no", "healthcare": "hospital", "name": "KMT", "operator": "UKD"}}, {"name": "AOZ Ambulantes Operatives Zentrum", "latitude": 51.1982379, "longitude": 6.7892364, "source": "osm", "_tags": {"addr:city": "Düsseldorf", "addr:housenumber": "5", "addr:postcode": "40225", "addr:street": "Moorenstraße", "amenity": "hospital", "check_date": "2024-10-28", "emergency": "no", "healthcare": "hospital", "name": "AOZ Ambulantes Operatives Zentrum", "operator": "UKD", "operator:type": "university"}}, {"name": "IAC Interdisziplinäres ambulantes Chemotherapiezentrum", "latitude": 51.1984772, "longitude": 6.7900967, "source": "osm", "_tags": {"addr:city": "Düsseldorf", "addr:housenumber": "5", "addr:postcode": "40225", "addr:street": "Moorenstraße", "amenity": "hospital", "check_date": "2024-10-28", "emergency": "no", "healthcare": "hospital", "name": "IAC Interdisziplinäres ambulantes Chemotherapiezentrum", "operator": "UKD", "operator:type": "university"}}, {"name": "Schmerzambulanz 13.72", "latitude": 51.1980794, "longitude": 6.7894339, "source": "osm", "_tags": {"addr:city": "Düsseldorf", "addr:housenumber": "5", "addr:postcode": "40225", "addr:street": "Moorenstraße", "amenity": "hospital", "check_date": "2024-10-28", "emergency": "no", "healthcare": "hospital", "name": "Schmerzambulanz 13.72", "operator": "UKD", "operator:type": "university"}}, {"name": "UNIKID Kinderwunschzentrum 14.75 13.72", "latitude": 51.1983798, "longitude": 6.790884, "source": "osm", "_tags": {"addr:city": "Düsseldorf", "addr:housenumber": "5", "addr:postcode": "40225", "addr:street": "Moorenstraße", "amenity": "hospital", "check_date": "2024-10-28", "emergency": "no", "healthcare": "hospital", "name": "UNIKID Kinderwunschzentrum 14.75 13.72", "operator": "UKD", "operator:type": "university"}}, {"name": "Phoniatrie und Pädaudiologie 13.77", "latitude": 51.1978519, "longitude": 6.7914614, "source": "osm", "_tags": {"addr:city": "Düsseldorf", "addr:housenumber": "5", "addr:postcode": "40225", "addr:street": "Moorenstraße", "amenity": "hospital", "check_date": "2024-10-28", "emergency": "no", "healthcare": "hospital", "name": "Phoniatrie und Pädaudiologie 13.77", "operator": "UKD", "operator:type": "university"}}, {"name": "Städtische Kliniken Mönchengladbach GmbH Elisabeth-Krankenhaus Rheydt", "latitude": 51.1581384, "longitude": 6.4186197, "source": "osm", "_tags": {"amenity": "hospital", "emergency": "yes", "healthcare": "hospital", "name": "Städtische Kliniken Mönchengladbach GmbH Elisabeth-Krankenhaus Rheydt", "toilets:wheelchair": "yes", "website": "https://www.sk-mg.de/", "wheelchair": "yes", "wikidata": "Q1686084", "wikipedia": "de:Städtische Kliniken Mönchengladbach"}}, {"name": "LVR-Klinikum Düsseldorf für Psychiatrie und Psychotherapie", "latitude": 51.2437226, "longitude": 6.8442609, "source": "osm", "_tags": {"addr:city": "Düsseldorf", "addr:country": "DE", "addr:housenumber": "2", "addr:postcode": "40629", "addr:street": "Bergische Landstraße", "amenity": "hospital", "healthcare": "hospital", "healthcare:speciality": "psychiatry", "name": "LVR-Klinikum Düsseldorf für Psychiatrie und Psychotherapie", "name:en": "\"LVR-Klinikum Düsseldorf\", hospital for Psychiatry and Psychotherapy", "url": "http://www.klinikum-duesseldorf.lvr.de/", "wheelchair": "limited", "wikidata": "Q20180497", "wikimedia_commons": "Category:LVR-Klinikum Düsseldorf"}}, {"name": "Lukaskrankenhaus", "latitude": 51.1915587, "longitude": 6.6719386, "source": "osm", "_tags": {"addr:city": "Neuss", "addr:country": "DE", "addr:housenumber": "84", "addr:postcode": "41464", "addr:street": "Preußenstraße", "amenity": "hospital", "contact:email": "information@lukasneuss.de", "contact:fax": "+49 2131 888-7999", "contact:phone": "+49 2131 888-0", "contact:website": "https://www.lukasneuss.de/", "emergency": "yes", "healthcare": "hospital", "name": "Lukaskrankenhaus", "official_name": "Städtische Kliniken Neuss -Lukaskrankenhaus- GmbH", "operator": "Rheinland Klinikum Neuss GmbH", "wheelchair": "yes", "wikidata": "Q1877016", "wikimedia_commons": "Category:Lukaskrankenhaus Neuss", "wikipedia": "de:Lukaskrankenhaus Neuss"}}, {"name": "Sana Kliniken Düsseldorf Gerresheim", "latitude": 51.24332, "longitude": 6.855374, "source": "osm", "_tags": {"addr:city": "Düsseldorf", "addr:country": "DE", "addr:housenumber": "120", "addr:postcode": "40625", "addr:street": "Gräulinger Straße", "amenity": "hospital", "healthcare": "hospital", "name": "Sana Kliniken Düsseldorf Gerresheim", "operator": "Sana Kliniken", "operator:wikidata": "Q2220152", "website": "https://www.sana-gerresheim.de/", "wheelchair": "yes"}}, {"name": "GFO Klinik Brühl - Marienhospital", "latitude": 50.8273822, "longitude": 6.9004652, "source": "osm", "_tags": {"addr:city": "Brühl", "addr:country": "DE", "addr:housenumber": "21-25", "addr:postcode": "50321", "addr:street": "Mühlenstraße", "amenity": "hospital", "emergency": "yes", "healthcare": "hospital", "name": "GFO Klinik Brühl - Marienhospital", "operator": "Gemeinnützige Gesellschaft der Franziskanerinnen zu Olpe mbH (GFO)", "phone": "+49 2232 74 0", "ref": "Marienhospital", "short_name": "Marienhospital", "website": "https://klinik-bruehl.gfo-online.de/", "wheelchair": "yes"}}, {"name": "Bethlehem Gesundheitszentrum", "latitude": 50.7727068, "longitude": 6.2289172, "source": "osm", "_tags": {"amenity": "hospital", "check_date": "2024-10-04", "contact:email": "zentrale@bethlehem.de", "contact:fax": "+49 2402 107-4180", "contact:phone": "+49 2402 107-0", "contact:website": "https://www.bethlehem.de/", "emergency": "yes", "healthcare": "hospital", "name": "Bethlehem Gesundheitszentrum", "official_name": "Bethlehem Gesundheitszentrum Stolberg", "toilets:wheelchair": "yes", "wheelchair": "yes", "wikidata": "Q831329", "wikimedia_commons": "Category:Bethlehem Gesundheitszentrum Stolberg", "wikipedia": "de:Bethlehem Gesundheitszentrum Stolberg"}}, {"name": "Marien-Hospital Euskirchen", "latitude": 50.6424263, "longitude": 6.7910058, "source": "osm", "_tags": {"amenity": "hospital", "check_date": "2024-08-29", "contact:email": "info@marien-hospital.com", "contact:facebook": "https://www.facebook.com/Stiftung.Marien.Hospital.Euskirchen/", "contact:fax": "+49 2251 901092", "contact:phone": "+49 2251 900", "contact:website": "https://www.marien-hospital.com/", "emergency": "yes", "healthcare": "hospital", "name": "Marien-Hospital Euskirchen"}}, {"name": "MEDIAN Klinik Dormagen", "latitude": 51.099723, "longitude": 6.8161483, "source": "osm", "_tags": {"addr:city": "Dormagen", "addr:country": "DE", "addr:housenumber": "4", "addr:postcode": "41539", "addr:street": "Kurt-Tucholsky-Straße", "amenity": "hospital", "building": "yes", "fax": "+49 2133 2660-262", "healthcare": "hospital", "name": "MEDIAN Klinik Dormagen", "phone": "+49 2133 2660-0", "website": "https://www.median-kliniken.de/"}}, {"name": "Universitätsklinikum Köln", "latitude": 50.9251984, "longitude": 6.919302, "source": "osm", "_tags": {"amenity": "hospital", "emergency": "yes", "healthcare": "hospital", "name": "Universitätsklinikum Köln", "old_name": "Lindenburg", "operator:type": "public", "short_name": "Uniklinik Köln", "toilets:wheelchair": "yes", "website": "https://www.uk-koeln.de/", "wheelchair": "yes", "wikidata": "Q2494398", "wikimedia_commons": "Category:Uniklinik Köln", "wikipedia": "de:Universitätsklinikum Köln"}}, {"name": "Sankt Antonius Hospital", "latitude": 50.8184661, "longitude": 6.2642569, "source": "osm", "_tags": {"addr:city": "Eschweiler", "addr:housenumber": "8", "addr:postcode": "52249", "addr:street": "Dechant-Deckers-Straße", "amenity": "hospital", "building": "hospital", "emergency": "yes", "healthcare": "hospital", "name": "Sankt Antonius Hospital", "source": "historical", "website": "https://www.sah-eschweiler.de/", "wheelchair": "yes", "wikidata": "Q2315962", "wikimedia_commons": "Category:St.-Antonius-Hospital Eschweiler", "wikipedia": "de:St.-Antonius-Hospital Eschweiler"}}, {"name": "LVR-Klinik Viersen", "latitude": 51.2911266, "longitude": 6.3550015, "source": "osm", "_tags": {"amenity": "hospital", "healthcare": "hospital", "name": "LVR-Klinik Viersen", "website": "http://www.klinik-viersen.lvr.de", "wheelchair": "yes"}}, {"name": "Evangelisches Krankenhaus Bethesda", "latitude": 51.1990776, "longitude": 6.4246818, "source": "osm", "_tags": {"amenity": "hospital", "healthcare": "hospital", "name": "Evangelisches Krankenhaus Bethesda", "wheelchair": "yes"}}, {"name": "LVR Klinik Mönchengladbach", "latitude": 51.1712076, "longitude": 6.4372446, "source": "osm", "_tags": {"amenity": "hospital", "healthcare": "hospital", "name": "LVR Klinik Mönchengladbach", "toilets:wheelchair": "yes", "website": "https://klinik-moenchengladbach.lvr.de/de/nav_main/startseite.html", "wheelchair": "yes"}}, {"name": "Rhein-Maas Klinikum", "latitude": 50.8146199, "longitude": 6.14266, "source": "osm", "_tags": {"amenity": "hospital", "contact:phone": "+49 2405 620", "contact:website": "https://www.rheinmaasklinikum.de/", "emergency": "yes", "healthcare": "hospital", "name": "Rhein-Maas Klinikum", "operator": "Rhein-Maas Klinikum GmbH"}}, {"name": "Landschaftsverband Rheinland - Klinik Düren", "latitude": 50.8169127, "longitude": 6.4829758, "source": "osm", "_tags": {"addr:city": "Düren", "addr:country": "DE", "addr:housenumber": "15", "addr:postcode": "52353", "addr:street": "Meckerstraße", "amenity": "hospital", "healthcare": "hospital", "name": "Landschaftsverband Rheinland - Klinik Düren", "old_name": "Provinzial Heil- und Pflegeanstalt", "operator": "Landschaftsverband Rheinland", "website": "https://klinik-dueren.lvr.de/", "wikidata": "Q1798442", "wikimedia_commons": "Category:LVR-Klinik Düren", "wikipedia": "de:LVR-Klinik Düren"}}, {"name": "Krankenhaus Düren", "latitude": 50.8081304, "longitude": 6.4978276, "source": "osm", "_tags": {"addr:city": "Düren", "addr:country": "DE", "addr:housenumber": "30", "addr:postcode": "52351", "addr:street": "Roonstraße", "amenity": "hospital", "email": "info@krankenhaus-dueren.de", "emergency": "yes", "fax": "+49 2421 301387", "healthcare": "hospital", "name": "Krankenhaus Düren", "phone": "+49 2421 300", "website": "https://www.krankenhaus-dueren.de/", "wheelchair": "yes", "wikidata": "Q1786532", "wikimedia_commons": "Category:Krankenhaus Düren", "wikipedia": "de:Krankenhaus Düren"}}, {"name": "Paracelsus-Klinik Golzheim", "latitude": 51.2544319, "longitude": 6.7595047, "source": "osm", "_tags": {"addr:city": "Düsseldorf", "addr:country": "DE", "addr:housenumber": "11", "addr:postcode": "40474", "addr:street": "Friedrich-Lau-Straße", "amenity": "hospital", "fax": "+49 211 4380987", "healthcare": "hospital", "name": "Paracelsus-Klinik Golzheim", "phone": "+49 211 4386 0", "source": "survey, yahoo", "website": "https://www.paracelsus-kliniken.de/duesseldorf.html", "wheelchair": "limited", "wikidata": "Q56582996"}}, {"name": "St. Mauritius Therapieklinik", "latitude": 51.2795469, "longitude": 6.6277459, "source": "osm", "_tags": {"amenity": "hospital", "contact:email": "info@stmtk.de", "contact:fax": "+49 2159 6791566", "contact:phone": "+49 2159 6790", "contact:website": "http://www.stmtk.de", "healthcare": "hospital", "name": "St. Mauritius Therapieklinik", "toilets:wheelchair": "yes", "wheelchair": "yes"}}, {"name": "St. Marienhospital Birkesdorf", "latitude": 50.8223937, "longitude": 6.4668872, "source": "osm", "_tags": {"addr:city": "Düren", "addr:country": "DE", "addr:housenumber": "44", "addr:postcode": "52353", "addr:street": "Hospitalstraße", "amenity": "hospital", "building": "hospital", "email": "info.smh-dn@ct-west.de", "emergency": "yes", "fax": "+49 2421 805 575", "healthcare": "hospital", "name": "St. Marienhospital Birkesdorf", "opening_hours": "24/7", "phone": "+49 2421 805 0", "website": "https://www.marien-hospital-dueren.de/", "wheelchair": "yes", "wikidata": "Q2320768", "wikipedia": "de:St. Marien-Hospital (Birkesdorf)"}}, {"name": "Luisenhospital", "latitude": 50.7676232, "longitude": 6.0764444, "source": "osm", "_tags": {"addr:city": "Aachen", "addr:country": "DE", "addr:housenumber": "99", "addr:postcode": "52064", "addr:street": "Boxgraben", "amenity": "hospital", "building": "hospital", "building:levels": "9", "emergency": "yes", "healthcare": "hospital", "name": "Luisenhospital", "roof:levels": "0", "website": "https://www.luisenhospital.de/", "wheelchair": "yes", "wikidata": "Q1876710", "wikimedia_commons": "Category:Luisenhospital Aachen", "wikipedia": "de:Luisenhospital Aachen"}}, {"name": "Marienhospital", "latitude": 50.7626072, "longitude": 6.0948822, "source": "osm", "_tags": {"addr:city": "Aachen", "addr:country": "DE", "addr:housenumber": "4", "addr:postcode": "52066", "addr:street": "Zeise", "amenity": "hospital", "building": "hospital", "emergency": "yes", "healthcare": "hospital", "name": "Marienhospital", "phone": "+49 241 6006 0", "toilets:wheelchair": "yes", "website": "https://www.marienhospital.de/", "wheelchair": "yes", "wikidata": "Q1897712", "wikimedia_commons": "Category:Marienhospital Aachen", "wikipedia": "de:Marienhospital Aachen"}}, {"name": "St.-Katharinen - Hospital", "latitude": 50.9228673, "longitude": 6.8096778, "source": "osm", "_tags": {"amenity": "hospital", "building": "hospital", "emergency": "yes", "healthcare": "hospital", "name": "St.-Katharinen - Hospital", "wheelchair": "yes", "wikidata": "Q15129135", "wikimedia_commons": "Category:St. Katharinen-Hospital Frechen"}}, {"name": "Helios St. Josefshospital Uerdingen", "latitude": 51.3524293, "longitude": 6.6481433, "source": "osm", "_tags": {"addr:city": "Krefeld", "addr:country": "DE", "addr:housenumber": "69", "addr:postcode": "47829", "addr:street": "Kurfürstenstraße", "amenity": "hospital", "building": "hospital", "healthcare": "hospital", "name": "Helios St. Josefshospital Uerdingen", "operator": "Helios Kliniken", "operator:wikidata": "Q1254151", "website": "https://www.helios-gesundheit.de/standorte-angebote/kliniken/krefeld-uerdingen/", "wheelchair": "yes"}}, {"name": "St. Elisabeth-Krankenhaus Geilenkirchen", "latitude": 50.9657287, "longitude": 6.1237685, "source": "osm", "_tags": {"amenity": "hospital", "contact:email": "info@krankenhaus-geilenkirchen.de", "contact:fax": "+49 2451 622-380", "contact:phone": "+49 2451 622-0", "contact:website": "https://krankenhaus-geilenkirchen.de", "emergency": "yes", "healthcare": "hospital", "name": "St. Elisabeth-Krankenhaus Geilenkirchen", "opening_hours": "24/7", "operator": "St. Elisabeth-Krankenhaus Geilenkirchen gemeinnützige Gesellschaft mbH", "wikidata": "Q2318059", "wikipedia": "de:St. Elisabeth-Krankenhaus Geilenkirchen"}}, {"name": "St. Hildegardis Krankenhaus", "latitude": 50.9318445, "longitude": 6.9238012, "source": "osm", "_tags": {"amenity": "hospital", "emergency": "yes", "healthcare": "hospital", "name": "St. Hildegardis Krankenhaus", "ref": "Malteser Krankenhaus St Hildegardis", "toilets:wheelchair": "yes", "wheelchair": "yes"}}, {"name": "Fachklinik für Suchterkrankungen", "latitude": 50.8856793, "longitude": 6.8680309, "source": "osm", "_tags": {"addr:city": "Hürth", "addr:housenumber": "1", "addr:postcode": "50354", "addr:street": "Willy-Brandt-Platz", "building": "hospital", "healthcare": "hospital", "name": "Fachklinik für Suchterkrankungen"}}, {"name": "Marien Hospital Düsseldorf", "latitude": 51.2359753, "longitude": 6.7855856, "source": "osm", "_tags": {"addr:city": "Düsseldorf", "addr:country": "DE", "addr:housenumber": "2", "addr:postcode": "40479", "addr:street": "Rochusstraße", "amenity": "hospital", "contact:email": "info@marien-hospital.de", "contact:fax": "+49 211 442610", "contact:phone": "+49 211 44 000", "contact:website": "https://www.marien-hospital.de/", "healthcare": "hospital", "name": "Marien Hospital Düsseldorf", "source:outline": "NRW-Kataster", "toilets:wheelchair": "yes", "wheelchair": "yes", "wikidata": "Q30260541", "wikipedia": "de:Marien-Hospital Düsseldorf"}}, {"name": "Krankenhaus Maria-Hilf", "latitude": 51.3254581, "longitude": 6.5858315, "source": "osm", "_tags": {"addr:city": "Krefeld", "addr:country": "DE", "addr:housenumber": "94", "addr:street": "Oberdießemer Straße", "amenity": "hospital", "healthcare": "hospital", "name": "Krankenhaus Maria-Hilf", "phone": "+49-2151-3340", "toilets:wheelchair": "yes", "website": "https://www.maria-hilf.de/", "wheelchair": "yes", "wikidata": "Q44444892"}}, {"name": "Helios Klinikum Krefeld", "latitude": 51.3206185, "longitude": 6.5675991, "source": "osm", "_tags": {"amenity": "hospital", "healthcare": "hospital", "name": "Helios Klinikum Krefeld", "operator": "Helios Kliniken", "operator:wikidata": "Q1254151", "operator:wikipedia": "de:Helios Kliniken", "toilets:wheelchair": "yes", "wheelchair": "yes"}}, {"name": "Klinik im Park", "latitude": 51.1643533, "longitude": 6.9383058, "source": "osm", "_tags": {"addr:city": "Hilden", "addr:housenumber": "37", "addr:postcode": "40721", "addr:street": "Hagelkreuzstraße", "amenity": "hospital", "healthcare": "hospital", "name": "Klinik im Park", "operator": "Remigius Klinik im Park GmbH", "website": "https://remigius-klinikimpark.de/", "wikidata": "Q50038305"}}, {"name": "St. Vinzenz-Krankenhaus", "latitude": 51.2424958, "longitude": 6.7913819, "source": "osm", "_tags": {"addr:city": "Düsseldorf", "addr:country": "DE", "addr:housenumber": "85", "addr:postcode": "40477", "addr:street": "Schloßstraße", "amenity": "hospital", "healthcare": "hospital", "name": "St. Vinzenz-Krankenhaus", "toilets:wheelchair": "yes", "wheelchair": "yes", "wheelchair:description": "Zwar ebenerdig, Aufzüge vorhanden - aber:nur schwere Türen ohne elektrische Türöffner, nur 1 Rollstuhltoilette auf Station. A1 und eine in Cafeterianähe im Nebengebäude fürs gesamte Krankenhaus"}}, {"name": "Helios St. Anna Klinik", "latitude": 51.3648723, "longitude": 6.7548584, "source": "osm", "_tags": {"addr:city": "Duisburg", "addr:country": "DE", "addr:housenumber": "33", "addr:postcode": "47259", "addr:street": "Albertus-Magnus-Straße", "amenity": "hospital", "contact:email": "krankenhaus.duisburg@malteser.org", "contact:fax": "+49 203 755 1606", "contact:phone": "+49 203 755 0", "contact:website": "https://www.helios-gesundheit.de/kliniken/duisburg-anna/", "description": "Auf dem Gelände befindet sich noch das Malteser Hospiz St. Raphael das unter Leitung der Malteser geblieben ist.", "emergency": "yes", "healthcare": "hospital", "name": "Helios St. Anna Klinik", "operator": "Helios Kliniken", "operator:wikidata": "Q1254151", "wheelchair": "yes", "wikidata": "Q1786547"}}, {"name": "Uniklinik RWTH Aachen: Phoniatrie, Psychiatrische Tagesklinik für Erwachsene und Institutsambulanz", "latitude": 50.7743789, "longitude": 6.0430355, "source": "osm", "_tags": {"addr:city": "Aachen", "addr:housenumber": "52", "addr:postcode": "52074", "addr:street": "Kullenhofstraße", "amenity": "hospital", "building": "yes", "healthcare": "hospital", "name": "Uniklinik RWTH Aachen: Phoniatrie, Psychiatrische Tagesklinik für Erwachsene und Institutsambulanz"}}, {"name": "BG Klinikum Duisburg", "latitude": 51.3806975, "longitude": 6.7846759, "source": "osm", "_tags": {"addr:city": "Duisburg", "addr:housenumber": "260", "addr:postcode": "47249", "addr:street": "Großenbaumer Allee", "amenity": "hospital", "emergency": "yes", "healthcare": "hospital", "healthcare:speciality": "emergency", "name": "BG Klinikum Duisburg", "operator": "BG Kliniken", "operator:wikidata": "Q27074262", "operator:wikipedia": "de:BG Kliniken", "phone": "+49 203 7688-0", "toilets:wheelchair": "yes", "website": "http://www.bgu-duisburg.de/", "wheelchair": "yes"}}, {"name": "Kreiskrankenhaus Grevenbroich St. Elisabeth", "latitude": 51.0910803, "longitude": 6.5937835, "source": "osm", "_tags": {"addr:city": "Grevenbroich", "addr:country": "DE", "addr:housenumber": "5", "addr:postcode": "41515", "addr:street": "Von-Werth-Straße", "alt_name": "Kreiskrankenhaus Grevenbroich – St. Elisabeth –", "amenity": "hospital", "email": "info.gv@kkh-ne.de", "fax": "+49 2181 6005103", "name": "Kreiskrankenhaus Grevenbroich St. Elisabeth", "operator": "Rhein-Kreis Neuss", "phone": "+49 2181 6001", "website": "http://gv.rkn-kliniken.de/", "wheelchair": "yes", "wikidata": "Q1450039"}}, {"name": "Sana Krankenhaus Benrath", "latitude": 51.1523406, "longitude": 6.8717482, "source": "osm", "_tags": {"amenity": "hospital", "email": "info@sana-duesseldorf.de", "emergency": "yes", "fax": "+49 211 9971930", "health_facility:type": "hospital", "healthcare": "hospital", "medical_system:western": "yes", "name": "Sana Krankenhaus Benrath", "operator": "Sana Kliniken Düsseldorf GmbH, Gräulinger Straße 120, 40625 Düsseldorf", "phone": "+49 211 99702", "website": "https://www.sana-benrath.de/", "wikidata": "Q125860369", "wikipedia": "de:Sana Krankenhaus Benrath"}}, {"name": "Kliniken Maria Hilf GmbH", "latitude": 51.2190284, "longitude": 6.4202787, "source": "osm", "_tags": {"alt_name": "Krankenhaus St. Franziskus", "amenity": "hospital", "email": "info@mariahilf.de", "healthcare": "hospital", "name": "Kliniken Maria Hilf GmbH", "operator": "Kliniken Maria Hilf GmbH", "phone": "+49 2161 8920", "toilets:wheelchair": "yes", "website": "https://mariahilf.de/", "wheelchair": "yes"}}, {"name": "Tagesklinik Bedburg", "latitude": 50.9987685, "longitude": 6.577229, "source": "osm", "_tags": {"addr:city": "Bedburg", "addr:country": "DE", "addr:housenumber": "1", "addr:postcode": "50181", "addr:street": "Augustinerallee", "amenity": "hospital", "building": "hospital", "name": "Tagesklinik Bedburg", "operator": "Landschaftsverband Rheinland"}}, {"name": "Fliedner Krankenhaus Ratingen", "latitude": 51.3334884, "longitude": 6.8186108, "source": "osm", "_tags": {"amenity": "hospital", "contact:email": "info.krankenhaus@fliedner.de", "contact:fax": "+49 2102 303-285", "contact:phone": "+49 2102 303-0", "contact:website": "https://www.krankenhaus.fliedner.de", "healthcare": "hospital", "name": "Fliedner Krankenhaus Ratingen"}}, {"name": "Niederrhein-Klinik Korschenbroich", "latitude": 51.1922557, "longitude": 6.5195938, "source": "osm", "_tags": {"addr:city": "Korschenbroich", "addr:country": "DE", "addr:housenumber": "22-24", "addr:postcode": "41352", "addr:street": "Regentenstraße", "amenity": "hospital", "building": "hospital", "fax": "+49 2161 979222", "healthcare": "hospital", "name": "Niederrhein-Klinik Korschenbroich", "phone": "+49 2161 9790", "website": "https://www.niederrhein-klinik.de/", "wheelchair": "yes"}}, {"name": "St. Elisabeth-Hospital", "latitude": 51.3044348, "longitude": 6.6767774, "source": "osm", "_tags": {"addr:city": "Meerbusch", "addr:country": "DE", "addr:housenumber": "74-76", "addr:postcode": "40668", "addr:street": "Hauptstraße", "amenity": "hospital", "contact:email": "info@rrz-meerbusch.de", "contact:fax": "+49 2150 917-111", "contact:phone": "+49 2150 917-0", "contact:website": "https://www.rrz-meerbusch.de/", "healthcare": "hospital", "name": "St. Elisabeth-Hospital", "operator": "St. Franziskus-Stiftung Münster", "operator:wikidata": "Q2318238", "ref:vatin": "DE315572429"}}, {"name": "Gut Großer Neuenhof - Klinik für Kinder- und Jugendpsychiatrie", "latitude": 50.7721299, "longitude": 6.0429705, "source": "osm", "_tags": {"addr:city": "Aachen", "addr:country": "DE", "addr:housenumber": "21", "addr:postcode": "52074", "addr:street": "Neuenhofer Weg", "amenity": "hospital", "healthcare": "hospital", "name": "Gut Großer Neuenhof - Klinik für Kinder- und Jugendpsychiatrie", "operator": "Uniklinik RWTH Aachen", "wheelchair": "yes"}}, {"name": "Augusta Krankenhaus", "latitude": 51.2668595, "longitude": 6.8246961, "source": "osm", "_tags": {"addr:city": "Düsseldorf", "addr:country": "DE", "addr:housenumber": "9", "addr:postcode": "40472", "addr:street": "Amalienstraße", "amenity": "hospital", "email": "info@augusta-duesseldorf.de", "fax": "+49 211 9043190", "healthcare": "hospital", "name": "Augusta Krankenhaus", "operator": "Krankenhaus Mörsenbroich-Rath GmbH", "phone": "+49 211 90430", "website": "https://www.augusta-duesseldorf.de/", "wheelchair": "yes", "wikidata": "Q30279870", "wikipedia": "de:Augusta-Krankenhaus (Düsseldorf)"}}, {"name": "Evangelisches Krankenhaus BETHESDA zu Duisburg GmbH", "latitude": 51.4173778, "longitude": 6.7613769, "source": "osm", "_tags": {"addr:city": "Duisburg", "addr:housenumber": "219", "addr:postcode": "47053", "addr:street": "Heerstraße", "amenity": "hospital", "beds": "413", "check_date": "2025-07-05", "email": "info@bethesda.de", "emergency": "yes", "healthcare": "hospital", "name": "Evangelisches Krankenhaus BETHESDA zu Duisburg GmbH", "operator": "Evangelische Kirchengemeinden Alt-Duisburg, Hochfeld, Wanheimerort, Neudorf-Ost und Neudorf-West sowie der Evangelische Kirchenkreis Duisburg", "phone": "+49203 6008-0", "website": "https://www.bethesda-krankenhaus-duisburg.de/", "wheelchair": "yes"}}, {"name": "HELIOS Marien Klinik Duisburg", "latitude": 51.4134628, "longitude": 6.7550697, "source": "osm", "_tags": {"addr:city": "Duisburg", "addr:housenumber": "96", "addr:postcode": "47053", "addr:street": "Grunewaldstraße", "amenity": "hospital", "beds": "1000", "emergency": "yes", "healthcare": "hospital", "name": "HELIOS Marien Klinik Duisburg", "operator": "Helios Kliniken", "operator:type": "private", "operator:wikidata": "Q1254151", "operator:wikipedia": "de:Helios Kliniken", "phone": "+49203 5460", "website": "https://www.helios-gesundheit.de/kliniken/duisburg/unsere-standorte/helios-marien-klinik/"}}, {"name": "LVR Verbund Heilpädagogischer Hilfen (HPH)", "latitude": 51.2868238, "longitude": 6.3512482, "source": "osm", "_tags": {"amenity": "hospital", "healthcare": "hospital", "name": "LVR Verbund Heilpädagogischer Hilfen (HPH)", "operator": "LVR-HPH-Netz West"}}, {"name": "", "latitude": 51.2956429, "longitude": 6.3460926, "source": "osm", "_tags": {"amenity": "hospital", "healthcare": "hospital"}}, {"name": "Alexius/Josef Krankenhaus", "latitude": 51.1912809, "longitude": 6.7019633, "source": "osm", "_tags": {"addr:city": "Neuss", "addr:country": "DE", "addr:housenumber": "99", "addr:postcode": "41464", "addr:street": "Nordkanalallee", "amenity": "hospital", "email": "info@psychiatrie-neuss.de", "emergency": "yes", "fax": "+49 2131 5292-9001", "healthcare": "hospital", "healthcare:speciality": "psychiatry", "name": "Alexius/Josef Krankenhaus", "operator": "St. Augustinus-Kliniken gGmbH", "operator:type": "religious", "phone": "+49 2131 5292-00", "source": "Bing", "toilets:wheelchair": "yes", "website": "https://www.psychiatrie-neuss.de/", "wheelchair": "yes", "wikidata": "Q35387575", "wikimedia_commons": "Category:Alexius Krankenhaus in Neuss", "wikipedia": "de:St. Alexius-/St. Josef-Krankenhaus"}}, {"name": "Sana Kliniken Duisburg", "latitude": 51.3967835, "longitude": 6.7842709, "source": "osm", "_tags": {"addr:city": "Duisburg", "addr:housenumber": "9-11", "addr:postcode": "47055", "addr:street": "Zu den Rehwiesen", "amenity": "hospital", "beds": "545", "contact:website": "http://www.sana-duisburg.de/", "email": "info.duisburg@sana.de", "emergency": "yes", "healthcare": "hospital", "name": "Sana Kliniken Duisburg", "operator": "Sana", "operator:type": "private", "phone": "+49203 733-0", "toilets:wheelchair": "yes", "wheelchair": "yes"}}, {"name": "Allgemeines Krankenhaus Viersen", "latitude": 51.2507988, "longitude": 6.381708, "source": "osm", "_tags": {"amenity": "hospital", "healthcare": "hospital", "name": "Allgemeines Krankenhaus Viersen", "toilets:wheelchair": "yes", "website": "https://www.kinderhaus-viersen.de/", "wheelchair": "yes"}}, {"name": "St.-Elisabeth-Krankenhaus Hohenlind", "latitude": 50.9230859, "longitude": 6.8967971, "source": "osm", "_tags": {"amenity": "hospital", "healthcare": "hospital", "internet_access": "wlan", "name": "St.-Elisabeth-Krankenhaus Hohenlind", "operator": "St.-Elisabeth-Krankenhaus GmbH", "phone": "+49 221 46770", "website": "https://www.hohenlind.de/"}}, {"name": "Centre Hospitalier Reine Astrid Malmedy", "latitude": 50.4262866, "longitude": 6.0239643, "source": "osm", "_tags": {"addr:city": "Malmedy", "addr:housenumber": "2", "addr:street": "Rue Devant les Religieuses", "amenity": "hospital", "email": "info@chram.be", "emergency": "yes", "emergency_ward": "complete", "healthcare": "hospital", "healthcare:speciality": "general", "name": "Centre Hospitalier Reine Astrid Malmedy", "name:etymology:wikidata": "Q230238", "old_name": "Clinique Reine Astrid", "phone": "+32 80 79 31 11", "ref:fps_health:campus": "2950", "ref:fps_health:recognition": "4", "wheelchair": "yes"}}, {"name": "Klinik für Kinder- und Jugendpsychiatrie - Erweiterung", "latitude": 50.7724061, "longitude": 6.0440423, "source": "osm", "_tags": {"addr:city": "Aachen", "addr:country": "DE", "addr:housenumber": "22", "addr:postcode": "52074", "addr:street": "Neuenhofer Weg", "amenity": "hospital", "check_date": "2025-02-16", "healthcare": "hospital", "name": "Klinik für Kinder- und Jugendpsychiatrie - Erweiterung", "operator": "Uniklinik RWTH Aachen", "source": "https://www.ukaachen.de/kliniken-institute/ukafacilities/projekte/aktuelle-projekte/neubau-kinder-und-jugendpsychiatrie.html"}}, {"name": "Clinique Psychiatrique des Frères Alexiens", "latitude": 50.6726781, "longitude": 5.955642, "source": "osm", "_tags": {"addr:city": "Welkenraedt", "addr:housenumber": "68", "addr:postcode": "4840", "addr:street": "Rue du Chateau de Ruyff", "amenity": "hospital", "healthcare": "hospital", "name": "Clinique Psychiatrique des Frères Alexiens"}}, {"name": "MediClin Fachklinik Rhein/Ruhr", "latitude": 51.3547584, "longitude": 6.9412661, "source": "osm", "_tags": {"amenity": "hospital", "healthcare": "hospital", "healthcare:speciality": "orthopaedics;neurology;cardiology", "name": "MediClin Fachklinik Rhein/Ruhr", "operator": "MediClin", "operator:wikidata": "Q1916295", "operator:wikipedia": "de:Mediclin", "phone": "+49205488-0", "website": "https://www.fachklinik-rheinruhr.de/", "wikidata": "Q60540281"}}, {"name": "St. Irmgardis-Krankenhaus", "latitude": 51.2856539, "longitude": 6.3753429, "source": "osm", "_tags": {"amenity": "hospital", "healthcare": "hospital", "name": "St. Irmgardis-Krankenhaus", "operator": "St. Franziskus-Stiftung Münster", "operator:wikidata": "Q2318238", "phone": "+49 2162 8990"}}, {"name": "Haus Siloah", "latitude": 51.3362354, "longitude": 6.8157406, "source": "osm", "_tags": {"amenity": "hospital", "name": "Haus Siloah", "operator": "Theodor Fliedner Stiftung", "website": "http://siloah.fliedner.de/"}}, {"name": "Franziskushospital", "latitude": 50.7654183, "longitude": 6.0693066, "source": "osm", "_tags": {"addr:city": "Aachen", "addr:country": "DE", "addr:housenumber": "27", "addr:postcode": "52074", "addr:street": "Morillenhang", "amenity": "hospital", "emergency": "no", "healthcare": "hospital", "name": "Franziskushospital", "name:etymology:wikidata": "Q676555", "official_name": "Uniklinik RWTH Aachen - Franziskus", "operator": "Uniklinik RWTH Aachen", "phone": "+49 241 75010", "website": "https://www.ukaachen.de/kliniken-institute/franziskus", "wikidata": "Q1450419", "wikimedia_commons": "Category:Franziskushospital Aachen", "wikipedia": "de:Franziskushospital Aachen"}}, {"name": "Sana-Krankenhaus Hürth", "latitude": 50.8836169, "longitude": 6.8874454, "source": "osm", "_tags": {"amenity": "hospital", "healthcare": "hospital", "name": "Sana-Krankenhaus Hürth", "wheelchair": "yes"}}, {"name": "LVR-Klinik für Orthopädie Viersen", "latitude": 51.2911213, "longitude": 6.3498661, "source": "osm", "_tags": {"amenity": "hospital", "name": "LVR-Klinik für Orthopädie Viersen", "website": "http://www.orthopaedie-viersen.lvr.de", "wheelchair": "yes"}}, {"name": "", "latitude": 50.867866, "longitude": 5.9721974, "source": "osm", "_tags": {"amenity": "hospital", "healthcare": "hospital"}}, {"name": "Zuyderland", "latitude": 50.8702694, "longitude": 5.9763214, "source": "osm", "_tags": {"amenity": "hospital", "healthcare": "hospital", "name": "Zuyderland", "website": "https://www.zuyderland.nl/", "wikidata": "Q2549749", "wikipedia": "nl:Zuyderland Medisch Centrum"}}, {"name": "Evangelisches Krankenhaus", "latitude": 51.2131737, "longitude": 6.7730583, "source": "osm", "_tags": {"addr:city": "Düsseldorf", "addr:country": "DE", "addr:housenumber": "40", "addr:postcode": "40217", "addr:street": "Kirchfeldstraße", "amenity": "hospital", "contact:email": "verwaltung@evk-duesseldorf.de", "contact:fax": "+49 211 919-3900", "contact:phone": "+49 211 919-0", "contact:website": "http://www.evk-duesseldorf.de/", "description": "Lehrkrankenhaus der Heinrich-Heine-Universität Düsseldorf", "emergency": "yes", "healthcare": "hospital", "name": "Evangelisches Krankenhaus", "wheelchair": "limited", "wheelchair:description": "Ort ist zwar stufenlos, aber viele Türen sind manuell zu bedienen."}}, {"name": "Klinik für Psychiatrie, Psychotherapie und Psychosomatik", "latitude": 50.7738775, "longitude": 6.0431219, "source": "osm", "_tags": {"addr:city": "Aachen", "addr:housenumber": "155", "addr:postcode": "52074", "addr:street": "Hans-Böckler-Allee", "amenity": "hospital", "healthcare": "hospital", "name": "Klinik für Psychiatrie, Psychotherapie und Psychosomatik", "operator": "Uniklinik RWTH Aachen", "toilets:wheelchair": "yes", "wheelchair": "yes"}}, {"name": "Alexianer Krankenhaus", "latitude": 50.7717545, "longitude": 6.0820052, "source": "osm", "_tags": {"amenity": "hospital", "contact:email": "info-zfsg@alexianer.de", "contact:fax": "+49 241 4770115193", "contact:phone": "+49 241 477010", "contact:website": "https://www.alexianer-zentrum-fuer-seelische-gesundheit.de/leistungen/krankenhaus-abteilungen-aachen", "emergency": "no", "healthcare": "hospital", "name": "Alexianer Krankenhaus", "name:etymology:wikidata": "Q622385", "operator": "Alexianer Aachen GmbH", "wikidata": "Q84495045", "wikimedia_commons": "Category:Alexianerkloster Aachen", "wikipedia": "de:Alexianer-Krankenhaus Aachen"}}, {"name": "VieCuri", "latitude": 51.35745, "longitude": 6.1537485, "source": "osm", "_tags": {"amenity": "hospital", "emergency": "yes", "healthcare": "hospital", "name": "VieCuri", "toilets:wheelchair": "yes", "wheelchair": "yes", "wikidata": "Q2435226"}}, {"name": "Herzpark Hardterwald Kardiologische Rehabilitation", "latitude": 51.1890873, "longitude": 6.361564, "source": "osm", "_tags": {"amenity": "hospital", "healthcare": "hospital", "name": "Herzpark Hardterwald Kardiologische Rehabilitation", "operator": "MedNation AG", "website": "https://www.herzpark-mg.de/", "wheelchair": "limited"}}, {"name": "Städtisches Krankenhaus Nettetal", "latitude": 51.3089948, "longitude": 6.2708798, "source": "osm", "_tags": {"amenity": "hospital", "contact:email": "info@krankenhaus-nettetal.de", "contact:fax": "+49 2153 125-718", "contact:phone": "+49 2153 125-0", "contact:website": "https://www.krankenhaus-nettetal.de", "emergency": "yes", "healthcare": "hospital", "name": "Städtisches Krankenhaus Nettetal", "opening_hours": "24/7", "operator": "Städtisches Krankenhaus Nettetal GmbH", "wheelchair": "yes", "wikidata": "Q57401191"}}, {"name": "Sankt Franzikus-Hospital", "latitude": 50.9539691, "longitude": 6.9171562, "source": "osm", "_tags": {"addr:city": "Köln", "addr:housenumber": "63", "addr:postcode": "50825", "addr:street": "Schönsteinstraße", "amenity": "hospital", "healthcare": "hospital", "name": "Sankt Franzikus-Hospital", "operator": "Cellitinnen zur hl. Maria", "website": "https://www.stfranziskus.de/", "wikidata": "Q17373662", "wikimedia_commons": "Category:St. Franziskus-Hospital Köln"}}, {"name": "Heilig-Geist-Krankenhaus", "latitude": 50.9915588, "longitude": 6.9252613, "source": "osm", "_tags": {"addr:city": "Köln", "addr:housenumber": "105", "addr:postcode": "50737", "addr:street": "Graseggerstraße", "amenity": "hospital", "emergency": "yes", "name": "Heilig-Geist-Krankenhaus", "operator": "Stiftung der Cellitinnen zur hl. Maria", "website": "https://www.hgk-koeln.de/", "wikidata": "Q105714320", "wikimedia_commons": "Category:Heilig-Geist-Krankenhaus Köln-Longerich"}}, {"name": "Krankenhaus Neuwerk \"Maria von den Aposteln\"", "latitude": 51.224276, "longitude": 6.4705263, "source": "osm", "_tags": {"amenity": "hospital", "healthcare": "hospital", "name": "Krankenhaus Neuwerk \"Maria von den Aposteln\"", "operator": "St. Augustinus-Kliniken gGmbH", "wheelchair": "yes"}}, {"name": "Marien-Hospital", "latitude": 50.8072976, "longitude": 6.80865, "source": "osm", "_tags": {"amenity": "hospital", "emergency": "yes", "name": "Marien-Hospital", "operator": "Stiftung Marien-Hospital Erftstadt-Frauenthal", "phone": "+4922354040", "website": "http://www.marienerft.de", "wheelchair": "yes"}}, {"name": "St. Augustinus Krankenhaus", "latitude": 50.7698902, "longitude": 6.4879117, "source": "osm", "_tags": {"addr:city": "Düren", "addr:country": "DE", "addr:housename": "St. Augustinus Krankenhaus", "addr:housenumber": "45", "addr:postcode": "52355", "addr:street": "Renkerstraße", "amenity": "hospital", "email": "zentrale.sak-dn@ct-west.de", "emergency": "yes", "fax": "+49 2421 599458", "healthcare": "hospital", "name": "St. Augustinus Krankenhaus", "phone": "+49 2421 5990", "website": "https://www.sankt-augustinus-krankenhaus.de/", "wheelchair": "yes", "wikidata": "Q1271413", "wikipedia": "de:St. Augustinus-Krankenhaus (Lendersdorf)"}}, {"name": "", "latitude": 51.2943454, "longitude": 6.3493896, "source": "osm", "_tags": {"amenity": "hospital"}}, {"name": "Kinder- und Jugendpsychiatrie", "latitude": 51.2939835, "longitude": 6.3481954, "source": "osm", "_tags": {"amenity": "hospital", "name": "Kinder- und Jugendpsychiatrie"}}, {"name": "Forensische Klinik", "latitude": 50.8218698, "longitude": 6.4802244, "source": "osm", "_tags": {"addr:city": "Düren", "addr:country": "DE", "addr:housenumber": "67-69", "addr:postcode": "52353", "addr:street": "Akazienstraße", "amenity": "hospital", "email": "klinik-dueren@lvr.de", "healthcare": "hospital", "name": "Forensische Klinik", "operator": "Landschaftsverband Rheinland", "phone": "+49 2421 400", "website": "https://klinik-dueren.lvr.de/de/nav_main/fachgebiete___behandlungsangebote/forensische_psychiatrie/forensische_psychiatrie_1.html", "wikidata": "Q1437139", "wikipedia": "de:Forensik (Düren)"}}, {"name": "Helios Cäcilien-Hospital Hüls", "latitude": 51.3759004, "longitude": 6.5149234, "source": "osm", "_tags": {"amenity": "hospital", "emergency": "yes", "healthcare": "hospital", "name": "Helios Cäcilien-Hospital Hüls", "operator": "Helios Kliniken", "operator:wikidata": "Q1254151", "phone": "+49 2151 7391", "toilets:wheelchair": "yes", "wheelchair": "yes"}}, {"name": "Bertha-Krankenhaus", "latitude": 51.3970798, "longitude": 6.7008209, "source": "osm", "_tags": {"addr:city": "Duisburg", "addr:housenumber": "5", "addr:postcode": "47229", "addr:street": "Maiblumenstraße", "amenity": "hospital", "beds": "81", "email": "birgit.schwichtenberg@sana.de", "emergency": "no", "healthcare": "hospital", "healthcare:speciality": "psychiatry", "name": "Bertha-Krankenhaus", "note": "Klinik für Kinder-und Jugendpsychiatrie, Psychotherapie und Psychosomatik", "operator": "Sana", "operator:type": "private", "phone": "+492065258461", "website": "https://www.sana.de/duisburg/medizin-pflege/kinder-und-jugendpsychiatrie-und-psychotherapie", "wheelchair": "limited"}}, {"name": "Johanna-Etienne Krankenhaus", "latitude": 51.2132298, "longitude": 6.6585845, "source": "osm", "_tags": {"addr:city": "Neuss", "addr:housenumber": "46", "addr:postcode": "41462", "addr:street": "Am Hasenberg", "amenity": "hospital", "emergency": "yes", "healthcare": "hospital", "healthcare:speciality": "cardiology;gynaecology", "name": "Johanna-Etienne Krankenhaus", "operator": "St. Augstinus-Gruppe", "operator:type": "religious"}}, {"name": "Sankt Nikolaus-Hospital", "latitude": 50.6282961, "longitude": 6.0293532, "source": "osm", "_tags": {"addr:city": "Eupen", "addr:housenumber": "4-8", "addr:postcode": "4700", "addr:street": "Hufengasse", "alt_name": "St. Nikolaus-Hospital", "amenity": "hospital", "emergency": "yes", "emergency_ward": "complete", "healthcare": "hospital", "healthcare:speciality": "general", "name": "Sankt Nikolaus-Hospital", "phone": "+32 87 59 95 99", "ref:fps_health:campus": "2850", "ref:fps_health:recognition": "15", "website": "http://www.hospital-eupen.be/"}}, {"name": "Schön Klinik Düsseldorf", "latitude": 51.2313187, "longitude": 6.7272689, "source": "osm", "_tags": {"addr:city": "Düsseldorf", "addr:country": "DE", "addr:housenumber": "2", "addr:postcode": "40549", "addr:street": "Am Heerdter Krankenhaus", "amenity": "hospital", "beds": "202", "emergency": "yes", "healthcare": "hospital", "healthcare:speciality": "general;intensive;emergency", "name": "Schön Klinik Düsseldorf", "operator": "Schön Klinik", "operator:type": "private", "operator:wikidata": "Q2258661", "operator:wikipedia": "de:Schön Klinik", "phone": "+49-211-5670", "start_date": "1892", "website": "https://www.schoen-klinik.de/duesseldorf"}}, {"name": "Kreiskrankenhaus Mechernich", "latitude": 50.592562, "longitude": 6.6511944, "source": "osm", "_tags": {"addr:city": "Mechernich", "addr:country": "DE", "addr:housenumber": "2-6", "addr:postcode": "53894", "addr:street": "Sankt-Elisabeth-Straße", "amenity": "hospital", "contact:phone": "+49 2443 170", "contact:website": "https://www.kkhm.de", "emergency": "yes", "healthcare": "hospital", "name": "Kreiskrankenhaus Mechernich", "opening_hours": "24/7", "operator": "Kreiskrankenhaus Mechernich GmbH", "wheelchair": "yes", "wikidata": "Q1787709"}}, {"name": "Städtisches Krankenhaus Heinsberg", "latitude": 51.0650983, "longitude": 6.0949377, "source": "osm", "_tags": {"amenity": "hospital", "emergency": "yes", "fax": "+49 2452 188574", "healthcare": "hospital", "name": "Städtisches Krankenhaus Heinsberg", "opening_hours": "24/7", "phone": "+49 2452 1880", "toilets:wheelchair": "yes", "website": "https://www.krankenhaus-heinsberg.com/", "wheelchair": "yes", "wikidata": "Q15130717", "wikipedia": "de:Städtisches Krankenhaus Heinsberg"}}, {"name": "Krankenhaus Jülich", "latitude": 50.9260294, "longitude": 6.3638991, "source": "osm", "_tags": {"addr:city": "Jülich", "addr:country": "DE", "addr:housenumber": "22", "addr:postcode": "52428", "addr:street": "Kurfürstenstraße", "amenity": "hospital", "contact:email": "info.juelich@ct-west.de", "contact:fax": "+49 2461 620-2009", "contact:phone": "+49 2461 620-0", "contact:website": "https://www.krankenhaus-juelich.de/", "healthcare": "hospital", "name": "Krankenhaus Jülich", "operator": "Stadt Jülich", "wheelchair": "yes"}}, {"name": "Hermann-Josef Krankenhaus", "latitude": 51.074548, "longitude": 6.3126399, "source": "osm", "_tags": {"amenity": "hospital", "email": "info@hjk-erkelenz.de", "fax": "+49 2431 892218", "healthcare": "hospital", "name": "Hermann-Josef Krankenhaus", "phone": "+49 2431 890", "website": "https://www.hjk-erkelenz.de/", "wikidata": "Q15056633", "wikipedia": "de:Hermann-Josef-Krankenhaus"}}, {"name": "Evangelisches Krankenhaus Köln-Weyertal", "latitude": 50.9276265, "longitude": 6.9255891, "source": "osm", "_tags": {"addr:city": "Köln", "addr:country": "DE", "addr:housenumber": "76", "addr:postcode": "50931", "addr:street": "Weyertal", "amenity": "hospital", "contact:website": "https://www.evk-koeln.de/", "healthcare": "hospital", "name": "Evangelisches Krankenhaus Köln-Weyertal"}}, {"name": "Maria-Hilf-Krankenhaus", "latitude": 50.9521023, "longitude": 6.6374387, "source": "osm", "_tags": {"amenity": "hospital", "contact:email": "info@maria-hilf-krankenhaus.de", "contact:fax": "+49 2271 87121", "contact:phone": "+49 2271 870", "contact:website": "https://maria-hilf-krankenhaus.de/", "emergency": "yes", "healthcare": "hospital", "name": "Maria-Hilf-Krankenhaus", "operator": "Maria-Hilf-Krankenhaus Bergheim/Erft gGmbH", "operator:type": "religious", "toilets:wheelchair": "yes", "wheelchair": "yes"}}, {"name": "Laurentius Ziekenhuis", "latitude": 51.1917488, "longitude": 6.0002361, "source": "osm", "_tags": {"addr:city": "Roermond", "addr:housenumber": "6", "addr:postcode": "6043CV", "addr:street": "Monseigneur Driessenstraat", "amenity": "hospital", "healthcare": "hospital", "name": "Laurentius Ziekenhuis", "toilets:wheelchair": "yes", "website": "https://www.laurentiusziekenhuisroermond.nl", "wheelchair": "yes", "wikidata": "Q2085452", "wikimedia_commons": "Category:Laurentius Ziekenhuis", "wikipedia": "nl:Laurentius Ziekenhuis"}}, {"name": "Johanniter Krankenhaus Rheinhausen", "latitude": 51.4120651, "longitude": 6.6992298, "source": "osm", "_tags": {"addr:city": "Duisburg", "addr:housenumber": "1-7", "addr:postcode": "47228", "addr:street": "Kreuzacker", "amenity": "hospital", "beds": "304", "brand": "Johanniter-Unfall-Hilfe", "brand:wikidata": "Q14751117", "brand:wikipedia": "de:Johanniter-Unfall-Hilfe", "healthcare": "hospital", "name": "Johanniter Krankenhaus Rheinhausen", "phone": "+49 2065 970", "short_name": "JUH", "website": "https://www.johanniter.de/einrichtungen/krankenhaus/duisburg-rheinhausen/"}}, {"name": "VIALIFE Campus Bardenberg", "latitude": 50.8437102, "longitude": 6.1108483, "source": "osm", "_tags": {"addr:city": "Würselen", "addr:country": "DE", "addr:housenumber": "1", "addr:postcode": "52146", "addr:street": "Dr.-Hans-Böckler-Platz", "addr:suburb": "Bardenberg", "amenity": "hospital", "contact:phone": "+49 241 60020", "contact:website": "https://campus-bardenberg.via.life/", "healthcare": "rehabilitation", "healthcare:speciality": "psychosomatic", "name": "VIALIFE Campus Bardenberg", "opening_hours": "Mo-Fr 08:00-18:00; Sa,Su,PH off", "operator": "VIALIFE Reha Bardenberg GmbH", "wheelchair": "yes"}}, {"name": "Rheinland Klinikum Dormagen", "latitude": 51.0730179, "longitude": 6.8086842, "source": "osm", "_tags": {"addr:city": "Dormagen", "addr:country": "DE", "addr:housenumber": "20", "addr:postcode": "41540", "addr:street": "Dr.-Geldmacher-Straße", "alt_name": "KKH-DO", "amenity": "hospital", "email": "info@rheinlandklinikum.de", "emergency": "yes", "healthcare": "hospital", "internet_access": "wlan", "name": "Rheinland Klinikum Dormagen", "old_name": "Kreiskrankenhaus Dormagen", "phone": "+49 2133 660", "website": "https://rheinlandklinikum.de", "wikidata": "Q22674539"}}, {"name": "Universitätsklinikum Düsseldorf", "latitude": 51.1959746, "longitude": 6.7894365, "source": "osm", "_tags": {"addr:city": "Düsseldorf", "addr:country": "DE", "addr:housenumber": "5", "addr:postcode": "40225", "addr:street": "Moorenstraße", "amenity": "hospital", "description": "Gelände des Universitätsklinikums Düsseldorf", "emergency": "yes", "health_facility:type": "hospital", "healthcare": "hospital", "healthcare:speciality": "intensive;cardiology", "medical_system:western": "yes", "name": "Universitätsklinikum Düsseldorf", "name:en": "University Hospital Duesseldorf", "phone": "+49 211 8100", "type": "multipolygon", "website": "https://www.uniklinik-duesseldorf.de/", "wheelchair": "yes", "wikidata": "Q2496389", "wikipedia": "de:Universitätsklinikum Düsseldorf"}}, {"name": "Uniklinik RWTH Aachen", "latitude": 50.7768538, "longitude": 6.0433717, "source": "osm", "_tags": {"addr:city": "Aachen", "addr:country": "DE", "addr:housenumber": "30", "addr:postcode": "52074", "addr:street": "Pauwelsstraße", "alt_name": "Klinikum;Uniklinikum Aachen", "amenity": "hospital", "building": "yes", "building:levels": "12", "email": "info@ukaachen.de", "emergency": "yes", "healthcare": "hospital", "healthcare:speciality": "abortion", "heritage": "8", "heritage:operator": "UntereDenkmalbehörde", "name": "Uniklinik RWTH Aachen", "official_name": "Universitätsklinikum Aachen AöR", "phone": "+49 241 80-0", "roof:material": "concrete", "roof:shape": "flat", "smoking": "no", "toilets:wheelchair": "yes", "type": "multipolygon", "website": "https://www.ukaachen.de/", "wheelchair": "yes", "wikidata": "Q560144", "wikimedia_commons": "Category:Universitätsklinikum Aachen", "wikipedia": "de:Universitätsklinikum Aachen"}}, {"name": "Fachklinik 360°", "latitude": 51.3000991, "longitude": 6.859167, "source": "osm", "_tags": {"addr:city": "Ratingen", "addr:country": "DE", "addr:housenumber": "2", "addr:postcode": "40882", "addr:street": "Rosenstraße", "amenity": "hospital", "building": "hospital", "building:use:healthcare": "yes", "fax": "+49 2102 206 282", "healthcare": "hospital", "name": "Fachklinik 360°", "old_name": "Evangelisches Fachkrankenhaus", "phone": "+49 2102 206 0", "type": "multipolygon", "website": "http://www.clinic.de/", "wheelchair": "yes"}}, {"name": "Eifelklinik St. Brigida", "latitude": 50.6047475, "longitude": 6.3014279, "source": "osm", "_tags": {"addr:city": "Simmerath", "addr:country": "DE", "addr:housenumber": "8", "addr:postcode": "52152", "addr:street": "Kammerbruchstraße", "amenity": "hospital", "building": "hospital", "contact:email": "info@st-brigida.de", "contact:fax": "+49 2473 89-2280", "contact:phone": "+49 2473 89-0", "contact:website": "https://st-brigida.de", "emergency": "yes", "healthcare": "hospital", "name": "Eifelklinik St. Brigida", "opening_hours": "24/7", "operator": "Eifelklinik St. Brigida GmbH & Co. KG", "type": "multipolygon", "wheelchair": "yes", "wikidata": "Q15110167", "wikipedia": "de:Eifelklinik St. Brigida"}}, {"name": "Krankenhaus Schleiden", "latitude": 50.5333723, "longitude": 6.487419, "source": "osm", "_tags": {"addr:city": "Schleiden", "addr:country": "DE", "addr:housenumber": "36", "addr:postcode": "53937", "addr:street": "Am Hähnchen", "amenity": "hospital", "building": "hospital", "healthcare": "hospital", "name": "Krankenhaus Schleiden", "phone": "+49 2445 870", "type": "multipolygon", "website": "https://www.kkhm.de/einrichtungen/krankenhaus-schleiden/uebersicht"}}]