[{"name": "Szpital Medfemina", "latitude": 51.0713931, "longitude": 17.032975, "source": "osm", "_tags": {"amenity": "hospital", "description": "niepubliczny szpital ginekologiczno-położniczy", "name": "Szpital Medfemina", "phone": "+48 71 333 000 3", "start_date": "2015", "website": "https://szpital.medfemina.pl"}}, {"name": "Zespół Publicznych Zakładów Opieki Zdrowotnej w Zawoni", "latitude": 51.3150712, "longitude": 17.1949403, "source": "osm", "_tags": {"amenity": "hospital", "name": "Zespół Publicznych Zakładów Opieki Zdrowotnej w Zawoni"}}, {"name": "Dolnośląskie Centrum Onkologii", "latitude": 51.0953337, "longitude": 17.0176698, "source": "osm", "_tags": {"amenity": "hospital", "name": "Dolnośląskie Centrum Onkologii", "website": "https://www.dco.com.pl"}}, {"name": "Wojewódzki Szpital Specjalistyczny im. J. Gromkowskiego", "latitude": 51.1431209, "longitude": 17.0651667, "source": "osm", "_tags": {"amenity": "hospital", "name": "Wojewódzki Szpital Specjalistyczny im. J. Gromkowskiego", "website": "https://www.szpital.wroc.pl/"}}, {"name": "IV Wojskowy Szpital Kliniczny", "latitude": 51.0738279, "longitude": 17.0198731, "source": "osm", "_tags": {"amenity": "hospital", "name": "IV Wojskowy Szpital Kliniczny"}}, {"name": "Uniwersytecki Szpital Kliniczny im. Jana Mikulicza-Radeckiego", "latitude": 51.0740091, "longitude": 17.0290866, "source": "osm", "_tags": {"amenity": "hospital", "healthcare": "hospital", "name": "Uniwersytecki Szpital Kliniczny im. Jana Mikulicza-Radeckiego", "name:etymology:wikidata": "Q66944", "old_name": "Akademicki Szpital Kliniczny im. Jana Mikulicza-Radeckiego", "website": "http://www.usk.wroc.pl", "wheelchair": "yes", "wikidata": "Q11684729", "wikipedia": "pl:Uniwersytecki Szpital Kliniczny im. Jana Mikulicza-Radeckiego we Wrocławiu"}}, {"name": "Szpital Powiatowy w Oławie", "latitude": 50.9515881, "longitude": 17.2857844, "source": "osm", "_tags": {"addr:housenumber": "1", "addr:street": "Krzysztofa Kamila Baczyńskiego", "amenity": "hospital", "emergency": "yes", "healthcare": "hospital", "name": "Szpital Powiatowy w Oławie", "opening_hours": "24/7", "phone": "+48 71 30 11 300"}}, {"name": "Centrum Ginekologii, Położnictwa i Neonatologii w Opolu", "latitude": 50.6668163, "longitude": 17.9282011, "source": "osm", "_tags": {"addr:city": "Opole", "addr:housenumber": "8", "addr:postcode": "45-066", "addr:street": "Władysława Reymonta", "amenity": "hospital", "building": "hospital", "building:levels": "4", "contact:mobile": "531 069 489", "email": "centrum@ginekologia.opole.pl", "fax": "+48 77 453 61 06", "name": "Centrum Ginekologii, Położnictwa i Neonatologii w Opolu", "phone": "+48 77 454 54 01", "source": "UM Opole", "website": "https://ginekologia.opole.pl/"}}, {"name": "Szpital w Paczkowie im. Św. Jana Pawła II", "latitude": 50.4629917, "longitude": 17.0029529, "source": "osm", "_tags": {"addr:city": "Paczków", "addr:city:simc": "0965855", "addr:housenumber": "3", "addr:postcode": "48-370", "addr:street": "Stanisława Staszica", "addr:street:sym_ul": "21071", "amenity": "hospital", "building": "hospital", "building:levels": "2", "building:usage:pl": "budynek szpitala i zakładu opieki medycznej", "fax": "+48 77 43 90 302", "healthcare": "hospital", "name": "Szpital w Paczkowie im. Św. Jana Pawła II", "operator": "Zespół Opieki Zdrowotnej w Nysie", "phone": "+48 77 43 90 308", "source": "Starostwo Powiatowe w Nysie", "source:addr": "paczkow.e-mapa.net", "website": "http://www.zoznysa.pl/"}}, {"name": "Szpital Wojewódzki", "latitude": 50.6712783, "longitude": 17.9367897, "source": "osm", "_tags": {"addr:city": "Opole", "addr:housenumber": "53", "addr:postcode": "45-372", "addr:street": "Augustyna Kośnego", "amenity": "hospital", "email": "sekretariat@szpital.opole.pl", "name": "Szpital Wojewódzki", "phone": "+48 (77) 443-31-00", "website": "https://szpital.opole.pl/"}}, {"name": "Zakład Opiekuńczo Leczniczy", "latitude": 50.8566014, "longitude": 17.4789162, "source": "osm", "_tags": {"amenity": "hospital", "building": "yes", "healthcare": "hospital", "name": "Zakład Opiekuńczo Leczniczy"}}, {"name": "Samodzielny Publiczny Zespół Szpitali Pulmonologiczno - Reumatologicznych", "latitude": 50.8039255, "longitude": 17.8853502, "source": "osm", "_tags": {"addr:city": "Kup", "addr:housenumber": "14", "addr:postcode": "46-082", "addr:street": "Karola Miarki", "amenity": "hospital", "building": "yes", "name": "Samodzielny Publiczny Zespół Szpitali Pulmonologiczno - Reumatologicznych"}}, {"name": "Szpital im. Św. Jadwigi Śląskiej w Trzebnicy", "latitude": 51.3200547, "longitude": 17.0582765, "source": "osm", "_tags": {"amenity": "hospital", "email": "sekretariat@szpital-trzebnica.pl", "name": "Szpital im. Św. Jadwigi Śląskiej w Trzebnicy", "phone": "+48 71 312 09 20", "website": "http://www.szpital-trzebnica.pl"}}, {"name": "EuroMediCare", "latitude": 51.1415143, "longitude": 16.9561846, "source": "osm", "_tags": {"amenity": "hospital", "check_date": "2025-05-08", "emergency": "no", "healthcare": "hospital", "name": "EuroMediCare"}}, {"name": "Szpital Chorób Płuc im. K. Dłuskiego", "latitude": 51.1018316, "longitude": 17.0049022, "source": "osm", "_tags": {"amenity": "hospital", "name": "Szpital Chorób Płuc im. K. Dłuskiego"}}, {"name": "Wojewódzki Szpital Specjalistyczny we Wrocławiu", "latitude": 51.1488436, "longitude": 17.0451441, "source": "osm", "_tags": {"addr:city": "Wrocław", "addr:housenumber": "73a", "addr:postcode": "51-124", "addr:street": "Henryka Michała Kamieńskiego", "amenity": "hospital", "healthcare": "hospital", "name": "Wojewódzki Szpital Specjalistyczny we Wrocławiu", "official_name": "Wojewódzki Szpital Specjalistyczny Ośrodek Badawczo Rozwojowy we Wrocławiu", "website": "https://wssk.wroc.pl/", "wikidata": "Q9377122", "wikipedia": "pl:Wojewódzki Szpital Specjalistyczny we Wrocławiu"}}, {"name": "Dolnośląskie Centrum Zdrowia Psychicznego", "latitude": 51.1292685, "longitude": 17.0302784, "source": "osm", "_tags": {"amenity": "hospital", "healthcare:speciality": "behavior;body;depth;child_psychiatry", "internet_access": "no", "name": "Dolnośląskie Centrum Zdrowia Psychicznego", "operator:type": "government", "payment:cash": "yes", "payment:credit_cards": "yes", "payment:debit_cards": "yes", "wheelchair": "yes"}}, {"name": "Szpital MSW", "latitude": 51.124088, "longitude": 17.036832, "source": "osm", "_tags": {"amenity": "hospital", "loc_name": "Szpital MSW", "name": "Szpital MSW", "note:name": "Szpital MSW (lub MSWiA) to powszechnie używana nazwa, obecna też na znakach informacji miejskiej", "official_name": "Samodzielny Publiczny Zakład Opieki Zdrowotnej Ministerstwa Spraw Wewnętrznych we Wrocławiu", "old_name": "Szpital MSWiA", "opening_hours": "24/7", "short_name": "SP ZOZ MSW", "website": "http://www.spzoz-msw.wroclaw.pl/"}}, {"name": "Centrum Ginekologii, Położnictwa i Neonatologii w Opolu", "latitude": 50.6668578, "longitude": 17.9278168, "source": "osm", "_tags": {"amenity": "hospital", "name": "Centrum Ginekologii, Położnictwa i Neonatologii w Opolu", "website": "https://ginekologia.opole.pl/"}}, {"name": "Centrum Terapii Nerwic", "latitude": 50.4414343, "longitude": 17.7720674, "source": "osm", "_tags": {"addr:city": "Moszna", "addr:city:simc": "0503534", "addr:housenumber": "1a", "addr:postcode": "47-370", "addr:street": "Zamkowa", "addr:street:sym_ul": "25547", "amenity": "hospital", "building": "hospital", "building:levels": "2", "email": "sekretariat@ctn-moszna.pl", "fax": "+48 77 466 85 00", "healthcare": "hospital", "name": "Centrum Terapii Nerwic", "phone": "+48 77 466 84 18; +48 77 466 84 63", "roof:levels": "0", "roof:shape": "flat", "source:addr": "strzeleczki.e-mapa.net", "source:geometry": "estimated", "start_date": "2013", "website": "http://www.ctn-moszna.pl/"}}, {"name": "Samodzielny Publiczny Zakład Opieki Zdrowotnej MSWiA", "latitude": 50.6632873, "longitude": 17.9251658, "source": "osm", "_tags": {"amenity": "hospital", "contact:phone": "+48 77 401-11-00", "email": "sekretariat.zozmswiaopole@gmail.com", "name": "Samodzielny Publiczny Zakład Opieki Zdrowotnej MSWiA", "official_name": "Samodzielny Publiczny Zakład Opieki Zdrowotnej Ministerstwa Spraw Wewnętrznych w Opolu", "short_name": "SP ZOZ MSWiA", "website": "http://spzozmswia.opole.pl/"}}, {"name": "Vratislavia Medica", "latitude": 51.1585887, "longitude": 17.0300329, "source": "osm", "_tags": {"amenity": "hospital", "healthcare": "hospital", "name": "Vratislavia Medica", "official_name": "Vratislavia Medica, Szpital im. Św. Jana Pawła II", "old_name": "Wrocławskie Centrum Rehabilitacji i Medycyny Sportowej", "start_date": "2017-11", "website": "https://www.vratislavia-medica.pl/"}}, {"name": "Opolskie Centrum Onkologii", "latitude": 50.6717533, "longitude": 17.93803, "source": "osm", "_tags": {"amenity": "hospital", "healthcare": "hospital", "healthcare:speciality": "oncology", "name": "Opolskie Centrum Onkologii"}}, {"name": "Szpital Specjalistyczny im. Antoniego Falkiewicza", "latitude": 51.0638021, "longitude": 17.0798469, "source": "osm", "_tags": {"addr:city": "Wrocław", "addr:housenumber": "2", "addr:postcode": "52-114", "addr:street": "Warszawska", "amenity": "hospital", "name": "Szpital Specjalistyczny im. Antoniego Falkiewicza", "opening_hours": "24/7", "website": "https://falkiewicza.pl/", "wheelchair": "yes"}}, {"name": "Powiatowy Zespół Szpitali im. Józefa Dietla", "latitude": 51.2082792, "longitude": 17.3909137, "source": "osm", "_tags": {"addr:city": "Oleśnica", "addr:housenumber": "1", "addr:postcode": "56-400", "addr:street": "Armii Krajowej", "amenity": "hospital", "emergency": "yes", "healthcare": "hospital", "name": "Powiatowy Zespół Szpitali im. Józefa Dietla", "operator": "Powiatowy Zespół Szpitali im. Józefa Dietla", "operator:type": "government"}}, {"name": "116 Szpital Wojskowy z Przychodnią", "latitude": 50.6598404, "longitude": 17.8953514, "source": "osm", "_tags": {"amenity": "hospital", "healthcare": "hospital", "name": "116 Szpital Wojskowy z Przychodnią"}}, {"name": "", "latitude": 50.8572521, "longitude": 17.4776782, "source": "osm", "_tags": {"amenity": "hospital", "building": "hospital"}}, {"name": "Namysłowskie Centrum Zdrowia SA", "latitude": 51.0834258, "longitude": 17.709108, "source": "osm", "_tags": {"amenity": "hospital", "boundary": "protected_area", "description": "Zespół szpitala miejskiego", "email": "sekretariat@zoznamyslow.pl", "fax": "+48 77 404 02 50", "healthcare": "hospital", "heritage": "2", "heritage:operator": "nid", "name": "Namysłowskie Centrum Zdrowia SA", "phone": "+48 77 404 02 00", "protect_class": "22", "ref:nid": "2279/91 z 12.09.1991", "website": "https://www.zoznamyslow.pl/"}}, {"name": "Uniwersytecki Szpital Kliniczny we Wrocławiu - Oddział w Strzelinie", "latitude": 50.7880245, "longitude": 17.0696132, "source": "osm", "_tags": {"addr:city": "Strzelin", "addr:housenumber": "46", "addr:postcode": "57-100", "addr:street": "Wrocławska", "amenity": "hospital", "emergency": "yes", "healthcare": "hospital", "name": "Uniwersytecki Szpital Kliniczny we Wrocławiu - Oddział w Strzelinie"}}, {"name": "Opolskie Centrum Rehabilitacji w Korfantowie", "latitude": 50.4884199, "longitude": 17.592907, "source": "osm", "_tags": {"amenity": "hospital", "email": "ocr@ocr.pl", "fax": "+48 77 43 44 004", "name": "Opolskie Centrum Rehabilitacji w Korfantowie", "operator": "Opolskie Centrum Rehabilitacji w Korfantowie Sp. z o.o.", "phone": "+48 77 43 44 000", "website": "https://ocr.pl/26/strona-glowna.html"}}, {"name": "Szpital Wielospecjalistyczny \"Orthos\"", "latitude": 51.0179643, "longitude": 17.0012553, "source": "osm", "_tags": {"amenity": "hospital", "healthcare": "hospital", "name": "Szpital Wielospecjalistyczny \"Orthos\"", "official_name": "Orthos the multidisciplinary hospital and clinics", "phone": "+48 71 73 58 700", "website": "https://orthos.pl"}}, {"name": "Wojewódzki Szpital Specjalistyczny Oddział Zamiejscowy", "latitude": 51.1579115, "longitude": 17.0344881, "source": "osm", "_tags": {"addr:city": "Wrocław", "addr:housenumber": "8", "addr:postcode": "51-128", "addr:street": "Poświęcka", "addr:street:sym_ul": "17263", "amenity": "hospital", "name": "Wojewódzki Szpital Specjalistyczny Oddział Zamiejscowy", "operator": "Wojewódzki Szpital Specjalistyczny we Wrocławiu"}}, {"name": "Stobrawskie Centrum Medyczne, Szpital w Pokoju", "latitude": 50.9060037, "longitude": 17.8351331, "source": "osm", "_tags": {"amenity": "hospital", "healthcare": "hospital", "name": "Stobrawskie Centrum Medyczne, Szpital w Pokoju"}}, {"name": "", "latitude": 50.4630528, "longitude": 17.002536, "source": "osm", "_tags": {"amenity": "hospital", "healthcare": "hospital"}}, {"name": "Brzeskie Centrum Medyczne", "latitude": 50.8572521, "longitude": 17.4776782, "source": "osm", "_tags": {"addr:city": "Brzeg", "addr:city:simc": "0965252", "addr:housenumber": "1", "addr:postcode": "49-300", "addr:street": "Sergiusza Mossora", "amenity": "hospital", "name": "Brzeskie Centrum Medyczne", "source": "http://sdi.opolskie.pl/mapa_bazowa/request.aspx", "source:addr": "gugik.gov.pl", "type": "building"}}, {"name": "Klinika \"Przylądek Nadziei\"", "latitude": 51.0748838, "longitude": 17.0272997, "source": "osm", "_tags": {"addr:city": "Wrocław", "addr:housenumber": "213", "addr:postcode": "50-556", "addr:street": "Borowska", "alt_name": "Klinika Onkologii i Hematologii Dziecięcej \"Przylądek Nadziei\"", "amenity": "hospital", "building": "hospital", "building:levels": "4", "name": "Klinika \"Przylądek Nadziei\"", "operator": "Uniwersytecki Szpital Kliniczny", "phone": "+48 71 733 27 10", "ref": "D", "type": "multipolygon", "website": "https://przyladeknadziei.pl", "wikidata": "Q28673233", "wikipedia": "pl:Ponadregionalne Centrum Onkologii Dziecięcej „Przylądek Nadziei”"}}, {"name": "Zespół Opieki Zdrowotnej w Nysie", "latitude": 50.4713067, "longitude": 17.3292978, "source": "osm", "_tags": {"alt_name": "Szpital Powiatowy im. Błogosławionej Siostry Elżbietanki Marii Merkert w Nysie", "amenity": "hospital", "name": "Zespół Opieki Zdrowotnej w Nysie", "name:uk": "Комплекс Оздоровчого Догляду в Нисі", "phone": "+48 77 4087 800", "short_name": "ZOZ Nysa", "type": "multipolygon", "website": "https://zoz.nysa.pl/"}}, {"name": "Stare Kliniki", "latitude": 51.1099532, "longitude": 17.0668671, "source": "osm", "_tags": {"amenity": "hospital", "healthcare": "hospital", "name": "Stare Kliniki", "operator": "Uniwersytecki Szpital Kliniczny we Wrocławiu", "operator:type": "university", "type": "multipolygon"}}, {"name": "Powiatowy Zespół Szpitali Syców", "latitude": 51.302752, "longitude": 17.705157, "source": "osm", "_tags": {"amenity": "hospital", "healthcare": "hospital", "healthcare:speciality": "physiatry", "name": "Powiatowy Zespół Szpitali Syców", "operator": "Powiatowy Zespół Szpitali Oleśnica", "operator:type": "government", "type": "multipolygon"}}]