[{"name": "Medisch centrum Nottebohm", "latitude": 51.3298498, "longitude": 4.5516832, "source": "osm", "_tags": {"amenity": "hospital", "healthcare": "hospital", "name": "Medisch centrum Nottebohm"}}, {"name": "Hôpital Universitaire des Enfants Reine Fabiola - Universitair Kinderziekenhuis Koninging Fabiola", "latitude": 50.8885403, "longitude": 4.3288842, "source": "osm", "_tags": {"amenity": "hospital", "contact:phone": "+32 2 477 33 11", "contact:website": "https://www.huderf.be/", "emergency": "yes", "healthcare": "hospital", "name": "Hôpital Universitaire des Enfants Reine Fabiola - Universitair Kinderziekenhuis Koninging Fabiola", "name:etymology:wikidata": "Q231171", "name:fr": "Hôpital Universitaire des Enfants Reine Fabiola", "name:nl": "Universitair Kinderziekenhuis Koninging Fabiola", "short_name": "HUDERF - UKZKF", "wheelchair": "yes", "wikidata": "Q19951059"}}, {"name": "Centre neurologique William Lennox", "latitude": 50.6795685, "longitude": 4.5918814, "source": "osm", "_tags": {"addr:housenumber": "6", "addr:street": "Allée de Clerlande", "amenity": "hospital", "emergency": "no", "healthcare": "hospital", "healthcare:speciality": "neurology", "name": "Centre neurologique William Lennox", "operator": "Groupe hospitalier Saint-Luc UCL", "operator:type": "private_non_profit", "website": "https://www.cnwl.be", "wheelchair": "yes"}}, {"name": "Psychosociaal Centrum Leuven", "latitude": 50.8827276, "longitude": 4.6986005, "source": "osm", "_tags": {"addr:city": "Leuven", "addr:housenumber": "84", "addr:postcode": "3000", "addr:street": "Mechelsestraat", "amenity": "hospital", "check_date": "2024-03-16", "email": "psc.leuven@fracarita.org", "name": "Psychosociaal Centrum Leuven", "operator": "Broeders van Liefde", "website": "http://www.psc-leuven.be"}}, {"name": "AZ Sint-Blasius", "latitude": 51.0668419, "longitude": 4.0254255, "source": "osm", "_tags": {"amenity": "hospital", "description:nl": "Academisch Ziekenhuis Sint-Blasius campus Zele", "name": "AZ Sint-Blasius"}}, {"name": "Universitair Gezondheidscentrum", "latitude": 50.8825965, "longitude": 4.7025712, "source": "osm", "_tags": {"addr:city": "Leuven", "addr:housenumber": "86", "addr:postcode": "3000", "addr:street": "Vital Decosterstraat", "amenity": "hospital", "check_date": "2024-04-25", "healthcare": "hospital", "name": "Universitair Gezondheidscentrum", "operator": "KU Leuven"}}, {"name": "Nationaal MS Centrum", "latitude": 50.9183283, "longitude": 4.4788636, "source": "osm", "_tags": {"amenity": "hospital", "entrance:kerb:height": "0", "healthcare": "hospital", "name": "Nationaal MS Centrum", "phone": "+32 2 597 80 00", "toilets:wheelchair": "yes", "website": "https://mscenter.be/", "wheelchair": "yes", "wheelchair:description": "Gespecialiseerd in MS (multiple sclerose).", "wikidata": "Q2356005", "wikipedia": "nl:Nationaal Multiple Sclerose Centrum"}}, {"name": "ZNA Psychiatrisch Ziekenhuis Stuivenberg", "latitude": 51.2246303, "longitude": 4.436463, "source": "osm", "_tags": {"addr:city": "Antwerpen", "addr:housenumber": "109", "addr:postcode": "2060", "addr:street": "Pothoekstraat", "amenity": "hospital", "healthcare": "hospital", "healthcare:speciality": "psychiatry", "name": "ZNA Psychiatrisch Ziekenhuis Stuivenberg", "operator": "Ziekenhuis Netwerk Antwerpen", "operator:short": "ZNA", "operator:wikidata": "Q14526992", "operator:wikipedia": "nl:Ziekenhuis Netwerk Antwerpen", "phone": "+32 3 217 77 50", "website": "https://www.zna.be/nl/zna-psychiatrisch-ziekenhuis-stuivenberg"}}, {"name": "ZAS Koningin Paola Kinderziekenhuis", "latitude": 51.1810989, "longitude": 4.4214925, "source": "osm", "_tags": {"addr:city": "Antwerpen", "addr:housenumber": "1", "addr:postcode": "2020", "addr:street": "Lindendreef", "amenity": "hospital", "healthcare": "hospital", "healthcare:speciality": "paediatrics", "name": "ZAS Koningin Paola Kinderziekenhuis", "operator": "Ziekenhuis aan de Stroom", "operator:short": "ZAS", "operator:wikidata": "Q14526992", "operator:wikipedia": "nl:Ziekenhuis Netwerk Antwerpen", "phone": "+32 3 280 31 11", "website": "https://www.zas.be/locaties/zas-paola"}}, {"name": "ZAS Universitaire Kinder- en Jeugdpsychiatrie Antwerpen", "latitude": 51.1798398, "longitude": 4.4204369, "source": "osm", "_tags": {"addr:city": "Antwerpen", "addr:housenumber": "1", "addr:postcode": "2020", "addr:street": "Lindendreef", "amenity": "hospital", "entrance:kerb:height": "0", "healthcare": "hospital", "healthcare:speciality": "child_psychiatry", "name": "ZAS Universitaire Kinder- en Jeugdpsychiatrie Antwerpen", "not:operator:wikidata": "Q14526992", "note": "ZNA+GZA>ZAS in 2024", "operator": "Ziekenhuis aan de Stroom", "operator:short": "ZAS", "phone": "+32 3 280 49 00", "website": "https://www.zas.be/locaties/zas-ukja-universitaire-kinder-en-jeugdpsychiatrie-antwerpen"}}, {"name": "Clinique du Sport Namur", "latitude": 50.4650461, "longitude": 4.8966506, "source": "osm", "_tags": {"addr:city": "Jambes", "addr:housenumber": "477", "addr:postcode": "5100", "addr:street": "chaussée de Liège", "amenity": "hospital", "emergency": "no", "healthcare": "hospital", "healthcare:speciality": "sports;kinesitherapy;orthopedics;doctor;physiotherapy", "name": "Clinique du Sport Namur", "operator": "CSN Sprl"}}, {"name": "Croix-Rouge de Belgique", "latitude": 50.4534141, "longitude": 4.235283, "source": "osm", "_tags": {"amenity": "hospital", "healthcare": "hospital", "name": "Croix-Rouge de Belgique"}}, {"name": "Centre de Médecine Spécialisée de Courcelles", "latitude": 50.4622322, "longitude": 4.3766487, "source": "osm", "_tags": {"addr:city": "Courcelles", "addr:housenumber": "47", "addr:postcode": "6180", "addr:street": "Rue Philippe Monnoyer", "amenity": "clinic", "emergency": "no", "healthcare": "hospital", "healthcare:speciality": "radiology;orthopaedics;gynaecology;cardiology;surgery;dermatology;biology;blood_check", "image": "https://www.cmscourcelles.be/sites/default/files/uploads/batiment.jpg", "name": "Centre de Médecine Spécialisée de Courcelles", "opening_hours": "Mo-Fr 08:00-17:30", "phone": "+32 71 45 59 45", "start_date": "1962-01-01", "website": "https://www.cmscourcelles.be/", "wheelchair": "limited"}}, {"name": "Minimens - Perinataal Psycholoog", "latitude": 51.0942244, "longitude": 4.2438179, "source": "osm", "_tags": {"addr:city": "Bornem", "addr:housenumber": "210", "addr:postcode": "2880", "addr:street": "Puursesteenweg", "amenity": "hospital", "healthcare": "hospital", "healthcare:speciality": "humanistic;behavior", "name": "Minimens - Perinataal Psycholoog", "operator": "Minimens", "operator:type": "private", "website": "https://www.minimens.be/"}}, {"name": "ZAS Middelheim", "latitude": 51.1808602, "longitude": 4.420601, "source": "osm", "_tags": {"addr:city": "Antwerpen", "addr:housenumber": "1", "addr:postcode": "2020", "addr:street": "Lindendreef", "amenity": "hospital", "emergency": "yes", "emergency_ward": "complete", "healthcare": "hospital", "healthcare:speciality": "paediatrics;emergency;gynaecology;nephrology;radiology;diagnostic_radiology;dialysis;maternity;geriatrics;otolaryngology", "name": "ZAS Middelheim", "not:operator:wikidata": "Q14526992", "operator": "Ziekenhuis aan de Stroom", "operator:short": "ZAS", "phone": "+32 3 280 31 11", "ref:fps_health:campus": "2000", "ref:fps_health:recognition": "9", "website": "https://www.zas.be/locaties/zas-middelheim", "wikidata": "Q30281288"}}, {"name": "ZAS Vincentius", "latitude": 51.2057959, "longitude": 4.4123442, "source": "osm", "_tags": {"OnroerendErfgoed:criteria": "M", "addr:city": "Antwerpen", "addr:housenumber": "20", "addr:street": "Sint-Vincentiusstraat", "alt_name": "Sint-Vincentiusgasthuis", "amenity": "hospital", "description": "Sint-Vincentiusgasthuis en Moederhuis", "email": "vincentius@zas.be", "emergency": "yes", "emergency_ward": "complete", "healthcare": "hospital", "healthcare:speciality": "general", "heritage": "4", "heritage:operator": "OnroerendErfgoed", "heritage:website": "https://inventaris.onroerenderfgoed.be/dibe/relict/7573", "name": "ZAS Vincentius", "old_name": "GZA Ziekenhuizen Sint-Vincentius", "operator": "Ziekenhuis aan de Stroom", "phone": "+32 3 285 20 00", "ref:OnroerendErfgoed": "7573", "ref:fps_health:campus": "2020", "ref:fps_health:recognition": "99", "website": "https://www.zas.be/locaties/zas-vincentius"}}, {"name": "ZNA Sint-Erasmus", "latitude": 51.2075855, "longitude": 4.4463148, "source": "osm", "_tags": {"amenity": "hospital", "check_date": "2025-03-20", "healthcare": "hospital", "name": "ZNA Sint-Erasmus", "operator": "Ziekenhuis Netwerk Antwerpen", "operator:short": "ZNA", "operator:type": "private", "operator:wikidata": "Q14526992", "operator:wikipedia": "nl:Ziekenhuis Netwerk Antwerpen", "phone": "+32 3 270 80 11", "website": "https://www.zna.be/nl/zna-sint-erasmus"}}, {"name": "CHU Brugmann - UVC Brugmann", "latitude": 50.8875345, "longitude": 4.3314175, "source": "osm", "_tags": {"addr:housenumber": "4", "addr:street": "Place Arthur Van Gehuchten - Arthur Van Gehuchtenplein", "amenity": "hospital", "emergency": "yes", "healthcare": "hospital", "name": "CHU Brugmann - UVC Brugmann", "name:en": "Brugmann UH", "name:fr": "CHU Brugmann", "name:nl": "UVC Brugmann", "website": "https://www.chu-brugmann.be/", "wheelchair": "yes", "wikidata": "Q3145145", "wikipedia": "fr:Centre hospitalier universitaire Brugmann"}}, {"name": "OLV Ziekenhuis - Campus Asse", "latitude": 50.9098585, "longitude": 4.1962445, "source": "osm", "_tags": {"addr:housenumber": "5", "addr:street": "Bloklaan", "amenity": "hospital", "emergency": "yes", "emergency_ward": "complete", "healthcare": "hospital", "healthcare:speciality": "general", "name": "OLV Ziekenhuis - Campus Asse", "official_name": "Onze-Lieve-Vrouw Ziekenhuis - Asse", "phone": "+32 2 300 61 11", "ref:fps_health:campus": "1300", "ref:fps_health:recognition": "126", "website": "https://www.olvz.be/"}}, {"name": "Clinique Sainte-Élisabeth - Sint-Elisabeth Ziekenhuis", "latitude": 50.8054513, "longitude": 4.3687322, "source": "osm", "_tags": {"addr:housenumber": "206", "addr:street": "Avenue De Fré - De Frélaan", "alt_name": "Cliniques de l'Europe (Sainte-Élisabeth) - Europa Ziekenhuizen (Sint-Elisabeth)", "amenity": "hospital", "contact:phone": "+32 2 614 20 00", "emergency": "yes", "name": "Clinique Sainte-Élisabeth - Sint-Elisabeth Ziekenhuis", "name:fr": "Clinique Sainte-Élisabeth", "name:nl": "Sint-Elisabeth Ziekenhuis"}}, {"name": "Joseph Bracops", "latitude": 50.8338884, "longitude": 4.293468, "source": "osm", "_tags": {"alt_name": "Hôpital Bracops - Bracops Ziekenhuis", "alt_name:fr": "Hôpital Bracops", "alt_name:nl": "Bracops Ziekenhuis", "amenity": "hospital", "contact:email": "info@his-izz.be", "contact:phone": "+32 2 556 12 12", "contact:website": "http://www.his-izz.be/fr/patients/infos-pratiques-et-plans-d-acces/joseph-bracops_4", "emergency": "yes", "healthcare": "hospital", "name": "Joseph Bracops", "operator": "Hôpitaux Iris Sud - Iris Ziekenhuizen Zuid"}}, {"name": "Clinique Sainte-Anne Saint-Remi - Sint-Anna Sint-Remi Kliniek", "latitude": 50.8453846, "longitude": 4.316865, "source": "osm", "_tags": {"addr:housenumber": "66", "addr:street": "Boulevard Jules Graindor - Jules Graindorlaan", "amenity": "hospital", "emergency": "yes", "emergency_ward": "complete", "healthcare": "hospital", "healthcare:speciality": "general", "name": "Clinique Sainte-Anne Saint-Remi - Sint-Anna Sint-Remi Kliniek", "name:fr": "Clinique Sainte-Anne Saint-Remi", "name:nl": "Sint-Anna Sint-Remi Kliniek", "operator": "CHIREC", "ref:fps_health:campus": "1470", "ref:fps_health:recognition": "723", "website": "https://chirec.be/fr/contact/sar-clinique-ste-anne-st-remi/", "wheelchair": "yes"}}, {"name": "Hôpital Militaire Reine Astrid - Militair Hospitaal Koningin Astrid", "latitude": 50.9073806, "longitude": 4.3917327, "source": "osm", "_tags": {"amenity": "hospital", "name": "Hôpital Militaire Reine Astrid - Militair Hospitaal Koningin Astrid", "name:de": "Militärkrankenhaus Königin Astrid", "name:en": "Military Hospital Queen Astrid", "name:etymology:wikidata": "Q230238", "name:fr": "Hôpital Militaire Reine Astrid", "name:nl": "Militair Hospitaal Koningin Astrid", "short_name": "MHKA", "wikidata": "Q2371999", "wikipedia": "fr:Hôpital militaire Reine Astrid"}}, {"name": "Centre hospitalier Etterbeek-Ixelles - Ziekenhuizencentrum Etterbeek-Elsene", "latitude": 50.824736, "longitude": 4.3784764, "source": "osm", "_tags": {"addr:housenumber": "63", "addr:street": "Rue Jean Paquot - Jean Paquotstraat", "amenity": "hospital", "contact:phone": "+32 2 641 41 11", "emergency": "yes", "healthcare": "hospital", "name": "Centre hospitalier Etterbeek-Ixelles - Ziekenhuizencentrum Etterbeek-Elsene", "name:fr": "Centre hospitalier Etterbeek-Ixelles", "name:nl": "Ziekenhuizencentrum Etterbeek-Elsene", "wheelchair": "yes", "wikidata": "Q30281577"}}, {"name": "Universitair Psychiatrisch Centrum KU Leuven", "latitude": 50.8914171, "longitude": 4.5511289, "source": "osm", "_tags": {"addr:housenumber": "517", "addr:street": "Leuvensesteenweg", "amenity": "hospital", "description": "In het UPC KU Leuven vind je kwaliteitsvolle zorg voor emotionele, psychische of psychiatrische problemen.", "healthcare": "hospital", "healthcare:speciality": "psychiatry", "name": "Universitair Psychiatrisch Centrum KU Leuven", "website": "https://www.upckuleuven.be/nl/campus-kortenberg"}}, {"name": "Centre hospitalier Paul Brien - Verplegingscentrum Paul Brien", "latitude": 50.8703765, "longitude": 4.3859903, "source": "osm", "_tags": {"amenity": "hospital", "emergency": "yes", "healthcare": "hospital", "name": "Centre hospitalier Paul Brien - Verplegingscentrum Paul Brien", "name:fr": "Centre hospitalier Paul Brien", "name:nl": "Verplegingscentrum Paul Brien", "operator": "CHU Brugmann", "wikidata": "Q20669939", "wikipedia": "fr:Centre hospitalier Paul Brien"}}, {"name": "AZ Sint-Maria Halle", "latitude": 50.7363283, "longitude": 4.2258205, "source": "osm", "_tags": {"addr:city": "Halle", "addr:housenumber": "100", "addr:postcode": "1500", "addr:street": "Ziekenhuislaan", "amenity": "hospital", "emergency": "yes", "emergency_ward": "complete", "healthcare": "hospital", "healthcare:speciality": "general", "name": "AZ Sint-Maria Halle", "official_name": "Algemeen Ziekenhuis Sint-Maria", "phone": "+32 2 363 12 11", "ref:fps_health:campus": "1340", "ref:fps_health:recognition": "106", "website": "https://sintmaria.be/", "wheelchair": "yes"}}, {"name": "Psychiatrisch Ziekenhuis Sint-Alexius", "latitude": 50.9198388, "longitude": 4.3596784, "source": "osm", "_tags": {"OnroerendErfgoed:criteria": "BE", "amenity": "hospital", "emergency": "no", "health_specialty:psychiatry": "yes", "healthcare": "hospital", "heritage:website": "https://inventaris.onroerenderfgoed.be/erfgoedobjecten/75184", "name": "Psychiatrisch Ziekenhuis Sint-Alexius", "ref:OnroerendErfgoed": "75184", "website": "https://www.alexiusgrimbergen.be/"}}, {"name": "Sint-Amedeus", "latitude": 51.1845302, "longitude": 4.4531901, "source": "osm", "_tags": {"addr:city": "Mortsel", "addr:country": "BE", "addr:housenumber": "252", "addr:postcode": "2640", "addr:street": "Deurnestraat", "amenity": "hospital", "healthcare": "hospital", "healthcare:speciality": "psychiatry", "name": "Sint-Amedeus"}}, {"name": "Centre Hospitalier Tubize Nivelles - Site de Tubize", "latitude": 50.6928645, "longitude": 4.2032695, "source": "osm", "_tags": {"addr:housenumber": "8", "addr:street": "Avenue de Scandiano", "amenity": "hospital", "building": "yes", "name": "Centre Hospitalier Tubize Nivelles - Site de Tubize"}}, {"name": "AZ Monica", "latitude": 51.206655, "longitude": 4.4703631, "source": "osm", "_tags": {"amenity": "hospital", "email": "onthaal.deurne@azmonica.be", "emergency": "yes", "emergency_ward": "complete", "healthcare": "hospital", "healthcare:speciality": "general", "name": "AZ Monica", "official_name": "Az Monica - Deurne", "operator": "AZ Monica - Campus Deurne", "operator:type": "private_non_profit", "phone": "+32 033 205 000", "ref:fps_health:campus": "1210", "ref:fps_health:recognition": "682", "website": "https://azmonica.be/"}}, {"name": "Valida", "latitude": 50.8672881, "longitude": 4.3063845, "source": "osm", "_tags": {"amenity": "hospital", "contact:phone": "+32 2 482 40 00", "contact:website": "https://www.valida.be/", "full_name:fr": "Centre hospitalier Valida", "full_name:nl": "Valida Ziekenhuis", "healthcare": "hospital", "name": "Valida", "old_name": "Hôpital français - Frans Gasthuis", "old_name:fr": "Hôpital français", "old_name:nl": "Frans Gasthuis", "operator": "Valisana"}}, {"name": "Regionaal ziekenhuis Heilig Hart Leuven", "latitude": 50.8723644, "longitude": 4.7009651, "source": "osm", "_tags": {"addr:city": "Leuven", "addr:housenumber": "105", "addr:postcode": "3000", "addr:street": "Naamsestraat", "alt_name": "Heilig-Hartziekenhuis", "amenity": "hospital", "email": "info@hhleuven.be", "emergency": "yes", "emergency:phone": "+32 16 20 92 80", "emergency_ward": "complete", "healthcare": "hospital", "healthcare:speciality": "general", "name": "Regionaal ziekenhuis Heilig Hart Leuven", "old_name": "Heilig Hartkliniek", "phone": "+32 16 20 92 09", "ref:fps_health:campus": "1360", "ref:fps_health:recognition": "108", "website": "https://www.hhleuven.be/", "wheelchair": "yes"}}, {"name": "Algemeen Psychiatrisch Ziekenhuis Sint-Lucia", "latitude": 51.1661215, "longitude": 4.1498655, "source": "osm", "_tags": {"amenity": "hospital", "healthcare": "hospital", "healthcare:speciality": "psychiatry", "leisure": "park", "name": "Algemeen Psychiatrisch Ziekenhuis Sint-Lucia"}}, {"name": "Clinique Notre-Dame de Grâce", "latitude": 50.4750558, "longitude": 4.4272505, "source": "osm", "_tags": {"addr:city": "Charleroi", "addr:housenumber": "212", "addr:postcode": "6041", "addr:street": "chaussée de Nivelles", "amenity": "hospital", "emergency": "yes", "emergency_ward": "complete", "healthcare": "hospital", "healthcare:speciality": "general", "name": "Clinique Notre-Dame de Grâce", "operator": "Clinique Notre-Dame de Grâce ASBL", "ref:fps_health:campus": "3350", "ref:fps_health:recognition": "409", "website": "https://www.cndg.be/"}}, {"name": "Hôpital Neuro-Psychiatrique Saint-Martin", "latitude": 50.4279789, "longitude": 4.8785167, "source": "osm", "_tags": {"addr:city": "Dave", "addr:housenumber": "84", "addr:postcode": "5100", "addr:street": "Rue du Fort de Dave", "amenity": "hospital", "emergency": "no", "healthcare": "hospital", "name": "Hôpital Neuro-Psychiatrique Saint-Martin", "social_facility": "group_home", "social_facility:for": "mental_health", "source": "bing"}}, {"name": "Algemeen Stedelijk Ziekenhuis Aalst", "latitude": 50.9352619, "longitude": 4.0184618, "source": "osm", "_tags": {"addr:housenumber": "80", "addr:street": "Merestraat", "alt_name": "A.S.Z. campus Aalst", "amenity": "hospital", "email": "info@asz.be", "emergency": "yes", "emergency_ward": "complete", "healthcare": "hospital", "healthcare:speciality": "general", "name": "Algemeen Stedelijk Ziekenhuis Aalst", "official_name": "A.S.Z. - Autonome Verzorgingsinstelling - Asz Aalst", "ref:fps_health:campus": "1800", "ref:fps_health:recognition": "176", "website": "https://www.asz.be/nl/asz-campus-aalst"}}, {"name": "Onze-Lieve-Vrouwziekenhuis", "latitude": 50.9438641, "longitude": 4.055134, "source": "osm", "_tags": {"addr:city": "Aalst", "addr:housenumber": "164", "addr:postcode": "9300", "addr:street": "Moorselbaan", "amenity": "hospital", "emergency": "yes", "emergency_ward": "complete", "healthcare": "hospital", "healthcare:speciality": "general", "name": "Onze-Lieve-Vrouwziekenhuis", "phone": "+32 53 72 41 11", "ref:fps_health:campus": "1780", "ref:fps_health:recognition": "126", "source": "Wikipedia and the hospital's official website.", "website": "https://www.olvz.be/", "wheelchair": "yes", "wikidata": "Q15880295", "wikipedia": "nl:Onze-Lieve-Vrouwziekenhuis"}}, {"name": "Clinique Sainte-Élisabeth", "latitude": 50.46015, "longitude": 4.8446545, "source": "osm", "_tags": {"addr:city": "Namur", "addr:housenumber": "15", "addr:postcode": "5000", "addr:street": "Place Louise Godin", "amenity": "hospital", "emergency": "yes", "emergency_ward": "complete", "healthcare": "hospital", "healthcare:speciality": "general", "name": "Clinique Sainte-Élisabeth", "operator": "CHU UCL Namur", "ref:fps_health:campus": "3290", "ref:fps_health:recognition": "166", "website": "https://www.cmsenamur.be", "wikidata": "Q29576408"}}, {"name": "Hôpital de Mons - Site Kennedy", "latitude": 50.4572163, "longitude": 3.9633846, "source": "osm", "_tags": {"addr:housenumber": "2", "addr:street": "Boulevard du Président Kennedy", "amenity": "hospital", "emergency": "yes", "emergency_ward": "complete", "healthcare": "hospital", "healthcare:speciality": "general", "name": "Hôpital de Mons - Site Kennedy", "official_name": "CHU Helora - Site Kennedy - Kennedy Mons", "ref:fps_health:campus": "2730", "ref:fps_health:recognition": "254", "website": "https://www.jolimont.be/hopitaux/hopital-de-mons-site-kennedy", "wikidata": "Q3145129"}}, {"name": "AZ Turnhout Campus Sint Jozef", "latitude": 51.33489, "longitude": 4.9209147, "source": "osm", "_tags": {"addr:city": "Turnhout", "addr:country": "BE", "addr:housenumber": "44", "addr:postcode": "2300", "addr:street": "Steenweg op Merksplas", "amenity": "hospital", "emergency": "yes", "emergency_ward": "limited", "healthcare": "hospital", "healthcare:speciality": "general", "name": "AZ Turnhout Campus Sint Jozef", "operator:website": "https://www.azturnhout.be/", "phone": "+32 14 44 41 11", "ref:fps_health:campus": "2100", "ref:fps_health:recognition": "63", "short_name": "AZ Turnhout"}}, {"name": "WZR De Dennen vzw", "latitude": 51.2870272, "longitude": 4.6402969, "source": "osm", "_tags": {"amenity": "hospital", "emergency": "no", "name": "WZR De Dennen vzw"}}, {"name": "Clinique Saint-Pierre", "latitude": 50.6674696, "longitude": 4.56037, "source": "osm", "_tags": {"addr:housenumber": "9", "addr:street": "Avenue Reine Fabiola", "amenity": "hospital", "contact:phone": "+32 10 43 72 11", "emergency": "yes", "emergency_ward": "complete", "healthcare": "hospital", "healthcare:speciality": "general;psychiatry", "loc_name": "Saint-Pierre", "name": "Clinique Saint-Pierre", "operator": "H.uni", "ref:fps_health:campus": "1730", "ref:fps_health:recognition": "43", "website": "https://www.cspo.be/"}}, {"name": "Vitaz Campus Moerlandstraat", "latitude": 51.1615757, "longitude": 4.149469, "source": "osm", "_tags": {"addr:housenumber": "1", "addr:street": "Moerlandstraat", "amenity": "hospital", "emergency": "yes", "emergency_ward": "complete", "healthcare": "hospital", "healthcare:speciality": "general", "name": "Vitaz Campus Moerlandstraat", "ref:fps_health:campus": "1860", "ref:fps_health:recognition": "595", "wheelchair": "yes", "wikidata": "Q13485729"}}, {"name": "Saint-Alfred (malades mentaux)", "latitude": 50.542815, "longitude": 4.0411574, "source": "osm", "_tags": {"amenity": "hospital", "name": "Saint-Alfred (malades mentaux)"}}, {"name": "Centre Hospitalier de la Haute Senne - site Saint Vincent", "latitude": 50.5766463, "longitude": 4.0671968, "source": "osm", "_tags": {"addr:city": "Soignies", "addr:housenumber": "17", "addr:postcode": "7060", "addr:street": "Boulevard Roosevelt", "amenity": "hospital", "emergency": "no", "healthcare": "hospital", "healthcare:speciality": "general", "name": "Centre Hospitalier de la Haute Senne - site Saint Vincent", "phone": "+32 67 34 84 11", "website": "https://chrhautesenne.be"}}, {"name": "Chêne aux Haies", "latitude": 50.4615374, "longitude": 3.9839221, "source": "osm", "_tags": {"amenity": "hospital", "healthcare:speciality": "psychiatry", "name": "Chêne aux Haies", "wikidata": "Q2945727"}}, {"name": "ZAS Jan Palfijn", "latitude": 51.2589507, "longitude": 4.4512893, "source": "osm", "_tags": {"addr:city": "Merksem", "addr:housenumber": "70", "addr:postcode": "2170", "addr:street": "Lange Bremstraat", "alt_name": "ZAS Palfijn", "amenity": "hospital", "email": "jp.info@zas.be", "emergency": "yes", "emergency_ward": "complete", "healthcare": "hospital", "healthcare:speciality": "general", "name": "ZAS Jan Palfijn", "operator": "Ziekenhuis aan de Stroom", "operator:short": "ZAS", "operator:wikidata": "Q14526992", "operator:wikipedia": "nl:Ziekenhuis Netwerk Antwerpen", "phone": "+32 3 640 21 11", "ref:fps_health:campus": "3360", "ref:fps_health:recognition": "9", "toilets:wheelchair": "yes", "website": "https://www.zas.be/locaties/zas-palfijn", "wheelchair": "yes"}}, {"name": "AZ Sint-Blasius Dagkliniek", "latitude": 51.0662717, "longitude": 4.0270928, "source": "osm", "_tags": {"addr:city": "Zele", "addr:housenumber": "6", "addr:postcode": "9240", "addr:street": "Koevliet", "amenity": "hospital", "building": "hospital", "emergency": "no", "healthcare": "hospital", "name": "AZ Sint-Blasius Dagkliniek", "source:geometry:date": "2016-09-22", "source:geometry:ref": "Gbg/4997626"}}, {"name": "Le Domaine - Centre hospitalier", "latitude": 50.6813919, "longitude": 4.3398062, "source": "osm", "_tags": {"addr:city": "Braine-l'Alleud", "addr:housenumber": "39", "addr:postcode": "1420", "addr:street": "Chemin Jean Lanneau", "amenity": "hospital", "healthcare": "hospital", "name": "Le Domaine - Centre hospitalier"}}, {"name": "UPC Sint-Kamillus", "latitude": 50.8530558, "longitude": 4.7508665, "source": "osm", "_tags": {"addr:city": "Bierbeek", "addr:housenumber": "1", "addr:street": "Krijkelberg", "alt_name": "Sint-Kamillus Bierbeek", "amenity": "hospital", "healthcare": "hospital", "healthcare:speciality": "psychiatry", "name": "UPC Sint-Kamillus", "operator": "Broeders van Liefde - Zorggroep Sint-Kamillus"}}, {"name": "AZ Sint-Maarten", "latitude": 51.0515025, "longitude": 4.4764609, "source": "osm", "_tags": {"amenity": "hospital", "description": "Algemeen Ziekenhuis Sint-Maarten", "emergency": "yes", "emergency_ward": "complete", "healthcare": "hospital", "healthcare:speciality": "general", "name": "AZ Sint-Maarten", "official_name": "Az Sint-Maarten", "ref:fps_health:campus": "6170", "ref:fps_health:recognition": "26", "website": "https://www.azsintmaarten.be/", "wikidata": "Q28149769"}}, {"name": "ZAS Sint-Augustinus", "latitude": 51.1744129, "longitude": 4.4185044, "source": "osm", "_tags": {"amenity": "hospital", "email": "augustinus@zas.be", "emergency": "yes", "emergency_ward": "complete", "healthcare": "hospital", "healthcare:speciality": "general", "loc_name": "Sint-Augustinus", "name": "ZAS Sint-Augustinus", "official_name": "Ziekenhuis Aan De Stroom - Sint-Augustinus", "operator:type": "private_non_profit", "phone": "+32 3 443 30 11", "ref:fps_health:campus": "1290", "ref:fps_health:recognition": "99", "website": "https://www.zas.be/locaties/zas-augustinus", "wikidata": "Q30287559", "wikipedia": "nl:GZA Ziekenhuizen"}}, {"name": "Clinique Saint-Michel - Sint-Michiels Ziekenhuis", "latitude": 50.8428758, "longitude": 4.3995811, "source": "osm", "_tags": {"alt_name": "Cliniques de l'Europe (Saint-Michel) - Europa Ziekenhuizen (Sint-Michiels)", "amenity": "hospital", "emergency": "yes", "emergency_ward": "complete", "healthcare": "hospital", "healthcare:speciality": "general", "name": "Clinique Saint-Michel - Sint-Michiels Ziekenhuis", "name:fr": "Clinique Saint-Michel", "name:nl": "Sint-Michiels Ziekenhuis", "operator": "Cliniques de L'Europe - Europa Ziekenhuizen", "ref:fps_health:campus": "1420", "ref:fps_health:recognition": "111", "website": "https://www.europaziekenhuizen.be/"}}, {"name": "RZ Tienen - Campus Mariëndal", "latitude": 50.8108722, "longitude": 4.9333821, "source": "osm", "_tags": {"addr:housenumber": "45", "addr:postcode": "3300", "addr:street": "Kliniekstraat", "amenity": "hospital", "emergency": "yes", "emergency_ward": "complete", "healthcare": "hospital", "healthcare:speciality": "general", "name": "RZ Tienen - Campus Mariëndal", "phone": "+32 16 80 90 11", "ref:fps_health:campus": "1370", "ref:fps_health:recognition": "109", "short_name": "RZ Tienen", "website": "https://www.rztienen.be/"}}, {"name": "Hôpital de Mons - Site Constantinople", "latitude": 50.4545841, "longitude": 3.9599648, "source": "osm", "_tags": {"addr:housenumber": "5", "addr:street": "Avenue Baudouin de Constantinople", "amenity": "hospital", "emergency": "yes", "emergency_ward": "complete", "healthcare": "hospital", "healthcare:speciality": "general", "name": "Hôpital de Mons - Site Constantinople", "operator": "Helora - Centres Hospitaliers Universitaires", "ref:fps_health:campus": "2710", "ref:fps_health:recognition": "266", "website": "https://www.helora.be/hopitaux/hopital-de-mons-site-constantinople"}}, {"name": "Clairs Vallons", "latitude": 50.6612207, "longitude": 4.602271, "source": "osm", "_tags": {"addr:housenumber": "24", "addr:street": "Rue de Mont-Saint-Guibert", "amenity": "hospital", "healthcare": "hospital", "name": "Clairs Vallons"}}, {"name": "Liduina", "latitude": 51.2870366, "longitude": 4.0507777, "source": "osm", "_tags": {"amenity": "hospital", "building": "hospital", "contact:phone": "+31 114 373 000", "contact:website": "https://www.zorgsaam.org/ziekenhuis/service-contact/contact-route", "healthcare": "hospital", "name": "Liduina", "operator": "ZorgSaam Zorggroep Zeeuws-Vlaanderen", "ref:bag": "0677100000605105", "source": "BAG", "source:date": "2014-03-24", "start_date": "1995"}}, {"name": "AZ Voorkempen", "latitude": 51.274558, "longitude": 4.6448996, "source": "osm", "_tags": {"addr:housenumber": "4", "addr:street": "Oude Liersebaan", "amenity": "hospital", "emergency": "yes", "emergency_telephone_code": "yes", "emergency_ward": "complete", "healthcare": "hospital", "healthcare:speciality": "general", "name": "AZ Voorkempen", "official_name": "Az Voorkempen", "old_name": "AZ Sint-Jozef", "ref:fps_health:campus": "2090", "ref:fps_health:recognition": "536", "website": "https://www.azvoorkempen.be/"}}, {"name": "Vitaz Campus Hospitaalstraat", "latitude": 51.1627546, "longitude": 4.1519093, "source": "osm", "_tags": {"amenity": "hospital", "healthcare": "hospital", "name": "Vitaz Campus Hospitaalstraat"}}, {"name": "ZAS Cadix", "latitude": 51.2313116, "longitude": 4.415753, "source": "osm", "_tags": {"addr:city": "Antwerpen", "addr:housenumber": "100", "addr:postcode": "2060", "addr:street": "Kempenstraat", "amenity": "hospital", "emergency": "yes", "emergency_ward": "complete", "healthcare": "hospital", "healthcare:speciality": "general", "image": "https://photos.app.goo.gl/7vCvkUd528aSNCJP8", "name": "ZAS Cadix", "opening_hours:visitors": "14:00-19:30", "operator": "Ziekenhuis aan de Stroom", "operator:short": "ZNA", "operator:type": "private_non_profit", "operator:wikidata": "Q14526992", "phone": "+32 3 217 77 70", "ref:fps_health:campus": "6230", "ref:fps_health:recognition": "9", "website": "https://www.zas.be/locaties/zas-cadix", "wheelchair": "yes"}}, {"name": "Hôpital Delta - Delta Ziekenhuis", "latitude": 50.8164544, "longitude": 4.4008415, "source": "osm", "_tags": {"addr:housenumber": "201", "addr:street": "Boulevard du Triomphe - Triomflaan", "addr:street:fr": "Boulevard du Triomphe", "addr:street:nl": "Triomflaan", "amenity": "hospital", "contact:website": "https://chirec.be/en/contact/del-delta-hospital", "emergency": "yes", "emergency_ward": "complete", "healthcare": "hospital", "healthcare:speciality": "general", "name": "Hôpital Delta - Delta Ziekenhuis", "name:en": "Delta Hospital", "name:fr": "Hôpital Delta", "name:nl": "Delta Ziekenhuis", "operator": "CHIREC", "ref:fps_health:campus": "6140", "ref:fps_health:recognition": "332"}}, {"name": "Psychiatrisch Centrum Ariadne", "latitude": 50.9681466, "longitude": 3.970567, "source": "osm", "_tags": {"amenity": "hospital", "name": "Psychiatrisch Centrum Ariadne", "old_name": "Psychiatrisch Centrum Zoete Nood Gods", "website": "https://pcariadne.be"}}, {"name": "Ziekenhuis Inkendaal", "latitude": 50.8034545, "longitude": 4.223008, "source": "osm", "_tags": {"amenity": "hospital", "name": "Ziekenhuis Inkendaal"}}, {"name": "Clinique Saint-Jean - Kliniek Sint-Jan", "latitude": 50.8539227, "longitude": 4.3600917, "source": "osm", "_tags": {"amenity": "hospital", "contact:website": "https://www.clstjean.be/fr/infos-pratiques/localisations/botanique", "emergency": "yes", "full_name": "Clinique Saint-Jean (site Botanique) - Kliniek Sint-Jan (site Kruidtuin)", "full_name:fr": "Clinique Saint-Jean (site Botanique)", "full_name:nl": "Kliniek Sint-Jan (site Kruidtuin)", "healthcare": "hospital", "name": "Clinique Saint-Jean - Kliniek Sint-Jan", "name:fr": "Clinique Saint-Jean", "name:nl": "Kliniek Sint-Jan", "opening_hours": "07:00-19:30", "operator": "H.uni", "toilets:wheelchair": "yes", "wheelchair": "yes", "wheelchair:description": "The main entry is accessible. There are lifts from the street level to the main floor, then there are \"routes\" to follow to the services, all accessibles,most via lifts Theres an aadapted toilet near the reception at the main entry. Inside it is hard to", "wikidata": "Q50037286", "wikimedia_commons": "Category:Clinique Saint-Jean/Sint-Janskliniek (Brussels)", "wikipedia": "en:Clinique Saint-Jean"}}, {"name": "Vitaz Campus Beveren", "latitude": 51.2097344, "longitude": 4.250943, "source": "osm", "_tags": {"addr:housenumber": "99", "addr:street": "Oude Zandstraat", "amenity": "hospital", "healthcare": "hospital", "name": "Vitaz Campus Beveren", "old_name": "AZ Sint-Anna", "operator": "Vitaz"}}, {"name": "Chirec - Hôpital de Braine-Waterloo", "latitude": 50.6845302, "longitude": 4.367786, "source": "osm", "_tags": {"addr:city": "Braine-l'Alleud", "addr:country": "BE", "addr:housenumber": "35", "addr:postcode": "1420", "addr:street": "Rue Wayez", "amenity": "hospital", "emergency": "yes", "emergency_ward": "complete", "healthcare": "hospital", "healthcare:speciality": "general", "name": "Chirec - Hôpital de Braine-Waterloo", "official_name": "Chirec - Sare - Hopital De Braine-L'Alleud", "phone": "+32 2 434 91 11", "ref:fps_health:campus": "1760", "ref:fps_health:recognition": "723", "website": "https://chirec.be"}}, {"name": "Centre psychiatrique Saint-Bernard", "latitude": 50.5010556, "longitude": 4.2248653, "source": "osm", "_tags": {"amenity": "hospital", "healthcare": "hospital", "name": "Centre psychiatrique Saint-Bernard"}}, {"name": "ZAS Sint-Jozef", "latitude": 51.1645355, "longitude": 4.4607463, "source": "osm", "_tags": {"addr:city": "Mortsel", "addr:housenumber": "19", "addr:postcode": "2640", "addr:street": "Molenstraat", "amenity": "hospital", "email": "gza.sj.onthaal@zas.be", "emergency": "yes", "emergency_ward": "limited", "healthcare": "hospital", "healthcare:speciality": "general", "name": "ZAS Sint-Jozef", "official_name": "Ziekenhuis Aan De Stroom - Sint-Jozef", "operator": "Ziekenhuis aan de Stroom", "operator:type": "private_non_profit", "phone": "+32 034 441 211", "ref:fps_health:campus": "2030", "ref:fps_health:recognition": "99", "website": "https://www.zas.be/locaties/zas-sint-jozef", "wheelchair": "yes"}}, {"name": "Imelda Ziekenhuis", "latitude": 51.0174746, "longitude": 4.5586291, "source": "osm", "_tags": {"addr:city": "Bonheiden", "addr:country": "BE", "addr:housenumber": "9", "addr:postcode": "2820", "addr:street": "Imeldalaan", "amenity": "hospital", "email": "imeldaziekenhuis@imelda.be", "emergency": "yes", "emergency_ward": "complete", "healthcare": "hospital", "healthcare:speciality": "general", "name": "Imelda Ziekenhuis", "official_name": "Imelda Ziekenhuis", "phone": "+32 15 50 50 11", "ref:fps_health:campus": "2040", "ref:fps_health:recognition": "689", "website": "https://www.imelda.be/", "wikipedia": "nl:Imeldaziekenhuis"}}, {"name": "FPC Antwerpen", "latitude": 51.208011, "longitude": 4.3648284, "source": "osm", "_tags": {"addr:city": "Antwerpen", "addr:housenumber": "96", "addr:postcode": "2050", "addr:street": "Beatrijslaan", "amenity": "hospital", "healthcare": "hospital", "healthcare:speciality": "forensic_psychiatry", "name": "FPC Antwerpen", "operator:kbo_bce": "0555.926.992", "operator:name": "Forensisch Psychiatrische Centra"}}, {"name": "VITAZ Hamme", "latitude": 51.0929415, "longitude": 4.1390088, "source": "osm", "_tags": {"amenity": "hospital", "healthcare": "hospital", "name": "VITAZ Hamme", "old_name": "AZ Nikolaas Campus Hamme", "operator": "Vitaz", "website": "https://vitaz.be/"}}, {"name": "Psychiatrisch Centrum Sint-Hiëronymus", "latitude": 51.1628416, "longitude": 4.1335499, "source": "osm", "_tags": {"addr:housenumber": "84A", "addr:street": "Dalstraat", "alt_name": "PC Sint-Hiëronymus vzw", "amenity": "hospital", "healthcare": "hospital", "name": "Psychiatrisch Centrum Sint-Hiëronymus", "phone": "+32 3 776 00 41", "website": "https://www.hieronymus.be/"}}, {"name": "PVT Waesdonck", "latitude": 51.1821969, "longitude": 4.4572838, "source": "osm", "_tags": {"amenity": "hospital", "healthcare": "hospital", "healthcare:speciality": "psychiatry", "name": "PVT Waesdonck"}}, {"name": "Psychiatrisch Ziekenhuis Bethaniënhuis", "latitude": 51.2739957, "longitude": 4.6417208, "source": "osm", "_tags": {"amenity": "hospital", "healthcare": "hospital", "healthcare:speciality": "psychiatry", "name": "Psychiatrisch Ziekenhuis Bethaniënhuis"}}, {"name": "Instituut voor Tropische Geneeskunde", "latitude": 51.212316, "longitude": 4.3983004, "source": "osm", "_tags": {"amenity": "hospital", "healthcare": "hospital", "name": "Instituut voor Tropische Geneeskunde", "name:en": "Institute of Tropical Medicine Antwerp", "official_name": "Instituut voor Tropische Geneeskunde Prins Leopold", "short_name": "ITG", "website": "https://www.itg.be", "wikidata": "Q1881864", "wikimedia_commons": "Category:Institute of Tropical Medicine, Antwerp", "wikipedia": "nl:Instituut voor Tropische Geneeskunde"}}, {"name": "Revalidatiecentrum Pulderbos", "latitude": 51.2395896, "longitude": 4.7258587, "source": "osm", "_tags": {"addr:city": "Zandhoven", "addr:housenumber": "4", "addr:postcode": "2242", "addr:street": "Reebergenlaan", "amenity": "hospital", "email": "info@revapulderbos.be", "emergency": "no", "healthcare": "rehabilitation", "name": "Revalidatiecentrum Pulderbos", "operator": "Revalidatiecentrum Pulderbos", "operator:type": "private_non_profit", "phone": "+32 3 466 06 10", "website": "https://www.revapulderbos.be/"}}, {"name": "AZ Monica Antwerpen", "latitude": 51.2018168, "longitude": 4.4094293, "source": "osm", "_tags": {"amenity": "hospital", "healthcare": "hospital", "name": "AZ Monica Antwerpen"}}, {"name": "ZNA Sint-Elisabeth", "latitude": 51.2133553, "longitude": 4.406218, "source": "osm", "_tags": {"OnroerendErfgoed:criteria": "M", "addr:city": "Antwerpen", "addr:housenumber": "26", "addr:postcode": "2000", "addr:street": "Leopoldstraat", "alt_name": "Sint-Elisabethgasthuis", "amenity": "hospital", "description": "Gespecialiseerd ziekenhuis Revalidatie & geriatrie", "healthcare": "hospital", "healthcare:speciality": "rehabilitation;geriatrics", "heritage": "4", "heritage:operator": "OnroerendErfgoed", "heritage:website": "https://inventaris.onroerenderfgoed.be/dibe/relict/5336", "name": "ZNA Sint-Elisabeth", "operator": "Ziekenhuis Netwerk Antwerpen", "operator:short": "ZNA", "operator:wikidata": "Q14526992", "operator:wikipedia": "nl:Ziekenhuis Netwerk Antwerpen", "phone": "+32 3 234 41 11", "ref:OnroerendErfgoed": "5336", "website": "https://www.zna.be/nl/zna-sint-elisabeth", "wikidata": "Q2667287", "wikimedia_commons": "Category:Sint-Elisabethgasthuis (Antwerpen)"}}, {"name": "Institut Jules Bordet - Jules Bordet Instituut", "latitude": 50.8123739, "longitude": 4.2625889, "source": "osm", "_tags": {"addr:housenumber": "90", "addr:street": "Rue Meylemeersch - Mijlenmeersstraat", "amenity": "hospital", "contact:phone": "+32 2 541 31 11", "contact:website": "https://www.bordet.be", "emergency": "yes", "emergency_ward": "limited", "healthcare:speciality": "oncology", "name": "Institut Jules Bordet - Jules Bordet Instituut", "name:fr": "Institut Jules Bordet", "name:nl": "Jules Bordet Instituut", "note": "official classification says there's a limited emergency ward, but if there is one it is specialised in urgent cancer-related care only", "ref:fps_health:campus": "6220", "ref:fps_health:recognition": "79", "wikidata": "Q964636", "wikipedia": "fr:Institut Jules Bordet"}}, {"name": "ZNA Medisch Centrum Kaai 142", "latitude": 51.2567125, "longitude": 4.4156351, "source": "osm", "_tags": {"addr:city": "Antwerpen", "addr:housenumber": "3", "addr:postcode": "2030", "addr:street": "Mulhouselaan-Noord", "amenity": "hospital", "healthcare": "hospital", "healthcare:speciality": "emergency", "name": "ZNA Medisch Centrum Kaai 142", "operator": "Ziekenhuis Netwerk Antwerpen", "operator:short": "ZNA", "operator:wikidata": "Q14526992", "phone": "+32 3 543 92 40", "website": "https://www.zna.be/nl/zna-medisch-centrum-kaai-142"}}, {"name": "AZ Rivierenland campus Rumst", "latitude": 51.1063345, "longitude": 4.3718481, "source": "osm", "_tags": {"addr:housenumber": "172", "addr:street": "'s Herenbaan", "amenity": "hospital", "emergency": "yes", "emergency_ward": "complete", "healthcare": "hospital", "healthcare:speciality": "general", "name": "AZ Rivierenland campus Rumst", "operator:phone": "+32 3 880 90 11", "ref:fps_health:campus": "1270", "ref:fps_health:recognition": "104", "website": "https://www.azrivierenland.be/"}}, {"name": "AZ Rivierenland campus Bornem", "latitude": 51.0996282, "longitude": 4.2317726, "source": "osm", "_tags": {"addr:city": "Bornem", "addr:housenumber": "23", "addr:postcode": "2880", "addr:street": "Kasteelstraat", "amenity": "hospital", "emergency": "yes", "emergency_ward": "yes", "healthcare": "hospital", "healthcare:speciality": "psychiatry;gynaecology;orthopaedics;emergency;radiology;intensive;maternity;cardiology;oncology;nephrology;anaesthetics;blood_check;endocrinology;dental_oral_maxillo_facial_surgery;diabetology;cardiothoracic_surgery;stomatology;urology;vascular_surgery;ga", "name": "AZ Rivierenland campus Bornem", "operator": "AZ Rivierenland", "ref:fps_health:campus": "2060", "ref:fps_health:recognition": "104", "website": "https://www.azrivierenland.be/"}}, {"name": "AZ Klina", "latitude": 51.2987014, "longitude": 4.4905387, "source": "osm", "_tags": {"amenity": "hospital", "contact:website": "https://www.azklina.be/", "emergency": "yes", "emergency_ward": "complete", "healthcare": "hospital", "healthcare:speciality": "general", "name": "AZ Klina", "official_name": "AZ Klina - Klina Brasschaat", "ref:fps_health:campus": "3450", "ref:fps_health:recognition": "710", "toilets:wheelchair": "yes", "toilets:wheelchair:accessible_via": "groundfloor", "toilets:wheelchair:grab_rails": "yes", "wheelchair": "yes"}}, {"name": "AZ Rivierenland campus Willebroek", "latitude": 51.0543556, "longitude": 4.3587488, "source": "osm", "_tags": {"addr:city": "Willebroek", "amenity": "hospital", "healthcare": "hospital", "name": "AZ Rivierenland campus Willebroek", "website": "https://www.azrivierenland.be/"}}, {"name": "Vitaz Campus Lokeren", "latitude": 51.1011343, "longitude": 4.0012961, "source": "osm", "_tags": {"amenity": "hospital", "emergency": "yes", "healthcare": "hospital", "name": "Vitaz Campus Lokeren", "operator": "Vitaz", "operator:type": "public", "url": "https://www.vitaz.be/medische-hulppost-lokeren"}}, {"name": "Heilig Hart Ziekenhuis", "latitude": 51.132429, "longitude": 4.5648763, "source": "osm", "_tags": {"amenity": "hospital", "emergency": "yes", "emergency_telephone_code": "+32 034 912 344", "emergency_ward": "complete", "healthcare": "hospital", "healthcare:speciality": "general", "name": "Heilig Hart Ziekenhuis", "official_name": "Algemeen Ziekenhuis Heilig Hart", "phone": "+32 034 912 345", "ref:fps_health:campus": "1260", "ref:fps_health:recognition": "97", "short_name": "AZ Heilig Hart"}}, {"name": "ZNA Hoge Beuken", "latitude": 51.1842757, "longitude": 4.3533165, "source": "osm", "_tags": {"addr:city": "Hoboken", "addr:housenumber": "165", "addr:postcode": "2660", "addr:street": "Commandant Weynsstraat", "amenity": "hospital", "healthcare": "hospital", "healthcare:speciality": "geriatrics;rehabilitation", "name": "ZNA Hoge Beuken", "operator": "Ziekenhuis Netwerk Antwerpen", "operator:short": "ZNA", "operator:wikidata": "Q14526992", "operator:wikipedia": "nl:Ziekenhuis Netwerk Antwerpen", "phone": "+32 3 830 90 90", "website": "https://www.zna.be/nl/zna-hoge-beuken"}}, {"name": "Campus De Mick", "latitude": 51.3073643, "longitude": 4.5445374, "source": "osm", "_tags": {"addr:housenumber": "30", "addr:street": "Papestraat", "amenity": "hospital", "healthcare": "hospital", "name": "Campus De Mick", "operator": "Klina", "phone": "+32 3 217 10 11", "website": "https://demick.be", "wikipedia": "nl:De Mick"}}, {"name": "Campus Alexianen", "latitude": 51.161723, "longitude": 4.5025054, "source": "osm", "_tags": {"amenity": "hospital", "healthcare": "hospital", "name": "Campus Alexianen", "wikipedia": "nl:Psychiatrisch Centrum Broeders Alexianen"}}, {"name": "CHU Charleroi - La Madeleine", "latitude": 50.4471913, "longitude": 4.4259719, "source": "osm", "_tags": {"amenity": "hospital", "healthcare": "hospital", "name": "CHU Charleroi - La Madeleine"}}, {"name": "UZ Pellenberg", "latitude": 50.8616805, "longitude": 4.800384, "source": "osm", "_tags": {"amenity": "hospital", "check_date": "2024-07-28", "healthcare": "hospital", "name": "UZ Pellenberg"}}, {"name": "AZ Sint-Maarten - TheA", "latitude": 51.0510843, "longitude": 4.4786468, "source": "osm", "_tags": {"amenity": "hospital", "building": "yes", "healthcare": "hospital", "healthcare:speciality": "psychiatry", "name": "AZ Sint-Maarten - TheA"}}, {"name": "CHU Charleroi-Chimay - Marie Curie (Lodelinsart)", "latitude": 50.4310358, "longitude": 4.4379449, "source": "osm", "_tags": {"addr:city": "Lodelinsart", "addr:housenumber": "140", "addr:postcode": "6042", "addr:street": "Chaussée de Bruxelles", "amenity": "hospital", "emergency": "yes", "emergency_ward": "complete", "healthcare": "hospital", "healthcare:speciality": "general", "name": "CHU Charleroi-Chimay - Marie Curie (Lodelinsart)", "name:etymology:wikidata": "Q7186", "operator": "CHU Charleroi-Chimay", "phone": "+32 71 92 07 01", "ref:fps_health:campus": "3130", "ref:fps_health:recognition": "718", "website": "https://www.chu-charleroi.be/sites/hopital-civil-marie-curie", "wheelchair": "yes", "wikidata": "Q19951058", "wikipedia": "fr:Hôpital civil Marie Curie"}}, {"name": "AZ Jan Portaels", "latitude": 50.9275605, "longitude": 4.4181883, "source": "osm", "_tags": {"addr:housenumber": "65", "addr:street": "Gendarmeriestraat", "amenity": "hospital", "contact:phone": "+32 2 254 64 00", "contact:website": "https://www.azjanportaels.be/", "emergency": "yes", "emergency_ward": "complete", "healthcare": "hospital", "healthcare:speciality": "general", "name": "AZ Jan Portaels", "official_name": "Az Jan Portaels", "ref:fps_health:campus": "1460", "ref:fps_health:recognition": "204"}}, {"name": "VITAZ Campus Temse", "latitude": 51.1282402, "longitude": 4.2148078, "source": "osm", "_tags": {"amenity": "hospital", "emergency": "no", "healthcare": "hospital", "name": "VITAZ Campus Temse"}}, {"name": "Algemeen Ziekenhuis Sint-Blasius", "latitude": 51.0264285, "longitude": 4.1139752, "source": "osm", "_tags": {"addr:housenumber": "50", "addr:street": "Kroonveldlaan", "amenity": "hospital", "emergency": "yes", "emergency_ward": "complete", "healthcare:speciality": "general", "name": "Algemeen Ziekenhuis Sint-Blasius", "phone": "+32 52 25 20 11", "ref:fps_health:campus": "3460", "ref:fps_health:recognition": "12", "website": "https://www.azsintblasius.be/"}}, {"name": "Hôpital Molière-Longchamp - Ziekenhuis Molière-Longchamp", "latitude": 50.8164273, "longitude": 4.3423404, "source": "osm", "_tags": {"addr:housenumber": "142", "addr:street": "Rue Marconi - Marconistraat", "amenity": "hospital", "emergency": "yes", "healthcare": "hospital", "name": "Hôpital Molière-Longchamp - Ziekenhuis Molière-Longchamp", "name:fr": "Hôpital Molière-Longchamp", "name:nl": "Ziekenhuis Molière-Longchamp", "old_name": "Hôpital civil de Saint-Gilles - Burgerlijk ziekenhuis van Sint-Gillis", "old_name:fr": "Hôpital civil de Saint-Gilles - Burgerlijk ziekenhuis van Sint-Gillis", "old_name:nl": "Burgerlijk ziekenhuis van Sint-Gillis"}}, {"name": "CHU HELORA - Hôpital de La Louvière - Site Jolimont", "latitude": 50.4774874, "longitude": 4.2150789, "source": "osm", "_tags": {"addr:city": "Haine-Saint-Paul", "addr:housenumber": "159", "addr:postcode": "7100", "addr:street": "Rue Ferrer", "alt_name": "Hôpital de Jolimont", "amenity": "hospital", "emergency": "yes", "healthcare": "hospital", "name": "CHU HELORA - Hôpital de La Louvière - Site Jolimont", "operator": "HELORA", "operator:type": "university", "phone": "+32 64 23 30 11", "start_date": "1881", "website": "https://www.helora.be/hopitaux/hopital-de-la-louviere-site-jolimont"}}, {"name": "Centre de consultations du groupe Jolimont", "latitude": 50.4784187, "longitude": 4.1752959, "source": "osm", "_tags": {"addr:city": "La Louvière", "addr:housenumber": "31", "addr:postcode": "7100", "addr:street": "Rue Gustave Boël", "amenity": "hospital", "building": "hospital", "name": "Centre de consultations du groupe Jolimont", "source:geometry:date": "2016-06-15", "source:geometry:ref": "Picc/1462799;Picc/1374803;Picc/3618394;Picc/1650624"}}, {"name": "OLV Ziekenhuis Campus Ninove", "latitude": 50.83705, "longitude": 4.021101, "source": "osm", "_tags": {"amenity": "hospital", "healthcare": "hospital", "name": "OLV Ziekenhuis Campus Ninove"}}, {"name": "UZ Leuven campus Gasthuisberg", "latitude": 50.8799163, "longitude": 4.6729918, "source": "osm", "_tags": {"addr:city": "Leuven", "addr:housenumber": "49", "addr:postcode": "3000", "addr:street": "Herestraat", "alt_name": "Gasthuisberg", "amenity": "hospital", "emergency": "yes", "emergency_ward": "complete", "healthcare": "hospital", "healthcare:speciality": "general;psychiatry;paediatrics;dentistry;ophthalmology;orthopaedics;gynaecology;emergency;surgery;cardiology;oncology;dermatology;radiology;internal;biology;maternity;geriatrics", "name": "UZ Leuven campus Gasthuisberg", "name:etymology:wikidata": "Q3318163", "operator": "UZ KU Leuven", "operator:type": "private", "phone": "+32 16 33 22 11", "ref:fps_health:campus": "4230", "ref:fps_health:recognition": "322", "website": "https://www.uzleuven.be/nl/campus-gasthuisberg"}}, {"name": "AZ Herentals", "latitude": 51.184669, "longitude": 4.8360189, "source": "osm", "_tags": {"amenity": "hospital", "emergency": "yes", "emergency_telephone_code": "+32 014 246 003", "emergency_ward": "complete", "healthcare": "hospital", "healthcare:speciality": "general", "name": "AZ Herentals", "old_name": "Sint Elisabeth", "phone": "+32 014 246 111", "ref:fps_health:campus": "1250", "ref:fps_health:recognition": "308", "short_name": "AZH", "website": "https://www.azherentals.be/"}}, {"name": "UPC geestelijke gezondheidszorg emmaüs", "latitude": 51.0935829, "longitude": 4.4953156, "source": "osm", "_tags": {"amenity": "hospital", "emergency": "no", "healthcare": "hospital", "healthcare:speciality": "psychiatry", "name": "UPC geestelijke gezondheidszorg emmaüs", "operator": "UPC"}}, {"name": "ZNA Joostens", "latitude": 51.2602248, "longitude": 4.6257176, "source": "osm", "_tags": {"addr:city": "Zoersel", "addr:housenumber": "133", "addr:postcode": "2980", "addr:street": "Kapellei", "amenity": "hospital", "healthcare": "hospital", "healthcare:speciality": "Psychogeriatrie_en_Woonzorgcentrum;Kapellei", "name": "ZNA Joostens", "operator": "ZNA", "phone": "+32 3 384 56 06", "website": "https://www.zna.be/nl/zna-joostens"}}, {"name": "Universitair Ziekenhuis Brussel", "latitude": 50.8877263, "longitude": 4.3084724, "source": "osm", "_tags": {"amenity": "hospital", "contact:email": "info@uzbrussel.be", "contact:phone": "+32 2 477 41 11", "contact:website": "https://www.uzbrussel.be/", "emergency": "yes", "healthcare": "hospital", "name": "Universitair Ziekenhuis Brussel", "short_name": "UZ Brussel", "wikidata": "Q2123187", "wikipedia": "nl:Universitair Ziekenhuis Brussel"}}, {"name": "CHU Tivoli", "latitude": 50.4777782, "longitude": 4.2072832, "source": "osm", "_tags": {"addr:city": "La Louvière", "addr:housenumber": "34", "addr:postcode": "7100", "addr:street": "Avenue Max Buset", "alt_name": "Centre Hospitalier Universitaire du Tivoli", "amenity": "hospital", "emergency": "yes", "emergency_ward": "complete", "healthcare": "hospital", "healthcare:speciality": "general;psychiatry;dentistry;emergency;ophthalmology", "name": "CHU Tivoli", "ref:fps_health:campus": "3220", "ref:fps_health:recognition": "96", "toilets:wheelchair": "yes", "website": "https://www.chu-tivoli.be/", "wheelchair": "yes"}}, {"name": "Hôpital de Nivelles", "latitude": 50.5950833, "longitude": 4.3171263, "source": "osm", "_tags": {"addr:city": "Nivelles", "addr:housenumber": "1", "addr:postcode": "1400", "addr:street": "Rue Samiette", "amenity": "hospital", "emergency": "yes", "emergency_ward": "complete", "healthcare:speciality": "general", "name": "Hôpital de Nivelles", "official_name": "Chu Helora - Site Nivelles - Tubize - Nivelles", "phone": "+32 67 88 52 11", "ref:fps_health:campus": "1710", "ref:fps_health:recognition": "346", "website": "https://www.jolimont.be/hopitaux/hopital-de-nivelles"}}, {"name": "CHR Haute Senne - Site Le Tilleriau", "latitude": 50.5813401, "longitude": 4.0804897, "source": "osm", "_tags": {"addr:city": "Soignies", "addr:housenumber": "49", "addr:postcode": "7060", "addr:street": "Chaussée de Braine", "amenity": "hospital", "email": "info@chrhautesenne.be", "emergency": "yes", "emergency_ward": "complete", "healthcare": "hospital", "healthcare:speciality": "general", "name": "CHR Haute Senne - Site Le Tilleriau", "phone": "+32 67 34 84 11", "ref:fps_health:campus": "2790", "ref:fps_health:recognition": "7", "website": "https://chrhautesenne.be/fr/sites/2/le-tilleriau"}}, {"name": "CHU Saint-Pierre (César de Paepe) - UMC Sint-Pieter (César de Paepe)", "latitude": 50.8432784, "longitude": 4.3494582, "source": "osm", "_tags": {"amenity": "hospital", "branch": "Alexiens/CDP", "contact:phone": "+32 2 506 71 11", "contact:website": "https://www.stpierre-bru.be/sites-cesar-de-paepe-porte-de-hal/", "healthcare": "hospital", "name": "CHU Saint-Pierre (César de Paepe) - UMC Sint-Pieter (César de Paepe)", "name:fr": "CHU Saint-Pierre (César de Paepe)", "name:nl": "UMC Sint-Pieter (César de Paepe)"}}, {"name": "Universitair Ziekenhuis Antwerpen", "latitude": 51.1569755, "longitude": 4.4124612, "source": "osm", "_tags": {"addr:city": "Edegem", "addr:country": "BE", "addr:housenumber": "655", "addr:postcode": "2650", "addr:street": "Drie Eikenstraat", "amenity": "hospital", "email": "vragen@uza.be", "emergency": "yes", "emergency_ward": "complete", "healthcare": "hospital", "healthcare:speciality": "general", "name": "Universitair Ziekenhuis Antwerpen", "phone": "+32 3 821 30 00", "ref:fps_health:campus": "4220", "ref:fps_health:recognition": "300", "website": "https://www.uza.be/", "wikidata": "Q2936440", "wikipedia": "nl:Universitair Ziekenhuis Antwerpen"}}, {"name": "CHR Sambre & Meuse - Site Meuse", "latitude": 50.467608, "longitude": 4.8866879, "source": "osm", "_tags": {"addr:city": "Namur", "addr:country": "BE", "addr:housenumber": "185", "addr:postcode": "5000", "addr:street": "Avenue Albert 1er", "amenity": "hospital", "emergency": "yes", "emergency_ward": "complete", "healthcare": "hospital", "healthcare:speciality": "general", "name": "CHR Sambre & Meuse - Site Meuse", "phone": "+32 81 72 61 11", "ref:fps_health:campus": "3300", "ref:fps_health:recognition": "6", "website": "https://meuse.chrsm.be/"}}, {"name": "Clinique Saint-Luc Bouge", "latitude": 50.4772401, "longitude": 4.8803688, "source": "osm", "_tags": {"amenity": "hospital", "emergency": "yes", "healthcare": "hospital", "healthcare:speciality": "general", "name": "Clinique Saint-Luc Bouge", "operator": "Clinique Saint-Luc", "phone": "+32 81 20 91 11", "website": "https://slbo.be/centre/clinique-saint-luc-bouge/", "wheelchair": "yes"}}, {"name": "PVT Andreas campus Lubbeek", "latitude": 50.8807916, "longitude": 4.8440746, "source": "osm", "_tags": {"addr:housenumber": "2", "addr:street": "Binkomstraat", "amenity": "hospital", "healthcare": "rehabilitation", "healthcare:speciality": "psychiatry", "long_name": "Psychiatrisch VerzorgingsTehuis Andreas Campus Lubbeek", "name": "PVT Andreas campus Lubbeek", "operator": "Z.org KU Leuven", "short_name": "PVT Andreas Lubbeek", "website": "https://www.zorgkuleuven.be/andreas/?sp=pvtcontact"}}, {"name": "Cliniques universitaires Saint-Luc", "latitude": 50.8518639, "longitude": 4.4529825, "source": "osm", "_tags": {"alt_name": "UCLouvain Saint-Luc", "amenity": "hospital", "contact:phone": "+32 2 764 11 11", "contact:website": "https://www.saintluc.be/", "emergency": "yes", "emergency_ward": "complete", "healthcare": "hospital", "name": "Cliniques universitaires Saint-Luc", "name:fr": "Cliniques universitaires Saint-Luc", "name:nl": "Universitair ziekenhuis UCLouvain Saint-Luc", "operator": "H.uni", "operator:type": "university", "ref:fps_health:campus": "4190", "ref:fps_health:recognition": "403", "short_name": "UCL", "toilets:wheelchair": "yes", "type": "multipolygon", "wheelchair": "yes", "wikidata": "Q2979314", "wikipedia": "fr:Cliniques universitaires Saint-Luc"}}, {"name": "Centre Hospitalier Régional du Val de Sambre", "latitude": 50.4351815, "longitude": 4.6273207, "source": "osm", "_tags": {"addr:city": "Auvelais", "addr:country": "BE", "addr:housename": "Centre Hospitalier Régional du Val de Sambre", "addr:housenumber": "75", "addr:postcode": "5060", "addr:province": "Namur", "addr:street": "Rue Chère-Voie", "amenity": "hospital", "building": "yes", "name": "Centre Hospitalier Régional du Val de Sambre", "old_name": "Clinique Reine Fabiola", "phone": "+32 71 26 52 11", "type": "multipolygon", "website": "http://www.chrvs.be/Accueil.aspx"}}, {"name": "CHU Saint-Pierre - UMC Sint-Pieter", "latitude": 50.8346949, "longitude": 4.3473406, "source": "osm", "_tags": {"amenity": "hospital", "emergency": "yes", "healthcare": "hospital", "name": "CHU Saint-Pierre - UMC Sint-Pieter", "name:en": "Saint-Pierre University Hospital", "name:fr": "CHU Saint-Pierre", "name:nl": "UMC Sint-Pieter", "type": "multipolygon", "website": "https://www.stpierre-bru.be/", "wikidata": "Q3145220", "wikipedia": "fr:Hôpital Saint-Pierre"}}, {"name": "Hôpital Érasme - Erasmusziekenhuis", "latitude": 50.813812, "longitude": 4.265808, "source": "osm", "_tags": {"amenity": "hospital", "emergency": "yes", "emergency_ward": "complete", "healthcare": "hospital", "healthcare:speciality": "general", "name": "Hôpital Érasme - Erasmusziekenhuis", "name:en": "Erasmus Hospital", "name:fr": "Hôpital Érasme", "name:nl": "Erasmusziekenhuis", "ref:fps_health:campus": "4210", "ref:fps_health:recognition": "406", "type": "multipolygon", "wikipedia": "fr:Hôpital Érasme"}}]