[{"name": "Szpital im. Rudolfa Weigla", "latitude": 50.7682286, "longitude": 18.9706584, "source": "osm", "_tags": {"addr:city": "Blachownia", "addr:housenumber": "16", "addr:postcode": "42-290", "addr:street": "Sosnowa", "amenity": "hospital", "healthcare": "hospital", "name": "Szpital im. Rudolfa Weigla", "operator": "Scanmed S.A."}}, {"name": "Centrum Medyczne Anmedlife", "latitude": 50.7248287, "longitude": 19.4359628, "source": "osm", "_tags": {"addr:city": "Janów", "addr:city:simc": "0133273", "addr:housenumber": "18", "addr:postcode": "42-253", "addr:street": "Żurawska", "addr:street:sym_ul": "26587", "amenity": "hospital", "healthcare": "hospital", "healthcare:speciality": "cardiology;gynaecology;psychology;laryngology;diagnostic_radiology;surgery;solarium;neurology", "name": "Centrum Medyczne Anmedlife", "source": "www.geoportal.gov.pl", "source:addr": "janowczestochowski.e-mapa.net"}}, {"name": "Wojewódzki Szpital Specjalistyczny im. Najświętszej Maryi Panny", "latitude": 50.8297947, "longitude": 19.0917658, "source": "osm", "_tags": {"addr:city": "Częstochowa", "addr:housenumber": "104/118", "addr:postcode": "42-218", "addr:street": "Bialska", "amenity": "hospital", "healthcare": "hospital", "name": "Wojewódzki Szpital Specjalistyczny im. Najświętszej Maryi Panny"}}, {"name": "Szpital Wojewódzki im. Jana Pawła II w Bełchatowie", "latitude": 51.3754261, "longitude": 19.3520141, "source": "osm", "_tags": {"amenity": "hospital", "email": "szpital@szpital-belchatow.pl", "healthcare": "hospital", "name": "Szpital Wojewódzki im. Jana Pawła II w Bełchatowie", "phone": "+44 635 85 55", "website": "https://szpital-belchatow.pl"}}, {"name": "Uniwersytecki Szpital Kliniczny w Radomsku", "latitude": 51.0568543, "longitude": 19.4601017, "source": "osm", "_tags": {"amenity": "hospital", "email": "sekretariat@szpital.biz.pl", "healthcare": "hospital", "name": "Uniwersytecki Szpital Kliniczny w Radomsku", "old_name": "Szpital Powiatowy w Radomsku", "phone": "44 685 47 16", "website": "http://999.szpital.biz.pl"}}, {"name": "Miejski Szpital Zespolony", "latitude": 50.8128861, "longitude": 19.1339808, "source": "osm", "_tags": {"amenity": "hospital", "healthcare": "hospital", "name": "Miejski Szpital Zespolony", "source": "e.czestochowa.pl (wms:ortofoto)", "website": "https://www.zsm.czest.pl/"}}, {"name": "Szpital Powiatowy w Myszkowie", "latitude": 50.5721569, "longitude": 19.3049436, "source": "osm", "_tags": {"amenity": "hospital", "emergency": "yes", "healthcare": "hospital", "name": "Szpital Powiatowy w Myszkowie"}}, {"name": "Miejski Szpital Zespolony im. dr. Władysława Biegańskiego", "latitude": 50.8014084, "longitude": 19.1149404, "source": "osm", "_tags": {"addr:city": "Częstochowa", "addr:housenumber": "12", "addr:postcode": "42-217", "addr:street": "Adama Mickiewicza", "amenity": "hospital", "healthcare": "hospital", "name": "Miejski Szpital Zespolony im. dr. Władysława Biegańskiego"}}, {"name": "Wojewódzki Szpital Zespolony im. prof. dr. Witolda Orłowskiego w Częstochowie", "latitude": 50.8296018, "longitude": 19.1127173, "source": "osm", "_tags": {"addr:city": "Częstochowa", "addr:housenumber": "7", "addr:postcode": "42-218", "addr:street": "Polskiego Czerwonego Krzyża", "amenity": "hospital", "healthcare": "hospital", "name": "Wojewódzki Szpital Zespolony im. prof. dr. Witolda Orłowskiego w Częstochowie"}}, {"name": "SP ZOZ Miejski Szpital Zespolony im. dr Tytusa Chałubińskiego", "latitude": 50.8077558, "longitude": 19.0951511, "source": "osm", "_tags": {"addr:city": "Częstochowa", "addr:housenumber": "1/3", "addr:postcode": "42-226", "addr:street": "Bony Sforzy", "amenity": "hospital", "building": "yes", "healthcare": "hospital", "name": "SP ZOZ Miejski Szpital Zespolony im. dr Tytusa Chałubińskiego"}}, {"name": "Powiatowe Centrum Matki i Dziecka", "latitude": 51.4003807, "longitude": 19.6904147, "source": "osm", "_tags": {"addr:city": "Piotrków Trybunalski", "addr:housenumber": "3", "addr:postcode": "97-300", "addr:street": "Franklina Roosevelta", "amenity": "hospital", "healthcare": "hospital", "name": "Powiatowe Centrum Matki i Dziecka"}}, {"name": "Samodzielny Szpital Wojewódzki im. Mikołaja Kopernika w Piotrkowie Trybunalskim", "latitude": 51.4185511, "longitude": 19.7144259, "source": "osm", "_tags": {"addr:city": "Piotrków Trybunalski", "addr:housenumber": "15", "addr:postcode": "97-300", "addr:street": "Rakowska", "amenity": "hospital", "healthcare": "hospital", "name": "Samodzielny Szpital Wojewódzki im. Mikołaja Kopernika w Piotrkowie Trybunalskim"}}, {"name": "Szpital Chorób Wewnętrznych", "latitude": 50.7894494, "longitude": 19.1731861, "source": "osm", "_tags": {"amenity": "hospital", "healthcare": "hospital", "name": "Szpital Chorób Wewnętrznych"}}, {"name": "Szpital Powiatowy w Zawierciu", "latitude": 50.4815294, "longitude": 19.4076614, "source": "osm", "_tags": {"amenity": "hospital", "emergency": "yes", "healthcare": "hospital", "name": "Szpital Powiatowy w Zawierciu", "phone": "+48 32 674 02 00", "wikidata": "Q24945693", "wikipedia": "pl:Szpital Powiatowy w Zawierciu"}}, {"name": "Szpital Chorób Płuc w Siewierzu", "latitude": 50.4739166, "longitude": 19.2390456, "source": "osm", "_tags": {"amenity": "hospital", "healthcare": "hospital", "name": "Szpital Chorób Płuc w Siewierzu", "website": "https://szpital-siewierz.pl/"}}, {"name": "", "latitude": 50.7681551, "longitude": 18.9705632, "source": "osm", "_tags": {"amenity": "hospital", "healthcare": "hospital"}}, {"name": "Samodzielny Publiczny Zespół Opieki Zdrowotnej", "latitude": 51.1467313, "longitude": 19.000516, "source": "osm", "_tags": {"amenity": "hospital", "healthcare": "hospital", "name": "Samodzielny Publiczny Zespół Opieki Zdrowotnej"}}]