[{"name": "Szpital zakonu oo. Kamilianów", "latitude": 50.4382603, "longitude": 18.8631651, "source": "osm", "_tags": {"addr:housenumber": "22", "addr:street": "Bytomska", "amenity": "hospital", "healthcare": "hospital", "name": "Szpital zakonu oo. Kamilianów", "source": "survey"}}, {"name": "Szpital powiatowy nr 1", "latitude": 50.4482991, "longitude": 18.8517882, "source": "osm", "_tags": {"amenity": "hospital", "healthcare": "hospital", "name": "Szpital powiatowy nr 1"}}, {"name": "Wielospecjalistyczny Szpital Powiatowy S.A. im. Bronisława Hagera w Tarnowskich Górach", "latitude": 50.4469738, "longitude": 18.8512907, "source": "osm", "_tags": {"amenity": "hospital", "healthcare": "hospital", "name": "Wielospecjalistyczny Szpital Powiatowy S.A. im. Bronisława Hagera w Tarnowskich Górach"}}, {"name": "Szpital Rejonowy im. dr Anki w Krzepicach", "latitude": 50.9703948, "longitude": 18.7287068, "source": "osm", "_tags": {"amenity": "hospital", "emergency": "yes", "healthcare": "hospital", "name": "Szpital Rejonowy im. dr Anki w Krzepicach"}}, {"name": "Wielospecjalistyczny Szpital Powiatowy im. dr B. Hagera", "latitude": 50.4399298, "longitude": 18.8061376, "source": "osm", "_tags": {"addr:city": "Tarnowskie Góry", "addr:housenumber": "47-51", "addr:postcode": "42-612", "addr:street": "Pyskowicka", "amenity": "hospital", "healthcare": "hospital", "name": "Wielospecjalistyczny Szpital Powiatowy im. dr B. Hagera", "phone": "+48 32 285-42-13", "website": "https://www.wspsa.pl/"}}, {"name": "", "latitude": 50.4398924, "longitude": 18.8057335, "source": "osm", "_tags": {"addr:city": "Tarnowskie Góry", "addr:housenumber": "49", "addr:postcode": "42-612", "addr:street": "Pyskowicka", "amenity": "hospital", "building": "yes", "healthcare": "hospital", "source": "Bing/UM TG", "source:addr": "EMUiA"}}, {"name": "Szpital psychiatryczny", "latitude": 50.4527505, "longitude": 18.5230137, "source": "osm", "_tags": {"addr:city": "Toszek", "addr:housenumber": "5D", "addr:postcode": "44-180", "addr:street": "Gliwicka", "amenity": "hospital", "building": "hospital", "healthcare": "hospital", "name": "Szpital psychiatryczny", "source:addr": "EMUiA@iMPA (toszek.e-mapa.net)"}}, {"name": "Szpital Powiatowy im. Prałata J. Glowatzkiego w Strzelcach Opolskich", "latitude": 50.5149097, "longitude": 18.2915081, "source": "osm", "_tags": {"amenity": "hospital", "contact:email": "szpital@szpital.strzelce-op.pl", "contact:fax": "+48 77 40 70 132;+48 77 461 27 63", "contact:phone": "+48 77 40 70 100", "healthcare": "hospital", "name": "Szpital Powiatowy im. Prałata J. Glowatzkiego w Strzelcach Opolskich", "website": "https://www.szpital.strzelce-op.pl/"}}, {"name": "Wojewódzki Specjalistyczny Zespół Neuropsychiatryczny", "latitude": 50.6754746, "longitude": 17.940571, "source": "osm", "_tags": {"amenity": "hospital", "name": "Wojewódzki Specjalistyczny Zespół Neuropsychiatryczny"}}, {"name": "Uniwersytecki Szpital Kliniczny w Opolu", "latitude": 50.6765982, "longitude": 17.9765516, "source": "osm", "_tags": {"addr:city": "Opole", "addr:housenumber": "26", "addr:postcode": "45-401", "addr:street": "Aleja Wincentego Witosa", "amenity": "hospital", "healthcare": "hospital", "healthcare:speciality": "general", "name": "Uniwersytecki Szpital Kliniczny w Opolu", "old_name": "Wojewódzkie Centrum Medyczne", "website": "http://www.wcm.opole.pl", "wheelchair": "yes", "wikidata": "Q50037277", "wikipedia": "pl:Uniwersytecki Szpital Kliniczny w Opolu"}}, {"name": "SPZOZ Szpital im. dr. Z. Patryna", "latitude": 51.2127308, "longitude": 18.56528, "source": "osm", "_tags": {"amenity": "hospital", "healthcare": "hospital", "name": "SPZOZ Szpital im. dr. Z. Patryna", "phone": "+48 43 84-06-700", "website": "http://www.szpital.powiat.wielun.pl"}}, {"name": "Szpital Powiatowy", "latitude": 50.6654082, "longitude": 18.6809486, "source": "osm", "_tags": {"addr:city": "Lubliniec", "addr:housenumber": "9", "addr:postcode": "42-700", "addr:street": "Jana III Sobieskiego", "amenity": "hospital", "email": "sekretariat@spzozlubliniec.pl", "emergency": "yes", "fax": "+48 34 356 58 70", "healthcare": "hospital", "name": "Szpital Powiatowy", "phone": "+48 34 350 63 80", "website": "https://www.szpitallubliniec.pl"}}, {"name": "Wojewódzki Szpital Neuropsychiatryczny im. dr Emila Cyrana", "latitude": 50.6640667, "longitude": 18.6774638, "source": "osm", "_tags": {"addr:city": "Lubliniec", "addr:housenumber": "48", "addr:postcode": "42-700", "addr:street": "Grunwaldzka", "amenity": "hospital", "email": "sekretariat@wsnlc.pl", "healthcare": "hospital", "name": "Wojewódzki Szpital Neuropsychiatryczny im. dr Emila Cyrana", "old_name": "Zakład Psychiatryczny", "phone": "+48 34 353 28 00", "website": "https://wsnlc.pl/", "wikidata": "Q9377113", "wikipedia": "pl:Wojewódzki Szpital Neuropsychiatryczny w Lublińcu"}}, {"name": "Szpital Powiatowy w Oleśnie", "latitude": 50.8806927, "longitude": 18.4123226, "source": "osm", "_tags": {"amenity": "hospital", "contact:fax": "+48 34 358 28 55", "contact:phone": "+48 34 350 96 65, +48 34 350 96 34, +48 34 350 97 00", "name": "Szpital Powiatowy w Oleśnie", "operator": "Starostwo Powiatowe Olesno", "website": "http://szpitalolesno.pl/"}}, {"name": "Powiatowe Centrum Medyczne - Szpital Powiatowy w Wieruszowie", "latitude": 51.2940217, "longitude": 18.1647489, "source": "osm", "_tags": {"addr:city": "Wieruszów", "addr:city:simc": "0937400", "addr:postcode": "98-400", "addr:street": "Warszawska", "addr:street:sym_ul": "23682", "amenity": "hospital", "email": "sekretariat@pcm-nzoz-wieruszow.pl", "healthcare": "hospital", "name": "Powiatowe Centrum Medyczne - Szpital Powiatowy w Wieruszowie", "phone": "+48 459 595 112", "source:addr": "wieruszow.e-mapa.net", "website": "https://www.pcm-nzoz-wieruszow.pl/"}}, {"name": "Szpital św. Rocha", "latitude": 50.6816436, "longitude": 18.2199761, "source": "osm", "_tags": {"addr:city": "Ozimek", "addr:housenumber": "31", "addr:postcode": "46-040", "addr:street": "Częstochowska", "amenity": "hospital", "building": "yes", "name": "Szpital św. Rocha", "source": "http://sdi.opolskie.pl/mapa_bazowa/request.aspx", "website": "http://ozimek.emc-sa.pl/pl/szpital-sw-rocha"}}, {"name": "Szpital Rejonowy im.dr Anki", "latitude": 50.9703834, "longitude": 18.7287045, "source": "osm", "_tags": {"addr:city": "Krzepice", "addr:city:simc": "0931862", "addr:housenumber": "1", "addr:postcode": "42-160", "addr:street": "Szkolna", "addr:street:sym_ul": "21970", "amenity": "hospital", "building": "yes", "emergency": "ambulance_station", "healthcare": "hospital", "name": "Szpital Rejonowy im.dr Anki", "source:addr": "emuia.gugik.gov.pl"}}, {"name": "SPZOZ w Kępnie, Oddział Leczniczo-Rehabilitacyjny", "latitude": 51.245242, "longitude": 17.9717138, "source": "osm", "_tags": {"addr:city:simc": "0193520", "addr:housenumber": "97", "addr:place": "Grębanin", "amenity": "hospital", "building": "yes", "name": "SPZOZ w Kępnie, Oddział Leczniczo-Rehabilitacyjny", "source:addr": "baranowkepinski.e-mapa.net", "website": "https://www.szpital.kepno.pl/index.php/oddzialy-szpitalne/oddzial-leczniczo-rehabilitacyjny/26-oddzial-leczniczo-rehabilitacyjny-w-grebaninie"}}, {"name": "Szpital Rejonowy w Kłobucku", "latitude": 50.9063272, "longitude": 18.9371352, "source": "osm", "_tags": {"amenity": "hospital", "healthcare": "hospital", "name": "Szpital Rejonowy w Kłobucku"}}, {"name": "", "latitude": 50.66206, "longitude": 18.6791736, "source": "osm", "_tags": {"addr:city": "Lubliniec", "addr:housenumber": "64", "addr:postcode": "42-700", "addr:street": "Grunwaldzka", "amenity": "hospital", "healthcare": "hospital"}}, {"name": "", "latitude": 50.4523645, "longitude": 18.519812, "source": "osm", "_tags": {"amenity": "hospital", "healthcare": "hospital"}}, {"name": "Powiatowe Centrum Zdrowia S.A.", "latitude": 50.9673422, "longitude": 18.2167247, "source": "osm", "_tags": {"amenity": "hospital", "barrier": "fence", "contact:email": "sekretariat@pczszpitalkluczbork.pl", "contact:fax": "+48 77 417 35 12", "contact:phone": "+48 77 417 35 00", "healthcare": "hospital", "name": "Powiatowe Centrum Zdrowia S.A.", "operator": "Starostwo Kluczbork", "website": "https://pczszpitalkluczbork.pl/"}}, {"name": "Szpital Vital Medic", "latitude": 50.9686946, "longitude": 18.2165783, "source": "osm", "_tags": {"amenity": "hospital", "barrier": "fence", "contact:email": "rejestracja@vitalmedic.pl", "contact:fax": "+48 77 549 26 01", "contact:phone": "+ 48 77 549 26 00", "healthcare": "hospital", "name": "Szpital Vital Medic", "website": "http://www.vitalmedic.pl/pl/"}}, {"name": "", "latitude": 50.4396388, "longitude": 18.8573293, "source": "osm", "_tags": {"amenity": "hospital", "barrier": "fence", "healthcare": "hospital"}}, {"name": "Górnośląskie Centrum Rehabilitacji im. gen. Jerzego Ziętka", "latitude": 50.4304863, "longitude": 18.8066837, "source": "osm", "_tags": {"alt_name": "Repty", "amenity": "hospital", "healthcare": "hospital", "name": "Górnośląskie Centrum Rehabilitacji im. gen. Jerzego Ziętka", "name:en": "Upper Silesian Rehabilitation Center"}}, {"name": "Krapkowickie Centrum Zdrowia", "latitude": 50.4919856, "longitude": 17.9719082, "source": "osm", "_tags": {"amenity": "hospital", "check_date": "2024-04-01", "email": "sekretariat@kcz.krapkowice.pl", "healthcare": "hospital", "name": "Krapkowickie Centrum Zdrowia", "phone": "+48 77 440 31 00", "website": "https://kcz.krapkowice.pl/", "wheelchair": "yes"}}, {"name": "", "latitude": 51.4181211, "longitude": 18.0779577, "source": "osm", "_tags": {"amenity": "clinic", "barrier": "fence", "healthcare": "hospital"}}, {"name": "Samodzielny Publiczny Zakład Opieki Zdrowotnej - Szpital w Kępnie", "latitude": 51.27666, "longitude": 17.9840365, "source": "osm", "_tags": {"amenity": "hospital", "healthcare": "hospital", "name": "Samodzielny Publiczny Zakład Opieki Zdrowotnej - Szpital w Kępnie", "wheelchair": "yes"}}, {"name": "Szpital Powiatowy nr 1 w Tarnowskich Górach", "latitude": 50.4483419, "longitude": 18.8518722, "source": "osm", "_tags": {"addr:city": "Tarnowskie Góry", "addr:housenumber": "21", "addr:street": "Opolska", "amenity": "hospital", "healthcare": "hospital", "name": "Szpital Powiatowy nr 1 w Tarnowskich Górach"}}]