[{"name": "Andover War Memorial Hospital", "latitude": 51.2155631, "longitude": -1.494556, "source": "osm", "_tags": {"addr:city": "Andover", "addr:postcode": "SP10 3LB", "addr:street": "Charlton Road", "amenity": "hospital", "emergency": "no", "healthcare": "hospital", "name": "Andover War Memorial Hospital", "operator": "Hampshire Hospitals NHS Foundation Trust", "phone": "+44 1264 358 811", "wikidata": "Q23926537"}}, {"name": "Royal South Hants Urgent Treatment Centre", "latitude": 50.91291, "longitude": -1.3964605, "source": "osm", "_tags": {"addr:city": "Southampton", "addr:country": "GB", "addr:county": "Hampshire", "addr:floor": "B", "addr:postcode": "SO14 0YG", "addr:street": "Brinton's Terrace", "amenity": "hospital", "check_date": "2024-05-28", "contact:phone": "+44 3339997613", "emergency": "yes", "healthcare": "hospital", "healthcare:speciality": "emergency", "name": "Royal South Hants Urgent Treatment Centre", "opening_hours": "Mo-Fr 07:30-22:00; Sa,Su 08:00-22:00"}}, {"name": "Laidlaw Day Hospital", "latitude": 50.7088926, "longitude": -1.2994988, "source": "osm", "_tags": {"amenity": "hospital", "healthcare": "hospital", "name": "Laidlaw Day Hospital"}}, {"name": "Coronary Care Unit (CCU) and Cardiology Ward", "latitude": 51.2816292, "longitude": -1.1114254, "source": "osm", "_tags": {"addr:housename": "1st Floor", "amenity": "hospital", "contact:phone": "+44 1256 313 627", "healthcare": "hospital", "healthcare:speciality": "cardiology", "name": "Coronary Care Unit (CCU) and Cardiology Ward", "operator": "Hampshire Hospitals NHS Foundation Trust", "operator:type": "government", "phone": "+44 1256 852 648", "website": "https://www.hampshirehospitals.nhs.uk/our-services/az-departments-and-specialties/coronary-care-unit-ccu-and-cardiology-ward"}}, {"name": "Western Community Hospital", "latitude": 50.924939, "longitude": -1.4465831, "source": "osm", "_tags": {"amenity": "hospital", "check_date": "2024-04-03", "healthcare": "hospital", "name": "Western Community Hospital", "wikidata": "Q30293085", "wikipedia": "en:Western Community Hospital"}}, {"name": "Christchurch Hospital", "latitude": 50.7451615, "longitude": -1.790275, "source": "osm", "_tags": {"amenity": "hospital", "emergency": "no", "healthcare": "hospital", "name": "Christchurch Hospital", "operator": "Royal Bournemouth & Christchurch Hospitals NHS Foundation Trust", "wikidata": "Q5109080"}}, {"name": "Saint Mary's", "latitude": 50.7998085, "longitude": -1.0632119, "source": "osm", "_tags": {"addr:city": "Portsmouth", "addr:country": "GB", "addr:postcode": "PO3 6DR", "addr:street": "Milton Road", "amenity": "hospital", "emergency": "no", "fhrs:id": "893921", "healthcare": "hospital", "name": "Saint Mary's", "wikidata": "Q30281059"}}, {"name": "Queen Alexandra Hospital", "latitude": 50.8501874, "longitude": -1.0700386, "source": "osm", "_tags": {"addr:city": "Portsmouth", "addr:postcode": "PO6 3LY", "amenity": "hospital", "brand": "NHS", "emergency": "yes", "healthcare": "hospital", "name": "Queen Alexandra Hospital", "operator": "NHS", "operator:type": "government", "operator:wikidata": "Q918396", "phone": "+44 23 9228 6000", "short_name": "QA", "toilets:wheelchair": "yes", "website": "https://www.porthosp.nhs.uk/", "wheelchair": "yes", "wikidata": "Q7270183", "wikipedia": "en:Queen Alexandra Hospital"}}, {"name": "Wessex Hospital", "latitude": 50.9968564, "longitude": -1.3595559, "source": "osm", "_tags": {"addr:city": "Eastleigh", "addr:postcode": "SO53 2DW", "addr:street": "Winchester Road", "amenity": "hospital", "check_date": "2024-04-03", "emergency": "no", "healthcare": "hospital", "name": "Wessex Hospital", "operator": "Nuffield Health", "operator:type": "private", "operator:wikidata": "Q7068711", "phone": "+44 23 8026 6377", "website": "https://www.nuffieldhealth.com/hospitals/wessex"}}, {"name": "Parklands Hospital", "latitude": 51.2827063, "longitude": -1.1122463, "source": "osm", "_tags": {"addr:city": "Basingstoke", "addr:postcode": "RG24 9RH", "amenity": "hospital", "building": "yes", "healthcare": "hospital", "name": "Parklands Hospital", "source": "OS7"}}, {"name": "Sarum Road Hospital (BMI)", "latitude": 51.0614012, "longitude": -1.3405371, "source": "osm", "_tags": {"amenity": "hospital", "emergency": "no", "healthcare": "hospital", "name": "Sarum Road Hospital (BMI)", "source": "BingOS_OpenData_Streetview"}}, {"name": "Hythe Hospital", "latitude": 50.8587624, "longitude": -1.4028949, "source": "osm", "_tags": {"amenity": "hospital", "emergency": "yes", "healthcare": "hospital", "name": "Hythe Hospital"}}, {"name": "Kings Park Hospital", "latitude": 50.7317716, "longitude": -1.8330574, "source": "osm", "_tags": {"amenity": "hospital", "check_date": "2024-07-09", "emergency": "no", "name": "Kings Park Hospital", "source": "http://www.nhs.uk/Services/hospitals/Facilities/DefaultView.aspx?id=2539"}}, {"name": "Spire Southampton Hospital", "latitude": 50.9305601, "longitude": -1.4324256, "source": "osm", "_tags": {"amenity": "hospital", "check_date": "2025-07-22", "emergency": "no", "healthcare": "hospital", "name": "Spire Southampton Hospital"}}, {"name": "Princess Anne Hospital", "latitude": 50.9353523, "longitude": -1.4351668, "source": "osm", "_tags": {"amenity": "hospital", "check_date": "2025-07-22", "emergency": "no", "healthcare": "hospital", "name": "Princess Anne Hospital", "wikidata": "Q7244546", "wikipedia": "en:Princess Anne Hospital"}}, {"name": "Southampton General Hospital", "latitude": 50.9325171, "longitude": -1.4354054, "source": "osm", "_tags": {"addr:city": "Southampton", "addr:postcode": "SO16 6YD", "addr:street": "Tremona Road", "alt_name": "General Hospital", "amenity": "hospital", "check_date": "2025-07-22", "emergency": "yes", "healthcare": "hospital", "name": "Southampton General Hospital", "operator": "University Hospitals Southampton", "source": "OS_OpenData_Streetview", "wikidata": "Q7569131", "wikipedia": "en:Southampton General Hospital"}}, {"name": "Orchard Private Hospital", "latitude": 50.7123856, "longitude": -1.2812029, "source": "osm", "_tags": {"addr:city": "Newport", "addr:country": "GB", "addr:housenumber": "189", "addr:postcode": "PO30 2EP", "addr:street": "Fairlee Road", "amenity": "hospital", "emergency": "no", "fhrs:id": "542061", "healthcare": "hospital", "name": "Orchard Private Hospital"}}, {"name": "Royal Bournemouth Hospital", "latitude": 50.7474951, "longitude": -1.8227757, "source": "osm", "_tags": {"addr:city": "Bournemouth", "addr:postcode": "BH7 7DW", "addr:street": "Castle Lane East", "alt_name": "Bournemouth Hospital", "alt_name_1": "RBH", "amenity": "hospital", "emergency": "yes", "fhrs:id": "342621", "healthcare": "hospital", "name": "Royal Bournemouth Hospital", "operator": "Royal Bournemouth & Christchurch Hospitals NHS Foundation Trust", "phone": "+44 1202 303626", "source": "Bing;OS_OpenData_StreetView", "website": "https://www.rbch.nhs.uk/", "wheelchair": "yes", "wikidata": "Q7373840"}}, {"name": "Romsey Hospital", "latitude": 50.9921739, "longitude": -1.4818563, "source": "osm", "_tags": {"amenity": "hospital", "emergency": "no", "healthcare": "hospital", "healthcare:speciality": "blood_check;physiatry", "name": "Romsey Hospital", "operator": "NHS", "operator:wikidata": "Q918396"}}, {"name": "Royal South Hants Hospital", "latitude": 50.9125895, "longitude": -1.3974888, "source": "osm", "_tags": {"addr:city": "Southampton", "addr:postcode": "SO14 0YG", "addr:street": "Brintons Terrace", "amenity": "hospital", "check_date": "2024-04-03", "healthcare": "hospital", "name": "Royal South Hants Hospital", "wheelchair": "yes", "wikidata": "Q7374854"}}, {"name": "Lymington New Forest Hospital", "latitude": 50.7693385, "longitude": -1.5458149, "source": "osm", "_tags": {"addr:city": "Lymington", "addr:postcode": "SO41 8QD", "addr:street": "Wellworthy Road", "alt_name": "Lymington Hospital", "amenity": "hospital", "emergency": "no", "healthcare": "hospital", "name": "Lymington New Forest Hospital", "wikidata": "Q6708182"}}, {"name": "Alderney Hospital", "latitude": 50.7499536, "longitude": -1.94129, "source": "osm", "_tags": {"amenity": "hospital", "healthcare": "hospital", "name": "Alderney Hospital", "wikidata": "Q30292792"}}, {"name": "Addington Clinic", "latitude": 50.7662167, "longitude": -1.9061529, "source": "osm", "_tags": {"amenity": "hospital", "healthcare": "hospital", "name": "Addington Clinic"}}, {"name": "Fareham Community Hospital", "latitude": 50.8705959, "longitude": -1.2747961, "source": "osm", "_tags": {"addr:city": "Southampton", "addr:country": "GB", "addr:place": "Sarisbury", "addr:postcode": "SO31 7DQ", "addr:street": "Brook Lane", "amenity": "hospital", "emergency": "no", "healthcare": "hospital", "name": "Fareham Community Hospital", "wikidata": "Q30293073"}}, {"name": "Salisbury District Hospital", "latitude": 51.0452151, "longitude": -1.787898, "source": "osm", "_tags": {"amenity": "hospital", "emergency": "yes", "healthcare": "hospital", "name": "Salisbury District Hospital", "source": "Bing", "wikidata": "Q7404759"}}, {"name": "Andover Hospital (Grounds)", "latitude": 51.2155051, "longitude": -1.4943226, "source": "osm", "_tags": {"amenity": "hospital", "emergency": "no", "healthcare": "hospital", "name": "Andover Hospital (Grounds)", "source": "Bing"}}, {"name": "Priory Hospital", "latitude": 50.8811119, "longitude": -1.4454203, "source": "osm", "_tags": {"addr:city": "Southampton", "addr:postcode": "SO40 4WU", "addr:street": "Hythe Road", "amenity": "hospital", "building": "yes", "emergency": "no", "healthcare": "hospital", "name": "Priory Hospital", "ref:GB:uprn": "100062528307"}}, {"name": "Poole General Hospital", "latitude": 50.7213936, "longitude": -1.9738157, "source": "osm", "_tags": {"addr:postcode": "BH15 2JB", "addr:street": "Longfleet Road", "amenity": "hospital", "contact:phone": "+44 1202 665511", "emergency": "yes", "healthcare": "hospital", "name": "Poole General Hospital", "operator": "Poole NHS Trust", "website": "https://www.poole.nhs.uk", "wheelchair": "yes", "wikidata": "Q7228621"}}, {"name": "Moorgreen Hospital", "latitude": 50.9282288, "longitude": -1.3242045, "source": "osm", "_tags": {"amenity": "hospital", "health_specialty:geriatrics": "yes", "healthcare": "hospital", "name": "Moorgreen Hospital", "wikidata": "Q6908386", "wikipedia": "en:Moorgreen Hospital"}}, {"name": "St Mary’s NHS Treatment Centre", "latitude": 50.7992811, "longitude": -1.0619395, "source": "osm", "_tags": {"addr:city": "Portsmouth", "addr:country": "GB", "addr:county": "Hampshire", "addr:housename": "St Mary’s NHS Treatment Centre", "addr:place": "Milton", "addr:postcode": "PO3 6DW", "addr:street": "Milton Road", "amenity": "hospital", "building": "hospital", "emergency": "yes", "healthcare": "hospital", "name": "St Mary’s NHS Treatment Centre", "opening_hours": "Mo-Fr 07:30-22:00; Sa,Su 08:00-22:00", "ref:GB:uprn": "1775106595"}}, {"name": "Tatchbury Mount Hospital", "latitude": 50.9306376, "longitude": -1.5281985, "source": "osm", "_tags": {"amenity": "hospital", "emergency": "no", "fixme": "This boundary is a guess", "healthcare": "hospital", "name": "Tatchbury Mount Hospital", "wikidata": "Q85805269"}}, {"name": "New Hall Hospital", "latitude": 51.0325515, "longitude": -1.7631884, "source": "osm", "_tags": {"amenity": "hospital", "emergency": "no", "healthcare": "hospital", "name": "New Hall Hospital"}}, {"name": "LB Healthcare", "latitude": 50.8810243, "longitude": -1.257436, "source": "osm", "_tags": {"addr:city": "Whiteley", "amenity": "hospital", "building": "commercial", "description": "Physiotherapy and Rehabilitation", "healthcare": "hospital", "name": "LB Healthcare", "phone": "+44 1489 569888", "ref:GB:uprn": "10012134831;10012130907", "source": "OS_OpenData_StreetView; survey", "website": "https://www.lbhealthcare.co.uk/"}}, {"name": "Nuffield Health Bournemouth Hospital", "latitude": 50.7298007, "longitude": -1.8699644, "source": "osm", "_tags": {"addr:housenumber": "67-71", "addr:postcode": "BH1 1RW", "addr:street": "Lansdowne Road", "amenity": "hospital", "building": "yes", "fhrs:id": "495084", "healthcare": "hospital", "name": "Nuffield Health Bournemouth Hospital", "source:addr": "FHRS Open Data"}}, {"name": "Naomi House & Jacksplace", "latitude": 51.1520064, "longitude": -1.3456183, "source": "osm", "_tags": {"addr:city": "Winchester", "addr:country": "GB", "addr:place": "Sutton Scotney", "addr:postcode": "SO21 3JE", "addr:street": "Stockbridge Road", "alt_name": "Wessex Children's Hospice Trust", "amenity": "hospital", "emergency": "no", "healthcare": "hospital", "name": "Naomi House & Jacksplace", "note": "The extent of the grounds has been guessed so may not be 100% accurate.", "source:addr": "correspondence", "source:outline": "bing", "website": "https://naomihouse.org.uk/", "wikidata": "Q6964643", "wikipedia": "en:Naomi House Children's Hospice"}}, {"name": "Dorset HealthCare", "latitude": 50.7167884, "longitude": -1.9032677, "source": "osm", "_tags": {"amenity": "hospital", "building": "yes", "name": "Dorset HealthCare"}}, {"name": "St Andrew's Surgery", "latitude": 50.965572, "longitude": -1.3523048, "source": "osm", "_tags": {"addr:city": "Eastleigh", "addr:housename": "St Andrew's Surgery", "addr:street": "Market Street", "amenity": "hospital", "building": "yes", "emergency": "no", "healthcare": "hospital", "name": "St Andrew's Surgery", "ref:GB:uprn": "100062535103", "wheelchair": "yes"}}, {"name": "Green Lane Hospital", "latitude": 51.3393616, "longitude": -1.982165, "source": "osm", "_tags": {"amenity": "hospital", "check_date": "2024-10-03", "healthcare": "hospital", "name": "Green Lane Hospital", "wikidata": "Q5602774", "wikipedia": "en:Green Lane Hospital, Wiltshire"}}, {"name": "Leigh House Hospital", "latitude": 51.0625128, "longitude": -1.2829416, "source": "osm", "_tags": {"amenity": "hospital", "healthcare": "hospital", "name": "Leigh House Hospital", "wikidata": "Q30293122"}}, {"name": "Swanage Hospital", "latitude": 50.6055016, "longitude": -1.9612562, "source": "osm", "_tags": {"amenity": "hospital", "healthcare": "hospital", "name": "Swanage Hospital"}}, {"name": "Earl Mountbatten Hospice", "latitude": 50.7071557, "longitude": -1.2813125, "source": "osm", "_tags": {"addr:city": "Newport", "addr:country": "GB", "addr:county": "Isle Of Wight", "addr:postcode": "PO30 2ER", "addr:street": "Halberry Lane", "amenity": "hospital", "fhrs:id": "1814711", "healthcare": "hospital", "name": "Earl Mountbatten Hospice", "survey:date": "2020-01-13"}}, {"name": "Gosport War Memorial Hospital", "latitude": 50.7934452, "longitude": -1.1480448, "source": "osm", "_tags": {"addr:city": "Gosport", "addr:country": "GB", "addr:postcode": "PO12 3PW", "addr:street": "Bury Road", "amenity": "hospital", "fhrs:id": "627538", "healthcare": "hospital", "name": "Gosport War Memorial Hospital", "source:addr": "FHRS Open Data", "wikidata": "Q30292819", "wikipedia": "en:Gosport War Memorial Hospital"}}, {"name": "Gosport War Memorial Minor Injuries Unit", "latitude": 50.7930354, "longitude": -1.1475059, "source": "osm", "_tags": {"addr:city": "Gosport", "addr:country": "GB", "addr:county": "Hampshire", "addr:postcode": "PO12 3PW", "addr:street": "Bury Road", "amenity": "hospital", "building": "hospital", "emergency": "yes", "healthcare": "hospital", "name": "Gosport War Memorial Minor Injuries Unit", "opening_hours": "Mo-Su 08:00-21:00", "phone": "+442392794753;+442392794754"}}, {"name": "", "latitude": 50.9858419, "longitude": -1.398643, "source": "osm", "_tags": {"amenity": "hospital", "healthcare": "hospital"}}, {"name": "Rowner Health Centre", "latitude": 50.8134198, "longitude": -1.1743035, "source": "osm", "_tags": {"amenity": "hospital", "healthcare": "hospital", "name": "Rowner Health Centre"}}, {"name": "West Berkshire Community Hospital", "latitude": 51.4060536, "longitude": -1.2920047, "source": "osm", "_tags": {"addr:postcode": "RG18 3AS", "amenity": "hospital", "emergency": "no", "healthcare": "hospital", "name": "West Berkshire Community Hospital", "source:addr:postcode": "CodePoint Postcodes", "wikidata": "Q7984466"}}, {"name": "Thornford Park", "latitude": 51.3808449, "longitude": -1.2507095, "source": "osm", "_tags": {"addr:city": "Thatcham", "addr:housename": "Thornford Park", "addr:postcode": "RG19 8ET", "addr:street": "Crookham Hill", "amenity": "hospital", "emergency": "no", "healthcare": "hospital", "name": "Thornford Park", "operator": "Elysium Healthcare"}}, {"name": "Nelson House (Psychiatric Rehabilitation Facility)", "latitude": 50.8127325, "longitude": -1.159318, "source": "osm", "_tags": {"amenity": "hospital", "building": "hospital", "name": "Nelson House (Psychiatric Rehabilitation Facility)", "ref:GB:cqc_location": "1-2137188897"}}, {"name": "Basingstoke and North Hampshire Hospital", "latitude": 51.2809802, "longitude": -1.1109073, "source": "osm", "_tags": {"amenity": "hospital", "emergency": "yes", "healthcare": "hospital", "name": "Basingstoke and North Hampshire Hospital", "wikidata": "Q7055529", "wikipedia": "en:Basingstoke and North Hampshire Hospital"}}, {"name": "Royal Hampshire County Hospital", "latitude": 51.0592528, "longitude": -1.332716, "source": "osm", "_tags": {"amenity": "hospital", "healthcare": "hospital", "name": "Royal Hampshire County Hospital"}}, {"name": "Victoria Hospital Wimborne", "latitude": 50.802268, "longitude": -1.9956303, "source": "osm", "_tags": {"addr:postcode": "BH21 1ER", "addr:street": "Victoria Road", "amenity": "hospital", "building": "yes", "emergency": "no", "fhrs:id": "340813", "healthcare": "hospital", "name": "Victoria Hospital Wimborne", "phone": "+44 1202 856410", "website": "https://www.dorsethealthcare.nhs.uk/patients-and-visitors/our-services-hospitals/community-hospitals/victoria-community-hospital"}}, {"name": "Savernake Hospital", "latitude": 51.4153846, "longitude": -1.7048791, "source": "osm", "_tags": {"addr:postcode": "SN8 3HL", "addr:street": "Maurice Way", "amenity": "hospital", "emergency": "no", "healthcare": "hospital", "name": "Savernake Hospital", "operator": "Great Western Hospitals NHS Foundation Trust", "phone": "+44 1672 517200"}}, {"name": "Fordingbridge Hospital", "latitude": 50.928229, "longitude": -1.7929139, "source": "osm", "_tags": {"amenity": "hospital", "emergency": "no", "healthcare": "hospital", "name": "Fordingbridge Hospital", "wikidata": "Q14956843", "wikipedia": "en:Fordingbridge Hospital"}}, {"name": "Harbour Hospital", "latitude": 50.7219714, "longitude": -1.9756935, "source": "osm", "_tags": {"amenity": "hospital", "healthcare": "hospital", "name": "Harbour Hospital", "operator": "BMI"}}, {"name": "St Mary's Hospital Outpatient Assessment Centre", "latitude": 50.7226836, "longitude": -1.9748781, "source": "osm", "_tags": {"amenity": "hospital", "healthcare": "hospital", "name": "St Mary's Hospital Outpatient Assessment Centre"}}, {"name": "New Forest Birthing Centre", "latitude": 50.8909371, "longitude": -1.5231972, "source": "osm", "_tags": {"amenity": "hospital", "emergency": "no", "healthcare": "hospital", "name": "New Forest Birthing Centre"}}, {"name": "", "latitude": 50.8021695, "longitude": -1.9954273, "source": "osm", "_tags": {"amenity": "hospital"}}, {"name": "The Priory", "latitude": 50.9356181, "longitude": -1.3527034, "source": "osm", "_tags": {"amenity": "hospital", "healthcare": "hospital", "name": "The Priory"}}, {"name": "St Ann's Hospital", "latitude": 50.6986674, "longitude": -1.9274979, "source": "osm", "_tags": {"amenity": "hospital", "healthcare": "hospital", "name": "St Ann's Hospital", "source": "OS_OpenData_Streetview"}}, {"name": "Royal South Hants Hospital", "latitude": 50.9127592, "longitude": -1.3982436, "source": "osm", "_tags": {"amenity": "hospital", "name": "Royal South Hants Hospital", "type": "site", "website:official": "http://www.royalsouthhantshospital.nhs.uk/"}}, {"name": "Royal Hampshire County Hospital", "latitude": 51.0611719, "longitude": -1.3294776, "source": "osm", "_tags": {"addr:city": "Winchester", "addr:country": "GB", "addr:postcode": "SO22 5DG", "addr:street": "Romsey Road", "amenity": "hospital", "brand": "NHS", "emergency": "yes", "healthcare": "hospital", "name": "Royal Hampshire County Hospital", "operator": "NHS", "operator:type": "public", "operator:wikidata": "Q918396", "source": "Bing;OS OpenData StreetView", "type": "multipolygon", "website": "https://www.hampshirehospitals.nhs.uk/", "wikidata": "Q7374253", "wikipedia": "en:Royal Hampshire County Hospital"}}, {"name": "Ravenswood House", "latitude": 50.8832078, "longitude": -1.2001141, "source": "osm", "_tags": {"amenity": "hospital", "brand": "NHS", "emergency": "no", "healthcare": "hospital", "name": "Ravenswood House", "operator": "NHS", "operator:type": "public", "operator:wikidata": "Q918396", "type": "multipolygon"}}, {"name": "St Mary's Hospital", "latitude": 50.7112221, "longitude": -1.3003088, "source": "osm", "_tags": {"addr:city": "Newport", "addr:country": "GB", "addr:postcode": "PO30 5TG", "addr:street": "Parkhurst Road", "amenity": "hospital", "check_date": "2024-06-17", "emergency": "yes", "fhrs:id": "540370", "healthcare": "hospital", "name": "St Mary's Hospital", "type": "multipolygon", "website": "https://www.iow.nhs.uk/", "wikidata": "Q7594496", "wikipedia": "en:St Mary's Hospital, Isle of Wight"}}, {"name": "Radiotherapy", "latitude": 51.2801066, "longitude": -1.1128894, "source": "osm", "_tags": {"building": "hospital", "healthcare": "hospital", "healthcare:speciality": "radiotherapy", "name": "Radiotherapy", "phone": "+44 1256 315059", "type": "multipolygon", "website": "https://www.hampshirehospitals.nhs.uk/our-services/az-departments-and-specialties/radiotherapy"}}, {"name": "Candover Clinic", "latitude": 51.2802039, "longitude": -1.1122172, "source": "osm", "_tags": {"building": "hospital", "healthcare": "hospital", "name": "Candover Clinic", "phone": "+44 1256 315010", "type": "multipolygon", "website": "https://www.candoverclinic.com/"}}, {"name": "St Leonards Hospital", "latitude": 50.8174102, "longitude": -1.8570408, "source": "osm", "_tags": {"amenity": "hospital", "healthcare": "hospital", "name": "St Leonards Hospital", "type": "multipolygon", "wikidata": "Q85803024", "wikipedia": "en:St Leonard's Hospital, Ferndown"}}]