[{"name": "", "latitude": 51.0470318, "longitude": 16.1990429, "source": "osm", "_tags": {"addr:city": "Jawor", "addr:housenumber": "3a", "addr:postcode": "59-400", "addr:street": "Szpitalna", "addr:street:sym_ul": "22073", "amenity": "hospital", "healthcare": "hospital"}}, {"name": "Specjalistyczny Szpital Chorób Płuc", "latitude": 50.7102612, "longitude": 16.5483679, "source": "osm", "_tags": {"addr:city": "Pieszyce", "addr:housenumber": "11", "addr:postcode": "58-250", "addr:street": "Rościszów", "amenity": "hospital", "name": "Specjalistyczny Szpital Chorób Płuc", "operator": "Sanatoria Dolnośląskie sp. z o.o.", "website": "https://sanatoria-dolnoslaskie.pl/rosciszow/o-szpitalu"}}, {"name": "Miedziowe Centrum Zdrowia SA Szpital", "latitude": 51.4084513, "longitude": 16.194895, "source": "osm", "_tags": {"addr:housenumber": "66", "addr:postcode": "59-300", "addr:street": "Marii Skłodowskiej-Curie", "amenity": "hospital", "healthcare": "hospital", "name": "Miedziowe Centrum Zdrowia SA Szpital"}}, {"name": "Dolnośląskie Centrum Rehabilitacji Sp. z o.o. w Kamiennej Górze", "latitude": 50.7775186, "longitude": 16.0604286, "source": "osm", "_tags": {"amenity": "hospital", "barrier": "wall", "healthcare": "hospital", "name": "Dolnośląskie Centrum Rehabilitacji Sp. z o.o. w Kamiennej Górze"}}, {"name": "Dolnośląskie Centrum Chorób Płuc - Oddział Gruźlicy i Chorób Płuc", "latitude": 51.3076096, "longitude": 16.8909608, "source": "osm", "_tags": {"amenity": "hospital", "name": "Dolnośląskie Centrum Chorób Płuc - Oddział Gruźlicy i Chorób Płuc", "phone": "71 310 21 16", "website": "https://www.dcchp.pl"}}, {"name": "Bristol", "latitude": 50.444095, "longitude": 16.2478761, "source": "osm", "_tags": {"addr:city": "Kudowa-Zdrój", "addr:city:simc": "0984120", "addr:housenumber": "1", "addr:postcode": "57-350", "addr:street": "Stefana Okrzei", "addr:street:sym_ul": "14914", "building": "hospital", "description": "SP ZOZ Sanatorium uzdrowiskowe BRISTOL MSW ", "healthcare": "hospital", "name": "Bristol", "source:addr": "emuia.gugik.gov.pl"}}, {"name": "Specjalistyczny Szpital im. dra Alfreda Sokołowskiego", "latitude": 50.7752687, "longitude": 16.2775994, "source": "osm", "_tags": {"addr:city": "Wałbrzych", "addr:housenumber": "4", "addr:postcode": "58-300", "addr:street": "Stefana Batorego", "amenity": "hospital", "healthcare": "hospital", "name": "Specjalistyczny Szpital im. dra Alfreda Sokołowskiego", "old_name": "Knappschafts-Lazarett", "source": "photograph", "source_ref": "https://www.flickr.com/photos/124589265@N07/14105116527"}}, {"name": "Specjalistyczny Szpital im.dra A. Sokołowskiego", "latitude": 50.8017336, "longitude": 16.2770114, "source": "osm", "_tags": {"amenity": "hospital", "healthcare": "hospital", "name": "Specjalistyczny Szpital im.dra A. Sokołowskiego"}}, {"name": "Szpital \"Mikulicz\"", "latitude": 50.8539038, "longitude": 16.3220607, "source": "osm", "_tags": {"amenity": "hospital", "healthcare": "hospital", "name": "Szpital \"Mikulicz\""}}, {"name": "\"Teresa\" Uzdrowiskowy Szpital Kardiologiczny", "latitude": 50.7286325, "longitude": 16.3454615, "source": "osm", "_tags": {"addr:city": "Jedlina-Zdrój", "addr:city:simc": "0984025", "addr:housenumber": "9", "addr:postcode": "58-330", "addr:street": "Plac Zdrojowy", "addr:street:sym_ul": "25947", "amenity": "hospital", "building": "yes", "building:levels": "3", "healthcare": "hospital", "healthcare:speciality": "cardiology", "name": "\"Teresa\" Uzdrowiskowy Szpital Kardiologiczny", "source": "geoportal:orto", "source:addr": "mjedlinazdroj.e-mapa.net", "source:building": "BDOT", "source:geometry": "EGiB"}}, {"name": "Dolnośląski Szpital Specjalistyczny im. T. Marciniaka", "latitude": 51.143664, "longitude": 16.908774, "source": "osm", "_tags": {"addr:city": "Wrocław", "addr:postcode": "50-996", "addr:street": "Generała Augusta Emila Fieldorfa", "amenity": "hospital", "email": "szpital_marciniaka@pro.onet.pl", "emergency": "yes", "fax": "+48713064867", "healthcare": "hospital", "name": "Dolnośląski Szpital Specjalistyczny im. T. Marciniaka", "operator": "\"Nowy Szpital Wojewódzki\" sp. z o.o.", "phone": "+48713064419", "website": "https://www.szpital-marciniak.wroclaw.pl/", "website:operator": "http://www.nszw.pl/"}}, {"name": "Szpital Rejonowy", "latitude": 50.5838074, "longitude": 16.4959136, "source": "osm", "_tags": {"addr:city": "Nowa Ruda", "addr:city:simc": "0984278", "addr:postcode": "57-400", "addr:street": "Szpitalna", "addr:street:sym_ul": "22073", "amenity": "hospital", "emergency": "yes", "name": "Szpital Rejonowy", "phone": "+48 74 872 22 81", "source:addr": "emuia.gugik.gov.pl"}}, {"name": "Szpital św. Antoniego", "latitude": 50.5873767, "longitude": 16.8172914, "source": "osm", "_tags": {"addr:city": "Ząbkowice Śląskie", "addr:city:simc": "0984692", "addr:housenumber": "5", "addr:postcode": "57-200", "addr:street": "Bolesława Chrobrego", "addr:street:sym_ul": "01742", "amenity": "hospital", "building": "yes", "email": "INFO@EMC-SA.PL", "healthcare": "hospital", "image": "https://photos.app.goo.gl/CDcWqd6LkK4kaevGA", "name": "Szpital św. Antoniego", "phone": "+48  74 64 13 400", "phone_1": "+48 74 64 13 491", "source:addr": "emuia.gugik.gov.pl", "url": "https://polska-org.pl/550819,Zabkowice_Slaskie,EMC_Szpital_sw_Antoniego.html", "url:0": "https://fotopolska.eu/337749,obiekt.html?map_z=18", "website": "https://www.emc-sa.pl/nasze-placowki/zabkowice-slaskie-szpital-sw-antoniego"}}, {"name": "Regionalne Centrum Zdrowia", "latitude": 51.4006214, "longitude": 16.1973734, "source": "osm", "_tags": {"amenity": "hospital", "name": "Regionalne Centrum Zdrowia"}}, {"name": "Wojewódzki Szpital Specjalistyczny w Legnicy", "latitude": 51.2098139, "longitude": 16.2172212, "source": "osm", "_tags": {"amenity": "hospital", "healthcare": "hospital", "name": "Wojewódzki Szpital Specjalistyczny w Legnicy", "wheelchair": "yes", "wikidata": "Q9377120", "wikipedia": "pl:Wojewódzki Szpital Specjalistyczny w Legnicy"}}, {"name": "Wojewódzki Szpital dla Nerwowo i Psychicznie Chorych", "latitude": 51.2796711, "longitude": 16.4587942, "source": "osm", "_tags": {"amenity": "hospital", "barrier": "fence", "name": "Wojewódzki Szpital dla Nerwowo i Psychicznie Chorych"}}, {"name": "Dziecięcy Szpital Uzdrowiskowy „Mieszko”", "latitude": 50.8048407, "longitude": 16.2551486, "source": "osm", "_tags": {"addr:city": "Szczawno-Zdrój", "addr:city:simc": "0984574", "addr:housenumber": "4", "addr:postcode": "58-310", "addr:street": "Wojska Polskiego", "addr:street:sym_ul": "24628", "amenity": "hospital", "building": "yes", "emergency": "no", "healthcare": "hospital", "healthcare:speciality": "paediatrics", "name": "Dziecięcy Szpital Uzdrowiskowy „Mieszko”", "roof:shape": "double_gabled", "source:addr": "mszczawnozdroj.e-mapa.net"}}, {"name": "Specjalistyczny Szpital Ginekologiczno - Położniczy im. E. Biernackiego", "latitude": 50.7716746, "longitude": 16.2900432, "source": "osm", "_tags": {"addr:city": "Wałbrzych", "addr:postcode": "58-301", "amenity": "hospital", "healthcare": "hospital", "healthcare:speciality": "gynaecology", "name": "Specjalistyczny Szpital Ginekologiczno - Położniczy im. E. Biernackiego", "operator": "Samorząd Województwa Dolnośląskiego", "operator:type": "government"}}, {"name": "Szpital Rehabilitacyjny Onkologiczno-Hematologiczny dla Dzieci Orlik", "latitude": 50.4744071, "longitude": 16.2778651, "source": "osm", "_tags": {"amenity": "hospital", "healthcare": "hospital", "healthcare:speciality": "oncology", "name": "Szpital Rehabilitacyjny Onkologiczno-Hematologiczny dla Dzieci Orlik"}}, {"name": "Samodzielny Publiczny Zespół Opieki Zdrowotnej - Szpital Latawiec w Świdnicy", "latitude": 50.8312624, "longitude": 16.468892, "source": "osm", "_tags": {"amenity": "hospital", "healthcare": "hospital", "name": "Samodzielny Publiczny Zespół Opieki Zdrowotnej - Szpital Latawiec w Świdnicy", "opening_hours": "24/7", "phone": "74 851 71 00", "website": "https://www.szpital.swidnica.pl/"}}, {"name": "Szpital Powiatowy", "latitude": 50.7287348, "longitude": 16.6583861, "source": "osm", "_tags": {"amenity": "hospital", "emergency": "yes", "healthcare": "hospital", "name": "Szpital Powiatowy"}}, {"name": "Jaworskie Centrum Medyczne", "latitude": 51.0467504, "longitude": 16.1987966, "source": "osm", "_tags": {"amenity": "hospital", "healthcare": "hospital", "name": "Jaworskie Centrum Medyczne"}}, {"name": "Niepubliczny Zakład Opieki Zdrowotnej \"BHMed\" sp. z o. o.", "latitude": 50.8299138, "longitude": 16.5117938, "source": "osm", "_tags": {"amenity": "hospital", "healthcare": "hospital", "name": "Niepubliczny Zakład Opieki Zdrowotnej \"BHMed\" sp. z o. o."}}, {"name": "NZOZ Szpital Powiatowy", "latitude": 50.6834485, "longitude": 16.6095247, "source": "osm", "_tags": {"addr:city": "Bielawa", "addr:country": "PL", "addr:housenumber": "7", "addr:postcode": "58-260", "addr:street": "Piastowska", "amenity": "hospital", "contact:phone": "+48748334332", "contact:website": "www.szpital.dzierzoniow.pl", "name": "NZOZ Szpital Powiatowy", "operator": "Niepubliczny Zakład Opieki Zdrowotnej Szpital Powiatowy w Dzierżoniowie Sp. z o.o."}}, {"name": "Nemocnice Broumov", "latitude": 50.5811175, "longitude": 16.3341992, "source": "osm", "_tags": {"amenity": "hospital", "contact:website": "https://www.nemocnicenachod.cz/lokality-oddeleni/nemocnice-broumov", "healthcare": "hospital", "name": "Nemocnice Broumov"}}, {"name": "Szpital Powiatowy PCM w Wołowie", "latitude": 51.3412366, "longitude": 16.6400795, "source": "osm", "_tags": {"amenity": "hospital", "email": "sekretariat@pcm-wolow.pl", "name": "Szpital Powiatowy PCM w Wołowie", "phone": "71 380 58 01", "website": "https://pcmwolow.pl"}}, {"name": "CDT Medicus", "latitude": 51.383454, "longitude": 16.2035888, "source": "osm", "_tags": {"amenity": "hospital", "healthcare": "hospital", "name": "CDT Medicus"}}, {"name": "Szpital Specjalistyczny", "latitude": 51.1664286, "longitude": 16.5940347, "source": "osm", "_tags": {"amenity": "hospital", "emergency": "yes", "name": "Szpital Specjalistyczny"}}, {"name": "Dolnośląskie Centrum Zdrowia Psychicznego dla Dzieci i Młodzieży (w budowie)", "latitude": 51.3992286, "longitude": 16.1955193, "source": "osm", "_tags": {"amenity": "hospital", "name": "Dolnośląskie Centrum Zdrowia Psychicznego dla Dzieci i Młodzieży (w budowie)"}}, {"name": "", "latitude": 50.5876229, "longitude": 16.8174696, "source": "osm", "_tags": {"amenity": "hospital", "healthcare": "hospital"}}, {"name": "Szpital Powiatowy w Kłodzku", "latitude": 50.4557829, "longitude": 16.6613447, "source": "osm", "_tags": {"amenity": "hospital", "healthcare": "hospital", "name": "Szpital Powiatowy w Kłodzku", "operator": "Zespół Opieki Zdrowotnej w Kłodzku", "website": "https://www.zoz.klodzko.pl/", "wikidata": "Q9352131", "wikipedia": "pl:Szpital Powiatowy w Kłodzku"}}, {"name": "", "latitude": 50.5247799, "longitude": 16.8760049, "source": "osm", "_tags": {"healthcare": "hospital", "was:amenity": "hospital"}}]