[{"name": "C.A.T.T.P.", "latitude": 50.7202498, "longitude": 1.6117367, "source": "osm", "_tags": {"addr:city": "Boulogne-sur-Mer", "addr:housenumber": "39-41", "addr:postcode": "62200", "addr:street": "Rue Edmond Hedouin", "amenity": "hospital", "description": "Centre d’Accueil Thérapeutique à Temps Partiel", "email": "sec_psy_nord@ch-boulogne.fr", "healthcare": "hospital", "name": "C.A.T.T.P.", "opening_hours": "Mo-Fr 9:30-16:30", "operator": "Centre Hospitalier de Boulogne sur Mer", "phone": "+33 3 21 87 60 31", "website": "https://www.ch-boulogne.fr/la-psychiatrie/centre-daccueil-therapeutique-a-temps-partiel"}}, {"name": "Kent Community Health", "latitude": 51.0788642, "longitude": 1.1802996, "source": "osm", "_tags": {"amenity": "hospital", "check_date": "2024-02-03", "healthcare": "hospital", "name": "Kent Community Health"}}, {"name": "Queen Elizabeth The Queen Mother Hospital", "latitude": 51.377117, "longitude": 1.3890081, "source": "osm", "_tags": {"amenity": "hospital", "healthcare": "hospital", "name": "Queen Elizabeth The Queen Mother Hospital", "operator": "NHS", "operator:wikidata": "Q918396", "wheelchair": "yes", "wikidata": "Q30280534", "wikipedia": "en:Queen Elizabeth The Queen Mother Hospital"}}, {"name": "Unité de Santé Mentale pour Adultes", "latitude": 50.9575735, "longitude": 1.884549, "source": "osm", "_tags": {"amenity": "hospital", "building": "hospital", "healthcare": "hospital", "name": "Unité de Santé Mentale pour Adultes", "source": "cadastre-dgi-fr source : Direction Générale des Impôts - Cadastre. Mise à jour : 2011"}}, {"name": "Kent and Canterbury Hospital", "latitude": 51.2659343, "longitude": 1.0868392, "source": "osm", "_tags": {"addr:city": "Canterbury", "addr:country": "GB", "addr:county": "Kent", "addr:housename": "Kent and Canterbury Hospital", "addr:postcode": "CT1 3NG", "addr:street": "Ethelbert Road", "amenity": "hospital", "contact:phone": "+44 1227 766877", "contact:website": "https://www.nhs.uk/Services/hospitals/Overview/DefaultView.aspx?id=RVVKC", "emergency": "no", "fhrs:id": "1102615;1103016", "healthcare": "hospital", "name": "Kent and Canterbury Hospital", "opening_hours": "24/7", "operator": "East Kent Hospitals University NHS Foundation Trust", "operator:type": "public", "operator:wikidata": "Q5328698", "wheelchair": "yes", "wikidata": "Q30280359", "wikipedia": "en:Kent and Canterbury Hospital"}}, {"name": "Saint Martin's Hospital", "latitude": 51.2771245, "longitude": 1.1077481, "source": "osm", "_tags": {"addr:city": "Canterbury", "addr:country": "GB", "addr:county": "Kent", "addr:postcode": "CT1 1TD", "addr:street": "Littlebourne Road", "amenity": "hospital", "emergency": "no", "fhrs:id": "1102786;1103636", "healthcare": "hospital", "name": "Saint Martin's Hospital", "opening_hours": "24/7", "phone": "+44 1227 459371", "website": "https://www.nhs.uk/services/hospitals/overview/defaultview.aspx?id=29250", "wikidata": "Q30292948"}}, {"name": "Royal Victoria Hospital and Folkestone Minor Injury Unit", "latitude": 51.0860679, "longitude": 1.1715356, "source": "osm", "_tags": {"amenity": "hospital", "emergency": "no", "healthcare": "hospital", "name": "Royal Victoria Hospital and Folkestone Minor Injury Unit", "operator": "NHS", "operator:wikidata": "Q918396", "wheelchair": "yes", "wikidata": "Q20047280", "wikipedia": "en:Royal Victoria Hospital, Folkestone"}}, {"name": "Buckland Hospital", "latitude": 51.1317323, "longitude": 1.2913084, "source": "osm", "_tags": {"addr:city": "Dover", "addr:country": "GB", "addr:county": "Kent", "addr:postcode": "CT17 0HD", "addr:street": "Coombe Valley Road", "amenity": "hospital", "emergency": "no", "healthcare": "hospital", "name": "Buckland Hospital", "phone": "+44 1304201624", "wikidata": "Q30293037"}}, {"name": "The Chaucer Hospital", "latitude": 51.2620033, "longitude": 1.0874102, "source": "osm", "_tags": {"addr:city": "Canterbury", "addr:country": "GB", "addr:county": "Kent", "addr:postcode": "CT4 7AR", "addr:street": "Nackington Road", "amenity": "hospital", "emergency": "no", "fhrs:id": "1103247", "healthcare": "hospital", "name": "The Chaucer Hospital", "operator": "Circle Health Group", "phone": "+44 1227 825100", "website": "https://www.circlehealthgroup.co.uk/hospitals/the-chaucer-hospital", "wheelchair": "yes"}}, {"name": "Queen Victoria Memorial Hospital", "latitude": 51.3681236, "longitude": 1.1432567, "source": "osm", "_tags": {"amenity": "hospital", "emergency": "no", "name": "Queen Victoria Memorial Hospital"}}, {"name": "Estuary View Medical Centre", "latitude": 51.3416366, "longitude": 1.0131637, "source": "osm", "_tags": {"addr:city": "Whitstable", "addr:postcode": "CT5 3SE", "addr:street": "Boorman Way", "amenity": "hospital", "building": "hospital", "check_date": "2025-08-09", "contact:phone": "+44 1227 284309", "contact:website": "https://www.whitstablemedicalpractice.co.uk/estuary-view-utc-and-miu", "emergency": "yes", "healthcare": "hospital", "internet_access": "wlan", "internet_access:fee": "no", "name": "Estuary View Medical Centre", "opening_hours": "08:00-20:00", "operator": "NHS", "operator:type": "public", "operator:wikidata": "Q918396", "wheelchair": "yes"}}, {"name": "Centre hospitalier de Calais", "latitude": 50.9407281, "longitude": 1.8917616, "source": "osm", "_tags": {"alt_name": "Centre hospitalier Docteur Techer", "amenity": "hospital", "check_date": "2024-05-29", "emergency": "yes", "fax": "+33 3 21 46 33 35", "healthcare": "hospital", "healthcare:speciality": "intensive", "name": "Centre hospitalier de Calais", "operator:type": "public", "phone": "+33 3 21 46 33 33", "ref:FR:FINESS": "620000323", "type:FR:FINESS": "355", "website": "https://www.ch-calais.fr/"}}, {"name": "Centre hospitalier de Boulogne-sur-Mer", "latitude": 50.7225349, "longitude": 1.6293749, "source": "osm", "_tags": {"amenity": "hospital", "emergency": "yes", "fax": "+33 3 21 99 30 00", "healthcare": "hospital", "healthcare:speciality": "intensive", "name": "Centre hospitalier de Boulogne-sur-Mer", "operator:type": "public", "phone": "+33 3 21 99 33 33", "ref:FR:FINESS": "620000653", "source": "knowledge", "type:FR:FINESS": "355", "website": "https://www.ch-boulogne.fr/"}}, {"name": "Whitstable and Tankerton Hospital", "latitude": 51.3610152, "longitude": 1.0505891, "source": "osm", "_tags": {"amenity": "hospital", "emergency": "no", "name": "Whitstable and Tankerton Hospital"}}, {"name": "Clinique du Virval", "latitude": 50.9425382, "longitude": 1.8955279, "source": "osm", "_tags": {"amenity": "hospital", "healthcare": "hospital", "name": "Clinique du Virval", "ref:FR:FINESS": "620024349", "type:FR:FINESS": "161"}}, {"name": "Clinique des Oyats", "latitude": 50.9413952, "longitude": 1.8961653, "source": "osm", "_tags": {"amenity": "hospital", "healthcare": "hospital", "name": "Clinique des Oyats", "ref:FR:FINESS": "620030726", "type:FR:FINESS": "430"}}, {"name": "Clinique de la Côte d'Opale", "latitude": 50.7242529, "longitude": 1.6433428, "source": "osm", "_tags": {"amenity": "hospital", "healthcare": "hospital", "name": "Clinique de la Côte d'Opale", "ref:FR:FINESS": "620118513", "type:FR:FINESS": "365"}}, {"name": "", "latitude": 50.5135374, "longitude": 1.6488197, "source": "osm", "_tags": {"amenity": "hospital", "healthcare": "hospital"}}, {"name": "Clinique Des Acacias", "latitude": 50.5061066, "longitude": 1.621917, "source": "osm", "_tags": {"addr:city": "Cucq", "addr:postcode": "62780", "addr:street": "Chemin Monthor", "amenity": "hospital", "fax": "+33321097872", "healthcare": "hospital", "name": "Clinique Des Acacias", "phone": "+33321942666", "ref:FR:FINESS": "620100487", "ref:FR:SIRET": "61642052700015", "source": "Le ministère des solidarités et de la santé - 2021-01", "type:FR:FINESS": "365"}}, {"name": "Cedar House", "latitude": 51.2017615, "longitude": 1.1758093, "source": "osm", "_tags": {"addr:city": "Barham", "addr:housename": "Cedar House Hospital", "addr:postcode": "CT4 6PW", "addr:street": "Dover Road", "amenity": "hospital", "contact:phone": "+44 1227 833700", "contact:website": "https://www.coveberry.co.uk/cedar-house-hospital/", "emergency": "no", "healthcare": "hospital", "healthcare:speciality": "learning_disability", "name": "Cedar House", "operator": "Coveberry", "operator:type": "private"}}, {"name": "", "latitude": 51.2569866, "longitude": 1.0835257, "source": "osm", "_tags": {"amenity": "hospital", "healthcare": "hospital"}}, {"name": "Institut Départemental Albert Calmette - IDAC", "latitude": 50.5712678, "longitude": 1.6186728, "source": "osm", "_tags": {"amenity": "hospital", "healthcare": "hospital", "healthcare:speciality": "psychiatry;child_psychiatry", "name": "Institut Départemental Albert Calmette - IDAC", "ref:FR:FINESS": "620112607", "short_name": "IDAC", "website": "https://www.epsm-camiers.com/"}}]