[{"name": "Helios Gesundheitszentrum Dippoldiswalde", "latitude": 50.9008493, "longitude": 13.6677577, "source": "osm", "_tags": {"access": "yes", "addr:city": "Dippoldiswalde", "addr:country": "DE", "addr:housenumber": "9", "addr:postcode": "01744", "addr:street": "Rabenauer Straße", "contact:facebook": "https://www.facebook.com/HeliosWeisseritztalKliniken/", "contact:instagram": "https://www.instagram.com/heliosweisseritztal/", "emergency": "yes", "entrance": "main", "healthcare": "hospital", "level": "0", "name": "Helios Gesundheitszentrum Dippoldiswalde", "old_name": "Klinikum Dippoldiswalde", "operator": "HELIOS Kliniken GmbH", "phone": "+49 3504 6320", "smoking": "no", "toilets:wheelchair": "yes", "website": "https://www.helios-gesundheit.de/standorte-angebote/kliniken/weisseritztal/aktuelles/unsere-haeuser/klinik-dippoldiswalde/", "wheelchair": "yes"}}, {"name": "Rehabilitationsklinik Miriquidi", "latitude": 50.6181533, "longitude": 13.0448297, "source": "osm", "_tags": {"addr:city": "Thermalbad Wiesenbad", "addr:housenumber": "33", "addr:postcode": "09488", "addr:street": "Freiberger Straße", "amenity": "hospital", "healthcare": "rehabilitation", "name": "Rehabilitationsklinik Miriquidi", "phone": "+49 3733 504 1103;+49 3733 504 1104", "toilets:wheelchair": "yes", "website": "https://wiesenbad.de/thermalbad-und-rehaklinik/rehaklinik", "wheelchair": "yes"}}, {"name": "Klinik am Waldschlößchen", "latitude": 51.0691175, "longitude": 13.7773451, "source": "osm", "_tags": {"addr:city": "Dresden", "addr:country": "DE", "addr:housenumber": "6", "addr:postcode": "01099", "addr:street": "Sudhausweg", "amenity": "hospital", "check_date": "2025-08-11", "fax": "+49 351 65877720", "healthcare": "rehabilitation", "name": "Klinik am Waldschlößchen", "phone": "+49 351 6587770", "website": "https://www.klinik-waldschloesschen.de/"}}, {"name": "Podkrušnohorská nemocnice následné péče", "latitude": 50.6041712, "longitude": 13.6132958, "source": "osm", "_tags": {"addr:city": "Litvínov", "addr:conscriptionnumber": "638", "addr:country": "CZ", "addr:housenumber": "638", "addr:postcode": "43601", "addr:street": "Podkrušnohorská", "amenity": "hospital", "healthcare": "hospital", "name": "Podkrušnohorská nemocnice následné péče", "ref:ruian:addr": "5153409", "source:addr": "cuzk:ruian"}}, {"name": "Pečovatelský dům", "latitude": 50.5125274, "longitude": 13.6495548, "source": "osm", "_tags": {"amenity": "hospital", "healthcare": "hospital", "name": "Pečovatelský dům"}}, {"name": "Helios Weißeritztal-Kliniken", "latitude": 50.9914894, "longitude": 13.6454717, "source": "osm", "_tags": {"addr:city": "Freital", "addr:country": "DE", "addr:housenumber": "7", "addr:postcode": "01705", "addr:street": "Bürgerstraße", "addr:suburb": "Deuben", "alt_name": "Helios Weißeritztal-Kliniken Klinikum Freital", "contact:facebook": "https://www.facebook.com/HeliosWeisseritztalKliniken/", "contact:instagram": "https://www.instagram.com/heliosweisseritztal/", "emergency": "yes", "entrance": "main", "healthcare": "hospital", "image": "http://wiki.openstreetmap.org/wiki/File:2014_Freital_HELIOS-Klinikum_in_Deuben.jpg", "loc_name": "Krankenhaus Freital", "name": "Helios Weißeritztal-Kliniken", "old_name": "Klinikum Freital", "operator": "HELIOS Kliniken GmbH", "phone": "+49 351 64660", "smoking": "no", "toilets:wheelchair": "yes", "website": "https://www.helios-gesundheit.de/kliniken/weisseritztal/", "wheelchair": "yes"}}, {"name": "Deutsches Rotes Kreuz", "latitude": 50.9742356, "longitude": 13.1185997, "source": "osm", "_tags": {"amenity": "hospital", "brand": "Deutsches Rotes Kreuz", "brand:wikidata": "Q694104", "brand:wikipedia": "de:Deutsches Rotes Kreuz", "healthcare": "hospital", "name": "Deutsches Rotes Kreuz"}}, {"name": "Hospic v Mostě", "latitude": 50.5088942, "longitude": 13.6228219, "source": "osm", "_tags": {"addr:city": "Most", "addr:housenumber": "1528", "addr:postcode": "43401", "addr:street": "Svážná", "amenity": "hospital", "healthcare": "hospital", "name": "Hospic v Mostě", "phone": "+420 476 000 166", "website": "https://www.hospic-most.cz/"}}, {"name": "", "latitude": 51.1421544, "longitude": 13.4591304, "source": "osm", "_tags": {"amenity": "hospital", "contact:phone": "+49 3521 403301", "female": "yes", "healthcare": "hospital", "male": "yes", "wheelchair": "limited"}}, {"name": "", "latitude": 50.5445405, "longitude": 13.6496223, "source": "osm", "_tags": {"amenity": "hospital", "healthcare": "hospital"}}, {"name": "St.-Marien-Krankenhaus Dresden", "latitude": 51.1207271, "longitude": 13.7834621, "source": "osm", "_tags": {"addr:city": "Dresden", "addr:country": "DE", "addr:housenumber": "29", "addr:postcode": "01109", "addr:street": "Selliner Straße", "amenity": "hospital", "check_date": "2024-07-28", "contact:website": "http://www.stmarienkh-dd.de/", "healthcare": "hospital", "healthcare:speciality": "psychiatry;neurology", "name": "St.-Marien-Krankenhaus Dresden", "opening_hours": "24/7", "operator": "Caritasverband für das Bistum Dresden-Meißen e.V.", "wheelchair": "limited"}}, {"name": "Städtisches Klinikum Dresden-Friedrichstadt", "latitude": 51.0583303, "longitude": 13.7177566, "source": "osm", "_tags": {"addr:city": "Dresden", "addr:country": "DE", "addr:housenumber": "41", "addr:postcode": "01067", "addr:street": "Friedrichstraße", "alt_name": "Städtisches Klinikum Dresden", "amenity": "hospital", "emergency": "yes", "healthcare": "hospital", "name": "Städtisches Klinikum Dresden-Friedrichstadt", "opening_hours": "24/7", "operator": "Städtisches Klinikum Dresden", "website": "http://www.khdf.de", "wheelchair": "yes", "wikidata": "Q1737313"}}, {"name": "Kreiskrankenhaus Zschopau", "latitude": 50.7352018, "longitude": 13.0793545, "source": "osm", "_tags": {"addr:city": "Zschopau", "addr:country": "DE", "addr:housenumber": "52", "addr:postcode": "09405", "addr:street": "Alte Marienberger Straße", "amenity": "hospital", "contact:email": "zschopau@erzgebirgsklinikum.de", "contact:facebook": "https://www.facebook.com/Erzgebirgsklinikum/", "contact:fax": "+49 3725 401209", "contact:instagram": "https://www.instagram.com/erzgebirgsklinikum/", "contact:linkedin": "https://www.linkedin.com/company/erzgebirgsklinikum", "contact:phone": "+49 3725 400", "contact:website": "Erzgebirgsklinikum gGmbH", "emergency": "yes", "healthcare": "hospital", "name": "Kreiskrankenhaus Zschopau", "operator": "Erzgebirgsklinikum gGmbH"}}, {"name": "Nemocnice následné péče", "latitude": 50.5164724, "longitude": 13.6335388, "source": "osm", "_tags": {"addr:conscriptionnumber": "1304", "addr:country": "CZ", "addr:housenumber": "1304/1", "addr:street": "Jana Žižky", "addr:streetnumber": "1", "amenity": "hospital", "building": "civic", "building:levels": "4", "building:ruian:type": "15", "healthcare": "hospital", "name": "Nemocnice následné péče", "ref:ruian:building": "5063124", "source": "cuzk:ruian"}}, {"name": "Elblandklinikum Riesa", "latitude": 51.2959708, "longitude": 13.3117987, "source": "osm", "_tags": {"amenity": "hospital", "emergency": "yes", "healthcare": "hospital", "name": "Elblandklinikum Riesa", "wheelchair": "yes", "wikidata": "Q27479421", "wikipedia": "de:Elblandklinikum Riesa"}}, {"name": "", "latitude": 50.6027328, "longitude": 13.6060044, "source": "osm", "_tags": {"amenity": "hospital", "building": "civic", "building:levels": "1", "building:ruian:type": "15", "ref:ruian:building": "5121825", "source": "cuzk:ruian"}}, {"name": "Erzgebirgsklinikum Annaberg", "latitude": 50.5926238, "longitude": 13.0057168, "source": "osm", "_tags": {"amenity": "hospital", "barrier": "fence", "check_date": "2024-03-14", "contact:phone": "+49 3733 800", "contact:website": "http://www.erzgebirgsklinikum.de/", "emergency": "yes", "healthcare": "hospital", "name": "Erzgebirgsklinikum Annaberg", "operator": "EKA Erzgebirgsklinikum Annaberg gemeinnützige GmbH", "wheelchair": "yes", "wikidata": "Q1366147"}}, {"name": "Hornická nemocnice s poliklinikou", "latitude": 50.5411598, "longitude": 13.7844593, "source": "osm", "_tags": {"amenity": "hospital", "name": "Hornická nemocnice s poliklinikou", "website": "https://www.hnsp.cz/"}}, {"name": "Nemocnice Chomutov", "latitude": 50.4533062, "longitude": 13.4098192, "source": "osm", "_tags": {"amenity": "hospital", "contact:website": "https://www.kzcr.eu/cz/cv/Chomutov", "healthcare": "hospital", "name": "Nemocnice Chomutov"}}, {"name": "Fachkrankenhaus Coswig", "latitude": 51.1308398, "longitude": 13.594178, "source": "osm", "_tags": {"amenity": "hospital", "description": "Zentrum für Pneumologie, Allergologie, Beatmungsmedizin, Thorax- und Gefäßchirurgie", "healthcare": "hospital", "name": "Fachkrankenhaus Coswig", "old_name": "Heilstätte Lindenhof", "wikidata": "Q5428538"}}, {"name": "Landkreis Mittweida Krankenhaus", "latitude": 50.9809987, "longitude": 12.9844836, "source": "osm", "_tags": {"addr:city": "Mittweida", "addr:country": "DE", "addr:housenumber": "4 - 6", "addr:postcode": "09648", "addr:street": "Hainichener Straße", "amenity": "hospital", "email": "geschaeftsleitung@lmkgmbh.de", "emergency": "yes", "fax": "+49 3727 99 1216", "healthcare": "hospital", "name": "Landkreis Mittweida Krankenhaus", "operator": "Landkreis Mittweida Krankenhaus gGmbH", "phone": "+49 3727 990", "website": "https://www.lmkgmbh.de/LMK/", "wheelchair": "yes"}}, {"name": "Zeisigwaldkliniken Bethanien Chemnitz", "latitude": 50.8399595, "longitude": 12.9625394, "source": "osm", "_tags": {"addr:city": "Chemnitz", "addr:country": "DE", "addr:housenumber": "101", "addr:postcode": "09130", "addr:street": "Zeisigwaldstraße", "amenity": "hospital", "contact:fax": "+49 371 4301014", "contact:phone": "+49 371 4300", "contact:website": "http://www.bethanien-sachsen.de/Chemnitz", "emergency": "yes", "healthcare": "hospital", "name": "Zeisigwaldkliniken Bethanien Chemnitz", "operator": "Bethanien Krankenhaus Chemnitz gemeinnützige GmbH", "wheelchair": "yes", "wikidata": "Q184971", "wikipedia": "de:Zeisigwaldkliniken Bethanien Chemnitz"}}, {"name": "Klinikum Weißer Hirsch", "latitude": 51.0649971, "longitude": 13.835851, "source": "osm", "_tags": {"addr:city": "Dresden", "addr:housenumber": "12", "addr:postcode": "01324", "addr:street": "Heinrich-Cotta-Straße", "alt_name": "Klinikum Weißer Hirsch", "amenity": "hospital", "check_date": "2024-07-12", "contact:website": "https://www.klinikum-dresden.de/iwh_khdn/", "emergency": "yes", "healthcare": "hospital", "name": "Klinikum Weißer Hirsch", "operator": "Städtisches Klinikum Dresden", "wheelchair": "yes"}}, {"name": "Tagesklinik für Psychiatrie und Psychotherapie", "latitude": 51.3130544, "longitude": 13.29038, "source": "osm", "_tags": {"addr:city": "Riesa", "addr:housenumber": "3", "addr:postcode": "01591", "addr:street": "Elbweg", "amenity": "hospital", "building": "yes", "healthcare": "hospital", "name": "Tagesklinik für Psychiatrie und Psychotherapie", "social_facility": "day_care"}}, {"name": "Tagesklinik für Kinder- und Jugendpsychiatrie", "latitude": 51.3127985, "longitude": 13.2907125, "source": "osm", "_tags": {"addr:city": "Riesa", "addr:housenumber": "2", "addr:postcode": "01591", "addr:street": "Elbweg", "amenity": "hospital", "building": "yes", "healthcare": "hospital", "name": "Tagesklinik für Kinder- und Jugendpsychiatrie", "social_facility": "day_care"}}, {"name": "Krankenhaus St. Joseph-Stift", "latitude": 51.0474063, "longitude": 13.7611938, "source": "osm", "_tags": {"amenity": "hospital", "check_date": "2024-03-07", "emergency": "yes", "healthcare": "hospital", "name": "Krankenhaus St. Joseph-Stift", "operator": "Krankenhaus St. Joseph-Stift Dresden GmbH", "website": "https://www.josephstift-dresden.de/", "wheelchair": "yes", "wikidata": "Q2319667"}}, {"name": "Nemocnice Teplice", "latitude": 50.6358449, "longitude": 13.8104895, "source": "osm", "_tags": {"amenity": "hospital", "healthcare": "hospital", "name": "Nemocnice Teplice", "operator": "Krajská zdravotní, a.s."}}, {"name": "Helios Weißeritztal-Kliniken Klinikum Freital", "latitude": 50.9917749, "longitude": 13.6453429, "source": "osm", "_tags": {"addr:city": "Freital", "addr:country": "DE", "addr:housenumber": "7", "addr:postcode": "01705", "addr:street": "Bürgerstraße", "addr:suburb": "Deuben", "amenity": "hospital", "healthcare": "hospital", "name": "Helios Weißeritztal-Kliniken Klinikum Freital", "operator": "Helios Kliniken", "operator:wikidata": "Q1254151"}}, {"name": "Klinikum Döbeln", "latitude": 51.1187787, "longitude": 13.1312528, "source": "osm", "_tags": {"addr:city": "Döbeln", "addr:country": "DE", "addr:housenumber": "10", "addr:postcode": "04720", "addr:street": "Sörmitzer Straße", "amenity": "hospital", "building": "hospital", "contact:phone": "+49 3431 7220", "contact:website": "http://www.klinikum-doebeln.de/", "emergency": "yes", "healthcare": "hospital", "name": "Klinikum Döbeln", "operator": "Klinikum Döbeln GmbH", "wheelchair": "yes"}}, {"name": "Krankenhaus Sankt Joseph-Stift", "latitude": 51.0463781, "longitude": 13.7615486, "source": "osm", "_tags": {"amenity": "hospital", "check_date": "2024-10-08", "healthcare": "hospital", "name": "Krankenhaus Sankt Joseph-Stift"}}, {"name": "Nemocnice Most, o.z.", "latitude": 50.5057402, "longitude": 13.6275849, "source": "osm", "_tags": {"addr:city": "Most", "addr:housenumber": "270", "addr:postcode": "43464", "addr:street": "J. E. Purkyně", "amenity": "hospital", "barrier": "fence", "emergency": "yes", "healthcare": "hospital", "name": "Nemocnice Most, o.z.", "operator": "Krajská zdravotní, a.s.", "operator:type": "government"}}, {"name": "Kreiskrankenhaus Freiberg", "latitude": 50.9207746, "longitude": 13.3516239, "source": "osm", "_tags": {"addr:city": "Freiberg", "addr:country": "DE", "addr:housenumber": "20", "addr:postcode": "09599", "addr:street": "Donatsring", "amenity": "hospital", "check_date": "2024-04-01", "contact:fax": "+49 3731 772399", "contact:phone": "+49 3731 770", "contact:website": "https://www.kkh-freiberg.com/", "emergency": "yes", "healthcare": "hospital", "name": "Kreiskrankenhaus Freiberg", "operator": "Kreiskrankenhaus Freiberg gGmbH", "toilets:wheelchair": "yes", "wheelchair": "yes"}}, {"name": "Städtisches Klinikum Dresden-Neustadt", "latitude": 51.0906605, "longitude": 13.7083406, "source": "osm", "_tags": {"addr:city": "Dresden", "addr:country": "DE", "addr:housenumber": "40", "addr:postcode": "01129", "addr:street": "Industriestraße", "alt_name": "Städtisches Klinikum Dresden-Neustadt", "amenity": "hospital", "emergency": "yes", "healthcare": "hospital", "name": "Städtisches Klinikum Dresden-Neustadt", "operator": "Städtisches Klinikum Dresden", "website": "http://www.khdn.de/", "wheelchair": "yes", "wikidata": "Q106035306"}}, {"name": "Collm Klinik Oschatz", "latitude": 51.2921246, "longitude": 13.1143525, "source": "osm", "_tags": {"addr:city": "Oschatz", "addr:country": "DE", "addr:housenumber": "1", "addr:postcode": "04758", "addr:street": "Parkstraße", "amenity": "hospital", "contact:fax": "+49 3435 941003", "contact:phone": "+49 3435 940", "contact:website": "http://www.collm-klinik-oschatz.de/", "emergency": "yes", "healthcare": "hospital", "name": "Collm Klinik Oschatz", "operator": "COLLM KLINIK OSCHATZ GmbH"}}, {"name": "Elblandklinikum Radebeul", "latitude": 51.108031, "longitude": 13.650612, "source": "osm", "_tags": {"addr:city": "Radebeul", "addr:housenumber": "13", "addr:postcode": "01445", "addr:street": "Heinrich-Zille-Straße", "amenity": "hospital", "emergency": "yes", "healthcare": "hospital", "name": "Elblandklinikum Radebeul", "wheelchair": "yes", "wikidata": "Q1787710", "wikipedia": "de:Elblandklinikum Radebeul"}}, {"name": "Elblandklinikum Meißen", "latitude": 51.1733157, "longitude": 13.5063986, "source": "osm", "_tags": {"addr:city": "Meißen", "addr:housenumber": "7", "addr:postcode": "01662", "addr:street": "Nassauweg", "amenity": "hospital", "beds": "350", "contact:email": "kontakt.meissen@elblandkliniken.de", "contact:fax": "+49 3521 743-1102", "contact:phone": "+49 3521 743-0", "contact:website": "https://www.elblandkliniken.de/meissen", "emergency": "yes", "healthcare": "hospital", "name": "Elblandklinikum Meißen", "opening_hours": "24/7", "operator": "Elblandkliniken Stiftung & Co. KG", "wheelchair": "yes", "wikidata": "Q30033213", "wikipedia": "de:Elblandklinikum Meißen"}}, {"name": "", "latitude": 51.123384, "longitude": 13.9306037, "source": "osm", "_tags": {"amenity": "hospital", "healthcare": "hospital"}}, {"name": "Městská nemocnice Duchcov", "latitude": 50.60906, "longitude": 13.7421061, "source": "osm", "_tags": {"amenity": "hospital", "barrier": "fence", "healthcare": "hospital", "name": "Městská nemocnice Duchcov"}}, {"name": "Ärztehaus Riesa - Am Kutzschenstein", "latitude": 51.3154022, "longitude": 13.2879232, "source": "osm", "_tags": {"amenity": "hospital", "check_date:opening_hours": "2024-05-08", "contact:email": "aerztehaus-riesa@t-online.de", "contact:phone": "+49 3525 732375", "contact:website": "http://www.aerztehaus-riesa.de/", "healthcare": "centre", "loc_name": "Ärztehaus - Am Kutzschenstein", "name": "Ärztehaus Riesa - Am Kutzschenstein", "opening_hours": "Mo-Fr 07:00-19:00", "operator": "Stadt Riesa", "short_name": "Am Kutzschenstein", "wheelchair": "yes"}}, {"name": "Diakonissenkrankenhaus", "latitude": 51.0631073, "longitude": 13.7614826, "source": "osm", "_tags": {"addr:city": "Dresden", "addr:country": "DE", "addr:housenumber": "29", "addr:postcode": "01099", "addr:street": "Holzhofgasse", "amenity": "hospital", "building": "hospital", "emergency": "yes", "healthcare": "hospital", "name": "Diakonissenkrankenhaus", "operator": "Ev.-Luth. Diakonissenanstalt Dresden e.V.", "phone": "+49 351 8100", "type": "multipolygon", "website": "https://www.diako-dresden.de/krankenhaeuser/diakonissenkrankenhaus-dresden", "wikidata": "Q1208323"}}, {"name": "Universitätsklinikum Carl Gustav Carus", "latitude": 51.0566641, "longitude": 13.7825131, "source": "osm", "_tags": {"addr:city": "Dresden", "addr:country": "DE", "addr:housenumber": "74", "addr:postcode": "01307", "addr:street": "Fetscherstraße", "amenity": "hospital", "contact:facebook": "https://www.facebook.com/ukdresden", "contact:youtube": "https://www.youtube.com/user/UKDresden", "emergency": "yes", "healthcare": "hospital", "name": "Universitätsklinikum Carl Gustav Carus", "name:de": "Universitätsklinikum Carl Gustav Carus", "name:fr": "Hôpital universitaire Carl Gustav Carus", "opening_hours": "24/7", "operator": "Universitätsklinikum Carl Gustav Carus an der TU Dresden", "phone": "+49 351 4580", "type": "multipolygon", "website": "https://www.uniklinikum-dresden.de", "wheelchair": "yes", "wikidata": "Q1651640", "wikipedia": "de:Universitätsklinikum Carl Gustav Carus Dresden"}}, {"name": "Asklepios-ASB Klinik Radeberg", "latitude": 51.1233926, "longitude": 13.9304712, "source": "osm", "_tags": {"addr:city": "Radeberg", "addr:country": "DE", "addr:housenumber": "60", "addr:postcode": "01454", "addr:street": "Pulsnitzer Straße", "amenity": "hospital", "building": "yes", "contact:phone": "+49 3528 4590", "contact:website": "https://www.asklepios.com/radeberg/", "healthcare": "hospital", "name": "Asklepios-ASB Klinik Radeberg", "operator": "Asklepios Kliniken", "operator:type": "private", "operator:wikidata": "Q732068", "type": "multipolygon", "wheelchair": "yes"}}]