[{"name": "Ласківська амбулаторія", "latitude": 51.2672319, "longitude": 28.9584497, "source": "osm", "_tags": {"amenity": "hospital", "name": "Ласківська амбулаторія", "name:uk": "Ласківська амбулаторія"}}, {"name": "Фельдшерсько-акушерний пункт", "latitude": 50.435935, "longitude": 29.0797125, "source": "osm", "_tags": {"amenity": "hospital", "healthcare": "hospital", "name": "Фельдшерсько-акушерний пункт", "name:uk": "Фельдшерсько-акушерний пункт"}}, {"name": "Народицька лікарня", "latitude": 51.1998831, "longitude": 29.0862042, "source": "osm", "_tags": {"addr:housenumber": "115", "addr:postcode": "11401", "addr:street": "Замкова вулиця", "amenity": "hospital", "email": "narodcrl@gmail.com", "emergency": "yes", "healthcare": "hospital", "name": "Народицька лікарня", "name:uk": "Народицька лікарня", "operator": "Народицька селищна рада", "phone": "+380 4140 21 444", "website": "https://narodytska.crl.net.ua"}}, {"name": "Лікарня", "latitude": 50.5959081, "longitude": 29.2890108, "source": "osm", "_tags": {"amenity": "hospital", "name": "Лікарня", "name:uk": "Лікарня"}}, {"name": "", "latitude": 50.9792777, "longitude": 29.1134078, "source": "osm", "_tags": {"amenity": "hospital", "building": "yes"}}, {"name": "Обласна туберкульозна лікарня", "latitude": 51.2270675, "longitude": 29.4121253, "source": "osm", "_tags": {"amenity": "hospital", "emergency": "no", "healthcare": "hospital", "name": "Обласна туберкульозна лікарня", "name:uk": "Обласна туберкульозна лікарня"}}, {"name": "Чоповицька Лікарня", "latitude": 50.8205768, "longitude": 28.9550478, "source": "osm", "_tags": {"addr:housenumber": "42", "amenity": "hospital", "description": "У складі:власне корпусу лікарні та окремого корпусу нововідкритого терапевтичного відділення на базі ліквідованого Відділення ОНГ (Будинок престарілих)", "name": "Чоповицька Лікарня", "name:uk": "Чоповицька Лікарня", "official_name": "Чоповицька Міська Лікарня", "old_addr:housenumber": "46", "old_official_name": "Чоповицька Лікарня Малинського міськрайТМО", "source:name": "https://clarity-project.info/edr/13567429"}}, {"name": "Терапевтичне відділення", "latitude": 50.8210171, "longitude": 28.9555598, "source": "osm", "_tags": {"addr:housenumber": "42", "amenity": "hospital", "building": "hospital", "healthcare:speciality": "therapy", "name": "Терапевтичне відділення", "name:uk": "Терапевтичне відділення"}}, {"name": "Малинська міська лікарня", "latitude": 50.7746049, "longitude": 29.2186255, "source": "osm", "_tags": {"addr:housenumber": "17", "addr:street": "вулиця Галини Бондарик", "amenity": "hospital", "facebook": "https://m.facebook.com/groups/535496107375003/", "healthcare:speciality": "orthodontics;general;paediatrics;intensive;ophthalmology;dentistry;orthopaedics;psychiatry;gynaecology;emergency;cardiology;surgery", "name": "Малинська міська лікарня", "name:uk": "Малинська міська лікарня", "official_name": "КОМУНАЛЬНЕ НЕКОМЕРЦІЙНЕ ПІДПРИЄМСТВО \"МАЛИНСЬКА МІСЬКА ЛІКАРНЯ\" МАЛИНСЬКОЇ МІСЬКОЇ РАДИ", "old_addr:housenumber": "83", "old_name": "КП Малинське міськрайонне територіальне медичного об’єднання", "operator": "МАЛИНСЬКА МІСЬКА РАДА", "operator:type": "community", "source": "https://opendatabot.ua/c/1991783", "type": "multipolygon"}}]