[{"name": "Fachkrankenhaus Kloster Grafschaft", "latitude": 51.1442407, "longitude": 8.3243853, "source": "osm", "_tags": {"amenity": "hospital", "contact:email": "verwaltung@fkkg.de", "contact:fax": "+49 2972 791-1155", "contact:phone": "+49 2972 791-00", "contact:website": "https://www.krankenhaus-klostergrafschaft.de/", "healthcare": "hospital", "healthcare:speciality": "internal", "name": "Fachkrankenhaus Kloster Grafschaft", "operator": "Fachkrankenhaus Kloster Grafschaft GmbH", "wikidata": "Q15110594"}}, {"name": "Gertrudis Klinik", "latitude": 50.5330711, "longitude": 8.3084106, "source": "osm", "_tags": {"addr:city": "Leun", "addr:country": "DE", "addr:housenumber": "4-6", "addr:postcode": "35638", "addr:street": "Karl-Ferdinand-Broll-Straße", "addr:suburb": "Biskirchen", "amenity": "clinic", "email": "info@parkinson.de", "healthcare": "hospital", "name": "Gertrudis Klinik", "operator": "Parkinson Zentrum GmbH", "phone": "+49 6473 3050", "website": "https://www.parkinson.de/"}}, {"name": "ATOS MVZ Wetzlar", "latitude": 50.553453, "longitude": 8.4995086, "source": "osm", "_tags": {"addr:city": "Wetzlar", "addr:country": "DE", "addr:housenumber": "12", "addr:postcode": "35578", "addr:street": "Steighausplatz", "amenity": "hospital", "healthcare": "hospital", "healthcare:speciality": "surgery;orthopaedics", "name": "ATOS MVZ Wetzlar", "opening_hours": "Mo-We 07:45-13:00, 13:45-17:00; Th,Fr 07:45-14:00", "operator": "ATOS Kliniken", "operator:short": "ATOS", "operator:type": "private", "operator:wikidata": "Q109568262", "phone": "+49 6441 452 88", "website": "https://atos-mvz.de/wetzlar"}}, {"name": "Universitätsklinikum Gießen und Marburg", "latitude": 50.8165448, "longitude": 8.8064273, "source": "osm", "_tags": {"addr:city": "Marburg", "addr:housenumber": "1", "addr:postcode": "35043", "addr:street": "Baldingerstraße", "amenity": "hospital", "branch": "Marburg", "emergency": "yes", "healthcare": "hospital", "healthcare:speciality": "intensive;gynaecology;dialysis;emergency;cardiology;radiology;dermatology;surgery;internal;urology;paediatrics", "name": "Universitätsklinikum Gießen und Marburg", "operator": "Rhön-Klinikum", "operator:type": "private", "operator:wikidata": "Q573604", "short_name": "UKGM", "website": "https://www.ukgm.de", "wheelchair": "yes", "wikidata": "Q2496396", "wikipedia": "de:Universitätsklinikum Gießen und Marburg"}}, {"name": "Instituts- und Klinikgebäude Zahnmedizin", "latitude": 50.5691817, "longitude": 8.6686038, "source": "osm", "_tags": {"addr:city": "Gießen", "addr:country": "DE", "addr:housenumber": "14", "addr:postcode": "35392", "addr:street": "Schlangenzahl", "amenity": "hospital", "building": "university", "building:levels": "7", "check_date": "2025-06-27", "description": "https://www.ukgm.de/ugm_2/deu/ugi_lpl/25796.html", "healthcare": "hospital", "name": "Instituts- und Klinikgebäude Zahnmedizin", "operator": "Justus-Liebig-Universität Gießen", "operator:type": "private", "roof:shape": "flat", "wheelchair": "yes"}}, {"name": "Vitos Klinik für Psychiatrie und Psychotherapie", "latitude": 50.5773934, "longitude": 8.7011438, "source": "osm", "_tags": {"addr:city": "Gießen", "addr:housenumber": "106", "addr:postcode": "35394", "addr:street": "Licher Straße", "amenity": "hospital", "emergency": "yes", "fax": "+49 641 403506", "healthcare": "hospital", "healthcare:speciality": "psychiatry", "name": "Vitos Klinik für Psychiatrie und Psychotherapie", "phone": "+49 641 4030", "website": "https://www.vitos-giessen-marburg.de/"}}, {"name": "BDH Klinik Braunfels", "latitude": 50.5149176, "longitude": 8.3944936, "source": "osm", "_tags": {"building": "hospital", "building:levels": "3", "email": "info@bdh-klinik-braunfels.de", "healthcare": "hospital", "healthcare:speciality": "neurology", "internet_access": "wlan", "internet_access:fee": "no", "name": "BDH Klinik Braunfels", "opening_hours": "Mo-Fr 08:00-19:00; Sa, Su 13:00-17:00", "phone": "+49 6442 9360", "roof:levels": "2", "roof:shape": "hipped", "toilets:wheelchair": "yes", "website": "https://bdh-klinik-braunfels.de", "wheelchair": "yes"}}, {"name": "AHG Klinik", "latitude": 50.9984077, "longitude": 8.1148667, "source": "osm", "_tags": {"addr:city": "Hilchenbach", "addr:country": "DE", "addr:housenumber": "14", "addr:postcode": "57271", "addr:street": "Ferndorfstraße", "amenity": "hospital", "building": "yes", "name": "AHG Klinik", "source": "GDI.SW", "wheelchair": "yes"}}, {"name": "Klinik für Psychiatrie und Psychotherapie Vitos - Standort Marburg", "latitude": 50.7917376, "longitude": 8.7719763, "source": "osm", "_tags": {"addr:city": "Marburg", "addr:country": "DE", "addr:housenumber": "98", "addr:postcode": "35039", "addr:street": "Cappeler Straße", "amenity": "hospital", "emergency": "no", "healthcare": "hospital", "healthcare:speciality": "psychiatry", "leisure": "park", "name": "Klinik für Psychiatrie und Psychotherapie Vitos - Standort Marburg"}}, {"name": "Elisabeth-Klinik", "latitude": 51.3568243, "longitude": 8.47311, "source": "osm", "_tags": {"addr:city": "Olsberg", "addr:housenumber": "4", "addr:postcode": "59939", "addr:street": "Heinrich-Sommer-Straße", "amenity": "hospital", "building": "hospital", "contact:phone": "+49 2962 803-0", "contact:website": "https://elisabeth-klinik.de/", "emergency": "yes", "healthcare": "hospital", "name": "Elisabeth-Klinik", "opening_hours": "24/7", "operator": "Elisabeth-Klinik gGmbH", "wheelchair": "yes"}}, {"name": "", "latitude": 50.5921494, "longitude": 8.6490882, "source": "osm", "_tags": {"addr:city": "Gießen", "addr:housenumber": "171", "addr:postcode": "35398", "addr:street": "Paul-Zipp-Straße", "alt_name": "Agaplesion Evangelisches Krankenhaus Mittelhessen", "building": "hospital", "emergency": "yes", "healthcare": "hospital", "loc_name": "EV", "short_name": "EKM", "website": "https://www.ekm-gi.de"}}, {"name": "Agaplesion Evangelisches Krankenhaus Mittelhessen", "latitude": 50.5924603, "longitude": 8.648853, "source": "osm", "_tags": {"addr:city": "Gießen", "addr:housenumber": "171", "addr:postcode": "35398", "addr:street": "Paul-Zipp-Straße", "alt_name": "Agaplesion Evangelisches Krankenhaus Mittelhessen", "amenity": "hospital", "emergency": "yes", "healthcare": "hospital", "loc_name": "EV", "name": "Agaplesion Evangelisches Krankenhaus Mittelhessen", "operator": "Agaplesion", "operator:type": "private", "operator:wikidata": "Q55445", "operator:wikipedia": "de:Agaplesion", "phone": "+49 641 96060", "short_name": "EKM", "website": "https://www.ekm-gi.de"}}, {"name": "Sauerlandklinik Hachen", "latitude": 51.3832137, "longitude": 7.9743939, "source": "osm", "_tags": {"addr:city": "Sundern (Sauerland)", "addr:country": "DE", "addr:housenumber": "44", "addr:postcode": "59846", "addr:street": "Siepenstraße", "amenity": "hospital", "email": "post@sauerlandklinik-hachen.de", "fax": "+49 2935 4951", "healthcare": "hospital", "healthcare:speciality": "neurology", "name": "Sauerlandklinik Hachen", "phone": "+49 2935 8080", "website": "https://www.sauerlandklinik-hachen.de/", "wheelchair": "yes"}}, {"name": "Kreiskrankenhaus Weilburg", "latitude": 50.4853636, "longitude": 8.2526945, "source": "osm", "_tags": {"addr:city": "Weilburg", "addr:country": "DE", "addr:housenumber": "2", "addr:postcode": "35781", "addr:street": "Am Steinbühl", "amenity": "hospital", "email": "info@krankenhaus-weilburg.de", "emergency": "yes", "fax": "+49 6471 313-221", "healthcare": "hospital", "name": "Kreiskrankenhaus Weilburg", "opening_hours": "24/7", "operator": "Kreiskrankenhaus Weilburg gGmbH", "phone": "+49 6471 313-0", "short_name": "KKH Weilburg", "website": "https://www.krankenhaus-weilburg.de/", "wheelchair": "limited"}}, {"name": "Vitos Klinik Weilmünster", "latitude": 50.4241391, "longitude": 8.390448, "source": "osm", "_tags": {"addr:city": "Weilmünster", "addr:housenumber": "10", "addr:postcode": "35789", "addr:street": "Weilstraße", "amenity": "hospital", "healthcare": "hospital", "name": "Vitos Klinik Weilmünster", "phone": "+49 6472 600"}}, {"name": "Marien Kliniken Siegen", "latitude": 50.8790914, "longitude": 8.0298466, "source": "osm", "_tags": {"addr:city": "Siegen", "addr:country": "DE", "addr:housenumber": "51", "addr:postcode": "57072", "addr:street": "Kampenstraße", "amenity": "hospital", "building": "hospital", "contact:email": "info@mariengesellschaft.de", "contact:fax": "+49 271 231-2299", "contact:phone": "+49 271 231-0", "contact:website": "https://www.marien-kliniken.de", "emergency": "yes", "healthcare": "hospital", "heritage": "8", "heritage:operator": "UntereDenkmalbehörde", "name": "Marien Kliniken Siegen", "opening_hours": "24/7", "ref:siegen": "A-320", "wheelchair": "yes", "wikidata": "Q1435273", "wikipedia": "de:St.-Marien-Krankenhaus Siegen"}}, {"name": "Klinikum Siegen", "latitude": 50.9024873, "longitude": 8.0205265, "source": "osm", "_tags": {"addr:housenumber": "76", "addr:postcode": "57076", "addr:street": "Weidenauer Straße", "amenity": "hospital", "check_date": "2025-10-03", "contact:email": "info@klinikum-siegen.de", "contact:facebook": "KlinikumSiegen", "contact:fax": "+49 271 705-2114", "contact:instagram": "klinikumsiegen", "contact:phone": "+49 271 705-0", "contact:website": "https://www.klinikum-siegen.de", "emergency": "yes", "healthcare": "hospital", "name": "Klinikum Siegen", "opening_hours": "24/7", "wheelchair": "yes"}}, {"name": "Neurologische Klinik Sorpesee", "latitude": 51.3495788, "longitude": 7.9505313, "source": "osm", "_tags": {"amenity": "hospital", "building": "hospital", "email": "info@klinik-sorpesee.de", "emergency": "no", "fax": "+49 2935 807-200", "healthcare": "hospital", "healthcare:speciality": "neurology", "name": "Neurologische Klinik Sorpesee", "operator": "Neurologische Klinik Sorpesee GmbH & Co. KG", "phone": "+49 2935 807-0", "website": "https://www.klinik-sorpesee.de/", "wheelchair": "yes"}}, {"name": "Universitätsklinikum Gießen-Marburg", "latitude": 50.5752354, "longitude": 8.6651105, "source": "osm", "_tags": {"addr:city": "Gießen", "addr:housenumber": "33", "addr:postcode": "35392", "addr:street": "Klinikstraße", "alt_name": "UK Gießen-Marburg", "amenity": "hospital", "healthcare": "hospital", "hospital:level:DE": "3", "name": "Universitätsklinikum Gießen-Marburg", "operator": "Rhön-Klinikum", "operator:type": "private", "operator:wikidata": "Q573604", "reg_name": "Uniklinik Gießen", "short_name": "UKGM", "toilets:wheelchair": "yes", "website": "http://www.ukgm.de", "wheelchair": "yes"}}, {"name": "St. Walburga Krankenhaus", "latitude": 51.3416742, "longitude": 8.2900458, "source": "osm", "_tags": {"addr:city": "Meschede", "addr:housenumber": "12", "addr:postcode": "59872", "addr:street": "Schederweg", "amenity": "hospital", "contact:phone": "+49 2921 202-0", "contact:website": "https://klinikum-hochsauerland.de/das-klinikum/standorte/st-walburga-krankenhaus", "emergency": "yes", "healthcare": "hospital", "name": "St. Walburga Krankenhaus", "opening_hours": "24/7", "operator": "Klinikum Hochsauerland GmbH", "wheelchair": "yes"}}, {"name": "St. Josefs-Hospital", "latitude": 51.1083281, "longitude": 8.0698833, "source": "osm", "_tags": {"addr:city": "Lennestadt", "addr:housenumber": "7", "addr:postcode": "57368", "addr:street": "Uferstraße", "amenity": "hospital", "check_date": "2024-07-22", "emergency": "yes", "name": "St. Josefs-Hospital", "operator": "Katholische Hospitalgesellschaft Südwestfalen gGmbH Olpe", "phone": "+49 2723 606 0", "website": "https://www.hospitalgesellschaft.com/", "wheelchair": "yes"}}, {"name": "Hessenklinik Stadtkrankenhaus Korbach", "latitude": 51.2673746, "longitude": 8.8710087, "source": "osm", "_tags": {"addr:city": "Korbach", "addr:housenumber": "19", "addr:postcode": "34497", "addr:street": "Enser Straße", "amenity": "hospital", "check_date": "2025-04-30", "email": "info@krankenhaus-korbach.de", "healthcare": "hospital", "name": "Hessenklinik Stadtkrankenhaus Korbach", "operator": "Hessenklinik Stadtkrankenhaus Korbach gGmbH", "phone": "+49 5631 5690", "toilets:wheelchair": "yes", "website": "https://www.krankenhaus-korbach.de/", "wheelchair": "yes"}}, {"name": "Asklepios Klinik Lich", "latitude": 50.5250198, "longitude": 8.8055938, "source": "osm", "_tags": {"addr:city": "Lich", "addr:country": "DE", "addr:housenumber": "4", "addr:postcode": "35423", "addr:street": "Goethestraße", "amenity": "hospital", "healthcare": "hospital", "landuse": "commercial", "name": "Asklepios Klinik Lich"}}, {"name": "Vamed Klinik Bad Berleburg", "latitude": 51.0603711, "longitude": 8.4026673, "source": "osm", "_tags": {"amenity": "hospital", "contact:phone": "+49 2751 802-0", "emergency": "yes", "healthcare": "hospital", "name": "Vamed Klinik Bad Berleburg", "opening_hours": "24/7", "wheelchair": "yes"}}, {"name": "Städtisches Krankenhaus Maria-Hilf", "latitude": 51.3859744, "longitude": 8.5819695, "source": "osm", "_tags": {"addr:city": "Brilon", "addr:housenumber": "1", "addr:postcode": "59929", "addr:street": "Am Schönschede", "amenity": "hospital", "contact:email": "info@kh-brilon.de", "contact:phone": "+49 2961 780-0", "contact:website": "https://www.krankenhaus-brilon.de", "emergency": "yes", "healthcare": "hospital", "name": "Städtisches Krankenhaus Maria-Hilf", "opening_hours": "24/7", "operator": "Städt. Krankenhaus Maria-Hilf Brilon gGmbH"}}, {"name": "Krankenhaus Falkeneck", "latitude": 50.5203519, "longitude": 8.3816884, "source": "osm", "_tags": {"building": "hospital", "building:levels": "5", "email": "gerd.werner@lahn-dill-kliniken.de", "healthcare": "hospital", "name": "Krankenhaus Falkeneck", "phone": "+49 6442-302-0"}}, {"name": "Klinikum Wetzlar", "latitude": 50.5386896, "longitude": 8.5304337, "source": "osm", "_tags": {"addr:city": "Wetzlar", "addr:country": "DE", "addr:housenumber": "1", "addr:postcode": "35578", "addr:street": "Forsthausstraße", "amenity": "hospital", "healthcare": "hospital", "name": "Klinikum Wetzlar", "phone": "+49 6441 791", "url": "http://www.lahn-dill-kliniken.de/index.php?idcat=4", "website": "https://www.lahn-dill-kliniken.de/", "wheelchair": "yes"}}, {"name": "St. Josefs Krankenhaus Balserische Stiftung", "latitude": 50.5786817, "longitude": 8.6680316, "source": "osm", "_tags": {"addr:city": "Gießen", "addr:country": "DE", "addr:housenumber": "7", "addr:postcode": "35392", "addr:street": "Wilhelmstraße", "amenity": "hospital", "healthcare": "hospital", "name": "St. Josefs Krankenhaus Balserische Stiftung", "website": "https://www.jokba.de/"}}, {"name": "Dill-Klinikum", "latitude": 50.7465397, "longitude": 8.2854078, "source": "osm", "_tags": {"amenity": "hospital", "healthcare": "hospital", "name": "Dill-Klinikum", "phone": "+49 2771 / 396-0", "website": "https://www.lahn-dill-kliniken.de/index.php?idcat=6"}}, {"name": "DRK-Krankenhaus Biedenkopf", "latitude": 50.9134839, "longitude": 8.5230662, "source": "osm", "_tags": {"addr:city": "Biedenkopf", "addr:country": "DE", "addr:housenumber": "71-75", "addr:postcode": "35216", "addr:street": "Hainstraße", "amenity": "hospital", "healthcare": "hospital", "name": "DRK-Krankenhaus Biedenkopf", "wheelchair": "yes"}}, {"name": "Zentrum für Psychische Gesundheit, Universitätsklinik Marburg", "latitude": 50.8181434, "longitude": 8.7808587, "source": "osm", "_tags": {"amenity": "hospital", "contact:phone": "+49 6421 2865200", "healthcare": "hospital", "healthcare:speciality": "psychiatry;child_and_adolescent_psychiatry", "name": "Zentrum für Psychische Gesundheit, Universitätsklinik Marburg", "operator": "UKGM", "toilets:wheelchair": "yes", "wheelchair": "yes", "wheelchair:description": "WC: Platz li. vom WC 105cm, re. vom WC 20cm, Aufzug: Durchgangsbr. 120cm. 1 Stellplatz für Personen mit Behinderungen"}}, {"name": "BDH Klinik Braunfels", "latitude": 50.5148293, "longitude": 8.3945418, "source": "osm", "_tags": {"addr:city": "Braunfels", "addr:country": "DE", "addr:housenumber": "3-7", "addr:postcode": "35619", "addr:street": "Hubertusstraße", "amenity": "hospital", "healthcare": "hospital", "name": "BDH Klinik Braunfels"}}, {"name": "Falkeneck", "latitude": 50.5202636, "longitude": 8.3816437, "source": "osm", "_tags": {"addr:city": "Braunfels", "addr:country": "DE", "addr:housenumber": "27", "addr:postcode": "35619", "addr:street": "Hecksbergstraße", "amenity": "hospital", "healthcare": "hospital", "name": "Falkeneck"}}, {"name": "Kaiserin-Auguste-Victoria Krankenhaus", "latitude": 50.6041676, "longitude": 8.3846703, "source": "osm", "_tags": {"addr:city": "Ehringshausen", "addr:country": "DE", "addr:housenumber": "27", "addr:postcode": "35630", "addr:street": "Stegwiese", "amenity": "hospital", "healthcare": "hospital", "name": "Kaiserin-Auguste-Victoria Krankenhaus", "operator": "Kaiserin-Auguste-Victoria-Krankenhaus GmbH", "phone": "+49 6443 8280", "website": "https://www.kav-krankenhaus.de/"}}, {"name": "Kreiskrankenhaus Frankenberg", "latitude": 51.061805, "longitude": 8.7919671, "source": "osm", "_tags": {"addr:city": "Frankenberg (Eder)", "addr:country": "DE", "addr:housenumber": "9", "addr:postcode": "35066", "addr:street": "Forststraße", "amenity": "hospital", "healthcare": "hospital", "name": "Kreiskrankenhaus Frankenberg", "phone": "+49 6451 550", "website": "https://www.krankenhaus-frankenberg.de/"}}, {"name": "MEDIAN Klinik Eschenburg", "latitude": 50.7942445, "longitude": 8.3211055, "source": "osm", "_tags": {"addr:city": "Eschenburg", "addr:country": "DE", "addr:housenumber": "1-3", "addr:postcode": "35713", "addr:street": "An der Hardt", "addr:suburb": "Wissenbach", "amenity": "hospital", "healthcare": "rehabilitation", "healthcare:speciality": "drug_rehabilitation", "name": "MEDIAN Klinik Eschenburg", "note": "Fachklinik für Suchterkrankungen", "phone": "+49 2774 91340", "website": "https://www.median-kliniken.de/de/median-klinik-eschenburg/", "wheelchair": "limited"}}, {"name": "Diakonie-Krankenhaus Wehrda", "latitude": 50.829184, "longitude": 8.7614397, "source": "osm", "_tags": {"alt_name": "DGD-Diakonie-Krankenhaus Wehrda", "amenity": "hospital", "contact:email": "info@dkh-wehrda.de", "contact:fax": "+49 6421 808-567", "contact:phone": "+49 6421 808-0", "contact:website": "https://www.dkh-wehrda.de/", "healthcare": "hospital", "name": "Diakonie-Krankenhaus Wehrda", "operator": "Deutscher Gemeinschafts-Diakonieverband GmbH", "wikidata": "Q92191831", "wikipedia": "de:Diakonie-Krankenhaus Wehrda"}}, {"name": "", "latitude": 50.5930934, "longitude": 8.6496235, "source": "osm", "_tags": {"addr:city": "Gießen", "addr:housenumber": "175", "addr:postcode": "35398", "addr:street": "Paul-Zipp-Straße", "building": "hospital", "emergency": "yes", "healthcare": "hospital", "start_date": "2021"}}, {"name": "Fachärztezentrum", "latitude": 50.5927577, "longitude": 8.6497223, "source": "osm", "_tags": {"addr:city": "Gießen", "addr:housenumber": "173", "addr:postcode": "35398", "addr:street": "Paul-Zipp-Straße", "building": "hospital", "emergency": "yes", "healthcare": "hospital", "name": "Fachärztezentrum", "start_date": "2010"}}, {"name": "St. Franziskus-Hospital Winterberg", "latitude": 51.1932756, "longitude": 8.5373788, "source": "osm", "_tags": {"addr:city": "Winterberg", "addr:housenumber": "2", "addr:postcode": "59955", "addr:street": "Franziskusstraße", "amenity": "hospital", "contact:email": "verwaltung@gesundheitszentrum-winterberg.de", "contact:fax": "+49 2981 802-4316", "contact:phone": "+49 2981 802-0", "contact:website": "https://gesundheitszentrum-winterberg.de", "emergency": "yes", "healthcare": "hospital", "name": "St. Franziskus-Hospital Winterberg", "opening_hours": "24/7", "operator": "St. Franziskus-Hospital Winterberg gGmbH", "wheelchair": "yes"}}, {"name": "Vitos Klinik Hadamar", "latitude": 50.4505473, "longitude": 8.0404024, "source": "osm", "_tags": {"amenity": "hospital", "emergency": "yes", "healthcare": "hospital", "healthcare:speciality": "psychiatry", "name": "Vitos Klinik Hadamar", "official_name": "Vitos Klinik für Psychiatrie und Psychotherapie Hadamar", "opening_hours": "24/7", "operator": "Vitos gGmbH", "operator:wikidata": "Q2528730", "operator:wikipedia": "de:Vitos GmbH", "phone": "+49 6433 9170", "wheelchair": "yes"}}, {"name": "Diakonie Klinikum Jung-Stilling", "latitude": 50.8517284, "longitude": 8.0182242, "source": "osm", "_tags": {"amenity": "hospital", "contact:email": "diakonie-klinikum@diakonie-sw.de", "contact:fax": "+49 271 333-4996", "contact:phone": "+49 271 333-3", "contact:website": "https://www.jung-stilling.de/", "emergency": "yes", "healthcare": "hospital", "name": "Diakonie Klinikum Jung-Stilling", "opening_hours": "24/7", "operator": "Diakonie Klinikum GmbH", "wheelchair": "yes"}}, {"name": "Marienhospital", "latitude": 51.4014473, "longitude": 8.0727986, "source": "osm", "_tags": {"amenity": "hospital", "healthcare": "hospital", "name": "Marienhospital", "website": "https://klinikum-hochsauerland.de/das-klinikum/standorte/marienhospital", "wikidata": "Q2776846", "wikipedia": "de:Marienhospital Arnsberg"}}, {"name": "Psychatrie", "latitude": 50.5745423, "longitude": 8.6646437, "source": "osm", "_tags": {"addr:city": "Gießen", "addr:country": "DE", "addr:housenumber": "36", "addr:postcode": "35392", "addr:street": "Klinikstraße", "amenity": "hospital", "emergency": "no", "healthcare": "hospital", "healthcare:speciality": "psychiatry", "name": "Psychatrie", "operator": "Universitäts-Klinikum Gießen-Marburg", "type": "multipolygon"}}, {"name": "Klinik Sonnenblick", "latitude": 50.7983893, "longitude": 8.8018938, "source": "osm", "_tags": {"addr:city": "Marburg", "addr:housenumber": "1", "addr:postcode": "35043", "addr:street": "Amöneburger Straße", "amenity": "hospital", "healthcare": "hospital", "name": "Klinik Sonnenblick", "operator": "Deutsche Rentenversicherung", "operator:type": "public", "type": "multipolygon", "wheelchair": "yes"}}, {"name": "Haus 22", "latitude": 50.6726015, "longitude": 8.3034052, "source": "osm", "_tags": {"building": "yes", "building:levels": "3", "healthcare": "hospital", "healthcare:speciality": "psychiatry", "name": "Haus 22", "operator": "Vitos Klinik", "type": "multipolygon"}}, {"name": "Vitos Klinik Herborn", "latitude": 50.6719358, "longitude": 8.3013781, "source": "osm", "_tags": {"addr:city": "Herborn", "addr:housenumber": "40", "addr:postcode": "35745", "addr:street": "Austraße", "amenity": "hospital", "contact:email": "info@vitos-herborn.de", "contact:phone": "+49  2772 5040", "emergency": "yes", "healthcare": "hospital", "healthcare:speciality": "psychiatry", "name": "Vitos Klinik Herborn", "operator": "Vitos Herborn gemeinnützige gGmbH", "operator:type": "public", "type": "multipolygon", "website": "https://vitos.de/gesellschaften/vitos-herborn", "wikipedia": "de:Vitos Herborn"}}, {"name": "Klinik für Kinder- und Jugendpsychiatrie, Psychosomatik und Psychotherapie", "latitude": 50.8182476, "longitude": 8.77978, "source": "osm", "_tags": {"addr:city": "Marburg", "addr:country": "DE", "addr:housenumber": "45", "addr:postcode": "35039", "addr:street": "Schützenstraße", "amenity": "hospital", "email": "kjp.mr@uk-gm.de", "emergency": "yes", "fax": "+49 6421 5865667", "healthcare": "hospital", "healthcare:speciality": "child_psychiatry", "name": "Klinik für Kinder- und Jugendpsychiatrie, Psychosomatik und Psychotherapie", "operator": "UKGM GmbH", "operator:type": "private", "phone": "+49 6421 5866471", "start_date": "2022-12", "type": "multipolygon", "website": "https://www.ukgm.de/ugm_2/deu/umr_kjp/index.html"}}]