[{"name": "Aldrington House", "latitude": 50.8301875, "longitude": -0.1842301, "source": "osm", "_tags": {"amenity": "hospital", "emergency": "no", "healthcare": "hospital", "name": "Aldrington House"}}, {"name": "Eye Hospital", "latitude": 50.8187633, "longitude": -0.1176353, "source": "osm", "_tags": {"amenity": "hospital", "healthcare": "hospital", "name": "Eye Hospital"}}, {"name": "Zachary Merton Hospital", "latitude": 50.8079485, "longitude": -0.5006716, "source": "osm", "_tags": {"addr:city": "Rustington", "addr:postcode": "BN16 2EB", "addr:street": "Glenville Road", "amenity": "hospital", "emergency": "no", "fhrs:authority": "Arun", "fhrs:id": "59323", "fhrs:local_authority_id": "130712", "healthcare": "hospital", "name": "Zachary Merton Hospital", "operator": "NHS Sussex Community Trust", "phone": "+44 1903 858100", "website": "https://www.sussexcommunity.nhs.uk/services/locations/zachary-merton-hospital.htm"}}, {"name": "Queen Mary's Childrens' Hospital", "latitude": 51.3797984, "longitude": -0.1848418, "source": "osm", "_tags": {"addr:city": "Carshalton", "addr:postcode": "SM5 1AA", "addr:street": "Wrythe Lane", "amenity": "hospital", "email": "est-tr.PALS@nhs.net", "fax": "+44 20 8641 4546", "healthcare": "hospital", "name": "Queen Mary's Childrens' Hospital", "phone": "+44 20 8296 2000", "website": "https://www.epsom-sthelier.nhs.uk/"}}, {"name": "Whitepost Health Care Group Head Office & Shrewsbury Court Independent Hospital", "latitude": 51.2366302, "longitude": -0.1799284, "source": "osm", "_tags": {"addr:city": "Redhill", "addr:postcode": "RH1 6YY", "addr:street": "Whitepost Hill", "amenity": "hospital", "healthcare": "hospital", "name": "Whitepost Health Care Group Head Office & Shrewsbury Court Independent Hospital", "note": "Re-opened as White Post Health Care Centre 1981", "wheelchair": "limited", "wheelchair:description": "Security entrance, door opens outward. Toilet  not assessed. Induction Loop sign, but no signal detected at reception desk."}}, {"name": "Chapel Orchard Day Surgery", "latitude": 51.4020487, "longitude": -0.1715368, "source": "osm", "_tags": {"amenity": "hospital", "healthcare": "hospital", "name": "Chapel Orchard Day Surgery"}}, {"name": "Zachary Merton Hospital", "latitude": 50.8080476, "longitude": -0.5010988, "source": "osm", "_tags": {"amenity": "hospital", "emergency": "no", "healthcare": "hospital", "name": "Zachary Merton Hospital"}}, {"name": "The Montefiore Hospital", "latitude": 50.8314371, "longitude": -0.1556496, "source": "osm", "_tags": {"addr:city": "Hove", "addr:housenumber": "2", "addr:postcode": "BN3 1RD", "addr:street": "Montefiore Road", "amenity": "hospital", "fhrs:id": "493861", "healthcare": "hospital", "name": "The Montefiore Hospital", "operator": "Spire Healthcare Group", "phone": "+44 1273 828 120", "website": "https://www.spirehealthcare.com/Montefiore/", "wikidata": "Q6905063", "wikipedia": "en:The Montefiore Hospital, Hove"}}, {"name": "Leatherhead Clinic", "latitude": 51.295826, "longitude": -0.3195308, "source": "osm", "_tags": {"addr:city": "Leatherhead", "addr:postcode": "KT22 8SD", "addr:street": "Poplar Road", "amenity": "hospital", "healthcare": "hospital", "name": "Leatherhead Clinic", "phone": "+44 1372 384300", "toilets:wheelchair": "no", "website": "https://www.cshsurrey.co.uk/our-services/location/leatherhead-clinic", "wheelchair": "yes", "wheelchair:description": "Ramp from 3 Blue Badge spaces to automatic doors (open outward). Accessible Toilet behind main reception only 120cm clear width. [No working hearing loops Feb 2018]"}}, {"name": "Cobham Day Surgery", "latitude": 51.3347608, "longitude": -0.4079026, "source": "osm", "_tags": {"addr:city": "Cobham", "addr:housenumber": "168", "addr:postcode": "KT11 1HS", "addr:street": "Portsmouth Road", "amenity": "hospital", "contact:phone": "+44 1932 588400", "emergency": "no", "healthcare": "hospital", "name": "Cobham Day Surgery", "opening_hours": "Mo-Fr 08:00-18:00", "operator": "Epsomedical"}}, {"name": "SpaMedica Epsom", "latitude": 51.3361067, "longitude": -0.2618505, "source": "osm", "_tags": {"amenity": "hospital", "healthcare": "hospital", "healthcare:speciality": "ophthalmology", "name": "SpaMedica Epsom", "operator": "SpaMedica"}}, {"name": "Connolly House", "latitude": 50.8478033, "longitude": -0.7758343, "source": "osm", "_tags": {"addr:city": "Chichester", "addr:postcode": "PO19 6PG", "addr:street": "College Lane", "amenity": "hospital", "fhrs:authority": "Chichester", "fhrs:id": "7702", "fhrs:local_authority_id": "03/00161/FOOD", "healthcare": "hospital", "name": "Connolly House", "operator": "Sussex Partnership NHS Trust"}}, {"name": "Elmleigh Hospital", "latitude": 50.8582719, "longitude": -0.9748866, "source": "osm", "_tags": {"amenity": "hospital", "name": "Elmleigh Hospital", "source": "Bing"}}, {"name": "Sexual Health Clinic", "latitude": 51.3911811, "longitude": -0.1123103, "source": "osm", "_tags": {"amenity": "hospital", "healthcare": "hospital", "name": "Sexual Health Clinic", "operator": "Croydon University Hospital"}}, {"name": "Macmillan Cancer Support Centres", "latitude": 51.3895435, "longitude": -0.1115896, "source": "osm", "_tags": {"amenity": "hospital", "healthcare": "hospital", "name": "Macmillan Cancer Support Centres", "operator": "Croydon University Hospital"}}, {"name": "Main Reception", "latitude": 51.3892531, "longitude": -0.1111571, "source": "osm", "_tags": {"amenity": "hospital", "healthcare": "hospital", "name": "Main Reception", "operator": "Croydon University Hospital", "wheelchair": "yes"}}, {"name": "Patient Advice and Liaison Service (PALS)", "latitude": 51.388644, "longitude": -0.108499, "source": "osm", "_tags": {"amenity": "hospital", "healthcare": "hospital", "name": "Patient Advice and Liaison Service (PALS)", "operator": "Croydon University Hospital"}}, {"name": "Maternity Reception", "latitude": 51.3912926, "longitude": -0.1110591, "source": "osm", "_tags": {"amenity": "hospital", "healthcare": "hospital", "name": "Maternity Reception", "operator": "Croydon University Hospital", "wheelchair": "yes"}}, {"name": "Fertility Treatment", "latitude": 51.3911477, "longitude": -0.1102788, "source": "osm", "_tags": {"amenity": "hospital", "healthcare": "hospital", "name": "Fertility Treatment"}}, {"name": "Gynaecology Department", "latitude": 51.3905149, "longitude": -0.1093613, "source": "osm", "_tags": {"amenity": "hospital", "healthcare": "hospital", "name": "Gynaecology Department", "operator": "Croydon University Hospital"}}, {"name": "Women's Health Unit", "latitude": 51.3909333, "longitude": -0.1110648, "source": "osm", "_tags": {"amenity": "hospital", "healthcare": "hospital", "name": "Women's Health Unit", "operator": "Croydon University Hospital"}}, {"name": "Croydon Heart Centre", "latitude": 51.3887004, "longitude": -0.11113, "source": "osm", "_tags": {"amenity": "hospital", "healthcare": "hospital", "name": "Croydon Heart Centre"}}, {"name": "Dental Department", "latitude": 51.3902698, "longitude": -0.1097438, "source": "osm", "_tags": {"amenity": "hospital", "healthcare": "hospital", "name": "Dental Department", "operator": "Croydon University Hospital"}}, {"name": "Dermatology Department", "latitude": 51.3904846, "longitude": -0.1099614, "source": "osm", "_tags": {"amenity": "hospital", "healthcare": "hospital", "name": "Dermatology Department", "operator": "Croydon University Hospital"}}, {"name": "Diabetic Department", "latitude": 51.3886983, "longitude": -0.108209, "source": "osm", "_tags": {"amenity": "hospital", "healthcare": "hospital", "name": "Diabetic Department", "operator": "Croydon University Hospital"}}, {"name": "MRI", "latitude": 51.3888297, "longitude": -0.1088304, "source": "osm", "_tags": {"amenity": "hospital", "healthcare": "hospital", "name": "MRI", "operator": "Croydon University Hospital"}}, {"name": "Main X-Ray", "latitude": 51.3891088, "longitude": -0.1087926, "source": "osm", "_tags": {"amenity": "hospital", "healthcare": "hospital", "name": "Main X-Ray", "operator": "Croydon University Hospital"}}, {"name": "Vascular Ultrasound", "latitude": 51.3891619, "longitude": -0.1103441, "source": "osm", "_tags": {"amenity": "hospital", "healthcare": "hospital", "name": "Vascular Ultrasound", "operator": "Croydon University Hospital", "wheelchair": "yes"}}, {"name": "Wound Clinic", "latitude": 51.3890953, "longitude": -0.1102589, "source": "osm", "_tags": {"amenity": "hospital", "healthcare": "hospital", "name": "Wound Clinic", "operator": "Croydon University Hospital"}}, {"name": "Moorfields Eye Unit", "latitude": 51.3893068, "longitude": -0.1099839, "source": "osm", "_tags": {"amenity": "hospital", "healthcare": "hospital", "name": "Moorfields Eye Unit", "operator": "Croydon University Hospital"}}, {"name": "The Willows (Children's Clinic)", "latitude": 51.389144, "longitude": -0.1097382, "source": "osm", "_tags": {"amenity": "hospital", "healthcare": "hospital", "name": "The Willows (Children's Clinic)", "operator": "Croydon University Hospital"}}, {"name": "Day Surgery Unit (DSU)", "latitude": 51.3898664, "longitude": -0.1107072, "source": "osm", "_tags": {"amenity": "hospital", "healthcare": "hospital", "name": "Day Surgery Unit (DSU)", "operator": "Croydon University Hospital"}}, {"name": "Emergency Department", "latitude": 51.3887022, "longitude": -0.1092569, "source": "osm", "_tags": {"amenity": "hospital", "healthcare": "hospital", "name": "Emergency Department", "operator": "Croydon University Hospital"}}, {"name": "Optegra Eye Hospital", "latitude": 51.2411966, "longitude": -0.613303, "source": "osm", "_tags": {"address": "GU2 7YF", "barrier": "entrance", "healthcare": "hospital", "internet_access": "yes", "name": "Optegra Eye Hospital", "source": "Wheelmap Survey visit 2024-01-17", "toilets:wheelchair": "yes", "wheelchair": "yes", "wheelchair:description": "Step-free entrance with automatic sliding doors. Slightly sloping path from Blue Badge spaces"}}, {"name": "Hamble House", "latitude": 50.7973895, "longitude": -1.0463363, "source": "osm", "_tags": {"addr:postcode": "PO4 8PF", "addr:street": "Nelson Drive", "amenity": "hospital", "internet_access": "wlan", "name": "Hamble House", "phone": "+44 300 123 3934", "website": "https://www.talkingtherapiesportsmouth.nhs.uk/"}}, {"name": "The Wilson Hospital", "latitude": 51.3975104, "longitude": -0.1631461, "source": "osm", "_tags": {"addr:city": "Mitcham", "addr:country": "GB", "addr:postcode": "CR4 4TP", "addr:street": "Cranmer Road", "amenity": "hospital", "healthcare": "hospital", "loc_name": "The Wilson", "name": "The Wilson Hospital", "operator": "NHS", "operator:type": "public", "operator:wikidata": "Q918396", "phone": "+44 20 8648 3021", "website": "https://www.clch.nhs.uk/locations/wilson-hospital.aspx"}}, {"name": "St. Helier Hospital", "latitude": 51.3803771, "longitude": -0.1845767, "source": "osm", "_tags": {"addr:city": "Carshalton", "addr:postcode": "SM5 1AA", "addr:street": "Wrythe Lane", "amenity": "hospital", "emergency": "yes", "healthcare": "hospital", "name": "St. Helier Hospital", "operator": "Epsom and St Helier University Hospitals NHS Trust", "operator:type": "public", "phone": "+44 20 8296 2000", "website": "https://www.epsom-sthelier.nhs.uk/", "wheelchair": "yes", "wikidata": "Q7593367"}}, {"name": "Crawley Hospital", "latitude": 51.1166383, "longitude": -0.1973564, "source": "osm", "_tags": {"addr:city": "Crawley", "amenity": "hospital", "healthcare": "hospital", "name": "Crawley Hospital", "toilets:wheelchair": "yes", "wheelchair": "yes", "wheelchair:description": "Dedicated Blue Badge spaces near Green Wing. Ramped and step-free access to automatic or powered doors. Step-free route to bus stops. Hearing Loop at Red Reception - may be off. Other loops not working on 2/2/2016", "wikidata": "Q5182983"}}, {"name": "Tolworth Hospital", "latitude": 51.3794911, "longitude": -0.2891912, "source": "osm", "_tags": {"addr:city": "Surbiton", "addr:country": "GB", "addr:postcode": "KT6 7QU", "addr:street": "Red Lion Road", "amenity": "hospital", "emergency": "no", "healthcare": "hospital", "image": "https://commons.wikimedia.org/wiki/File:Tolworth_Hospital_sign.jpg", "name": "Tolworth Hospital", "operator": "NHS", "phone": "+44 20 3513 5000", "website": "https://www.swlstg.nhs.uk/", "wikidata": "Q30292891"}}, {"name": "Kingston Hospital", "latitude": 51.4149164, "longitude": -0.2826846, "source": "osm", "_tags": {"addr:city": "Kingston upon Thames", "addr:postcode": "KT2 7QB", "addr:street": "Galsworthy Road", "amenity": "hospital", "emergency": "yes", "fhrs:id": "1385880", "healthcare": "hospital", "name": "Kingston Hospital", "ref:GB:cqc_location": "RAX01", "source:addr": "FHRS Open Data", "wikidata": "Q50517755"}}, {"name": "St Anthony's", "latitude": 51.3798987, "longitude": -0.220725, "source": "osm", "_tags": {"amenity": "hospital", "building": "yes", "healthcare": "hospital", "name": "St Anthony's", "postal_code": "SM3 9DW", "wikidata": "Q16900532", "wikipedia": "en:St Anthony's Hospital, North Cheam"}}, {"name": "Croydon University Hospital", "latitude": 51.3901236, "longitude": -0.1100563, "source": "osm", "_tags": {"addr:city": "Thornton Heath", "addr:housenumber": "530", "addr:postcode": "CR7 7YE", "addr:street": "London Road", "alt_name": "Mayday Hospital", "amenity": "hospital", "beds": "670", "emergency": "yes", "fhrs:authority": "Croydon", "fhrs:id": "370621;918528", "healthcare": "hospital", "name": "Croydon University Hospital", "opening_hours": "24/7", "source:postcode": "FSA Food Hygiene Ratings database", "wikidata": "Q5189706"}}, {"name": "Norbury Health Centre", "latitude": 51.4049847, "longitude": -0.1203608, "source": "osm", "_tags": {"amenity": "hospital", "check_date": "2024-04-02", "healthcare": "hospital", "name": "Norbury Health Centre", "source": "photo"}}, {"name": "Bourne Hall Health Centre", "latitude": 51.3512724, "longitude": -0.2525304, "source": "osm", "_tags": {"amenity": "hospital", "name": "Bourne Hall Health Centre", "wheelchair": "no"}}, {"name": "Caterham Dene Hospital & Minor Injuries Unit", "latitude": 51.283807, "longitude": -0.0855357, "source": "osm", "_tags": {"addr:city": "Caterham", "addr:street": "Church Street", "amenity": "hospital", "check_date": "2024-04-11", "healthcare": "hospital", "name": "Caterham Dene Hospital & Minor Injuries Unit", "toilets:wheelchair": "yes", "wheelchair": "yes", "wheelchair:description": "Step-free entrance with double automatic doors opening inward (2 sets). Reception has low counter with knee space. (Hearing Loop faulty 6/2018). 3 Blue Badge spaces in car park outside Physiotherapy", "wikidata": "Q30293099"}}, {"name": "Caterham Dene - Physiotherapy", "latitude": 51.2835621, "longitude": -0.0854675, "source": "osm", "_tags": {"addr:city": "Caterham", "addr:street": "Church Street", "amenity": "hospital", "name": "Caterham Dene - Physiotherapy", "wheelchair": "yes", "wheelchair:description": "Step-free entrance. 3x Blue Badge spaces near door."}}, {"name": "Nuffield Health Brighton Hospital", "latitude": 50.8345492, "longitude": -0.081974, "source": "osm", "_tags": {"addr:city": "Brighton", "addr:postcode": "BN2 6DX", "addr:street": "Warren Road", "amenity": "hospital", "building": "hospital", "building:material": "brick", "fhrs:id": "208073", "healthcare": "hospital", "height": "16", "name": "Nuffield Health Brighton Hospital", "operator": "Nuffield Health", "operator:type": "private", "operator:wikidata": "Q7068711", "ref:GB:uprn": "22105053", "roof:material": "roof_tiles", "roof:shape": "hipped", "website": "https://www.nuffieldhealth.com/hospitals/brighton"}}, {"name": "Cygnet Hospital", "latitude": 51.3147995, "longitude": -0.6152907, "source": "osm", "_tags": {"addr:city": "Woking", "addr:postcode": "GU21 2QS", "amenity": "hospital", "building": "yes", "name": "Cygnet Hospital"}}, {"name": "Farnham Road Hospital", "latitude": 51.2356213, "longitude": -0.5850384, "source": "osm", "_tags": {"addr:city": "Guildford", "addr:country": "GB", "addr:postcode": "GU2 7LX", "addr:street": "Farnham Road", "amenity": "hospital", "emergency": "no", "fhrs:authority": "Guildford", "fhrs:id": "649834", "fhrs:local_authority_id": "4440", "healthcare": "hospital", "name": "Farnham Road Hospital", "postal_code": "GU2 7LX", "toilets:wheelchair": "yes", "website": "https://www.sabp.nhs.uk/", "wheelchair": "yes", "wheelchair:description": "Ramped route from Farnham Road. Dedicated Blue Badge spaces in car park (access entryphone). Automatic doors open out. Accessible toilet near reception.", "wikidata": "Q16992079"}}, {"name": "Royal Surrey County Hospital", "latitude": 51.2411709, "longitude": -0.6088556, "source": "osm", "_tags": {"addr:city": "Guildford", "addr:postcode": "GU2 7XX", "addr:street": "Egerton Road", "amenity": "hospital", "emergency": "yes", "fhrs:id": "649588", "healthcare": "hospital", "name": "Royal Surrey County Hospital", "wikidata": "Q7374889"}}, {"name": "Spire Clare Park Hospital", "latitude": 51.2252021, "longitude": -0.8473544, "source": "osm", "_tags": {"addr:city": "Farnham", "addr:country": "GB", "addr:postcode": "GU10 5XX", "amenity": "hospital", "healthcare": "hospital", "name": "Spire Clare Park Hospital", "operator": "Spire Healthcare"}}, {"name": "Fleet Community Hospital", "latitude": 51.2874427, "longitude": -0.8485718, "source": "osm", "_tags": {"amenity": "hospital", "emergency": "no", "healthcare": "hospital", "name": "Fleet Community Hospital"}}, {"name": "RMC", "latitude": 51.2407174, "longitude": -0.9469298, "source": "osm", "_tags": {"access": "private", "amenity": "hospital", "building": "yes", "healthcare": "hospital", "name": "RMC"}}, {"name": "The Royal Alex Children's Hospital", "latitude": 50.8199084, "longitude": -0.1174404, "source": "osm", "_tags": {"addr:city": "Brighton & Hove", "addr:postcode": "BN2 5BE", "addr:street": "Eastern Road", "alt_name": "Children's Ark", "amenity": "hospital", "building": "hospital", "building:colour": "#C0D0F0", "description": "Archetect : Building Design Partnership. Height esimated.", "healthcare": "hospital", "height": "32", "name": "The Royal Alex Children's Hospital", "operator": "Brighton and Sussex University Hospitals NHS Trust", "phone": "+44 1273 696955", "ref:GB:uprn": "22240590;22263138;22263137;22263133", "start_date": "June 2007", "toilets:wheelchair": "yes", "website": "https://www.bsuh.nhs.uk/alex/", "wheelchair": "yes", "wikidata": "Q7373654"}}, {"name": "Royal Sussex County Hospital", "latitude": 50.819587, "longitude": -0.1166722, "source": "osm", "_tags": {"addr:city": "Brighton", "addr:postcode": "BN2 5BE", "addr:street": "Eastern Road", "amenity": "hospital", "emergency": "yes", "healthcare": "hospital", "name": "Royal Sussex County Hospital", "operator": "Brighton and Sussex University Hospitals NHS Trust", "website": "https://www.uhsussex.nhs.uk/hospitals/royal-sussex-county-hospital/", "wikidata": "Q7374890", "wikipedia": "en:Royal Sussex County Hospital"}}, {"name": "Nuffield Health Chichester Hospital", "latitude": 50.8479576, "longitude": -0.7799525, "source": "osm", "_tags": {"addr:city": "Chichester", "addr:postcode": "PO19 6WB", "addr:street": "Broyle Road", "amenity": "hospital", "building": "hospital", "fhrs:authority": "Chichester", "fhrs:id": "147734", "fhrs:local_authority_id": "92/00743/FOOD", "healthcare": "hospital", "name": "Nuffield Health Chichester Hospital", "operator": "Nuffield Health", "operator:type": "private", "operator:wikidata": "Q7068711", "ref:GB:uprn": "100062411716"}}, {"name": "Petersfield Hospital", "latitude": 51.0038869, "longitude": -0.9423811, "source": "osm", "_tags": {"addr:city": "Petersfield", "addr:postcode": "GU32 3LB", "addr:street": "Swan Street", "amenity": "hospital", "building": "hospital", "fhrs:id": "910460", "healthcare": "hospital", "name": "Petersfield Hospital", "wikidata": "Q30292859"}}, {"name": "Southlands Hospital", "latitude": 50.8408728, "longitude": -0.2563319, "source": "osm", "_tags": {"addr:city": "Shoreham-by-Sea", "addr:housename": "Southlands Hospital", "addr:postcode": "BN43 6TQ", "addr:street": "Upper Shoreham Road", "amenity": "hospital", "emergency": "no", "healthcare": "hospital", "name": "Southlands Hospital", "operator": "Western Sussex Hospitals NHS Foundation Trust", "website": "https://www.westernsussexhospitals.nhs.uk/our-hospitals/southlands-hospital/", "wikidata": "Q7570897", "wikipedia": "en:Southlands Hospital"}}, {"name": "Worthing Hospital", "latitude": 50.8165002, "longitude": -0.3641218, "source": "osm", "_tags": {"addr:city": "Worthing", "addr:postcode": "BN11 2DH", "addr:street": "Lyndhurst Road", "amenity": "hospital", "emergency": "yes", "healthcare": "hospital", "name": "Worthing Hospital", "website": "https://www.uhsussex.nhs.uk/hospitals/worthing-hospital/", "wheelchair": "yes", "wikidata": "Q8037222", "wikipedia": "en:Worthing Hospital"}}, {"name": "Brighton General Hospital", "latitude": 50.8306388, "longitude": -0.1145203, "source": "osm", "_tags": {"amenity": "hospital", "check_date": "2023-08-29", "emergency": "no", "healthcare": "hospital", "name": "Brighton General Hospital", "operator": "NHS Trust", "source": "OS_OpenData_Streetview; Bing", "wheelchair": "yes", "wikidata": "Q30280106", "wikipedia": "en:Brighton General Hospital"}}, {"name": "Horsham Hospital", "latitude": 51.0701027, "longitude": -0.3244136, "source": "osm", "_tags": {"addr:city": "Horsham", "addr:postcode": "RH12 2DR", "addr:street": "Hurst Road", "amenity": "hospital", "emergency": "no", "fhrs:id": "194001", "healthcare": "hospital", "name": "Horsham Hospital", "note": "has minor injuries unit", "operator": "NHS", "operator:wikidata": "Q918396", "source": "OS OpenData StreetView", "source:addr": "FHRS Open Data"}}, {"name": "Broadmoor Hospital", "latitude": 51.3687608, "longitude": -0.7774648, "source": "osm", "_tags": {"addr:city": "Crowthorne", "addr:street": "Joshua Jebb Way", "amenity": "hospital", "emergency": "no", "healthcare": "hospital", "healthcare:speciality": "psychiatry", "name": "Broadmoor Hospital", "old_name": "Broadmoor Criminal Lunatic Asylum", "operator": "NHS", "operator:wikidata": "Q918396", "source": "Bing", "start_date": "1863", "website": "https://www.westlondon.nhs.uk/our-services/adult/secure-services/broadmoor-hospital", "wikidata": "Q4972265", "wikipedia": "en:Broadmoor Hospital"}}, {"name": "Wokingham Hospital", "latitude": 51.4102863, "longitude": -0.845857, "source": "osm", "_tags": {"amenity": "hospital", "emergency": "no", "name": "Wokingham Hospital", "wikidata": "Q30293197"}}, {"name": "Holy Cross Hospital", "latitude": 51.0905211, "longitude": -0.7372102, "source": "osm", "_tags": {"addr:city": "Haslemere", "addr:postcode": "GU27 1NQ", "addr:street": "Hindhead Road", "amenity": "hospital", "email": "reception@holycross.org.uk", "emergency": "no", "fax": "+44 1428 644007", "fhrs:id": "181684", "healthcare": "hospital", "name": "Holy Cross Hospital", "operator": "The Congregation of the Daughters of the Cross of Liege", "phone": "+44 1428 643311", "website": "https://www.holycross.org.uk"}}, {"name": "Haslemere & District Hospital", "latitude": 51.0922974, "longitude": -0.7074426, "source": "osm", "_tags": {"addr:city": "Haslemere", "addr:postcode": "GU27 2BJ", "addr:street": "Church Lane", "amenity": "hospital", "fhrs:id": "539805", "name": "Haslemere & District Hospital"}}, {"name": "Ashtead Clinic", "latitude": 51.3140897, "longitude": -0.3036458, "source": "osm", "_tags": {"amenity": "hospital", "building": "yes", "emergency": "no", "healthcare": "hospital", "name": "Ashtead Clinic", "ref:GB:uprn": "100062369016;100062135603;100062135604;100062135605;100062135606"}}, {"name": "Purley War Memorial Hospital", "latitude": 51.3405666, "longitude": -0.1148023, "source": "osm", "_tags": {"addr:city": "Purley", "addr:housenumber": "856", "addr:postcode": "CR8 2YL", "addr:street": "Brighton Road", "amenity": "hospital", "healthcare": "hospital", "name": "Purley War Memorial Hospital", "opening_hours": "Mo-Su 08:00-20:00", "phone": "+44 20 8401 3000"}}, {"name": "Aldershot Centre for Health", "latitude": 51.2543558, "longitude": -0.7656292, "source": "osm", "_tags": {"addr:postcode": "GU11 1AY", "amenity": "hospital", "building": "hospital", "emergency": "no", "healthcare": "hospital", "name": "Aldershot Centre for Health", "wheelchair": "yes"}}, {"name": "The Priory Hospital", "latitude": 51.3225644, "longitude": -0.6225977, "source": "osm", "_tags": {"amenity": "hospital", "building": "hospital", "check_date": "2019-06-05", "name": "The Priory Hospital"}}, {"name": "The Groves Medical Centre", "latitude": 51.4103397, "longitude": -0.2613381, "source": "osm", "_tags": {"amenity": "hospital", "building": "yes", "emergency": "no", "healthcare": "hospital", "name": "The Groves Medical Centre"}}, {"name": "Farnham Community Hospital", "latitude": 51.2206058, "longitude": -0.7843474, "source": "osm", "_tags": {"addr:postcode": "GU9 9QL", "amenity": "hospital", "emergency": "no", "healthcare": "hospital", "name": "Farnham Community Hospital", "note": "& Centre for Health", "wikidata": "Q15217399"}}, {"name": "St Peter's Hospital A&E", "latitude": 51.3771251, "longitude": -0.5267214, "source": "osm", "_tags": {"amenity": "hospital", "building": "hospital", "emergency": "yes", "healthcare": "hospital", "name": "St Peter's Hospital A&E", "source": "Surrey aerial"}}, {"name": "Woking Community Hospital", "latitude": 51.3149284, "longitude": -0.5568503, "source": "osm", "_tags": {"amenity": "hospital", "last_check": "2018-07-21", "name": "Woking Community Hospital", "wheelchair": "yes"}}, {"name": "Portslade Health Centre", "latitude": 50.833573, "longitude": -0.2132966, "source": "osm", "_tags": {"addr:city": "Portslade", "addr:housenumber": "69", "addr:postcode": "BN41 1LB", "addr:street": "Church Road", "amenity": "hospital", "building": "yes", "fhrs:id": "207326", "healthcare": "hospital", "name": "Portslade Health Centre", "ref:GB:uprn": "22273583;22001860", "source:addr": "FHRS Open Data", "website": "https://www.portsladehealthcentre.co.uk/"}}, {"name": "Hove Polyclinic", "latitude": 50.8420847, "longitude": -0.1895664, "source": "osm", "_tags": {"addr:city": "Hove", "addr:postcode": "BN3 7HY", "addr:street": "Nevill Avenue", "amenity": "hospital", "building": "yes", "fhrs:id": "207824", "healthcare": "hospital", "name": "Hove Polyclinic", "ref:GB:uprn": "22017474", "source:addr": "FHRS Open Data"}}, {"name": "Nevill Hospital", "latitude": 50.8412151, "longitude": -0.1920458, "source": "osm", "_tags": {"addr:city": "Hove", "addr:postcode": "BN3 7JW", "addr:street": "Laburnum Avenue", "amenity": "hospital", "building": "yes", "healthcare": "hospital", "name": "Nevill Hospital", "ref:GB:uprn": "22190212;22163237"}}, {"name": "Appleby Care Centre", "latitude": 51.3429955, "longitude": -0.2666493, "source": "osm", "_tags": {"amenity": "hospital", "building": "yes", "name": "Appleby Care Centre", "ref:GB:uprn": "100061360129"}}, {"name": "Nuffield Health Woking Hospital", "latitude": 51.3319293, "longitude": -0.561262, "source": "osm", "_tags": {"addr:city": "Woking", "addr:postcode": "GU21 4BY", "addr:street": "Shores Road", "amenity": "hospital", "building": "yes", "emergency": "no", "healthcare": "hospital", "name": "Nuffield Health Woking Hospital", "operator": "Nuffield Health", "operator:type": "private", "operator:wikidata": "Q7068711", "phone": "+44 1483 378996"}}, {"name": "Leatherhead Community Hospital", "latitude": 51.2952365, "longitude": -0.3200195, "source": "osm", "_tags": {"addr:city": "Leatherhead", "addr:postcode": "KT22 8SD", "addr:street": "Poplar Road", "amenity": "hospital", "healthcare": "hospital", "name": "Leatherhead Community Hospital", "phone": "+44 1372 384 348", "toilets:wheelchair": "no", "website": "https://www.cshsurrey.co.uk/our-services/location/leatherhead-community-hospital", "wheelchair": "yes", "wheelchair:description": "Ramp from Blue Badge spaces to main automatic doors. All on single level. \"Accessible\" toilet opposite reception only 100cm wide. [No hearing loops Feb 2018]"}}, {"name": "Epsom General Hospital", "latitude": 51.3251513, "longitude": -0.2731372, "source": "osm", "_tags": {"addr:city": "Epsom", "addr:postcode": "KT18 7EG", "addr:street": "Dorking Road", "amenity": "hospital", "emergency": "yes", "fhrs:id": "6421", "healthcare": "hospital", "name": "Epsom General Hospital", "ref:GB:cqc_location": "RVR50", "source:addr:postcode": "FHRS Open Data", "wheelchair": "yes", "wheelchair:description": "Ramped routes to all entrances. Dedicated Blue Badge spaces near main entrance (zone A). Toilets not yet checked.", "wikidata": "Q2692584"}}, {"name": "Farmfield Hospital (psychiatric)", "latitude": 51.1663745, "longitude": -0.2016871, "source": "osm", "_tags": {"amenity": "hospital", "emergency": "no", "healthcare": "hospital", "healthcare:speciality": "psychiatry", "name": "Farmfield Hospital (psychiatric)", "operator": "Elysium Healthcare"}}, {"name": "Langley Green Hospital (psychiatric)", "latitude": 51.1319347, "longitude": -0.1887997, "source": "osm", "_tags": {"amenity": "hospital", "emergency": "no", "healthcare": "hospital", "healthcare:speciality": "psychiatry", "name": "Langley Green Hospital (psychiatric)"}}, {"name": "St. Ebba's Hospital", "latitude": 51.3507676, "longitude": -0.2730494, "source": "osm", "_tags": {"amenity": "hospital", "name": "St. Ebba's Hospital", "wikidata": "Q7587779"}}, {"name": "Oak Park Community Clinic", "latitude": 50.8579948, "longitude": -0.9784158, "source": "osm", "_tags": {"alt_name": "Havant Community Health", "amenity": "hospital", "building": "yes", "healthcare": "hospital", "name": "Oak Park Community Clinic"}}, {"name": "Ashtead Hospital", "latitude": 51.3045578, "longitude": -0.3031771, "source": "osm", "_tags": {"amenity": "hospital", "emergency": "no", "healthcare": "hospital", "name": "Ashtead Hospital", "operator": "Bupa"}}, {"name": "Mount Alvernia Hospital", "latitude": 51.2356437, "longitude": -0.5642432, "source": "osm", "_tags": {"addr:city": "Guildford", "addr:country": "GB", "addr:housenumber": "46", "addr:postcode": "GU1 3LX", "addr:street": "Harvey Road", "amenity": "hospital", "emergency": "no", "fhrs:authority": "Guildford", "fhrs:id": "815997", "fhrs:local_authority_id": "5766", "healthcare": "hospital", "name": "Mount Alvernia Hospital", "source": "photo", "website": "https://www.bmihealthcare.co.uk/hospitals/bmi-mount-alvernia-hospital", "wikidata": "Q30292743"}}, {"name": "Spire Gatwick Park Hospital (Private)", "latitude": 51.1673067, "longitude": -0.1832702, "source": "osm", "_tags": {"amenity": "hospital", "healthcare": "hospital", "name": "Spire Gatwick Park Hospital (Private)"}}, {"name": "Chalkhill", "latitude": 50.9911428, "longitude": -0.0938111, "source": "osm", "_tags": {"addr:city": "Haywards Heath", "addr:postcode": "RH16 4NQ", "addr:street": "Lewes Road", "amenity": "hospital", "building": "yes", "healthcare": "hospital", "name": "Chalkhill", "operator": "NHS", "operator:wikidata": "Q918396"}}, {"name": "Sussex Orthopaedic Treatment Centre", "latitude": 50.9914421, "longitude": -0.0930064, "source": "osm", "_tags": {"addr:city": "Haywards Heath", "addr:postcode": "RH16 4EY", "addr:street": "Lewes Road", "amenity": "hospital", "building": "yes", "healthcare": "hospital", "name": "Sussex Orthopaedic Treatment Centre", "operator": "NHS", "operator:wikidata": "Q918396", "phone": "+44 1444 448770", "ref:GB:uprn": "10014104007"}}, {"name": "Frimley Park Hospital", "latitude": 51.3196793, "longitude": -0.7420142, "source": "osm", "_tags": {"addr:city": "Camberley", "addr:full": "Frimley, Camberley GU16 7UJ", "addr:postcode": "GU16 7UJ", "addr:street": "Portsmouth Road", "addr:suburb": "Frimley", "amenity": "hospital", "contact:phone": "+44 1276 604604", "contact:website": "https://www.fhft.nhs.uk/your-hospitals/frimley-park/", "electricity": "grid", "emergency": "yes", "healthcare": "hospital", "insurance:health": "public", "name": "Frimley Park Hospital", "opening_hours": "24/7", "operational_status": "operational", "wheelchair": "yes", "wikidata": "Q5504570", "wikipedia": "en:Frimley Park Hospital"}}, {"name": "Hindmoor Manor", "latitude": 51.105446, "longitude": -0.7335088, "source": "osm", "_tags": {"amenity": "hospital", "healthcare": "hospital", "name": "Hindmoor Manor", "source": "OS OpenMap Local"}}, {"name": "Bognor Regis War Memorial Hospital", "latitude": 50.7929681, "longitude": -0.6750046, "source": "osm", "_tags": {"addr:city": "Bognor Regis", "addr:postcode": "PO22 9PP", "addr:street": "Shripney Road", "amenity": "hospital", "fhrs:authority": "Arun", "fhrs:id": "145979", "fhrs:local_authority_id": "879845", "healthcare": "hospital", "name": "Bognor Regis War Memorial Hospital", "phone": "+44 1243 865418", "wikidata": "Q30293026", "wikipedia": "en:Bognor Regis War Memorial Hospital"}}, {"name": "Princess Royal", "latitude": 50.9908459, "longitude": -0.0911237, "source": "osm", "_tags": {"amenity": "hospital", "healthcare": "hospital", "name": "Princess Royal", "wheelchair": "yes", "wikidata": "Q7244803"}}, {"name": "St Richard's Hospital", "latitude": 50.8439592, "longitude": -0.7694953, "source": "osm", "_tags": {"addr:city": "Chichester", "addr:postcode": "PO19 6SE", "addr:street": "Spitalfield Lane", "amenity": "hospital", "healthcare": "hospital", "name": "St Richard's Hospital", "website": "https://www.uhsussex.nhs.uk/hospitals/st-richards-hospital/", "wikidata": "Q7595419", "wikipedia": "en:St Richard's Hospital"}}, {"name": "The Dene", "latitude": 50.9655359, "longitude": -0.1651177, "source": "osm", "_tags": {"amenity": "hospital", "healthcare": "hospital", "name": "The Dene", "operator": "The Priory Group", "website": "https://www.priorygroup.com/location-results/item/the-dene"}}, {"name": "Harold Kidd Unit", "latitude": 50.8515633, "longitude": -0.7732463, "source": "osm", "_tags": {"addr:city": "Chichester", "addr:postcode": "PO19 6AU", "addr:street": "Blomfield Drive", "amenity": "hospital", "building": "hospital", "healthcare": "hospital", "name": "Harold Kidd Unit"}}, {"name": "", "latitude": 50.8512734, "longitude": -0.7733096, "source": "osm", "_tags": {"amenity": "hospital", "healthcare": "hospital"}}, {"name": "Midhurst Community Hospital", "latitude": 50.99358, "longitude": -0.7352055, "source": "osm", "_tags": {"addr:city": "Midhurst", "addr:postcode": "GU29 9AW", "addr:street": "Dodsley Lane", "addr:suburb": "Easebourne", "amenity": "hospital", "beds": "17", "emergency": "no", "healthcare": "hospital", "name": "Midhurst Community Hospital", "operator": "Sussex Community NHS Foundation Trust", "phone": "+44 1730 819100", "wikidata": "Q30292707"}}, {"name": "Alton Community Hospital", "latitude": 51.140196, "longitude": -0.9894502, "source": "osm", "_tags": {"addr:city": "Alton", "addr:postcode": "GU34 1RJ", "addr:street": "Chawton Park Road", "amenity": "hospital", "healthcare": "hospital", "name": "Alton Community Hospital", "website": "https://www.southernhealth.nhs.uk/our-services/our-main-sites-and-locations/alton-community-hospital", "wikidata": "Q30292803"}}, {"name": "", "latitude": 51.4211265, "longitude": -0.0785948, "source": "osm", "_tags": {"amenity": "hospital", "healthcare": "hospital"}}, {"name": "Chase Hospital", "latitude": 51.1064435, "longitude": -0.8622125, "source": "osm", "_tags": {"addr:city": "Bordon", "addr:postcode": "GU35 0YZ", "addr:street": "Conde Way", "amenity": "hospital", "healthcare": "hospital", "name": "Chase Hospital"}}, {"name": "Priory Pelham Woods", "latitude": 51.2250864, "longitude": -0.3271596, "source": "osm", "_tags": {"amenity": "hospital", "healthcare": "hospital", "healthcare:speciality": "psychiatry", "name": "Priory Pelham Woods", "operator": "NHS", "operator:type": "public", "operator:wikidata": "Q918396"}}, {"name": "Dorking Community Hospital", "latitude": 51.2260431, "longitude": -0.3330255, "source": "osm", "_tags": {"addr:postcode": "RH4 2AA", "addr:street": "Horsham Road", "alt_name": "Dorking Community Hospital", "amenity": "hospital", "emergency": "no", "healthcare": "hospital", "name": "Dorking Community Hospital", "operator": "Surrey Downs Health and Care", "operator:type": "public", "website": "https://surreydownshealthandcare.nhs.uk/dorking-hospital"}}, {"name": "Arundel & District Community Hospital", "latitude": 50.8543623, "longitude": -0.5654097, "source": "osm", "_tags": {"addr:city": "Arundel", "addr:postcode": "BN18 0AB", "addr:street": "Chichester Road", "amenity": "hospital", "beds": "20", "emergency": "no", "fhrs:authority": "Arun", "fhrs:id": "138707", "fhrs:local_authority_id": "740409", "healthcare": "hospital", "name": "Arundel & District Community Hospital", "phone": "+44 1903 882543"}}, {"name": "Swandean", "latitude": 50.8419472, "longitude": -0.4112428, "source": "osm", "_tags": {"amenity": "hospital", "healthcare": "hospital", "name": "Swandean", "source": "bing"}}, {"name": "North Downs Hospital", "latitude": 51.2742276, "longitude": -0.0806041, "source": "osm", "_tags": {"addr:housenumber": "46", "addr:street": "Tupwood Lane", "amenity": "hospital", "name": "North Downs Hospital", "website": "https://www.northdownshospital.co.uk/", "wikidata": "Q30292801"}}, {"name": "Royal Marsden Hospital", "latitude": 51.3442848, "longitude": -0.1912482, "source": "osm", "_tags": {"amenity": "hospital", "healthcare": "hospital", "name": "Royal Marsden Hospital", "website": "https://www.royalmarsden.nhs.uk/"}}, {"name": "New Victoria Hospital", "latitude": 51.4157617, "longitude": -0.2541802, "source": "osm", "_tags": {"addr:city": "Kingston upon Thames", "addr:housenumber": "184", "addr:postcode": "KT2 7EG", "addr:street": "Coombe Lane West", "amenity": "hospital", "emergency": "no", "healthcare": "hospital", "name": "New Victoria Hospital", "operator:type": "private_non_profit", "website": "https://www.newvictoria.co.uk/"}}, {"name": "Goring Hall Hospital", "latitude": 50.8112228, "longitude": -0.4319747, "source": "osm", "_tags": {"addr:city": "Worthing", "addr:locality": "Goring-by-Sea", "addr:postcode": "BN12 5AT", "addr:street": "Bodiam Avenue", "amenity": "hospital", "healthcare": "hospital", "name": "Goring Hall Hospital", "operator": "BMI Healthcare", "phone": "+44 1903 867315", "wheelchair": "yes"}}, {"name": "Cobham Community Hospital and Health Centre", "latitude": 51.3348912, "longitude": -0.408094, "source": "osm", "_tags": {"addr:city": "Cobham", "addr:housenumber": "168", "addr:street": "Portsmouth Road", "amenity": "hospital", "emergency": "no", "healthcare": "hospital", "landuse": "healthcare", "name": "Cobham Community Hospital and Health Centre"}}, {"name": "Milford Hospital", "latitude": 51.1676833, "longitude": -0.6251331, "source": "osm", "_tags": {"addr:city": "Godalming", "addr:county": "Surrey", "addr:postcode": "GU7 1UF", "addr:street": "Tuesley Lane", "amenity": "hospital", "fhrs:id": "161403", "healthcare": "hospital", "name": "Milford Hospital", "operator": "Surrey NHS Trust", "source": "DigitalGlobe-Standard", "source:addr": "FHRS Open Data", "wikidata": "Q6851730", "wikipedia": "en:Milford Hospital"}}, {"name": "", "latitude": 51.3226057, "longitude": -0.6233697, "source": "osm", "_tags": {"amenity": "hospital", "healthcare": "hospital"}}, {"name": "", "latitude": 51.3187456, "longitude": -0.5920263, "source": "osm", "_tags": {"amenity": "hospital", "healthcare": "hospital"}}, {"name": "Heatherwood Hospital", "latitude": 51.4080179, "longitude": -0.6864173, "source": "osm", "_tags": {"amenity": "hospital", "healthcare": "hospital", "name": "Heatherwood Hospital", "wikidata": "Q14956784"}}, {"name": "Spire Hospital Portsmouth", "latitude": 50.8684331, "longitude": -0.9551392, "source": "osm", "_tags": {"addr:city": "Havant", "addr:postcode": "PO9 5NP", "addr:street": "Bartons Road", "amenity": "hospital", "designation": "Private", "emergency": "no", "healthcare": "hospital", "name": "Spire Hospital Portsmouth", "operator": "Spire Healthcare", "operator:type": "private", "phone": "+44 2392 801436", "source": "OS OpenData StreetView", "source_1": "leaflet of this hospital", "website": "https://www.spirehealthcare.com/spire-portsmouth-hospital"}}, {"name": "", "latitude": 51.2196332, "longitude": -0.5785368, "source": "osm", "_tags": {"amenity": "hospital", "healthcare": "hospital"}}, {"name": "St Peter's Hospital", "latitude": 51.3771098, "longitude": -0.5269244, "source": "osm", "_tags": {"addr:city": "Chertsey", "addr:postcode": "KT16 0PZ", "addr:street": "Guildford Road", "amenity": "hospital", "emergency": "yes", "healthcare": "hospital", "name": "St Peter's Hospital", "operator": "NHS", "operator:type": "public", "operator:wikidata": "Q918396", "phone": "+44 1932 872000", "website": "https://www.ashfordstpeters.nhs.uk/", "wikidata": "Q7595324", "wikipedia": "en:St Peter's Hospital, Chertsey"}}, {"name": "The Orchards", "latitude": 50.7962216, "longitude": -1.0455076, "source": "osm", "_tags": {"amenity": "hospital", "name": "The Orchards", "operator": "The National Health Service"}}, {"name": "The Limes", "latitude": 50.7973152, "longitude": -1.0452891, "source": "osm", "_tags": {"amenity": "hospital", "healthcare": "hospital", "name": "The Limes", "operator": "The National Health Service", "toilets:wheelchair": "yes", "wheelchair": "yes", "wikidata": "Q65058975"}}, {"name": "St James Hospital", "latitude": 50.7960102, "longitude": -1.0458224, "source": "osm", "_tags": {"amenity": "hospital", "name": "St James Hospital", "note": "Remnants of St James' . Not sure how much is still active or is still considered \"St James'\"", "ref:GB:cqc_location": "RW1U2", "website": "https://hiowhealthcare.nhs.uk/our-services/our-main-sites-and-locations/st-james-healthcare-campus"}}, {"name": "West Park Hospital", "latitude": 51.3405338, "longitude": -0.3007611, "source": "osm", "_tags": {"amenity": "hospital", "healthcare": "hospital", "healthcare:speciality": "psychiatry", "name": "West Park Hospital", "operator": "NHS", "operator:type": "public", "operator:wikidata": "Q918396"}}, {"name": "", "latitude": 51.3394246, "longitude": -0.2936518, "source": "osm", "_tags": {"amenity": "hospital", "healthcare": "hospital"}}, {"name": "The Fountain Centre", "latitude": 51.2416749, "longitude": -0.6092258, "source": "osm", "_tags": {"addr:city": "Guildford", "addr:full": "The Fountain Centre, Royal Surrey Cancer Centre, Royal Surrey County Hospital NHS Foundation Trust", "addr:housename": "The Fountain Centre", "addr:postcode": "GU2 7XX", "addr:street": "Egerton Road", "amenity": "hospital", "description": "Cancer Charity based in the Royal Surrey Cancer Centre", "healthcare": "hospital", "healthcare:speciality": "cancer_charity", "name": "The Fountain Centre"}}, {"name": "Horton Haven", "latitude": 51.3450109, "longitude": -0.2848449, "source": "osm", "_tags": {"amenity": "hospital", "healthcare": "hospital", "healthcare:speciality": "psychiatry", "name": "Horton Haven"}}, {"name": "", "latitude": 51.3371136, "longitude": -0.2974066, "source": "osm", "_tags": {"amenity": "hospital", "healthcare": "hospital"}}, {"name": "", "latitude": 51.3468853, "longitude": -0.2736361, "source": "osm", "_tags": {"amenity": "hospital", "healthcare": "hospital"}}, {"name": "", "latitude": 51.1354262, "longitude": -0.1889856, "source": "osm", "_tags": {"amenity": "hospital", "healthcare": "hospital"}}, {"name": "Royal Sussex County Hospital", "latitude": 50.8190632, "longitude": -0.1189966, "source": "osm", "_tags": {"addr:city": "Brighton", "addr:postcode": "BN2 5BE", "addr:street": "Eastern Road", "amenity": "hospital", "emergency": "yes", "healthcare": "hospital", "name": "Royal Sussex County Hospital", "operator": "Brighton and Sussex University Hospitals NHS Trust", "website": "https://www.uhsussex.nhs.uk/hospitals/royal-sussex-county-hospital/", "wikidata": "Q7374890", "wikipedia": "en:Royal Sussex County Hospital"}}, {"name": "Royal Sussex County Hospital", "latitude": 50.8187514, "longitude": -0.1204373, "source": "osm", "_tags": {"addr:city": "Brighton", "addr:postcode": "BN2 5BE", "addr:street": "Eastern Road", "amenity": "hospital", "emergency": "yes", "healthcare": "hospital", "name": "Royal Sussex County Hospital", "operator": "Brighton and Sussex University Hospitals NHS Trust", "website": "https://www.uhsussex.nhs.uk/hospitals/royal-sussex-county-hospital/", "wikidata": "Q7374890", "wikipedia": "en:Royal Sussex County Hospital"}}, {"name": "Royal Sussex County Hospital", "latitude": 50.8192399, "longitude": -0.1188742, "source": "osm", "_tags": {"addr:city": "Brighton", "addr:postcode": "BN2 5BE", "addr:street": "Eastern Road", "amenity": "hospital", "emergency": "yes", "healthcare": "hospital", "name": "Royal Sussex County Hospital", "operator": "Brighton and Sussex University Hospitals NHS Trust", "website": "https://www.uhsussex.nhs.uk/hospitals/royal-sussex-county-hospital/", "wikidata": "Q7374890", "wikipedia": "en:Royal Sussex County Hospital"}}, {"name": "Royal Sussex County Hospital", "latitude": 50.8188066, "longitude": -0.1178743, "source": "osm", "_tags": {"addr:city": "Brighton", "addr:postcode": "BN2 5BE", "addr:street": "Eastern Road", "amenity": "hospital", "emergency": "yes", "healthcare": "hospital", "name": "Royal Sussex County Hospital", "operator": "Brighton and Sussex University Hospitals NHS Trust", "website": "https://www.uhsussex.nhs.uk/hospitals/royal-sussex-county-hospital/", "wikidata": "Q7374890", "wikipedia": "en:Royal Sussex County Hospital"}}, {"name": "Salvington Lodge", "latitude": 50.8425453, "longitude": -0.4104772, "source": "osm", "_tags": {"addr:city": "Worthing", "addr:housenumber": "1", "addr:postcode": "BN13 3AT", "addr:street": "Salvington Hill", "amenity": "hospital", "building": "yes", "healthcare": "hospital", "name": "Salvington Lodge", "type": "multipolygon"}}, {"name": "Walton Community Hospital", "latitude": 51.379903, "longitude": -0.406427, "source": "osm", "_tags": {"amenity": "hospital", "building": "yes", "name": "Walton Community Hospital", "type": "multipolygon"}}, {"name": "Mill View Hospital", "latitude": 50.8428052, "longitude": -0.1909058, "source": "osm", "_tags": {"amenity": "hospital", "building": "yes", "healthcare": "hospital", "name": "Mill View Hospital", "type": "multipolygon"}}, {"name": "Royal Surrey County Hospital", "latitude": 51.2411709, "longitude": -0.6088556, "source": "osm", "_tags": {"addr:city": "Guildford", "addr:country": "GB", "addr:postcode": "GU2 7XX", "addr:street": "Egerton Road", "amenity": "hospital", "emergency": "yes", "fhrs:authority": "Guildford", "fhrs:id": "649588", "fhrs:local_authority_id": "3661", "healthcare": "hospital", "name": "Royal Surrey County Hospital", "type": "multipolygon", "wikidata": "Q7374889"}}, {"name": "East Surrey Hospital", "latitude": 51.2188913, "longitude": -0.1623128, "source": "osm", "_tags": {"amenity": "hospital", "building": "yes", "emergency": "yes", "healthcare": "hospital", "internet_access": "wlan", "internet_access:fee": "no", "name": "East Surrey Hospital", "type": "multipolygon", "wheelchair": "yes", "wheelchair:description": "Wide Automatic doors at entrances. Accessible WCs located near Main and East Entrances, see map detail.", "wikidata": "Q14956872"}}, {"name": "Meadowfield", "latitude": 50.842562, "longitude": -0.4118677, "source": "osm", "_tags": {"addr:city": "Worthing", "addr:postcode": "BN13 3EF", "addr:street": "Arundel Road", "building": "yes", "healthcare": "hospital", "name": "Meadowfield", "source": "Yahoo", "type": "multipolygon"}}, {"name": "Molesey Community Hospital", "latitude": 51.3973376, "longitude": -0.3725266, "source": "osm", "_tags": {"addr:city": "West Molesey", "addr:postcode": "KT8 2LU", "addr:street": "High Street", "amenity": "hospital", "healthcare": "hospital", "healthcare:speciality": "rehabilitation", "name": "Molesey Community Hospital", "operator": "NHS", "operator:wikidata": "Q918396", "phone": "+44 20 8941 4481", "type": "multipolygon"}}]