[{"name": "Centre Hospitalier Jean de Luxembourg", "latitude": 50.6126187, "longitude": 2.986561, "source": "osm", "_tags": {"addr:city": "Haubourdin", "addr:country": "FR", "addr:housenumber": "29", "addr:postcode": "59481", "addr:street": "Rue Henri Barbusse", "amenity": "hospital", "check_date": "2024-12-21", "healthcare": "hospital", "name": "Centre Hospitalier Jean de Luxembourg", "phone": "+33320101515", "ref:FR:FINESS": "590000089", "source": "Le ministère des solidarités et de la santé - 03/2019", "type:FR:FINESS": "355"}}, {"name": "Hôpital de Carvin", "latitude": 50.496545, "longitude": 2.9614658, "source": "osm", "_tags": {"amenity": "hospital", "name": "Hôpital de Carvin", "ref:FR:FINESS": "620000232", "source": "cadastre-dgi-fr source : Direction Générale des Impôts - Cadastre. Mise à jour : 2011"}}, {"name": "Clinique psychiatrique", "latitude": 50.447908, "longitude": 3.4250523, "source": "osm", "_tags": {"amenity": "hospital", "emergency": "no", "healthcare": "hospital", "name": "Clinique psychiatrique", "ref:FR:FINESS": "590037511", "source": "Le ministère des solidarités et de la santé - 03/2019"}}, {"name": "Antonius", "latitude": 51.3249615, "longitude": 3.4815907, "source": "osm", "_tags": {"addr:city": "Oostburg", "addr:housenumber": "6", "addr:postcode": "4501AJ", "addr:street": "Pastoor van Genklaan", "amenity": "hospital", "emergency": "yes", "healthcare": "hospital", "name": "Antonius", "operator": "ZorgSaam Zorggroep Zeeuws-Vlaanderen", "phone": "+31 117 459 000", "source": "BAG", "source:date": "2016-11-29", "website": "https://www.zorgsaam.org/ziekenhuis/service-contact/contact-route", "wheelchair": "yes"}}, {"name": "USLD Au Fil de l'Eau", "latitude": 50.5487314, "longitude": 3.0183868, "source": "osm", "_tags": {"amenity": "hospital", "healthcare": "hospital", "name": "USLD Au Fil de l'Eau", "ref:FR:FINESS": "590804522", "type:FR:FINESS": "362"}}, {"name": "Maternité de Beaumont", "latitude": 50.6803842, "longitude": 3.1743074, "source": "osm", "_tags": {"addr:city": "Roubaix", "addr:housenumber": "80", "addr:postcode": "59100", "addr:street": "Rue de Beaumont", "description": "La maternité de Beaumont remplace la maternité Paul Gellé depuis le 16 mai 2017.", "facebook": "Maternité de Beaumont", "healthcare": "hospital", "healthcare:speciality": "obstetrics", "name": "Maternité de Beaumont", "operator": "Centre Hospitalier de Roubaix", "operator:type": "public", "phone": "+33 3 20 99 31 31", "website": "http://www.ch-roubaix.fr/#recherche/service/s/maternite"}}, {"name": "Cabinet Médical Montebello", "latitude": 50.6250464, "longitude": 3.0420849, "source": "osm", "_tags": {"amenity": "doctors", "check_date:opening_hours": "2023-05-01", "contact:city": "Lille", "contact:housenumber": "27", "contact:postcode": "59000", "contact:street": "Boulevard Montebello", "healthcare": "hospital", "healthcare:speciality": "general;neurology", "name": "Cabinet Médical Montebello", "opening_hours:signed": "no"}}, {"name": "Centres d’Education et de Prévention en Santé", "latitude": 50.6809115, "longitude": 3.1981261, "source": "osm", "_tags": {"addr:city": "Roubaix", "addr:housenumber": "85", "addr:postcode": "59100", "addr:street": "Rue de Maufait", "amenity": "hospital", "healthcare": "centre", "name": "Centres d’Education et de Prévention en Santé", "type:FR:FINESS": "636", "website": "https://www.ch-roubaix.fr/nos-prises-en-charge-specialisees/centre-dexamens-de-sante/"}}, {"name": "Pavillon Christian", "latitude": 50.6065044, "longitude": 3.0378509, "source": "osm", "_tags": {"amenity": "hospital", "name": "Pavillon Christian", "name:fr": "Pavillon Christiaens - Centre de prélèvements covid 19"}}, {"name": "Centre de jour \"Les 4 Chemins\"", "latitude": 50.6231154, "longitude": 3.0547091, "source": "osm", "_tags": {"amenity": "hospital", "fax": "+33320571122", "healthcare": "yes", "healthcare:speciality": "psychiatry", "name": "Centre de jour \"Les 4 Chemins\"", "operator": "EPSM de l'agglomération lilloise", "operator:type": "public", "phone": "+33320570121", "ref:FR:FINESS": "590802930", "ref:FR:NAF": "86.10Z", "ref:FR:SIRET": "26590870700218", "source": "Le ministère des solidarités et de la santé - 03/2019", "type:FR:FINESS": "292"}}, {"name": "Hôpital de jour Les Mosaïques", "latitude": 50.6201275, "longitude": 3.0438342, "source": "osm", "_tags": {"addr:city": "Lille", "addr:housenumber": "41", "addr:postcode": "59000", "addr:street": "Rue Van Hende", "amenity": "hospital", "healthcare": "hospital", "healthcare:speciality": "psychiatry", "name": "Hôpital de jour Les Mosaïques", "operator": "CHR de Lille", "operator:type": "public", "phone": "+33320571159", "ref:FR:FINESS": "590813374", "ref:FR:SIRET": "26590671900330", "source": "Le ministère des solidarités et de la santé - 2021-07", "type:FR:FINESS": "101"}}, {"name": "Centre psychiatrique d'accueil et d'admission", "latitude": 50.619644, "longitude": 3.0759682, "source": "osm", "_tags": {"amenity": "hospital", "fax": "+33320637680", "healthcare": "hospital", "name": "Centre psychiatrique d'accueil et d'admission", "phone": "+33320637600", "ref:FR:FINESS": "590045977", "ref:FR:SIRET": "26590870700010", "source": "Le ministère des solidarités et de la santé - 2021-09", "type:FR:FINESS": "292"}}, {"name": "Centre Cotherapsy", "latitude": 50.553697, "longitude": 3.797613, "source": "osm", "_tags": {"amenity": "hospital", "contact:facebook": "https://www.facebook.com/cotherapsy", "contact:instagram": "https://www.instagram.com/cotherapsy/", "contact:mobile": "+32 476 04 26 51", "email": "cotherapsy@outlook.com", "healthcare": "hospital", "name": "Centre Cotherapsy", "opening_hours": "Mo 09:00-18:00; Tu,Th 09:00-20:00; We 08:30-18:00; Fr 10:00-18:00; Sa 10:00-12:00", "website": "https://cotherapsy.be/"}}, {"name": "Epicura Beloeil", "latitude": 50.5497318, "longitude": 3.7353529, "source": "osm", "_tags": {"addr:city": "Beloeil", "addr:postcode": "7970", "addr:street": "Rue d'Ath", "amenity": "hospital", "emergency": "no", "healthcare": "hospital", "name": "Epicura Beloeil"}}, {"name": "Le Cèdre vert", "latitude": 50.7637872, "longitude": 3.0042317, "source": "osm", "_tags": {"amenity": "hospital", "healthcare": "hospital", "name": "Le Cèdre vert", "phone": "+33320394099", "ref:FR:FINESS": "590809141", "ref:FR:SIRET": "26590706300233", "source": "Le ministère des solidarités et de la santé - 2024-11", "type:FR:FINESS": "292"}}, {"name": "Centre psychothérapeutique de jour pour jeunes enfants L'Arc-en-ciel", "latitude": 50.6864635, "longitude": 3.1708393, "source": "osm", "_tags": {"amenity": "hospital", "fax": "+33320206199", "healthcare": "hospital", "name": "Centre psychothérapeutique de jour pour jeunes enfants L'Arc-en-ciel", "phone": "+33320206191", "ref:FR:FINESS": "590817177", "ref:FR:SIRET": "26590870700143", "source": "Le ministère des solidarités et de la santé - 2024-11", "type:FR:FINESS": "292"}}, {"name": "Clinique du Nouveau Monde", "latitude": 50.6974796, "longitude": 3.175806, "source": "osm", "_tags": {"amenity": "hospital", "fax": "+33320286421", "healthcare": "hospital", "healthcare:speciality": "psychiatry", "name": "Clinique du Nouveau Monde", "phone": "+33320286420", "ref:FR:FINESS": "590033718", "ref:FR:SIRET": "26590870700374", "source": "Le ministère des solidarités et de la santé - 2024-11", "type:FR:FINESS": "292"}}, {"name": "USLD Malatray", "latitude": 50.7437128, "longitude": 3.1823921, "source": "osm", "_tags": {"amenity": "hospital", "fax": "+33320692374", "healthcare": "hospital", "name": "USLD Malatray", "phone": "+33320694468", "ref:FR:FINESS": "590817763", "ref:FR:SIRET": "26590700600190", "source": "Le ministère des solidarités et de la santé - 2024-11", "type:FR:FINESS": "355"}}, {"name": "Universitair Ziekenhuis Gent", "latitude": 51.0234795, "longitude": 3.7273949, "source": "osm", "_tags": {"addr:housenumber": "10", "addr:postcode": "9000", "addr:street": "Corneel Heymanslaan", "amenity": "hospital", "email": "info@uzgent.be", "emergency": "yes", "emergency_ward": "complete", "healthcare": "hospital", "healthcare:speciality": "general", "name": "Universitair Ziekenhuis Gent", "name:en": "Ghent University Hospital", "phone": "+32 9 332 21 11", "ref:fps_health:campus": "3850", "ref:fps_health:recognition": "670", "short_name": "UZ Gent", "website": "https://uzgent.be/", "wikidata": "Q1920549", "wikimedia_commons": "Category:Ghent University Hospital", "wikipedia": "en:Ghent University Hospital"}}, {"name": "Centre de Soins et d'Accompagnement et de Prévention en Addictologie", "latitude": 50.6192753, "longitude": 3.0452429, "source": "osm", "_tags": {"amenity": "hospital", "building": "yes", "healthcare": "hospital", "mapillary": "209558021001648", "name": "Centre de Soins et d'Accompagnement et de Prévention en Addictologie", "ref:FR:FINESS": "590815098", "source": "Le ministère des solidarités et de la santé - 03/2019", "survey:date": "2017-08-23"}}, {"name": "Centre Hospitalier Régional Universitaire de Lille", "latitude": 50.6083351, "longitude": 3.0336364, "source": "osm", "_tags": {"CLC:id": "FR-1046", "alt_name": "CHRU de Lille", "amenity": "hospital", "emergency": "yes", "healthcare": "hospital", "healthcare:speciality": "intensive", "name": "Centre Hospitalier Régional Universitaire de Lille", "ref:FR:FINESS": "590000105", "source": "Le ministère des solidarités et de la santé - 03/2019", "survey:date": "2014", "website": "https://www.chu-lille.fr/", "wheelchair": "yes", "wikidata": "Q2945741", "wikipedia": "fr:Centre hospitalier universitaire de Lille"}}, {"name": "AZ Jan Palfijn site Watersportbaan", "latitude": 51.0495474, "longitude": 3.6995398, "source": "osm", "_tags": {"addr:city": "Gent", "addr:housenumber": "5", "addr:postcode": "9000", "addr:street": "Henri Dunantlaan", "amenity": "hospital", "emergency": "yes", "emergency_ward": "complete", "healthcare": "hospital", "healthcare:speciality": "general", "name": "AZ Jan Palfijn site Watersportbaan", "ref:fps_health:campus": "1610", "ref:fps_health:recognition": "713"}}, {"name": "A.Z. Sint-Lucas campus Sint-Lucas", "latitude": 51.0625942, "longitude": 3.7207671, "source": "osm", "_tags": {"addr:housenumber": "1", "addr:postcode": "9000", "addr:street": "Groenebriel", "alt_name": "AZ Sint-Lucas", "amenity": "hospital", "email": "info@azstlucas.be", "emergency": "yes", "emergency_ward": "complete", "healthcare": "hospital", "healthcare:speciality": "general", "name": "A.Z. Sint-Lucas campus Sint-Lucas", "opening_hours:visitors": "Mo-Su 14:00-20:00", "phone": "+32 9 224 61 11", "ref:fps_health:campus": "1630", "ref:fps_health:recognition": "290", "website": "https://www.azstlucas.be/", "wikidata": "Q13427644"}}, {"name": "Psychiatrisch Centrum Dr. Guislain", "latitude": 51.0676378, "longitude": 3.7045749, "source": "osm", "_tags": {"OnroerendErfgoed:criteria": "M", "addr:housenumber": "43", "addr:street": "Jozef Guislainstraat", "amenity": "hospital", "description": "Psychiatrische inrichting Dr. Guislain, Kliniek Lumen", "healthcare": "hospital", "heritage": "4", "heritage:operator": "OnroerendErfgoed", "heritage:website": "https://inventaris.onroerenderfgoed.be/dibe/relict/18316", "name": "Psychiatrisch Centrum Dr. Guislain", "ref:OnroerendErfgoed": "18316"}}, {"name": "Clinique du Croisé Laroche", "latitude": 50.6663416, "longitude": 3.101669, "source": "osm", "_tags": {"addr:city": "Marcq-en-Barœul", "addr:country": "FR", "addr:housenumber": "199", "addr:postcode": "59700", "addr:street": "Rue de la Rianderie", "amenity": "hospital", "building": "hospital", "healthcare": "hospital", "name": "Clinique du Croisé Laroche", "ref:FR:FINESS": "590781951", "source": "cadastre-dgi-fr source : Direction Générale des Impôts - Cadastre ; mise à jour : 2010", "type:FR:FINESS": "365"}}, {"name": "KARUS", "latitude": 51.0259045, "longitude": 3.677707, "source": "osm", "_tags": {"addr:city": "Gent", "addr:housenumber": "21", "addr:postcode": "9051", "addr:street": "Beukenlaan", "alt_name": "Sint-Camillus", "amenity": "hospital", "healthcare": "hospital", "healthcare:speciality": "psychiatry", "name": "KARUS"}}, {"name": "Clinique de la Victoire", "latitude": 50.7165133, "longitude": 3.1567706, "source": "osm", "_tags": {"amenity": "hospital", "building": "yes", "healthcare": "hospital", "name": "Clinique de la Victoire", "ref:FR:FINESS": "590817458", "source": "cadastre-dgi-fr source : Direction Générale des Impôts - Cadastre ; mise à jour : 2010", "type:FR:FINESS": "365"}}, {"name": "Halle Saint-Vincent-de-Paul", "latitude": 50.6220368, "longitude": 3.0777952, "source": "osm", "_tags": {"amenity": "hospital", "building": "yes", "healthcare": "hospital", "name": "Halle Saint-Vincent-de-Paul", "operator": "Hôpital Saint-Vincent de Paul", "operator:type": "private", "source": "cadastre-dgi-fr source : Direction Générale des Impôts - Cadastre. Mise à jour : 2010", "was:building": "industrial"}}, {"name": "Hôpital de Jour Isabeau", "latitude": 50.6961189, "longitude": 3.1871229, "source": "osm", "_tags": {"amenity": "hospital", "building": "yes", "emergency": "no", "healthcare": "hospital", "name": "Hôpital de Jour Isabeau", "ref:FR:FINESS": "590802781", "source": "cadastre-dgi-fr source : Direction Générale des Impôts - Cadastre. Mise à jour : 2010", "type:FR:FINESS": "292"}}, {"name": "", "latitude": 50.6781041, "longitude": 3.1730918, "source": "osm", "_tags": {"addr:housenumber": "26", "addr:postcode": "59100", "addr:street": "Boulevard Lacordaire", "amenity": "hospital", "building": "yes", "healthcare": "hospital", "healthcare:speciality": "endocrinology", "operator": "Centre Hospitalier de Roubaix", "operator:type": "public", "source": "cadastre-dgi-fr source : Direction Générale des Impôts - Cadastre. Mise à jour : 2010"}}, {"name": "EPSM de l'Agglomération Lilloise Lommelet", "latitude": 50.6689484, "longitude": 3.046476, "source": "osm", "_tags": {"amenity": "hospital", "emergency": "no", "healthcare": "hospital", "name": "EPSM de l'Agglomération Lilloise Lommelet", "ref:FR:FINESS": "590001418", "type:FR:FINESS": "292"}}, {"name": "Centre de l'Espoir", "latitude": 50.6217126, "longitude": 3.1227815, "source": "osm", "_tags": {"amenity": "clinic", "building": "yes", "fax": "+33320059316", "healthcare": "hospital", "healthcare:speciality": "physiatry", "name": "Centre de l'Espoir", "phone": "+33320058500", "ref:FR:FINESS": "590797387", "ref:FR:SIRET": "33123261100029", "source": "Le ministère des solidarités et de la santé - 2021-09", "type:FR:FINESS": "109"}}, {"name": "Hôpital Saint-Vincent de Paul", "latitude": 50.6200575, "longitude": 3.07718, "source": "osm", "_tags": {"amenity": "hospital", "check_date": "2024-10-11", "emergency": "yes", "fax": "+33 3 20 22 38 78", "healthcare": "hospital", "name": "Hôpital Saint-Vincent de Paul", "operator:type": "private", "phone": "+33 3 20 87 48 48", "ref:FR:FINESS": "590797353", "source": "cadastre-dgi-fr source : Direction Générale des Impôts - Cadastre. Mise à jour : 2011", "type:FR:FINESS": "697", "website": "https://www.saintvincentdepaul-lille.fr/", "wheelchair": "yes"}}, {"name": "EpiCURA Hôpital de Baudour", "latitude": 50.469721, "longitude": 3.8402297, "source": "osm", "_tags": {"addr:city": "Baudour", "addr:housenumber": "136", "addr:postcode": "7331", "addr:street": "Rue Louis Caty", "amenity": "hospital", "emergency": "yes", "healthcare": "hospital", "name": "EpiCURA Hôpital de Baudour", "operator": "EpiCURA", "operator:type": "private", "website": "http://www.epicura.be/site-de-baudour"}}, {"name": "Centre Hospitalier de Wallonie picarde - site IMC", "latitude": 50.5931199, "longitude": 3.4026664, "source": "osm", "_tags": {"amenity": "hospital", "contact:website": "https://www.chwapi.be/", "name": "Centre Hospitalier de Wallonie picarde - site IMC", "wheelchair": "yes"}}, {"name": "Centre de Biologie-Pathologie", "latitude": 50.6092639, "longitude": 3.0316691, "source": "osm", "_tags": {"amenity": "hospital", "building": "hospital", "emergency": "no", "healthcare": "hospital", "name": "Centre de Biologie-Pathologie", "ref:FR:FINESS": "590048468", "source": "cadastre-dgi-fr source : Direction Générale des Impôts - Cadastre. Mise à jour : 2010"}}, {"name": "Polyclinique d'Hénin-Beaumont", "latitude": 50.434642, "longitude": 2.949204, "source": "osm", "_tags": {"addr:city": "Hénin-Beaumont", "addr:housenumber": "110", "addr:postcode": "62110", "addr:street": "Route de Courrières", "amenity": "hospital", "building": "hospital", "emergency": "yes", "fax": "+33 3 21 13 30 11", "healthcare": "hospital", "name": "Polyclinique d'Hénin-Beaumont", "operator": "Groupe AHNAC", "operator:type": "private", "phone": "+33 3 21 13 30 00", "ref:FR:FINESS": "620003376", "source": "cadastre-dgi-fr source : Direction Générale des Impôts - Cadastre. Mise à jour : 2011", "type:FR:FINESS": "365", "website": "https://polyclinique-henin-beaumont.ahnac.com/"}}, {"name": "Clinique Saint-Roch", "latitude": 50.7323657, "longitude": 3.1149972, "source": "osm", "_tags": {"amenity": "hospital", "building": "yes", "emergency": "no", "healthcare": "hospital", "name": "Clinique Saint-Roch", "ref:FR:FINESS": "590810784", "source": "cadastre-dgi-fr source : Direction Générale des Impôts - Cadastre. Mise à jour : 2011", "type:FR:FINESS": "109"}}, {"name": "AZ Maria Middelares", "latitude": 51.0256796, "longitude": 3.7009849, "source": "osm", "_tags": {"addr:city": "Gent", "addr:housenumber": "1026", "addr:postcode": "9000", "addr:street": "Kortrijksesteenweg", "amenity": "hospital", "emergency": "yes", "emergency_ward": "complete", "healthcare": "hospital", "healthcare:speciality": "general", "name": "AZ Maria Middelares", "ref:fps_health:campus": "1605", "ref:fps_health:recognition": "17", "short_name": "Maria Middelares", "website": "https://www.mariamiddelares.be/", "wheelchair": "yes", "wikidata": "Q2801704", "wikimedia_commons": "Category:AZ Maria Middelares"}}, {"name": "ASZ Wetteren", "latitude": 51.0107232, "longitude": 3.8979533, "source": "osm", "_tags": {"addr:city": "Wetteren", "addr:housenumber": "73", "addr:postcode": "9230", "addr:street": "Wegvoeringstraat", "amenity": "hospital", "emergency": "no", "healthcare": "hospital", "name": "ASZ Wetteren"}}, {"name": "Centre Hospitalier Epicura - Hornu", "latitude": 50.4361124, "longitude": 3.8308106, "source": "osm", "_tags": {"addr:city": "Hornu", "addr:housenumber": "63", "addr:postcode": "7301", "addr:street": "Rue de Mons", "amenity": "hospital", "emergency": "yes", "emergency_ward": "complete", "healthcare": "hospital", "healthcare:speciality": "general", "name": "Centre Hospitalier Epicura - Hornu", "operator": "Epicura", "operator:type": "public", "operator:website": "https://www.epicura.be", "phone": "+32 65 71 31 11", "ref:fps_health:campus": "3380", "ref:fps_health:recognition": "410"}}, {"name": "Onze Lieve Vrouw van Lourdes", "latitude": 50.9000899, "longitude": 3.4181485, "source": "osm", "_tags": {"amenity": "hospital", "emergency": "yes", "emergency_ward": "complete", "healthcare": "hospital", "name": "Onze Lieve Vrouw van Lourdes", "ref:fps_health:campus": "1990", "ref:fps_health:recognition": "397"}}, {"name": "AZ Delta campus Brugsesteenweg", "latitude": 50.953771, "longitude": 3.1233492, "source": "osm", "_tags": {"addr:city": "Roeselare", "addr:housenumber": "90", "addr:postcode": "8800", "addr:street": "Brugsesteenweg", "amenity": "hospital", "email": "info@szr.be", "healthcare": "hospital", "name": "AZ Delta campus Brugsesteenweg", "old_name": "Stedelijk Ziekenhuis Roeselare", "phone": "+32 51 23 61 11", "website": "https://www.azdelta.be/"}}, {"name": "Hôpital André Fourrier", "latitude": 50.6097542, "longitude": 3.0337862, "source": "osm", "_tags": {"amenity": "hospital", "building": "yes", "check_date": "2024-05-27", "healthcare": "hospital", "name": "Hôpital André Fourrier", "ref:FR:FINESS": "590062279", "source": "Le ministère des solidarités et de la santé - 2021-09", "type:FR:FINESS": "101"}}, {"name": "AZ Alma campus Ringlaan", "latitude": 51.1909535, "longitude": 3.5325307, "source": "osm", "_tags": {"addr:housenumber": "15", "addr:street": "Ringlaan", "amenity": "hospital", "emergency": "yes", "emergency_ward": "complete", "healthcare": "hospital", "healthcare:speciality": "general", "name": "AZ Alma campus Ringlaan", "ref:fps_health:campus": "1845", "ref:fps_health:recognition": "32", "website": "https://www.azalma.be/"}}, {"name": "Psychiatrisch Centrum Gent-Sleidinge", "latitude": 51.1252647, "longitude": 3.6677017, "source": "osm", "_tags": {"addr:housenumber": "135", "addr:street": "Weststraat", "amenity": "hospital", "emergency": "no", "healthcare": "hospital", "healthcare:speciality": "psychiatry", "name": "Psychiatrisch Centrum Gent-Sleidinge", "old_name": "Psychiatrisch Centrum Sleidinge", "short_name": "P.C. Gent-Sleidinge", "website": "https://www.pcgs.be/"}}, {"name": "Psychiatrisch Ziekenhuis Onze-Lieve-Vrouw", "latitude": 51.1971701, "longitude": 3.2109583, "source": "osm", "_tags": {"amenity": "hospital", "healthcare": "hospital", "name": "Psychiatrisch Ziekenhuis Onze-Lieve-Vrouw", "wikidata": "Q110944352"}}, {"name": "Psychiatrisch Verzorgingstehuis (PVT) De Warande", "latitude": 51.1656568, "longitude": 3.8451372, "source": "osm", "_tags": {"addr:city": "Lochristi", "addr:housenumber": "62", "addr:postcode": "9185", "addr:street": "Zwaluwlaan", "amenity": "hospital", "healthcare": "hospital", "healthcare:speciality": "psychiatry", "name": "Psychiatrisch Verzorgingstehuis (PVT) De Warande", "operator": "Sint-Jan-Baptist", "operator:type": "private_non_profit"}}, {"name": "CHwapi", "latitude": 50.5997055, "longitude": 3.3852965, "source": "osm", "_tags": {"addr:city": "Tournai", "addr:housenumber": "51", "addr:postcode": "7500", "addr:street": "Rue des Sports", "amenity": "hospital", "contact:website": "https://www.chwapi.be/", "emergency": "yes", "emergency_ward": "complete", "healthcare": "hospital", "healthcare:speciality": "general", "name": "CHwapi", "official_name": "Centre Hospitalier De Wallonie Picarde (Chwapi) - Union", "old_name": "CHwapi - Site Union", "phone": "+32 69 33 31 11", "ref:fps_health:campus": "2830", "ref:fps_health:recognition": "534"}}, {"name": "AZ Maria Middelares campus Sint-Jozef", "latitude": 51.0424308, "longitude": 3.7566732, "source": "osm", "_tags": {"addr:city": "Gentbrugge", "addr:housenumber": "27", "addr:postcode": "9050", "addr:street": "Kliniekstraat", "alt_name": "Maria Middelares", "amenity": "hospital", "emergency": "yes", "healthcare": "hospital", "name": "AZ Maria Middelares campus Sint-Jozef", "phone": "+32 9 236 50 00", "short_name": "Sint-Jozef", "website": "https://www.huisartsenwachtposten.be/"}}, {"name": "AZ Glorieux", "latitude": 50.7555685, "longitude": 3.6027512, "source": "osm", "_tags": {"addr:housenumber": "55", "addr:street": "Stefaan-Modest Glorieuxlaan", "amenity": "hospital", "email": "info@azglorieux.be", "emergency": "yes", "emergency_ward": "complete", "healthcare": "hospital", "healthcare:speciality": "general", "name": "AZ Glorieux", "phone": "+32 55 23 30 11", "ref:fps_health:campus": "1680", "ref:fps_health:recognition": "550", "website": "https://azglorieux.be/"}}, {"name": "AZ Sint-Elisabeth Zottegem", "latitude": 50.8636705, "longitude": 3.8173426, "source": "osm", "_tags": {"addr:city": "Zottegem", "addr:housenumber": "69", "addr:postcode": "9620", "addr:street": "Godveerdegemstraat", "amenity": "hospital", "emergency": "yes", "emergency_ward": "complete", "healthcare": "hospital", "healthcare:speciality": "general", "name": "AZ Sint-Elisabeth Zottegem", "ref:fps_health:campus": "1900", "ref:fps_health:recognition": "217", "website": "https://sezz.be/", "wikidata": "Q2622383"}}, {"name": "Psychiatrisch Ziekenhuis Frapello - Campus Zottegem", "latitude": 50.8810442, "longitude": 3.781616, "source": "osm", "_tags": {"addr:housenumber": "22", "addr:street": "Penitentenlaan", "amenity": "hospital", "healthcare": "hospital", "healthcare:speciality": "psychiatry", "name": "Psychiatrisch Ziekenhuis Frapello - Campus Zottegem", "operator": "GGZ Groep Philippus Neri Vlaamse Ardennen", "phone": "+32 9 364 46 46", "website": "https://gpn-ggz-vlaamseardennen.gpn.be/nl/onze-huizen/psychiatrisch-ziekenhuis-frapello"}}, {"name": "AZ Sint Vincentius Deinze", "latitude": 50.9863919, "longitude": 3.5276559, "source": "osm", "_tags": {"access": "yes", "addr:city": "Deinze", "addr:housenumber": "34", "addr:postcode": "9800", "addr:street": "Schutterijstraat", "amenity": "hospital", "changing_table": "yes", "created_by": "On Wheels: 3.0.3", "emergency": "yes", "emergency_ward": "complete", "entrance:step_count": "0", "entrance:width": "1.04", "healthcare": "hospital", "healthcare:speciality": "general", "name": "AZ Sint Vincentius Deinze", "ref:fps_health:campus": "1830", "ref:fps_health:recognition": "134", "toilets:wheelchair": "yes", "toilets:wheelchair:accessible_via": "groundfloor", "toilets:wheelchair:door_width": "0.9", "toilets:wheelchair:grab_rails": "yes", "toilets:wheelchair:space_front": "1.25", "toilets:wheelchair:space_side": "1.3"}}, {"name": "AZ Oudenaarde", "latitude": 50.8432883, "longitude": 3.601979, "source": "osm", "_tags": {"addr:city": "Oudenaarde", "addr:housenumber": "3", "addr:postcode": "9700", "addr:street": "Minderbroedersstraat", "amenity": "hospital", "email": "info@azoudenaarde.be", "emergency": "yes", "emergency_ward": "complete", "fax": "+32 55 33 66 95", "healthcare": "hospital", "healthcare:speciality": "general;emergency", "name": "AZ Oudenaarde", "operator": "AZ Oudenaarde vzw", "phone": "+32 55 33 61 11", "ref:fps_health:campus": "1660", "ref:fps_health:recognition": "170", "website": "https://www.azoudenaarde.be/"}}, {"name": "Centre Hospitalier", "latitude": 50.4467245, "longitude": 3.4333873, "source": "osm", "_tags": {"amenity": "hospital", "healthcare": "hospital", "name": "Centre Hospitalier", "ref:FR:FINESS": "590000600", "type:FR:FINESS": "355"}}, {"name": "Psychiatrisch Ziekenhuis Frapello - Campus Oosterzele", "latitude": 50.9419114, "longitude": 3.7874833, "source": "osm", "_tags": {"amenity": "hospital", "emergency": "no", "healthcare": "hospital", "healthcare:speciality": "psychiatry", "name": "Psychiatrisch Ziekenhuis Frapello - Campus Oosterzele", "operator": "GGZ Groep Philippus Neri Vlaamse Ardennen", "phone": "+32 9 362 69 11", "website": "https://gpn-ggz-vlaamseardennen.gpn.be/nl/onze-huizen/psychiatrisch-ziekenhuis-frapello/campus-oosterzele"}}, {"name": "Hôpital Michel Fontan", "latitude": 50.6105605, "longitude": 3.0281975, "source": "osm", "_tags": {"alt_name": "Hôpital Michel Fontan 1", "amenity": "hospital", "building": "yes", "healthcare": "hospital", "name": "Hôpital Michel Fontan", "ref:FR:FINESS": "590791653", "type:FR:FINESS": "101"}}, {"name": "AZ Sint-Lucas", "latitude": 51.1851051, "longitude": 3.2486251, "source": "osm", "_tags": {"addr:housenumber": "29", "addr:street": "Sint-Lucaslaan", "amenity": "hospital", "email": "info@stlucas.be", "emergency": "yes", "emergency_telephone_code": "+32 50 36 91 12", "emergency_ward": "complete", "healthcare:speciality": "general", "name": "AZ Sint-Lucas", "name:etymology:wikidata": "Q128538", "phone": "+32 50 36 91 11", "ref:fps_health:campus": "1000", "ref:fps_health:recognition": "140", "website": "https://www.stlucas.be/", "wikidata": "Q3499845", "wikipedia": "nl:AZ Sint-Lucas (Brugge)"}}, {"name": "Centre hospitalier de Tourcoing", "latitude": 50.7455712, "longitude": 3.1814065, "source": "osm", "_tags": {"alt_name": "Hôpital Guy Chatiliez", "amenity": "hospital", "emergency": "yes", "fax": "+33 3 20 69 43 87", "healthcare": "hospital", "healthcare:speciality": "intensive", "name": "Centre hospitalier de Tourcoing", "phone": "+33 3 20 69 49 49", "ref:FR:FINESS": "590804696", "type:FR:FINESS": "355", "website": "https://www.ch-tourcoing.fr/", "wikidata": "Q30281562"}}, {"name": "Centre hospitalier de Roubaix", "latitude": 50.6797338, "longitude": 3.1725315, "source": "osm", "_tags": {"alt_name": "Hôpital Victor Provo", "amenity": "hospital", "emergency": "yes", "fax": "+33 3 20 99 30 01", "healthcare": "hospital", "healthcare:speciality": "intensive", "name": "Centre hospitalier de Roubaix", "operator:type": "public", "phone": "+33 3 20 99 31 31", "ref:FR:FINESS": "590801106", "source": "cadastre-dgi-fr source : Direction Générale des Finances Publiques - Cadastre. Mise à jour : 2018", "type:FR:FINESS": "355", "wall": "no", "website": "http://www.ch-roubaix.fr/#"}}, {"name": "Psychiatrisch Ziekenhuis Sint-Jan de Deo", "latitude": 51.0632274, "longitude": 3.7230641, "source": "osm", "_tags": {"addr:city": "Gent", "addr:housenumber": "9", "addr:postcode": "9000", "addr:street": "Fratersplein", "amenity": "hospital", "healthcare": "hospital", "healthcare:speciality": "psychiatry", "name": "Psychiatrisch Ziekenhuis Sint-Jan de Deo"}}, {"name": "Forensisch Psychiatrisch Centrum Gent", "latitude": 51.0766285, "longitude": 3.7208263, "source": "osm", "_tags": {"amenity": "hospital", "healthcare": "hospital", "healthcare:speciality": "forensic_psychiatry", "name": "Forensisch Psychiatrisch Centrum Gent", "operator:kbo_bce": "0555.926.992", "operator:name": "Forensisch Psychiatrische Centra", "wikidata": "Q1863863"}}, {"name": "Hôpital Claude Huriez", "latitude": 50.6105208, "longitude": 3.034724, "source": "osm", "_tags": {"addr:city": "Lille", "addr:country": "FR", "addr:postcode": "59037", "addr:street": "Rue Michel Polonovski", "amenity": "hospital", "architect": "Jean Walter;Urbain Cassan;Louis Madeline", "architect:wikipedia": "fr:Jean Walter", "building": "hospital", "healthcare": "hospital", "healthcare:speciality": "intensive", "name": "Hôpital Claude Huriez", "operator:type": "public", "ref:FR:FINESS": "590811279", "source": "cadastre-dgi-fr source : Direction Générale des Impôts - Cadastre. Mise à jour : 2010", "type:FR:FINESS": "101", "wheelchair": "yes"}}, {"name": "Hôpital Privé La Louvière", "latitude": 50.6467023, "longitude": 3.0839193, "source": "osm", "_tags": {"alt_name": "Polyclinique de la Louvière", "amenity": "hospital", "check_date": "2025-04-24", "contact:email": "contact.hplalouviere@gsante.fr", "contact:fax": "+33 3 20 15 77 77", "contact:housenumber": "69", "contact:phone": "+33 826 30 70 00", "contact:postcode": "59042", "contact:website": "http://www.generale-de-sante.fr/hopital-prive-la-louviere-lille", "description": "L'hôpital ne possède pas de Service d'Accueil des Urgences mais dispose de quelques lits d'urgences cardiologiques", "dog": "no", "emergency": "no", "healthcare": "hospital", "mapillary": "224922962433931", "name": "Hôpital Privé La Louvière", "operator": "Générale de Santé", "ref:FR:FINESS": "590780383", "ref:FR:SIRET": "47150251800015", "source": "www.generale-de-sante.fr;Bing;cadastre-dgi-fr source : Direction Générale des Impôts - Cadastre;mise à jour : 2013"}}, {"name": "Sint-Jozefskliniek Izegem", "latitude": 50.9172663, "longitude": 3.2106798, "source": "osm", "_tags": {"addr:city": "Izegem", "addr:housenumber": "7", "addr:postcode": "8870", "addr:street": "Ommegangstraat", "amenity": "hospital", "emergency": "yes", "emergency_ward": "complete", "healthcare": "hospital", "healthcare:speciality": "general", "name": "Sint-Jozefskliniek Izegem", "ref:fps_health:campus": "1920", "ref:fps_health:recognition": "124", "website": "https://www.sint-jozefskliniek-izegem.be/", "wheelchair": "yes", "wikidata": "Q94677030"}}, {"name": "Medisch Centrum", "latitude": 50.8092596, "longitude": 3.7702088, "source": "osm", "_tags": {"addr:city": "Brakel", "addr:housenumber": "76", "addr:postcode": "9660", "addr:street": "Watermolenstraat", "amenity": "hospital", "building": "house", "healthcare": "hospital", "name": "Medisch Centrum", "source:geometry:date": "2018-03-08", "source:geometry:ref": "Gbg/6243890"}}, {"name": "Psychiatrisch Centrum Sint-Amandus", "latitude": 51.1143164, "longitude": 3.3167871, "source": "osm", "_tags": {"addr:city": "Beernem", "addr:housenumber": "10;12;14", "addr:street": "Reigerlostraat", "amenity": "hospital", "healthcare": "hospital", "name": "Psychiatrisch Centrum Sint-Amandus", "wikidata": "Q32845670"}}, {"name": "Kliniek Sint-Jozef", "latitude": 50.9834365, "longitude": 3.2492782, "source": "osm", "_tags": {"OnroerendErfgoed:criteria": "BE;LE", "amenity": "hospital", "healthcare": "hospital", "heritage": "4", "heritage:operator": "OnroerendErfgoed", "heritage:website": "https://id.erfgoed.net/erfgoedobjecten/211624", "name": "Kliniek Sint-Jozef", "ref:OnroerendErfgoed": "N", "website": "https://www.sintjozefpittem.be/"}}, {"name": "AZ Delta - Campus Torhout", "latitude": 51.0702758, "longitude": 3.0957746, "source": "osm", "_tags": {"addr:housenumber": "21", "addr:street": "Sint-Rembertlaan", "amenity": "hospital", "emergency": "yes", "emergency_ward": "complete", "healthcare": "hospital", "healthcare:speciality": "general", "name": "AZ Delta - Campus Torhout", "old_name": "AZ Delta Campus Rembert Torhout", "operator": "AZ Delta", "operator:type": "private", "ref:fps_health:campus": "1970", "ref:fps_health:recognition": "117"}}, {"name": "Hôpital de Jour", "latitude": 50.7157574, "longitude": 3.1567171, "source": "osm", "_tags": {"amenity": "hospital", "building": "yes", "healthcare": "hospital", "name": "Hôpital de Jour", "ref:FR:FINESS": "590809133", "type:FR:FINESS": "292"}}, {"name": "AZ Zeno campus Knokke-Heist", "latitude": 51.3267977, "longitude": 3.292352, "source": "osm", "_tags": {"addr:housenumber": "260", "addr:street": "Kalvekeetdijk", "amenity": "hospital", "email": "info@azzeno.be", "emergency": "yes", "fax": "+32 50 53 50 09", "healthcare": "hospital", "name": "AZ Zeno campus Knokke-Heist", "operator": "AZ Zeno", "phone": "+32 50 53 50 00", "ref:fps_health:campus": "6160", "ref:fps_health:recognition": "392", "website": "https://www.azzeno.be/", "wikidata": "Q52125037"}}, {"name": "Centre Hospitalier de Seclin", "latitude": 50.5470467, "longitude": 3.0180906, "source": "osm", "_tags": {"amenity": "hospital", "emergency": "yes", "healthcare": "hospital", "name": "Centre Hospitalier de Seclin", "operator:type": "public", "ref:FR:FINESS": "590000121", "type:FR:FINESS": "355", "website": "https://www.ghsc.fr/"}}, {"name": "Unité Hospitalière Spécialement Aménagée", "latitude": 50.5472082, "longitude": 3.0145205, "source": "osm", "_tags": {"amenity": "prison", "healthcare": "hospital", "name": "Unité Hospitalière Spécialement Aménagée", "ref:FR:FINESS": "590045886", "short_name": "UHSA", "type:FR:FINESS": "292"}}, {"name": "", "latitude": 50.8302366, "longitude": 3.2614599, "source": "osm", "_tags": {"addr:city": "Kortrijk", "addr:housenumber": "4", "addr:postcode": "8500", "addr:street": "Reepkaai", "emergency": "no", "healthcare": "hospital", "old_name": "AZ Groeninge - campus Reepkaai", "was:amenity": "hospital"}}, {"name": "Sint-Andriesziekenhuis", "latitude": 51.0020003, "longitude": 3.3229359, "source": "osm", "_tags": {"amenity": "hospital", "check_date": "2022-07-15", "email": "info@sintandriestielt.be", "emergency": "yes", "emergency_ward": "complete", "healthcare": "hospital", "healthcare:speciality": "general", "internet_access": "wlan", "internet_access:fee": "no", "internet_access:ssid": "AZSAT-Guest", "name": "Sint-Andriesziekenhuis", "phone": "+32 51 42 51 11", "ref:fps_health:campus": "1170", "ref:fps_health:recognition": "395", "website": "https://sintandriestielt.be", "wheelchair": "yes", "wikidata": "Q3262786"}}, {"name": "Epicura Ath", "latitude": 50.6346133, "longitude": 3.7766057, "source": "osm", "_tags": {"addr:city": "Ath", "addr:housenumber": "1", "addr:postcode": "7800", "addr:street": "Rue Maria Thomée", "amenity": "hospital", "emergency": "yes", "emergency_ward": "complete", "healthcare": "hospital", "healthcare:speciality": "general", "name": "Epicura Ath", "operator": "Epicura", "phone": "+32 78 150 170", "ref:fps_health:campus": "1910", "ref:fps_health:recognition": "724", "website": "http://epicura.org/site-d-ath"}}, {"name": "De Honte", "latitude": 51.3089566, "longitude": 3.8605887, "source": "osm", "_tags": {"amenity": "hospital", "contact:phone": "+31 115 688 000", "contact:website": "https://www.zorgsaam.org/ziekenhuis/", "emergency": "yes", "healthcare": "hospital", "name": "De Honte", "operator": "ZorgSaam"}}, {"name": "Maison de Repos", "latitude": 50.7189472, "longitude": 3.45599, "source": "osm", "_tags": {"amenity": "hospital", "emergency": "no", "healthcare": "hospital", "name": "Maison de Repos"}}, {"name": "AZ Sint-Jan - Campus Sint-Jan", "latitude": 51.2207623, "longitude": 3.1932539, "source": "osm", "_tags": {"addr:housenumber": "10", "addr:street": "Ruddershove", "alt_name": "Sint-Janshospitaal", "amenity": "hospital", "emergency": "yes", "emergency_ward": "complete", "healthcare": "hospital", "name": "AZ Sint-Jan - Campus Sint-Jan", "ref:fps_health:campus": "1010", "ref:fps_health:recognition": "49", "website": "https://www.azsintjan.be/", "wikidata": "Q2804407"}}, {"name": "Résidence Caraman", "latitude": 50.4333919, "longitude": 3.7912846, "source": "osm", "_tags": {"amenity": "hospital", "healthcare": "hospital", "name": "Résidence Caraman"}}, {"name": "Sint-Franciscus Xaverius-Ziekenhuis", "latitude": 51.2127569, "longitude": 3.2256089, "source": "osm", "_tags": {"addr:city": "Brugge", "addr:housenumber": "1", "addr:postcode": "8000", "addr:street": "Spaanse Loskaai", "alt_name": "Zwarte nonnen;AZ Sint-Jan campus SFX;AZ Sint-Jan campus Sint-Franciscus Xaverius", "amenity": "hospital", "check_date": "2024-03-31", "email": "info@azsintjan.be", "emergency": "no", "fax": "+32 50 47 04 80", "healthcare": "hospital", "healthcare:speciality": "urology;anaesthetics;gynaecology;physiatry;geriatrics;endocrinology;haematology;nephrology;radiology;psychiatry;child_psychiatry;palliative;orthopaedics;otolaryngology;maternity;internal", "name": "Sint-Franciscus Xaverius-Ziekenhuis", "opening_hours:url": "http://www.azsintjan.be/bezoekers/bezoekuren/campus-sint-franciscus-xaverius.aspx", "operator": "AZ Sint-Jan", "phone": "+32 50 47 04 70", "short_name": "SFX", "source": "http://www.azsintjan.be/pati%C3%ABnten/afdelingen.aspx", "website": "https://www.azsintjan.be", "wheelchair": "yes", "wikidata": "Q2137779"}}, {"name": "Zeepreventorium", "latitude": 51.2729398, "longitude": 3.0206232, "source": "osm", "_tags": {"addr:city": "De Haan", "addr:housenumber": "5", "addr:postcode": "8420", "addr:street": "Koninklijke Baan", "amenity": "hospital", "description": "medisch pediatrisch revalidatiecentrum", "healthcare": "hospital", "healthcare:speciality": "paediatrics;obesity;cystic_fibrosis;polypathology;respiratory_kinesitherapy", "landform": "dune_system", "name": "Zeepreventorium", "operator": "Zeepreventroium vzw", "website": "https://www.zeepreventorium.be/"}}, {"name": "Centre Hospitalier d'Hénin-Beaumont", "latitude": 50.4306266, "longitude": 2.9437084, "source": "osm", "_tags": {"amenity": "hospital", "contact:phone": "+33 3 21 08 15 15", "contact:website": "http://www.ch-henin.fr/", "emergency": "no", "healthcare": "hospital", "name": "Centre Hospitalier d'Hénin-Beaumont", "ref:FR:FINESS": "620000240", "short_name": "CHHB", "source": "Le ministère des solidarités et de la santé - 10/2018", "type:FR:FINESS": "355", "wikidata": "Q53580663"}}, {"name": "CHwapi - site Notre-Dame", "latitude": 50.6133748, "longitude": 3.3866781, "source": "osm", "_tags": {"amenity": "hospital", "healthcare": "hospital", "name": "CHwapi - site Notre-Dame"}}, {"name": "CRP Les Marronniers", "latitude": 50.5948819, "longitude": 3.3926452, "source": "osm", "_tags": {"addr:city": "Tournai", "addr:housenumber": "94", "addr:postcode": "7500", "addr:street": "Rue Despars", "amenity": "hospital", "emergency": "no", "healthcare": "hospital", "healthcare:speciality": "psychiatry", "layer": "1", "name": "CRP Les Marronniers"}}, {"name": "Psychiatrisch Ziekenhuis Sint-Jan-Baptist", "latitude": 51.1878741, "longitude": 3.8067429, "source": "osm", "_tags": {"addr:city": "Zelzate", "addr:housenumber": "81", "addr:postcode": "9060", "addr:street": "Suikerkaai", "amenity": "hospital", "denomination": "catholic", "healthcare": "hospital", "language:nl": "yes", "name": "Psychiatrisch Ziekenhuis Sint-Jan-Baptist", "operator": "Broeders van Liefde", "operator:type": "vzw", "operator:wikidata": "Q542127", "religion": "christian", "social_facility:for": "disabled", "type": "multipolygon", "website": "https://www.pcsintjanbaptist.be/", "wikidata": "Q542127", "wikipedia": "nl:Broeders van Liefde"}}, {"name": "Dr. Guislain - campus Sint-Alfons", "latitude": 51.0340755, "longitude": 3.73172, "source": "osm", "_tags": {"addr:city": "Gent", "addr:housenumber": "1", "addr:postcode": "9000", "addr:street": "Sint-Juliaanstraat", "amenity": "hospital", "denomination": "catholic", "email": "pc.dr.guislain@fracarita.org", "fax": "+32 9 243 55 56", "healthcare": "hospital", "healthcare:speciality": "psychiatry", "language:nl": "yes", "name": "Dr. Guislain - campus Sint-Alfons", "operator": "Broeders van Liefde", "operator:type": "vzw", "operator:wikidata": "Q542127", "phone": "+32 9 243 55 55", "religion": "christian", "social_facility": "ambulatory_care", "social_facility:for": "disabled", "type": "multipolygon", "wheelchair": "yes", "wikidata": "Q542127", "wikipedia": "nl:Broeders van Liefde"}}, {"name": "Centre Hospitalier Spécialisé", "latitude": 50.5963929, "longitude": 3.3909505, "source": "osm", "_tags": {"addr:city": "Tournai", "addr:housenumber": "94", "addr:postcode": "7500", "addr:street": "Rue Despars", "building": "hospital", "healthcare": "hospital", "name": "Centre Hospitalier Spécialisé", "source:geometry:date": "2017-08-03", "source:geometry:ref": "Picc/3517411"}}, {"name": "Centre Thérapeutique Culturel et Sportif", "latitude": 50.5959035, "longitude": 3.3910289, "source": "osm", "_tags": {"addr:city": "Tournai", "addr:housenumber": "94", "addr:postcode": "7500", "addr:street": "Rue Despars", "building": "hospital", "healthcare": "hospital", "name": "Centre Thérapeutique Culturel et Sportif", "source:geometry:date": "2017-08-03", "source:geometry:ref": "Picc/1554347"}}, {"name": "Maison de Soins Pychiatriques La Traversée", "latitude": 50.5957498, "longitude": 3.3883759, "source": "osm", "_tags": {"addr:city": "Tournai", "addr:housenumber": "94", "addr:postcode": "7500", "addr:street": "Rue Despars", "building": "hospital", "healthcare": "hospital", "name": "Maison de Soins Pychiatriques La Traversée", "source:geometry:date": "2017-08-03", "source:geometry:ref": "Picc/1637514"}}, {"name": "Centre Thérapeutique Culturel et Sportif", "latitude": 50.5958066, "longitude": 3.3902005, "source": "osm", "_tags": {"addr:city": "Tournai", "addr:housenumber": "94", "addr:postcode": "7500", "addr:street": "Rue Despars", "building": "hospital", "healthcare": "hospital", "name": "Centre Thérapeutique Culturel et Sportif", "source:geometry:date": "2017-08-03", "source:geometry:ref": "Picc/2012487"}}, {"name": "Centre Thérapeutique Culturel et Sportif", "latitude": 50.5961504, "longitude": 3.3901737, "source": "osm", "_tags": {"addr:city": "Tournai", "addr:housenumber": "94", "addr:postcode": "7500", "addr:street": "Rue Despars", "building": "hospital", "healthcare": "hospital", "name": "Centre Thérapeutique Culturel et Sportif", "source:geometry:date": "2017-08-03", "source:geometry:ref": "Picc/3110028"}}, {"name": "AZ Groeninge - campus Kennedylaan", "latitude": 50.8016097, "longitude": 3.2648837, "source": "osm", "_tags": {"addr:city": "Kortrijk", "addr:country": "BE", "addr:housenumber": "4", "addr:postcode": "8500", "addr:street": "President Kennedylaan", "amenity": "hospital", "emergency": "yes", "emergency_ward": "complete", "healthcare": "hospital", "healthcare:speciality": "general", "name": "AZ Groeninge - campus Kennedylaan", "ref:fps_health:campus": "1090", "ref:fps_health:recognition": "396", "website": "https://www.azgroeninge.be/", "wikidata": "Q2553113"}}, {"name": "Clinique Psychiatrique du Secteur de Seclin", "latitude": 50.5496482, "longitude": 3.0161277, "source": "osm", "_tags": {"amenity": "hospital", "healthcare": "hospital", "healthcare:speciality": "psychiatry", "name": "Clinique Psychiatrique du Secteur de Seclin", "ref:FR:FINESS": "590060893", "source": "cadastre-dgi-fr source : Direction Générale des Finances Publiques - Cadastre. Mise à jour : 2015", "type:FR:FINESS": "292"}}, {"name": "Hôpital de Loos", "latitude": 50.6104573, "longitude": 3.0079103, "source": "osm", "_tags": {"amenity": "hospital", "fax": "+33362210403", "healthcare": "hospital", "name": "Hôpital de Loos", "phone": "+33362210400", "ref:FR:FINESS": "590804456", "ref:FR:SIRET": "20003523600039", "source": "Le ministère des solidarités et de la santé - 03/2019", "type:FR:FINESS": "500", "wikidata": "Q112971596"}}, {"name": "Hôpital de la Fraternité", "latitude": 50.682234, "longitude": 3.1974791, "source": "osm", "_tags": {"amenity": "hospital", "healthcare": "hospital", "name": "Hôpital de la Fraternité", "ref:FR:FINESS": "590812186", "source": "Le ministère des solidarités et de la santé - 03/2019", "type:FR:FINESS": "355"}}, {"name": "AZ Delta campus Rumbeke", "latitude": 50.9184812, "longitude": 3.1681792, "source": "osm", "_tags": {"addr:city": "Roeselare", "addr:housenumber": "1", "addr:postcode": "8800", "addr:street": "Deltalaan", "amenity": "hospital", "emergency": "yes", "emergency_ward": "complete", "healthcare": "hospital", "healthcare:speciality": "general", "name": "AZ Delta campus Rumbeke", "ref:fps_health:campus": "2610", "ref:fps_health:recognition": "117", "website": "https://www.azdelta.be/nl-BE/campussen/campus-rumbeke"}}, {"name": "AZ Delta Campus Menen", "latitude": 50.7929051, "longitude": 3.1224163, "source": "osm", "_tags": {"addr:city": "Menen", "addr:country": "BE", "addr:housenumber": "6", "addr:postcode": "8930", "addr:street": "Oude Leielaan", "addr:suburb": "Menen", "amenity": "hospital", "emergency": "yes", "emergency_ward": "complete", "healthcare:speciality": "general", "name": "AZ Delta Campus Menen", "ref:fps_health:campus": "1960", "ref:fps_health:recognition": "117", "website": "https://www.azdelta.be"}}, {"name": "Clinique Ambroise Paré", "latitude": 50.6491575, "longitude": 3.0857549, "source": "osm", "_tags": {"amenity": "hospital", "check_date": "2025-05-26", "healthcare": "hospital", "mapillary": "747788775894185", "name": "Clinique Ambroise Paré", "operator": "Groupe HPM", "phone": "+33826204700", "ref:FR:FINESS": "590780342", "ref:FR:SIRET": "88608028200082", "source": "Le ministère des solidarités et de la santé - 03/2019", "type:FR:FINESS": "365", "website": "http://www.groupehpm.com/clinique-ambroisepare-lille/"}}, {"name": "", "latitude": 50.677855, "longitude": 3.1729195, "source": "osm", "_tags": {"addr:housenumber": "26", "addr:postcode": "59100", "addr:street": "Boulevard Lacordaire", "amenity": "hospital", "building": "yes", "healthcare": "hospital", "healthcare:speciality": "endocrinology", "operator": "Centre Hospitalier de Roubaix", "operator:type": "public"}}, {"name": "Centre Guy Talpaert", "latitude": 50.6776548, "longitude": 3.1722914, "source": "osm", "_tags": {"amenity": "hospital", "healthcare": "hospital", "name": "Centre Guy Talpaert", "ref:FR:FINESS": "590033429", "ref:FR:SIRET": "26590672700184", "source": "Le ministère des solidarités et de la santé - 2021-01", "type:FR:FINESS": "355"}}, {"name": "Centre hospitalier de Wattrelos", "latitude": 50.7000706, "longitude": 3.2225166, "source": "osm", "_tags": {"addr:city": "Wattrelos", "addr:housenumber": "30", "addr:postcode": "59150", "addr:street": "Rue Alexander Fleming", "amenity": "hospital", "emergency": "yes", "healthcare": "hospital", "healthcare:speciality": "general", "name": "Centre hospitalier de Wattrelos", "ref:FR:FINESS": "590000691", "ref:FR:SIRET": "26590701400012", "type:FR:FINESS": "355"}}, {"name": "Hôpital Saint-Philibert", "latitude": 50.6510858, "longitude": 2.9730844, "source": "osm", "_tags": {"amenity": "hospital", "emergency": "yes", "fax": "+33 3 20 00 56 55", "healthcare": "hospital", "healthcare:speciality": "intensive", "name": "Hôpital Saint-Philibert", "operator:type": "private", "phone": "+33 3 20 22 50 50", "ref:FR:FINESS": "590780284", "source": "cadastre-dgi-fr source : Direction Générale des Impôts - Cadastre. Mise à jour : 2011", "type:FR:FINESS": "365", "website": "https://www.saintphilibert-lomme.fr/"}}, {"name": "De Korbeel", "latitude": 50.8283734, "longitude": 3.2740094, "source": "osm", "_tags": {"amenity": "hospital", "healthcare": "hospital", "healthcare:speciality": "child_psychiatry", "name": "De Korbeel", "opening_date": "6/2022"}}, {"name": "Sint-Jan Psychiatrisch Ziekenhuis", "latitude": 51.1839879, "longitude": 3.5743532, "source": "osm", "_tags": {"amenity": "hospital", "healthcare": "hospital", "name": "Sint-Jan Psychiatrisch Ziekenhuis"}}, {"name": "A.S.Z. Campus Geraardsbergen", "latitude": 50.7704739, "longitude": 3.8775695, "source": "osm", "_tags": {"addr:housenumber": "4", "addr:street": "Gasthuisstraat", "amenity": "hospital", "check_date": "2024-05-17", "emergency": "yes", "emergency_ward": "complete", "healthcare": "hospital", "healthcare:speciality": "general", "name": "A.S.Z. Campus Geraardsbergen", "official_name": "A.S.Z. - Autonome Verzorgingsinstelling - ASZ Geraardsbergen", "phone": "+32 54 43 21 11", "ref:fps_health:campus": "1820", "ref:fps_health:recognition": "176", "website": "https://www.asz.be/nl/asz-campus-geraardsbergen", "wheelchair": "yes"}}, {"name": "Centre Hospitalier de Mouscron", "latitude": 50.7483496, "longitude": 3.2200275, "source": "osm", "_tags": {"addr:housenumber": "49", "addr:postcode": "7700", "addr:street": "Avenue de Fécamp", "amenity": "hospital", "email": "info@chmouscron.be", "emergency": "yes", "emergency_ward": "complete", "healthcare": "hospital", "healthcare:speciality": "general", "internet_access": "wlan", "name": "Centre Hospitalier de Mouscron", "phone": "+32 56 85 85 85", "ref:fps_health:campus": "2770", "ref:fps_health:recognition": "247", "short_name": "CHM", "website": "https://www.chmouscron.be/"}}, {"name": "CH EpiCura", "latitude": 50.5483847, "longitude": 3.7358128, "source": "osm", "_tags": {"amenity": "hospital", "emergency": "no", "healthcare": "hospital", "name": "CH EpiCura"}}, {"name": "docteur malice", "latitude": 50.5476202, "longitude": 3.8017356, "source": "osm", "_tags": {"addr:city": "Chièvres", "addr:postcode": "7950", "addr:street": "Chaussée de Saint-Ghislain", "amenity": "hospital", "healthcare": "hospital", "healthcare:speciality": "general", "name": "docteur malice", "operator": "medecin"}}, {"name": "docteur malice", "latitude": 50.5476267, "longitude": 3.801842, "source": "osm", "_tags": {"addr:city": "Chièvres", "addr:postcode": "7950", "addr:street": "Chaussée de Saint-Ghislain", "amenity": "hospital", "healthcare": "hospital", "healthcare:speciality": "general", "name": "docteur malice"}}, {"name": "Hôpital gériatrique Les Bateliers", "latitude": 50.6464596, "longitude": 3.0634055, "source": "osm", "_tags": {"addr:city": "Lille", "addr:housenumber": "23", "addr:postcode": "59000", "addr:street": "Rue des Bateliers", "amenity": "hospital", "emergency": "no", "healthcare": "hospital", "healthcare:speciality": "geriatrics", "name": "Hôpital gériatrique Les Bateliers", "operator": "CHRU de Lille", "operator:type": "public", "ref:FR:FINESS": "590791091", "source": "cadastre-dgi-fr source : Direction Générale des Impôts - Cadastre;mise à jour : 2010", "type:FR:FINESS": "101", "wheelchair": "yes"}}, {"name": "Polyclinique du Val de Lys", "latitude": 50.7243422, "longitude": 3.1478211, "source": "osm", "_tags": {"amenity": "hospital", "fax": "+33320234790", "healthcare": "hospital", "name": "Polyclinique du Val de Lys", "phone": "+33320234700", "ref:FR:FINESS": "590817839", "ref:FR:SIRET": "88608028200033", "type:FR:FINESS": "365", "website": "https://clinique-du-val-de-lys-tourcoing.ramsaysante.fr/"}}, {"name": "IMS Hornu", "latitude": 50.4391617, "longitude": 3.8368072, "source": "osm", "_tags": {"addr:housenumber": "230", "addr:street": "Rue de Mons", "amenity": "hospital", "emergency": "no", "healthcare": "hospital", "name": "IMS Hornu", "website": "https://ims-hornu.be/"}}, {"name": "Hôpital Privé de Villeneuve d'Ascq", "latitude": 50.6528822, "longitude": 3.1525663, "source": "osm", "_tags": {"amenity": "hospital", "emergency": "yes", "fax": "+33320995678", "healthcare": "hospital", "name": "Hôpital Privé de Villeneuve d'Ascq", "operator": "Ramsay Santé", "operator:type": "private", "operator:wikidata": "Q3123085", "operator:wikipedia": "fr:Ramsay Santé", "phone": "+33 3 20 99 41 41", "ref:FR:FINESS": "590782553", "ref:FR:SIRET": "47678033300037", "source": "Le ministère des solidarités et de la santé - 03/2019", "type:FR:FINESS": "365", "website": "https://hopital-prive-villeneuve-d-ascq.ramsaygds.fr/"}}, {"name": "Revales", "latitude": 50.9966287, "longitude": 3.7704033, "source": "osm", "_tags": {"addr:housenumber": "100", "addr:street": "Salisburylaan", "amenity": "hospital", "building": "yes", "healthcare:speciality": "physiatry", "name": "Revales", "website": "https://zorgband.be/aanbod/revalidatieziekenhuis-revales"}}, {"name": "AZ Zeno campus Blankenberge", "latitude": 51.3077038, "longitude": 3.1251489, "source": "osm", "_tags": {"addr:housenumber": "1", "addr:street": "Dokter Frans Verhaeghestraat", "amenity": "hospital", "emergency": "yes", "emergency_ward": "limited", "healthcare": "hospital", "healthcare:speciality": "general", "name": "AZ Zeno campus Blankenberge", "old_name": "Fabiolaziekenhuis", "operator": "AZ Zeno", "phone": "+32 50 43 41 11", "ref:fps_health:campus": "1040", "ref:fps_health:recognition": "392", "website": "https://www.azzeno.be/"}}, {"name": "Hôpital Lucien Bonnafé", "latitude": 50.6820065, "longitude": 3.1993627, "source": "osm", "_tags": {"amenity": "hospital", "fax": "+33328325011", "healthcare": "hospital", "name": "Hôpital Lucien Bonnafé", "phone": "+33328325010", "ref:FR:FINESS": "590033668", "ref:FR:SIRET": "26590870700010", "source": "Le ministère des solidarités et de la santé - 2025-01", "type:FR:FINESS": "292"}}, {"name": "Hôpital privé Le Bois", "latitude": 50.6344931, "longitude": 3.0311902, "source": "osm", "_tags": {"addr:city": "Lille", "addr:housenumber": "44", "addr:postcode": "59000", "addr:street": "Avenue Marx Dormoy", "amenity": "clinic", "building": "hospital", "fax": "+33320157777", "healthcare": "hospital", "healthcare:speciality": "intensive", "mapillary": "763401934366064", "name": "Hôpital privé Le Bois", "old_name": "Polyclinique du Bois", "operator": "Ramsay Santé", "operator:type": "private", "operator:wikidata": "Q3123085", "operator:wikipedia": "fr:Ramsay Santé", "phone": "+33 3 59 75 75 75", "ref:FR:FINESS": "590780268", "ref:FR:SIRET": "88608028200090", "source": "cadastre-dgi-fr source : Direction Générale des Impôts - Cadastre;mise à jour : 2008", "survey:date": "2017-09-13", "type": "multipolygon", "type:FR:FINESS": "365", "website": "https://hopital-prive-le-bois-lille.ramsaygds.fr/"}}, {"name": "Hôpital Pierre Swynghedauw", "latitude": 50.6101239, "longitude": 3.0307813, "source": "osm", "_tags": {"amenity": "hospital", "building": "yes", "healthcare": "hospital", "name": "Hôpital Pierre Swynghedauw", "ref:FR:FINESS": "590784898", "type": "multipolygon"}}, {"name": "Hôpital Jeanne de Flandre", "latitude": 50.6057446, "longitude": 3.0329015, "source": "osm", "_tags": {"amenity": "hospital", "building": "hospital", "healthcare": "hospital", "healthcare:speciality": "intensive", "name": "Hôpital Jeanne de Flandre", "operator:type": "public", "ref:FR:FINESS": "590006607", "source": "cadastre-dgi-fr source : Direction Générale des Impôts - Cadastre. Mise à jour : 2010", "type": "multipolygon", "type:FR:FINESS": "101"}}, {"name": "Hôpital Salengro", "latitude": 50.60751, "longitude": 3.0328913, "source": "osm", "_tags": {"addr:city": "Lille", "addr:country": "FR", "addr:postcode": "59037", "amenity": "hospital", "building": "hospital", "fax": "+33320446076", "healthcare": "hospital", "name": "Hôpital Salengro", "phone": "+33320445962", "ref:FR:FINESS": "590796975", "ref:FR:SIRET": "26590671900173", "source": "cadastre-dgi-fr source : Direction Générale des Impôts - Cadastre. Mise à jour : 2010", "type": "multipolygon", "type:FR:FINESS": "101"}}, {"name": "Hôpital Albert Calmette", "latitude": 50.6061136, "longitude": 3.0365206, "source": "osm", "_tags": {"amenity": "hospital", "building": "hospital", "healthcare": "hospital", "name": "Hôpital Albert Calmette", "operator:type": "public", "ref:FR:FINESS": "590784864", "source": "cadastre-dgi-fr source : Direction Générale des Impôts - Cadastre. Mise à jour : 2010", "type": "multipolygon", "type:FR:FINESS": "101"}}, {"name": "Hôpital Fontan 2", "latitude": 50.611219, "longitude": 3.0301083, "source": "osm", "_tags": {"alt_name": "Hôpital Michel Fontan 2", "amenity": "hospital", "building": "yes", "healthcare": "hospital", "name": "Hôpital Fontan 2", "ref:FR:FINESS": "590791653", "type": "multipolygon", "type:FR:FINESS": "101"}}, {"name": "Institut Coeur Poumon", "latitude": 50.6084477, "longitude": 3.0343215, "source": "osm", "_tags": {"amenity": "hospital", "building": "hospital", "healthcare": "hospital", "healthcare:speciality": "intensive", "name": "Institut Coeur Poumon", "operator:type": "public", "ref:FR:FINESS": "590787586", "type": "multipolygon", "type:FR:FINESS": "101", "wikidata": "Q30279862"}}, {"name": "Centre Oscar Lambret", "latitude": 50.6124131, "longitude": 3.0317092, "source": "osm", "_tags": {"amenity": "hospital", "building": "yes", "healthcare": "hospital", "name": "Centre Oscar Lambret", "ref:FR:FINESS": "590000188", "type": "multipolygon", "type:FR:FINESS": "131", "wikidata": "Q30296137"}}]