[{"name": "SPZOZ w Janowcu", "latitude": 51.3250238, "longitude": 21.8911331, "source": "osm", "_tags": {"amenity": "doctors", "email": "spzozjanowiec1@wp.pl", "healthcare": "hospital", "name": "SPZOZ w Janowcu", "phone": "(81) 881-5224"}}, {"name": "Specjalistyczna Przychodnia Medycyny Pracy", "latitude": 51.3918413, "longitude": 21.1437526, "source": "osm", "_tags": {"amenity": "doctors", "healthcare": "hospital", "name": "Specjalistyczna Przychodnia Medycyny Pracy"}}, {"name": "Radomska Stacja Pogotowia Ratunkowego", "latitude": 51.3997457, "longitude": 21.1445598, "source": "osm", "_tags": {"amenity": "clinic", "healthcare": "hospital", "name": "Radomska Stacja Pogotowia Ratunkowego"}}, {"name": "Samodzielny Publiczny Zespół Zakładów Opieki Zdrowotnej", "latitude": 51.1601147, "longitude": 21.6578849, "source": "osm", "_tags": {"addr:city": "Lipsko", "addr:city:simc": "0973613", "addr:housenumber": "2", "addr:postcode": "27-300", "addr:street": "Jędrzeja Śniadeckiego", "amenity": "hospital", "emergency": "yes", "healthcare": "hospital", "name": "Samodzielny Publiczny Zespół Zakładów Opieki Zdrowotnej", "operator": "SPZZOZ"}}, {"name": "Szpitalny Oddział Ratunkowy", "latitude": 50.5611725, "longitude": 21.1902382, "source": "osm", "_tags": {"addr:city": "Staszów", "addr:city:simc": "0981274", "addr:housenumber": "78", "addr:postcode": "28-200", "addr:street": "11 Listopada", "alt_name": "SOR", "amenity": "clinic", "emergency": "yes", "healthcare": "hospital", "name": "Szpitalny Oddział Ratunkowy", "opening_hours": "24/7"}}, {"name": "Oddział: ginekologiczno-położniczy;Neotanologii", "latitude": 51.3982891, "longitude": 21.1471882, "source": "osm", "_tags": {"amenity": "clinic", "healthcare": "hospital", "name": "Oddział: ginekologiczno-położniczy;Neotanologii"}}, {"name": "Zakład Patomorfologii", "latitude": 51.3993449, "longitude": 21.1435034, "source": "osm", "_tags": {"amenity": "clinic", "healthcare": "hospital", "name": "Zakład Patomorfologii"}}, {"name": "Zakład Opieki Długoterminowej", "latitude": 51.3987707, "longitude": 21.144534, "source": "osm", "_tags": {"amenity": "clinic", "healthcare": "hospital", "name": "Zakład Opieki Długoterminowej"}}, {"name": "Samodzielny Publiczny Zespół Zakładów Opieki Zdrowotnej im. Stefana Niewirowicza w Staszowie", "latitude": 50.5606702, "longitude": 21.191357, "source": "osm", "_tags": {"addr:city": "Staszów", "addr:city:simc": "0981274", "addr:housenumber": "78", "addr:postcode": "28-200", "addr:province": "SK", "addr:province:en": "HC", "addr:street": "11 Listopada", "amenity": "hospital", "emergency": "yes", "healthcare": "hospital", "name": "Samodzielny Publiczny Zespół Zakładów Opieki Zdrowotnej im. Stefana Niewirowicza w Staszowie", "phone": "+48 15 864 85 39", "source": "Bing", "website": "https://www.szpitalstaszow.pl/"}}, {"name": "Szpital Powiatowy", "latitude": 51.0638038, "longitude": 21.0738206, "source": "osm", "_tags": {"amenity": "hospital", "email": "info@szpital.starachowice.pl", "healthcare": "hospital", "name": "Szpital Powiatowy", "official_name": "Powiatowy Zakład Opieki Zdrowotnej - Szpital Starachowice", "phone": "0 41 274 61 58", "short_name": "Szpital", "website": "http://www.szpital.starachowice.pl"}}, {"name": "Samodzielny Publiczny Zespół Zakładów Opieki Zdrowotnej - Szpital Rejonowy w Zwoleniu", "latitude": 51.3548461, "longitude": 21.5808817, "source": "osm", "_tags": {"amenity": "hospital", "email": "sekretariat@spzzoz.zwolen.net", "healthcare": "hospital", "name": "Samodzielny Publiczny Zespół Zakładów Opieki Zdrowotnej - Szpital Rejonowy w Zwoleniu", "phone": "+48 676 25 74", "website": "https://zoz.zwolen.net"}}, {"name": "Samodzielny Gminny Ośrodek Zdrowia", "latitude": 50.4522168, "longitude": 21.0605643, "source": "osm", "_tags": {"addr:city": "Oleśnica", "addr:housenumber": "28", "addr:postcode": "28-220", "addr:street": "Nadstawie", "amenity": "doctors", "building": "yes", "healthcare": "hospital", "name": "Samodzielny Gminny Ośrodek Zdrowia"}}, {"name": "Wojewódzki Szpital im. Zofii z Zamoyskich Tarnowskiej w Tarnobrzegu", "latitude": 50.5676852, "longitude": 21.671018, "source": "osm", "_tags": {"addr:city": "Tarnobrzeg", "addr:housenumber": "1", "addr:postcode": "39-400", "addr:street": "Szpitalna", "amenity": "hospital", "healthcare": "hospital", "name": "Wojewódzki Szpital im. Zofii z Zamoyskich Tarnowskiej w Tarnobrzegu", "name:uk": "Обласна Лікарня ім. Зофії Зофія Тарновська-Замойська у Тарнобжезі", "website": "https://www.szpitaltbg.pl/", "wikidata": "Q9352167", "wikipedia": "pl:Szpital w Tarnobrzegu"}}, {"name": "Radomski Szpital Specjalistyczny im. dr. Tytusa Chałubińskiego", "latitude": 51.3987544, "longitude": 21.1454535, "source": "osm", "_tags": {"amenity": "hospital", "email": "sekretariat@rszs.regiony.pl", "healthcare": "hospital", "name": "Radomski Szpital Specjalistyczny im. dr. Tytusa Chałubińskiego", "phone": "+48 48 361 51 00;+48 48 361 51 42", "website": "https://szpital.radom.pl/"}}, {"name": "Samodzielny Wojewódzki Publiczny Zespół Zakładów Psychiatrycznej Opieki Zdrowotnej im. dr Barbary Borzym", "latitude": 51.357407, "longitude": 21.0827205, "source": "osm", "_tags": {"addr:city": "Radom", "addr:housenumber": "1", "addr:postcode": "26-607", "addr:street": "Krychnowicka", "amenity": "hospital", "healthcare:speciality": "psychiatry", "name": "Samodzielny Wojewódzki Publiczny Zespół Zakładów Psychiatrycznej Opieki Zdrowotnej im. dr Barbary Borzym", "website": "https://www.szpitalpsychiatryczny.radom.pl/"}}, {"name": "Radomskie Centrum Onkologii im. Bohaterów Radomskiego Czerwca '76", "latitude": 51.4128399, "longitude": 21.1112795, "source": "osm", "_tags": {"amenity": "hospital", "email": "rejestracja@onkologiaradom.pl", "healthcare": "hospital", "name": "Radomskie Centrum Onkologii im. Bohaterów Radomskiego Czerwca '76", "phone": "48 377 90 20", "website": "https://onkologiaradom.pl"}}, {"name": "Szpital Specjalistyczny Ducha Świętego w Sandomierzu", "latitude": 50.6989374, "longitude": 21.7519979, "source": "osm", "_tags": {"amenity": "hospital", "email": "szpital@sand.pl", "emergency": "yes", "healthcare": "hospital", "name": "Szpital Specjalistyczny Ducha Świętego w Sandomierzu", "website": "https://sand.pl/"}}, {"name": "Radomski Szpital Specjalistyczny im. dr. Tytusa Chałubińskiego - Budynek Specjalistyczny", "latitude": 51.4005496, "longitude": 21.1450932, "source": "osm", "_tags": {"amenity": "hospital", "email": "sekretariat@szpital.radom.pl", "healthcare": "hospital", "name": "Radomski Szpital Specjalistyczny im. dr. Tytusa Chałubińskiego - Budynek Specjalistyczny", "phone": "+48 48 361 51 00", "website": "https://szpital.radom.pl"}}, {"name": "Regionalne Centrum Krwiodawstwa i Krwiolecznictwa im. dr Konrada Vietha w Radomiu", "latitude": 51.3980479, "longitude": 21.1373694, "source": "osm", "_tags": {"amenity": "hospital", "email": "rckik@rckik.radom.pl", "healthcare": "hospital", "name": "Regionalne Centrum Krwiodawstwa i Krwiolecznictwa im. dr Konrada Vietha w Radomiu", "opening_hours": "Mo-Wed,Fr 07:00-14:35; Th 07:00-17:35", "phone": "48 36 26 276", "website": "https://www.rckik.radom.pl/"}}, {"name": "", "latitude": 51.1611455, "longitude": 21.234281, "source": "osm", "_tags": {"amenity": "hospital", "healthcare": "centre"}}, {"name": "Samodzielny Publiczny Zespół Zakładów Opieki Zdrowotnej - Szpital w Iłży", "latitude": 51.1652182, "longitude": 21.2339087, "source": "osm", "_tags": {"amenity": "hospital", "email": "sekretariat@szpitalilza.com.pl", "healthcare": "hospital", "name": "Samodzielny Publiczny Zespół Zakładów Opieki Zdrowotnej - Szpital w Iłży", "phone": "48 368 17 00", "website": "https://www.szpitalilza.com.pl"}}, {"name": "Radomski Szpital Specjalistyczny im. dr Tytusa Chałubińskiego - Oddział Rehabilitacji", "latitude": 51.3953543, "longitude": 21.1686262, "source": "osm", "_tags": {"amenity": "hospital", "healthcare": "hospital", "name": "Radomski Szpital Specjalistyczny im. dr Tytusa Chałubińskiego - Oddział Rehabilitacji"}}, {"name": "Szpital św. Leona w Opatowie", "latitude": 50.8049023, "longitude": 21.4244668, "source": "osm", "_tags": {"addr:city": "Opatów", "addr:country": "PL", "addr:housenumber": "4", "addr:postcode": "27-500", "addr:street": "Szpitalna", "amenity": "hospital", "email": "sekretariat@szpitalopatow.pl", "healthcare": "hospital", "name": "Szpital św. Leona w Opatowie", "phone": "+48 15 86 70 427; +48 15 86 70 400; +48 15 86 70 401", "website": "https://www.szpitalopatow.pl/"}}, {"name": "Wielospecjalistyczny Szpital w Ostrowcu Świętokrzyskim", "latitude": 50.9524298, "longitude": 21.3621926, "source": "osm", "_tags": {"addr:city": "Ostrowiec Świętokrzyski", "addr:country": "PL", "addr:housenumber": "11", "addr:postcode": "27-400", "addr:street": "Karola Szymanowskiego", "amenity": "hospital", "email": "info@zoz.ostrowiec.pl", "emergency": "yes", "healthcare": "hospital", "name": "Wielospecjalistyczny Szpital w Ostrowcu Świętokrzyskim", "phone": "+48 41 247 80 00", "type": "multipolygon", "website": "https://www.zoz.ostrowiec.pl/", "wheelchair": "yes"}}]