[{"name": "", "latitude": 50.4401961, "longitude": 26.2412742, "source": "osm", "_tags": {"amenity": "hospital"}}, {"name": "", "latitude": 50.8798377, "longitude": 26.4502116, "source": "osm", "_tags": {"amenity": "hospital"}}, {"name": "", "latitude": 50.7268251, "longitude": 26.0262163, "source": "osm", "_tags": {"amenity": "hospital", "healthcare": "hospital"}}, {"name": "", "latitude": 50.7351926, "longitude": 26.3391644, "source": "osm", "_tags": {"amenity": "hospital"}}, {"name": "", "latitude": 50.5201132, "longitude": 26.2333325, "source": "osm", "_tags": {"amenity": "hospital"}}, {"name": "Медичний заклад", "latitude": 50.6035195, "longitude": 26.3949471, "source": "osm", "_tags": {"amenity": "hospital", "name": "Медичний заклад", "name:uk": "Медичний заклад"}}, {"name": "", "latitude": 50.5613327, "longitude": 26.2637691, "source": "osm", "_tags": {"addr:street": "Молодіжна вулиця", "amenity": "hospital"}}, {"name": "", "latitude": 50.8606779, "longitude": 26.0481825, "source": "osm", "_tags": {"amenity": "hospital", "healthcare": "hospital"}}, {"name": "Больница", "latitude": 50.6895969, "longitude": 26.1606581, "source": "osm", "_tags": {"amenity": "hospital", "healthcare": "hospital", "name": "Больница", "name:uk": "Больница"}}, {"name": "Інфекційне відділення", "latitude": 50.6031434, "longitude": 26.2661152, "source": "osm", "_tags": {"amenity": "hospital", "name": "Інфекційне відділення", "name:uk": "Інфекційне відділення"}}, {"name": "Оксфорд Медікал Рівне", "latitude": 50.6231352, "longitude": 26.2491281, "source": "osm", "_tags": {"addr:housenumber": "19", "addr:postcode": "33013", "addr:street": "вулиця Симона Петлюри", "amenity": "hospital", "email": "oxfordmed.rv@gmail.com", "emergency": "yes", "healthcare": "hospital", "healthcare:speciality": "general;gynaecology;paediatrics;orthopaedics;dermatology;otolaryngology;osteopathy;urology;surgery;cardiology;physiotherapy;neurology;community;clinic;ophthalmology", "name": "Оксфорд Медікал Рівне", "name:uk": "Оксфорд Медікал Рівне", "operator": "ТОВ \"Клініка Євроклінікс\"", "operator:type": "business", "phone": "+380 36 240 4050", "website": "https://rivne.oxford-med.com.ua"}}, {"name": "", "latitude": 51.2587166, "longitude": 26.6352139, "source": "osm", "_tags": {"addr:street": "Центральна вулиця", "amenity": "hospital", "healthcare": "hospital"}}, {"name": "Дитячий оздоровчий центр \"H2O\"", "latitude": 50.6128871, "longitude": 26.2587833, "source": "osm", "_tags": {"amenity": "hospital", "name": "Дитячий оздоровчий центр \"H2O\"", "name:uk": "Дитячий оздоровчий центр \"H2O\""}}, {"name": "Oxford Medical", "latitude": 50.623292, "longitude": 26.2717374, "source": "osm", "_tags": {"addr:housenumber": "26", "addr:street": "вулиця Академіка Грушевського", "amenity": "hospital", "check_date": "2024-07-15", "emergency": "no", "healthcare": "hospital", "healthcare:speciality": "gynaecology;general;paediatrics;orthopaedics;dermatology;psychiatry;orthodontics;otolaryngology;osteopathy;vaccination;urology;covid19;surgery;cardiology;neurology;physiotherapy;plastic_surgery", "internet_access": "no", "name": "Oxford Medical", "name:uk": "Оксфорд медікал", "operator": "OXFORD MEDICAL", "operator:type": "private", "payment:cash": "yes", "payment:credit_cards": "yes", "payment:debit_cards": "yes"}}, {"name": "РівнеМед", "latitude": 50.6030589, "longitude": 26.2678975, "source": "osm", "_tags": {"alt_name": "RivneMed", "amenity": "hospital", "contact:facebook": "https://www.fb.com/RivneMed", "contact:phone": "+380 96 644 8962", "contact:website": "https://rivnemed.rv.ua", "name": "РівнеМед"}}, {"name": "Обласний діагностичний центр", "latitude": 50.6162372, "longitude": 26.2493237, "source": "osm", "_tags": {"addr:housenumber": "36", "amenity": "hospital", "building": "yes", "building:levels": "9", "healthcare": "hospital", "name": "Обласний діагностичний центр", "name:uk": "Обласний діагностичний центр"}}, {"name": "Рівненський обласний онкологічний диспансер", "latitude": 50.6103666, "longitude": 26.2221249, "source": "osm", "_tags": {"amenity": "hospital", "name": "Рівненський обласний онкологічний диспансер", "name:ru": "Ровенский областной онкологический диспансер", "name:uk": "Рівненський обласний онкологічний диспансер"}}, {"name": "Залізнична лікарня", "latitude": 50.6115266, "longitude": 26.2226321, "source": "osm", "_tags": {"addr:housenumber": "13", "amenity": "hospital", "building": "yes", "name": "Залізнична лікарня", "name:uk": "Залізнична лікарня"}}, {"name": "Рівненський обласний протитуберкульозний диспансер", "latitude": 50.6096579, "longitude": 26.225958, "source": "osm", "_tags": {"amenity": "hospital", "name": "Рівненський обласний протитуберкульозний диспансер", "name:ru": "Ровенский областной противотуберкулезный диспансер", "name:uk": "Рівненський обласний протитуберкульозний диспансер"}}, {"name": "Рівненська центральна міська лікарня", "latitude": 50.6039516, "longitude": 26.2664968, "source": "osm", "_tags": {"amenity": "hospital", "healthcare": "hospital", "name": "Рівненська центральна міська лікарня", "name:ru": "Ровенская центральная городская больница", "name:uk": "Рівненська центральна міська лікарня", "website": "https://cml.rv.ua/"}}, {"name": "Пологовий будинок № 2", "latitude": 50.6030241, "longitude": 26.2691836, "source": "osm", "_tags": {"amenity": "hospital", "healthcare": "hospital", "name": "Пологовий будинок № 2", "name:ru": "Роддом №2", "name:uk": "Пологовий будинок № 2"}}, {"name": "Пологовий Будинок №2", "latitude": 50.6216506, "longitude": 26.2535215, "source": "osm", "_tags": {"addr:housenumber": "30", "addr:street": "вулиця Міцкевича", "amenity": "hospital", "building": "yes", "building:levels": "5", "healthcare": "hospital", "name": "Пологовий Будинок №2", "name:uk": "Пологовий Будинок №2"}}, {"name": "Дитяча поліклініка №3", "latitude": 50.6267233, "longitude": 26.2717431, "source": "osm", "_tags": {"addr:housenumber": "11", "addr:street": "вулиця Академіка Грушевського", "amenity": "hospital", "building": "yes", "building:levels": "5", "check_date": "2025-06-25", "healthcare": "hospital", "name": "Дитяча поліклініка №3", "name:uk": "Дитяча поліклініка №3"}}, {"name": "Поліклініка \"Північна\"", "latitude": 50.6426907, "longitude": 26.2760044, "source": "osm", "_tags": {"addr:housenumber": "10", "amenity": "hospital", "building": "yes", "name": "Поліклініка \"Північна\"", "name:uk": "Поліклініка \"Північна\""}}, {"name": "Обласна лікарня", "latitude": 50.614203, "longitude": 26.2908074, "source": "osm", "_tags": {"addr:housenumber": "78г", "amenity": "hospital", "building": "yes", "name": "Обласна лікарня", "name:uk": "Обласна лікарня"}}, {"name": "Рівненський обласний лікарсько-фізкультурний диспансер", "latitude": 50.6085257, "longitude": 26.2545151, "source": "osm", "_tags": {"addr:housenumber": "74а", "amenity": "hospital", "building": "yes", "healthcare": "hospital", "name": "Рівненський обласний лікарсько-фізкультурний диспансер", "name:uk": "Рівненський обласний лікарсько-фізкультурний диспансер"}}, {"name": "Міжрайонна спеціалізована психоневрологічна МСЕК", "latitude": 50.6106076, "longitude": 26.2545092, "source": "osm", "_tags": {"addr:housenumber": "5", "amenity": "hospital", "building": "yes", "name": "Міжрайонна спеціалізована психоневрологічна МСЕК", "name:uk": "Міжрайонна спеціалізована психоневрологічна МСЕК"}}, {"name": "Міська об'єнана дитяча лікарня", "latitude": 50.6102984, "longitude": 26.2569659, "source": "osm", "_tags": {"addr:housenumber": "72", "amenity": "hospital", "building": "yes", "healthcare": "hospital", "name": "Міська об'єнана дитяча лікарня", "name:ru": "Городская объединенная детская больница", "name:uk": "Міська об'єнана дитяча лікарня"}}, {"name": "Терапевтичний корпус Сарненської ЦРЛ", "latitude": 51.3220617, "longitude": 26.6300963, "source": "osm", "_tags": {"addr:housenumber": "1", "addr:postcode": "34500", "addr:street": "Технічна вулиця", "amenity": "hospital", "building": "hospital", "building:levels": "3", "healthcare": "hospital", "name": "Терапевтичний корпус Сарненської ЦРЛ", "name:uk": "Терапевтичний корпус Сарненської ЦРЛ"}}, {"name": "Відділення по вул. Київській Сарненської ЦРЛ (колишня вузлова лікарня)", "latitude": 51.3421311, "longitude": 26.6058141, "source": "osm", "_tags": {"addr:housenumber": "62", "addr:postcode": "34500", "addr:street": "Залізнична вулиця", "amenity": "hospital", "building": "hospital", "building:levels": "2", "email": "vuz_lik@ukr.net", "healthcare": "hospital", "name": "Відділення по вул. Київській Сарненської ЦРЛ (колишня вузлова лікарня)", "name:uk": "Відділення по вул. Київській Сарненської ЦРЛ (колишня вузлова лікарня)", "phone": "+380 3655 72 295", "website": "https://sarny.crl.org.ua/viddilennya-po-vul-kiivskij-15-16-51-31-05-2019/"}}, {"name": "", "latitude": 51.0564507, "longitude": 26.6505399, "source": "osm", "_tags": {"amenity": "hospital"}}, {"name": "", "latitude": 51.3131315, "longitude": 25.9918377, "source": "osm", "_tags": {"amenity": "hospital", "barrier": "fence"}}, {"name": "КЗ \"Рівненський обласний госпіталь інвалідів війни\"", "latitude": 50.752453, "longitude": 25.9849501, "source": "osm", "_tags": {"addr:housenumber": "39", "addr:place": "Дераженська", "addr:postcode": "35311", "amenity": "hospital", "healthcare": "hospital", "name": "КЗ \"Рівненський обласний госпіталь інвалідів війни\"", "name:uk": "КЗ \"Рівненський обласний госпіталь інвалідів війни\""}}, {"name": "", "latitude": 50.5466782, "longitude": 26.0265832, "source": "osm", "_tags": {"amenity": "hospital"}}, {"name": "Гощанська багатопрофільна лікарня", "latitude": 50.6049685, "longitude": 26.691431, "source": "osm", "_tags": {"amenity": "hospital", "healthcare": "hospital", "name": "Гощанська багатопрофільна лікарня", "name:uk": "Гощанська багатопрофільна лікарня", "official_name": "Комунальне некомерційне підприємство \"Гощанська багатопрофільна лікарня\" Гощанської селищної ради", "old_name": "Центральна районна лікарня"}}, {"name": "Районна поліклініка", "latitude": 50.6064282, "longitude": 26.6856663, "source": "osm", "_tags": {"amenity": "hospital", "healthcare": "hospital", "name": "Районна поліклініка", "name:uk": "Районна поліклініка", "official_name": "Гощанський районний центр первинної медико-санітарної допомоги Гощанської районної ради"}}, {"name": "", "latitude": 51.1676706, "longitude": 26.7552911, "source": "osm", "_tags": {"amenity": "hospital", "barrier": "fence"}}, {"name": "Міська лікарня", "latitude": 51.3195851, "longitude": 26.9065128, "source": "osm", "_tags": {"amenity": "hospital", "building": "yes", "emergency": "yes", "healthcare": "hospital", "name": "Міська лікарня", "name:uk": "Міська лікарня"}}, {"name": "Обласна психіатрична лікарня", "latitude": 51.3200928, "longitude": 26.5637824, "source": "osm", "_tags": {"addr:housenumber": "36А", "addr:postcode": "34509", "addr:street": "вулиця Миру", "amenity": "hospital", "healthcare": "hospital", "name": "Обласна психіатрична лікарня", "name:uk": "Обласна психіатрична лікарня", "phone": "+380 3655 22 271"}}, {"name": "Сарненська центральна районна лікарня", "latitude": 51.3337421, "longitude": 26.5923213, "source": "osm", "_tags": {"amenity": "hospital", "healthcare": "hospital", "name": "Сарненська центральна районна лікарня", "name:uk": "Сарненська центральна районна лікарня"}}, {"name": "Чорнобильска лікарня (обласний диспансер радіаційного захисту населення)", "latitude": 50.6025037, "longitude": 26.25929, "source": "osm", "_tags": {"amenity": "hospital", "barrier": "fence", "healthcare": "hospital", "name": "Чорнобильска лікарня (обласний диспансер радіаційного захисту населення)", "name:uk": "Чорнобильска лікарня (обласний диспансер радіаційного захисту населення)"}}, {"name": "ФАП", "latitude": 51.0745085, "longitude": 25.9816245, "source": "osm", "_tags": {"amenity": "hospital", "healthcare": "hospital", "name": "ФАП", "name:uk": "ФАП"}}, {"name": "Клеванська лікарня імені Михайла Вервеги", "latitude": 50.7384864, "longitude": 26.0408795, "source": "osm", "_tags": {"amenity": "hospital", "healthcare": "hospital", "name": "Клеванська лікарня імені Михайла Вервеги", "name:uk": "Клеванська лікарня імені Михайла Вервеги", "website": "https://klevancrl.com.ua"}}, {"name": "Зірненська туберкульозна лікарня", "latitude": 50.9745372, "longitude": 26.7277185, "source": "osm", "_tags": {"amenity": "hospital", "healthcare": "hospital", "name": "Зірненська туберкульозна лікарня", "name:uk": "Зірненська туберкульозна лікарня", "type": "multipolygon"}}, {"name": "Березнівська ЦМЛ", "latitude": 51.0053607, "longitude": 26.7574381, "source": "osm", "_tags": {"amenity": "hospital", "name": "Березнівська ЦМЛ", "name:uk": "Березнівська ЦМЛ", "type": "multipolygon"}}, {"name": "Ганнопільська поліклініка", "latitude": 50.4569259, "longitude": 26.9053673, "source": "osm", "_tags": {"amenity": "hospital", "healthcare": "hospital", "name": "Ганнопільська поліклініка", "name:uk": "Ганнопільська поліклініка", "official_name": "Ганнопільська амбулаторія загальної практики-сімейної медицини (010), Комунальний заклад \"Славутська центр первинної медико - санітарної допомоги\"", "type": "multipolygon"}}, {"name": "", "latitude": 50.5244027, "longitude": 26.2549505, "source": "osm", "_tags": {"amenity": "hospital", "healthcare": "hospital", "type": "multipolygon"}}]