[{"name": "Urgent Care Cambridge", "latitude": 52.2183876, "longitude": 0.1367897, "source": "osm", "_tags": {"addr:city": "Cambridge", "addr:postcode": "CB4 1PX", "addr:street": "Union Lane", "amenity": "hospital", "check_date": "2025-08-13", "emergency": "yes", "healthcare": "hospital", "name": "Urgent Care Cambridge"}}, {"name": "Cambridge Lea Hospital (Spire)", "latitude": 52.2447321, "longitude": 0.1134644, "source": "osm", "_tags": {"amenity": "hospital", "check_date": "2024-05-10", "healthcare": "hospital", "name": "Cambridge Lea Hospital (Spire)", "website": "https://www.spirehealthcare.com/cambridge/"}}, {"name": "Saffron Walden Community Hospital (no A&E)", "latitude": 52.0242714, "longitude": 0.2588568, "source": "osm", "_tags": {"amenity": "hospital", "check_date": "2024-07-25", "healthcare": "hospital", "name": "Saffron Walden Community Hospital (no A&E)", "ref:GB:cqc_location": "R1LTH", "wikidata": "Q26490772"}}, {"name": "Cheshunt Community Hospital", "latitude": 51.6992501, "longitude": -0.0332109, "source": "osm", "_tags": {"addr:postcode": "EN8 8XN", "amenity": "hospital", "healthcare": "hospital", "name": "Cheshunt Community Hospital", "source": "yahoo"}}, {"name": "Cambridge Private Hospital (Orwell Grange)", "latitude": 52.1307004, "longitude": -0.0311602, "source": "osm", "_tags": {"amenity": "hospital", "emergency": "no", "hospital": "cosmetic", "name": "Cambridge Private Hospital (Orwell Grange)", "note": "Cosmetic Surgery only", "source": "survey"}}, {"name": "Jasmine Centre", "latitude": 51.4338957, "longitude": 0.2608497, "source": "osm", "_tags": {"amenity": "hospital", "healthcare": "hospital", "name": "Jasmine Centre", "toilets:wheelchair": "yes", "wheelchair": "yes"}}, {"name": "King's / Dartford Dialysis Unit", "latitude": 51.433839, "longitude": 0.2608422, "source": "osm", "_tags": {"amenity": "hospital", "healthcare": "hospital", "name": "King's / Dartford Dialysis Unit", "toilets:wheelchair": "yes", "wheelchair": "yes"}}, {"name": "Jacob's Neuro Centre", "latitude": 51.8078101, "longitude": 0.1375173, "source": "osm", "_tags": {"amenity": "hospital", "emergency": "no", "healthcare": "hospital", "name": "Jacob's Neuro Centre"}}, {"name": "Suttons Manor Hospital", "latitude": 51.660966, "longitude": 0.1844401, "source": "osm", "_tags": {"addr:city": "Romford", "addr:housename": "Partnerships in Care Suttons Manor", "addr:postcode": "RM4 1BF", "addr:street": "London Road", "amenity": "hospital", "emergency": "no", "name": "Suttons Manor Hospital", "operator": "Priory Group", "phone": "+44 1708 687 398"}}, {"name": "Dermatology Entrance", "latitude": 51.4530939, "longitude": -0.0172982, "source": "osm", "_tags": {"entrance": "yes", "healthcare": "hospital", "healthcare:speciality": "dermatology", "name": "Dermatology Entrance"}}, {"name": "Livingstone Community Hospitals", "latitude": 51.4422302, "longitude": 0.2267637, "source": "osm", "_tags": {"addr:city": "Dartford", "addr:housename": "Livingstone Community Hospital", "addr:street": "East Hill", "amenity": "hospital", "contact:phone": "+44 1322 622374", "contact:website": "https://www.nhs.uk/Services/Hospitals/Overview/DefaultView.aspx?id=NDAJ0", "emergency": "no", "healthcare": "hospital", "name": "Livingstone Community Hospitals"}}, {"name": "Chelmsford Osteopathic Practice", "latitude": 51.733512, "longitude": 0.4795091, "source": "osm", "_tags": {"addr:city": "Chelmsford", "addr:housename": "Kenmore House", "addr:postcode": "CM2 6HX", "addr:street": "Navigation Yard", "amenity": "clinic", "check_date": "2024-10-04", "currency:GBP": "yes", "currency:XBT": "yes", "description": "If you are looking for a registered osteopath in Essex, visit the Chelmsford Osteopathic Practice. We can provide treatment for a wide variety of ailments caused by injury or the stresses of everyday life.", "email": "info@chelmsfordosteopathicpractice.co.uk", "healthcare": "hospital", "healthcare:speciality": "osteopathy", "name": "Chelmsford Osteopathic Practice", "opening_hours": "Mo-Sa 09:00-20:00; Su off", "payment:lightning_contactless": "no", "payment:onchain": "yes", "phone": "+44 1245 963333", "survey:date": "2022-11-18", "website": "https://chelmsfordosteopathicpractice.co.uk/"}}, {"name": "Cambridge Biomedical Campus", "latitude": 52.1739275, "longitude": 0.1384943, "source": "osm", "_tags": {"alt_name": "Addenbrooke's", "amenity": "hospital", "emergency": "yes", "healthcare": "hospital", "name": "Cambridge Biomedical Campus", "old_name": "Cambridge University Hospitals NHS Foundation Trust Addenbrooke's Hospital", "operator": "Cambridge University Hospitals NHS Foundation Trust", "ref:university_of_cambridge": "H", "wikidata": "Q5025360"}}, {"name": "Thurrock Community Hospital", "latitude": 51.4967681, "longitude": 0.3364899, "source": "osm", "_tags": {"addr:city": "Grays", "addr:postcode": "RM16 2PX", "addr:street": "Long Lane", "amenity": "hospital", "emergency": "no", "healthcare": "hospital", "name": "Thurrock Community Hospital", "operator": "NHS", "operator:type": "government", "operator:wikidata": "Q918396"}}, {"name": "Kneesworth House Hospital", "latitude": 52.0790479, "longitude": -0.0319578, "source": "osm", "_tags": {"amenity": "hospital", "name": "Kneesworth House Hospital", "source:name": "dictaphone"}}, {"name": "Royston Hospital", "latitude": 52.0408429, "longitude": -0.021915, "source": "osm", "_tags": {"addr:city": "Royston", "addr:postcode": "SG8 9EN", "amenity": "hospital", "building": "hospital", "healthcare:speciality": "gynaecology", "name": "Royston Hospital"}}, {"name": "Bracton Centre", "latitude": 51.4332547, "longitude": 0.1796349, "source": "osm", "_tags": {"amenity": "hospital", "healthcare": "hospital", "name": "Bracton Centre"}}, {"name": "Newham University Hospital", "latitude": 51.5216743, "longitude": 0.0366399, "source": "osm", "_tags": {"alt_name": "Newham General Hospital", "amenity": "hospital", "beds": "430", "healthcare": "hospital", "historic:operator": "Newham University Hospital Trust", "name": "Newham University Hospital", "opening_hours": "24/7", "operator": "Barts Health NHS Trust", "ref:GB:cqc_location": "R1HNH", "website": "https://www.bartshealth.nhs.uk/our-hospitals/newham-university-hospital/", "wikidata": "Q7018154", "wikipedia": "en:Newham University Hospital"}}, {"name": "Childrens Resource Centre", "latitude": 51.4355218, "longitude": 0.255846, "source": "osm", "_tags": {"amenity": "hospital", "building": "hospital", "healthcare": "hospital", "name": "Childrens Resource Centre"}}, {"name": "Whipps Cross University Hospital", "latitude": 51.5775152, "longitude": 0.002042, "source": "osm", "_tags": {"addr:city": "London", "addr:postcode": "E11 1NR", "addr:street": "Whipps Cross Road", "amenity": "hospital", "emergency": "yes", "healthcare": "hospital", "name": "Whipps Cross University Hospital", "ref:GB:cqc_location": "R1HKH", "source": "yahoo;knowledge", "wikidata": "Q7993761", "wikipedia": "en:Whipps Cross University Hospital"}}, {"name": "Homerton University Hospital", "latitude": 51.550645, "longitude": -0.0455017, "source": "osm", "_tags": {"amenity": "hospital", "emergency": "yes", "healthcare": "hospital", "loc_name": "Homerton Hospital", "name": "Homerton University Hospital", "ref:GB:cqc_location": "RQXM1", "ref:GB:nhs_ods": "RQXM1", "website": "https://www.homerton.nhs.uk/", "wikidata": "Q19654384", "wikipedia": "en:Homerton University Hospital"}}, {"name": "Southend University Hospital", "latitude": 51.5542551, "longitude": 0.6881721, "source": "osm", "_tags": {"addr:city": "Southend-on-Sea", "addr:postcode": "SS0 0RY", "addr:street": "Prittlewell Chase", "amenity": "hospital", "contact:website": "https://www.mse.nhs.uk/southend-hospital", "emergency": "yes", "healthcare": "hospital", "name": "Southend University Hospital", "operator": "NHS;Mid and South Essex NHS Foundation Trust", "operator:type": "government", "operator:wikidata": "Q918396", "phone": "+44 1702 435555", "ref": "RAJ", "ref:GB:cqc_location": "RAJ01", "ref:GB:nhs_ods": "RAJ01", "website": "https://www.mse.nhs.uk/", "wheelchair": "yes", "wikidata": "Q50575526"}}, {"name": "Chelmsford and Essex (C&E) Centre", "latitude": 51.731008, "longitude": 0.4708996, "source": "osm", "_tags": {"addr:city": "Chelmsford", "addr:postcode": "CM2 0QH", "addr:street": "New London Road", "amenity": "hospital", "building": "yes", "emergency": "no", "healthcare": "hospital", "healthcare:speciality": "mental_health", "name": "Chelmsford and Essex (C&E) Centre", "opening_hours": "Mo-Fr 09:00-17:00; Sa-Su off", "operator": "NHS", "operator:type": "public", "operator:wikidata": "Q918396", "phone": "+44 1245 315200"}}, {"name": "St Peter's Hospital", "latitude": 51.7300704, "longitude": 0.6715161, "source": "osm", "_tags": {"addr:city": "Maldon", "addr:country": "GB", "addr:housename": "St Peter's Hospital", "addr:postcode": "CM9 6EG", "addr:street": "Spital Road", "amenity": "hospital", "emergency": "no", "fhrs:authority": "Maldon", "fhrs:id": "20753", "fhrs:rating": "5", "healthcare": "hospital", "name": "St Peter's Hospital", "source": "Bing", "wikidata": "Q30292997"}}, {"name": "Newmarket Hospital (no A&E)", "latitude": 52.2511145, "longitude": 0.3999481, "source": "osm", "_tags": {"addr:city": "Newmarket", "addr:country": "GB", "addr:housenumber": "56", "addr:postcode": "CB8 7JG", "addr:street": "Exning Road", "amenity": "hospital", "emergency": "no", "fhrs:id": "1673442", "healthcare": "hospital", "name": "Newmarket Hospital (no A&E)"}}, {"name": "Grays Court Community Hospital", "latitude": 51.5392785, "longitude": 0.1580578, "source": "osm", "_tags": {"addr:city": "Dagenham", "addr:postcode": "RM10 9SR", "addr:street": "John Parker Close", "amenity": "hospital", "building": "yes", "emergency": "no", "fhrs:id": "129890", "fhrs:local_authority_id": "60868", "healthcare": "hospital", "name": "Grays Court Community Hospital"}}, {"name": "Brentwood Community Hospital", "latitude": 51.6233407, "longitude": 0.3160273, "source": "osm", "_tags": {"addr:city": "Brentwood", "addr:housename": "Brentwood Community Hospital", "addr:postcode": "CM15 8DR", "addr:street": "Crescent Drive", "amenity": "hospital", "check_date": "2024-11-16", "emergency": "no", "healthcare": "hospital", "healthcare:speciality": "chiropractic;paediatrics;cardiology;otolaryngology;epilepsy_services;parkinson's_desease;rehabilitation;sexual_health;tissue_viability", "internet_access": "yes", "internet_access:fee": "no", "internet_access:ssid": "NHSWiFi", "name": "Brentwood Community Hospital", "official_name": "Brentwood Community Hospital", "phone": "+44 1277 695000", "source": "https://www.nhs.uk/services/hospital/brentwood-community-hospital/RAJ25", "website": "https://www.nhs.uk/services/hospital/brentwood-community-hospital/RAJ25", "wheelchair": "yes"}}, {"name": "Queens Hospital", "latitude": 51.5687233, "longitude": 0.1810182, "source": "osm", "_tags": {"addr:city": "Romford", "addr:postcode": "RM7 0AG", "addr:street": "Rom Valley Way", "amenity": "hospital", "beds": "939", "emergency": "yes", "healthcare": "hospital", "name": "Queens Hospital", "opening_hours": "24/7", "operator": "Barking, Havering and Redbridge University Hospitals NHS Trust", "operator:type": "public", "operator:wikidata": "Q4861025", "phone": "+44 330 400 4333", "wheelchair": "yes", "wikidata": "Q7270013"}}, {"name": "Brookfields Hospital", "latitude": 52.1974936, "longitude": 0.1534359, "source": "osm", "_tags": {"addr:city": "Cambridge", "addr:housenumber": "351", "addr:postcode": "CB1 3DF", "addr:street": "Mill Road", "amenity": "hospital", "healthcare": "hospital", "name": "Brookfields Hospital", "wikidata": "Q30293029"}}, {"name": "Hartswood Hospital", "latitude": 51.6004241, "longitude": 0.2930177, "source": "osm", "_tags": {"access": "private", "amenity": "hospital", "building": "yes", "emergency": "no", "healthcare": "hospital", "name": "Hartswood Hospital"}}, {"name": "Cygnet Hospital Colchester", "latitude": 51.9231053, "longitude": 0.8920793, "source": "osm", "_tags": {"amenity": "hospital", "healthcare": "hospital", "name": "Cygnet Hospital Colchester", "old_name": "Cambian Fairview", "operator": "Cygnet Learning Disabilities Limited", "ref:GB:cqc_location": "1-118514298", "website": "https://www.cygnetgroup.com/locations/cygnet-hospital-colchester/"}}, {"name": "The Royal Papworth Hospital", "latitude": 52.1732461, "longitude": 0.135771, "source": "osm", "_tags": {"amenity": "hospital", "description": "Royal Papworth Hospital site", "healthcare": "hospital", "name": "The Royal Papworth Hospital", "ref:GB:cqc_location": "RGMX1"}}, {"name": "Darent Valley Hospital", "latitude": 51.434731, "longitude": 0.2570899, "source": "osm", "_tags": {"amenity": "hospital", "emergency": "yes", "healthcare": "hospital", "name": "Darent Valley Hospital", "source": "Bing", "toilets:wheelchair": "yes", "wheelchair": "yes", "wikidata": "Q25171377"}}, {"name": "Nuffield Hospital", "latitude": 51.6233456, "longitude": 0.3129081, "source": "osm", "_tags": {"amenity": "hospital", "building": "hospital", "emergency": "no", "healthcare": "hospital", "name": "Nuffield Hospital", "wheelchair": "yes"}}, {"name": "Mile End Hospital", "latitude": 51.5250528, "longitude": -0.0421703, "source": "osm", "_tags": {"addr:city": "London", "addr:housenumber": "275", "addr:postcode": "E1 4DG", "addr:street": "Bancroft Road", "amenity": "hospital", "barrier": "wall", "emergency": "no", "fhrs:id": "83681", "healthcare": "hospital", "name": "Mile End Hospital", "operator": "Barts Health NHS Trust", "ref:GB:cqc_location": "R1H13", "ref:GB:nhs_ods": "R1H13", "wikidata": "Q6851069"}}, {"name": "Victoria Hospital", "latitude": 51.5838151, "longitude": 0.1880023, "source": "osm", "_tags": {"amenity": "hospital", "emergency": "no", "healthcare": "hospital", "name": "Victoria Hospital"}}, {"name": "Springfield Hospital", "latitude": 51.7538735, "longitude": 0.4851576, "source": "osm", "_tags": {"addr:city": "Chelmsford", "addr:postcode": "CM1 7GU", "addr:street": "Lawn Lane", "amenity": "hospital", "emergency": "no", "healthcare": "hospital", "name": "Springfield Hospital", "operator": "Ramsay Health Care UK", "operator:type": "private", "operator:wikidata": "Q20047299", "phone": "+44 1245 952741", "website": "https://www.springfieldhospital.co.uk/"}}, {"name": "Fulbourn Hospital (psychiatric)", "latitude": 52.1849967, "longitude": 0.1880545, "source": "osm", "_tags": {"amenity": "hospital", "emergency": "no", "healthcare": "hospital", "name": "Fulbourn Hospital (psychiatric)", "source": "local_knowledge", "wikidata": "Q5507788"}}, {"name": "Jenner House", "latitude": 51.7840488, "longitude": 0.1340534, "source": "osm", "_tags": {"addr:postcode": "CM17 0AX", "amenity": "hospital", "building": "public", "emergency": "no", "healthcare": "hospital", "name": "Jenner House"}}, {"name": "Rivers Hospital", "latitude": 51.8079439, "longitude": 0.1364756, "source": "osm", "_tags": {"addr:city": "Sawbridgeworth", "addr:postcode": "CM21 0HH", "addr:street": "High Wych Road", "amenity": "hospital", "healthcare": "hospital", "name": "Rivers Hospital", "phone": "+44 1279 600282"}}, {"name": "Lister House Health Centre", "latitude": 51.7545995, "longitude": 0.0900294, "source": "osm", "_tags": {"amenity": "hospital", "emergency": "no", "healthcare": "centre", "name": "Lister House Health Centre"}}, {"name": "Princess Alexandra Hospital", "latitude": 51.7715335, "longitude": 0.0858415, "source": "osm", "_tags": {"amenity": "hospital", "emergency": "yes", "healthcare": "hospital", "name": "Princess Alexandra Hospital", "wikidata": "Q50573098"}}, {"name": "Queen Elizabeth Hospital", "latitude": 51.4778478, "longitude": 0.050258, "source": "osm", "_tags": {"addr:city": "London", "addr:postcode": "SE18 4QH", "addr:street": "Stadium Road", "amenity": "hospital", "emergency": "yes", "healthcare": "hospital", "name": "Queen Elizabeth Hospital", "phone": "+44 20 8836 6000", "toilets:wheelchair": "yes", "wheelchair": "yes", "wikidata": "Q7270343"}}, {"name": "Coborn Centre for Adolescent Mental Health", "latitude": 51.5196806, "longitude": 0.0383924, "source": "osm", "_tags": {"addr:city": "London", "addr:postcode": "E13 8SP", "addr:street": "Cherry Tree Way", "amenity": "hospital", "building": "yes", "emergency": "no", "healthcare": "hospital", "name": "Coborn Centre for Adolescent Mental Health", "phone": "+44 20 7540 6789", "website": "https://www.elft.nhs.uk/camhs/where-we-work/coborn-centre-adolescent-mental-health"}}, {"name": "", "latitude": 51.5837509, "longitude": 0.0290393, "source": "osm", "_tags": {"amenity": "hospital", "emergency": "no", "healthcare": "hospital", "note": "boundary estimated", "operator": "NHS", "operator:type": "public", "operator:wikidata": "Q918396", "source": "survey"}}, {"name": "West Suffolk Hospital", "latitude": 52.2308862, "longitude": 0.7080234, "source": "osm", "_tags": {"addr:postcode": "IP33 2QZ", "addr:street": "Hardwick Lane", "amenity": "hospital", "fhrs:id": "1674684", "healthcare": "hospital", "name": "West Suffolk Hospital", "pharmacy": "yes", "ref:GB:cqc_location": "RGR50", "source:addr": "FSA Food Hygiene Ratings Database", "website": "https://www.wsh.nhs.uk/", "wikidata": "Q50804992", "wikipedia": "en:West Suffolk Hospital"}}, {"name": "Spire London East", "latitude": 51.5872417, "longitude": 0.0436493, "source": "osm", "_tags": {"amenity": "hospital", "healthcare": "hospital", "name": "Spire London East", "old_name": "Spire Roding Hospital", "website": "https://www.spirehealthcare.com/roding/"}}, {"name": "John Howard Centre", "latitude": 51.5480322, "longitude": -0.0391378, "source": "osm", "_tags": {"addr:city": "London", "addr:housenumber": "12", "addr:postcode": "E9 5TD", "addr:street": "Kenworthy Road", "alt_name": "Forensic Services Directorate", "amenity": "hospital", "healthcare": "hospital", "healthcare:speciality": "psychiatry", "name": "John Howard Centre", "old_name": "Hackney Hospital", "operator": "East London NHS Foundation Trust", "operator:type": "public", "phone": "+44 20 8510 2003", "ref:GB:cqc_location": "RWK60", "ref:GB:nhs_ods": "RWK60"}}, {"name": "The Holly Private Hospital", "latitude": 51.6243284, "longitude": 0.0321768, "source": "osm", "_tags": {"addr:city": "Buckhurst Hill", "addr:country": "GB", "addr:postcode": "IG9 5HX", "addr:street": "High Road", "amenity": "hospital", "healthcare": "hospital", "landuse": "residential", "name": "The Holly Private Hospital", "old_name": "Holly House Hospital", "phone": "+44 20 8505 3311", "website": "https://www.theholly.com/"}}, {"name": "Orsett Hospital", "latitude": 51.5098825, "longitude": 0.3658239, "source": "osm", "_tags": {"addr:city": "Orsett", "addr:postcode": "RM16 3EU", "addr:street": "Rowley Road", "amenity": "hospital", "emergency": "no", "healthcare": "hospital", "name": "Orsett Hospital", "operator": "NHS", "operator:type": "government", "operator:wikidata": "Q918396", "phone": "+44 1268 524900", "website": "https://www.mse.nhs.uk/", "wikidata": "Q30292832"}}, {"name": "Priory Hospital Chelmsford", "latitude": 51.7431746, "longitude": 0.4892269, "source": "osm", "_tags": {"addr:city": "Chelmsford", "addr:postcode": "CM1 7SJ", "addr:street": "Stump Lane", "amenity": "hospital", "emergency": "no", "fax": "+44 1245 346177", "healthcare": "hospital", "healthcare:speciality": "mental_health", "name": "Priory Hospital Chelmsford", "operator": "The Priory Group", "operator:type": "private", "phone": "+44 1245 806412", "ref:GB:cqc_location": "1-127132186", "website": "https://www.priorygroup.com/", "wikidata": "Q30265238"}}, {"name": "Ida Darwin Hospital", "latitude": 52.1857698, "longitude": 0.2041331, "source": "osm", "_tags": {"amenity": "hospital", "emergency": "no", "name": "Ida Darwin Hospital"}}, {"name": "Barking Community Hospital", "latitude": 51.5387903, "longitude": 0.0988176, "source": "osm", "_tags": {"addr:city": "Barking", "addr:postcode": "IG11 9LX", "addr:street": "Upney Lane", "amenity": "hospital", "healthcare": "hospital", "name": "Barking Community Hospital", "phone": "+44 20 3644 2301", "wikidata": "Q30292861"}}, {"name": "University Hospital Lewisham", "latitude": 51.4537809, "longitude": -0.0179238, "source": "osm", "_tags": {"amenity": "hospital", "check_date": "2022-10-16", "emergency": "yes", "healthcare": "hospital", "internet_access": "wlan", "internet_access:fee": "no", "internet_access:ssid": "NHS WiFi", "name": "University Hospital Lewisham", "opening_hours": "24/7", "operator:type": "public", "ref:GB:cqc_location": "RJ224", "ref:GB:nhs_ods": "RJ224", "source": "survey", "wheelchair": "yes", "wikidata": "Q14956783", "wikipedia": "en:University Hospital Lewisham"}}, {"name": "Rochford Hospital", "latitude": 51.5840089, "longitude": 0.7033457, "source": "osm", "_tags": {"addr:city": "Rochford", "amenity": "hospital", "emergency": "no", "healthcare": "hospital", "name": "Rochford Hospital", "operator": "NHS", "operator:type": "public", "operator:wikidata": "Q918396"}}, {"name": "Herts And Essex Community Hospital", "latitude": 51.8659344, "longitude": 0.1750248, "source": "osm", "_tags": {"amenity": "hospital", "emergency": "no", "healthcare": "hospital", "name": "Herts And Essex Community Hospital", "source": "OS OpenMap Local", "wikidata": "Q5744849"}}, {"name": "Highfield Nursing Home", "latitude": 51.8030318, "longitude": -0.0345359, "source": "osm", "_tags": {"amenity": "hospital", "name": "Highfield Nursing Home", "source": "OS OpenMap Local"}}, {"name": "Little Brook Hospital", "latitude": 51.4464132, "longitude": 0.2428038, "source": "osm", "_tags": {"addr:city": "Dartford", "addr:postcode": "DA2 6PB", "addr:street": "Bow Arrow Lane", "alt_name": "Littlebrook Hospital", "amenity": "hospital", "emergency": "no", "healthcare": "hospital", "healthcare:speciality": "geriatrics;psychiatry", "name": "Little Brook Hospital", "operator": "Kent and Medway NHS and Social Care Partnership Trust", "phone": "+44 1322622222", "website": "https://www.kmpt.nhs.uk/"}}, {"name": "St Edmunds Hospital", "latitude": 52.2400321, "longitude": 0.7194582, "source": "osm", "_tags": {"addr:postcode": "IP33 2AA", "addr:street": "St Marys Square", "amenity": "hospital", "fhrs:id": "1114424", "healthcare": "hospital", "name": "St Edmunds Hospital", "source": "OS OpenMap Local", "source:addr": "FSA Food Hygiene Ratings Database", "website": "https://www.circlehealthgroup.co.uk/hospitals/st-edmunds-hospital"}}, {"name": "Basildon University Hospital", "latitude": 51.5581629, "longitude": 0.4513565, "source": "osm", "_tags": {"addr:city": "Basildon", "addr:postcode": "SS16 5NL", "addr:street": "Nether Mayne", "amenity": "hospital", "contact:website": "https://www.mse.nhs.uk/basildon-university-hospital", "emergency": "yes", "healthcare": "hospital", "name": "Basildon University Hospital", "operator": "NHS;Mid and South Essex NHS Foundation Trust", "operator:type": "government", "operator:wikidata": "Q918396", "phone": "+44 1268 524900", "ref": "RDD", "source": "OS OpenMap Local", "website": "https://www.mse.nhs.uk/", "wheelchair": "yes", "wikidata": "Q30292885"}}, {"name": "Leonard Lodge Nursing Home", "latitude": 51.6356068, "longitude": 0.3444734, "source": "osm", "_tags": {"addr:city": "Brentwood", "addr:housename": "Leonard Lodge", "addr:postcode": "CM13 1AQ", "addr:street": "Roxwell Gardens", "amenity": "hospital", "name": "Leonard Lodge Nursing Home", "source": "OS OpenMap Local", "website": "https://www.barchester.com/home/leonard-lodge-care-home"}}, {"name": "Hutton Village Nursing Home", "latitude": 51.6276893, "longitude": 0.3619969, "source": "osm", "_tags": {"amenity": "hospital", "name": "Hutton Village Nursing Home", "source": "OS OpenMap Local"}}, {"name": "Old Rectory", "latitude": 51.8914329, "longitude": 0.8638356, "source": "osm", "_tags": {"amenity": "hospital", "name": "Old Rectory", "source": "OS OpenMap Local"}}, {"name": "Chavasse V C House", "latitude": 51.8685989, "longitude": 0.893388, "source": "osm", "_tags": {"amenity": "hospital", "name": "Chavasse V C House", "source": "OS OpenMap Local", "website": "http://www.helpforheroes.org.uk/get-support/how-to-access-our-services/recovery-in-the-east/"}}, {"name": "RAF Lakenheath Medical Hospital", "latitude": 52.3935182, "longitude": 0.5451567, "source": "osm", "_tags": {"addr:postcode": "IP27 9PP", "amenity": "hospital", "building": "hospital", "healthcare": "hospital", "name": "RAF Lakenheath Medical Hospital", "website": "https://www.military.com/base-guide/raf-lakenheath/contact/medical-hospital/16353"}}, {"name": "Blackheath Hospital", "latitude": 51.4634313, "longitude": 0.0067008, "source": "osm", "_tags": {"amenity": "hospital", "healthcare": "hospital", "name": "Blackheath Hospital"}}, {"name": "Colchester General Hospital", "latitude": 51.9099698, "longitude": 0.8995983, "source": "osm", "_tags": {"amenity": "hospital", "emergency": "yes", "healthcare": "hospital", "name": "Colchester General Hospital", "operator": "East Suffolk and North Essex NHS Foundation Trust", "ref:GB:cqc_location": "RDEE4", "ref:GB:nhs_ods": "RDEE4", "wikidata": "Q30280102", "wikipedia": "en:Colchester Hospital"}}, {"name": "Royal London Hospital", "latitude": 51.5174467, "longitude": -0.0599244, "source": "osm", "_tags": {"addr:city": "London", "addr:postcode": "E1 1BB", "addr:street": "Whitechapel Road", "amenity": "hospital", "emergency": "yes", "fhrs:id": "100125", "healthcare": "hospital", "name": "Royal London Hospital", "operator": "Barts Health NHS Trust", "ref:GB:cqc_location": "R1H12", "ref:GB:nhs_ods": "R1H12", "wikidata": "Q7374421", "wikipedia": "en:Royal London Hospital"}}, {"name": "Erith and District Hospital", "latitude": 51.4769611, "longitude": 0.1667663, "source": "osm", "_tags": {"amenity": "hospital", "healthcare": "hospital", "name": "Erith and District Hospital", "note": "The boundary is subject to checking/improvement", "wikidata": "Q30293058"}}, {"name": "St Aubyn Centre", "latitude": 51.9185738, "longitude": 0.8927295, "source": "osm", "_tags": {"addr:city": "Colchester", "addr:housenumber": "2", "addr:postcode": "CO4 5HG", "addr:street": "Boxted Road", "amenity": "hospital", "fhrs:id": "1586634", "name": "St Aubyn Centre", "source:addr": "FHRS Open Data"}}, {"name": "Princess of Wales Hospital", "latitude": 52.4130778, "longitude": 0.2756768, "source": "osm", "_tags": {"addr:city": "Ely", "addr:postcode": "CB6 1DN", "addr:street": "Lynn Road", "amenity": "hospital", "fhrs:id": "336536", "name": "Princess of Wales Hospital", "source:addr": "FHRS Open Data", "wikidata": "Q85794544", "wikipedia": "en:Princess of Wales Hospital, Ely"}}, {"name": "Nuffield Health Cambridge Hospital", "latitude": 52.1901335, "longitude": 0.1237579, "source": "osm", "_tags": {"addr:city": "Cambridge", "addr:housenumber": "2-4", "addr:postcode": "CB2 8AF", "addr:street": "Trumpington Road", "amenity": "hospital", "emergency": "no", "fhrs:id": "506871", "healthcare": "hospital", "name": "Nuffield Health Cambridge Hospital", "operator": "Nuffield Health", "phone": "+44 1223 370 922", "ref:university_of_cambridge": "yes", "website": "https://www.nuffieldhealth.com/hospitals/cambridge", "wikidata": "Q42851410", "wikipedia": "en:Nuffield Health Cambridge Hospital"}}, {"name": "Memorial Hospital", "latitude": 51.4677752, "longitude": 0.063508, "source": "osm", "_tags": {"addr:city": "London", "addr:postcode": "SE18 3RG", "addr:street": "Shooters Hill", "addr:suburb": "Woolwich", "amenity": "hospital", "healthcare": "hospital", "name": "Memorial Hospital", "phone": "+44 20 8836 8500", "website": "https://www.nhs.uk/Services/hospitals/Overview/DefaultView.aspx?id=2324", "wikidata": "Q23891198"}}, {"name": "Braintree Community Hospital", "latitude": 51.8795775, "longitude": 0.5408639, "source": "osm", "_tags": {"addr:city": "Braintree", "addr:street": "Chadwick Drive", "amenity": "hospital", "emergency": "no", "healthcare": "hospital", "healthcare:speciality": "maternity", "name": "Braintree Community Hospital", "operator": "NHS", "operator:type": "government", "operator:wikidata": "Q918396"}}, {"name": "Broomfield Hospital", "latitude": 51.7754476, "longitude": 0.4646736, "source": "osm", "_tags": {"addr:city": "Chelmsford", "addr:country": "GB", "addr:postcode": "CM1 7ET", "addr:street": "Court Road", "amenity": "hospital", "contact:website": "https://www.mse.nhs.uk/broomfield-hospital", "emergency": "yes", "healthcare": "hospital", "name": "Broomfield Hospital", "operator": "NHS;Mid and South Essex NHS Foundation Trust", "operator:type": "public", "operator:wikidata": "Q918396", "phone": "+44 1245 362000", "ref": "RQ8", "ref:GB:cqc_location": "RAJ32", "survey:date": "2023-09-03", "website": "https://www.mse.nhs.uk/", "wheelchair": "yes", "wikidata": "Q4975301", "wikipedia": "en:Broomfield Hospital"}}, {"name": "Phoenix Hospital", "latitude": 51.706762, "longitude": 0.5036516, "source": "osm", "_tags": {"addr:city": "Chelmsford", "addr:postcode": "CM2 8FR", "addr:street": "West Hanningfield Road", "amenity": "hospital", "emergency": "no", "healthcare": "hospital", "name": "Phoenix Hospital", "operator": "Phoenix Hospital Group", "operator:type": "private"}}, {"name": "", "latitude": 51.6268413, "longitude": 0.2943732, "source": "osm", "_tags": {"amenity": "hospital", "building": "yes", "healthcare": "hospital"}}, {"name": "Goodmayes Hospital", "latitude": 51.5773934, "longitude": 0.1112317, "source": "osm", "_tags": {"addr:city": "Ilford", "addr:country": "GB", "addr:postcode": "IG3 8XJ", "addr:street": "Barley Lane", "amenity": "hospital", "healthcare": "hospital", "name": "Goodmayes Hospital", "operator": "North East London NHS Foundation Trust", "ref:GB:nhs_ods": "RATGM", "wikidata": "Q30293120", "wikipedia": "en:Goodmayes Hospital"}}, {"name": "St. George's Health & Wellbeing Hub", "latitude": 51.5487002, "longitude": 0.2190364, "source": "osm", "_tags": {"addr:city": "Hornchurch", "addr:housenumber": "113", "addr:postcode": "RM12 6RR", "addr:street": "Suttons Lane", "amenity": "hospital", "emergency": "no", "healthcare": "hospital", "healthcare:speciality": "community;general;blood_check;maternity;medical_imaging;geriatrics", "name": "St. George's Health & Wellbeing Hub", "operator": "NHS", "operator:type": "public", "operator:wikidata": "Q918396", "source": "https://www.nhs.uk/services/hospital/st-georges-health-and-wellbeing-hub/P8E7P"}}, {"name": "Saint Margaret's Hospital", "latitude": 51.7044115, "longitude": 0.1240188, "source": "osm", "_tags": {"amenity": "hospital", "healthcare": "hospital", "name": "Saint Margaret's Hospital", "wikidata": "Q7589867", "wikipedia": "en:St Margaret's Hospital, Epping"}}, {"name": "Cygnet Hospital Beckton", "latitude": 51.513611, "longitude": 0.0647023, "source": "osm", "_tags": {"addr:city": "London", "addr:housenumber": "23", "addr:postcode": "E6 6ZB", "addr:street": "Tunnan Leys", "amenity": "hospital", "fhrs:id": "849348", "healthcare": "hospital", "name": "Cygnet Hospital Beckton", "ref:GB:cqc_location": "1-130471820"}}, {"name": "Sudbury Community Health Centre", "latitude": 52.048746, "longitude": 0.7491372, "source": "osm", "_tags": {"addr:city": "Sudbury", "addr:housename": "Churchfield Road, Sudbury", "addr:postcode": "CO10 2DZ", "addr:street": "Church Field Road", "amenity": "hospital", "healthcare": "hospital", "name": "Sudbury Community Health Centre", "operator": "NHS", "operator:type": "public", "ref:GB:nhs_ods": "RGR53", "source:addr:postcode": "code-point_open"}}, {"name": "Halstead Hospital", "latitude": 51.9481012, "longitude": 0.6382035, "source": "osm", "_tags": {"addr:city": "Halstead", "addr:housenumber": "78", "addr:postcode": "CO9 2DL", "addr:street": "Hedingham Road", "amenity": "hospital", "name": "Halstead Hospital"}}, {"name": "Oaks Hospital", "latitude": 51.9062672, "longitude": 0.89532, "source": "osm", "_tags": {"addr:city": "Colchester", "addr:housenumber": "120", "addr:postcode": "CO4 5XR", "addr:street": "Mile End Road", "amenity": "hospital", "healthcare": "hospital", "name": "Oaks Hospital", "phone": "+44 1206 752 121"}}, {"name": "King George Hospital", "latitude": 51.5802535, "longitude": 0.1112641, "source": "osm", "_tags": {"addr:city": "Ilford", "addr:postcode": "IG3 8YB", "addr:street": "Barley Lane", "amenity": "hospital", "emergency": "yes", "healthcare": "hospital", "name": "King George Hospital", "ref:GB:nhs_ods": "RF4DG", "wikidata": "Q6411611"}}, {"name": "Wellesley Hospital", "latitude": 51.5541559, "longitude": 0.7272229, "source": "osm", "_tags": {"amenity": "hospital", "healthcare": "hospital", "name": "Wellesley Hospital", "operator": "Spire Healthcare", "ref:GB:nhs_ods": "NT313", "website": "https://www.spirehealthcare.com/spire-wellesley-hospital/", "wheelchair": "yes"}}, {"name": "Eltham Community Hospital", "latitude": 51.4492355, "longitude": 0.0537202, "source": "osm", "_tags": {"amenity": "hospital", "building": "hospital", "healthcare": "hospital", "name": "Eltham Community Hospital", "website": "https://www.nhs.uk/services/hospital/eltham-community-hospital/RPGHP", "wikidata": "Q105376589"}}, {"name": "Gravesham Community Hospital", "latitude": 51.4436692, "longitude": 0.3652955, "source": "osm", "_tags": {"addr:city": "Gravesend", "addr:postcode": "DA11 0DG", "amenity": "hospital", "healthcare": "hospital", "name": "Gravesham Community Hospital", "opening_hours": "08:00-20:00", "phone": "+44 1474 360500", "website": "https://www.nhs.uk/nhs-services/services-near-you/", "wikidata": "Q133854031"}}, {"name": "Skin Sense GP Clinic", "latitude": 51.7472464, "longitude": 0.5130039, "source": "osm", "_tags": {"addr:city": "Chelmsford", "addr:housename": "Skin Sense", "addr:housenumber": "27", "addr:postcode": "CM2 5LB", "addr:street": "Springfield Lyons Approach", "amenity": "clinic", "building": "yes", "building:levels": "2", "description": "Private GP & Medical & Aesthetic Clinic", "healthcare": "hospital", "healthcare:speciality": "general;blood_check;dermatology;allergology;gynaecology", "name": "Skin Sense GP Clinic", "source": "Bing", "start_date": "2023-03-17", "website": "https://skinsensegpclinic.com/"}}, {"name": "Baring Road Medical Centre", "latitude": 51.435425, "longitude": 0.0194302, "source": "osm", "_tags": {"addr:city": "London", "addr:housename": "Baring Road Medical Centre", "addr:housenumber": "282", "addr:postcode": "SE12 0DS", "addr:street": "Baring Road", "addr:suburb": "Grove Park", "amenity": "hospital", "building:levels": "3", "healthcare": "hospital", "healthcare:speciality": "colposcapy", "name": "Baring Road Medical Centre", "note": "Colposcopy Clinic", "operator": "NHS", "operator:wikidata": "Q918396", "phone": "+44 20 8857 5682"}}, {"name": "Jane Atkinson Health and Wellbeing Centre", "latitude": 51.5908869, "longitude": -0.0070046, "source": "osm", "_tags": {"addr:city": "London", "addr:housenumber": "714", "addr:postcode": "E17 3HP", "addr:street": "Forest Road", "amenity": "hospital", "check_date": "2025-05-26", "emergency": "no", "healthcare": "hospital", "healthcare:speciality": "psychiatry", "name": "Jane Atkinson Health and Wellbeing Centre", "operator": "North East London NHS Foundation Trust", "operator:type": "public", "ref:GB:nhs_ods": "RATTH", "was:wikidata": "Q7796687", "was:wikipedia": "en:Thorpe Coombe Hospital", "website": "https://www.nelft.nhs.uk/jane-atkinson-health-wellbeing-centre/"}}, {"name": "Glastonbury Court", "latitude": 52.2364854, "longitude": 0.6893032, "source": "osm", "_tags": {"addr:city": "Bury St Edmunds", "addr:postcode": "IP33 2EX", "addr:street": "Glastonbury Road", "amenity": "hospital", "fhrs:id": "1673697", "fixme": "Is this a care home rather than a hospital?", "name": "Glastonbury Court", "ref:GB:cqc_location": "RGR58", "source:addr": "FHRS Open Data", "website": "https://www.careuk.com/care-homes/glastonbury-court-bury-st-edmunds"}}, {"name": "Chelmer Clinic", "latitude": 51.7743028, "longitude": 0.486797, "source": "osm", "_tags": {"amenity": "hospital", "name": "Chelmer Clinic"}}, {"name": "The London Independent Hospital", "latitude": 51.5202134, "longitude": -0.0470464, "source": "osm", "_tags": {"addr:city": "London", "addr:country": "GB", "addr:housenumber": "1", "addr:place": "Stepney Green", "addr:postcode": "E1 4NL", "addr:street": "Beaumont Square", "amenity": "hospital", "contact:phone": "+44 20 7780 2400", "contact:website": "https://www.bmihealthcare.co.uk/hospitals/bmi-the-london-independent-hospital", "fhrs:id": "41389", "healthcare": "hospital", "name": "The London Independent Hospital", "operator": "Circle Health Group", "operator:type": "private", "ref:GB:cqc_location": "1-128766965", "ref:GB:nhs_ods": "NT422"}}, {"name": "Brookfields Hospital", "latitude": 52.1974482, "longitude": 0.1531032, "source": "osm", "_tags": {"amenity": "hospital", "name": "Brookfields Hospital", "type": "site"}}, {"name": "Rosie Maternity Hospital", "latitude": 52.1739625, "longitude": 0.139101, "source": "osm", "_tags": {"addr:city": "Cambridge", "addr:postcode": "CB2 0SW", "amenity": "hospital", "building": "hospital", "layer": "1", "name": "Rosie Maternity Hospital", "nohousenumber": "yes", "operator": "Cambridge University Hospitals NHS Foundation Trust", "ref:GB:cqc_location": "RGT01", "ref:university_of_cambridge": "yes", "type": "multipolygon", "wikidata": "Q7368893"}}, {"name": "Addenbrooke's Hospital", "latitude": 52.1740297, "longitude": 0.1411717, "source": "osm", "_tags": {"amenity": "hospital", "name": "Addenbrooke's Hospital", "operator": "Cambridge University Hospitals NHS Foundation Trust", "ref:GB:cqc_location": "RGT01", "type": "site", "wikidata": "Q130282"}}, {"name": "Newham Centre for Mental Health", "latitude": 51.5202848, "longitude": 0.0388136, "source": "osm", "_tags": {"addr:city": "London", "addr:postcode": "E13 8SP", "addr:street": "Cherry Tree Way", "addr:suburb": "Plaistow", "amenity": "hospital", "building": "yes", "emergency": "no", "healthcare": "hospital", "name": "Newham Centre for Mental Health", "operator": "East London NHS Foundation Trust", "ref:GB:cqc_location": "RWK46", "ref:GB:uprn": "10012837041", "type": "multipolygon", "website": "https://www.elft.nhs.uk/services/newham-centre-mental-health"}}, {"name": "City & Hackney Centre for Mental Health", "latitude": 51.5503279, "longitude": -0.0444111, "source": "osm", "_tags": {"amenity": "hospital", "building": "hospital", "building:levels": "2", "healthcare": "hospital", "name": "City & Hackney Centre for Mental Health", "nohousenumber": "yes", "official_name": "Adult Mental Health Services - City and Hackney Directorate", "ref:GB:cqc_location": "RWK62", "roof:levels": "0", "roof:shape": "quadruple_saltbox", "type": "multipolygon"}}]