[{"name": "Столінская ЦРБ", "latitude": 51.8970586, "longitude": 26.8602847, "source": "osm", "_tags": {"amenity": "hospital", "name": "Столінская ЦРБ", "name:be": "Столінская ЦРБ", "name:ru": "Столинская ЦРБ"}}, {"name": "Лунінецкая бальніца сястрынскага догляду", "latitude": 52.2410295, "longitude": 26.8098727, "source": "osm", "_tags": {"amenity": "hospital", "healthcare": "hospital", "name": "Лунінецкая бальніца сястрынскага догляду", "name:be": "Лунінецкая бальніца сястрынскага догляду", "name:ru": "Лунинецкая больница сестринского ухода", "phone": "41-2-59"}}, {"name": "Дом састарэлых", "latitude": 52.2407874, "longitude": 26.8034876, "source": "osm", "_tags": {"amenity": "hospital", "name": "Дом састарэлых", "name:be": "Дом састарэлых", "name:ru": "Дом престарелых"}}, {"name": "Залеская амбулаторыя ўрача агульнай практыкі", "latitude": 52.2408873, "longitude": 26.8100132, "source": "osm", "_tags": {"amenity": "hospital", "healthcare": "hospital", "name": "Залеская амбулаторыя ўрача агульнай практыкі", "name:be": "Залеская амбулаторыя ўрача агульнай практыкі", "name:ru": "Залесская амбулатория врача общей практики"}}, {"name": "Лячэбны корпус Пінская дзіцячая бальніца", "latitude": 52.1364943, "longitude": 26.1064406, "source": "osm", "_tags": {"amenity": "hospital", "healthcare": "hospital", "name": "Лячэбны корпус Пінская дзіцячая бальніца", "name:be": "Лячэбны корпус Пінская дзіцячая бальніца", "name:ru": "Лечебный корпус Пинская детская больница", "wheelchair": "no"}}, {"name": "Прыёмнае аддзяленне Дзіцячая цэнтральная бальніца", "latitude": 52.1364153, "longitude": 26.1059833, "source": "osm", "_tags": {"amenity": "hospital", "healthcare": "hospital", "name": "Прыёмнае аддзяленне Дзіцячая цэнтральная бальніца", "name:be": "Прыёмнае аддзяленне Дзіцячая цэнтральная бальніца", "name:ru": "Приёмное отделение Детская центральная больница", "opening_hours": "Mo-Su 08:00-15:00, 17:00-19:00 \"посещение больных\"", "wheelchair": "no"}}, {"name": "Пінская дзіцячая бальніца", "latitude": 52.1365461, "longitude": 26.1067356, "source": "osm", "_tags": {"amenity": "hospital", "healthcare": "hospital", "name": "Пінская дзіцячая бальніца", "name:be": "Пінская дзіцячая бальніца", "name:ru": "Пинская детская больница", "opening_hours": "24/7 || Mo-Su 08:00-15:00, 17:00-19:00 \"посещение детей\" || Mo-Su 11:00-13:00, 17:00-19:00 \"приём передач\"", "wheelchair": "no", "wikidata": "Q105235742"}}, {"name": "", "latitude": 52.3372011, "longitude": 26.0023504, "source": "osm", "_tags": {"amenity": "hospital", "building": "yes", "building:levels": "2"}}, {"name": "Пінскі псіханеўралагічны дом-інтэрнат для састарэлых і інвалідаў", "latitude": 52.134265, "longitude": 26.1545829, "source": "osm", "_tags": {"amenity": "hospital", "barrier": "fence", "healthcare": "hospital", "name": "Пінскі псіханеўралагічны дом-інтэрнат для састарэлых і інвалідаў", "name:be": "Пінскі псіханеўралагічны дом-інтэрнат для састарэлых і інвалідаў", "name:ru": "Пинский психоневрологический дом-интернат для престарелых и инвалидов"}}, {"name": "", "latitude": 52.2468917, "longitude": 26.8212177, "source": "osm", "_tags": {"amenity": "hospital", "barrier": "fence", "emergency": "yes"}}, {"name": "", "latitude": 52.2498006, "longitude": 26.8181508, "source": "osm", "_tags": {"amenity": "hospital"}}, {"name": "", "latitude": 52.2406743, "longitude": 26.8098372, "source": "osm", "_tags": {"amenity": "hospital", "healthcare": "hospital"}}, {"name": "", "latitude": 52.2537084, "longitude": 26.7919085, "source": "osm", "_tags": {"amenity": "hospital", "emergency": "yes"}}, {"name": "", "latitude": 52.2414818, "longitude": 26.803475, "source": "osm", "_tags": {"amenity": "hospital", "healthcare": "hospital"}}, {"name": "Зарічненська центральна лікарня", "latitude": 51.8246946, "longitude": 26.120999, "source": "osm", "_tags": {"amenity": "hospital", "building": "yes", "building:use": "medical", "healthcare": "hospital", "name": "Зарічненська центральна лікарня", "name:uk": "Зарічненська центральна лікарня"}}, {"name": "Столінская цэнтральная раённая бальніца", "latitude": 51.8969782, "longitude": 26.8604833, "source": "osm", "_tags": {"amenity": "hospital", "healthcare": "hospital", "name": "Столінская цэнтральная раённая бальніца", "name:be": "Столінская цэнтральная раённая бальніца", "name:ru": "Столинская центральная районная больница"}}, {"name": "", "latitude": 51.5980746, "longitude": 26.5718403, "source": "osm", "_tags": {"amenity": "hospital", "healthcare": "hospital"}}, {"name": "Сухотны дыспансер", "latitude": 52.119737, "longitude": 26.1094286, "source": "osm", "_tags": {"amenity": "hospital", "healthcare": "hospital", "name": "Сухотны дыспансер", "name:be": "Сухотны дыспансер", "name:ru": "Туберкулёзный диспансер"}}, {"name": "ЛІкарня", "latitude": 51.7158246, "longitude": 26.8304313, "source": "osm", "_tags": {"addr:housenumber": "15", "addr:postcode": "34132", "addr:street": "Каплуна", "amenity": "hospital", "healthcare": "hospital", "healthcare:speciality": "psychiatry;chiropractic;ophthalmology;orthopaedics;cardiology", "name": "ЛІкарня", "name:uk": "ЛІкарня", "operator": "Хомич", "operator:type": "private"}}, {"name": "Миляцький центр первинної медико-санітарної допомоги", "latitude": 51.676369, "longitude": 26.7430404, "source": "osm", "_tags": {"addr:housenumber": "122а", "addr:postcode": "34133", "addr:street": "вулиця Василевського", "amenity": "hospital", "healthcare": "hospital", "name": "Миляцький центр первинної медико-санітарної допомоги", "name:uk": "Миляцький центр первинної медико-санітарної допомоги"}}, {"name": "", "latitude": 51.8706998, "longitude": 26.4994876, "source": "osm", "_tags": {"amenity": "hospital", "healthcare": "hospital"}}, {"name": "Пінская цэнтральная бальніца", "latitude": 52.1459269, "longitude": 26.0911175, "source": "osm", "_tags": {"amenity": "hospital", "healthcare": "hospital", "name": "Пінская цэнтральная бальніца", "name:be": "Пінская цэнтральная бальніца", "name:ru": "Пинская центральная больница", "wheelchair": "yes", "wikidata": "Q105234265"}}, {"name": "Стружская амбулаторыя доктара агульнай практыкі", "latitude": 51.8545036, "longitude": 26.890535, "source": "osm", "_tags": {"amenity": "hospital", "emergency": "no", "healthcare": "hospital", "name": "Стружская амбулаторыя доктара агульнай практыкі", "name:be": "Стружская амбулаторыя доктара агульнай практыкі", "name:ru": "Стружская амбулатория врача общей практики"}}, {"name": "Лемяшэвіцкая бальніца", "latitude": 52.0860595, "longitude": 26.3227761, "source": "osm", "_tags": {"amenity": "hospital", "name": "Лемяшэвіцкая бальніца", "name:be": "Лемяшэвіцкая бальніца", "name:ru": "Лемешевичская больница"}}]