[{"name": "Szpital Rehabilitacyjny", "latitude": 51.4642939, "longitude": 16.9031224, "source": "osm", "_tags": {"amenity": "hospital", "healthcare": "hospital", "name": "Szpital Rehabilitacyjny"}}, {"name": "Oddział Psychiatryczny w Siekowie", "latitude": 52.0497978, "longitude": 16.3464546, "source": "osm", "_tags": {"addr:city:simc": "0375562", "addr:housenumber": "80", "addr:place": "Siekowo", "addr:postcode": "64-234", "amenity": "hospital", "email": "wcn@wcn-koscian.pl", "name": "Oddział Psychiatryczny w Siekowie", "name:en": "Open Psychiatric Ward in Siekowo", "opening_hours": "24/7", "phone": "+48655496120", "website": "https://wcn-koscian.pl"}}, {"name": "Oddział Leczenia Uzależnień 1, WCN w Kościanie", "latitude": 52.076702, "longitude": 16.6258305, "source": "osm", "_tags": {"addr:postcode": "64-000", "amenity": "hospital", "healthcare": "counselling", "name": "Oddział Leczenia Uzależnień 1, WCN w Kościanie", "name:en": "Rehabilitation center for alcohol addiction", "opening_hours": "24/7", "wheelchair": "yes"}}, {"name": "Rozbudowa Oddziału Chirurgii Ręki Szpitala Klinicznego Ortopedyczno-Rehabilitacyjnego im. W. Degi.", "latitude": 52.390294, "longitude": 16.9218944, "source": "osm", "_tags": {"addr:city": "Poznań", "addr:street": "Krzyżowa", "amenity": "hospital", "healthcare": "hospital", "healthcare:speciality": "surgery", "name": "Rozbudowa Oddziału Chirurgii Ręki Szpitala Klinicznego Ortopedyczno-Rehabilitacyjnego im. W. Degi."}}, {"name": "Klinika Pro Bono", "latitude": 52.377134, "longitude": 16.8805414, "source": "osm", "_tags": {"amenity": "hospital", "building": "commercial", "building:levels": "2", "name": "Klinika Pro Bono", "source:geometry": "Geopoz: Ewidencja gruntow i budynkow"}}, {"name": "Samodzielny Publiczny Zakład Opieki Zdrowotnej - Szpital Powiatowy im. doktora Kazimierza Hołogi w Nowym Tomyślu", "latitude": 52.3160622, "longitude": 16.1410846, "source": "osm", "_tags": {"amenity": "hospital", "email": "sekretariat@szpital-nowytomysl.pl", "healthcare": "hospital", "name": "Samodzielny Publiczny Zakład Opieki Zdrowotnej - Szpital Powiatowy im. doktora Kazimierza Hołogi w Nowym Tomyślu", "phone": "0 61 44 27 301", "website": "https://www.szpital-nowytomysl.pl"}}, {"name": "Wojewódzki Szpital Wielospecjalistyczny im. dr Jana Jonstona w Lesznie", "latitude": 51.8393113, "longitude": 16.6070576, "source": "osm", "_tags": {"addr:city": "Leszno", "addr:full": "ul. Jana Kiepury 45, 64-100 Leszno", "addr:housenumber": "45", "addr:postcode": "64-100", "addr:street": "Jana Kiepury", "amenity": "hospital", "contact:phone": "+48 (65) 52 53 195", "emergency": "yes", "healthcare": "hospital", "healthcare:speciality": "general;cardiology;internal;otolaryngology;surgery;chiropractic;orthopaedics;gynaecology;emergency;biology;radiology;osteopathy", "name": "Wojewódzki Szpital Wielospecjalistyczny im. dr Jana Jonstona w Lesznie", "website": "https://wsz.leszno.pl/", "wheelchair": "yes"}}, {"name": "Szpital Rehabilitacyjny MSWiA", "latitude": 51.8973881, "longitude": 16.7855835, "source": "osm", "_tags": {"addr:housenumber": "63", "addr:place": "Górzno", "addr:postcode": "64-120", "alt_name": "SP ZOZ MSWiA Centrum Rehabilitacji w Górznie", "amenity": "hospital", "building": "hospital", "email": "kontakt@rehabilitacjamsw.pl", "emergency": "no", "heritage": "2", "heritage:operator": "nid", "historic": "palace", "name": "Szpital Rehabilitacyjny MSWiA", "official_name": "Samodzielny Publiczny Zakład Opieki Zdrowotnej Ministerstwa Spraw Wewnętrznych Centrum Rehabilitacji w Górznie", "phone": "+48 65 53 61 200; +48 65 53 69 452", "ref:nid": "1486/A", "source:addr": "krzemieniewo.e-mapa.net", "website": "https://www.rehabilitacjamsw.pl/"}}, {"name": "Wielkopolskie Centrum Pulmonologii i Torakochirurgii im. Eugenii i Janusza Zeylandów", "latitude": 52.4120783, "longitude": 16.8874905, "source": "osm", "_tags": {"amenity": "hospital", "email": "poznan@wcpit.pl", "healthcare": "hospital", "name": "Wielkopolskie Centrum Pulmonologii i Torakochirurgii im. Eugenii i Janusza Zeylandów", "website": "https://wcpit.pl/"}}, {"name": "Szpital Kliniczny Przemienienia Pańskiego oddział ul. Szamarzewskiego", "latitude": 52.4134823, "longitude": 16.8798092, "source": "osm", "_tags": {"amenity": "hospital", "fax": "+48 61 852 94 72", "healthcare": "hospital", "name": "Szpital Kliniczny Przemienienia Pańskiego oddział ul. Szamarzewskiego", "operator": "Uniwersytet Medyczny im. Karola Marcinkowskiego w Poznaniu", "phone": "+48 61 854 90 00", "website": "https://www.skpp.edu.pl"}}, {"name": "Wielkopolskie Centrum Neuropsychiatryczne imienia Oskara Bielawskiego", "latitude": 52.0840473, "longitude": 16.6391676, "source": "osm", "_tags": {"amenity": "hospital", "healthcare": "hospital", "healthcare:speciality": "neuropsychiatry", "name": "Wielkopolskie Centrum Neuropsychiatryczne imienia Oskara Bielawskiego"}}, {"name": "Szpital Kliniczny im. Karola Jonschera", "latitude": 52.4119623, "longitude": 16.8798242, "source": "osm", "_tags": {"addr:city": "Poznań", "addr:housenumber": "27/33", "addr:street": "Szpitalna", "amenity": "hospital", "emergency": "yes", "fax": "+48 61 848 33 62", "healthcare": "hospital", "healthcare:speciality": "psychiatry;paediatrics", "name": "Szpital Kliniczny im. Karola Jonschera", "note": "Oddział psychiatryczny dla dzieci i dorosłych, pozostałe oddziały tylko dla dzieci", "official_name": "Szpital Kliniczny im. Karola Jonschera Uniwersytetu Medycznego im. Karola Marcinkowskiego w Poznaniu", "operator": "Uniwersytet Medyczny im. Karola Marcinkowskiego w Poznaniu", "operator:type": "university", "phone": "+48 61 849 12 00", "website": "https://www.skp.ump.edu.pl/"}}, {"name": "Ginekologiczno-Położniczy Szpital Kliniczny", "latitude": 52.4094458, "longitude": 16.8964382, "source": "osm", "_tags": {"addr:city": "Poznań", "addr:housenumber": "33", "addr:postcode": "60-535", "addr:street": "Polna", "amenity": "hospital", "emergency": "yes", "fax": "+48 61 841 92 25", "healthcare": "hospital", "loc_name": "Szpital na Polnej", "name": "Ginekologiczno-Położniczy Szpital Kliniczny", "old_name": "Ginekologiczno-Położniczy Szpital Kliniczny nr 3", "operator": "Uniwersytet Medyczny im. Karola Marcinkowskiego w Poznaniu", "phone": "+48 61 841 92 24", "website": "http://www.gpsk.am.poznan.pl/", "wikidata": "Q9352164", "wikipedia": "pl:Ginekologiczno-Położniczy Szpital Kliniczny im. Heliodora Święcickiego Uniwersytetu Medycznego im. Karola Marcinkowskiego w Poznaniu"}}, {"name": "Szpital Powiatowy", "latitude": 51.6156498, "longitude": 16.8429512, "source": "osm", "_tags": {"amenity": "hospital", "healthcare": "hospital", "name": "Szpital Powiatowy"}}, {"name": "Uniwersytecki Szpital Kliniczny w Poznaniu", "latitude": 52.403022, "longitude": 16.9359251, "source": "osm", "_tags": {"addr:city": "Poznań", "addr:housenumber": "1/2", "addr:postcode": "61-848", "addr:street": "Długa", "amenity": "hospital", "building": "hospital", "building:levels": "4", "email": "szpital@skpp.edu.pl", "fax": "+48 61 852 94 72", "healthcare": "hospital", "image": "https://photos.app.goo.gl/YHZb2JWa16eAtfq86", "name": "Uniwersytecki Szpital Kliniczny w Poznaniu", "operator": "Uniwersytet Medyczny im. Karola Marcinkowskiego w Poznaniu", "phone": "+48 61 854 90 00", "url": "https://fotopolska.eu/Dluga_1_Poznan?map_z=18", "website": "https://www.skpp.edu.pl", "wikidata": "Q9352134", "wikipedia": "pl:Szpital Kliniczny Przemienienia Pańskiego Uniwersytetu Medycznego im. Karola Marcinkowskiego w Poznaniu"}}, {"name": "Szpital Kliniczny Przemienienia Pańskiego oddział ul. Długa", "latitude": 52.4031044, "longitude": 16.935823, "source": "osm", "_tags": {"addr:city": "Poznań", "addr:housenumber": "1/2", "addr:postcode": "61-848", "addr:street": "Długa", "amenity": "hospital", "email": "szpital@skpp.edu.pl", "fax": "+48 61 852 94 72", "healthcare": "hospital", "name": "Szpital Kliniczny Przemienienia Pańskiego oddział ul. Długa", "operator": "Uniwersytet Medyczny im. Karola Marcinkowskiego w Poznaniu", "phone": "+48 61 854 90 00", "website": "https://www.skpp.edu.pl", "wikidata": "Q9352134", "wikipedia": "pl:Szpital Kliniczny Przemienienia Pańskiego Uniwersytetu Medycznego im. Karola Marcinkowskiego w Poznaniu"}}, {"name": "Wielkopolskie Centrum Onkologii", "latitude": 52.4019955, "longitude": 16.9354805, "source": "osm", "_tags": {"amenity": "hospital", "name": "Wielkopolskie Centrum Onkologii", "wikidata": "Q9373088", "wikipedia": "pl:Wielkopolskie Centrum Onkologii"}}, {"name": "Leszczyńskie Centrum Medyczne Ventriculus", "latitude": 51.8423686, "longitude": 16.5694259, "source": "osm", "_tags": {"addr:city": "Leszno", "addr:postcode": "64-100", "addr:street": "Słowiańska", "amenity": "hospital", "healthcare": "hospital", "name": "Leszczyńskie Centrum Medyczne Ventriculus", "operator": "Leszczyńskie Centrum Medyczne Ventriculus", "phone": "65 520 65 80", "website": "https://www.ventriculus.pl/", "wheelchair": "yes"}}, {"name": "SP ZOZ w Wolsztynie", "latitude": 52.1163178, "longitude": 16.1177327, "source": "osm", "_tags": {"amenity": "hospital", "healthcare": "hospital", "name": "SP ZOZ w Wolsztynie"}}, {"name": "Uniwersytecki Szpital Kliniczny", "latitude": 52.4033956, "longitude": 16.8869164, "source": "osm", "_tags": {"addr:city": "Poznań", "addr:housenumber": "49", "addr:postcode": "60-355", "addr:street": "Stanisława Przybyszewskiego", "amenity": "hospital", "healthcare": "hospital", "name": "Uniwersytecki Szpital Kliniczny", "official_name": "Uniwersytecki Szpital Kliniczny w Poznaniu", "old_name": "Szpital Kliniczny im. Heliodora Święcickiego; Szpital Kliniczny nr 2 im. Heliodora Święcickiego", "operator": "Uniwersytet Medyczny im. Karola Marcinkowskiego w Poznaniu"}}, {"name": "Szpital Ginekologiczno-Położniczy im. Świętej Rodziny", "latitude": 52.3959099, "longitude": 16.8946863, "source": "osm", "_tags": {"addr:city": "Poznań", "addr:housenumber": "18", "addr:street": "Kazimierza Jarochowskiego", "amenity": "hospital", "email": "uwagi@szoz.pl", "healthcare": "hospital", "healthcare:speciality": "gynaecology;urology", "name": "Szpital Ginekologiczno-Położniczy im. Świętej Rodziny", "operator": "SZOZ nad Matką i Dzieckiem w Poznaniu", "source": "http://ump.waw.pl/ retrieved 15:05:23 06/30/09 (UMP-Poznan/src/POZNAN.ulice.txt)", "website": "https://szoz.pl"}}, {"name": "Głogowski Szpital Powiatowy", "latitude": 51.6552222, "longitude": 16.0770405, "source": "osm", "_tags": {"addr:city": "Głogów", "addr:housenumber": "15", "addr:postcode": "67-200", "addr:street": "Tadeusza Kościuszki", "amenity": "hospital", "healthcare": "hospital", "name": "Głogowski Szpital Powiatowy", "operator": "Głogowski Szpital Powiatowy sp. z o.o.", "website": "https://szpital.glogow.pl/", "wikidata": "Q9352155", "wikipedia": "pl:Szpital im. Jana Pawła II w Głogowie"}}, {"name": "", "latitude": 52.2463308, "longitude": 16.8126084, "source": "osm", "_tags": {"amenity": "hospital", "description": "Dawny zespół sanatoryjny \"Staszycówka\"", "healthcare": "hospital", "heritage": "2", "heritage:operator": "nid", "historic": "yes", "old_name": "Zespół Sanatoryjny \"Staszycówka\"", "ref:nid": "1845/A z dn. 1981-03-25", "start_date": "1883"}}, {"name": "Ortopedyczno-Rehabilitacyjny Szpital Kliniczny im. Wiktora Degi", "latitude": 52.3893858, "longitude": 16.9213404, "source": "osm", "_tags": {"addr:city": "Poznań", "addr:country": "PL", "addr:postcode": "61-544", "addr:street": "28 Czerwca 1956 roku", "amenity": "hospital", "healthcare": "hospital", "name": "Ortopedyczno-Rehabilitacyjny Szpital Kliniczny im. Wiktora Degi", "official_name": "Ortopedyczno-Rehabilitacyjny Szpital Kliniczny im. Wiktora Degi Uniwersytetu Medycznego w Poznaniu", "old_name": "Ortopedyczno-Rehabilitacyjny Szpital Kliniczny nr 4 im. Wiktora Degi", "operator": "Uniwersytet Medyczny im. Karola Marcinkowskiego w Poznaniu", "operator:type": "public", "phone": "+48 61 831 02 50", "source:addr": "EMUiA (emuia.geoportal.gov.pl)", "website": "http://www.orsk.ump.edu.pl", "wikidata": "Q11799358", "wikipedia": "pl:Ortopedyczno-Rehabilitacyjny Szpital Kliniczny im. Wiktora Degi Uniwersytetu Medycznego im. Karola Marcinkowskiego w Poznaniu"}}, {"name": "Centrum Medyczne HCP - Szpitala im. Św. Jana Pawła II", "latitude": 52.3832938, "longitude": 16.9116681, "source": "osm", "_tags": {"addr:city": "Poznań", "addr:housenumber": "194", "addr:postcode": "61-485", "addr:street": "28 Czerwca 1956 roku", "amenity": "hospital", "healthcare": "hospital", "name": "Centrum Medyczne HCP - Szpitala im. Św. Jana Pawła II", "official_name": "Szpitala im. Św. Jana Pawła II", "operator": "Centrum Medyczne HCP Sp. z o.o."}}, {"name": "Uniwersytecki Szpital Kliniczny", "latitude": 52.4055568, "longitude": 16.9025697, "source": "osm", "_tags": {"amenity": "hospital", "healthcare": "hospital", "name": "Uniwersytecki Szpital Kliniczny", "official_name": "Uniwersytecki Szpital Kliniczny w Poznaniu", "old_name": "Szpital Kliniczny im. Heliodora Święcickiego Uniwersytetu Medycznego im. Karola Marcinkowskiego; Specjalistyczny Szpital Kliniczny Uniwersytetu Medycznego im. Karola Marcinkowskiego", "operator": "Uniwersytet Medyczny im. Karola Marcinkowskiego w Poznaniu", "phone": "+48 61 854 78 00", "wikidata": "Q9340159", "wikipedia": "pl:Szpital przy ul. Grunwaldzkiej w Poznaniu"}}, {"name": "Szpital Miejski im. Franciszka Raszei", "latitude": 52.4132714, "longitude": 16.9134564, "source": "osm", "_tags": {"amenity": "hospital", "emergency": "yes", "healthcare": "hospital", "name": "Szpital Miejski im. Franciszka Raszei", "website": "https://www.raszeja.poznan.pl/", "wikidata": "Q9352152", "wikipedia": "pl:Szpital im. Franciszka Raszei w Poznaniu"}}, {"name": "Nowy Szpital we Wschowie", "latitude": 51.8046826, "longitude": 16.3222145, "source": "osm", "_tags": {"amenity": "hospital", "email": "sekretariat.wschowa@nowyszpital.pl", "healthcare": "hospital", "name": "Nowy Szpital we Wschowie", "operator": "Grupa Nowy Szpital Holding S.A.", "phone": "+48 41 240 1400", "website": "https://www.nowyszpital.pl/"}}, {"name": "Samodzielny Publiczny Zakład Opieki Zdrowotnej w Grodzisku Wielkopolskim", "latitude": 52.2287211, "longitude": 16.3663955, "source": "osm", "_tags": {"amenity": "hospital", "email": "szpital@spzoz-grodzisk.pl", "healthcare": "hospital", "name": "Samodzielny Publiczny Zakład Opieki Zdrowotnej w Grodzisku Wielkopolskim", "phone": "61 44 36 500", "website": "https://spzoz-grodzisk.pl"}}, {"name": "Szpital im. Prof. Stefana Tytusa Dąbrowskiego w Puszczykowie", "latitude": 52.2627622, "longitude": 16.8679389, "source": "osm", "_tags": {"amenity": "hospital", "email": "kancelaria@szpitalwpuszczykowie.com.pl", "name": "Szpital im. Prof. Stefana Tytusa Dąbrowskiego w Puszczykowie", "phone": "61 89 84 000", "website": "https://www.szpitalwpuszczykowie.com.pl"}}, {"name": "Centrum rehabilitacji im. prof. Mieczysława Walczaka", "latitude": 51.9019436, "longitude": 16.6739167, "source": "osm", "_tags": {"amenity": "hospital", "healthcare": "hospital", "name": "Centrum rehabilitacji im. prof. Mieczysława Walczaka"}}, {"name": "Samodzielny Publiczny Zespół Opieki Zdrowotnej w Kościanie", "latitude": 52.0844505, "longitude": 16.6478575, "source": "osm", "_tags": {"amenity": "hospital", "email": "sekretariat@szpital.koscian.pl", "healthcare": "hospital", "name": "Samodzielny Publiczny Zespół Opieki Zdrowotnej w Kościanie", "phone": "+48 65 512 08 55", "short_name": "SPZOZ Kościan"}}, {"name": "Polkowickie Centrum Usług Zdrowotnych", "latitude": 51.5080307, "longitude": 16.065224, "source": "osm", "_tags": {"amenity": "hospital", "healthcare": "hospital", "name": "Polkowickie Centrum Usług Zdrowotnych", "short_name": "PCUZ Polkowice", "website": "https://pcuz.pl/"}}, {"name": "Certus", "latitude": 52.3926316, "longitude": 16.8598648, "source": "osm", "_tags": {"amenity": "hospital", "landuse": "commercial", "name": "Certus", "official_name": "Prywatna Lecznica Certus Sp. z o.o. Szpital i Ambulatorium", "phone": "+48 61 860 42 00", "short_name": "Szpital i Ambulatorium Prywatnej Lecznicy Certus", "website": "https://certus.med.pl/"}}, {"name": "Oddział Leczenia Uzależnień 1, WCN w Kościanie", "latitude": 52.0764329, "longitude": 16.6257033, "source": "osm", "_tags": {"amenity": "hospital", "healthcare": "hospital", "name": "Oddział Leczenia Uzależnień 1, WCN w Kościanie", "wheelchair": "yes"}}, {"name": "Uniwersytecki Szpital Kliniczny", "latitude": 52.4041364, "longitude": 16.8945547, "source": "osm", "_tags": {"addr:city": "Poznań", "addr:housenumber": "49", "addr:postcode": "60-355", "addr:street": "Stanisława Przybyszewskiego", "amenity": "hospital", "email": "szpital@usk.poznan.pl", "fax": "+48 61 867 12 32", "name": "Uniwersytecki Szpital Kliniczny", "official_name": "Uniwersytecki Szpital Kliniczny w Poznaniu", "old_name": "Szpital Kliniczny im. Heliodora Święcickiego; Szpital Kliniczny nr 2 im. Heliodora Święcickiego", "operator": "Uniwersytet Medyczny im. Karola Marcinkowskiego w Poznaniu", "phone": "+48 61 869 11 00", "type": "site", "website": "https://skhs.pl/", "wikidata": "Q14447094", "wikipedia": "pl:Uniwersytecki Szpital Kliniczny w Poznaniu"}}, {"name": "Szpital Kliniczny Przemienienia Pańskiego", "latitude": 52.402373, "longitude": 16.9334858, "source": "osm", "_tags": {"amenity": "hospital", "fax": "+48 61 852 94 72", "name": "Szpital Kliniczny Przemienienia Pańskiego", "official_name": "Szpital Kliniczny Przemienienia Pańskiego Uniwersytetu Medycznego im. Karola Marcinkowskiego w Poznaniu", "old_name": "Szpital Kliniczny nr 1 Przemienienia Pańskiego", "operator": "Uniwersytet Medyczny im. Karola Marcinkowskiego w Poznaniu", "phone": "+48 61 854 90 00", "type": "site", "website": "https://www.skpp.edu.pl"}}]