[{"name": "Wantage Community Hospital", "latitude": 51.5896327, "longitude": -1.4187676, "source": "osm", "_tags": {"amenity": "hospital", "healthcare": "hospital", "name": "Wantage Community Hospital"}}, {"name": "Horton Midwifery-led Unit", "latitude": 52.053652, "longitude": -1.3335016, "source": "osm", "_tags": {"addr:city": "Banbury", "addr:housename": "Horton General Hospital", "addr:postcode": "OX16 9AL", "addr:street": "Oxford Road", "amenity": "hospital", "check_date": "2025-04-08", "healthcare": "hospital", "name": "Horton Midwifery-led Unit", "operator": "NHS", "operator:type": "public", "operator:wikidata": "Q918396", "phone": "+44 1295 229459", "website": "https://www.ouh.nhs.uk/women/maternity/units/horton/default.aspx"}}, {"name": "George Elliot Medical Centre", "latitude": 52.4191685, "longitude": -1.5069566, "source": "osm", "_tags": {"addr:city": "Coventry", "addr:country": "GB", "addr:housenumber": "178", "addr:postcode": "CV1 4JH", "addr:street": "Foleshill Road", "amenity": "hospital", "healthcare": "hospital", "name": "George Elliot Medical Centre"}}, {"name": "Hospital Car Park", "latitude": 52.0661488, "longitude": -1.6229243, "source": "osm", "_tags": {"amenity": "hospital", "healthcare": "hospital", "name": "Hospital Car Park", "operator": "NHS"}}, {"name": "John Radcliffe Hospital", "latitude": 51.7641092, "longitude": -1.2194901, "source": "osm", "_tags": {"addr:city": "Oxford", "addr:postcode": "OX3 9DU", "addr:street": "Headley Way", "addr:suburb": "Headington", "amenity": "hospital", "contact:phone": "+44 300 304 7777", "contact:website": "https://www.ouh.nhs.uk/hospitals/jr/", "emergency": "yes", "healthcare": "hospital", "loc_name": "The JR", "name": "John Radcliffe Hospital", "short_name": "JR Hospital", "source": "yahoo_imagery", "wikidata": "Q6254080", "wikipedia": "en:John Radcliffe Hospital"}}, {"name": "Nuffield Orthopaedic Centre", "latitude": 51.7545432, "longitude": -1.2090151, "source": "osm", "_tags": {"amenity": "hospital", "healthcare": "hospital", "name": "Nuffield Orthopaedic Centre", "source": "yahoo_imagery", "wikidata": "Q7068714"}}, {"name": "The Oxford Centre for Diabetes, Endocrinology and Metabolism 1", "latitude": 51.7477485, "longitude": -1.2138996, "source": "osm", "_tags": {"alt_name": "OCDEM 1", "building": "hospital", "healthcare": "hospital", "healthcare:speciality": "endocrinology", "name": "The Oxford Centre for Diabetes, Endocrinology and Metabolism 1"}}, {"name": "Warneford Hospital", "latitude": 51.7506708, "longitude": -1.2214959, "source": "osm", "_tags": {"amenity": "hospital", "emergency": "no", "healthcare": "hospital", "name": "Warneford Hospital", "note": "Fixed the size of the Warnford Mental Hospital facility and added a very new path stucure though a newly cut down piece of woodland. Purpose for it is unclear.", "wikidata": "Q14956785"}}, {"name": "Atrium Health", "latitude": 52.408831, "longitude": -1.518724, "source": "osm", "_tags": {"addr:housename": "Centre for Exercise & Health Unit 1, Watch Cl, Coventry CV1 3LN", "amenity": "hospital", "building": "yes", "contact:phone": "+44 2476 234570", "emergency": "no", "healthcare": "hospital", "healthcare:speciality": "community", "name": "Atrium Health", "operator": "NHS", "operator:type": "government_facility-public", "operator:wikidata": "Q918396", "website": "https://www.atrium-health.co.uk/"}}, {"name": "Churchill Hospital", "latitude": 51.7491861, "longitude": -1.2129786, "source": "osm", "_tags": {"amenity": "hospital", "healthcare": "hospital", "name": "Churchill Hospital", "nohousenumber": "yes", "phone": "+44 300 304 7777", "website": "https://%20www.ouh.nhs.uk/hospitals/churchhill/"}}, {"name": "The Manor Hospital", "latitude": 51.7602574, "longitude": -1.2154791, "source": "osm", "_tags": {"amenity": "hospital", "emergency": "no", "healthcare": "hospital", "name": "The Manor Hospital", "operator": "Nuffield Health", "operator:type": "private", "operator:wikidata": "Q7068711", "source:geometry": "Bing", "wikidata": "Q113379692"}}, {"name": "Princess of Wales Community Hospital", "latitude": 52.343695, "longitude": -2.0559671, "source": "osm", "_tags": {"addr:city": "Bromsgrove", "addr:postcode": "B61 0BB", "addr:street": "Stourbridge Road", "amenity": "hospital", "fhrs:id": "672379", "healthcare": "hospital", "name": "Princess of Wales Community Hospital"}}, {"name": "Solihull Hospital", "latitude": 52.4173563, "longitude": -1.7747337, "source": "osm", "_tags": {"amenity": "hospital", "emergency": "yes", "healthcare": "hospital", "name": "Solihull Hospital", "source": "visual survey;estimate", "wheelchair": "yes", "wikidata": "Q30280768", "wikipedia": "en:Solihull Hospital"}}, {"name": "The Horton General Hospital", "latitude": 52.0540058, "longitude": -1.3358443, "source": "osm", "_tags": {"amenity": "hospital", "check_date": "2025-05-18", "emergency": "yes", "healthcare": "hospital", "healthcare:speciality": "paediatrics;orthopaedics;general;emergency;maternity", "internet_access": "wlan", "name": "The Horton General Hospital", "opening_hours": "24/7", "operator": "NHS", "operator:type": "public", "operator:wikidata": "Q918396", "source": "local_knowledge", "wikidata": "Q5906832"}}, {"name": "St Michaels", "latitude": 52.2887207, "longitude": -1.5947445, "source": "osm", "_tags": {"addr:city": "Warwick", "addr:postcode": "CV34 5QW", "addr:street": "St Michaels Road", "amenity": "hospital", "check_date": "2025-08-26", "emergency": "no", "fhrs:id": "241801", "healthcare": "hospital", "name": "St Michaels", "source": "OS_OpenData_StreetView", "source:addr": "FHRS Open Data", "wikidata": "Q7594808"}}, {"name": "Abingdon Community Hospital", "latitude": 51.6699016, "longitude": -1.3020196, "source": "osm", "_tags": {"amenity": "hospital", "emergency": "no", "healthcare": "hospital", "name": "Abingdon Community Hospital", "source": "OS_OpenData_StreetView+local_knowledge", "wikidata": "Q30293110"}}, {"name": "Evesham Community Hospital", "latitude": 52.0854821, "longitude": -1.9472904, "source": "osm", "_tags": {"addr:city": "Evesham", "addr:postcode": "WR11 1JT", "addr:street": "Waterside", "amenity": "hospital", "emergency": "minor_injuries", "fhrs:id": "673941", "healthcare": "hospital", "name": "Evesham Community Hospital", "source:addr": "FHRS Open Data"}}, {"name": "Spire Healthcare Parkway Hospital", "latitude": 52.4211653, "longitude": -1.7620005, "source": "osm", "_tags": {"addr:city": "Solihull", "addr:postcode": "B91 2PP", "addr:street": "Damson Parkway", "amenity": "hospital", "healthcare": "hospital", "name": "Spire Healthcare Parkway Hospital", "source": "visual survey; estimate"}}, {"name": "Royal Orthopaedic Hospital", "latitude": 52.420502, "longitude": -1.9611192, "source": "osm", "_tags": {"amenity": "hospital", "healthcare": "hospital", "name": "Royal Orthopaedic Hospital", "source": "visual survey; estimate", "wikidata": "Q7374658", "wikipedia": "en:Royal Orthopaedic Hospital"}}, {"name": "Cirencester Hospital", "latitude": 51.7123462, "longitude": -1.9759847, "source": "osm", "_tags": {"addr:city": "Cirencester", "addr:postcode": "GL7 1UY", "addr:street": "Tetbury Road", "amenity": "hospital", "fhrs:id": "13617", "healthcare": "hospital", "name": "Cirencester Hospital", "ref:GB:cqc_location": "RTE23", "vaccination": "covid19", "website": "https://www.ghc.nhs.uk/locations/cirencester-hospital/", "wikidata": "Q30292866"}}, {"name": "Royal Leamington Spa Rehabilitation Hospital", "latitude": 52.2689205, "longitude": -1.5404145, "source": "osm", "_tags": {"amenity": "hospital", "check_date": "2025-02-11", "healthcare": "hospital", "name": "Royal Leamington Spa Rehabilitation Hospital", "source": "visual survey;bing", "wheelchair": "yes", "wikidata": "Q7374389"}}, {"name": "Great Western Hospital", "latitude": 51.5388828, "longitude": -1.7268056, "source": "osm", "_tags": {"addr:postcode": "SN3 6BB", "amenity": "hospital", "emergency": "yes", "fhrs:id": "764513;1051650", "healthcare": "hospital", "name": "Great Western Hospital"}}, {"name": "Reaside", "latitude": 52.4004915, "longitude": -2.0098579, "source": "osm", "_tags": {"amenity": "hospital", "healthcare": "hospital", "name": "Reaside", "operator": "Birmingham and Solihull Mental Health NHS Foundation Trust", "website": "https://www.bsmhft.nhs.uk/"}}, {"name": "Hospital of St Cross", "latitude": 52.364075, "longitude": -1.2573765, "source": "osm", "_tags": {"amenity": "hospital", "emergency": "no", "healthcare": "hospital", "name": "Hospital of St Cross", "toilets:wheelchair": "yes", "wheelchair": "yes", "wikidata": "Q5908745"}}, {"name": "Marie Curie Hospice", "latitude": 52.411277, "longitude": -1.7602803, "source": "osm", "_tags": {"amenity": "hospital", "emergency": "no", "healthcare": "hospital", "name": "Marie Curie Hospice", "name:etymology:wikidata": "Q7186"}}, {"name": "Ellen Badger Hospital", "latitude": 52.0668558, "longitude": -1.6224857, "source": "osm", "_tags": {"addr:city": "Shipston-on-Stour", "addr:postcode": "CV36 4AX", "addr:street": "Stratford Road", "amenity": "hospital", "check_date": "2025-04-05", "fhrs:id": "503978", "healthcare": "hospital", "name": "Ellen Badger Hospital", "source": "visual survey;bing", "wikidata": "Q5364743"}}, {"name": "University Hospital Coventry & Warwickshire", "latitude": 52.4217727, "longitude": -1.4370726, "source": "osm", "_tags": {"addr:city": "Coventry", "addr:housename": "University Hospital Coventry & Warwickshire", "addr:postcode": "CV2 2DX", "addr:street": "Clifford Bridge Road", "amenity": "hospital", "building": "yes", "emergency": "yes", "healthcare": "hospital", "name": "University Hospital Coventry & Warwickshire", "operator": "NHS", "operator:type": "public", "operator:wikidata": "Q918396", "phone": "+44 24 7696 4000", "smoking": "no", "website": "https://www.uhcw.nhs.uk/", "wheelchair": "yes"}}, {"name": "University Hospital Coventry", "latitude": 52.4215366, "longitude": -1.4398492, "source": "osm", "_tags": {"amenity": "hospital", "emergency": "yes", "healthcare": "hospital", "name": "University Hospital Coventry", "source": "bing", "wikidata": "Q7894765", "wikipedia": "en:University Hospital Coventry"}}, {"name": "Witney Community Hospital", "latitude": 51.7875141, "longitude": -1.4896882, "source": "osm", "_tags": {"amenity": "hospital", "healthcare": "hospital", "name": "Witney Community Hospital"}}, {"name": "David Stone Medical Centre", "latitude": 51.760847, "longitude": -1.5851897, "source": "osm", "_tags": {"addr:city": "West Oxfordshire", "addr:postcode": "OX18 3LX", "addr:street": "Barwood Avenue", "amenity": "hospital", "building": "hospital", "building:levels": "1", "description": "Medical Centre", "healthcare": "hospital", "healthcare:speciality": "general", "name": "David Stone Medical Centre"}}, {"name": "North Cotswolds Hospital", "latitude": 51.9834788, "longitude": -1.7067562, "source": "osm", "_tags": {"amenity": "hospital", "check_date": "2024-05-26", "emergency": "no", "healthcare": "hospital", "name": "North Cotswolds Hospital"}}, {"name": "Bicester Community Hospital", "latitude": 51.8962241, "longitude": -1.1582123, "source": "osm", "_tags": {"addr:city": "Bicester", "addr:postcode": "OX26 6DU", "addr:street": "King's End", "amenity": "hospital", "healthcare": "hospital", "name": "Bicester Community Hospital", "source": "local_knowledge; website", "source:geometry": "Bing", "website": "https://www.oxfordhealth.nhs.uk/?directory=community-hospital-bicester-2", "wikidata": "Q30293142"}}, {"name": "Coventry and Warwick Hospital", "latitude": 52.4146084, "longitude": -1.5064998, "source": "osm", "_tags": {"amenity": "hospital", "healthcare": "hospital", "name": "Coventry and Warwick Hospital"}}, {"name": "Alexandra Hospital", "latitude": 52.2803746, "longitude": -1.9128333, "source": "osm", "_tags": {"amenity": "hospital", "healthcare": "hospital", "name": "Alexandra Hospital", "source": "bing", "wikidata": "Q30254348"}}, {"name": "Wallingford Community Hospital", "latitude": 51.5951527, "longitude": -1.1276951, "source": "osm", "_tags": {"amenity": "hospital", "emergency": "no", "healthcare": "hospital", "name": "Wallingford Community Hospital"}}, {"name": "Helen Ley House", "latitude": 52.3217832, "longitude": -1.5403168, "source": "osm", "_tags": {"amenity": "hospital", "emergency": "no", "healthcare": "hospital", "name": "Helen Ley House", "operator": "Castel Froma", "source": "bing", "website": "https://www.castelfroma.org.uk/"}}, {"name": "West Heath Hospital", "latitude": 52.3979196, "longitude": -1.9537233, "source": "osm", "_tags": {"amenity": "hospital", "healthcare": "hospital", "name": "West Heath Hospital", "source": "visual survey; bing"}}, {"name": "Bromsgove Private Hospital", "latitude": 52.3321418, "longitude": -2.0059626, "source": "osm", "_tags": {"amenity": "hospital", "emergency": "no", "healthcare": "hospital", "name": "Bromsgove Private Hospital", "source": "OS-OpenData_StreetView"}}, {"name": "Shakespeare Hospice", "latitude": 52.1936891, "longitude": -1.7312547, "source": "osm", "_tags": {"addr:city": "Shottery", "addr:postcode": "CV37 9UL", "addr:street": "Church Lane", "amenity": "hospital", "building": "yes", "fhrs:id": "503291", "healthcare": "hospital", "name": "Shakespeare Hospice", "source": "Warwicks Aerial Imagery OGLv2", "website": "https://www.theshakespearehospice.org.uk/"}}, {"name": "Didcot Hospital", "latitude": 51.6041046, "longitude": -1.2595404, "source": "osm", "_tags": {"amenity": "hospital", "emergency": "no", "healthcare": "hospital", "name": "Didcot Hospital", "source": "OS OpenMap Local"}}, {"name": "Stratford upon Avon Hospital", "latitude": 52.1953445, "longitude": -1.7135745, "source": "osm", "_tags": {"amenity": "hospital", "emergency": "no", "healthcare": "hospital", "minor_injuries_unit": "yes", "name": "Stratford upon Avon Hospital"}}, {"name": "Chipping Norton War Memorial Community Hospital", "latitude": 51.9447793, "longitude": -1.5365102, "source": "osm", "_tags": {"amenity": "hospital", "emergency": "no", "healthcare": "hospital", "name": "Chipping Norton War Memorial Community Hospital", "operator": "Oxford Health NHS Trust"}}, {"name": "Rush Court", "latitude": 51.6195697, "longitude": -1.1295437, "source": "osm", "_tags": {"amenity": "hospital", "name": "Rush Court", "source": "OS OpenMap Local"}}, {"name": "Danetre Community Hospital", "latitude": 52.2520408, "longitude": -1.1607954, "source": "osm", "_tags": {"addr:city": "Daventry", "addr:country": "GB", "addr:postcode": "NN11 4DY", "addr:street": "London Road", "amenity": "hospital", "healthcare": "hospital", "name": "Danetre Community Hospital", "operator": "Northamptonshire Healthcare NHS Foundation Trust", "ref:GB:cqc_location": "RP1J6", "source": "bing"}}, {"name": "The Woodlands Suite", "latitude": 52.4210793, "longitude": -1.9605984, "source": "osm", "_tags": {"addr:city": "Birmingham", "addr:postcode": "B31 2AP", "addr:street": "Bristol Road South", "amenity": "hospital", "email": "private.suite@nhs.net", "healthcare": "hospital", "healthcare:speciality": "orthopaedics", "name": "The Woodlands Suite", "operator": "NHS", "operator:type": "private", "operator:wikidata": "Q918396", "phone": "+44 121 685 4000", "website": "https://rohprivatecare.co.uk"}}, {"name": "Ridgeway Community Mental Health Team", "latitude": 51.6041599, "longitude": -1.2604575, "source": "osm", "_tags": {"amenity": "hospital", "healthcare": "hospital", "name": "Ridgeway Community Mental Health Team"}}, {"name": "The Ridgeway Hospital", "latitude": 51.5253432, "longitude": -1.786122, "source": "osm", "_tags": {"addr:city": "Swindon", "addr:country": "GB", "addr:postcode": "SN4 9DD", "addr:street": "Moormead Road", "addr:suburb": "Wroughton", "alt_name": "Ridgeway Hospital", "amenity": "hospital", "fhrs:id": "254020", "healthcare": "hospital", "name": "The Ridgeway Hospital", "ref:GB:cqc_location": "1-128767148", "ref:GB:uprn": "100121363447", "wikidata": "Q30293103"}}, {"name": "Brackley Medical Centre & Community Hospital", "latitude": 52.0380188, "longitude": -1.1378293, "source": "osm", "_tags": {"addr:city": "Brackley", "addr:country": "GB", "addr:postcode": "NN13 6QZ", "addr:street": "Wellington Road", "amenity": "hospital", "building": "hospital", "fhrs:authority": "West Northamptonshire", "fhrs:id": "1541453", "fhrs:local_authority_id": "FR/202000171", "healthcare": "hospital", "name": "Brackley Medical Centre & Community Hospital", "ref:GB:cqc_location": "T0F5S"}}, {"name": "Marlborough House", "latitude": 51.5501117, "longitude": -1.7975427, "source": "osm", "_tags": {"addr:city": "Swindon", "addr:housename": "Marlborough House (NHS)", "addr:postcode": "SN1 4JS", "addr:street": "Okus Road", "area": "yes", "fhrs:id": "253809", "healthcare": "hospital", "healthcare:speciality": "child_psychiatry", "name": "Marlborough House", "operator": "Oxford Health NHS Foundation Trust"}}, {"name": "Caludon Centre", "latitude": 52.4224592, "longitude": -1.4453191, "source": "osm", "_tags": {"addr:postcode": "CV2 2TE", "addr:street": "Clifford Bridge Road", "amenity": "hospital", "building": "yes", "emergency": "no", "healthcare": "hospital", "name": "Caludon Centre", "type": "multipolygon"}}, {"name": "City of Coventry Health Centre", "latitude": 52.4146765, "longitude": -1.5053989, "source": "osm", "_tags": {"addr:city": "Coventry", "addr:street": "Stoney Stanton Road", "amenity": "hospital", "building": "yes", "healthcare": "hospital", "name": "City of Coventry Health Centre", "type": "multipolygon", "website": "https://www.cityofcoventrynhshealthcarecentre.nhs.uk/"}}, {"name": "Littlemore Mental Health Centre", "latitude": 51.7184154, "longitude": -1.2294242, "source": "osm", "_tags": {"amenity": "hospital", "emergency": "no", "healthcare": "hospital", "landuse": "healthcare", "name": "Littlemore Mental Health Centre", "type": "multipolygon"}}, {"name": "Warwick Hospital", "latitude": 52.2899653, "longitude": -1.58321, "source": "osm", "_tags": {"amenity": "hospital", "emergency": "yes", "healthcare": "hospital", "name": "Warwick Hospital", "note": "Approximate/estimated area", "operator": "South Warwickshire General Hospitals NHS Trust", "ref:GB:cqc_location": "RJC02", "ref:GB:nhs_ods": "RJC02", "type": "multipolygon", "wikidata": "Q7971145"}}]