[{"name": "Анкалагiчны дыспансэр", "latitude": 52.1039014, "longitude": 23.8123516, "source": "osm", "_tags": {"amenity": "hospital", "name": "Анкалагiчны дыспансэр", "name:be": "Анкалагiчны дыспансэр", "name:ru": "Онкологический диспансер", "official_name": "УЗ \"Брэсцкi абласны анкалагiчны дыспансэр\"", "official_name:be": "УЗ \"Брэсцкi абласны анкалагiчны дыспансэр\"", "official_name:ru": "УЗ \"Брестский областной онкологический диспансер\""}}, {"name": "Брэсцкі абласны радзільны дом", "latitude": 52.0919259, "longitude": 23.7047294, "source": "osm", "_tags": {"addr:housenumber": "5", "addr:postcode": "224013", "addr:street": "вуліца Халтурына", "amenity": "hospital", "healthcare": "hospital", "name": "Брэсцкі абласны радзільны дом", "name:be": "Брэсцкі абласны радзільны дом", "name:ru": "Брестский областной родильный дом"}}, {"name": "Аздараўляльны цэнтр БЧ", "latitude": 52.1098986, "longitude": 23.6855619, "source": "osm", "_tags": {"addr:housenumber": "34", "addr:street": "вуліца Карасёва", "amenity": "hospital", "name": "Аздараўляльны цэнтр БЧ", "name:be": "Аздараўляльны цэнтр БЧ", "name:ru": "Оздоровительный центр БелЖД", "nat_name": "Оздоровительный центр РУП \"Брестское отделение Белорусской железной дороги\""}}, {"name": "Морг", "latitude": 52.1037892, "longitude": 23.8137067, "source": "osm", "_tags": {"amenity": "hospital", "name": "Морг", "name:be": "Морг", "name:ru": "Морг", "nat_name": "Морг Брестской областной больницы"}}, {"name": "Цэнтр медыцынскай рэабілітацыі", "latitude": 52.1060978, "longitude": 23.8161219, "source": "osm", "_tags": {"amenity": "hospital", "healthcare": "hospital", "name": "Цэнтр медыцынскай рэабілітацыі", "name:be": "Цэнтр медыцынскай рэабілітацыі", "name:ru": "Центр медицинской реабилитации", "nat_name": "Центр медицинской реабилитации Брестской областной больницы"}}, {"name": "Кансультатыўная паліклініка", "latitude": 52.1066046, "longitude": 23.8128141, "source": "osm", "_tags": {"addr:housenumber": "5", "addr:street": "Медыцынская вуліца", "amenity": "hospital", "healthcare": "hospital", "name": "Кансультатыўная паліклініка", "name:be": "Кансультатыўная паліклініка", "name:ru": "Консультативная поликлиника", "nat_name": "Управление по Брестской области государственной службы медицинских судебных экспертиз", "opening_hours": "Mo-Fr 07:30-17:00; Sa 09:00-14:00", "phone": "272307"}}, {"name": "Інфекцыйнае аддзяленне", "latitude": 52.1051388, "longitude": 23.81365, "source": "osm", "_tags": {"amenity": "hospital", "name": "Інфекцыйнае аддзяленне", "name:be": "Інфекцыйнае аддзяленне", "name:ru": "Инфекционное отделение", "nat_name": "Инфекционное отделение Брестской областной больницы"}}, {"name": "Тэрапеўтычнае аддзяленне", "latitude": 52.1056687, "longitude": 23.8154293, "source": "osm", "_tags": {"amenity": "hospital", "healthcare": "hospital", "name": "Тэрапеўтычнае аддзяленне", "name:be": "Тэрапеўтычнае аддзяленне", "name:ru": "Терапевтическое отделение", "nat_name": "Терапевтическое отделение Брестской областной больницы"}}, {"name": "Станцыя пералівання крыві", "latitude": 52.1054978, "longitude": 23.8115519, "source": "osm", "_tags": {"addr:housenumber": "2", "addr:street": "Медыцынская вуліца", "amenity": "hospital", "email": "ospk@brest.by", "healthcare": "hospital", "name": "Станцыя пералівання крыві", "name:be": "Станцыя пералівання крыві", "name:ru": "Станция переливания крови", "nat_name": "Государственное учреждение «Брестская областная станция переливания крови»"}}, {"name": "Прыёмнае аддзяленне", "latitude": 52.1061749, "longitude": 23.8147483, "source": "osm", "_tags": {"amenity": "hospital", "healthcare": "hospital", "name": "Прыёмнае аддзяленне", "name:be": "Прыёмнае аддзяленне", "name:ru": "Приемное отделение", "nat_name": "Приемное отделение Брестской областной больницы"}}, {"name": "Амбулаторыя", "latitude": 52.1498815, "longitude": 23.7529544, "source": "osm", "_tags": {"amenity": "hospital", "name": "Амбулаторыя", "name:be": "Амбулаторыя", "name:ru": "Амбулатория"}}, {"name": "Цэнтральная Камянецкая раённая бальніца", "latitude": 52.4039772, "longitude": 23.8273957, "source": "osm", "_tags": {"amenity": "hospital", "healthcare": "hospital", "name": "Цэнтральная Камянецкая раённая бальніца", "name:be": "Цэнтральная Камянецкая раённая бальніца", "name:ru": "Центральная Каменецкая районная больница"}}, {"name": "Брэсцкая абласная медыка-рэабілітацыйная экспертная камісія", "latitude": 52.0928608, "longitude": 23.6975139, "source": "osm", "_tags": {"amenity": "hospital", "name": "Брэсцкая абласная медыка-рэабілітацыйная экспертная камісія", "name:be": "Брэсцкая абласная медыка-рэабілітацыйная экспертная камісія", "name:ru": "Брестская областная медико-реабилитационная экспертная комиссия"}}, {"name": "Брэсцкі абласны перынатальны цэнтр", "latitude": 52.0921793, "longitude": 23.7032391, "source": "osm", "_tags": {"amenity": "hospital", "healthcare": "hospital", "name": "Брэсцкі абласны перынатальны цэнтр", "name:be": "Брэсцкі абласны перынатальны цэнтр", "name:ru": "Брестский областной перинатальный центр"}}, {"name": "Псіхіятрычны стацыянар", "latitude": 52.1283863, "longitude": 23.7194879, "source": "osm", "_tags": {"healthcare": "hospital", "healthcare:speciality": "psychiatry", "name": "Псіхіятрычны стацыянар", "name:be": "Псіхіятрычны стацыянар", "name:ru": "Психиатрический стационар"}}, {"name": "7-я клініка сямейнай медыцыны", "latitude": 52.1152367, "longitude": 23.691432, "source": "osm", "_tags": {"addr:housenumber": "79", "addr:street": "Фартэчная вуліца", "amenity": "hospital", "healthcare": "hospital", "name": "7-я клініка сямейнай медыцыны", "name:be": "7-я клініка сямейнай медыцыны", "name:ru": "7-я клиника семейной медицины"}}, {"name": "Абласны кардыялагічны дыспансер", "latitude": 52.1064903, "longitude": 23.8124775, "source": "osm", "_tags": {"amenity": "hospital", "contact:instagram": "bel_cardio", "email": "kardorg@brest.by", "healthcare": "hospital", "internet_access": "wlan", "name": "Абласны кардыялагічны дыспансер", "name:be": "Абласны кардыялагічны дыспансер", "name:ru": "Областной кардиологический диспансер", "opening_hours": "Mo-Fr 07:30-20:00; Sa 09:00-15:00", "phone": "+375162506018", "website": "https://bel-cardio.by/"}}, {"name": "Samodzielny Publiczny Zespół Opieki Zdrowotnej we Włodawie", "latitude": 51.5568684, "longitude": 23.554764, "source": "osm", "_tags": {"addr:city": "Włodawa", "addr:housenumber": "64", "addr:postcode": "22-200", "addr:street": "Aleja Marszałka Józefa Piłsudskiego", "amenity": "hospital", "email": "szpital@spzoz.wlodawa.pl", "email_1": "sekretariat@spzoz.wlodawa.pl", "emergency": "yes", "fax": "+48 82 572 41 70", "healthcare": "hospital", "internet_access": "yes", "name": "Samodzielny Publiczny Zespół Opieki Zdrowotnej we Włodawie", "name:uk": "Самостійний Публічний Комплекс Оздоровчого Догляду в Влодаві", "opening_hours": "24/7", "operator": "Powiat Włodawski", "operator:type": "public", "phone": "+48 797 702 705;+48 82 572 41 70", "website": "https://www.spzoz.wlodawa.pl/", "wheelchair": "yes"}}, {"name": "Станцыя хуткай дапамогі", "latitude": 52.0975243, "longitude": 23.7868338, "source": "osm", "_tags": {"amenity": "hospital", "building": "yes", "healthcare": "hospital", "name": "Станцыя хуткай дапамогі", "name:be": "Станцыя хуткай дапамогі", "name:ru": "Станция скорой помощи"}}, {"name": "Скура-венералагічны дыспансэр", "latitude": 52.1067597, "longitude": 23.8180313, "source": "osm", "_tags": {"addr:housenumber": "11", "addr:street": "Медыцынская вуліца", "amenity": "hospital", "building": "hospital", "healthcare:speciality": "dermatology", "name": "Скура-венералагічны дыспансэр", "name:be": "Скура-венералагічны дыспансэр", "name:ru": "Кожно-венерологический диспансер", "official_name": "УЗ \"Брестский областной кожно-венерологический диспансер\""}}, {"name": "Шацька районна лікарня", "latitude": 51.4919392, "longitude": 23.9203531, "source": "osm", "_tags": {"amenity": "hospital", "building": "yes", "name": "Шацька районна лікарня", "name:uk": "Шацька районна лікарня"}}, {"name": "Чарнаўчыцкая ўчастковая бальніца", "latitude": 52.2263341, "longitude": 23.7387097, "source": "osm", "_tags": {"addr:city": "Чарнаўчыцы", "addr:housenumber": "99/1", "addr:postcode": "225030", "addr:street": "Брэсцкая вуліца", "amenity": "hospital", "building": "hospital", "healthcare": "yes", "name": "Чарнаўчыцкая ўчастковая бальніца", "name:be": "Чарнаўчыцкая ўчастковая бальніца", "name:ru": "Чернавчицкая участковая больница", "phone": "+375 162 945237"}}, {"name": "Брэсцкая бальніца хуткай дапамогі", "latitude": 52.0920905, "longitude": 23.6851803, "source": "osm", "_tags": {"amenity": "hospital", "emergency": "yes", "healthcare": "hospital", "name": "Брэсцкая бальніца хуткай дапамогі", "name:be": "Брэсцкая бальніца хуткай дапамогі", "name:ru": "Брестская больница скорой медицинской помощи", "nat_name": "Учреждение здравоохранения \"Брестская больница скорой медицинской помощи\""}}, {"name": "Wojewódzki Szpital Specjalistyczny w Białej Podlaskiej", "latitude": 52.0467254, "longitude": 23.1120131, "source": "osm", "_tags": {"amenity": "hospital", "email": "sekretariat@szpitalbp.pl", "name": "Wojewódzki Szpital Specjalistyczny w Białej Podlaskiej", "name:uk": "Обласна Спеціалізована Лікарня", "phone": "83 414 72 11", "website": "http://www.szpitalbp.pl", "wheelchair": "yes"}}, {"name": "Дамачаўская гарадская бальніца", "latitude": 51.7502458, "longitude": 23.6018242, "source": "osm", "_tags": {"amenity": "hospital", "barrier": "fence", "name": "Дамачаўская гарадская бальніца", "name:be": "Дамачаўская гарадская бальніца", "name:ru": "Домачевская городская больница", "phone": "+375 162 961137"}}, {"name": "Гарадская бальніца №2", "latitude": 52.1035238, "longitude": 23.6438574, "source": "osm", "_tags": {"addr:city": "Брэст", "addr:housenumber": "8", "addr:street": "Школьная вуліца", "amenity": "hospital", "barrier": "fence", "healthcare": "hospital", "name": "Гарадская бальніца №2", "name:be": "Гарадская бальніца №2", "name:ru": "Городская Больница №2"}}, {"name": "Шацька районна лікарня", "latitude": 51.4898083, "longitude": 23.9193426, "source": "osm", "_tags": {"amenity": "hospital", "name": "Шацька районна лікарня", "name:uk": "Шацька районна лікарня", "phone": "+380 3355 23 444"}}, {"name": "", "latitude": 52.1067047, "longitude": 23.691319, "source": "osm", "_tags": {"amenity": "hospital"}}, {"name": "Брэсцкая абласная бальніца", "latitude": 52.1052054, "longitude": 23.8140385, "source": "osm", "_tags": {"amenity": "hospital", "healthcare": "hospital", "name": "Брэсцкая абласная бальніца", "name:be": "Брэсцкая абласная бальніца", "name:ru": "Брестская областная больница"}}, {"name": "", "latitude": 52.3163071, "longitude": 23.9210835, "source": "osm", "_tags": {"amenity": "hospital", "healthcare": "hospital"}}, {"name": "Абласны дзіцячы цэнтр медычнай рэабілітацыі", "latitude": 51.5551163, "longitude": 23.6020472, "source": "osm", "_tags": {"amenity": "hospital", "barrier": "fence", "healthcare": "hospital", "name": "Абласны дзіцячы цэнтр медычнай рэабілітацыі", "name:be": "Абласны дзіцячы цэнтр медычнай рэабілітацыі", "name:ru": "Областной детский центр медицинской реабилитации", "official_name": "Брэсцкі абласны дзіцячы цэнтр медычнай рэабілітацыі \"Тамашоўка\"", "official_name:be": "Брэсцкі абласны дзіцячы цэнтр медычнай рэабілітацыі \"Тамашоўка\"", "official_name:ru": "Брестский областной детский центр медицинской реабилитации \"Томашовка\""}}, {"name": "Брэсцкая дзіцячая абласная бальніца", "latitude": 52.0910305, "longitude": 23.7073824, "source": "osm", "_tags": {"addr:housenumber": "12", "addr:postcode": "224013", "addr:street": "вуліца Халтурына", "amenity": "hospital", "healthcare": "hospital", "name": "Брэсцкая дзіцячая абласная бальніца", "name:be": "Брэсцкая дзіцячая абласная бальніца", "name:ru": "Брестская детская областная больница", "website": "http://bdob.brest.by", "wikidata": "Q63966949", "wikipedia": "be:Брэсцкая дзіцячая абласная бальніца"}}, {"name": "ФАП", "latitude": 51.9937189, "longitude": 23.7005889, "source": "osm", "_tags": {"amenity": "hospital", "building": "yes", "name": "ФАП", "name:be": "ФАП", "name:ru": "ФАП"}}, {"name": "Меднаўская ўчастковая бальніца", "latitude": 51.8629057, "longitude": 23.7510561, "source": "osm", "_tags": {"amenity": "hospital", "barrier": "fence", "healthcare": "hospital", "name": "Меднаўская ўчастковая бальніца", "name:be": "Меднаўская ўчастковая бальніца", "name:ru": "Медновская участковая больница", "phone": "+375 162 593984"}}, {"name": "Станцыя хуткай медыцынскай дапамогі", "latitude": 52.0692832, "longitude": 23.7460896, "source": "osm", "_tags": {"addr:housenumber": "23", "addr:street": "вуліца Суворава", "amenity": "hospital", "building": "yes", "building:levels": "2", "name": "Станцыя хуткай медыцынскай дапамогі", "name:be": "Станцыя хуткай медыцынскай дапамогі", "name:en": "Ambulance", "name:ru": "Станция скорой медицинской помощи", "opening_hours": "24/7"}}, {"name": "Samodzielny Publiczny Zakład Opieki Zdrowotnej Gruźlicy i Chorób Płuc", "latitude": 51.5458591, "longitude": 23.464023, "source": "osm", "_tags": {"amenity": "hospital", "healthcare": "hospital", "healthcare:speciality": "pulmonology", "name": "Samodzielny Publiczny Zakład Opieki Zdrowotnej Gruźlicy i Chorób Płuc", "name:uk": "Незалежний громадський центр туберкульозу та легеневих захворювань"}}, {"name": "Высокаўская гарадская бальніца", "latitude": 52.3630938, "longitude": 23.3932889, "source": "osm", "_tags": {"amenity": "hospital", "healthcare": "hospital", "name": "Высокаўская гарадская бальніца", "name:be": "Высокаўская гарадская бальніца", "name:ru": "Высоковская городская больница"}}, {"name": "Псіханеўралагічны дыспансер", "latitude": 52.1286385, "longitude": 23.7187312, "source": "osm", "_tags": {"amenity": "hospital", "healthcare": "hospital", "name": "Псіханеўралагічны дыспансер", "name:be": "Псіханеўралагічны дыспансер", "name:ru": "Психоневрологический диспансер"}}, {"name": "Domowy Szpital", "latitude": 52.0343134, "longitude": 23.1111285, "source": "osm", "_tags": {"addr:city": "Biała Podlaska", "addr:city:simc": "0922018", "addr:housenumber": "5", "addr:postcode": "21-500", "addr:street": "Spółdzielcza", "addr:street:sym_ul": "20696", "amenity": "hospital", "healthcare": "hospital", "name": "Domowy Szpital", "name:uk": "Домашня лікарня", "official_name": "Ośrodek Opieki Medycznej Domowy Szpital", "operator": "Wojewódzki Szpital Specjalistyczny w Białje Podlaskiej", "source:addr": "mbialapodlaska.e-mapa.net"}}, {"name": "Знаменская амбулаторыя", "latitude": 51.8821285, "longitude": 23.6539548, "source": "osm", "_tags": {"amenity": "hospital", "barrier": "fence", "healthcare": "hospital", "name": "Знаменская амбулаторыя", "name:be": "Знаменская амбулаторыя", "name:ru": "Знаменская амбулатория", "name:uk": "Прапорська амбулаторія"}}, {"name": "Брэсцкая цэнтральная гарадская бальніца", "latitude": 52.0973096, "longitude": 23.7849741, "source": "osm", "_tags": {"addr:housenumber": "11", "addr:street": "вуліца Лактыёнава", "amenity": "hospital", "building": "yes", "email": "bgmb@brest.by", "emergency": "yes", "healthcare": "hospital", "height": "0.2", "name": "Брэсцкая цэнтральная гарадская бальніца", "name:be": "Брэсцкая цэнтральная гарадская бальніца", "name:ru": "Центральная городская больница", "type": "multipolygon", "website": "https://brestcgb.by/"}}, {"name": "Супрацьтуберкулёзны дыспансэр", "latitude": 52.10559, "longitude": 23.8182272, "source": "osm", "_tags": {"addr:housenumber": "9", "addr:street": "Медыцынская вуліца", "amenity": "hospital", "building": "hospital", "name": "Супрацьтуберкулёзны дыспансэр", "name:be": "Супрацьтуберкулёзны дыспансэр", "name:ru": "Противотуберкулезный диспансер", "name:uk": "Протитуберкульозний диспансер", "nat_name": "Брестский областной противотуберкулезный диспансер", "type": "multipolygon"}}, {"name": "Брэсцкая гарадская бальніца №1", "latitude": 52.1067583, "longitude": 23.6906136, "source": "osm", "_tags": {"addr:housenumber": "76", "addr:street": "вуліца Кіжаватава", "amenity": "hospital", "building": "hospital", "description": "УЗ «Брестская городская больница №1» с 1898 года заботится о здоровье граждан. Оказание платных медицинских услуг Телефоны для справок: +37533-3-44-55-01 (Mts) +37529-3-44-55-16 (velcom) 8 (0162) 264124 рабочий", "emergency": "no", "height": "0.5", "name": "Брэсцкая гарадская бальніца №1", "name:be": "Брэсцкая гарадская бальніца №1", "name:en": "Brest City Hospital No.1.", "name:pl": "Brzeski szpital miejski №1", "name:ru": "Брестская городская больница №1", "name:uk": "Брестська міська лікарня № 1", "phone": "8 (0162) 264124", "roof:colour": "grey", "source": "Администрация учреждения", "type": "multipolygon", "website": "http://bgb1.brest.by/", "wheelchair": "yes"}}, {"name": "", "latitude": 52.4043003, "longitude": 23.8269601, "source": "osm", "_tags": {"amenity": "hospital", "healthcare": "hospital", "type": "multipolygon"}}]