[{"name": "Bristol Eye Hospital Assessment Clinic", "latitude": 51.4562559, "longitude": -2.5905852, "source": "osm", "_tags": {"addr:postcode": "BS1 3XB", "amenity": "hospital", "healthcare": "hospital", "level": "2", "name": "Bristol Eye Hospital Assessment Clinic", "old_name": "Post Office"}}, {"name": "Nuffield Health Hereford Hospital", "latitude": 52.0638103, "longitude": -2.6999319, "source": "osm", "_tags": {"addr:city": "Hereford", "addr:housenumber": "2", "addr:postcode": "HR1 1DF", "addr:street": "Venns Lane", "amenity": "hospital", "fhrs:id": "489529", "healthcare": "hospital", "name": "Nuffield Health Hereford Hospital", "operator": "Nuffield Health", "operator:type": "private", "operator:wikidata": "Q7068711", "source:addr": "FHRS Open Data"}}, {"name": "Great Oaks Hospice", "latitude": 51.7993713, "longitude": -2.6169191, "source": "osm", "_tags": {"amenity": "hospital", "name": "Great Oaks Hospice"}}, {"name": "St Anne's Hospice", "latitude": 51.6179447, "longitude": -3.0048206, "source": "osm", "_tags": {"addr:city": "Newport", "addr:postcode": "NP20 6ZE", "addr:street": "Harding Avenue", "amenity": "hospital", "name": "St Anne's Hospice", "website": "https://stdavidshospicecare.org/what-we-do/in-patient-services/"}}, {"name": "First Aid Hut", "latitude": 52.3776866, "longitude": -2.2916322, "source": "osm", "_tags": {"amenity": "hospital", "healthcare": "hospital", "name": "First Aid Hut"}}, {"name": "Lydney & District Hospital", "latitude": 51.7284068, "longitude": -2.5384763, "source": "osm", "_tags": {"addr:city": "Lydney", "addr:postcode": "GL15 5JE", "addr:street": "Grove Road", "amenity": "hospital", "designation": "Minor Injuries Unit", "emergency": "yes", "name": "Lydney & District Hospital", "phone": "+44 300 421 8722"}}, {"name": "Minor Injuries Unit", "latitude": 51.5805297, "longitude": -2.9967902, "source": "osm", "_tags": {"addr:city": "Newport", "addr:postcode": "NP20 2UB", "addr:street": "Cardiff Road", "amenity": "hospital", "emergency": "no", "healthcare": "hospital", "healthcare:speciality": "general", "name": "Minor Injuries Unit", "operator": "Aneurin Bevan University Health Board", "operator:type": "state_primary_health_care"}}, {"name": "Wessex Suite", "latitude": 51.452362, "longitude": -2.1265576, "source": "osm", "_tags": {"healthcare": "hospital", "name": "Wessex Suite"}}, {"name": "Minor Injury Unit", "latitude": 51.4526701, "longitude": -2.1264039, "source": "osm", "_tags": {"healthcare": "hospital", "name": "Minor Injury Unit", "opening_hours": "Mo-Su 08:00-20:00"}}, {"name": "Velindre@Neville Hall", "latitude": 51.8236544, "longitude": -3.0345767, "source": "osm", "_tags": {"addr:city": "Abergavenny", "addr:housename": "Velindre@Neville Hall", "addr:postcode": "NP7 7EG", "addr:street": "Brecon Road", "amenity": "hospital", "healthcare": "hospital", "healthcare:speciality": "oncology", "name": "Velindre@Neville Hall", "operator": "Velindre Cancer Service", "operator:type": "public"}}, {"name": "Southmead Hospital", "latitude": 51.4966722, "longitude": -2.5914651, "source": "osm", "_tags": {"addr:city": "Bristol", "addr:country": "GB", "addr:postcode": "BS10 5NB", "addr:street": "Southmead Road", "amenity": "hospital", "emergency": "yes", "healthcare": "hospital", "name": "Southmead Hospital", "operator": "North Bristol NHS Trust", "phone": "+44 117 9505050", "website": "https://www.nbt.nhs.uk/our-hospitals/southmead-hospital", "wikidata": "Q7570900", "wikipedia": "en:Southmead Hospital"}}, {"name": "Priory Hospital Bristol", "latitude": 51.4806078, "longitude": -2.5667924, "source": "osm", "_tags": {"amenity": "hospital", "name": "Priory Hospital Bristol"}}, {"name": "Rikenel Health Centre", "latitude": 51.8603959, "longitude": -2.2448283, "source": "osm", "_tags": {"amenity": "hospital", "emergency": "no", "healthcare": "hospital", "name": "Rikenel Health Centre", "source": "local_knowledge"}}, {"name": "Gloucestershire Royal Hospital", "latitude": 51.8660903, "longitude": -2.2324907, "source": "osm", "_tags": {"addr:city": "Gloucester", "addr:housename": "Gloucestershire Royal Hospital", "addr:postcode": "GL1 3NN", "addr:street": "Great Western Road", "amenity": "hospital", "emergency": "yes", "healthcare": "hospital", "name": "Gloucestershire Royal Hospital", "operator": "NHS", "operator:type": "public", "operator:wikidata": "Q918396", "phone": "+44 300 4222 222", "wheelchair": "yes", "wikidata": "Q1532247"}}, {"name": "Callington Road Hospital", "latitude": 51.4309505, "longitude": -2.5582871, "source": "osm", "_tags": {"addr:city": "Bristol", "addr:postcode": "BS4 5BJ", "addr:street": "Marmalade Lane", "amenity": "hospital", "name": "Callington Road Hospital", "website": "https://www.nhs.uk/Services/hospitals/Overview/DefaultView.aspx?id=2932", "wikidata": "Q19654766"}}, {"name": "Cheltenham General Hospital", "latitude": 51.893023, "longitude": -2.0717942, "source": "osm", "_tags": {"alt_name": "Cheltenham Hospital", "amenity": "hospital", "fixme": "Building outlines appear to have only the vaguest relation to available imagery sources. Some review needed.", "healthcare": "hospital", "name": "Cheltenham General Hospital", "ref:GB:cqc_location": "RTE01", "source": "local knowledge", "website": "https://www.gloshospitals.nhs.uk/", "wheelchair": "limited", "wikidata": "Q5090204", "wikipedia": "en:Cheltenham General Hospital"}}, {"name": "St. Joseph's Hospital", "latitude": 51.6181978, "longitude": -3.0043072, "source": "osm", "_tags": {"addr:city": "Newport", "addr:postcode": "NP20 6ZE", "addr:street": "Harding Avenue", "amenity": "hospital", "email": "hello@stjosephshospital.co.uk", "healthcare": "hospital", "name": "St. Joseph's Hospital", "phone": "+44 1633 820 300", "website": "https://www.stjosephshospital.co.uk/", "wikidata": "Q21999731"}}, {"name": "St. Cadoc's Hospital", "latitude": 51.6135052, "longitude": -2.9658085, "source": "osm", "_tags": {"addr:city": "Newport", "addr:housename": "St. Cadoc's Hospital", "addr:postcode": "NP18 3XQ", "addr:street": "Lodge Road", "amenity": "hospital", "emergency": "no", "healthcare": "hospital", "name": "St. Cadoc's Hospital", "name:cy": "Ysbyty St Cadoc", "operator": "Aneurin Bevan University Health Board", "operator:type": "government", "wikidata": "Q7592733", "wikipedia": "en:St Cadoc's Hospital"}}, {"name": "Royal Gwent Hospital", "latitude": 51.5801918, "longitude": -2.997919, "source": "osm", "_tags": {"addr:city": "Newport", "addr:postcode": "NP20 2UB", "addr:street": "Cardiff Road", "amenity": "hospital", "email": "abhb.enquiries@wales.nhs.uk", "emergency": "yes", "healthcare": "hospital", "name": "Royal Gwent Hospital", "name:cy": "Ysbyty Brenhinol Gwent", "operator": "Aneurin Bevan University Health Board", "operator:type": "state_primary_health_care", "phone": "+44 1633 234 234", "website": "https://abuhb.nhs.wales/", "wheelchair": "yes", "wikidata": "Q7374246"}}, {"name": "St Woolos Hospital", "latitude": 51.5816382, "longitude": -3.003001, "source": "osm", "_tags": {"addr:city": "Newport", "addr:postcode": "NP20 4SZ", "addr:street": "Stow Hill", "amenity": "hospital", "email": "abhb.enquiries@wales.nhs.uk", "emergency": "no", "healthcare": "hospital", "healthcare:speciality": "general", "name": "St Woolos Hospital", "name:cy": "Ysbyty Sant Gwynllyw", "operator": "Aneurin Bevin Health Board", "operator:type": "public", "phone": "+44 1633 234234", "website": "https://abuhb.nhs.wales/healthcare-services/community-services/community-hospitals-and-facilities/st-woolos-hospital/", "wheelchair": "yes", "wikidata": "Q7595663"}}, {"name": "Stroud General Hospital", "latitude": 51.7428168, "longitude": -2.2077218, "source": "osm", "_tags": {"addr:postcode": "GL5 2HY", "amenity": "hospital", "fhrs:id": "154509", "healthcare": "hospital", "name": "Stroud General Hospital", "wikidata": "Q30293014"}}, {"name": "Worcestershire Royal Hospital", "latitude": 52.1913684, "longitude": -2.18154, "source": "osm", "_tags": {"amenity": "hospital", "healthcare": "hospital", "name": "Worcestershire Royal Hospital", "wheelchair": "yes", "wikidata": "Q30281214"}}, {"name": "Kidderminster Hospital", "latitude": 52.3851806, "longitude": -2.2613901, "source": "osm", "_tags": {"amenity": "hospital", "healthcare": "hospital", "name": "Kidderminster Hospital", "operator": "Worcestershire Acute Hospitals NHS Trust", "wikidata": "Q60740212", "wikipedia": "en:Kidderminster Hospital"}}, {"name": "Ross on Wye Community Hospital", "latitude": 51.9125048, "longitude": -2.5836057, "source": "osm", "_tags": {"amenity": "hospital", "building": "yes", "emergency": "no", "healthcare": "hospital", "name": "Ross on Wye Community Hospital"}}, {"name": "Malvern Community Hospital", "latitude": 52.1248407, "longitude": -2.3209327, "source": "osm", "_tags": {"addr:city": "Malvern", "addr:housenumber": "185", "addr:postcode": "WR14 1EX", "addr:street": "Worcester Road", "amenity": "hospital", "check_date": "2025-07-28", "fhrs:id": "672768", "healthcare": "hospital", "name": "Malvern Community Hospital", "note": "needs a better survey", "source:addr": "FHRS Open Data"}}, {"name": "Spire Bristol", "latitude": 51.4721579, "longitude": -2.6148226, "source": "osm", "_tags": {"addr:city": "Bristol", "addr:postcode": "BS6 6UT", "addr:street": "Redland Hill", "addr:suburb": "Redland", "alt_name": "The Glen Hospital", "amenity": "hospital", "building": "yes", "fhrs:id": "310453", "name": "Spire Bristol", "ref:GB:uprn": "60863", "source:outline": "Bing"}}, {"name": "County Hospital", "latitude": 51.6908946, "longitude": -3.0263707, "source": "osm", "_tags": {"addr:city": "Griffithstown", "addr:housename": "County Hospital", "addr:postcode": "NP4 5YA", "addr:street": "Coed-y-Gric Road", "amenity": "hospital", "email": "abhb.enquiries@wales.nhs.uk", "emergency": "yes", "healthcare": "hospital", "name": "County Hospital", "operator": "Aneurin Bevan University Health Board", "operator:type": "government", "phone": "+44 1633 234 234", "source": "Bing;estimation", "source:name": "survey", "website": "https://abuhb.nhs.wales/hospitals/our-hospitals/county-hospital/", "wikidata": "Q5177693", "wikipedia": "en:County Hospital, Torfaen"}}, {"name": "Park Attwood Clinic", "latitude": 52.414176, "longitude": -2.3002716, "source": "osm", "_tags": {"amenity": "hospital", "emergency": "no", "name": "Park Attwood Clinic"}}, {"name": "Llanfrechfa Grange", "latitude": 51.6448676, "longitude": -2.9968062, "source": "osm", "_tags": {"addr:city": "Llanfrechfa", "addr:postcode": "NP44 8YN", "addr:street": "Caerleon Road", "amenity": "hospital", "description": "Old Grange Hospital (not the Grange University Hospital which opened in 2020 to the north)", "emergency": "no", "healthcare": "hospital", "name": "Llanfrechfa Grange", "operator": "Aneurin Bevan University Health Board", "operator:type": "government", "wikidata": "Q14956824"}}, {"name": "Nevill Hall Hospital", "latitude": 51.8239518, "longitude": -3.0339902, "source": "osm", "_tags": {"addr:city": "Abergavenny", "addr:housename": "Nevill Hall General Hospital", "addr:postcode": "NP7 7EG", "addr:street": "Brecon Road", "amenity": "hospital", "emergency": "yes", "healthcare": "hospital", "healthcare:speciality": "general", "name": "Nevill Hall Hospital", "name:cy": "Ysbyty Neuadd Nevill", "operator": "NHS", "operator:type": "public", "operator:wikidata": "Q918396", "source": "Bing", "source:name": "survey", "wikidata": "Q7004588", "wikipedia": "en:Nevill Hall Hospital"}}, {"name": "Pershore Hospital", "latitude": 52.1140501, "longitude": -2.0777342, "source": "osm", "_tags": {"addr:city": "Pershore", "addr:postcode": "WR10 1PS", "addr:street": "Queen Elizabeth Drive", "amenity": "hospital", "building": "yes", "fhrs:id": "673972", "healthcare": "hospital", "name": "Pershore Hospital", "source:addr": "FHRS Open Data", "toilets:wheelchair": "yes", "wheelchair": "yes"}}, {"name": "Thornbury Health Centre", "latitude": 51.6122364, "longitude": -2.5179782, "source": "osm", "_tags": {"amenity": "hospital", "building": "health_centre", "healthcare": "hospital", "name": "Thornbury Health Centre", "postal_code": "BS35 1DP", "ref:GB:uprn": "581183", "source": "survey", "source:outline": "Bing"}}, {"name": "Ty Gwyn Hall", "latitude": 51.8434989, "longitude": -3.0086266, "source": "osm", "_tags": {"amenity": "hospital", "healthcare": "hospital", "name": "Ty Gwyn Hall", "operator": "Elysium Healthcare", "operator:type": "private"}}, {"name": "Nuffield Hospital", "latitude": 51.8919427, "longitude": -2.1298722, "source": "osm", "_tags": {"addr:city": "Cheltenham", "addr:postcode": "GL51 6SY", "amenity": "hospital", "building": "hospital", "emergency": "no", "healthcare": "hospital", "name": "Nuffield Hospital", "operator": "Nuffield Health Group"}}, {"name": "Bromyard Community Hospital", "latitude": 52.1863461, "longitude": -2.5068822, "source": "osm", "_tags": {"addr:city": "Bromyard", "addr:postcode": "HR7 4QN", "addr:street": "Highwell Lane", "amenity": "hospital", "building": "hospital", "emergency": "no", "fhrs:id": "489643", "healthcare": "hospital", "name": "Bromyard Community Hospital", "phone": "+44 1885 485700", "source:addr": "FHRS Open Data"}}, {"name": "Blackberry Hill Hospital", "latitude": 51.4848647, "longitude": -2.5378608, "source": "osm", "_tags": {"amenity": "hospital", "healthcare": "hospital", "name": "Blackberry Hill Hospital", "wikidata": "Q4922561"}}, {"name": "Bristol Royal Infirmary", "latitude": 51.4588261, "longitude": -2.5960953, "source": "osm", "_tags": {"alt_name": "BRI", "amenity": "hospital", "emergency": "yes", "healthcare": "hospital", "name": "Bristol Royal Infirmary", "wikidata": "Q4969003"}}, {"name": "Bristol Heart Institute", "latitude": 51.4596454, "longitude": -2.5969913, "source": "osm", "_tags": {"amenity": "hospital", "building": "hospital", "name": "Bristol Heart Institute"}}, {"name": "The Joint Clinic - private Orthopaedic and Spinal Care", "latitude": 52.2660587, "longitude": -2.1474073, "source": "osm", "_tags": {"amenity": "hospital", "healthcare": "hospital", "name": "The Joint Clinic - private Orthopaedic and Spinal Care"}}, {"name": "Droitwich Spa Hospital (Private)", "latitude": 52.2662733, "longitude": -2.150998, "source": "osm", "_tags": {"amenity": "hospital", "emergency": "no", "healthcare": "hospital", "name": "Droitwich Spa Hospital (Private)", "operator": "BMI Healthcare"}}, {"name": "Kington Surgery", "latitude": 52.1965266, "longitude": -3.0211958, "source": "osm", "_tags": {"amenity": "hospital", "building": "yes", "healthcare": "hospital", "name": "Kington Surgery"}}, {"name": "Ludlow Hospital", "latitude": 52.373655, "longitude": -2.7144022, "source": "osm", "_tags": {"addr:city": "Ludlow", "addr:street": "Gravel Hill", "alt_name": "Ludlow Community Hospital", "amenity": "hospital", "healthcare": "hospital", "name": "Ludlow Hospital", "old_name": "East Hamlet Hospital", "operator": "NHS", "operator:type": "public", "operator:wikidata": "Q918396", "toilets:wheelchair": "yes", "wheelchair": "yes", "wikidata": "Q14956774", "wikipedia": "en:Ludlow Hospital"}}, {"name": "Emersons Green NHS Treatment Centre", "latitude": 51.5038008, "longitude": -2.4830259, "source": "osm", "_tags": {"addr:city": "Bristol", "addr:postcode": "BS16 7FH", "amenity": "hospital", "fhrs:id": "666181", "name": "Emersons Green NHS Treatment Centre", "website": "http://www.emersonsgreentreatmentcentre.nhs.uk/"}}, {"name": "Stroud Maternity Hospital", "latitude": 51.742314, "longitude": -2.2085726, "source": "osm", "_tags": {"addr:postcode": "GL5 2JB", "amenity": "hospital", "building": "hospital", "fhrs:id": "552466", "healthcare": "hospital", "name": "Stroud Maternity Hospital"}}, {"name": "Hereford County Hospital", "latitude": 52.0568243, "longitude": -2.7063369, "source": "osm", "_tags": {"amenity": "hospital", "emergency": "yes", "healthcare": "hospital", "name": "Hereford County Hospital", "toilets:wheelchair": "yes", "wheelchair": "yes", "wikidata": "Q30279757", "wikipedia": "en:Hereford County Hospital"}}, {"name": "Cossham Hospital", "latitude": 51.4688567, "longitude": -2.5163769, "source": "osm", "_tags": {"addr:city": "Bristol", "addr:postcode": "BS15 1LF", "addr:street": "Lodge Road", "addr:suburb": "Speedwell", "amenity": "hospital", "fhrs:id": "310424", "healthcare": "hospital", "name": "Cossham Hospital", "source:addr": "FHRS Open Data", "website": "https://www.nbt.nhs.uk/our-hospitals/cossham-hospital", "wikidata": "Q5174706"}}, {"name": "Tetbury Hospital", "latitude": 51.6353758, "longitude": -2.1545953, "source": "osm", "_tags": {"addr:postcode": "GL8 8XB", "amenity": "hospital", "healthcare": "hospital", "name": "Tetbury Hospital", "website": "https://www.tetburyhospital.co.uk/"}}, {"name": "Leominster Community Hospital", "latitude": 52.2230756, "longitude": -2.7388958, "source": "osm", "_tags": {"addr:city": "Leominster", "addr:postcode": "HR6 8JH", "addr:street": "South Street", "amenity": "hospital", "healthcare": "hospital", "name": "Leominster Community Hospital", "operator": "Wye Valley NHS Trust"}}, {"name": "South West Regional Laboratories", "latitude": 51.4599267, "longitude": -2.6006594, "source": "osm", "_tags": {"addr:city": "Bristol", "addr:postcode": "BS2 8EL", "amenity": "hospital", "building": "yes", "check_date": "2024-08-30", "healthcare": "hospital", "name": "South West Regional Laboratories", "operator": "Public Health England"}}, {"name": "Tenbury Community Hospital", "latitude": 52.3152968, "longitude": -2.5896006, "source": "osm", "_tags": {"addr:city": "Tenbury Wells", "addr:country": "GB", "addr:postcode": "WR15 8AP", "addr:street": "Worcester Road", "addr:suburb": "Burford", "amenity": "hospital", "emergency": "no", "fhrs:authority": "Shropshire", "fhrs:id": "698881", "fhrs:local_authority_id": "14/00225/COMM", "healthcare": "hospital", "name": "Tenbury Community Hospital"}}, {"name": "Llanarth Court", "latitude": 51.7908302, "longitude": -2.8981319, "source": "osm", "_tags": {"addr:city": "Usk", "addr:postcode": "NP15 2YD", "addr:suburb": "Raglan", "amenity": "hospital", "capacity": "95", "email": "Llanarth@priorygroup.com", "healthcare": "hospital", "healthcare:speciality": "psychiatry", "name": "Llanarth Court", "operator": "Priory Group", "operator:type": "business", "phone": "+44 1873 840 555", "website": "https://www.priorygroup.com/locations/nhs/priory-hospital-llanarth-court", "wikidata": "Q6661073", "wikipedia": "en:Llanarth Court"}}, {"name": "Saint Peter's Hospice", "latitude": 51.504759, "longitude": -2.6112105, "source": "osm", "_tags": {"addr:city": "Bristol", "addr:postcode": "BS10 6NL", "addr:street": "Charlton Road", "addr:suburb": "Brentry", "amenity": "hospital", "fhrs:id": "311398", "healthcare": "hospital", "hospital": "hospice", "name": "Saint Peter's Hospice"}}, {"name": "Ledbury Community Health and Care Centre", "latitude": 52.0359987, "longitude": -2.4248629, "source": "osm", "_tags": {"addr:city": "Ledbury", "amenity": "hospital", "healthcare": "hospital", "name": "Ledbury Community Health and Care Centre"}}, {"name": "The Chesterfield", "latitude": 51.4539532, "longitude": -2.6158044, "source": "osm", "_tags": {"addr:city": "Bristol", "addr:housenumber": "3", "addr:postcode": "BS8 1BN", "addr:street": "Clifton Hill", "addr:suburb": "Clifton", "amenity": "hospital", "building": "hospital", "check_date": "2025-03-13", "fhrs:id": "589377", "healthcare": "hospital", "name": "The Chesterfield", "operator": "Nuffield Health", "ref:GB:uprn": "104682;376277"}}, {"name": "Forest of Dean Community Hospital", "latitude": 51.8313467, "longitude": -2.5056502, "source": "osm", "_tags": {"amenity": "hospital", "emergency": "no", "healthcare": "hospital", "name": "Forest of Dean Community Hospital", "operator": "Gloucestershire Health and Care NHS Foundation Trust", "operator:type": "public", "ref:GB:cqc_location": "Y4W1S"}}, {"name": "Penny Brohn Cancer Care", "latitude": 51.4785902, "longitude": -2.6740301, "source": "osm", "_tags": {"addr:city": "Bristol", "addr:postcode": "BS20 0HH", "addr:street": "Chapel Pill Lane", "addr:suburb": "Easton in Gordano", "amenity": "hospital", "fhrs:id": "185478", "healthcare": "hospital", "name": "Penny Brohn Cancer Care", "source:addr": "FHRS Open Data"}}, {"name": "St Michael's Hospital", "latitude": 51.4594053, "longitude": -2.5993056, "source": "osm", "_tags": {"amenity": "hospital", "emergency": "yes", "healthcare": "hospital", "name": "St Michael's Hospital", "wikidata": "Q7590700", "wikipedia": "en:St Michael's Hospital, Bristol"}}, {"name": "Spire Southbank Hospital", "latitude": 52.1812869, "longitude": -2.2162368, "source": "osm", "_tags": {"addr:city": "Worcester", "addr:street": "Bath Road", "amenity": "hospital", "emergency": "no", "healthcare": "hospital", "name": "Spire Southbank Hospital"}}, {"name": "Frenchay Brain Injury Rehabilitation Centre", "latitude": 51.4987895, "longitude": -2.5223956, "source": "osm", "_tags": {"amenity": "hospital", "healthcare": "rehabilitation", "name": "Frenchay Brain Injury Rehabilitation Centre"}}, {"name": "Maindiff Court Hospital", "latitude": 51.833163, "longitude": -2.9955648, "source": "osm", "_tags": {"addr:postcode": "NP7 8NF", "addr:street": "Ross Road", "amenity": "hospital", "contact:phone": "+44 1873 735500", "emergency": "no", "healthcare": "hospital", "name": "Maindiff Court Hospital", "wikidata": "Q6736266", "wikipedia": "en:Maindiff Court Hospital"}}, {"name": "Chepstow Community Hospital", "latitude": 51.6392087, "longitude": -2.6864582, "source": "osm", "_tags": {"addr:city": "Chepstow", "addr:postcode": "NP16 5YX", "addr:street": "Tempest Way", "amenity": "hospital", "healthcare": "hospital", "name": "Chepstow Community Hospital", "source": "Mapbox", "wikidata": "Q5091730"}}, {"name": "Main Building", "latitude": 51.6490997, "longitude": -2.996703, "source": "osm", "_tags": {"addr:city": "Llanfrechfa", "addr:postcode": "NP44 8YN", "addr:street": "Caerleon Road", "building": "hospital", "building:levels": "5", "construction:amenity": "hospital", "construction:healthcare": "hospital", "email": "abhb.enquiries@wales.nhs.uk", "healthcare": "hospital", "healthcare:speciality": "intensive;emergency;cardiology;paediatrics;maternity", "height": "30", "name": "Main Building", "name:cy": "Prif Adeilad", "operator": "Aneurin Bevan University Health Board", "phone": "+44 1633 234 234", "start_date": "2020-11-01", "website": "http://www.wales.nhs.uk/sitesplus/866/page/61210", "wikidata": "Q65119254"}}, {"name": "Thirlestaine Breast Centre", "latitude": 51.8891873, "longitude": -2.0699987, "source": "osm", "_tags": {"HE_ref": "1388139", "addr:street": "Thirlestaine Road", "alt_name": "Thirlestaine Court", "amenity": "hospital", "building": "hospital", "healthcare": "hospital", "listed_status": "Grade II", "name": "Thirlestaine Breast Centre", "operator": "Gloucestershire Hospitals NHS Foundation Trust"}}, {"name": "Grange University Hospital", "latitude": 51.6486418, "longitude": -2.9975185, "source": "osm", "_tags": {"addr:city": "Llanfrechfa", "addr:housename": "Grange University Hospital", "addr:postcode": "NP44 8YN", "addr:street": "Caerleon Road", "amenity": "hospital", "description": "New Grange University Hospital campus opened in 2020 to the north of the existing Grange Hospital", "email": "abhb.enquiries@wales.nhs.uk", "emergency": "yes", "healthcare": "hospital", "healthcare:speciality": "intensive;emergency;cardiology;paediatrics;maternity", "name": "Grange University Hospital", "name:cy": "Ysbyty Athrofaol Y Faenor", "operator": "Aneurin Bevan University Health Board", "operator:type": "government", "phone": "+44 1633 234 234", "website": "http://www.wales.nhs.uk/sitesplus/866/page/61210", "wikidata": "Q65119254", "wikipedia": "en:Grange University Hospital"}}, {"name": "Leckhampton Lodge Health Centre", "latitude": 51.8805146, "longitude": -2.0730327, "source": "osm", "_tags": {"amenity": "hospital", "emergency": "no", "healthcare": "hospital", "name": "Leckhampton Lodge Health Centre", "operator": "NHS", "operator:type": "government", "operator:wikidata": "Q918396"}}, {"name": "", "latitude": 51.6138137, "longitude": -3.0129483, "source": "osm", "_tags": {"amenity": "hospital", "healthcare": "hospital"}}, {"name": "Clevedon Community Hospital", "latitude": 51.4375862, "longitude": -2.8469817, "source": "osm", "_tags": {"addr:city": "Clevedon", "addr:housenumber": "62-68", "addr:postcode": "BS21 6BS", "addr:street": "Old Street", "amenity": "hospital", "fhrs:id": "581771", "healthcare": "hospital", "name": "Clevedon Community Hospital", "operator": "NHS", "operator:type": "public", "operator:wikidata": "Q918396", "phone": "+44 1275 872212", "website": "http://www.nscphealth.co.uk", "wikidata": "Q85846820"}}, {"name": "Belin Centre", "latitude": 51.6119737, "longitude": -2.9568478, "source": "osm", "_tags": {"addr:city": "Newport", "addr:housename": "Orchard House", "addr:postcode": "NP18 1BX", "addr:street": "Goldcroft Common", "amenity": "hospital", "email": "sandra.holder@nas.org.uk", "emergency": "no", "healthcare": "hospital", "healthcare:speciality": "autism;autistic;disabilities;disabled", "name": "Belin Centre", "operator": "National Autistic Society", "operator:type": "charitable", "phone": "+44 2920 629 301", "wheelchair": "yes"}}, {"name": "Glen Usk wing", "latitude": 51.6137039, "longitude": -2.9667343, "source": "osm", "_tags": {"addr:city": "Newport", "addr:postcode": "NP18 3XQ", "addr:street": "Lodge Road", "addr:suburb": "Caerleon", "building:part": "yes", "healthcare": "hospital", "name": "Glen Usk wing", "name:cy": "Adain Glen Usk", "operator": "Aneurin Bevan University Health Board", "operator:type": "government_facility-public", "postal_code": "NP18"}}, {"name": "Bristol Brain Centre", "latitude": 51.4975139, "longitude": -2.591384, "source": "osm", "_tags": {"addr:city": "Bristol", "addr:country": "GB", "addr:housename": "Elgar House", "addr:place": "Elgar House, Southmead Hospital", "addr:postcode": "BS10 5NB", "addr:street": "Southmead Road", "building": "hospital", "healthcare": "hospital", "healthcare:speciality": "brain_centre", "name": "Bristol Brain Centre", "website": "https://www.nbt.nhs.uk/our-services/a-z-services/bristol-brain-centre"}}, {"name": "Chippenham Community Hospital", "latitude": 51.4524977, "longitude": -2.1270681, "source": "osm", "_tags": {"addr:city": "Chippenham", "addr:postcode": "SN15 2AJ", "addr:street": "Rowden Hill", "amenity": "hospital", "healthcare": "hospital", "name": "Chippenham Community Hospital", "wheelchair": "yes"}}, {"name": "Winfield Hospital", "latitude": 51.8802153, "longitude": -2.2421966, "source": "osm", "_tags": {"addr:city": "Gloucester", "addr:postcode": "GL2 9WH", "amenity": "hospital", "building": "yes", "check_date": "2025-08-31", "healthcare": "hospital", "name": "Winfield Hospital", "name:en": "Winfield Hospital", "operator": "Ramsay Health Care", "operator:type": "private", "phone": "+44 1452 306009", "type": "multipolygon", "website": "https://www.winfieldhospital.co.uk"}}, {"name": "Tewkesbury Community Hospital", "latitude": 51.9922873, "longitude": -2.1523176, "source": "osm", "_tags": {"addr:city": "Tewkesbury", "addr:housenumber": "38", "addr:postcode": "GL20 5QN", "addr:street": "Barton Road", "amenity": "hospital", "fhrs:id": "615623", "healthcare": "hospital", "name": "Tewkesbury Community Hospital", "not:addr:postcode": "GL20 5GJ", "operator": "NHS", "operator:wikidata": "Q918396", "phone": "+44 300 421 6100", "ref:GB:cqc_location": "RTQ87", "source": "DigitalGlobe-Premium", "type": "multipolygon"}}, {"name": "Vale Community Hospital", "latitude": 51.6892653, "longitude": -2.354853, "source": "osm", "_tags": {"addr:city": "Dursley", "addr:country": "GB", "addr:postcode": "GL11 4BA", "addr:street": "Lister Road", "amenity": "hospital", "building": "yes", "healthcare": "hospital", "name": "Vale Community Hospital", "operator": "Gloucestershire Care Services NHS Trust", "phone": "+44 300 421 8494", "type": "multipolygon", "vaccination": "covid19", "website": "https://www.glos-care.nhs.uk/", "wheelchair": "yes", "wikidata": "Q96413429", "wikipedia": "en:Vale Community Hospital"}}]