[{"name": "Sankt Marien Hospital", "latitude": 51.4650438, "longitude": 8.8440701, "source": "osm", "_tags": {"addr:city": "Marsberg", "addr:country": "DE", "addr:housenumber": "2", "addr:postcode": "34431", "addr:street": "Marienstraße", "amenity": "hospital", "contact:email": "info@bk-marsberg.de", "contact:phone": "+49 2992 605-0", "contact:website": "https://www.bk-marsberg.de/mhm/", "healthcare": "hospital", "name": "Sankt Marien Hospital", "wheelchair": "yes"}}, {"name": "Klinik Waldfrieden (geschlossen)", "latitude": 51.78797, "longitude": 8.8187326, "source": "osm", "_tags": {"addr:city": "Bad Lippspringe", "addr:country": "DE", "addr:housenumber": "2", "addr:postcode": "33175", "addr:street": "Paul-Fürstenberg-Straße", "amenity": "hospital", "check_date": "2025-05-03", "description": "Klinik aktuell vollständig geschlossen, Stand 03.05.2025", "healthcare": "hospital", "name": "Klinik Waldfrieden (geschlossen)", "note": "geschlossen", "source": "survey;local knowledge"}}, {"name": "Haus Gilead I", "latitude": 52.0139033, "longitude": 8.5253601, "source": "osm", "_tags": {"addr:city": "Bielefeld", "addr:country": "DE", "addr:housenumber": "13", "addr:postcode": "33617", "addr:street": "Burgsteig", "description": "Evangelisches Klinikum Bethel (EvKB) - Haus Gilead I", "email": "info@evkb.de", "emergency": "yes", "healthcare": "hospital", "name": "Haus Gilead I", "opening_hours": "24/7", "operator": "Evangelisches Klinikum Bethel gGmbH", "phone": "+49-521-772700", "source": "Evangelisches Klinikum Bethel (EvKB)", "website": "https://www.evkb.de/", "wheelchair": "yes", "wikidata": "Q1381343", "wikipedia": "de:Evangelisches Klinikum Bethel"}}, {"name": "", "latitude": 52.0417494, "longitude": 8.5406865, "source": "osm", "_tags": {"addr:city": "Bielefeld", "addr:country": "DE", "addr:housenumber": "99", "addr:postcode": "33611", "addr:street": "Schildescher Straße", "description": "Allgemein- und Viszeralchirurgie, Bauchzentrum, Brustzentrum, Kontinenzzentrum, Tumorzentrum, Wundtherapiezentrum, Urologie, Nephrologie, Nuklearmedizin, Diabetologie, Gefäßchirurgie, Prostatakrebszentrum, Neurologie, Schlaflabor, Zentrale Notaufnahme", "email": "info@evkb.de", "emergency": "yes", "healthcare": "hospital", "healthcare:speciality": "urology;neurology;internal;radiology;physiotherapy;surgery;sleep", "loc_name": "Johannes-Krankenhaus / Johanneskrankenhaus", "operator": "Evangelisches Klinikum Bethel gGmbH", "phone": "+49 521 772-702", "source": "Evangelisches Klinikum Bethel (EvKB)", "website": "https://evkb.de/", "wheelchair": "yes", "wikidata": "Q1381343", "wikipedia": "de:Evangelisches Klinikum Bethel"}}, {"name": "Krankenhaus Bad Oeynhausen", "latitude": 52.1935285, "longitude": 8.7974217, "source": "osm", "_tags": {"addr:city": "Bad Oeynhausen", "addr:country": "DE", "addr:housenumber": "28", "addr:postcode": "32545", "addr:street": "Wielandstraße", "amenity": "hospital", "emergency": "yes", "healthcare": "hospital", "name": "Krankenhaus Bad Oeynhausen", "phone": "+49 5731 770", "website": "https://www.muehlenkreiskliniken.de/krankenhaus-bad-oeynhausen", "wheelchair": "yes"}}, {"name": "Karolinen-Hospital", "latitude": 51.425983, "longitude": 7.9996734, "source": "osm", "_tags": {"addr:city": "Arnsberg", "addr:housenumber": "5", "addr:postcode": "59759", "addr:street": "Stolte Ley", "amenity": "hospital", "contact:phone": "+49 2932 952-0", "contact:website": "https://klinikum-hochsauerland.de/das-klinikum/standorte/karolinen-hospital", "emergency": "yes", "healthcare": "hospital", "name": "Karolinen-Hospital", "opening_hours": "24/7", "operator": "Klinikum Hochsauerland GmbH", "wheelchair": "yes"}}, {"name": "Klinikum Lippe-Detmold", "latitude": 51.9412451, "longitude": 8.8797905, "source": "osm", "_tags": {"addr:city": "Detmold", "addr:housenumber": "18", "addr:postcode": "32756", "addr:street": "Röntgenstraße", "amenity": "hospital", "building": "hospital", "building:colour": "white", "building:levels": "8", "building:material": "plaster", "check_date": "2024-04-28", "email": "info@klinikum-lippe.de", "emergency": "yes", "healthcare": "hospital", "name": "Klinikum Lippe-Detmold", "name:etymology:wikidata": "Q1774635", "opening_hours:visitors": "PH open;Mo-So 15:00-19:00", "phone": "+49 5231 72-0", "roof:colour": "grey", "roof:shape": "flat", "website": "https://www.klinikum-lippe.de/", "wheelchair": "yes", "wikidata": "Q1774635"}}, {"name": "St. Lucia", "latitude": 51.963272, "longitude": 8.2253845, "source": "osm", "_tags": {"addr:city": "Harsewinkel", "addr:housenumber": "3", "addr:postcode": "33428", "addr:street": "Dechant-Budde-Weg", "amenity": "hospital", "building": "yes", "emergency": "no", "healthcare": "hospital", "healthcare:speciality": "geriatrics", "name": "St. Lucia", "name:etymology:wikidata": "Q183240", "source:building": "OpenData Kreis Gütersloh - NAS", "website": "https://www.sankt-elisabeth-hospital.de/de/medizin/fachbereiche/geriatrie.php", "wheelchair": "yes"}}, {"name": "Klinik Porta Westfalica", "latitude": 52.1989767, "longitude": 8.805738, "source": "osm", "_tags": {"addr:city": "Bad Oeynhausen", "addr:country": "DE", "addr:housenumber": "65", "addr:postcode": "32547", "addr:street": "Steinstraße", "amenity": "hospital", "emergency": "no", "healthcare": "hospital", "name": "Klinik Porta Westfalica", "wheelchair": "yes"}}, {"name": "Aatalklinik", "latitude": 51.5173063, "longitude": 8.7015778, "source": "osm", "_tags": {"amenity": "hospital", "emergency": "no", "healthcare": "hospital", "name": "Aatalklinik", "website": "https://www.aatalklinik.de", "wheelchair": "yes"}}, {"name": "Auguste-Viktoria-Klinik", "latitude": 52.2073319, "longitude": 8.7869673, "source": "osm", "_tags": {"addr:city": "Bad Oeynhausen", "addr:country": "DE", "addr:housenumber": "2", "addr:postcode": "32545", "addr:street": "Am Kokturkanal", "amenity": "hospital", "emergency": "no", "healthcare": "hospital", "name": "Auguste-Viktoria-Klinik", "wheelchair": "yes"}}, {"name": "Klinik am Rosengarten", "latitude": 52.1999327, "longitude": 8.792604, "source": "osm", "_tags": {"amenity": "hospital", "building": "yes", "emergency": "no", "healthcare": "hospital", "name": "Klinik am Rosengarten", "toilets:wheelchair": "yes", "website": "https://www.klinikamrosengarten.de", "wheelchair": "yes"}}, {"name": "Gollwitzer-Meier-Klinik", "latitude": 52.2028107, "longitude": 8.7931992, "source": "osm", "_tags": {"addr:city": "Bad Oeynhausen", "addr:housenumber": "43", "addr:postcode": "32545", "addr:street": "Herforder Straße", "amenity": "hospital", "email": "info@gollwitzer-meier-klinik.de", "emergency": "no", "fax": "+49 5731 - 249-200", "healthcare": "hospital", "healthcare:speciality": "cardiology", "name": "Gollwitzer-Meier-Klinik", "phone": "+49 5731 - 249-0", "website": "https://www.gollwitzer-meier-klinik.de/", "wikidata": "Q77075703"}}, {"name": "Klinik am Park", "latitude": 52.1991657, "longitude": 8.7907481, "source": "osm", "_tags": {"addr:city": "Bad Oeynhausen", "addr:housenumber": "14", "addr:postcode": "32545", "addr:street": "Westkorso", "amenity": "hospital", "check_date": "2025-09-07", "emergency": "no", "healthcare": "hospital", "name": "Klinik am Park", "operator": "Klinik am Park Quellenh.KG Salze-K.GmbH & Co.", "phone": "+49 5731 248 0", "website": "https://www.median-kliniken.de/", "wheelchair": "limited"}}, {"name": "Johanniter Ordenshäuser", "latitude": 52.1995132, "longitude": 8.7890577, "source": "osm", "_tags": {"addr:city": "Bad Oeynhausen", "addr:housenumber": "7", "addr:postcode": "32545", "addr:street": "Johanniterstraße", "amenity": "hospital", "check_date": "2025-08-21", "emergency": "no", "healthcare": "hospital", "name": "Johanniter Ordenshäuser", "not:brand:wikidata": "Q14751117", "phone": "+49 5731 1510", "toilets:wheelchair": "yes", "website": "https://www.johanniter.de/johanniter-kliniken/johanniter-ordenshaeuser-bad-oeynhausen/", "wheelchair": "yes"}}, {"name": "Klinik am Osterbach", "latitude": 52.1979503, "longitude": 8.7881767, "source": "osm", "_tags": {"addr:city": "Bad Oeynhausen", "addr:housenumber": "2", "addr:postcode": "32545", "addr:street": "Am Osterbach", "amenity": "hospital", "contact:email": "info@klinik-am-osterbach.de", "contact:fax": "+49 5731 159 704", "emergency": "no", "healthcare": "hospital", "name": "Klinik am Osterbach", "operator": "Werner Wicker GmbH & Co. KG", "phone": "+49 5731 159 0", "website": "https://www.klinik-am-osterbach.de/", "wheelchair": "yes"}}, {"name": "Marienhospital Osnabrück", "latitude": 52.2702301, "longitude": 8.0537541, "source": "osm", "_tags": {"addr:city": "Osnabrück", "addr:housenumber": "1", "addr:postcode": "49074", "addr:street": "Bischofsstraße", "amenity": "hospital", "contact:email": "information@mho.de", "contact:fax": "+49-541-326-3001", "contact:phone": "+49-541-326-0", "contact:website": "http://www.niels-stensen-kliniken.de/marienhospital-osnabrueck.html", "emergency": "yes", "healthcare": "hospital", "name": "Marienhospital Osnabrück", "operator": "Niels-Stensen-Kliniken", "short_name": "MHO", "toilets:wheelchair": "yes", "wheelchair": "yes", "wikidata": "Q1897718", "wikipedia": "de:Marienhospital Osnabrück"}}, {"name": "Sankt Vincenz-Krankenhaus", "latitude": 51.7179384, "longitude": 8.7593034, "source": "osm", "_tags": {"amenity": "hospital", "check_date": "2024-03-28", "contact:website": "http://www.vincenz.de/", "healthcare": "hospital", "name": "Sankt Vincenz-Krankenhaus", "wheelchair": "yes"}}, {"name": "Sankt Vincenz Frauen- und Kinderklinik Sankt Louise", "latitude": 51.7087817, "longitude": 8.7645748, "source": "osm", "_tags": {"amenity": "hospital", "healthcare": "hospital", "name": "Sankt Vincenz Frauen- und Kinderklinik Sankt Louise", "wheelchair": "yes"}}, {"name": "Brüderkrankenhaus Sankt Josef", "latitude": 51.7104939, "longitude": 8.7593553, "source": "osm", "_tags": {"addr:city": "Paderborn", "addr:country": "DE", "addr:housenumber": "46", "addr:postcode": "33098", "addr:street": "Husener Straße", "amenity": "hospital", "contact:website": "http://www.bk-paderborn.de", "healthcare": "hospital", "name": "Brüderkrankenhaus Sankt Josef", "wheelchair": "yes"}}, {"name": "Sankt Johannisstift", "latitude": 51.7229357, "longitude": 8.7466193, "source": "osm", "_tags": {"addr:city": "Paderborn", "addr:country": "DE", "addr:housenumber": "28", "addr:postcode": "33102", "addr:street": "Reumontstraße", "amenity": "hospital", "healthcare": "hospital", "name": "Sankt Johannisstift", "website": "https://www.johannisstift.de/", "wheelchair": "yes"}}, {"name": "Johannes Wesling Klinikum", "latitude": 52.2612497, "longitude": 8.8889772, "source": "osm", "_tags": {"addr:city": "Minden", "addr:country": "DE", "addr:housename": "Johannes Wesling Klinikum", "addr:housenumber": "1", "addr:postcode": "32429", "addr:street": "Hans-Nolte-Straße", "amenity": "hospital", "building": "yes", "contact:email": "info@muehlenkreiskliniken.de", "contact:fax": "+49 571 790292929", "emergency": "yes", "healthcare": "hospital", "height": "16", "name": "Johannes Wesling Klinikum", "operator": "Klinikum Minden - Mühlenkreiskliniken AöR", "phone": "+49 571 7900", "website": "https://www.muehlenkreiskliniken.de/", "wheelchair": "yes", "wheelchair:access": "yes", "wikidata": "Q1958489"}}, {"name": "LWL-Klinik Marsberg", "latitude": 51.4577438, "longitude": 8.8397187, "source": "osm", "_tags": {"amenity": "hospital", "healthcare": "hospital", "name": "LWL-Klinik Marsberg", "website": "https://www.lwl-klinik-marsberg.de/"}}, {"name": "Artemed Fachklinik", "latitude": 52.2038558, "longitude": 8.8048911, "source": "osm", "_tags": {"amenity": "hospital", "emergency": "no", "healthcare": "hospital", "name": "Artemed Fachklinik", "website": "https://www.artemed-oeynhausen.de/", "wheelchair": "limited"}}, {"name": "Klinik am Korso", "latitude": 52.2015943, "longitude": 8.7992434, "source": "osm", "_tags": {"addr:city": "Bad Oeynhausen", "addr:housenumber": "4", "addr:postcode": "32545", "addr:street": "Ostkorso", "amenity": "hospital", "emergency": "no", "healthcare": "hospital", "name": "Klinik am Korso", "phone": "+49 5731 1810", "website": "https://www.klinik-am-korso.de/#_", "wheelchair": "yes", "wikidata": "Q1774572", "wikipedia": "de:Klinik am Korso"}}, {"name": "LWL-Klinik Marsberg", "latitude": 51.4541768, "longitude": 8.8599228, "source": "osm", "_tags": {"amenity": "hospital", "healthcare": "hospital", "name": "LWL-Klinik Marsberg"}}, {"name": "LWL-Klinik Marsberg", "latitude": 51.4564163, "longitude": 8.8555236, "source": "osm", "_tags": {"amenity": "hospital", "healthcare": "hospital", "name": "LWL-Klinik Marsberg", "wheelchair": "limited"}}, {"name": "Klinik Lindenplatz", "latitude": 51.5949056, "longitude": 8.176583, "source": "osm", "_tags": {"addr:city": "Bad Sassendorf", "addr:housenumber": "29", "addr:postcode": "59505", "addr:street": "Weslarner Straße", "amenity": "hospital", "building": "yes", "healthcare": "hospital", "name": "Klinik Lindenplatz", "wheelchair": "limited"}}, {"name": "Klinik Wiesengrund", "latitude": 51.59209, "longitude": 8.1727088, "source": "osm", "_tags": {"addr:city": "Bad Sassendorf", "addr:housenumber": "20", "addr:postcode": "59505", "addr:street": "Wiesenstraße", "amenity": "hospital", "building": "yes", "healthcare": "hospital", "name": "Klinik Wiesengrund"}}, {"name": "Herz- und Diabeteszentrum NRW", "latitude": 52.1921497, "longitude": 8.7952165, "source": "osm", "_tags": {"addr:city": "Bad Oeynhausen", "addr:housenumber": "11", "addr:postcode": "32545", "addr:street": "Georgstraße", "amenity": "hospital", "email": "info@hdz-nrw.de", "emergency": "yes", "healthcare": "hospital", "name": "Herz- und Diabeteszentrum NRW", "note": "Herzzentrum B.O.", "opening_hours": "24/7", "operator": "Universitätsklinik der Ruhr-Universität Bochum", "phone": "+49 5731 970", "website": "https://www.hdz-nrw.de", "wheelchair": "yes", "wikidata": "Q1615024"}}, {"name": "Dreifaltigkeits Hospital", "latitude": 51.6730396, "longitude": 8.3383455, "source": "osm", "_tags": {"addr:city": "Lippstadt", "addr:country": "DE", "addr:housenumber": "31", "addr:postcode": "59555", "addr:street": "Klosterstraße", "amenity": "hospital", "emergency": "yes", "healthcare": "hospital", "name": "Dreifaltigkeits Hospital", "website": "https://dreifaltigkeits-hospital.de/", "wheelchair": "yes"}}, {"name": "Klinikum Stadt Soest", "latitude": 51.5655545, "longitude": 8.0775502, "source": "osm", "_tags": {"amenity": "hospital", "contact:email": "info@klinikumstadtsoest.de", "contact:fax": "+49 2921 65620", "contact:phone": "+49 2921 900", "contact:website": "https://klinikumstadtsoest.de", "emergency": "yes", "healthcare": "hospital", "name": "Klinikum Stadt Soest", "old_name": "Stadtkrankenhaus", "opening_hours": "24/7", "operator": "Klinikum Stadt Soest gGmbH", "toilets:wheelchair": "yes", "wheelchair": "yes"}}, {"name": "Niels-Stensen-Kliniken Bramsche", "latitude": 52.408985, "longitude": 7.9860891, "source": "osm", "_tags": {"addr:housenumber": "16", "addr:street": "Hasestraße", "amenity": "hospital", "check_date": "2024-08-07", "emergency": "yes", "healthcare": "hospital", "name": "Niels-Stensen-Kliniken Bramsche", "old_name": "Johanniter-Krankenhaus Bramsche", "operator": "Niels-Stensen-Kliniken", "website": "https://www.niels-stensen-kliniken.de/niels-stensen-kliniken-bramsche.html"}}, {"name": "Klinik Quellenhof", "latitude": 51.5924426, "longitude": 8.1535886, "source": "osm", "_tags": {"addr:city": "Bad Sassendorf", "addr:housenumber": "3", "addr:postcode": "59505", "addr:street": "Hepper Straße", "amenity": "hospital", "building": "yes", "healthcare": "hospital", "name": "Klinik Quellenhof"}}, {"name": "LWL-Klinik Gütersloh", "latitude": 51.8962346, "longitude": 8.3504278, "source": "osm", "_tags": {"addr:city": "Gütersloh", "addr:housenumber": "50", "addr:postcode": "33334", "addr:street": "Buxelstraße", "amenity": "hospital", "emergency": "no", "healthcare": "hospital", "healthcare:speciality": "psychiatry", "name": "LWL-Klinik Gütersloh", "operator": "Landschaftsverband Westfalen-Lippe", "toilets:wheelchair": "yes", "website": "https://www.lwl-klinikum-guetersloh.de/de/", "wheelchair": "yes", "wikidata": "Q1798472"}}, {"name": "Sankt Elisabeth Hospital", "latitude": 51.8824224, "longitude": 8.3814439, "source": "osm", "_tags": {"addr:city": "Gütersloh", "addr:housenumber": "130", "addr:postcode": "33332", "addr:street": "Stadtring Kattenstroth", "amenity": "hospital", "emergency": "yes", "healthcare": "hospital", "name": "Sankt Elisabeth Hospital", "website": "https://www.sankt-elisabeth-hospital.de/", "wheelchair": "yes", "wikidata": "Q2221900"}}, {"name": "Klinik am Hellweg", "latitude": 51.5877663, "longitude": 8.1684542, "source": "osm", "_tags": {"addr:city": "Bad Sassendorf", "addr:housenumber": "2", "addr:postcode": "59505", "addr:street": "Bismarckstraße", "amenity": "hospital", "building": "yes", "healthcare": "hospital", "name": "Klinik am Hellweg"}}, {"name": "Diagnose und Therapiezentrum / Kurmittelhaus", "latitude": 51.5872248, "longitude": 8.169395, "source": "osm", "_tags": {"addr:city": "Bad Sassendorf", "addr:country": "DE", "addr:housenumber": "16", "addr:postcode": "59505", "addr:street": "Kaiserstraße", "amenity": "hospital", "building": "yes", "healthcare": "hospital", "name": "Diagnose und Therapiezentrum / Kurmittelhaus"}}, {"name": "Klinik am Park", "latitude": 51.5900203, "longitude": 8.1723743, "source": "osm", "_tags": {"addr:city": "Bad Sassendorf", "addr:housenumber": "9", "addr:postcode": "59505", "addr:street": "Berliner Straße", "amenity": "hospital", "building": "yes", "healthcare": "hospital", "name": "Klinik am Park", "wheelchair": "yes"}}, {"name": "Klinikum Gütersloh", "latitude": 51.8974159, "longitude": 8.3850347, "source": "osm", "_tags": {"addr:city": "Gütersloh", "addr:country": "DE", "addr:housenumber": "19", "addr:postcode": "33332", "addr:street": "Reckenberger Straße", "amenity": "hospital", "emergency": "yes", "healthcare": "hospital", "name": "Klinikum Gütersloh", "website": "https://www.klinikum-guetersloh.de/", "wheelchair": "yes", "wikidata": "Q1774616"}}, {"name": "Christliches Kinderhospital Osnabrück", "latitude": 52.2698941, "longitude": 8.0530625, "source": "osm", "_tags": {"addr:city": "Osnabrück", "addr:country": "DE", "addr:housenumber": "1", "addr:postcode": "49074", "addr:street": "Johannisfreiheit", "amenity": "hospital", "check_date": "2025-07-27", "contact:email": "info@ckos.de", "contact:fax": "+49-541-7000-6942", "contact:phone": "+49-541-7000-6000", "contact:website": "http://www.ckos.de", "emergency": "yes", "healthcare": "hospital", "name": "Christliches Kinderhospital Osnabrück", "opening_hours": "24/7", "short_name": "CKO", "toilets:wheelchair": "yes", "wheelchair": "yes", "wikidata": "Q60560381"}}, {"name": "Klinikum Herford", "latitude": 52.1270427, "longitude": 8.6998588, "source": "osm", "_tags": {"amenity": "hospital", "contact:fax": "+49 5221 42649", "contact:phone": "+49 5221 94-0", "contact:website": "https://www.klinikum-herford.de/", "emergency": "yes", "healthcare": "hospital", "name": "Klinikum Herford", "opening_hours": "24/7", "wheelchair": "yes", "wikidata": "Q1774618", "wikipedia": "de:Klinikum Herford"}}, {"name": "Reha-Klinik Panorama", "latitude": 51.7171887, "longitude": 8.3298289, "source": "osm", "_tags": {"addr:city": "Lippstadt", "addr:country": "DE", "addr:housenumber": "5", "addr:postcode": "59556", "addr:street": "Eichenweg", "addr:suburb": "Bad Waldliesborn", "amenity": "hospital", "building": "yes", "email": "info@reha-klinik-panorama.de", "healthcare": "hospital", "healthcare:speciality": "orthopaedics;physiatry", "name": "Reha-Klinik Panorama", "operator": "Reha-Klinik Panorama GmbH", "website": "https://www.reha-klinik-panorama.de"}}, {"name": "St. Johannes-Hospital", "latitude": 51.4504518, "longitude": 7.9639921, "source": "osm", "_tags": {"addr:city": "Arnsberg", "addr:country": "DE", "addr:housenumber": "7", "addr:postcode": "59755", "addr:street": "Springufer", "addr:suburb": "Neheim-Hüsten", "amenity": "hospital", "building": "yes", "loc_name": "JoHo", "name": "St. Johannes-Hospital", "operator": "Klinikum Arnsberg", "website": "http://www.joho-arnsberg.de", "wheelchair": "yes"}}, {"name": "Mathilden-Hospital Herford", "latitude": 52.1120115, "longitude": 8.6750338, "source": "osm", "_tags": {"amenity": "hospital", "contact:fax": "+49 5221 593-4204", "email": "info@mathilden-hospital.de", "emergency": "yes", "emergency:phone": "+49 5221 5932121", "healthcare": "hospital", "name": "Mathilden-Hospital Herford", "operator": "Katholische Hospitalvereinigung Ostwestfalen", "phone": "+49 5221 593-0", "website": "https://www.mathilden-hospital.de/de/", "wikidata": "Q1562930", "wikipedia": "de:Mathilden-Hospital (Herford)"}}, {"name": "Kinderklinik", "latitude": 52.1263464, "longitude": 8.6991914, "source": "osm", "_tags": {"amenity": "hospital", "building": "hospital", "building:colour": "#B1A3A0", "building:levels": "1", "emergency": "yes", "healthcare": "hospital", "healthcare:speciality": "paediatrics", "height": "4", "name": "Kinderklinik", "operator": "Klinikum Herford", "operator:type": "public", "roof:colour": "#B1A3A0", "wheelchair": "yes"}}, {"name": "Marienkrankenhaus Soest", "latitude": 51.5749376, "longitude": 8.1123508, "source": "osm", "_tags": {"addr:city": "Soest", "addr:housenumber": "5", "addr:postcode": "59494", "addr:street": "Widumgasse", "alt_name": "K 10/1", "amenity": "hospital", "building": "hospital", "check_date": "2024-08-01", "contact:email": "info@marienkrankenhaus-soest.de", "contact:fax": "+49 2921 391 2240", "contact:phone": "+49 2921 391 0", "contact:website": "http://www.marienkrankenhaus-soest.de/", "healthcare": "hospital", "name": "Marienkrankenhaus Soest", "roof:colour": "grey", "wheelchair": "yes"}}, {"name": "Evangelische Krankenhaus Enger", "latitude": 52.1398741, "longitude": 8.5648676, "source": "osm", "_tags": {"addr:city": "Enger", "addr:housenumber": "47", "addr:postcode": "32130", "addr:street": "Hagenstraße", "amenity": "hospital", "emergency": "no", "healthcare": "hospital", "name": "Evangelische Krankenhaus Enger", "website": "https://www.krankenhaus-enger.de", "wheelchair": "yes"}}, {"name": "Hospital zum Hl. Geist Geseke", "latitude": 51.6366454, "longitude": 8.5098743, "source": "osm", "_tags": {"addr:city": "Geseke", "addr:country": "DE", "addr:housenumber": "76", "addr:postcode": "59590", "addr:street": "Bachstraße", "amenity": "hospital", "building": "yes", "healthcare": "hospital", "name": "Hospital zum Hl. Geist Geseke", "phone": "+49 2942 5900", "website": "https://www.dreifaltigkeits-hospital.de/index.php?krankenhaus=Geseke"}}, {"name": "Lukas-Krankenhaus", "latitude": 52.198184, "longitude": 8.5946289, "source": "osm", "_tags": {"addr:city": "Bünde", "addr:housenumber": "56", "addr:postcode": "32257", "addr:street": "Hindenburgstraße", "alt_name": "Lukaskrankenhaus", "amenity": "hospital", "check_date": "2025-02-16", "contact:email": "info@lukas-krankenhaus.de", "contact:fax": "+49 5223 167-192", "contact:phone": "+49 5223 167-0", "contact:website": "http://www.lukas-krankenhaus.de", "emergency": "yes", "healthcare": "hospital", "name": "Lukas-Krankenhaus", "official_name": "Lukas-Krankenhaus Bünde", "toilets:wheelchair": "yes", "wheelchair": "limited", "wikidata": "Q1876864", "wikipedia": "de:Lukas-Krankenhaus Bünde"}}, {"name": "Klinik Wiesengrund", "latitude": 51.5919027, "longitude": 8.1729118, "source": "osm", "_tags": {"addr:city": "Bad Sassendorf", "addr:housenumber": "100", "addr:postcode": "59505", "addr:street": "Berliner Straße", "amenity": "hospital", "building": "yes", "healthcare": "hospital", "name": "Klinik Wiesengrund"}}, {"name": "Reha-Klinik Panorama", "latitude": 51.7171044, "longitude": 8.3304627, "source": "osm", "_tags": {"addr:city": "Lippstadt", "addr:country": "DE", "addr:housenumber": "3", "addr:postcode": "59556", "addr:street": "Eichenweg", "addr:suburb": "Bad Waldliesborn", "amenity": "hospital", "building": "yes", "name": "Reha-Klinik Panorama"}}, {"name": "Klinikum Lippe Lemgo", "latitude": 52.0377286, "longitude": 8.9002791, "source": "osm", "_tags": {"addr:city": "Lemgo", "addr:housenumber": "85", "addr:postcode": "32657", "addr:street": "Rintelner Straße", "amenity": "hospital", "emergency": "yes", "healthcare": "hospital", "name": "Klinikum Lippe Lemgo", "note": "Hier wird fleißig gebaut. Alle neuen Gebäude und das Parkhaus nachtragen.", "operator": "Klinikum Lippe GmbH", "toilets:wheelchair": "yes", "wheelchair": "yes", "wikimedia_commons": "File:Klikum-Lippe-Lemgo.png"}}, {"name": "vita nova Klinik", "latitude": 52.0872455, "longitude": 8.7440895, "source": "osm", "_tags": {"addr:city": "Bad Salzuflen", "addr:country": "DE", "addr:housenumber": "9 - 13", "addr:postcode": "32105", "addr:street": "Roonstraße", "amenity": "hospital", "building": "hospital", "email": "info@vitanova-kliniken.de", "emergency": "no", "healthcare": "clinic", "healthcare:speciality": "psychiatry", "name": "vita nova Klinik", "note": "Private Fachklinik, Psychiatrie, Psychosomatische Medizin und Psychotherapie einschl. Schmerztherapie", "operator": "Vita Nova Klinikbetreibergesellschaft mbH", "phone": "+49 5222 343450", "website": "https://www.vitanova-kliniken.de/"}}, {"name": "Salzetalklinik", "latitude": 52.0942156, "longitude": 8.7610544, "source": "osm", "_tags": {"addr:city": "Bad Salzuflen", "addr:country": "DE", "amenity": "hospital", "contact:fax": "+49 5222 186-3987", "contact:phone": "+49 5222 186-0", "contact:website": "https://salzetal.deutsche-rentenversicherung-reha-zentren.de", "healthcare": "rehabilitation", "name": "Salzetalklinik", "operator": "Deutschen Rentenversicherung Westfalen", "operator:wikidata": "Q1203793", "wheelchair": "yes"}}, {"name": "Reha-Klinik Lipperland", "latitude": 52.0900728, "longitude": 8.7566064, "source": "osm", "_tags": {"addr:city": "Bad Salzuflen", "addr:country": "DE", "addr:postcode": "32105", "amenity": "hospital", "contact:phone": "+49 5222 620", "contact:website": "http://www.rehazentrum-badsalzuflen.de/reha-zentrum-bad-salzuflen/klinik-lipperland/unsere-klinik/unsere-klinik.html", "healthcare": "rehabilitation", "name": "Reha-Klinik Lipperland", "operator": "Deutschen Rentenversicherung Bund", "operator:wikidata": "Q1203782"}}, {"name": "Klinik am Lietholz", "latitude": 52.0930222, "longitude": 8.7567341, "source": "osm", "_tags": {"addr:city": "Bad Salzuflen", "addr:country": "DE", "addr:housenumber": "31", "addr:postcode": "32105", "addr:street": "Lietholzstraße", "amenity": "hospital", "emergency": "no", "healthcare": "hospital", "healthcare:speciality": "physiatry", "name": "Klinik am Lietholz", "operator": "Deutsche Rentenversicherung Bund", "phone": "+49 5222 620", "website": "https://www.reha-klinik-am-lietholz.de/klinik/am_lietholz/startseite/startseite_node.html"}}, {"name": "MEDIAN Klinik am Burggraben Bad Salzuflen", "latitude": 52.0963209, "longitude": 8.7615904, "source": "osm", "_tags": {"addr:city": "Bad Salzuflen", "addr:country": "DE", "addr:housenumber": "47-49", "addr:postcode": "32105", "addr:street": "Alte Vlothoer Straße", "amenity": "hospital", "contact:email": "kontakt.klinikamburggraben@median-kliniken.de", "contact:phone": "+49 5222 37-0", "contact:website": "https://www.median-kliniken.de/de/median-klinik-am-burggraben-bad-salzuflen/", "healthcare": "rehabilitation", "name": "MEDIAN Klinik am Burggraben Bad Salzuflen", "operator": "MEDIAN Unternehmensgruppe B.V. & Co. KG", "operator:wikidata": "Q1916200"}}, {"name": "Sankt Vinzenz Hospital", "latitude": 51.8328322, "longitude": 8.3305795, "source": "osm", "_tags": {"amenity": "hospital", "healthcare": "hospital", "name": "Sankt Vinzenz Hospital", "wheelchair": "yes"}}, {"name": "Josephs-Hospital", "latitude": 51.9607739, "longitude": 8.0023675, "source": "osm", "_tags": {"addr:city": "Warendorf", "addr:country": "DE", "addr:housenumber": "2", "addr:postcode": "48231", "addr:street": "Am Krankenhaus", "amenity": "hospital", "contact:email": "info@jhwaf.de", "contact:fax": "+49 2581 201003", "contact:phone": "+49 2581 200", "contact:website": "http://jhwaf.de/", "emergency": "yes", "name": "Josephs-Hospital", "operator": "Stiftung Josephs-Hospital Warendorf", "wheelchair": "yes"}}, {"name": "Franziskus-Hospital Harderberg", "latitude": 52.2377281, "longitude": 8.0721747, "source": "osm", "_tags": {"addr:city": "Georgsmarienhütte", "addr:housenumber": "23", "addr:postcode": "49124", "addr:street": "Alte Rothenfelder Straße", "alt_name": "Klinikum St. Georg GmbH", "amenity": "hospital", "contact:phone": "+49 541 5020", "contact:website": "http://www.niels-stensen-kliniken.de/franziskus-hospital-harderberg.html", "emergency": "yes", "healthcare": "hospital", "name": "Franziskus-Hospital Harderberg", "operator": "Niels-Stensen-Kliniken"}}, {"name": "LWL-Klinik Paderborn", "latitude": 51.7190025, "longitude": 8.7636941, "source": "osm", "_tags": {"addr:city": "Paderborn", "addr:country": "DE", "addr:housenumber": "1", "addr:postcode": "33098", "addr:street": "Agathastraße", "amenity": "hospital", "healthcare": "hospital", "name": "LWL-Klinik Paderborn", "website": "https://www.lwl-klinik-paderborn.de/de/", "wheelchair": "yes"}}, {"name": "Klinikum Osnabrück", "latitude": 52.2781976, "longitude": 8.0025079, "source": "osm", "_tags": {"addr:city": "Osnabrück", "addr:housenumber": "1", "addr:postcode": "49076", "addr:street": "Am Finkenhügel", "alt_name": "Klinikum am Finkenhügel Osnabrück", "amenity": "hospital", "check_date": "2025-07-09", "emergency": "yes", "healthcare": "hospital", "hospital:level:DE": "3", "name": "Klinikum Osnabrück", "operator": "Stadt Osnabrück", "website": "https://www.klinikum-os.de/", "wheelchair": "yes", "wikidata": "Q15823873"}}, {"name": "Kinderhospital Osnabrück", "latitude": 52.2518192, "longitude": 8.0646915, "source": "osm", "_tags": {"addr:city": "Osnabrück", "addr:country": "DE", "addr:housenumber": "187", "addr:postcode": "49082", "addr:street": "Iburger Straße", "amenity": "hospital", "emergency": "no", "healthcare": "hospital", "healthcare:speciality": "child_psychiatry", "name": "Kinderhospital Osnabrück", "source": "frida", "wheelchair": "yes", "wikidata": "Q1741819", "wikipedia": "de:Kinderhospital Osnabrück"}}, {"name": "", "latitude": 51.787096, "longitude": 8.7984743, "source": "osm", "_tags": {"building": "hospital", "building:levels": "3", "building:material": "brick", "healthcare": "hospital", "roof:shape": "half-hipped", "source": "NRW DOP;NRW ALKIS"}}, {"name": "", "latitude": 51.7873871, "longitude": 8.7989126, "source": "osm", "_tags": {"building": "hospital", "building:levels": "3", "building:material": "brick", "healthcare": "hospital", "roof:shape": "half-hipped", "source": "NRW DOP;NRW ALKIS"}}, {"name": "Klinik am Park", "latitude": 51.7872763, "longitude": 8.7996146, "source": "osm", "_tags": {"addr:city": "Bad Lippspringe", "addr:country": "DE", "addr:housenumber": "25", "addr:postcode": "33175", "addr:street": "Auguste-Viktoria-Allee", "amenity": "hospital", "healthcare": "hospital", "name": "Klinik am Park", "operator": "Medizinisches Zentrum für Gesundheit", "website": "https://www.medizinisches-zentrum.de/einrichtungen/klinik-am-park-1/"}}, {"name": "Kurwald-Klinik", "latitude": 51.7888224, "longitude": 8.8041712, "source": "osm", "_tags": {"amenity": "hospital", "healthcare": "hospital", "name": "Kurwald-Klinik"}}, {"name": "Cecilien-Klinik", "latitude": 51.7875157, "longitude": 8.8176662, "source": "osm", "_tags": {"addr:city": "Bad Lippspringe", "addr:housenumber": "26", "addr:postcode": "33175", "addr:street": "Lindenstraße", "amenity": "hospital", "description": "Reha / Kur Klinik - ACHTUNG Kein aktut Krankenhaus - keine Notaufnahme", "healthcare": "hospital", "internet_access": "wlan", "name": "Cecilien-Klinik", "website": "https://www.medizinisches-zentrum.de/einrichtungen/cecilien-klinik/", "wheelchair": "yes"}}, {"name": "Klinik Martinusquelle", "latitude": 51.7870058, "longitude": 8.8100806, "source": "osm", "_tags": {"amenity": "hospital", "healthcare": "hospital", "healthcare:speciality": "cardiology", "name": "Klinik Martinusquelle", "operator": "Medizinisches Zentrum für Gesundheit Bad Lippspringe"}}, {"name": "Karl-Hansen-Klinik", "latitude": 51.7822674, "longitude": 8.8263057, "source": "osm", "_tags": {"amenity": "hospital", "healthcare": "hospital", "healthcare:speciality": "pulmonology", "name": "Karl-Hansen-Klinik", "website": "https://www.medizinisches-zentrum.de/akutkarl-hansen-klinik", "wheelchair": "limited"}}, {"name": "Teutoburger-Wald-Klinik", "latitude": 51.7836625, "longitude": 8.8281349, "source": "osm", "_tags": {"amenity": "hospital", "healthcare": "hospital", "name": "Teutoburger-Wald-Klinik", "toilets:wheelchair": "yes", "wheelchair": "yes"}}, {"name": "Krankenhaus Lübbecke", "latitude": 52.2957885, "longitude": 8.6038136, "source": "osm", "_tags": {"addr:city": "Lübbecke", "addr:housenumber": "65", "addr:postcode": "32312", "addr:street": "Virchowstraße", "amenity": "hospital", "contact:email": "information-luebbecke@muehlenkreiskliniken.de", "contact:fax": "+49 5741 9999", "contact:phone": "+49 5741 350", "contact:website": "https://www.muehlenkreiskliniken.de/krankenhaus-luebbecke.html", "emergency": "yes", "healthcare": "hospital", "name": "Krankenhaus Lübbecke", "opening_hours": "24/7", "operator": "Mühlenkreisklinik AöR"}}, {"name": "St. Josefs-Krankenhaus", "latitude": 51.678315, "longitude": 8.618025, "source": "osm", "_tags": {"amenity": "hospital", "contact:phone": "+49 5258/10-0", "contact:website": "http://www.st-josefs.de/", "healthcare": "hospital", "name": "St. Josefs-Krankenhaus"}}, {"name": "Klinikum Bielefeld Rosenhöhe", "latitude": 51.9823661, "longitude": 8.5323312, "source": "osm", "_tags": {"addr:city": "Bielefeld", "addr:country": "DE", "addr:housenumber": "27", "addr:postcode": "33647", "addr:street": "An der Rosenhöhe", "amenity": "hospital", "email": "info@klinikumbielefeld.de", "emergency": "yes", "healthcare": "hospital", "healthcare:speciality": "dermatology;geriatrics;internal;ophthalmology;orthopaedics;surgery;trauma", "name": "Klinikum Bielefeld Rosenhöhe", "opening_hours": "24/7", "operator": "Klinikum Bielefeld gem. GmbH", "phone": "+49 521 943-50", "toilets:wheelchair": "no", "website": "https://www.klinikumbielefeld.de/fachkliniken-bielefeld-rosenhoehe.html", "wheelchair": "yes"}}, {"name": "MEDIAN Klinik NRZ Bad Salzuflen", "latitude": 52.0971412, "longitude": 8.7502872, "source": "osm", "_tags": {"addr:city": "Bad Salzuflen", "addr:country": "DE", "addr:postcode": "32105", "amenity": "hospital", "contact:email": "kontakt.nrz-badsalzuflen@median-kliniken.de", "contact:phone": "+49 5222 398-0", "contact:website": "https://www.median-kliniken.de/de/median-nrz-bad-salzuflen", "healthcare": "rehabilitation", "name": "MEDIAN Klinik NRZ Bad Salzuflen", "old_name": "Klinik Flachsheide", "operator": "MEDIAN Unternehmensgruppe B.V. & Co. KG", "operator:wikidata": "Q1916200", "wheelchair": "yes"}}, {"name": "Krankenhaus Maria-Hilf", "latitude": 51.4417984, "longitude": 8.355693, "source": "osm", "_tags": {"amenity": "hospital", "email": "info@krankenhaus-warstein.de", "emergency": "yes", "fax": "+49 2902 891-198", "healthcare": "hospital", "healthcare:speciality": "general;surgery;fertility;gastroenterology;gynaecology;internal;cardiology;neurology;orthopaedics;radiology;trauma", "name": "Krankenhaus Maria-Hilf", "opening_hours": "24/7", "operator": "Krankenhaus Maria Hilf GmbH", "phone": "+49 2902 891-0", "website": "https://www.krankenhaus-warstein.de/"}}, {"name": "Klinikum Bielefeld Mitte", "latitude": 52.0144103, "longitude": 8.5445336, "source": "osm", "_tags": {"addr:city": "Bielefeld", "addr:country": "DE", "addr:housenumber": "50", "addr:postcode": "33604", "addr:street": "Teutoburger Straße", "amenity": "hospital", "email": "info@klinikumbielefeld.de", "emergency": "yes", "healthcare": "hospital", "hospital:level:DE": "3", "name": "Klinikum Bielefeld Mitte", "opening_hours": "24/7", "operator": "Klinikum Bielefeld gem. GmbH", "phone": "+49 521 581-0", "website": "https://www.klinikumbielefeld.de/", "wheelchair": "yes", "wikidata": "Q1774594"}}, {"name": "Evangelisches Klinikum Bethel", "latitude": 52.0134833, "longitude": 8.5255207, "source": "osm", "_tags": {"addr:city": "Bielefeld", "addr:country": "DE", "addr:housenumber": "11", "addr:postcode": "33617", "addr:street": "Kantensiek", "amenity": "hospital", "contact:fax": "+49 521 772 78013", "contact:phone": "+49 521 772 78011", "contact:website": "https://www.evkb.de/", "description": "Evangelisches Klinikum Bethel Standort Bethel", "email": "info@evkb.de", "emergency": "yes", "healthcare": "hospital", "name": "Evangelisches Klinikum Bethel", "operator": "Evangelisches Klinikum Bethel gGmbH", "phone": "+49 521 772 78011", "website": "https://evkb.de/", "wheelchair": "yes"}}, {"name": "Kinderzentrum Bethel", "latitude": 52.0119323, "longitude": 8.5300139, "source": "osm", "_tags": {"addr:city": "Bielefeld", "addr:country": "DE", "addr:housenumber": "10", "addr:postcode": "33617", "addr:street": "Grenzweg", "alt_name": "Evangelisches Klinikum Bethel Kinderzentrum", "amenity": "hospital", "check_date": "2025-06-06", "email": "kinderklinik@evkb.de", "emergency": "yes", "fixme": "muss noch weiter ergänzt werden", "healthcare": "hospital", "name": "Kinderzentrum Bethel", "operator": "Evangelisches Klinikum Bethel gGmbH", "phone": "+49 521 772-705", "website": "https://evkb.de/kliniken-zentren/zentren/kinderzentrum/", "wheelchair": "yes"}}, {"name": "Klinikum Halle (Westf.)", "latitude": 52.0545192, "longitude": 8.3548009, "source": "osm", "_tags": {"amenity": "hospital", "contact:email": "info@klinikumhalle.de", "contact:phone": "+49 5201 188-0", "contact:website": "https://www.klinikumbielefeld.de/fachkliniken-halle-westfalen.html", "emergency": "yes", "healthcare": "hospital", "name": "Klinikum Halle (Westf.)", "opening_hours": "24/7", "operator": "Betriebsleitung der Klinikum Bielefeld gem. GmbH", "wheelchair": "yes"}}, {"name": "Franziskus Hospital", "latitude": 52.0227162, "longitude": 8.5231108, "source": "osm", "_tags": {"addr:city": "Bielefeld", "addr:country": "DE", "addr:housenumber": "26", "addr:postcode": "33615", "addr:street": "Kiskerstraße", "amenity": "hospital", "email": "info@franziskus.de", "emergency": "yes", "emergency_telephone_code": "+49 521 589 1351", "fax": "+49 521 589-4204", "healthcare": "hospital", "loc_name": "Klösterchen", "name": "Franziskus Hospital", "opening_hours": "24/7", "operator": "Franziskus Hospital Bielefeld", "phone": "+49 521 589-0", "website": "http://www.franziskus.de/", "wheelchair": "yes", "wikidata": "Q1450404"}}, {"name": "Johannesstift", "latitude": 52.0424293, "longitude": 8.5402014, "source": "osm", "_tags": {"addr:city": "Bielefeld", "addr:country": "DE", "addr:housenumber": "99", "addr:postcode": "33611", "addr:street": "Schildescher Straße", "amenity": "hospital", "contact:phone": "+49 521 772-702", "contact:website": "https://evkb.de/", "email": "info@evkb.de", "emergency": "yes", "healthcare": "hospital", "name": "Johannesstift", "operator": "Evangelisches Klinikum Bethel gGmbH", "phone": "+49 521 772-702", "website": "https://evkb.de/ueber-uns/standorte-anfahrt/johannesstift/", "wikidata": "Q1381343", "wikipedia": "de:Evangelisches Klinikum Bethel"}}, {"name": "Dr. Becker Klinik Möhnesee", "latitude": 51.49224, "longitude": 8.1173597, "source": "osm", "_tags": {"addr:city": "Möhnesee", "addr:country": "DE", "addr:housenumber": "2", "addr:postcode": "59519", "addr:street": "Schnappweg", "addr:suburb": "Körbecke", "amenity": "hospital", "contact:email": "info.klinik-moehnesee@dbkg.de", "contact:fax": "+49 2924 800-555", "contact:phone": "+49 2924 800-0", "contact:website": "https://www.dbkg.de/kliniken/klinik_moehnesee", "healthcare": "rehabilitation", "name": "Dr. Becker Klinik Möhnesee", "operator": "Dr. Becker Klinikgesellschaft mbH & Co. KG", "operator:wikidata": "Q1253817", "wheelchair": "yes"}}, {"name": "", "latitude": 51.715429, "longitude": 8.3403924, "source": "osm", "_tags": {"amenity": "hospital", "healthcare": "rehabilitation"}}, {"name": "Christliches Krankenhaus (Wiedenbrücker Straße)", "latitude": 51.6847853, "longitude": 8.342369, "source": "osm", "_tags": {"addr:city": "Lippstadt", "addr:housenumber": "33", "addr:postcode": "59555", "addr:street": "Wiedenbrücker Straße", "amenity": "hospital", "emergency": "yes", "healthcare": "hospital", "name": "Christliches Krankenhaus (Wiedenbrücker Straße)", "operator": "Klinikum Lippstadt GmbH", "website": "https://klinikumlippstadt.de/"}}, {"name": "Marienhospital", "latitude": 51.8219153, "longitude": 8.1424854, "source": "osm", "_tags": {"amenity": "hospital", "emergency": "yes", "healthcare": "hospital", "name": "Marienhospital", "opening_hours": "24/7"}}, {"name": "Kinderzentrum Haus 2", "latitude": 52.0113194, "longitude": 8.5314571, "source": "osm", "_tags": {"addr:city": "Bielefeld", "addr:country": "DE", "addr:housenumber": "14", "addr:postcode": "33617", "addr:street": "Grenzweg", "amenity": "hospital", "description": "Kinderzentrum im Evangelischen Klinikum Bethel (EvKB) - Haus II", "email": "kindertagesklinik@evkb.de", "emergency": "yes", "healthcare": "hospital", "name": "Kinderzentrum Haus 2", "operator": "Evangelisches Klinikum Bethel gGmbH", "phone": "+49-521-77278050", "source": "Evangelisches Klinikum Bethel gGmbH", "website": "https://evkb.de/kliniken-zentren/zentren/kinderzentrum/", "wheelchair": "yes", "wikidata": "Q1381343", "wikipedia": "de:Evangelisches Klinikum Bethel"}}, {"name": "Krankenhaus Mara", "latitude": 52.0069768, "longitude": 8.5281024, "source": "osm", "_tags": {"addr:city": "Bielefeld", "addr:country": "DE", "addr:housename": "Mara", "addr:housenumber": "21", "addr:postcode": "33617", "addr:street": "Maraweg", "amenity": "hospital", "email": "info@mara.de", "emergency": "yes", "healthcare": "hospital", "name": "Krankenhaus Mara", "note": "Epilepsie-Zentrum Bethel und Zentrum für Behindertenmedizin", "phone": "+49 0521 772-701", "source": "Krankenhaus Mara gGmbH", "website": "https://www.mara.de/", "wheelchair": "yes", "wikidata": "Q1381343", "wikipedia": "de:Evangelisches Klinikum Bethel"}}, {"name": "Krankenhaus Sankt Raphael Ostercappeln", "latitude": 52.3442425, "longitude": 8.230239, "source": "osm", "_tags": {"amenity": "hospital", "emergency": "yes", "healthcare": "hospital", "name": "Krankenhaus Sankt Raphael Ostercappeln", "note": "Krankenhaus wird zum 31.07.2025 dauerhaft geschlossen.", "note:source": "https://www.niels-stensen-kliniken.de/aktuelles/medizinstrategie.html", "operator": "Niels-Stensen-Kliniken", "phone": "+49 5473 29 0", "website": "https://www.niels-stensen-kliniken.de/krankenhaus-st-raphael.html", "wheelchair": "yes"}}, {"name": "Schüchtermann-Klinik", "latitude": 52.1126522, "longitude": 8.1643976, "source": "osm", "_tags": {"addr:city": "Bad Rothenfelde", "addr:country": "DE", "addr:housenumber": "5-11", "addr:postcode": "49214", "addr:street": "Ulmenallee", "amenity": "hospital", "building": "hospital", "contact:email": "empfang@schuechtermann-klinik.de", "contact:fax": "+49 5424 641 598", "contact:phone": "+49 5424 641 0", "contact:website": "http://www.schuechtermann-klinik.de", "emergency": "yes", "healthcare": "hospital", "name": "Schüchtermann-Klinik", "type": "multipolygon", "wikipedia": "de:Schüchtermann"}}, {"name": "Christliches Klinikum Melle", "latitude": 52.1986424, "longitude": 8.3364486, "source": "osm", "_tags": {"addr:city": "Melle", "addr:housenumber": "3", "addr:postcode": "49324", "addr:street": "Engelgarten", "amenity": "hospital", "building": "yes", "email": "info@ck-melle.de", "emergency": "yes", "fax": "+49 5422 104 5599", "healthcare": "hospital", "name": "Christliches Klinikum Melle", "opening_hours": "24/7", "phone": "+49 5422 104 0", "type": "multipolygon", "website": "https://www.niels-stensen-kliniken.de/christliches-klinikum-melle.html", "wheelchair": "yes"}}, {"name": "Marien-Hospital Erwitte", "latitude": 51.6151728, "longitude": 8.3387207, "source": "osm", "_tags": {"addr:city": "Erwitte", "addr:housenumber": "14", "addr:postcode": "59597", "addr:street": "Von-Droste-Straße", "amenity": "hospital", "building": "hospital", "contact:email": "info@dreifaltigkeits-hospital.de", "contact:fax": "+49 2943 890-8809", "contact:phone": "+49 2943 890-0", "contact:website": "https://dreifaltigkeits-hospital.de/erwitte/", "emergency": "no", "healthcare": "hospital", "name": "Marien-Hospital Erwitte", "opening_hours": "24/7", "operator": "Dreifaltigkeits-Hospital gGmbH", "type": "multipolygon", "wheelchair": "yes"}}, {"name": "Klinik am Hellweg", "latitude": 51.5871717, "longitude": 8.1705369, "source": "osm", "_tags": {"addr:city": "Bad Sassendorf", "addr:housenumber": "6", "addr:postcode": "59505", "addr:street": "Friedrichstraße", "amenity": "hospital", "building": "yes", "healthcare": "hospital", "name": "Klinik am Hellweg", "type": "multipolygon", "wheelchair": "limited"}}, {"name": "AMEOS Klinikum Osnabrück", "latitude": 52.2860443, "longitude": 8.0536599, "source": "osm", "_tags": {"addr:city": "Osnabrück", "addr:postcode": "49088", "amenity": "hospital", "area": "yes", "emergency": "no", "healthcare": "hospital", "healthcare:speciality": "psychiatry", "name": "AMEOS Klinikum Osnabrück", "old_name": "Provinzialständige Irrenanstalt Osnabrück;Landeskrankenhaus Osnabrück", "operator": "Ameos", "operator:type": "private", "operator:wikidata": "Q462865", "operator:wikipedia": "de:Ameos", "type": "multipolygon", "website": "https://www.ameos.eu/standorte/ameos-west/osnabrueck/ameos-klinikum-osnabrueck/", "wikidata": "Q54046715", "wikipedia": "de:Ameos Klinikum Osnabrück"}}, {"name": "St. Elisabeth-Hospital", "latitude": 51.7526753, "longitude": 8.0388477, "source": "osm", "_tags": {"addr:city": "Beckum", "addr:country": "DE", "addr:housenumber": "10", "addr:postcode": "59269", "addr:street": "Elisabethstraße", "amenity": "hospital", "building": "yes", "emergency": "yes", "healthcare": "hospital", "healthcare:speciality": "emergency;intensive;surgery;internal;urology;vascular_surgery;geriatrics;trauma", "name": "St. Elisabeth-Hospital", "operator": "St. Franziskus-Stiftung Münster", "operator:type": "private", "operator:wikidata": "Q2318238", "type": "multipolygon", "website": "https://www.krankenhaus-beckum.de", "wheelchair": "yes"}}]