[{"name": "Wojewódzki Szpital dla Nerwowo i Psychicznie Chorych w Suchowoli", "latitude": 51.7039456, "longitude": 22.7271091, "source": "osm", "_tags": {"amenity": "hospital", "name": "Wojewódzki Szpital dla Nerwowo i Psychicznie Chorych w Suchowoli", "name:uk": "Обласна Лікарня для Нервово і Душевнохворих в Суховолові"}}, {"name": "Poradnie specjalistyczne", "latitude": 51.6334806, "longitude": 22.9113041, "source": "osm", "_tags": {"amenity": "hospital", "name": "Poradnie specjalistyczne"}}, {"name": "Samodzielny Publiczny Zakład Opieki Zdrowotnej w Siemiatyczach", "latitude": 52.4216083, "longitude": 22.8637328, "source": "osm", "_tags": {"addr:city": "Siemiatycze", "addr:housenumber": "8", "addr:postcode": "17-300", "addr:street": "Szpitalna", "amenity": "hospital", "email": "sekretariat@spzozsiemiatycze.pl", "healthcare": "hospital", "name": "Samodzielny Publiczny Zakład Opieki Zdrowotnej w Siemiatyczach", "phone": "+48 85 655 22 66", "website": "https://spzozsiemiatycze.pl/"}}, {"name": "", "latitude": 51.6331886, "longitude": 22.9136359, "source": "osm", "_tags": {"addr:city": "Parczew", "addr:city:simc": "0922254", "addr:housenumber": "138", "addr:postcode": "21-200", "addr:street": "Kościelna", "addr:street:sym_ul": "09546", "amenity": "hospital", "building": "yes", "source:addr": "parczew.e-mapa.net"}}, {"name": "Szpital Powiatowy w Lubartowie (SPZOZ)", "latitude": 51.4563189, "longitude": 22.6183883, "source": "osm", "_tags": {"addr:city": "Lubartów", "addr:postcode": "21-100", "amenity": "hospital", "email": "sekretariat@spzoz-lubartow.pl", "emergency": "yes", "healthcare": "hospital", "name": "Szpital Powiatowy w Lubartowie (SPZOZ)", "phone": "+48 81 855 20 41", "website": "https://www.spzoz-lubartow.pl"}}, {"name": "Szpital Powiatowy w Parczewie (SPZOZ)", "latitude": 51.6336072, "longitude": 22.9128627, "source": "osm", "_tags": {"addr:city": "Parczew", "addr:housenumber": "136", "addr:postcode": "21-200", "addr:street": "Kościelna", "amenity": "hospital", "emergency": "yes", "healthcare": "hospital", "name": "Szpital Powiatowy w Parczewie (SPZOZ)", "phone": "83 355 21 02", "website": "https://www.spzozparczew.pl", "wikimedia_commons": "File:Szpital_w_Parczewie_-_panoramio.jpg"}}, {"name": "Samodzielny Publiczny Zakład Opieki Zdrowotnej - Szpital Specjalistyczny w Puławach", "latitude": 51.4212523, "longitude": 21.9733138, "source": "osm", "_tags": {"amenity": "hospital", "email": "spzoz@szpitalpulawy.pl", "emergency": "yes", "healthcare": "hospital", "name": "Samodzielny Publiczny Zakład Opieki Zdrowotnej - Szpital Specjalistyczny w Puławach", "name:uk": "Самостійне публічне підприємство оздоровчого догляду (СППОД) Спеціалізована Лікарня", "phone": "81 450 22 74", "website": "https://www.szpitalpulawy.pl//"}}, {"name": "Szpital Powiatowy w Międzyrzecu Podlaskim", "latitude": 51.9847199, "longitude": 22.787437, "source": "osm", "_tags": {"addr:city": "Międzyrzec Podlaski", "addr:housenumber": "2-4", "addr:postcode": "21-560", "addr:street": "Warszawska", "amenity": "hospital", "email": "spzozmc@spzozmc.pl", "name": "Szpital Powiatowy w Międzyrzecu Podlaskim", "name:uk": "Районна Лікарня в Мензижечу Поласким", "official_name": "Szpital Powiatowy SPZOZ w Międzyrzecu Podlaskim", "phone": "+48833714011", "website": "https://spzozmc.pl/"}}, {"name": "Szpital Powiatowy w Łukowie im. św. Tadeusza (SPZOZ)", "latitude": 51.924267, "longitude": 22.3805134, "source": "osm", "_tags": {"addr:city": "Łuków", "addr:housenumber": "3", "addr:postcode": "21-400", "addr:street": "Doktora Andrzeja Rogalińskiego", "amenity": "hospital", "email": "spzoz@spzoz.lukow.pl", "emergency": "yes", "healthcare": "hospital", "name": "Szpital Powiatowy w Łukowie im. św. Tadeusza (SPZOZ)", "opening_hours": "24/7", "operator:type": "public", "phone": "25 798 20 00", "website": "https://spzoz.lukow.pl/", "wheelchair": "yes"}}, {"name": "Mazowiecki Szpital Wojewódzki w Siedlcach", "latitude": 52.17698, "longitude": 22.2922539, "source": "osm", "_tags": {"amenity": "hospital", "healthcare": "hospital", "name": "Mazowiecki Szpital Wojewódzki w Siedlcach", "website": "https://szpital.siedlce.pl/", "wheelchair": "limited"}}, {"name": "Szpital Miejski w Siedlcach", "latitude": 52.1690811, "longitude": 22.2859662, "source": "osm", "_tags": {"amenity": "hospital", "healthcare": "hospital", "name": "Szpital Miejski w Siedlcach"}}, {"name": "Szpital Powiatowy w Radzyniu Podlaskim (SPZOZ)", "latitude": 51.7711211, "longitude": 22.6074823, "source": "osm", "_tags": {"addr:city": "Radzyń Podlaski", "addr:postcode": "21-300", "addr:street": "Generała Franciszka Kleeberga", "amenity": "hospital", "email": "sekretariat@spzozrp.pl", "emergency": "yes", "healthcare": "hospital", "name": "Szpital Powiatowy w Radzyniu Podlaskim (SPZOZ)", "opening_hours": "24/7", "phone": "+48 83 413 22 67", "website": "https://spzozrp.pl/", "wheelchair": "yes"}}, {"name": "Samodzielny Publiczny Zakład Opieki Zdrowotnej - Szpital Powiatowy w Węgrowie", "latitude": 52.4058385, "longitude": 22.0638713, "source": "osm", "_tags": {"amenity": "hospital", "email": "sekretariat@spzoz.wegrow.pl", "healthcare": "hospital", "name": "Samodzielny Publiczny Zakład Opieki Zdrowotnej - Szpital Powiatowy w Węgrowie", "phone": "459 599 800", "website": "https://nowa.spzoz.wegrow.pl"}}, {"name": "Samodzielny Publiczny Zakład Opieki Zdrowotnej w Łosicach", "latitude": 52.2152375, "longitude": 22.7076257, "source": "osm", "_tags": {"amenity": "hospital", "email": "spzozlosice@pro.onet.pl", "healthcare": "hospital", "name": "Samodzielny Publiczny Zakład Opieki Zdrowotnej w Łosicach", "phone": "083 357 26 42", "website": "http://www.spzozlosice.pl"}}, {"name": "Stacja Pogotowia Ratunkowego i Transportu Sanitarnego RM-MEDITRANS", "latitude": 52.3984256, "longitude": 22.2500598, "source": "osm", "_tags": {"amenity": "clinic", "healthcare": "hospital", "name": "Stacja Pogotowia Ratunkowego i Transportu Sanitarnego RM-MEDITRANS"}}, {"name": "Szpital Powiatowy im. Zbigniewa Koprowskiego", "latitude": 52.4035885, "longitude": 22.2418486, "source": "osm", "_tags": {"amenity": "hospital", "email": "kancelaria@spzozsokolow.pl", "emergency": "yes", "healthcare": "hospital", "name": "Szpital Powiatowy im. Zbigniewa Koprowskiego", "operator": "Samodzielny Publiczny Zakład Opieki Zdrowotnej", "phone": "257 817 200", "website": "https://spzozsokolow.pl/"}}]