[{"name": "Lampeter Medical Practice", "latitude": 52.1125961, "longitude": -4.076953, "source": "osm", "_tags": {"addr:city": "Lampeter", "addr:housename": "Lampeter Medicall Practice", "addr:postcode": "SA48 7AA", "addr:street": "Bridge Street", "amenity": "hospital", "emergency": "no", "healthcare": "hospital", "name": "Lampeter Medical Practice"}}, {"name": "Withybush Hospital", "latitude": 51.8131241, "longitude": -4.9646904, "source": "osm", "_tags": {"addr:postcode": "SA61 2PZ", "addr:street": "Fishguard Road", "amenity": "hospital", "fhrs:id": "856282", "healthcare": "hospital", "name": "Withybush Hospital", "name:cy": "Ysbyty Cyffredinol Llwynhelyg", "source:addr": "FHRS Open Data", "wheelchair": "yes", "wikidata": "Q8028300", "wikipedia": "en:Withybush General Hospital"}}, {"name": "Prince Philip Hospital", "latitude": 51.6919683, "longitude": -4.1354596, "source": "osm", "_tags": {"access": "permissive", "amenity": "hospital", "emergency": "yes", "healthcare": "hospital", "motor_vehicle": "permissive", "name": "Prince Philip Hospital", "name:cy": "Ysbyty Tywysog Philip", "wheelchair": "yes", "wikidata": "Q30280386"}}, {"name": "Ysbyty Bronglais / Bronglais Hospital", "latitude": 52.4163834, "longitude": -4.0717943, "source": "osm", "_tags": {"addr:city": "Aberystwyth", "addr:postcode": "SY23 1ER", "amenity": "hospital", "check_date": "2025-03-29", "dispensing": "yes", "electricity": "grid", "emergency": "yes", "fhrs:id": "863648", "health_amenity:type": "emergency_department;operating_theater;x_ray", "healthcare": "hospital", "healthcare:speciality": "anaesthetics;emergency;paediatrics", "insurance:health": "public", "name": "Ysbyty Bronglais / Bronglais Hospital", "name:cy": "Ysbyty Bronglais", "name:en": "Bronglais Hospital", "note": "Approximate area", "operational_status": "operational", "pharmacy": "yes", "source": "OS_OpenData_StreetView;Bing", "website": "http://www.wales.nhs.uk/sitesplus/862/page/41089", "wikidata": "Q22338221", "wikipedia": "en:Bronglais Hospital"}}, {"name": "South Pembrokeshire Hospital", "latitude": 51.6928458, "longitude": -4.9564043, "source": "osm", "_tags": {"addr:postcode": "SA72 6SX", "addr:street": "Fort Road", "amenity": "hospital", "fhrs:id": "856893", "healthcare": "hospital", "name": "South Pembrokeshire Hospital", "source:addr": "FHRS Open Data", "wikidata": "Q19604556"}}, {"name": "Hafan Derwen Psychiatric Unit", "latitude": 51.8565844, "longitude": -4.337879, "source": "osm", "_tags": {"amenity": "hospital", "healthcare": "hospital", "name": "Hafan Derwen Psychiatric Unit", "operator": "NHS (Hywel Dda Health Board)"}}, {"name": "Aberaeron Integrated Care Centre", "latitude": 52.2378197, "longitude": -4.2577004, "source": "osm", "_tags": {"addr:city": "Aberaeron", "addr:housename": "Integrated Care Centre", "addr:postcode": "SA46 0DY", "addr:street": "Vicarage Hill,", "amenity": "hospital", "building:levels": "2", "healthcare": "hospital", "healthcare:speciality": "community", "name": "Aberaeron Integrated Care Centre", "note": "Front of the building at ground floor is Outpatient clinic\nRear of building is Tanyfron GP Surgery. Upstairs is Health office space", "operator": "Hywel Dda University Health Board", "operator:type": "state_primary_health_care"}}, {"name": "Ambulance station", "latitude": 52.2373556, "longitude": -4.2566841, "source": "osm", "_tags": {"addr:city": "Aberaeron", "addr:housename": "Integrated Health Centre", "addr:postcode": "SA46 0DY", "addr:street": "Vicarage Hill", "amenity": "hospital", "emergency": "yes", "healthcare": "hospital", "healthcare:speciality": "general;ambulance", "name": "Ambulance station", "operator": "WAST", "operator:type": "public"}}, {"name": "Tenby Cottage Hospital", "latitude": 51.6775464, "longitude": -4.7028074, "source": "osm", "_tags": {"addr:postcode": "SA70 8AG", "addr:street": "Gas Lane", "amenity": "hospital", "fhrs:id": "856689", "healthcare": "hospital", "name": "Tenby Cottage Hospital", "source:addr": "FHRS Open Data", "wikidata": "Q65078774"}}, {"name": "Ysbyty Cyffredinol Glangwili / Glangwili General Hospital", "latitude": 51.8681033, "longitude": -4.2845401, "source": "osm", "_tags": {"addr:city": "Carmarthen", "addr:postcode": "SA31 2AF", "addr:street": "Dolgwili Road", "amenity": "hospital", "healthcare": "hospital", "name": "Ysbyty Cyffredinol Glangwili / Glangwili General Hospital", "name:cy": "Ysbyty Cyffredinol Glangwili", "name:en": "Glangwili General Hospital", "operator": "Hywel Dda Local Health Board", "phone": "+44 1267 235151", "wikidata": "Q18378847", "wikipedia": "en:Glangwili General Hospital"}}, {"name": "Ysbyty Werndale Private Hospital", "latitude": 51.8343617, "longitude": -4.4374841, "source": "osm", "_tags": {"amenity": "hospital", "healthcare": "hospital", "name": "Ysbyty Werndale Private Hospital", "name:cy": "Ysbyty Werndale"}}, {"name": "Brynmair", "latitude": 51.6854943, "longitude": -4.1625883, "source": "osm", "_tags": {"addr:city": "Llanelli", "addr:housenumber": "11", "addr:postcode": "SA15 3HH", "addr:street": "Goring Road", "amenity": "hospital", "emergency": "no", "healthcare": "hospital", "name": "Brynmair", "operator": "Hywel Dda Health Board", "operator:type": "public"}}]