[{"name": "Centrum Leczenia Dzieci i Młodzieży w Zaborze", "latitude": 51.949309, "longitude": 15.7155629, "source": "osm", "_tags": {"addr:city": "Zabór", "addr:housenumber": "1", "addr:postcode": "66-003", "addr:street": "Zamkowa", "amenity": "hospital", "healthcare": "hospital", "name": "Centrum Leczenia Dzieci i Młodzieży w Zaborze"}}, {"name": "Pogotowie, Nocna i Świąteczna Opieka Lekarska", "latitude": 51.7870131, "longitude": 14.9693221, "source": "osm", "_tags": {"addr:city": "Lubsko", "addr:city:simc": "0988490", "addr:housenumber": "4", "addr:postcode": "68-300", "addr:street": "Mikołaja Reja", "amenity": "hospital", "building:levels": "2", "healthcare": "hospital", "name": "Pogotowie, Nocna i Świąteczna Opieka Lekarska", "source:addr": "lubsko.e-mapa.net"}}, {"name": "Szpital Na Wyspie", "latitude": 51.793966, "longitude": 14.9746803, "source": "osm", "_tags": {"addr:city": "Lubsko", "addr:city:simc": "0988490", "addr:housenumber": "1a", "addr:postcode": "68-300", "addr:street": "Pokoju", "amenity": "hospital", "building": "yes", "healthcare": "hospital", "name": "Szpital Na Wyspie", "operator": "Szpital Na Wyspie Sp. z o.o.", "source:addr": "lubsko.e-mapa.net", "url": "https://fotopolska.eu/NZOZ_Szpital_na_Wyspie_Sp._z_o.o._Lubsko?map_z=17"}}, {"name": "Szpital Uniwersytecki w Zielonej Górze", "latitude": 51.9408352, "longitude": 15.5203693, "source": "osm", "_tags": {"addr:city": "Zielona Góra", "addr:housenumber": "26", "addr:postcode": "65-046", "addr:street": "Zyty", "amenity": "hospital", "email": "kancelaria@szpital.zgora.pl", "emergency": "yes", "healthcare": "hospital", "name": "Szpital Uniwersytecki w Zielonej Górze", "official_name": "Szpital Uniwersytecki  im. Karola Marcinkowskiego w Zielonej Górze Sp. z o.o.", "old_name": "Krankenhaus Bethesda", "phone": "+48 68 329 63 41", "url": "https://polska-org.pl/534258,Zielona_Gora,Szpital_Uniwersytecki_im_Karola_Marcinkowskiego.html", "website": "https://szpital.zgora.pl/", "wikidata": "Q48844301", "wikipedia": "pl:Szpital Uniwersytecki im. Karola Marcinkowskiego w Zielonej Górze"}}, {"name": "Neurologia - Oddział 20", "latitude": 52.144108, "longitude": 15.4031712, "source": "osm", "_tags": {"addr:city:simc": "0913539", "addr:housenumber": "43", "addr:place": "Cibórz", "addr:postcode": "66-213", "amenity": "hospital", "building": "yes", "healthcare": "hospital", "name": "Neurologia - Oddział 20", "source:addr": "skape.e-mapa.net"}}, {"name": "Szpital - Oddział 1", "latitude": 52.1469093, "longitude": 15.4097949, "source": "osm", "_tags": {"addr:city:simc": "0913539", "addr:housenumber": "61", "addr:place": "Cibórz", "addr:postcode": "66-213", "amenity": "hospital", "building": "yes", "healthcare": "hospital", "name": "Szpital - Oddział 1", "source:addr": "skape.e-mapa.net"}}, {"name": "Szpital - Oddział 10(ZOL X)", "latitude": 52.1456867, "longitude": 15.4069817, "source": "osm", "_tags": {"addr:city:simc": "0913539", "addr:housenumber": "54", "addr:place": "Cibórz", "addr:postcode": "66-213", "amenity": "hospital", "building": "yes", "healthcare": "hospital", "name": "Szpital - Oddział 10(ZOL X)", "source:addr": "skape.e-mapa.net"}}, {"name": "Szpital - Oddział 15", "latitude": 52.1441747, "longitude": 15.4058219, "source": "osm", "_tags": {"addr:city:simc": "0913539", "addr:housenumber": "48", "addr:place": "Cibórz", "addr:postcode": "66-213", "amenity": "hospital", "building": "yes", "healthcare": "hospital", "name": "Szpital - Oddział 15", "source:addr": "skape.e-mapa.net"}}, {"name": "Szpital - Oddział 17", "latitude": 52.1438699, "longitude": 15.4048207, "source": "osm", "_tags": {"addr:city:simc": "0913539", "addr:housenumber": "46", "addr:place": "Cibórz", "addr:postcode": "66-213", "amenity": "hospital", "building": "yes", "healthcare": "hospital", "image": "https://photos.app.goo.gl/5aLDGnvvDSZADs8X7", "mapillary": "1247743805644087", "name": "Szpital - Oddział 17", "source:addr": "skape.e-mapa.net"}}, {"name": "Szpital - Oddział 18", "latitude": 52.1442902, "longitude": 15.4040615, "source": "osm", "_tags": {"addr:city:simc": "0913539", "addr:housenumber": "44", "addr:place": "Cibórz", "addr:postcode": "66-213", "amenity": "hospital", "building": "yes", "healthcare": "hospital", "name": "Szpital - Oddział 18", "source:addr": "skape.e-mapa.net"}}, {"name": "Szpital - Oddział 19", "latitude": 52.1436992, "longitude": 15.4038455, "source": "osm", "_tags": {"addr:city:simc": "0913539", "addr:housenumber": "45", "addr:place": "Cibórz", "addr:postcode": "66-213", "amenity": "hospital", "building": "yes", "healthcare": "hospital", "image": "https://photos.app.goo.gl/zZA5rBu4DycvGdh2A", "mapillary": "317500496502684", "name": "Szpital - Oddział 19", "source:addr": "skape.e-mapa.net"}}, {"name": "Szpital - Oddział 2", "latitude": 52.1464712, "longitude": 15.4098266, "source": "osm", "_tags": {"addr:city:simc": "0913539", "addr:housenumber": "60", "addr:place": "Cibórz", "addr:postcode": "66-213", "amenity": "hospital", "building": "yes", "healthcare": "hospital", "name": "Szpital - Oddział 2", "source:addr": "skape.e-mapa.net"}}, {"name": "Szpital - Oddział 3", "latitude": 52.1460299, "longitude": 15.4097194, "source": "osm", "_tags": {"addr:city:simc": "0913539", "addr:housenumber": "59", "addr:place": "Cibórz", "addr:postcode": "66-213", "amenity": "hospital", "building": "yes", "healthcare": "hospital", "name": "Szpital - Oddział 3", "source:addr": "skape.e-mapa.net"}}, {"name": "Szpital - Oddział 4", "latitude": 52.1456043, "longitude": 15.4094125, "source": "osm", "_tags": {"addr:city:simc": "0913539", "addr:housenumber": "58", "addr:place": "Cibórz", "addr:postcode": "66-213", "amenity": "hospital", "building": "yes", "healthcare": "hospital", "image": "https://photos.app.goo.gl/fH3HVbSEf4Js3Mkh8", "mapillary": "3948768061906906", "name": "Szpital - Oddział 4", "source:addr": "skape.e-mapa.net"}}, {"name": "Szpital - Oddział 6", "latitude": 52.1449875, "longitude": 15.408473, "source": "osm", "_tags": {"addr:city:simc": "0913539", "addr:housenumber": "56", "addr:place": "Cibórz", "addr:postcode": "66-213", "amenity": "hospital", "building": "yes", "healthcare": "hospital", "image": "https://photos.app.goo.gl/4kcioW4ZcRpy2Kwo7", "mapillary": "2994782000764612", "name": "Szpital - Oddział 6", "source:addr": "skape.e-mapa.net"}}, {"name": "Szpital - Oddział 7", "latitude": 52.1470585, "longitude": 15.4074921, "source": "osm", "_tags": {"addr:city:simc": "0913539", "addr:housenumber": "66", "addr:place": "Cibórz", "addr:postcode": "66-213", "amenity": "hospital", "building": "yes", "healthcare": "hospital", "name": "Szpital - Oddział 7", "source:addr": "skape.e-mapa.net"}}, {"name": "Szpital - Oddział 8", "latitude": 52.1465967, "longitude": 15.407519, "source": "osm", "_tags": {"addr:city:simc": "0913539", "addr:housenumber": "65", "addr:place": "Cibórz", "addr:postcode": "66-213", "amenity": "hospital", "building": "yes", "healthcare": "hospital", "name": "Szpital - Oddział 8", "source:addr": "skape.e-mapa.net"}}, {"name": "Szpital - Oddział 9", "latitude": 52.1461682, "longitude": 15.4073562, "source": "osm", "_tags": {"addr:city:simc": "0913539", "addr:housenumber": "55", "addr:place": "Cibórz", "addr:postcode": "66-213", "amenity": "hospital", "building": "yes", "healthcare": "hospital", "name": "Szpital - Oddział 9", "source:addr": "skape.e-mapa.net"}}, {"name": "Szpital - Oddział 14B", "latitude": 52.1447955, "longitude": 15.4057357, "source": "osm", "_tags": {"addr:city:simc": "0913539", "addr:housenumber": "50", "addr:place": "Cibórz", "addr:postcode": "66-213", "amenity": "hospital", "building": "yes", "healthcare": "hospital", "name": "Szpital - Oddział 14B", "source:addr": "skape.e-mapa.net"}}, {"name": "Szpital - Oddział 16C", "latitude": 52.1445004, "longitude": 15.4049098, "source": "osm", "_tags": {"addr:city:simc": "0913539", "addr:housenumber": "47", "addr:place": "Cibórz", "addr:postcode": "66-213", "amenity": "hospital", "building": "yes", "healthcare": "hospital", "name": "Szpital - Oddział 16C", "source:addr": "skape.e-mapa.net"}}, {"name": "Lubuskie Centrum Ortopedii Im. Dr. Lecha Wierusza", "latitude": 52.2505139, "longitude": 15.5349678, "source": "osm", "_tags": {"addr:city": "Świebodzin", "addr:housenumber": "1", "addr:postcode": "66-200", "addr:street": "Zamkowa", "alt_name": "LORO", "amenity": "hospital", "building": "yes", "email": "sekretariat@loro.pl", "emergency": "yes", "facebook": "https://www.facebook.com/pages/category/Hospital/Lubuskie-Centrum-Ortopedii-w-%C5%9Awiebodzinie-dawniej-LORO-1864388923807728/", "healthcare": "hospital", "healthcare:speciality": "orthopaedics", "image": "https://photos.app.goo.gl/8MmtqBzDGvYpdbyv5", "mapillary": "338069787738882", "name": "Lubuskie Centrum Ortopedii Im. Dr. Lecha Wierusza", "operator": "Lubuskie Centrum Ortopedii im. Dr. Lecha Wierusza Sp. z o.o.", "phone": "+48 68 475 06 01", "source": "EMUiA UMiG Świebodzin", "url": "https://polska-org.pl/7514818,Swiebodzin,Lubuskie_Centrum_Ortopedii_im_Dr_Lecha_Wierusza.html", "url:0": "https://fotopolska.eu/62995,obiekt.html?map_z=18", "website": "https://www.loro.pl/"}}, {"name": "Lubuskie Centrum Ortopedii Im. Dr. Lecha Wierusza", "latitude": 52.2506432, "longitude": 15.5354018, "source": "osm", "_tags": {"addr:city": "Świebodzin", "addr:housenumber": "1", "addr:postcode": "66-200", "addr:street": "Zamkowa", "alt_name": "LORO", "amenity": "hospital", "building": "yes", "email": "sekretariat@loro.pl", "emergency": "yes", "facebook": "https://www.facebook.com/pages/category/Hospital/Lubuskie-Centrum-Ortopedii-w-%C5%9Awiebodzinie-dawniej-LORO-1864388923807728/", "healthcare": "hospital", "healthcare:speciality": "orthopaedics", "heritage": "2", "historic": "yes", "image": "https://photos.app.goo.gl/Wv2oFErajeyqyARp6", "mapillary": "338069787738882", "name": "Lubuskie Centrum Ortopedii Im. Dr. Lecha Wierusza", "old_name": "Zamek Joannitów", "operator": "Lubuskie Centrum Ortopedii im. Dr. Lecha Wierusza Sp. z o.o.", "phone": "+48 68 475 06 01", "source": "EMUiA UMiG Świebodzin", "url": "https://polska-org.pl/7514818,Swiebodzin,Lubuskie_Centrum_Ortopedii_im_Dr_Lecha_Wierusza.html", "website": "https://www.loro.pl/"}}, {"name": "Wojewódzki Szpital Specjalistyczny dla Nerwowo i Psychicznie Chorych", "latitude": 52.1452987, "longitude": 15.4061473, "source": "osm", "_tags": {"amenity": "hospital", "healthcare": "hospital", "name": "Wojewódzki Szpital Specjalistyczny dla Nerwowo i Psychicznie Chorych", "url": "https://fotopolska.eu/Ciborz_Szpital_psychiatryczny?map_z=17"}}, {"name": "Nowy Szpital w Szprotawie sp. z o.o.", "latitude": 51.5673018, "longitude": 15.5532847, "source": "osm", "_tags": {"amenity": "hospital", "barrier": "fence", "email": "sekretariat.szprotawa@nowyszpital.pl", "emergency": "no", "healthcare": "hospital", "name": "Nowy Szpital w Szprotawie sp. z o.o.", "operator": "Grupa Nowy Szpital Holding S.A.", "phone": "+48 41 240 2311", "website": "https://www.nowyszpital.pl/"}}, {"name": "Wielospecjalistyczny Szpital Samodzielny Publiczny Zakład Opieki Zdrowotnej w Nowej Soli", "latitude": 51.8060897, "longitude": 15.6882249, "source": "osm", "_tags": {"addr:city": "Nowa Sól", "addr:city:simc": "0988520", "addr:housenumber": "7", "addr:postcode": "67-100", "addr:street": "Tytusa Chałubińskiego", "amenity": "hospital", "barrier": "fence", "email": "sekretariat@szpital-nowasol.pl", "emergency": "yes", "healthcare": "hospital", "name": "Wielospecjalistyczny Szpital Samodzielny Publiczny Zakład Opieki Zdrowotnej w Nowej Soli", "operator": "Powiat Nowosolski", "phone": "+48 68 38 82 100", "source:addr": "gugik.gov.pl", "website": "https://szpital-nowasol.pl/"}}, {"name": "Zachodnie Centrum Medyczne sp. z o.o.", "latitude": 52.0570999, "longitude": 15.0984623, "source": "osm", "_tags": {"amenity": "hospital", "email": "sekretariat@szpitalzcm.pl", "emergency": "no", "healthcare": "hospital", "name": "Zachodnie Centrum Medyczne sp. z o.o.", "phone": "+48 68 419 75 80", "website": "https://szpitalzcm.pl/"}}, {"name": "FILIA 105. Kresowy Szpital Wojskowy z Przychodnią SPZOZ", "latitude": 51.6125567, "longitude": 15.3318791, "source": "osm", "_tags": {"addr:city": "Żagań", "addr:housenumber": "1", "addr:postcode": "68-100", "addr:street": "Żelazna", "amenity": "hospital", "email": "info@105szpital.pl", "emergency": "no", "healthcare": "hospital", "name": "FILIA 105. Kresowy Szpital Wojskowy z Przychodnią SPZOZ", "phone": "+48 68 477 12 02", "website": "https://www.105szpital.pl/"}}, {"name": "Poliklinika - Szpital MSWiA", "latitude": 51.9420286, "longitude": 15.5206933, "source": "osm", "_tags": {"addr:city": "Zielona Góra", "addr:housenumber": "42", "addr:postcode": "65-044", "addr:street": "Wazów", "amenity": "hospital", "email": "dyrektor@poliklinika.zgora.pl", "emergency": "yes", "healthcare": "hospital", "name": "Poliklinika - Szpital MSWiA", "official_name": "Samodzielny Publiczny Zakład Opieki Zdrowotnej Ministerstwa Spraw Wewnętrznych i Administracji w Zielonej Górze", "operator": "Ministerstwo Spraw Wewnętrznych i Administracji", "phone": "+48 68 452 77 78", "website": "http://www.poliklinika.zgora.pl"}}, {"name": "Samodzielny Publiczny Zakład Opieki Zdrowotnej w Sulechowie", "latitude": 52.089176, "longitude": 15.6226002, "source": "osm", "_tags": {"addr:city": "Sulechów", "addr:housenumber": "1", "addr:postcode": "66-100", "addr:street": "Zwycięstwa", "amenity": "hospital", "email": "spzoz@spzozsulechow.med.pl", "emergency": "no", "healthcare": "hospital", "mobile": "+48 797 606 252", "name": "Samodzielny Publiczny Zakład Opieki Zdrowotnej w Sulechowie", "operator": "Powiat Zielonogórski", "phone": "+48 68 416 13 03", "website": "https://www.spzozsulechow.med.pl/"}}, {"name": "", "latitude": 51.6439227, "longitude": 15.1528136, "source": "osm", "_tags": {"amenity": "hospital", "healthcare": "hospital"}}, {"name": "105. Kresowy Szpital Wojskowy z Przychodnią SP ZOZ w Żarach", "latitude": 51.6430353, "longitude": 15.1481561, "source": "osm", "_tags": {"amenity": "hospital", "healthcare": "hospital", "name": "105. Kresowy Szpital Wojskowy z Przychodnią SP ZOZ w Żarach"}}, {"name": "Nowy Szpital w Świebodzinie sp. z o.o.", "latitude": 52.2520465, "longitude": 15.5345723, "source": "osm", "_tags": {"addr:city": "Świebodzin", "addr:housenumber": "6", "addr:postcode": "66-200", "addr:street": "Młyńska", "amenity": "hospital", "building": "hospital", "email": "swiebodzin@nowyszpital.pl", "emergency": "yes", "healthcare": "hospital", "image": "https://photos.app.goo.gl/zD8cwJRwYGNLu6Wi7", "name": "Nowy Szpital w Świebodzinie sp. z o.o.", "operator": "Nowy Szpital w Świebodzinie sp. z o.o.", "phone": "+48 41 240 2100", "type": "multipolygon", "url": "https://fotopolska.eu/Mlynska-3-Nowy-Szpital-w-Swiebodzinie?map_z=17", "website": "https://www.nowyszpital.pl/"}}, {"name": "Szpital - Oddział szpitalny", "latitude": 52.1459967, "longitude": 15.4054068, "source": "osm", "_tags": {"addr:city:simc": "0913539", "addr:housenumber": "10", "addr:place": "Cibórz", "addr:postcode": "66-213", "amenity": "hospital", "building": "yes", "healthcare": "hospital", "name": "Szpital - Oddział szpitalny", "source:addr": "skape.e-mapa.net", "type": "multipolygon", "url": "https://fotopolska.eu/Ciborz_Szpital_psychiatryczny?map_z=17"}}, {"name": "Lubuski Szpital Specjalistyczny Pulmonologiczno-Kardiologiczny w Torzymiu", "latitude": 52.3177886, "longitude": 15.0609387, "source": "osm", "_tags": {"amenity": "hospital", "healthcare": "hospital", "name": "Lubuski Szpital Specjalistyczny Pulmonologiczno-Kardiologiczny w Torzymiu", "operator": "Lubuski Szpital Specjalistyczny Pulmonologiczno-Kardiologiczny w Torzymiu Spółka z o.o.", "type": "multipolygon", "url": "https://polska-org.pl/8239182,Torzym,Lubuski_Szpital_Specjalistyczny_Pulmonologiczno_Kardiologiczny_w_Torzymiu.html", "website": "https://www.szpitaltorzym.pl/"}}]