[{"name": "Kreiskrankenhaus Weißwasser", "latitude": 51.5027422, "longitude": 14.6311049, "source": "osm", "_tags": {"addr:city": "Weißwasser/O.L.", "addr:country": "DE", "addr:housenumber": "1", "addr:postcode": "02943", "addr:street": "Karl-Liebknecht-Straße", "amenity": "hospital", "contact:fax": "+49 3576 267257", "contact:phone": "+49 3576 2670", "contact:website": "http://www.kreiskrankenhaus-weisswasser.de/", "emergency": "yes", "healthcare": "hospital", "name": "Kreiskrankenhaus Weißwasser", "operator": "Kreiskrankenhaus Weißwasser gGmbH"}}, {"name": "Krankenhaus Spremberg", "latitude": 51.5652149, "longitude": 14.3739244, "source": "osm", "_tags": {"addr:city": "Spremberg", "addr:country": "DE", "addr:housenumber": "80", "addr:postcode": "03130", "addr:street": "Karl-Marx-Straße", "amenity": "hospital", "check_date": "2024-03-31", "emergency": "yes", "healthcare": "hospital", "name": "Krankenhaus Spremberg", "operator": "Spremberger Krankenhaus GmbH", "phone": "+49 3563 520", "website": "https://krankenhaus-spremberg.de/", "wheelchair": "yes"}}, {"name": "Sana Kliniken Niederlausitz", "latitude": 51.5274084, "longitude": 14.000652, "source": "osm", "_tags": {"amenity": "hospital", "contact:phone": "+49 3573 750", "contact:website": "https://www.sana.de/niederlausitz", "email": "info@klinikum-niederlausitz.de", "emergency": "yes", "healthcare": "hospital", "name": "Sana Kliniken Niederlausitz", "operator": "Sana Kliniken", "operator:type": "private", "operator:wikidata": "Q2220152", "operator:wikipedia": "de:Sana Kliniken", "start_date": "1890-11-03", "survey:date": "2024-08-01", "website": "https://www.sana.de/niederlausitz", "wheelchair": "yes"}}, {"name": "Klinikum Frankfurt (Oder)", "latitude": 52.3006469, "longitude": 14.4811759, "source": "osm", "_tags": {"amenity": "hospital", "healthcare": "hospital", "name": "Klinikum Frankfurt (Oder)", "operator": "Klinikum Frankfurt (Oder) GmbH", "toilets:wheelchair": "yes", "wheelchair": "yes", "wikidata": "Q120207399"}}, {"name": "Ev. Krankenhaus Lutherstift", "latitude": 52.3328044, "longitude": 14.5360488, "source": "osm", "_tags": {"amenity": "hospital", "healthcare": "hospital", "name": "Ev. Krankenhaus Lutherstift", "wheelchair": "yes", "wikidata": "Q58137470"}}, {"name": "Städtisches Krankenhaus", "latitude": 52.3412818, "longitude": 14.5425897, "source": "osm", "_tags": {"amenity": "hospital", "healthcare": "hospital", "name": "Städtisches Krankenhaus"}}, {"name": "Naemi-Wilke-Stift", "latitude": 51.9454905, "longitude": 14.7143495, "source": "osm", "_tags": {"amenity": "hospital", "emergency": "yes", "healthcare": "hospital", "healthcare:speciality": "internal;orthopaedics;surgery", "name": "Naemi-Wilke-Stift"}}, {"name": "Städtisches Krankenhaus Eisenhüttenstadt", "latitude": 52.1412034, "longitude": 14.6250877, "source": "osm", "_tags": {"addr:city": "Eisenhüttenstadt", "addr:housenumber": "39", "addr:postcode": "15890", "addr:street": "Friedrich-Engels-Straße", "amenity": "hospital", "emergency": "yes", "name": "Städtisches Krankenhaus Eisenhüttenstadt", "operator": "Städtisches Krankenhaus Eisenhüttenstadt GmbH", "wheelchair": "yes"}}, {"name": "Helios Klinikum Bad Saarow", "latitude": 52.2837019, "longitude": 14.0623505, "source": "osm", "_tags": {"addr:city": "Bad Saarow", "addr:country": "DE", "addr:housenumber": "33", "addr:postcode": "15526", "addr:street": "Pieskower Straße", "amenity": "hospital", "healthcare": "hospital", "name": "Helios Klinikum Bad Saarow", "operator": "Helios Kliniken", "operator:wikidata": "Q1254151", "operator:wikipedia": "de:Helios Kliniken", "phone": "+49 33631 70", "wheelchair": "yes", "wikidata": "Q50038600"}}, {"name": "Niepubliczny Zakład Opieki Zdrowotnej Szpital im. Profesora Zbigniewa Religi w Słubicach sp. z o.o.", "latitude": 52.3516804, "longitude": 14.55672, "source": "osm", "_tags": {"amenity": "hospital", "email": "sekretariat@szpitalslubice.pl", "emergency": "yes", "healthcare": "hospital", "name": "Niepubliczny Zakład Opieki Zdrowotnej Szpital im. Profesora Zbigniewa Religi w Słubicach sp. z o.o.", "name:de": "Distrikt Krankenhaus", "operator": "Powiat Słubicki", "phone": "+48 95 758 20 71", "website": "https://www.szpitalslubice.pl/", "wikidata": "Q24946642", "wikipedia": "pl:Szpital Powiatowy w Słubicach"}}, {"name": "Medizinische Universität Lausitz – Carl Thiem", "latitude": 51.7424551, "longitude": 14.3222667, "source": "osm", "_tags": {"addr:city": "Cottbus", "addr:country": "DE", "addr:housenumber": "111", "addr:postcode": "03048", "addr:street": "Thiemstraße", "amenity": "hospital", "contact:phone": "+49 355 460", "contact:website": "https://www.mul-ct.de/", "emergency": "yes", "healthcare": "hospital", "name": "Medizinische Universität Lausitz – Carl Thiem", "name:hsb": "C. Thiemowy klinikum", "old_name:-2024-06-30": "Carl-Thiem-Klinikum", "operator": "Ministerium für Wissenschaft, Forschung und Kultur des Landes Brandenburg (MWFK)", "operator:-2024-06-30": "Carl-Thiem-Klinikum Cottbus gGmbH", "short_name": "MUL-CT", "toilets:wheelchair": "yes", "wheelchair": "yes", "wikidata": "Q1036616"}}, {"name": "Lausitz Klinik Forst", "latitude": 51.7548698, "longitude": 14.6380688, "source": "osm", "_tags": {"amenity": "hospital", "emergency": "yes", "fax": "+49 3562-985 150", "healthcare": "hospital", "name": "Lausitz Klinik Forst", "operator": "Lausitz Klinik Forst GmbH", "phone": "+49 3562-985 0", "website": "https://www.lausitz-klinik.de/", "wheelchair": "yes"}}, {"name": "Rehabilitacja", "latitude": 51.9459833, "longitude": 14.7277967, "source": "osm", "_tags": {"addr:city": "Gubin", "addr:housenumber": "35", "addr:postcode": "66-620", "addr:street": "Śląska", "amenity": "hospital", "building": "yes", "building:levels": "2", "healthcare": "hospital", "height": "8", "name": "Rehabilitacja", "operator": "Zachodnie Centrum Medyczne sp. z o.o."}}, {"name": "Ośrodek Zdrowia Grunwald", "latitude": 51.9455958, "longitude": 14.7276546, "source": "osm", "_tags": {"addr:city": "Gubin", "addr:housenumber": "35B", "addr:postcode": "66-620", "addr:street": "Śląska", "amenity": "clinic", "building": "yes", "healthcare": "hospital", "healthcare:speciality": "psychiatry;internal", "name": "Ośrodek Zdrowia Grunwald", "operator": "Stanisław Bojkowski"}}, {"name": "Zachodnie Centrum Medyczne sp. z o.o.", "latitude": 51.9455824, "longitude": 14.7268107, "source": "osm", "_tags": {"addr:city": "Gubin", "addr:housenumber": "35", "addr:postcode": "66-620", "addr:street": "Śląska", "amenity": "hospital", "building": "yes", "building:levels": "2", "healthcare": "hospital", "height": "10", "name": "Zachodnie Centrum Medyczne sp. z o.o.", "operator": "Zachodnie Centrum Medyczne w Krośnie Odrzańskim", "url": "https://polska-org.pl/6863993,Gubin,Zachodnie_Centrum_Medyczne.html"}}, {"name": "", "latitude": 52.1921163, "longitude": 14.0065434, "source": "osm", "_tags": {"amenity": "hospital"}}, {"name": "Oder-Spree Krankenhaus Beeskow", "latitude": 52.1703835, "longitude": 14.2415615, "source": "osm", "_tags": {"addr:city": "Beeskow", "addr:country": "DE", "addr:housenumber": "28", "addr:postcode": "15848", "addr:street": "Schützenstraße", "amenity": "hospital", "fax": "+49 3366 444444", "healthcare": "hospital", "name": "Oder-Spree Krankenhaus Beeskow", "phone": "+49 3366 4440", "type": "multipolygon", "wheelchair": "yes"}}, {"name": "Lausitzer Seenland Klinikum", "latitude": 51.442051, "longitude": 14.2729992, "source": "osm", "_tags": {"addr:city": "Hoyerswerda", "addr:housenumber": "10", "addr:postcode": "02977", "addr:street": "Maria-Grollmuß-Straße", "amenity": "hospital", "contact:fax": "+49 3571 442264", "contact:phone": "+49 3571 440", "contact:website": "https://www.seenlandklinikum.de", "emergency": "yes", "healthcare": "hospital", "name": "Lausitzer Seenland Klinikum", "name:hsb": "Łužiski jězorinowy klinikum", "operator": "Lausitzer Seenland Klinikum GmbH", "operator:type": "private", "type": "multipolygon"}}]