[{"name": "Паліклініка", "latitude": 52.1928756, "longitude": 25.1624927, "source": "osm", "_tags": {"amenity": "clinic", "healthcare": "hospital", "name": "Паліклініка", "name:be": "Паліклініка", "name:en": "Hospital", "name:ru": "Поликлиника", "name:uk": "Поліклініка"}}, {"name": "Ветлівська лікарня", "latitude": 51.8828029, "longitude": 25.1170185, "source": "osm", "_tags": {"amenity": "hospital", "name": "Ветлівська лікарня", "name:uk": "Ветлівська лікарня"}}, {"name": "Любешівсь центральна районна лікарня", "latitude": 51.7603674, "longitude": 25.5025285, "source": "osm", "_tags": {"amenity": "hospital", "healthcare": "hospital", "name": "Любешівсь центральна районна лікарня", "name:uk": "Любешівсь центральна районна лікарня"}}, {"name": "Поречская больница сестринского ухода", "latitude": 52.2862832, "longitude": 25.7945788, "source": "osm", "_tags": {"amenity": "hospital", "healthcare": "hospital", "name": "Поречская больница сестринского ухода", "operator": "Министерство здравоохранения Республики Беларусь; Государственное учреждение здравоохранения \"Пинская городская поликлиника №1\""}}, {"name": "Інфекцыйнае аддзяленне", "latitude": 52.1920054, "longitude": 25.1651526, "source": "osm", "_tags": {"amenity": "hospital", "building": "yes", "building:levels": "2", "healthcare": "hospital", "name": "Інфекцыйнае аддзяленне", "name:be": "Інфекцыйнае аддзяленне", "name:ru": "Инфекционное отделение"}}, {"name": "", "latitude": 51.9793401, "longitude": 25.5610775, "source": "osm", "_tags": {"amenity": "hospital", "building": "hospital", "building:levels": "2"}}, {"name": "", "latitude": 52.1134197, "longitude": 25.9180802, "source": "osm", "_tags": {"amenity": "hospital"}}, {"name": "Мотальская ўчастковая бальніца", "latitude": 52.3191678, "longitude": 25.5792892, "source": "osm", "_tags": {"amenity": "hospital", "healthcare": "hospital", "name": "Мотальская ўчастковая бальніца", "name:be": "Мотальская ўчастковая бальніца", "name:ru": "Мотольская участковая больнца"}}, {"name": "Іванаўская центральны раёны шпіталь", "latitude": 52.1338715, "longitude": 25.5405675, "source": "osm", "_tags": {"addr:housenumber": "4", "addr:street": "вуліца Камарова", "amenity": "hospital", "name": "Іванаўская центральны раёны шпіталь", "name:be": "Іванаўская центральны раёны шпіталь", "name:ru": "Ивановская центральная районная больница"}}, {"name": "Драгічынская ЦРБ", "latitude": 52.192408, "longitude": 25.1636106, "source": "osm", "_tags": {"amenity": "hospital", "healthcare": "hospital", "name": "Драгічынская ЦРБ", "name:be": "Драгічынская ЦРБ", "name:ru": "Дрогичинская ЦРБ"}}, {"name": "ФАП", "latitude": 52.0977941, "longitude": 25.0410108, "source": "osm", "_tags": {"addr:housenumber": "46", "addr:street": "вуліца Будзённага", "amenity": "hospital", "building": "yes", "name": "ФАП", "name:be": "ФАП", "name:ru": "ФАП"}}, {"name": "Оховская участковая больница", "latitude": 52.1949725, "longitude": 25.9208505, "source": "osm", "_tags": {"amenity": "hospital", "name": "Оховская участковая больница", "operator": "Минисерство здравоохранения Республики Беларусь; Государственное учреждение здравоохранения \"Пинская городская поликлиника №1\""}}, {"name": "Малоткавіцкі туберкулёзны дыспансер", "latitude": 52.1121057, "longitude": 25.9159688, "source": "osm", "_tags": {"amenity": "hospital", "healthcare": "hospital", "name": "Малоткавіцкі туберкулёзны дыспансер", "name:be": "Малоткавіцкі туберкулёзны дыспансер", "name:ru": "Молотковический туберкулёзный диспансер", "name:uk": "Молотковичний туберкульозний диспансер"}}]