[{"name": "Parnassia psycho-medisch centrum", "latitude": 52.0453777, "longitude": 4.2095193, "source": "osm", "_tags": {"amenity": "hospital", "healthcare": "hospital", "name": "Parnassia psycho-medisch centrum"}}, {"name": "Erasmus MC - Sophia", "latitude": 51.9120141, "longitude": 4.4699946, "source": "osm", "_tags": {"amenity": "hospital", "designation": "kinderziekenhuis", "emergency": "yes", "healthcare": "hospital", "name": "Erasmus MC - Sophia", "wheelchair": "yes", "wikidata": "Q2593465", "wikipedia": "nl:Sophia Kinderziekenhuis"}}, {"name": "Het Ooghuis", "latitude": 51.9157861, "longitude": 4.4801515, "source": "osm", "_tags": {"addr:city": "Rotterdam", "addr:housenumber": "160", "addr:postcode": "3011BH", "addr:street": "Schiedamse Vest", "amenity": "hospital", "healthcare": "hospital", "name": "Het Ooghuis", "source": "BAG", "source:date": "2013-11-26"}}, {"name": "Het Oogziekenhuis", "latitude": 51.9150315, "longitude": 4.4800328, "source": "osm", "_tags": {"addr:city": "Rotterdam", "addr:housenumber": "180", "addr:postcode": "3011BH", "addr:street": "Schiedamse Vest", "amenity": "hospital", "healthcare": "hospital", "name": "Het Oogziekenhuis", "name:en": "The Rotterdam Eye Hospital", "name:nl": "Het Oogziekenhuis", "source": "BAG", "source:date": "2013-11-26", "website": "https://www.oogziekenhuis.nl/", "wheelchair": "yes", "wikidata": "Q2595158", "wikipedia": "nl:Het Oogziekenhuis Rotterdam"}}, {"name": "Erasmus MC", "latitude": 51.9109324, "longitude": 4.4680514, "source": "osm", "_tags": {"addr:city": "Rotterdam", "addr:housenumber": "40", "addr:postcode": "3015GD", "addr:street": "Dokter Molewaterplein", "check_date": "2024-03-11", "healthcare": "hospital", "name": "Erasmus MC", "source": "BAG", "source:date": "2021-11-03"}}, {"name": "De Gezichtskliniek", "latitude": 51.9132038, "longitude": 4.4850171, "source": "osm", "_tags": {"addr:city": "Rotterdam", "addr:housenumber": "543", "addr:postcode": "3011XZ", "addr:street": "Boompjes", "amenity": "hospital", "healthcare": "hospital", "name": "De Gezichtskliniek", "source": "BAG", "source:date": "2013-11-26", "website": "https://www.degezichtskliniek.nl/"}}, {"name": "OLVG Spuistraat", "latitude": 52.3709953, "longitude": 4.8893865, "source": "osm", "_tags": {"addr:city": "Amsterdam", "addr:housenumber": "239A", "addr:postcode": "1012VP", "addr:street": "Spuistraat", "healthcare": "hospital", "healthcare:speciality": "cardiology;dermatology;gynaecology;internal;otolaryngology;neurology;ophthalmology;sports_medicine", "name": "OLVG Spuistraat", "opening_hours": "Mo-Fr 07:00-19:00", "phone": "+31 20 599 4100", "source": "BAG", "source:date": "2014-02-11", "website": "https://www.olvg.nl/locaties/olvg-locatie-spuistraat/"}}, {"name": "HMC Westeinde", "latitude": 52.0740015, "longitude": 4.2997871, "source": "osm", "_tags": {"addr:city": "'s-Gravenhage", "addr:housenumber": "32", "addr:postcode": "2512VA", "addr:street": "Lijnbaan", "amenity": "hospital", "emergency": "yes", "healthcare": "hospital", "name": "HMC Westeinde", "operator": "Haaglanden Medisch Centrum", "operator:website": "https://www.haaglandenmc.nl/", "operator:wikidata": "Q2619956", "phone": "+31 88 979 79 00", "source": "BAG", "source:date": "2014-02-11", "website": "https://www.haaglandenmc.nl/westeinde/", "wikidata": "Q13797957", "wikipedia": "nl:HMC Westeinde"}}, {"name": "Van Weel-Bethesda Ziekenhuis", "latitude": 51.7501404, "longitude": 4.1020443, "source": "osm", "_tags": {"addr:city": "Dirksland", "addr:housenumber": "22", "addr:postcode": "3247BW", "addr:street": "Stationsweg", "amenity": "hospital", "healthcare": "hospital", "name": "Van Weel-Bethesda Ziekenhuis", "source": "BAG", "source:date": "2014-03-24", "website": "https://www.vanweelbethesda.nl/"}}, {"name": "DG&J-ZHZ", "latitude": 51.7915059, "longitude": 4.6801688, "source": "osm", "_tags": {"amenity": "hospital", "healthcare": "hospital", "name": "DG&J-ZHZ"}}, {"name": "Polikliniek Kralingen", "latitude": 51.9247954, "longitude": 4.5156385, "source": "osm", "_tags": {"addr:city": "Rotterdam", "addr:housenumber": "15", "addr:postcode": "3062AB", "addr:street": "Oudedijk", "amenity": "hospital", "name": "Polikliniek Kralingen", "operator": "IJsselland Ziekenhuis", "source": "BAG", "source:date": "2014-03-24", "website": "https://www.ysl.nl/kralingen"}}, {"name": "Amphia Ziekenhuis", "latitude": 51.6483637, "longitude": 4.8717802, "source": "osm", "_tags": {"addr:city": "Oosterhout", "addr:housenumber": "6", "addr:postcode": "4901ZG", "addr:street": "Muldersteeg", "amenity": "hospital", "healthcare": "hospital", "name": "Amphia Ziekenhuis", "operator": "Amphia", "source:date": "2014-05-07", "website": "https://www.amphia.nl/"}}, {"name": "HagaZiekenhuis Zoetermeer", "latitude": 52.0688894, "longitude": 4.4995963, "source": "osm", "_tags": {"addr:city": "Zoetermeer", "addr:housenumber": "1", "addr:postcode": "2725NA", "addr:street": "Toneellaan", "amenity": "hospital", "emergency": "yes", "healthcare": "hospital", "name": "HagaZiekenhuis Zoetermeer", "website": "https://www.hagaziekenhuis.nl/locaties/zoetermeer/", "wheelchair": "yes"}}, {"name": "IJsselland Ziekenhuis", "latitude": 51.9386642, "longitude": 4.5626815, "source": "osm", "_tags": {"addr:city": "Capelle aan den IJssel", "addr:housenumber": "2", "addr:postcode": "2906ZC", "addr:street": "Prins Constantijnweg", "healthcare": "hospital", "name": "IJsselland Ziekenhuis", "website": "https://www.ysl.nl/", "wikidata": "Q3126348"}}, {"name": "Groene Hart Ziekenhuis", "latitude": 52.0880478, "longitude": 4.7487232, "source": "osm", "_tags": {"addr:city": "Bodegraven", "addr:housenumber": "9c", "addr:postcode": "2411VT", "addr:street": "Willem de Zwijgerstraat", "amenity": "hospital", "healthcare": "hospital", "name": "Groene Hart Ziekenhuis", "source": "BAG", "source:date": "2017-10-08", "website": "https://www.ghz.nl/bodegraven"}}, {"name": "Polikliniek", "latitude": 52.2004232, "longitude": 4.7534296, "source": "osm", "_tags": {"amenity": "hospital", "healthcare": "hospital", "name": "Polikliniek"}}, {"name": "HagaZiekenhuis Juliana Kinderziekenhuis", "latitude": 52.0551394, "longitude": 4.2640317, "source": "osm", "_tags": {"addr:housenumber": "275", "addr:postcode": "2545AA", "addr:street": "Els Borst-Eilersplein", "amenity": "hospital", "healthcare": "hospital", "internet_access": "wlan", "name": "HagaZiekenhuis Juliana Kinderziekenhuis", "opening_hours": "24/7", "phone": "+31 70 2100000", "website": "https://www.julianakinderziekenhuis.nl/home/"}}, {"name": "", "latitude": 51.4860078, "longitude": 4.3136584, "source": "osm", "_tags": {"access": "emergency", "description": "Ambulance-ingang Bravis Bergen op Zoom", "emergency": "emergency_ward_entrance", "emergency_ward_entrance": "rescue_service", "entrance": "yes", "healthcare": "hospital"}}, {"name": "", "latitude": 51.5287803, "longitude": 4.4389166, "source": "osm", "_tags": {"description": "Ambulance-ingang Bravis Roosendaal", "emergency": "emergency_ward_entrance", "emergency_ward_entrance": "rescue_service", "entrance": "yes", "healthcare": "hospital"}}, {"name": "Spoedeisende hulp", "latitude": 51.4859014, "longitude": 4.3134829, "source": "osm", "_tags": {"emergency": "emergency_ward_entrance", "emergency_ward_entrance": "walk-in", "entrance": "yes", "healthcare": "hospital", "name": "Spoedeisende hulp"}}, {"name": "Franciscus Maassluis", "latitude": 51.9304045, "longitude": 4.2425499, "source": "osm", "_tags": {"amenity": "hospital", "name": "Franciscus Maassluis", "operator": "Franciscus", "website": "https://www.franciscus.nl/", "wheelchair": "yes"}}, {"name": "HMC Bronovo", "latitude": 52.1015891, "longitude": 4.3180829, "source": "osm", "_tags": {"addr:city": "'s-Gravenhage", "addr:country": "NL", "addr:housenumber": "5", "addr:postcode": "2597AX", "addr:street": "Bronovolaan", "amenity": "hospital", "emergency": "yes", "healthcare": "hospital", "name": "HMC Bronovo", "operator": "Haaglanden Medisch Centrum", "operator:website": "https://www.haaglandenmc.nl/", "operator:wikidata": "Q2619956", "phone": "+31 88 979 79 00", "website": "https://www.haaglandenmc.nl/bronovo/", "wikidata": "Q2688157", "wikipedia": "nl:HMC Bronovo"}}, {"name": "Antoni van Leeuwenhoek", "latitude": 52.3502898, "longitude": 4.8257571, "source": "osm", "_tags": {"alt_name": "Nederlands Kanker Instituut", "amenity": "hospital", "description": "research institute", "emergency": "no", "healthcare": "hospital", "int_name": "NKI", "name": "Antoni van Leeuwenhoek", "name:en": "Netherlands Cancer Institute", "name:nl": "Antoni van Leeuwenhoek", "office": "ngo", "old_name": "Antoni van Leeuwenhoek Ziekenhuis", "short_name": "AVL", "source": "BAG", "source:date": "2014-03-24", "website": "https://www.avl.nl", "wheelchair": "yes", "wikidata": "Q2536586", "wikimedia_commons": "Category:Antoni van Leeuwenhoekziekenhuis", "wikipedia": "nl:Antoni van Leeuwenhoekziekenhuis"}}, {"name": "Amsterdam UMC - locatie VUMC", "latitude": 52.3345352, "longitude": 4.8599263, "source": "osm", "_tags": {"addr:city": "Amsterdam", "addr:country": "NL", "addr:housenumber": "1117", "addr:postcode": "1081HV", "addr:street": "De Boelelaan", "alt_name": "VU University Medical Center Amsterdam", "amenity": "hospital", "healthcare": "hospital", "name": "Amsterdam UMC - locatie VUMC", "note": "VUmc: ziekenhuis & polikliniek", "short_name": "VUmc", "website": "https://www.vumc.nl", "wikidata": "Q1888218", "wikimedia_commons": "Category:VU medisch centrum", "wikipedia": "nl:VUmc"}}, {"name": "OLVG, locatie Oost", "latitude": 52.3581509, "longitude": 4.915322, "source": "osm", "_tags": {"alt_name": "Onze Lieve Vrouwe Gasthuis", "amenity": "hospital", "check_date": "2025-06-13", "electricity": "grid", "emergency": "yes", "health_amenity:type": "ultrasound", "healthcare": "hospital", "healthcare:speciality": "maternity", "internet_access": "yes", "name": "OLVG, locatie Oost", "opening_hours": "24/7", "operator": "Onze Lieve Vrouwe Gasthuis (OLVG)", "website": "https://www.olvg.nl/", "wheelchair": "yes", "wikidata": "Q2491047", "wikimedia_commons": "Category:Onze Lieve Vrouwe Gasthuis", "wikipedia": "nl:Onze Lieve Vrouwe Gasthuis"}}, {"name": "GGZ Delfland", "latitude": 52.0230078, "longitude": 4.3614136, "source": "osm", "_tags": {"amenity": "hospital", "healthcare": "hospital", "name": "GGZ Delfland"}}, {"name": "BovenIJ Ziekenhuis", "latitude": 52.4046484, "longitude": 4.9219157, "source": "osm", "_tags": {"amenity": "hospital", "emergency": "yes", "healthcare": "hospital", "name": "BovenIJ Ziekenhuis", "wikidata": "Q2043120", "wikimedia_commons": "Category:BovenIJ Ziekenhuis", "wikipedia": "nl:BovenIJ Ziekenhuis"}}, {"name": "LUMC Curium", "latitude": 52.1726652, "longitude": 4.4568082, "source": "osm", "_tags": {"amenity": "hospital", "healthcare": "hospital", "name": "LUMC Curium", "url": "https://www.curium-lumc.nl/"}}, {"name": "Parnassia", "latitude": 52.0433958, "longitude": 4.2120972, "source": "osm", "_tags": {"amenity": "hospital", "healthcare": "hospital", "healthcare:speciality": "psychiatry", "name": "Parnassia"}}, {"name": "Reade (JBI)", "latitude": 52.3706314, "longitude": 4.8444902, "source": "osm", "_tags": {"addr:city": "Amsterdam", "addr:country": "NL", "addr:housenumber": "2", "addr:postcode": "1056AB", "addr:street": "Dr. Jan van Breemenstraat", "alt_name": "JBI", "amenity": "hospital", "building": "yes", "name": "Reade (JBI)", "old_name": "Jan van Breemen Instituut", "ref:bag": "363100012137257", "source": "BAG", "source:date": "2014-03-24", "start_date": "1967", "website": "https://reade.nl/", "wheelchair": "yes"}}, {"name": "PsyQ", "latitude": 52.0741924, "longitude": 4.2987107, "source": "osm", "_tags": {"amenity": "hospital", "building": "yes", "emergency": "no", "healthcare": "hospital", "healthcare:speciality": "psychiatry", "layer": "1", "name": "PsyQ", "ref:bag": "0518100000335217", "source": "BAG", "source:date": "2021-10-08", "start_date": "2004", "website": "https://www.psyq.nl/"}}, {"name": "Spaarne Gasthuis Zuid", "latitude": 52.3662484, "longitude": 4.6514514, "source": "osm", "_tags": {"addr:city": "Haarlem", "addr:country": "NL", "addr:housenumber": "22", "addr:postcode": "2035RC", "addr:street": "Boerhaavelaan", "alt_name": "Kennemer Gasthuis Locatie Zuid", "amenity": "hospital", "emergency": "yes", "healthcare": "hospital", "internet_access": "wlan", "name": "Spaarne Gasthuis Zuid", "operator": "Spaarne Ziekenhuis", "phone": "+31 23 224 0000", "website": "https://spaarnegasthuis.nl/"}}, {"name": "Spaarne Gasthuis Hoofddorp", "latitude": 52.3239971, "longitude": 4.6534264, "source": "osm", "_tags": {"alt_name": "Spaarne Ziekenhuis", "amenity": "hospital", "emergency": "yes", "healthcare": "hospital", "name": "Spaarne Gasthuis Hoofddorp", "phone": "+31 23 224 0000", "website": "https://spaarnegasthuis.nl/locatie/hoofddorp", "wikidata": "Q2056409", "wikipedia": "nl:Spaarne Gasthuis (Hoofddorp)"}}, {"name": "Amphia Breda", "latitude": 51.5818941, "longitude": 4.7969227, "source": "osm", "_tags": {"addr:city": "Breda", "addr:housenumber": "21", "addr:postcode": "4818CK", "addr:street": "Molengracht", "amenity": "hospital", "contact:phone": "+31 76 595 5000", "contact:website": "https://www.amphia.nl", "emergency": "yes", "healthcare": "hospital", "name": "Amphia Breda", "operator": "Amphia", "smoking": "no", "wikidata": "Q2282926"}}, {"name": "GGD Haaglanden", "latitude": 52.075294, "longitude": 4.3015067, "source": "osm", "_tags": {"addr:city": "'s-Gravenhage", "addr:country": "NL", "addr:housenumber": "128", "addr:postcode": "2512HE", "addr:street": "Westeinde", "amenity": "hospital", "building:levels": "4", "healthcare": "hospital", "name": "GGD Haaglanden", "phone:NL": "14 070", "website": "https://www.denhaag.nl/ggd/"}}, {"name": "Leids Universitair Medisch Centrum", "latitude": 52.1662122, "longitude": 4.4772586, "source": "osm", "_tags": {"amenity": "hospital", "emergency": "yes", "healthcare": "hospital", "name": "Leids Universitair Medisch Centrum", "old_name": "Academisch Ziekenhuis Leiden", "operator": "Universiteit Leiden", "operator:type": "university", "phone": "+31 71 526 9111", "short_name": "LUMC", "website": "https://www.lumc.nl/", "wheelchair": "yes", "wikidata": "Q2406409", "wikimedia_commons": "Category:Leiden University Medical Center", "wikipedia": "nl:Leids Universitair Medisch Centrum"}}, {"name": "", "latitude": 52.051628, "longitude": 4.385249, "source": "osm", "_tags": {"amenity": "hospital", "emergency": "no", "healthcare": "hospital"}}, {"name": "Spaarne Gasthuis Haarlem-Noord", "latitude": 52.4225378, "longitude": 4.6505914, "source": "osm", "_tags": {"addr:city": "Haarlem", "addr:housenumber": "999", "addr:postcode": "2026BW", "addr:street": "Vondelweg", "alt_name": "Kennemer Gasthuis Locatie Noord", "amenity": "hospital", "emergency": "no", "healthcare": "hospital", "name": "Spaarne Gasthuis Haarlem-Noord", "note": "Locaties Spaarne Gasthuis:\n Hoofddorp & Haarlem.\nIn deze gebouwen vindt u vrijwel alle medisch specialismen.\nDaarnaast heeft het ziekenhuis poliklinieken in Hillegom, Haarlem Noord en Nieuw-Ve", "website": "https://spaarnegasthuis.nl/locatie/haarlem-noord", "wheelchair": "yes", "wikipedia": "nl:Spaarne Gasthuis"}}, {"name": "Alrijne Ziekenhuis Leiderdorp", "latitude": 52.1566631, "longitude": 4.54089, "source": "osm", "_tags": {"amenity": "hospital", "emergency": "yes", "healthcare": "hospital", "name": "Alrijne Ziekenhuis Leiderdorp", "note": "Er zijn meerdere Alrijne ziekenhuizen, dit ziekenhuis staat lokaal en op hun website bekend als \"Alrijne Ziekenhuis Leiderdorp\"", "survey:date": "2021-08-26", "toilets:wheelchair": "yes", "wheelchair": "limited"}}, {"name": "Parnassia psycho-medisch centrum", "latitude": 52.0606965, "longitude": 4.2506414, "source": "osm", "_tags": {"amenity": "hospital", "healthcare": "hospital", "name": "Parnassia psycho-medisch centrum"}}, {"name": "Amphia Ziekenhuis, Locatie Pasteurlaan", "latitude": 51.6476796, "longitude": 4.8702466, "source": "osm", "_tags": {"addr:city": "Oosterhout", "addr:country": "NL", "addr:housenumber": "9", "addr:postcode": "4901DH", "addr:street": "Pasteurlaan", "amenity": "hospital", "building": "yes", "healthcare": "hospital", "name": "Amphia Ziekenhuis, Locatie Pasteurlaan", "ref:bag": "826100000000594", "source": "BAG", "source:date": "2014-05-07", "start_date": "1973"}}, {"name": "Alrijne Ziekenhuis Leiden", "latitude": 52.1737437, "longitude": 4.4829986, "source": "osm", "_tags": {"alt_name": "Diakonessenhuis", "amenity": "hospital", "emergency": "no", "healthcare": "hospital", "name": "Alrijne Ziekenhuis Leiden", "website": "https://www.alrijne.nl/leiden/", "wikidata": "Q2754101", "wikimedia_commons": "Category:Diaconessenhuis Leiden", "wikipedia": "nl:Alrijne Ziekenhuis Leiden"}}, {"name": "Basalt revalidatie Den Haag", "latitude": 52.0412191, "longitude": 4.2676011, "source": "osm", "_tags": {"amenity": "hospital", "healthcare": "rehabilitation", "healthcare:speciality": "physiatry", "name": "Basalt revalidatie Den Haag", "name:en": "Basalt rehabilitation Den Haag", "toilets:wheelchair": "yes", "website": "https://www.basaltrevalidatie.nl/locaties/den-haag-vrederustlaan/", "wheelchair": "yes"}}, {"name": "Albert Schweitzer Ziekenhuis, loc. Dordwijk", "latitude": 51.7920898, "longitude": 4.6822779, "source": "osm", "_tags": {"amenity": "hospital", "emergency": "yes", "healthcare": "hospital", "name": "Albert Schweitzer Ziekenhuis, loc. Dordwijk", "operator": "Albert Schweitzer Ziekenhuis", "phone": "+31 78 654 1111", "wheelchair": "yes"}}, {"name": "Erasmus Medisch Centrum", "latitude": 51.911287, "longitude": 4.4681099, "source": "osm", "_tags": {"amenity": "hospital", "emergency": "yes", "healthcare": "hospital", "name": "Erasmus Medisch Centrum", "phone": "+31 10 704 0704", "website": "https://www.erasmusmc.nl/", "wikidata": "Q3126873", "wikipedia": "nl:Erasmus MC"}}, {"name": "Ikazia Ziekenhuis", "latitude": 51.8859896, "longitude": 4.4935288, "source": "osm", "_tags": {"amenity": "hospital", "healthcare": "hospital", "name": "Ikazia Ziekenhuis", "website": "https://www.ikazia.nl/", "wikidata": "Q2088232", "wikipedia": "nl:Ikazia Ziekenhuis"}}, {"name": "Antes klinieken Poortugaal", "latitude": 51.8466889, "longitude": 4.3955516, "source": "osm", "_tags": {"amenity": "hospital", "healthcare": "hospital", "name": "Antes klinieken Poortugaal", "old_name": "Delta Psychiatrisch Centrum", "wikidata": "Q13571803", "wikipedia": "nl:Delta Psychiatrisch Centrum"}}, {"name": "IJsselland Ziekenhuis", "latitude": 51.9387172, "longitude": 4.5628037, "source": "osm", "_tags": {"amenity": "hospital", "healthcare": "hospital", "landuse": "healthcare", "name": "IJsselland Ziekenhuis"}}, {"name": "Maasstad Ziekenhuis", "latitude": 51.8794823, "longitude": 4.5354446, "source": "osm", "_tags": {"addr:city": "Rotterdam", "addr:country": "NL", "addr:housenumber": "21", "addr:postcode": "3079DZ", "addr:street": "Maasstadweg", "amenity": "hospital", "emergency": "yes", "healthcare": "hospital", "name": "Maasstad Ziekenhuis", "website": "https://www.maasstadziekenhuis.nl/", "wheelchair": "yes", "wikidata": "Q2106000", "wikipedia": "nl:Maasstad Ziekenhuis"}}, {"name": "Ziekenhuis Amstelland", "latitude": 52.2939938, "longitude": 4.8740027, "source": "osm", "_tags": {"addr:city": "Amstelveen", "addr:housenumber": "8", "addr:postcode": "1186AM", "addr:street": "Laan van de Helende Meesters", "alt_name": "Ziekenhuis Amstelveen", "amenity": "hospital", "healthcare": "hospital", "layer": "-1", "name": "Ziekenhuis Amstelland", "website": "https://www.ziekenhuisamstelland.nl/", "wikidata": "Q30270640", "wikimedia_commons": "Category:Ziekenhuis Amstelland", "wikipedia": "nl:Ziekenhuis Amstelland"}}, {"name": "GGZ Rivierduinen", "latitude": 52.171977, "longitude": 4.4597155, "source": "osm", "_tags": {"amenity": "hospital", "healthcare": "hospital", "name": "GGZ Rivierduinen"}}, {"name": "GGZ Rivierduinen", "latitude": 52.1750763, "longitude": 4.4673076, "source": "osm", "_tags": {"amenity": "hospital", "healthcare": "hospital", "name": "GGZ Rivierduinen"}}, {"name": "Basalt Revalidatiecentrum", "latitude": 52.1705721, "longitude": 4.4690334, "source": "osm", "_tags": {"amenity": "hospital", "check_date": "2024-11-13", "healthcare": "hospital", "name": "Basalt Revalidatiecentrum"}}, {"name": "Franciscus Gasthuis", "latitude": 51.9418705, "longitude": 4.4636766, "source": "osm", "_tags": {"amenity": "hospital", "healthcare": "hospital", "name": "Franciscus Gasthuis", "website": "https://www.franciscus.nl/", "wikidata": "Q2632418", "wikipedia": "nl:Franciscus Gasthuis"}}, {"name": "HagaZiekenhuis locatie Leyweg", "latitude": 52.055525, "longitude": 4.2633686, "source": "osm", "_tags": {"amenity": "hospital", "emergency": "yes", "healthcare": "hospital", "name": "HagaZiekenhuis locatie Leyweg", "phone": "+31 70 210 0000", "website": "https://www.hagaziekenhuis.nl/locaties/Leyweg/", "wikidata": "Q1867417", "wikipedia": "nl:HagaZiekenhuis, locatie Leyweg"}}, {"name": "OLVG West", "latitude": 52.3710107, "longitude": 4.839731, "source": "osm", "_tags": {"addr:city": "Amsterdam", "addr:country": "NL", "addr:housenumber": "164", "addr:postcode": "1061AE", "addr:street": "Jan Tooropstraat", "alt_name": "OLVG Locatie West", "amenity": "hospital", "check_date": "2025-01-10", "healthcare": "hospital", "name": "OLVG West", "old_name": "Sint Lucas Andreas Ziekenhuis", "source": "BAG", "source:date": "2014-03-24", "website": "https://www.olvg.nl/", "wheelchair": "yes"}}, {"name": "Reinier de Graaf Gasthuis", "latitude": 51.9972565, "longitude": 4.3371639, "source": "osm", "_tags": {"amenity": "hospital", "emergency": "yes", "healthcare": "hospital", "name": "Reinier de Graaf Gasthuis", "name:etymology:wikidata": "Q266995", "phone": "+31 15 260 3060", "source": "local_knowledge", "website": "https://reinierdegraaf.nl/", "wikidata": "Q14255098", "wikipedia": "nl:Reinier de Graaf Gasthuis"}}, {"name": "Bravis Ziekenhuis locatie Roosendaal", "latitude": 51.5281491, "longitude": 4.4386899, "source": "osm", "_tags": {"addr:city": "Roosendaal", "addr:housenumber": "25", "addr:postcode": "4708AE", "addr:street": "Boerhaavelaan", "amenity": "hospital", "healthcare": "hospital", "name": "Bravis Ziekenhuis locatie Roosendaal", "phone": "+31 88 706 8000", "website": "https://www.bravisziekenhuis.nl/contact/locaties/roosendaal"}}, {"name": "De Hospicegroep Alphen", "latitude": 52.1460399, "longitude": 4.6793206, "source": "osm", "_tags": {"amenity": "hospital", "healthcare": "hospital", "name": "De Hospicegroep Alphen", "wheelchair": "yes"}}, {"name": "Alrijne Alphen aan den Rijn", "latitude": 52.1427949, "longitude": 4.6611025, "source": "osm", "_tags": {"addr:city": "Alphen aan den Rijn", "addr:housenumber": "4", "addr:postcode": "2402WC", "addr:street": "Meteoorlaan", "amenity": "hospital", "healthcare": "hospital", "name": "Alrijne Alphen aan den Rijn", "short_name": "Alrijne", "smoking": "no", "website": "https://www.alrijne.nl/locaties/alphen/"}}, {"name": "Franciscus Vlietland", "latitude": 51.9223074, "longitude": 4.3802914, "source": "osm", "_tags": {"addr:city": "Schiedam", "addr:country": "NL", "addr:housenumber": "2", "addr:postcode": "3118JH", "addr:street": "Vlietlandplein", "alt_name": "Vlietland Ziekenhuis", "amenity": "hospital", "healthcare": "hospital", "internet_access": "wlan", "name": "Franciscus Vlietland", "website": "https://www.franciscus.nl/", "wikidata": "Q2321223", "wikipedia": "nl:Franciscus Vlietland"}}, {"name": "Spijkenisse Medisch Centrum", "latitude": 51.8464685, "longitude": 4.3379614, "source": "osm", "_tags": {"addr:city": "Spijkenisse", "addr:housenumber": "500", "addr:postcode": "3201GZ", "addr:street": "Ruwaard van Puttenweg", "amenity": "hospital", "emergency": "yes", "healthcare": "hospital", "name": "Spijkenisse Medisch Centrum", "phone": "+31 181 658 888", "start_date": "1990", "website": "https://www.spijkenissemc.nl/", "wheelchair": "yes", "wikidata": "Q14715492"}}, {"name": "Groene Hart Ziekenhuis", "latitude": 52.0218405, "longitude": 4.7059108, "source": "osm", "_tags": {"addr:city": "Gouda", "addr:housenumber": "10", "addr:postcode": "2803HH", "addr:street": "Bleulandweg", "amenity": "hospital", "check_date": "2022-10-28", "emergency": "yes", "healthcare": "hospital", "healthcare:speciality": "general", "name": "Groene Hart Ziekenhuis", "operator:type": "public", "source": "BAG", "source:date": "2014-02-11", "website": "https://www.ghz.nl/", "wikidata": "Q1838756"}}, {"name": "Ipse de Bruggen - SGLVG+", "latitude": 51.8467456, "longitude": 4.3868006, "source": "osm", "_tags": {"addr:city": "Poortugaal", "addr:housenumber": "1", "addr:postcode": "3172AB", "addr:street": "Kijvelandsekade", "amenity": "hospital", "name": "Ipse de Bruggen - SGLVG+", "website": "https://www.ipsedebruggen.nl/middenweg-sglvg"}}, {"name": "Bravis Ziekenhuis - locatie Bergen op Zoom", "latitude": 51.4863894, "longitude": 4.314663, "source": "osm", "_tags": {"amenity": "hospital", "healthcare": "hospital", "name": "Bravis Ziekenhuis - locatie Bergen op Zoom"}}, {"name": "HMC Antoniushove", "latitude": 52.093071, "longitude": 4.3836918, "source": "osm", "_tags": {"addr:city": "Leidschendam", "addr:housenumber": "1", "addr:postcode": "2262BA", "addr:street": "Burgemeester Banninglaan", "amenity": "hospital", "emergency": "no", "healthcare": "hospital", "name": "HMC Antoniushove", "operator": "Haaglanden Medisch Centrum", "operator:website": "https://www.haaglandenmc.nl/", "operator:wikidata": "Q2619956", "phone": "+31 88 979 79 00", "source": "BAG", "source:date": "2014-02-11", "toilets:wheelchair": "yes", "website": "https://www.haaglandenmc.nl/antoniushove/", "wheelchair": "yes", "wikidata": "Q1903638", "wikipedia": "nl:HMC Antoniushove"}}, {"name": "Sint Antonius Woerden", "latitude": 52.0795551, "longitude": 4.8912354, "source": "osm", "_tags": {"addr:city": "Woerden", "addr:housenumber": "2", "addr:postcode": "3447GN", "addr:street": "Polanerbaan", "amenity": "hospital", "emergency": "no", "healthcare": "hospital", "name": "Sint Antonius Woerden", "source": "BAG", "source:date": "2014-03-24", "wheelchair": "yes", "wikidata": "Q50038085"}}, {"name": "Albert Schweitzer Ziekenhuis, loc. Zwijndrecht", "latitude": 51.8264992, "longitude": 4.6293176, "source": "osm", "_tags": {"amenity": "hospital", "building": "yes", "name": "Albert Schweitzer Ziekenhuis, loc. Zwijndrecht", "ref:bag": "0642100000024035", "source": "BAG", "source:date": "2014-03-24", "start_date": "1988", "type": "multipolygon"}}, {"name": "", "latitude": 51.5888274, "longitude": 4.7906719, "source": "osm", "_tags": {"amenity": "hospital", "healthcare": "hospital", "layer": "-1", "type": "multipolygon"}}]