[{"name": "St. Anna-Hospital", "latitude": 51.537557, "longitude": 7.1590304, "source": "osm", "_tags": {"addr:city": "Herne", "addr:country": "DE", "addr:housenumber": "19", "addr:postcode": "44649", "addr:street": "Hospitalstraße", "amenity": "hospital", "emergency": "yes", "healthcare": "hospital", "name": "St. Anna-Hospital", "website": "https://www.annahospital.de/", "wheelchair": "limited", "wikidata": "Q28197053"}}, {"name": "Klinikzentrum Mitte", "latitude": 51.5079809, "longitude": 7.4569014, "source": "osm", "_tags": {"addr:city": "Dortmund", "addr:housenumber": "40", "addr:postcode": "44137", "addr:street": "Beurhausstraße", "amenity": "hospital", "healthcare": "hospital", "name": "Klinikzentrum Mitte", "note": "label node for Klinikum Dortmund (site relation)", "operator": "Klinikum Dortmund gGmbH"}}, {"name": "Klinik für Kinder- und Jugendmedizin", "latitude": 51.6691324, "longitude": 7.828988, "source": "osm", "_tags": {"amenity": "hospital", "check_date": "2025-03-26", "healthcare": "hospital", "name": "Klinik für Kinder- und Jugendmedizin", "wheelchair": "yes"}}, {"name": "Wilfried-Rasch-Klinik", "latitude": 51.5082186, "longitude": 7.5548938, "source": "osm", "_tags": {"addr:city": "Dortmund", "addr:country": "DE", "addr:housenumber": "207", "addr:postcode": "44287", "addr:street": "Leni-Rommel-Straße", "amenity": "hospital", "healthcare": "hospital", "healthcare:speciality": "forensic_psychiatry", "name": "Wilfried-Rasch-Klinik", "phone": "+49 231 450302", "website": "https://www.lwl-forensik-dortmund.de/", "wheelchair": "no", "wikidata": "Q19968120", "wikimedia_commons": "Category:Aplerbeck: Wilfried-Rasch-Klinik", "wikipedia": "de:Wilfried-Rasch-Klinik"}}, {"name": "Tagesklinik Walstedde", "latitude": 51.7618409, "longitude": 7.7934557, "source": "osm", "_tags": {"amenity": "hospital", "check_date": "2024-09-26", "healthcare": "hospital", "name": "Tagesklinik Walstedde"}}, {"name": "Christophorus Kliniken Coesfeld", "latitude": 51.9441642, "longitude": 7.1700403, "source": "osm", "_tags": {"addr:city": "Coesfeld", "addr:housenumber": "41", "addr:postcode": "48653", "addr:street": "Südring", "amenity": "hospital", "healthcare": "hospital", "name": "Christophorus Kliniken Coesfeld", "toilets:wheelchair": "yes", "website": "https://christophorus-kliniken.de/", "wheelchair": "yes"}}, {"name": "Palliativstation", "latitude": 51.5364042, "longitude": 7.6851426, "source": "osm", "_tags": {"addr:city": "Unna", "addr:housenumber": "2", "addr:postcode": "59423", "addr:street": "Obere Husemannstraße", "amenity": "hospital", "name": "Palliativstation"}}, {"name": "Klinikum Ibbenbüren \"St.-Elisabeth-Hospital\"", "latitude": 52.278612, "longitude": 7.71381, "source": "osm", "_tags": {"addr:city": "Ibbenbüren", "addr:country": "DE", "addr:housename": "Elisabeth Hospital", "addr:housenumber": "41", "addr:postcode": "49477", "addr:street": "Große Straße", "amenity": "hospital", "building": "hospital", "emergency": "yes", "healthcare": "hospital", "name": "Klinikum Ibbenbüren \"St.-Elisabeth-Hospital\"", "phone": "+49 5451 520", "website": "https://www.mathias-medizin.de/leistungen-einrichtungen/einrichtungen/klinikum-ibbenbueren", "wheelchair": "yes"}}, {"name": "MVZ Kinderwunschzentrum Dortmund GmbH", "latitude": 51.5121227, "longitude": 7.4690323, "source": "osm", "_tags": {"amenity": "hospital", "healthcare": "hospital", "name": "MVZ Kinderwunschzentrum Dortmund GmbH"}}, {"name": "Gesundheitspark Altenessen", "latitude": 51.4995123, "longitude": 7.0058575, "source": "osm", "_tags": {"addr:city": "Essen", "addr:country": "DE", "addr:housenumber": "24", "addr:postcode": "45329", "addr:street": "Hospitalstraße", "addr:suburb": "Altenessen", "amenity": "hospital", "check_date": "2025-06-23", "contact:email": "gesundheitspark-altenessen@contilia.de", "contact:fax": "+49 201 640 071 004", "contact:phone": "+49 201 640 071 001", "healthcare": "hospital", "name": "Gesundheitspark Altenessen", "old_name": "Marienhospital", "operator": "Contilia; Katholisches Klinikum Essen", "service_times": "Mo-Th 08:00-16:30; Fr 08:00-15:30", "website": "https://www.contilia.de/einrichtungen/gesundheitspark-altenessen.html", "wheelchair": "yes", "wikidata": "Q17322783", "wikipedia": "de:Katholisches Klinikum Essen"}}, {"name": "St.-Marien-Hospital", "latitude": 51.6188451, "longitude": 7.5180027, "source": "osm", "_tags": {"alt_name": "Klinikum Lünen", "amenity": "hospital", "contact:email": "info@klinikum-luenen.de", "contact:fax": "+49 2306 772229", "contact:phone": "+49 2306 770", "contact:website": "https://www.klinikum-luenen.de/", "healthcare": "hospital", "healthcare:speciality": "cardiology", "loc_name": "St. Marien", "name": "St.-Marien-Hospital", "operator": "Katholisches Klinikum Lünen/Werne GmbH", "start_date": "1865-10-15", "wheelchair": "yes", "wikidata": "Q30293424"}}, {"name": "Augusta-Kranken-Anstalt Bochum-Linden", "latitude": 51.4242013, "longitude": 7.1584019, "source": "osm", "_tags": {"amenity": "hospital", "check_date": "2025-05-25", "healthcare": "hospital", "name": "Augusta-Kranken-Anstalt Bochum-Linden"}}, {"name": "LWL-Klinik Münster", "latitude": 51.9783641, "longitude": 7.6176104, "source": "osm", "_tags": {"addr:city": "Münster", "addr:country": "DE", "addr:housenumber": "30", "addr:postcode": "48147", "addr:street": "Friedrich-Wilhelm-Weber-Straße", "amenity": "hospital", "beds": "312", "contact:email": "lwl-klinik-muenster@lwl.org", "contact:fax": "+49 251 91555-1001", "contact:phone": "+49 251 91555-0", "contact:website": "https://www.lwl-klinik-muenster.de/", "emergency": "no", "health_facility:type": "hospital", "healthcare": "hospital", "healthcare:speciality": "psychiatry", "name": "LWL-Klinik Münster", "old_name": "Westfälische Klinik für Psychiatrie und Psychotherapie Münster;Westfälisches Landeskrankenhaus Münster;Landesheil- und Krankenanstalt;Provinzial-Heil- und Krankenanstalt;Provinzial-Heilanstalt Marienthal;Provinzial-Irrenanstalt Marienthal", "operator": "Landschaftsverband Westfalen-Lippe", "toilets:wheelchair": "yes", "wheelchair": "yes", "wikidata": "Q1784018"}}, {"name": "Evangelische Kliniken", "latitude": 51.5097676, "longitude": 7.0889406, "source": "osm", "_tags": {"amenity": "hospital", "check_date": "2024-08-02", "healthcare": "hospital", "name": "Evangelische Kliniken", "wheelchair": "yes", "wikidata": "Q50038304"}}, {"name": "Marienhospital", "latitude": 51.4785067, "longitude": 7.4421086, "source": "osm", "_tags": {"addr:city": "Dortmund", "addr:housenumber": "9", "addr:postcode": "44225", "addr:street": "Gablonzstraße", "amenity": "hospital", "check_date": "2025-10-06", "email": "pforte.mh@marien-hospital-dortmund.de", "emergency": "yes", "fax": "+49 231 775041399", "healthcare": "hospital", "healthcare:speciality": "psychiatry", "name": "Marienhospital", "phone": "+49 231 77500", "rd_do:kh": "K 18", "website": "https://www.marien-hospital-dortmund.de/", "wheelchair": "yes", "wikidata": "Q19965573", "wikipedia": "de:Marien Hospital Dortmund-Hombruch"}}, {"name": "St. Christophorus-Krankenhaus", "latitude": 51.6752528, "longitude": 7.616585, "source": "osm", "_tags": {"amenity": "hospital", "contact:email": "info@krankenhaus-werne.de", "contact:phone": "+49 2389 787-0", "contact:website": "https://www.krankenhaus-werne.de/", "healthcare": "hospital", "name": "St. Christophorus-Krankenhaus", "operator": "Katholisches Klinikum Lünen/Werne GmbH", "wheelchair": "yes"}}, {"name": "Elisabeth-Krankenhaus Recklinhausen", "latitude": 51.5677623, "longitude": 7.2071942, "source": "osm", "_tags": {"addr:city": "Recklinghausen", "addr:housenumber": "10", "addr:postcode": "45661", "addr:street": "Röntgenstraße", "amenity": "hospital", "healthcare": "hospital", "name": "Elisabeth-Krankenhaus Recklinhausen", "operator": "St. Franziskus-Stiftung Münster", "operator:wikidata": "Q2318238", "wheelchair": "yes", "wikidata": "Q78777662", "wikipedia": "de:Elisabeth-Krankenhaus Recklinghausen"}}, {"name": "St. Franziskus Hospital", "latitude": 51.7673246, "longitude": 7.8846321, "source": "osm", "_tags": {"addr:city": "Ahlen", "addr:country": "DE", "addr:housenumber": "55", "addr:postcode": "59227", "addr:street": "Robert-Koch-Straße", "amenity": "hospital", "building": "hospital", "emergency": "yes", "healthcare": "hospital", "healthcare:speciality": "gynaecology;orthopaedics;emergency;intensive;surgery;trauma;neurology", "name": "St. Franziskus Hospital", "operator": "St. Franziskus-Stiftung Münster", "operator:type": "private_non_profit", "operator:wikidata": "Q2318238", "phone": "+492382858-0", "wheelchair": "yes"}}, {"name": "Kinderklinik", "latitude": 51.7681276, "longitude": 7.8841868, "source": "osm", "_tags": {"amenity": "hospital", "building": "hospital", "emergency": "yes", "healthcare": "hospital", "healthcare:speciality": "paediatrics", "name": "Kinderklinik", "operator": "St. Franziskus-Stiftung Münster", "operator:type": "private_non_profit", "operator:wikidata": "Q2318238", "phone": "+492382858-0", "wheelchair": "yes"}}, {"name": "LWL Ambulante Jugendpsychiatrie", "latitude": 51.6171539, "longitude": 7.5902013, "source": "osm", "_tags": {"amenity": "hospital", "name": "LWL Ambulante Jugendpsychiatrie"}}, {"name": "LWL-Universitätsklinik Hamm", "latitude": 51.6853579, "longitude": 7.8625228, "source": "osm", "_tags": {"addr:city": "Hamm", "addr:housenumber": "64", "addr:postcode": "59071", "addr:street": "Heithofer Allee", "amenity": "hospital", "name": "LWL-Universitätsklinik Hamm", "toilets:wheelchair": "yes", "wheelchair": "limited", "wikidata": "Q18410588", "wikipedia": "de:LWL-Universitätsklinik Hamm"}}, {"name": "Christophorus Kliniken", "latitude": 51.8273616, "longitude": 7.2803578, "source": "osm", "_tags": {"addr:city": "Dülmen", "addr:housenumber": "10", "addr:postcode": "48249", "addr:street": "Vollenstraße", "amenity": "hospital", "building": "yes", "emergency": "yes", "healthcare": "hospital", "name": "Christophorus Kliniken", "wheelchair": "yes"}}, {"name": "Maria-Josef-Hospital Greven", "latitude": 52.0880291, "longitude": 7.6105761, "source": "osm", "_tags": {"addr:city": "Greven", "addr:housenumber": "29", "addr:postcode": "48268", "addr:street": "Lindenstraße", "amenity": "hospital", "check_date": "2024-10-28", "contact:email": "info@mjh-greven.de", "contact:fax": "+49 2571 502-16097", "contact:phone": "+49 2571 502-0", "contact:website": "https://www.maria-josef-hospital.de", "emergency": "yes", "healthcare": "hospital", "healthcare:speciality": "general", "name": "Maria-Josef-Hospital Greven", "operator": "St. Franziskus-Stiftung Münster", "operator:wikidata": "Q2318238", "wheelchair": "yes"}}, {"name": "Christliches Klinikum Unna gGmbH / Standort Mitte (CKU Mitte)", "latitude": 51.5369694, "longitude": 7.6848663, "source": "osm", "_tags": {"addr:city": "Unna", "addr:country": "DE", "addr:housenumber": "2", "addr:postcode": "59423", "addr:street": "Obere Husemannstraße", "amenity": "hospital", "building": "yes", "emergency": "yes", "healthcare": "hospital", "name": "Christliches Klinikum Unna gGmbH / Standort Mitte (CKU Mitte)", "phone": "+49 2303 1000", "wheelchair": "yes"}}, {"name": "Evangelisches Krankenhaus Essen-Steele", "latitude": 51.4419557, "longitude": 7.0613849, "source": "osm", "_tags": {"addr:city": "Essen", "addr:country": "DE", "addr:housenumber": "34a", "addr:postcode": "45276", "addr:street": "Am Deimelsberg", "amenity": "hospital", "building": "hospital", "contact:email": "info@kem-med.com", "contact:phone": "+49 201 1740", "emergency": "no", "healthcare": "hospital", "healthcare:speciality": "geriatrics", "name": "Evangelisches Krankenhaus Essen-Steele", "operator": "Evangelische Kliniken Essen-Mitte", "operator:type": "religious", "short_name": "KEM", "website": "https://www.kliniken.de/krankenhaus/kem-i-kliniken-essen-mitte-standort-steele-1057K.html"}}, {"name": "Bergmannsheil und Kinderklinik Buer", "latitude": 51.5707569, "longitude": 7.0606777, "source": "osm", "_tags": {"amenity": "hospital", "contact:phone": "+49 209 59020", "contact:website": "http://www.bergmannsheil-buer.de/", "emergency": "yes", "healthcare": "hospital", "layer": "1", "name": "Bergmannsheil und Kinderklinik Buer", "wheelchair": "yes", "wikidata": "Q820012", "wikipedia": "de:Bergmannsheil und Kinderklinik Buer"}}, {"name": "St. Josef-Hospital Gelsenkirchen-Horst", "latitude": 51.5411287, "longitude": 7.0277616, "source": "osm", "_tags": {"amenity": "hospital", "check_date": "2024-09-24", "healthcare": "hospital", "name": "St. Josef-Hospital Gelsenkirchen-Horst", "wheelchair": "yes"}}, {"name": "Städtische Kliniken", "latitude": 51.5083612, "longitude": 7.4574824, "source": "osm", "_tags": {"addr:city": "Dortmund", "addr:housenumber": "40", "addr:postcode": "44137", "addr:street": "Beurhausstraße", "amenity": "hospital", "emergency": "yes", "healthcare": "hospital", "hospital:level:DE": "3", "name": "Städtische Kliniken", "phone": "+49 231 9530", "rd_do:kh": "K 1", "toilets:wheelchair": "yes", "website": "https://www.klinikumdo.de", "wheelchair": "yes", "wikidata": "Q1658834", "wikimedia_commons": "Category:Klinikum Dortmund", "wikipedia": "de:Klinikum Dortmund"}}, {"name": "LWL-Klinik Dortmund Elisabeth-Klinik", "latitude": 51.5028336, "longitude": 7.5471893, "source": "osm", "_tags": {"amenity": "hospital", "emergency": "yes", "healthcare": "hospital", "name": "LWL-Klinik Dortmund Elisabeth-Klinik", "operator": "Landschaftsverband Westfalen-Lippe", "phone": "+49 231 9130190", "website": "https://www.lwl-jugendpsychiatrie-dortmund.de/", "wikidata": "Q27938191", "wikipedia": "de:LWL-Klinik Dortmund -Elisabeth-Klinik-"}}, {"name": "LWL-Klinik Dortmund", "latitude": 51.5071063, "longitude": 7.5505077, "source": "osm", "_tags": {"amenity": "hospital", "healthcare": "hospital", "healthcare:speciality": "psychiatry", "name": "LWL-Klinik Dortmund", "phone": "+49 231 450301", "website": "https://www.lwl-klinik-dortmund.de/", "wheelchair": "yes", "wikidata": "Q1666405", "wikimedia_commons": "Category:Aplerbeck: Landeskrankenhaus", "wikipedia": "de:LWL-Klinik Dortmund"}}, {"name": "Klinik für Manuelle Therapie Haus 2/3", "latitude": 51.6910707, "longitude": 7.8499028, "source": "osm", "_tags": {"UntereDenkmalbehörde:inscription_date": "2005-05-19", "addr:city": "Hamm", "addr:country": "DE", "addr:housenumber": "107", "addr:postcode": "59071", "addr:street": "Ostenallee", "amenity": "hospital", "building": "yes", "check_date": "2024-07-25", "heritage": "8", "heritage:operator": "UntereDenkmalbehörde", "heritage:ref": "292", "name": "Klinik für Manuelle Therapie Haus 2/3", "start_date": "1936", "wheelchair": "yes"}}, {"name": "Sankt-Marien-Hospital", "latitude": 51.7695585, "longitude": 7.4474909, "source": "osm", "_tags": {"addr:housenumber": "1", "addr:street": "Neustraße", "amenity": "hospital", "emergency": "yes", "healthcare": "hospital", "name": "Sankt-Marien-Hospital", "operator": "St. Franziskus-Stiftung Münster", "operator:type": "private_non_profit", "operator:wikidata": "Q2318238", "toilets:wheelchair": "yes", "wheelchair": "yes"}}, {"name": "St. Josef-Stift", "latitude": 51.8414284, "longitude": 7.8211426, "source": "osm", "_tags": {"amenity": "hospital", "contact:website": "https://www.st-josef-stift.de/", "healthcare": "hospital", "name": "St. Josef-Stift", "toilets:wheelchair": "yes", "wheelchair": "yes", "wikidata": "Q29573091"}}, {"name": "Huyssens-Stiftung - Kliniken Essen-Mitte", "latitude": 51.4411514, "longitude": 7.0300314, "source": "osm", "_tags": {"amenity": "hospital", "healthcare": "hospital", "name": "Huyssens-Stiftung - Kliniken Essen-Mitte", "short_name": "Huyssenstift", "wikidata": "Q1639474", "wikipedia": "de:Huyssens-Stiftung"}}, {"name": "Elisabeth Krankenhaus", "latitude": 51.4451811, "longitude": 7.0328691, "source": "osm", "_tags": {"amenity": "hospital", "healthcare": "hospital", "name": "Elisabeth Krankenhaus", "operator": "Contilia Gruppe", "toilets:wheelchair": "yes", "wheelchair": "yes", "wikidata": "Q1329685", "wikipedia": "de:Elisabeth-Krankenhaus Essen"}}, {"name": "Johanniter-Kliniken Hamm", "latitude": 51.6697311, "longitude": 7.8272206, "source": "osm", "_tags": {"amenity": "hospital", "healthcare": "hospital", "name": "Johanniter-Kliniken Hamm", "wheelchair": "yes", "wikidata": "Q50038300"}}, {"name": "Knappschaft Kliniken Dortmund", "latitude": 51.5197496, "longitude": 7.5333304, "source": "osm", "_tags": {"addr:city": "Dortmund", "addr:country": "DE", "addr:housenumber": "1", "addr:postcode": "44309", "addr:street": "Am Knappschaftskrankenhaus", "amenity": "hospital", "emergency": "yes", "healthcare": "hospital", "name": "Knappschaft Kliniken Dortmund", "old_name": "Knappschaftskrankenhaus Dortmund", "operator": "Knappschaft Kliniken Westfalen GmbH", "website": "https://www.knappschaft-kliniken.de/dortmund/", "wheelchair": "yes", "wikidata": "Q1776899", "wikimedia_commons": "Category:Brackel: Knappschaftskrankenhaus", "wikipedia": "de:Knappschaftskrankenhaus Dortmund"}}, {"name": "Allgemeinpsychiatrische Tagesklinik", "latitude": 51.5046294, "longitude": 7.5481647, "source": "osm", "_tags": {"addr:city": "Dortmund", "addr:country": "DE", "addr:housenumber": "1", "addr:postcode": "44287", "addr:street": "Allerstraße", "amenity": "hospital", "building": "yes", "healthcare": "hospital", "name": "Allgemeinpsychiatrische Tagesklinik", "source": "HiRes aerial imagery"}}, {"name": "St. Marien-Krankenhaus Ahaus", "latitude": 52.0687879, "longitude": 6.9931937, "source": "osm", "_tags": {"addr:city": "Ahaus", "addr:country": "DE", "addr:housenumber": "101", "addr:postcode": "48683", "addr:street": "Wüllener Straße", "amenity": "hospital", "building": "hospital", "contact:phone": "+49 2561 99-0", "contact:website": "https://www.klinikum-westmuensterland.de/ahaus/", "emergency": "yes", "healthcare": "hospital", "name": "St. Marien-Krankenhaus Ahaus", "operator": "Klinikum Westmünsterland GmbH", "website": "https://www.marien-kh-gmbh.de/", "wheelchair": "limited"}}, {"name": "Klinik Walstedde", "latitude": 51.7620875, "longitude": 7.7939097, "source": "osm", "_tags": {"addr:city": "Drensteinfurt", "addr:housenumber": "3", "addr:postcode": "48317", "addr:street": "Nordholter Weg", "amenity": "hospital", "building": "yes", "check_date": "2024-09-26", "healthcare": "hospital", "name": "Klinik Walstedde"}}, {"name": "Alfried Krupp Krankenhaus Steele", "latitude": 51.4500988, "longitude": 7.0916184, "source": "osm", "_tags": {"amenity": "hospital", "emergency": "yes", "healthcare": "hospital", "name": "Alfried Krupp Krankenhaus Steele", "wheelchair": "yes"}}, {"name": "Mathias-Spital (Klinikum Rheine)", "latitude": 52.2759896, "longitude": 7.4257392, "source": "osm", "_tags": {"addr:city": "Rheine", "addr:housenumber": "31", "addr:postcode": "48431", "addr:street": "Frankenburgstraße", "amenity": "hospital", "contact:email": "info@mathias-spital.de", "contact:fax": "+49 5971 42-2009", "contact:phone": "+49 5971 42-0", "contact:website": "https://www.mathias-spital.com/", "emergency": "yes", "healthcare": "hospital", "healthcare:speciality": "paediatrics;gynaecology;surgery;a;gastroenterology;oncology", "name": "Mathias-Spital (Klinikum Rheine)", "operator": "Stiftung Mathias-Spital Rheine", "operator:type": "charitable", "toilets:wheelchair": "yes", "wheelchair": "yes", "wikidata": "Q50038662"}}, {"name": "Evangelisches Krankenhaus Witten", "latitude": 51.4459545, "longitude": 7.3439016, "source": "osm", "_tags": {"addr:city": "Witten", "addr:country": "DE", "addr:housenumber": "27", "addr:postcode": "58455", "addr:street": "Pferdebachstraße", "addr:suburb": "Mitte", "amenity": "hospital", "building": "hospital", "building:fireproof": "yes", "capacity": "302", "contact:facebook": "https://www.facebook.com/evkwitten", "contact:fax": "+49 2302 1752000", "contact:foursquare": "4c861bf374d7b60c65d1a0d8", "contact:phone": "+49 2302 1750", "contact:website": "https://www.evk-witten.de/", "contact:yelp": "evangel-krankenhaus-witten", "currency:EUR": "yes", "currency:others": "no", "denomination": "protestant", "healthcare": "hospital", "healthcare:speciality": "general", "image": "File:Witten - Diakonissenhaus2006.jpg", "internet_access": "wlan", "internet_access:operator": "Frederix", "name": "Evangelisches Krankenhaus Witten", "old_name": "Diakonissenhaus", "opening_hours": "24/7", "payment:cash": "yes", "payment:girocard": "yes", "payment:maestro": "yes", "payment:mastercard": "yes", "payment:visa": "yes", "religion": "christian", "religion:wikidata": "Q23540", "roof:colour": "gray", "roof:material": "concrete", "roof:shape": "flat", "smoking": "no", "toilets": "yes", "toilets:wheelchair": "yes", "wheelchair": "yes", "wikidata": "Q1381358", "wikimedia_commons": "Category:Evangelisches Krankenhaus Witten", "wikipedia": "de:Evangelisches Krankenhaus Witten", "year_of_construction": "1976"}}, {"name": "St. Marien Hospital Eickel", "latitude": 51.515214, "longitude": 7.1822115, "source": "osm", "_tags": {"addr:city": "Herne", "addr:country": "DE", "addr:housenumber": "2", "addr:postcode": "44651", "addr:street": "Marienstraße", "amenity": "hospital", "building": "hospital", "emergency": "no", "healthcare": "hospital", "healthcare:speciality": "psychiatry", "name": "St. Marien Hospital Eickel", "phone": "+49 2325 3740", "website": "https://www.marienhospital-eickel.de/", "wheelchair": "yes"}}, {"name": "Alfried-Krupp-Krankenhaus", "latitude": 51.4265137, "longitude": 7.008338, "source": "osm", "_tags": {"amenity": "hospital", "check_date": "2025-08-11", "name": "Alfried-Krupp-Krankenhaus", "name:etymology:wikidata": "Q61430", "wikidata": "Q1650578", "wikipedia": "de:Alfried Krupp Krankenhaus Rüttenscheid"}}, {"name": "Tagesklinik Hamm", "latitude": 51.6849622, "longitude": 7.859562, "source": "osm", "_tags": {"amenity": "hospital", "building": "yes", "emergency": "no", "name": "Tagesklinik Hamm", "wheelchair": "limited"}}, {"name": "Berufsgenossenschaftliches Universitätsklinikum Bergmannsheil GmbH", "latitude": 51.4682212, "longitude": 7.2111606, "source": "osm", "_tags": {"addr:city": "Bochum", "addr:country": "DE", "addr:housenumber": "1", "addr:postcode": "44789", "addr:street": "Bürkle de la Camp-Platz", "amenity": "hospital", "email": "bergmannsheil@bergmannsheil.de", "fax": "+49 234 330734", "healthcare": "hospital", "name": "Berufsgenossenschaftliches Universitätsklinikum Bergmannsheil GmbH", "phone": "+49 234 302-0", "toilets:wheelchair": "yes", "website": "https://www.bg-kliniken.de/universitaetsklinikum-bergmannsheil-bochum/", "wheelchair": "yes"}}, {"name": "ZaR", "latitude": 51.9791225, "longitude": 7.6129182, "source": "osm", "_tags": {"addr:city": "Münster", "addr:country": "DE", "addr:housenumber": "182", "addr:postcode": "48159", "addr:street": "Grevener Straße", "amenity": "hospital", "building": "yes", "building:levels": "2", "description": "Zentrum für ambulante Rehabilitation GmbH Münster", "healthcare": "rehabilitation", "name": "ZaR", "roof:levels": "1", "toilets:wheelchair": "yes", "website": "https://www.zar-ms.de", "wheelchair": "yes"}}, {"name": "Augusta-Klinik Bochum-Mitte", "latitude": 51.4851446, "longitude": 7.2237617, "source": "osm", "_tags": {"amenity": "hospital", "contact:email": "info@augusta-bochum.de", "emergency": "yes", "healthcare": "hospital", "internet_access": "wlan", "name": "Augusta-Klinik Bochum-Mitte", "opening_hours": "24/7", "phone": "+49 234 5170", "toilets:wheelchair": "yes", "website": "https://www.augusta-kliniken.de/standorte/augusta-kranken-anstalt-bochum-mitte.html", "wheelchair": "yes", "wikidata": "Q765362", "wikipedia": "de:Augusta-Kranken-Anstalt Bochum"}}, {"name": "Universitätsklinikum St.-Josef-Hospital Bochum", "latitude": 51.4920611, "longitude": 7.2301822, "source": "osm", "_tags": {"addr:city": "Bochum", "addr:country": "DE", "addr:housenumber": "56", "addr:postcode": "44791", "addr:street": "Gudrunstraße", "amenity": "hospital", "email": "info@klinikum-bochum.de", "emergency": "yes", "healthcare": "hospital", "name": "Universitätsklinikum St.-Josef-Hospital Bochum", "phone": "+49 234509-0", "wheelchair": "yes"}}, {"name": "Johanniter-Kliniken Hamm", "latitude": 51.6791169, "longitude": 7.8181886, "source": "osm", "_tags": {"addr:city": "Hamm", "addr:country": "DE", "addr:housenumber": "13 - 19", "addr:postcode": "59065", "addr:street": "Nassauerstraße", "amenity": "hospital", "building": "hospital", "fax": "+49 2381 181202", "healthcare": "hospital", "name": "Johanniter-Kliniken Hamm", "phone": "+49 2381 180", "website": "https://www.johanniter.de/johanniter-kliniken/johanniter-kliniken-hamm/", "wheelchair": "yes", "wikidata": "Q1664423", "wikipedia": "de:St. Marien-Hospital Hamm"}}, {"name": "Johanniter-Kliniken Hamm", "latitude": 51.6883631, "longitude": 7.8504702, "source": "osm", "_tags": {"addr:housenumber": "19", "addr:street": "Knappenstraße", "amenity": "hospital", "check_date": "2024-06-25", "emergency": "yes", "fax": "+49 2381 181209", "healthcare": "hospital", "name": "Johanniter-Kliniken Hamm", "operator": "Johanniter-Kliniken Hamm", "phone": "+49 2381 181205", "wheelchair": "yes"}}, {"name": "Sankt Franziskus-Hospital", "latitude": 51.9612769, "longitude": 7.650607, "source": "osm", "_tags": {"amenity": "hospital", "beds": "600", "emergency": "yes", "healthcare": "hospital", "name": "Sankt Franziskus-Hospital", "operator": "St. Franziskus-Stiftung Münster", "operator:wikidata": "Q2318238", "phone": "+49 251 9350", "toilets:wheelchair": "yes", "website": "https://www.sfh-muenster.de/", "wheelchair": "yes", "wikidata": "Q2318236", "wikipedia": "de:St. Franziskus-Hospital Münster"}}, {"name": "Knappschaft Kliniken Kamen", "latitude": 51.595427, "longitude": 7.6626895, "source": "osm", "_tags": {"addr:city": "Kamen", "addr:housenumber": "34", "addr:postcode": "59174", "addr:street": "Nordstraße", "amenity": "hospital", "building": "yes", "healthcare": "hospital", "name": "Knappschaft Kliniken Kamen", "old_name": "Hellmig-Krankenhaus", "operator": "Knappschaft Kliniken Westfalen GmbH", "wheelchair": "yes", "wikidata": "Q29868757"}}, {"name": "Alexianer Münster GmbH", "latitude": 51.8772642, "longitude": 7.5638781, "source": "osm", "_tags": {"addr:housenumber": "9", "addr:street": "Alexianerweg", "amenity": "hospital", "building": "yes", "name": "Alexianer Münster GmbH", "source": "NRW-Atlas (ALK)", "toilets:wheelchair": "yes", "wheelchair": "limited"}}, {"name": "Clemenshospital", "latitude": 51.9324405, "longitude": 7.6140017, "source": "osm", "_tags": {"addr:city": "Münster", "addr:country": "DE", "addr:housenumber": "124", "addr:postcode": "48153", "addr:street": "Düesbergweg", "amenity": "hospital", "email": "info.clemenshospital@alexianer.de", "emergency": "yes", "fax": "+49 251 9764440", "healthcare": "hospital", "name": "Clemenshospital", "operator": "Alexianer Misericordia GmbH", "phone": "+49 251 9760", "toilets:wheelchair": "yes", "website": "https://www.clemenshospital.de/", "wheelchair": "yes", "wikidata": "Q1100206"}}, {"name": "Paulinenkrankenhaus", "latitude": 52.2990053, "longitude": 7.1507594, "source": "osm", "_tags": {"addr:city": "Bad Bentheim", "addr:country": "DE", "addr:housenumber": "1", "addr:postcode": "48455", "addr:street": "Paulinenweg", "amenity": "hospital", "building": "yes", "emergency": "no", "fax": "+49 5922 977177", "healthcare": "hospital", "healthcare:speciality": "orthopaedics", "name": "Paulinenkrankenhaus", "phone": "+49 5922 9770", "source": "Bing", "website": "https://www.orthopaedie-badbentheim.de/"}}, {"name": "Jakobi-Krankenhaus (Klinikum Rheine)", "latitude": 52.2728965, "longitude": 7.444489, "source": "osm", "_tags": {"addr:city": "Rheine", "addr:country": "DE", "addr:housenumber": "12", "addr:postcode": "48431", "addr:street": "Hörstkamp", "amenity": "hospital", "building": "hospital", "contact:email": "info@jakobi-Krankenhaus.de", "contact:fax": "+49 5971 46-205", "contact:phone": "+49 5971 46-0", "contact:website": "https://www.mathias-spital.com", "emergency": "yes", "healthcare": "hospital", "healthcare:speciality": "psychiatry;geriatrics;dialysis", "name": "Jakobi-Krankenhaus (Klinikum Rheine)", "operator": "Stiftung Mathias-Spital Rheine", "operator:type": "charitable", "toilets:wheelchair": "yes", "wheelchair": "yes"}}, {"name": "St. Maria-Hilf-Krankenhaus", "latitude": 51.5198254, "longitude": 7.2723217, "source": "osm", "_tags": {"amenity": "hospital", "contact:website": "https://www.klinikum-bochum.de/st-maria-hilf-krankenhaus/standort.html", "healthcare": "hospital", "name": "St. Maria-Hilf-Krankenhaus", "wheelchair": "yes", "wikidata": "Q14956892"}}, {"name": "Marienkrankenhaus Goethestraße", "latitude": 51.4439057, "longitude": 7.5676702, "source": "osm", "_tags": {"addr:city": "Schwerte", "addr:housenumber": "19", "addr:postcode": "58239", "addr:street": "Goethestraße", "amenity": "hospital", "building": "yes", "check_date": "2022-08-29", "contact:phone": "+49 2304 109-0", "contact:website": "http://www.marien-kh.de", "emergency": "yes", "healthcare": "hospital", "name": "Marienkrankenhaus Goethestraße", "opening_hours": "24/7", "operator": "Marienkrankenhaus gGmbH", "wheelchair": "yes", "wikidata": "Q15119601", "wikipedia": "de:Marienkrankenhaus Schwerte"}}, {"name": "Psychiatrie Bochum", "latitude": 51.4902321, "longitude": 7.2295131, "source": "osm", "_tags": {"addr:city": "Bochum", "addr:country": "DE", "addr:housenumber": "1-3", "addr:postcode": "44791", "addr:street": "Alexandrinenstraße", "amenity": "hospital", "check_date": "2025-02-24", "healthcare": "hospital", "healthcare:speciality": "psychiatry", "name": "Psychiatrie Bochum", "operator": "LWL-Universitätsklinik", "website": "https://uk-bochum.lwl.org/", "wikidata": "Q1798481", "wikipedia": "de:LWL-Universitätsklinik Bochum"}}, {"name": "St.Vincenz-Krankenhaus Datteln", "latitude": 51.6518374, "longitude": 7.3449656, "source": "osm", "_tags": {"addr:city": "Datteln", "addr:housenumber": "11", "addr:postcode": "45711", "addr:street": "Rottstraße", "amenity": "hospital", "emergency": "yes", "name": "St.Vincenz-Krankenhaus Datteln", "operator": "Vestische Caritas-Kliniken GmbH", "wheelchair": "yes"}}, {"name": "Vestische Kinder- und Jugendklinik Datteln", "latitude": 51.642802, "longitude": 7.3380359, "source": "osm", "_tags": {"amenity": "hospital", "healthcare": "hospital", "name": "Vestische Kinder- und Jugendklinik Datteln", "url": "http://www.kinderklinik-datteln.de", "website": "https://www.kinderklinik-datteln.de", "wheelchair": "yes", "wikidata": "Q2521228"}}, {"name": "Sankt Elisabeth-Hospital", "latitude": 51.4827507, "longitude": 7.2211891, "source": "osm", "_tags": {"addr:city": "Bochum", "addr:country": "DE", "addr:housenumber": "15", "addr:postcode": "44787", "addr:street": "Bleichstraße", "amenity": "hospital", "check_date": "2024-08-20", "fax": "+49 234 612-656", "healthcare": "hospital", "name": "Sankt Elisabeth-Hospital", "phone": "+49 234 612-0", "website": "https://www.klinikum-bochum.de/st-elisabeth-hospital/standort.html", "wheelchair": "yes", "wikidata": "Q15129272", "wikipedia": "de:St. Elisabeth-Hospital Bochum"}}, {"name": "UKM Marienhospital Steinfurt", "latitude": 52.1265238, "longitude": 7.4004494, "source": "osm", "_tags": {"amenity": "hospital", "contact:email": "zentrale-st@ukm-mhs.de", "contact:phone": "+49 2552 79-0", "contact:website": "https://ukm-mhs.de/", "emergency": "yes", "healthcare": "hospital", "name": "UKM Marienhospital Steinfurt", "operator": "UKM Marienhospital Steinfurt GmbH", "short_name": "UKMMHS Steinfurt", "wheelchair": "yes"}}, {"name": "LWL-Klinik Marl-Sinsen - Haardklinik -", "latitude": 51.6912609, "longitude": 7.1827946, "source": "osm", "_tags": {"addr:city": "Marl", "addr:housenumber": "525", "addr:postcode": "45770", "addr:street": "Halterner Straße", "amenity": "hospital", "email": "lwl-klinik.marl@lwl.org", "emergency": "no", "fax": "+49 2365 802 2209", "healthcare": "hospital", "healthcare:speciality": "psychiatry", "name": "LWL-Klinik Marl-Sinsen - Haardklinik -", "operator": "LWL", "phone": "+49 2365 8020", "website": "https://www.haardklinik.lwl.org", "wikidata": "Q1798470", "wikipedia": "de:LWL-Klinik Marl-Sinsen"}}, {"name": "LWL-Klinik Herten", "latitude": 51.5918187, "longitude": 7.1272955, "source": "osm", "_tags": {"addr:city": "Herten", "addr:country": "DE", "addr:housenumber": "20", "addr:postcode": "45699", "addr:street": "Im Schloßpark", "amenity": "hospital", "building": "hospital", "contact:email": "info-herten@lwl.org", "contact:fax": "+49 2366 802 5009", "contact:phone": "+49 2366 802 0", "emergency": "no", "healthcare": "hospital", "healthcare:speciality": "psychiatry", "name": "LWL-Klinik Herten", "operator": "LWL"}}, {"name": "Marienhospital Bochum-Wattenscheid", "latitude": 51.4838166, "longitude": 7.1393068, "source": "osm", "_tags": {"amenity": "hospital", "check_date": "2025-07-02", "emergency": "no", "healthcare": "hospital", "name": "Marienhospital Bochum-Wattenscheid", "toilets:wheelchair": "yes", "wheelchair": "yes", "wikidata": "Q15119418"}}, {"name": "Martin-Luther-Krankenhaus", "latitude": 51.4825873, "longitude": 7.143233, "source": "osm", "_tags": {"addr:city": "Bochum", "addr:housenumber": "79", "addr:postcode": "44866", "addr:street": "Voedestraße", "amenity": "hospital", "contact:phone": "+49 2327 65-0", "contact:website": "https://www.martin-luther-krankenhaus-bo.de/", "emergency": "yes", "healthcare": "hospital", "name": "Martin-Luther-Krankenhaus", "operator": "Katholisches Klinikum Bochum", "wheelchair": "yes", "wikidata": "Q1903246", "wikipedia": "de:Martin-Luther-Krankenhaus (Wattenscheid)"}}, {"name": "LWL Tagesklinik", "latitude": 51.5324607, "longitude": 7.6758324, "source": "osm", "_tags": {"addr:city": "Unna", "addr:housenumber": "10", "addr:postcode": "59423", "addr:street": "Falkstraße", "amenity": "hospital", "building": "yes", "healthcare": "hospital", "name": "LWL Tagesklinik", "wheelchair": "yes"}}, {"name": "Prosper-Hospital", "latitude": 51.606331, "longitude": 7.1921336, "source": "osm", "_tags": {"addr:city": "Recklinghausen", "addr:housenumber": "27", "addr:postcode": "45659", "addr:street": "Mühlenstraße", "building": "hospital", "building:levels": "10", "email": "info@prosper-hospital.de", "emergency": "yes", "healthcare": "hospital", "name": "Prosper-Hospital", "phone": "+49 2361 540", "website": "https://www.prosper-hospital.de/", "wheelchair": "yes", "wikidata": "Q29386320"}}, {"name": "St. Elisabeth-Krankenhaus", "latitude": 51.6572066, "longitude": 6.9563976, "source": "osm", "_tags": {"amenity": "hospital", "email": "dorsten@kkrn.de", "emergency": "yes", "healthcare": "hospital", "name": "St. Elisabeth-Krankenhaus", "operator": "KKRN Katholisches Klinikum Ruhrgebiet Nord GmbH", "operator:type": "religious", "phone": "+49 2362 290", "toilets:wheelchair": "yes", "website": "https://st-elisabeth-krankenhaus-dorsten.de/", "wheelchair": "yes"}}, {"name": "Marienhospital Gelsenkirchen", "latitude": 51.4955001, "longitude": 7.101255, "source": "osm", "_tags": {"amenity": "hospital", "emergency": "yes", "healthcare": "hospital", "name": "Marienhospital Gelsenkirchen", "website": "https://marienhospital.eu/marienhospital-gelsenkirchen/", "wheelchair": "yes", "wikidata": "Q1897713", "wikipedia": "de:Marienhospital Gelsenkirchen"}}, {"name": "Ev. Lukas-Krankenhaus Gronau", "latitude": 52.2167356, "longitude": 7.0299803, "source": "osm", "_tags": {"amenity": "hospital", "contact:fax": "+49 2562 79-200", "contact:phone": "+49 2562 79-0", "contact:website": "https://www.lukas-gronau.de/", "denomination": "protestant", "emergency": "yes", "healthcare": "hospital", "name": "Ev. Lukas-Krankenhaus Gronau", "operator": "Ev. Lukas-Krankenhaus Gronau gemeinnützige GmbH", "religion": "christian"}}, {"name": "Medical Center", "latitude": 51.9320891, "longitude": 7.6154076, "source": "osm", "_tags": {"amenity": "hospital", "building": "hospital", "building:levels": "4", "name": "Medical Center", "roof:levels": "0", "roof:material": "grass", "roof:shape": "flat", "source": "bing;NRW Atlas (ALK)"}}, {"name": "Gesundheitspark Altenessen", "latitude": 51.4995544, "longitude": 7.0052113, "source": "osm", "_tags": {"amenity": "hospital", "healthcare": "hospital", "name": "Gesundheitspark Altenessen", "old_name": "Marienhospital", "operator": "Contilia; Katholisches Klinikum Essen", "wheelchair": "yes", "wikidata": "Q17322783", "wikipedia": "de:Katholisches Klinikum Essen"}}, {"name": "Paracelsus-Klinik", "latitude": 51.6620049, "longitude": 7.1241505, "source": "osm", "_tags": {"addr:city": "Marl", "addr:country": "DE", "addr:housenumber": "11", "addr:postcode": "45770", "addr:street": "Lipper Weg", "amenity": "hospital", "check_date": "2025-05-29", "contact:fax": "+49 2365 90-2099", "contact:phone": "+49 2365 90-0", "contact:website": "https://www.klinikum-vest.de/Inhalt/Kliniken_Zentren_Bereiche/Paracelsus-Klinik_Marl/index.php", "email": "info@klinikum-vest.de", "emergency": "yes", "fax": "+49 2361 56 1098", "healthcare": "hospital", "name": "Paracelsus-Klinik", "operator": "Klinikum Vest GmbH", "operator:type": "private", "phone": "+49 2361 56 0", "source": "local knowledge", "website": "https://www.klinikum-vest.de/", "wheelchair": "yes"}}, {"name": "Evangelisches Krankenhaus Herne-Eickel", "latitude": 51.5106093, "longitude": 7.1757205, "source": "osm", "_tags": {"amenity": "hospital", "contact:email": "info@evk-herne.de", "contact:fax": "+49 2323 498-92208", "contact:phone": "+49 2323 498-90", "contact:website": "https://www.evk-herne.de/", "healthcare": "hospital", "name": "Evangelisches Krankenhaus Herne-Eickel", "operator": "Ev. Krankenhausgemeinschaft Herne | Castrop-Rauxel gGmbH"}}, {"name": "Justizvollzugskrankenhaus Nordrhein-Westfalen", "latitude": 51.4782102, "longitude": 7.7826614, "source": "osm", "_tags": {"alt_name": "Justizvollzugskrankenhaus Fröndenberg", "amenity": "hospital", "contact:email": "poststelle@jvk.nrw.de", "contact:fax": "+49 2373 758-322", "contact:phone": "+49 2373 758-0", "contact:website": "https://www.jvk.nrw.de/", "emergency": "no", "healthcare": "hospital", "name": "Justizvollzugskrankenhaus Nordrhein-Westfalen", "wheelchair": "yes", "wikidata": "Q1714455", "wikipedia": "de:Justizvollzugskrankenhaus Nordrhein-Westfalen"}}, {"name": "Raphaelsklinik", "latitude": 51.9590757, "longitude": 7.6304729, "source": "osm", "_tags": {"amenity": "hospital", "beds": "316", "emergency": "yes", "healthcare": "hospital", "name": "Raphaelsklinik", "phone": "+49 251 5007 0", "toilets:wheelchair": "yes", "website": "https://www.raphaelsklinik.de/", "wheelchair": "yes", "wikidata": "Q2131450", "wikipedia": "de:Raphaelsklinik Münster"}}, {"name": "LWL-Klinik für Psychosomatische Medizin und Psychotherapie", "latitude": 51.4908948, "longitude": 7.2284387, "source": "osm", "_tags": {"addr:city": "Bochum", "addr:country": "DE", "addr:housenumber": "56", "addr:postcode": "44791", "addr:street": "Klinikstraße", "amenity": "hospital", "building": "hospital", "healthcare": "hospital", "name": "LWL-Klinik für Psychosomatische Medizin und Psychotherapie", "operator": "Landschaftsverband Westfalen-Lippe", "operator:type": "public", "operator:wikidata": "Q896216", "operator:wikipedia": "de:Landschaftsverband Westfalen-Lippe", "website": "https://uk-bochum.lwl.org/de/klinik-fur-psychosomatische-medizin-psychotherapie/", "wikidata": "Q1798481", "wikipedia": "de:LWL-Universitätsklinik Bochum"}}, {"name": "Christophorus Kliniken", "latitude": 51.9334029, "longitude": 7.3539893, "source": "osm", "_tags": {"amenity": "hospital", "healthcare": "hospital", "name": "Christophorus Kliniken", "opening_hours": "Mo-Fr 08:00-16:30", "phone": "+49 02502 220-0", "website": "https://www.christophorus-kliniken.de/", "wheelchair": "yes"}}, {"name": "Marienhospital Herne", "latitude": 51.528691, "longitude": 7.2265212, "source": "osm", "_tags": {"addr:city": "Herne", "addr:country": "DE", "addr:housenumber": "40", "addr:postcode": "44625", "addr:street": "Hölkeskampring", "amenity": "hospital", "check_date": "2024-08-15", "emergency": "yes", "healthcare": "hospital", "name": "Marienhospital Herne", "operator": "St. Elisabeth Gruppe GmbH - Katholische Kliniken Rhein-Ruhr", "phone": "+49 2323 4990", "website": "https://www.marienhospital-herne.de/", "wikidata": "Q1897715"}}, {"name": "Evangelisches Krankenhaus Herne Mitte", "latitude": 51.5338627, "longitude": 7.2306001, "source": "osm", "_tags": {"addr:city": "Herne", "addr:country": "DE", "addr:housenumber": "24", "addr:postcode": "44623", "addr:street": "Wiescherstraße", "amenity": "hospital", "emergency": "yes", "healthcare": "hospital", "name": "Evangelisches Krankenhaus Herne Mitte", "operator": "Ev. Krankenhausgemeinschaft Herne Castrop-Rauxel gGmbH", "toilets:wheelchair": "yes", "website": "https://www.evk-herne.de/", "wheelchair": "yes"}}, {"name": "St.-Sixtus-Hospital", "latitude": 51.7454709, "longitude": 7.1941866, "source": "osm", "_tags": {"addr:city": "Haltern am See", "addr:housenumber": "2", "addr:postcode": "45721", "addr:street": "Gartenstraße", "amenity": "hospital", "contact:website": "http://www.kkrn.de/index.php?id=st-sixtus-hospital", "healthcare": "hospital", "name": "St.-Sixtus-Hospital", "operator": "Katholisches Klinikum Ruhrgebiet Nord GmbH", "wheelchair": "yes"}}, {"name": "Maria Frieden", "latitude": 51.9880491, "longitude": 7.817566, "source": "osm", "_tags": {"addr:city": "Telgte", "addr:country": "DE", "addr:housenumber": "1", "addr:postcode": "48291", "addr:street": "Am Krankenhaus", "amenity": "hospital", "check_date": "2024-04-08", "contact:fax": "+49 2504 672000", "contact:phone": "+49 2504 670", "contact:website": "https://www.maria-frieden-telgte.de/", "emergency": "no", "healthcare": "rehabilitation", "healthcare:speciality": "geriatrics;neurology", "name": "Maria Frieden", "operator": "Franziskus-Stiftung Münster", "operator:type": "religious"}}, {"name": "ZaR", "latitude": 51.9788937, "longitude": 7.6125207, "source": "osm", "_tags": {"addr:city": "Münster", "addr:country": "DE", "addr:housenumber": "180", "addr:postcode": "48159", "addr:street": "Grevener Straße", "amenity": "hospital", "building": "yes", "building:levels": "3", "description": "MVZ am ZaR/Neuropsychologie", "healthcare": "rehabilitation", "name": "ZaR"}}, {"name": "St.-Johannes-Hospital", "latitude": 51.5110291, "longitude": 7.4566492, "source": "osm", "_tags": {"addr:city": "Dortmund", "addr:housenumber": "9-17", "addr:postcode": "44137", "addr:street": "Johannesstraße", "amenity": "hospital", "healthcare": "hospital", "name": "St.-Johannes-Hospital", "phone": "+49 231 18 43 0", "website": "https://www.joho-dortmund.de/", "wheelchair": "yes", "wikidata": "Q2316196", "wikimedia_commons": "Category:St. Johannes-Hospital (Dortmund)", "wikipedia": "de:St.-Johannes-Hospital Dortmund"}}, {"name": "LWL-Tagesklinik für Psychotherapie", "latitude": 51.9614357, "longitude": 7.6411535, "source": "osm", "_tags": {"addr:city": "Münster", "addr:country": "DE", "addr:housenumber": "1", "addr:postcode": "48145", "addr:street": "Zumsandestraße", "beds": "20", "building": "hospital", "building:levels": "2", "check_date": "2024-08-11", "description": "Tagesklinik für teilstationäre psychotherapeutische Behandlung.", "email": "sebastian.voss@lwl.org", "emergency": "no", "health_facility:type": "hospital", "healthcare": "hospital", "healthcare:speciality": "psychiatry", "name": "LWL-Tagesklinik für Psychotherapie", "operator": "Landschaftsverband Westfalen-Lippe", "phone": "+49 251 91555-2760", "roof:colour": "black", "roof:shape": "flat", "source": "NRW Atlas (ALK,DOP40)", "source:addr": "regio-osm", "start_date": "2014-03", "website": "https://www.lwl-klinik-muenster.de/de/infoservice_fuer_patienten/medizinische_abteilungen_und_stationen/abteilung_spezielle_psychotherapie/tagesklinik-zumsandestrasse/"}}, {"name": "St. Barbara-Hospital", "latitude": 51.5748129, "longitude": 6.9873998, "source": "osm", "_tags": {"addr:city": "Gladbeck", "addr:housenumber": "1", "addr:postcode": "45964", "addr:street": "Barbarastraße", "amenity": "hospital", "check_date": "2025-07-31", "healthcare": "hospital", "name": "St. Barbara-Hospital", "operator": "Katholische Kliniken Emscher-Lippe GmbH", "operator:type": "religious", "toilets:wheelchair": "yes", "website": "https://st-barbara-hospital.eu/", "wheelchair": "yes"}}, {"name": "Marien-Hospital", "latitude": 51.4451899, "longitude": 7.3374023, "source": "osm", "_tags": {"addr:city": "Witten", "addr:country": "DE", "addr:housenumber": "2", "addr:postcode": "58452", "addr:street": "Marienplatz", "addr:suburb": "Mitte", "alt_name": "Marienhospital", "amenity": "hospital", "building": "hospital", "building:fireproof": "yes", "contact:email": "info@marien-hospital-witten.de", "contact:facebook": "https://www.facebook.com/Marien-Hospital-Witten-170568779682227/", "contact:foursquare": "4c861bf374d7b60c65d1a0d8", "contact:phone": "+49 2302 1730", "contact:website": "https://www.marien-hospital-witten.de/", "contact:yelp": "marien-hospital-witten-ggmbh-witten", "currency:EUR": "yes", "currency:others": "no", "denomination": "roman_catholic", "dog": "no", "healthcare": "hospital", "healthcare:speciality": "general", "image": "File:Witten Marienhospital.jpg", "internet_access": "wlan", "internet_access:fee": "no", "mapillary": "150561793683001", "name": "Marien-Hospital", "name:ar": "مشفى مارين", "name:en": "Marian-Hospital", "name:etymology:wikidata": "Q345", "official_name": "Marien-Hospital Witten", "opening_hours": "24/7", "operator": "St. Elisabeth Gruppe GmbH – Katholische Kliniken Rhein-Ruhr", "payment:cash": "yes", "payment:girocard": "yes", "religion": "christian", "religion:wikidata": "Q9592", "smoking": "no", "toilets": "yes", "toilets:wheelchair": "yes", "wheelchair": "yes", "wikidata": "Q1897720", "wikimedia_commons": "Category:Marienhospital Witten", "wikipedia": "de:Marienhospital Witten"}}, {"name": "Klinikzentrum Nord", "latitude": 51.5343161, "longitude": 7.4541768, "source": "osm", "_tags": {"addr:city": "Dortmund", "addr:housenumber": "240", "addr:postcode": "44145", "addr:street": "Münsterstraße", "amenity": "hospital", "healthcare": "hospital", "name": "Klinikzentrum Nord", "wikidata": "Q1658834", "wikimedia_commons": "Category:Klinikum Dortmund", "wikipedia": "de:Klinikum Dortmund"}}, {"name": "Universitätsklinikum Knappschaftskrankenhaus Bochum", "latitude": 51.4640955, "longitude": 7.3272049, "source": "osm", "_tags": {"addr:city": "Bochum", "addr:country": "DE", "addr:housenumber": "23-25", "addr:postcode": "44892", "addr:street": "In der Schornau", "amenity": "hospital", "emergency": "yes", "healthcare": "hospital", "name": "Universitätsklinikum Knappschaftskrankenhaus Bochum", "wikidata": "Q1776898"}}, {"name": "LWL-Maßregelvollzugsklinik Rheine (Forensik)", "latitude": 52.3013136, "longitude": 7.3834167, "source": "osm", "_tags": {"amenity": "hospital", "barrier": "fence", "fence_type": "metal", "healthcare": "hospital", "healthcare:speciality": "forensic_psychiatry", "name": "LWL-Maßregelvollzugsklinik Rheine (Forensik)"}}, {"name": "LWL-Klinik Herten", "latitude": 51.5910609, "longitude": 7.1259954, "source": "osm", "_tags": {"amenity": "hospital", "name": "LWL-Klinik Herten", "operator": "LWL"}}, {"name": "St. Elisabeth Hospital", "latitude": 51.5922184, "longitude": 7.1241373, "source": "osm", "_tags": {"addr:city": "Herten", "addr:country": "DE", "addr:housenumber": "12", "addr:postcode": "45699", "addr:street": "Im Schloßpark", "amenity": "hospital", "contact:email": "info@st-elisabeth-hospital.de", "contact:fax": "+49 2366 15-3099", "contact:phone": "+49 2366 15-0", "emergency": "yes", "healthcare": "hospital", "healthcare:speciality": "orthopaedics;emergency;general;internal;radiology", "name": "St. Elisabeth Hospital", "operator": "St. Elisabeth-Hospital Herten gGmbH"}}, {"name": "Gertrudis-Hospital Westerholt", "latitude": 51.5999101, "longitude": 7.085608, "source": "osm", "_tags": {"addr:city": "Herten", "addr:housenumber": "23", "addr:postcode": "45701", "addr:street": "Kuhstraße", "amenity": "hospital", "contact:email": "westerholt@kkrn.de", "contact:fax": "+49 209 6191 109", "contact:phone": "+49 209 6191 0", "emergency": "yes", "healthcare": "hospital", "healthcare:speciality": "surgery;internal;emergency;geriatrics", "name": "Gertrudis-Hospital Westerholt", "operator": "KKRN Katholisches Klinikum Ruhrgebiet Nord GmbH"}}, {"name": "Katholisches Krankenhaus Dortmund-West", "latitude": 51.5240469, "longitude": 7.3672633, "source": "osm", "_tags": {"addr:city": "Dortmund", "addr:country": "DE", "addr:housenumber": "40", "addr:postcode": "44379", "addr:street": "Zollernstraße", "amenity": "hospital", "emergency": "yes", "healthcare": "hospital", "name": "Katholisches Krankenhaus Dortmund-West", "operator": "Katholische St. Lukas Gesellschaft", "wikidata": "Q15116418", "wikipedia": "de:Katholisches Krankenhaus Dortmund-West"}}, {"name": "Klinikum Vest Recklinghausen", "latitude": 51.6199652, "longitude": 7.1759926, "source": "osm", "_tags": {"addr:city": "Recklinghausen", "addr:housenumber": "151", "addr:postcode": "45657", "addr:street": "Dorstener Straße", "amenity": "hospital", "email": "info@klinikum-vest.de", "emergency": "yes", "healthcare": "hospital", "healthcare:speciality": "trauma", "name": "Klinikum Vest Recklinghausen", "operator": "Klinikum Vest GmbH", "phone": "+49 2361 560", "website": "https://www.klinikum-vest.de/Inhalt/Kliniken_Zentren_Bereiche/Knappschaftskrankenhaus_Recklinghausen/", "wikidata": "Q23788064", "wikipedia": "de:Knappschaftskrankenhaus Recklinghausen"}}, {"name": "Marien-Hospital Marl", "latitude": 51.6524123, "longitude": 7.0840208, "source": "osm", "_tags": {"addr:city": "Marl", "addr:housenumber": "57", "addr:postcode": "45768", "addr:street": "Hervester Straße", "amenity": "hospital", "email": "marl@kkrn.de", "emergency": "yes", "fax": "+49 2365 911 300", "healthcare": "hospital", "name": "Marien-Hospital Marl", "operator": "KKRN Katholisches Klinikum Ruhrgebiet Nord GmbH", "phone": "+49 2365 911 0", "website": "https://www.kkrn.de/marien-hospital-marl/startseite/", "wheelchair": "yes"}}, {"name": "St. Rochus-Hospital", "latitude": 51.5468489, "longitude": 7.3159072, "source": "osm", "_tags": {"addr:city": "Castrop-Rauxel", "addr:housenumber": "10", "addr:postcode": "44575", "addr:street": "Glückaufstraße", "amenity": "hospital", "healthcare": "hospital", "name": "St. Rochus-Hospital", "phone": "+49 2305 294 0", "website": "http://www.st-rochus-hospital.de/", "wheelchair": "limited", "wikidata": "Q15129799"}}, {"name": "Evangelisches Krankenhaus Castrop-Rauxel", "latitude": 51.5673349, "longitude": 7.3199585, "source": "osm", "_tags": {"amenity": "hospital", "healthcare": "hospital", "name": "Evangelisches Krankenhaus Castrop-Rauxel", "phone": "+49 2305 1020", "website": "https://www.evk-castrop-rauxel.de/"}}, {"name": "St.-Laurentius-Stift", "latitude": 51.6208689, "longitude": 7.3873629, "source": "osm", "_tags": {"addr:city": "Waltrop", "addr:housenumber": "20", "addr:postcode": "45731", "addr:street": "Hochstraße", "amenity": "hospital", "healthcare": "hospital", "name": "St.-Laurentius-Stift", "phone": "+49 2309 63 1", "website": "https://www.laurentius-stift.de", "wheelchair": "yes"}}, {"name": "Mariannen-Hospital Werl", "latitude": 51.551304, "longitude": 7.9063043, "source": "osm", "_tags": {"addr:city": "Werl", "addr:housenumber": "15", "addr:postcode": "59457", "addr:street": "Unnaer Straße", "amenity": "hospital", "emergency": "yes", "healthcare": "hospital", "name": "Mariannen-Hospital Werl", "operator": "Katholischer Hospitalverbund Hellweg", "operator:type": "private", "website": "https://www.mariannen-hospital.de/"}}, {"name": "Kath. Klinikum Philippusstift", "latitude": 51.4754955, "longitude": 6.9496125, "source": "osm", "_tags": {"amenity": "hospital", "contact:facebook": "https://www.facebook.com/katholischesklinikumessen", "contact:twitter": "https://twitter.com/KK_Essen", "contact:website": "http://www.kkenw.de/", "contact:xing": "https://www.xing.com/companies/katholischesklinikumessengmbh", "contact:youtube": "https://www.youtube.com/channel/UCPOcn-4-dudmKI93C-ZpF4g", "healthcare": "hospital", "name": "Kath. Klinikum Philippusstift", "toilets:wheelchair": "yes", "wheelchair": "limited", "wikidata": "Q60423219"}}, {"name": "St. Antonius-Hospital", "latitude": 52.2082895, "longitude": 7.0208279, "source": "osm", "_tags": {"amenity": "hospital", "check_date": "2025-07-09", "contact:phone": "+49 2562 915-0", "contact:website": "http://www.st-antonius-gronau.de/", "emergency": "yes", "healthcare": "hospital", "name": "St. Antonius-Hospital", "opening_hours": "24/7", "toilets:wheelchair": "yes", "wheelchair": "yes", "wikidata": "Q15129113", "wikipedia": "de:St.-Antonius-Hospital Gronau"}}, {"name": "Helios Klinik Lengerich", "latitude": 52.1987656, "longitude": 7.8434526, "source": "osm", "_tags": {"addr:city": "Lengerich", "addr:housenumber": "49", "addr:postcode": "49525", "addr:street": "Martin-Luther-Straße", "amenity": "hospital", "contact:email": "info.lengerich@helios-gesundheit.de", "contact:fax": "+49 5481 801-685", "contact:phone": "+49 5481 801-0", "contact:website": "https://www.helios-gesundheit.de/kliniken/lengerich/", "emergency": "yes", "healthcare": "hospital", "name": "Helios Klinik Lengerich", "operator": "Helios Kliniken", "operator:wikidata": "Q1254151", "wheelchair": "yes"}}, {"name": "St. Barbara Klinik", "latitude": 51.7082938, "longitude": 7.841015, "source": "osm", "_tags": {"amenity": "hospital", "email": "info@barbaraklinik.de", "fax": "+49 2381 6811263", "healthcare": "hospital", "name": "St. Barbara Klinik", "phone": "+49 2381 6810", "website": "https://www.barbaraklinik.de", "wikidata": "Q110719657", "wikipedia": "de:St. Barbara-Klinik Hamm-Heessen"}}, {"name": "Sankt-Marien-Hospital Buer", "latitude": 51.5818964, "longitude": 7.048076, "source": "osm", "_tags": {"addr:city": "Gelsenkirchen", "addr:country": "DE", "addr:housenumber": "5", "addr:postcode": "45894", "addr:street": "Mühlenstraße", "amenity": "hospital", "contact:website": "http://www.marienhospital-buer.de/", "healthcare": "hospital", "name": "Sankt-Marien-Hospital Buer", "toilets:wheelchair": "yes", "wheelchair": "yes"}}, {"name": "Christophorus Klinik am Schlossgarten", "latitude": 51.8265562, "longitude": 7.2819221, "source": "osm", "_tags": {"amenity": "hospital", "emergency": "yes", "healthcare": "hospital", "name": "Christophorus Klinik am Schlossgarten", "website": "https://www.klinik-am-schlossgarten.de", "wheelchair": "yes"}}, {"name": "LWL-Therapiezentrum für Forensische Psychiatrie Münsterland", "latitude": 52.3259828, "longitude": 7.5392679, "source": "osm", "_tags": {"addr:city": "Hörstel", "addr:housenumber": "1", "addr:postcode": "48477", "addr:street": "An der Startbahn", "amenity": "hospital", "barrier": "fence", "healthcare": "hospital", "healthcare:speciality": "forensic_psychiatry", "name": "LWL-Therapiezentrum für Forensische Psychiatrie Münsterland", "operator": "Landschaftsverband Westfalen-Lippe", "operator:type": "public", "phone": "+49 5459 9065"}}, {"name": "Knappschaftskrankenhaus Lütgendortmund", "latitude": 51.5027431, "longitude": 7.3300121, "source": "osm", "_tags": {"addr:city": "Dortmund", "addr:housenumber": "40", "addr:postcode": "44388", "addr:street": "Volksgartenstraße", "amenity": "hospital", "emergency": "yes", "health_facility:type": "hospital", "healthcare": "hospital", "medical_system:western": "yes", "name": "Knappschaftskrankenhaus Lütgendortmund", "old_name": "Evangelisches Krankenhaus Lütgendortmund", "type": "health", "wikidata": "Q19965218", "wikipedia": "de:Knappschaftskrankenhaus Lütgendortmund"}}, {"name": "Herz-Jesu-Krankenhaus", "latitude": 51.909853, "longitude": 7.6345117, "source": "osm", "_tags": {"amenity": "hospital", "email": "info@hjk-muenster.de", "emergency": "yes", "fax": "+49 2501 174201", "healthcare": "hospital", "name": "Herz-Jesu-Krankenhaus", "operator": "St. Franziskus-Stiftung Münster", "operator:type": "charitable", "operator:wikidata": "Q2318238", "phone": "+49 2501 170", "toilets:wheelchair": "yes", "website": "https://www.hjk-muenster.de", "wheelchair": "yes", "wikidata": "Q1615008", "wikipedia": "de:Herz-Jesu-Krankenhaus Münster-Hiltrup"}}, {"name": "St. Vincent Krankenhaus", "latitude": 51.4368749, "longitude": 7.8006684, "source": "osm", "_tags": {"amenity": "hospital", "emergency": "yes", "healthcare": "hospital", "name": "St. Vincent Krankenhaus"}}, {"name": "Knappschaftskrankenhaus Lütgendortmund", "latitude": 51.5027431, "longitude": 7.3300121, "source": "osm", "_tags": {"amenity": "hospital", "emergency": "yes", "name": "Knappschaftskrankenhaus Lütgendortmund", "type": "site"}}, {"name": "Klinikzentrum Mitte", "latitude": 51.5083612, "longitude": 7.4574824, "source": "osm", "_tags": {"abbreviation": "K 1", "addr:city": "Dortmund", "addr:country": "DE", "addr:housenumber": "40", "addr:postcode": "44137", "addr:street": "Beurhausstraße", "amenity": "hospital", "emergency": "yes", "name": "Klinikzentrum Mitte", "old_name": "Städtische Kliniken Dortmund", "operator": "Klinikum Dortmund gGmbH", "phone": "+49 231 953-0", "toilets:wheelchair": "yes", "type": "site", "website": "https://www.klinikumdo.de/", "wheelchair": "yes"}}, {"name": "Wohn- und Pflegezentrum St. Barbara", "latitude": 51.5027166, "longitude": 7.3268089, "source": "osm", "_tags": {"amenity": "hospital", "name": "Wohn- und Pflegezentrum St. Barbara", "operator": "Caritas Dortmund", "type": "site"}}, {"name": "Klinik für Manuelle Therapie", "latitude": 51.6902634, "longitude": 7.8431249, "source": "osm", "_tags": {"addr:city": "Hamm", "addr:country": "DE", "addr:housenumber": "83", "addr:street": "Ostenallee", "amenity": "hospital", "building": "hospital", "fax": "+49 2381 986719", "name": "Klinik für Manuelle Therapie", "phone": "+49 2381 9860", "type": "multipolygon", "website": "https://www.kmt-hamm.de/", "wheelchair": "yes"}}, {"name": "Marienkrankenhaus Schützenstraße", "latitude": 51.44448, "longitude": 7.5746686, "source": "osm", "_tags": {"addr:city": "Schwerte", "addr:housenumber": "9", "addr:postcode": "58239", "addr:street": "Schützenstraße", "amenity": "hospital", "building": "hospital", "building:levels": "3", "healthcare": "hospital", "name": "Marienkrankenhaus Schützenstraße", "operator": "Marienkrankenhaus gGmbH", "roof:levels": "1", "roof:shape": "many", "type": "multipolygon", "website": "https://www.marien-kh.de/", "wheelchair": "yes"}}, {"name": "Klinik am Park", "latitude": 51.5900766, "longitude": 7.4421823, "source": "osm", "_tags": {"addr:city": "Lünen", "addr:country": "DE", "addr:housenumber": "59", "addr:postcode": "44536", "addr:street": "Brechtener Straße", "amenity": "hospital", "building": "civic", "healthcare": "hospital", "name": "Klinik am Park", "type": "multipolygon", "website": "http://www.krankenhaus-brambauer.de/", "wheelchair": "yes"}}, {"name": "Universitätsklinikum Münster", "latitude": 51.9625689, "longitude": 7.59575, "source": "osm", "_tags": {"addr:city": "Münster", "addr:housenumber": "33", "addr:postcode": "48149", "addr:street": "Albert-Schweitzer-Straße", "amenity": "hospital", "beds": "1457", "contact:phone": "+49 251 83-0", "contact:website": "https://www.ukm.de/", "emergency": "yes", "healthcare": "hospital", "hospital:level:DE": "3", "loc_name": "Uniklinik Münster", "name": "Universitätsklinikum Münster", "short_name": "UKM", "start_date": "1774", "type": "multipolygon", "wheelchair": "yes", "wikidata": "Q1748138", "wikipedia": "de:Universitätsklinikum Münster"}}, {"name": "Hüttenhospital", "latitude": 51.480713, "longitude": 7.5098542, "source": "osm", "_tags": {"abbreviation": "K15", "addr:city": "Dortmund", "addr:country": "DE", "addr:housenumber": "28", "addr:postcode": "44269", "addr:street": "Am Marksbach", "amenity": "hospital", "building": "hospital", "building:levels": "4", "healthcare": "hospital", "name": "Hüttenhospital", "roof:levels": "1", "source": "HiRes aerial imagery", "type": "multipolygon", "wikidata": "Q19965026", "wikipedia": "de:Hüttenhospital"}}, {"name": "St.-Elisabeth Krankenhaus Dortmund-Kurl", "latitude": 51.5543461, "longitude": 7.5829378, "source": "osm", "_tags": {"addr:city": "Dortmund", "addr:country": "DE", "addr:housenumber": "130", "addr:postcode": "44319", "addr:street": "Kurler Straße", "amenity": "hospital", "building": "yes", "emergency": "no", "fixme": "Umrisse", "healthcare": "hospital", "name": "St.-Elisabeth Krankenhaus Dortmund-Kurl", "rd_do:kh": "K 8", "source": "HiRes aerial imagery", "type": "multipolygon", "website": "https://www.elisabeth-dortmund.de/", "wikidata": "Q19965795", "wikipedia": "de:St.-Elisabeth-Krankenhaus Dortmund-Kurl"}}, {"name": "St.-Josefs-Hospital K14", "latitude": 51.4851208, "longitude": 7.5052045, "source": "osm", "_tags": {"addr:city": "Dortmund", "addr:country": "DE", "addr:housenumber": "4", "addr:postcode": "44263", "addr:street": "Wilhelm-Schmidt-Straße", "amenity": "hospital", "building": "yes", "healthcare": "hospital", "name": "St.-Josefs-Hospital K14", "phone": "+49 231 4342-0", "source": "HiRes aerial imagery", "type": "multipolygon"}}, {"name": "Kinderklinik", "latitude": 51.4344666, "longitude": 6.9883943, "source": "osm", "_tags": {"building": "hospital", "healthcare": "hospital", "healthcare:speciality": "paediatrics", "name": "Kinderklinik", "toilets:wheelchair": "yes", "type": "multipolygon", "wheelchair": "yes"}}, {"name": "Sankt Rochus-Hospital Telgte", "latitude": 51.9790205, "longitude": 7.7639045, "source": "osm", "_tags": {"amenity": "hospital", "emergency": "yes", "healthcare": "hospital", "healthcare:speciality": "psychiatry", "name": "Sankt Rochus-Hospital Telgte", "operator": "St. Franziskus-Stiftung Münster", "operator:type": "private_non_profit", "operator:wikidata": "Q2318238", "short_name": "Rochus-Hospital", "type": "multipolygon", "website": "https://www.srh-telgte.de/", "wheelchair": "yes", "wikidata": "Q1542283", "wikipedia": "de:St. Rochus-Hospital Telgte"}}, {"name": "Universitätsklinikum Essen", "latitude": 51.4347056, "longitude": 6.9883548, "source": "osm", "_tags": {"amenity": "hospital", "emergency": "yes", "healthcare": "hospital", "name": "Universitätsklinikum Essen", "operator": "Universitätsklinikum Essen", "phone": "+49 201 723-0", "short_name": "UK Essen", "type": "multipolygon", "website": "https://www.uk-essen.de", "wheelchair": "yes", "wikidata": "Q2496379"}}, {"name": "Christliches Klinikum Unna gGmbH / Standort West (CKU West)", "latitude": 51.5333427, "longitude": 7.6765396, "source": "osm", "_tags": {"addr:city": "Unna", "addr:housenumber": "10", "addr:postcode": "59423", "addr:street": "Holbeinstraße", "amenity": "hospital", "building": "hospital", "building:levels": "6", "emergency": "yes", "healthcare": "hospital", "name": "Christliches Klinikum Unna gGmbH / Standort West (CKU West)", "phone": "+49 2303 1060", "roof:levels": "0", "roof:shape": "flat", "type": "multipolygon", "wheelchair": "yes"}}]