[{"name": "Spezialisierte ambulante Palliativversorgung (SAPV)", "latitude": 51.7920202, "longitude": 10.9543283, "source": "osm", "_tags": {"amenity": "hospital", "healthcare": "hospital", "healthcare:speciality": "palliative", "name": "Spezialisierte ambulante Palliativversorgung (SAPV)", "operator": "Medizinisches Zentrum Harz GmbH"}}, {"name": "Hausarztteam NL Rosenburg", "latitude": 51.9157373, "longitude": 11.8864728, "source": "osm", "_tags": {"addr:city": "Groß Rosenburg", "addr:housenumber": "45", "addr:postcode": "39240", "addr:street": "Hauptstraße", "amenity": "doctors", "healthcare": "hospital", "healthcare:speciality": "general", "name": "Hausarztteam NL Rosenburg", "operator": "Hausarztteam Schönebeck"}}, {"name": "Krankenhaus St. Marienstift Magdeburg", "latitude": 52.1373597, "longitude": 11.6004457, "source": "osm", "_tags": {"addr:city": "Magdeburg", "addr:country": "DE", "addr:housenumber": "30", "addr:postcode": "39110", "addr:street": "Harsdorfer Straße", "amenity": "hospital", "fixme": "nördl. Begrenzung", "healthcare": "hospital", "name": "Krankenhaus St. Marienstift Magdeburg", "website": "https://www.st-marienstift.de/", "wheelchair": "no", "wikidata": "Q1435924", "wikipedia": "de:Krankenhaus St. Marienstift Magdeburg"}}, {"name": "AMEOS Klinikum St. Salvator Halberstadt", "latitude": 51.901313, "longitude": 11.0537131, "source": "osm", "_tags": {"addr:city": "Halberstadt", "addr:housenumber": "5", "addr:postcode": "38820", "addr:street": "Gleimstraße", "amenity": "hospital", "building": "hospital", "emergency": "yes", "healthcare": "hospital", "name": "AMEOS Klinikum St. Salvator Halberstadt", "operator": "Ameos", "operator:type": "private", "operator:wikidata": "Q462865", "toilets:wheelchair": "yes", "wheelchair": "yes", "wikidata": "Q28738008"}}, {"name": "Klinikum Magdeburg", "latitude": 52.157752, "longitude": 11.5817958, "source": "osm", "_tags": {"addr:city": "Magdeburg", "addr:country": "DE", "addr:housenumber": "34", "addr:postcode": "39130", "addr:street": "Birkenallee", "amenity": "hospital", "emergency": "yes", "healthcare": "hospital", "hospital:level:DE": "3", "loc_name": "Städtisches Klinikum", "name": "Klinikum Magdeburg", "old_name": "Walter-Friedrich-Krankenhaus", "operator": "Klinikum Magdeburg gGmbH", "website": "https://www.klinikum-magdeburg.de/", "wheelchair": "yes", "wikidata": "Q1774636", "wikipedia": "de:Klinikum Magdeburg"}}, {"name": "Rehabilitationsklinik Bad Salzelmen", "latitude": 51.997816, "longitude": 11.7192693, "source": "osm", "_tags": {"addr:city": "Schönebeck (Elbe)", "addr:housenumber": "5", "addr:postcode": "39218", "addr:street": "Badepark", "amenity": "hospital", "building": "hospital", "contact:website": "https://www.rehaklinik-bad-salzelmen.de/", "healthcare": "hospital", "healthcare:speciality": "orthopaedics;oncology;pulmonology", "name": "Rehabilitationsklinik Bad Salzelmen", "operator": "Waldburg-Zeil Kliniken", "toilets:wheelchair": "yes", "wheelchair": "yes"}}, {"name": "Universitätsklinikum Halle (Saale)", "latitude": 51.5017665, "longitude": 11.936832, "source": "osm", "_tags": {"addr:city": "Halle (Saale)", "addr:country": "DE", "addr:housenumber": "40", "addr:postcode": "06120", "addr:street": "Ernst-Grube-Straße", "amenity": "hospital", "contact:phone": "+49 345 5570", "contact:website": "http://www.medizin.uni-halle.de/index.php?id=398", "emergency": "yes", "healthcare": "hospital", "name": "Universitätsklinikum Halle (Saale)", "operator": "Medizinische Fakultät der Martin-Luther-Universität Halle-Wittenberg", "wheelchair": "yes", "wikidata": "Q1263366"}}, {"name": "Klinikum in den Pfeifferschen Stiftungen", "latitude": 52.1152065, "longitude": 11.6678862, "source": "osm", "_tags": {"addr:city": "Magdeburg", "addr:country": "DE", "addr:housenumber": "10", "addr:postcode": "39114", "addr:street": "Pfeifferstraße", "addr:suburb": "Cracau", "amenity": "hospital", "barrier": "fence", "emergency": "yes", "healthcare": "hospital", "name": "Klinikum in den Pfeifferschen Stiftungen", "operator": "Klinikum in den Pfeifferschen Stiftungen gGmbH", "reg_name": "Pfeiffersche Stiftungen", "toilets:wheelchair": "yes", "website": "https://www.klinikum-pfeiffer.de/", "wheelchair": "yes", "wikidata": "Q1751440", "wikipedia": "de:Pfeiffersche Stiftungen"}}, {"name": "AWO Krankenhaus Calbe", "latitude": 51.9041114, "longitude": 11.7681742, "source": "osm", "_tags": {"amenity": "hospital", "check_date": "2024-03-30", "name": "AWO Krankenhaus Calbe", "website": "https://www.awo-sachsenanhalt.de/awo-krankenhaus-calbe.html"}}, {"name": "Universitätsfrauenklinik Magdeburg", "latitude": 52.129445, "longitude": 11.6177219, "source": "osm", "_tags": {"addr:city": "Magdeburg", "addr:country": "DE", "addr:housenumber": "35", "addr:postcode": "39108", "addr:street": "Gerhart-Hauptmann-Straße", "amenity": "hospital", "check_date": "2025-07-27", "healthcare": "hospital", "healthcare:speciality": "gynaecology", "name": "Universitätsfrauenklinik Magdeburg", "operator": "Uniklinik Magdeburg", "website": "http://www.kgyn.ovgu.de/", "wheelchair": "yes", "wikipedia": "de:Landesfrauenklinik Magdeburg"}}, {"name": "AMEOS Klinikum Schönebeck", "latitude": 52.0121087, "longitude": 11.7385396, "source": "osm", "_tags": {"amenity": "hospital", "emergency": "yes", "healthcare": "hospital", "healthcare:speciality": "internal;surgery;gynaecology;vascular_surgery;paediatrics", "name": "AMEOS Klinikum Schönebeck", "wheelchair": "yes"}}, {"name": "Barbarossa Klinik", "latitude": 51.4304219, "longitude": 11.0299712, "source": "osm", "_tags": {"addr:city": "Kelbra (Kyffhäuser)", "addr:housenumber": "111", "addr:postcode": "06537", "addr:street": "Lange Straße", "amenity": "hospital", "email": "info@barbarossa-klinik-kelbra.de", "healthcare": "hospital", "name": "Barbarossa Klinik", "phone": "+49 34651 459-0", "website": "https://www.barbarossa-klinik-kelbra.de/"}}, {"name": "HELIOS Klinik Sangerhausen Mansfeld-Südharz", "latitude": 51.4719587, "longitude": 11.3094395, "source": "osm", "_tags": {"addr:city": "Sangerhausen", "addr:housenumber": "2a", "addr:postcode": "06526", "addr:street": "Am Beinschuh", "amenity": "hospital", "emergency": "yes", "healthcare": "hospital", "name": "HELIOS Klinik Sangerhausen Mansfeld-Südharz", "operator": "Helios Kliniken", "operator:wikidata": "Q1254151", "operator:wikipedia": "de:Helios Kliniken", "wheelchair": "yes"}}, {"name": "Harzklinikum Dorothea Christiane Erxleben GmbH", "latitude": 51.7949284, "longitude": 11.1634411, "source": "osm", "_tags": {"addr:city": "Quedlinburg", "addr:country": "DE", "addr:housenumber": "24", "addr:postcode": "06484", "addr:street": "Ditfurter Weg", "amenity": "hospital", "building": "hospital", "emergency": "yes", "healthcare": "hospital", "name": "Harzklinikum Dorothea Christiane Erxleben GmbH", "operator": "Klinikum Dorothea Christiane Erxleben Quedlinburg GmbH", "website": "http://www.klinikum-quedlinburg.de", "wheelchair": "yes"}}, {"name": "AMEOS Klinikum Haldensleben", "latitude": 52.2855412, "longitude": 11.3769246, "source": "osm", "_tags": {"addr:city": "Haldensleben", "addr:country": "DE", "addr:housenumber": "27", "addr:postcode": "39340", "addr:street": "Kiefholzstraße", "amenity": "hospital", "contact:phone": "+49 3904 4740", "contact:website": "https://www.ameos.eu/standorte/ameos-ost/haldensleben/ameos-klinikum-haldensleben/", "emergency": "yes", "healthcare": "hospital", "healthcare:speciality": "anaesthetics;cardiology;emergency;gastroenterology;internal;neurology;ophthalmology;orthopaedics;otolaryngology;radiology;surgery;trauma;urology", "name": "AMEOS Klinikum Haldensleben", "old_name": "Sana-Klinkum", "operator": "AMEOS Grupe"}}, {"name": "Paracelsusklinik", "latitude": 51.726052, "longitude": 11.1085954, "source": "osm", "_tags": {"amenity": "hospital", "healthcare": "hospital", "name": "Paracelsusklinik", "wheelchair": "limited"}}, {"name": "Harzklinikum", "latitude": 51.7940906, "longitude": 11.1627169, "source": "osm", "_tags": {"amenity": "hospital", "healthcare": "hospital", "name": "Harzklinikum"}}, {"name": "HELIOS Klinik Jerichower Land", "latitude": 52.2646007, "longitude": 11.832682, "source": "osm", "_tags": {"addr:city": "Burg", "addr:country": "DE", "addr:housenumber": "55A", "addr:postcode": "39288", "addr:street": "August-Bebel-Straße", "amenity": "hospital", "contact:facebook": "https://www.facebook.com/heliosburg/", "contact:instagram": "heliosburg", "contact:phone": "+49 3921 960", "contact:website": "https://www.helios-gesundheit.de/kliniken/burg/", "emergency": "yes", "healthcare": "hospital", "healthcare:speciality": "anaesthetics;cardiology;gastroenterology;geriatrics;gynaecology;internal;orthopaedics;paediatrics;palliative;plastic_surgery;radiology;surgery", "name": "HELIOS Klinik Jerichower Land", "operator": "Helios Kliniken", "operator:wikidata": "Q1254151", "operator:wikipedia": "de:Helios Kliniken", "source": "survey", "toilets:wheelchair": "yes", "wheelchair": "yes"}}, {"name": "Klinik Lutherstadt Eisleben", "latitude": 51.5327846, "longitude": 11.5415713, "source": "osm", "_tags": {"addr:city": "Lutherstadt Eisleben", "addr:country": "DE", "addr:housenumber": "25", "addr:postcode": "06295", "addr:street": "Hohetorstraße", "amenity": "hospital", "contact:phone": "+49 3475 900", "contact:website": "https://www.helios-gesundheit.de/kliniken/lutherstadt-eisleben/", "emergency": "yes", "healthcare": "hospital", "name": "Klinik Lutherstadt Eisleben", "operator": "Helios Kliniken", "operator:wikidata": "Q1254151"}}, {"name": "PHV-Dialysezentrum Sangerhausen", "latitude": 51.4726125, "longitude": 11.318598, "source": "osm", "_tags": {"addr:city": "Sangerhausen", "addr:housenumber": "7", "addr:postcode": "06526", "addr:street": "Sotterhäuser Weg", "amenity": "hospital", "building": "hospital", "building:levels": "2", "healthcare": "dialysis", "healthcare:speciality": "dialysis", "name": "PHV-Dialysezentrum Sangerhausen", "website": "https://www.phv-dialyse.de/sangerhausen/"}}, {"name": "Krankenhaus Martha Maria", "latitude": 51.5031384, "longitude": 11.8775228, "source": "osm", "_tags": {"addr:city": "Halle (Saale)", "addr:housenumber": "1", "addr:postcode": "06120", "addr:street": "Röntgenstraße", "amenity": "hospital", "check_date": "2025-03-02", "landuse": "commercial", "name": "Krankenhaus Martha Maria", "toilets:wheelchair": "yes", "wheelchair": "yes"}}, {"name": "Lebenshilfe Reinsdorf", "latitude": 52.1558258, "longitude": 11.0423135, "source": "osm", "_tags": {"addr:city": "Büddenstedt", "addr:country": "DE", "addr:housenumber": "8", "addr:postcode": "38372", "addr:street": "Schwalbenweg", "addr:suburb": "Reinsdorf", "amenity": "hospital", "building": "yes", "healthcare": "hospital", "name": "Lebenshilfe Reinsdorf"}}, {"name": "Ev. Fachkrankenhaus für Psychiatrie \"Hildegard von Bingen\"", "latitude": 51.7519834, "longitude": 11.0940642, "source": "osm", "_tags": {"addr:city": "Thale", "addr:housenumber": "11", "addr:postcode": "06502", "addr:street": "Suderöder Straße", "amenity": "hospital", "building": "hospital", "healthcare": "hospital", "healthcare:speciality": "psychiatry", "name": "Ev. Fachkrankenhaus für Psychiatrie \"Hildegard von Bingen\"", "operator": "Evangelische Stiftung Neinstedt", "operator:short": "ESN", "operator:wikidata": "Q1974948", "phone": "+49 3947 99300"}}, {"name": "Fachklinik Alte Ölmühle", "latitude": 52.1292409, "longitude": 11.6730435, "source": "osm", "_tags": {"addr:city": "Magdeburg", "addr:country": "DE", "addr:housenumber": "66", "addr:postcode": "39114", "addr:street": "Berliner Chaussee", "amenity": "hospital", "emergency": "no", "healthcare": "rehabilitation", "healthcare:speciality": "psychiatry", "name": "Fachklinik Alte Ölmühle", "operator": "SRH Gesundheit", "phone": "+49 391 81040", "website": "https://www.fachklinik-alte-oelmuehle.de/", "wheelchair": "yes", "wikidata": "Q47535891"}}, {"name": "HELIOS Bördeklinik", "latitude": 52.0658403, "longitude": 11.1905095, "source": "osm", "_tags": {"addr:city": "Oschersleben", "addr:country": "DE", "addr:housenumber": "4", "addr:postcode": "39387", "addr:street": "Kreiskrankenhaus", "addr:suburb": "Neindorf", "amenity": "hospital", "contact:fax": "+49 3949 935202", "contact:phone": "+49 3949 9350", "contact:website": "https://www.helios-gesundheit.de/kliniken/boerdeklinik/", "emergency": "yes", "healthcare": "hospital", "healthcare:speciality": "anaesthetics;surgery;gastroenterology;geriatrics;internal;intensive;cardiology;orthopaedics;palliative;plastic_surgery;radiology;urology", "name": "HELIOS Bördeklinik", "operator": "Helios Kliniken", "operator:wikidata": "Q1254151"}}, {"name": "MEDIAN Klinik Flechtingen", "latitude": 52.3251649, "longitude": 11.2382678, "source": "osm", "_tags": {"addr:city": "Flechtingen", "addr:country": "DE", "addr:housenumber": "1-3", "addr:postcode": "39345", "addr:street": "Parkstraße", "amenity": "hospital", "contact:email": "kontakt.flechtingen@median-kliniken.de", "contact:phone": "+49 39054 81999", "contact:website": "https://www.median-kliniken.de/de/median-klinik-flechtingen/ueber-uns/", "healthcare": "hospital", "healthcare:speciality": "cardiology;neurology;pulmonology", "name": "MEDIAN Klinik Flechtingen", "operator": "MEDIAN Kliniken GmbH"}}, {"name": "Lungenklinik Lostau", "latitude": 52.2154038, "longitude": 11.728622, "source": "osm", "_tags": {"addr:city": "Möser", "addr:country": "DE", "addr:housenumber": "2", "addr:postcode": "39291", "addr:street": "Lindenstraße", "addr:suburb": "Lostau", "amenity": "hospital", "contact:email": "blkh@pfeiffersche-stiftungen.de", "contact:phone": "+49 39222 80", "contact:website": "http://www.lungenklinik-lostau.de/", "healthcare": "hospital", "healthcare:speciality": "anaesthetics;oncology;pulmonology;surgery", "name": "Lungenklinik Lostau", "operator": "Lungenklinik Lostau gGmbH;Pfeiffersche Stiftungen zu Magdeburg-Cracau", "wheelchair": "yes"}}, {"name": "Universitätsklinikum Magdeburg", "latitude": 52.102679, "longitude": 11.6152851, "source": "osm", "_tags": {"addr:city": "Magdeburg", "addr:housenumber": "44", "addr:postcode": "39120", "addr:street": "Leipziger Straße", "alt_name": "Medizinische Fakultät der Otto-von-Guericke-Universität", "amenity": "hospital", "contact:email": "pressestelle@med.ovgu.de", "contact:phone": "+49 3916701", "contact:website": "https://www.med.uni-magdeburg.de/", "emergency": "yes", "healthcare": "hospital", "name": "Universitätsklinikum Magdeburg", "name:en": "University hospital Magdeburg", "official_name": "Otto-von-Guericke-Universität - Medizinische Fakultät - Universitätsklinikum Magdeburg A. ö. R.", "old_name": "Medizinische Akademie", "operator": "Universitätsklinikum Magdeburg A. ö. R.", "wheelchair": "yes", "wikidata": "Q18334570", "wikipedia": "de:Universitätsklinikum Magdeburg"}}, {"name": "Helios Klinik Hettstedt", "latitude": 51.6601433, "longitude": 11.4936801, "source": "osm", "_tags": {"amenity": "hospital", "emergency": "yes", "healthcare": "hospital", "name": "Helios Klinik Hettstedt", "operator": "Helios Kliniken", "operator:type": "private", "operator:wikidata": "Q1254151", "phone": "+49 3476 9330"}}, {"name": "AMEOS Klinikum Haldensleben - Psychatrie", "latitude": 52.2821615, "longitude": 11.3704754, "source": "osm", "_tags": {"addr:city": "Haldensleben", "addr:country": "DE", "addr:housenumber": "4", "addr:postcode": "39340", "addr:street": "Kiefholzstraße", "amenity": "hospital", "contact:phone": "+49 3904 4750", "contact:website": "https://www.ameos.eu/standorte/ameos-ost/haldensleben/ameos-klinikum-haldensleben/", "healthcare": "hospital", "healthcare:speciality": "child_psychiatry;psychiatry", "name": "AMEOS Klinikum Haldensleben - Psychatrie", "operator": "AMEOS Grupe"}}, {"name": "Haus 60e", "latitude": 52.1023985, "longitude": 11.61887, "source": "osm", "_tags": {"building": "hospital", "building:levels": "3", "check_date": "2025-09-15", "healthcare": "hospital", "name": "Haus 60e", "operator": "Universitätsklinikum Magdeburg A. ö. R."}}, {"name": "AMEOS Klinikum St. Salvator Halberstadt", "latitude": 51.9009145, "longitude": 11.0531608, "source": "osm", "_tags": {"amenity": "hospital", "healthcare": "hospital", "name": "AMEOS Klinikum St. Salvator Halberstadt", "operator": "Ameos", "operator:type": "private", "operator:wikidata": "Q462865"}}, {"name": "HELIOS Fachkrankenhaus Vogelsang-Gommern", "latitude": 52.0837182, "longitude": 11.7808336, "source": "osm", "_tags": {"addr:city": "Gommern", "addr:country": "DE", "addr:housenumber": "1", "addr:postcode": "39245", "addr:street": "Sophie-von-Boetticher-Straße", "addr:suburb": "Vogelsang", "amenity": "hospital", "contact:facebook": "https://www.facebook.com/heliosvogelsang/", "contact:phone": "+49 39200 670", "contact:website": "https://www.helios-gesundheit.de/kliniken/vogelsang-gommern", "healthcare": "hospital", "healthcare:speciality": "anaesthetics;orthopaedics;palliative;physiatry;rheumatology", "name": "HELIOS Fachkrankenhaus Vogelsang-Gommern", "operator": "Helios Kliniken", "operator:wikidata": "Q1254151"}}, {"name": "Klinikum Staßfurt", "latitude": 51.8531235, "longitude": 11.5928657, "source": "osm", "_tags": {"amenity": "hospital", "check_date": "2025-04-15", "emergency": "yes", "healthcare": "hospital", "name": "Klinikum Staßfurt", "official_name": "Klinikum Aschersleben-Staßfurt GmbH - Standort Staßfurt", "phone": "+49 3925 262-0", "toilets:wheelchair": "yes", "website": "http://www.kkl-as.de", "wheelchair": "yes"}}, {"name": "Waldklinik", "latitude": 51.7934816, "longitude": 11.7183607, "source": "osm", "_tags": {"addr:city": "Bernburg", "addr:country": "DE", "addr:housenumber": "8", "addr:postcode": "06406", "addr:street": "Keßlerstraße", "amenity": "hospital", "email": "verwaltung@waldklinik-bernburg.de", "emergency": "no", "fax": "+49 3471 365-200", "healthcare": "hospital", "name": "Waldklinik", "operator": "Waldklinik Bernburg GmbH", "phone": "+49 3471 365-0", "website": "https://www.waldklinik-bernburg.de/"}}, {"name": "Arbeiterwohlfahrt Psychiatriezentrum Halle", "latitude": 51.4729349, "longitude": 11.9172786, "source": "osm", "_tags": {"addr:city": "Halle (Saale)", "addr:country": "DE", "addr:housenumber": "11", "addr:postcode": "06124", "addr:street": "Zscherbener Straße", "amenity": "hospital", "brand": "Arbeiterwohlfahrt", "contact:phone": "+49 345 69220", "contact:website": "https://www.awo-sachsenanhalt.de/awo-psychiatriezentrum-halle", "healthcare": "hospital", "healthcare:speciality": "psychiatry", "name": "Arbeiterwohlfahrt Psychiatriezentrum Halle", "operator": "AWO Landesverband Sachsen-Anhalt e.V.", "operator:type": "public"}}, {"name": "Median Klinik NRZ", "latitude": 52.0862359, "longitude": 11.6375143, "source": "osm", "_tags": {"addr:city": "Magdeburg", "addr:housenumber": "4", "addr:postcode": "39120", "addr:street": "Gustav-Ricker-Straße", "amenity": "hospital", "building": "yes", "name": "Median Klinik NRZ", "type": "multipolygon", "website": "https://www.median-kliniken.de/de/standorte/median-klinik-nrz-magdeburg/klinikprofil/"}}, {"name": "Ameos Klinikum Bernburg", "latitude": 51.7823822, "longitude": 11.7352523, "source": "osm", "_tags": {"addr:housenumber": "98a", "addr:postcode": "06406", "addr:street": "Kustrenaer Straße", "amenity": "hospital", "building": "hospital", "emergency": "yes", "healthcare": "hospital", "name": "Ameos Klinikum Bernburg", "operator": "Ameos", "operator:wikidata": "Q462865", "type": "multipolygon", "website": "https://www.ameos.eu/standorte/ameos-ost/bernburg/ameos-klinikum-bernburg/", "wheelchair": "yes", "wikidata": "Q28737977"}}, {"name": "HELIOS St. Marienberg Klinik Helmstedt", "latitude": 52.2319847, "longitude": 10.9996985, "source": "osm", "_tags": {"addr:city": "Helmstedt", "addr:country": "DE", "addr:housenumber": "26", "addr:postcode": "38350", "addr:street": "Conringstraße", "amenity": "hospital", "emergency": "yes", "healthcare": "hospital", "name": "HELIOS St. Marienberg Klinik Helmstedt", "old_name": "Kreiskrankenhaus St. Marienberg", "operator": "Helios Kliniken", "operator:wikidata": "Q1254151", "type": "multipolygon", "wheelchair": "yes"}}, {"name": "Harzklinikum Dorothea Christiane Erxleben", "latitude": 51.792366, "longitude": 10.9552658, "source": "osm", "_tags": {"addr:city": "Blankenburg (Harz)", "addr:housenumber": "7-10", "addr:postcode": "38889", "addr:street": "Thiestraße", "amenity": "hospital", "emergency": "no", "healthcare": "hospital", "healthcare:speciality": "psychiatry", "name": "Harzklinikum Dorothea Christiane Erxleben", "operator": "Harzklinikum Dorothea Christiane Erxleben GmbH", "phone": "+49 3944 960", "type": "multipolygon", "website": "https://www.harzklinikum.com/", "wheelchair": "yes"}}, {"name": "AMEOS Klinikum Schönebeck", "latitude": 52.0044494, "longitude": 11.7278532, "source": "osm", "_tags": {"amenity": "hospital", "contact:email": "verwaltung@kh-sbk.de", "contact:facebook": "https://www.facebook.com/AMEOSGruppe", "contact:fax": "+49 3928 641609", "contact:instagram": "https://www.instagram.com/ameos_gruppe", "contact:linkedin": "https://www.linkedin.com/company/ameos-gruppe", "contact:phone": "+49 3928 640", "contact:website": "https://www.ameos.de/klinikum-schoenebeck", "emergency": "yes", "healthcare": "hospital", "healthcare:speciality": "internal;surgery;gynaecology;vascular_surgery;paediatrics", "name": "AMEOS Klinikum Schönebeck", "operator": "Ameos", "operator:wikidata": "Q462865", "type": "site"}}, {"name": "SALUS Fachklinikum Bernburg", "latitude": 51.7868235, "longitude": 11.7270363, "source": "osm", "_tags": {"addr:city": "Bernburg", "addr:housenumber": "16-18", "addr:postcode": "06406", "addr:street": "Olga-Benario-Straße", "amenity": "hospital", "email": "fkh.bernburg@salus-lsa.de", "emergency": "no", "healthcare": "hospital", "healthcare:speciality": "psychiatry;child_psychiatry;neuropsychiatry", "name": "SALUS Fachklinikum Bernburg", "operator": "Salus GmbH", "operator:type": "private", "phone": "+49 3471343", "social_facility": "day_care", "type": "multipolygon", "website": "https://www.salus-lsa.de/kliniken-einrichtungen-leistungen/fachklinikum-bernburg/"}}, {"name": "Ameos-Klinikum", "latitude": 51.746201, "longitude": 11.4576877, "source": "osm", "_tags": {"addr:city": "Aschersleben", "addr:housenumber": "7a", "addr:postcode": "06449", "addr:street": "Eislebener Straße", "alt_name": "KH Aschersleben", "amenity": "hospital", "barrier": "fence", "check_date": "2025-06-13", "emergency": "yes", "healthcare": "hospital", "name": "Ameos-Klinikum", "operator": "Ameos", "operator:type": "private", "operator:wikidata": "Q462865", "operator:wikipedia": "de:Ameos", "phone": "+49 3473 970", "toilets:wheelchair": "yes", "type": "multipolygon", "wheelchair": "yes"}}]