[{"name": "Samodzielny Publiczny Zakład Opieki Zdrowotnej w Kole", "latitude": 52.1845208, "longitude": 18.618611, "source": "osm", "_tags": {"amenity": "hospital", "email": "sekretariat@spzozkolo.pl", "emergency": "yes", "healthcare": "hospital", "name": "Samodzielny Publiczny Zakład Opieki Zdrowotnej w Kole", "phone": "+48 63 26 26 140", "website": "https://spzozkolo.pl"}}, {"name": "Szpital Wojewódzki im. Prymasa Kardynała Stefana Wyszyńskiego", "latitude": 51.5992002, "longitude": 18.7343623, "source": "osm", "_tags": {"amenity": "hospital", "barrier": "fence", "email": "nencki@szpitalsieradz.pl", "healthcare": "hospital", "name": "Szpital Wojewódzki im. Prymasa Kardynała Stefana Wyszyńskiego", "phone": "43 827 10 21", "website": "https://szpitale.lodzkie.pl/sieradz/pl/c/telefony-kontakt.html"}}, {"name": "Szpital Wojewódzki im. Prymasa Kardynała Stefana Wyszyńskiego", "latitude": 51.5817805, "longitude": 18.7131457, "source": "osm", "_tags": {"amenity": "hospital", "barrier": "fence", "email": "sekretariat@szpitalsieradz.pl", "healthcare": "hospital", "name": "Szpital Wojewódzki im. Prymasa Kardynała Stefana Wyszyńskiego", "phone": "43 827 57 71", "website": "https://szpitale.lodzkie.pl/sieradz/pl/c/telefony-kontakt.html"}}, {"name": "Wojewódzki Szpital Zespolony im. Ludwika Perzyny", "latitude": 51.7696105, "longitude": 18.1013473, "source": "osm", "_tags": {"addr:city": "Kalisz", "addr:housenumber": "7", "addr:postcode": "62-800", "addr:street": "Toruńska", "amenity": "hospital", "healthcare": "hospital", "name": "Wojewódzki Szpital Zespolony im. Ludwika Perzyny", "website": "http://www.szpital.kalisz.pl/"}}, {"name": "Wojewódzki Specjalistyczny Zespół Zakładów Opieki Zdrowotnej Chorób Płuc i Gruźlicy", "latitude": 51.6983583, "longitude": 18.147452, "source": "osm", "_tags": {"amenity": "hospital", "building": "yes", "name": "Wojewódzki Specjalistyczny Zespół Zakładów Opieki Zdrowotnej Chorób Płuc i Gruźlicy"}}, {"name": "Samodzielny Publiczny Zespół Opieki Zdrowotnej", "latitude": 52.0104448, "longitude": 18.4908816, "source": "osm", "_tags": {"amenity": "hospital", "healthcare": "hospital", "name": "Samodzielny Publiczny Zespół Opieki Zdrowotnej", "short_name": "SP ZOZ"}}, {"name": "Wojewódzki Szpital Zespolony im. Ludwika Perzyny", "latitude": 51.7650567, "longitude": 18.0664553, "source": "osm", "_tags": {"addr:city": "Kalisz", "addr:housenumber": "79", "addr:postcode": "62-800", "addr:street": "Poznańska", "amenity": "hospital", "emergency": "yes", "name": "Wojewódzki Szpital Zespolony im. Ludwika Perzyny", "phone": "+48 62 765 12 51", "website": "http://www.szpital.kalisz.pl/", "wikidata": "Q21152145", "wikipedia": "pl:Wojewódzki Szpital Zespolony im. Ludwika Perzyny w Kaliszu"}}, {"name": "Wojewódzki Zakład Opieki Psychiatrycznej w Sokołówce", "latitude": 51.8213312, "longitude": 18.307592, "source": "osm", "_tags": {"amenity": "hospital", "email": "info@sokolowka.pl", "name": "Wojewódzki Zakład Opieki Psychiatrycznej w Sokołówce", "phone": "+48627637013", "website": "https://sokolowka.pl/"}}, {"name": "Filia Wielkopolskiego Centrum Onkologii", "latitude": 51.769356, "longitude": 18.1024322, "source": "osm", "_tags": {"addr:city": "Kalisz", "addr:housenumber": "12", "addr:postcode": "62-800", "addr:street": "Kaszubska", "amenity": "hospital", "building": "healthcare", "building:levels": "2", "healthcare": "hospital", "healthcare:speciality": "oncology", "name": "Filia Wielkopolskiego Centrum Onkologii"}}, {"name": "Wojewódzki Szpital Psychiatryczny w Warcie", "latitude": 51.704838, "longitude": 18.6276511, "source": "osm", "_tags": {"amenity": "hospital", "healthcare": "hospital", "name": "Wojewódzki Szpital Psychiatryczny w Warcie"}}, {"name": "Wojewódzki Szpital Psychiatryczny w Warcie", "latitude": 51.70373, "longitude": 18.6285261, "source": "osm", "_tags": {"amenity": "hospital", "healthcare": "hospital", "name": "Wojewódzki Szpital Psychiatryczny w Warcie"}}, {"name": "Wojewódzki Szpital Zespolony im. dr. Romana Ostrzyckiego w Koninie", "latitude": 52.1943572, "longitude": 18.239725, "source": "osm", "_tags": {"addr:city": "Konin", "addr:housenumber": "45", "addr:postcode": "62-500", "addr:street": "Szpitalna", "amenity": "hospital", "email": "szpital@szpital-konin.pl", "name": "Wojewódzki Szpital Zespolony im. dr. Romana Ostrzyckiego w Koninie", "phone": "+48 63 240 40 00", "website": "https://szpital-konin.pl/SK/"}}, {"name": "Wojewódzki Szpital Zespolony im. dr. Romana Ostrzyckiego w Koninie", "latitude": 52.2262627, "longitude": 18.2645663, "source": "osm", "_tags": {"amenity": "hospital", "email": "szpital@szpital-konin.pl", "name": "Wojewódzki Szpital Zespolony im. dr. Romana Ostrzyckiego w Koninie", "phone": "+48 63 240 40 00", "website": "https://szpital-konin.pl/SK/"}}]