[{"name": "ЦРБ", "latitude": 51.8050892, "longitude": 29.1774128, "source": "osm", "_tags": {"amenity": "hospital", "name": "ЦРБ", "name:be": "ЦРБ", "name:ru": "Црб"}}, {"name": "Мазырскі псіханеўралагічны дыспансер", "latitude": 52.0352817, "longitude": 29.1961389, "source": "osm", "_tags": {"amenity": "hospital", "healthcare": "hospital", "name": "Мазырскі псіханеўралагічны дыспансер", "name:be": "Мазырскі псіханеўралагічны дыспансер", "name:ru": "Мозырский психоневрологический диспансер"}}, {"name": "", "latitude": 52.0237856, "longitude": 29.22842, "source": "osm", "_tags": {"amenity": "hospital"}}, {"name": "Мазырская гарадская станцыя хуткай і неадкладнай медыцынскай дапамогі", "latitude": 52.027338, "longitude": 29.2274651, "source": "osm", "_tags": {"addr:housenumber": "8", "addr:street": "вуліца Катлаўца", "amenity": "hospital", "emergency": "yes", "healthcare": "hospital", "healthcare:speciality": "emergency", "name": "Мазырская гарадская станцыя хуткай і неадкладнай медыцынскай дапамогі", "name:be": "Мазырская гарадская станцыя хуткай і неадкладнай медыцынскай дапамогі", "name:ru": "Мозырская городская станция скорой и неотложной медицинской помощи"}}, {"name": "", "latitude": 52.026116, "longitude": 29.2306281, "source": "osm", "_tags": {"amenity": "hospital", "emergency": "yes"}}, {"name": "Скура-венералагічны дыспансэр", "latitude": 52.0475105, "longitude": 29.2383929, "source": "osm", "_tags": {"amenity": "hospital", "name": "Скура-венералагічны дыспансэр", "name:be": "Скура-венералагічны дыспансэр", "name:ru": "Кожно-венерологический диспансер"}}, {"name": "", "latitude": 52.0361149, "longitude": 29.1965975, "source": "osm", "_tags": {"amenity": "hospital", "healthcare": "hospital"}}, {"name": "", "latitude": 52.0486119, "longitude": 29.256212, "source": "osm", "_tags": {"amenity": "hospital"}}, {"name": "", "latitude": 52.1315841, "longitude": 29.3489671, "source": "osm", "_tags": {"amenity": "hospital", "healthcare": "hospital"}}, {"name": "", "latitude": 52.1386368, "longitude": 29.3204802, "source": "osm", "_tags": {"amenity": "hospital", "emergency": "no", "healthcare": "hospital"}}, {"name": "Бабровіцкая ўчастковая бальніца", "latitude": 52.2778349, "longitude": 29.3797388, "source": "osm", "_tags": {"addr:housenumber": "100", "addr:street": "Лясная вуліца", "amenity": "hospital", "building": "hospital", "name": "Бабровіцкая ўчастковая бальніца", "name:be": "Бабровіцкая ўчастковая бальніца", "name:ru": "Бобровичская участковая больница"}}, {"name": "", "latitude": 52.2777643, "longitude": 29.3797924, "source": "osm", "_tags": {"amenity": "hospital", "healthcare": "hospital"}}, {"name": "", "latitude": 52.042592, "longitude": 29.000837, "source": "osm", "_tags": {"amenity": "hospital", "healthcare": "hospital"}}, {"name": "", "latitude": 52.3313958, "longitude": 29.1398931, "source": "osm", "_tags": {"amenity": "hospital", "healthcare": "hospital"}}]