[{"name": "Szpital Powiatowy w Jarocinie", "latitude": 51.9695654, "longitude": 17.504987, "source": "osm", "_tags": {"addr:city": "Jarocin", "addr:city:simc": "0936776", "addr:housenumber": "1", "addr:postcode": "63-200", "addr:street": "Szpitalna", "amenity": "hospital", "healthcare": "hospital", "name": "Szpital Powiatowy w Jarocinie", "source:addr": "EMUiA@iMPA (jarocin.e-mapa.net)"}}, {"name": "SOR Dziecięcy", "latitude": 51.6534909, "longitude": 17.8268698, "source": "osm", "_tags": {"amenity": "hospital", "healthcare": "hospital", "name": "SOR Dziecięcy"}}, {"name": "Wielkopolskie Centrum Leczenia Oparzeń", "latitude": 51.6534893, "longitude": 17.8260987, "source": "osm", "_tags": {"addr:city": "Ostrów Wielkopolski", "addr:housenumber": "20-22", "addr:postcode": "63-400", "addr:street": "Bolesława Limanowskiego", "amenity": "hospital", "healthcare": "hospital", "name": "Wielkopolskie Centrum Leczenia Oparzeń"}}, {"name": "Izba Przyjęć Oddziału Ginekologiczno-Położniczego", "latitude": 51.6537389, "longitude": 17.8248675, "source": "osm", "_tags": {"addr:city": "Ostrów Wielkopolski", "addr:housenumber": "20-22", "addr:postcode": "63-400", "addr:street": "Bolesława Limanowskiego", "amenity": "hospital", "healthcare": "hospital", "name": "Izba Przyjęć Oddziału Ginekologiczno-Położniczego"}}, {"name": "Pleszewskie Centrum Medyczne", "latitude": 51.8971916, "longitude": 17.7653859, "source": "osm", "_tags": {"amenity": "hospital", "contact:facebook": "https://www.facebook.com/pages/Pleszewskie-Centrum-Medyczne-w-Pleszewie/127083997324626", "emergency": "yes", "health_facility:type": "hospital", "healthcare": "hospital", "medical_system:western": "yes", "name": "Pleszewskie Centrum Medyczne", "phone": "+48627420900", "short_name": "PCM", "website": "https://szpitalpleszew.pl/"}}, {"name": "Zakład Pielęgnacyjno - Opiekuńczy imienia świętego Józefa w Pleszewie", "latitude": 51.8984835, "longitude": 17.7861109, "source": "osm", "_tags": {"amenity": "hospital", "healthcare": "hospital", "name": "Zakład Pielęgnacyjno - Opiekuńczy imienia świętego Józefa w Pleszewie", "website": "http://sluzebniczki-pleszew.pl/index.php?option=com_content&view=article&id=90&Itemid=35"}}, {"name": "", "latitude": 52.2276626, "longitude": 17.2847054, "source": "osm", "_tags": {"addr:city": "Środa Wielkopolska", "addr:city:simc": "0971614", "addr:housenumber": "10", "addr:postcode": "63-000", "addr:street": "Żwirki i Wigury", "amenity": "hospital", "building": "yes", "source:addr": "EMUiA (emuia.gugik.gov.pl)"}}, {"name": "Szpital Średzki", "latitude": 52.2274989, "longitude": 17.2847582, "source": "osm", "_tags": {"addr:city": "Środa Wielkopolska", "addr:city:simc": "0971614", "addr:housenumber": "10", "addr:postcode": "63-000", "addr:street": "Żwirki i Wigury", "amenity": "hospital", "building": "yes", "name": "Szpital Średzki", "source:addr": "EMUiA (emuia.gugik.gov.pl)"}}, {"name": "Samodzielny Publiczny Zespół Opieki Zdrowotnej w Gostyniu", "latitude": 51.882711, "longitude": 17.010602, "source": "osm", "_tags": {"addr:city": "Gostyń", "addr:city:simc": "0954395", "addr:housenumber": "8", "addr:postcode": "63-800", "addr:street": "Karola Marcinkowskiego", "amenity": "hospital", "building": "hospital", "name": "Samodzielny Publiczny Zespół Opieki Zdrowotnej w Gostyniu", "source:addr": "gostyn.e-mapa.net"}}, {"name": "Klinika Ort-Medica Centeum Medyczne", "latitude": 51.6277809, "longitude": 17.8057115, "source": "osm", "_tags": {"addr:city": "Ostrów Wielkopolski", "addr:housenumber": "7", "addr:postcode": "63-400", "addr:street": "Brzozowa", "amenity": "hospital", "name": "Klinika Ort-Medica Centeum Medyczne"}}, {"name": "Szpital Ostrów Wielkopolski", "latitude": 51.6360005, "longitude": 17.8130829, "source": "osm", "_tags": {"addr:city": "Ostrów Wielkopolski", "addr:housenumber": "35", "addr:postcode": "63-400", "addr:street": "3 Maja", "amenity": "hospital", "name": "Szpital Ostrów Wielkopolski", "source:addr": "emuia.gugik.gov.pl"}}, {"name": "Milickie Centrum Medyczne", "latitude": 51.5174006, "longitude": 17.2610185, "source": "osm", "_tags": {"amenity": "hospital", "emergency": "ambulance_station", "name": "Milickie Centrum Medyczne", "operator": "Milickie Centrum Medyczne sp. z o.o.", "website": "http://www.mcm-milicz.pl"}}, {"name": "Szpital Powiatowy we Wrześni", "latitude": 52.3245866, "longitude": 17.5724541, "source": "osm", "_tags": {"amenity": "hospital", "healthcare": "hospital", "name": "Szpital Powiatowy we Wrześni", "website": "http://www.szpitalwrzesnia.home.pl", "wikidata": "Q9352132", "wikipedia": "pl:Szpital Powiatowy we Wrześni"}}, {"name": "Szpital w Słupcy", "latitude": 52.2922845, "longitude": 17.8720007, "source": "osm", "_tags": {"addr:city": "Słupca", "addr:city:simc": "0949247", "addr:housenumber": "7", "addr:postcode": "62-400", "addr:street": "Traugutta", "amenity": "hospital", "email": "biuro@szpital.slupca.pl", "name": "Szpital w Słupcy", "official_name": "Samodzielny Publiczny Zakład Opieki Zdrowotnej w Słupcy", "phone": "+48 63 275 23 00", "website": "https://szpital.slupca.pl/"}}, {"name": "Szpital św. Wojciecha", "latitude": 52.3623375, "longitude": 16.9919666, "source": "osm", "_tags": {"amenity": "hospital", "email": "rejestracja@szpitalswwojciecha.pl", "fax": "+48 61 623 34 98", "healthcare": "hospital", "name": "Szpital św. Wojciecha", "official_name": "Wielkopolskie Centrum Medyczne Spółka z ograniczoną odpowiedzialnością S.K.A.", "opening_hours": "Mo-Fr 08:00-20:00; Sa 08:00-16:00; Su off", "phone": "+48 61 623 31 11", "source": "Poznań Ortofotomapa 2016", "website": "https://www.szpitalswwojciecha.pl/"}}, {"name": "Szpital Powiatowy im. Marcela Nenckiego", "latitude": 51.6991824, "longitude": 17.4331449, "source": "osm", "_tags": {"amenity": "hospital", "healthcare": "hospital", "name": "Szpital Powiatowy im. Marcela Nenckiego"}}, {"name": "Wielospecjalistyczny Szpital Miejski im. Józefa Strusia", "latitude": 52.3899386, "longitude": 16.9968372, "source": "osm", "_tags": {"amenity": "hospital", "emergency": "yes", "healthcare:speciality": "anaesthetics;surgery;surgical_oncology;physiatry;cardiology;cardiac_surgery;emergency;general;infectious_diseases;internal;neurology;neuropsychiatry;orthopaedics;rheumatology;trauma;urology", "name": "Wielospecjalistyczny Szpital Miejski im. Józefa Strusia", "official_name": "Wielospecjalistyczny Szpital Miejski im. Józefa Strusia z Zakładem Opiekuńczo-Leczniczym", "smoking": "no", "website": "https://www.szpital-strusia.poznan.pl/", "wikidata": "Q9373140", "wikipedia": "pl:Wielospecjalistyczny Szpital Miejski im. J. Strusia w Poznaniu"}}, {"name": "Szpital Powiatowy", "latitude": 52.0891047, "longitude": 17.0071472, "source": "osm", "_tags": {"addr:city": "Śrem", "addr:housenumber": "1", "addr:postcode": "63-100", "addr:street": "Józefa Chełmońskiego", "amenity": "hospital", "healthcare": "hospital", "name": "Szpital Powiatowy"}}, {"name": "Szpital Powiatowy im. Marcelego Nenckiego w Krotoszynie", "latitude": 51.6892067, "longitude": 17.4376105, "source": "osm", "_tags": {"amenity": "hospital", "name": "Szpital Powiatowy im. Marcelego Nenckiego w Krotoszynie", "phone": "62 588 03 90", "website": "https://www.spzoz.krotoszyn.pl/"}}, {"name": "Szpital Powiatowy ZZOZ", "latitude": 51.4259288, "longitude": 17.9267639, "source": "osm", "_tags": {"amenity": "hospital", "healthcare": "hospital", "name": "Szpital Powiatowy ZZOZ"}}, {"name": "Oddział Rehabilitacyjny oraz Pododdział Rehabilitacji Neurologicznej - część szpitala w Krotoszynie", "latitude": 51.8257942, "longitude": 17.4477687, "source": "osm", "_tags": {"amenity": "hospital", "healthcare": "hospital", "name": "Oddział Rehabilitacyjny oraz Pododdział Rehabilitacji Neurologicznej - część szpitala w Krotoszynie"}}, {"name": "Szpital Zakonu Bonifratów Św. Benedykta Menni", "latitude": 51.8795256, "longitude": 17.0702273, "source": "osm", "_tags": {"amenity": "hospital", "healthcare": "hospital", "name": "Szpital Zakonu Bonifratów Św. Benedykta Menni", "operator": "Bonifrateskie Centrum Medyczne", "operator:type": "private"}}, {"name": "Oddział Zakaźny Szpitala Strusia", "latitude": 52.3915336, "longitude": 16.9977061, "source": "osm", "_tags": {"addr:city": "Poznań", "addr:housenumber": "2", "addr:postcode": "61-245", "addr:street": "Żelazna", "building": "hospital", "building:levels": "2", "healthcare": "hospital", "healthcare:speciality": "infectious_diseases", "height": "8.4", "name": "Oddział Zakaźny Szpitala Strusia", "operator": "Wielospecjalistyczny Szpital Miejski im. J. Strusia w Poznaniu", "source:addr": "Geopoz: e-MODGiK", "source:geometry": "Geopoz: Mapa bazowa", "type": "multipolygon", "website": "http://www.szpital-strusia.poznan.pl/oddzialy/oddzial-zakazny/"}}, {"name": "Szpital Kliniczny Przemienienia Pańskiego", "latitude": 52.402373, "longitude": 16.9334858, "source": "osm", "_tags": {"amenity": "hospital", "fax": "+48 61 852 94 72", "name": "Szpital Kliniczny Przemienienia Pańskiego", "official_name": "Szpital Kliniczny Przemienienia Pańskiego Uniwersytetu Medycznego im. Karola Marcinkowskiego w Poznaniu", "old_name": "Szpital Kliniczny nr 1 Przemienienia Pańskiego", "operator": "Uniwersytet Medyczny im. Karola Marcinkowskiego w Poznaniu", "phone": "+48 61 854 90 00", "type": "site", "website": "https://www.skpp.edu.pl"}}, {"name": "Szpital Ostrów Wielkopolski", "latitude": 51.6544526, "longitude": 17.8273941, "source": "osm", "_tags": {"addr:city": "Ostrów Wielkopolski", "addr:postcode": "63-400", "addr:street": "Bolesława Limanowskiego", "amenity": "hospital", "emergency": "yes", "healthcare": "hospital", "name": "Szpital Ostrów Wielkopolski", "phone": "062 595-11-00", "type": "multipolygon", "website": "http://www.szpital.osw.pl/"}}]