[{"name": "", "latitude": 51.8533154, "longitude": 26.9412887, "source": "osm", "_tags": {"amenity": "hospital"}}, {"name": "Альманская ўрачэбная амбулаторыя", "latitude": 51.8112984, "longitude": 27.056118, "source": "osm", "_tags": {"addr:housenumber": "1А", "addr:street": "Праектная вуліца", "amenity": "hospital", "name": "Альманская ўрачэбная амбулаторыя", "name:be": "Альманская ўрачэбная амбулаторыя", "name:ru": "Ольманская врачебная амбулатория", "phone": "+375 80165573243"}}, {"name": "Бальніца г. Давід - Гарадка.", "latitude": 52.0578865, "longitude": 27.2505812, "source": "osm", "_tags": {"addr:street": "Кастрычніцкая вуліца", "amenity": "hospital", "name": "Бальніца г. Давід - Гарадка.", "name:be": "Бальніца г. Давід - Гарадка.", "name:ru": "Больница г. Давид - Городка"}}, {"name": "бальніца", "latitude": 51.982151, "longitude": 26.9843845, "source": "osm", "_tags": {"addr:housenumber": "23А", "addr:postcode": "225532", "amenity": "hospital", "name": "бальніца", "name:be": "бальніца", "name:en": "Hospital", "name:ru": "Больница"}}, {"name": "ФАП", "latitude": 52.363322, "longitude": 27.9068116, "source": "osm", "_tags": {"addr:housenumber": "33", "addr:street": "Пасялковая вуліца", "amenity": "hospital", "building": "yes", "name": "ФАП", "name:be": "ФАП", "name:ru": "ФАП"}}, {"name": "", "latitude": 52.220282, "longitude": 27.8612795, "source": "osm", "_tags": {"amenity": "hospital", "healthcare": "hospital"}}, {"name": "", "latitude": 52.2210515, "longitude": 27.8604464, "source": "osm", "_tags": {"amenity": "hospital", "healthcare": "hospital"}}, {"name": "", "latitude": 52.0574743, "longitude": 27.2504956, "source": "osm", "_tags": {"amenity": "hospital", "barrier": "fence", "healthcare": "hospital"}}, {"name": "", "latitude": 52.2105284, "longitude": 26.9970843, "source": "osm", "_tags": {"amenity": "hospital"}}, {"name": "Тураўская гарадская бальніца", "latitude": 52.0634996, "longitude": 27.742076, "source": "osm", "_tags": {"amenity": "hospital", "healthcare": "hospital", "name": "Тураўская гарадская бальніца", "name:be": "Тураўская гарадская бальніца", "name:ru": "Туровская городская больница"}}, {"name": "", "latitude": 52.223862, "longitude": 27.2599568, "source": "osm", "_tags": {"amenity": "hospital", "building": "yes"}}, {"name": "", "latitude": 52.2239874, "longitude": 27.2594047, "source": "osm", "_tags": {"addr:housenumber": "92", "addr:street": "Камсамольская вуліца", "amenity": "hospital", "building": "yes"}}, {"name": "бальніца", "latitude": 52.2286735, "longitude": 27.4875219, "source": "osm", "_tags": {"amenity": "hospital", "healthcare": "hospital", "name": "бальніца", "name:be": "бальніца", "name:ru": "Больница"}}, {"name": "", "latitude": 52.0462369, "longitude": 27.4814441, "source": "osm", "_tags": {"amenity": "hospital", "emergency": "no", "healthcare": "hospital"}}, {"name": "", "latitude": 52.0570338, "longitude": 27.0776263, "source": "osm", "_tags": {"amenity": "hospital", "emergency": "no", "healthcare": "hospital"}}, {"name": "", "latitude": 51.9717346, "longitude": 27.0674795, "source": "osm", "_tags": {"amenity": "hospital", "emergency": "no", "healthcare": "hospital"}}]