[{"name": "ZGT Almelo", "latitude": 52.337155, "longitude": 6.6408034, "source": "osm", "_tags": {"addr:city": "Almelo", "addr:housenumber": "1", "addr:postcode": "7609PP", "addr:street": "Zilvermeeuw", "amenity": "hospital", "email": "info@zgt.nl", "emergency": "yes", "healthcare": "hospital", "name": "ZGT Almelo", "phone": "+31 88 708 7878", "source": "BAG", "source:date": "2014-06-29", "website": "https://www.zgt.nl/patienten-en-bezoekers/zgt-locaties-contactgegevens/ziekenhuislocatie-almelo/"}}, {"name": "ZGT Hengelo", "latitude": 52.263175, "longitude": 6.770632, "source": "osm", "_tags": {"amenity": "hospital", "healthcare": "hospital", "name": "ZGT Hengelo", "old_name": "Streekziekenhuis Midden Twente", "operator": "Ziekenhuisgroep Twente"}}, {"name": "Malteser Krankenhaus St. Johannes-Stift", "latitude": 51.4532101, "longitude": 6.710091, "source": "osm", "_tags": {"addr:city": "Duisburg", "addr:housenumber": "21", "addr:postcode": "47198", "addr:street": "Johannisstraße", "amenity": "hospital", "beds": "267", "check_date": "2025-04-29", "contact:phone": "+49 2066 29-0", "contact:website": "http://www.malteser-stjohannesstift.de/", "email": "krankenhaus.duisburg-homberg@malteser.org", "emergency": "yes", "healthcare": "hospital", "name": "Malteser Krankenhaus St. Johannes-Stift", "operator": "Malteser", "website": "https://www.malteser-kliniken-rhein-ruhr.de/medizinische-fachbereiche/malteser-krankenhaus-st-johannes-stift.html", "wheelchair": "yes"}}, {"name": "Slingeland Ziekenhuis Locatie Gezellenlaan", "latitude": 51.9543817, "longitude": 6.3012531, "source": "osm", "_tags": {"addr:city": "Doetinchem", "addr:housenumber": "10", "addr:postcode": "7005AZ", "addr:street": "Gezellenlaan", "amenity": "hospital", "healthcare": "hospital", "name": "Slingeland Ziekenhuis Locatie Gezellenlaan", "source": "BAG", "source:date": "2014-02-11", "website": "https://dermatologie.slingeland.nl/kenniscentrum/"}}, {"name": "Maasziekenhuis Pantein", "latitude": 51.6635586, "longitude": 5.9403546, "source": "osm", "_tags": {"addr:city": "Beugen", "addr:housenumber": "1", "addr:postcode": "5835DV", "addr:street": "Dokter Kopstraat", "amenity": "hospital", "emergency": "yes", "healthcare": "hospital", "name": "Maasziekenhuis Pantein", "phone": "+31 485 845 000", "source": "BAG", "source:date": "2014-03-24", "website": "https://www.maasziekenhuispantein.nl/"}}, {"name": "Streekziekenhuis Koningin Beatrix", "latitude": 51.9786141, "longitude": 6.7014269, "source": "osm", "_tags": {"addr:city": "Winterswijk", "addr:housenumber": "1", "addr:postcode": "7101BN", "addr:street": "Beatrixpark", "amenity": "hospital", "check_date": "2024-11-13", "emergency": "yes", "healthcare": "hospital", "name": "Streekziekenhuis Koningin Beatrix", "source": "BAG", "source:date": "2014-03-24"}}, {"name": "Interdisziplinäre Frühförderstelle IFF", "latitude": 51.652433, "longitude": 6.6129454, "source": "osm", "_tags": {"amenity": "hospital", "healthcare": "hospital", "name": "Interdisziplinäre Frühförderstelle IFF"}}, {"name": "Herzzentrum Duisburg (Kaiser-Wilhelm-Krankenhaus)", "latitude": 51.462461, "longitude": 6.7763065, "source": "osm", "_tags": {"addr:city": "Duisburg", "addr:housenumber": "21", "addr:postcode": "47137", "addr:street": "Gerrickstraße", "amenity": "hospital", "beds": "270", "emergency": "yes", "healthcare": "hospital", "healthcare:speciality": "cardiology", "name": "Herzzentrum Duisburg (Kaiser-Wilhelm-Krankenhaus)", "operator": "Evangelisches Klinikum Niederrhein"}}, {"name": "Hospice", "latitude": 52.2649485, "longitude": 6.7640758, "source": "osm", "_tags": {"addr:city": "Hengelo", "addr:housenumber": "123", "addr:postcode": "7555SL", "addr:street": "P.C. Borstlaan", "amenity": "hospital", "emergency": "no", "healthcare": "hospital", "healthcare:speciality": "hospice", "name": "Hospice", "operator": "TriviumMeulenbeltZorg", "operator:type": "government"}}, {"name": "Willibrord-Spital", "latitude": 51.8328956, "longitude": 6.2386321, "source": "osm", "_tags": {"addr:city": "Emmerich am Rhein", "addr:housenumber": "4", "addr:postcode": "46446", "addr:street": "Lilienstraße", "amenity": "hospital", "healthcare": "hospital", "name": "Willibrord-Spital"}}, {"name": "VieCuri Medisch Centrum locatie Venray", "latitude": 51.5275554, "longitude": 5.9599529, "source": "osm", "_tags": {"amenity": "hospital", "healthcare": "hospital", "name": "VieCuri Medisch Centrum locatie Venray", "wheelchair": "yes"}}, {"name": "St. Marien-Hospital", "latitude": 51.5020732, "longitude": 6.8896557, "source": "osm", "_tags": {"addr:city": "Oberhausen", "addr:country": "DE", "addr:housenumber": "10", "addr:postcode": "46117", "addr:street": "Nürnberger Straße", "addr:suburb": "Osterfeld", "amenity": "hospital", "contact:phone": "+49 208 8991-0", "contact:website": "http://www.kk-ob.de/standorte/st-marien-hospital.html", "healthcare": "hospital", "name": "St. Marien-Hospital", "wheelchair": "yes"}}, {"name": "Helios St. Elisabeth Klinik", "latitude": 51.4614653, "longitude": 6.8546089, "source": "osm", "_tags": {"amenity": "hospital", "emergency": "yes", "healthcare": "hospital", "name": "Helios St. Elisabeth Klinik", "operator": "Helios Kliniken", "operator:type": "private", "operator:wikidata": "Q1254151", "wheelchair": "yes", "wikidata": "Q30294850"}}, {"name": "Evangelisches Krankenhaus Oberhausen", "latitude": 51.4748241, "longitude": 6.8669468, "source": "osm", "_tags": {"amenity": "hospital", "healthcare": "hospital", "name": "Evangelisches Krankenhaus Oberhausen", "wheelchair": "yes", "wikidata": "Q44724846"}}, {"name": "LVR-Klinik Bedburg-Hau", "latitude": 51.7596012, "longitude": 6.1816625, "source": "osm", "_tags": {"amenity": "hospital", "email": "lvr-klinik-bedburg-hau@lvr.de", "fax": "+49 2821 81-1098", "healthcare": "hospital", "healthcare:speciality": "psychiatry;neuropsychiatry;child_psychiatry", "name": "LVR-Klinik Bedburg-Hau", "phone": "+49 2821 81-0", "website": "https://klinik-bedburg-hau.lvr.de", "wikidata": "Q1798438", "wikipedia": "de:LVR-Klinik Bedburg-Hau"}}, {"name": "St. Nikolaus Hospital Rheinberg", "latitude": 51.5415036, "longitude": 6.6082167, "source": "osm", "_tags": {"addr:city": "Rheinberg", "addr:country": "DE", "addr:housenumber": "55", "addr:postcode": "47495", "addr:street": "Orsoyer Straße", "amenity": "hospital", "building": "hospital", "email": "rh.sek@st-josef-moers.de", "healthcare": "hospital", "healthcare:speciality": "psychiatry", "name": "St. Nikolaus Hospital Rheinberg", "operator": "St. Josef Krankenhaus GmbH Moers", "operator:type": "private", "phone": "+49 2843 17 90", "website": "https://www.st-josef-moers.de/psychiatrie-und-psychotherapie-st-nikolaus-hospital-rheinberg", "wheelchair": "yes", "wheelchair:description": "2 aG-Parkplätze"}}, {"name": "Evangelisches Krankenhaus Dinslaken", "latitude": 51.558391, "longitude": 6.7302513, "source": "osm", "_tags": {"amenity": "hospital", "healthcare": "hospital", "name": "Evangelisches Krankenhaus Dinslaken", "phone": "+49 2064 42-0", "website": "https://www.evkln.de/startseite/ev-krankenhaus-dinslaken/", "wheelchair": "yes"}}, {"name": "St. Vinzenz-Hospital Dinslaken", "latitude": 51.5592377, "longitude": 6.7274565, "source": "osm", "_tags": {"amenity": "hospital", "emergency": "yes", "healthcare": "hospital", "name": "St. Vinzenz-Hospital Dinslaken", "wheelchair": "yes"}}, {"name": "AMEOS Klinikum St. Clemens", "latitude": 51.5179265, "longitude": 6.8449462, "source": "osm", "_tags": {"amenity": "hospital", "contact:website": "https://www.ameos.eu/standorte/ameos-west/oberhausen/ameos-klinikum-st-clemens-oberhausen/", "emergency": "yes", "healthcare": "hospital", "name": "AMEOS Klinikum St. Clemens", "operator": "AMEOS Holding AG", "operator:type": "private", "wheelchair": "yes"}}, {"name": "Krankenhaus Bethanien", "latitude": 51.4617499, "longitude": 6.6336809, "source": "osm", "_tags": {"addr:city": "Moers", "addr:country": "DE", "addr:housenumber": "21", "addr:postcode": "47441", "addr:street": "Bethanienstraße", "amenity": "hospital", "email": "info@bethanienmoers.de", "emergency": "no", "healthcare": "hospital", "healthcare:speciality": "gynaecology;radiology;cardiology;surgery;orthopaedics", "name": "Krankenhaus Bethanien", "operator": "Stiftung Krankenhaus Bethanien für die Grafschaft Moers", "operator:type": "religious", "phone": "+49 2841/200-0", "toilets:wheelchair": "yes", "website": "https://www.bethanien-moers.de", "wheelchair": "yes"}}, {"name": "Knappschaftskrankenhaus", "latitude": 51.5151179, "longitude": 6.9070596, "source": "osm", "_tags": {"amenity": "hospital", "emergency": "yes", "healthcare": "hospital", "name": "Knappschaftskrankenhaus", "wheelchair": "yes", "wikidata": "Q57378771", "wikipedia": "de:Knappschaftskrankenhaus Bottrop"}}, {"name": "St. Josef Krankenhaus", "latitude": 51.4454856, "longitude": 6.640518, "source": "osm", "_tags": {"amenity": "hospital", "email": "contact@st-josef-moers.de", "emergency": "yes", "healthcare": "hospital", "name": "St. Josef Krankenhaus", "operator": "St. Josef Krankenhaus GmbH Moers", "operator:type": "religious", "phone": "+49 2841 107-1", "website": "https://www.st-josef-moers.de/", "wheelchair": "yes"}}, {"name": "St. Willibrord Spital Emmerich-Rees", "latitude": 51.832846, "longitude": 6.2396204, "source": "osm", "_tags": {"addr:city": "Emmerich am Rhein", "addr:country": "DE", "addr:housenumber": "9", "addr:postcode": "46446", "addr:street": "Willibrordstraße", "amenity": "hospital", "check_date": "2024-03-11", "healthcare": "hospital", "name": "St. Willibrord Spital Emmerich-Rees", "phone": "+49 2822 730", "website": "http://www.willibrord.de/", "wheelchair": "yes"}}, {"name": "St. Bernhard-Hospital", "latitude": 51.491252, "longitude": 6.5161086, "source": "osm", "_tags": {"amenity": "hospital", "healthcare": "hospital", "name": "St. Bernhard-Hospital", "operator": "St. Franziskus-Stiftung Münster", "operator:wikidata": "Q2318238", "wikidata": "Q2317552", "wikipedia": "de:St. Bernhard-Hospital Kamp-Lintfort"}}, {"name": "Helios St. Johannes Klinik Duisburg", "latitude": 51.4899264, "longitude": 6.7610278, "source": "osm", "_tags": {"addr:city": "Duisburg", "addr:housenumber": "7-11", "addr:postcode": "47166", "addr:street": "An der Abtei", "amenity": "hospital", "beds": "500", "emergency": "yes", "healthcare": "hospital", "name": "Helios St. Johannes Klinik Duisburg", "operator": "Helios Kliniken", "operator:type": "private", "operator:wikidata": "Q1254151", "operator:wikipedia": "de:Helios Kliniken", "phone": "+492035460", "website": "http://www.helios-kliniken.de/klinik/duisburg.html", "wheelchair": "yes", "wikipedia": "de:Katholisches Klinikum Duisburg"}}, {"name": "Sankt Antonius Hospital", "latitude": 51.7726173, "longitude": 6.1355496, "source": "osm", "_tags": {"amenity": "hospital", "emergency": "yes", "healthcare": "hospital", "name": "Sankt Antonius Hospital", "operator": "Katholische Kliniken im Kreis Kleve Trägergesellschaft mbH", "phone": "+49 2821 4900", "toilets:wheelchair": "yes", "website": "https://www.kkle.de/", "wheelchair": "yes", "wikidata": "Q20008617"}}, {"name": "St. Nikolaus-Hospital", "latitude": 51.740061, "longitude": 6.2935893, "source": "osm", "_tags": {"addr:city": "Kalkar", "addr:housenumber": "86-88", "addr:postcode": "47546", "addr:street": "Grabenstraße", "amenity": "hospital", "building": "yes", "contact:phone": "+49 2824 170", "contact:website": "http://www.kkikk.de/snh/index.html", "healthcare": "hospital", "name": "St. Nikolaus-Hospital"}}, {"name": "Evangelisches Krankenhaus Mülheim", "latitude": 51.4241861, "longitude": 6.8831971, "source": "osm", "_tags": {"amenity": "hospital", "check_date": "2025-08-01", "emergency": "yes", "healthcare": "hospital", "name": "Evangelisches Krankenhaus Mülheim", "wheelchair": "yes", "wikidata": "Q1381350"}}, {"name": "St. Marien-Hospital", "latitude": 51.4260383, "longitude": 6.8867307, "source": "osm", "_tags": {"addr:city": "Mülheim an der Ruhr", "addr:housenumber": "50", "addr:postcode": "45468", "addr:street": "Kaiserstraße", "amenity": "hospital", "check_date": "2025-03-16", "healthcare": "hospital", "name": "St. Marien-Hospital", "opening_hours": "24/7", "toilets:wheelchair": "yes", "website": "https://www.contilia.de", "wheelchair": "yes", "wikidata": "Q60504071"}}, {"name": "St. Marien-Hospital Borken", "latitude": 51.8421489, "longitude": 6.8608995, "source": "osm", "_tags": {"amenity": "hospital", "healthcare": "hospital", "name": "St. Marien-Hospital Borken", "phone": "+49 2861 970", "website": "https://www.hospital-borken.de/", "wheelchair": "yes", "wheelchair:description": "im UG; durchgehend geöffnet"}}, {"name": "St. Vinzenz-Hospital Rhede", "latitude": 51.8398402, "longitude": 6.6927135, "source": "osm", "_tags": {"amenity": "hospital", "check_date": "2024-06-07", "emergency": "no", "healthcare": "hospital", "name": "St. Vinzenz-Hospital Rhede", "wheelchair": "yes"}}, {"name": "St. Agnes Hospital", "latitude": 51.8555909, "longitude": 6.6270529, "source": "osm", "_tags": {"addr:city": "Bocholt", "addr:country": "DE", "addr:housenumber": "125", "addr:postcode": "46397", "addr:street": "Barloer Weg", "addr:suburb": "Stenern", "amenity": "hospital", "emergency": "yes", "healthcare": "hospital", "healthcare:speciality": "paediatrics;gynaecology;emergency;cardiology;internal;radiology;orthopaedics;trauma;gastroenterological_surgery;pulmonologie;vascular_surgery", "level": "4", "name": "St. Agnes Hospital", "opening_hours": "24/7", "operator": "Stiftung St. Agnes Hospital", "operator:type": "religious", "phone": "+49 2871 20-0", "toilets:wheelchair": "yes", "website": "https://www.klinikum-westmuensterland.de/bocholt/", "wheelchair": "yes"}}, {"name": "Sankt Josef-Hospital", "latitude": 51.6431235, "longitude": 6.4520034, "source": "osm", "_tags": {"amenity": "hospital", "name": "Sankt Josef-Hospital", "website": "https://www.sankt-josef-hospital.de/"}}, {"name": "Evangelisches Krankenhaus Duisburg-Nord", "latitude": 51.515344, "longitude": 6.7657358, "source": "osm", "_tags": {"addr:city": "Duisburg", "addr:country": "DE", "addr:housenumber": "133", "addr:postcode": "47169", "addr:street": "Fahrner Straße", "amenity": "hospital", "beds": "351", "emergency": "yes", "healthcare": "hospital", "name": "Evangelisches Krankenhaus Duisburg-Nord", "operator": "Evangelisches Klinikum Niederrhein", "phone": "+4920350800", "website": "https://www.evkln.de/ueber-uns/unsere-standorte/evangelisches-krankenhaus-duisburg-nord/"}}, {"name": "Marienhospital", "latitude": 51.5845069, "longitude": 6.2496949, "source": "osm", "_tags": {"amenity": "hospital", "healthcare": "hospital", "name": "Marienhospital", "operator": "Katholisches Karl-Leisner-Klinikum gGmbH", "phone": "+492832100", "wheelchair": "yes"}}, {"name": "Medisch Spectrum Twente", "latitude": 52.2159404, "longitude": 6.8918776, "source": "osm", "_tags": {"addr:city": "Enschede", "addr:country": "NL", "addr:housenumber": "1", "addr:postcode": "7512KZ", "addr:street": "Koningsplein", "amenity": "hospital", "emergency": "yes", "healthcare": "hospital", "name": "Medisch Spectrum Twente", "phone": "+31 53 487 2000", "website": "https://www.mst.nl/", "wikidata": "Q2974418"}}, {"name": "Katholisches Karl-Leisner-Klinikum Wilhelm-Anton-Hospital Goch", "latitude": 51.6766025, "longitude": 6.181603, "source": "osm", "_tags": {"amenity": "hospital", "healthcare": "hospital", "name": "Katholisches Karl-Leisner-Klinikum Wilhelm-Anton-Hospital Goch", "phone": "+49-2823-8910"}}, {"name": "Gelre Zutphen", "latitude": 52.1230667, "longitude": 6.2175382, "source": "osm", "_tags": {"amenity": "hospital", "healthcare": "hospital", "name": "Gelre Zutphen", "website": "https://www.gelreziekenhuizen.nl/home/", "wikidata": "Q15875541", "wikipedia": "nl:Gelre ziekenhuizen Zutphen"}}, {"name": "AMEOS Klinikum St. Josef Oberhausen", "latitude": 51.476878, "longitude": 6.8628217, "source": "osm", "_tags": {"addr:city": "Oberhausen", "addr:housenumber": "83", "addr:postcode": "46045", "addr:street": "Mülheimer Straße", "amenity": "hospital", "healthcare": "hospital", "name": "AMEOS Klinikum St. Josef Oberhausen", "operator": "Ameos", "operator:type": "business", "operator:wikidata": "Q462865", "website": "https://www.ameos.de/klinikum-st-josef-oberhausen", "wikidata": "Q44736480"}}, {"name": "Deventer Ziekenhuis", "latitude": 52.2613123, "longitude": 6.1916563, "source": "osm", "_tags": {"addr:city": "Deventer", "addr:housenumber": "75", "addr:postcode": "7416SE", "addr:street": "Nico Bolkesteinlaan", "amenity": "hospital", "emergency": "yes", "healthcare": "hospital", "internet_access": "wlan", "name": "Deventer Ziekenhuis", "phone": "+31 570 535 353", "source": "BAG", "source:date": "2014-02-11", "website": "https://www.dz.nl/", "wikidata": "Q2203146", "wikipedia": "nl:Deventer Ziekenhuis"}}, {"name": "Gelre ziekenhuizen", "latitude": 52.1812395, "longitude": 5.9471608, "source": "osm", "_tags": {"addr:city": "Apeldoorn", "addr:country": "NL", "addr:housenumber": "31", "addr:postcode": "7334DZ", "addr:street": "Albert Schweitzerlaan", "amenity": "hospital", "emergency": "yes", "healthcare": "hospital", "name": "Gelre ziekenhuizen", "old_name": "Lukas ziekenhuis", "operator": "Gelre Ziekenhuizen", "phone": "+31 55 581 8181", "website": "https://www.gelreziekenhuizen.nl/Gelreziekenhuizen", "wikidata": "Q15875540", "wikipedia": "nl:Gelre ziekenhuizen Apeldoorn"}}, {"name": "Rijnstate Ziekenhuis Zevenaar", "latitude": 51.9425469, "longitude": 6.0701997, "source": "osm", "_tags": {"addr:city": "Zevenaar", "addr:country": "NL", "addr:housenumber": "14A", "addr:postcode": "6903ZN", "addr:street": "Hunneveldweg", "amenity": "hospital", "contact:website": "https://www.rijnstate.nl/contact/adressen-en-bereikbaarheid/rijnstate-zevenaar/", "healthcare": "hospital", "name": "Rijnstate Ziekenhuis Zevenaar", "phone": "+31 88 055 8887", "wikidata": "Q96377151"}}, {"name": "Marienhospital Bottrop", "latitude": 51.5341244, "longitude": 6.9179798, "source": "osm", "_tags": {"amenity": "hospital", "healthcare": "hospital", "name": "Marienhospital Bottrop", "wheelchair": "yes", "wikidata": "Q50038656"}}, {"name": "Johanniter-Krankenhaus", "latitude": 51.5096489, "longitude": 6.8539064, "source": "osm", "_tags": {"amenity": "hospital", "emergency": "yes", "healthcare": "hospital", "healthcare:speciality": "psychiatry", "name": "Johanniter-Krankenhaus", "operator": "Johanniterorden", "wheelchair": "yes", "wikidata": "Q1698980"}}, {"name": "St. Marien Hospital Vreden", "latitude": 52.0470929, "longitude": 6.8127197, "source": "osm", "_tags": {"amenity": "hospital", "contact:phone": "+49 2564 99-3", "contact:website": "https://www.klinikum-westmuensterland.de/vreden/", "emergency": "yes", "healthcare": "hospital", "name": "St. Marien Hospital Vreden", "operator": "Klinikum Westmünsterland GmbH", "wheelchair": "yes"}}, {"name": "Slingeland Ziekenhuis", "latitude": 51.976078, "longitude": 6.2851991, "source": "osm", "_tags": {"addr:city": "Doetinchem", "addr:housenumber": "25", "addr:postcode": "7009BL", "addr:street": "Kruisbergseweg", "amenity": "hospital", "emergency": "yes", "healthcare": "hospital", "internet_access": "wlan", "name": "Slingeland Ziekenhuis", "source": "BAG", "source:date": "2014-02-11", "website": "https://www.slingeland.nl/", "wikidata": "Q14360802", "wikipedia": "nl:Slingeland Ziekenhuis"}}, {"name": "MST Oldenzaal", "latitude": 52.3081344, "longitude": 6.9310132, "source": "osm", "_tags": {"amenity": "hospital", "emergency": "no", "healthcare": "hospital", "name": "MST Oldenzaal"}}, {"name": "St.-Clemens-Hospital", "latitude": 51.5282294, "longitude": 6.3272743, "source": "osm", "_tags": {"addr:city": "Geldern", "addr:country": "DE", "addr:housenumber": "6", "addr:postcode": "47608", "addr:street": "Clemensstraße", "amenity": "hospital", "emergency": "yes", "healthcare": "hospital", "name": "St.-Clemens-Hospital", "website": "https://www.clemens-hospital.de/", "wheelchair": "yes"}}, {"name": "Helios Klinik Duisburg Homberg", "latitude": 51.4532787, "longitude": 6.7099434, "source": "osm", "_tags": {"addr:city": "Duisburg", "addr:housenumber": "21", "addr:postcode": "47198", "addr:street": "Johannisstraße", "amenity": "hospital", "healthcare": "hospital", "name": "Helios Klinik Duisburg Homberg", "operator": "Helios Kliniken", "operator:wikidata": "Q1254151", "website": "https://www.helios-gesundheit.de/kliniken/duisburg-homberg/"}}, {"name": "Evangelisches Krankenhaus Wesel", "latitude": 51.6596685, "longitude": 6.6550799, "source": "osm", "_tags": {"addr:city": "Wesel", "addr:country": "DE", "addr:housenumber": "88", "addr:postcode": "46485", "addr:street": "Schermbecker Landstraße", "amenity": "hospital", "building": "hospital", "contact:phone": "+49 281 106 1", "contact:website": "http://www.evkwesel.de/", "emergency": "yes", "healthcare": "hospital", "name": "Evangelisches Krankenhaus Wesel", "operator": "Evangelisches Krankenhaus Wesel GmbH", "type": "multipolygon", "wheelchair": "yes", "wikidata": "Q1381353"}}, {"name": "Marien-Hospital", "latitude": 51.6555368, "longitude": 6.6110822, "source": "osm", "_tags": {"addr:city": "Wesel", "addr:country": "DE", "addr:housenumber": "8-38", "addr:postcode": "46483", "addr:street": "Pastor-Janßen-Straße", "amenity": "hospital", "building": "yes", "healthcare": "hospital", "name": "Marien-Hospital", "type": "multipolygon", "wheelchair": "limited"}}, {"name": "St. Agnes Hospital", "latitude": 51.8553251, "longitude": 6.6270753, "source": "osm", "_tags": {"addr:city": "Bocholt", "addr:housenumber": "125", "addr:postcode": "46397", "addr:street": "Barloer Weg", "building": "hospital", "building:levels": "4", "healthcare": "hospital", "healthcare:speciality": "general;anaesthetics;gastroenterology;vascular_surgery;gynaecology;intensive;cardiology;oncology;palliative", "name": "St. Agnes Hospital", "smoking": "no", "start_date": "1985", "type": "multipolygon", "wheelchair": "yes"}}, {"name": "Streekziekenhuis Koningin Beatrix", "latitude": 51.9784098, "longitude": 6.7003072, "source": "osm", "_tags": {"addr:city": "Winterswijk", "addr:housenumber": "1", "addr:postcode": "7101BN", "addr:street": "Beatrixpark", "amenity": "hospital", "building": "yes", "emergency": "yes", "healthcare": "hospital", "name": "Streekziekenhuis Koningin Beatrix", "ref:bag": "294100000379493", "source": "BAG", "source:date": "2014-03-24", "start_date": "1984", "type": "multipolygon"}}]