[{"name": "Wexford General Hospital", "latitude": 52.3431683, "longitude": -6.4818362, "source": "osm", "_tags": {"HSE_code": "103", "HSE_hgid": "2", "HSE_hgroup": "Ireland East Hospital Group", "HSE_region": "Dublin East", "addr:city": "Wexford", "addr:street": "Newtown Road", "addr:townland": "Carricklawn", "amenity": "hospital", "emergency": "yes", "healthcare": "hospital", "name": "Wexford General Hospital", "operator": "Health Service Executive", "operator:short": "HSE", "operator:type": "public", "operator:wikidata": "Q5690681", "operator:wikipedia": "en:Health Service Executive", "phone": "+353 53 914 2233", "website": "https://www2.hse.ie/services/hospitals/wexford-general-hospital/", "wheelchair": "yes", "wikidata": "Q13157637", "wikimedia_commons": "Category:Wexford General Hospital", "wikipedia": "en:Wexford General Hospital"}}, {"name": "Hospital Grounds New Ross", "latitude": 52.389359, "longitude": -6.9389135, "source": "osm", "_tags": {"addr:city": "New Ross", "addr:street": "Hospital Road", "amenity": "hospital", "emergency": "no", "healthcare": "hospital", "name": "Hospital Grounds New Ross"}}, {"name": "Ely Hospital", "latitude": 52.3457643, "longitude": -6.4548537, "source": "osm", "_tags": {"addr:city": "Wexford", "addr:street": "Ferrybank", "addr:townland": "Tincone", "amenity": "hospital", "healthcare": "hospital", "name": "Ely Hospital", "operator": "Health Service Executive", "operator:short": "HSE", "operator:type": "government", "operator:wikidata": "Q5690681", "operator:wikipedia": "en:Health Service Executive", "wheelchair": "yes"}}]