[{"name": "Bluebird Lodge", "latitude": 52.0258771, "longitude": 1.1994152, "source": "osm", "_tags": {"addr:city": "Ipswich", "addr:housenumber": "100", "addr:postcode": "IP3 9GJ", "addr:street": "Mansbrook Boulevard", "amenity": "hospital", "fhrs:id": "1652652", "healthcare": "hospital", "name": "Bluebird Lodge", "note": "position/shape/size is indcative", "ref:GB:cqc_location": "RDE78", "website": "https://www.nhs.uk/Services/hospitals/Overview/DefaultView.aspx?id=98538"}}, {"name": "Clacton Hospital", "latitude": 51.7855005, "longitude": 1.1480647, "source": "osm", "_tags": {"addr:city": "Clacton-on-Sea", "addr:postcode": "CO15 1LH", "amenity": "hospital", "healthcare": "hospital", "name": "Clacton Hospital", "ref:GB:cqc_location": "RDEE2", "ref:GB:nhs_ods": "RDEE2"}}, {"name": "Fryatt Hospital", "latitude": 51.9337687, "longitude": 1.2608166, "source": "osm", "_tags": {"addr:city": "Harwich", "addr:housenumber": "419", "addr:postcode": "CO12 4EX", "addr:street": "Main Road", "amenity": "hospital", "emergency": "no", "fhrs:id": "1013279", "healthcare": "hospital", "name": "Fryatt Hospital", "old_fhrs:id": "611709", "ref:GB:cqc_location": "RDEEE"}}, {"name": "Aldeburgh Community Hospital", "latitude": 52.1521017, "longitude": 1.5953225, "source": "osm", "_tags": {"addr:postcode": "IP15 5ES", "addr:street": "Park Road", "amenity": "hospital", "fhrs:id": "1081444", "healthcare": "hospital", "name": "Aldeburgh Community Hospital", "ref:GB:cqc_location": "RDE83", "source:addr": "FSA Food Hygiene Ratings Database", "website": "https://www.esneft.nhs.uk/wards/aldeburgh-hospital/"}}, {"name": "Nuffield Hospital Ipswich", "latitude": 52.0479689, "longitude": 1.227619, "source": "osm", "_tags": {"addr:city": "Ipswich", "addr:postcode": "IP4 5SW", "addr:street": "Foxhall Road", "amenity": "hospital", "healthcare": "hospital", "name": "Nuffield Hospital Ipswich", "ref:GB:cqc_location": "1-115574557", "source": "OS OpenMap Local", "website": "https://www.nuffieldhealth.com/hospitals/ipswich"}}, {"name": "Felixstowe Community Hospital & Minor Injuries Unit", "latitude": 51.9637218, "longitude": 1.3559404, "source": "osm", "_tags": {"addr:city": "Felixstowe", "addr:postcode": "IP11 7HJ", "addr:street": "Constable Road", "amenity": "hospital", "fhrs:id": "1081443", "healthcare": "hospital", "name": "Felixstowe Community Hospital & Minor Injuries Unit", "source:addr": "FHRS Open Data", "website": "https://www.esneft.nhs.uk/wards/felixstowe-hospital/"}}, {"name": "Hartismere Hospital", "latitude": 52.3230982, "longitude": 1.1399165, "source": "osm", "_tags": {"addr:city": "Eye", "addr:country": "GB", "addr:postcode": "IP23 7BH", "addr:street": "Castleton Way", "amenity": "hospital", "name": "Hartismere Hospital", "ref:GB:nhs_ods": "RMYMR", "source": "OS OpenMap Local", "website": "https://www.nhs.uk/services/hospital/hartismere-hospital/X111218"}}, {"name": "Ipswich Hospital", "latitude": 52.0579288, "longitude": 1.198503, "source": "osm", "_tags": {"addr:city": "Ipswich", "addr:postcode": "IP4 5PD", "addr:street": "Heath Road", "amenity": "hospital", "emergency": "yes", "healthcare": "hospital", "name": "Ipswich Hospital", "pharmacy": "yes", "ref:GB:cqc_location": "RDE03", "source:addr": "FSA Food Hygiene Ratings Database", "website": "http://www.ipswichhospital.nhs.uk/", "wikidata": "Q14956760", "wikipedia": "en:Ipswich Hospital"}}, {"name": "Richmond House", "latitude": 52.4046135, "longitude": 1.3029448, "source": "osm", "_tags": {"addr:city": "Harleston", "addr:postcode": "IP20 9HB", "addr:street": "Redenhall Road", "amenity": "hospital", "healthcare:speciality": "mental_health;learning_disabilities", "name": "Richmond House", "ref:GB:cqc_location": "1-129389270", "source:addr:postcode": "ons_uprn_lookup", "website": "https://www.priorygroup.com/locations/nhs/priory-hospital-richmond-house"}}]