[{"name": "Szpital Kliniczny Dzieciątka Jezus", "latitude": 52.2258398, "longitude": 21.0024759, "source": "osm", "_tags": {"addr:city": "Warszawa", "addr:housenumber": "5", "addr:street": "Tytusa Chałubińskiego", "amenity": "hospital", "name": "Szpital Kliniczny Dzieciątka Jezus", "wheelchair": "limited", "wikidata": "Q15989295", "wikipedia": "pl:Szpital Kliniczny Dzieciątka Jezus"}}, {"name": "Państwowy Szpital Kliniczny Dzieciątka Jezus", "latitude": 52.2240597, "longitude": 20.9977786, "source": "osm", "_tags": {"addr:street": "Williama Heerleina Lindleya", "amenity": "hospital", "check_date": "2023-05-29", "healthcare": "hospital", "name": "Państwowy Szpital Kliniczny Dzieciątka Jezus", "wheelchair": "no"}}, {"name": "Niepubliczny Zakład Opieki Zdrowotnej Esculap Sp. z o.o.", "latitude": 52.3210165, "longitude": 21.1047401, "source": "osm", "_tags": {"amenity": "hospital", "emergency": "no", "healthcare": "hospital", "name": "Niepubliczny Zakład Opieki Zdrowotnej Esculap Sp. z o.o."}}, {"name": "Szpital Miejski w Pionkach - Oddział chorób wewnętrznych i rehabilitacji", "latitude": 51.4668255, "longitude": 21.4340924, "source": "osm", "_tags": {"addr:city": "Pionki", "addr:housenumber": "1", "addr:postcode": "26-670", "addr:street": "Harcerska", "amenity": "hospital", "healthcare": "hospital", "name": "Szpital Miejski w Pionkach - Oddział chorób wewnętrznych i rehabilitacji", "operator": "Samodzielny Publiczny Zespół Zakładów Opieki Zdrowotnej w Pionkach", "website": "http://www.spzzozpionki.pl/"}}, {"name": "NZOZ Szpital Mazovia", "latitude": 52.1424549, "longitude": 21.0524087, "source": "osm", "_tags": {"amenity": "hospital", "check_date": "2024-04-30", "email": "info@szpitalmazovia.pl", "emergency": "no", "name": "NZOZ Szpital Mazovia", "phone": "+48 22 120 20 60", "website": "https://szpitalmazovia.pl/"}}, {"name": "Ibis", "latitude": 52.2408885, "longitude": 20.9801053, "source": "osm", "_tags": {"addr:city": "Warszawa", "addr:housenumber": "8", "addr:street": "Kacza", "amenity": "hospital", "check_date": "2024-09-02", "healthcare": "hospital", "name": "Ibis", "official_name": "Niepubliczny Zakład Opieki Zdrowotnej IBIS / SENSOR CLINIQ", "website": "https://szpitalibis.pl/"}}, {"name": "Luxmed Onkologia", "latitude": 52.2579919, "longitude": 20.9593947, "source": "osm", "_tags": {"addr:city": "Warszawa", "addr:housenumber": "6", "addr:postcode": "01-748", "addr:street": "Szamocka", "amenity": "hospital", "email": "rejestracja.szamocka@magodent.pl", "healthcare": "hospital", "healthcare:speciality": "oncology", "name": "Luxmed Onkologia", "phone": "+48 22 469 83 30", "website": "http://magodent.pl/nasze-placowki/szpital-elblaska-magodent-grupa-lux-med/"}}, {"name": "Oddział Zakaźny", "latitude": 51.5915232, "longitude": 21.5282654, "source": "osm", "_tags": {"addr:city": "Kozienice", "addr:housenumber": "10", "addr:postcode": "26-900", "addr:street": "Aleja Władysława Sikorskiego", "amenity": "clinic", "healthcare": "hospital", "name": "Oddział Zakaźny"}}, {"name": "Lux Med", "latitude": 52.2807832, "longitude": 21.0122657, "source": "osm", "_tags": {"addr:city": "Warszawa", "addr:housenumber": "3", "addr:postcode": "03-305", "addr:street": "Władysława Szernera", "amenity": "hospital", "name": "Lux Med", "website": "https://www.luxmed.pl/"}}, {"name": "Szpital Psychiatryczny MindHealth", "latitude": 52.3067939, "longitude": 20.9750218, "source": "osm", "_tags": {"addr:city": "Warszawa", "addr:housenumber": "44", "addr:postcode": "03-185", "addr:street": "Myśliborska", "amenity": "hospital", "healthcare": "hospital", "healthcare:speciality": "psychiatry;humanistic;child_psychiatry;neuropsychiatry", "name": "Szpital Psychiatryczny MindHealth", "phone": "+48 22 690 03 00", "website": "https://mindhealth.pl/szpital-psychiatryczny-warszawa"}}, {"name": "Warszawskie Centrum Opieki Medycznej „Kopernik”", "latitude": 52.3173928, "longitude": 21.0278341, "source": "osm", "_tags": {"addr:housenumber": "16", "addr:street": "Przykoszarowa", "amenity": "hospital", "check_date": "2025-01-19", "healthcare": "hospital", "name": "Warszawskie Centrum Opieki Medycznej „Kopernik”", "operator:type": "government", "website": "https://wsdz.pl/oddzialy-osrodki/oddzial-chirurgii-ul-przykoszarowa-16-22-83-05-352"}}, {"name": "Klinika i Szpital Medical Esthetic", "latitude": 52.1733135, "longitude": 21.0112751, "source": "osm", "_tags": {"addr:city": "Warszawa", "addr:housenumber": "17", "addr:postcode": "02-679", "addr:street": "Zygmunta Modzelewskiego", "amenity": "hospital", "check_date": "2025-04-02", "email": "warszawa@chirurgiaestetyczna.pl", "healthcare": "hospital", "healthcare:speciality": "otolaryngology;urology;plastic_surgery", "name": "Klinika i Szpital Medical Esthetic", "opening_hours": "Mo-Fr 07:00-19:00", "phone": "+48 22 690 01 50;+48 695 938 094", "website": "https://medical1.pl", "wheelchair": "yes"}}, {"name": "Uniwersyteckie Centrum Kliniczne WUM", "latitude": 52.2084105, "longitude": 20.9836493, "source": "osm", "_tags": {"addr:city": "Warszawa", "addr:housenumber": "1A", "addr:postcode": "02-097", "addr:street": "Stefana Banacha", "amenity": "hospital", "emergency": "yes", "healthcare": "hospital", "name": "Uniwersyteckie Centrum Kliniczne WUM", "official_name": "Uniwersyteckie Centrum Kliniczne Warszawskiego Uniwersytetu Medycznego", "website": "https://uckwum.pl/", "wheelchair": "yes"}}, {"name": "Samodzielny Publiczny Kliniczny Szpital Okulistyczny", "latitude": 52.2172281, "longitude": 21.0198008, "source": "osm", "_tags": {"addr:city": "Warszawa", "addr:city:simc": "0918123", "addr:housenumber": "24/26", "addr:postcode": "00-576", "addr:street": "Marszałkowska", "amenity": "hospital", "building": "hospital", "building:levels": "7", "check_date": "2023-05-06", "description": "Szpital prowadzi działalność usługową, dydaktyczną i naukowo-badawczą. W SPKSO w Warszawie prowadzone jest leczenie zachowawcze oraz wykonywane są zabiegi operacyjne w pełnym zakresie chirurgii okulistycznej.", "email": "kancelaria@spkso.waw.pl", "emergency": "no", "fax": "+48 22 511 63 16", "healthcare": "hospital", "healthcare:speciality": "ophthalmology", "historic": "yes", "name": "Samodzielny Publiczny Kliniczny Szpital Okulistyczny", "operator": "Katedra i Klinika Okulistyki Wydziału Lekarskiego Warszawskiego Uniwersytetu Medycznego", "operator:type": "university", "phone": "+48 22 511 63 17", "roof:levels": "1", "roof:shape": "flat", "source": "www.geoportal.gov.pl", "source:addr": "gugik.gov.pl", "wheelchair": "yes"}}, {"name": "Szpital Dziecięcy im. Profesora dr. med. Jana Bogdanowicza", "latitude": 52.2344009, "longitude": 21.0628707, "source": "osm", "_tags": {"amenity": "hospital", "barrier": "fence", "healthcare": "hospital", "name": "Szpital Dziecięcy im. Profesora dr. med. Jana Bogdanowicza", "website": "http://www.nieklanska.pl/"}}, {"name": "Instytut Gruźlicy i Chorób Płuc", "latitude": 52.2359941, "longitude": 20.9661819, "source": "osm", "_tags": {"amenity": "hospital", "name": "Instytut Gruźlicy i Chorób Płuc", "wikidata": "Q11713049", "wikipedia": "pl:Instytut Gruźlicy i Chorób Płuc"}}, {"name": "Wojewódzki Szpital Zakaźny", "latitude": 52.2337821, "longitude": 20.9717742, "source": "osm", "_tags": {"amenity": "hospital", "healthcare": "hospital", "name": "Wojewódzki Szpital Zakaźny", "name:de": "Woiwodschaftliches Infektionskrankenhaus", "name:en": "Voivodship Infectious Diseases Hospital", "official_name": "Samodzielny Publiczny Zakład Opieki Zdrowotnej Samodzielny Publiczny Zakład Opieki Zdrowotnej", "website": "https://zakazny.pl/"}}, {"name": "Centrum Zdrowia Dziecka", "latitude": 52.2060077, "longitude": 21.1924085, "source": "osm", "_tags": {"amenity": "hospital", "name": "Centrum Zdrowia Dziecka", "official_name": "Pomnik-Szpital Centrum Zdrowia Dziecka", "short_name": "CZD", "website": "https://www.czd.pl/", "wikidata": "Q5098163", "wikipedia": "pl:Instytut „Pomnik – Centrum Zdrowia Dziecka”"}}, {"name": "Medicover", "latitude": 52.155037, "longitude": 21.0779513, "source": "osm", "_tags": {"addr:housename": "Szpital Medicover", "addr:housenumber": "5", "addr:street": "Aleja Rzeczypospolitej", "alt_name": "Szpital Medicover", "amenity": "hospital", "check_date": "2023-09-10", "healthcare": "hospital", "name": "Medicover", "operator": "Medicover", "wikidata": "Q18590941", "wikipedia": "pl:Szpital Medicover"}}, {"name": "Instytut Geriatrii, Reumatologii i Rehabilitacji", "latitude": 52.1909904, "longitude": 20.9942099, "source": "osm", "_tags": {"amenity": "hospital", "healthcare": "hospital", "name": "Instytut Geriatrii, Reumatologii i Rehabilitacji"}}, {"name": "Państwowy Instytut Medyczny MSWiA", "latitude": 52.1989674, "longitude": 20.9972147, "source": "osm", "_tags": {"addr:city": "Warszawa", "addr:housenumber": "137", "addr:postcode": "02-507", "addr:street": "Wołoska", "amenity": "hospital", "contact:facebook": "PanstwowyInstytutMedycznyMSWiA", "contact:instagram": "pim_mswia", "contact:twitter": "pim_mswia", "contact:youtube": "PIMMSWiA", "healthcare": "hospital", "name": "Państwowy Instytut Medyczny MSWiA", "official_name": "Państwowy Instytut Medyczny Ministerstwa Spraw Wewnętrznych i Administracji", "old_name": "Centralny Szpital Kliniczny MSWiA", "phone": "+48 47 722 15 52", "ref:vatin": "PL5214004558", "short_name": "PIM MSWiA", "was:official_name": "Centralny Szpital Kliniczny Ministerstwa Spraw Wewnętrznych i Administracji", "was:short_name": "CSK MSWiA", "website": "https://www.gov.pl/web/pimmswia", "wheelchair": "yes"}}, {"name": "Narodowy Instytut Onkologii", "latitude": 52.1465865, "longitude": 21.0315273, "source": "osm", "_tags": {"addr:city": "Warszawa", "addr:housenumber": "5", "addr:postcode": "02-781", "addr:street": "Wilhelma Konrada Roentgena", "amenity": "hospital", "healthcare": "hospital", "healthcare:speciality": "oncology", "loc_name": "Centrum Onkologii", "name": "Narodowy Instytut Onkologii", "name:etymology:wikidata": "Q7186", "official_name": "Narodowy Instytut Onkologii im. Marii Skłodowskiej-Curie – Państwowy Instytut Badawczy", "old_name": "Centrum Onkologii imienia Marii Skłodowskiej-Curie", "website": "https://www.pib-nio.pl/", "wikidata": "Q1054401", "wikipedia": "pl:Narodowy Instytut Onkologii im. Marii Skłodowskiej-Curie – Państwowy Instytut Badawczy"}}, {"name": "Instytut Matki i Dziecka", "latitude": 52.2266619, "longitude": 20.9700012, "source": "osm", "_tags": {"addr:housenumber": "17A", "addr:postcode": "01-211", "addr:street": "Marcina Kasprzaka", "amenity": "hospital", "email": "instytut@imid.med.pl", "healthcare": "hospital", "name": "Instytut Matki i Dziecka", "name:en": "Institute of Mother and Child", "phone": "+48 22 327 73 05", "website": "https://imid.med.pl/", "wikidata": "Q11713115", "wikipedia": "pl:Instytut Matki i Dziecka"}}, {"name": "Szpital Wolski im. doktor Anny Gostyńskiej", "latitude": 52.2260496, "longitude": 20.9717152, "source": "osm", "_tags": {"addr:city": "Warszawa", "addr:housenumber": "17", "addr:postcode": "01-211", "addr:street": "Marcina Kasprzaka", "amenity": "hospital", "barrier": "fence", "contact:email": "kancelaria@wolski.med.pl", "contact:fax": "+48 22 632 38 93", "contact:phone": "+48 22 389 47 00", "contact:website": "https://www.wolski.med.pl/", "healthcare": "hospital", "name": "Szpital Wolski im. doktor Anny Gostyńskiej", "wikidata": "Q9352149", "wikipedia": "pl:Szpital Wolski"}}, {"name": "Luxmed", "latitude": 52.1382633, "longitude": 21.0188441, "source": "osm", "_tags": {"addr:city": "Warszawa", "addr:housenumber": "455", "addr:postcode": "02-801", "addr:street": "Puławska", "amenity": "hospital", "building": "yes", "check_date": "2024-04-27", "healthcare": "hospital", "name": "Luxmed", "opening_hours": "Mo-Fr 08:00-20:00", "phone": "+48 22 4312059", "website": "https://www.luxmed.pl/szpital", "wheelchair": "yes"}}, {"name": "Samodzielny Specjalistyczny Zespół Zakładów Opieki Zdrowotnej w Rudce", "latitude": 52.1538228, "longitude": 21.8271439, "source": "osm", "_tags": {"addr:city": "Rudka", "addr:housenumber": "1", "addr:postcode": "05-320", "addr:street": "Aleja Teodora Dunina", "amenity": "hospital", "building": "yes", "name": "Samodzielny Specjalistyczny Zespół Zakładów Opieki Zdrowotnej w Rudce", "source": "http://www.rudka.com.pl/"}}, {"name": "Szpital Praski", "latitude": 52.2508587, "longitude": 21.0287892, "source": "osm", "_tags": {"addr:city": "Warszawa", "addr:housenumber": "67", "addr:postcode": "03-401", "addr:street": "Aleja „Solidarności”", "amenity": "hospital", "email": "sekretariat@praski.waw.pl", "fax": "22 619 69 43", "healthcare": "hospital", "name": "Szpital Praski", "official_name": "Szpital Praski pw. Przemienienia Pańskiego", "phone": "22 818 50 61", "website": "https://szpitalpraski.pl/", "wheelchair": "limited", "wikidata": "Q9352133", "wikipedia": "pl:Szpital Praski pw. Przemienienia Pańskiego"}}, {"name": "Szpital Powiatowy w Otwocku", "latitude": 52.0975949, "longitude": 21.2622463, "source": "osm", "_tags": {"amenity": "hospital", "emergency": "yes", "healthcare": "hospital", "name": "Szpital Powiatowy w Otwocku", "operator": "Powiatowe Centrum Zdrowia Sp. z o.o.", "website": "https://pcz-otwock.pl/"}}, {"name": "Szpital Solec", "latitude": 52.2352661, "longitude": 21.0307203, "source": "osm", "_tags": {"amenity": "hospital", "healthcare": "hospital", "name": "Szpital Solec", "phone": "222 506 100", "website": "http://www.cmsolec.pl/"}}, {"name": "Samodzielny Szpital Kliniczny im. prof. Witolda Orłowskiego", "latitude": 52.2293515, "longitude": 21.0322786, "source": "osm", "_tags": {"amenity": "hospital", "email": "szpital@szpital-orlowskiego.pl", "healthcare": "hospital", "name": "Samodzielny Szpital Kliniczny im. prof. Witolda Orłowskiego", "phone": "22 628-30-11", "website": "https://szpital-orlowskiego.pl/"}}, {"name": "Oddział Rehabilitacji Neurologicznej Szpitala MSWiA", "latitude": 52.2445698, "longitude": 21.2308877, "source": "osm", "_tags": {"abandoned": "yes", "addr:city": "Warszawa", "addr:housenumber": "82", "addr:postcode": "05-075", "addr:street": "Juliana Ursyna Niemcewicza", "addr:suburb": "Wesoła", "barrier": "fence", "check_date": "2023-01-21", "disused:amenity": "hospital", "healthcare": "hospital", "name": "Oddział Rehabilitacji Neurologicznej Szpitala MSWiA"}}, {"name": "Narodowy Instytut Kardiologii", "latitude": 52.2178351, "longitude": 21.1747772, "source": "osm", "_tags": {"addr:city": "Warszawa", "addr:city:simc": "0918123", "addr:housenumber": "42", "addr:postcode": "04-628", "addr:street": "Alpejska", "amenity": "hospital", "barrier": "fence", "healthcare": "hospital", "name": "Narodowy Instytut Kardiologii", "source:addr": "mapa.um.warszawa.pl", "website": "https://www.ikard.pl/"}}, {"name": "Samodzielny Publiczny Zespół Zakładów Opieki Zdrowotnej - Szpital Miejski im. Lecha i Marii Kaczyńskich – Pary Prezydenckiej w Pionkach", "latitude": 51.4754878, "longitude": 21.4451655, "source": "osm", "_tags": {"amenity": "hospital", "email": "spzzoz@spzzozpionki.pl", "emergency": "yes", "name": "Samodzielny Publiczny Zespół Zakładów Opieki Zdrowotnej - Szpital Miejski im. Lecha i Marii Kaczyńskich – Pary Prezydenckiej w Pionkach", "operator": "Samodzielny Publiczny Zespół Zakładów Opieki Zdrowotnej", "phone": "48 612 13 81", "website": "https://spzzozpionki.pl"}}, {"name": "Samodzielny Publiczny Szpital Kliniczny im. Prof. Adama Grucy CMKP", "latitude": 52.1211185, "longitude": 21.2766833, "source": "osm", "_tags": {"addr:city": "Otwock", "addr:city:simc": "0921237", "addr:housenumber": "13", "addr:postcode": "05-400", "addr:street": "Księdza Stanisława Konarskiego", "amenity": "hospital", "barrier": "fence", "emergency": "no", "fence_type": "concrete", "healthcare": "hospital", "healthcare:speciality": "orthopaedics;emergency;physiatry;diagnostic_radiology", "name": "Samodzielny Publiczny Szpital Kliniczny im. Prof. Adama Grucy CMKP", "website": "https://www.spskgruca.pl/", "wheelchair": "yes"}}, {"name": "Wojskowy Instytut Medycyny Lotniczej", "latitude": 52.2619193, "longitude": 20.9643295, "source": "osm", "_tags": {"addr:city": "Warszawa", "addr:housenumber": "54/56", "addr:street": "Zygmunta Krasińskiego", "alt_name": "WIML", "amenity": "hospital", "check_date": "2024-05-16", "name": "Wojskowy Instytut Medycyny Lotniczej", "phone": "+48 26 185 26 01", "postal_code": "01-755", "website": "http://www.wiml.waw.pl/", "wikidata": "Q9377502", "wikipedia": "pl:Wojskowy Instytut Medycyny Lotniczej"}}, {"name": "Szpital Świętej Elżbiety", "latitude": 52.1952478, "longitude": 21.0212165, "source": "osm", "_tags": {"addr:housenumber": "1", "addr:street": "Seweryna Goszczyńskiego", "alt_name": "Luxmed Szpital św. Elżbiety", "amenity": "hospital", "check_date": "2025-09-07", "healthcare": "hospital", "name": "Szpital Świętej Elżbiety", "official_name": "Szpital świętej Elżbiety - Mokotowskie Centrum Medyczne", "operator": "Luxmed", "operator:type": "private", "website": "https://szpitalse.pl/"}}, {"name": "Szpital Świętej Rodziny", "latitude": 52.2040325, "longitude": 21.0174787, "source": "osm", "_tags": {"addr:city": "Warszawa", "addr:city:simc": "0918123", "addr:housenumber": "25", "addr:postcode": "02-544", "addr:street": "Antoniego Józefa Madalińskiego", "amenity": "hospital", "check_date": "2024-04-03", "healthcare": "hospital", "name": "Szpital Świętej Rodziny", "official_name": "Szpital Specjalistyczny im. Świętej Rodziny SPZOZ", "old_name": "Szpital Ginekologiczno-Położniczy im. Świętej Rodziny", "source:addr": "mapa.um.warszawa.pl", "website": "https://szpitalmadalinskiego.pl/", "wikidata": "Q99325664", "wikipedia": "pl:Szpital Specjalistyczny im. Świętej Rodziny w Warszawie"}}, {"name": "Stacja dializ BBraun", "latitude": 51.8721589, "longitude": 21.636584, "source": "osm", "_tags": {"addr:city": "Garwolin", "addr:housenumber": "2", "addr:postcode": "08-400", "addr:street": "Joachima Lelewela", "amenity": "clinic", "building": "yes", "healthcare": "hospital", "healthcare:speciality": "dialysis", "name": "Stacja dializ BBraun"}}, {"name": "", "latitude": 51.8869737, "longitude": 21.6264952, "source": "osm", "_tags": {"amenity": "clinic", "building": "yes", "healthcare": "hospital"}}, {"name": "Szpital Bielański", "latitude": 52.2865704, "longitude": 20.9503249, "source": "osm", "_tags": {"addr:city": "Warszawa", "addr:housenumber": "80", "addr:postcode": "01-809", "addr:street": "Cegłowska", "amenity": "hospital", "healthcare": "hospital", "name": "Szpital Bielański", "website": "https://www.bielanski.med.pl/", "wikidata": "Q9352112", "wikipedia": "pl:Szpital Bielański"}}, {"name": "Centralny Szpital Kliniczny MON", "latitude": 52.2522051, "longitude": 21.089392, "source": "osm", "_tags": {"addr:city": "Warszawa", "addr:housenumber": "128", "addr:postcode": "04-141", "addr:street": "Szaserów", "alt_name": "Wojskowy Instytut Medyczny", "amenity": "hospital", "contact:phone": "+48 22 810 80 89", "healthcare": "hospital", "name": "Centralny Szpital Kliniczny MON", "official_name": "Centralny Szpital Kliniczny Ministerstwa Obrony Narodowej", "website": "https://wim.mil.pl/", "wikidata": "Q9377501", "wikipedia": "pl:Wojskowy Instytut Medyczny"}}, {"name": "Instytut Psychiatrii i Neurologii", "latitude": 52.1723299, "longitude": 21.0638672, "source": "osm", "_tags": {"amenity": "hospital", "healthcare": "hospital", "name": "Instytut Psychiatrii i Neurologii", "wikidata": "Q11713180", "wikipedia": "pl:Instytut Psychiatrii i Neurologii"}}, {"name": "Szpital Kliniczny im. ks. Anny Mazowieckiej", "latitude": 52.2450535, "longitude": 21.0218834, "source": "osm", "_tags": {"alt_name": "Szpital Karowa", "amenity": "hospital", "healthcare": "hospital", "name": "Szpital Kliniczny im. ks. Anny Mazowieckiej", "phone": "+48225966135", "website": "https://www.szpitalkarowa.pl/", "wikidata": "Q9352121", "wikipedia": "pl:Szpital Kliniczny im. ks. Anny Mazowieckiej w Warszawie"}}, {"name": "Szpital Grochowski", "latitude": 52.2423469, "longitude": 21.078401, "source": "osm", "_tags": {"amenity": "hospital", "healthcare": "hospital", "name": "Szpital Grochowski", "toilets:wheelchair": "yes", "website": "http://grochowski.com.pl/", "wheelchair": "yes", "wikidata": "Q9352120", "wikipedia": "pl:Szpital Grochowski"}}, {"name": "Międzyleski Szpital Specjalistyczny", "latitude": 52.2038662, "longitude": 21.1839925, "source": "osm", "_tags": {"addr:city": "Warszawa", "addr:housenumber": "2", "addr:postcode": "04-749", "addr:street": "Bursztynowa", "amenity": "hospital", "healthcare": "hospital", "healthcare:speciality": "general", "name": "Międzyleski Szpital Specjalistyczny", "old_name": "Centralny Szpital Kolejowy", "phone": "022 815-67-39", "website": "http://www.mssw.pl"}}, {"name": "Szpital Powiatowy w Rykach", "latitude": 51.6214383, "longitude": 21.9299303, "source": "osm", "_tags": {"amenity": "hospital", "healthcare": "hospital", "name": "Szpital Powiatowy w Rykach", "name:uk": "Районна Лікарня в Риках"}}, {"name": "Szpital Matki Bożej Nieustającej Pomocy w Wołominie", "latitude": 52.3470643, "longitude": 21.22096, "source": "osm", "_tags": {"alt_name": "Szpital Powiatowy w Wołominie", "amenity": "hospital", "contact:phone": "+48 227633100", "healthcare": "hospital", "name": "Szpital Matki Bożej Nieustającej Pomocy w Wołominie"}}, {"name": "Mazowiecki Szpital Bródnowski", "latitude": 52.2909499, "longitude": 21.044339, "source": "osm", "_tags": {"addr:city": "Warszawa", "addr:housenumber": "8", "addr:postcode": "03-285", "addr:street": "Ludwika Kondratowicza", "alt_name": "Mazowiecki Szpital Wojewódzki w Warszawie", "amenity": "hospital", "email": "sekretariat@brodnowski.pl", "emergency": "yes", "fax": "22 326 5899", "healthcare": "hospital", "name": "Mazowiecki Szpital Bródnowski", "phone": "22 326 55 00", "website": "https://www.szpital-brodnowski.waw.pl/", "wikidata": "Q9377112", "wikipedia": "pl:Mazowiecki Szpital Bródnowski"}}, {"name": "", "latitude": 52.3022431, "longitude": 21.1099329, "source": "osm", "_tags": {"amenity": "hospital", "healthcare": "hospital"}}, {"name": "Wojewódzki Szpital Chirurgii Urazowej", "latitude": 52.2192879, "longitude": 20.97919, "source": "osm", "_tags": {"amenity": "hospital", "healthcare": "hospital", "landuse": "healthcare", "name": "Wojewódzki Szpital Chirurgii Urazowej"}}, {"name": "Mazowieckie Centrum Neuropsychiatrii", "latitude": 52.1991757, "longitude": 21.244241, "source": "osm", "_tags": {"amenity": "hospital", "healthcare": "hospital", "healthcare:speciality": "neurology;psychiatry", "name": "Mazowieckie Centrum Neuropsychiatrii", "website": "http://centrumzagorze.pl/"}}, {"name": "Szpital Świętej Anny w Piasecznie", "latitude": 52.0623785, "longitude": 21.0253259, "source": "osm", "_tags": {"amenity": "hospital", "email": "piaseczno@emc-sa.pl", "healthcare": "hospital", "name": "Szpital Świętej Anny w Piasecznie", "operator": "EMC Instytut Medyczny S.A.", "phone": "+48 22 735 41 00", "website": "https://www.emc-sa.pl/nasze-placowki/piaseczno-szpital-sw-anny"}}, {"name": "Szpital Czerniakowski", "latitude": 52.2052879, "longitude": 21.0370518, "source": "osm", "_tags": {"amenity": "hospital", "check_date": "2024-10-19", "emergency": "yes", "healthcare": "hospital", "name": "Szpital Czerniakowski", "operator:type": "public", "website": "https://www.szpitalczerniakowski.waw.pl/", "wikidata": "Q9352115", "wikipedia": "pl:Szpital Czerniakowski"}}, {"name": "Mazowieckie Centrum Neuropsychiatrii", "latitude": 52.1284187, "longitude": 21.2359492, "source": "osm", "_tags": {"addr:city": "Józefów", "addr:housenumber": "127D", "addr:postcode": "05-420", "addr:street": "3 Maja", "amenity": "hospital", "contact:email": "sekretariat@centrumzagorze.pl", "contact:fax": "+48 22 773 33 23", "contact:phone": "+48 22 468 24 00", "contact:website": "http://www.centrumzagorze.pl/", "emergency": "no", "healthcare": "hospital", "healthcare:speciality": "psychiatry", "name": "Mazowieckie Centrum Neuropsychiatrii"}}, {"name": "Mazowiecki Szpital Specjalistyczny Sp. z.o.o. w Radomiu", "latitude": 51.4374813, "longitude": 21.1581863, "source": "osm", "_tags": {"addr:city": "Radom", "addr:country": "PL", "addr:housenumber": "5", "addr:postcode": "26-617", "addr:street": "Juliana Aleksandrowicza", "alt_name": "Szpital Józefów", "amenity": "hospital", "email": "szpital@wss.com.pl", "healthcare": "hospital", "name": "Mazowiecki Szpital Specjalistyczny Sp. z.o.o. w Radomiu", "phone": "48 361 30 00", "website": "https://www.wss.com.pl"}}, {"name": "Warszawski Instytut Zdrowia Kobiet", "latitude": 52.255029, "longitude": 20.9911867, "source": "osm", "_tags": {"amenity": "hospital", "email": "sekretariat@wizk.pl", "healthcare": "hospital", "name": "Warszawski Instytut Zdrowia Kobiet", "official_name": "Warszawski Instytut Zdrowia Kobiet imienia Krysi Niżyńskiej \"Zakurzonej\"", "phone": "+48 22 697 31 10", "website": "http://www.wizk.pl/", "wikidata": "Q9352137", "wikipedia": "pl:Szpital Specjalistyczny „Inflancka” im. Krysi Niżyńskiej – „Zakurzonej”"}}, {"name": "Szpital Mazowiecki - Oddział I dzienny foniatryczno-logopedyczny", "latitude": 51.8856894, "longitude": 21.6264757, "source": "osm", "_tags": {"addr:city": "Garwolin", "addr:city:simc": "0975285", "addr:housenumber": "11", "addr:postcode": "08-400", "addr:street": "Aleja Legionów", "amenity": "hospital", "building": "hospital", "building:levels": "1", "healthcare": "hospital", "name": "Szpital Mazowiecki - Oddział I dzienny foniatryczno-logopedyczny"}}, {"name": "Mazowieckie Centrum Rehabilitacji \"Stocer\"", "latitude": 52.0816734, "longitude": 21.1122065, "source": "osm", "_tags": {"amenity": "hospital", "healthcare": "hospital", "healthcare:speciality": "Rehabilitation;orthopaedics", "name": "Mazowieckie Centrum Rehabilitacji \"Stocer\"", "phone": "+48 22 711 90 00", "start_date": "1949", "website": "https://www.stocer.pl/", "wikidata": "Q9346334", "wikipedia": "pl:Stołeczne Centrum Rehabilitacji (Stocer)"}}, {"name": "Szpital Południowy", "latitude": 52.1463392, "longitude": 21.0351223, "source": "osm", "_tags": {"addr:city": "Warszawa", "addr:housenumber": "99", "addr:postcode": "02-781", "addr:street": "Rotmistrza Witolda Pileckiego", "amenity": "hospital", "name": "Szpital Południowy", "wikidata": "Q107138328", "wikipedia": "pl:Szpital Południowy w Warszawie"}}, {"name": "Magodent Szpital Onkologiczny", "latitude": 52.2962991, "longitude": 21.0540939, "source": "osm", "_tags": {"amenity": "hospital", "healthcare": "hospital", "healthcare:speciality": "oncology", "name": "Magodent Szpital Onkologiczny"}}, {"name": "Mazowieckie Centrum Leczenia Chorób Płuc i Gruźlicy - Oddział I Chorób Płuc i Gruźlicy dla Dzieci", "latitude": 52.1218394, "longitude": 21.283977, "source": "osm", "_tags": {"amenity": "hospital", "healthcare": "hospital", "name": "Mazowieckie Centrum Leczenia Chorób Płuc i Gruźlicy - Oddział I Chorób Płuc i Gruźlicy dla Dzieci"}}, {"name": "Mazowieckie Centrum Leczenia Chorób Płuc i Gruźlicy", "latitude": 52.1123926, "longitude": 21.295618, "source": "osm", "_tags": {"addr:city": "Otwock", "addr:housenumber": "83/91", "addr:postcode": "05-400", "addr:street": "Władysława Stanisława Reymonta", "amenity": "hospital", "healthcare": "hospital", "name": "Mazowieckie Centrum Leczenia Chorób Płuc i Gruźlicy"}}, {"name": "Szpital Specjalistyczny MSWiA", "latitude": 52.1054061, "longitude": 21.2778048, "source": "osm", "_tags": {"amenity": "hospital", "barrier": "fence", "healthcare": "hospital", "name": "Szpital Specjalistyczny MSWiA", "official_name": "Samodzielny Publiczny Zakład Opieki Zdrowotnej Szpital Specjalistyczny\nMinisterstwa Spraw Wewnętrznych i Administracji w Otwocku", "website": "https://www.zozmswia.pl/"}}, {"name": "Mazowiecki Oddział Wojewódzki NFZ - Delegatura w Radomiu", "latitude": 51.4323779, "longitude": 21.1646444, "source": "osm", "_tags": {"amenity": "hospital", "healthcare": "hospital", "name": "Mazowiecki Oddział Wojewódzki NFZ - Delegatura w Radomiu"}}, {"name": "Szpital Wojskowego Instytutu Medycznego w Legionowie", "latitude": 52.4033387, "longitude": 20.9503335, "source": "osm", "_tags": {"amenity": "hospital", "name": "Szpital Wojskowego Instytutu Medycznego w Legionowie", "operator": "Wojskowy Instytut Medyczny", "short_name": "Szpital WIM w Legionowie", "website": "https://wim.mil.pl/index.php"}}, {"name": "Europejskie Centrum Zdrowia Otwock", "latitude": 52.1218273, "longitude": 21.298674, "source": "osm", "_tags": {"amenity": "hospital", "barrier": "fence", "healthcare": "hospital", "name": "Europejskie Centrum Zdrowia Otwock", "phone": "+48 22 710 33 33", "website": "https://ecz-otwock.pl/"}}, {"name": "Szpital Powiatowy w Kozienicach", "latitude": 51.5922353, "longitude": 21.5272369, "source": "osm", "_tags": {"amenity": "hospital", "email": "sekretariat@szpitalkozienice.pl", "name": "Szpital Powiatowy w Kozienicach", "official_name": "Samodzielny Publiczny Zespół Zakładów Opieki Zdrowotnej - Szpital Powiatowy w Kozienicach", "phone": "+48 48 679 59 32", "website": "https://www.szpitalkozienice.pl"}}, {"name": "Szpital Rehabilitacyjny", "latitude": 52.0699858, "longitude": 21.1218972, "source": "osm", "_tags": {"addr:city": "Konstancin-Jeziorna", "addr:city:simc": "0920634", "addr:housenumber": "1", "addr:postcode": "05-510", "addr:street": "Sue Ryder", "amenity": "hospital", "email": "izbaprzyjec@uzdrowisko-konstancin.pl", "emergency": "no", "name": "Szpital Rehabilitacyjny", "opening_hours": "24/7", "operator": "Uzdrowisko Konstancin-Zdrój S.A.", "phone": "+48 22 484 28 63", "source:addr": "gugik.gov.pl", "website": "https://uzdrowisko-konstancin.pl/szpital-sue-ryder/"}}, {"name": "Warszawski Szpital Dla Dzieci", "latitude": 52.237606, "longitude": 21.0191934, "source": "osm", "_tags": {"addr:city": "Warszawa", "addr:country": "PL", "addr:housenumber": "43", "addr:postcode": "00-328", "addr:street": "Mikołaja Kopernika", "alt_name": "Warszawskie Centrum Opieki Medycznej \"KOPERNIK\"", "amenity": "hospital", "check_date": "2023-06-02", "email": "dyrekcja@wsdz.pl", "healthcare": "hospital", "name": "Warszawski Szpital Dla Dzieci", "phone": "+48 22 83 05 300", "website": "https://wsdz.pl/", "wikidata": "Q9371216", "wikipedia": "pl:Warszawskie Centrum Opieki Medycznej „Kopernik”"}}, {"name": "Szpital Nowowiejski", "latitude": 52.2193726, "longitude": 21.0079106, "source": "osm", "_tags": {"amenity": "hospital", "contact:phone": "+48 22 8252031", "contact:website": "http://www.szpitalnowowiejski.pl/", "healthcare": "hospital", "healthcare:speciality": "psychiatry", "name": "Szpital Nowowiejski", "operator": "Samodzielny Wojewódzki Zespół Publicznych Zakładów Psychiatrycznej Opieki Zdrowotnej w Warszawie", "wheelchair": "yes"}}, {"name": "Szpital Świętej Zofii", "latitude": 52.240849, "longitude": 20.9869681, "source": "osm", "_tags": {"amenity": "hospital", "check_date": "2025-08-22", "healthcare": "hospital", "name": "Szpital Świętej Zofii", "official_name": "Szpital Specjalistyczny Świętej Zofii", "operator": "Centrum Medyczne \"Żelazna\"", "website": "https://www.szpitalzelazna.pl/", "wikidata": "Q9352142", "wikipedia": "pl:Szpital Specjalistyczny św. Zofii w Warszawie"}}, {"name": "Instytut Onkologii", "latitude": 52.2150394, "longitude": 20.9836327, "source": "osm", "_tags": {"addr:city": "Warszawa", "addr:housenumber": "15", "addr:postcode": "02-034", "addr:street": "Wawelska", "amenity": "hospital", "healthcare": "hospital", "healthcare:speciality": "oncology", "name": "Instytut Onkologii"}}, {"name": "6 Szpital Wojskowy z Przychodnią", "latitude": 51.5541044, "longitude": 21.8567606, "source": "osm", "_tags": {"amenity": "hospital", "barrier": "fence", "healthcare": "hospital", "name": "6 Szpital Wojskowy z Przychodnią", "name:uk": "6 Військовий Госпіталь і Диспансер", "phone": "+48 261 518 530", "website": "https://www.szpitaldeblin.pl/"}}, {"name": "Regionalne Centrum Krwiodawstwa i Krwiolecznictwa", "latitude": 51.8718755, "longitude": 21.6383433, "source": "osm", "_tags": {"amenity": "hospital", "healthcare": "blood_donation", "name": "Regionalne Centrum Krwiodawstwa i Krwiolecznictwa", "opening_hours": "Mo-Fr 07:00-12:00"}}, {"name": "Samodzielny Publiczny Zakład Opieki Zdrowotnej w Garwolinie", "latitude": 51.8700843, "longitude": 21.6368884, "source": "osm", "_tags": {"amenity": "hospital", "emergency": "no", "healthcare": "hospital", "name": "Samodzielny Publiczny Zakład Opieki Zdrowotnej w Garwolinie"}}, {"name": "Stacja dializ BBraun", "latitude": 51.8720357, "longitude": 21.6367349, "source": "osm", "_tags": {"amenity": "hospital", "healthcare": "hospital", "healthcare:speciality": "hemodialysis;dialysis", "name": "Stacja dializ BBraun"}}, {"name": "Centrum Medyczne im. Bitwy Warszawskiej 1920 roku", "latitude": 52.414746, "longitude": 21.1903464, "source": "osm", "_tags": {"addr:city": "Radzymin", "addr:housenumber": "17", "addr:postcode": "05-250", "addr:street": "Konstytucji 3 Maja", "amenity": "hospital", "emergency": "yes", "name": "Centrum Medyczne im. Bitwy Warszawskiej 1920 roku", "source:addr": "gugik.gov.pl"}}, {"name": "Mazowiecki Szpital Wojewódzki Drewnica", "latitude": 52.2990461, "longitude": 21.1118069, "source": "osm", "_tags": {"amenity": "hospital", "contact:email": "sekretariat@drewnica.pl", "contact:phone": "+48 227816844", "contact:website": "http://drewnica.pl", "healthcare": "hospital", "healthcare:speciality": "psychiatry", "name": "Mazowiecki Szpital Wojewódzki Drewnica"}}, {"name": "", "latitude": 51.9770465, "longitude": 21.6822927, "source": "osm", "_tags": {"amenity": "hospital", "healthcare": "hospital"}}, {"name": "Szpital Powiatowy w Mińsku Mazowieckim", "latitude": 52.1733398, "longitude": 21.5777975, "source": "osm", "_tags": {"amenity": "hospital", "email": "spzozmm@spzozmm.pl", "emergency": "yes", "fax": "+48 25 759 16 66", "healthcare": "hospital", "name": "Szpital Powiatowy w Mińsku Mazowieckim", "phone": "+48 25 758 30 01", "website": "https://www.spzozmm.pl/"}}]