[{"name": "", "latitude": 52.2267422, "longitude": 28.3174311, "source": "osm", "_tags": {"amenity": "hospital"}}, {"name": "бальніца", "latitude": 51.7958221, "longitude": 28.3301054, "source": "osm", "_tags": {"amenity": "hospital", "emergency": "yes", "healthcare": "hospital", "name": "бальніца", "name:be": "бальніца", "name:ru": "Больница"}}, {"name": "Петрыкаўская цэнтральная раённая бальніца", "latitude": 52.1325874, "longitude": 28.4854302, "source": "osm", "_tags": {"addr:housenumber": "5", "addr:postcode": "247940", "addr:street": "вуліца Луначарскага", "amenity": "hospital", "contact:email": "petrtmo@mail.gomel.by", "contact:phone": "+375 235 02 82 23; +375 235 02 82 30", "contact:website": "https://petrikovcrb.by", "healthcare": "hospital", "name": "Петрыкаўская цэнтральная раённая бальніца", "name:be": "Петрыкаўская цэнтральная раённая бальніца", "name:en": "Central regional hospital of Pyetrykaw", "name:ru": "Петриковская центральная районная больница", "short_name": "Петриковская ЦРБ"}}, {"name": "Скрыгаловская ўрачэбная амбулаторыя", "latitude": 52.0998252, "longitude": 28.8152433, "source": "osm", "_tags": {"addr:housenumber": "3", "addr:street": "Савецкая вуліца", "amenity": "hospital", "name": "Скрыгаловская ўрачэбная амбулаторыя", "name:be": "Скрыгаловская ўрачэбная амбулаторыя", "name:ru": "Скрыгаловская врачебная амбулатория"}}, {"name": "бальніца сястрынскага догляду", "latitude": 51.629993, "longitude": 28.8267499, "source": "osm", "_tags": {"amenity": "hospital", "building": "yes", "building:levels": "1", "name": "бальніца сястрынскага догляду", "name:be": "бальніца сястрынскага догляду", "name:ru": "Больница сестринского ухода"}}, {"name": "ФАП", "latitude": 51.6681941, "longitude": 28.414825, "source": "osm", "_tags": {"addr:street": "Школьная вуліца", "amenity": "hospital", "building": "house", "name": "ФАП", "name:be": "ФАП", "name:ru": "ФАП"}}, {"name": "", "latitude": 52.3108943, "longitude": 28.7961956, "source": "osm", "_tags": {"amenity": "hospital"}}]