[{"name": "Старовижівська центральна районна лікарня", "latitude": 51.4392024, "longitude": 24.4351801, "source": "osm", "_tags": {"amenity": "hospital", "emergency": "yes", "name": "Старовижівська центральна районна лікарня", "name:en": "Central District Hospital", "name:uk": "Старовижівська центральна районна лікарня", "phone": "+380 3346 21 636"}}, {"name": "псіханеўралагічны дыспансер", "latitude": 52.2319072, "longitude": 24.3181019, "source": "osm", "_tags": {"addr:city": "Кобрын", "addr:country": "BY", "addr:district": "Кобрынскі раён", "addr:housenumber": "142", "addr:postcode": "225830", "addr:region": "Брэсцкая вобласць", "addr:street": "Паўночная вуліца", "amenity": "hospital", "int_name": "psichanieŭrałahičny dyspansier", "name": "псіханеўралагічны дыспансер", "name:be": "псіханеўралагічны дыспансер", "name:ru": "психоневрологический диспансер"}}, {"name": "Бальніца сястрынскага догляду", "latitude": 51.6843439, "longitude": 23.9619216, "source": "osm", "_tags": {"amenity": "hospital", "name": "Бальніца сястрынскага догляду", "name:be": "Бальніца сястрынскага догляду", "name:ru": "Больница сестринского ухода", "official_name": "Олтушская бальніца сястрынскага догляду", "official_name:be": "Олтушская бальніца сястрынскага догляду", "official_name:ru": "Олтушская больница сестринского ухода", "phone": "+375 1651 67985"}}, {"name": "Бальніца сястрынскага догляду", "latitude": 51.9277155, "longitude": 24.0721402, "source": "osm", "_tags": {"amenity": "hospital", "name": "Бальніца сястрынскага догляду", "name:be": "Бальніца сястрынскага догляду", "name:ru": "Больница сестринского ухода", "official_name": "Велікарыцкая бальніца сястрынскага догляду", "official_name:be": "Велікарыцкая бальніца сястрынскага догляду", "official_name:ru": "Великоритская больница сестринского ухода", "phone": "+375 1651 6-99-31"}}, {"name": "Жабинковская центральная районная больница", "latitude": 52.1888993, "longitude": 24.0302377, "source": "osm", "_tags": {"addr:city": "Жабінка", "addr:housenumber": "126", "addr:postcode": "225101", "addr:street": "вуліца Кірава", "amenity": "hospital", "healthcare": "hospital", "name": "Жабинковская центральная районная больница", "name:be": "Жабінкаўская цэнтральная раённая бальніца", "name:de": "Schabinkovskaya Central District Hospital", "name:en": "Zhabinkovskaya Central District Hospital", "name:kk": "Жабинков аудандық орталық ауруханасы", "name:lt": "Žabinkovo centrinė rajono ligoninė", "name:pl": "Żabinkowski Centralny Szpital Rejonowy", "name:ru": "Жабинковская центральная районная больница", "name:uk": "Жабинківська центральна районна лікарня", "phone": "8 01641 35-803", "website": "httpa://zhabinka-crb.by/"}}, {"name": "", "latitude": 52.2085049, "longitude": 24.7681205, "source": "osm", "_tags": {"amenity": "hospital", "emergency": "yes"}}, {"name": "Сігневіцкая ўчастковая бальніца", "latitude": 52.422972, "longitude": 24.8940821, "source": "osm", "_tags": {"amenity": "hospital", "description": "С 01.10.2016г. Сигневичская участковая больница переведена в больницу сестринского ухода на 20 коек с 5 койками терапевтического профиля", "name": "Сігневіцкая ўчастковая бальніца", "name:be": "Сігневіцкая ўчастковая бальніца", "name:ru": "Сигневичская участковая больница", "operator": "Берёзовская ЦРБ имени Э.Э.Вержбицкого", "start_date": "1989", "website": "http://www.crbbrz.by/signevichi/"}}, {"name": "Тэвельская бальніца сястрынскага догляду з амбулаторыяй", "latitude": 52.3395296, "longitude": 24.2536913, "source": "osm", "_tags": {"amenity": "hospital", "name": "Тэвельская бальніца сястрынскага догляду з амбулаторыяй", "name:be": "Тэвельская бальніца сястрынскага догляду з амбулаторыяй", "name:ru": "Тевельская участковая больница с амбулаторией", "phone": "+375 1642 61211"}}, {"name": "Заболотівська лікарня", "latitude": 51.6241617, "longitude": 24.2408825, "source": "osm", "_tags": {"amenity": "hospital", "healthcare": "hospital", "name": "Заболотівська лікарня", "name:uk": "Заболотівська лікарня"}}, {"name": "", "latitude": 51.7869566, "longitude": 24.0658936, "source": "osm", "_tags": {"amenity": "hospital", "healthcare": "hospital"}}, {"name": "", "latitude": 52.2115366, "longitude": 24.3476757, "source": "osm", "_tags": {"amenity": "hospital", "healthcare": "hospital"}}, {"name": "", "latitude": 52.2314639, "longitude": 24.3171263, "source": "osm", "_tags": {"amenity": "hospital", "healthcare": "hospital"}}, {"name": "Ратнівська центральна районна лікарня", "latitude": 51.6778221, "longitude": 24.5474575, "source": "osm", "_tags": {"addr:housenumber": "64", "addr:postcode": "44101", "addr:street": "вулиця Європейська", "amenity": "hospital", "healthcare": "hospital", "healthcare:speciality": "general;paediatrics;ophthalmology;surgery", "name": "Ратнівська центральна районна лікарня", "name:uk": "Ратнівська центральна районна лікарня"}}, {"name": "УАЗ \"Кобрынская ЦРБ\"", "latitude": 52.2128268, "longitude": 24.3222921, "source": "osm", "_tags": {"amenity": "hospital", "healthcare": "hospital", "name": "УАЗ \"Кобрынская ЦРБ\"", "name:be": "УАЗ \"Кобрынская ЦРБ\"", "name:ru": "УЗ \"Кобринская ЦРБ\""}}, {"name": "", "latitude": 52.2095844, "longitude": 24.3384564, "source": "osm", "_tags": {"amenity": "hospital", "area": "yes", "healthcare": "hospital"}}, {"name": "Дзiвiнская ўчастковая бальніца", "latitude": 51.9565908, "longitude": 24.5908557, "source": "osm", "_tags": {"amenity": "hospital", "name": "Дзiвiнская ўчастковая бальніца", "name:be": "Дзiвiнская ўчастковая бальніца", "name:ru": "Дивинская участковая больница", "phone": "+375 164 266338"}}]