[{"name": "Ambulante Psychosomatik & Familienclearing GmbH", "latitude": 52.375472, "longitude": 12.9299001, "source": "osm", "_tags": {"addr:city": "Werder (Havel)", "addr:housenumber": "12", "addr:postcode": "14542", "addr:street": "Brandenburger Straße", "amenity": "hospital", "healthcare": "physiotherapist", "healthcare:speciality": "child_psychiatry", "name": "Ambulante Psychosomatik & Familienclearing GmbH", "operator": "APF", "operator:type": "business"}}, {"name": "BG Klinikum Bergmannstrost Halle", "latitude": 51.4602457, "longitude": 11.9865819, "source": "osm", "_tags": {"addr:city": "Halle (Saale)", "addr:country": "DE", "addr:housenumber": "165", "addr:postcode": "06112", "addr:street": "Merseburger Straße", "amenity": "hospital", "contact:phone": "+49 345 13260", "contact:website": "http://www.bergmannstrost.de", "emergency": "yes", "healthcare": "hospital", "name": "BG Klinikum Bergmannstrost Halle", "operator": "BG Klinikum Bergmannstrost Halle gGmbH", "toilets:wheelchair": "yes", "wheelchair": "yes", "wikidata": "Q485139", "wikipedia": "de:BG Klinikum Bergmannstrost Halle"}}, {"name": "Neurologische Rehabilitationsklinik Beelitz-Heilstätten", "latitude": 52.2672447, "longitude": 12.9247149, "source": "osm", "_tags": {"addr:city": "Beelitz", "addr:country": "DE", "addr:housename": "C5", "addr:postcode": "14547", "addr:street": "Paracelsusring", "amenity": "hospital", "building": "yes", "healthcare": "rehabilitation", "historic": "yes", "name": "Neurologische Rehabilitationsklinik Beelitz-Heilstätten", "old_name": "Männer-Lungenheilstätte (B5)", "ref": "B5", "toilets:wheelchair": "yes", "wheelchair": "yes"}}, {"name": "Universitätsklinikum Halle (Saale)", "latitude": 51.5017665, "longitude": 11.936832, "source": "osm", "_tags": {"addr:city": "Halle (Saale)", "addr:country": "DE", "addr:housenumber": "40", "addr:postcode": "06120", "addr:street": "Ernst-Grube-Straße", "amenity": "hospital", "contact:phone": "+49 345 5570", "contact:website": "http://www.medizin.uni-halle.de/index.php?id=398", "emergency": "yes", "healthcare": "hospital", "name": "Universitätsklinikum Halle (Saale)", "operator": "Medizinische Fakultät der Martin-Luther-Universität Halle-Wittenberg", "wheelchair": "yes", "wikidata": "Q1263366"}}, {"name": "Goitzsche Klinikum", "latitude": 51.6338047, "longitude": 12.3338957, "source": "osm", "_tags": {"addr:city": "Bitterfeld-Wolfen", "addr:country": "DE", "addr:housenumber": "2", "addr:postcode": "06749", "addr:street": "Friedrich-Ludwig-Jahn-Straße", "addr:suburb": "Bitterfeld", "amenity": "hospital", "contact:phone": "+49 3493 310", "contact:website": "https://www.gzbiwo.de/", "emergency": "yes", "healthcare": "hospital", "healthcare:speciality": "general", "name": "Goitzsche Klinikum", "official_name": "Gesundheitszentrum Bitterfeld/Wolfen", "operator": "Gesundheitszentrum Bitterfeld/Wolfen gGmbH", "toilets:wheelchair": "yes", "wheelchair": "yes"}}, {"name": "Neurologisches Fachkrankenhaus für Bewegungsstörungen / Parkinson", "latitude": 52.2554258, "longitude": 12.9294417, "source": "osm", "_tags": {"alt_name": "Eiermannbau", "amenity": "hospital", "healthcare": "hospital", "name": "Neurologisches Fachkrankenhaus für Bewegungsstörungen / Parkinson", "old_name": "Krankenhaus Beelitz-Heilstätten", "wheelchair": "limited"}}, {"name": "Diakoniekrankenhaus Halle", "latitude": 51.494253, "longitude": 11.958975, "source": "osm", "_tags": {"addr:city": "Halle (Saale)", "addr:country": "DE", "addr:housenumber": "7", "addr:postcode": "06114", "addr:street": "Mühlweg", "amenity": "hospital", "check_date": "2025-07-15", "contact:website": "http://www.diakoniekrankenhaus-halle.de/kliniken/", "emergency": "yes", "healthcare": "hospital", "name": "Diakoniekrankenhaus Halle", "operator": "Diakoniewerk Halle", "operator:type": "religious", "toilets:wheelchair": "yes", "wheelchair": "yes"}}, {"name": "Städtisches Klinikum Dessau - Standort Gropiusallee", "latitude": 51.8373598, "longitude": 12.2265922, "source": "osm", "_tags": {"addr:city": "Dessau-Roßlau", "addr:country": "DE", "addr:housenumber": "7", "addr:postcode": "06846", "addr:street": "Gropiusallee", "amenity": "hospital", "contact:phone": "+49 340 65020", "contact:website": "https://klinikum-dessau.de", "emergency": "yes", "healthcare": "hospital", "name": "Städtisches Klinikum Dessau - Standort Gropiusallee", "operator": "Städtisches Klinikum Dessau", "wikidata": "Q28009241", "wikipedia": "de:Städtisches Klinikum Dessau"}}, {"name": "Asklepios Fachklinikum Brandenburg", "latitude": 52.4230806, "longitude": 12.4800832, "source": "osm", "_tags": {"addr:city": "Brandenburg an der Havel", "addr:country": "DE", "addr:housenumber": "2", "addr:postcode": "14772", "addr:street": "Anton-Saefkow-Allee", "amenity": "hospital", "healthcare": "hospital", "name": "Asklepios Fachklinikum Brandenburg", "operator": "Asklepios Kliniken", "operator:type": "private", "operator:wikidata": "Q732068", "operator:wikipedia": "de:Asklepios Kliniken", "phone": "+49 3381 780", "toilets:wheelchair": "yes", "website": "https://www.asklepios.com/brandenburg/", "wheelchair": "yes", "wikidata": "Q35191086", "wikipedia": "de:Asklepios Fachklinikum Brandenburg"}}, {"name": "Universitätsklinikum Brandenburg an der Havel", "latitude": 52.413799, "longitude": 12.5460727, "source": "osm", "_tags": {"addr:city": "Brandenburg an der Havel", "addr:housenumber": "29", "addr:postcode": "14770", "addr:street": "Hochstraße", "amenity": "hospital", "contact:phone": "+49 3381 4110", "contact:website": "https://www.klinikum-brandenburg.de/", "emergency": "yes", "healthcare": "hospital", "name": "Universitätsklinikum Brandenburg an der Havel", "old_name": "Städtisches Klinikum Brandenburg", "operator": "Städtisches Klinikum Brandenburg GmbH", "toilets:wheelchair": "yes", "wheelchair": "yes", "wikidata": "Q18631346", "wikipedia": "de:Universitätsklinikum Brandenburg an der Havel"}}, {"name": "Kreiskrankenhaus Delitzsch", "latitude": 51.527194, "longitude": 12.3375394, "source": "osm", "_tags": {"addr:city": "Delitzsch", "addr:housenumber": "3 - 9", "addr:postcode": "04509", "addr:street": "Dübener Straße", "amenity": "hospital", "contact:fax": "+49 34202 767902", "contact:phone": "+49 34202 7670", "email": "verwaltung@kkh-delitzsch-gmbh.de", "emergency": "yes", "healthcare": "hospital", "name": "Kreiskrankenhaus Delitzsch", "operator": "Kreiskrankenhaus Delitzsch GmbH", "operator:type": "private", "website": "https://www.kliniken-delitzsch-eilenburg.de/standort-delitzsch", "wheelchair": "yes", "wikidata": "Q113377982", "wikipedia": "de:Kreiskrankenhaus Delitzsch"}}, {"name": "Evangelische Kliniken Luise-Henrietten-Stift Lehnin", "latitude": 52.3223523, "longitude": 12.744652, "source": "osm", "_tags": {"addr:city": "Kloster Lehnin", "addr:country": "DE", "addr:housenumber": "8a", "addr:postcode": "14797", "addr:street": "Klosterkirchplatz", "addr:suburb": "Lehnin", "amenity": "hospital", "building": "hospital", "building:levels": "3", "fax": "+49 3382 786288", "name": "Evangelische Kliniken Luise-Henrietten-Stift Lehnin", "operator": "Evangelisches Hospiz Potsdam gemeinnützige GmbH", "phone": "+49 3382 786138", "roof:levels": "1", "roof:shape": "flat", "website": "https://www.diakonissenhaus.de/menu/krankenhaeuser/kliniken-lehnin/", "wheelchair": "yes"}}, {"name": "St. Marienkrankenhaus Brandenburg", "latitude": 52.415091, "longitude": 12.5518954, "source": "osm", "_tags": {"addr:city": "Brandenburg an der Havel", "addr:housenumber": "1-3", "addr:postcode": "14770", "addr:street": "Bergstraße", "amenity": "hospital", "contact:email": "info@marien-krankenhaus-brandenburg.de", "contact:website": "https://caritas-klinik-marien.de/", "healthcare": "hospital", "name": "St. Marienkrankenhaus Brandenburg", "phone": "+49 3381 3660", "toilets:wheelchair": "yes", "wheelchair": "yes"}}, {"name": "Klinik Köthen", "latitude": 51.7467963, "longitude": 11.9727939, "source": "osm", "_tags": {"addr:city": "Köthen", "addr:country": "DE", "addr:housenumber": "29", "addr:postcode": "06366", "addr:street": "Hallesche Straße", "amenity": "hospital", "contact:phone": "+49 3496 520", "contact:website": "https://www.helios-gesundheit.de/kliniken/koethen/", "emergency": "yes", "healthcare": "hospital", "name": "Klinik Köthen", "operator": "Helios Kliniken", "operator:wikidata": "Q1254151", "operator:wikipedia": "de:Helios Kliniken", "wheelchair": "yes"}}, {"name": "REHA-Klinik \"Hoher Fläming\"", "latitude": 52.1651292, "longitude": 12.5867128, "source": "osm", "_tags": {"addr:city": "Bad Belzig", "addr:country": "DE", "addr:housenumber": "3", "addr:postcode": "14806", "addr:street": "Hermann-Lielje-Straße", "amenity": "hospital", "check_date": "2025-08-06", "contact:fax": "+49-33841-54-799", "contact:phone": "+49-33841-54-0", "name": "REHA-Klinik \"Hoher Fläming\"", "website": "http://www.rehaklinikum-oberlinhaus.de/startseite/", "wheelchair": "yes"}}, {"name": "Ev. Krankenhaus Paul Gerhardt Stift", "latitude": 51.8702739, "longitude": 12.6558726, "source": "osm", "_tags": {"addr:city": "Wittenberg", "addr:country": "DE", "addr:housenumber": "42-45", "addr:postcode": "06886", "addr:street": "Paul-Gerhardt-Straße", "amenity": "hospital", "emergency": "yes", "healthcare": "hospital", "name": "Ev. Krankenhaus Paul Gerhardt Stift", "operator": "Paul Gerhardt Diakonie Krankenhaus und Pflege GmbH", "phone": "+49 3491 500", "website": "https://www.pgdiakonie.de/evangelisches-krankenhaus-paul-gerhardt-stift/", "wheelchair": "yes"}}, {"name": "Maßregelvollzug Uchtspringe Außenstelle Lochow", "latitude": 52.1562875, "longitude": 11.9927213, "source": "osm", "_tags": {"addr:city": "Möckern", "addr:country": "DE", "addr:housenumber": "3", "addr:postcode": "39291", "addr:street": "Lochow", "amenity": "hospital", "barrier": "fence", "contact:phone": "+49 39221 6470", "contact:website": "https://www.salus-lsa.de/kliniken-einrichtungen-leistungen/forensische-psychiatrie-und-massregelvollzug/massregelvollzug-uchtspringe", "emergency": "no", "healthcare": "hospital", "healthcare:speciality": "forensic_psychiatry", "name": "Maßregelvollzug Uchtspringe Außenstelle Lochow", "note": "Außenstelle Lochow", "operator": "Salus gGmbH"}}, {"name": "Psychiatrische Tagesklinik Dessau", "latitude": 51.8389319, "longitude": 12.2462386, "source": "osm", "_tags": {"addr:city": "Dessau-Roßlau", "addr:country": "DE", "addr:housenumber": "66", "addr:postcode": "06844", "addr:street": "Teichstraße", "amenity": "clinic", "building": "civic", "healthcare": "hospital", "healthcare:speciality": "psychiatry", "name": "Psychiatrische Tagesklinik Dessau", "opening_hours": "Mo-Fr 08:00-15:00; Sa,Su,PH off", "operator": "Alexianer Sachsen-Anhalt GmbH"}}, {"name": "Krankenhaus St. Barbara", "latitude": 51.4588251, "longitude": 11.9785785, "source": "osm", "_tags": {"addr:city": "Halle (Saale)", "addr:country": "DE", "addr:housenumber": "4", "addr:postcode": "06110", "addr:street": "Barbarastraße", "amenity": "hospital", "healthcare": "hospital", "name": "Krankenhaus St. Barbara", "operator": "Krankenhaus St. Elisabeth und St. Barbara Halle (Saale) GmbH", "phone": "+49 345 21330", "website": "https://www.krankenhaus-halle-saale.de/", "wheelchair": "yes"}}, {"name": "Fachkrankenhaus für neurologische Frührehabilitation Beelitz-Heilstätten", "latitude": 52.2662587, "longitude": 12.9265207, "source": "osm", "_tags": {"addr:city": "Beelitz", "addr:country": "DE", "addr:housenumber": "8", "addr:postcode": "14547", "addr:street": "Paracelsusring", "addr:suburb": "Beelitz-Heilstätten", "amenity": "hospital", "building": "yes", "healthcare": "hospital", "name": "Fachkrankenhaus für neurologische Frührehabilitation Beelitz-Heilstätten"}}, {"name": "Krankenhaus St. Elisabeth und St. Barbara", "latitude": 51.4775469, "longitude": 11.9681942, "source": "osm", "_tags": {"addr:city": "Halle (Saale)", "addr:housenumber": "5", "addr:postcode": "06110", "addr:street": "Mauerstraße", "amenity": "hospital", "contact:city": "Halle (Saale)", "contact:housenumber": "5", "contact:postcode": "06110", "contact:street": "Mauerstraße", "email": "info@krankenhaus-halle-saale.de", "emergency": "yes", "fax": "+49 345 2134005", "healthcare": "hospital", "name": "Krankenhaus St. Elisabeth und St. Barbara", "operator": "Krankenhaus St. Elisabeth und St. Barbara Halle (Saale) GmbH", "operator:type": "public", "phone": "+49 345 21330", "toilets:wheelchair": "yes", "website": "https://www.krankenhaus-halle-saale.de/", "wheelchair": "yes"}}, {"name": "Klinik Eilenburg", "latitude": 51.4603958, "longitude": 12.6210669, "source": "osm", "_tags": {"addr:city": "Eilenburg", "addr:country": "DE", "addr:housenumber": "5-8", "addr:postcode": "04838", "addr:street": "Wilhelm-Grune-Straße", "amenity": "hospital", "contact:facebook": "https://www.facebook.com/Kreiskrankenhaus-Delitzsch-GmbH-Klinik-Delitzsch-Klinik-Eilenburg-239933522741422/", "contact:fax": "+49 3423 667909", "contact:instagram": "https://www.instagram.com/kliniken_delitzsch_eilenburg/", "contact:linkedin": "https://de.linkedin.com/company/kliniken-delitzsch-eilenburg", "contact:phone": "+49 3423 6670", "email": "verwaltung@kkh-delitzsch-gmbh.de", "emergency": "yes", "healthcare": "hospital", "name": "Klinik Eilenburg", "operator": "Kreiskrankenhaus Delitzsch GmbH", "website": "https://www.kliniken-delitzsch-eilenburg.de/standort-eilenburg", "wheelchair": "yes", "wikidata": "Q113541976", "wikipedia": "de:Krankenhaus Eilenburg"}}, {"name": "Johanniter Krankenhaus Treuenbrietzen", "latitude": 52.0817824, "longitude": 12.8767226, "source": "osm", "_tags": {"addr:housenumber": "20/28", "addr:street": "Johanniterstraße", "amenity": "hospital", "fax": "+49 33748 82773", "healthcare": "hospital", "name": "Johanniter Krankenhaus Treuenbrietzen", "phone": "+49 33748 82368", "toilets:wheelchair": "yes", "wheelchair": "yes", "wikidata": "Q117728997"}}, {"name": "Haus 2", "latitude": 51.8173679, "longitude": 12.1973842, "source": "osm", "_tags": {"building": "hospital", "building:levels": "2", "healthcare": "hospital", "healthcare:speciality": "psychiatry", "height": "15", "name": "Haus 2", "roof:height": "3", "roof:material": "roof_tiles", "roof:shape": "gabled"}}, {"name": "Haus 1", "latitude": 51.8180924, "longitude": 12.1972561, "source": "osm", "_tags": {"addr:city": "Dessau-Roßlau", "addr:housenumber": "36", "addr:postcode": "06847", "addr:street": "Auenweg", "building": "hospital", "healthcare": "hospital", "healthcare:speciality": "psychiatry", "name": "Haus 1"}}, {"name": "Helios Klinik Zerbst/Anhalt", "latitude": 51.960414, "longitude": 12.0945424, "source": "osm", "_tags": {"addr:housenumber": "53", "addr:postcode": "39261", "addr:street": "Friedrich-Naumann-Straße", "amenity": "hospital", "healthcare": "hospital", "name": "Helios Klinik Zerbst/Anhalt", "operator": "Helios Kliniken", "operator:wikidata": "Q1254151", "toilets:wheelchair": "yes", "website": "https://www.helios-gesundheit.de/kliniken/zerbst/", "wheelchair": "yes"}}, {"name": "Städtisches Klinikum Dessau - Standort Auenweg", "latitude": 51.81597, "longitude": 12.1973961, "source": "osm", "_tags": {"addr:city": "Dessau-Roßlau", "addr:housenumber": "38", "addr:postcode": "06847", "addr:street": "Auenweg", "amenity": "hospital", "emergency": "yes", "healthcare": "hospital", "name": "Städtisches Klinikum Dessau - Standort Auenweg", "operator": "Städtisches Klinikum Dessau", "operator:type": "public"}}, {"name": "Waldkrankenhaus Bad Düben", "latitude": 51.5984605, "longitude": 12.5822418, "source": "osm", "_tags": {"addr:city": "Bad Düben", "addr:housenumber": "15a", "addr:postcode": "04849", "addr:street": "Gustav-Adolf-Straße", "amenity": "hospital", "contact:phone": "+49 34243 760", "contact:website": "http://www.waldkrankenhaus-bad-dueben.de/", "healthcare": "hospital", "name": "Waldkrankenhaus Bad Düben", "operator": "Mediclin", "operator:wikidata": "Q1916295", "wheelchair": "yes", "wikidata": "Q23787903"}}, {"name": "Klinik Ernst von Bergmann Bad Belzig", "latitude": 52.1406209, "longitude": 12.5990698, "source": "osm", "_tags": {"amenity": "hospital", "check_date": "2024-07-24", "contact:email": "info@klinikevb.de", "contact:fax": "+49 33841 93-386", "contact:phone": "+49 33841 93-0", "contact:website": "https://www.klinikevb-badbelzig.de", "emergency": "yes", "healthcare": "hospital", "name": "Klinik Ernst von Bergmann Bad Belzig", "opening_hours": "24/7", "operator": "Klinik Ernst von Bergmann Bad Belzig gGmbH", "wheelchair": "yes"}}, {"name": "St. Joseph-Krankenhaus Dessau", "latitude": 51.817703, "longitude": 12.1969078, "source": "osm", "_tags": {"addr:city": "Dessau-Roßlau", "addr:housenumber": "36", "addr:postcode": "06847", "addr:street": "Auenweg", "amenity": "hospital", "emergency": "yes", "healthcare": "hospital", "healthcare:speciality": "psychiatry", "name": "St. Joseph-Krankenhaus Dessau", "operator": "Alexianer Sachsen-​Anhalt GmbH", "operator:type": "religious"}}, {"name": "Haus 1", "latitude": 51.8155512, "longitude": 12.1973244, "source": "osm", "_tags": {"addr:city": "Dessau-Roßlau", "addr:housenumber": "38", "addr:postcode": "06847", "addr:street": "Auenweg", "building": "hospital", "contact:phone": "+49 340 5010", "description": "Helicopter landing pad available", "electricity": "grid", "emergency": "yes", "health_amenity:type": "emergency_department;imaging_equipment;intensive_care_unit;operating_theater;ultrasound;x_ray", "healthcare": "hospital", "healthcare:speciality": "emergency", "name": "Haus 1", "operational_status": "operational", "operator": "Städtisches Klinikum Dessau", "type": "multipolygon", "url": "http://www.klinikum-dessau.de/", "wheelchair": "yes", "wikidata": "Q28737984"}}]