[{"name": "The Manor", "latitude": 52.1381807, "longitude": -0.5139421, "source": "osm", "_tags": {"addr:city": "Biddenham", "addr:country": "GB", "addr:housename": "Manor House", "addr:housenumber": "6", "addr:postcode": "MK40 4AW", "addr:street": "Church End", "amenity": "hospital", "fhrs:authority": "Bedford", "fhrs:id": "102392", "fhrs:local_authority_id": "33947", "healthcare": "hospital", "name": "The Manor", "operator": "BMI"}}, {"name": "Priory Hospital", "latitude": 51.6320636, "longitude": -0.1183042, "source": "osm", "_tags": {"addr:city": "London", "addr:housename": "Grovelands House", "addr:postcode": "N14 6RA", "addr:street": "The Bourne", "amenity": "hospital", "healthcare": "hospital", "name": "Priory Hospital"}}, {"name": "Bridge Lane Health Centre", "latitude": 51.4732684, "longitude": -0.1663173, "source": "osm", "_tags": {"amenity": "hospital", "healthcare": "hospital", "name": "Bridge Lane Health Centre", "phone": "+44 20 3538 0882", "public": "yes", "website": "https://bridgelanegp.co.uk/"}}, {"name": "British Home & Hospital for Incurables", "latitude": 51.423089, "longitude": -0.1070682, "source": "osm", "_tags": {"addr:city": "London", "addr:country": "GB", "addr:postcode": "SW16 3JB", "addr:street": "Crown Lane", "amenity": "hospital", "healthcare": "hospital", "name": "British Home & Hospital for Incurables"}}, {"name": "MS (Multiple Scelerosis) Therapy Centre", "latitude": 52.335637, "longitude": -0.1686893, "source": "osm", "_tags": {"amenity": "hospital", "healthcare": "hospital", "name": "MS (Multiple Scelerosis) Therapy Centre"}}, {"name": "Linnea Cromwell Hospital", "latitude": 52.3325647, "longitude": -0.1866606, "source": "osm", "_tags": {"amenity": "hospital", "healthcare": "hospital", "name": "Linnea Cromwell Hospital"}}, {"name": "Willen Hospice", "latitude": 52.0619019, "longitude": -0.7200168, "source": "osm", "_tags": {"addr:city": "Milton Keynes", "addr:country": "GB", "addr:postcode": "MK15 9AB", "addr:street": "Milton Road", "addr:suburb": "Willen", "amenity": "hospital", "emergency": "no", "fhrs:authority": "Milton Keynes", "fhrs:id": "119952", "fhrs:local_authority_id": "49037", "healthcare": "hospital", "name": "Willen Hospice", "phone": "+44 1908 663636"}}, {"name": "The Paddocks Hospital", "latitude": 51.7284019, "longitude": -0.8262369, "source": "osm", "_tags": {"addr:full": "Princes Risborough", "addr:postcode": "HP27 0JS", "addr:street": "Aylesbury Road", "amenity": "hospital", "healthcare": "hospital", "name": "The Paddocks Hospital", "operator:type": "private", "postal_code": "HP27 0JS", "website": "https://www.bmihealthcare.co.uk/hospitals/bmi-the-paddocks-clinic"}}, {"name": "Parkside Medical Centre", "latitude": 51.9985863, "longitude": -0.7466163, "source": "osm", "_tags": {"addr:city": "Milton Keynes", "addr:country": "GB", "addr:postcode": "MK3 6EN", "addr:street": "Whalley Drive", "addr:suburb": "Bletchley", "amenity": "hospital", "emergency": "no", "name": "Parkside Medical Centre", "wheelchair": "yes"}}, {"name": "UCL Institute of Orthopaedics and Musculoskeletal Science", "latitude": 51.6312434, "longitude": -0.3074425, "source": "osm", "_tags": {"amenity": "hospital", "name": "UCL Institute of Orthopaedics and Musculoskeletal Science", "toilets:wheelchair": "yes", "wheelchair": "yes"}}, {"name": "The Portland Hospital for Women and Children", "latitude": 51.5224709, "longitude": -0.1435858, "source": "osm", "_tags": {"addr:housenumber": "212", "addr:street": "Great Portland Street", "amenity": "hospital", "check_date": "2024-04-28", "healthcare": "hospital", "healthcare:speciality": "gynaecology", "name": "The Portland Hospital for Women and Children", "source": "survey"}}, {"name": "PJ Care Mallard House Neurological Care Centre", "latitude": 52.0235883, "longitude": -0.8089636, "source": "osm", "_tags": {"addr:city": "Milton Keynes", "addr:country": "GB", "addr:housenumber": "2", "addr:postcode": "MK8 0DZ", "addr:street": "Dunthorne Way", "addr:suburb": "Grange Farm", "amenity": "hospital", "emergency": "no", "fhrs:authority": "Milton Keynes", "fhrs:id": "135153", "fhrs:local_authority_id": "68691", "healthcare": "hospital", "name": "PJ Care Mallard House Neurological Care Centre", "operator": "PJ Care"}}, {"name": "Manfield Health Campus", "latitude": 52.2651354, "longitude": -0.8634889, "source": "osm", "_tags": {"addr:city": "Northampton", "addr:country": "GB", "addr:housename": "Cynthia Spencer & Favell Hse", "addr:postcode": "NN3 6NP", "addr:street": "Kettering Road", "amenity": "hospital", "fhrs:authority": "Northampton", "fhrs:id": "178791", "fhrs:local_authority_id": "PI/000050324", "healthcare": "hospital", "name": "Manfield Health Campus", "operator": "Northamptonshire Healthcare NHS Foundation Trust", "phone": "+44 1536 480300", "ref:GB:cqc_location": "RP1A2"}}, {"name": "Day Surgery Centre", "latitude": 51.4690343, "longitude": -0.0930863, "source": "osm", "_tags": {"addr:city": "London", "addr:street": "Bessemer Road", "check_date": "2024-07-01", "healthcare": "hospital", "healthcare:speciality": "surgery", "name": "Day Surgery Centre", "opening_hours": "Mo-Sa 07:30-19:00", "operator": "King's College Hospital", "phone": "+44 20 3299 3483"}}, {"name": "Schoen Clinic", "latitude": 51.5162998, "longitude": -0.1498767, "source": "osm", "_tags": {"addr:city": "London", "addr:housenumber": "66", "addr:postcode": "W1U 2SB", "addr:street": "Wigmore Street", "description": "Schoen Clinic Orthopaedic and Spinal Hospital London", "healthcare": "hospital", "healthcare:speciality": "orthopaedics", "name": "Schoen Clinic", "operator": "Schoen Clinic", "website": "https://www.schoen-clinic.co.uk/london"}}, {"name": "North London Hospice Winchmore Hill", "latitude": 51.6249907, "longitude": -0.0925094, "source": "osm", "_tags": {"amenity": "hospital", "healthcare": "hospital", "name": "North London Hospice Winchmore Hill"}}, {"name": "Oakley Court", "latitude": 51.8970706, "longitude": -0.4641429, "source": "osm", "_tags": {"addr:city": "Luton", "addr:country": "GB", "addr:housename": "Community Mental Health Hospital", "addr:postcode": "LU4 9WT", "addr:street": "Angel Close", "amenity": "hospital", "fhrs:authority": "Luton", "fhrs:id": "812865", "fhrs:local_authority_id": "111556", "healthcare": "hospital", "name": "Oakley Court"}}, {"name": "St Matthews Hospital", "latitude": 52.2514478, "longitude": -0.8784717, "source": "osm", "_tags": {"addr:city": "Northampton", "addr:country": "GB", "addr:housenumber": "22-23", "addr:postcode": "NN2 7HF", "addr:street": "St Matthews Parade", "addr:suburb": "Kingsley", "amenity": "hospital", "fhrs:authority": "West Northamptonshire", "fhrs:id": "1389002", "fhrs:local_authority_id": "PI/000095386", "healthcare": "hospital", "name": "St Matthews Hospital", "operator": "St. Matthews Limited", "phone": "+44 1604 723530", "ref:GB:cqc_location": "1-116950764", "website": "https://smhc.uk.com/"}}, {"name": "Broomhill", "latitude": 52.3209403, "longitude": -0.9610677, "source": "osm", "_tags": {"addr:city": "Spratton", "addr:country": "GB", "addr:postcode": "NN6 8LD", "addr:street": "Holdenby Road", "amenity": "hospital", "healthcare": "hospital", "name": "Broomhill", "operator": "St. Matthews Limited", "ref:GB:cqc_location": "1-390976877", "website": "https://smhc.uk.com/"}}, {"name": "", "latitude": 51.9465409, "longitude": -0.0811474, "source": "osm", "_tags": {"amenity": "hospital", "fixme": "What is this? Seems unlikely to be a hospital from aerial imagery. Perhaps a clinic of some sort?", "healthcare": "hospital"}}, {"name": "The Chalfonts and Gerrards Cross Hospital", "latitude": 51.6072855, "longitude": -0.5614238, "source": "osm", "_tags": {"addr:city": "Chalfont St Peter", "addr:postcode": "SL9 9DR", "addr:street": "Hampden Road", "contact:phone": "+44 1753 883821", "healthcare": "hospital", "name": "The Chalfonts and Gerrards Cross Hospital", "operator": "Buckinghamshire Healthcare NHS Trust", "website": "http://www.buckshealthcare.nhs.uk/visiting-your-hospitals/visiting/chalfonts-and-gerrards-hospital/", "wikidata": "Q30292791"}}, {"name": "King's College Hospital Emergency Department", "latitude": 51.4687588, "longitude": -0.0927953, "source": "osm", "_tags": {"amenity": "hospital", "check_date": "2024-08-21", "emergency": "yes", "healthcare": "hospital", "healthcare:speciality": "emergency", "internet_access": "no", "name": "King's College Hospital Emergency Department", "opening_hours": "24/7", "operator:type": "public", "phone": "+44 20 3299 9000", "website": "https://kch.nhs.uk", "wheelchair": "yes"}}, {"name": "Dental Hospital", "latitude": 51.4691229, "longitude": -0.0927114, "source": "osm", "_tags": {"amenity": "hospital", "check_date": "2024-11-09", "healthcare": "hospital", "name": "Dental Hospital", "website": "https://www.kch.nhs.uk/patients-and-visitors/patients/dental-patients/", "wheelchair": "yes"}}, {"name": "Watford General Hospital", "latitude": 51.6490168, "longitude": -0.4042252, "source": "osm", "_tags": {"addr:postcode": "WD18 0HB", "addr:street": "Vicarage Rd, Watford", "amenity": "hospital", "emergency": "yes", "healthcare": "hospital", "name": "Watford General Hospital", "operator": "https://www.westhertshospitals.nhs.uk/about/watfordgeneralhospital.asp", "phone": "+44 1923 244366"}}, {"name": "Great Ormond Street Outpatients - Zebra and Hippo Clinic Areas", "latitude": 51.5216322, "longitude": -0.1213221, "source": "osm", "_tags": {"addr:city": "London", "addr:housenumber": "60", "addr:postcode": "WC1N 3JH", "addr:street": "Great Ormond Street", "amenity": "hospital", "healthcare": "hospital", "internet_access": "wlan", "name": "Great Ormond Street Outpatients - Zebra and Hippo Clinic Areas", "ref:GB:cqc_location": "RP401", "ref:GB:nhs_ods": "RP401", "website": "https://www.gosh.nhs.uk/your-hospital-visit/outpatient-appointment/"}}, {"name": "Hounslow Medical Centre", "latitude": 51.4694387, "longitude": -0.3772728, "source": "osm", "_tags": {"amenity": "hospital", "healthcare": "hospital", "name": "Hounslow Medical Centre"}}, {"name": "National Hospital for Neurology and Neurosurgery at Cleveland Street", "latitude": 51.5196573, "longitude": -0.1380023, "source": "osm", "_tags": {"addr:city": "London", "addr:housenumber": "25", "addr:postcode": "W1T 4AJ", "addr:street": "Cleveland Street", "amenity": "hospital", "healthcare": "hospital", "healthcare:speciality": "neurology;neurosurgery", "name": "National Hospital for Neurology and Neurosurgery at Cleveland Street", "operator": "NHS", "operator:type": "public", "operator:wikidata": "Q918396", "ref:GB:cqc_location": "RRVCL"}}, {"name": "Medlabs Diagnostics", "latitude": 51.5208997, "longitude": -0.1124702, "source": "osm", "_tags": {"amenity": "hospital", "healthcare": "hospital", "name": "Medlabs Diagnostics", "ref:GB:cqc_location": "1-22084905984"}}, {"name": "Proton International @ UCLH", "latitude": 51.5238264, "longitude": -0.1363481, "source": "osm", "_tags": {"addr:city": "London", "addr:housenumber": "1", "addr:postcode": "WC1E 6AS", "addr:street": "Grafton Way", "amenity": "hospital", "healthcare": "hospital", "name": "Proton International @ UCLH", "operator": "Proton International London Limited", "ref:GB:cqc_location": "1-14279687485"}}, {"name": "HCA Healthcare UK Laboratories", "latitude": 51.5225872, "longitude": -0.1352478, "source": "osm", "_tags": {"addr:city": "London", "addr:housenumber": "2-10", "addr:postcode": "WC1E 6JA", "addr:street": "Capper Street", "amenity": "hospital", "healthcare": "hospital", "name": "HCA Healthcare UK Laboratories", "ref:GB:cqc_location": "1-11010280687"}}, {"name": "Optimal Vision", "latitude": 51.5199661, "longitude": -0.1302119, "source": "osm", "_tags": {"addr:city": "London", "addr:housenumber": "7", "addr:postcode": "WC1E 6HA", "addr:street": "Gower Mews", "amenity": "hospital", "healthcare": "hospital", "healthcare:speciality": "ophthalmology", "name": "Optimal Vision", "operator": "Optimal Vision Ltd", "ref:GB:cqc_location": "1-13932164067"}}, {"name": "Until SOHO", "latitude": 51.5145533, "longitude": -0.1299683, "source": "osm", "_tags": {"addr:city": "London", "addr:housenumber": "111", "addr:postcode": "WC2H 0DT", "addr:street": "Charing Cross Road", "amenity": "hospital", "check_date": "2025-05-29", "healthcare": "hospital", "name": "Until SOHO", "ref:GB:cqc_location": "1-14429388915"}}, {"name": "Queen Square Imaging Centre", "latitude": 51.5217376, "longitude": -0.1230571, "source": "osm", "_tags": {"amenity": "hospital", "healthcare": "hospital", "name": "Queen Square Imaging Centre", "operator": "Q.S. Enterprises Limited", "ref:GB:cqc_location": "1-1353988292"}}, {"name": "Tunica Diagnostics", "latitude": 51.5145501, "longitude": -0.1300121, "source": "osm", "_tags": {"addr:city": "London", "addr:housenumber": "111", "addr:postcode": "WC2H 0DT", "addr:street": "Charing Cross Road", "amenity": "hospital", "healthcare": "hospital", "healthcare:speciality": "diagnostics", "name": "Tunica Diagnostics", "operator": "Tunica Diagnostics ltd", "ref:GB:cqc_location": "1-15125385272"}}, {"name": "Clinical Research Facility", "latitude": 51.5227136, "longitude": -0.1360165, "source": "osm", "_tags": {"addr:city": "London", "addr:housenumber": "170", "addr:postcode": "W1T 7HA", "addr:street": "Tottenham Court Road", "amenity": "hospital", "check_date": "2025-06-18", "healthcare": "hospital", "long_name": "National Institute for Health and Care Research UCLH Clinical Research Facility", "name": "Clinical Research Facility", "operator": "University College London Hospitals NHS Foundation Trust", "ref:GB:cqc_location": "RRVCR"}}, {"name": "Sleep & Health Clinic", "latitude": 51.5234503, "longitude": -0.1403723, "source": "osm", "_tags": {"addr:city": "London", "addr:housename": "Saint Luke's House", "addr:housenumber": "13-14", "addr:street": "Fitzroy Square", "amenity": "hospital", "healthcare": "hospital", "name": "Sleep & Health Clinic", "operator": "Sleep & Health Clinic ltd"}}, {"name": "Procurement & Supplies Department (Stores)", "latitude": 52.4011776, "longitude": -0.7405773, "source": "osm", "_tags": {"addr:postcode": "NN16 8UZ", "addr:street": "Rothwell Road", "amenity": "hospital", "name": "Procurement & Supplies Department (Stores)", "opening_hours": "Mo-Fr 07:00-04:30"}}, {"name": "Bedford Health Village", "latitude": 52.1413152, "longitude": -0.4590464, "source": "osm", "_tags": {"addr:city": "Bedford", "addr:country": "GB", "addr:housenumber": "3", "addr:postcode": "MK40 2NT", "addr:street": "Kimbolton Road", "amenity": "hospital", "emergency": "no", "healthcare": "hospital", "name": "Bedford Health Village", "ref:GB:cqc_location": "RWK1R", "wheelchair": "yes"}}, {"name": "Bedford Hospital South Wing", "latitude": 52.1284264, "longitude": -0.4724591, "source": "osm", "_tags": {"addr:city": "Bedford", "addr:country": "GB", "addr:postcode": "MK42 9DJ", "addr:street": "Kempston Road", "amenity": "hospital", "emergency": "yes", "fhrs:authority": "Bedford", "fhrs:id": "94474", "fhrs:local_authority_id": "27657", "healthcare": "hospital", "name": "Bedford Hospital South Wing", "source": "bing"}}, {"name": "Bedford Hospital South Wing", "latitude": 52.1287535, "longitude": -0.4695372, "source": "osm", "_tags": {"amenity": "hospital", "healthcare": "hospital", "name": "Bedford Hospital South Wing"}}, {"name": "NHS Albany Lodge and St Albans Children Centre", "latitude": 51.7553436, "longitude": -0.3440455, "source": "osm", "_tags": {"amenity": "hospital", "healthcare": "hospital", "name": "NHS Albany Lodge and St Albans Children Centre", "operator": "NHS", "operator:type": "public", "operator:wikidata": "Q918396"}}, {"name": "St Ann's Hospital", "latitude": 51.5802183, "longitude": -0.0883215, "source": "osm", "_tags": {"addr:city": "London", "addr:country": "GB", "addr:postcode": "N15 3TH", "addr:street": "St Ann's Road", "amenity": "hospital", "emergency": "no", "healthcare": "hospital", "name": "St Ann's Hospital", "wikidata": "Q7592462", "wikipedia": "en:St Ann's Hospital"}}, {"name": "North Middlesex University Hospital", "latitude": 51.613284, "longitude": -0.0735435, "source": "osm", "_tags": {"alt_name": "North Middlesex Hospital", "amenity": "hospital", "emergency": "yes", "healthcare": "hospital", "loc_name": "North Mid", "name": "North Middlesex University Hospital", "website": "https://www.royalfree.nhs.uk/our-locations/north-middlesex-university-hospital", "wikidata": "Q7056104", "wikipedia": "en:North Middlesex University Hospital"}}, {"name": "Hammersmith Hospital", "latitude": 51.5173881, "longitude": -0.235288, "source": "osm", "_tags": {"amenity": "hospital", "healthcare": "hospital", "name": "Hammersmith Hospital", "wheelchair": "yes", "wikidata": "Q5645747"}}, {"name": "Barnet Hospital", "latitude": 51.6509125, "longitude": -0.2145599, "source": "osm", "_tags": {"addr:city": "Barnet", "addr:postcode": "EN5 3DJ", "addr:street": "Wellhouse Lane", "amenity": "hospital", "emergency": "yes", "healthcare": "hospital", "name": "Barnet Hospital", "wikidata": "Q4861607"}}, {"name": "St George's Hospital", "latitude": 51.4264422, "longitude": -0.1752072, "source": "osm", "_tags": {"addr:city": "London", "addr:postcode": "SW17 0QT", "addr:street": "Blackshaw Road", "amenity": "hospital", "beds": "1300", "contact:phone": "+44 20 8672 1255", "contact:website": "http://www.stgeorges.nhs.uk", "emergency": "yes", "fhrs:id": "298392", "healthcare": "hospital", "healthcare:speciality": "general;emergency;trauma;neurology;intensive;gynaecology;cardiology;anaesthetics", "name": "St George's Hospital", "operator": "St George's University Hospitals NHS Foundation Trust", "operator:type": "public", "operator:wikidata": "Q7593174", "source:addr": "FHRS Open Data", "wikidata": "Q3495316", "wikipedia": "en:St George's Hospital"}}, {"name": "Barnes Hospital", "latitude": 51.4672064, "longitude": -0.2558588, "source": "osm", "_tags": {"addr:city": "London", "addr:postcode": "SW14 8SU", "addr:street": "South Worple Way", "amenity": "hospital", "healthcare": "hospital", "name": "Barnes Hospital", "wikidata": "Q16983704", "wikipedia": "en:Barnes Hospital, London"}}, {"name": "Northwick Park Hospital", "latitude": 51.5753346, "longitude": -0.3215253, "source": "osm", "_tags": {"addr:city": "Harrow", "addr:country": "GB", "addr:housename": "Northwick Park Hospital", "addr:postcode": "HA1 3UJ", "addr:street": "Watford Road", "amenity": "hospital", "emergency": "yes", "healthcare": "hospital", "name": "Northwick Park Hospital", "phone": "+44 20 8864 3232", "wheelchair": "yes", "wikidata": "Q7060443", "wikipedia": "en:Northwick Park Hospital"}}, {"name": "Watford General Hospital", "latitude": 51.6485174, "longitude": -0.4020442, "source": "osm", "_tags": {"addr:city": "Watford", "addr:street": "Vicarage Road", "amenity": "hospital", "contact:website": "https://www.westhertshospitals.nhs.uk/about/watfordgeneralhospital.asp", "emergency": "yes", "healthcare": "hospital", "name": "Watford General Hospital", "operator": "NHS", "operator:type": "government", "operator:wikidata": "Q918396", "phone": "+44 1923 244366", "toilets:wheelchair": "yes", "website": "https://www.westhertshospitals.nhs.uk/default.asp", "wheelchair": "yes", "wikidata": "Q7974617", "wikipedia": "en:Watford General Hospital"}}, {"name": "BMI The Kings Oak Hospital", "latitude": 51.6679063, "longitude": -0.1053316, "source": "osm", "_tags": {"addr:housename": "The Kings Oak", "addr:postcode": "EN2 8SD", "addr:street": "The Ridgeway", "building": "hospital", "emergency": "no", "healthcare": "hospital", "name": "BMI The Kings Oak Hospital", "operator:wikidata": "Q5531938", "phone": "+44 20 8370 9500", "website": "https://www.bmihealthcare.co.uk/hospitals/bmi-the-kings-oak-hospital"}}, {"name": "Ashford Hospital", "latitude": 51.4443852, "longitude": -0.4733728, "source": "osm", "_tags": {"addr:city": "Ashford", "addr:postcode": "TW15 3AA", "addr:street": "London Road", "amenity": "hospital", "contact:website": "http://www.ashfordstpeters.nhs.uk/", "emergency": "no", "fhrs:id": "1255632", "healthcare": "hospital", "name": "Ashford Hospital", "operator": "Ashford and St. Peter's Hospitals NHS Foundation Trust", "operator:type": "government", "source:addr": "fhrs opendata", "toilets:wheelchair": "yes", "website": "http://www.ashfordstpeters.nhs.uk/", "wheelchair": "yes", "wheelchair:description": "Changing Places Toilet is located in the 1st floor outpatients department and is not locked. http://changingplaces.uktoiletmap.org/toilet/view/903", "wikidata": "Q30292831", "wikipedia": "en:Ashford Hospital"}}, {"name": "St Mark's", "latitude": 51.575993, "longitude": -0.3201695, "source": "osm", "_tags": {"amenity": "hospital", "healthcare": "hospital", "name": "St Mark's", "wikidata": "Q7589963"}}, {"name": "", "latitude": 52.2471724, "longitude": -0.1195749, "source": "osm", "_tags": {"amenity": "hospital"}}, {"name": "Lister Hospital", "latitude": 51.9247379, "longitude": -0.2139629, "source": "osm", "_tags": {"addr:city": "Stevenage", "addr:postcode": "SG1 4AB", "addr:street": "Coreys Mill Lane", "amenity": "hospital", "beds": "730", "emergency": "yes", "healthcare": "hospital", "name": "Lister Hospital", "note": "FIXME - needs to be surveyed", "opening_hours": "24/7", "operator": "NHS", "operator:type": "public", "operator:wikidata": "Q918396", "phone": "+44 1438 314333", "source": "observation;estimation;landsat", "website": "https://www.enherts-tr.nhs.uk/hospitals/lister/", "wikidata": "Q6646491"}}, {"name": "Finchley Memorial Hospital", "latitude": 51.60561, "longitude": -0.1770117, "source": "osm", "_tags": {"amenity": "hospital", "emergency": "no", "name": "Finchley Memorial Hospital", "wikidata": "Q28404845", "wikipedia": "en:Finchley Memorial Hospital"}}, {"name": "Chase Farm Hospital", "latitude": 51.6670768, "longitude": -0.10256, "source": "osm", "_tags": {"amenity": "hospital", "emergency": "no", "healthcare": "hospital", "name": "Chase Farm Hospital", "website": "https://www.royalfree.nhs.uk/chase-farm-hospital/", "wheelchair": "yes", "wikidata": "Q5087127", "wikipedia": "en:Chase Farm Hospital"}}, {"name": "St Michael's Community Hospital", "latitude": 51.6620161, "longitude": -0.0839186, "source": "osm", "_tags": {"amenity": "hospital", "name": "St Michael's Community Hospital"}}, {"name": "Central Middlesex Hospital", "latitude": 51.5314837, "longitude": -0.2676149, "source": "osm", "_tags": {"addr:city": "London", "addr:postcode": "NW10 7NS", "addr:street": "Acton Lane", "amenity": "hospital", "emergency": "yes", "healthcare": "hospital", "name": "Central Middlesex Hospital", "phone": "+44 20 8965 5733", "website": "https://www.lnwh.nhs.uk/central-middlesex-hospital/", "wikidata": "Q5061433"}}, {"name": "Lambeth Hospital", "latitude": 51.4653315, "longitude": -0.1224959, "source": "osm", "_tags": {"addr:city": "London", "addr:housenumber": "108", "addr:postcode": "SW9 9NU", "addr:street": "Landor Road", "amenity": "hospital", "fhrs:authority": "Lambeth", "fhrs:id": "484248", "fhrs:inspectiondate": "2014-02-03", "fhrs:rating": "4", "healthcare": "hospital", "name": "Lambeth Hospital", "wikidata": "Q6481446"}}, {"name": "Hinchingbrooke Hospital", "latitude": 52.3324685, "longitude": -0.2021603, "source": "osm", "_tags": {"amenity": "hospital", "healthcare": "hospital", "landuse": "commercial", "name": "Hinchingbrooke Hospital", "ref:GB:cqc_location": "RYV05", "ref:GB:nhs_ods": "RYV05", "wheelchair": "yes", "wikidata": "Q14956808"}}, {"name": "Wexham Park Hospital", "latitude": 51.5322498, "longitude": -0.5740083, "source": "osm", "_tags": {"addr:city": "Slough", "addr:housename": "Wexham Park", "addr:postcode": "SL2 4HL", "amenity": "hospital", "emergency": "yes", "healthcare": "hospital", "name": "Wexham Park Hospital", "operator": "Frimley Health NHS Foundation Trust", "operator:type": "public/government", "ref:GB:cqc_location": "RDU50", "wikidata": "Q7990262", "wikipedia": "en:Wexham Park Hospital"}}, {"name": "Townlands Memorial Hospital", "latitude": 51.5386736, "longitude": -0.9090387, "source": "osm", "_tags": {"addr:city": "Henley-on-Thames", "addr:postcode": "RG9 2DR", "addr:street": "York Road", "alt_name": "Townlands Hospital", "amenity": "hospital", "contact:phone": "+44 1865 903363", "fhrs:id": "271816", "fhrs:local_authority_id": "AD:16407", "healthcare": "hospital", "healthcare:speciality": "minor_injuries", "name": "Townlands Memorial Hospital", "operator": "Oxford Health NHS Foundation Trust", "phone": "+44 1865 903363", "ref:GB:cqc_location": "RHW04", "wheelchair": "yes", "wikidata": "Q30293112"}}, {"name": "West Middlesex Hospital", "latitude": 51.4730783, "longitude": -0.3244097, "source": "osm", "_tags": {"addr:street": "Twickenham Road", "amenity": "hospital", "healthcare": "hospital", "name": "West Middlesex Hospital", "wheelchair": "yes", "wikidata": "Q7985920", "wikipedia": "en:West Middlesex University Hospital"}}, {"name": "Normanby Building", "latitude": 51.4686055, "longitude": -0.094323, "source": "osm", "_tags": {"addr:city": "London", "addr:street": "Bessemer Road", "building": "yes", "check_date": "2024-10-16", "healthcare": "hospital", "healthcare:speciality": "ophthalmology;dermatology", "name": "Normanby Building", "operator": "King's College Hospital"}}, {"name": "Royal National Throat, Nose and Ear Hospital", "latitude": 51.5292405, "longitude": -0.1192676, "source": "osm", "_tags": {"addr:city": "London", "addr:housenumber": "330-332", "addr:postcode": "WC1X 8EE", "addr:street": "Gray's Inn Road", "amenity": "hospital", "building": "yes", "healthcare": "hospital", "name": "Royal National Throat, Nose and Ear Hospital", "note": "Most Royal National ENT Hospital services have moved to 47-49 Huntley Street, along with Eastman Dental Hospital. This site will contain wards and some other services until 2020 but the main move has now happened.", "source": "https://www.uclh.nhs.uk/OurServices/OurHospitals/RNENTD/Pages/Home.aspx;https://www.uclh.nhs.uk/aboutus/NewDev/phase5/Pages/Anewworldleadingcentre.aspx;https://www.uclh.nhs.uk/OurServices/OurHospitals/RNTNE/Pages/Home.aspx", "wikidata": "Q7374519"}}, {"name": "St Charles' Hospital", "latitude": 51.5222211, "longitude": -0.2176095, "source": "osm", "_tags": {"amenity": "hospital", "check_date": "2025-09-12", "healthcare": "hospital", "name": "St Charles' Hospital", "wikidata": "Q27081429"}}, {"name": "Royal Berkshire Hospital", "latitude": 51.449191, "longitude": -0.9580091, "source": "osm", "_tags": {"addr:city": "Reading", "addr:postcode": "RG1 5AN", "addr:street": "London Road", "amenity": "hospital", "emergency": "yes", "healthcare": "hospital", "name": "Royal Berkshire Hospital", "operator": "Royal Berkshire NHS Foundation Trust", "wikidata": "Q7373809", "wikipedia": "en:Royal Berkshire Hospital"}}, {"name": "Hillingdon Hospital", "latitude": 51.5255502, "longitude": -0.4614635, "source": "osm", "_tags": {"addr:city": "Uxbridge", "addr:postcode": "UB8 3NN", "addr:street": "Pield Heath Road", "amenity": "hospital", "emergency": "yes", "healthcare": "hospital", "name": "Hillingdon Hospital", "operator": "The Hillingdon Hospitals NHS Trust", "wikidata": "Q5763292"}}, {"name": "St Albans City Hospital", "latitude": 51.7601507, "longitude": -0.3439161, "source": "osm", "_tags": {"addr:city": "St Albans", "addr:postcode": "AL3 5PN", "addr:street": "Waverley Road", "alt_name": "St Albans Hospital", "amenity": "hospital", "contact:website": "https://www.westhertshospitals.nhs.uk/about/stalbanscityhospital.asp", "emergency": "no", "fhrs:authority": "St Albans City", "fhrs:id": "306074", "healthcare": "hospital", "name": "St Albans City Hospital", "operator": "NHS", "operator:type": "public", "operator:wikidata": "Q918396", "phone": "+44 1727 866122", "website": "https://www.westhertshospitals.nhs.uk/default.asp", "wikidata": "Q30292901"}}, {"name": "Queen Mary's Hospital", "latitude": 51.4549711, "longitude": -0.2416041, "source": "osm", "_tags": {"addr:city": "London", "addr:housenumber": "171", "addr:postcode": "SW15 5PN", "addr:street": "Roehampton Lane", "amenity": "hospital", "emergency": "no", "fhrs:authority": "Wandsworth", "fhrs:id": "1572393", "fhrs:local_authority_id": "PI/000457125", "healthcare": "hospital", "name": "Queen Mary's Hospital", "source": "local_knowledge", "source:addr": "FHRS Open Data", "wikidata": "Q7270446", "wikipedia": "en:Queen Mary's Hospital, Roehampton"}}, {"name": "Potters Bar Community Hospital", "latitude": 51.6871719, "longitude": -0.1774184, "source": "osm", "_tags": {"addr:city": "Potters Bar", "addr:county": "Hertfordshire", "addr:housename": "Potters Bar Community Hospital", "addr:postcode": "EN6 2RY", "addr:street": "Barnet Road", "amenity": "hospital", "check_date": "2025-04-09", "healthcare": "hospital", "name": "Potters Bar Community Hospital", "wikidata": "Q30292872"}}, {"name": "St. Pancras Hospital", "latitude": 51.5362791, "longitude": -0.1314026, "source": "osm", "_tags": {"addr:city": "London", "addr:postcode": "NW1 0PE", "addr:street": "St Pancras Way", "amenity": "hospital", "healthcare": "hospital", "name": "St. Pancras Hospital", "wikidata": "Q7595036"}}, {"name": "St Mary's Hospital", "latitude": 51.5174818, "longitude": -0.1742846, "source": "osm", "_tags": {"addr:city": "London", "addr:postcode": "W2 1NY", "addr:street": "Praed Street", "alt_name": "Saint Mary's Hospital, Paddington", "amenity": "hospital", "emergency": "yes", "healthcare": "hospital", "name": "St Mary's Hospital", "website": "https://www.imperial.nhs.uk/our-locations/st-marys-hospital", "wikidata": "Q3495342", "wikipedia": "en:St Mary's Hospital, London"}}, {"name": "Queen Elizabeth II Hospital", "latitude": 51.7829774, "longitude": -0.1885156, "source": "osm", "_tags": {"amenity": "hospital", "check_date": "2024-06-03", "emergency": "yes", "name": "Queen Elizabeth II Hospital", "wikidata": "Q7270362"}}, {"name": "Mount Vernon", "latitude": 51.6156301, "longitude": -0.4459713, "source": "osm", "_tags": {"amenity": "hospital", "healthcare": "hospital", "name": "Mount Vernon", "wikidata": "Q6924380"}}, {"name": "Royal National Orthopaedic Hospital", "latitude": 51.6315888, "longitude": -0.3139203, "source": "osm", "_tags": {"amenity": "hospital", "healthcare": "hospital", "name": "Royal National Orthopaedic Hospital", "wikidata": "Q7374518"}}, {"name": "The Whittington Hospital", "latitude": 51.5666448, "longitude": -0.1393183, "source": "osm", "_tags": {"addr:street": "Magdala Avenue", "amenity": "hospital", "healthcare": "hospital", "name": "The Whittington Hospital", "postal_code": "N19 5NF", "wheelchair": "yes", "wikidata": "Q7996907"}}, {"name": "St Mark's Hospital", "latitude": 51.5255422, "longitude": -0.7434217, "source": "osm", "_tags": {"addr:city": "Maidenhead", "addr:postcode": "SL6 6DU", "addr:street": "St Mark's Road", "amenity": "hospital", "healthcare": "hospital", "name": "St Mark's Hospital", "ref:GB:cqc_location": "RDU54;RWXZ1", "website": "https://www.berkshirehealthcare.nhs.uk/our-sites/windsor-ascot-maidenhead/st-marks-hospital/", "wikidata": "Q87872513"}}, {"name": "Stoke Mandeville Hospital", "latitude": 51.7982923, "longitude": -0.801917, "source": "osm", "_tags": {"addr:city": "Aylesbury", "addr:country": "GB", "addr:postcode": "HP21 8AL", "addr:street": "Mandeville Road", "amenity": "hospital", "emergency": "yes", "healthcare": "hospital", "name": "Stoke Mandeville Hospital", "website": "https://www.buckshealthcare.nhs.uk/For%20patients%20and%20visitors/stoke-mandeville-hospital.htm", "wikidata": "Q2741521", "wikipedia": "en:Stoke Mandeville Hospital"}}, {"name": "Kettering General Hospital", "latitude": 52.4019041, "longitude": -0.7414354, "source": "osm", "_tags": {"addr:city": "Kettering", "addr:country": "GB", "addr:postcode": "NN16 8UZ", "addr:street": "Rothwell Road", "amenity": "hospital", "emergency": "yes", "healthcare": "hospital", "name": "Kettering General Hospital", "operator": "Kettering General Hospital NHS Foundation Trust", "phone": "+44 1536 492000", "ref:GB:cqc_location": "RNQ51", "source": "OS_OpenData_StreetView", "website": "https://www.kgh.nhs.uk", "wikidata": "Q6395470", "wikipedia": "en:Kettering General Hospital"}}, {"name": "Northampton General Hospital", "latitude": 52.236057, "longitude": -0.8838202, "source": "osm", "_tags": {"addr:city": "Northampton", "addr:country": "GB", "addr:postcode": "NN1 5BD", "addr:street": "Cliftonville Road", "amenity": "hospital", "emergency": "yes", "fhrs:authority": "Northampton", "fhrs:id": "166166", "fhrs:local_authority_id": "PI/000009084", "healthcare": "hospital", "name": "Northampton General Hospital", "operator": "Northampton General Hospital NHS Trust", "phone": "+44 1604 634700", "ref:GB:cqc_location": "RNS01", "source:addr": "FHRS Open Data", "website": "https://www.northamptongeneral.nhs.uk", "wikidata": "Q7057612"}}, {"name": "Luton and Dunstable", "latitude": 51.8969826, "longitude": -0.4744135, "source": "osm", "_tags": {"amenity": "hospital", "building": "yes", "emergency": "yes", "healthcare": "hospital", "name": "Luton and Dunstable"}}, {"name": "Isebrook Hospital", "latitude": 52.298008, "longitude": -0.6831254, "source": "osm", "_tags": {"addr:city": "Wellingborough", "addr:country": "GB", "addr:postcode": "NN8 1LP", "addr:street": "Irthlingborough Road", "amenity": "hospital", "fhrs:authority": "North Northamptonshire", "fhrs:id": "168224", "fhrs:local_authority_id": "PI/000012757", "healthcare": "hospital", "name": "Isebrook Hospital", "operator": "Northamptonshire Healthcare NHS Foundation Trust", "phone": "+44 3000 272700", "ref:GB:cqc_location": "RP1F2", "source": "OS_OpenData_StreetView"}}, {"name": "Ealing Hospital", "latitude": 51.5075305, "longitude": -0.3453188, "source": "osm", "_tags": {"addr:city": "Southall", "addr:postcode": "UB1 3HW", "addr:street": "Uxbridge Road", "amenity": "hospital", "contact:website": "https://www.lnwh.nhs.uk/ealing-hospital/?", "emergency": "yes", "healthcare": "hospital", "name": "Ealing Hospital", "phone": "+44 20 8967 5000", "wheelchair": "yes"}}, {"name": "The Princess Grace Hospital", "latitude": 51.522486, "longitude": -0.1529101, "source": "osm", "_tags": {"amenity": "hospital", "building": "yes", "building:levels": "5", "check_date": "2025-09-21", "fixme": "Does this merit the tag 'hospital', i.e. it has in-patients?", "healthcare": "hospital", "name": "The Princess Grace Hospital", "operator": "HCA", "operator:type": "private", "source": "Bing;survey", "wikidata": "Q16901558"}}, {"name": "King Edward VII's Hospital", "latitude": 51.5209342, "longitude": -0.1504175, "source": "osm", "_tags": {"addr:city": "London", "addr:country": "GB", "addr:housename": "King Edward VII's Hospital", "addr:housenumber": "5-10", "addr:postcode": "W1G 6AA", "addr:street": "Beaumont Street", "amenity": "hospital", "building": "yes", "check_date": "2024-04-18", "fhrs:confidence_management": "0", "fhrs:hygiene": "0", "fhrs:id": "413238", "fhrs:local_authority_id": "01108/0055/1/000", "fhrs:rating": "5", "fhrs:structural": "0", "healthcare": "hospital", "name": "King Edward VII's Hospital", "ref:GB:cqc_location": "1-114202635", "ref:GB:uprn": "10033529930;10033601882", "source": "survey", "source:addr": "FSA Food Hygiene Ratings Database", "source:postcode": "FSA Food Hygiene Ratings Database", "website": "https://www.kingedwardvii.co.uk/", "wikidata": "Q580652", "wikipedia": "en:King Edward VII's Hospital"}}, {"name": "The Portland Hospital", "latitude": 51.5230212, "longitude": -0.1443613, "source": "osm", "_tags": {"addr:city": "London", "addr:housenumber": "205-209", "addr:postcode": "W1W 5AH", "addr:street": "Great Portland Street", "amenity": "hospital", "building": "yes", "check_date": "2025-06-24", "emergency": "no", "fhrs:id": "411924", "healthcare": "hospital", "name": "The Portland Hospital", "ref:GB:cqc_location": "1-126955917", "ref:GB:nhs_ods": "NW604", "source": "survey", "source:addr": "FHRS Open Data", "wikidata": "Q7231952"}}, {"name": "Steppingley Hospital", "latitude": 52.0117989, "longitude": -0.5132783, "source": "osm", "_tags": {"amenity": "hospital", "name": "Steppingley Hospital", "source": "OS_OpenData_StreetView"}}, {"name": "Royal Brompton Hospital", "latitude": 51.4891664, "longitude": -0.170971, "source": "osm", "_tags": {"addr:city": "London", "addr:postcode": "SW3 6PY", "addr:street": "Sydney Street", "amenity": "hospital", "emergency": "no", "healthcare": "hospital", "name": "Royal Brompton Hospital", "operator": "Guy's and St Thomas' NHS Foundation Trust", "source:postcode": "FHRS Open Data", "wikidata": "Q7373850"}}, {"name": "The Royal Marsden Hospital", "latitude": 51.4905731, "longitude": -0.1725464, "source": "osm", "_tags": {"amenity": "hospital", "healthcare": "hospital", "name": "The Royal Marsden Hospital", "wikidata": "Q7761706"}}, {"name": "Princes House", "latitude": 51.4517657, "longitude": -0.9590183, "source": "osm", "_tags": {"addr:city": "Reading", "addr:housenumber": "73a", "addr:postcode": "RG1 5UZ", "addr:street": "London Road", "amenity": "hospital", "building": "yes", "name": "Princes House", "ref:GB:uprn": "310086249;310073406", "source:building": "OS_OpenData_StreetView"}}, {"name": "Cambian Churchill", "latitude": 51.497186, "longitude": -0.1096392, "source": "osm", "_tags": {"addr:city": "London", "addr:housenumber": "22", "addr:postcode": "SE1 7PW", "addr:street": "Barkham Terrace", "amenity": "hospital", "building": "hospital", "building:levels": "4", "check_date": "2025-09-18", "fhrs:id": "1149999", "healthcare": "hospital", "name": "Cambian Churchill", "roof:levels": "1"}}, {"name": "", "latitude": 51.5905128, "longitude": -0.2819639, "source": "osm", "_tags": {"amenity": "hospital", "source": "OS"}}, {"name": "CRGH", "latitude": 51.5202012, "longitude": -0.1015412, "source": "osm", "_tags": {"addr:city": "London", "addr:housenumber": "16", "addr:street": "St. John Street", "amenity": "hospital", "building": "yes", "building:colour": "#A0522D", "building:levels": "4", "building:material": "brick", "healthcare": "hospital", "healthcare:speciality": "fertility", "name": "CRGH", "operator": "City Fertility Limited", "ref:GB:cqc_location": "1-483017017", "roof:colour": "darkgrey"}}, {"name": "Wycombe General Hospital", "latitude": 51.6263178, "longitude": -0.7544882, "source": "osm", "_tags": {"addr:postcode": "HP11 2TT", "amenity": "hospital", "emergency": "no", "fhrs:id": "626891", "healthcare": "hospital", "name": "Wycombe General Hospital", "wikidata": "Q8039641"}}, {"name": "Thame Community Hospital", "latitude": 51.7448703, "longitude": -0.9696827, "source": "osm", "_tags": {"addr:city": "Thame", "addr:postcode": "OX9 3JT", "addr:street": "East Street", "amenity": "hospital", "building": "yes", "emergency": "no", "fhrs:id": "272229", "healthcare": "hospital", "name": "Thame Community Hospital", "wheelchair": "yes", "wikidata": "Q30293006"}}, {"name": "Biggleswade Hospital", "latitude": 52.0989802, "longitude": -0.2470496, "source": "osm", "_tags": {"addr:city": "Biggleswade", "addr:housename": "Biggleswade Hospital", "addr:postcode": "SG18 0EL", "addr:street": "Potton Road", "amenity": "hospital", "emergency": "no", "healthcare": "hospital", "name": "Biggleswade Hospital", "operator": "Essex Partnership University NHS Foundation Trust", "operator:type": "public"}}, {"name": "Buckingham Community Hospital", "latitude": 52.0023995, "longitude": -0.9856706, "source": "osm", "_tags": {"amenity": "hospital", "healthcare": "hospital", "name": "Buckingham Community Hospital", "source": "OS_OpenData_StreetView,bing", "wikidata": "Q30293031"}}, {"name": "", "latitude": 51.9975284, "longitude": -0.747168, "source": "osm", "_tags": {"amenity": "hospital", "healthcare": "hospital", "source": "bing"}}, {"name": "Caldecot Centre", "latitude": 51.4696774, "longitude": -0.0938642, "source": "osm", "_tags": {"addr:city": "London", "addr:housenumber": "15-22", "addr:postcode": "SE5 9RS", "addr:street": "Caldecot Road", "building": "hospital", "healthcare": "hospital", "healthcare:speciality": "sexual_health", "name": "Caldecot Centre", "operator": "King's College Hospital NHS Foundation Trust"}}, {"name": "The London Welbeck Hospital", "latitude": 51.5182542, "longitude": -0.1493761, "source": "osm", "_tags": {"addr:housenumber": "27", "addr:street": "Welbeck Street", "amenity": "hospital", "check_date": "2025-01-31", "healthcare": "hospital", "healthcare:speciality": "plastic_surgery;surgery;paediatric_surgery;dental_oral_maxillo_facial_surgery", "name": "The London Welbeck Hospital", "website": "https://londonwelbeckhospital.co.uk/", "wikidata": "Q6671010", "wikipedia": "en:London Welbeck Hospital"}}, {"name": "Lister Hospital", "latitude": 51.4864231, "longitude": -0.150183, "source": "osm", "_tags": {"addr:housename": "The Lister Hospital", "addr:street": "Chelsea Bridge Road", "amenity": "hospital", "building": "hospital", "building:levels": "4", "check_date": "2024-10-31", "healthcare": "hospital", "name": "Lister Hospital", "roof:levels": "1", "source": "Bing", "wikidata": "Q6646489"}}, {"name": "Vincent Square Clinic", "latitude": 51.4914736, "longitude": -0.1345453, "source": "osm", "_tags": {"addr:housename": "Hopkinson House", "amenity": "hospital", "building": "yes", "healthcare": "hospital", "name": "Vincent Square Clinic", "wheelchair": "yes"}}, {"name": "Gordon Hospital", "latitude": 51.4921664, "longitude": -0.1359502, "source": "osm", "_tags": {"addr:city": "London", "addr:postcode": "SW1V 2RH", "addr:street": "Bloomburg Street", "amenity": "hospital", "building": "yes", "fhrs:id": "412339", "healthcare": "hospital", "name": "Gordon Hospital", "wikidata": "Q60747194"}}, {"name": "King Edward VII Hospital", "latitude": 51.473523, "longitude": -0.6140584, "source": "osm", "_tags": {"amenity": "hospital", "emergency": "no", "healthcare": "hospital", "name": "King Edward VII Hospital", "ref:GB:cqc_location": "RDU53", "wikidata": "Q87868745"}}, {"name": "Evelina London Children's Hospital", "latitude": 51.4983235, "longitude": -0.1183943, "source": "osm", "_tags": {"addr:city": "London", "addr:postcode": "SE1 7EH", "addr:street": "Westminster Bridge Road", "amenity": "hospital", "building": "hospital", "building:levels": "7", "contact:website": "https://www.evelinalondon.nhs.uk/Home.aspx", "emergency": "yes", "healthcare": "hospital", "healthcare:for": "child", "healthcare:speciality": "paediatrics", "name": "Evelina London Children's Hospital", "operator": "Guy's & St Thomas' NHS Foundation Trust", "wikidata": "Q5416238", "wikipedia": "en:Evelina London Children's Hospital"}}, {"name": "St Thomas' Hospital", "latitude": 51.4991013, "longitude": -0.1187323, "source": "osm", "_tags": {"addr:city": "London", "addr:postcode": "SE1 7EH", "addr:street": "Westminster Bridge Road", "amenity": "hospital", "check_date": "2024-11-05", "emergency": "yes", "healthcare": "hospital", "name": "St Thomas' Hospital", "operator": "Guy's and St Thomas' NHS Foundation Trust", "phone": "+44 20 7188 7188", "source": "OS_OpenData_StreetView;Bing", "website": "https://www.guysandstthomas.nhs.uk/", "wheelchair": "yes", "wikidata": "Q1143779", "wikimedia_commons": "Category:St Thomas' Hospital", "wikipedia": "en:St Thomas' Hospital"}}, {"name": "Cleveland Clinic London", "latitude": 51.4993942, "longitude": -0.148755, "source": "osm", "_tags": {"addr:city": "London", "addr:housenumber": "33", "addr:postcode": "SW1X 7HY", "addr:street": "Grosvenor Place", "amenity": "hospital", "beds": "184", "building": "commercial", "building:levels": "6", "check_date": "2024-07-28", "emergency": "no", "healthcare": "hospital", "internet_access": "wlan", "internet_access:fee": "no", "name": "Cleveland Clinic London", "operator": "Cleveland Clinic", "operator:type": "private", "phone": "+44 20 3423 7500", "source:beds": "https://clevelandcliniclondon.uk/", "website": "https://clevelandcliniclondon.uk/", "wheelchair": "yes", "wikidata": "Q97040389", "wikipedia": "en:Cleveland Clinic London"}}, {"name": "Berkshire Independent Hospital", "latitude": 51.4443285, "longitude": -0.9886605, "source": "osm", "_tags": {"amenity": "hospital", "healthcare": "hospital", "name": "Berkshire Independent Hospital", "name:en": "Berkshire Independent Hospital", "wikidata": "Q30292927"}}, {"name": "Royal Hospital for Neuro-Disability", "latitude": 51.4519811, "longitude": -0.2139272, "source": "osm", "_tags": {"addr:city": "London", "addr:postcode": "SW15 3SW", "addr:street": "West Hill", "amenity": "hospital", "emergency": "no", "healthcare": "hospital", "healthcare:speciality": "physiatry;neurology", "name": "Royal Hospital for Neuro-Disability", "wikidata": "Q7374301"}}, {"name": "Springdene Nursing Home", "latitude": 51.6344405, "longitude": -0.1679502, "source": "osm", "_tags": {"addr:housenumber": "55", "addr:street": "Oakleigh Park North", "amenity": "hospital", "building": "yes", "name": "Springdene Nursing Home"}}, {"name": "Edgware Community Hospital", "latitude": 51.6064844, "longitude": -0.2709666, "source": "osm", "_tags": {"addr:street": "Burnt Oak Broadway", "amenity": "hospital", "emergency": "no", "healthcare": "hospital", "name": "Edgware Community Hospital", "postal_code": "HA8 0AD", "wikidata": "Q30293035"}}, {"name": "Bowes Road Clinic", "latitude": 51.6154941, "longitude": -0.1310823, "source": "osm", "_tags": {"amenity": "hospital", "emergency": "no", "healthcare": "hospital", "name": "Bowes Road Clinic"}}, {"name": "St Bartholomew's Hospital", "latitude": 51.5175315, "longitude": -0.1000771, "source": "osm", "_tags": {"amenity": "hospital", "healthcare": "hospital", "name": "St Bartholomew's Hospital", "note": "approx-ish area", "ref:GB:cqc_location": "R1HM0", "ref:GB:nhs_ods": "R1HM0", "short_name": "Barts", "wheelchair": "limited", "wikidata": "Q164946", "wikipedia": "en:St Bartholomew's Hospital"}}, {"name": "Prospect House", "latitude": 52.4010556, "longitude": -0.7340286, "source": "osm", "_tags": {"amenity": "hospital", "building": "yes", "emergency": "no", "healthcare": "hospital", "name": "Prospect House", "source": "survey"}}, {"name": "Prospect Park Hospital", "latitude": 51.4491596, "longitude": -1.0144583, "source": "osm", "_tags": {"addr:city": "Reading", "addr:postcode": "RG30 4EJ", "addr:street": "Honey End Lane", "amenity": "hospital", "emergency": "no", "healthcare": "hospital", "healthcare:speciality": "psychiatry", "name": "Prospect Park Hospital", "wikidata": "Q30292887"}}, {"name": "Milton Keynes University  Hospital", "latitude": 52.0262459, "longitude": -0.7367014, "source": "osm", "_tags": {"addr:city": "Milton Keynes", "addr:country": "GB", "addr:postcode": "MK6 5LD", "addr:street": "Standing Way", "addr:suburb": "Eaglestone", "amenity": "hospital", "emergency": "yes", "fhrs:id": "104279", "healthcare": "hospital", "name": "Milton Keynes University  Hospital"}}, {"name": "Eaglestone View", "latitude": 52.0267905, "longitude": -0.7397023, "source": "osm", "_tags": {"addr:city": "Milton Keynes", "addr:country": "GB", "addr:postcode": "MK6 5LS", "addr:street": "Chadwick Drive", "addr:suburb": "Eaglestone - West", "amenity": "hospital", "building": "yes", "fhrs:authority": "Milton Keynes", "fhrs:id": "131635", "fhrs:local_authority_id": "63161", "healthcare": "hospital", "name": "Eaglestone View", "operator": "Elysium Healthcare"}}, {"name": "The Old Red Hill Clinic (Barnet Adolescent Services)", "latitude": 51.6114198, "longitude": -0.2772697, "source": "osm", "_tags": {"amenity": "hospital", "building": "yes", "emergency": "no", "name": "The Old Red Hill Clinic (Barnet Adolescent Services)"}}, {"name": "Charing Cross Hospital", "latitude": 51.486919, "longitude": -0.2197632, "source": "osm", "_tags": {"addr:city": "London", "addr:postcode": "W6 8RF", "addr:street": "Fulham Palace Road", "amenity": "hospital", "emergency": "yes", "healthcare": "hospital", "healthcare:speciality": "general;emergency", "name": "Charing Cross Hospital", "source": "Local knowledge", "type": "general acute hospital", "wikidata": "Q4982607", "wikipedia": "en:Charing Cross Hospital Medical School"}}, {"name": "The Broadway Health Centre", "latitude": 51.5111392, "longitude": -0.3793441, "source": "osm", "_tags": {"amenity": "hospital", "building": "yes", "emergency": "no", "healthcare": "hospital", "name": "The Broadway Health Centre"}}, {"name": "Kingsway Health Centre", "latitude": 51.8995288, "longitude": -0.2067519, "source": "osm", "_tags": {"amenity": "hospital", "building": "yes", "check_date": "2024-09-03", "designation": "Physiotherapy", "emergency": "no", "healthcare": "hospital", "name": "Kingsway Health Centre", "source": "local knowledge"}}, {"name": "Courtenay House Surgery", "latitude": 51.9512007, "longitude": -0.2774194, "source": "osm", "_tags": {"amenity": "hospital", "emergency": "no", "name": "Courtenay House Surgery"}}, {"name": "Millway Medical Practice", "latitude": 51.6155345, "longitude": -0.2440094, "source": "osm", "_tags": {"addr:city": "London", "addr:postcode": "NW7 2HX", "addr:street": "Hartley Avenue", "amenity": "hospital", "building": "yes", "emergency": "no", "name": "Millway Medical Practice"}}, {"name": "St Bernards Hospital (West London Mental Health NHS Trust)", "latitude": 51.5063644, "longitude": -0.3471886, "source": "osm", "_tags": {"amenity": "hospital", "healthcare": "hospital", "name": "St Bernards Hospital (West London Mental Health NHS Trust)"}}, {"name": "Cygnet Hospital", "latitude": 51.5672075, "longitude": -0.3377958, "source": "osm", "_tags": {"addr:city": "Harrow", "addr:housenumber": "87", "addr:postcode": "HA1 3JL", "addr:street": "London Road", "amenity": "hospital", "building": "yes", "emergency": "no", "fhrs:id": "276726", "name": "Cygnet Hospital", "source:addr": "FHRS Open Data"}}, {"name": "Woodland Hospital", "latitude": 52.4120554, "longitude": -0.7680269, "source": "osm", "_tags": {"addr:city": "Kettering", "addr:country": "GB", "addr:postcode": "NN16 8XF", "addr:street": "Rothwell Road", "amenity": "hospital", "emergency": "no", "fhrs:authority": "North Northamptonshire", "fhrs:id": "141497", "fhrs:local_authority_id": "808", "healthcare": "hospital", "name": "Woodland Hospital", "operator": "Ramsay Health Care UK Operations Limited", "operator:type": "private", "phone": "+44 1536 414515", "ref:GB:cqc_location": "1-128733213", "website": "https://www.ramsayhealth.co.uk"}}, {"name": "King's College Hospital", "latitude": 51.4684289, "longitude": -0.093654, "source": "osm", "_tags": {"addr:city": "London", "addr:postcode": "SE5 9RS", "addr:street": "Denmark Hill", "amenity": "hospital", "check_date": "2024-04-28", "emergency": "yes", "fee": "no", "fhrs:id": "484055", "healthcare": "hospital", "name": "King's College Hospital", "operator": "King's College Hospital NHS Foundation Trust", "source:addr": "FHRS Open Data", "website": "https://www.kch.nhs.uk/", "wikidata": "Q1742181", "wikipedia": "en:King's College Hospital"}}, {"name": "Cygnet Hospital Ealing", "latitude": 51.5211547, "longitude": -0.297186, "source": "osm", "_tags": {"amenity": "hospital", "building": "yes", "name": "Cygnet Hospital Ealing"}}, {"name": "Amersham Hospital", "latitude": 51.6626623, "longitude": -0.6215809, "source": "osm", "_tags": {"amenity": "hospital", "contact:phone": "+44 1296 315000", "emergency": "no", "healthcare": "hospital", "internet_access": "wlan", "internet_access:fee": "no", "internet_access:ssid": "BHT_Public", "name": "Amersham Hospital", "ref:GB:cqc_location": "RXQ51", "website": "https://www.buckshealthcare.nhs.uk/visiting-your-hospitals/visiting/amersham-hospital/", "wikidata": "Q4745823", "wikipedia": "en:Amersham Hospital"}}, {"name": "Harefield Hospital", "latitude": 51.6071139, "longitude": -0.4852044, "source": "osm", "_tags": {"addr:city": "Uxbridge", "addr:country": "GB", "addr:postcode": "UB9 6JH", "addr:street": "Hill End Road", "addr:suburb": "Harefield", "amenity": "hospital", "healthcare": "hospital", "name": "Harefield Hospital", "operator": "Guy's and St Thomas' NHS Foundation Trust", "phone": "+44 1895 82 37 37", "website": "https://www.rbht.nhs.uk/", "wikidata": "Q5656797"}}, {"name": "St Andrews Hospital", "latitude": 52.2354094, "longitude": -0.872069, "source": "osm", "_tags": {"addr:city": "Northampton", "addr:country": "GB", "addr:postcode": "NN1 5DG", "addr:street": "Cliftonville Road", "amenity": "hospital", "email": "info@standrew.co.uk", "healthcare": "hospital", "name": "St Andrews Hospital", "phone": "+44 1604 616000", "ref:GB:cqc_location": "1-121538260", "website": "http://www.standrewshealthcare.co.uk/", "wikidata": "Q60740184"}}, {"name": "Three Shires Hospital", "latitude": 52.2360615, "longitude": -0.8743376, "source": "osm", "_tags": {"addr:city": "Northampton", "addr:country": "GB", "addr:postcode": "NN1 5DR", "addr:street": "The Avenue", "amenity": "hospital", "building": "hospital", "fhrs:authority": "Northampton", "fhrs:id": "895387", "fhrs:local_authority_id": "PI/000085055", "healthcare": "hospital", "name": "Three Shires Hospital", "operator": "Three Shires Hospital LLP", "phone": "+44 1604 805829", "ref:GB:cqc_location": "1-2079393249", "website": "https://www.bmihealthcare.co.uk/three-shires"}}, {"name": "Moorfields Eye Hospital (City Road campus)", "latitude": 51.5272631, "longitude": -0.0902151, "source": "osm", "_tags": {"amenity": "hospital", "emergency": "yes", "healthcare": "hospital", "name": "Moorfields Eye Hospital (City Road campus)", "ref:GB:cqc_location": "RP601", "ref:GB:nhs_ods": "RP601", "wikidata": "Q1946861", "wikipedia": "en:Moorfields Eye Hospital"}}, {"name": "London Bridge Hospital", "latitude": 51.5061317, "longitude": -0.0860403, "source": "osm", "_tags": {"addr:city": "London", "addr:postcode": "SE1 2PR", "addr:street": "Tooley Street", "amenity": "hospital", "emergency": "no", "healthcare": "hospital", "name": "London Bridge Hospital", "operator:type": "private", "website": "http://www.londonbridgehospital.com", "wikidata": "Q6669893", "wikipedia": "en:London Bridge Hospital"}}, {"name": "Fitzrovia Hospital", "latitude": 51.5234772, "longitude": -0.1404316, "source": "osm", "_tags": {"addr:city": "London", "addr:housename": "Saint Luke's House", "addr:housenumber": "13-14", "addr:street": "Fitzroy Square", "amenity": "hospital", "building": "yes", "healthcare": "hospital", "name": "Fitzrovia Hospital", "note": "private cosmetic surgery clinic", "ref:GB:cqc_location": "1-20288364561;1-13740482832", "ref:GB:uprn": "5196151;5196595"}}, {"name": "University College Hospital", "latitude": 51.5248695, "longitude": -0.1364433, "source": "osm", "_tags": {"addr:city": "London", "addr:country": "GB", "addr:housenumber": "235", "addr:postcode": "NW1 2BU", "addr:street": "Euston Road", "amenity": "hospital", "beds": "665", "check_date": "2025-02-25", "contact:phone": "+44 20 3456 7890", "contact:website": "https://www.uclh.nhs.uk/", "emergency": "yes", "healthcare": "hospital", "name": "University College Hospital", "operator": "National Health Service (NHS)", "ref:GB:nhs_ods": "RRV03", "short_name": "UCH", "start_date": "1834", "toilets:wheelchair": "yes", "wheelchair": "yes", "wikidata": "Q3551343", "wikipedia": "en:University College Hospital"}}, {"name": "Weymouth Street Hospital", "latitude": 51.5202358, "longitude": -0.1505415, "source": "osm", "_tags": {"addr:city": "London", "addr:housenumber": "42-46", "addr:postcode": "W1G 6NP", "addr:street": "Weymouth Street", "amenity": "hospital", "building": "hospital", "emergency": "no", "fixme": "Does this merit the tag 'hospital', i.e. it has in-patients?", "healthcare": "hospital", "name": "Weymouth Street Hospital", "note": "http://www.openstreetmap.org/note/726409", "operator": "Phoenix Hospital Group", "phone": "+44 20 7935 1200", "website": "https://www.weymouthstreethospital.com/", "wikidata": "Q20714162"}}, {"name": "Cassel Hospital", "latitude": 51.4324112, "longitude": -0.3090559, "source": "osm", "_tags": {"addr:city": "Richmond", "addr:housenumber": "1", "addr:postcode": "TW10 7JF", "addr:street": "Ham Common", "addr:suburb": "Ham", "amenity": "hospital", "fhrs:id": "1575152", "healthcare": "hospital", "name": "Cassel Hospital", "not:addr:postcode": "TW10 7JL", "operator": "West London NHS Trust", "operator:website": "https://www.westlondon.nhs.uk/our-services/adult/mental-health-services/cassel-hospital", "source:addr": "FHRS Open Data", "website": "https://www.nhs.uk/services/hospitals/overview/defaultview.aspx?id=3086", "wikidata": "Q5049284", "wikipedia": "en:Cassel Hospital"}}, {"name": "CIrcle Reading", "latitude": 51.4291345, "longitude": -0.976354, "source": "osm", "_tags": {"amenity": "hospital", "healthcare": "hospital", "name": "CIrcle Reading"}}, {"name": "Luton and Dunstable Hospital", "latitude": 51.8968398, "longitude": -0.4741599, "source": "osm", "_tags": {"alt_name": "Luton and Dunstable University Hospital", "amenity": "hospital", "emergency": "yes", "name": "Luton and Dunstable Hospital", "source": "Bing;OS StreetView;existing buildings", "website": "https://www.ldh.nhs.uk/", "wikidata": "Q6705902", "wikipedia": "en:Luton and Dunstable University Hospital"}}, {"name": "Chalfont Centre for Epilepsy", "latitude": 51.6223561, "longitude": -0.549337, "source": "osm", "_tags": {"amenity": "hospital", "emergency": "no", "fixme": "extent/ boundaries", "healthcare": "hospital", "name": "Chalfont Centre for Epilepsy"}}, {"name": "Hemel Hempstead Hospital", "latitude": 51.7509958, "longitude": -0.4695835, "source": "osm", "_tags": {"amenity": "hospital", "emergency": "no", "healthcare": "hospital", "name": "Hemel Hempstead Hospital", "source": "OS OpenMap Local", "wikidata": "Q30292953"}}, {"name": "", "latitude": 51.7469791, "longitude": -0.4532194, "source": "osm", "_tags": {"amenity": "hospital", "healthcare": "hospital", "source": "OS OpenMap Local"}}, {"name": "Highgate Mental Health Centre", "latitude": 51.5667363, "longitude": -0.1425875, "source": "osm", "_tags": {"addr:city": "London", "addr:postcode": "N19 5NX", "addr:street": "Dartmouth Park Hill", "amenity": "hospital", "emergency": "yes", "healthcare": "hospital", "name": "Highgate Mental Health Centre", "operator": "Camden and Islington NHS Foundation Trust"}}, {"name": "", "latitude": 51.7651807, "longitude": -0.2422117, "source": "osm", "_tags": {"amenity": "hospital", "healthcare": "hospital", "source": "OS OpenMap Local"}}, {"name": "Pinehill Hospital", "latitude": 51.9494046, "longitude": -0.2627475, "source": "osm", "_tags": {"addr:city": "Hitchin", "addr:county": "Hertfordshire", "addr:postcode": "SG4 9QZ", "addr:street": "Benslow Lane", "amenity": "hospital", "check_date": "2025-06-26", "emergency": "no", "fhrs:id": "961058", "name": "Pinehill Hospital", "source": "OS OpenMap Local", "source:addr": "FHRS Open Data"}}, {"name": "Wymondley Nursing Home", "latitude": 51.9327613, "longitude": -0.2298574, "source": "osm", "_tags": {"addr:city": "Hitchin", "addr:county": "Hertfordshire", "addr:postcode": "SG4 7HT", "addr:street": "Stevenage Road", "addr:suburb": "Little Wymondley", "amenity": "hospital", "fhrs:id": "961336", "name": "Wymondley Nursing Home", "source": "OS OpenMap Local"}}, {"name": "Mildmay Mission Hospital", "latitude": 51.5277306, "longitude": -0.0755805, "source": "osm", "_tags": {"addr:city": "London", "addr:housenumber": "19", "addr:postcode": "E2 7DZ", "addr:street": "Tabernacle Gardens", "alt_name": "Mildmay Hospital", "amenity": "hospital", "building": "hospital", "building:levels": "4", "healthcare": "hospital", "name": "Mildmay Mission Hospital", "ref:GB:cqc_location": "1-2311760426", "roof:levels": "0", "website": "https://www.mildmay.org/", "wheelchair": "yes", "wikidata": "Q124749523", "wikipedia": "en:Mildmay Mission Hospital"}}, {"name": "BMI Hendon Hospital", "latitude": 51.5937166, "longitude": -0.2244096, "source": "osm", "_tags": {"amenity": "hospital", "emergency": "no", "name": "BMI Hendon Hospital", "website": "https://www.bmihealthcare.co.uk/hospitals/bmi-hendon-hospital"}}, {"name": "The Hospice Of St Francis", "latitude": 51.7663177, "longitude": -0.5999416, "source": "osm", "_tags": {"addr:city": "Berkhamsted", "addr:housename": "The Hospice Of St Francis", "addr:postcode": "HP4 3GW", "addr:street": "Spring Garden Lane", "addr:suburb": "Northchurch", "amenity": "hospital", "fhrs:id": "202088", "healthcare": "hospital", "name": "The Hospice Of St Francis", "source": "OS OpenMap Local", "source:addr": "FHRS Open Data"}}, {"name": "Luton and Dunstable Hospital", "latitude": 51.8944381, "longitude": -0.4741351, "source": "osm", "_tags": {"alt_name": "Luton and Dunstable University Hospital", "amenity": "hospital", "emergency": "yes", "healthcare": "hospital", "name": "Luton and Dunstable Hospital", "source": "OS OpenMap Local", "website": "https://www.ldh.nhs.uk/", "wikidata": "Q6705902", "wikipedia": "en:Luton and Dunstable University Hospital"}}, {"name": "Widecombe Nursing Home", "latitude": 51.9174538, "longitude": -0.430024, "source": "osm", "_tags": {"addr:city": "Luton", "addr:country": "GB", "addr:housenumber": "36", "addr:postcode": "LU3 2DT", "addr:street": "Grasmere Road", "amenity": "hospital", "fhrs:authority": "Luton", "fhrs:id": "359496", "fhrs:local_authority_id": "7303", "healthcare": "hospital", "name": "Widecombe Nursing Home", "source": "OS OpenMap Local"}}, {"name": "Nuffield Health Highgate Hospital", "latitude": 51.5766504, "longitude": -0.1570546, "source": "osm", "_tags": {"addr:housenumber": "17-19", "addr:street": "View Road", "amenity": "hospital", "building": "hospital", "email": "hohig.enquiries@nuffieldhealth.com", "healthcare": "hospital", "name": "Nuffield Health Highgate Hospital", "operator": "Nuffield Health", "operator:type": "private", "operator:wikidata": "Q7068711", "phone": "+44 20 8341 4182", "ref:GB:nhs_ods": "NYW03", "website": "https://www.nuffieldhealth.com/hospitals/highgate", "wikidata": "Q28404470"}}, {"name": "Spire Hospital", "latitude": 51.8274595, "longitude": -0.3606683, "source": "osm", "_tags": {"addr:city": "Harpenden", "addr:housename": "Spire Harpenden Hospital", "addr:postcode": "AL5 4BP", "addr:street": "Ambrose Lane", "amenity": "hospital", "check_date": "2024-05-11", "emergency": "no", "fhrs:authority": "St Albans City", "fhrs:id": "305378", "healthcare": "hospital", "name": "Spire Hospital", "operator": "Spire Healthcare Group", "operator:type": "private", "phone": "+44 1582 763191", "website": "https://www.spirehealthcare.com/spire-harpenden-hospital/"}}, {"name": "Great Ormond Street Hospital for Children", "latitude": 51.5224739, "longitude": -0.1204028, "source": "osm", "_tags": {"addr:city": "London", "addr:country": "GB", "addr:postcode": "WC1N 3JH", "addr:street": "Great Ormond Street", "amenity": "hospital", "contact:website": "http://www.gosh.nhs.uk/", "healthcare": "hospital", "name": "Great Ormond Street Hospital for Children", "operator": "Great Ormond Street Hospital for Children NHS Foundation Trust", "operator:type": "public", "operator:wikidata": "Q19873658", "ref:GB:cqc_location": "RP401", "ref:GB:nhs_ods": "RP401", "wikidata": "Q1349705", "wikipedia": "en:Great Ormond Street Hospital"}}, {"name": "Upton Hospital", "latitude": 51.5057102, "longitude": -0.5933035, "source": "osm", "_tags": {"amenity": "hospital", "healthcare": "hospital", "name": "Upton Hospital", "operator": "NHS", "operator:type": "public", "operator:wikidata": "Q918396", "ref:GB:cqc_location": "RWX85", "wikidata": "Q30281142"}}, {"name": "Sue Ryder Duchess of Kent Hospice", "latitude": 51.4493029, "longitude": -1.0022403, "source": "osm", "_tags": {"amenity": "hospital", "healthcare": "hospital", "name": "Sue Ryder Duchess of Kent Hospice"}}, {"name": "Spire Dunedin Hospital", "latitude": 51.4505345, "longitude": -0.9860165, "source": "osm", "_tags": {"addr:city": "Reading", "addr:housenumber": "16", "addr:street": "Bath Road", "amenity": "hospital", "contact:phone": "+44 118 958 7676", "healthcare": "hospital", "healthcare:speciality": "general", "name": "Spire Dunedin Hospital", "operator": "Spire Healthcare", "website": "https://www.spirehealthcare.com/spire-dunedin-hospital/"}}, {"name": "Brooklands Health Centre", "latitude": 52.0460278, "longitude": -0.6759983, "source": "osm", "_tags": {"amenity": "hospital", "healthcare": "hospital", "name": "Brooklands Health Centre"}}, {"name": "Royal London Hospital", "latitude": 51.5174467, "longitude": -0.0599244, "source": "osm", "_tags": {"addr:city": "London", "addr:postcode": "E1 1BB", "addr:street": "Whitechapel Road", "amenity": "hospital", "emergency": "yes", "fhrs:id": "100125", "healthcare": "hospital", "name": "Royal London Hospital", "operator": "Barts Health NHS Trust", "ref:GB:cqc_location": "R1H12", "ref:GB:nhs_ods": "R1H12", "wikidata": "Q7374421", "wikipedia": "en:Royal London Hospital"}}, {"name": "Kettering General Hospital - Nene Park", "latitude": 52.3292654, "longitude": -0.6003266, "source": "osm", "_tags": {"amenity": "hospital", "healthcare": "hospital", "name": "Kettering General Hospital - Nene Park"}}, {"name": "The Portland Hospital Consulting Suite", "latitude": 51.5228041, "longitude": -0.1442135, "source": "osm", "_tags": {"addr:housenumber": "205-207", "addr:street": "Great Portland Street", "amenity": "hospital", "building": "hospital", "building:levels": "7", "check_date": "2023-08-12", "healthcare": "hospital", "name": "The Portland Hospital Consulting Suite"}}, {"name": "Queen Anne Street Medical Centre", "latitude": 51.5182104, "longitude": -0.1470993, "source": "osm", "_tags": {"addr:housenumber": "18-22", "addr:street": "Queen Anne Street", "amenity": "hospital", "building": "yes", "healthcare": "hospital", "name": "Queen Anne Street Medical Centre", "ref:GB:cqc_location": "1-19458919324", "website": "https://qasmc.com/"}}, {"name": "One Hatfield Hospital", "latitude": 51.7712452, "longitude": -0.2364681, "source": "osm", "_tags": {"addr:city": "Hatfield", "addr:housenumber": "3", "addr:postcode": "AL10 9UA", "addr:street": "Hatfield Avenue", "amenity": "hospital", "building": "hospital", "building:levels": "2", "emergency": "no", "healthcare": "hospital", "name": "One Hatfield Hospital"}}, {"name": "Nightingale Hospital", "latitude": 51.5218142, "longitude": -0.1652215, "source": "osm", "_tags": {"addr:street": "Lisson Grove", "amenity": "hospital", "check_date": "2024-04-04", "healthcare": "hospital", "healthcare:speciality": "psychiatry", "name": "Nightingale Hospital", "website": "https://www.nightingalehospital.co.uk/", "wikidata": "Q60746347"}}, {"name": "Hospital of St John and St Elizabeth", "latitude": 51.5332691, "longitude": -0.1749786, "source": "osm", "_tags": {"addr:housenumber": "60", "addr:street": "Grove End Road", "amenity": "hospital", "healthcare": "hospital", "name": "Hospital of St John and St Elizabeth", "website": "https://www.hje.org.uk/", "wikidata": "Q5908758", "wikipedia": "en:Hospital of St John and St Elizabeth"}}, {"name": "Guy's Hospital", "latitude": 51.5032347, "longitude": -0.0868297, "source": "osm", "_tags": {"addr:city": "London", "addr:postcode": "SE1 9RT", "addr:street": "Great Maze Pond", "amenity": "hospital", "emergency": "no", "healthcare": "hospital", "name": "Guy's Hospital", "operator": "Guy's and St Thomas' NHS Foundation Trust", "phone": "+44 20 7188 7188", "website": "https://www.guysandstthomas.nhs.uk/", "wikidata": "Q777039", "wikipedia": "en:Guy's Hospital"}}, {"name": "Marlow Community Hospital", "latitude": 51.5735888, "longitude": -0.7704981, "source": "osm", "_tags": {"addr:city": "Marlow", "addr:postcode": "SL7 1DJ", "addr:street": "Victoria Road", "amenity": "hospital", "fhrs:id": "576701", "healthcare": "hospital", "name": "Marlow Community Hospital", "ref:GB:cqc_location": "RXQ65", "website": "https://www.nhs.uk/Services/hospitals/Overview/DefaultView.aspx?id=29094", "wheelchair": "yes", "wikidata": "Q30293156"}}, {"name": "Danesbury House Neurological Centre", "latitude": 51.8279082, "longitude": -0.2228386, "source": "osm", "_tags": {"addr:postcode": "AL6 9PW", "addr:street": "School Lane", "amenity": "hospital", "beds": "14", "building": "hospital", "emergency": "no", "name": "Danesbury House Neurological Centre", "phone": "+44 1438 841841"}}, {"name": "Royal Free Hospital", "latitude": 51.5530202, "longitude": -0.1654575, "source": "osm", "_tags": {"addr:city": "London", "addr:postcode": "NW3 2QG", "addr:street": "Pond Street", "amenity": "hospital", "check_date": "2024-01-15", "emergency": "yes", "healthcare": "hospital", "name": "Royal Free Hospital", "opening_hours": "24/7", "operator": "Royal Free London", "phone": "+44 20 7794 0500", "reg_name": "Royal Free", "short_name": "RFH", "source": "OS;Bing", "website": "https://www.royalfree.nhs.uk/our-locations/royal-free-hospital", "wheelchair": "yes", "wikidata": "Q7374196", "wikipedia": "en:Royal Free Hospital"}}, {"name": "Cromwell Hospital", "latitude": 51.4952203, "longitude": -0.1911413, "source": "osm", "_tags": {"addr:housenumber": "164-178", "addr:street": "Cromwell Road", "amenity": "hospital", "healthcare": "hospital", "name": "Cromwell Hospital", "operator": "BUPA", "operator:type": "private", "phone": "+44 20 7460 5700", "was:name": "Bupa Cromwell Hospital", "website": "https://www.cromwellhospital.com/", "wikidata": "Q5187669", "wikipedia": "en:Cromwell Hospital"}}, {"name": "Worlds End Health Centre", "latitude": 51.4804604, "longitude": -0.1846804, "source": "osm", "_tags": {"addr:city": "London", "addr:housenumber": "529", "addr:postcode": "SW10 0UD", "addr:street": "King's Road", "amenity": "hospital", "building": "yes", "building:levels": "2", "healthcare": "hospital", "name": "Worlds End Health Centre"}}, {"name": "University College Hospital at Westmoreland Street", "latitude": 51.5196063, "longitude": -0.1496613, "source": "osm", "_tags": {"addr:city": "London", "addr:housenumber": "16-18", "addr:street": "Westmoreland Street", "amenity": "hospital", "emergency": "no", "fhrs:confidence_management": "0", "fhrs:hygiene": "0", "fhrs:id": "428160", "fhrs:local_authority_id": "01609/0016/0/000", "fhrs:rating": "5", "fhrs:structural": "5", "healthcare": "hospital", "name": "University College Hospital at Westmoreland Street", "operator": "University College London Hospitals NHS Foundation Trust", "postal_code": "W1G 8PH", "source:addr": "FSA Food Hygiene Ratings Database", "source:postcode": "FSA Food Hygiene Ratings Database", "wheelchair": "yes", "wikidata": "Q7739155"}}, {"name": "Teddington Memorial Hospital", "latitude": 51.4256938, "longitude": -0.3410941, "source": "osm", "_tags": {"addr:city": "Teddington", "addr:housename": "Teddington War Memorial Hospital", "addr:postcode": "TW11 0JL", "addr:street": "Hampton Road", "amenity": "hospital", "check_date": "2024-11-10", "emergency": "no", "healthcare": "hospital", "healthcare:speciality": "radiology;diagnostic_radiology;general;community;diabetology;gynaecology;paediatrics", "name": "Teddington Memorial Hospital", "operator:type": "public", "source": "survey", "source:addr": "FHRS Open Data", "wheelchair": "yes", "wikidata": "Q17022101"}}, {"name": "Nuffield Health Cancer Centre London", "latitude": 51.4338573, "longitude": -0.2237476, "source": "osm", "_tags": {"amenity": "hospital", "healthcare": "hospital", "name": "Nuffield Health Cancer Centre London"}}, {"name": "Spire Thames Valley Hospital", "latitude": 51.5427247, "longitude": -0.5720396, "source": "osm", "_tags": {"addr:postcode": "SL3 6NH", "addr:street": "Wexham Street", "amenity": "hospital", "emergency": "no", "healthcare": "hospital", "name": "Spire Thames Valley Hospital", "operator": "Spire Healthcare Group plc", "operator:type": "private", "phone": "+44 1753 662 241", "ref:GB:cqc_location": "1-2745569338", "website": "https://www.spirehealthcare.com/spire-thames-valley-hospital/"}}, {"name": "Chelsea and Westminster Hospital", "latitude": 51.4843905, "longitude": -0.1814395, "source": "osm", "_tags": {"addr:city": "London", "addr:housenumber": "369", "addr:postcode": "SW10 9NH", "addr:street": "Fulham Road", "amenity": "hospital", "emergency": "yes", "healthcare": "hospital", "name": "Chelsea and Westminster Hospital", "start_date": "1993", "website": "https://www.chelwest.nhs.uk/", "wikidata": "Q5090151", "wikipedia": "en:Chelsea and Westminster Hospital"}}, {"name": "Royal Brompton Hospital", "latitude": 51.4899939, "longitude": -0.1741702, "source": "osm", "_tags": {"addr:street": "Fulham Road", "amenity": "hospital", "healthcare": "hospital", "name": "Royal Brompton Hospital", "wikidata": "Q7373850", "wikipedia": "en:Royal Brompton Hospital"}}, {"name": "Royal Buckinghamshire Hospital", "latitude": 51.8207711, "longitude": -0.8159702, "source": "osm", "_tags": {"addr:postcode": "HP19 9AB", "addr:street": "Buckingham Road", "amenity": "hospital", "fhrs:id": "606705", "healthcare": "hospital", "name": "Royal Buckinghamshire Hospital", "website": "https://www.royalbucks.co.uk/", "wikidata": "Q7373861", "wikipedia": "en:Royal Buckinghamshire Hospital"}}, {"name": "Whiteleaf Centre", "latitude": 51.8205916, "longitude": -0.8023131, "source": "osm", "_tags": {"addr:city": "Aylesbury", "addr:postcode": "HP20 1EG", "addr:street": "Bierton Road", "amenity": "hospital", "emergency": "no", "healthcare": "hospital", "name": "Whiteleaf Centre", "website": "https://www.oxfordhealth.nhs.uk/whiteleaf/"}}, {"name": "Queen Charlotte's & Chelsea Hospital", "latitude": 51.5163849, "longitude": -0.2373413, "source": "osm", "_tags": {"addr:city": "London", "addr:postcode": "W12 0HS", "addr:street": "Du Cane Road", "amenity": "hospital", "building": "hospital", "building:levels": "5", "check_date": "2024-01-28", "healthcare": "hospital", "internet_access": "wlan", "internet_access:fee": "no", "name": "Queen Charlotte's & Chelsea Hospital", "phone": "+44 20 3313 1111", "website": "https://www.imperial.nhs.uk/our-locations/queen-charlottes-and-chelsea-hospital", "wikidata": "Q7270242"}}, {"name": "", "latitude": 52.2474507, "longitude": -0.1216757, "source": "osm", "_tags": {"amenity": "hospital"}}, {"name": "Noah's Ark Children's Hospice", "latitude": 51.6581205, "longitude": -0.2148715, "source": "osm", "_tags": {"amenity": "hospital", "healthcare": "hospital", "healthcare:speciality": "paediatrics", "name": "Noah's Ark Children's Hospice", "wheelchair": "yes"}}, {"name": "Spire Bushey Hospital", "latitude": 51.6374383, "longitude": -0.3316358, "source": "osm", "_tags": {"amenity": "hospital", "name": "Spire Bushey Hospital"}}, {"name": "The Doctors Laboratory", "latitude": 51.5280288, "longitude": -0.1280407, "source": "osm", "_tags": {"addr:city": "London", "addr:housename": "The Halo Building", "addr:housenumber": "1", "addr:street": "Mabledon Place", "amenity": "hospital", "building": "office", "check_date": "2025-06-18", "emergency": "no", "healthcare": "hospital", "healthcare:speciality": "pathology", "name": "The Doctors Laboratory", "operator": "The Doctors Laboratory Limited", "ref:GB:cqc_location": "1-5588555895", "website": "https://www.tdlpathology.com/"}}, {"name": "Potters Bar Clinic", "latitude": 51.6865495, "longitude": -0.177779, "source": "osm", "_tags": {"addr:city": "Potters Bar", "addr:housenumber": "190", "addr:postcode": "EN6 2SE", "addr:street": "Barnet Road", "amenity": "hospital", "building": "hospital", "check_date": "2025-04-09", "email": "pottersbar@elysiumhealthcare.co.uk", "emergency": "yes", "healthcare": "hospital", "healthcare:speciality": "psychiatry", "name": "Potters Bar Clinic", "operator": "Elysium Healthcare", "operator:type": "private", "operator:wikidata": "Q39086513", "phone": "+44 1707 858585", "website": "https://www.elysiumhealthcare.co.uk/location/potters-bar-clinic/", "wikidata": "Q107103988"}}, {"name": "Hertford County Hospital", "latitude": 51.7965751, "longitude": -0.0887462, "source": "osm", "_tags": {"addr:postcode": "SG14 1LP", "addr:street": "North Road", "amenity": "hospital", "emergency": "no", "healthcare": "hospital", "name": "Hertford County Hospital", "operator": "East and North Hertfordshire NHS Trust", "phone": "+44 1438 314333", "website": "https://www.enherts-tr.nhs.uk/hospitals/hertford/", "wikidata": "Q5744684"}}, {"name": "Huntercombe Hospital", "latitude": 51.4477919, "longitude": -0.2422168, "source": "osm", "_tags": {"healthcare": "hospital", "name": "Huntercombe Hospital"}}, {"name": "St. Mary's Hospital", "latitude": 52.3937953, "longitude": -0.7215578, "source": "osm", "_tags": {"addr:city": "Kettering", "addr:country": "GB", "addr:housenumber": "77", "addr:postcode": "NN15 7PW", "addr:street": "London Road", "amenity": "hospital", "fhrs:authority": "North Northamptonshire", "fhrs:id": "82965", "fhrs:local_authority_id": "202", "healthcare": "hospital", "name": "St. Mary's Hospital", "operator": "Northamptonshire Healthcare NHS Foundation Trust", "phone": "+44 1536 410141", "ref:GB:cqc_location": "RP1A1"}}, {"name": "Princess Margaret Hospital", "latitude": 51.4748554, "longitude": -0.6101204, "source": "osm", "_tags": {"addr:city": "Windsor", "addr:housenumber": "38-42", "addr:postcode": "SL4 3SJ", "addr:street": "Osborne Road", "amenity": "hospital", "fhrs:id": "842817", "healthcare": "hospital", "name": "Princess Margaret Hospital", "ref:GB:cqc_location": "1-128767105", "source:addr": "FHRS Open Data", "wikidata": "Q30292886"}}, {"name": "The Cavell Hospital", "latitude": 51.6590735, "longitude": -0.1019474, "source": "osm", "_tags": {"amenity": "hospital", "emergency": "no", "healthcare": "hospital", "name": "The Cavell Hospital", "ref:GB:cqc_location": "1-128758601"}}, {"name": "Royal National ENT and Eastman Dental Hospitals", "latitude": 51.5225494, "longitude": -0.1345308, "source": "osm", "_tags": {"addr:city": "London", "addr:housenumber": "47-49", "addr:postcode": "WC1E 6DG", "addr:street": "Huntley Street", "amenity": "hospital", "check_date": "2023-09-13", "emergency": "no", "healthcare": "hospital", "healthcare:speciality": "ear_nose_throat;dentistry", "internet_access": "wlan", "name": "Royal National ENT and Eastman Dental Hospitals", "note": "New location of the Royal National ENT and Eastman Dental Hospitals. Some services will remain at Gray's Inn Road until 2020 but this is now open and the primary location.", "operator": "University College Hospitals", "operator:type": "public", "phone": "+44 20 3456 7890", "ref:GB:cqc_location": "RRVP5", "ref:GB:nhs_ods": "RRVP5", "website": "https://www.uclh.nhs.uk/OurServices/OurHospitals/RNTNE/Pages/Home.aspx"}}, {"name": "Macmillan Cancer Centre", "latitude": 51.5231171, "longitude": -0.1352014, "source": "osm", "_tags": {"addr:city": "London", "addr:postcode": "WC1E 6AG", "addr:street": "Huntley Street", "amenity": "hospital", "emergency": "no", "healthcare": "hospital", "healthcare:speciality": "oncology;chemotherapy;Haematology;surgical_oncology", "name": "Macmillan Cancer Centre", "nohousenumber": "yes", "operator": "University College Hospitals"}}, {"name": "", "latitude": 51.5211636, "longitude": -0.2971478, "source": "osm", "_tags": {"amenity": "hospital", "healthcare": "hospital"}}, {"name": "Springfield University Hospital", "latitude": 51.4369882, "longitude": -0.1707934, "source": "osm", "_tags": {"addr:city": "London", "addr:housename": "Trinity Building", "addr:housenumber": "15", "addr:postcode": "SW17 0YF", "addr:street": "Springfield Drive", "amenity": "hospital", "email": "ContactCentreSPH@swlstg.nhs.uk", "healthcare": "hospital", "healthcare:speciality": "mental_health_services", "name": "Springfield University Hospital", "operator": "NHS", "operator:type": "public", "operator:wikidata": "Q918396", "phone": "+44 20 3513 5000"}}, {"name": "FKS Hair Clinic", "latitude": 51.4749263, "longitude": -0.1944238, "source": "osm", "_tags": {"addr:city": "London", "addr:housenumber": "109", "addr:postcode": "SW6 4SJ", "addr:street": "New King's Road", "amenity": "hospital", "contact:facebook": "https://www.facebook.com/fkshairclinic/", "description": "London's Best Hair Transplant Clinic", "email": "info@fksclinic.co.uk", "healthcare": "hospital", "healthcare:speciality": "plastic_surgery;transplant", "image": "https://www.fksclinic.co.uk/wp-content/uploads/2024/10/fks-clinic-768x576.webp", "internet_access": "yes", "mobile": "+44 7444 919835", "name": "FKS Hair Clinic", "opening_hours": "Mo-Sa 08:00-18:00", "website": "https://www.fksclinic.co.uk"}}, {"name": "The Sett", "latitude": 52.2408893, "longitude": -0.9517056, "source": "osm", "_tags": {"amenity": "hospital", "healthcare": "hospital", "name": "The Sett"}}, {"name": "Woodland Grange Outpatients", "latitude": 52.4134467, "longitude": -0.7672899, "source": "osm", "_tags": {"addr:postcode": "NN16 8FB", "addr:street": "Rothwell Grange Court", "amenity": "hospital", "healthcare": "hospital", "name": "Woodland Grange Outpatients", "operator": "Ramsay Health Care UK", "operator:type": "private", "operator:wikidata": "Q20047299", "phone": "+44 1536 414515", "website": "https://www.ramsayhealth.co.uk"}}, {"name": "Harpenden Memorial Hospital", "latitude": 51.818736, "longitude": -0.3531437, "source": "osm", "_tags": {"addr:city": "Harpenden", "addr:postcode": "AL5 4TA", "addr:street": "Carlton Road", "amenity": "hospital", "emergency": "no", "healthcare": "hospital", "name": "Harpenden Memorial Hospital", "operator": "NHS", "operator:wikidata": "Q918396", "phone": "+44 1582 760196"}}, {"name": "Priory Hospital High Wycombe", "latitude": 51.6130945, "longitude": -0.7923259, "source": "osm", "_tags": {"amenity": "hospital", "healthcare": "hospital", "name": "Priory Hospital High Wycombe", "suspected:fhrs:id": "1041073", "suspected:ref:GB:cqc_location": "1-5303149515"}}, {"name": "Luton and Dunstable Hospital", "latitude": 51.8959515, "longitude": -0.4773565, "source": "osm", "_tags": {"amenity": "hospital", "emergency": "yes", "healthcare": "hospital", "name": "Luton and Dunstable Hospital"}}, {"name": "Nuffield Health at St Bartholomew's Hospital", "latitude": 51.5173292, "longitude": -0.1010719, "source": "osm", "_tags": {"addr:city": "London", "addr:housenumber": "38", "addr:street": "Giltspur Street", "amenity": "hospital", "healthcare": "hospital", "name": "Nuffield Health at St Bartholomew's Hospital", "operator": "Nuffield Health", "operator:type": "private", "operator:wikidata": "Q7068711", "ref:GB:cqc_location": "1-11984358600"}}, {"name": "National Hospital for Neurology and Neurosurgery", "latitude": 51.5221919, "longitude": -0.1224733, "source": "osm", "_tags": {"addr:city": "London", "addr:postcode": "WC1N 3BG", "addr:street": "Queen Square", "amenity": "hospital", "emergency": "no", "healthcare": "hospital", "name": "National Hospital for Neurology and Neurosurgery", "operator": "NHS", "operator:type": "public", "operator:wikidata": "Q918396", "phone": "+44 20 3456 7890", "ref:GB:cqc_location": "RRVNQ", "ref:GB:nhs_ods": "RRVNQ", "toilets:wheelchair": "yes", "website": "https://www.uclh.nhs.uk/ourservices/ourhospitals/nhnn/Pages/Home.aspx", "wheelchair": "yes", "wikidata": "Q3336892"}}, {"name": "Royal London Hospital for Integrated Medicine", "latitude": 51.5217696, "longitude": -0.1214747, "source": "osm", "_tags": {"amenity": "hospital", "healthcare": "hospital", "name": "Royal London Hospital for Integrated Medicine", "old_name": "Royal Homeopathic Hospital", "ref:GB:cqc_location": "RRV60", "ref:GB:nhs_ods": "RRV60", "website": "https://www.uclh.nhs.uk/ourservices/ourhospitals/rlhim/Pages/Home.aspx", "wheelchair": "yes", "wikidata": "Q7374417"}}, {"name": "", "latitude": 51.4307807, "longitude": -0.3395572, "source": "osm", "_tags": {"amenity": "hospital", "healthcare": "hospital", "operator": "NHS", "operator:type": "public", "operator:wikidata": "Q918396"}}, {"name": "Wembley Centre for Health & Care", "latitude": 51.5500864, "longitude": -0.3059305, "source": "osm", "_tags": {"amenity": "hospital", "building": "yes", "name": "Wembley Centre for Health & Care", "source": "OS", "type": "multipolygon"}}, {"name": "", "latitude": 51.5501205, "longitude": -0.3045693, "source": "osm", "_tags": {"amenity": "hospital", "building": "yes", "source": "OS", "type": "multipolygon"}}, {"name": "The Clementine Churchill Hospital", "latitude": 51.5650798, "longitude": -0.3322955, "source": "osm", "_tags": {"amenity": "hospital", "building": "yes", "healthcare": "hospital", "name": "The Clementine Churchill Hospital", "operator": "BMI", "operator:type": "private", "source": "OS;local knowledge", "type": "multipolygon"}}, {"name": "Clayponds Hospital", "latitude": 51.4951007, "longitude": -0.2986011, "source": "osm", "_tags": {"amenity": "hospital", "building": "yes", "name": "Clayponds Hospital", "type": "multipolygon"}}, {"name": "BMI Saxon Clinic", "latitude": 52.0254443, "longitude": -0.7401826, "source": "osm", "_tags": {"addr:city": "Milton Keynes", "addr:country": "GB", "addr:postcode": "MK6 5LR", "addr:street": "Chadwick Drive", "addr:suburb": "Eaglestone - West", "amenity": "hospital", "building": "yes", "description": "Private Clinic", "fhrs:authority": "Milton Keynes", "fhrs:id": "130145", "fhrs:local_authority_id": "61193", "healthcare": "hospital", "name": "BMI Saxon Clinic", "type": "multipolygon"}}, {"name": "Chadwick Lodge", "latitude": 52.0267646, "longitude": -0.7408895, "source": "osm", "_tags": {"addr:city": "Milton Keynes", "addr:country": "GB", "addr:postcode": "MK6 5LS", "addr:street": "Chadwick Drive", "addr:suburb": "Eaglestone - West", "amenity": "hospital", "building": "yes", "fhrs:authority": "Milton Keynes", "fhrs:id": "131635", "fhrs:local_authority_id": "63161", "healthcare": "hospital", "name": "Chadwick Lodge", "operator": "Elysium Healthcare", "type": "multipolygon"}}, {"name": "Berrywood Hospital", "latitude": 52.2473407, "longitude": -0.9599197, "source": "osm", "_tags": {"addr:city": "Northampton", "addr:country": "GB", "addr:housename": "Berrywood Hospital", "addr:postcode": "NN5 6UD", "addr:street": "Berrywood Drive", "amenity": "hospital", "building": "hospital", "fhrs:authority": "Northampton", "fhrs:id": "181888", "fhrs:local_authority_id": "PI/000071862", "name": "Berrywood Hospital", "operator": "Northamptonshire Healthcare NHS Foundation Trust", "phone": "+44 1604685433", "ref:GB:cqc_location": "RP1V4", "type": "multipolygon", "wikidata": "Q4894895"}}, {"name": "Maudsley Hospital", "latitude": 51.4690387, "longitude": -0.0902554, "source": "osm", "_tags": {"addr:city": "London", "addr:postcode": "SE5 8AZ", "addr:street": "Denmark Hill", "amenity": "hospital", "emergency": "no", "healthcare": "hospital", "healthcare:speciality": "psychiatry", "name": "Maudsley Hospital", "operator": "South London and Maudsley NHS Foundation Trust", "phone": "+44 20 3228 6000", "type": "multipolygon", "website": "https://www.slam.nhs.uk/", "wikidata": "Q6792344", "wikipedia": "en:Maudsley Hospital"}}, {"name": "London Clinic", "latitude": 51.5229039, "longitude": -0.1499741, "source": "osm", "_tags": {"addr:city": "London", "addr:housenumber": "20", "addr:postcode": "W1G 6BW", "addr:street": "Devonshire Place", "amenity": "hospital", "healthcare": "hospital", "name": "London Clinic", "source": "OS", "type": "multipolygon", "website": "https://www.thelondonclinic.co.uk/", "wikidata": "Q14996990", "wikipedia": "en:The London Clinic"}}, {"name": "The Chiltern Hospital", "latitude": 51.6903747, "longitude": -0.6938607, "source": "osm", "_tags": {"addr:postcode": "HP16 0EN", "addr:street": "London Road", "amenity": "hospital", "beds": "66", "building": "hospital", "emergency": "no", "healthcare": "hospital", "name": "The Chiltern Hospital", "operator": "BMI Healthcare", "operator:type": "private", "phone": "+44 1494 890890", "ref:GB:cqc_location": "1-128758622", "type": "multipolygon", "website": "https://www.bmihealthcare.co.uk/hospitals/bmi-the-chiltern-hospital"}}, {"name": "The Priory", "latitude": 51.4622574, "longitude": -0.2516039, "source": "osm", "_tags": {"addr:city": "London", "addr:housename": "The Roehampton Priory Hospital", "addr:postcode": "SW15 5JJ", "addr:street": "Priory Lane", "amenity": "hospital", "emergency": "no", "fhrs:id": "1572541", "healthcare": "hospital", "name": "The Priory", "source:addr": "FHRS Open Data", "type": "multipolygon", "wikidata": "Q7245500"}}, {"name": "Kingsley Green Hospital", "latitude": 51.7034647, "longitude": -0.3073136, "source": "osm", "_tags": {"amenity": "hospital", "emergency": "no", "healthcare": "hospital", "name": "Kingsley Green Hospital", "old_name": "Harperbury Hospital", "type": "multipolygon", "wikidata": "Q6413307"}}]