[{"name": "Klinika Life-Med Bis", "latitude": 52.067365, "longitude": 20.4421956, "source": "osm", "_tags": {"amenity": "hospital", "emergency": "no", "healthcare": "hospital", "name": "Klinika Life-Med Bis"}}, {"name": "SZPZOZ im. Dzieci Warszawy w Dziekanowie Leśnym", "latitude": 52.3412144, "longitude": 20.8501299, "source": "osm", "_tags": {"amenity": "hospital", "email": "szpital@szpitaldziekanow.pl", "healthcare": "hospital", "name": "SZPZOZ im. Dzieci Warszawy w Dziekanowie Leśnym", "official_name": "Samodzielny Zespół Publicznych Zakładów Opieki Zdrowotnej im. Dzieci Warszawy", "phone": "+48 22 765 72 10", "short_name": "Szpital Dziecięcy", "website": "https://szpitaldziekanow.pl/"}}, {"name": "Międzynarodowe Centrum Słuchu", "latitude": 52.0967923, "longitude": 20.8232128, "source": "osm", "_tags": {"amenity": "hospital", "name": "Międzynarodowe Centrum Słuchu"}}, {"name": "Szpital im. Zenona Tokarskiego", "latitude": 52.0599837, "longitude": 20.4412091, "source": "osm", "_tags": {"amenity": "hospital", "email": "sekretariat@szpitalzyrardow.pl", "emergency": "yes", "healthcare": "hospital", "name": "Szpital im. Zenona Tokarskiego", "operator": "Centrum Zdrowia Mazowsza Zachodniego Sp. z o.o.", "phone": "+48 46 855 20 11", "website": "http://www.czmz.szpitalzyrardow.pl/"}}, {"name": "Nowodworskie Centrum Medyczne", "latitude": 52.4197472, "longitude": 20.7250448, "source": "osm", "_tags": {"amenity": "hospital", "healthcare": "hospital", "name": "Nowodworskie Centrum Medyczne"}}, {"name": "Tomaszowskie Centrum Zdrowia", "latitude": 51.522537, "longitude": 20.0062205, "source": "osm", "_tags": {"addr:city": "Tomaszów Mazowiecki", "addr:housenumber": "35", "addr:postcode": "97-200", "addr:street": "Jana Pawła II", "amenity": "hospital", "barrier": "fence", "email": "sekretariat@tomaszow.org.pl", "healthcare": "hospital", "name": "Tomaszowskie Centrum Zdrowia", "phone": "+48 44 725 71 34", "source": "http://ump.waw.pl/ retrieved 00:10:48 03/29/10 (UMP-Lodz/src/POI-Lodz.szpitale.pnt-converted.txt)", "website": "https://szpitalwtomaszowie.pl"}}, {"name": "Centrum Medyczne BCM", "latitude": 52.3881024, "longitude": 20.1886644, "source": "osm", "_tags": {"amenity": "hospital", "building": "yes", "emergency": "no", "healthcare": "hospital", "name": "Centrum Medyczne BCM"}}, {"name": "Samodzielny Publiczny Specjalistyczny Szpital Zachodni im. Jana Pawła II", "latitude": 52.0951889, "longitude": 20.6159734, "source": "osm", "_tags": {"addr:city": "Grodzisk Mazowiecki", "addr:housenumber": "11", "addr:postcode": "05-825", "addr:street": "Daleka", "amenity": "hospital", "email": "sekretariat@szpitalzachodni.pl", "healthcare": "hospital", "name": "Samodzielny Publiczny Specjalistyczny Szpital Zachodni im. Jana Pawła II", "phone": "+48 22 755 90 49", "website": "https://szpitalzachodni.pl"}}, {"name": "Szpital im. Świętego Ducha w Rawie Mazowieckiej", "latitude": 51.7661292, "longitude": 20.2593119, "source": "osm", "_tags": {"addr:city": "Rawa Mazowiecka", "addr:housenumber": "14", "addr:postcode": "96-200", "addr:street": "Warszawska", "alt_name": "Szpital Św. Ducha", "amenity": "hospital", "building": "hospital", "emergency": "yes", "name": "Szpital im. Świętego Ducha w Rawie Mazowieckiej"}}, {"name": "Zespół Opieki Zdrowotnej ,,Szpitala Powiatowego” w Sochaczewie", "latitude": 52.2388225, "longitude": 20.2270253, "source": "osm", "_tags": {"amenity": "hospital", "email": "kancelaria@szpitalsochaczew.pl", "healthcare": "hospital", "name": "Zespół Opieki Zdrowotnej ,,Szpitala Powiatowego” w Sochaczewie", "operator": "Zespół Opieki Zdrowotnej ,,Szpitala Powiatowego” w Sochaczewie", "phone": "+48 46 864-95-00"}}, {"name": "Samodzielny Publiczny Zakład Opieki Zdrowotnej", "latitude": 51.6164039, "longitude": 20.5650916, "source": "osm", "_tags": {"addr:city": "Nowe Miasto nad Pilicą", "addr:housenumber": "43", "addr:postcode": "26-420", "addr:street": "Tomaszowska", "alt_name": "Szpital Nowe Miasto nad Pilicą", "amenity": "hospital", "building": "yes", "name": "Samodzielny Publiczny Zakład Opieki Zdrowotnej", "operator": "Szpital Nowe Miasto"}}, {"name": "Mazowieckie Specjalistyczne Centrum Zdrowia im. prof. Jana Mazurkiewicza", "latitude": 52.1672003, "longitude": 20.8291182, "source": "osm", "_tags": {"amenity": "hospital", "heritage": "2", "heritage:operator": "nid", "historic": "heritage", "name": "Mazowieckie Specjalistyczne Centrum Zdrowia im. prof. Jana Mazurkiewicza", "nid:inscription_date": "1987-01-02", "note": "zespół urbanistyczno-architektoniczny szpitala psychiatrycznego, 1881, XX", "old_name": "Szpital Tworkowski", "ref:nid": "1281 z 02.01.1987", "start_date": "1881", "website": "https://tworki.eu/"}}, {"name": "Szpital Kolejowy im. Włodzimierza Roeflera", "latitude": 52.1750644, "longitude": 20.8078251, "source": "osm", "_tags": {"amenity": "hospital", "healthcare": "hospital", "name": "Szpital Kolejowy im. Włodzimierza Roeflera"}}, {"name": "Szpital Powiatowy w Pruszkowie", "latitude": 52.1596086, "longitude": 20.8201583, "source": "osm", "_tags": {"alt_name": "Szpital Na Wrzesinie", "amenity": "hospital", "contact:facebook": "https://www.facebook.com/szpitalnawrzesinie", "healthcare": "hospital", "name": "Szpital Powiatowy w Pruszkowie", "website": "https://www.szpitalnawrzesinie.pl/"}}, {"name": "WOPR", "latitude": 51.4689002, "longitude": 20.0101247, "source": "osm", "_tags": {"amenity": "hospital", "building": "container", "healthcare": "hospital", "name": "WOPR"}}, {"name": "Samodzielny Publiczny Zakład Opieki Zdrowotnej - Szpital w Nowym Mieście nad Pilicą", "latitude": 51.6160553, "longitude": 20.564833, "source": "osm", "_tags": {"addr:city": "Nowe Miasto nad Pilicą", "addr:city:simc": "0973725", "addr:housenumber": "43", "addr:postcode": "26-420", "addr:street": "Tomaszowska", "alt_name": "Szpital Nowe Miasto nad Pilicą", "amenity": "hospital", "name": "Samodzielny Publiczny Zakład Opieki Zdrowotnej - Szpital w Nowym Mieście nad Pilicą", "operator": "Szpital Nowe Miasto", "phone": "48 67 43 800", "website": "https://zoz-nowemiasto.net/"}}, {"name": "Powiatowe Centrum Medyczne w Grójcu", "latitude": 51.8682437, "longitude": 20.8687109, "source": "osm", "_tags": {"addr:city": "Grójec", "addr:housenumber": "10", "addr:postcode": "05-600", "addr:street": "Księdza Piotra Skargi", "alt_name": "Szpital im. Piotra Skargi", "amenity": "hospital", "emergency": "yes", "healthcare": "hospital", "name": "Powiatowe Centrum Medyczne w Grójcu", "phone": "+48 48 664 92 00", "website": "https://pcmg.pl/"}}, {"name": "Szpital Wojewódzki Zespolony", "latitude": 51.9633389, "longitude": 20.1528902, "source": "osm", "_tags": {"amenity": "hospital", "emergency": "yes", "healthcare": "hospital", "name": "Szpital Wojewódzki Zespolony", "type": "multipolygon"}}]