[{"name": "Admiraal De Ruyter Ziekenhuis", "latitude": 51.6564016, "longitude": 3.9283516, "source": "osm", "_tags": {"addr:city": "Zierikzee", "addr:housenumber": "2", "addr:postcode": "4301NP", "addr:street": "Koning Gustaafweg", "amenity": "hospital", "emergency": "no", "healthcare": "hospital", "name": "Admiraal De Ruyter Ziekenhuis", "short_name": "ADRZ", "source": "BAG", "source:date": "2014-02-11", "website": "https://www.adrz.nl/"}}, {"name": "Admiraal De Ruyter Ziekenhuis", "latitude": 51.4514416, "longitude": 3.5664035, "source": "osm", "_tags": {"alt_name": "ADRZ", "amenity": "hospital", "healthcare": "hospital", "name": "Admiraal De Ruyter Ziekenhuis"}}, {"name": "Adrz", "latitude": 51.4847167, "longitude": 3.9075065, "source": "osm", "_tags": {"addr:city": "Goes", "addr:housenumber": "114", "addr:postcode": "4462RA", "addr:street": "'s-Gravenpolderseweg", "amenity": "hospital", "emergency": "yes", "healthcare": "hospital", "name": "Adrz", "old_name": "Admiraal de Ruyter Ziekenhuis", "phone": "+31 88 125 0000", "website": "https://www.adrz.nl/", "wikipedia": "nl:Admiraal de Ruyterziekenhuis"}}]