[{"name": "University Hospital Waterford", "latitude": 52.2489606, "longitude": -7.0788606, "source": "osm", "_tags": {"HSE_code": "100", "HSE_hgid": "5", "HSE_hgroup": "South/South West Hospital Group", "HSE_region": "South West", "amenity": "hospital", "emergency": "yes", "healthcare": "hospital", "is_in": "Waterford", "name": "University Hospital Waterford", "note": "formerly Ardkeen Hospsital", "old_name": "Waterford Regional Hospital", "operator": "Health Service Executive", "operator:short": "HSE", "operator:type": "public", "operator:wikidata": "Q5690681", "operator:wikipedia": "en:Health Service Executive", "toilets:wheelchair": "yes", "wheelchair": "yes", "wikidata": "Q7974039"}}, {"name": "UPMC Whitfield", "latitude": 52.2402271, "longitude": -7.1723069, "source": "osm", "_tags": {"amenity": "hospital", "healthcare": "hospital", "name": "UPMC Whitfield"}}, {"name": "Youghal Community Hospital", "latitude": 51.9575566, "longitude": -7.8600877, "source": "osm", "_tags": {"amenity": "hospital", "building": "yes", "healthcare": "hospital", "name": "Youghal Community Hospital"}}, {"name": "Dungarvan Community Hospital & Community Services", "latitude": 52.0873015, "longitude": -7.6366806, "source": "osm", "_tags": {"addr:street": "Springfield", "alt_name": "St Joseph's Hospital", "amenity": "hospital", "healthcare": "hospital", "name": "Dungarvan Community Hospital & Community Services", "operator": "Health Service Executive", "operator:short": "HSE", "operator:wikidata": "Q5690681", "operator:wikipedia": "en:Health Service Executive", "phone": "+353-58-20900"}}, {"name": "South Tipperary General Hospital", "latitude": 52.355711, "longitude": -7.7157448, "source": "osm", "_tags": {"HSE_code": "105", "HSE_hgid": "5", "HSE_hgroup": "South/South West Hospital Group", "HSE_region": "South West", "amenity": "hospital", "healthcare": "hospital", "name": "South Tipperary General Hospital", "operator": "Health Service Executive", "operator:short": "HSE", "operator:type": "government", "operator:wikidata": "Q5690681", "operator:wikipedia": "en:Health Service Executive", "wikidata": "Q7568661"}}, {"name": "Waterford Residential Care Centre", "latitude": 52.2501257, "longitude": -7.1027261, "source": "osm", "_tags": {"alt_name": "Saint Patrick's Hospital", "amenity": "hospital", "healthcare": "hospital", "name": "Waterford Residential Care Centre", "operator": "Health Service Executive", "operator:short": "HSE", "operator:type": "government", "operator:wikidata": "Q5690681", "operator:wikipedia": "en:Health Service Executive"}}, {"name": "", "latitude": 52.2456715, "longitude": -7.1038588, "source": "osm", "_tags": {"amenity": "hospital", "healthcare": "hospital"}}, {"name": "St. Brigid's Hospital", "latitude": 52.3476183, "longitude": -7.4037057, "source": "osm", "_tags": {"amenity": "hospital", "healthcare": "hospital", "name": "St. Brigid's Hospital", "operator": "Health Service Executive", "operator:short": "HSE", "operator:wikidata": "Q5690681"}}]