[{"name": "Kreiskrankenhaus Torgau", "latitude": 51.5615645, "longitude": 12.984629, "source": "osm", "_tags": {"addr:city": "Torgau", "addr:country": "DE", "addr:housenumber": "1", "addr:postcode": "04860", "addr:street": "Christianistraße", "amenity": "hospital", "contact:fax": "+49 3421 771009", "contact:phone": "+49 3421 770", "contact:website": "http://www.kkh-torgau.de/", "description": "Eingang über Dommitzscher Straße", "emergency": "yes", "healthcare": "hospital", "healthcare:speciality": "general;internal;paediatrics;radiology;surgery;gynaecology;ophthalmology;otolaryngology", "name": "Kreiskrankenhaus Torgau", "operator": "Kreiskrankenhaus Torgau \"Johann Kentmann\" gGmbH", "wheelchair": "yes", "wikidata": "Q130389475"}}, {"name": "Helios Klinikum Emil von Behring", "latitude": 52.4227073, "longitude": 13.2541807, "source": "osm", "_tags": {"addr:city": "Berlin", "addr:country": "DE", "addr:housenumber": "11", "addr:postcode": "14165", "addr:street": "Walterhöferstraße", "addr:suburb": "Zehlendorf", "amenity": "hospital", "contact:facebook": "https://www.facebook.com/HeliosBerlinBehring", "contact:instagram": "https://www.instagram.com/heliosberlinbehring/", "emergency": "yes", "healthcare": "hospital", "healthcare:speciality": "surgery;anaesthetics;angiology;diabetology;gastroenterology;vascular_surgery;haematology;oncology;hepatology;intensive;emergency;cardiology;paediatrics;pulmonology;nuclear;trauma;orthopaedics;plastic_surgery;palliative;geriatrics;radiology", "loc_name": "Behring-Krankenhaus", "name": "Helios Klinikum Emil von Behring", "operator": "Helios Kliniken", "operator:type": "private", "operator:wikidata": "Q1254151", "operator:wikipedia": "de:Helios Kliniken", "phone": "+49 30 81020", "toilets:wheelchair": "yes", "website": "https://www.helios-gesundheit.de/kliniken/berlin-klinikum-emil-von-behring/", "wheelchair": "yes", "wikidata": "Q50038610"}}, {"name": "Fontane-Klinik Motzen", "latitude": 52.1815033, "longitude": 13.5986156, "source": "osm", "_tags": {"access": "private", "addr:city": "Mittenwalde", "addr:country": "DE", "addr:housenumber": "5", "addr:postcode": "15749", "addr:street": "Fontanestraße", "addr:suburb": "Motzen", "amenity": "hospital", "check_date": "2025-08-28", "contact:facebook": "https://www.facebook.com/pages/category/Mental-Health-Service/Fontane-Klinik-105237251091892/", "contact:kununu": "https://www.kununu.com/de/fontane-klinik1", "contact:xing": "https://www.xing.com/pages/fontane-klinik", "contact:youtube": "https://www.youtube.com/channel/UCocx1PAUtLEv096xGF_6wgw/videos", "email": "info@fontane-klinik.de", "emergency": "no", "fax": "+49 33769 86104", "health_facility:type": "therapy", "health_specialty:addiction_medicine": "main", "health_specialty:adult_psychiatry": "main", "health_specialty:child_psychiatry": "main", "health_specialty:music_therapy": "yes", "health_specialty:occupational_therapy": "yes", "health_specialty:physiotherapy": "yes", "health_specialty:psychiatry": "main", "health_specialty:psychotherapy": "yes", "healthcare": "hospital", "medical_system:western": "yes", "name": "Fontane-Klinik Motzen", "operator": "EfGe Entwicklungsgesellschaft für Gesundheitseinrichtungen mbH", "phone": "+49 33769 860", "treat:inpatient": "only", "website": "https://www.fontane-klinik.de/"}}, {"name": "Evangelisches Krankenhaus Luckau", "latitude": 51.8537283, "longitude": 13.7032263, "source": "osm", "_tags": {"addr:city": "Luckau", "addr:country": "DE", "addr:housenumber": "24", "addr:postcode": "15926", "addr:street": "Berliner Straße", "amenity": "hospital", "contact:phone": "+49 3544 580", "emergency": "yes", "fax": "+49 3544 58134", "healthcare": "hospital", "healthcare:speciality": "anaesthetics;intensive;surgery;proctology;trauma;geriatrics;internal;urology", "name": "Evangelisches Krankenhaus Luckau", "opening_hours": "06:00-22:00", "operator": "Evangelisches Krankenhaus Luckau gGmbh", "website": "https://www.diakonissenhaus.de/krankenhaeuser/evangelisches-krankenhaus-luckau", "wikidata": "Q58038821"}}, {"name": "Ärztehaus Berliner Straße 4", "latitude": 51.8545783, "longitude": 13.7048103, "source": "osm", "_tags": {"healthcare": "hospital", "name": "Ärztehaus Berliner Straße 4"}}, {"name": "Evangelisches Krankenhaus Ludwigsfelde-Teltow", "latitude": 52.3107662, "longitude": 13.2578665, "source": "osm", "_tags": {"addr:city": "Ludwigsfelde", "addr:housenumber": "40-44", "addr:postcode": "14974", "addr:street": "Albert-Schweitzer-Straße", "amenity": "hospital", "contact:website": "https://www.diakonissenhaus.de/krankenhaeuser/evangelisches-krankenhaus-ludwigsfelde-teltow/", "emergency": "yes", "name": "Evangelisches Krankenhaus Ludwigsfelde-Teltow", "wikidata": "Q57959543"}}, {"name": "Spreewaldklinik Lübben", "latitude": 51.9442037, "longitude": 13.8747771, "source": "osm", "_tags": {"addr:city": "Lübben (Spreewald)", "addr:country": "DE", "addr:housenumber": "29", "addr:postcode": "15907", "addr:street": "Schillerstraße", "amenity": "hospital", "contact:website": "https://www.klinikum-ds.de/", "emergency": "yes", "healthcare": "hospital", "healthcare:speciality": "surgery;gynaecology;internal;paediatrics", "name": "Spreewaldklinik Lübben", "operator": "Klinikum Dahme-Spreewald GmbH", "wheelchair": "yes"}}, {"name": "Krankenhaus Hedwigshöhe", "latitude": 52.4060693, "longitude": 13.5700451, "source": "osm", "_tags": {"addr:city": "Berlin", "addr:country": "DE", "addr:housenumber": "1", "addr:postcode": "12526", "addr:street": "Höhensteig", "addr:suburb": "Bohnsdorf", "amenity": "hospital", "emergency": "yes", "healthcare": "hospital", "name": "Krankenhaus Hedwigshöhe", "website": "https://www.alexianer-berlin-hedwigkliniken.de/krankenhaus-hedwigshoehe/einrichtungen/ambulantes-op-zentrum-aoz/", "wheelchair": "yes", "wikidata": "Q1764107"}}, {"name": "Asklepios Fachklinikum Lübben", "latitude": 51.9358187, "longitude": 13.8867778, "source": "osm", "_tags": {"addr:city": "Lübben (Spreewald)", "addr:country": "DE", "addr:housenumber": "17", "addr:postcode": "15907", "addr:street": "Luckauer Straße", "amenity": "hospital", "healthcare": "hospital", "healthcare:speciality": "child_psychiatry;neurology;psychiatry", "name": "Asklepios Fachklinikum Lübben", "operator": "Asklepios Kliniken", "operator:type": "private", "operator:wikidata": "Q732068", "phone": "+49 3546 290", "website": "https://www.asklepios.com/luebben", "wheelchair": "yes", "wikidata": "Q15792107"}}, {"name": "Asklepios Fachklinikum Teupitz", "latitude": 52.1312228, "longitude": 13.6178994, "source": "osm", "_tags": {"addr:city": "Teupitz", "addr:housenumber": "21", "addr:postcode": "15755", "addr:street": "Buchholzer Straße", "amenity": "hospital", "healthcare": "hospital", "healthcare:speciality": "internal;neurology;psychiatry", "name": "Asklepios Fachklinikum Teupitz", "operator": "Asklepios Kliniken", "operator:type": "private", "operator:wikidata": "Q732068", "wheelchair": "yes"}}, {"name": "Kliniken im Theodor-Wenzel-Werk", "latitude": 52.4226335, "longitude": 13.2052083, "source": "osm", "_tags": {"addr:city": "Berlin", "addr:country": "DE", "addr:housenumber": "69", "addr:postcode": "14129", "addr:street": "Potsdamer Chaussee", "addr:suburb": "Nikolassee", "amenity": "hospital", "healthcare": "hospital", "healthcare:speciality": "psychiatry;neurology", "name": "Kliniken im Theodor-Wenzel-Werk", "phone": "+49 30 81090", "website": "https://tww-berlin.de/kliniken"}}, {"name": "Klinikum Ernst von Bergmann", "latitude": 52.4012091, "longitude": 13.0661308, "source": "osm", "_tags": {"addr:city": "Potsdam", "addr:country": "DE", "addr:housenumber": "72", "addr:postcode": "14467", "addr:street": "Charlottenstraße", "amenity": "hospital", "contact:email": "info@klinikumevb.de", "contact:facebook": "https://www.facebook.com/klinikumevb/", "contact:phone": "+49 331 241 0", "contact:website": "https://www.evb-gesundheit.de/klinikumevb", "contact:youtube": "https://www.youtube.com/user/KlinikumEvB", "dog": "no", "emergency": "yes", "healthcare": "hospital", "name": "Klinikum Ernst von Bergmann", "name:etymology:wikidata": "Q688128", "opening_hours": "24/7", "operator": "Klinikum Ernst von Bergmann gGmbH", "operator:type": "private_non_profit", "wheelchair": "yes", "wikidata": "Q1774610", "wikimedia_commons": "Category:Klinikum Ernst von Bergmann", "wikipedia": "de:Klinikum Ernst von Bergmann"}}, {"name": "Ernst von Bergmann Klinikum - Psychiatrie, Psychotherapie", "latitude": 52.3846727, "longitude": 13.1365516, "source": "osm", "_tags": {"amenity": "hospital", "building": "yes", "healthcare": "hospital", "healthcare:speciality": "psychiatry", "name": "Ernst von Bergmann Klinikum - Psychiatrie, Psychotherapie", "source": "bing", "wheelchair": "yes"}}, {"name": "Oberlinklinik", "latitude": 52.3940485, "longitude": 13.0891185, "source": "osm", "_tags": {"addr:city": "Potsdam", "addr:country": "DE", "addr:housenumber": "24", "addr:postcode": "14482", "addr:street": "Rudolf-Breitscheid-Straße", "addr:suburb": "Babelsberg Nord", "amenity": "hospital", "building": "hospital", "description": "Orthopädische Fachklinik", "healthcare": "hospital", "name": "Oberlinklinik", "roof:shape": "flat", "toilets:wheelchair": "yes", "wheelchair": "yes", "wheelchair:description": "Barrierefreie Toilette: Wochentags bis 18 Uhr, am Wochenende momentan gar kein Zugang zur Toilette", "wikidata": "Q96575418"}}, {"name": "Krankenhaus Elsterwerda", "latitude": 51.4558978, "longitude": 13.5220328, "source": "osm", "_tags": {"addr:city": "Elsterwerda", "addr:country": "DE", "addr:housenumber": "37", "addr:postcode": "04910", "addr:street": "Elsterstraße", "amenity": "hospital", "check_date": "2024-09-16", "contact:phone": "+49 3533 6030", "contact:website": "http://www.ee-klinikum.de/index.php/standorte/elsterwerda", "emergency": "yes", "healthcare": "hospital", "name": "Krankenhaus Elsterwerda", "operator": "Elbe-Elster Klinikum GmbH", "wheelchair": "yes"}}, {"name": "Krankenhaus Lauchhammer", "latitude": 51.49854, "longitude": 13.7891262, "source": "osm", "_tags": {"addr:city": "Lauchhammer", "addr:country": "DE", "addr:housenumber": "18", "addr:postcode": "01979", "addr:street": "Friedensstraße", "amenity": "hospital", "contact:phone": "+49 3573 750", "contact:website": "https://www.klinikum-niederlausitz.de/de/kliniken_einrichtungen.html", "emergency": "yes", "healthcare": "hospital", "name": "Krankenhaus Lauchhammer", "operator": "Klinikum Niederlausitz GmbH", "wheelchair": "yes", "wikidata": "Q110595945"}}, {"name": "Tagesklinik für Psychatrie und Psychotherapie", "latitude": 51.4992647, "longitude": 13.7899224, "source": "osm", "_tags": {"amenity": "clinic", "building": "hospital", "healthcare": "hospital", "name": "Tagesklinik für Psychatrie und Psychotherapie"}}, {"name": "Krankenhaus Finsterwalde", "latitude": 51.6356982, "longitude": 13.6981648, "source": "osm", "_tags": {"addr:city": "Finsterwalde", "addr:housenumber": "42", "addr:postcode": "03238", "addr:street": "Kirchhainer Straße", "amenity": "hospital", "building": "hospital", "contact:phone": "+49 3531 5030", "contact:website": "http://www.elbe-elster-klinikum.de/index.php/standorte/finsterwalde", "emergency": "yes", "healthcare": "hospital", "name": "Krankenhaus Finsterwalde", "operator": "Elbe-Elster Klinikum GmbH", "wheelchair": "yes"}}, {"name": "St.-Josefs-Krankenhaus", "latitude": 52.3994458, "longitude": 13.0443034, "source": "osm", "_tags": {"addr:city": "Potsdam", "addr:country": "DE", "addr:housenumber": "7", "addr:postcode": "14471", "addr:street": "Allee nach Sanssouci", "amenity": "hospital", "contact:email": "potsdam@alexianer.de", "contact:fax": "+49 331 968 22009", "contact:phone": "+49 331 968 20", "contact:website": "https://www.alexianer-potsdam.de/", "emergency": "yes", "healthcare": "hospital", "name": "St.-Josefs-Krankenhaus", "operator": "Alexianer St. Josef Potsdam GmbH", "operator:type": "business", "toilets:wheelchair": "yes", "wheelchair": "yes", "wikidata": "Q96484423", "wikimedia_commons": "Category:St.-Josefs-Krankenhaus (Potsdam)"}}, {"name": "KMG-Klinikum Luckenwalde", "latitude": 52.0996975, "longitude": 13.1788233, "source": "osm", "_tags": {"addr:city": "Luckenwalde", "addr:housenumber": "1a", "addr:postcode": "14943", "addr:street": "Saarstraße", "amenity": "hospital", "emergency": "yes", "healthcare": "hospital", "name": "KMG-Klinikum Luckenwalde", "operator": "KMG Kliniken SE", "operator:type": "private"}}, {"name": "Immanuel Krankenhaus Berlin", "latitude": 52.4194854, "longitude": 13.1640021, "source": "osm", "_tags": {"addr:city": "Berlin", "addr:country": "DE", "addr:housenumber": "63", "addr:postcode": "14109", "addr:street": "Königstraße", "addr:suburb": "Wannsee", "alt_name": "Immanuel-Krankenhaus Rheumaklinik Berlin-Wannsee und Zentrum für Naturheilkunde", "amenity": "hospital", "contact:email": "berlin@immanuel.de", "contact:fax": "+49 30 80505288", "contact:phone": "+49 30 805050", "contact:website": "https://berlin.immanuel.de/", "healthcare": "hospital", "internet_access": "wlan", "internet_access:fee": "no", "internet_access:password": "IAD-PUBLIC", "internet_access:ssid": "iad-public", "member_of": "Immanuel Diakonie", "name": "Immanuel Krankenhaus Berlin", "wheelchair": "yes", "wikidata": "Q30267075"}}, {"name": "Gutsschloss Blossin", "latitude": 52.2549901, "longitude": 13.798825, "source": "osm", "_tags": {"access": "private", "addr:city": "Heidesee", "addr:housenumber": "7", "addr:postcode": "15754", "addr:street": "Anger", "addr:suburb": "Blossin", "amenity": "hospital", "health_facility:type": "therapy", "healthcare": "hospital", "healthcare:speciality": "psychiatry", "name": "Gutsschloss Blossin", "website": "https://www.gutsschloss-blossin.de/"}}, {"name": "Achenbach Krankenhaus Königs Wusterhausen", "latitude": 52.3034698, "longitude": 13.6278035, "source": "osm", "_tags": {"addr:city": "Königs Wusterhausen", "addr:country": "DE", "addr:housenumber": "29", "addr:postcode": "15711", "addr:street": "Köpenicker Straße", "addr:suburb": "Königs Wusterhausen", "amenity": "hospital", "contact:phone": "+49 3375 2880", "contact:website": "https://www.klinikum-ds.de/", "healthcare": "hospital", "healthcare:speciality": "ophthalmology;surgery;gynaecology;otolaryngology;internal;paediatrics", "name": "Achenbach Krankenhaus Königs Wusterhausen", "operator": "Klinikum Dahme-Spreewald GmbH", "wheelchair": "yes"}}, {"name": "Krankenhaus Herzberg", "latitude": 51.6854695, "longitude": 13.2076281, "source": "osm", "_tags": {"addr:city": "Herzberg (Elster)", "addr:country": "DE", "addr:housenumber": "24", "addr:postcode": "04916", "addr:street": "Alte Prettiner Straße", "amenity": "hospital", "contact:phone": "+49 3535 4910", "contact:website": "http://www.ee-klinikum.de/index.php/standorte/herzberg", "emergency": "yes", "healthcare": "hospital", "name": "Krankenhaus Herzberg", "operator": "Elbe-Elster Klinikum GmbH", "toilets:wheelchair": "yes", "wheelchair": "yes"}}, {"name": "", "latitude": 51.6358901, "longitude": 13.6973307, "source": "osm", "_tags": {"amenity": "hospital", "healthcare": "hospital"}}, {"name": "Klinikum Ernst von Bergmann", "latitude": 52.4012143, "longitude": 13.0659778, "source": "osm", "_tags": {"addr:city": "Potsdam", "addr:country": "DE", "addr:housenumber": "72", "addr:postcode": "14467", "addr:street": "Charlottenstraße", "amenity": "hospital", "contact:email": "info@klinikumevb.de", "contact:facebook": "https://www.facebook.com/klinikumevb/", "contact:phone": "+49 331 241 0", "contact:website": "https://www.evb-gesundheit.de/klinikumevb", "contact:youtube": "https://www.youtube.com/user/KlinikumEvB", "dog": "no", "emergency": "yes", "healthcare": "hospital", "name": "Klinikum Ernst von Bergmann", "opening_hours": "24/7", "operator": "Klinikum Ernst von Bergmann gGmbH", "operator:type": "private_non_profit", "type": "site", "wheelchair": "yes", "wikidata": "Q1774610", "wikipedia": "de:Klinikum Ernst von Bergmann"}}]