[{"name": "Elkerliek Ziekenhuis", "latitude": 51.4818128, "longitude": 5.6424049, "source": "osm", "_tags": {"addr:city": "Helmond", "addr:housenumber": "25", "addr:postcode": "5707HA", "addr:street": "Wesselmanlaan", "amenity": "hospital", "healthcare": "hospital", "name": "Elkerliek Ziekenhuis", "phone": "+31 492 595 555", "source": "BAG", "source:date": "2014-06-06", "website": "https://www.elkerliek.nl"}}, {"name": "Diakonessenhuis", "latitude": 52.0912706, "longitude": 5.2621521, "source": "osm", "_tags": {"addr:city": "Zeist", "addr:housenumber": "1", "addr:postcode": "3707HL", "addr:street": "Jagersingel", "amenity": "hospital", "check_date": "2025-05-22", "emergency": "yes", "healthcare": "hospital", "healthcare:speciality": "general", "name": "Diakonessenhuis", "source": "BAG", "source:date": "2019-10-17", "wheelchair": "yes"}}, {"name": "Jeroen Bosch, locatie Liduina", "latitude": 51.5940047, "longitude": 5.3209513, "source": "osm", "_tags": {"amenity": "hospital", "created_by": "JOSM", "name": "Jeroen Bosch, locatie Liduina"}}, {"name": "Meander Medisch Centrum Baarn", "latitude": 52.2146645, "longitude": 5.2768616, "source": "osm", "_tags": {"addr:city": "Baarn", "addr:housenumber": "2", "addr:postcode": "3743CM", "addr:street": "Molenweg", "amenity": "hospital", "emergency": "no", "healthcare": "hospital", "name": "Meander Medisch Centrum Baarn", "phone": "+31 33 850 5050", "website": "https://www.meandermc.nl/contact/contactgegevens-en-locaties/baarn/", "wikidata": "Q97591307"}}, {"name": "Radiotherapiegroep", "latitude": 52.00138, "longitude": 5.9081681, "source": "osm", "_tags": {"addr:city": "Arnhem", "addr:housenumber": "47", "addr:postcode": "6815AD", "addr:street": "Wagnerlaan", "amenity": "hospital", "healthcare": "hospital", "healthcare:speciality": "radiotherapy", "name": "Radiotherapiegroep", "source": "BAG", "source:date": "2014-02-11", "wikidata": "Q50037746"}}, {"name": "Polikliniek Jeroen Bosch Ziekenhuis", "latitude": 51.7136447, "longitude": 5.3703338, "source": "osm", "_tags": {"addr:city": "Rosmalen", "addr:housenumber": "90", "addr:postcode": "5242CN", "addr:street": "De Hoef", "amenity": "hospital", "healthcare": "hospital", "name": "Polikliniek Jeroen Bosch Ziekenhuis", "source": "BAG", "source:date": "2014-03-24", "toilets:wheelchair": "yes", "wheelchair": "yes"}}, {"name": "High & Intensive Care", "latitude": 51.8152085, "longitude": 5.8814182, "source": "osm", "_tags": {"addr:city": "Nijmegen", "addr:housenumber": "61", "addr:postcode": "6525DX", "addr:street": "Nijmeegsebaan", "amenity": "hospital", "healthcare": "hospital", "healthcare:speciality": "psychiatry", "name": "High & Intensive Care", "operator": "Pro Persona", "phone": "+31 24 343 6520", "source": "BAG", "source:date": "2014-03-24", "website": "https://propersona.nl/behandellocaties/high-intensive-care-nijmegen/"}}, {"name": "Regionaal Medisch Centrum Blaricum", "latitude": 52.267705, "longitude": 5.2061113, "source": "osm", "_tags": {"addr:city": "Blaricum", "addr:housenumber": "3", "addr:postcode": "1261AN", "addr:street": "Rijksstraatweg", "amenity": "hospital", "emergency": "no", "healthcare": "hospital", "healthcare:speciality": "cardiology;dermatology;gynaecology;neurology;otolaryngology", "name": "Regionaal Medisch Centrum Blaricum", "phone": "+31 88 753 1753", "source": "BAG", "source:date": "2014-05-20", "website": "https://www.tergooi.nl/contact/locatie-blaricum/", "wikidata": "Q29510374"}}, {"name": "Tweesteden Ziekenhuis Waalwijk", "latitude": 51.6859904, "longitude": 5.0533357, "source": "osm", "_tags": {"addr:city": "Waalwijk", "addr:housenumber": "4", "addr:postcode": "5141BM", "addr:street": "Kasteellaan", "amenity": "hospital", "healthcare": "hospital", "name": "Tweesteden Ziekenhuis Waalwijk", "source": "BAG", "source:date": "2014-05-30"}}, {"name": "de Waterpoort", "latitude": 51.8816116, "longitude": 5.5190735, "source": "osm", "_tags": {"addr:city": "Beneden-Leeuwen", "addr:housenumber": "20", "addr:postcode": "6658EK", "addr:street": "Beatrixstraat", "amenity": "hospital", "emergency": "no", "healthcare": "hospital", "healthcare:speciality": "general", "name": "de Waterpoort", "operator": "Ziekenhuis Rivierenland", "source": "BAG", "source:date": "2014-07-21"}}, {"name": "Polikliniek CWZ Druten", "latitude": 51.8880138, "longitude": 5.6150479, "source": "osm", "_tags": {"addr:city": "Druten", "addr:housenumber": "3", "addr:postcode": "6651KN", "addr:street": "Kerkeland", "amenity": "hospital", "healthcare": "hospital", "healthcare:speciality": "dialysis", "name": "Polikliniek CWZ Druten", "operator": "Sateon Ziekenhuizen", "source": "BAG", "source:date": "2014-07-21"}}, {"name": "Wilhelmina Kinderziekenhuis (WKZ)", "latitude": 52.0894645, "longitude": 5.1811818, "source": "osm", "_tags": {"addr:city": "Utrecht", "addr:housenumber": "6", "addr:postcode": "3584EA", "addr:street": "Lundlaan", "amenity": "hospital", "electricity": "grid", "email": "info@umcutrecht.nl", "healthcare": "hospital", "name": "Wilhelmina Kinderziekenhuis (WKZ)", "name:en": "Wilhelmina Children's Hospital (WKZ)", "operational_status": "operational", "phone": "+31 88 755 5555", "short_name": "WKZ", "website": "https://www.hetwkz.nl/nl/", "wikidata": "Q2685451", "wikipedia": "nl:Wilhelmina Kinderziekenhuis"}}, {"name": "Polikliniek CWZ de Waalsprong", "latitude": 51.8819906, "longitude": 5.8453079, "source": "osm", "_tags": {"addr:city": "Nijmegen", "addr:housenumber": "3", "addr:postcode": "6515GM", "addr:street": "Carbatinastraat", "amenity": "hospital", "healthcare": "hospital", "name": "Polikliniek CWZ de Waalsprong", "operator": "CWZ", "source": "BAG", "source:date": "2015-10-25"}}, {"name": "Tandartsenpraktijk Vathorst", "latitude": 52.196729, "longitude": 5.4189052, "source": "osm", "_tags": {"addr:city": "Amersfoort", "addr:housenumber": "4", "addr:postcode": "3825DM", "addr:street": "Zijpenberg", "amenity": "dentist", "emergency": "yes", "healthcare": "hospital", "healthcare:speciality": "dentist;orthodontics", "name": "Tandartsenpraktijk Vathorst", "source": "BAG", "source:date": "2016-03-20", "website": "https://www.tandartsenpraktijkvathorst.nl/"}}, {"name": "Pro Persona GGZ", "latitude": 51.9977338, "longitude": 5.9115298, "source": "osm", "_tags": {"amenity": "hospital", "healthcare": "hospital", "name": "Pro Persona GGZ", "wheelchair": "yes"}}, {"name": "Elkerliek Ziekenhuis", "latitude": 51.4682183, "longitude": 5.7904601, "source": "osm", "_tags": {"addr:city": "Deurne", "addr:housenumber": "16", "addr:postcode": "5751CB", "addr:street": "Dunantweg", "amenity": "hospital", "healthcare": "hospital", "name": "Elkerliek Ziekenhuis", "phone": "+31 493 328 888", "source": "BAG", "source:date": "2014-05-20", "website": "https://www.elkerliek.nl"}}, {"name": "Dialyse afd. Radboud UMC", "latitude": 51.8226963, "longitude": 5.8611281, "source": "osm", "_tags": {"addr:city": "Nijmegen", "addr:housenumber": "7", "addr:postcode": "6525GL", "addr:street": "René Descartesdreef", "amenity": "hospital", "healthcare": "hospital", "internet_access": "wlan", "name": "Dialyse afd. Radboud UMC", "phone": "+31 24 361 3767", "toilets:wheelchair": "yes", "website": "https://www.radboudumc.nl/", "wheelchair": "yes"}}, {"name": "Tergooi MC", "latitude": 52.2147001, "longitude": 5.2008018, "source": "osm", "_tags": {"addr:city": "Hilversum", "addr:housenumber": "2", "addr:postcode": "1212VG", "addr:street": "Laan van Tergooi", "amenity": "hospital", "branch": "Hilversum", "emergency": "yes", "healthcare": "hospital", "internet_access": "wlan", "internet_access:fee": "no", "name": "Tergooi MC", "operator": "Tergooi MC", "operator:type": "public", "operator:wikipedia": "nl:Tergooi MC", "phone": "+31 88 753 1753", "source": "BAG", "source:date": "2021-03-14", "website": "https://www.tergooi.nl/contact/locatie-hilversum/"}}, {"name": "Liesbreukcentrum Nederland", "latitude": 52.0915111, "longitude": 5.2625673, "source": "osm", "_tags": {"addr:city": "Zeist", "addr:housenumber": "76", "addr:postcode": "3707HL", "addr:street": "Professor Lorentzlaan", "amenity": "hospital", "healthcare": "hospital", "name": "Liesbreukcentrum Nederland", "source": "BAG", "source:date": "2021-08-08"}}, {"name": "Gelre Diagnostisch Centrum", "latitude": 52.2113314, "longitude": 5.933973, "source": "osm", "_tags": {"addr:city": "Apeldoorn", "addr:housenumber": "32", "addr:postcode": "7314PS", "addr:street": "John F. Kennedylaan", "amenity": "hospital", "check_date": "2025-02-24", "healthcare": "hospital", "healthcare:speciality": "diagnostics", "name": "Gelre Diagnostisch Centrum", "website": "https://www.gelreziekenhuizen.nl/patient/afdelingen/diagnostisch-centrum/"}}, {"name": "Rijnstate Elst", "latitude": 51.9170465, "longitude": 5.8559626, "source": "osm", "_tags": {"addr:city": "Elst", "addr:housenumber": "2", "addr:postcode": "6662NC", "addr:street": "Stationsplein", "amenity": "hospital", "healthcare": "hospital", "name": "Rijnstate Elst", "opening_hours": "Mo-Fr 08:30-17:30", "source": "BAG", "source:date": "2021-10-19", "website": "https://www.rijnstate.nl/elst"}}, {"name": "Sint Maartenskliniek Nijmegen", "latitude": 51.8335599, "longitude": 5.8995536, "source": "osm", "_tags": {"amenity": "hospital", "email": "contact@maartenskliniek.nl", "emergency": "yes", "healthcare": "hospital", "name": "Sint Maartenskliniek Nijmegen", "operator": "Sint Maartenskliniek", "operator:wikidata": "Q97111891", "toilets:wheelchair": "yes", "website": "https://www.maartenskliniek.nl/", "wheelchair": "yes", "wikidata": "Q1906803", "wikimedia_commons": "Category:Sint Maartenskliniek (Ubbergen)", "wikipedia": "nl:Sint Maartenskliniek"}}, {"name": "Amsterdam UMC locatie AMC", "latitude": 52.2925002, "longitude": 4.9569165, "source": "osm", "_tags": {"addr:city": "Amsterdam", "addr:country": "NL", "addr:housenumber": "9", "addr:postcode": "1105AZ", "addr:street": "Meibergdreef", "alt_name": "Amsterdam Universitair Medische Centra locatie Academisch Medisch Centrum", "amenity": "hospital", "emergency": "yes", "healthcare": "hospital", "layer": "-1", "name": "Amsterdam UMC locatie AMC", "name:en": "Academic Medical Center", "short_name": "AMC", "wikidata": "Q2487297", "wikimedia_commons": "Category:Academisch Medisch Centrum", "wikipedia": "nl:Academisch Medisch Centrum"}}, {"name": "Beatrixziekenhuis", "latitude": 51.8393157, "longitude": 4.9572145, "source": "osm", "_tags": {"amenity": "hospital", "emergency": "yes", "healthcare": "hospital", "name": "Beatrixziekenhuis", "operator": "Rivas Zorggroep", "operator:wikidata": "Q97383459", "website": "https://www.rivas.nl/beatrixziekenhuis/", "wheelchair": "yes", "wikidata": "Q96581721"}}, {"name": "", "latitude": 51.5407833, "longitude": 5.1043289, "source": "osm", "_tags": {"designation": "Ziekenhuis", "healthcare": "hospital"}}, {"name": "Veldwijk", "latitude": 52.3020288, "longitude": 5.6084731, "source": "osm", "_tags": {"amenity": "hospital", "healthcare:speciality": "psychiatry", "name": "Veldwijk"}}, {"name": "Máxima Medisch Centrum Eindhoven", "latitude": 51.4545516, "longitude": 5.4877291, "source": "osm", "_tags": {"addr:city": "Eindhoven", "addr:housenumber": "1", "addr:postcode": "5631BM", "addr:street": "Ds Theodor Fliednerstraat", "amenity": "hospital", "emergency": "no", "healthcare": "hospital", "name": "Máxima Medisch Centrum Eindhoven"}}, {"name": "Catharina Ziekenhuis", "latitude": 51.4657273, "longitude": 5.4721327, "source": "osm", "_tags": {"addr:city": "Eindhoven", "addr:country": "NL", "addr:housenumber": "2", "addr:postcode": "5623EJ", "addr:street": "Michelangelolaan", "amenity": "hospital", "emergency": "yes", "healthcare": "hospital", "name": "Catharina Ziekenhuis", "source": "BAG", "source:date": "2017-03-30", "website": "https://www.catharinaziekenhuis.nl/", "wikidata": "Q3120439", "wikimedia_commons": "Category:Catharina Ziekenhuis", "wikipedia": "nl:Catharina Ziekenhuis"}}, {"name": "Centraal Dierenlaboratorium", "latitude": 51.8246343, "longitude": 5.8648294, "source": "osm", "_tags": {"amenity": "hospital", "building": "yes", "healthcare": "hospital", "name": "Centraal Dierenlaboratorium", "operator": "RadboudUMC", "ref:bag": "268100000088922", "source": "BAG", "source:date": "2018-02-08", "start_date": "1997"}}, {"name": "Sint Antonius Ziekenhuis Utrecht", "latitude": 52.1032211, "longitude": 5.0576653, "source": "osm", "_tags": {"amenity": "hospital", "emergency": "yes", "healthcare": "hospital", "name": "Sint Antonius Ziekenhuis Utrecht", "phone": "+31 88 320 3000", "short_name": "St. Antonius Ziekenhuis", "website": "https://www.antoniusziekenhuis.nl/locaties/ziekenhuis-utrecht", "wikidata": "Q96602135"}}, {"name": "Ziekenhuis Rivierenland", "latitude": 51.8900366, "longitude": 5.4152151, "source": "osm", "_tags": {"addr:city": "Tiel", "addr:housenumber": "1", "addr:postcode": "4002WP", "addr:street": "President Kennedylaan", "amenity": "hospital", "emergency": "yes", "healthcare": "hospital", "name": "Ziekenhuis Rivierenland", "website": "https://www.ziekenhuisrivierenland.nl/", "wheelchair": "yes", "wikidata": "Q29642870"}}, {"name": "Flevoziekenhuis", "latitude": 52.3691123, "longitude": 5.2234343, "source": "osm", "_tags": {"amenity": "hospital", "emergency": "yes", "healthcare": "hospital", "name": "Flevoziekenhuis", "website": "https://www.flevoziekenhuis.nl", "wikidata": "Q2120685", "wikimedia_commons": "Category:Flevoziekenhuis", "wikipedia": "nl:Flevoziekenhuis"}}, {"name": "Sint Antonius Ziekenhuis Nieuwegein", "latitude": 52.0251901, "longitude": 5.0816627, "source": "osm", "_tags": {"addr:city": "Nieuwegein", "addr:housenumber": "1", "addr:postcode": "3430EM", "addr:street": "Koekoekslaan", "amenity": "hospital", "healthcare": "hospital", "internet_access": "wlan", "internet_access:fee": "no", "name": "Sint Antonius Ziekenhuis Nieuwegein", "operator": "Sint Antonius", "operator:type": "public", "phone": "+31 88 320 3000", "website": "https://www.antoniusziekenhuis.nl/locaties/ziekenhuis-nieuwegein", "wheelchair": "yes", "wikidata": "Q96584966"}}, {"name": "Bernhoven", "latitude": 51.6737926, "longitude": 5.6061899, "source": "osm", "_tags": {"amenity": "hospital", "healthcare": "hospital", "name": "Bernhoven"}}, {"name": "Universitair Medisch Centrum Utrecht", "latitude": 52.0869845, "longitude": 5.1802515, "source": "osm", "_tags": {"amenity": "hospital", "emergency": "yes", "healthcare": "hospital", "name": "Universitair Medisch Centrum Utrecht", "name:en": "University Medical Centre Utrecht", "phone": "+31 88 755 5555", "short_name": "UMC Utrecht", "source": "BAG", "source:date": "2014-08-25", "website": "https://www.umcutrecht.nl/nl/", "wikidata": "Q2456800", "wikipedia": "nl:Universitair Medisch Centrum Utrecht"}}, {"name": "Canisius-Wilhelmina Ziekenhuis", "latitude": 51.8175938, "longitude": 5.8307846, "source": "osm", "_tags": {"addr:city": "Nijmegen", "addr:housenumber": "100", "addr:postcode": "6532SZ", "addr:street": "Weg door Jonkerbos", "amenity": "hospital", "emergency": "yes", "healthcare": "hospital", "name": "Canisius-Wilhelmina Ziekenhuis", "phone": "+31 24 365 7657", "short_name": "CWZ", "source": "BAG", "source:date": "2014-05-07", "website": "https://www.cwz.nl/", "wheelchair": "yes", "wikidata": "Q2249007", "wikimedia_commons": "Category:Canisius-Wilhelmina Ziekenhuis", "wikipedia": "nl:Canisius-Wilhelmina Ziekenhuis"}}, {"name": "ETZ TweeSteden ziekenhuis", "latitude": 51.5775151, "longitude": 5.0597832, "source": "osm", "_tags": {"addr:city": "Tilburg", "addr:housenumber": "5", "addr:postcode": "5042AD", "addr:street": "Dr. Deelenlaan", "amenity": "hospital", "healthcare": "hospital", "name": "ETZ TweeSteden ziekenhuis", "toilets:wheelchair": "yes", "website": "https://www.etz.nl", "wheelchair": "yes"}}, {"name": "Meander Medisch Centrum Amersfoort", "latitude": 52.1711022, "longitude": 5.3692444, "source": "osm", "_tags": {"addr:city": "Amersfoort", "addr:country": "NL", "addr:housenumber": "3", "addr:postcode": "3828NK", "addr:street": "Maatweg", "amenity": "hospital", "emergency": "yes", "healthcare": "hospital", "name": "Meander Medisch Centrum Amersfoort", "operator": "MMC", "website": "https://www.meandermc.nl/home/", "wheelchair": "yes", "wikidata": "Q20706270", "wikipedia": "nl:Meander Medisch Centrum"}}, {"name": "Rijnstate Arnhem", "latitude": 52.0004002, "longitude": 5.9095791, "source": "osm", "_tags": {"addr:city": "Arnhem", "addr:country": "NL", "addr:housenumber": "55", "addr:postcode": "6815AG", "addr:street": "Wagnerlaan", "amenity": "hospital", "emergency": "yes", "healthcare": "hospital", "name": "Rijnstate Arnhem", "phone": "+31 88 055 8888", "website": "https://www.rijnstate.nl/", "wheelchair": "yes", "wikidata": "Q96377466"}}, {"name": "Jeroen Bosch Ziekenhuis", "latitude": 51.6851328, "longitude": 5.2761141, "source": "osm", "_tags": {"amenity": "hospital", "changing_table": "yes", "changing_table:fee": "no", "emergency": "yes", "healthcare": "hospital", "name": "Jeroen Bosch Ziekenhuis", "short_name": "JBZ", "website": "https://jbz.nl", "wheelchair": "yes"}}, {"name": "Ziekenhuis Gelderse Vallei", "latitude": 52.0220318, "longitude": 5.6455246, "source": "osm", "_tags": {"addr:city": "Ede", "addr:housenumber": "10", "addr:postcode": "6716RP", "addr:street": "Willy Brandtlaan", "amenity": "hospital", "contact:facebook": "https://www.facebook.com/geldersevallei", "contact:twitter": "https://twitter.com/geldersevallei", "emergency": "yes", "healthcare": "hospital", "name": "Ziekenhuis Gelderse Vallei", "phone": "+31 318 433 700", "website": "https://www.geldersevallei.nl/", "wikidata": "Q14526990", "wikipedia": "nl:Ziekenhuis Gelderse Vallei"}}, {"name": "Diakonessenhuis", "latitude": 52.0816147, "longitude": 5.1384681, "source": "osm", "_tags": {"amenity": "hospital", "healthcare": "hospital", "name": "Diakonessenhuis", "wikidata": "Q2126530", "wikipedia": "nl:Diakonessenhuis (Utrecht)"}}, {"name": "Ziekenhuis St. Jansdal", "latitude": 52.3423401, "longitude": 5.6165443, "source": "osm", "_tags": {"amenity": "hospital", "healthcare": "hospital", "name": "Ziekenhuis St. Jansdal", "website": "https://www.stjansdal.nl/locaties/ziekenhuis-st-jansdal-harderwijk", "wikidata": "Q59384173", "wikipedia": "nl:St Jansdal Ziekenhuis"}}, {"name": "Radboud Universitair Medisch Centrum", "latitude": 51.8229649, "longitude": 5.8622849, "source": "osm", "_tags": {"addr:city": "Nijmegen", "addr:housenumber": "10", "addr:postcode": "6525GA", "addr:street": "Geert Grooteplein Zuid", "alt_name": "Academisch Ziekenhuis Nijmegen", "amenity": "hospital", "check_date": "2025-09-17", "emergency": "yes", "healthcare": "hospital", "internet_access": "wlan", "name": "Radboud Universitair Medisch Centrum", "name:en": "Radboudumc", "phone": "+31 24 361 1111", "short_name": "Radboudumc", "source": "BAG", "source:date": "2018-02-08", "toilets:wheelchair": "yes", "website": "https://www.radboudumc.nl", "wheelchair": "yes", "wikidata": "Q2594321", "wikimedia_commons": "Category:Radboud University Nijmegen Medical Centre", "wikipedia": "nl:Radboudumc"}}, {"name": "Langdurige Forensisch Psychiatrische Zorg Zeeland", "latitude": 51.6826882, "longitude": 5.659114, "source": "osm", "_tags": {"addr:city": "Zeeland", "addr:housenumber": "75", "addr:postcode": "5411RW", "addr:street": "Brand", "amenity": "hospital", "healthcare:speciality": "psychiatry", "name": "Langdurige Forensisch Psychiatrische Zorg Zeeland", "old_name": "TBS \"de Corridor\"", "operator": "pompestichting", "short_name": "LFPZ Zeeland", "website": "https://www.pompestichting.nl/Behandeling/Langdurige-Forensisch-Psychiatrische-Zorg/"}}, {"name": "Pluryn Zeist", "latitude": 52.0968699, "longitude": 5.2583796, "source": "osm", "_tags": {"amenity": "hospital", "healthcare": "hospital", "healthcare:speciality": "mental", "name": "Pluryn Zeist", "operator": "Pluryn"}}, {"name": "Stadskliniek Utrecht", "latitude": 52.0953041, "longitude": 5.1348063, "source": "osm", "_tags": {"addr:city": "Utrecht", "addr:housenumber": "397-423", "addr:postcode": "3572AV", "addr:street": "Biltstraat", "amenity": "hospital", "name": "Stadskliniek Utrecht", "website": "http://www.stadskliniekutrecht.nl/"}}, {"name": "Gezondheidscentrum De Grote Beek", "latitude": 51.4680743, "longitude": 5.4417108, "source": "osm", "_tags": {"amenity": "hospital", "healthcare:speciality": "psychiatry", "name": "Gezondheidscentrum De Grote Beek", "operator": "GGzE", "website": "https://www.ggze.nl/teams/gezondheidscentrum-de-grote-beek", "wikidata": "Q88253439", "wikimedia_commons": "Category:De Grote Beek, Eindhoven", "wikipedia": "nl:Grote Beek (psychiatrisch ziekenhuis)"}}, {"name": "Tergooi MC", "latitude": 52.215716, "longitude": 5.2015579, "source": "osm", "_tags": {"amenity": "hospital", "branch": "Hilversum", "emergency": "yes", "healthcare": "hospital", "internet_access": "wlan", "internet_access:fee": "no", "name": "Tergooi MC", "operator": "Tergooi MC", "operator:type": "public", "operator:wikipedia": "nl:Tergooi MC", "phone": "+31 88 753 1753", "source": "BAG", "source:date": "2021-03-14", "website": "https://www.tergooi.nl/contact/locatie-hilversum/"}}, {"name": "", "latitude": 51.917144, "longitude": 5.8564508, "source": "osm", "_tags": {"amenity": "hospital", "healthcare": "hospital"}}, {"name": "Van der Hoevenkliniek", "latitude": 52.1048782, "longitude": 5.1121221, "source": "osm", "_tags": {"amenity": "hospital", "building": "yes", "emergency": "no", "healthcare": "hospital", "healthcare:speciality": "forensic_psychiatry", "name": "Van der Hoevenkliniek", "ref:bag": "344100000072348", "source": "BAG", "source:date": "2014-08-25", "start_date": "1974", "type": "multipolygon", "website": "https://www.hoevenkliniek.nl"}}, {"name": "Prinses Máxima Centrum Utrecht", "latitude": 52.0901828, "longitude": 5.1837279, "source": "osm", "_tags": {"amenity": "hospital", "building": "hospital", "emergency": "no", "healthcare": "hospital", "layer": "1", "name": "Prinses Máxima Centrum Utrecht", "ref:bag": "0344100000141441", "source": "BAG", "source:date": "2015-09-23", "start_date": "2018", "type": "multipolygon", "website": "https://prinsesmaximacentrum.nl/", "wikidata": "Q43895414", "wikipedia": "nl:Prinses Máxima Centrum"}}, {"name": "ETZ Elisabeth Ziekenhuis", "latitude": 51.5402248, "longitude": 5.1044823, "source": "osm", "_tags": {"amenity": "hospital", "building": "yes", "emergency": "yes", "emergency_telephone_code": "hospital", "name": "ETZ Elisabeth Ziekenhuis", "phone": "+31 13 221 0000", "ref:bag": "0855100000107983", "source": "BAG", "source:date": "2024-12-06", "start_date": "1982", "type": "multipolygon", "website": "https://www.etz.nl"}}]