[{"name": "Johanniter-Krankenhaus Stendal", "latitude": 52.6120959, "longitude": 11.8532443, "source": "osm", "_tags": {"amenity": "hospital", "check_date": "2025-05-05", "emergency": "yes", "healthcare": "hospital", "name": "Johanniter-Krankenhaus Stendal", "operator": "Johanniter GmbH", "operator:wikidata": "Q28131582", "phone": "+49 3931 660", "toilets:wheelchair": "yes", "wheelchair": "yes"}}, {"name": "Elbe-Jeetzel-Klinik", "latitude": 53.0827311, "longitude": 11.079384, "source": "osm", "_tags": {"addr:city": "Dannenberg (Elbe)", "addr:country": "DE", "addr:housenumber": "2", "addr:postcode": "29451", "addr:street": "Hermann-Löns-Straße", "amenity": "hospital", "healthcare": "hospital", "name": "Elbe-Jeetzel-Klinik", "toilets:wheelchair": "yes", "website": "https://www.elbe-jeetzel-klinik.de/", "wheelchair": "yes"}}, {"name": "Maßregelvollzug Uchtspringe", "latitude": 52.5353131, "longitude": 11.5957921, "source": "osm", "_tags": {"addr:city": "Stendal", "addr:country": "DE", "addr:housenumber": "1", "addr:postcode": "39576", "addr:street": "Schnöggersburger Weg", "addr:suburb": "Uchtspringe", "amenity": "hospital", "contact:email": "mrv.uchtspringe@salus-lsa.de", "contact:phone": "+49 39325 705501", "contact:website": "https://www.salus-lsa.de/kliniken-einrichtungen-leistungen/forensische-psychiatrie-und-massregelvollzug/massregelvollzug-uchtspringe", "healthcare": "hospital", "healthcare:speciality": "psychiatry", "name": "Maßregelvollzug Uchtspringe", "operator": "Salus gGmbH", "wikidata": "Q53855456"}}, {"name": "Kinderkrankenhaus Salzwedel", "latitude": 52.8561978, "longitude": 11.146262, "source": "osm", "_tags": {"addr:city": "Salzwedel", "addr:country": "DE", "addr:housenumber": "1", "addr:postcode": "29410", "addr:street": "Brunnenstraße", "amenity": "hospital", "building": "hospital", "emergency": "yes", "healthcare": "hospital", "healthcare:speciality": "paediatrics", "name": "Kinderkrankenhaus Salzwedel", "wheelchair": "yes"}}, {"name": "Median Klinik", "latitude": 52.65145, "longitude": 11.3970212, "source": "osm", "_tags": {"addr:city": "Kalbe (Milde)", "addr:country": "DE", "addr:housenumber": "2", "addr:postcode": "39624", "addr:street": "Straße der Jugend", "amenity": "hospital", "email": "info@median-kliniken.de", "fax": "+49 (0) 390 80 / 71-555", "healthcare": "hospital", "image": "http://www.median-kliniken.de/images/content/header/MEDIAN-Klinik-Kalbe.jpg", "name": "Median Klinik", "phone": "+49 (0) 390 80 / 71-0", "website": "https://www.median-kliniken.de/median-kliniken/rehabilitationskliniken/median-klinik-kalbe"}}, {"name": "Diakoniekrankenhaus Seehausen", "latitude": 52.8819342, "longitude": 11.7465578, "source": "osm", "_tags": {"amenity": "hospital", "name": "Diakoniekrankenhaus Seehausen", "toilets:wheelchair": "no", "wheelchair": "yes"}}, {"name": "Kreiskrankenhaus Prignitz", "latitude": 53.0734805, "longitude": 11.8737822, "source": "osm", "_tags": {"amenity": "hospital", "contact:email": "info@krankenhaus-prignitz.de", "contact:fax": "+49 3876 30-3313", "contact:phone": "+49 3876 30-30", "contact:website": "https://www.krankenhaus-prignitz.de/", "emergency": "yes", "healthcare": "hospital", "name": "Kreiskrankenhaus Prignitz", "opening_hours": "24/7", "operator": "Kreiskrankenhaus Prignitz gGmbH", "wheelchair": "yes"}}, {"name": "Altmark-Klinikum", "latitude": 52.8561899, "longitude": 11.1452792, "source": "osm", "_tags": {"amenity": "hospital", "check_date": "2024-04-22", "emergency": "yes", "healthcare": "hospital", "name": "Altmark-Klinikum", "wheelchair": "yes"}}, {"name": "Westmecklenburg Klinikum Helene von Bülow", "latitude": 53.3316639, "longitude": 11.4981439, "source": "osm", "_tags": {"amenity": "hospital", "healthcare": "hospital", "name": "Westmecklenburg Klinikum Helene von Bülow", "phone": "+49 3874 433 0", "website": "https://www.wmk-hvb.de/standort-ludwigslust/", "wheelchair": "yes"}}, {"name": "Altmark-Klinikum Gardelegen", "latitude": 52.5224044, "longitude": 11.3816082, "source": "osm", "_tags": {"addr:city": "Gardelegen", "addr:country": "DE", "addr:housenumber": "22", "addr:postcode": "39638", "addr:street": "Ernst-von-Bergmann-Straße", "amenity": "hospital", "building": "yes", "healthcare": "hospital", "name": "Altmark-Klinikum Gardelegen", "type": "multipolygon", "wheelchair": "yes"}}, {"name": "Salus Fachklinikum Uchtspringe", "latitude": 52.5391414, "longitude": 11.597177, "source": "osm", "_tags": {"addr:city": "Stendal", "addr:country": "DE", "addr:housenumber": "6", "addr:postcode": "39576", "addr:street": "Emil-Kraepelin-Straße", "addr:suburb": "Uchtspringe", "amenity": "hospital", "emergency": "yes", "fax": "+49 39325 70195", "healthcare": "hospital", "healthcare:speciality": "psychiatry", "name": "Salus Fachklinikum Uchtspringe", "operator": "Salus gGmbH", "phone": "+49 39325 700", "type": "multipolygon", "website": "https://www.uchtspringe.de/", "wikidata": "Q16219051"}}]