[{"name": "Цэнтральная раённая бальніца", "latitude": 53.4167644, "longitude": 24.5531751, "source": "osm", "_tags": {"addr:city": "Масты", "addr:housenumber": "55", "addr:street": "Савецкая вуліца", "amenity": "hospital", "emergency": "yes", "healthcare": "hospital", "name": "Цэнтральная раённая бальніца", "name:be": "Цэнтральная раённая бальніца", "name:ru": "Центральная районная больница"}}, {"name": "Брэсцкая абласная псіхіятрычная бальніца «Магілёўцы»", "latitude": 52.8669132, "longitude": 24.6776229, "source": "osm", "_tags": {"amenity": "hospital", "description": "Брестской области", "name": "Брэсцкая абласная псіхіятрычная бальніца «Магілёўцы»", "name:be": "Брэсцкая абласная псіхіятрычная бальніца «Магілёўцы»", "name:ru": "Брестская областная психиатрическая больница «Могилевцы»", "name:uk": "Брестська обласна психіатрична лікарня «Могилівці»"}}, {"name": "Гарадская стаматалагічная паліклініка", "latitude": 53.1613109, "longitude": 24.4453135, "source": "osm", "_tags": {"amenity": "hospital", "name": "Гарадская стаматалагічная паліклініка", "name:be": "Гарадская стаматалагічная паліклініка", "name:ru": "Городская стоматологическая поликлиника"}}, {"name": "Раённая паліклініка", "latitude": 53.1617385, "longitude": 24.442732, "source": "osm", "_tags": {"amenity": "hospital", "healthcare": "clinic", "name": "Раённая паліклініка", "name:be": "Раённая паліклініка", "name:ru": "Районная поликлиника"}}, {"name": "Скурна-венералагічны дыспансэр", "latitude": 52.563681, "longitude": 24.4658314, "source": "osm", "_tags": {"amenity": "hospital", "name": "Скурна-венералагічны дыспансэр", "name:be": "Скурна-венералагічны дыспансэр", "name:ru": "Кожно-венерологический диспансер"}}, {"name": "Процітуберкулёзны дыспансер", "latitude": 52.5634868, "longitude": 24.4663712, "source": "osm", "_tags": {"amenity": "hospital", "name": "Процітуберкулёзны дыспансер", "name:be": "Процітуберкулёзны дыспансер", "name:ru": "Противотуберкулезный диспансер"}}, {"name": "Амбулаторыя", "latitude": 53.1217877, "longitude": 23.969951, "source": "osm", "_tags": {"amenity": "hospital", "name": "Амбулаторыя", "name:be": "Амбулаторыя", "name:ru": "Амбулатория"}}, {"name": "", "latitude": 52.6008207, "longitude": 24.3960784, "source": "osm", "_tags": {"amenity": "hospital", "healthcare": "hospital"}}, {"name": "Цэнтральная раённая бальніца", "latitude": 53.1618141, "longitude": 24.4393845, "source": "osm", "_tags": {"addr:housenumber": "1А", "addr:postcode": "231900", "addr:street": "вуліца Барычэўскага", "amenity": "hospital", "contact:website": "https://www.volrb.by/", "name": "Цэнтральная раённая бальніца", "name:be": "Цэнтральная раённая бальніца", "name:ru": "Центральная районная больница"}}, {"name": "Мадзейкаўская бальніца сястрынскага догляду", "latitude": 53.1457609, "longitude": 24.6284924, "source": "osm", "_tags": {"amenity": "hospital", "name": "Мадзейкаўская бальніца сястрынскага догляду", "name:be": "Мадзейкаўская бальніца сястрынскага догляду", "name:ru": "Мадейковская больница сестринского ухода", "operator": "Зельвенская центральная районная больница"}}, {"name": "", "latitude": 53.1612703, "longitude": 24.4425587, "source": "osm", "_tags": {"amenity": "hospital", "building": "yes"}}, {"name": "Цэнтральная раённая бальніца", "latitude": 53.1610011, "longitude": 24.440113, "source": "osm", "_tags": {"amenity": "hospital", "contact:website": "https://www.volrb.by/", "name": "Цэнтральная раённая бальніца", "name:be": "Цэнтральная раённая бальніца", "name:ru": "Центральная районная больница"}}, {"name": "Супрацьтуберкулёзны дыспансер", "latitude": 53.1476722, "longitude": 24.4375188, "source": "osm", "_tags": {"amenity": "hospital", "barrier": "wall", "healthcare": "hospital", "name": "Супрацьтуберкулёзны дыспансер", "name:be": "Супрацьтуберкулёзны дыспансер", "name:ru": "Противотуберкулёзный диспансер"}}, {"name": "Свіслацкая Цэнтральная раённая бальніца", "latitude": 53.0339412, "longitude": 24.0933231, "source": "osm", "_tags": {"amenity": "hospital", "emergency": "yes", "healthcare": "hospital", "name": "Свіслацкая Цэнтральная раённая бальніца", "name:be": "Свіслацкая Цэнтральная раённая бальніца", "name:ru": "Свислочская Центральная районная больница", "phone": "(1513)3-31-03", "short_name": "Свислочская ЦРБ", "website": "sviscrb.by"}}, {"name": "Амбулаторыя", "latitude": 53.3646827, "longitude": 24.3670326, "source": "osm", "_tags": {"addr:housenumber": "16", "addr:postcode": "231908", "addr:street": "Цэнтральная вуліца", "amenity": "hospital", "building": "yes", "emergency": "yes", "name": "Амбулаторыя", "name:be": "Амбулаторыя", "name:ru": "Амбулатория"}}, {"name": "", "latitude": 53.2569568, "longitude": 24.4308352, "source": "osm", "_tags": {"amenity": "hospital"}}, {"name": "Клепацкая ўрачэбная амбулаторыя", "latitude": 52.7046512, "longitude": 24.355866, "source": "osm", "_tags": {"addr:city": "Клепачы", "addr:housenumber": "6", "addr:street": "вуліца 60 год БССР", "amenity": "hospital", "building": "yes", "building:levels": "2", "name": "Клепацкая ўрачэбная амбулаторыя", "name:be": "Клепацкая ўрачэбная амбулаторыя", "name:en": "Klepachi medical clinic", "name:ru": "Клепачская врачебная амбулатория"}}, {"name": "бальніца сястрынскага догляду", "latitude": 52.9782043, "longitude": 24.7682718, "source": "osm", "_tags": {"amenity": "hospital", "name": "бальніца сястрынскага догляду", "name:be": "бальніца сястрынскага догляду", "name:ru": "Больница сестринского ухода", "operator": "УЗ \"Зельвенская центральная районная больница\""}}, {"name": "Сялецкая ўчастковая бальніца", "latitude": 52.5791404, "longitude": 24.8584181, "source": "osm", "_tags": {"amenity": "hospital", "barrier": "fence", "name": "Сялецкая ўчастковая бальніца", "name:be": "Сялецкая ўчастковая бальніца", "name:ru": "Селецкая участковая больница", "operator": "Берёзовская ЦРБ имени Э.Э.Вержбицкого", "website": "http://www.crbbrz.by/selec/"}}, {"name": "Бераставіцкая цэнтральная раённая бальніца", "latitude": 53.1966841, "longitude": 24.0188015, "source": "osm", "_tags": {"addr:housenumber": "10", "addr:postcode": "231778", "addr:street": "вуліца Леніна", "amenity": "hospital", "contact:email": "berestow@tut.by", "contact:phone": "+375(15) 112-14-37", "contact:website": "http://bercrb.by/", "emergency": "yes", "healthcare": "hospital", "healthcare:speciality": "general", "name": "Бераставіцкая цэнтральная раённая бальніца", "name:be": "Бераставіцкая цэнтральная раённая бальніца", "name:ru": "Берестовицкая центральная районная больница"}}, {"name": "Верайкоўская ўчастковая бальніца", "latitude": 53.2491071, "longitude": 24.1780812, "source": "osm", "_tags": {"amenity": "hospital", "barrier": "fence", "name": "Верайкоўская ўчастковая бальніца", "name:be": "Верайкоўская ўчастковая бальніца", "name:ru": "Верейковская участковая больница", "operator": "Волковысская ЦРБ"}}, {"name": "Алекшыцкая участковая бальніца", "latitude": 53.3378472, "longitude": 23.9460998, "source": "osm", "_tags": {"amenity": "hospital", "name": "Алекшыцкая участковая бальніца", "name:be": "Алекшыцкая участковая бальніца", "name:ru": "Олекшицкая участковая больница", "operator": "Берестовицкая районная центральная больница"}}, {"name": "Ружанская гарадская бальніца", "latitude": 52.8593202, "longitude": 24.8931245, "source": "osm", "_tags": {"amenity": "hospital", "name": "Ружанская гарадская бальніца", "name:be": "Ружанская гарадская бальніца", "name:ru": "Ружанская городская больница"}}, {"name": "", "latitude": 52.6330492, "longitude": 24.3172987, "source": "osm", "_tags": {"amenity": "hospital", "healthcare": "hospital"}}, {"name": "Сігневіцкая ўчастковая бальніца", "latitude": 52.422972, "longitude": 24.8940821, "source": "osm", "_tags": {"amenity": "hospital", "description": "С 01.10.2016г. Сигневичская участковая больница переведена в больницу сестринского ухода на 20 коек с 5 койками терапевтического профиля", "name": "Сігневіцкая ўчастковая бальніца", "name:be": "Сігневіцкая ўчастковая бальніца", "name:ru": "Сигневичская участковая больница", "operator": "Берёзовская ЦРБ имени Э.Э.Вержбицкого", "start_date": "1989", "website": "http://www.crbbrz.by/signevichi/"}}, {"name": "Волпаўская бальніца сястрынскага догляду", "latitude": 53.3702848, "longitude": 24.3486569, "source": "osm", "_tags": {"amenity": "hospital", "name": "Волпаўская бальніца сястрынскага догляду", "name:be": "Волпаўская бальніца сястрынскага догляду", "name:ru": "Волповская больница сестринского ухода"}}, {"name": "Малецкая ўчастковая бальніца", "latitude": 52.4887697, "longitude": 24.7155392, "source": "osm", "_tags": {"amenity": "hospital", "name": "Малецкая ўчастковая бальніца", "name:be": "Малецкая ўчастковая бальніца", "name:ru": "Малечская участковая больница", "opening_hours": "Mo-Su 07:00-20:00", "phone": "80164327263", "website": "http://www.crbbrz.by/malech/"}}, {"name": "Шарашоўская гарадская бальніца", "latitude": 52.5541953, "longitude": 24.2260981, "source": "osm", "_tags": {"amenity": "hospital", "name": "Шарашоўская гарадская бальніца", "name:be": "Шарашоўская гарадская бальніца", "name:ru": "Шерешевская городская больница"}}, {"name": "Дзіцячая гарадская паліклініка", "latitude": 53.1628466, "longitude": 24.4712517, "source": "osm", "_tags": {"amenity": "hospital", "healthcare": "hospital", "name": "Дзіцячая гарадская паліклініка", "name:be": "Дзіцячая гарадская паліклініка", "name:ru": "Детская городская поликлиника"}}, {"name": "Зэльвенская цэнтральная раённая бальніца", "latitude": 53.1482295, "longitude": 24.8249665, "source": "osm", "_tags": {"amenity": "hospital", "contact:website": "http://zelva-crb.by/", "emergency": "yes", "name": "Зэльвенская цэнтральная раённая бальніца", "name:be": "Зэльвенская цэнтральная раённая бальніца", "name:ru": "Зельвенская центральная районная больница"}}, {"name": "", "latitude": 52.6562436, "longitude": 24.1683898, "source": "osm", "_tags": {"amenity": "hospital", "healthcare": "hospital"}}, {"name": "Пружанская цэнтральная раённая бальніца", "latitude": 52.5649706, "longitude": 24.4689949, "source": "osm", "_tags": {"amenity": "hospital", "healthcare": "hospital", "name": "Пружанская цэнтральная раённая бальніца", "name:be": "Пружанская цэнтральная раённая бальніца", "name:ru": "Пружанская центральная районная больница", "official_name": "Учреждение здравоохранения «Пружанская центральная районная больница\"", "type": "multipolygon", "website": "http://prcrb.by/"}}]