[{"name": "Zespół Opieki Zdrowotnej w Nidzicy", "latitude": 53.35986, "longitude": 20.43298, "source": "osm", "_tags": {"addr:city": "Nidzica", "addr:housenumber": "25", "addr:street": "Adama Mickiewicza", "amenity": "hospital", "healthcare": "hospital", "name": "Zespół Opieki Zdrowotnej w Nidzicy", "phone": "+48 89 625 05 35", "source": "http://ump.waw.pl/ retrieved 12:40:28 08/23/09 (UMP-Ciechanow/src/POI-Ciechanow.szpitale.pnt-converted.txt)", "website": "https://zoz.nidzica.pl/"}}, {"name": "Samodzielny Publiczny Zakład Opieki Zdrowotnej w Nasielsku", "latitude": 52.5936635, "longitude": 20.7979238, "source": "osm", "_tags": {"amenity": "hospital", "email": "sekretariat@zoz.nasielsk.pl", "healthcare": "clinic", "name": "Samodzielny Publiczny Zakład Opieki Zdrowotnej w Nasielsku", "phone": "+48 23 691 25 03", "website": "https://zoznasielsk.pl/"}}, {"name": "", "latitude": 52.7838984, "longitude": 20.118274, "source": "osm", "_tags": {"amenity": "doctors", "healthcare": "hospital"}}, {"name": "Samodzielny Publiczny Zespół Zakładów Opieki Zdrowotnej", "latitude": 53.0288031, "longitude": 20.8939503, "source": "osm", "_tags": {"amenity": "hospital", "emergency": "yes", "healthcare": "hospital", "name": "Samodzielny Publiczny Zespół Zakładów Opieki Zdrowotnej"}}, {"name": "Szpital Państwowy w Działdowie", "latitude": 53.2421526, "longitude": 20.1927042, "source": "osm", "_tags": {"addr:housenumber": "1", "addr:postcode": "13-200", "addr:street": "Leśna", "amenity": "hospital", "building": "hospital", "emergency": "yes", "name": "Szpital Państwowy w Działdowie", "source:geometry": "geoportal.gov.pl:ortofoto"}}, {"name": "", "latitude": 53.242143, "longitude": 20.1926967, "source": "osm", "_tags": {"amenity": "hospital"}}, {"name": "", "latitude": 53.2418634, "longitude": 20.1943303, "source": "osm", "_tags": {"amenity": "hospital"}}, {"name": "Samodzielny Publiczny Zakład Opieki Zdrowotnej w Mławie", "latitude": 53.1232088, "longitude": 20.3707196, "source": "osm", "_tags": {"addr:city": "Mława", "addr:city:simc": "0930696", "addr:housenumber": "1", "addr:postcode": "06-500", "addr:street": "Anny Dobrskiej", "addr:street:sym_ul": "03970", "amenity": "hospital", "emergency": "yes", "healthcare": "hospital", "name": "Samodzielny Publiczny Zakład Opieki Zdrowotnej w Mławie"}}, {"name": "SPZZOZ im. Marszałka Józefa Piłsudskiego w Płońsku", "latitude": 52.6303946, "longitude": 20.3763182, "source": "osm", "_tags": {"amenity": "hospital", "healthcare": "hospital", "name": "SPZZOZ im. Marszałka Józefa Piłsudskiego w Płońsku", "official_name": "Samodzielny Publiczny Zespół Zakładów Opieki Zdrowotnej im. Marszałka Józefa Piłsudskiego w Płońsku", "phone": "+48 23 661 77 00", "website": "http://www.szpitalplonsk.pl/"}}, {"name": "Wojskowy Ośrodek Medycyny Prewencyjnej", "latitude": 52.433739, "longitude": 20.6649638, "source": "osm", "_tags": {"amenity": "hospital", "healthcare": "hospital", "name": "Wojskowy Ośrodek Medycyny Prewencyjnej"}}, {"name": "Centrum Medyczne Grupa Zdrowie - Zakład Opiekuńczo Leczniczy dla osób z zaburzeniami psychicznymi", "latitude": 52.818681, "longitude": 20.0424937, "source": "osm", "_tags": {"amenity": "hospital", "email": "kraszewo@grupazdrowie.pl", "healthcare": "hospital", "name": "Centrum Medyczne Grupa Zdrowie - Zakład Opiekuńczo Leczniczy dla osób z zaburzeniami psychicznymi", "phone": "+48 22 749 10 70", "website": "https://grupazdrowie.pl/"}}, {"name": "Specjalistyczny Szpital Wojewódzki", "latitude": 52.883335, "longitude": 20.6365829, "source": "osm", "_tags": {"addr:city": "Ciechanów", "addr:housenumber": "2", "addr:postcode": "06-413", "addr:street": "Powstańców Wielkopolskich", "amenity": "hospital", "contact:phone": "+48236723271", "name": "Specjalistyczny Szpital Wojewódzki"}}, {"name": "Specjalistyczny Szpital Wojewódzki w Ciechanowie - Oddział psychiatryczny", "latitude": 52.8519168, "longitude": 20.6558476, "source": "osm", "_tags": {"amenity": "clinic", "healthcare": "hospital", "name": "Specjalistyczny Szpital Wojewódzki w Ciechanowie - Oddział psychiatryczny"}}, {"name": "", "latitude": 53.0099129, "longitude": 20.3670377, "source": "osm", "_tags": {"addr:housenumber": "129", "addr:place": "Dąbek", "addr:postcode": "06-561", "amenity": "hospital", "building": "yes", "source": "www.geoportal.gov.pl"}}]