[{"name": "Samodzielny Publiczny Zakład Opieki Zdrowotnej w Siemiatyczach", "latitude": 52.4216083, "longitude": 22.8637328, "source": "osm", "_tags": {"addr:city": "Siemiatycze", "addr:housenumber": "8", "addr:postcode": "17-300", "addr:street": "Szpitalna", "amenity": "hospital", "email": "sekretariat@spzozsiemiatycze.pl", "healthcare": "hospital", "name": "Samodzielny Publiczny Zakład Opieki Zdrowotnej w Siemiatyczach", "phone": "+48 85 655 22 66", "website": "https://spzozsiemiatycze.pl/"}}, {"name": "Szpital Powiatowy w Zambrowie", "latitude": 52.9883466, "longitude": 22.2535732, "source": "osm", "_tags": {"addr:city": "Zambrów", "addr:city:simc": "0957637", "addr:housenumber": "3", "addr:postcode": "18-300", "addr:street": "Papieża Jana Pawła II", "addr:street:sym_ul": "07127", "amenity": "hospital", "building": "hospital", "healthcare": "hospital", "name": "Szpital Powiatowy w Zambrowie", "source:addr": "emuia.gugik.gov.pl"}}, {"name": "Wojewódzki Ośrodek Profilaktyki i Terapii Uzależnień w Łomży", "latitude": 53.1760491, "longitude": 22.0686932, "source": "osm", "_tags": {"addr:city": "Łomża", "addr:housenumber": "1", "addr:postcode": "18-400", "addr:street": "Marii Skłodowskiej-Curie", "amenity": "hospital", "healthcare": "hospital", "name": "Wojewódzki Ośrodek Profilaktyki i Terapii Uzależnień w Łomży", "official_name": "Szpital Wojewódzki im. Kard. Stefana Wyszyńskiego w Łomży", "phone": "+48862166703", "website": "https://wopitu.pl/"}}, {"name": "Szpital Ogólny", "latitude": 52.9154871, "longitude": 22.522326, "source": "osm", "_tags": {"addr:city": "Wysokie Mazowieckie", "addr:housenumber": "5", "addr:postcode": "18-200", "addr:street": "Szpitalna", "amenity": "hospital", "building": "hospital", "name": "Szpital Ogólny"}}, {"name": "Samodzielny Publiczny Zakład Opieki Zdrowotnej im. dr. E.Jelskiego - Przychodnia Rejonowa w Knyszynie - Poradnia ogólna", "latitude": 53.3196195, "longitude": 22.9218715, "source": "osm", "_tags": {"addr:city": "Knyszyn", "addr:housenumber": "96", "addr:postcode": "19-120", "addr:street": "Grodzieńska", "amenity": "hospital", "building": "hospital", "name": "Samodzielny Publiczny Zakład Opieki Zdrowotnej im. dr. E.Jelskiego - Przychodnia Rejonowa w Knyszynie - Poradnia ogólna", "phone": "857167026", "source:addr": "knyszyn.e-mapa.net"}}, {"name": "Samodzielny Publiczny Zakład Opieki Zdrowotnej w Łapach", "latitude": 52.9879391, "longitude": 22.8676304, "source": "osm", "_tags": {"addr:city": "Łapy", "addr:housenumber": "23", "addr:postcode": "18-100", "addr:street": "Janusza Korczaka", "amenity": "hospital", "barrier": "fence", "fence_type": "chain_link", "healthcare": "hospital", "name": "Samodzielny Publiczny Zakład Opieki Zdrowotnej w Łapach", "phone": "+48 85 814 24 39", "website": "https://szpitallapy.pl/"}}, {"name": "Samodzielny Publiczny Zakład Opieki Zdrowotnej W Mońkach", "latitude": 53.4062059, "longitude": 22.8035381, "source": "osm", "_tags": {"amenity": "hospital", "emergency": "yes", "healthcare": "hospital", "name": "Samodzielny Publiczny Zakład Opieki Zdrowotnej W Mońkach"}}, {"name": "", "latitude": 52.9151346, "longitude": 22.5225199, "source": "osm", "_tags": {"amenity": "hospital", "building": "hospital"}}, {"name": "", "latitude": 52.914969, "longitude": 22.5224244, "source": "osm", "_tags": {"amenity": "hospital", "building": "hospital"}}, {"name": "", "latitude": 52.9149106, "longitude": 22.5227109, "source": "osm", "_tags": {"amenity": "hospital", "building": "hospital"}}, {"name": "", "latitude": 52.9151749, "longitude": 22.5227223, "source": "osm", "_tags": {"amenity": "hospital", "healthcare": "hospital"}}, {"name": "Szpital Wojewódzki im. Kardynała Stefana Wyszyńskiego w Łomży", "latitude": 53.1591931, "longitude": 22.0867176, "source": "osm", "_tags": {"amenity": "hospital", "name": "Szpital Wojewódzki im. Kardynała Stefana Wyszyńskiego w Łomży", "phone": "86 4733 900", "website": "https://www.szpital-lomza.pl/", "wikidata": "Q9352148", "wikipedia": "pl:Szpital Wojewódzki im. Kardynała Stefana Wyszyńskiego w Łomży"}}, {"name": "", "latitude": 52.9883545, "longitude": 22.2536479, "source": "osm", "_tags": {"amenity": "hospital", "healthcare": "hospital"}}]