[{"name": "Heliomare", "latitude": 52.4973555, "longitude": 4.5936049, "source": "osm", "_tags": {"addr:city": "Wijk aan Zee", "addr:country": "NL", "addr:housenumber": "51", "addr:postcode": "1949EC", "addr:street": "Relweg", "amenity": "hospital", "healthcare": "hospital", "healthcare:speciality": "physiatrie", "name": "Heliomare", "source": "BAG", "source:date": "2014-06-06"}}, {"name": "Noordwest Ziekenhuisgroep", "latitude": 52.6691587, "longitude": 4.8229305, "source": "osm", "_tags": {"addr:city": "Heerhugowaard", "addr:country": "NL", "addr:housenumber": "49", "addr:postcode": "1703WD", "addr:street": "Stationsplein", "amenity": "hospital", "branch": "Heerhugowaard", "contact:phone": "+31 72 548 2020", "contact:website": "https://www.nwz.nl/Contact#Stel-uw-vraag", "healthcare": "hospital", "name": "Noordwest Ziekenhuisgroep", "opening_hours": "Mo-Th 07:00-19:00; Fr 07:00-17:00", "phone": "+31 72 548 2020", "source": "BAG", "source:date": "2014-05-07;2024-07-07"}}, {"name": "Noordwest Ziekenhuis", "latitude": 52.7832855, "longitude": 4.8076107, "source": "osm", "_tags": {"addr:city": "Schagen", "addr:housenumber": "25", "addr:postcode": "1741LC", "addr:street": "Kaagweg", "amenity": "hospital", "branch": "Schagen", "healthcare": "hospital", "name": "Noordwest Ziekenhuis", "operator": "Noordwest Ziekenhuisgroep", "operator:website": "https://www.nwz.nl", "phone": "+31 88 085 1100", "source": "BAG", "source:date": "2014-03-24", "website": "https://www.nwz.nl/contact/schagen"}}, {"name": "Zaans Medisch Centrum", "latitude": 52.4533015, "longitude": 4.8256885, "source": "osm", "_tags": {"addr:city": "Zaandam", "addr:housenumber": "58", "addr:postcode": "1502DV", "addr:street": "Koningin Julianaplein", "alt_name": "ZMC", "amenity": "hospital", "emergency": "yes", "healthcare": "hospital", "name": "Zaans Medisch Centrum", "phone": "+31 75 650 2911", "source": "BAG", "source:date": "2014-06-02", "website": "https://www.zaansmedischcentrum.nl/", "wheelchair": "yes", "wikidata": "Q2678979", "wikipedia": "nl:Zaans Medisch Centrum"}}, {"name": "Rode Kruis Ziekenhuis", "latitude": 52.4793194, "longitude": 4.6508183, "source": "osm", "_tags": {"amenity": "hospital", "building": "hospital", "building:levels": "8", "emergency": "yes", "healthcare": "hospital", "name": "Rode Kruis Ziekenhuis", "ref:bag": "375100000017357", "source": "BAG", "source:date": "2014-06-10", "start_date": "1995", "wikidata": "Q2715637"}}, {"name": "Spaarne Gasthuis Haarlem-Noord", "latitude": 52.4225378, "longitude": 4.6505914, "source": "osm", "_tags": {"addr:city": "Haarlem", "addr:housenumber": "999", "addr:postcode": "2026BW", "addr:street": "Vondelweg", "alt_name": "Kennemer Gasthuis Locatie Noord", "amenity": "hospital", "emergency": "no", "healthcare": "hospital", "name": "Spaarne Gasthuis Haarlem-Noord", "note": "Locaties Spaarne Gasthuis:\n Hoofddorp & Haarlem.\nIn deze gebouwen vindt u vrijwel alle medisch specialismen.\nDaarnaast heeft het ziekenhuis poliklinieken in Hillegom, Haarlem Noord en Nieuw-Ve", "website": "https://spaarnegasthuis.nl/locatie/haarlem-noord", "wheelchair": "yes", "wikipedia": "nl:Spaarne Gasthuis"}}, {"name": "Noordwest Ziekenhuisgroep locatie Alkmaar", "latitude": 52.62823, "longitude": 4.736094, "source": "osm", "_tags": {"addr:city": "Alkmaar", "addr:housenumber": "131", "addr:postcode": "1815HM", "addr:street": "Wilhelminalaan", "amenity": "hospital", "emergency": "yes", "healthcare": "hospital", "name": "Noordwest Ziekenhuisgroep locatie Alkmaar"}}, {"name": "Noordwest Ziekenhuisgroep Den Helder", "latitude": 52.9579934, "longitude": 4.7445656, "source": "osm", "_tags": {"addr:city": "Den Helder", "addr:housenumber": "3", "addr:postcode": "1782GZ", "addr:street": "Huisduinerweg", "amenity": "hospital", "emergency": "yes", "healthcare": "hospital", "name": "Noordwest Ziekenhuisgroep Den Helder", "website": "https://www.nwz.nl/Locaties/Den-Helder", "wheelchair": "yes"}}, {"name": "", "latitude": 52.6678832, "longitude": 4.8155709, "source": "osm", "_tags": {"amenity": "hospital", "healthcare": "hospital"}}]