[{"name": "Медыцынскі цэнтр «Тарі»", "latitude": 53.1347318, "longitude": 29.2254602, "source": "osm", "_tags": {"amenity": "hospital", "name": "Медыцынскі цэнтр «Тарі»", "name:be": "Медыцынскі цэнтр «Тарі»", "name:ru": "Медицинский центр «Тари»", "name:uk": "Медичний центр «Тарі»"}}, {"name": "УАЗ «Бабруйская цэнтральная бальніца»", "latitude": 53.175371, "longitude": 29.1854612, "source": "osm", "_tags": {"addr:postcode": "213822", "amenity": "hospital", "name": "УАЗ «Бабруйская цэнтральная бальніца»", "name:be": "УАЗ «Бабруйская цэнтральная бальніца»", "name:ru": "УЗ «Бобруйская центральная больница»", "name:uk": "УЗ «Бобруйска центральна лікарня»", "opening_hours": "24/7"}}, {"name": "Каменскі псіханеўралагічны дом-інтэрнат", "latitude": 53.1152842, "longitude": 29.1022332, "source": "osm", "_tags": {"amenity": "hospital", "healthcare": "hospital", "name": "Каменскі псіханеўралагічны дом-інтэрнат", "name:be": "Каменскі псіханеўралагічны дом-інтэрнат", "name:ru": "Каменский психоневрологический дом-интернат"}}, {"name": "Прыёмны пакой", "latitude": 53.1750969, "longitude": 29.1858814, "source": "osm", "_tags": {"addr:housenumber": "20", "addr:street": "вуліца Гагарына", "amenity": "hospital", "healthcare": "hospital", "name": "Прыёмны пакой", "name:be": "Прыёмны пакой", "name:ru": "Приемный покой"}}, {"name": "Медыцынскі цэнтр пластычнай хірургіі «Ліямед»", "latitude": 53.0825882, "longitude": 29.2437191, "source": "osm", "_tags": {"addr:city": "Бабруйск", "addr:housenumber": "291А", "addr:postcode": "213800", "addr:street": "вуліца Кірава", "amenity": "hospital", "healthcare": "hospital", "healthcare:speciality": "plastic_surgery", "name": "Медыцынскі цэнтр пластычнай хірургіі «Ліямед»", "name:be": "Медыцынскі цэнтр пластычнай хірургіі «Ліямед»", "name:ru": "«Лиямед» Медицинский центр пластической хирургии", "name:uk": "«Ліямед» Медичний центр пластичної хірургії", "website": "http://liamed.by/"}}, {"name": "інфекцыйная бальніца", "latitude": 53.1744412, "longitude": 29.1826413, "source": "osm", "_tags": {"addr:housenumber": "34", "addr:street": "вуліца Гагарына", "amenity": "hospital", "building": "yes", "healthcare": "hospital", "healthcare:speciality": "infectious_diseases", "name": "інфекцыйная бальніца", "name:be": "інфекцыйная бальніца", "name:ru": "инфекционная больница", "phone": "+375225432798", "ref": "корпус № 2"}}, {"name": "Радзільня", "latitude": 53.150407, "longitude": 29.2375493, "source": "osm", "_tags": {"addr:housenumber": "134", "addr:postcode": "213827", "addr:street": "Савецкая вуліца", "amenity": "hospital", "building": "yes", "building:levels": "4", "healthcare:speciality": "obstetrics", "name": "Радзільня", "name:be": "Радзільня", "name:ru": "Роддом", "official_name": "УЗ «Бобруйский родильный дом»", "phone": "+375225491065, +375225491047, +375225580772"}}, {"name": "Бабруйская міжраённая ветэрынарная лабараторыя", "latitude": 53.1328479, "longitude": 29.2312576, "source": "osm", "_tags": {"addr:housenumber": "8", "addr:street": "Пажарны завулак", "amenity": "hospital", "building": "yes", "name": "Бабруйская міжраённая ветэрынарная лабараторыя", "name:be": "Бабруйская міжраённая ветэрынарная лабараторыя", "name:ru": "ГВСУ «Бобруйская межрайонная ветеринария лаборатория»", "name:uk": "ДВСУ «Бобруйска міжрайонна ветеринарія лабораторія»", "opening_hours": "Mo-Fr 08:00-17:00", "wikidata": "Q111383413"}}, {"name": "Гарадская дзіцячая бальніца", "latitude": 53.1397265, "longitude": 29.197924, "source": "osm", "_tags": {"addr:housenumber": "15", "addr:postcode": "213819", "addr:street": "вуліца 50 год Кастрычніка", "amenity": "hospital", "building": "yes", "building:levels": "3", "email": "bgdb@tut.by", "healthcare": "hospital", "name": "Гарадская дзіцячая бальніца", "name:be": "Гарадская дзіцячая бальніца", "name:ru": "Городская детская больница", "official_name": "УЗ «Бобруйская городская детская больница»", "phone": "+375225524422, +375225527114", "social_facility:for": "child", "wikidata": "Q18009416"}}, {"name": "", "latitude": 53.1500894, "longitude": 29.2218633, "source": "osm", "_tags": {"amenity": "hospital"}}, {"name": "бальніца хуткай медыцынскай дапамогі", "latitude": 53.1446505, "longitude": 29.2170026, "source": "osm", "_tags": {"amenity": "hospital", "email": "gorhospital_smp@tut.by", "name": "бальніца хуткай медыцынскай дапамогі", "name:be": "бальніца хуткай медыцынскай дапамогі", "name:ru": "Больница скорой медицинской помощи", "official_name": "УЗ «Бобруйская городская больница СМП им. В.О. Морзона»", "phone": "+375225553980", "website": "http://bgbsmp.by/"}}, {"name": "Бабруйская цэнтральная бальніца", "latitude": 53.1749736, "longitude": 29.1835392, "source": "osm", "_tags": {"amenity": "hospital", "barrier": "fence", "email": "bcb_contact@mail.ru", "healthcare": "hospital", "name": "Бабруйская цэнтральная бальніца", "name:be": "Бабруйская цэнтральная бальніца", "name:ru": "Бобруйская центральная больница", "official_name": "УЗ «Бобруйская центральная больница»", "phone": "+375225432268, +375225432268", "website": "http://www.bcb.mogilev.by/"}}, {"name": "УАЗ «Бабруйскі міжраённы анкалагічны дыспансер»", "latitude": 53.1445229, "longitude": 29.168208, "source": "osm", "_tags": {"amenity": "hospital", "healthcare": "hospital", "name": "УАЗ «Бабруйскі міжраённы анкалагічны дыспансер»", "name:be": "УАЗ «Бабруйскі міжраённы анкалагічны дыспансер»", "name:ru": "УЗ «Бобруйский межрайонный онкологический диспансер»"}}, {"name": "Супрацьтуберкулёзны дыспансэр", "latitude": 53.1450319, "longitude": 29.2216338, "source": "osm", "_tags": {"amenity": "hospital", "healthcare": "hospital", "name": "Супрацьтуберкулёзны дыспансэр", "name:be": "Супрацьтуберкулёзны дыспансэр", "name:ru": "Противотуберкулёзный диспансер", "operator": "Противотуберкулёзный диспансер"}}, {"name": "", "latitude": 53.394581, "longitude": 29.0028703, "source": "osm", "_tags": {"amenity": "hospital", "barrier": "fence", "healthcare": "hospital"}}, {"name": "", "latitude": 53.3866082, "longitude": 29.0189984, "source": "osm", "_tags": {"amenity": "hospital", "healthcare": "hospital"}}, {"name": "Станцыя хуткай медыцынскай дапамогі", "latitude": 53.143625, "longitude": 29.221049, "source": "osm", "_tags": {"amenity": "hospital", "colour": "yellow", "healthcare": "hospital", "name": "Станцыя хуткай медыцынскай дапамогі", "name:be": "Станцыя хуткай медыцынскай дапамогі", "name:ru": "Станция Скорой Медицинской Помощи"}}, {"name": "Парыцкая пасялковая бальніца.", "latitude": 52.8024073, "longitude": 29.4100319, "source": "osm", "_tags": {"amenity": "hospital", "emergency": "yes", "healthcare": "hospital", "name": "Парыцкая пасялковая бальніца.", "name:be": "Парыцкая пасялковая бальніца.", "name:ru": "Паричская поселковая больница."}}, {"name": "", "latitude": 53.1503466, "longitude": 29.2372574, "source": "osm", "_tags": {"amenity": "hospital", "healthcare": "hospital"}}, {"name": "", "latitude": 52.4615955, "longitude": 29.2665402, "source": "osm", "_tags": {"amenity": "hospital", "emergency": "no", "healthcare": "hospital"}}]