[{"name": "Баранавіцкі ЦГЭ", "latitude": 53.1173673, "longitude": 25.9665702, "source": "osm", "_tags": {"amenity": "hospital", "name": "Баранавіцкі ЦГЭ", "name:be": "Баранавіцкі ЦГЭ", "name:ru": "Барановичский ЦГЭ"}}, {"name": "Гарадская бальніца", "latitude": 53.1297546, "longitude": 25.9965754, "source": "osm", "_tags": {"addr:housenumber": "133", "addr:street": "Брэсцкая вуліца", "amenity": "hospital", "name": "Гарадская бальніца", "name:be": "Гарадская бальніца", "name:en": "City hospital", "name:ru": "Городская больница"}}, {"name": "Альбянскі ФАП", "latitude": 53.2024841, "longitude": 26.6419392, "source": "osm", "_tags": {"addr:housenumber": "4", "addr:street": "вуліца Камарова", "amenity": "hospital", "healthcare": "hospital", "int_name": "Albianski FAP", "name": "Альбянскі ФАП", "name:be": "Альбянскі ФАП", "name:ru": "Альбянский ФАП", "phone": "+375177055619"}}, {"name": "Баранавіцкі занальны ЦГЭ", "latitude": 53.1141209, "longitude": 26.0286899, "source": "osm", "_tags": {"amenity": "hospital", "name": "Баранавіцкі занальны ЦГЭ", "name:be": "Баранавіцкі занальны ЦГЭ", "name:ru": "Барановичский зональный ЦГЭ", "website": "http://gigienabar.by"}}, {"name": "Баранавіцкая дзіцячая гарадская бальніца", "latitude": 53.12706, "longitude": 26.0059999, "source": "osm", "_tags": {"amenity": "hospital", "email": "tmo2@tut.by", "name": "Баранавіцкая дзіцячая гарадская бальніца", "name:be": "Баранавіцкая дзіцячая гарадская бальніца", "name:ru": "Барановичская детская городская больница", "opening_hours": "24/7", "phone": "80163416520", "website": "http://pediatr.brest.by", "wikidata": "Q4077786"}}, {"name": "Лазар", "latitude": 53.1328439, "longitude": 26.0362202, "source": "osm", "_tags": {"amenity": "hospital", "name": "Лазар", "name:be": "Лазар", "name:ru": "Лазарь"}}, {"name": "", "latitude": 52.7232779, "longitude": 26.677165, "source": "osm", "_tags": {"amenity": "hospital"}}, {"name": "Судмедэкспертыза", "latitude": 53.1314287, "longitude": 25.9973199, "source": "osm", "_tags": {"amenity": "hospital", "healthcare": "hospital", "name": "Судмедэкспертыза", "name:be": "Судмедэкспертыза", "name:ru": "Судмедэкспертиза"}}, {"name": "Раённы шпіталь", "latitude": 52.7707843, "longitude": 26.431107, "source": "osm", "_tags": {"amenity": "hospital", "emergency": "yes", "healthcare": "hospital", "name": "Раённы шпіталь", "name:be": "Раённы шпіталь", "name:ru": "Районная больница"}}, {"name": "", "latitude": 53.1257767, "longitude": 26.0324047, "source": "osm", "_tags": {"addr:housenumber": "12", "addr:street": "вуліца Фядзько", "amenity": "hospital", "building": "yes", "building:levels": "3"}}, {"name": "Раённы шпіталь", "latitude": 53.1310187, "longitude": 25.999567, "source": "osm", "_tags": {"addr:housenumber": "56А", "addr:street": "вуліца Горкага", "amenity": "hospital", "building": "yes", "building:levels": "2", "contact:phone": "+375(163) 42-20-17", "name": "Раённы шпіталь", "name:be": "Раённы шпіталь", "name:ru": "Районная больница"}}, {"name": "УАЗ Баранавіцкая гарадская бальніца № 2", "latitude": 53.1108039, "longitude": 25.950752, "source": "osm", "_tags": {"addr:housenumber": "8", "addr:postcode": "225413", "addr:street": "Слонімская шаша", "amenity": "hospital", "description": "Пульмонология, ревматология, ОРМР, хирургия, гастроэнтерология, РАО, ФТО, КДЛ, рентген, УЗИ, эндоскопия, ЦСО.", "email": "hospital_2_baranovichi@mail.ru", "healthcare": "hospital", "name": "УАЗ Баранавіцкая гарадская бальніца № 2", "name:be": "УАЗ Баранавіцкая гарадская бальніца № 2", "name:ru": "УЗ Барановичская городская больница № 2", "phone": "+375 (163) 49-20-30"}}, {"name": "", "latitude": 53.4064073, "longitude": 26.162833, "source": "osm", "_tags": {"amenity": "hospital", "building": "yes", "healthcare": "hospital"}}, {"name": "", "latitude": 53.4030263, "longitude": 26.3107463, "source": "osm", "_tags": {"amenity": "hospital"}}, {"name": "Нясвіжская раённая бальніца", "latitude": 53.2107412, "longitude": 26.6887685, "source": "osm", "_tags": {"amenity": "hospital", "emergency": "yes", "healthcare": "hospital", "name": "Нясвіжская раённая бальніца", "name:be": "Нясвіжская раённая бальніца", "name:ru": "Несвижская районная больница"}}, {"name": "", "latitude": 53.0494051, "longitude": 26.2700187, "source": "osm", "_tags": {"amenity": "hospital", "emergency": "yes", "healthcare": "hospital"}}, {"name": "Клецкая цэнтральная раённая бальніца", "latitude": 53.0702565, "longitude": 26.6316835, "source": "osm", "_tags": {"amenity": "hospital", "barrier": "fence", "contact:email": "priem@klcrb.by", "contact:phone": "8(01793) 50-8-60", "contact:website": "http://www.klcrb.by", "emergency": "yes", "healthcare": "hospital", "name": "Клецкая цэнтральная раённая бальніца", "name:be": "Клецкая цэнтральная раённая бальніца", "name:ru": "Клецкая центральная районная больница", "official_name": "УЗ «Клецкая центральная районная больница»"}}, {"name": "бальніца сястрынскага догляду", "latitude": 53.2836523, "longitude": 26.2474586, "source": "osm", "_tags": {"amenity": "hospital", "barrier": "fence", "healthcare": "hospital", "name": "бальніца сястрынскага догляду", "name:be": "бальніца сястрынскага догляду", "name:ru": "Больница сестринского ухода"}}, {"name": "Сіняўская ўчастковая бальніца", "latitude": 52.9652097, "longitude": 26.4494203, "source": "osm", "_tags": {"amenity": "hospital", "healthcare": "hospital", "name": "Сіняўская ўчастковая бальніца", "name:be": "Сіняўская ўчастковая бальніца", "name:ru": "Синявская участковая больница"}}, {"name": "", "latitude": 53.326561, "longitude": 26.0046989, "source": "osm", "_tags": {"amenity": "hospital", "healthcare": "hospital"}}, {"name": "", "latitude": 53.3043855, "longitude": 26.5114456, "source": "osm", "_tags": {"amenity": "hospital", "barrier": "fence"}}, {"name": "", "latitude": 52.8966063, "longitude": 26.7772654, "source": "osm", "_tags": {"amenity": "hospital", "healthcare": "hospital"}}, {"name": "", "latitude": 53.1302344, "longitude": 25.9968153, "source": "osm", "_tags": {"amenity": "hospital"}}, {"name": "Дзіцячая бальніца", "latitude": 53.1268901, "longitude": 26.0051733, "source": "osm", "_tags": {"amenity": "hospital", "healthcare": "hospital", "name": "Дзіцячая бальніца", "name:be": "Дзіцячая бальніца", "name:ru": "Детская больница"}}, {"name": "", "latitude": 52.5765643, "longitude": 26.8550198, "source": "osm", "_tags": {"amenity": "hospital", "healthcare": "hospital"}}, {"name": "Ваенны шпіталь", "latitude": 53.125858, "longitude": 26.0323286, "source": "osm", "_tags": {"amenity": "hospital", "healthcare": "hospital", "landuse": "military", "name": "Ваенны шпіталь", "name:be": "Ваенны шпіталь", "name:ru": "Военный госпиталь"}}, {"name": "", "latitude": 53.1137602, "longitude": 26.0283717, "source": "osm", "_tags": {"amenity": "hospital", "healthcare": "hospital"}}, {"name": "Радзільны дом", "latitude": 53.1342814, "longitude": 26.0106133, "source": "osm", "_tags": {"amenity": "hospital", "email": "info@roddom-mama.by", "healthcare": "hospital", "name": "Радзільны дом", "name:be": "Радзільны дом", "name:en": "Maternity hospital", "name:ru": "Барановичский родильный дом", "opening_hours": "24/7", "phone": "8 (0163) 424562", "website": "http://roddom-mama.by"}}, {"name": "", "latitude": 52.6261735, "longitude": 26.5149564, "source": "osm", "_tags": {"amenity": "hospital", "healthcare": "hospital"}}, {"name": "Станцыя хуткай дапамогі", "latitude": 53.1199912, "longitude": 26.0109541, "source": "osm", "_tags": {"amenity": "hospital", "healthcare": "hospital", "name": "Станцыя хуткай дапамогі", "name:be": "Станцыя хуткай дапамогі", "name:ru": "Станция скорой помощи"}}, {"name": "Баранавіцкі гарадскі супрацьсухотны дыспансер", "latitude": 53.1116539, "longitude": 25.9524667, "source": "osm", "_tags": {"amenity": "hospital", "healthcare": "hospital", "name": "Баранавіцкі гарадскі супрацьсухотны дыспансер", "name:be": "Баранавіцкі гарадскі супрацьсухотны дыспансер", "name:ru": "Барановичский городской противотуберкулезный диспансер"}}, {"name": "Анкалагічны дыспансер", "latitude": 53.1123998, "longitude": 25.9539329, "source": "osm", "_tags": {"addr:housenumber": "4", "addr:street": "Слонімская шаша", "amenity": "hospital", "healthcare": "hospital", "name": "Анкалагічны дыспансер", "name:be": "Анкалагічны дыспансер", "name:ru": "Онкологический диспансер"}}, {"name": "Нясвіжскі раддом", "latitude": 53.2154674, "longitude": 26.6931962, "source": "osm", "_tags": {"amenity": "hospital", "healthcare": "hospital", "name": "Нясвіжскі раддом", "name:be": "Нясвіжскі раддом", "name:ru": "Несвижский роддом", "operator": "УЗ «Несвижская центральная районная больница»", "operator:type": "government"}}]