[{"name": "Амбулаторыя", "latitude": 52.8930572, "longitude": 25.8554046, "source": "osm", "_tags": {"addr:housename": "ул.", "addr:housenumber": "3", "addr:postcode": "225354", "addr:street": "вуліца Алега Кашавога", "amenity": "hospital", "emergency": "yes", "name": "Амбулаторыя", "name:be": "Амбулаторыя", "name:ru": "Амбулатория"}}, {"name": "бальніца", "latitude": 52.5133025, "longitude": 25.8460674, "source": "osm", "_tags": {"amenity": "hospital", "name": "бальніца", "name:be": "бальніца", "name:ru": "Больница"}}, {"name": "Вясковая ўчастковая бальніца", "latitude": 52.9747026, "longitude": 25.0884211, "source": "osm", "_tags": {"addr:street": "вуліца Бакаўца", "amenity": "hospital", "int_name": "Sielskaja ŭčastkovaja balnica", "name": "Вясковая ўчастковая бальніца", "name:be": "Вясковая ўчастковая бальніца", "name:ru": "Сельская участковая больница", "opening_hours": "24/7"}}, {"name": "Платная Амбулаторыя", "latitude": 52.46843, "longitude": 25.1720038, "source": "osm", "_tags": {"addr:city": "Белаазёрск", "addr:housenumber": "18", "addr:street": "вуліца Будаўнікоў", "amenity": "hospital", "healthcare": "hospital", "healthcare:speciality": "Medical;Internet", "name": "Платная Амбулаторыя", "name:be": "Платная Амбулаторыя", "name:ru": "Платная амбулатория", "operator": "Частное лицо"}}, {"name": "Дзіцячая паліклініка", "latitude": 53.0790247, "longitude": 25.2703945, "source": "osm", "_tags": {"addr:housenumber": "56", "addr:street": "Брэсцкая вуліца", "amenity": "hospital", "building": "yes", "int_name": "Dziciačaja paliklinika", "name": "Дзіцячая паліклініка", "name:be": "Дзіцячая паліклініка", "name:ru": "Детская поликлиника"}}, {"name": "ФАП", "latitude": 52.6930287, "longitude": 25.3786943, "source": "osm", "_tags": {"addr:city": "Яглевічы", "addr:housenumber": "40Б", "addr:street": "Цэнтральная вуліца", "amenity": "hospital", "building": "yes", "building:levels": "1", "healthcare": "hospital", "name": "ФАП", "name:be": "ФАП", "name:ru": "ФАП"}}, {"name": "Бярозаўская ЦРБ імя Э.Э.Вяржбіцкага", "latitude": 52.5380278, "longitude": 24.99744, "source": "osm", "_tags": {"amenity": "hospital", "name": "Бярозаўская ЦРБ імя Э.Э.Вяржбіцкага", "name:be": "Бярозаўская ЦРБ імя Э.Э.Вяржбіцкага", "name:ru": "Берёзовская ЦРБ имени Э.Э.Вержбицкого", "website": "www.crbbrz.by"}}, {"name": "Белаазёрская гарадская бальніца", "latitude": 52.465831, "longitude": 25.1752922, "source": "osm", "_tags": {"addr:housenumber": "17", "addr:street": "вуліца Будаўнікоў", "amenity": "hospital", "name": "Белаазёрская гарадская бальніца", "name:be": "Белаазёрская гарадская бальніца", "name:ru": "Белоозёрская городская больница", "official_name": "Филиал «Белоозерская городская больница» УЗ «Березовская центральная районная больница имени Э.Э. Вержбицкого»", "operator": "УЗ «Березовская центральная районная больница имени Э.Э. Вержбицкого»"}}, {"name": "Участковая Жыровіцкая бальніца", "latitude": 53.0097629, "longitude": 25.3447594, "source": "osm", "_tags": {"addr:postcode": "231822", "amenity": "hospital", "barrier": "fence", "name": "Участковая Жыровіцкая бальніца", "name:be": "Участковая Жыровіцкая бальніца", "name:ru": "Участковая Жировичская больница", "operator": "УЗ \"Слонимская центральная районная больница\"", "phone": "+375 1562 96260 (Амбулатория), +375 1562 96249 (Стационар)"}}, {"name": "Малчадская бальніца", "latitude": 53.3130048, "longitude": 25.688895, "source": "osm", "_tags": {"amenity": "hospital", "name": "Малчадская бальніца", "name:be": "Малчадская бальніца", "name:ru": "Молчадская больница"}}, {"name": "Урачэбная амбулаторыя", "latitude": 53.2285278, "longitude": 25.8159875, "source": "osm", "_tags": {"amenity": "hospital", "building": "yes", "healthcare": "hospital", "name": "Урачэбная амбулаторыя", "name:be": "Урачэбная амбулаторыя", "name:ru": "Врачебная амбулатория"}}, {"name": "Івацэвіцкая цэнтральная раённая бальніца", "latitude": 52.7191064, "longitude": 25.3504331, "source": "osm", "_tags": {"amenity": "hospital", "name": "Івацэвіцкая цэнтральная раённая бальніца", "name:be": "Івацэвіцкая цэнтральная раённая бальніца", "name:ru": "Ивацевичская центральная районная больница", "website": "https://ivacemed.by/"}}, {"name": "бальніца сястрынскага догляду", "latitude": 52.9838086, "longitude": 25.5533873, "source": "osm", "_tags": {"amenity": "hospital", "healthcare": "hospital", "int_name": "Balnica siastrynskaha dohladu", "name": "бальніца сястрынскага догляду", "name:be": "бальніца сястрынскага догляду", "name:ru": "Больница сестринского ухода"}}, {"name": "Вулька-Аброўская амбулаторыя", "latitude": 52.575094, "longitude": 25.4903636, "source": "osm", "_tags": {"addr:housenumber": "23", "addr:street": "Школьная вуліца", "amenity": "hospital", "healthcare": "hospital", "name": "Вулька-Аброўская амбулаторыя", "name:be": "Вулька-Аброўская амбулаторыя", "name:ru": "Вулька-Обровская амбулатория"}}, {"name": "Косаўская ўчастковая бальніца", "latitude": 52.7573625, "longitude": 25.1512829, "source": "osm", "_tags": {"amenity": "hospital", "name": "Косаўская ўчастковая бальніца", "name:be": "Косаўская ўчастковая бальніца", "name:ru": "Коссовская участковая больница", "operator": "Ивацевичская центральная районная больница", "website": "https://ivacemed.by/"}}, {"name": "Слонімскі цэнтральны раённы шпіталь", "latitude": 53.0758188, "longitude": 25.3862957, "source": "osm", "_tags": {"amenity": "hospital", "contact:website": "http://slncrb.by/", "healthcare": "hospital", "name": "Слонімскі цэнтральны раённы шпіталь", "name:be": "Слонімскі цэнтральны раённы шпіталь", "name:ru": "Слонимская центральная районная больница", "wikidata": "Q114798744"}}, {"name": "Лячэбны корпус", "latitude": 53.0451014, "longitude": 25.8829176, "source": "osm", "_tags": {"amenity": "hospital", "building": "yes", "healthcare": "hospital", "name": "Лячэбны корпус", "name:be": "Лячэбны корпус", "name:ru": "Лечебный корпус"}}, {"name": "Казлоўшчынcкая гарадская бальніца", "latitude": 53.3294406, "longitude": 25.3110134, "source": "osm", "_tags": {"addr:housenumber": "75", "addr:street": "вуліца Леніна", "amenity": "hospital", "check_date": "2025-09-28", "healthcare": "hospital", "healthcare:speciality": "general", "name": "Казлоўшчынcкая гарадская бальніца", "name:be": "Казлоўшчынcкая гарадская бальніца", "name:ru": "Козловщинская городская больница", "operator": "Дзятлаўская ЦРБ", "operator:be": "Дзятлаўская ЦРБ", "operator:ru": "Дятловская ЦРБ", "phone": "+375 1563 69017;+375 1563 69014", "website": "https://dtcrb.by/"}}]