[{"name": "KMG Klinikum Pritzwalk", "latitude": 53.148881, "longitude": 12.1692118, "source": "osm", "_tags": {"amenity": "hospital", "contact:email": "pritzwalk@kmg-kliniken.de", "contact:phone": "+49 3395 6850", "contact:website": "https://kmg-kliniken.de/kmg-klinikum-pritzwalk/", "emergency": "yes", "healthcare": "hospital", "name": "KMG Klinikum Pritzwalk", "opening_hours": "24/7", "operator": "KMG Kliniken SE", "operator:type": "business", "toilets:wheelchair": "yes", "wheelchair": "yes"}}, {"name": "KMG Klinikum AG Kyritz", "latitude": 52.9484628, "longitude": 12.3883542, "source": "osm", "_tags": {"amenity": "hospital", "healthcare": "hospital", "name": "KMG Klinikum AG Kyritz", "wheelchair": "yes"}}, {"name": "Asklepios Fachklinikum Brandenburg", "latitude": 52.4230806, "longitude": 12.4800832, "source": "osm", "_tags": {"addr:city": "Brandenburg an der Havel", "addr:country": "DE", "addr:housenumber": "2", "addr:postcode": "14772", "addr:street": "Anton-Saefkow-Allee", "amenity": "hospital", "healthcare": "hospital", "name": "Asklepios Fachklinikum Brandenburg", "operator": "Asklepios Kliniken", "operator:type": "private", "operator:wikidata": "Q732068", "operator:wikipedia": "de:Asklepios Kliniken", "phone": "+49 3381 780", "toilets:wheelchair": "yes", "website": "https://www.asklepios.com/brandenburg/", "wheelchair": "yes", "wikidata": "Q35191086", "wikipedia": "de:Asklepios Fachklinikum Brandenburg"}}, {"name": "ukrb Universitätsklinikum Ruppin-Brandenburg", "latitude": 52.9065945, "longitude": 12.7971655, "source": "osm", "_tags": {"addr:city": "Neuruppin", "addr:country": "DE", "addr:housenumber": "38", "addr:postcode": "16816", "addr:street": "Fehrbelliner Straße", "amenity": "hospital", "emergency": "yes", "healthcare": "hospital", "name": "ukrb Universitätsklinikum Ruppin-Brandenburg", "operator": "Ruppiner Kliniken GmbH", "phone": "+49 3391 39 0", "website": "https://www.ukrb.de/", "wikidata": "Q19963957"}}, {"name": "KMG Elbtalklinik", "latitude": 52.9636219, "longitude": 11.951825, "source": "osm", "_tags": {"amenity": "hospital", "building": "yes", "emergency": "no", "healthcare": "hospital", "name": "KMG Elbtalklinik", "operator": "KMG Kliniken", "phone": "+49 38791 30", "website": "https://www.kmg-kliniken.de/", "wheelchair": "yes"}}, {"name": "Havellandklinik", "latitude": 52.5997683, "longitude": 12.8749259, "source": "osm", "_tags": {"amenity": "hospital", "healthcare": "hospital", "name": "Havellandklinik", "phone": "+49 3321 421000", "website": "https://www.havelland-kliniken.de/", "wheelchair": "yes", "wikidata": "Q15906722"}}, {"name": "AWO Fachkrankenhaus Jerichow", "latitude": 52.5010924, "longitude": 12.0387905, "source": "osm", "_tags": {"addr:city": "Jerichow", "addr:country": "DE", "addr:housenumber": "20", "addr:postcode": "39319", "addr:street": "Johannes-Lange-Straße", "addr:suburb": "Jerichow", "amenity": "hospital", "contact:email": "fachkrankenhaus@awo-sachsenanhalt.de", "contact:phone": "+49 39343 921170", "contact:website": "https://www.awo-sachsenanhalt.de/awo-fachkrankenhaus-jerichow", "healthcare": "hospital", "healthcare:speciality": "psychiatry", "name": "AWO Fachkrankenhaus Jerichow", "operator": "AWO Krankenhausbetriebsgesellschaft mbH"}}, {"name": "Klinik Rathenow", "latitude": 52.6074062, "longitude": 12.3485322, "source": "osm", "_tags": {"addr:city": "Rathenow", "addr:housenumber": "45", "addr:postcode": "14712", "addr:street": "Forststraße", "amenity": "hospital", "check_date": "2024-07-04", "emergency": "yes", "healthcare": "hospital", "name": "Klinik Rathenow", "old_name": "Paracelsuskrankenhaus", "operator": "Havelland Kliniken Unternehmensgruppe", "toilets:wheelchair": "yes", "website": "https://www.havelland-kliniken.de/Klinik-Rathenow/", "wheelchair": "yes"}}, {"name": "Klinik für Psychiatrie und Psychotherapie", "latitude": 53.3705715, "longitude": 12.6026361, "source": "osm", "_tags": {"addr:city": "Röbel/Müritz", "addr:country": "DE", "addr:housenumber": "15", "addr:postcode": "17207", "addr:street": "Stadtgarten", "amenity": "clinic", "building": "yes", "healthcare": "hospital", "healthcare:speciality": "psychiatry", "name": "Klinik für Psychiatrie und Psychotherapie", "operator": "Mediclin"}}, {"name": "Vamed Klinik Hohenstücken", "latitude": 52.4334942, "longitude": 12.5127175, "source": "osm", "_tags": {"amenity": "hospital", "fax": "+49 3381 79 1119", "healthcare": "hospital", "name": "Vamed Klinik Hohenstücken", "operator": "Vamed AG", "operator:wikidata": "Q2509662", "operator:wikipedia": "de:Vamed", "phone": "+49 3381 79 0", "toilets:wheelchair": "yes", "website": "https://www.vamed-gesundheit.de/reha/hohenstuecken/", "wheelchair": "yes"}}, {"name": "KMG Klinikum Wittstock", "latitude": 53.1708333, "longitude": 12.4849548, "source": "osm", "_tags": {"addr:city": "Wittstock/Dosse", "addr:country": "DE", "addr:housenumber": "23", "addr:postcode": "16909", "addr:street": "Meyenburger Chaussee", "amenity": "hospital", "emergency": "yes", "healthcare": "hospital", "name": "KMG Klinikum Wittstock", "operator": "KMG Kliniken SE", "operator:type": "private", "wheelchair": "yes"}}, {"name": "Haus Klein Linde", "latitude": 53.1094472, "longitude": 11.9449962, "source": "osm", "_tags": {"addr:city": "Groß Pankow (Prignitz)", "addr:country": "DE", "addr:housenumber": "14", "addr:place": "Klein Linde", "addr:postcode": "16928", "amenity": "hospital", "description": "Suchterkrankung", "healthcare": "hospital", "healthcare:speciality": "behavior", "name": "Haus Klein Linde", "operator": "Die Ordenswerke des Deutschen Ordens", "website": "https://www.suchthilfe-brandenburg.de/"}}]