[{"name": "Zakład Opieki Zdrowotnej 'Zdrowie'", "latitude": 53.258603, "longitude": 19.4021005, "source": "osm", "_tags": {"addr:city": "Brodnica", "addr:housenumber": "14", "addr:postcode": "87-300", "addr:street": "Kamionka", "amenity": "doctors", "healthcare": "hospital", "name": "Zakład Opieki Zdrowotnej 'Zdrowie'"}}, {"name": "Szpital Gorzewo-Kruk", "latitude": 52.4692407, "longitude": 19.4972537, "source": "osm", "_tags": {"addr:housenumber": "5", "addr:street": "Kruk", "amenity": "hospital", "healthcare": "hospital", "name": "Szpital Gorzewo-Kruk"}}, {"name": "Szpital Świętej Trójcy", "latitude": 52.539806, "longitude": 19.6953256, "source": "osm", "_tags": {"amenity": "hospital", "barrier": "fence", "healthcare": "hospital", "name": "Szpital Świętej Trójcy"}}, {"name": "Szpital Barska", "latitude": 52.650172, "longitude": 19.0928665, "source": "osm", "_tags": {"amenity": "hospital", "name": "Szpital Barska"}}, {"name": "Samodzielny Publiczny Zakład Opieki Zdrowotnej Rypin", "latitude": 53.0670926, "longitude": 19.4163166, "source": "osm", "_tags": {"addr:city": "Rypin", "addr:housenumber": "2", "addr:postcode": "87-500", "addr:street": "3 Maja", "alt_name": "Szpital Powiatowy w Rypinie", "amenity": "hospital", "healthcare": "hospital", "name": "Samodzielny Publiczny Zakład Opieki Zdrowotnej Rypin", "short_name": "SPZOZ Rypin", "source:addr": "EMUiA@iMPA (mrypin.e-mapa.net)", "website": "http://www.spzozrypin.pl/"}}, {"name": "Wojewódzki Szpital Zespolony im. Marcina Kacprzaka w Płocku", "latitude": 52.5573058, "longitude": 19.6551026, "source": "osm", "_tags": {"addr:city": "Płock", "addr:housenumber": "19", "addr:postcode": "09-400", "addr:street": "Medyczna", "amenity": "hospital", "emergency": "yes", "healthcare": "hospital", "name": "Wojewódzki Szpital Zespolony im. Marcina Kacprzaka w Płocku", "source:addr": "EMUiA (emuia.gugik.gov.pl)", "wikidata": "Q19788788", "wikipedia": "pl:Wojewódzki Szpital Zespolony im. Marcina Kacprzaka w Płocku"}}, {"name": "Regionalne Centrum Onkologii - Zakład Teleradioterapii", "latitude": 52.6577544, "longitude": 19.0751328, "source": "osm", "_tags": {"addr:city": "Włocławek", "addr:housenumber": "55", "addr:postcode": "87-800", "addr:street": "Łęgska", "amenity": "hospital", "barrier": "fence", "healthcare": "hospital", "name": "Regionalne Centrum Onkologii - Zakład Teleradioterapii", "website": "http://www.co.bydgoszcz.pl/?page_id=7397"}}, {"name": "Szpital im. Juliusza Babińskiego w Sierpcu", "latitude": 52.852446, "longitude": 19.6752357, "source": "osm", "_tags": {"amenity": "hospital", "healthcare": "hospital", "name": "Szpital im. Juliusza Babińskiego w Sierpcu", "official_name": "Samodzielny Publiczny Zespół Zakładów Opieki Zdrowotnej w Sierpcu", "website": "https://www.spzzozsierpc.eu/"}}, {"name": "Samodzielny Publiczny Zespół Zakładów Opieki Zdrowotnej - Szpital Powiatowy w Żurominie", "latitude": 53.0701381, "longitude": 19.9200242, "source": "osm", "_tags": {"amenity": "hospital", "barrier": "fence", "email": "sekretariat@szpital-zuromin.pl", "healthcare": "hospital", "name": "Samodzielny Publiczny Zespół Zakładów Opieki Zdrowotnej - Szpital Powiatowy w Żurominie", "phone": "23 657 22 08", "website": "https://www.szpital-zuromin.pl/"}}, {"name": "Szpital Powiatowy", "latitude": 53.2613056, "longitude": 19.3940832, "source": "osm", "_tags": {"amenity": "hospital", "emergency": "yes", "healthcare": "hospital", "name": "Szpital Powiatowy", "name:de": "Bezirkskrankenhaus", "name:en": "District Hospital", "name:fr": "Hôpital De District", "name:hi": "जिला अस्पताल", "name:id": "Rumah sakit", "name:uk": "районна лікарня"}}, {"name": "WIMED", "latitude": 52.8366246, "longitude": 19.1841636, "source": "osm", "_tags": {"amenity": "doctors", "building": "yes", "healthcare": "hospital", "name": "WIMED", "source": "www.geoportal.gov.pl"}}, {"name": "Szpital im. Jacka Tokarczyka", "latitude": 52.8422252, "longitude": 19.1583056, "source": "osm", "_tags": {"amenity": "hospital", "healthcare": "hospital", "name": "Szpital im. Jacka Tokarczyka", "wheelchair": "yes"}}, {"name": "Szpital Powiatowy", "latitude": 53.1091469, "longitude": 19.071718, "source": "osm", "_tags": {"amenity": "hospital", "email": "sekretariat@szpitalgolub.pl", "emergency": "yes", "healthcare": "emergency_ward", "image": "http://www.szpitalgolub.pl/images/ST830192.JPG", "name": "Szpital Powiatowy", "phone": "+48 56 683 22 91"}}, {"name": "Szpital Wojewódzki we Włocławku", "latitude": 52.6589421, "longitude": 19.0300694, "source": "osm", "_tags": {"amenity": "hospital", "emergency": "yes", "healthcare": "hospital", "name": "Szpital Wojewódzki we Włocławku"}}, {"name": "", "latitude": 52.5854997, "longitude": 19.6497026, "source": "osm", "_tags": {"amenity": "hospital", "healthcare": "hospital"}}, {"name": "", "latitude": 52.658587, "longitude": 19.0580375, "source": "osm", "_tags": {"amenity": "hospital", "emergency": "yes", "healthcare": "hospital"}}, {"name": "Powiatowe Centrum Zdrowia", "latitude": 52.6626409, "longitude": 19.059119, "source": "osm", "_tags": {"amenity": "hospital", "name": "Powiatowe Centrum Zdrowia"}}]