[{"name": "Oddział Ginekologiczno -Położniczy", "latitude": 53.1241821, "longitude": 23.1632646, "source": "osm", "_tags": {"addr:city": "Białystok", "addr:housenumber": "26B", "addr:street": "Marii Skłodowskiej-Curie", "amenity": "clinic", "healthcare": "hospital", "name": "Oddział Ginekologiczno -Położniczy"}}, {"name": "Samodzielny Szpital Miejski im. PCK", "latitude": 53.1405803, "longitude": 23.1712357, "source": "osm", "_tags": {"addr:city": "Białystok", "addr:country": "PL", "addr:housenumber": "79", "addr:street": "Henryka Sienkiewicza", "alt_name": "Samodzielny Szpital Miejski im. Polskiego Czerwonego Krzyża", "amenity": "hospital", "building": "hospital", "emergency": "yes", "healthcare": "hospital", "name": "Samodzielny Szpital Miejski im. PCK", "website": "http://www.szpitalpck.pl/"}}, {"name": "Uniwersytecki Szpital Kliniczny - Oddział", "latitude": 53.1084948, "longitude": 23.1900188, "source": "osm", "_tags": {"addr:city": "Białystok", "addr:housenumber": "14", "addr:postcode": "15-540", "addr:street": "Żurawia", "amenity": "hospital", "contact:phone": "+48 85 74 09 500", "healthcare": "hospital", "loc_name": "Szpital Zakaźny", "name": "Uniwersytecki Szpital Kliniczny - Oddział", "old_name": "Wojewódzki Szpital Specjalistyczny im. Kazimierza Dłuskiego", "operator": "Uniwersytet Medyczny w Białymstoku"}}, {"name": "Samodzielny Publiczny Psychiatryczny Zakład Opieki Zdrowotnej im. dr. Stanisława Deresza", "latitude": 53.1499673, "longitude": 22.9812426, "source": "osm", "_tags": {"addr:city": "Choroszcz", "addr:housenumber": "1", "addr:postcode": "16-070", "addr:street": "Plac Imienia Doktora Zygmunta Brodowicza", "alt_name": "Szpital Psychiatryczny", "amenity": "hospital", "barrier": "fence", "healthcare": "hospital", "name": "Samodzielny Publiczny Psychiatryczny Zakład Opieki Zdrowotnej im. dr. Stanisława Deresza", "official_name": "Samodzielny Publiczny Psychiatryczny Zakład Opieki Zdrowotnej im. dr. Stanisława Deresza w Choroszczy", "short_name": "SPP ZOZ im. dr. St. Deresza"}}, {"name": "Wojewódzki Szpital Zespolony im. Jędrzeja Śniadeckiego", "latitude": 53.1243482, "longitude": 23.1622353, "source": "osm", "_tags": {"addr:city": "Białystok", "addr:housenumber": "26C", "addr:street": "Marii Skłodowskiej-Curie", "amenity": "hospital", "healthcare": "hospital", "name": "Wojewódzki Szpital Zespolony im. Jędrzeja Śniadeckiego", "official_name": "Samodzielny Publiczny Zakład Opieki Zdrowotnej Wojewódzki Szpital Zespolony im. Jędrzeja Śniadeckiego"}}, {"name": "Туберкулёзная бальніца «Вярховічы» (не працуе з 16.12.2020)", "latitude": 52.4806923, "longitude": 23.5146623, "source": "osm", "_tags": {"amenity": "hospital", "building": "yes", "healthcare": "hospital", "healthcare:speciality": "antituberculosis", "name": "Туберкулёзная бальніца «Вярховічы» (не працуе з 16.12.2020)", "name:be": "Туберкулёзная бальніца «Вярховічы» (не працуе з 16.12.2020)"}}, {"name": "Samodzielny Publiczny Zakład Opieki Zdrowotnej w Bielsku Podlaskim", "latitude": 52.7592506, "longitude": 23.2035718, "source": "osm", "_tags": {"addr:city": "Bielsk Podlaski", "addr:housenumber": "1", "addr:postcode": "17-100", "addr:street": "Kleszczelowska", "amenity": "hospital", "emergency": "yes", "healthcare": "hospital", "name": "Samodzielny Publiczny Zakład Opieki Zdrowotnej w Bielsku Podlaskim"}}, {"name": "Białostockie Centrum Onkologii im. Marii Skłodowskiej - Curie", "latitude": 53.13472, "longitude": 23.169399, "source": "osm", "_tags": {"addr:city": "Białystok", "addr:housenumber": "12", "addr:street": "Ogrodowa", "amenity": "hospital", "healthcare": "hospital", "name": "Białostockie Centrum Onkologii im. Marii Skłodowskiej - Curie", "name:etymology:wikidata": "Q7186", "website": "https://www.onkologia.bialystok.pl/"}}, {"name": "Samodzielny Publiczny Zakład Opieki Zdrowotnej w Hajnówce", "latitude": 52.74597, "longitude": 23.6116769, "source": "osm", "_tags": {"amenity": "hospital", "name": "Samodzielny Publiczny Zakład Opieki Zdrowotnej w Hajnówce", "short_name": "Szpital w Hajnówce"}}, {"name": "Samodzielny Publiczny Zakład Opieki Zdrowotnej w Sokółce", "latitude": 53.4078998, "longitude": 23.4842904, "source": "osm", "_tags": {"amenity": "hospital", "email": "sekretariat@szpitalsokolka.pl", "emergency": "yes", "healthcare": "hospital", "name": "Samodzielny Publiczny Zakład Opieki Zdrowotnej w Sokółce", "phone": "857220 463", "website": "https://www.szpitalsokolka.pl/kontakt.php"}}, {"name": "Uniwersytecki Dziecięcy Szpital Kliniczny im. Ludwika Zamenhofa", "latitude": 53.1236033, "longitude": 23.1561873, "source": "osm", "_tags": {"addr:city": "Białystok", "addr:housenumber": "17", "addr:postcode": "15-274", "addr:street": "Jerzego Waszyngtona", "amenity": "hospital", "building": "hospital", "email": "sekretariat@udsk.pl", "healthcare": "hospital", "name": "Uniwersytecki Dziecięcy Szpital Kliniczny im. Ludwika Zamenhofa", "phone": "+48 85 745 05 41", "short_name": "UDSK", "type": "multipolygon", "website": "https://udsk.pl/", "wikidata": "Q63253342"}}, {"name": "Uniwersytecki Szpital Kliniczny", "latitude": 53.1243298, "longitude": 23.1590221, "source": "osm", "_tags": {"addr:city": "Białystok", "addr:housenumber": "24A", "addr:postcode": "15-276", "addr:street": "Marii Skłodowskiej-Curie", "amenity": "hospital", "building": "hospital", "email": "szpital@uskwb.pl", "emergency": "yes", "fax": "+48 85 831 88 80", "healthcare": "hospital", "name": "Uniwersytecki Szpital Kliniczny", "phone": "+48 85 831 80 00", "short_name": "USK", "type": "multipolygon", "website": "https://uskwb.pl/"}}, {"name": "Wojewódzki Szpital Zespolony im. Jędrzeja Śniadeckiego", "latitude": 53.1255579, "longitude": 23.1639091, "source": "osm", "_tags": {"addr:city": "Białystok", "addr:country": "PL", "addr:housenumber": "25", "addr:postcode": "15-278", "addr:street": "Marii Skłodowskiej-Curie", "amenity": "hospital", "building": "hospital", "building:levels": "3", "building:levels:underground": "1", "emergency": "yes", "healthcare": "hospital", "name": "Wojewódzki Szpital Zespolony im. Jędrzeja Śniadeckiego", "official_name": "Samodzielny Publiczny Zakład Opieki Zdrowotnej Wojewódzki Szpital Zespolony im. Jędrzeja Śniadeckiego", "operator": "Urząd Marszałkowski Województwa Podlaskiego", "roof:colour": "dimgray", "roof:material": "tar_paper", "roof:shape": "flat", "type": "multipolygon"}}, {"name": "SP ZOZ MSWiA im. Mariana Zyndrama-Kościałkowskiego", "latitude": 53.1393601, "longitude": 23.1659083, "source": "osm", "_tags": {"addr:city": "Białystok", "addr:housenumber": "27", "addr:street": "Fabryczna", "amenity": "hospital", "building": "hospital", "emergency": "yes", "healthcare": "hospital", "name": "SP ZOZ MSWiA im. Mariana Zyndrama-Kościałkowskiego", "official_name": "Samodzielny Publiczny Zakład Opieki Zdrowotnej Ministerstwa Spraw Wewnętrznych i Administracji im. Mariana Zyndrama-Kościałkowskiego", "short_name": "Szpital MSWiA", "type": "multipolygon", "website": "https://www.zozmswia.bialystok.pl/"}}]