[{"name": "Castlecomer District Hospital", "latitude": 52.7994462, "longitude": -7.2140078, "source": "osm", "_tags": {"amenity": "hospital", "healthcare": "hospital", "name": "Castlecomer District Hospital"}}, {"name": "Abbeyleix District Hospital", "latitude": 52.9115426, "longitude": -7.3426991, "source": "osm", "_tags": {"addr:city": "Abbeyleix", "addr:street": "Ballinakill Road", "amenity": "hospital", "healthcare": "hospital", "name": "Abbeyleix District Hospital", "wheelchair": "limited"}}, {"name": "Midland Regional Hospital Tullamore", "latitude": 53.2829962, "longitude": -7.4888105, "source": "osm", "_tags": {"HSE_code": "501", "HSE_hgid": "3", "HSE_hgroup": "Dublin Midlands Hospital Group", "HSE_region": "Midlands", "addr:city": "Tullamore", "addr:street": "Ardan Road", "alt_name": "Midland Regional Hospital at Tullamore", "amenity": "hospital", "healthcare": "hospital", "name": "Midland Regional Hospital Tullamore", "operator": "Health Service Executive", "operator:short": "HSE", "operator:type": "government", "operator:wikidata": "Q5690681", "operator:wikipedia": "en:Health Service Executive", "wheelchair": "yes", "wikidata": "Q6842444", "wikipedia": "en:Midland Regional Hospital, Tullamore"}}, {"name": "St. Luke's General Hospital", "latitude": 52.6664688, "longitude": -7.2628474, "source": "osm", "_tags": {"HSE_code": "101", "HSE_hgid": "2", "HSE_hgroup": "Ireland East Hospital Group", "HSE_region": "Dublin East", "addr:city": "Kilkenny", "addr:street": "Freshford Road", "amenity": "hospital", "emergency": "yes", "healthcare": "hospital", "name": "St. Luke's General Hospital", "name:ga": "Ospidéal Naomh Lúcás", "operator": "Health Service Executive", "operator:short": "HSE", "operator:wikidata": "Q5690681", "operator:wikipedia": "en:Health Service Executive", "wikidata": "Q7589794", "wikipedia": "en:St. Luke's General Hospital"}}, {"name": "Saint Canice's Psychiatric Hospital", "latitude": 52.6485475, "longitude": -7.2320548, "source": "osm", "_tags": {"amenity": "hospital", "emergency": "no", "healthcare": "hospital", "name": "Saint Canice's Psychiatric Hospital", "source": "Bing"}}, {"name": "Kilcreene Hospital", "latitude": 52.6524251, "longitude": -7.2748897, "source": "osm", "_tags": {"HSE_code": "104", "HSE_hgid": "5", "HSE_hgroup": "South/South West Hospital Group", "HSE_region": "South West", "addr:city": "Kilkenny", "addr:street": "Ballycallan Road", "alt_name": "Lourdes Orthopaedic Hospital Kilcreene", "amenity": "hospital", "emergency": "no", "healthcare": "hospital", "name": "Kilcreene Hospital", "name:ga": "Ospidéal Cille Críne", "operator": "Health Service Executive", "operator:short": "HSE", "operator:type": "government", "operator:wikidata": "Q5690681", "operator:wikipedia": "en:Health Service Executive", "source": "Bing", "wikidata": "Q6689775"}}, {"name": "Aut Even Hospital", "latitude": 52.6765697, "longitude": -7.2702811, "source": "osm", "_tags": {"addr:city": "Kilkenny", "addr:street": "Freshford Road", "amenity": "hospital", "emergency": "no", "healthcare": "hospital", "name": "Aut Even Hospital", "phone": "+353 56 777 5275", "website": "https://autevenhospital.ie", "wikidata": "Q4825819"}}, {"name": "Birr Community Hospital and Nursing Home", "latitude": 53.0981363, "longitude": -7.8997095, "source": "osm", "_tags": {"amenity": "hospital", "check_date": "2025-08-19", "healthcare": "hospital", "name": "Birr Community Hospital and Nursing Home"}}, {"name": "Midland Regional Hospital Portlaoise", "latitude": 53.0375537, "longitude": -7.2753556, "source": "osm", "_tags": {"HSE_code": "506", "HSE_hgid": "3", "HSE_hgroup": "Dublin Midlands Hospital Group", "amenity": "hospital", "healthcare": "hospital", "name": "Midland Regional Hospital Portlaoise", "operator": "Health Service Executive", "operator:short": "HSE", "operator:wikidata": "Q5690681", "operator:wikipedia": "en:Health Service Executive", "toilets:wheelchair": "yes", "wheelchair": "yes", "wikidata": "Q6842435"}}, {"name": "Saint Fintan's Hospital", "latitude": 53.0357179, "longitude": -7.2845232, "source": "osm", "_tags": {"amenity": "hospital", "healthcare": "hospital", "name": "Saint Fintan's Hospital", "wikidata": "Q65042258"}}, {"name": "", "latitude": 52.5140669, "longitude": -7.8884754, "source": "osm", "_tags": {"amenity": "hospital", "healthcare": "hospital", "operator": "Health Service Executive", "operator:short": "HSE", "operator:wikidata": "Q5690681", "operator:wikipedia": "en:Health Service Executive"}}, {"name": "St. Columba's Hospital", "latitude": 52.5303401, "longitude": -7.1315368, "source": "osm", "_tags": {"amenity": "hospital", "healthcare": "hospital", "name": "St. Columba's Hospital"}}, {"name": "Saint Brigid's Hospital, Shaen", "latitude": 53.0779874, "longitude": -7.249881, "source": "osm", "_tags": {"amenity": "hospital", "healthcare": "hospital", "name": "Saint Brigid's Hospital, Shaen", "type": "multipolygon"}}]