[{"name": "Haywood Hospital Walk-in Centre", "latitude": 53.0562194, "longitude": -2.1902949, "source": "osm", "_tags": {"addr:city": "Stoke-on-Trent", "addr:country": "GB", "addr:postcode": "ST6 7AG", "addr:street": "High Lane", "amenity": "hospital", "emergency": "no", "image": "http://www.flickr.com/photos/russ_osm/404614807/", "name": "Haywood Hospital Walk-in Centre", "opening_hours": "Mo-Fr 07:00-22:00; Sa 09:00-22:00; Su 09:00-22:00", "operator": "NHS", "phone": "+44 1782 581112", "wheelchair": "yes"}}, {"name": "Clatterbridge Cancer Centre - Wirral", "latitude": 53.3313824, "longitude": -3.0285966, "source": "osm", "_tags": {"amenity": "hospital", "emergency": "no", "healthcare": "hospital", "name": "Clatterbridge Cancer Centre - Wirral", "operator": "The Clatterbridge Cancer Centre NHS Foundation Trust", "wikidata": "Q87765752"}}, {"name": "Rathbone Hospital", "latitude": 53.4075426, "longitude": -2.9147444, "source": "osm", "_tags": {"amenity": "hospital", "healthcare": "hospital", "name": "Rathbone Hospital"}}, {"name": "Rosemount Resource Centre", "latitude": 53.2602775, "longitude": -2.1461285, "source": "osm", "_tags": {"amenity": "hospital", "healthcare": "hospital", "name": "Rosemount Resource Centre"}}, {"name": "Tarporley War Memorial Hospital", "latitude": 53.1592258, "longitude": -2.6668272, "source": "osm", "_tags": {"addr:city": "Tarporley", "addr:housenumber": "14", "addr:postcode": "CW6 0AP", "addr:street": "Park Road", "amenity": "hospital", "healthcare": "hospital", "name": "Tarporley War Memorial Hospital", "source:addr": "FHRS Open Data"}}, {"name": "John Munroe Hospital", "latitude": 53.1250868, "longitude": -2.0825499, "source": "osm", "_tags": {"addr:postcode": "ST13 8RU", "amenity": "hospital", "beds": "57", "emergency": "no", "fhrs:id": "1259870", "name": "John Munroe Hospital", "phone": "+44 1538 394270", "website": "https://www.johnmunroehospital.co.uk/"}}, {"name": "Greenbank Drive Surgery", "latitude": 53.3895713, "longitude": -2.9301013, "source": "osm", "_tags": {"amenity": "hospital", "emergency": "no", "healthcare": "hospital", "name": "Greenbank Drive Surgery", "source": "local_knowledge"}}, {"name": "Bilston Street Surgery", "latitude": 52.5425111, "longitude": -2.1206239, "source": "osm", "_tags": {"amenity": "hospital", "healthcare": "hospital", "name": "Bilston Street Surgery"}}, {"name": "Parkfield Medical Centre", "latitude": 53.3630662, "longitude": -2.9999496, "source": "osm", "_tags": {"addr:city": "Birkenhead", "addr:postcode": "CH62 5HS", "addr:street": "Sefton Road", "amenity": "hospital", "designation": "General Practice", "emergency": "no", "healthcare": "hospital", "name": "Parkfield Medical Centre"}}, {"name": "Cavendish Medical Centre", "latitude": 53.3983264, "longitude": -3.0475252, "source": "osm", "_tags": {"amenity": "hospital", "healthcare": "hospital", "name": "Cavendish Medical Centre"}}, {"name": "The Mulberry Centre", "latitude": 53.1948668, "longitude": -2.9246944, "source": "osm", "_tags": {"amenity": "hospital", "healthcare": "hospital", "name": "The Mulberry Centre"}}, {"name": "Altrincham Hospital", "latitude": 53.38496, "longitude": -2.3514937, "source": "osm", "_tags": {"addr:city": "Altrincham", "addr:postcode": "WA14 2RQ", "addr:street": "Railway Street", "amenity": "hospital", "emergency": "no", "healthcare": "hospital", "name": "Altrincham Hospital", "operator": "Manchester University NHS Foundation Trust", "phone": "+44 161 413 7700", "website": "https://mft.nhs.uk/altrincham/", "wikidata": "Q85741065"}}, {"name": "Elm Ward", "latitude": 53.4103713, "longitude": -2.899714, "source": "osm", "_tags": {"addr:city": "Liverpool", "addr:housename": "Liverpool Heart & Chest Hospital", "addr:postcode": "L14 3PE", "addr:street": "Thomas Drive", "amenity": "hospital", "emergency": "no", "healthcare": "hospital", "healthcare:speciality": "cardiology;surgery", "level": "1", "name": "Elm Ward", "operator": "Liverpool Heart & Chest Hospital"}}, {"name": "Birch Ward", "latitude": 53.4103483, "longitude": -2.8997989, "source": "osm", "_tags": {"addr:city": "Liverpool", "addr:postcode": "L14 3PE", "addr:street": "Thomas Drive", "amenity": "hospital", "emergency": "no", "healthcare": "hospital", "healthcare:speciality": "cardiology", "level": "1", "name": "Birch Ward", "operator": "Liverpool Heart & Chest Hospital"}}, {"name": "Maple Suite", "latitude": 53.410139, "longitude": -2.9006751, "source": "osm", "_tags": {"amenity": "hospital", "healthcare": "hospital", "name": "Maple Suite"}}, {"name": "Critical Care Unit, POCCU, and Coronary Care Unit", "latitude": 53.4114281, "longitude": -2.9005657, "source": "osm", "_tags": {"amenity": "hospital", "healthcare": "hospital", "level": "1", "name": "Critical Care Unit, POCCU, and Coronary Care Unit"}}, {"name": "Oak Ward", "latitude": 53.4115538, "longitude": -2.8997603, "source": "osm", "_tags": {"amenity": "hospital", "healthcare": "hospital", "level": "1", "name": "Oak Ward"}}, {"name": "Main Entrance (LHCH)", "latitude": 53.4102287, "longitude": -2.8996639, "source": "osm", "_tags": {"addr:city": "Liverpool", "addr:housename": "Liverpool Heart & Chest Hospital", "addr:postcode": "L14 3PE", "addr:street": "Thomas Drive", "amenity": "hospital", "healthcare": "hospital", "level": "0", "name": "Main Entrance (LHCH)", "operator": "Liverpool Heart & Chest Hospital"}}, {"name": "Outpatients & Radiology (LHCH)", "latitude": 53.4116583, "longitude": -2.8998603, "source": "osm", "_tags": {"amenity": "hospital", "healthcare": "hospital", "level": "0", "name": "Outpatients & Radiology (LHCH)"}}, {"name": "Main Entrance (Broadgreen)", "latitude": 53.4121284, "longitude": -2.8986185, "source": "osm", "_tags": {"amenity": "hospital", "healthcare": "hospital", "name": "Main Entrance (Broadgreen)"}}, {"name": "Pharmacy (LHCH)", "latitude": 53.4116296, "longitude": -2.8994821, "source": "osm", "_tags": {"amenity": "hospital", "healthcare": "hospital", "name": "Pharmacy (LHCH)"}}, {"name": "Executive Offices (LHCH)", "latitude": 53.4110845, "longitude": -2.8990009, "source": "osm", "_tags": {"amenity": "hospital", "healthcare": "hospital", "name": "Executive Offices (LHCH)"}}, {"name": "Conference Room (LHCH)", "latitude": 53.4111371, "longitude": -2.8986774, "source": "osm", "_tags": {"amenity": "hospital", "healthcare": "hospital", "name": "Conference Room (LHCH)"}}, {"name": "Research Dept (LHCH)", "latitude": 53.4111023, "longitude": -2.8985234, "source": "osm", "_tags": {"amenity": "hospital", "healthcare": "hospital", "name": "Research Dept (LHCH)"}}, {"name": "Marie Curie Hospice", "latitude": 53.3737218, "longitude": -2.8643534, "source": "osm", "_tags": {"addr:city": "Liverpool", "addr:postcode": "L25 8QA", "addr:street": "Speke Road", "amenity": "hospital", "healthcare": "hospital", "name": "Marie Curie Hospice", "name:en": "Marie Curie Hospice, Liverpool", "phone": "+441518011400", "website": "https://www.mariecurie.org.uk/help/hospice-care/hospices/liverpool"}}, {"name": "Oswestry Minor Injuries Unit", "latitude": 52.8625738, "longitude": -3.0478138, "source": "osm", "_tags": {"amenity": "hospital", "healthcare": "hospital", "name": "Oswestry Minor Injuries Unit"}}, {"name": "Altrincham Health and Wellbeing Centre", "latitude": 53.3867896, "longitude": -2.3528684, "source": "osm", "_tags": {"amenity": "hospital", "check_date": "2024-01-05", "healthcare": "hospital", "name": "Altrincham Health and Wellbeing Centre", "operator": "NHS", "operator:type": "public", "operator:wikidata": "Q918396"}}, {"name": "Evolution Scanning Suite", "latitude": 52.707542, "longitude": -2.794102, "source": "osm", "_tags": {"amenity": "hospital", "healthcare": "hospital", "name": "Evolution Scanning Suite"}}, {"name": "Estates Main Stores", "latitude": 52.7098267, "longitude": -2.7951473, "source": "osm", "_tags": {"amenity": "hospital", "healthcare": "hospital", "name": "Estates Main Stores", "opening_hours": "Mo-Fr 08:00-16:00"}}, {"name": "Pathology Stores", "latitude": 52.7080307, "longitude": -2.7939963, "source": "osm", "_tags": {"amenity": "hospital", "healthcare": "hospital", "name": "Pathology Stores"}}, {"name": "Pharmacy Stores", "latitude": 52.7086579, "longitude": -2.7942806, "source": "osm", "_tags": {"amenity": "hospital", "healthcare": "hospital", "name": "Pharmacy Stores"}}, {"name": "Paediatric (Childrens) Ophthalmology Clinic", "latitude": 52.7130401, "longitude": -2.5141076, "source": "osm", "_tags": {"amenity": "hospital", "healthcare": "hospital", "name": "Paediatric (Childrens) Ophthalmology Clinic"}}, {"name": "Shrewsbury & Telford Hospital NHS Trust Sterile Services Department (SSD)", "latitude": 52.7176156, "longitude": -2.4836761, "source": "osm", "_tags": {"amenity": "hospital", "healthcare": "hospital", "name": "Shrewsbury & Telford Hospital NHS Trust Sterile Services Department (SSD)"}}, {"name": "South Liverpool NHS Treatment Centre", "latitude": 53.3547842, "longitude": -2.8956184, "source": "osm", "_tags": {"amenity": "hospital", "healthcare": "hospital", "name": "South Liverpool NHS Treatment Centre"}}, {"name": "Victoria Infimary", "latitude": 53.2616804, "longitude": -2.5192293, "source": "osm", "_tags": {"amenity": "hospital", "healthcare": "hospital", "name": "Victoria Infimary"}}, {"name": "Royal Stoke University Hospital", "latitude": 53.0031261, "longitude": -2.2135279, "source": "osm", "_tags": {"addr:postcode": "ST4 6QG", "addr:street": "Newcastle Road", "alt_name": "City General Hospital", "amenity": "hospital", "emergency": "yes", "healthcare": "hospital", "name": "Royal Stoke University Hospital", "old_name": "Public Assistance Institution; Stoke upon Trent Poor Law Institution; London Road Institution", "opening_hours": "24/7", "operator": "NHS", "operator:wikidata": "Q918396", "phone": "+44 1782 715444", "start_date": "1832", "website": "https://www.nhs.uk/ServiceDirectories/pages/Hospital.aspx?id=RJEHQ&v=0", "wheelchair": "yes", "wikidata": "Q7894771", "wikipedia": "en:Royal Stoke University Hospital"}}, {"name": "Royal Shrewsbury Hospital", "latitude": 52.7089859, "longitude": -2.7937428, "source": "osm", "_tags": {"addr:city": "Shrewsbury", "addr:country": "GB", "addr:postcode": "SY3 8XQ", "addr:street": "Mytton Oak Road", "amenity": "hospital", "emergency": "yes", "fhrs:authority": "Shropshire", "fhrs:id": "698811", "fhrs:local_authority_id": "14/00044/COMM", "healthcare": "hospital", "name": "Royal Shrewsbury Hospital", "operator": "NHS", "operator:type": "state_primary_health_care", "operator:wikidata": "Q918396", "source:postcode": "FHRS Open Data", "wikidata": "Q7374823"}}, {"name": "Warrington Hospital", "latitude": 53.393748, "longitude": -2.6088069, "source": "osm", "_tags": {"addr:city": "Warrington", "addr:country": "GB", "addr:postcode": "WA5 1QG", "addr:street": "Lovely Lane", "amenity": "hospital", "emergency": "yes", "fhrs:id": "420078", "healthcare": "hospital", "name": "Warrington Hospital", "note": "boundary guessed from Yahoo imagery", "wikidata": "Q30281088", "wikipedia": "en:Warrington Hospital"}}, {"name": "Stepping Hill Hospital", "latitude": 53.3845108, "longitude": -2.1332092, "source": "osm", "_tags": {"addr:postcode": "SK2 7LE", "addr:street": "Poplar Grove", "amenity": "hospital", "healthcare": "hospital", "name": "Stepping Hill Hospital", "phone": "+44 161 483 1010", "website": "https://www.stockport.nhs.uk/", "wheelchair": "yes", "wikidata": "Q7611111", "wikipedia": "en:Stepping Hill Hospital"}}, {"name": "Whiston Hospital", "latitude": 53.4204174, "longitude": -2.7846765, "source": "osm", "_tags": {"amenity": "hospital", "healthcare": "hospital", "name": "Whiston Hospital", "wikidata": "Q30281154"}}, {"name": "Princess Royal Hospital", "latitude": 52.712424, "longitude": -2.5128576, "source": "osm", "_tags": {"addr:city": "Telford", "addr:postcode": "TF1 6TF", "amenity": "hospital", "emergency": "yes", "healthcare": "hospital", "loc_name": "Telford Hospital", "name": "Princess Royal Hospital", "source": "estimate", "wheelchair": "yes", "wikidata": "Q7244804", "wikipedia": "en:Princess Royal Hospital, Telford"}}, {"name": "St Catherines", "latitude": 53.3798908, "longitude": -3.0262731, "source": "osm", "_tags": {"amenity": "hospital", "healthcare": "hospital", "name": "St Catherines", "wikidata": "Q65064867"}}, {"name": "St George's Hospital", "latitude": 52.8103578, "longitude": -2.109532, "source": "osm", "_tags": {"amenity": "hospital", "healthcare": "hospital", "name": "St George's Hospital", "source": "NPE/Local knowledge"}}, {"name": "Grosvenor Nuffield Hospital", "latitude": 53.1764255, "longitude": -2.8952905, "source": "osm", "_tags": {"addr:city": "Chester", "addr:postcode": "CH4 7QP", "addr:street": "Wrexham Road", "amenity": "hospital", "building": "yes", "fhrs:id": "290581", "healthcare": "hospital", "height": "10.70", "height:median": "7.34", "name": "Grosvenor Nuffield Hospital", "note": "Private Hospital", "ref:GB:uprn": "200000825113;10012220051;100012571524"}}, {"name": "West Park Hospital", "latitude": 52.5873005, "longitude": -2.1417718, "source": "osm", "_tags": {"amenity": "hospital", "healthcare": "hospital", "name": "West Park Hospital", "wheelchair": "yes"}}, {"name": "West Midlands Hospital Ramsay Health care", "latitude": 52.4577269, "longitude": -2.0767257, "source": "osm", "_tags": {"addr:postcode": "B63 2AH", "addr:street": "Colman Hill", "amenity": "hospital", "fhrs:id": "500311", "healthcare": "hospital", "name": "West Midlands Hospital Ramsay Health care", "source": "survey", "source:addr": "FHRS Open Data"}}, {"name": "Bushey Fields Hospital", "latitude": 52.5031168, "longitude": -2.1160751, "source": "osm", "_tags": {"addr:postcode": "DY1 2LZ", "addr:street": "Bushey Fields Road", "amenity": "hospital", "emergency": "no", "fhrs:id": "1267052", "healthcare": "hospital", "name": "Bushey Fields Hospital", "source": "bing", "source:addr": "FHRS Open Data", "wikidata": "Q5001492", "wikipedia": "en:Bushey Fields Hospital"}}, {"name": "Russells Hall Hospital", "latitude": 52.5026768, "longitude": -2.1184766, "source": "osm", "_tags": {"amenity": "hospital", "emergency": "yes", "healthcare": "hospital", "name": "Russells Hall Hospital", "source": "bing", "wikidata": "Q7381902", "wikipedia": "en:Russells Hall Hospital"}}, {"name": "County Hospital", "latitude": 52.8108388, "longitude": -2.0964903, "source": "osm", "_tags": {"alt_name": "Stafford Hospital", "amenity": "hospital", "healthcare": "hospital", "name": "County Hospital", "note": "Approximate area", "source": "Bing;survey", "wheelchair": "yes", "wikidata": "Q7596631", "wikipedia": "en:County Hospital, Stafford"}}, {"name": "Wythenshawe Hospital", "latitude": 53.3885368, "longitude": -2.2923675, "source": "osm", "_tags": {"amenity": "hospital", "emergency": "yes", "healthcare": "hospital", "name": "Wythenshawe Hospital", "wikidata": "Q29131372"}}, {"name": "North Staffordshire Nuffield Hospital", "latitude": 52.9876924, "longitude": -2.2232194, "source": "osm", "_tags": {"addr:postcode": "ST5 4DB", "addr:street": "Clayton Road", "alt_name": "Clayton Hospital", "amenity": "hospital", "fhrs:id": "75842", "healthcare": "hospital", "name": "North Staffordshire Nuffield Hospital", "source:addr": "FHRS Open Data"}}, {"name": "Claire House Hospice", "latitude": 53.3309762, "longitude": -3.0243387, "source": "osm", "_tags": {"amenity": "hospital", "healthcare": "hospital", "name": "Claire House Hospice"}}, {"name": "Clatterbridge Hospital", "latitude": 53.3325771, "longitude": -3.0252248, "source": "osm", "_tags": {"amenity": "hospital", "healthcare": "hospital", "name": "Clatterbridge Hospital", "wikidata": "Q14956827", "wikipedia": "en:Clatterbridge Hospital"}}, {"name": "Saint John's Hospice", "latitude": 53.3350013, "longitude": -3.0216844, "source": "osm", "_tags": {"amenity": "hospital", "building": "hospital", "name": "Saint John's Hospice", "ref:GB:uprn": "42177379", "source": "bing"}}, {"name": "Liverpool Women's Hospital", "latitude": 53.398408, "longitude": -2.9591793, "source": "osm", "_tags": {"addr:street": "Crown Street", "amenity": "hospital", "healthcare": "hospital", "name": "Liverpool Women's Hospital", "wheelchair": "yes", "wikidata": "Q50517756", "wikipedia": "en:Liverpool Women's Hospital"}}, {"name": "St Ann's Hospice", "latitude": 53.3757945, "longitude": -2.2266585, "source": "osm", "_tags": {"amenity": "hospital", "emergency": "no", "healthcare": "hospital", "name": "St Ann's Hospice", "source": "Bing"}}, {"name": "Cheadle Royal Hospital", "latitude": 53.3751114, "longitude": -2.2205441, "source": "osm", "_tags": {"alt_name": "Priory Cheadle Royal", "amenity": "hospital", "emergency": "no", "healthcare": "hospital", "name": "Cheadle Royal Hospital", "source": "Bing", "website": "https://www.priorygroup.com/nhs/locations/priory-hospital-cheadle-royal-nhs-services", "wikidata": "Q5088806", "wikipedia": "en:Cheadle Royal Hospital"}}, {"name": "Robert Jones and Agnes Hunt Orthopaedic Hospital", "latitude": 52.8849491, "longitude": -3.03394, "source": "osm", "_tags": {"addr:city": "Oswestry", "addr:country": "GB", "addr:postcode": "SY10 7AG", "addr:street": "Gobowen", "amenity": "hospital", "fhrs:authority": "Shropshire", "fhrs:id": "704781", "fhrs:local_authority_id": "14/00327/COMM", "healthcare": "hospital", "name": "Robert Jones and Agnes Hunt Orthopaedic Hospital", "old_name": "Shropshire Orthopaedic Hospital", "toilets:wheelchair": "yes", "website": "https://www.rjah.nhs.uk/", "wheelchair": "yes", "wikidata": "Q7346181", "wikipedia": "en:Robert Jones and Agnes Hunt Orthopaedic Hospital"}}, {"name": "Penn Hospital", "latitude": 52.5586621, "longitude": -2.1592644, "source": "osm", "_tags": {"amenity": "hospital", "emergency": "no", "healthcare": "hospital", "name": "Penn Hospital"}}, {"name": "Ivydene", "latitude": 52.5925033, "longitude": -2.0685816, "source": "osm", "_tags": {"addr:postcode": "WV13 3AG", "addr:street": "Noose Lane", "amenity": "hospital", "building": "yes", "emergency": "no", "healthcare": "hospital", "name": "Ivydene", "source": "survey"}}, {"name": "Devonshire Neurorehabilitation Centre", "latitude": 53.3920988, "longitude": -2.1318472, "source": "osm", "_tags": {"amenity": "hospital", "emergency": "no", "healthcare": "hospital", "name": "Devonshire Neurorehabilitation Centre"}}, {"name": "Wrexham Maelor Hospital", "latitude": 53.0473285, "longitude": -3.0089869, "source": "osm", "_tags": {"amenity": "hospital", "emergency": "yes", "healthcare": "hospital", "name": "Wrexham Maelor Hospital", "name:cy": "Ysbyty Maelor Wrecsam", "name:en": "Wrexham Maelor Hospital", "operator": "NHS", "operator:type": "public", "operator:wikidata": "Q918396", "wikidata": "Q8038122", "wikipedia": "en:Wrexham Maelor Hospital"}}, {"name": "Spire Yale Hospital", "latitude": 53.0480363, "longitude": -3.0151025, "source": "osm", "_tags": {"addr:housename": "Wrexham Technology Park", "amenity": "hospital", "healthcare": "hospital", "name": "Spire Yale Hospital", "name:cy": "Ysbyty IÃ¢l Spire", "name:en": "Spire Yale Hospital", "old_name": "Yale Hospital"}}, {"name": "Alder Hey Children's Hospital", "latitude": 53.4195232, "longitude": -2.8978116, "source": "osm", "_tags": {"amenity": "hospital", "healthcare": "hospital", "name": "Alder Hey Children's Hospital", "toilets:wheelchair": "yes", "wheelchair": "yes", "wikidata": "Q4713621"}}, {"name": "Harplands Hospital", "latitude": 53.0008395, "longitude": -2.2101784, "source": "osm", "_tags": {"amenity": "hospital", "emergency": "no", "healthcare": "hospital", "name": "Harplands Hospital", "wikidata": "Q30292908"}}, {"name": "Hartshill Medical Centre", "latitude": 53.0101015, "longitude": -2.2111586, "source": "osm", "_tags": {"amenity": "hospital", "building": "yes", "healthcare": "hospital", "name": "Hartshill Medical Centre"}}, {"name": "Park Lodge Independent Hospital", "latitude": 53.4178345, "longitude": -2.0829763, "source": "osm", "_tags": {"addr:housenumber": "34", "addr:postcode": "SK6 4NH", "addr:street": "Sandy Lane", "amenity": "hospital", "building": "yes", "emergency": "no", "healthcare": "hospital", "name": "Park Lodge Independent Hospital", "website": "https://www.careuk.com/"}}, {"name": "Bradwell Hospital", "latitude": 53.0390083, "longitude": -2.2388415, "source": "osm", "_tags": {"addr:postcode": "ST5 7TL", "addr:street": "Talke Road", "amenity": "hospital", "check_date": "2024-07-10", "fhrs:id": "54415", "healthcare": "hospital", "name": "Bradwell Hospital", "source:addr": "FHRS Open Data", "wikidata": "Q30292778"}}, {"name": "St Augustines Hospital", "latitude": 53.0335482, "longitude": -2.1877948, "source": "osm", "_tags": {"addr:housenumber": "355", "addr:postcode": "ST1 5JP", "addr:street": "Cobridge Road", "amenity": "hospital", "emergency": "no", "fhrs:id": "1083229", "healthcare": "hospital", "name": "St Augustines Hospital", "source:addr": "FHRS Open Data"}}, {"name": "North Staffordshire Hospital", "latitude": 53.0077007, "longitude": -2.20518, "source": "osm", "_tags": {"amenity": "hospital", "healthcare": "hospital", "name": "North Staffordshire Hospital"}}, {"name": "New Cross Hospital", "latitude": 52.5998016, "longitude": -2.0952604, "source": "osm", "_tags": {"amenity": "hospital", "emergency": "yes", "healthcare": "hospital", "name": "New Cross Hospital", "ref:GB:cqc_location": "RL403", "ref:GB:nhs_ods": "RL403", "source": "bing", "wheelchair": "yes", "wikidata": "Q1281934"}}, {"name": "New Hall Hospital", "latitude": 52.9987486, "longitude": -3.031567, "source": "osm", "_tags": {"amenity": "hospital", "healthcare": "hospital", "name": "New Hall Hospital"}}, {"name": "Shropshire Community Health Trust William Farr House Site", "latitude": 52.7059544, "longitude": -2.7893414, "source": "osm", "_tags": {"amenity": "clinic", "emergency": "no", "healthcare": "hospital", "name": "Shropshire Community Health Trust William Farr House Site", "operator": "Shropshire Community Health Trust"}}, {"name": "Brierley Hill Health & Social Care Centre", "latitude": 52.4823756, "longitude": -2.1173043, "source": "osm", "_tags": {"amenity": "hospital", "healthcare": "hospital", "name": "Brierley Hill Health & Social Care Centre"}}, {"name": "The Meadows", "latitude": 53.3985888, "longitude": -2.1205763, "source": "osm", "_tags": {"amenity": "hospital", "healthcare": "hospital", "name": "The Meadows"}}, {"name": "Guest Hospital", "latitude": 52.5190104, "longitude": -2.0730254, "source": "osm", "_tags": {"addr:postcode": "DY1 4SE", "addr:street": "Tipton Road", "amenity": "hospital", "emergency": "no", "fhrs:id": "501441", "healthcare": "hospital", "name": "Guest Hospital", "source:addr": "FHRS Open Data", "wikidata": "Q5311880"}}, {"name": "Windsor House", "latitude": 53.3952907, "longitude": -2.9709924, "source": "osm", "_tags": {"addr:city": "Liverpool", "addr:housenumber": "40", "addr:postcode": "L8 7LF", "addr:street": "Upper Parliament Street", "amenity": "hospital", "building": "hospital", "building:levels": "2", "emergency": "no", "healthcare": "hospital", "name": "Windsor House"}}, {"name": "Compton Hospice", "latitude": 52.5859966, "longitude": -2.1715072, "source": "osm", "_tags": {"amenity": "hospital", "emergency": "no", "healthcare": "hospital", "name": "Compton Hospice"}}, {"name": "Haywood Hospital", "latitude": 53.0570662, "longitude": -2.19123, "source": "osm", "_tags": {"addr:postcode": "ST6 7AG", "addr:street": "High Lane", "amenity": "hospital", "fhrs:id": "139776", "healthcare": "hospital", "name": "Haywood Hospital", "source:addr": "FHRS Open Data", "wikidata": "Q30279752"}}, {"name": "Broadgreen Hospital", "latitude": 53.4115429, "longitude": -2.8978865, "source": "osm", "_tags": {"amenity": "hospital", "healthcare": "hospital", "name": "Broadgreen Hospital", "wikidata": "Q4972190"}}, {"name": "Weaver Lodge Independent Hospital", "latitude": 53.1888355, "longitude": -2.4962972, "source": "osm", "_tags": {"addr:city": "Winsford", "addr:postcode": "CW7 3DT", "addr:street": "Winsford By-pass", "amenity": "hospital", "building": "yes", "name": "Weaver Lodge Independent Hospital", "note": "Person Centred support to adults with learning disabilities or mental health needs.", "phone": "+44 1606 861615", "ref:GB:uprn": "200003242332", "source": "http://alternativefuturesgroup.org.uk/what-we-do/our-independent-hospitals/", "website": "http://alternativefuturesgroup.org.uk/what-we-do/our-independent-hospitals/", "wheelchair": "yes"}}, {"name": "Ellesmere Port Hospital", "latitude": 53.2678402, "longitude": -2.9110457, "source": "osm", "_tags": {"addr:housenumber": "110", "addr:postcode": "CH65 6RY", "addr:street": "Chester Road", "amenity": "hospital", "emergency": "no", "fhrs:id": "624476", "healthcare": "hospital", "name": "Ellesmere Port Hospital"}}, {"name": "Leighton Hospital", "latitude": 53.1188749, "longitude": -2.476172, "source": "osm", "_tags": {"addr:postcode": "CW1 4QJ", "addr:street": "Middlewich Road", "amenity": "hospital", "emergency": "yes", "fhrs:id": "890014", "healthcare": "hospital", "name": "Leighton Hospital", "source": "OS OpenData StreetView", "source:addr": "FHRS Open Data", "wikidata": "Q6519761", "wikipedia": "en:Leighton Hospital"}}, {"name": "Countess of Chester Hospital", "latitude": 53.2100552, "longitude": -2.8991193, "source": "osm", "_tags": {"addr:city": "Chester", "addr:postcode": "CH2 1UL", "addr:street": "Liverpool Road", "amenity": "hospital", "emergency": "yes", "fhrs:id": "589729", "healthcare": "hospital", "name": "Countess of Chester Hospital", "wikidata": "Q5177080"}}, {"name": "The Gem Centre", "latitude": 52.5958754, "longitude": -2.080273, "source": "osm", "_tags": {"amenity": "hospital", "building": "yes", "emergency": "no", "healthcare": "hospital", "name": "The Gem Centre", "source": "bing"}}, {"name": "The Wilmslow Hospital", "latitude": 53.3243773, "longitude": -2.2349928, "source": "osm", "_tags": {"addr:city": "Wilmslow", "addr:housenumber": "52", "addr:street": "Alderley Road", "amenity": "hospital", "building": "hospital", "check_date": "2023-11-12", "healthcare": "hospital", "name": "The Wilmslow Hospital"}}, {"name": "", "latitude": 52.6022031, "longitude": -2.5591995, "source": "osm", "_tags": {"amenity": "hospital", "emergency": "no", "healthcare": "hospital", "operator": "Much Wenlock Nursing Home Trust"}}, {"name": "Soss Moss Hospital", "latitude": 53.2867031, "longitude": -2.2672556, "source": "osm", "_tags": {"amenity": "hospital", "name": "Soss Moss Hospital"}}, {"name": "Northenden Group Practice", "latitude": 53.4063183, "longitude": -2.2642607, "source": "osm", "_tags": {"amenity": "hospital", "healthcare": "hospital", "name": "Northenden Group Practice"}}, {"name": "Bridgnorth Hospital", "latitude": 52.5379529, "longitude": -2.4222788, "source": "osm", "_tags": {"addr:city": "Bridgnorth", "addr:country": "GB", "addr:postcode": "WV16 4EU", "addr:street": "North Gate", "amenity": "hospital", "fhrs:authority": "Shropshire", "fhrs:id": "729338", "fhrs:local_authority_id": "14/00580/COMM", "healthcare": "hospital", "name": "Bridgnorth Hospital", "wheelchair": "yes"}}, {"name": "The Priory Hospital Altrincham", "latitude": 53.3661666, "longitude": -2.3270267, "source": "osm", "_tags": {"addr:city": "Altrincham", "addr:place": "Hale Barns", "addr:postcode": "WA15 0NU", "addr:street": "Rappax Road", "amenity": "hospital", "healthcare": "hospital", "name": "The Priory Hospital Altrincham", "operator": "The Priory Group", "phone": "+44 161 660 0792", "wikidata": "Q30261335"}}, {"name": "Knutsford and District Community Hospital", "latitude": 53.3017537, "longitude": -2.3786458, "source": "osm", "_tags": {"amenity": "hospital", "healthcare": "hospital", "name": "Knutsford and District Community Hospital"}}, {"name": "Spire Liverpool Hospital", "latitude": 53.3852889, "longitude": -2.9235489, "source": "osm", "_tags": {"access": "private", "amenity": "hospital", "healthcare": "hospital", "name": "Spire Liverpool Hospital", "source": "OS OpenMap Local"}}, {"name": "Beechwood and Hunter's Way Nursing Home", "latitude": 53.358446, "longitude": -2.9226965, "source": "osm", "_tags": {"amenity": "hospital", "healthcare": "hospital", "name": "Beechwood and Hunter's Way Nursing Home", "source": "OS OpenMap Local"}}, {"name": "Nursing Home", "latitude": 53.3992784, "longitude": -2.8708612, "source": "osm", "_tags": {"amenity": "hospital", "healthcare": "hospital", "name": "Nursing Home", "source": "OS OpenMap Local"}}, {"name": "St Michael's Mount & Manor Nursing Home", "latitude": 53.3638518, "longitude": -2.8846127, "source": "osm", "_tags": {"amenity": "hospital", "healthcare": "hospital", "name": "St Michael's Mount & Manor Nursing Home", "source": "OS OpenMap Local"}}, {"name": "Springwood Gardens", "latitude": 53.3644029, "longitude": -2.8851508, "source": "osm", "_tags": {"amenity": "hospital", "healthcare": "hospital", "name": "Springwood Gardens", "source": "OS OpenMap Local"}}, {"name": "Chirk Community Hospital", "latitude": 52.9435371, "longitude": -3.052303, "source": "osm", "_tags": {"addr:postcode": "LL14 5LN", "addr:street": "John's Street", "amenity": "hospital", "emergency": "no", "healthcare": "hospital", "name": "Chirk Community Hospital", "name:cy": "Ysbyty Cymuned Y Waun", "phone": "+44 3000 859 955", "wikidata": "Q65088804"}}, {"name": "Congleton War Memorial Hospital", "latitude": 53.1581578, "longitude": -2.2028835, "source": "osm", "_tags": {"addr:postcode": "CW12 3AR", "addr:street": "Canal Road", "amenity": "hospital", "emergency": "no", "fhrs:id": "891170", "healthcare": "hospital", "name": "Congleton War Memorial Hospital", "note": "No Accident & Emergency facilities"}}, {"name": "The Redwoods Centre", "latitude": 52.7099076, "longitude": -2.7984956, "source": "osm", "_tags": {"addr:city": "Shrewsbury", "addr:country": "GB", "addr:postcode": "SY3 8DS", "addr:street": "Somerby Drive", "amenity": "hospital", "emergency": "no", "fhrs:authority": "Shropshire", "fhrs:id": "704774", "fhrs:local_authority_id": "14/00313/COMM", "healthcare": "hospital", "healthcare:speciality": "psychiatry", "name": "The Redwoods Centre"}}, {"name": "Longton Cottage Hospital", "latitude": 52.9777778, "longitude": -2.1219264, "source": "osm", "_tags": {"addr:postcode": "ST3 4QX", "addr:street": "Upper Belgrave Road", "amenity": "hospital", "contact:phone": "+44 300 123 0975", "emergency": "no", "name": "Longton Cottage Hospital", "opening_hours": "Mo-Th 08:00-17:00; Fr 08:00-16:30"}}, {"name": "The NeuroMuscular Centre", "latitude": 53.1825008, "longitude": -2.5526025, "source": "osm", "_tags": {"addr:city": "Winsford", "addr:postcode": "CW7 4EH", "addr:street": "Woodford Lane West", "amenity": "hospital", "healthcare": "hospital", "name": "The NeuroMuscular Centre", "phone": "+44 1606 861733", "website": "https://www.nmcentre.com/", "wheelchair": "yes"}}, {"name": "Huntercombe Hospital Stafford", "latitude": 52.6949135, "longitude": -2.2400093, "source": "osm", "_tags": {"amenity": "hospital", "emergency": "no", "healthcare": "hospital", "name": "Huntercombe Hospital Stafford", "source": "bing"}}, {"name": "Macclesfield District General Hospital", "latitude": 53.2621659, "longitude": -2.142117, "source": "osm", "_tags": {"addr:city": "Macclesfield", "addr:postcode": "SK10 3BL", "addr:street": "Victoria Road", "amenity": "hospital", "healthcare": "hospital", "name": "Macclesfield District General Hospital", "phone": "+44 1625 421 000", "wikidata": "Q30280799", "wikipedia": "en:Macclesfield District General Hospital"}}, {"name": "The Uplands", "latitude": 52.7194212, "longitude": -2.8012495, "source": "osm", "_tags": {"addr:city": "Shrewsbury", "addr:country": "GB", "addr:postcode": "SY3 8GA", "addr:street": "Clayton Way", "amenity": "hospital", "emergency": "no", "fhrs:authority": "Shropshire", "fhrs:id": "118934", "fhrs:local_authority_id": "48195", "healthcare": "hospital", "name": "The Uplands", "operator": "Marches Care Ltd.", "operator:type": "private"}}, {"name": "Severn Hospice Shrewsbury", "latitude": 52.7200811, "longitude": -2.8029672, "source": "osm", "_tags": {"addr:city": "Shrewsbury", "addr:country": "GB", "addr:postcode": "SY3 8HS", "addr:street": "Clayton Way", "amenity": "hospital", "emergency": "no", "fhrs:authority": "Shropshire", "fhrs:id": "44736", "fhrs:local_authority_id": "108424", "healthcare": "hospital", "name": "Severn Hospice Shrewsbury", "operator": "Severn Hospice Limited", "operator:type": "charitable"}}, {"name": "Beacon Park Hospital", "latitude": 52.8177651, "longitude": -2.074269, "source": "osm", "_tags": {"addr:city": "Stafford", "addr:housename": "Beacon Business Park", "addr:postcode": "ST18 0XF", "addr:street": "Brereton Way", "amenity": "hospital", "name": "Beacon Park Hospital", "operator": "Ramsay Health Care"}}, {"name": "Whitchurch Community Hospital", "latitude": 52.9728801, "longitude": -2.6792065, "source": "osm", "_tags": {"addr:city": "Whitchurch", "addr:postcode": "SY13 1NT", "addr:street": "Claypit Street", "amenity": "hospital", "emergency": "no", "fhrs:authority": "Shropshire", "fhrs:id": "698839", "fhrs:local_authority_id": "14/00138/COMM", "healthcare": "hospital", "healthcare:speciality": "community;clinic", "name": "Whitchurch Community Hospital"}}, {"name": "Rowley Hall Hospital", "latitude": 52.7947664, "longitude": -2.1263957, "source": "osm", "_tags": {"amenity": "hospital", "name": "Rowley Hall Hospital"}}, {"name": "Fairhaven/The Alders", "latitude": 53.4211043, "longitude": -2.5938305, "source": "osm", "_tags": {"addr:city": "Warrington", "addr:housename": "The Alders", "addr:postcode": "WA2 9TN", "addr:street": "Birch Avenue", "addr:suburb": "Hulme", "alt_name": "Warrington CAMHS", "amenity": "hospital", "emergency": "no", "healthcare": "hospital", "name": "Fairhaven/The Alders", "operator": "NHS", "operator:wikidata": "Q918396"}}, {"name": "Saint Mary's Hospital", "latitude": 53.4062842, "longitude": -2.591419, "source": "osm", "_tags": {"addr:city": "Warrington", "addr:postcode": "WA2 8DB", "addr:street": "Floyd Drive", "amenity": "hospital", "emergency": "no", "healthcare": "hospital", "name": "Saint Mary's Hospital"}}, {"name": "Lea Court", "latitude": 53.4081393, "longitude": -2.6033044, "source": "osm", "_tags": {"addr:city": "Warrington", "addr:housenumber": "30", "addr:postcode": "WA5 0EZ", "addr:street": "Hawleys Lane", "addr:suburb": "Dallam", "amenity": "hospital", "emergency": "no", "healthcare": "hospital", "healthcare:speciality": "psychiatry", "name": "Lea Court"}}, {"name": "Broughton Clinic", "latitude": 53.1660088, "longitude": -2.9864656, "source": "osm", "_tags": {"amenity": "hospital", "emergency": "no", "healthcare": "hospital", "name": "Broughton Clinic", "operator": "NHS", "operator:type": "government", "operator:wikidata": "Q918396"}}, {"name": "Deeside Community Hospital", "latitude": 53.202396, "longitude": -3.0415833, "source": "osm", "_tags": {"amenity": "hospital", "emergency": "no", "healthcare": "hospital", "name": "Deeside Community Hospital", "operator": "NHS", "operator:type": "public", "operator:wikidata": "Q918396"}}, {"name": "Wavertree Lodge", "latitude": 53.4012179, "longitude": -2.913538, "source": "osm", "_tags": {"amenity": "hospital", "healthcare": "hospital", "name": "Wavertree Lodge"}}, {"name": "Penley Hospital", "latitude": 52.9539553, "longitude": -2.8698224, "source": "osm", "_tags": {"amenity": "hospital", "healthcare": "hospital", "name": "Penley Hospital", "name:cy": "Ysbyty Penley", "name:pl": "Szpital Penley"}}, {"name": "Paddington Community Diagnostic Centre", "latitude": 53.406053, "longitude": -2.9586727, "source": "osm", "_tags": {"amenity": "hospital", "healthcare": "hospital", "name": "Paddington Community Diagnostic Centre", "operator": "Merseycare NHS Trust"}}, {"name": "Alexandra Hospital", "latitude": 53.3970023, "longitude": -2.21606, "source": "osm", "_tags": {"amenity": "hospital", "emergency": "no", "healthcare": "hospital", "name": "Alexandra Hospital", "note": "Approximate boundary.", "wikidata": "Q55603603", "wikipedia": "en:Alexandra Hospital (Cheadle)"}}, {"name": "", "latitude": 53.3916976, "longitude": -2.9371602, "source": "osm", "_tags": {"amenity": "hospital", "healthcare": "hospital"}}, {"name": "Spire Cheshire Hospital", "latitude": 53.337585, "longitude": -2.5759876, "source": "osm", "_tags": {"addr:city": "Warrington", "addr:country": "GB", "addr:postcode": "WA4 4LU", "addr:street": "Fir Tree Close", "amenity": "hospital", "fhrs:id": "421097", "healthcare": "hospital", "name": "Spire Cheshire Hospital"}}, {"name": "Car park site", "latitude": 53.0018178, "longitude": -2.2096028, "source": "osm", "_tags": {"amenity": "hospital", "healthcare": "hospital", "name": "Car park site"}}, {"name": "Halton General Hospital", "latitude": 53.323296, "longitude": -2.6945135, "source": "osm", "_tags": {"addr:city": "Runcorn", "addr:postcode": "WA7 2DA", "addr:street": "Hospital Way", "amenity": "hospital", "healthcare": "hospital", "healthcare:speciality": "general", "name": "Halton General Hospital", "operator": "NHS", "operator:type": "public", "operator:wikidata": "Q918396", "type": "multipolygon", "wikidata": "Q30254332"}}, {"name": "Bishops Community Hospital", "latitude": 52.4933568, "longitude": -3.00056, "source": "osm", "_tags": {"addr:city": "Bishop's Castle", "addr:postcode": "SY9 5AJ", "addr:street": "Union Street", "amenity": "hospital", "building": "yes", "emergency": "no", "healthcare": "hospital", "name": "Bishops Community Hospital", "note": "Access is from Billingsley Close", "phone": "+44 1588 638220", "source": "Bing", "type": "multipolygon"}}, {"name": "The Shropshire Nuffield Hospital", "latitude": 52.6919463, "longitude": -2.772162, "source": "osm", "_tags": {"addr:city": "Shrewsbury", "addr:country": "GB", "addr:postcode": "SY3 9DP", "addr:street": "Longden Road", "amenity": "hospital", "emergency": "no", "fhrs:authority": "Shropshire", "fhrs:id": "704777", "fhrs:local_authority_id": "14/00317/COMM", "healthcare": "hospital", "name": "The Shropshire Nuffield Hospital", "operator": "Nuffield Health", "operator:type": "private", "operator:wikidata": "Q7068711", "type": "multipolygon"}}, {"name": "Royal Liverpool University Hospital", "latitude": 53.4092539, "longitude": -2.9629685, "source": "osm", "_tags": {"addr:city": "Liverpool", "addr:postcode": "L7 8YE", "addr:street": "Mount Vernon Street", "amenity": "hospital", "emergency": "yes", "healthcare": "hospital", "name": "Royal Liverpool University Hospital", "operator": "Liverpool University Hospitals NHS Foundation Trust", "operator:type": "public/government", "type": "multipolygon", "wheelchair": "yes", "wikidata": "Q7374408", "wikipedia": "en:Royal Liverpool University Hospital"}}]