[{"name": "Marine Court Psychiatric Unit", "latitude": 53.2976099, "longitude": -3.7319773, "source": "osm", "_tags": {"addr:city": "Colwyn Bay", "addr:country": "GB", "addr:housenumber": "4", "addr:postcode": "LL29 8PH", "addr:street": "Marine Road", "amenity": "hospital", "fhrs:authority": "Conwy", "fhrs:id": "201627", "fhrs:local_authority_id": "1844", "name": "Marine Court Psychiatric Unit", "name:cy": "Cartref Nyrsio Marine Court", "name:en": "Marine Court Psychiatric Unit"}}, {"name": "Denbigh Infirmary", "latitude": 53.1859512, "longitude": -3.4098599, "source": "osm", "_tags": {"addr:city": "Denbigh", "addr:country": "GB", "addr:postcode": "LL16 3ES", "addr:street": "Ruthin Road", "alt_name": "Denbeigh Community Hospital", "amenity": "hospital", "fhrs:authority": "Denbighshire", "fhrs:id": "921675", "fhrs:local_authority_id": "704057", "healthcare": "hospital", "healthcare:speciality": "community", "internet_access": "wlan", "name": "Denbigh Infirmary", "name:cy": "Inffyrmari Dinbych", "name:en": "Denbigh Infirmary", "operator": "NHS", "operator:type": "government", "operator:wikidata": "Q918396", "wikidata": "Q65088813"}}, {"name": "Glan Clwyd Hospital", "latitude": 53.2714033, "longitude": -3.4969096, "source": "osm", "_tags": {"addr:city": "Rhyl", "addr:country": "GB", "addr:place": "Bodelwyddan", "addr:postcode": "LL18 5UJ", "addr:street": "Rhuddlan Road", "alt_name:en": "Ysbyty Glan Clwyd Hospital", "amenity": "hospital", "emergency": "yes", "fhrs:authority": "Denbighshire", "fhrs:id": "921224", "fhrs:local_authority_id": "703182", "healthcare": "hospital", "healthcare:speciality": "general", "internet_access": "wlan", "internet_access:fee": "no", "name": "Glan Clwyd Hospital", "name:cy": "Ysbyty Glan Clwyd", "name:en": "Glan Clwyd Hospital", "opening_hours": "24/7", "operator": "NHS", "operator:type": "public", "operator:wikidata": "Q918396", "phone": "+44 3000 843843", "start_date": "1980", "wikidata": "Q20713687", "wikipedia": "en:Glan Clwyd Hospital"}}, {"name": "Ysbyty Abergele", "latitude": 53.2657887, "longitude": -3.583035, "source": "osm", "_tags": {"addr:city": "Abergele", "addr:country": "GB", "addr:postcode": "LL22 8DP", "addr:street": "Llanfair Road", "amenity": "hospital", "emergency": "no", "fhrs:authority": "Conwy", "fhrs:id": "80365", "fhrs:local_authority_id": "1945", "healthcare": "hospital", "healthcare:speciality": "ophthalmology;orthopaedics;radiology;child_psychiatry", "internet_access": "wlan", "name": "Ysbyty Abergele", "name:cy": "Ysbyty Abergele", "name:en": "Abergele Hospital", "operator": "NHS", "operator:type": "government", "operator:wikidata": "Q918396", "wheelchair": "yes", "wikidata": "Q65088810"}}, {"name": "Ysbyty Llandudno", "latitude": 53.3111245, "longitude": -3.8276544, "source": "osm", "_tags": {"addr:city": "Llandudno", "addr:country": "GB", "addr:postcode": "LL30 1LB", "addr:street": "Ffordd Ysbyty", "amenity": "hospital", "fhrs:authority": "Conwy", "fhrs:id": "44941", "fhrs:local_authority_id": "1090", "healthcare": "hospital", "name": "Ysbyty Llandudno", "name:cy": "Ysbyty Cyffredinol Llandudno", "name:en": "Llandudno General Hospital", "operator": "NHS", "operator:wikidata": "Q918396", "wikidata": "Q20602528"}}, {"name": "Ysbyty Machynlleth", "latitude": 52.5917494, "longitude": -3.8455641, "source": "osm", "_tags": {"amenity": "hospital", "building": "hospital", "healthcare": "hospital", "name": "Ysbyty Machynlleth", "name:en": "Machynlleth Hospital", "source": "OS_OpenData_StreetView;bing", "website": "http://www.wales.nhs.uk/sitesplus/867/tudalen/43193"}}, {"name": "Hoylake Cottage Care Home", "latitude": 53.3982701, "longitude": -3.1710703, "source": "osm", "_tags": {"addr:housenumber": "35", "addr:postcode": "CH47 5AQ", "addr:street": "Birkenhead Road", "amenity": "hospital", "building": "yes", "check_date": "2024-08-25", "fhrs:id": "395171", "healthcare": "hospital", "name": "Hoylake Cottage Care Home", "note": "not really a hospital, but marked as such on OSOSV", "source": "bing", "source:addr": "FHRS Open Data", "source:name": "FHRS Open Data", "wheelchair": "yes"}}, {"name": "Bryn Y Neuadd Hospital", "latitude": 53.2539244, "longitude": -3.9847225, "source": "osm", "_tags": {"addr:city": "Llanfairfechan", "addr:country": "GB", "addr:postcode": "LL33 0HH", "addr:street": "Aber Road", "alt_name:en": "Bryn-y-Neuadd Hospital", "amenity": "hospital", "emergency": "no", "fhrs:authority": "Conwy", "fhrs:id": "62362", "fhrs:local_authority_id": "13771", "healthcare": "hospital", "name": "Bryn Y Neuadd Hospital", "name:cy": "Ysbyty Bryn y Neuadd", "name:en": "Bryn Y Neuadd Hospital", "operator": "NHS", "operator:type": "public", "operator:wikidata": "Q918396", "source:area": "Bing", "wikidata": "Q96374052", "wikipedia": "en:Bryn y Neuadd Hospital"}}, {"name": "Ruthin Community Hospital", "latitude": 53.1130599, "longitude": -3.3033626, "source": "osm", "_tags": {"addr:city": "Ruthin", "addr:country": "GB", "addr:postcode": "LL15 1PS", "addr:street": "Llanrhydd Street", "amenity": "hospital", "emergency": "no", "fhrs:authority": "Denbighshire", "fhrs:id": "921196", "fhrs:local_authority_id": "703054", "healthcare": "hospital", "internet_access": "wlan", "name": "Ruthin Community Hospital", "name:cy": "Ysbyty Cymuned Rhuthun", "name:en": "Ruthin Community Hospital", "operator": "NHS", "operator:type": "government", "operator:wikidata": "Q918396", "source": "Bing", "wikidata": "Q65088818"}}, {"name": "Tŷ Llywelyn Secure Unit", "latitude": 53.252555, "longitude": -3.9868379, "source": "osm", "_tags": {"amenity": "hospital", "barrier": "wall;fence", "emergency": "no", "fence_type": "wire", "healthcare": "hospital", "healthcare:speciality": "psychiatry", "name": "Tŷ Llywelyn Secure Unit", "operator": "NHS", "operator:type": "public", "operator:wikidata": "Q918396"}}, {"name": "Royal Alexandra Hospital", "latitude": 53.3261347, "longitude": -3.4806508, "source": "osm", "_tags": {"amenity": "hospital", "emergency": "no", "healthcare": "hospital", "healthcare:speciality": "dentistry;blood_check;child_psychiatry;radiology", "internet_access": "wlan", "name": "Royal Alexandra Hospital", "operator": "NHS", "operator:type": "government", "operator:wikidata": "Q918396", "wheelchair": "yes", "wikidata": "Q29492129", "wikipedia": "en:Royal Alexandra Hospital, Rhyl"}}, {"name": "Victoria Memorial Hospital", "latitude": 52.6622491, "longitude": -3.1435942, "source": "osm", "_tags": {"addr:city": "Welshpool", "addr:housename": "Victoria Memorial Hospital", "addr:postcode": "SY21 7DU", "addr:street": "Salop Road", "amenity": "hospital", "contact:phone": "+44 1938 553133", "emergency": "no", "healthcare": "hospital", "name": "Victoria Memorial Hospital", "name:cy": "Ysbyty Coffa Victoria", "name:en": "Victoria Memorial Hospital", "smoking": "no", "toilets:wheelchair": "yes", "wheelchair": "yes"}}, {"name": "Plas Coch Independant Hospital", "latitude": 53.2644995, "longitude": -3.4571802, "source": "osm", "_tags": {"amenity": "hospital", "name": "Plas Coch Independant Hospital"}}, {"name": "Dolgellau and Barmouth Hospital", "latitude": 52.7408487, "longitude": -3.8815198, "source": "osm", "_tags": {"addr:city": "Dolgellau", "addr:postcode": "LL40 1NT", "addr:street": "Hospital Drive", "amenity": "hospital", "emergency": "no", "fhrs:id": "40385", "healthcare": "hospital", "healthcare:speciality": "physiatry;otolaryngology;speech_therapy;outpatient;chiropody;dental_oral_maxillo_facial_surgery;dietetics;maternity;minor_injuries", "name": "Dolgellau and Barmouth Hospital", "name:cy": "Ysbyty Dolgellau a'r Bermo", "operator": "NHS", "operator:type": "government", "operator:wikidata": "Q918396", "wikidata": "Q96376506", "wikipedia": "en:Dolgellau and Barmouth Hospital"}}, {"name": "Murrayfield Hospital", "latitude": 53.3509894, "longitude": -3.0761044, "source": "osm", "_tags": {"amenity": "hospital", "healthcare": "hospital", "name": "Murrayfield Hospital", "operator": "BUPA"}}, {"name": "Blaenau Ffestiniog Health Surgery", "latitude": 52.9915994, "longitude": -3.9349002, "source": "osm", "_tags": {"amenity": "hospital", "healthcare": "hospital", "name": "Blaenau Ffestiniog Health Surgery"}}, {"name": "Colwyn Bay Community Hospital", "latitude": 53.2881609, "longitude": -3.7101564, "source": "osm", "_tags": {"addr:city": "Colwyn Bay", "addr:country": "GB", "addr:place": "Old Colwyn", "addr:postcode": "LL29 8AY", "addr:street": "Hesketh Road", "amenity": "hospital", "emergency": "no", "fhrs:authority": "Conwy", "fhrs:id": "40242", "fhrs:local_authority_id": "100969", "healthcare": "hospital", "name": "Colwyn Bay Community Hospital", "name:en": "Colwyn Bay Hospital", "operator": "NHS", "operator:wikidata": "Q918396", "wikidata": "Q59536563"}}, {"name": "Nant-y-Glyn Health Resource Centre", "latitude": 53.2900808, "longitude": -3.721818, "source": "osm", "_tags": {"addr:city": "Colwyn Bay", "addr:housenumber": "10", "addr:postcode": "LL29 7RB", "addr:street": "Nant-Y-Glyn Road", "amenity": "hospital", "emergency": "no", "healthcare": "hospital", "healthcare:speciality": "psychiatry", "name": "Nant-y-Glyn Health Resource Centre", "source": "http://www.wales.nhs.uk/ourservices/directory/Hospitals/82"}}, {"name": "St Davids Independant Hospital", "latitude": 52.9846029, "longitude": -3.3041536, "source": "osm", "_tags": {"addr:city": "Corwen", "addr:country": "GB", "addr:place": "Carrog", "addr:postcode": "LL21 9BG", "addr:street": "Plas Hyfryd", "amenity": "hospital", "building": "yes", "fhrs:authority": "Denbighshire", "fhrs:id": "920886", "fhrs:local_authority_id": "701903", "healthcare": "hospital", "name": "St Davids Independant Hospital", "name:en": "St Davids Independant Hospital", "operator": "MHC"}}, {"name": "Llanidloes War Memorial Hospital", "latitude": 52.452536, "longitude": -3.539661, "source": "osm", "_tags": {"addr:city": "Llanidloes", "addr:county": "Powys", "addr:postcode": "SY18 6HF", "addr:street": "Eastgate Street", "amenity": "hospital", "emergency": "no", "healthcare": "hospital", "name": "Llanidloes War Memorial Hospital", "phone": "+44 1686 412121", "website": "http://www.powysthb.wales.nhs.uk/llanidloes-hospital"}}, {"name": "Arrowe Park Hospital", "latitude": 53.3698452, "longitude": -3.0955068, "source": "osm", "_tags": {"addr:city": "Woodchurch", "addr:country": "GB", "addr:postcode": "CH49 5PE", "addr:street": "Arrowe Park Road", "amenity": "hospital", "check_date": "2023-01-10", "healthcare": "hospital", "name": "Arrowe Park Hospital"}}, {"name": "", "latitude": 53.1677578, "longitude": -3.1243218, "source": "osm", "_tags": {"building": "hospital", "emergency": "no", "healthcare": "hospital"}}, {"name": "", "latitude": 53.1676757, "longitude": -3.1252068, "source": "osm", "_tags": {"building": "hospital", "emergency": "no", "healthcare": "hospital"}}, {"name": "Holywell Community Hospital", "latitude": 53.2691355, "longitude": -3.2163459, "source": "osm", "_tags": {"addr:postcode": "CH8 7TZ", "addr:street": "Halkyn Road", "amenity": "hospital", "emergency": "no", "fhrs:id": "102845", "healthcare": "hospital", "name": "Holywell Community Hospital", "operator": "NHS", "operator:type": "government", "operator:wikidata": "Q918396", "website": "https://bcuhb.nhs.wales/services/hospitals/holywell-community-hospital/", "wikidata": "Q65088805"}}, {"name": "Montgomeryshire County Infirmary", "latitude": 52.5214658, "longitude": -3.314452, "source": "osm", "_tags": {"addr:city": "Newtown", "addr:postcode": "SY16 2DW", "addr:street": "Llanfair Road", "alt_name": "Newtown Hospital", "amenity": "hospital", "emergency": "no", "healthcare": "hospital", "name": "Montgomeryshire County Infirmary", "operator": "Powys Teaching Health Board", "operator:type": "public", "website": "https://pthb.nhs.wales/hospitals-and-centres/north-powys/newtown-hospital/"}}, {"name": "", "latitude": 53.3303282, "longitude": -3.1019376, "source": "osm", "_tags": {"amenity": "hospital"}}, {"name": "Mold Hospital", "latitude": 53.1695752, "longitude": -3.1476447, "source": "osm", "_tags": {"amenity": "hospital", "healthcare": "hospital", "name": "Mold Hospital", "operator": "NHS", "operator:wikidata": "Q918396"}}, {"name": "", "latitude": 53.1680241, "longitude": -3.1252611, "source": "osm", "_tags": {"building": "hospital", "emergency": "no", "healthcare": "hospital", "source": "bing", "type": "multipolygon"}}]