[{"name": "Carlow District Hospital", "latitude": 52.8426218, "longitude": -6.928817, "source": "osm", "_tags": {"amenity": "hospital", "emergency": "no", "healthcare": "hospital", "name": "Carlow District Hospital", "wheelchair": "limited"}}, {"name": "Hampstead Private Hospital", "latitude": 53.3815153, "longitude": -6.2596772, "source": "osm", "_tags": {"amenity": "hospital", "emergency": "no", "healthcare": "hospital", "name": "Hampstead Private Hospital"}}, {"name": "Beacon Hospital", "latitude": 53.2767042, "longitude": -6.2188689, "source": "osm", "_tags": {"addr:street": "Blackthorn Road", "amenity": "hospital", "check_date": "2024-08-29", "emergency": "yes", "healthcare": "hospital", "name": "Beacon Hospital", "wheelchair": "yes", "wikidata": "Q17005612", "wikipedia": "en:Beacon Hospital"}}, {"name": "Celbridge Medical Center", "latitude": 53.3448193, "longitude": -6.5409696, "source": "osm", "_tags": {"amenity": "hospital", "check_date": "2024-08-23", "healthcare": "hospital", "name": "Celbridge Medical Center", "operator": "Health Service Executive", "operator:short": "HSE", "operator:wikidata": "Q5690681", "operator:wikipedia": "en:Health Service Executive"}}, {"name": "Mater Private Network, Day Hospital", "latitude": 53.2416161, "longitude": -6.1406136, "source": "osm", "_tags": {"addr:city": "Co. Dublin", "addr:housename": "Mater Private South", "addr:postcode": "D18 DH50", "addr:street": "Cherrywood Business Park", "amenity": "hospital", "email": "dayhospital@materprivate.ie", "emergency": "no", "healthcare": "hospital", "name": "Mater Private Network, Day Hospital"}}, {"name": "Mater Private Hospital", "latitude": 53.4041222, "longitude": -6.1815316, "source": "osm", "_tags": {"addr:city": "Dublin", "addr:housename": "Newenham House", "addr:postcode": "D17 AY61", "addr:street": "Malahide Road", "amenity": "hospital", "healthcare": "hospital", "name": "Mater Private Hospital", "wikidata": "Q6786522", "wikipedia": "en:Mater Private Hospital"}}, {"name": "Connolly Hospital", "latitude": 53.3891627, "longitude": -6.3675115, "source": "osm", "_tags": {"HSE_code": "22", "HSE_hgid": "4", "HSE_hgroup": "RCSI Hospitals Group", "HSE_region": "Dublin North East", "addr:city": "Blanchardstown", "addr:postal_district": "D15", "addr:postcode": "D15X40D", "addr:street": "Mill Road", "amenity": "hospital", "emergency": "yes", "fax": "+353-1-6465132", "healthcare": "hospital", "healthcare:speciality": "emergency;cardiology;dermatology;endocrinology;gastroenterology;gynaecology;haematology;neurology;orthopaedics;paediatrics;psychiatry;rheumatology;urology;paediatric_surgery", "loc_name": "Blanchardstown Hospital", "name": "Connolly Hospital", "name:ga": "Ospidéal Uí Chonghaile", "note": "The former name \"James Connolly Memorial Hospital\" is deprecated as it was causing confusion with St. James's Hospital", "old_name": "James Connolly Memorial Hospital", "operator": "Health Service Executive", "operator:short": "HSE", "operator:type": "public", "operator:wikidata": "Q5690681", "operator:wikipedia": "en:Health Service Executive", "phone": "+353-1-6465000", "smoking": "no", "website": "https://www.hse.ie/eng/services/list/3/acutehospitals/hospitals/Connolly/", "wikidata": "Q5161992", "wikimedia_commons": "Category:Connolly Hospital", "wikipedia": "en:Connolly Hospital"}}, {"name": "Beaumont Hospital", "latitude": 53.3892595, "longitude": -6.2240645, "source": "osm", "_tags": {"amenity": "hospital", "emergency": "yes", "healthcare": "hospital", "name": "Beaumont Hospital", "operator": "Health Service Executive", "operator:short": "HSE", "operator:type": "public", "operator:wikidata": "Q5690681", "wikidata": "Q4877565", "wikimedia_commons": "Category:Beaumont Hospital, Dublin", "wikipedia": "en:Beaumont Hospital, Dublin", "year_of_construction": "1987"}}, {"name": "Royal Hospital Donnybrook", "latitude": 53.3250732, "longitude": -6.2480404, "source": "osm", "_tags": {"addr:street": "Bloomfield Avenue", "amenity": "hospital", "emergency": "no", "healthcare": "hospital", "name": "Royal Hospital Donnybrook", "wikidata": "Q7374299", "wikimedia_commons": "Category:Royal Hospital, Donnybrook", "wikipedia": "en:Royal Hospital, Donnybrook"}}, {"name": "St Luke's Hospital", "latitude": 53.3092427, "longitude": -6.2674243, "source": "osm", "_tags": {"amenity": "hospital", "emergency": "no", "healthcare": "hospital", "name": "St Luke's Hospital", "wikidata": "Q7589801", "wikipedia": "en:St. Luke's Hospital, Rathgar"}}, {"name": "Lucena Clinic & St Peter's School", "latitude": 53.3102672, "longitude": -6.2710269, "source": "osm", "_tags": {"addr:city": "Dublin", "addr:housenumber": "59", "addr:street": "Orwell Road", "amenity": "hospital", "emergency": "no", "fax": "+353-1-4923823", "healthcare": "hospital", "healthcare:speciality": "psychiatry", "name": "Lucena Clinic & St Peter's School", "operator": "Order of St. John of God", "phone": "+353-1-4923596", "website": "http://www.lucenaclinic.ie/clinics-rathgar"}}, {"name": "Clonskeagh Hospital", "latitude": 53.3153826, "longitude": -6.2400815, "source": "osm", "_tags": {"addr:street": "Clonskeagh Road", "amenity": "hospital", "healthcare": "hospital", "name": "Clonskeagh Hospital"}}, {"name": "Saint Joseph's Hospital", "latitude": 53.3877734, "longitude": -6.4319244, "source": "osm", "_tags": {"amenity": "hospital", "healthcare": "hospital", "name": "Saint Joseph's Hospital"}}, {"name": "Cherry Orchard Hospital", "latitude": 53.3430617, "longitude": -6.3779167, "source": "osm", "_tags": {"addr:street": "Ballyfermot Road", "amenity": "hospital", "emergency": "no", "healthcare": "hospital", "healthcare:speciality": "infectious disease;psychiatry;psychology;rehabilitation", "name": "Cherry Orchard Hospital", "operator": "Health Service Executive", "operator:short": "HSE", "operator:type": "public", "operator:wikidata": "Q5690681", "operator:wikipedia": "en:Health Service Executive", "wikidata": "Q65041373", "wikimedia_commons": "Category:Cherry Orchard Hospital, Dublin", "wikipedia": "en:Cherry Orchard Hospital", "year_of_construction": "1953"}}, {"name": "St. James's Hospital", "latitude": 53.3401189, "longitude": -6.2957732, "source": "osm", "_tags": {"HSE_code": "21", "HSE_hgid": "3", "HSE_hgroup": "Dublin Midlands Hospital Group", "HSE_region": "Midlands", "addr:city": "Dublin", "addr:postcode": "D08 NHY1", "addr:street": "James's Street", "amenity": "hospital", "email": "info@stjames.ie", "emergency": "yes", "healthcare": "hospital", "healthcare:speciality": "emergency;cardiology;dermatology;geriatrics;general;gynaecology;neurology;psychiatry", "loc_name": "James's", "name": "St. James's Hospital", "name:en": "St. James's Hospital", "name:ga": "Ospidéal Naomh Séamas", "operator": "Health Service Executive", "operator:short": "HSE", "operator:type": "public", "operator:wikidata": "Q5690681", "operator:wikipedia": "en:Health Service Executive", "phone": "+353-1-4103000", "website": "https://www.stjames.ie/", "wheelchair": "yes", "wikidata": "Q7588411", "wikimedia_commons": "Category:St. James's Hospital", "wikipedia": "en:St. James's Hospital"}}, {"name": "Children's Health Ireland at Crumlin", "latitude": 53.3261478, "longitude": -6.318888, "source": "osm", "_tags": {"HSE_code": "1", "HSE_hgid": "7", "HSE_hgroup": "Children's Hospital Group", "HSE_region": "Paediatrics", "addr:city": "Dublin", "addr:postcode": "D12N512", "addr:street": "Cooley Road", "amenity": "hospital", "emergency": "yes", "healthcare": "hospital", "healthcare:speciality": "paediatrics", "name": "Children's Health Ireland at Crumlin", "name:ga": "Sláinte Leanaí Éireann ag Croimghlinn", "old_name": "Our Lady's Children's Hospital Crumlin", "operator": "Health Service Executive", "operator:short": "HSE", "operator:type": "public", "operator:wikidata": "Q5690681", "phone": "+353-1-4096100", "website": "https://www.olchc.ie/", "wikidata": "Q7110706", "wikipedia": "en:Children's Health Ireland at Crumlin"}}, {"name": "Mater Misericordiae University Hospital", "latitude": 53.3592622, "longitude": -6.2671018, "source": "osm", "_tags": {"HSE_code": "5", "HSE_hgid": "2", "HSE_hgroup": "Ireland East Hospital Group", "HSE_region": "Dublin East", "addr:street": "North Circular Road", "alt_name": "The Mater Hospital", "amenity": "hospital", "emergency": "yes", "healthcare": "hospital", "name": "Mater Misericordiae University Hospital", "name:ga": "Ospidéal an Mater Misercordiae", "operator": "Health Service Executive", "operator:short": "HSE", "operator:type": "public", "operator:wikidata": "Q5690681", "operator:wikipedia": "en:Health Service Executive", "wikidata": "Q6786523", "wikimedia_commons": "Category:Mater Hospital", "wikipedia": "en:Mater Misericordiae University Hospital"}}, {"name": "Mater Private Hospital", "latitude": 53.3581067, "longitude": -6.2644738, "source": "osm", "_tags": {"addr:city": "Dublin 7", "addr:housename": "Mater Private Network", "addr:postcode": "D07 WKW8", "addr:street": "Eccles Street", "amenity": "hospital", "emergency": "no", "healthcare": "hospital", "name": "Mater Private Hospital", "wheelchair": "yes", "wikidata": "Q6786522", "wikipedia": "en:Mater Private Hospital"}}, {"name": "Central Remedial Clinic", "latitude": 53.3690166, "longitude": -6.2014039, "source": "osm", "_tags": {"amenity": "hospital", "email": "info@crc.ie", "emergency": "no", "fax": "+353-1-8336633", "healthcare": "hospital", "name": "Central Remedial Clinic", "phone": "+353-1-8542200", "website": "https://www.crc.ie", "wheelchair": "yes", "wikidata": "Q5061766", "wikipedia": "en:Central Remedial Clinic"}}, {"name": "Cappagh National Orthopaedic Hospital", "latitude": 53.3939004, "longitude": -6.3271098, "source": "osm", "_tags": {"amenity": "hospital", "emergency": "no", "healthcare": "hospital", "healthcare:speciality": "orthopaedics", "name": "Cappagh National Orthopaedic Hospital", "wikidata": "Q5036107", "wikipedia": "en:National Orthopaedic Hospital Cappagh"}}, {"name": "", "latitude": 53.3525263, "longitude": -6.2764835, "source": "osm", "_tags": {"amenity": "hospital", "healthcare": "hospital"}}, {"name": "Bon Secours Hospital", "latitude": 53.3757543, "longitude": -6.2674225, "source": "osm", "_tags": {"addr:city": "Dublin", "addr:postcode": "D09 YN97", "addr:street": "Glasnevin Hill", "amenity": "hospital", "email": "dublininfo@bonsecours.ie", "emergency": "no", "fax": "+353-1-8375896", "healthcare": "hospital", "name": "Bon Secours Hospital", "operator": "Bon Secours Health System", "phone": "+353-1-8065300", "website": "https://www.bonsecours.ie/dublin", "wikidata": "Q4941007", "wikimedia_commons": "Category:Bon Secours Hospital, Dublin", "wikipedia": "en:Bon Secours Hospital, Dublin"}}, {"name": "The Meath Primary Care Centre (Former Meath Hospital)", "latitude": 53.3357254, "longitude": -6.2701974, "source": "osm", "_tags": {"addr:city": "Dublin", "addr:housenumber": "1-9", "addr:street": "Heytesbury Street", "amenity": "hospital", "emergency": "no", "healthcare": "hospital", "name": "The Meath Primary Care Centre (Former Meath Hospital)", "operator": "Health Service Executive", "operator:short": "HSE", "operator:type": "public", "operator:wikidata": "Q5690681"}}, {"name": "Tallaght University Hospital", "latitude": 53.2911934, "longitude": -6.3788426, "source": "osm", "_tags": {"HSE_code": "41", "HSE_hgid": "3", "HSE_hgroup": "Dublin Midlands Hospital Group", "HSE_region": "Midlands", "addr:postcode": "D24 NR0A", "addr:street": "Belgard Square North", "alt_name": "Adelaide and Meath Hospital, Dublin, incorporating the National Children's Hospital", "amenity": "hospital", "emergency": "yes", "healthcare": "hospital", "healthcare:speciality": "emergency;cardiology;gynaecology;neurology;orthopaedics;psychiatry;psychology", "name": "Tallaght University Hospital", "name:en": "Tallaght University Hospital", "name:ga": "Ospidéal Ollscoile Thamhlachta", "official_name": "Adelaide and Meath Hospital, Dublin incorporating the National Children's Hospital", "operator": "Health Service Executive", "operator:short": "HSE", "operator:wikidata": "Q5690681", "operator:wikipedia": "en:Health Service Executive", "phone": "+353-1-4142000", "website": "https://www.tuh.ie/", "wikidata": "Q7680014", "wikimedia_commons": "Category:Tallaght University Hospital", "wikipedia": "en:Tallaght Hospital", "year_of_construction": "1998"}}, {"name": "Hermitage Medical Clinic", "latitude": 53.3592363, "longitude": -6.4057718, "source": "osm", "_tags": {"addr:postcode": "D20 W722", "addr:street": "Old Lucan Road", "amenity": "hospital", "emergency": "no", "fax": "+353-1-6459235", "healthcare": "hospital", "name": "Hermitage Medical Clinic", "operator": "Hermitage Medical Clinic", "operator:type": "private", "phone": "+353-1-6459000", "source": "http://www.hermitageclinic.ie/contact/contact-details/", "website": "https://www.hermitageclinic.ie/"}}, {"name": "St. Columcille's Hospital", "latitude": 53.242361, "longitude": -6.1328959, "source": "osm", "_tags": {"HSE_code": "3", "HSE_hgid": "2", "HSE_hgroup": "Ireland East Hospital Group", "HSE_region": "Dublin East", "addr:street": "Bray Road", "alt_name": "Loughlinstown Hospital", "amenity": "hospital", "emergency": "no", "fax": "+353-1-2825686", "healthcare": "hospital", "name": "St. Columcille's Hospital", "name:en": "St. Columcille's Hospital", "name:ga": "Ospidéal Cholm Cille", "operator": "Health Service Executive", "operator:short": "HSE", "operator:type": "government", "operator:wikidata": "Q5690681", "operator:wikipedia": "en:Health Service Executive", "phone": "+353-1-2825800", "smoking": "no", "website": "https://www.hse.ie/eng/services/list/3/acutehospitals/hospitals/loughlinstown/", "wikidata": "Q7587658", "wikipedia": "en:St. Columcille's Hospital"}}, {"name": "St. Michael's Hospital", "latitude": 53.2941298, "longitude": -6.1380259, "source": "osm", "_tags": {"addr:city": "Dún Laoghaire", "addr:postcode": "A96 P902", "addr:street": "George's Street Lower", "amenity": "hospital", "description": "Accident & Emergency Room", "emergency": "yes", "healthcare": "hospital", "name": "St. Michael's Hospital", "opening_hours": "Mo-Su 08:00-20:00", "operator": "Health Service Executive", "operator:short": "HSE", "operator:type": "public", "operator:wikidata": "Q5690681", "operator:wikipedia": "en:Health Service Executive", "phone": "+353 1 280 6901", "website": "https://stmichaels.ie/", "wikidata": "Q7590703", "wikipedia": "en:St. Michael's Hospital (Dún Laoghaire)"}}, {"name": "National Rehabilitation Hospital", "latitude": 53.27556, "longitude": -6.1527603, "source": "osm", "_tags": {"addr:city": "Dún Laoghaire", "addr:street": "Rochestown Avenue", "amenity": "hospital", "healthcare": "hospital", "healthcare:speciality": "rehabilitation", "name": "National Rehabilitation Hospital", "website": "https://www.nrh.ie/", "wheelchair": "yes", "wikidata": "Q30314913", "wikipedia": "en:National Rehabilitation Hospital (Dublin)"}}, {"name": "Rotunda Hospital", "latitude": 53.3529779, "longitude": -6.2633455, "source": "osm", "_tags": {"addr:city": "Dublin", "addr:postcode": "D01 P5W9", "addr:street": "Parnell Square West", "amenity": "hospital", "check_date": "2025-08-29", "emergency": "no", "fax": "+353 1 872 6523", "healthcare": "hospital", "name": "Rotunda Hospital", "name:ga": "Ospidéal an Rotunda", "phone": "+353 1 8171700", "wikidata": "Q3443052", "wikimedia_commons": "Category:Rotunda Hospital, Dublin", "wikipedia": "en:Rotunda Hospital"}}, {"name": "Phoenix Care Centre", "latitude": 53.3572814, "longitude": -6.2851429, "source": "osm", "_tags": {"addr:city": "Dublin", "addr:postcode": "D07 VPT0", "addr:street": "North Circular Road", "amenity": "hospital", "emergency": "no", "healthcare": "hospital", "healthcare:speciality": "psychiatry", "name": "Phoenix Care Centre", "operator": "Health Service Executive", "operator:short": "HSE", "operator:type": "government", "operator:wikidata": "Q5690681", "operator:wikipedia": "en:Health Service Executive", "phone": "+353-76-6958700", "website": "https://www.hse.ie/phoenixcarecentre"}}, {"name": "Blackrock Clinic", "latitude": 53.3038004, "longitude": -6.1886409, "source": "osm", "_tags": {"addr:city": "Dublin", "addr:postcode": "A94E4X7", "addr:street": "Rock Road", "amenity": "hospital", "emergency": "yes", "healthcare": "hospital", "name": "Blackrock Clinic", "wikidata": "Q4923313", "wikipedia": "en:Blackrock Clinic"}}, {"name": "Leopardstown Park Hospital", "latitude": 53.268336, "longitude": -6.2027095, "source": "osm", "_tags": {"amenity": "hospital", "emergency": "no", "healthcare": "hospital", "name": "Leopardstown Park Hospital", "website": "http://www.lph.ie", "wikidata": "Q14956804", "wikipedia": "en:Leopardstown Park Hospital"}}, {"name": "Mount Carmel Community Hospital", "latitude": 53.3044944, "longitude": -6.2653054, "source": "osm", "_tags": {"addr:city": "Dublin", "addr:postal_district": "D14", "addr:street": "Braemor Park", "amenity": "hospital", "emergency": "no", "healthcare": "hospital", "name": "Mount Carmel Community Hospital", "operator": "Mowlam Healthcare", "wikidata": "Q6920044", "wikipedia": "en:Mount Carmel Community Hospital"}}, {"name": "Saint Mary's Hospital", "latitude": 53.3509128, "longitude": -6.3372797, "source": "osm", "_tags": {"addr:city": "Dublin", "addr:postal_district": "D08", "addr:street": "Phoenix Park", "amenity": "hospital", "barrier": "wall", "emergency": "no", "healthcare": "hospital", "name": "Saint Mary's Hospital", "old_name": "Royal Hibernian Military School", "wikidata": "Q93141122"}}, {"name": "Saint John of God Hospital", "latitude": 53.2853729, "longitude": -6.1911131, "source": "osm", "_tags": {"addr:housename": "Saint John of God Hospital", "addr:street": "Stillorgan Road", "amenity": "hospital", "check_date": "2024-08-30", "contact:facebook": "https://www.facebook.com/sjogmentalhealth", "contact:instagram": "https://www.instagram.com/sjogmentalhealth/", "contact:linkedin": "https://www.linkedin.com/company/saint-john-of-god-hospital/", "contact:twitter": "https://twitter.com/SJOGMHealth", "contact:vimeo": "https://vimeo.com/user11435985/videos", "contact:youtube": "https://www.youtube.com/user/sjoghospital", "fax": "01 288 1034", "healthcare": "hospital", "healthcare:speciality": "psychiatry", "name": "Saint John of God Hospital", "phone": "+353 1 2771 400", "start_date": "1882", "website": "https://stjohnofgodhospital.ie/", "wikipedia": "en:St. John of God Hospital, Stillorgan"}}, {"name": "Hillside Farm", "latitude": 53.3806261, "longitude": -6.2554747, "source": "osm", "_tags": {"amenity": "hospital", "healthcare": "hospital", "name": "Hillside Farm"}}, {"name": "Coombe Women & Infants University Hospital", "latitude": 53.3346769, "longitude": -6.2882595, "source": "osm", "_tags": {"addr:city": "Dolphin's Barn", "addr:street": "Cork Street", "amenity": "hospital", "emergency": "maternity", "healthcare": "hospital", "name": "Coombe Women & Infants University Hospital", "name:ga": "Ospidéal Ollscoile Ban & Naíonán an Chúim", "phone": "+353 1 408 5200", "website": "https://www.coombe.ie/", "wikidata": "Q5167610", "wikipedia": "en:Coombe Women & Infants University Hospital"}}, {"name": "Highfield Healthcare", "latitude": 53.3785494, "longitude": -6.2453342, "source": "osm", "_tags": {"addr:street": "Swords Road", "alt_name": "Highfield Alzheimer Care Centre Private Hospital", "amenity": "hospital", "healthcare": "hospital", "name": "Highfield Healthcare", "old_name": "Highfield Private Hospital", "operator": "Highfield Healthcare"}}, {"name": "Children's Health Ireland at Temple Street", "latitude": 53.3570939, "longitude": -6.2615305, "source": "osm", "_tags": {"HSE_code": "14", "HSE_hgid": "7", "HSE_hgroup": "Children's Health Ireland", "HSE_region": "Paediatrics", "alt_name": "Temple Street Children's University Hospital", "amenity": "hospital", "healthcare": "hospital", "name": "Children's Health Ireland at Temple Street", "operator": "Health Service Executive", "operator:short": "HSE", "operator:type": "public", "operator:wikidata": "Q5690681", "operator:wikipedia": "en:Health Service Executive", "website": "https://www.cuh.ie/", "wikidata": "Q5098234", "wikipedia": "en:Children's Health Ireland at Temple Street"}}, {"name": "Gorey District Hospital", "latitude": 52.6743637, "longitude": -6.3001241, "source": "osm", "_tags": {"amenity": "hospital", "building": "yes", "check_date": "2025-04-11", "healthcare": "hospital", "name": "Gorey District Hospital"}}, {"name": "Saint Vincent's Hospital", "latitude": 52.9984746, "longitude": -6.9951015, "source": "osm", "_tags": {"HSE_code": "7", "HSE_hgid": "2", "HSE_hgroup": "Ireland East Hospital Group", "HSE_region": "Dublin East", "amenity": "hospital", "healthcare": "hospital", "name": "Saint Vincent's Hospital", "operator": "Health Service Executive", "operator:short": "HSE", "operator:type": "government", "operator:wikidata": "Q5690681", "operator:wikipedia": "en:Health Service Executive", "wikidata": "Q85802949"}}, {"name": "Saint Vincent's Hospital", "latitude": 53.3660436, "longitude": -6.2440448, "source": "osm", "_tags": {"amenity": "hospital", "healthcare": "hospital", "name": "Saint Vincent's Hospital", "wikidata": "Q7592069", "wikipedia": "en:St. Vincent's Hospital, Fairview"}}, {"name": "Gheel Autism Services", "latitude": 53.3676609, "longitude": -6.241519, "source": "osm", "_tags": {"amenity": "hospital", "healthcare": "hospital", "name": "Gheel Autism Services", "website": "http://www.gheel.ie/services.php"}}, {"name": "Fairview Community Unit (Mater Hospital)", "latitude": 53.3677772, "longitude": -6.2432773, "source": "osm", "_tags": {"amenity": "hospital", "healthcare": "hospital", "name": "Fairview Community Unit (Mater Hospital)"}}, {"name": "St. Vincent's Private Hospital", "latitude": 53.3155696, "longitude": -6.2092659, "source": "osm", "_tags": {"amenity": "hospital", "emergency": "no", "healthcare": "hospital", "name": "St. Vincent's Private Hospital"}}, {"name": "Irish Wheelchair Association and Respite Centre", "latitude": 53.3680744, "longitude": -6.1998624, "source": "osm", "_tags": {"amenity": "hospital", "healthcare": "hospital", "name": "Irish Wheelchair Association and Respite Centre", "source": "Bing", "wheelchair": "yes"}}, {"name": "St Bricin's Military Hospital", "latitude": 53.3517887, "longitude": -6.2911231, "source": "osm", "_tags": {"amenity": "hospital", "building": "yes", "healthcare": "hospital", "name": "St Bricin's Military Hospital", "operator": "Department of Defence", "operator:type": "military"}}, {"name": "Saint Patrick’s University Hospital", "latitude": 53.3442005, "longitude": -6.2934209, "source": "osm", "_tags": {"addr:city": "Dublin", "addr:street": "Steeven's Lane", "amenity": "hospital", "emergency": "no", "healthcare": "hospital", "name": "Saint Patrick’s University Hospital", "operator": "St. Patrick's Mental Health Services", "wikidata": "Q65067671", "wikimedia_commons": "Category:St Patrick's University Hospital", "wikipedia": "en:St Patrick's University Hospital"}}, {"name": "Royal Victoria Eye and Ear Hospital", "latitude": 53.3328209, "longitude": -6.2556581, "source": "osm", "_tags": {"HSE_code": "24", "HSE_hgid": "2", "HSE_hgroup": "Ireland East Hospital Group", "HSE_region": "Dublin East", "addr:city": "Dublin", "addr:street": "Adelaide Road", "amenity": "hospital", "emergency": "Eye, Ear, Nose, Throat, Head and Neck", "fax": "+353-1-6761858", "healthcare": "hospital", "healthcare:speciality": "ophthalmology;otolaryngology", "name": "Royal Victoria Eye and Ear Hospital", "operator": "Health Service Executive", "operator:short": "HSE", "operator:type": "government", "operator:wikidata": "Q5690681", "operator:wikipedia": "en:Health Service Executive", "phone": "+353-1-6644600", "website": "https://www.rveeh.ie/", "wikidata": "Q7374967", "wikimedia_commons": "Category:Royal Victoria Eye and Ear Hospital", "wikipedia": "en:Royal Victoria Eye and Ear Hospital"}}, {"name": "Bloomfield Health Services & Quaker House", "latitude": 53.2722253, "longitude": -6.3043015, "source": "osm", "_tags": {"addr:postcode": "D16 C6T4", "addr:street": "Stocking Lane", "alt_name:en": "Bloomfield Hospital", "alt_name:ga": "Ospidéal Bloomfield", "amenity": "hospital", "email": "info@bloomfield.ie", "emergency": "no", "fax": "+353-1-4951006", "healthcare": "hospital", "name": "Bloomfield Health Services & Quaker House", "operator": "Bloomfield Care Centre CLG", "phone": "+353-1-4950021", "website": "https://www.bloomfield.ie"}}, {"name": "Naas General Hospital", "latitude": 53.2113879, "longitude": -6.6609706, "source": "osm", "_tags": {"HSE_code": "4", "HSE_hgid": "3", "HSE_hgroup": "Dublin Midlands Hospital Group", "HSE_region": "Midlands", "amenity": "hospital", "healthcare": "hospital", "name": "Naas General Hospital", "operator": "Health Service Executive", "operator:short": "HSE", "operator:type": "government", "operator:wikidata": "Q5690681", "operator:wikipedia": "en:Health Service Executive", "website": "http://www.naashospital.ie/", "wikidata": "Q6956667"}}, {"name": "The National Maternity Hospital", "latitude": 53.3401458, "longitude": -6.245786, "source": "osm", "_tags": {"addr:housename": "The National Maternity Hospital", "addr:street": "Holles Street", "amenity": "hospital", "check_date": "2024-04-18", "emergency": "yes", "healthcare": "hospital", "healthcare:speciality": "maternity", "internet_access": "wlan", "internet_access:fee": "customers", "internet_access:ssid": "NMH_Public", "loc_name": "Holles Street Hospital", "name": "The National Maternity Hospital", "operator:type": "government", "phone": "+353 1 6373 100", "website": "https://www.nmh.ie/", "wheelchair": "yes", "wikidata": "Q13156901", "wikipedia": "en:National Maternity Hospital, Dublin"}}, {"name": "Barretstown Gang Camp", "latitude": 53.1527301, "longitude": -6.5976935, "source": "osm", "_tags": {"addr:postcode": "W91 RDX6", "amenity": "hospital", "emergency": "no", "healthcare": "hospital", "name": "Barretstown Gang Camp", "operator": "The Barretstown Camp Fund Ltd.", "operator:type": "ngo", "wikipedia": "en:Barretstown"}}, {"name": "Children's Health Ireland at Crumlin", "latitude": 53.3245419, "longitude": -6.3219463, "source": "osm", "_tags": {"HSE_code": "1", "HSE_hgid": "7", "HSE_hgroup": "Children's Hospital Group", "HSE_region": "Paediatrics", "addr:city": "Dublin", "addr:postcode": "D12N512", "addr:street": "Drimnagh Road", "amenity": "hospital", "emergency": "no", "healthcare": "hospital", "healthcare:speciality": "paediatrics", "name": "Children's Health Ireland at Crumlin", "name:ga": "Sláinte Leanaí Éireann ag Croimghlinn", "old_name": "Our Lady's Children's Hospital Crumlin", "operator": "Health Service Executive", "operator:short": "HSE", "operator:type": "public", "operator:wikidata": "Q5690681", "phone": "+353-1-4096100", "website": "https://www.olchc.ie/", "wikidata": "Q7110706", "wikipedia": "en:Children's Health Ireland at Crumlin"}}, {"name": "Saint John's Community Hospital and Community Service", "latitude": 52.4956885, "longitude": -6.5758661, "source": "osm", "_tags": {"addr:city": "New Ross", "addr:housename": "Saint John's Hospital", "addr:street": "Munster Hill", "amenity": "hospital", "healthcare": "hospital", "name": "Saint John's Community Hospital and Community Service", "name:en": "Saint John's Community Hospital and Community Service", "name:ga": "Ospidéal Pobail Naomh Seán agus Seirbhís Pobail", "operator": "Health Service Executive", "operator:short": "HSE", "operator:type": "government", "operator:wikidata": "Q5690681", "operator:wikipedia": "en:Health Service Executive"}}, {"name": "Mater Private Hospital", "latitude": 53.3568602, "longitude": -6.2649614, "source": "osm", "_tags": {"addr:housename": "St. Raphael's House", "addr:housenumber": "81-84", "addr:street": "Dorset Street Upper", "amenity": "hospital", "emergency": "no", "fixme": "Create multi-polygon with main Mater Private Hospital", "healthcare": "hospital", "name": "Mater Private Hospital"}}, {"name": "Incorporated Orthopaedic Hospital of Ireland", "latitude": 53.3672912, "longitude": -6.2022513, "source": "osm", "_tags": {"addr:street": "Blackheath Park", "alt_name": "Clontarf Hospital", "alt_name:ga": "Ospidéal Cluain Tarbh", "amenity": "hospital", "email": "pa@ioh.ie", "emergency": "no", "fax": "+353-1-8333181", "healthcare": "hospital", "name": "Incorporated Orthopaedic Hospital of Ireland", "phone": "+353-1-8332521", "website": "http://www.ioh.ie"}}, {"name": "Newcastle Hospital", "latitude": 53.0802983, "longitude": -6.097742, "source": "osm", "_tags": {"addr:city": "Greystones", "addr:place": "Killadreenan", "amenity": "hospital", "contact:phone": "+353-1-2819001", "emergency": "no", "healthcare": "hospital", "healthcare:speciality": "psychiatry;psychology", "name": "Newcastle Hospital", "operator": "Health Service Executive", "operator:short": "HSE", "operator:type": "public", "operator:wikidata": "Q5690681", "ref:IE:niah": "16401901"}}, {"name": "St. Loman's Hospital", "latitude": 53.3566853, "longitude": -6.407632, "source": "osm", "_tags": {"addr:postcode": "D20 HK69", "addr:street": "Lucan Road", "amenity": "hospital", "emergency": "no", "healthcare": "hospital", "healthcare:speciality": "psychiatry", "logainm:ref": "1378558", "logainm:url": "https://www.logainm.ie/1378558.aspx", "name": "St. Loman's Hospital", "name:en": "St. Loman's Hospital", "name:ga": "Ospidéal Lomáin", "phone": "+353-1-6207400"}}, {"name": "St. Edmundsbury Hospital", "latitude": 53.3628084, "longitude": -6.4374845, "source": "osm", "_tags": {"amenity": "hospital", "healthcare": "hospital", "name": "St. Edmundsbury Hospital"}}, {"name": "Baggot St Hospital", "latitude": 53.3339786, "longitude": -6.2440757, "source": "osm", "_tags": {"amenity": "hospital", "closed": "yes", "description": "Permanently closed hospital site.", "healthcare": "hospital", "name": "Baggot St Hospital", "operational_status": "closed", "operator": "Health Service Executive", "operator:short": "HSE", "operator:type": "public", "operator:wikidata": "Q5690681"}}, {"name": "Baltinglass District Hospital", "latitude": 52.9314837, "longitude": -6.6800535, "source": "osm", "_tags": {"amenity": "hospital", "healthcare": "hospital", "name": "Baltinglass District Hospital"}}, {"name": "UPMC Kildare Hospital", "latitude": 53.2895752, "longitude": -6.7007584, "source": "osm", "_tags": {"amenity": "hospital", "healthcare": "hospital", "name": "UPMC Kildare Hospital", "type": "multipolygon", "website": "https://www.upmc.ie/upmc-kildare/"}}, {"name": "Saint Dympna's Hospital", "latitude": 52.8430556, "longitude": -6.9284226, "source": "osm", "_tags": {"addr:city": "Carlow", "addr:street": "Athy Road", "amenity": "hospital", "emergency": "no", "healthcare": "hospital", "healthcare:speciality": "psychiatry", "name": "Saint Dympna's Hospital", "name:ga": "Ospidéal Naomh Damhnait", "type": "multipolygon", "wikidata": "Q7587780"}}, {"name": "UPMC Sports Surgery Clinic", "latitude": 53.4046132, "longitude": -6.2538232, "source": "osm", "_tags": {"addr:postcode": "D09 C523", "addr:street": "Northwood Avenue", "amenity": "hospital", "building": "office", "building:levels": "4", "contact:facebook": "https://www.facebook.com/SSCSantry/", "contact:instagram": "https://www.instagram.com/sportssurgeryclinic/", "contact:linkedin": "https://www.linkedin.com/company/sports-surgery-clinic/", "contact:twitter": "https://twitter.com/SSCSantry", "contact:youtube": "https://www.youtube.com/channel/UCdAN-4GDFP7XddLKD_MgrxQ", "email": "info@sportssurgeryclinic.com", "healthcare": "clinic", "name": "UPMC Sports Surgery Clinic", "nohousenumber": "yes", "opening_hours:signed": "no", "operator": "UPMC", "phone": "+353-1-526-2000", "roof:shape": "flat", "short_name": "SSC", "source": "bing", "type": "multipolygon", "website": "https://www.sportssurgeryclinic.com/", "wikidata": "Q50037102"}}, {"name": "St. Raphael's Hospital", "latitude": 53.3373464, "longitude": -6.5452527, "source": "osm", "_tags": {"addr:city": "Celbridge", "addr:street": "Clane Road", "amenity": "hospital", "emergency": "no", "fixme": "Is this a school only?", "healthcare": "hospital", "name": "St. Raphael's Hospital", "type": "multipolygon"}}, {"name": "St Vincent's University Hospital", "latitude": 53.3168233, "longitude": -6.2127298, "source": "osm", "_tags": {"HSE_code": "7", "HSE_hgid": "2", "HSE_hgroup": "Ireland East Hospital Group", "HSE_region": "Dublin East", "addr:postcode": "D04 T6F4", "addr:street": "Merrion Road", "amenity": "hospital", "emergency": "yes", "healthcare": "hospital", "healthcare:speciality": "general;psychiatry;oncology;emergency", "name": "St Vincent's University Hospital", "name:en": "St Vincent's University Hospital", "name:ga": "Ospidéal Ollscoile Naomh Uinseann", "operator": "St. Vincent’s Healthcare Group", "phone": "+353-1-2214000", "start_date": "1834", "type": "multipolygon", "website": "https://www.stvincents.ie/", "wheelchair": "yes", "wikidata": "Q7592074", "wikipedia": "en:St. Vincent's University Hospital"}}, {"name": "St Joseph's Hospital", "latitude": 53.3828567, "longitude": -6.1817864, "source": "osm", "_tags": {"amenity": "hospital", "building": "yes", "healthcare": "hospital", "name": "St Joseph's Hospital", "type": "multipolygon", "wikidata": "Q7589185", "wikipedia": "en:St. Joseph's Hospital, Dublin"}}, {"name": "Dublin Dental University Hospital", "latitude": 53.3422523, "longitude": -6.2520441, "source": "osm", "_tags": {"addr:city": "Dublin", "addr:street": "Lincoln Place", "amenity": "hospital", "contact:facebook": "https://www.facebook.com/DDUH12/", "email": "patient@dental.tcd.ie", "emergency": "dental only", "healthcare": "hospital", "name": "Dublin Dental University Hospital", "note": "Training hospital - combined university and hospital.", "phone": "+353-1-6127391", "type": "multipolygon", "website": "https://www.dentalhospital.ie/", "wheelchair": "yes", "wikidata": "Q30280055"}}]