[{"name": "Szpital Powiatowy", "latitude": 52.5995069, "longitude": 15.8898156, "source": "osm", "_tags": {"amenity": "hospital", "email": "spzozmiedzychod@spzoz-miedzychod.com.pl", "healthcare": "hospital", "name": "Szpital Powiatowy", "official_name": "Samodzielny Publiczny Zakład Opieki Zdrowotnej w Międzychodzie", "phone": "+48 95 748 20 11", "website": "https://www.spzoz-miedzychod.com.pl/"}}, {"name": "Izba Przyjęć", "latitude": 52.8343938, "longitude": 15.8254817, "source": "osm", "_tags": {"amenity": "clinic", "check_date": "2024-06-14", "healthcare": "hospital", "name": "Izba Przyjęć"}}, {"name": "Samodzielny Publiczny Zakład Opieki Zdrowotnej w Choszcznie", "latitude": 53.165639, "longitude": 15.4123256, "source": "osm", "_tags": {"amenity": "hospital", "contact:facebook": "https://www.facebook.com/SPZOZChoszczno/", "email": "sekretariat@spzozchoszczno.pl", "emergency": "yes", "fax": "+48 95 765 24 10", "healthcare": "hospital", "name": "Samodzielny Publiczny Zakład Opieki Zdrowotnej w Choszcznie", "phone": "+48 95 765 24 38; +48 95 765 25 24", "website": "https://www.spzozchoszczno.pl"}}, {"name": "Wielospecjalistyczny Szpital Wojewódzki w Gorzowie | ZESPÓŁ SZPITALNY ul. DEKERTA", "latitude": 52.7610874, "longitude": 15.2371804, "source": "osm", "_tags": {"amenity": "hospital", "email": "sekretariat@szpital.gorzow.pl", "emergency": "yes", "healthcare": "hospital", "name": "Wielospecjalistyczny Szpital Wojewódzki w Gorzowie | ZESPÓŁ SZPITALNY ul. DEKERTA", "operator": "Samorząd Województwa Lubuskiego", "phone": "+48 95 782 77 77", "website": "http://www.szpital.gorzow.pl"}}, {"name": "Wielospecjalistyczny Szpital Wojewódzki w Gorzowie | ZESPÓŁ SZPITALNY ul. WALCZAKA", "latitude": 52.7541818, "longitude": 15.257792, "source": "osm", "_tags": {"amenity": "hospital", "email": "sekretariat@szpital.gorzow.pl", "emergency": "yes", "healthcare": "hospital", "name": "Wielospecjalistyczny Szpital Wojewódzki w Gorzowie | ZESPÓŁ SZPITALNY ul. WALCZAKA", "operator": "Samorząd Województwa Lubuskiego", "phone": "+48 95 782 77 77", "website": "http://www.szpital.gorzow.pl"}}, {"name": "Samodzielny Publiczny Szpital dla Nerwowo i Psychicznie Chorych", "latitude": 52.4488556, "longitude": 15.6189858, "source": "osm", "_tags": {"amenity": "hospital", "barrier": "fence", "fence_type": "mix", "healthcare": "hospital", "name": "Samodzielny Publiczny Szpital dla Nerwowo i Psychicznie Chorych"}}, {"name": "Szpital Międzyrzecki im. Pięciu Św. Braci Międzyrzeckich sp. z o.o.", "latitude": 52.4402785, "longitude": 15.5849015, "source": "osm", "_tags": {"amenity": "hospital", "email": "sekretariat@spzoz-miedzyrzecz.pl", "emergency": "yes", "healthcare": "hospital", "name": "Szpital Międzyrzecki im. Pięciu Św. Braci Międzyrzeckich sp. z o.o.", "operator": "Powiat Międzyrzecki", "phone": "+48 95 71 57 501", "website": "http://www.spzoz-miedzyrzecz.pl"}}, {"name": "Szpital im. dr. n. med. Radzimira Śmigielskiego", "latitude": 52.5935875, "longitude": 15.50613, "source": "osm", "_tags": {"addr:city": "Skwierzyna", "addr:city:simc": "0935699", "addr:housenumber": "5", "addr:postcode": "66-440", "addr:street": "Szpitalna", "amenity": "hospital", "barrier": "fence", "email": "sekretariat.skwierzyna@nowyszpital.pl", "emergency": "no", "healthcare": "hospital", "name": "Szpital im. dr. n. med. Radzimira Śmigielskiego", "operator": "Zachodnie Centrum Medyczne sp. z o.o.", "operator:type": "private", "phone": "+48 95 717 00 39", "website": "https://www.nowyszpital.pl/"}}, {"name": "Oddział psychiatryczny dzienny", "latitude": 52.4502619, "longitude": 15.6169895, "source": "osm", "_tags": {"addr:city": "Międzyrzecz", "addr:city:simc": "0935529", "addr:housenumber": "109/8", "addr:postcode": "66-300", "addr:street": "Poznańska", "addr:street:sym_ul": "17394", "amenity": "hospital", "building": "hospital", "healthcare": "hospital", "name": "Oddział psychiatryczny dzienny", "source:addr": "emuia.gugik.gov.pl"}}, {"name": "Zakład Opiekuńczo-Leczniczy Psychiatryczny", "latitude": 52.4500723, "longitude": 15.6208984, "source": "osm", "_tags": {"addr:city": "Międzyrzecz", "addr:city:simc": "0935529", "addr:housenumber": "109/18", "addr:postcode": "66-300", "addr:street": "Poznańska", "addr:street:sym_ul": "17394", "amenity": "hospital", "building": "hospital", "building:levels": "1", "healthcare": "hospital", "name": "Zakład Opiekuńczo-Leczniczy Psychiatryczny", "source": "www.geoportal.gov.pl", "source:addr": "emuia.gugik.gov.pl"}}, {"name": "Całodobowy Oddział Rehabilitacji Psychiatrycznej", "latitude": 52.4488377, "longitude": 15.6206965, "source": "osm", "_tags": {"addr:city": "Międzyrzecz", "addr:city:simc": "0935529", "addr:housenumber": "109/14", "addr:postcode": "66-300", "addr:street": "Poznańska", "addr:street:sym_ul": "17394", "amenity": "hospital", "building": "hospital", "healthcare": "hospital", "name": "Całodobowy Oddział Rehabilitacji Psychiatrycznej", "source:addr": "emuia.gugik.gov.pl"}}, {"name": "Centrum Terapii. Klub Chorych", "latitude": 52.4490348, "longitude": 15.6168648, "source": "osm", "_tags": {"addr:city": "Międzyrzecz", "addr:city:simc": "0935529", "addr:housenumber": "109/4", "addr:postcode": "66-300", "addr:street": "Poznańska", "addr:street:sym_ul": "17394", "amenity": "hospital", "building": "hospital", "healthcare": "hospital", "name": "Centrum Terapii. Klub Chorych", "source:addr": "emuia.gugik.gov.pl"}}, {"name": "Zakład Opiekuńczo Leczniczy Psychiatryczny nr 9", "latitude": 52.450739, "longitude": 15.6184594, "source": "osm", "_tags": {"addr:city": "Międzyrzecz", "addr:city:simc": "0935529", "addr:housenumber": "109/9", "addr:postcode": "66-300", "addr:street": "Poznańska", "addr:street:sym_ul": "17394", "amenity": "hospital", "building": "hospital", "building:levels": "3", "healthcare": "hospital", "name": "Zakład Opiekuńczo Leczniczy Psychiatryczny nr 9", "source": "www.geoportal.gov.pl", "source:addr": "emuia.gugik.gov.pl"}}, {"name": "Całodobowy Oddział Opiekuńczo Psychiatryczny - Leczniczy nr 1", "latitude": 52.4482957, "longitude": 15.6176398, "source": "osm", "_tags": {"addr:city": "Międzyrzecz", "addr:city:simc": "0935529", "addr:housenumber": "109/1", "addr:postcode": "66-300", "addr:street": "Poznańska", "addr:street:sym_ul": "17394", "amenity": "hospital", "building": "hospital", "building:levels": "2", "healthcare": "hospital", "name": "Całodobowy Oddział Opiekuńczo Psychiatryczny - Leczniczy nr 1", "source:addr": "emuia.gugik.gov.pl"}}, {"name": "Całodobowy Oddział Psychiatryczny nr 5", "latitude": 52.4495174, "longitude": 15.6177941, "source": "osm", "_tags": {"addr:city": "Międzyrzecz", "addr:city:simc": "0935529", "addr:housenumber": "109/5", "addr:postcode": "66-300", "addr:street": "Poznańska", "addr:street:sym_ul": "17394", "amenity": "hospital", "building": "hospital", "healthcare": "hospital", "name": "Całodobowy Oddział Psychiatryczny nr 5", "source:addr": "emuia.gugik.gov.pl"}}, {"name": "Całodobowy Odział Leczenia Alkoholowych Zespołów Abstynencyjnych", "latitude": 52.4487791, "longitude": 15.6198709, "source": "osm", "_tags": {"addr:city": "Międzyrzecz", "addr:city:simc": "0935529", "addr:housenumber": "109/13", "addr:postcode": "66-300", "addr:street": "Poznańska", "addr:street:sym_ul": "17394", "amenity": "hospital", "building": "hospital", "healthcare": "hospital", "name": "Całodobowy Odział Leczenia Alkoholowych Zespołów Abstynencyjnych", "source:addr": "emuia.gugik.gov.pl"}}, {"name": "Całododowy Odział Psychiatrii Sądowej o Podstawowym Zabezpieczeniu dla Dorosłych", "latitude": 52.4494059, "longitude": 15.6199528, "source": "osm", "_tags": {"addr:city": "Międzyrzecz", "addr:city:simc": "0935529", "addr:housenumber": "109/15", "addr:postcode": "66-300", "addr:street": "Poznańska", "addr:street:sym_ul": "17394", "amenity": "hospital", "building": "hospital", "healthcare": "hospital", "name": "Całododowy Odział Psychiatrii Sądowej o Podstawowym Zabezpieczeniu dla Dorosłych", "source:addr": "emuia.gugik.gov.pl"}}, {"name": "Całodobowy Oddział Psychiatryczny Ogólny", "latitude": 52.4506338, "longitude": 15.6210562, "source": "osm", "_tags": {"addr:city": "Międzyrzecz", "addr:city:simc": "0935529", "addr:housenumber": "109/20", "addr:postcode": "66-300", "addr:street": "Poznańska", "addr:street:sym_ul": "17394", "amenity": "hospital", "building": "hospital", "healthcare": "hospital", "name": "Całodobowy Oddział Psychiatryczny Ogólny", "source:addr": "emuia.gugik.gov.pl"}}, {"name": "Całodobowy Oddział Opiekuńczo-Leczniczy psychiatryczny nr 3", "latitude": 52.4488971, "longitude": 15.6177101, "source": "osm", "_tags": {"addr:city": "Międzyrzecz", "addr:city:simc": "0935529", "addr:housenumber": "109/3", "addr:postcode": "66-300", "addr:street": "Poznańska", "addr:street:sym_ul": "17394", "amenity": "hospital", "building": "hospital", "healthcare": "hospital", "name": "Całodobowy Oddział Opiekuńczo-Leczniczy psychiatryczny nr 3", "source:addr": "emuia.gugik.gov.pl"}}, {"name": "Całodobowy Oddział Leczenia Zaburzeń Nerwicowych i Osobowości nr 10", "latitude": 52.4508139, "longitude": 15.6169934, "source": "osm", "_tags": {"addr:city": "Międzyrzecz", "addr:city:simc": "0935529", "addr:housenumber": "109/10", "addr:postcode": "66-300", "addr:street": "Poznańska", "addr:street:sym_ul": "17394", "amenity": "hospital", "building": "hospital", "building:levels": "2", "healthcare": "hospital", "name": "Całodobowy Oddział Leczenia Zaburzeń Nerwicowych i Osobowości nr 10", "source": "www.geoportal.gov.pl", "source:addr": "emuia.gugik.gov.pl"}}, {"name": "Całodobowy Oddział Psychiatryczny Ogólny nr 2", "latitude": 52.4484035, "longitude": 15.6166668, "source": "osm", "_tags": {"addr:city": "Międzyrzecz", "addr:city:simc": "0935529", "addr:housenumber": "109/2", "addr:postcode": "66-300", "addr:street": "Poznańska", "addr:street:sym_ul": "17394", "amenity": "hospital", "building": "hospital", "building:levels": "2", "healthcare": "hospital", "name": "Całodobowy Oddział Psychiatryczny Ogólny nr 2", "source:addr": "emuia.gugik.gov.pl"}}, {"name": "Całodobowy Oddział Psychiatrii Sądowej o Wzmocnionym Zabezpieczeniu dla Młodzieży", "latitude": 52.450684, "longitude": 15.6196081, "source": "osm", "_tags": {"addr:city": "Międzyrzecz", "addr:city:simc": "0935529", "addr:housenumber": "109/19a", "addr:postcode": "66-300", "addr:street": "Poznańska", "amenity": "hospital", "building": "hospital", "building:levels": "4", "healthcare": "hospital", "name": "Całodobowy Oddział Psychiatrii Sądowej o Wzmocnionym Zabezpieczeniu dla Młodzieży", "source": "www.geoportal.gov.pl", "source:addr": "gugik.gov.pl"}}, {"name": "Oddział Rehabilitacji Neurologicznej", "latitude": 52.448203, "longitude": 15.6207269, "source": "osm", "_tags": {"addr:city": "Międzyrzecz", "addr:city:simc": "0935529", "addr:housenumber": "109/12", "addr:postcode": "66-300", "addr:street": "Poznańska", "addr:street:sym_ul": "17394", "building": "hospital", "healthcare": "hospital", "name": "Oddział Rehabilitacji Neurologicznej", "source:addr": "emuia.gugik.gov.pl"}}, {"name": "Całodobowy Oddział Terapii Uzależnień od Alkoholu", "latitude": 52.4494792, "longitude": 15.6207588, "source": "osm", "_tags": {"addr:city": "Międzyrzecz", "addr:city:simc": "0935529", "addr:housenumber": "109/16", "addr:postcode": "66-300", "addr:street": "Poznańska", "addr:street:sym_ul": "17394", "amenity": "hospital", "building": "hospital", "healthcare": "hospital", "name": "Całodobowy Oddział Terapii Uzależnień od Alkoholu", "source:addr": "emuia.gugik.gov.pl"}}, {"name": "Szpital Powiatowy im. dr Henryka Jordana SPZOZ w Sulęcinie", "latitude": 52.4374969, "longitude": 15.1152548, "source": "osm", "_tags": {"addr:city": "Sulęcin", "addr:housenumber": "4", "addr:postcode": "69-200", "addr:street": "Wincentego Witosa", "amenity": "hospital", "email": "zozsul@kam.pl", "emergency": "yes", "healthcare": "hospital", "name": "Szpital Powiatowy im. dr Henryka Jordana SPZOZ w Sulęcinie", "phone": "95 755 24 31", "website": "https://www.szpital-sulecin.pl/"}}, {"name": "Szpital Barlinek", "latitude": 52.9981882, "longitude": 15.2242573, "source": "osm", "_tags": {"amenity": "hospital", "contact:facebook": "https://www.facebook.com/Szpital-Barlinek-320340374992922/", "email": "sekretariat@szpitalbarlinek.pl; rejestracja@szpitalbarlinek.pl", "emergency": "no", "fax": "+48 95 746 25 02", "healthcare": "hospital", "name": "Szpital Barlinek", "operator": "Szpital Barlinek sp. z o.o.", "phone": "+48 95 746 18 10; +48 95 746 29 63", "website": "http://szpitalbarlinek.pl"}}, {"name": "Szpital Powiatowy", "latitude": 52.8341661, "longitude": 15.8256863, "source": "osm", "_tags": {"alt_name": "Powiatowe Centrum Zdrowia", "amenity": "hospital", "email": "sekretariat@szpital-drezdenko.pl", "healthcare": "hospital", "name": "Szpital Powiatowy", "phone": "+48 95 762 05 10", "website": "http://www.szpital-drezdenko.pl"}}, {"name": "Samodzielny Publiczny Wielospecjalistyczny Zakład Opieki Zdrowotnej w Stargardzie", "latitude": 53.3434105, "longitude": 15.0376859, "source": "osm", "_tags": {"amenity": "hospital", "email": "biuro@zozstargard.pl", "emergency": "yes", "healthcare": "hospital", "name": "Samodzielny Publiczny Wielospecjalistyczny Zakład Opieki Zdrowotnej w Stargardzie", "phone": "+48 91 577 63 55", "website": "https://zozstargard.pl/"}}, {"name": "Administracja szpitala", "latitude": 52.4475568, "longitude": 15.6183784, "source": "osm", "_tags": {"addr:city": "Międzyrzecz", "addr:housename": "Dyrekcja, Administracja", "addr:housenumber": "109/40b", "addr:postcode": "66-300", "addr:street": "Poznańska", "amenity": "archive", "building": "hospital", "building:levels": "2", "healthcare": "hospital", "name": "Administracja szpitala", "website": "https://obrzyce.eu/"}}, {"name": "", "latitude": 52.7402079, "longitude": 15.2432799, "source": "osm", "_tags": {"amenity": "hospital", "healthcare": "hospital"}}, {"name": "Oddział Odwykowy o Wzmocnionym Zabezpieczeniu dla Młodzieży", "latitude": 52.4510426, "longitude": 15.619955, "source": "osm", "_tags": {"addr:city": "Międzyrzecz", "addr:city:simc": "0935529", "addr:housenumber": "109/19C", "addr:postcode": "66-300", "addr:street": "Poznańska", "amenity": "hospital", "building": "hospital", "healthcare": "hospital", "name": "Oddział Odwykowy o Wzmocnionym Zabezpieczeniu dla Młodzieży", "source:addr": "gugik.gov.pl"}}, {"name": "", "latitude": 52.7261582, "longitude": 15.2046201, "source": "osm", "_tags": {"amenity": "hospital", "healthcare": "hospital"}}]