[{"name": "Queen Elizabeth Hospital", "latitude": 52.7568344, "longitude": 0.4466682, "source": "osm", "_tags": {"amenity": "hospital", "healthcare": "hospital", "name": "Queen Elizabeth Hospital", "wheelchair": "yes", "wikidata": "Q7270339"}}, {"name": "County Hospital Louth", "latitude": 53.3713673, "longitude": -0.0091146, "source": "osm", "_tags": {"addr:city": "Louth", "addr:country": "GB", "addr:postcode": "LN11 0EU", "addr:street": "High Holme Road", "amenity": "hospital", "fhrs:authority": "East Lindsey", "fhrs:id": "156424", "fhrs:local_authority_id": "EHFDI/03177/10", "image": "https://archive.org/details/louth-2021-10/2021-10-10_15-48-00_20211010_16_35_12.jpg", "name": "County Hospital Louth", "operator": "United Lincolnshire Hospitals NHS Trust", "source": "Bing;survey", "urgent_treatment_centre": "yes"}}, {"name": "Skegness Hospital", "latitude": 53.145325, "longitude": 0.3321933, "source": "osm", "_tags": {"amenity": "hospital", "building": "hospital", "healthcare": "hospital", "name": "Skegness Hospital", "ref:GB:cqc_location": "RY539", "source": "Bing"}}, {"name": "Pilgrim Hospital", "latitude": 52.9915881, "longitude": -0.010012, "source": "osm", "_tags": {"amenity": "hospital", "emergency": "yes", "healthcare": "hospital", "name": "Pilgrim Hospital", "source": "Bing maps, survey, local knowledge, aerial imagery", "wikidata": "Q7193936"}}, {"name": "North Cambridgeshire Hospital", "latitude": 52.6653342, "longitude": 0.1643126, "source": "osm", "_tags": {"amenity": "hospital", "emergency": "no", "healthcare": "hospital", "name": "North Cambridgeshire Hospital", "ref:GB:cqc_location": "RYV02", "ref:GB:nhs_ods": "RYV02"}}, {"name": "Swaffham Community Hospital", "latitude": 52.6508802, "longitude": 0.6904153, "source": "osm", "_tags": {"addr:city": "Swaffham", "addr:country": "GB", "addr:postcode": "PE37 7HL", "addr:street": "Sporle Road", "amenity": "hospital", "fhrs:id": "831945;1451320", "healthcare": "hospital", "name": "Swaffham Community Hospital", "ref:GB:cqc_location": "RY33E"}}, {"name": "Doddington Community Hospital", "latitude": 52.4995303, "longitude": 0.0552064, "source": "osm", "_tags": {"addr:city": "March", "addr:country": "GB", "addr:postcode": "PE15 0UG", "addr:street": "Benwick Road", "addr:suburb": "Doddington", "amenity": "hospital", "fhrs:id": "774436", "healthcare": "hospital", "name": "Doddington Community Hospital"}}, {"name": "Cambian Meeko House & Home Tree School", "latitude": 52.6153757, "longitude": 0.1451183, "source": "osm", "_tags": {"addr:city": "Wisbech", "addr:country": "GB", "addr:housename": "Meeko House", "addr:housenumber": "172", "addr:place": "Friday Bridge", "addr:postcode": "PE14 0LP", "addr:street": "March Road", "amenity": "hospital", "healthcare": "hospital", "healthcare:speciality": "psychiatry;paediatrics", "name": "Cambian Meeko House & Home Tree School", "operator": "Cambian", "phone": "+44 8001 381184", "ref:edubase": "141879", "website": "https://www.cambiangroup.com/"}}, {"name": "", "latitude": 52.6938221, "longitude": 0.1060472, "source": "osm", "_tags": {"amenity": "hospital", "emergency": "no", "healthcare": "hospital", "healthcare:speciality": "psychiatry;paediatrics"}}, {"name": "Riverside Practice", "latitude": 52.5510252, "longitude": 0.0830383, "source": "osm", "_tags": {"amenity": "hospital", "building": "hospital", "healthcare": "hospital", "name": "Riverside Practice"}}]