[{"name": "Kujawsko-Pomorskie Centrum Pulmonologii Oddział Smukała", "latitude": 53.1855762, "longitude": 17.9491743, "source": "osm", "_tags": {"addr:city": "Bydgoszcz", "addr:housenumber": "9", "addr:postcode": "85-472", "addr:street": "Doktora Stanisława Meysnera", "amenity": "hospital", "healthcare": "hospital", "name": "Kujawsko-Pomorskie Centrum Pulmonologii Oddział Smukała", "operator": "Kujawsko-Pomorskie Centrum Pulmonologii Oddział Smukała", "operator:type": "public"}}, {"name": "Szpital Powiatowy Sp. z o.o.", "latitude": 53.1872391, "longitude": 18.6105486, "source": "osm", "_tags": {"amenity": "hospital", "name": "Szpital Powiatowy Sp. z o.o."}}, {"name": "Szpitalny Oddział Ratunkowy", "latitude": 53.114853, "longitude": 18.0264221, "source": "osm", "_tags": {"amenity": "clinic", "healthcare": "hospital", "name": "Szpitalny Oddział Ratunkowy"}}, {"name": "Szpital Św. Łukasza", "latitude": 53.1034973, "longitude": 18.050912, "source": "osm", "_tags": {"addr:city": "Bydgoszcz", "amenity": "hospital", "healthcare": "hospital", "name": "Szpital Św. Łukasza"}}, {"name": "Stomatologia PERIO-DENS", "latitude": 53.1150818, "longitude": 18.0193545, "source": "osm", "_tags": {"addr:city": "Bydgoszcz", "addr:housenumber": "14A", "addr:postcode": "85-163", "addr:street": "Słowiańska", "amenity": "dentist", "description": "PERIO-DENS to specjalistyczny gabinet stomatologiczny w Bydgoszczy. Nasza praktyka skupia się głównie wokół chorób przyzębia i błon śluzowych. Ponadto zajmujemy się makro i mikrochirurgią, leczeniem zachowawczym, implantologią, endodoncją, protetyką. Staw", "healthcare": "hospital", "healthcare:speciality": "periodontologia;chirurgia_stomatologiczna;implantologia;endodoncja;protetyka;profilaktyka;stomatologia_zachowawcza", "internet_access": "wlan", "name": "Stomatologia PERIO-DENS", "phone": "+48 607070602", "website": "https://www.perio-dens.pl"}}, {"name": "DR Jaczun", "latitude": 53.0289154, "longitude": 18.6064298, "source": "osm", "_tags": {"amenity": "hospital", "healthcare": "hospital", "name": "DR Jaczun"}}, {"name": "Zespół Szpitalno - Sanatoryjny \"Zachęta\" B", "latitude": 52.8796323, "longitude": 18.7957461, "source": "osm", "_tags": {"addr:city": "Ciechocinek", "addr:housenumber": "14", "addr:postcode": "87-720", "addr:street": "Tadeusza Kościuszki", "amenity": "hospital", "emergency": "no", "healthcare": "hospital", "heritage": "2", "heritage:operator": "nid", "heritage:since": "23.11.1964", "historic": "building", "name": "Zespół Szpitalno - Sanatoryjny \"Zachęta\" B", "note": "Łazienki - pawilon nr 1 (Komitetowe)", "ref:nid": "A/1463"}}, {"name": "", "latitude": 53.0113678, "longitude": 18.5947887, "source": "osm", "_tags": {"addr:city": "Toruń", "addr:housenumber": "7", "addr:postcode": "87-100", "addr:street": "Adama Mickiewicza", "amenity": "hospital", "building": "apartments", "healthcare": "hospital", "source:addr": "EMUiA (emuia.gugik.gov.pl)"}}, {"name": "Szpital Wielospecjalistyczny im. dr Ludwika Błażka", "latitude": 52.7804073, "longitude": 18.2653956, "source": "osm", "_tags": {"amenity": "hospital", "healthcare": "hospital", "name": "Szpital Wielospecjalistyczny im. dr Ludwika Błażka", "website": "https://www.szpitalino.pl/"}}, {"name": "Szpital Uniwersytecki nr 2 im. dr Jana Biziela", "latitude": 53.1152919, "longitude": 18.0276123, "source": "osm", "_tags": {"addr:city": "Bydgoszcz", "addr:country": "PL", "addr:housenumber": "75", "addr:postcode": "85-168", "addr:street": "Kornela Ujejskiego", "amenity": "hospital", "healthcare": "hospital", "name": "Szpital Uniwersytecki nr 2 im. dr Jana Biziela", "website": "http://www.biziel.pl/", "wikidata": "Q24946187", "wikipedia": "pl:Szpital Uniwersytecki nr 2 im. Jana Biziela w Bydgoszczy"}}, {"name": "Szpital Uniwersytecki nr 1 im. dr. A. Jurasza", "latitude": 53.1276566, "longitude": 18.0328488, "source": "osm", "_tags": {"addr:city": "Bydgoszcz", "addr:housenumber": "9", "addr:postcode": "85-094", "addr:street": "Marii Skłodowskiej-Curie", "amenity": "hospital", "healthcare": "hospital", "name": "Szpital Uniwersytecki nr 1 im. dr. A. Jurasza", "website": "http://jurasza.pl/", "wikidata": "Q24946175", "wikipedia": "pl:Szpital Uniwersytecki nr 1 im. Antoniego Jurasza w Bydgoszczy"}}, {"name": "10 Wojskowy Szpital Kliniczny z Polikliniką", "latitude": 53.1418348, "longitude": 18.0143615, "source": "osm", "_tags": {"addr:city": "Bydgoszcz", "addr:country": "PL", "addr:housenumber": "5", "addr:postcode": "85-681", "addr:street": "Powstańców Warszawy", "alt_name": "Szpital Wojskowy", "amenity": "hospital", "email": "szpital@10wsk.mil.pl", "healthcare": "hospital", "name": "10 Wojskowy Szpital Kliniczny z Polikliniką", "website": "https://www.10wsk.mil.pl/", "wheelchair": "yes"}}, {"name": "Gminna Przychodnia SZOZ", "latitude": 53.177114, "longitude": 18.2998789, "source": "osm", "_tags": {"addr:city": "Dąbrowa Chełmińska", "addr:city:simc": "0084132", "addr:housenumber": "38", "addr:postcode": "86-070", "addr:street": "Bydgoska", "addr:street:sym_ul": "02498", "amenity": "doctors", "building": "yes", "healthcare": "hospital", "name": "Gminna Przychodnia SZOZ", "source:addr": "dabrowachelminska.e-mapa.net"}}, {"name": "Zespół Szpitalno - Sanatoryjny \"Zachęta\"", "latitude": 52.8789322, "longitude": 18.7974708, "source": "osm", "_tags": {"addr:city": "Ciechocinek", "addr:housenumber": "20", "addr:postcode": "87-720", "addr:street": "Tadeusza Kościuszki", "amenity": "hospital", "building": "hospital", "emergency": "no", "healthcare": "hospital", "name": "Zespół Szpitalno - Sanatoryjny \"Zachęta\"", "source:geometry": "mapa.aleksandrow.pl: Mapa Ewidencyjna"}}, {"name": "Nowy Szpital w Świeciu", "latitude": 53.4133829, "longitude": 18.4671505, "source": "osm", "_tags": {"amenity": "hospital", "healthcare": "hospital", "name": "Nowy Szpital w Świeciu"}}, {"name": "Wojewódzki Szpital Dziecięcy im. J. Brudzińskiego w Bydgoszczy", "latitude": 53.1306797, "longitude": 18.0264362, "source": "osm", "_tags": {"amenity": "hospital", "emergency": "yes", "healthcare": "hospital", "name": "Wojewódzki Szpital Dziecięcy im. J. Brudzińskiego w Bydgoszczy"}}, {"name": "Szpital Kliniczny im. E. Warmińskiego Politechniki Bydgoskiej", "latitude": 53.1018548, "longitude": 18.0474452, "source": "osm", "_tags": {"addr:city": "Bydgoszcz", "addr:housenumber": "19", "addr:postcode": "85-826", "addr:street": "Szpitalna", "amenity": "hospital", "barrier": "fence", "healthcare": "hospital", "name": "Szpital Kliniczny im. E. Warmińskiego Politechniki Bydgoskiej", "website": "http://www.szpital.bydgoszcz.pl"}}, {"name": "Kujawsko-Pomorskie Centrum Pulmonologii w Bydgoszczy", "latitude": 53.121223, "longitude": 17.983246, "source": "osm", "_tags": {"addr:city": "Bydgoszcz", "addr:housenumber": "1", "addr:postcode": "85-326", "addr:street": "Seminaryjna", "amenity": "hospital", "barrier": "fence", "emergency": "no", "healthcare": "hospital", "name": "Kujawsko-Pomorskie Centrum Pulmonologii w Bydgoszczy", "start_date": "1885", "website": "http://www.szpital-pluc.bydgoszcz.pl", "wikidata": "Q11750812", "wikipedia": "pl:Kujawsko-Pomorskie Centrum Pulmonologii w Bydgoszczy"}}, {"name": "Wojewódzki Szpital Obserwacyjno-Zakaźny", "latitude": 53.121984, "longitude": 18.0091087, "source": "osm", "_tags": {"addr:city": "Bydgoszcz", "addr:housenumber": "12", "addr:postcode": "85-030", "addr:street": "Świętego Floriana", "amenity": "hospital", "barrier": "fence", "healthcare": "hospital", "name": "Wojewódzki Szpital Obserwacyjno-Zakaźny"}}, {"name": "Dom Sue Ryder", "latitude": 53.1452911, "longitude": 18.1116282, "source": "osm", "_tags": {"addr:city": "Bydgoszcz", "amenity": "hospital", "barrier": "fence", "name": "Dom Sue Ryder", "website": "http://domsueryder.org.pl", "wikidata": "Q24946307", "wikipedia": "pl:Dom Sue Ryder w Bydgoszczy"}}, {"name": "Centrum Onkologii", "latitude": 53.1471673, "longitude": 18.1129967, "source": "osm", "_tags": {"amenity": "hospital", "healthcare": "hospital", "name": "Centrum Onkologii"}}, {"name": "Wielospecjalistyczny Zakład Opieki Zdrowotnej Ministerstwa Spraw Wewnętrznych w Bydgoszczy", "latitude": 53.1261295, "longitude": 18.0110862, "source": "osm", "_tags": {"addr:city": "Bydgoszcz", "addr:housenumber": "4-6", "addr:postcode": "85-015", "addr:street": "Księdza Ryszarda Markwarta", "amenity": "hospital", "barrier": "fence", "healthcare": "hospital", "name": "Wielospecjalistyczny Zakład Opieki Zdrowotnej Ministerstwa Spraw Wewnętrznych w Bydgoszczy", "website": "http://www.szpital-msw.bydgoszcz.pl", "wikidata": "Q24946210", "wikipedia": "pl:Szpital MSWiA w Bydgoszczy"}}, {"name": "Specjalistyczny Szpital Miejski im. M. Kopernika", "latitude": 53.0227417, "longitude": 18.6214047, "source": "osm", "_tags": {"addr:city": "Toruń", "addr:housenumber": "17/19", "addr:postcode": "87-100", "addr:street": "Stefana Batorego", "amenity": "hospital", "emergency": "yes", "healthcare": "hospital", "name": "Specjalistyczny Szpital Miejski im. M. Kopernika", "name:de": "Städtisches Fachkrankenhaus Nikolaus Kopernikus", "wikidata": "Q9340160", "wikipedia": "pl:Specjalistyczny Szpital Miejski w Toruniu"}}, {"name": "Wojewódzka Przychodnia Zdrowia Psychicznego w Bydgoszczy", "latitude": 53.1410576, "longitude": 18.0312657, "source": "osm", "_tags": {"addr:city": "Bydgoszcz", "addr:housenumber": "58A", "addr:street": "Józefa Sułkowskiego", "amenity": "hospital", "barrier": "fence", "healthcare": "hospital", "name": "Wojewódzka Przychodnia Zdrowia Psychicznego w Bydgoszczy", "website": "http://www.wpzp.bydgoszcz.pl"}}, {"name": "Centrum Medyczne Gizińscy", "latitude": 53.1376422, "longitude": 18.0188598, "source": "osm", "_tags": {"amenity": "hospital", "barrier": "fence", "healthcare": "hospital", "name": "Centrum Medyczne Gizińscy"}}, {"name": "Szpital ESKULAP", "latitude": 53.1775793, "longitude": 18.0627331, "source": "osm", "_tags": {"addr:city": "Osielsko", "addr:housenumber": "2", "addr:postcode": "86-031", "addr:street": "Koperkowa", "amenity": "hospital", "barrier": "fence", "fence_type": "chain_link", "healthcare": "hospital", "height": "1.5", "name": "Szpital ESKULAP", "opening_hours": "Mo-Fr 08:00-18:00", "phone": "+48523265800", "website": "https://www.szpitaleskulap.pl/"}}, {"name": "Zespół Opieki Zdrowotnej w Chełmnie, Szpital Rejonowy im. L. Rydygiera", "latitude": 53.3447367, "longitude": 18.4210516, "source": "osm", "_tags": {"addr:city": "Chełmno", "addr:housenumber": "1", "addr:postcode": "86-200", "addr:street": "Ludwika Rydygiera", "amenity": "hospital", "healthcare": "hospital", "name": "Zespół Opieki Zdrowotnej w Chełmnie, Szpital Rejonowy im. L. Rydygiera", "phone": "+48 56 677 26 07", "website": "http://zoz.chelmno.pl/", "wheelchair": "yes"}}, {"name": "", "latitude": 53.4117845, "longitude": 18.4608403, "source": "osm", "_tags": {"amenity": "clinic", "healthcare": "hospital"}}, {"name": "Wojewódzki Szpital dla Nerwowo i Psychicznie Chorych", "latitude": 53.4075673, "longitude": 18.4560656, "source": "osm", "_tags": {"addr:city": "Świecie", "addr:city:simc": "0929664", "addr:housenumber": "18", "addr:postcode": "86-100", "addr:street": "Sądowa", "amenity": "hospital", "healthcare": "hospital", "name": "Wojewódzki Szpital dla Nerwowo i Psychicznie Chorych", "phone": "+48523311031", "source": "http://ump.waw.pl/ retrieved 11:19:07 11/17/09 (UMP-Torun/src/POI-BYDGOSZCZ.punkty.pnt-converted.txt)"}}, {"name": "Bydgoskie Centrum Diabetologii i Endokrynologii", "latitude": 53.1058268, "longitude": 18.0596878, "source": "osm", "_tags": {"amenity": "clinic", "barrier": "fence", "healthcare": "hospital", "name": "Bydgoskie Centrum Diabetologii i Endokrynologii"}}, {"name": "Wojewódzki Szpital Zespolony im. L. Rydygiera", "latitude": 53.0278062, "longitude": 18.5817179, "source": "osm", "_tags": {"addr:city": "Toruń", "addr:housenumber": "53-59", "addr:postcode": "87-100", "addr:street": "Świętego Józefa", "amenity": "hospital", "emergency": "yes", "healthcare": "hospital", "name": "Wojewódzki Szpital Zespolony im. L. Rydygiera", "name:de": "L. Rydgier - Woiwodschafts-Universalkrankenhaus", "website": "https://www.wszz.torun.pl/", "wikidata": "Q24946412", "wikipedia": "pl:Wojewódzki Szpital Zespolony im. L. Rydygiera w Toruniu"}}, {"name": "", "latitude": 53.0406733, "longitude": 18.5853446, "source": "osm", "_tags": {"amenity": "hospital", "barrier": "fence", "healthcare": "hospital"}}, {"name": "", "latitude": 53.0285349, "longitude": 18.6383573, "source": "osm", "_tags": {"amenity": "hospital", "healthcare": "hospital"}}, {"name": "Zakład Opiekuńczo-Leczniczy", "latitude": 52.6269461, "longitude": 18.1739367, "source": "osm", "_tags": {"addr:city": "Strzelno", "addr:city:simc": "0929598", "addr:housenumber": "8", "addr:postcode": "88-320", "addr:street": "Powstania Wielkopolskiego", "addr:street:sym_ul": "17345", "amenity": "hospital", "building": "yes", "healthcare": "hospital", "name": "Zakład Opiekuńczo-Leczniczy"}}, {"name": "Szpital w Radziejowie", "latitude": 52.6188052, "longitude": 18.5171268, "source": "osm", "_tags": {"amenity": "hospital", "healthcare": "hospital", "name": "Szpital w Radziejowie"}}, {"name": "Wojewódzki Ośrodek Terapii Uzależnień i Współuzależnienia", "latitude": 52.9823626, "longitude": 18.6870105, "source": "osm", "_tags": {"amenity": "hospital", "healthcare": "hospital", "name": "Wojewódzki Ośrodek Terapii Uzależnień i Współuzależnienia", "name:de": "Woiwodschaftszentrum für Abhängigkeits- und Co-Abhängigkeitsbehandlung", "website": "http://www.wotuiw.torun.pl/"}}, {"name": "Wojewódzki Szpital Zespolony – Szpital Psychiatryczny", "latitude": 53.0122174, "longitude": 18.5917184, "source": "osm", "_tags": {"addr:city": "Toruń", "addr:housenumber": "24/26", "addr:postcode": "87-100", "addr:street": "Adama Mickiewicza", "amenity": "hospital", "healthcare": "hospital", "healthcare:speciality": "psychiatry", "name": "Wojewódzki Szpital Zespolony – Szpital Psychiatryczny", "phone": "+48 56 67 95 844", "website": "https://www.wszz.torun.pl/", "wikidata": "Q24946433", "wikipedia": "pl:Wojewódzki Szpital Zespolony – Szpital Psychiatryczny w Toruniu"}}, {"name": "", "latitude": 53.1036023, "longitude": 18.0508461, "source": "osm", "_tags": {"amenity": "hospital", "barrier": "fence", "healthcare": "hospital"}}, {"name": "Wojewódzki Szpital Zespolony im. Ludwika Rydygiera - Szpital Dziecięcy w Toruniu", "latitude": 53.0221184, "longitude": 18.6926639, "source": "osm", "_tags": {"amenity": "hospital", "email": "sekretariat@wszz.torun.pl", "healthcare": "hospital", "name": "Wojewódzki Szpital Zespolony im. Ludwika Rydygiera - Szpital Dziecięcy w Toruniu", "phone": "56 679 31 00", "website": "https://www.wszz.torun.pl", "wikidata": "Q9377123", "wikipedia": "pl:Wojewódzki Szpital Zespolony – Szpital Specjalistyczny dla Dzieci i Dorosłych w Toruniu"}}, {"name": "Szpital Powiatowy w Aleksandrowie Kujawskim", "latitude": 52.8737692, "longitude": 18.6976571, "source": "osm", "_tags": {"amenity": "hospital", "healthcare": "hospital", "name": "Szpital Powiatowy w Aleksandrowie Kujawskim"}}, {"name": "Szpital Uzdrowiskowy nr 3 im. dr. Markiewicza", "latitude": 52.8846884, "longitude": 18.7898662, "source": "osm", "_tags": {"amenity": "hospital", "healthcare": "hospital", "name": "Szpital Uzdrowiskowy nr 3 im. dr. Markiewicza"}}, {"name": "22 Wojskowy Szpital Uzrowiskowo-Rehabilitacyjny", "latitude": 52.8782023, "longitude": 18.8056325, "source": "osm", "_tags": {"amenity": "hospital", "healthcare": "hospital", "name": "22 Wojskowy Szpital Uzrowiskowo-Rehabilitacyjny"}}, {"name": "Szpital Uzdrowiskowy nr 4 \"Dom Zdrojowy\"", "latitude": 52.8759363, "longitude": 18.8000743, "source": "osm", "_tags": {"addr:city": "Ciechocinek", "addr:housenumber": "3", "addr:postcode": "87-720", "addr:street": "Leśna", "amenity": "hospital", "emergency": "yes", "healthcare": "hospital", "name": "Szpital Uzdrowiskowy nr 4 \"Dom Zdrojowy\"", "phone": "+48 54 283 6078", "website": "http://uzdrowisko-ciechocinek.pl/art/37/dom-zdrojowy.html"}}, {"name": "Kolejowy Szpital Uzdrowiskowy", "latitude": 52.8778047, "longitude": 18.7897342, "source": "osm", "_tags": {"amenity": "hospital", "healthcare": "hospital", "name": "Kolejowy Szpital Uzdrowiskowy"}}, {"name": "Szpital Uzdrowiskowo-Rehabilitacyjny Polex", "latitude": 52.8764035, "longitude": 18.7943364, "source": "osm", "_tags": {"amenity": "hospital", "healthcare": "hospital", "name": "Szpital Uzdrowiskowo-Rehabilitacyjny Polex", "website": "https://www.sanatoriumpolex.pl/"}}, {"name": "Szpital Uzdrowiskowy nr 1", "latitude": 52.8776421, "longitude": 18.7951298, "source": "osm", "_tags": {"addr:city": "Ciechocinek", "addr:housenumber": "3", "addr:postcode": "87-720", "addr:street": "Braci Raczyńskich", "amenity": "hospital", "healthcare": "hospital", "name": "Szpital Uzdrowiskowy nr 1", "phone": "+48 54 283 60 73", "resort": "sanatorium", "source:building": "BDOT", "website": "http://www.uzdrowisko-ciechocinek.pl/art/38/szpital-uzdrowiskowy-nr-1.html"}}, {"name": "Samodzielny Publiczny Zakład Opieki Zdrowotnej - Szpital Powiatowy", "latitude": 52.6580551, "longitude": 17.9491755, "source": "osm", "_tags": {"amenity": "hospital", "email": "sekretariat@mpcz.pl", "healthcare": "hospital", "name": "Samodzielny Publiczny Zakład Opieki Zdrowotnej - Szpital Powiatowy", "phone": "525 066 727", "website": "https://spzoz-mogilno.pl/"}}, {"name": "Wielospecjalistyczny Ośrodek Zdrowia \"Gryf-Med\"", "latitude": 53.1019934, "longitude": 18.0598962, "source": "osm", "_tags": {"amenity": "hospital", "healthcare": "hospital", "name": "Wielospecjalistyczny Ośrodek Zdrowia \"Gryf-Med\""}}, {"name": "Kujawsko-Pomorskie Centrum Pulmonologii Oddział Smukała", "latitude": 53.1852487, "longitude": 17.94845, "source": "osm", "_tags": {"amenity": "hospital", "barrier": "fence", "healthcare": "hospital", "name": "Kujawsko-Pomorskie Centrum Pulmonologii Oddział Smukała"}}, {"name": "Revital Medic", "latitude": 53.0237516, "longitude": 18.609052, "source": "osm", "_tags": {"amenity": "hospital", "healthcare": "hospital", "name": "Revital Medic"}}, {"name": "Przychodnia Rodzinna na Sadowej", "latitude": 53.0514891, "longitude": 18.5722937, "source": "osm", "_tags": {"amenity": "hospital", "healthcare": "hospital", "name": "Przychodnia Rodzinna na Sadowej"}}, {"name": "Ośrodek Terapii Odwykowej Uzależnień", "latitude": 53.037802, "longitude": 18.6046663, "source": "osm", "_tags": {"amenity": "hospital", "healthcare": "hospital", "name": "Ośrodek Terapii Odwykowej Uzależnień"}}, {"name": "", "latitude": 53.046932, "longitude": 18.5776834, "source": "osm", "_tags": {"amenity": "hospital", "healthcare": "hospital"}}, {"name": "", "latitude": 53.0198867, "longitude": 18.6010098, "source": "osm", "_tags": {"amenity": "hospital", "healthcare": "hospital"}}, {"name": "Wojewódzki Szpital Zespolony", "latitude": 53.0203492, "longitude": 18.6097832, "source": "osm", "_tags": {"addr:city": "Toruń", "addr:housenumber": "47", "addr:postcode": "87-100", "addr:street": "Grudziądzka", "amenity": "hospital", "emergency": "yes", "healthcare": "hospital", "name": "Wojewódzki Szpital Zespolony"}}, {"name": "Centrum Medyczne Bieńkowski - Klinika Chirurgii Plastycznej", "latitude": 53.1214364, "longitude": 18.0479313, "source": "osm", "_tags": {"amenity": "hospital", "barrier": "fence", "healthcare": "hospital", "name": "Centrum Medyczne Bieńkowski - Klinika Chirurgii Plastycznej"}}, {"name": "Kolejowy Szpital Uzdrowiskowy", "latitude": 52.8807742, "longitude": 18.6897507, "source": "osm", "_tags": {"amenity": "hospital", "name": "Kolejowy Szpital Uzdrowiskowy"}}, {"name": "", "latitude": 52.9795412, "longitude": 18.5702828, "source": "osm", "_tags": {"amenity": "hospital", "healthcare": "hospital"}}, {"name": "", "latitude": 53.0326029, "longitude": 18.5918887, "source": "osm", "_tags": {"amenity": "hospital", "healthcare": "hospital"}}, {"name": "", "latitude": 52.6264305, "longitude": 18.1735712, "source": "osm", "_tags": {"amenity": "hospital", "healthcare": "hospital"}}, {"name": "", "latitude": 53.0623532, "longitude": 18.7272482, "source": "osm", "_tags": {"amenity": "hospital", "healthcare": "hospital"}}, {"name": "", "latitude": 52.9968708, "longitude": 18.510545, "source": "osm", "_tags": {"amenity": "hospital", "healthcare": "hospital"}}]