[{"name": "Mazowiecki Szpital Onkologiczny", "latitude": 52.4384956, "longitude": 20.9625364, "source": "osm", "_tags": {"addr:city": "Wieliszew", "addr:housenumber": "61", "addr:postcode": "05-135", "addr:street": "Kościelna", "amenity": "hospital", "name": "Mazowiecki Szpital Onkologiczny", "source:addr": "UG Wieliszew", "wikidata": "Q11771985", "wikipedia": "pl:Mazowiecki Szpital Onkologiczny w Wieliszewie"}}, {"name": "Szpital Powiatowy w Pułtusku Sp. z o.o.", "latitude": 52.6940434, "longitude": 21.1147151, "source": "osm", "_tags": {"amenity": "hospital", "name": "Szpital Powiatowy w Pułtusku Sp. z o.o."}}, {"name": "Szpital Powiatowy w Wyszkowie", "latitude": 52.5863733, "longitude": 21.4436752, "source": "osm", "_tags": {"addr:city": "Wyszków", "addr:city:simc": "0966470", "addr:postcode": "07-200", "addr:street": "Komisji Edukacji Narodowej", "addr:street:sym_ul": "09066", "amenity": "hospital", "email": "kancelaria@szpitalwyszkow.pl", "name": "Szpital Powiatowy w Wyszkowie", "name:en": "Wyszkow Regional Hospital", "official_name": "Samodzielny Publiczny Zespół Zakładów Opieki Zdrowotnej w Wyszkowie", "opening_hours": "24/7", "phone": "+48 29 743 76 00", "short_name": "SPZZOZ Wyszków", "source:addr": "wyszkow.e-mapa.net", "website": "https://www.szpitalwyszkow.pl/"}}, {"name": "Szpital miejski", "latitude": 52.8613365, "longitude": 21.0871469, "source": "osm", "_tags": {"amenity": "hospital", "healthcare": "hospital", "name": "Szpital miejski"}}, {"name": "", "latitude": 53.411474, "longitude": 21.921256, "source": "osm", "_tags": {"amenity": "hospital"}}, {"name": "Mazowiecki Szpital Specjalistyczny im. dr Józefa Psarskiego w Ostrołęce", "latitude": 53.0632128, "longitude": 21.5918525, "source": "osm", "_tags": {"amenity": "hospital", "email": "szpitalo@szpital.ostroleka.pl", "healthcare": "hospital", "name": "Mazowiecki Szpital Specjalistyczny im. dr Józefa Psarskiego w Ostrołęce", "phone": "029 765 21 00", "website": "http://www.szpital.ostroleka.pl"}}, {"name": "Szpital Powiatowy SPZOZ", "latitude": 52.7989, "longitude": 21.9125979, "source": "osm", "_tags": {"amenity": "hospital", "emergency": "yes", "name": "Szpital Powiatowy SPZOZ"}}, {"name": "", "latitude": 53.3834045, "longitude": 21.3323187, "source": "osm", "_tags": {"amenity": "hospital", "healthcare": "hospital"}}]