[{"name": "Ysbyty Cefni", "latitude": 53.2566667, "longitude": -4.3044953, "source": "osm", "_tags": {"addr:city": "Llangefni", "addr:housename": "Ysbyty Cefni", "addr:postcode": "LL77 7PP", "addr:street": "Bridge Street", "amenity": "hospital", "emergency": "no", "fhrs:id": "104226", "healthcare": "hospital", "healthcare:speciality": "psychology;geriatrics", "name": "Ysbyty Cefni", "operator": "NHS", "operator:type": "public", "operator:wikidata": "Q918396", "source:addr": "FHRS Open Data", "wikidata": "Q96374617", "wikipedia": "en:Cefni Hospital"}}, {"name": "Ysbyty Eryri", "latitude": 53.1297278, "longitude": -4.2633614, "source": "osm", "_tags": {"addr:city": "Caernarfon", "addr:postcode": "LL55 2YE", "addr:street": "Ffordd Felin Seiont", "amenity": "hospital", "fhrs:id": "124826", "healthcare": "hospital", "name": "Ysbyty Eryri", "operator": "NHS", "operator:wikidata": "Q918396", "phone": "+443000 850 021", "website": "https://bcuhb.nhs.wales/services/hospitals/ysbyty-eryri-caernarfon/"}}, {"name": "Ysbyty Gwynedd", "latitude": 53.2087603, "longitude": -4.1607522, "source": "osm", "_tags": {"amenity": "hospital", "emergency": "yes", "healthcare": "hospital", "name": "Ysbyty Gwynedd", "operator": "NHS", "operator:type": "public", "operator:wikidata": "Q918396", "wikidata": "Q13132596"}}, {"name": "Ysbyty Penrhos", "latitude": 53.3042327, "longitude": -4.6158757, "source": "osm", "_tags": {"amenity": "hospital", "check_date": "2025-01-08", "healthcare": "hospital", "name": "Ysbyty Penrhos", "operator": "NHS", "operator:type": "public", "operator:wikidata": "Q918396"}}, {"name": "Ysbyty Alltwen", "latitude": 52.9409079, "longitude": -4.1498508, "source": "osm", "_tags": {"amenity": "hospital", "healthcare": "hospital", "name": "Ysbyty Alltwen", "operator": "NHS", "operator:wikidata": "Q918396"}}, {"name": "Ysbyty Bryn Beryl", "latitude": 52.9122054, "longitude": -4.3950216, "source": "osm", "_tags": {"addr:postcode": "LL53 6TT", "addr:street": "Caernafon Road", "amenity": "hospital", "emergency": "no", "healthcare": "hospital", "name": "Ysbyty Bryn Beryl", "name:cy": "Ysbyty Bryn Beryl", "name:em": "Bryn Beryl Hospital", "phone": "+44 1758 701 122", "wikidata": "Q87968034"}}, {"name": "Tywyn Hospital", "latitude": 52.5840743, "longitude": -4.0812625, "source": "osm", "_tags": {"addr:city": "Gwynedd", "addr:country": "GB", "addr:postcode": "LL36 9HH", "addr:street": "Bryn Hyfryd Road", "amenity": "hospital", "healthcare": "hospital", "name": "Tywyn Hospital", "name:cy": "Ysbyty Tywyn", "name:en": "Tywyn Hospital", "operator": "NHS", "operator:wikidata": "Q918396"}}]