[{"name": "Polikliniek", "latitude": 52.5516159, "longitude": 5.9193338, "source": "osm", "_tags": {"addr:city": "Kampen", "addr:housenumber": "7", "addr:postcode": "8266AB", "addr:street": "Engelenbergplantsoen", "amenity": "hospital", "healthcare": "hospital", "name": "Polikliniek", "source": "BAG", "source:date": "2014-02-11"}}, {"name": "Frisius Medisch Centrum Leeuwarden", "latitude": 53.1889707, "longitude": 5.8045599, "source": "osm", "_tags": {"alt_name": "Frisius MC Leeuwarden", "alt_name:2025-": "Frisius MC Leeuwarden", "amenity": "hospital", "emergency": "yes", "healthcare": "hospital", "name": "Frisius Medisch Centrum Leeuwarden", "name:1971-1982": "Triotel", "name:1982-2004": "Medisch Centrum Leeuwarden Zuid", "name:2004-2025": "Medisch Centrum Leeuwarden", "name:2025-": "Frisius Medisch Centrum Leeuwarden", "note:website": "Let op: mcl.nl is voorlopig nog de correcte website van dit ziekenhuis. frisiusmc.nl wordt geleidelijk uitgebreid om dit over te nemen.", "phone": "+31 58 286 6666", "short_name": "Frisius MC", "short_name:1982-2004": "MCL-Zuid", "short_name:2004-2025": "MCL", "short_name:2025-": "Frisius MC", "smoking": "no", "start_date": "1971", "website": "https://www.mcl.nl/", "wikidata": "Q2299669"}}, {"name": "Antonius Ziekenhuis", "latitude": 53.0350521, "longitude": 5.6424475, "source": "osm", "_tags": {"amenity": "hospital", "healthcare": "hospital", "name": "Antonius Ziekenhuis", "website": "https://www.mijnantonius.nl/", "wheelchair": "yes", "wikidata": "Q1814910", "wikipedia": "nl:Antonius Ziekenhuis (Sneek)"}}, {"name": "Frisius Medisch Centrum Harlingen", "latitude": 53.1621423, "longitude": 5.4301144, "source": "osm", "_tags": {"amenity": "hospital", "healthcare": "hospital", "loc_name": "Oranjeoord", "name": "Frisius Medisch Centrum Harlingen", "name:1974-1995": "Oranjeoord", "name:1995-2025": "MCL Harlingen", "short_name": "Frisius MC Harlingen", "smoking": "no", "toilets:wheelchair": "yes", "website": "https://www.mcl.nl/contact/mcl-harlingen", "wheelchair": "yes"}}, {"name": "Antonius Ziekenhuis Emmeloord", "latitude": 52.7035148, "longitude": 5.7332653, "source": "osm", "_tags": {"addr:city": "Emmeloord", "addr:housenumber": "4", "addr:postcode": "8303BX", "addr:street": "Urkerweg", "amenity": "clinic", "emergency": "yes", "healthcare": "hospital", "name": "Antonius Ziekenhuis Emmeloord", "operator": "Antonius Zorggroep", "operator:wikidata": "Q97382945", "phone": "+31 527 620 460", "source": "BAG", "source:date": "2018-05-08", "website": "https://www.mijnantonius.nl/emmeloord", "wheelchair": "yes", "wikidata": "Q97600020"}}, {"name": "Dijklander Ziekenhuis", "latitude": 52.5003157, "longitude": 4.9621083, "source": "osm", "_tags": {"addr:city": "Purmerend", "addr:housenumber": "250", "addr:postcode": "1441RN", "addr:street": "Waterlandlaan", "amenity": "hospital", "branch": "Purmerend", "emergency": "yes", "emergency:phone": "+31 299 313 233", "healthcare": "hospital", "name": "Dijklander Ziekenhuis", "operator": "Dijklander Ziekenhuis", "operator:type": "public", "operator:wikidata": "Q62022997", "phone": "+31 299 457 457", "website": "https://www.dijklander.nl/", "wikidata": "Q96354841"}}, {"name": "Dijklander Ziekenhuis", "latitude": 52.6478591, "longitude": 5.0540186, "source": "osm", "_tags": {"addr:city": "Hoorn", "addr:housenumber": "3", "addr:postcode": "1624NP", "addr:street": "Maelsonstraat", "amenity": "hospital", "branch": "Hoorn", "emergency": "yes", "healthcare": "hospital", "healthcare:speciality": "general;surgery;emergency;intensive", "name": "Dijklander Ziekenhuis", "old_name": "Westfriesgasthuis", "operator": "Dijklander Ziekenhuis", "operator:type": "public", "operator:wikidata": "Q62022997", "phone": "+31 229 257 257", "toilets:wheelchair": "yes", "website": "https://www.dijklander.nl/", "wheelchair": "yes", "wikidata": "Q96354808"}}, {"name": "Frisius Medisch Centrum Heerenveen", "latitude": 52.9660061, "longitude": 5.9175949, "source": "osm", "_tags": {"addr:city": "Heerenveen", "addr:housenumber": "44", "addr:postcode": "8441PW", "addr:street": "Thialfweg", "alt_name": "Frisius MC Heerenveen", "alt_name:2025-": "Frisius MC Heerenveen", "amenity": "hospital", "emergency": "yes", "healthcare": "hospital", "name": "Frisius Medisch Centrum Heerenveen", "name:1929-2025": "Tjongerschans", "name:2025-": "Frisius Medisch Centrum Heerenveen", "note:website": "Let op: tjongerschans.nl is voorlopig nog de correcte website van dit ziekenhuis. frisiusmc.nl wordt geleidelijk uitgebreid om dit over te nemen.", "old_name": "Tjongerschans", "short_name": "Frisius MC", "short_name:2025-": "Frisius MC", "smoking": "no", "website": "https://www.tjongerschans.nl/"}}, {"name": "St. Jansdal Polikliniek", "latitude": 52.50426, "longitude": 5.4769194, "source": "osm", "_tags": {"amenity": "hospital", "building": "yes", "building:levels": "5", "healthcare": "hospital", "layer": "1", "name": "St. Jansdal Polikliniek", "ref:bag": "995100000740386", "source": "BAG", "source:date": "2014-06-20", "start_date": "1979", "type": "multipolygon"}}]