[{"name": "NZOZ Nowy Szpital w Nakle i Szubinie", "latitude": 53.1400745, "longitude": 17.5935129, "source": "osm", "_tags": {"addr:city": "Nakło nad Notecią", "addr:housenumber": "7", "addr:postcode": "89-100", "addr:street": "Aleja Adama Mickiewicza", "amenity": "hospital", "healthcare": "hospital", "name": "NZOZ Nowy Szpital w Nakle i Szubinie", "phone": "52 385 21 94"}}, {"name": "Szpital Powiatowy w Wyrzysku", "latitude": 53.1494205, "longitude": 17.2720125, "source": "osm", "_tags": {"amenity": "hospital", "email": "szpitalwyrzysk@wp.pl", "name": "Szpital Powiatowy w Wyrzysku", "phone": "+48 67 286 26 22; +48 67 286 22 41; +48 67 286 22 42", "website": "http://szpitalwyrzysk.com/"}}, {"name": "Szpital Miejski", "latitude": 52.5386446, "longitude": 17.5968222, "source": "osm", "_tags": {"addr:city": "Gniezno", "addr:city:simc": "0970632", "addr:postcode": "62-200", "addr:street": "Świętego Jana", "amenity": "hospital", "barrier": "fence", "check_date": "2024-08-28", "emergency": "yes", "healthcare": "hospital", "landuse": "healthcare", "name": "Szpital Miejski"}}, {"name": "Szpital Pomnik Chrztu Polski - Szpital Powiatowy w Gnieźnie", "latitude": 52.5410478, "longitude": 17.5991978, "source": "osm", "_tags": {"addr:city": "Gniezno", "addr:city:simc": "0970632", "addr:postcode": "62-200", "addr:street": "3 Maja", "amenity": "hospital", "barrier": "fence", "emergency": "yes", "healthcare": "hospital", "landuse": "healthcare", "name": "Szpital Pomnik Chrztu Polski - Szpital Powiatowy w Gnieźnie", "note": "Oddziały: Szpitalny Oddział Ratunkowy, Chirurgiczny, Urologiczny, Ortopedii i Traumatologii Narządów Ruchu, Położniczo-Ginekologiczny, Patologii Ciąży, Intensywnej Terapii, Noworodków i Wcześniaków, Intensywnej Terapii Noworodka"}}, {"name": "Wojewódzki Szpital dla Nerwowo i Psychicznie Chorych \"Dziekanka\" im. Aleksandra Piotrowskiego", "latitude": 52.5319486, "longitude": 17.5773499, "source": "osm", "_tags": {"addr:city": "Gniezno", "addr:city:simc": "0970632", "addr:housenumber": "15", "addr:postcode": "62-200", "addr:street": "Poznańska", "amenity": "hospital", "barrier": "fence", "contact:email": "sekretariat@dziekanka.net", "healthcare": "hospital", "heritage": "2", "heritage:operator": "nid", "landuse": "healthcare", "name": "Wojewódzki Szpital dla Nerwowo i Psychicznie Chorych \"Dziekanka\" im. Aleksandra Piotrowskiego", "phone": "+48 61 423 85 00", "ref:nid": "72/Wlkp/A", "website": "https://dziekanka.net/", "wikidata": "Q47437598", "wikipedia": "pl:Wojewódzki Szpital dla Nerwowo i Psychicznie Chorych „Dziekanka” im. Aleksandra Piotrowskiego"}}, {"name": "Zakład Opiekuńczo-Leczniczy", "latitude": 52.5288767, "longitude": 17.5739579, "source": "osm", "_tags": {"amenity": "hospital", "barrier": "fence", "healthcare": "hospital", "name": "Zakład Opiekuńczo-Leczniczy"}}, {"name": "Pałuckie Centrum Zdrowia Szpital", "latitude": 52.8465776, "longitude": 17.7165696, "source": "osm", "_tags": {"addr:city": "Żnin", "addr:housenumber": "30", "addr:postcode": "88-400", "addr:street": "Szpitalna", "amenity": "hospital", "barrier": "fence", "emergency": "yes", "healthcare": "hospital", "healthcare:speciality": "general", "name": "Pałuckie Centrum Zdrowia Szpital", "operator": "Powiat Żnin", "operator:type": "public"}}, {"name": "Szpital powiatowy w Więcborku", "latitude": 53.3550874, "longitude": 17.4920059, "source": "osm", "_tags": {"amenity": "hospital", "healthcare": "hospital", "name": "Szpital powiatowy w Więcborku"}}, {"name": "Szpital powiatowy w Wągrowcu", "latitude": 52.8179246, "longitude": 17.2053655, "source": "osm", "_tags": {"amenity": "hospital", "email": "szpital@wagrowiec.pl", "healthcare": "hospital", "name": "Szpital powiatowy w Wągrowcu", "phone": "+48 67 268 15 00", "website": "https://szpitalwagrowiec.pl/"}}, {"name": "Nowy Szpital w Nakle i Szubinie", "latitude": 53.0078924, "longitude": 17.7301231, "source": "osm", "_tags": {"amenity": "hospital", "name": "Nowy Szpital w Nakle i Szubinie", "phone": "412401016", "website": "https://www.nowyszpital.pl/nowy-szpital-w-nakle-i-szubinie/"}}, {"name": "Oddział Opiekuńczo-Leczniczy Psychiatryczny dla mężczyzn w Owińskach", "latitude": 52.5100289, "longitude": 16.9732624, "source": "osm", "_tags": {"amenity": "hospital", "email": "zol.owinska@mogilenska.pl", "emergency": "no", "healthcare": "hospital", "healthcare:speciality": "psychiatry", "name": "Oddział Opiekuńczo-Leczniczy Psychiatryczny dla mężczyzn w Owińskach", "operator": "Zakład Opiekuńczo-Leczniczy i Rehabilitacji Medycznej", "phone": "+48 61 8 126 507", "source": "geoportal", "website": "https://zdrowemyslenie.org/strona/oddzial-opiekunczo-leczniczy-psychiatryczny-dla-mezczyzn-w-owinskach"}}, {"name": "Szpital Powiatowy im. Alfreda Sokołowskiego w Złotowie", "latitude": 53.3546717, "longitude": 17.044146, "source": "osm", "_tags": {"amenity": "hospital", "name": "Szpital Powiatowy im. Alfreda Sokołowskiego w Złotowie"}}, {"name": "Zakład Leczniczy Dla Zwierząt Trivet Stanisław Kłos", "latitude": 52.9385791, "longitude": 17.2995461, "source": "osm", "_tags": {"amenity": "hospital", "healthcare": "hospital", "name": "Zakład Leczniczy Dla Zwierząt Trivet Stanisław Kłos"}}, {"name": "", "latitude": 53.1402013, "longitude": 17.5939389, "source": "osm", "_tags": {"amenity": "hospital", "healthcare": "hospital"}}]