[{"name": "Airey Close", "latitude": 52.4974356, "longitude": 1.7188478, "source": "osm", "_tags": {"addr:city": "Lowestoft", "addr:housenumber": "1", "addr:postcode": "NR32 3JQ", "addr:street": "Airey Close", "alt_name": "Lothingland", "amenity": "hospital", "emergency": "no", "healthcare": "hospital", "name": "Airey Close", "operator": "NHS", "operator:type": "public", "operator:wikidata": "Q918396", "phone": "+44 1502 560111"}}, {"name": "Norfolk and Norwich University Hospital:Emergency Department", "latitude": 52.6173341, "longitude": 1.2209655, "source": "osm", "_tags": {"addr:city": "Norwich", "addr:housename": "Norfolk and Norwich University Hospital Emergency Hospital", "addr:postcode": "NR4 7UY", "addr:street": "Colney Lane", "amenity": "hospital", "contact:phone": "+44 1603 286286", "contact:website": "https://www.nnuh.nhs.uk/departments/accident-and-emergency/", "emergency": "yes", "healthcare": "hospital", "healthcare:speciality": "emergency", "name": "Norfolk and Norwich University Hospital:Emergency Department"}}, {"name": "Norwich Community Hospital", "latitude": 52.6343714, "longitude": 1.262908, "source": "osm", "_tags": {"alt_name": "West Norwich Community Hospital", "amenity": "hospital", "emergency": "no", "healthcare": "hospital", "name": "Norwich Community Hospital", "note": "A lot of these buildings are currently unused but it is still NHS grounds", "operator": "Norfolk Primary Care Trust", "ref:GB:cqc_location": "RY312", "source": "Ground survey + local knowledge", "website": "https://www.norfolkcommunityhealthandcare.nhs.uk/The-care-we-offer/Service-search/norwich-community-hospital", "wikidata": "Q30281129"}}, {"name": "The Julian Hospital", "latitude": 52.6325545, "longitude": 1.2624577, "source": "osm", "_tags": {"addr:city": "Norwich", "addr:country": "GB", "addr:full": "Julian Hospital, Bowthorpe Road, Norwich, Norfolk, NR2 3TD", "addr:postcode": "NR2 3TD", "addr:street": "Bowthorpe Road", "amenity": "hospital", "fhrs:id": "6366", "healthcare": "hospital", "name": "The Julian Hospital", "not:addr:postcode": "NR2 3TU", "phone": "+44 1603 421800", "ref:GB:cqc_location": "RMY02", "ref:GB:nhs_ods": "RMY02", "website": "http://www.nwmhp.nhs.uk/"}}, {"name": "Priory Hospital Norwich", "latitude": 52.5256021, "longitude": 0.9912254, "source": "osm", "_tags": {"addr:city": "Attleborough", "addr:postcode": "NR17 1AE", "addr:street": "Ellingham Road", "amenity": "hospital", "fhrs:id": "831946", "name": "Priory Hospital Norwich", "old_name": "Ellingham Hospital", "operator": "Priory", "ref:GB:cqc_location": "1-2158452259", "source": "Bing", "source:addr:postcode": "code-point_open", "source:name": "cqc_care_directory", "website": "https://www.priorygroup.com/locations/nhs/priory-hospital-norwich"}}, {"name": "Northgate Hospital", "latitude": 52.6173221, "longitude": 1.7299624, "source": "osm", "_tags": {"amenity": "hospital", "emergency": "no", "healthcare": "hospital", "name": "Northgate Hospital", "ref:GB:cqc_location": "RMY03", "ref:GB:nhs_ods": "RMY03", "wikidata": "Q7059454"}}, {"name": "Aylsham Health Centre", "latitude": 52.7947949, "longitude": 1.2373636, "source": "osm", "_tags": {"addr:city": "Norwich", "addr:housename": "Aylsham Community Health Centre", "addr:postcode": "NR11 6YA", "addr:street": "St Michaels Avenue", "addr:town": "Aylsham", "amenity": "hospital", "building": "yes", "name": "Aylsham Health Centre", "operator": "Norfolk Primary Care C.I.C", "phone": "+44 1263 738124", "source": "Norfolk Community Health and Care NHS Trust", "website": "https://www.norfolkcommunityhealthandcare.nhs.uk/our-locations/"}}, {"name": "James Paget University Hospital", "latitude": 52.5618298, "longitude": 1.7155326, "source": "osm", "_tags": {"amenity": "hospital", "healthcare": "hospital", "name": "James Paget University Hospital", "ref:GB:cqc_location": "RGP75", "wikidata": "Q14956745", "wikipedia": "en:James Paget University Hospital"}}, {"name": "Beccles and District War Memorial Hospital", "latitude": 52.4532149, "longitude": 1.5617691, "source": "osm", "_tags": {"addr:city": "Norwich", "addr:country": "GB", "addr:postcode": "NR34 9NQ", "addr:street": "Saint Mary's Road", "amenity": "hospital", "fax": "+44 1502 714696", "fhrs:id": "1074348", "healthcare": "hospital", "name": "Beccles and District War Memorial Hospital", "opening_hours": "24/7", "operator": "East Coast Community Healthcare C.I.C", "phone": "+44 1502 719800", "ref:GB:cqc_location": "1-295368690", "source:addr": "FHRS Open Data", "wikidata": "Q30292916"}}, {"name": "Dereham Hospital", "latitude": 52.6900919, "longitude": 0.9463421, "source": "osm", "_tags": {"addr:city": "Dereham", "addr:country": "GB", "addr:postcode": "NR19 2EX", "addr:street": "Northgate", "amenity": "hospital", "emergency": "no", "fhrs:id": "814565", "name": "Dereham Hospital", "operator": "NHS", "phone": "+44 1362 692391", "ref:GB:cqc_location": "RY319", "source:addr": "FHRS Open Data", "type": "site", "website": "https://www.norfolkcommunityhealthandcare.nhs.uk/The-care-we-offer/Service-search/dereham-hospital/"}}, {"name": "Kelling Hospital", "latitude": 52.9147025, "longitude": 1.1159644, "source": "osm", "_tags": {"addr:city": "Holt", "addr:country": "GB", "addr:housename": "Kelling Hospital", "addr:postcode": "NR25 6QA", "addr:street": "Old Cromer Road", "amenity": "hospital", "building": "hospital", "contact:phone": "+44 1263 710575", "emergency": "no", "name": "Kelling Hospital", "opening_hours": "Mo-Fr 08:30-17:00; Sa-Su closed", "source": "OS_OpenData_VectorMapLocal"}}, {"name": "Spire", "latitude": 52.6267796, "longitude": 1.226022, "source": "osm", "_tags": {"addr:city": "Norwich", "addr:country": "GB", "addr:postcode": "NR4 7TD", "addr:street": "Old Watton Road", "amenity": "hospital", "email": "cservice-nw@spirehealthcare.com", "fhrs:id": "647549", "healthcare": "hospital", "name": "Spire", "phone": "+44 1603 456181", "website": "https://www.spirehealthcare.com/Norwich/"}}, {"name": "Norfolk and Norwich University Hospital", "latitude": 52.6173977, "longitude": 1.2196316, "source": "osm", "_tags": {"amenity": "hospital", "email": "feedback@nnuh.nhs.uk", "emergency": "yes", "fax": "+44 1603 287211", "healthcare": "hospital", "name": "Norfolk and Norwich University Hospital", "operator": "East of England NHS Trust", "operator:type": "public", "pharmacy": "yes", "phone": "+44 1603 286286", "ref": "0629131", "ref:GB:cqc_location": "RM102", "website": "https://www.nnuh.nhs.uk/", "wikidata": "Q4567781"}}, {"name": "Carlton Court Hospital", "latitude": 52.4536287, "longitude": 1.6954418, "source": "osm", "_tags": {"addr:city": "Lowestoft", "addr:postcode": "NR33 8AG", "addr:street": "St Peters Road", "addr:town": "Carlton Colville", "amenity": "hospital", "name": "Carlton Court Hospital", "ref:GB:cqc_location": "RGP42", "source": "cqc_care_directory", "website": "https://www.nhs.uk/services/hospital/carlton-court/RMY13"}}, {"name": "Cromer and District Hospital", "latitude": 52.9238646, "longitude": 1.3095405, "source": "osm", "_tags": {"addr:city": "Cromer", "addr:postcode": "NR27 0BQ", "addr:street": "Mill Road", "amenity": "hospital", "healthcare": "hospital", "name": "Cromer and District Hospital", "ref:GB:cqc_location": "RM131", "source:addr:postcode": "code-point_open", "website": "https://www.nnuh.nhs.uk/our-services/our-hospitals/cromer-and-district-hospital/"}}, {"name": "Ogden Court Community Hospital", "latitude": 52.571981, "longitude": 1.1131764, "source": "osm", "_tags": {"addr:city": "Wymondham", "addr:housenumber": "60", "addr:postcode": "NR18 0ZP", "addr:street": "Ogden Close", "amenity": "hospital", "fhrs:id": "1439075", "name": "Ogden Court Community Hospital", "not:addr:postcode": "NR18 0PE", "operator": "Norfolk Community Health and Care NHS Trust", "ref:GB:cqc_location": "RY386", "source:addr": "FSA Food Hygiene Ratings Database", "source:addr:postcode": "code-point_open", "source:outline": "Bing;land_registry_index_polygons"}}, {"name": "North Walsham and District War Memorial Hospital", "latitude": 52.8140692, "longitude": 1.3884824, "source": "osm", "_tags": {"addr:postcode": "NR28 9AP", "addr:street": "Yarmouth Road", "amenity": "hospital", "beds": "24", "emergency": "no", "name": "North Walsham and District War Memorial Hospital", "phone": "+44 1692 408000", "ref:GB:cqc_location": "RY332"}}, {"name": "Hellesdon Hospital", "latitude": 52.6596883, "longitude": 1.2507838, "source": "osm", "_tags": {"addr:city": "Norwich", "addr:country": "GB", "addr:housename": "Hellesdon Hospital", "addr:postcode": "NR6 5BE", "addr:street": "Drayton High Road", "addr:suburb": "Hellesdon", "amenity": "hospital", "building": "yes", "fhrs:id": "1606487", "healthcare": "hospital", "name": "Hellesdon Hospital", "operator": "NHS", "operator:type": "public", "operator:wikidata": "Q918396", "ref:GB:cqc_location": "RMY01", "ref:GB:nhs_ods": "RMY01", "source": "Bing", "type": "multipolygon", "wikidata": "Q30293209"}}, {"name": "Wensum Meadows", "latitude": 52.6579579, "longitude": 1.248654, "source": "osm", "_tags": {"addr:postcode": "NR6 5NB", "amenity": "hospital", "building": "hospital", "healthcare": "hospital", "name": "Wensum Meadows", "operator": "NHS", "operator:type": "public", "operator:wikidata": "Q918396", "type": "multipolygon"}}, {"name": "Colman Hospital", "latitude": 52.620385, "longitude": 1.2690598, "source": "osm", "_tags": {"addr:city": "Norwich", "addr:postcode": "NR2 2PJ", "addr:street": "Unthank Road", "amenity": "hospital", "fhrs:id": "1454881", "healthcare": "hospital", "name": "Colman Hospital", "source:addr": "FHRS Open Data", "type": "multipolygon", "website": "https://www.norfolkcommunityhealthandcare.nhs.uk/The-care-we-offer/Service-search/colman-hospital"}}]