[{"name": "Kliniek Somatische zorg en Ouderenpsychiatrie Zuidlaren", "latitude": 53.0872466, "longitude": 6.6718947, "source": "osm", "_tags": {"addr:city": "Zuidlaren", "addr:housenumber": "61", "addr:postcode": "9471KE", "addr:street": "E", "amenity": "hospital", "healthcare": "hospital", "healthcare:speciality": "psychiatry", "name": "Kliniek Somatische zorg en Ouderenpsychiatrie Zuidlaren", "operator": "Lentis", "source": "BAG", "source:date": "2014-05-07", "website": "https://www.lentis.nl/locaties/kliniek-ouderenpsychiatrie-zuidlaren/"}}, {"name": "Isala", "latitude": 52.5124366, "longitude": 6.1241579, "source": "osm", "_tags": {"addr:city": "Zwolle", "addr:country": "NL", "addr:housenumber": "2", "addr:postcode": "8025AB", "addr:street": "Dokter van Heesweg", "amenity": "hospital", "emergency": "yes", "healthcare": "hospital", "name": "Isala", "phone": "+31 88 624 5000", "source": "bing", "toilets:wheelchair": "yes", "website": "https://www.isala.nl/contact-en-locaties/isala-zwolle/", "wheelchair": "yes", "wikidata": "Q96602507"}}, {"name": "Nij Smellinghe", "latitude": 53.0997251, "longitude": 6.111692, "source": "osm", "_tags": {"amenity": "hospital", "emergency": "yes", "healthcare": "hospital", "name": "Nij Smellinghe", "toilets:wheelchair": "yes", "wheelchair": "yes", "wikidata": "Q20622749", "wikipedia": "nl:Ziekenhuis Nij Smellinghe"}}, {"name": "Universitair Medisch Centrum Groningen", "latitude": 53.2232531, "longitude": 6.5731545, "source": "osm", "_tags": {"addr:city": "Groningen", "addr:country": "NL", "addr:housenumber": "1", "addr:postcode": "9713GZ", "addr:street": "Hanzeplein", "amenity": "hospital", "emergency": "yes", "healthcare": "hospital", "name": "Universitair Medisch Centrum Groningen", "name:en": "University Medical Centre Groningen", "name:nl": "Universitair Medisch Centrum Groningen", "phone": "+31 50 361 6161", "short_name": "UMCG", "url": "http://umcg.nl", "wheelchair": "yes", "wikidata": "Q2057113", "wikipedia": "nl:Universitair Medisch Centrum Groningen"}}, {"name": "Martini Ziekenhuis", "latitude": 53.1916389, "longitude": 6.5510832, "source": "osm", "_tags": {"addr:city": "Groningen", "addr:housenumber": "1", "addr:postcode": "9728NT", "addr:street": "Van Swietenplein", "amenity": "hospital", "ele": "6", "emergency": "yes", "healthcare": "hospital", "name": "Martini Ziekenhuis", "phone": "+31 50 524 5245", "website": "https://www.martiniziekenhuis.nl/", "wheelchair": "yes", "wikidata": "Q1829327", "wikipedia": "nl:Martini Ziekenhuis"}}, {"name": "Saxenburgh Medisch Centrum", "latitude": 52.5721448, "longitude": 6.6325555, "source": "osm", "_tags": {"amenity": "hospital", "beds": "130", "emergency": "yes", "fax": "+31 523 276 176", "healthcare": "hospital", "name": "Saxenburgh Medisch Centrum", "name:en": "Saxenburgh Medical Centre", "operator": "Saxenburgh Groep", "phone": "+31 523 276 000", "website": "https://www.saxenburgh.nl/ziekenhuis/228/ropcke-zweers-ziekenhuis", "wikidata": "Q2259309"}}, {"name": "Scheper Ziekenhuis", "latitude": 52.7859076, "longitude": 6.9132515, "source": "osm", "_tags": {"addr:city": "Emmen", "addr:street": "Boermarkeweg", "alt_name": "Treant Scheper", "amenity": "hospital", "emergency": "yes", "healthcare": "hospital", "name": "Scheper Ziekenhuis", "phone": "+31 591 691 911", "toilets:wheelchair": "yes", "website": "https://www.treant.nl/ziekenhuiszorg/ziekenhuislocaties/scheper-ziekenhuis", "wheelchair": "yes", "wikidata": "Q1925362"}}, {"name": "Lentis Zuidlaren", "latitude": 53.0840828, "longitude": 6.6745745, "source": "osm", "_tags": {"amenity": "hospital", "healthcare": "hospital", "healthcare:speciality": "psychiatry", "layer": "-1", "name": "Lentis Zuidlaren"}}, {"name": "Isala Meppel", "latitude": 52.6903095, "longitude": 6.2130998, "source": "osm", "_tags": {"addr:city": "Meppel", "addr:housenumber": "2", "addr:postcode": "7943KC", "addr:street": "Reggersweg", "amenity": "hospital", "healthcare": "hospital", "name": "Isala Meppel", "source": "BAG", "source:date": "2021-02-16", "website": "https://www.isala.nl/", "wikidata": "Q2134373", "wikipedia": "nl:Diaconessenhuis (Meppel)"}}, {"name": "Ziekenhuis Bethesda", "latitude": 52.7271644, "longitude": 6.4608595, "source": "osm", "_tags": {"amenity": "hospital", "healthcare": "hospital", "name": "Ziekenhuis Bethesda", "website": "https://www.treant.nl/ziekenhuiszorg/ziekenhuislocaties/ziekenhuis-bethesda", "wikidata": "Q4989394", "wikipedia": "nl:Bethesdaziekenhuis (Hoogeveen)"}}, {"name": "Treant Refaja Ziekenhuis", "latitude": 53.0018931, "longitude": 6.9366391, "source": "osm", "_tags": {"addr:city": "Stadskanaal", "addr:housenumber": "1", "addr:postcode": "9501HE", "addr:street": "Boerhaavestraat", "amenity": "hospital", "emergency": "no", "healthcare": "hospital", "name": "Treant Refaja Ziekenhuis", "operator": "Treant Zorggroep", "operator:wikidata": "Q50038041", "phone": "+31 88 129 2929", "source": "BAG", "source:date": "2014-06-06", "website": "https://www.treant.nl/ziekenhuiszorg/ziekenhuislocaties/refaja-ziekenhuis", "wheelchair": "yes", "wikidata": "Q4785934", "wikipedia": "nl:Refaja Ziekenhuis (Stadskanaal)"}}, {"name": "UMCG-Beatrixoord", "latitude": 53.1825961, "longitude": 6.5987542, "source": "osm", "_tags": {"amenity": "hospital", "emergency": "no", "healthcare": "hospital", "name": "UMCG-Beatrixoord"}}, {"name": "Wilhelmina Ziekenhuis", "latitude": 52.9837423, "longitude": 6.5647959, "source": "osm", "_tags": {"amenity": "hospital", "building": "hospital", "healthcare": "hospital", "name": "Wilhelmina Ziekenhuis", "name:etymology:wikidata": "Q150747", "ref:bag": "106100000000005", "source": "BAG", "source:date": "2014-03-24", "start_date": "2000", "type": "multipolygon", "wikidata": "Q2549393", "wikipedia": "nl:Wilhelmina Ziekenhuis Assen"}}]