[{"name": "Clemens-August-Erwachsenenklinik", "latitude": 52.5128232, "longitude": 8.1066413, "source": "osm", "_tags": {"amenity": "hospital", "emergency": "no", "healthcare": "hospital", "healthcare:speciality": "psychiatry", "name": "Clemens-August-Erwachsenenklinik", "website": "https://www.clemensaugust.de/index.php?option=com_content&view=article&id=84&Itemid=63"}}, {"name": "Clemens-August-Jugendklinik", "latitude": 52.5131652, "longitude": 8.1090349, "source": "osm", "_tags": {"amenity": "hospital", "emergency": "no", "healthcare": "hospital", "healthcare:speciality": "psychiatry", "name": "Clemens-August-Jugendklinik", "website": "https://www.clemensaugust.de/index.php?option=com_content&view=article&id=46&Itemid=62"}}, {"name": "Patientenaufnahme Karl-Jaspers-Klinik", "latitude": 53.173377, "longitude": 8.1395627, "source": "osm", "_tags": {"addr:housenumber": "7", "addr:street": "Hermann-Ehlers-Straße", "amenity": "hospital", "description": "Central patient admission of the hospital", "name": "Patientenaufnahme Karl-Jaspers-Klinik", "opening_hours": "24/7", "phone": "+4944196150", "website": "https://www.karl-jaspers-klinik.de/ihr-aufenthalt/aufnahme"}}, {"name": "A1, A4, A5, A6, A7, A8, S4, S5", "latitude": 53.1735919, "longitude": 8.139776, "source": "osm", "_tags": {"amenity": "hospital", "name": "A1, A4, A5, A6, A7, A8, S4, S5"}}, {"name": "Eingang Ost", "latitude": 53.0442245, "longitude": 8.5936203, "source": "osm", "_tags": {"emergency": "no", "entrance": "main", "healthcare": "hospital", "name": "Eingang Ost", "name:en": "Entrance (East)", "wheelchair": "no"}}, {"name": "Zentrale Notaufnahme", "latitude": 53.044788, "longitude": 8.5930553, "source": "osm", "_tags": {"emergency": "emergency_ward_entrance", "entrance": "main", "healthcare": "hospital", "healthcare:speciality": "emergency", "name": "Zentrale Notaufnahme", "name:en": "A&E (Accident and Emergencies)", "phone": "+49 4221 99 4010"}}, {"name": "Eingang Nord", "latitude": 53.0448272, "longitude": 8.5928586, "source": "osm", "_tags": {"entrance": "main", "healthcare": "hospital", "name": "Eingang Nord", "name:en": "Entrance (North)", "wheelchair": "yes"}}, {"name": "Kreiskrankenhaus Osterholz", "latitude": 53.2332456, "longitude": 8.7942852, "source": "osm", "_tags": {"addr:city": "Osterholz-Scharmbeck", "addr:country": "DE", "addr:housenumber": "4", "addr:postcode": "27711", "addr:street": "Am Krankenhaus", "amenity": "hospital", "check_date": "2025-01-16", "healthcare": "hospital", "name": "Kreiskrankenhaus Osterholz", "website": "https://www.kreiskrankenhaus-osterholz.de/", "wheelchair": "yes", "wikidata": "Q20617525"}}, {"name": "Klinikum Bremen-Nord", "latitude": 53.1834384, "longitude": 8.594709, "source": "osm", "_tags": {"addr:city": "Bremen", "addr:housenumber": "228", "addr:postcode": "28755", "addr:street": "Hammersbecker Straße", "amenity": "hospital", "emergency": "yes", "healthcare": "hospital", "name": "Klinikum Bremen-Nord", "official_name": "Klinikum Bremen-Nord gGmbH", "operator": "Gesundheit Nord gGmbh", "phone": "+49 421 66060", "website": "https://www.klinikum-bremen-nord.de/", "wheelchair": "yes", "wikidata": "Q1774597", "wikipedia": "de:Klinikum Bremen-Nord"}}, {"name": "St. Johannis-Hospital", "latitude": 53.3920093, "longitude": 8.1398593, "source": "osm", "_tags": {"addr:city": "Varel", "addr:country": "DE", "addr:housenumber": "9", "addr:postcode": "26316", "addr:street": "Bleichenpfad", "amenity": "hospital", "email": "info@krankenhaus-varel.de", "fax": "+49 4451 920 2215", "healthcare": "hospital", "name": "St. Johannis-Hospital", "operator": "St. Johannes-Hospital gemeinnützige GmbH", "phone": "+49 4451 920 0", "website": "https://www.krankenhaus-varel.de/", "wikidata": "Q131704386", "wikipedia": "de:St. Johannes-Hospital Varel"}}, {"name": "Klinikum Bremen-Mitte", "latitude": 53.074096, "longitude": 8.8391405, "source": "osm", "_tags": {"addr:city": "Bremen", "addr:housenumber": "1", "addr:postcode": "28205", "addr:street": "Sankt-Jürgen-Straße", "amenity": "hospital", "beds": "788", "contact:phone": "+49 421 497-0", "contact:website": "https://www.gesundheitnord.de/krankenhaeuserundzentren/kbm.html", "emergency": "yes", "healthcare": "hospital", "hospital:level:DE": "3", "name": "Klinikum Bremen-Mitte", "operator": "Gesundheit Nord gGmbh", "wheelchair": "yes", "wikidata": "Q1774593", "wikipedia": "de:Klinikum Bremen-Mitte"}}, {"name": "Klinik Diepholz", "latitude": 52.6107025, "longitude": 8.3763261, "source": "osm", "_tags": {"addr:city": "Diepholz", "addr:country": "DE", "addr:housenumber": "8", "addr:postcode": "49356", "addr:street": "Eschfeldstraße", "amenity": "hospital", "building": "yes", "contact:fax": "+49 5441 972-32702", "contact:phone": "+49 5441 972-0", "contact:website": "https://kliniken-lkd.de/medizin-pflege/abteilungen-in-diepholz", "emergency": "yes", "healthcare": "hospital", "lastcheck": "2020-07-01", "name": "Klinik Diepholz", "opening_hours": "24/7", "operator": "Klinikverbund Landkreis Diepholz gGmbH", "wheelchair": "yes"}}, {"name": "Augenklinik Universitätsallee Bremen", "latitude": 53.1051609, "longitude": 8.8418501, "source": "osm", "_tags": {"addr:city": "Bremen", "addr:country": "DE", "addr:housenumber": "301", "addr:postcode": "28213", "addr:street": "Parkallee", "amenity": "hospital", "building": "hospital", "check_date": "2024-03-23", "healthcare": "hospital", "healthcare:speciality": "ophthalmology", "name": "Augenklinik Universitätsallee Bremen", "website": "http://www.retina.to/"}}, {"name": "St. Joseph-Stift", "latitude": 53.0834231, "longitude": 8.8350371, "source": "osm", "_tags": {"addr:city": "Bremen", "addr:country": "DE", "addr:housenumber": "54", "addr:postcode": "28209", "addr:street": "Schwachhauser Heerstraße", "alt_name": "Sankt-Joseph-Stift", "amenity": "hospital", "contact:email": "info@sjs-bremen.de", "contact:phone": "+49 421 347 0", "contact:website": "http://www.sjs-bremen.de/", "emergency": "yes", "healthcare": "hospital", "name": "St. Joseph-Stift", "official_name": "Krankenhaus St. Joseph-Stift Bremen GmbH", "operator": "St. Franziskus-Stiftung Münster", "operator:wikidata": "Q2318238", "toilets:wheelchair": "yes", "wheelchair": "yes", "wikidata": "Q2316295", "wikipedia": "de:St. Joseph-Stift (Bremen)"}}, {"name": "Klinik Sulingen", "latitude": 52.683602, "longitude": 8.8055324, "source": "osm", "_tags": {"addr:city": "Sulingen", "addr:country": "DE", "addr:housenumber": "47", "addr:postcode": "27232", "addr:street": "Schmelingstraße", "amenity": "hospital", "building": "hospital", "building:levels": "6", "check_date": "2025-06-25", "contact:fax": "+49 4271 82 33702", "contact:phone": "+49 4271 82 0", "contact:website": "http://www.klinikverbund.de/unsere_angebote/klinik_sulingen/", "emergency": "yes", "healthcare": "hospital", "name": "Klinik Sulingen", "operator": "Kliniken Landkreis Diepholz", "roof:levels": "0"}}, {"name": "Klinikum Links der Weser", "latitude": 53.0357892, "longitude": 8.8191797, "source": "osm", "_tags": {"addr:city": "Bremen", "addr:housenumber": "1", "addr:postcode": "28277", "addr:street": "Senator-Weßling-Straße", "amenity": "hospital", "beds": "512", "check_date": "2024-10-10", "emergency": "yes", "healthcare": "hospital", "name": "Klinikum Links der Weser", "website": "https://www.krankenhauswegweiser.bremen.de/sixcms/detail.php?gsid=bremen121.c.1704.de", "wikidata": "Q1774632", "wikipedia": "de:Klinikum Links der Weser"}}, {"name": "Klinikum Bremen-Ost", "latitude": 53.0641569, "longitude": 8.9403138, "source": "osm", "_tags": {"addr:city": "Bremen", "addr:country": "DE", "addr:housenumber": "40", "addr:postcode": "28325", "addr:street": "Züricher Straße", "amenity": "hospital", "beds": "715", "check_date": "2024-06-09", "emergency": "yes", "healthcare": "hospital", "image": "http://upload.wikimedia.org/wikipedia/commons/8/8b/Klinikum_Bremen-Ost-04.jpg", "name": "Klinikum Bremen-Ost", "website": "https://www.gesundheitnord.de/krankenhaeuserundzentren/kbo.html", "wheelchair": "yes", "wikidata": "Q1774599", "wikipedia": "de:Klinikum Bremen-Ost"}}, {"name": "Krankenhaus Stenum", "latitude": 53.0791014, "longitude": 8.5549485, "source": "osm", "_tags": {"addr:city": "Ganderkesee", "addr:housenumber": "1", "addr:postcode": "27777", "addr:street": "Heilstättenweg", "amenity": "hospital", "healthcare": "hospital", "healthcare:speciality": "orthopaedics", "name": "Krankenhaus Stenum", "toilets:wheelchair": "yes", "website": "https://www.stenum-ortho.de", "wheelchair": "yes"}}, {"name": "DIAKO", "latitude": 53.1257006, "longitude": 8.7453503, "source": "osm", "_tags": {"addr:city": "Bremen", "addr:country": "DE", "addr:housenumber": "406-408", "addr:postcode": "28239", "addr:street": "Gröpelinger Heerstraße", "amenity": "hospital", "email": "info@diako-bremen.de", "emergency": "yes", "fax": "+49 421 6102 3336", "healthcare": "hospital", "name": "DIAKO", "official_name": "DIAKO Ev. Diakonie-Krankenhaus", "phone": "+49 421 6102 0", "website": "https://www.diako-bremen.de", "wheelchair": "yes"}}, {"name": "Rotes Kreuz Krankenhaus", "latitude": 53.0691185, "longitude": 8.8029953, "source": "osm", "_tags": {"addr:city": "Bremen", "addr:housenumber": "24", "addr:postcode": "28199", "addr:street": "Sankt-Pauli-Deich", "amenity": "hospital", "brand": "Deutsches Rotes Kreuz", "brand:wikidata": "Q694104", "emergency": "yes", "healthcare": "hospital", "name": "Rotes Kreuz Krankenhaus", "note": "Rotes-Kreuz-Krankenhaus und Ärztezentrum", "operator": "Rotes Kreuz Krankenhaus gGmbH", "website": "https://www.roteskreuzkrankenhaus.de/", "wheelchair": "yes", "wikidata": "Q2168511", "wikipedia": "de:Rotes Kreuz Krankenhaus Bremen"}}, {"name": "Delme Klinikum Delmenhorst", "latitude": 53.0445524, "longitude": 8.594001, "source": "osm", "_tags": {"addr:city": "Delmenhorst", "addr:housenumber": "92", "addr:postcode": "27753", "addr:street": "Wildeshauser Straße", "amenity": "hospital", "email": "info@delme-klinikum.de", "emergency": "yes", "healthcare": "hospital", "name": "Delme Klinikum Delmenhorst", "old_name": "Klinikum Delmenhorst; Josef-Hospital Delmenhorst", "operator": "Delme Klinikum Delmenhorst GmbH", "phone": "+49 4221 993", "website": "https://www.delme-klinikum.de/", "wheelchair": "yes", "wikidata": "Q21042110"}}, {"name": "Roland-Klinik", "latitude": 53.0563459, "longitude": 8.8241258, "source": "osm", "_tags": {"addr:city": "Bremen", "addr:housenumber": "72-74", "addr:postcode": "28201", "addr:street": "Niedersachsendamm", "alt_name": "Rolandklinik", "amenity": "hospital", "healthcare": "hospital", "name": "Roland-Klinik", "official_name": "Roland-Klinik am Werdersee", "website": "https://www.roland-klinik.de/", "wikidata": "Q15126321", "wikipedia": "de:Roland-Klinik"}}, {"name": "Paracelsus Kurfürstenklinik", "latitude": 53.0795813, "longitude": 8.8769959, "source": "osm", "_tags": {"addr:city": "Bremen", "addr:country": "DE", "addr:housenumber": "65", "addr:postcode": "28329", "addr:street": "In der Vahr", "alt_name": "Paracelsus-Klinik Bremen", "alt_website": "http://www.krankenhauswegweiser.bremen.de/sixcms/detail.php?gsid=bremen121.c.1734.de", "amenity": "hospital", "beds": "70", "emergency": "no", "healthcare": "hospital", "name": "Paracelsus Kurfürstenklinik", "operator": "Paracelsus-Kliniken Deutschland GmbH&Co. KGaA", "website": "https://www.paracelsus-kliniken.de/bremen", "wheelchair": "yes", "wikidata": "Q65952688"}}, {"name": "Fachklinik Oldenburger Land", "latitude": 52.9617585, "longitude": 8.3945491, "source": "osm", "_tags": {"addr:city": "Dötlingen", "addr:country": "DE", "addr:housenumber": "9", "addr:postcode": "27801", "addr:street": "Neerstedter Straße", "addr:suburb": "Neerstedt", "amenity": "hospital", "contact:phone": "+49 4432 94800", "emergency": "no", "healthcare:speciality": "psychiatry", "name": "Fachklinik Oldenburger Land", "operator": "Diakonie im Oldenburger Land", "website": "https://www.dw-ol.de/pages/einrichtungen/microsites/fachklinik-oldenburger-land_de/index.html"}}, {"name": "Johanneum", "latitude": 52.8937399, "longitude": 8.4321973, "source": "osm", "_tags": {"addr:city": "Wildeshausen", "addr:housenumber": "1", "addr:postcode": "27793", "addr:street": "Feldstraße", "amenity": "hospital", "emergency": "yes", "healthcare": "hospital", "name": "Johanneum", "phone": "+49 4431 982 0", "toilets:wheelchair": "yes", "website": "https://krankenhausjohanneum.de/", "wheelchair": "yes"}}, {"name": "Klinikum Oldenburg", "latitude": 53.1117025, "longitude": 8.2171163, "source": "osm", "_tags": {"addr:city": "Oldenburg", "addr:housenumber": "10", "addr:postcode": "26133", "addr:street": "Rahel-Straus-Straße", "amenity": "hospital", "emergency": "yes", "healthcare": "hospital", "healthcare:speciality": "cardiology;emergency;internal;surgery;trauma;urology", "hospital:level:DE": "3", "name": "Klinikum Oldenburg", "opening_hours": "24/7", "phone": "+49 441 403 0", "toilets:wheelchair": "yes", "website": "https://www.klinikum-oldenburg.de", "wheelchair": "yes", "wikidata": "Q30282277"}}, {"name": "Klinik Lilienthal", "latitude": 53.1494055, "longitude": 8.9063868, "source": "osm", "_tags": {"addr:city": "Lilienthal", "addr:country": "DE", "addr:housenumber": "3c", "addr:postcode": "28865", "addr:street": "Moorhauser Landstraße", "amenity": "hospital", "contact:email": "info@klinik-lilienthal.de", "contact:fax": "+49 4298 271-399", "contact:phone": "+49 4298 271-0", "contact:website": "http://www.klinik-lilienthal.de/", "emergency": "yes", "healthcare": "hospital", "name": "Klinik Lilienthal", "opening_hours": "24/7", "operator": "Klinik Lilienthal GmbH & Co. KG", "wheelchair": "yes"}}, {"name": "Evangelisches Krankenhaus Oldenburg", "latitude": 53.1426959, "longitude": 8.2050814, "source": "osm", "_tags": {"addr:city": "Oldenburg", "addr:housenumber": "13-17", "addr:postcode": "26122", "addr:street": "Steinweg", "amenity": "hospital", "emergency": "yes", "healthcare": "hospital", "name": "Evangelisches Krankenhaus Oldenburg", "phone": "+49 441 236 0", "toilets:wheelchair": "yes", "website": "https://evangelischeskrankenhaus.de/", "wheelchair": "yes", "wikidata": "Q50038921"}}, {"name": "Pius-Hospital Oldenburg", "latitude": 53.1436923, "longitude": 8.2111674, "source": "osm", "_tags": {"addr:city": "Oldenburg", "addr:housenumber": "12", "addr:postcode": "26121", "addr:street": "Georgstraße", "amenity": "hospital", "contact:phone": "+49 441 229-0", "contact:website": "http://www.pius-hospital.de", "email": "info@pius-hospital.de", "emergency": "yes", "fax": "+49 441 229-1111", "healthcare": "hospital", "name": "Pius-Hospital Oldenburg", "wikidata": "Q30270244"}}, {"name": "Christliches Krankenhaus Quakenbrück", "latitude": 52.6678377, "longitude": 7.9371716, "source": "osm", "_tags": {"amenity": "hospital", "contact:phone": "+49 5431 150", "contact:website": "https://www.ckq-gmbh.de", "emergency": "yes", "healthcare": "hospital", "internet_access": "wlan", "internet_access:description": "Automatische Trennug alle 10 Minuten.", "internet_access:fee": "no", "name": "Christliches Krankenhaus Quakenbrück", "opening_hours": "24/7", "wheelchair": "yes"}}, {"name": "Krankenhaus St. Elisabeth", "latitude": 52.5210594, "longitude": 8.1942281, "source": "osm", "_tags": {"amenity": "hospital", "contact:email": "info@krankenhaus-damme.de", "contact:fax": "+49 5491 60275", "contact:phone": "+49 5491 601", "contact:website": "https://www.krankenhaus-damme.de/", "emergency": "yes", "healthcare": "hospital", "name": "Krankenhaus St. Elisabeth", "opening_hours": "24/7", "operator": "Krankenhaus St. Elisabeth gGmbH", "wheelchair": "yes"}}, {"name": "Cardiologicum Bremen", "latitude": 53.0366544, "longitude": 8.8197573, "source": "osm", "_tags": {"addr:city": "Bremen", "addr:country": "DE", "addr:housenumber": "2", "addr:postcode": "28277", "addr:street": "Senator-Weßling-Straße", "amenity": "hospital", "building": "yes", "contact:email": "sekretariat@bremer-herzen.de", "contact:facebook": "https://facebook.com/StiftungBremerHerzen", "contact:instagram": "https://instagram.com/stiftungbremerherzen", "contact:phone": "+49 421 879-1262", "contact:website": "https://bremer-herzen.de/cardiologicum-bremen/", "contact:youtube": "https://www.youtube.com/@stiftungbremerherzen", "name": "Cardiologicum Bremen", "operator": "Stftung Bremer Herzen"}}, {"name": "St. Franziskus Hospital", "latitude": 52.6644819, "longitude": 8.2412629, "source": "osm", "_tags": {"amenity": "hospital", "healthcare": "hospital", "name": "St. Franziskus Hospital", "website": "https://www.franziskushospital-lohne.de"}}, {"name": "St. Bernhard Hospital", "latitude": 53.3239209, "longitude": 8.4824012, "source": "osm", "_tags": {"addr:city": "Brake (Unterweser)", "addr:postcode": "26919", "amenity": "hospital", "emergency": "no", "healthcare": "hospital", "healthcare:speciality": "surgery;intensive", "name": "St. Bernhard Hospital"}}, {"name": "Krankenhaus Rahden", "latitude": 52.4305234, "longitude": 8.6105212, "source": "osm", "_tags": {"addr:city": "Rahden", "addr:country": "DE", "addr:housenumber": "3", "addr:postcode": "32369", "addr:street": "Hohe Mühle", "amenity": "hospital", "building": "hospital", "emergency": "yes", "healthcare": "hospital", "layer": "1", "name": "Krankenhaus Rahden"}}, {"name": "Stiftung Gertrudenheim", "latitude": 53.1577037, "longitude": 8.2183474, "source": "osm", "_tags": {"addr:city": "Oldenburg", "addr:housenumber": "27", "addr:postcode": "26121", "addr:street": "Friesenstraße", "amenity": "nursing_home", "healthcare": "hospital", "name": "Stiftung Gertrudenheim", "social_facility": "nursing_home", "social_facility:for": "disabled"}}, {"name": "St. Josefs-Hospital", "latitude": 52.8472656, "longitude": 8.0405804, "source": "osm", "_tags": {"addr:city": "Cloppenburg", "addr:country": "DE", "addr:housenumber": "13", "addr:postcode": "49661", "addr:street": "Krankenhausstraße", "amenity": "hospital", "building": "hospital", "emergency": "yes", "healthcare": "hospital", "name": "St. Josefs-Hospital", "opening_hours": "24/7", "phone": "+49 4471 160", "type": "multipolygon", "website": "https://www.josefshospital-cloppenburg.de", "wheelchair": "yes", "wheelchair:description": "Rolli-Toilette befindet sich im Erdgeschoss. Schlüssel ist an der Information erhältlich.", "wikidata": "Q50038892"}}, {"name": "St. Bernhard Hospital", "latitude": 53.3239209, "longitude": 8.4824012, "source": "osm", "_tags": {"addr:city": "Brake", "addr:housenumber": "3", "addr:postcode": "26919", "addr:street": "Claußenstraße", "amenity": "hospital", "building": "yes", "email": "info@krankenhaus-brake.de", "emergency": "yes", "fax": "+49 4401 105 208", "healthcare": "hospital", "name": "St. Bernhard Hospital", "phone": "+49 4401 105 0", "religion": "christian", "type": "multipolygon", "website": "https://www.krankenhaus-brake.de", "wheelchair": "yes"}}, {"name": "Klinik Bassum", "latitude": 52.8442486, "longitude": 8.7284569, "source": "osm", "_tags": {"addr:city": "Bassum", "addr:housenumber": "6", "addr:postcode": "27211", "addr:street": "Marie-Hackfeld-Straße", "amenity": "hospital", "building": "hospital", "description": "Klinik Bassum, Haus A", "emergency": "yes", "healthcare": "hospital", "name": "Klinik Bassum", "operator": "Alexianer Landkreis Diepholz GmbH", "type": "multipolygon", "website": "http://www.klinikverbund.de/unsere_angebote/klinik_bassum/", "wheelchair": "yes"}}, {"name": "St. Marienhospital Vechta", "latitude": 52.7254541, "longitude": 8.2874888, "source": "osm", "_tags": {"addr:city": "Vechta", "addr:country": "DE", "addr:housenumber": "6-8", "addr:postcode": "49377", "addr:street": "Marienstraße", "amenity": "hospital", "building": "hospital", "email": "info@marienhospital-vechta.de", "emergency": "yes", "healthcare": "hospital", "name": "St. Marienhospital Vechta", "phone": "+49 4441 99 0", "type": "multipolygon", "website": "https://www.marienhospital-vechta.de/", "wheelchair": "yes"}}, {"name": "Kinderzentrum Oldenburg", "latitude": 53.1102468, "longitude": 8.2104133, "source": "osm", "_tags": {"addr:country": "DE", "addr:housenumber": "361", "addr:postcode": "26133", "addr:street": "Cloppenburger Straße", "amenity": "hospital", "building": "hospital", "name": "Kinderzentrum Oldenburg", "type": "multipolygon", "website": "https://www.kinderzentrum-oldenburg.de/"}}]