[{"name": "Klinikum Lüneburg", "latitude": 53.2402005, "longitude": 10.3952503, "source": "osm", "_tags": {"addr:city": "Lüneburg", "addr:country": "DE", "addr:housenumber": "1", "addr:postcode": "21339", "addr:street": "Bögelstraße", "amenity": "hospital", "building": "hospital", "check_date": "2024-03-30", "contact:phone": "+49 4131 77-0", "contact:website": "https://www.klinikum-lueneburg.de", "emergency": "yes", "healthcare": "hospital", "layer": "1", "name": "Klinikum Lüneburg", "opening_hours": "24/7", "toilets:wheelchair": "yes", "wheelchair": "yes", "wikidata": "Q1357610"}}, {"name": "Psychiatrische Klinik Lüneburg", "latitude": 53.2547977, "longitude": 10.3827527, "source": "osm", "_tags": {"addr:city": "Lüneburg", "addr:country": "DE", "addr:housenumber": "1", "addr:postcode": "21339", "addr:street": "Am Wienebütteler Weg", "amenity": "hospital", "contact:email": "info@pk.lueneburg.de", "contact:fax": "+49 4131 60-2899", "contact:phone": "+49 4131 60-0", "contact:website": "http://www.pk.lueneburg.de", "emergency": "yes", "healthcare": "hospital", "healthcare:speciality": "psychiatry", "name": "Psychiatrische Klinik Lüneburg", "operator": "Psychiatrische Klinik Lüneburg gGmbH", "wikidata": "Q2115895", "wikipedia": "de:Psychiatrische Klinik Lüneburg"}}, {"name": "Helios Klinikum Gifhorn", "latitude": 52.4966591, "longitude": 10.5463665, "source": "osm", "_tags": {"amenity": "hospital", "healthcare": "hospital", "name": "Helios Klinikum Gifhorn", "operator": "Helios Kliniken", "operator:wikidata": "Q1254151", "website": "https://www.helios-gesundheit.de/gifhorn"}}, {"name": "Psychiatrische Klinik Uelzen", "latitude": 52.9669548, "longitude": 10.5284926, "source": "osm", "_tags": {"addr:city": "Uelzen", "addr:country": "DE", "addr:housenumber": "50", "addr:postcode": "29525", "addr:street": "An den Zehn Eichen", "amenity": "hospital", "building": "hospital", "check_date": "2024-04-08", "email": "info@pk-uelzen.de", "fax": "+49 581 3895 319", "healthcare": "hospital", "healthcare:speciality": "psychiatry", "name": "Psychiatrische Klinik Uelzen", "operator": "Psychiatrische Klinik Uelzen", "phone": "+49 581 3895 0", "website": "https://www.psychiatrische-klinik-uelzen.de/", "wheelchair": "yes", "wikidata": "Q55302972"}}, {"name": "Fachklinik Oerrel", "latitude": 52.6839906, "longitude": 10.5706652, "source": "osm", "_tags": {"addr:city": "Dedelstorf", "addr:country": "DE", "addr:housenumber": "5", "addr:postcode": "29386", "addr:street": "Feldstraße", "addr:suburb": "Oerrel", "amenity": "hospital", "contact:email": "oerrel@haus-niedersachsen.de", "contact:fax": "+49 5832 8246", "contact:phone": "+49 5832 820", "contact:website": "http://www.haus-niedersachsen.de/auf-einen-blick-oerrel.html", "healthcare": "rehabilitation", "image": "http://www.haus-niedersachsen.de/images/oerrel/auffahrt.jpg", "name": "Fachklinik Oerrel", "operator": "Haus Niedersachsen gGmbH"}}, {"name": "Herz- und Gefäßzentrum Bad Bevensen", "latitude": 53.0851112, "longitude": 10.6039988, "source": "osm", "_tags": {"amenity": "hospital", "contact:email": "info@hgz-bb.de", "contact:fax": "+49 5821 82-1666", "contact:phone": "+49 5821 82-0", "contact:website": "https://www.hgz-bb.de/", "healthcare": "hospital", "healthcare:speciality": "cardiology", "name": "Herz- und Gefäßzentrum Bad Bevensen", "operator": "Herz-Kreislauf-Klinik Bevensen AG", "wheelchair": "limited"}}, {"name": "Allgemeines Krankenhaus", "latitude": 52.6288166, "longitude": 10.0859848, "source": "osm", "_tags": {"addr:city": "Celle", "addr:housenumber": "4", "addr:postcode": "29223", "addr:street": "Siemensplatz", "amenity": "hospital", "emergency": "yes", "healthcare": "hospital", "name": "Allgemeines Krankenhaus", "opening_hours": "24/7", "operator": "AKH Gruppe", "phone": "+49 5141 72 0", "website": "https://www.akh-celle.de/", "wheelchair": "yes", "wikidata": "Q30265085"}}, {"name": "KMG Klinik Boizenburg", "latitude": 53.3773317, "longitude": 10.7173995, "source": "osm", "_tags": {"amenity": "hospital", "contact:email": "boizenburg@kmg-kliniken.de", "contact:fax": "+49 38847 637-333", "contact:phone": "+49 38847 637-0", "contact:website": "https://kmg-kliniken.de/kmg-klinik-boizenburg/", "healthcare": "hospital", "name": "KMG Klinik Boizenburg", "operator": "KMG Kliniken SE", "wheelchair": "yes"}}, {"name": "DianaKlinik", "latitude": 53.0817113, "longitude": 10.5896783, "source": "osm", "_tags": {"amenity": "hospital", "contact:email": "info@diana-klinik.de", "contact:fax": "+49 5821 803777", "contact:phone": "+49 5821 800", "contact:website": "https://www.diana-klinik.de/", "emergency": "yes", "healthcare": "hospital", "name": "DianaKlinik", "opening_hours": "24/7", "operator": "Diana Krankenhausbetriebsgesellschaft mbH"}}, {"name": "Helios Klinik Wittingen", "latitude": 52.7302528, "longitude": 10.7396139, "source": "osm", "_tags": {"addr:city": "Wittingen", "addr:country": "DE", "addr:housenumber": "5", "addr:postcode": "29378", "addr:street": "Gustav-Dobberkau-Straße", "amenity": "hospital", "emergency": "yes", "fax": "+49 5831 22-99", "healthcare": "hospital", "healthcare:speciality": "emergency;internal;surgery", "name": "Helios Klinik Wittingen", "operator": "Helios Kliniken", "operator:type": "private", "operator:wikidata": "Q1254151", "phone": "+49 5831 22-0", "website": "http://www.helios-kliniken.de/wittingen", "wheelchair": "yes", "wikidata": "Q133304644", "wikipedia": "de:Helios Klinik Wittingen"}}, {"name": "Krankenhaus Winsen", "latitude": 53.3498609, "longitude": 10.2005899, "source": "osm", "_tags": {"amenity": "hospital", "healthcare": "hospital", "name": "Krankenhaus Winsen", "website": "https://www.krankenhaus-winsen.de/", "wikidata": "Q20617571"}}, {"name": "HELIOS Klinikum Gifhorn", "latitude": 52.4971139, "longitude": 10.5479636, "source": "osm", "_tags": {"addr:city": "Gifhorn", "addr:country": "DE", "addr:housenumber": "6", "addr:postcode": "38518", "addr:street": "Campus", "addr:suburb": "Gamsen", "alt_name": "Krankenhaus Gifhorn", "amenity": "hospital", "building": "yes", "contact:email": "sekretariat.gf@helios-kliniken.de", "contact:fax": "+49 5371 871126", "contact:phone": "+49 5371 870", "contact:website": "https://www.helios-gesundheit.de/kliniken/gifhorn/", "emergency": "yes", "healthcare": "hospital", "height": "0.01", "loc_name": "Krankenhaus", "name": "HELIOS Klinikum Gifhorn", "official_name": "HELIOS Klinikum Gifhorn", "operator": "HELIOS Kliniken GmbH", "roof:colour": "green", "roof:material": "grass", "short_name": "Klinikum Gifhorn", "type": "multipolygon", "wheelchair": "yes"}}, {"name": "HELIOS Klinikum Uelzen", "latitude": 52.9719728, "longitude": 10.5321513, "source": "osm", "_tags": {"addr:city": "Uelzen", "addr:country": "DE", "addr:housenumber": "34", "addr:postcode": "29525", "addr:street": "Hagenskamp", "amenity": "hospital", "building": "hospital", "building:levels": "5", "emergency": "yes", "fax": "+49 581 83 1004", "healthcare": "hospital", "name": "HELIOS Klinikum Uelzen", "operator": "Helios Kliniken", "phone": "+49 581 83 0", "roof:levels": "0", "roof:shape": "flat", "type": "multipolygon", "website": "http://www.helios-kliniken.de/klinik/uelzen.html"}}]