[{"name": "Leicester Nuffield Hospital", "latitude": 52.6440244, "longitude": -1.0713687, "source": "osm", "_tags": {"addr:postcode": "LE5 1HY", "addr:street": "Scraptoft Lane", "amenity": "hospital", "fhrs:id": "26372", "healthcare": "hospital", "name": "Leicester Nuffield Hospital", "source": "survey", "source:postcode": "FHRS Open Data"}}, {"name": "Argyll House", "latitude": 53.3640029, "longitude": -1.4955728, "source": "osm", "_tags": {"addr:city": "Sheffield", "addr:housenumber": "9", "addr:postcode": "S11 9AR", "addr:street": "Williamson Road", "amenity": "hospital", "name": "Argyll House"}}, {"name": "Brian Oliver Centre", "latitude": 52.4716629, "longitude": -1.7446338, "source": "osm", "_tags": {"amenity": "hospital", "healthcare": "hospital", "name": "Brian Oliver Centre", "source": "survey"}}, {"name": "Buxton Hospital & Corbar Birth Centre", "latitude": 53.2482076, "longitude": -1.9082637, "source": "osm", "_tags": {"addr:city": "Buxton", "addr:postcode": "SK17 9NJ", "addr:street": "London Road", "amenity": "hospital", "healthcare": "hospital", "name": "Buxton Hospital & Corbar Birth Centre", "phone": "+44 1298 214 000", "toilets:wheelchair": "yes", "wheelchair": "yes", "wikidata": "Q30293070", "wikipedia": "en:Buxton Hospital"}}, {"name": "Bradbury House Day Hospice", "latitude": 52.4777121, "longitude": -2.0085876, "source": "osm", "_tags": {"addr:housenumber": "494", "addr:postcode": "B68 8DG", "addr:street": "Wolverhampton Road", "amenity": "hospital", "emergency": "no", "fhrs:id": "130119", "healthcare": "hospital", "name": "Bradbury House Day Hospice", "source:addr": "FHRS Open Data"}}, {"name": "Rotherham Hospital Urgent Care Center/A&E", "latitude": 53.4147264, "longitude": -1.3426273, "source": "osm", "_tags": {"addr:housename": "Rotheram General Hospital", "amenity": "hospital", "emergency": "yes", "healthcare": "hospital", "healthcare:speciality": "emergency", "name": "Rotherham Hospital Urgent Care Center/A&E", "operator": "NHS", "operator:type": "public"}}, {"name": "Sheffield Children's Hospital A&E", "latitude": 53.3809483, "longitude": -1.491128, "source": "osm", "_tags": {"amenity": "hospital", "emergency": "yes", "entrance": "yes", "healthcare": "hospital", "healthcare:speciality": "emergency", "name": "Sheffield Children's Hospital A&E", "operator": "NHS", "operator:type": "public", "operator:wikidata": "Q918396"}}, {"name": "Whitwick Health Centre", "latitude": 52.7426883, "longitude": -1.3607266, "source": "osm", "_tags": {"addr:city": "Coalville", "addr:postcode": "LE67 5HX", "addr:street": "North Street", "addr:village": "Whitwick", "amenity": "hospital", "healthcare": "hospital", "name": "Whitwick Health Centre", "website": "https://www.whitwickhealthcentre.co.uk/"}}, {"name": "Stewart House", "latitude": 52.5828417, "longitude": -1.2105078, "source": "osm", "_tags": {"addr:city": "Leicester", "addr:country": "GB", "addr:postcode": "LE19 3EQ", "addr:street": "The Rise", "addr:village": "Narborough", "amenity": "hospital", "fhrs:authority": "Blaby", "fhrs:id": "1201994", "fhrs:local_authority_id": "1201994", "healthcare": "hospital", "name": "Stewart House"}}, {"name": "Cygnet", "latitude": 53.3680665, "longitude": -1.4587301, "source": "osm", "_tags": {"addr:city": "Sheffield", "addr:housenumber": "83", "addr:postcode": "S2 3PX", "addr:street": "East Bank Road", "amenity": "hospital", "beds": "55", "healthcare": "hospital", "healthcare:speciality": "child_psychiatry", "name": "Cygnet"}}, {"name": "Minor Injuries Unit", "latitude": 53.3792011, "longitude": -1.49265, "source": "osm", "_tags": {"addr:city": "Sheffield", "addr:country": "GB", "addr:postcode": "S10 2JF", "addr:street": "Glossop Road", "addr:suburb": "Broomhill", "amenity": "hospital", "healthcare": "hospital", "name": "Minor Injuries Unit", "opening_hours": "Mo-Su 08:00-20:00", "operator": "Sheffield Teaching Hospitals NHS Foundation Trust", "phone": "+44 114 271 2071", "website": "https://sheffieldurgentcare.co.uk/minor-injuries-unit.html"}}, {"name": "South Entrance", "latitude": 52.6531039, "longitude": -1.1799649, "source": "osm", "_tags": {"amenity": "hospital", "emergency": "no", "healthcare": "hospital", "name": "South Entrance"}}, {"name": "Main Entrance", "latitude": 52.6546021, "longitude": -1.1791683, "source": "osm", "_tags": {"amenity": "hospital", "emergency": "no", "healthcare": "hospital", "name": "Main Entrance"}}, {"name": "Phlebotomy Drive Through Service", "latitude": 53.4129642, "longitude": -1.4630985, "source": "osm", "_tags": {"addr:housenumber": "183", "addr:postcode": "S5 7JN", "addr:street": "Longley Lane", "amenity": "hospital", "name": "Phlebotomy Drive Through Service"}}, {"name": "Loughborough Hospital", "latitude": 52.7732631, "longitude": -1.2258229, "source": "osm", "_tags": {"addr:city": "Loughborough", "addr:country": "GB", "amenity": "hospital", "healthcare": "hospital", "name": "Loughborough Hospital", "wheelchair": "yes"}}, {"name": "Northern General Hospital", "latitude": 53.4103679, "longitude": -1.4583046, "source": "osm", "_tags": {"addr:city": "Sheffield", "addr:postcode": "S5 7AU", "addr:street": "Herries Road", "amenity": "hospital", "fhrs:id": "437983", "healthcare": "hospital", "healthcare:speciality": "general", "name": "Northern General Hospital", "operator": "Sheffield Teaching Hospitals NHS Foundation Trust", "operator:type": "public", "ref:GB:ENG:nhs_organisation": "40861", "ref:GB:cqc_location": "RHQNG", "toilets": "yes", "toilets:wheelchair": "yes", "website": "https://www.sth.nhs.uk/our-hospitals/northern-general-hospital", "wheelchair": "yes", "wikidata": "Q7058368"}}, {"name": "Rotherham General Hospital", "latitude": 53.4138178, "longitude": -1.3440131, "source": "osm", "_tags": {"amenity": "hospital", "emergency": "yes", "healthcare": "hospital", "name": "Rotherham General Hospital", "operator": "Rotherham NHS Foundation Trust", "phone": "+44 1709 820000", "wikidata": "Q30279700", "wikipedia": "en:Rotherham General Hospital"}}, {"name": "The Claremont Hospital", "latitude": 53.3753212, "longitude": -1.5359314, "source": "osm", "_tags": {"addr:city": "Sheffield", "addr:housenumber": "401", "addr:postcode": "S10 5UB", "addr:street": "Sandygate Road", "amenity": "hospital", "check_date": "2024-11-16", "fhrs:id": "437991", "healthcare": "hospital", "name": "The Claremont Hospital"}}, {"name": "Queen's Hospital", "latitude": 52.8172068, "longitude": -1.6559312, "source": "osm", "_tags": {"addr:city": "Burton-on-Trent", "addr:postcode": "DE13 0RB", "addr:street": "Belvedere Road", "amenity": "hospital", "healthcare": "hospital", "landuse": "healthcare", "name": "Queen's Hospital", "ref:GB:cqc_location": "RRE1N", "website": "https://www.uhdb.nhs.uk/contact-us-queens-hospital-burton/", "wheelchair": "yes", "wikidata": "Q30293268"}}, {"name": "Outwood Site", "latitude": 52.8204865, "longitude": -1.6592825, "source": "osm", "_tags": {"addr:city": "Burton-on-Trent", "addr:postcode": "DE13 0RB", "addr:street": "Belvedere Road", "amenity": "hospital", "healthcare": "hospital", "landuse": "healthcare", "name": "Outwood Site", "ref:GB:cqc_location": "RTGX1"}}, {"name": "NHS Treatment Centre", "latitude": 52.9423334, "longitude": -1.1824804, "source": "osm", "_tags": {"addr:city": "Nottingham", "addr:housename": "Nottingham NHS Treatment Centre", "addr:postcode": "NG7 2FT", "amenity": "hospital", "building": "hospital", "building:colour": "white", "building:levels": "3", "emergency": "no", "healthcare": "hospital", "hospital": "day_case_unit", "name": "NHS Treatment Centre", "operator": "NHS", "operator:wikidata": "Q918396", "roof:shape": "round", "source": "survey;GPS", "wheelchair": "yes"}}, {"name": "Edward Street Hospital", "latitude": 52.5190405, "longitude": -1.9988028, "source": "osm", "_tags": {"addr:city": "West Bromwich", "addr:postcode": "B70 8NL", "addr:street": "Edward Street", "amenity": "hospital", "emergency": "no", "fhrs:id": "189878", "healthcare": "hospital", "healthcare:speciality": "psychiatry", "name": "Edward Street Hospital", "source:addr": "FHRS Open Data"}}, {"name": "Royal Derby Hospital", "latitude": 52.9109567, "longitude": -1.5130336, "source": "osm", "_tags": {"addr:city": "Derby", "addr:country": "GB", "addr:housename": "Royal Derby Hospital", "addr:postcode": "DE22 3NE", "addr:street": "Uttoxeter Road", "amenity": "hospital", "emergency": "yes", "fhrs:id": "530597", "healthcare": "hospital", "name": "Royal Derby Hospital", "note": "Estimated area/shape of hospital site", "old_name": "Derby City Hospital", "pharmacy": "yes", "phone": "+44 1332 340131", "ref:GB:cqc_location": "RTGFG", "website": "https://www.uhdb.nhs.uk/about-royal-derby-hospital", "wheelchair": "yes", "wikidata": "Q7374106", "wikipedia": "en:Royal Derby Hospital"}}, {"name": "Birmingham Women's Hospital", "latitude": 52.4532071, "longitude": -1.9431784, "source": "osm", "_tags": {"addr:city": "Birmingham", "addr:postcode": "B15 2TG", "amenity": "hospital", "building": "hospital", "healthcare": "hospital", "name": "Birmingham Women's Hospital", "ref:GB:nhs_ods": "RQ370", "source": "visualsurvey;estimate", "wikidata": "Q50379823", "wikipedia": "en:Birmingham Women's Hospital"}}, {"name": "Birmingham Children's Hospital", "latitude": 52.4848585, "longitude": -1.8946865, "source": "osm", "_tags": {"addr:city": "Birmingham", "addr:country": "GB", "addr:postcode": "B4 6NH", "addr:street": "Steelhouse Lane", "amenity": "hospital", "healthcare": "hospital", "name": "Birmingham Children's Hospital", "phone": "+44 121 333 9999", "source": "visual survey & estimate", "toilets:wheelchair": "yes", "website": "https://bwc.nhs.uk/birmingham-childrens-hospital", "wheelchair": "yes", "wikidata": "Q4916640", "wikipedia": "en:Birmingham Children's Hospital"}}, {"name": "Birmingham Children's Hospital A&E", "latitude": 52.4852614, "longitude": -1.8931227, "source": "osm", "_tags": {"amenity": "hospital", "building": "yes", "healthcare": "hospital", "name": "Birmingham Children's Hospital A&E", "source": "visual survey;cities_revealed_aerial_imagery", "toilets:wheelchair": "yes", "wheelchair": "yes"}}, {"name": "Chelmsley Wood NHS Primary Care Centre", "latitude": 52.4804183, "longitude": -1.7524838, "source": "osm", "_tags": {"amenity": "hospital", "healthcare": "hospital", "name": "Chelmsley Wood NHS Primary Care Centre", "source": "visual survey;estimate"}}, {"name": "Birmingham Heartlands Hospital", "latitude": 52.478081, "longitude": -1.8286543, "source": "osm", "_tags": {"addr:city": "Birmingham", "addr:postcode": "B9 5ST", "addr:street": "Bordesley Green East", "amenity": "hospital", "healthcare": "hospital", "name": "Birmingham Heartlands Hospital", "wikidata": "Q30279830", "wikipedia": "en:Heartlands Hospital"}}, {"name": "Bloxwich Hospital", "latitude": 52.6136617, "longitude": -2.0047866, "source": "osm", "_tags": {"addr:postcode": "WS3 2JJ", "amenity": "hospital", "fhrs:id": "184542", "healthcare": "hospital", "name": "Bloxwich Hospital"}}, {"name": "The Zinnia Centre", "latitude": 52.4490905, "longitude": -1.8674131, "source": "osm", "_tags": {"addr:city": "Birmingham", "addr:housenumber": "100", "addr:postcode": "B11 4HL", "addr:street": "Showell Green Lane", "amenity": "hospital", "healthcare": "hospital", "name": "The Zinnia Centre", "operator": "Birmingham & Solihull Mental Health NHS Trust", "source": "survey"}}, {"name": "The Priory Hospital", "latitude": 52.4556795, "longitude": -1.9137533, "source": "osm", "_tags": {"addr:city": "Birmingham", "addr:postcode": "B5 7UG", "addr:street": "Priory Road", "amenity": "hospital", "healthcare": "hospital", "name": "The Priory Hospital", "operator": "Circle Health Group", "operator:type": "private", "operator:wikidata": "Q5121384", "phone": "+44 1214 402 323", "website": "https://www.circlehealthgroup.co.uk/hospitals/the-priory-hospital"}}, {"name": "Princess Royal Spinal Injuries Unit", "latitude": 53.4116674, "longitude": -1.4542059, "source": "osm", "_tags": {"building": "hospital", "healthcare": "hospital", "healthcare:speciality": "neurosurgery", "name": "Princess Royal Spinal Injuries Unit", "operator": "Shefield Teaching Hospitals NHS Foundation Trust", "operator:type": "public", "website": "https://www.sth.nhs.uk/services/a-z-of-services?id=277"}}, {"name": "Samuel Johnson Community Hospital", "latitude": 52.6858684, "longitude": -1.8155525, "source": "osm", "_tags": {"addr:postcode": "WS13 6EF", "addr:street": "Trent Valley Road", "amenity": "hospital", "building": "hospital", "fhrs:id": "1248900", "healthcare": "hospital", "name": "Samuel Johnson Community Hospital", "source": "OS_Streetview; estimation", "source:addr": "FHRS Open Data", "website": "https://www.nhs.uk/servicedirectories/pages/hospital.aspx?id=5PK93", "wheelchair": "yes", "wikidata": "Q30292830"}}, {"name": "Sutton Coldfield Cottage Hospital", "latitude": 52.558999, "longitude": -1.8260897, "source": "osm", "_tags": {"addr:city": "Sutton Coldfield", "addr:postcode": "B72 1QH", "addr:street": "Birmingham Road", "amenity": "hospital", "healthcare": "hospital", "name": "Sutton Coldfield Cottage Hospital", "name:signed": "no", "nohousenumber": "yes"}}, {"name": "Jessop Wing", "latitude": 53.379042, "longitude": -1.4948104, "source": "osm", "_tags": {"building": "hospital", "healthcare": "hospital", "healthcare:speciality": "maternity", "name": "Jessop Wing", "operator": "Sheffield Teaching Hospitals NHS Foundation Trust", "website": "https://www.sth.nhs.uk/our-hospitals/jessop-wing"}}, {"name": "Cygnet Hospital Derby", "latitude": 52.907411, "longitude": -1.4550889, "source": "osm", "_tags": {"addr:city": "Derby", "addr:housenumber": "100", "addr:postcode": "DE24 8WZ", "addr:street": "City Gate", "amenity": "hospital", "fhrs:id": "441876", "healthcare": "hospital", "name": "Cygnet Hospital Derby", "ref:GB:cqc_location": "1-130486705", "source": "estimation;survey", "website": "https://www.cygnetgroup.com/"}}, {"name": "Moseley Hall Hospital", "latitude": 52.4463416, "longitude": -1.893374, "source": "osm", "_tags": {"amenity": "hospital", "healthcare": "hospital", "name": "Moseley Hall Hospital", "source": "visual survey;estimate"}}, {"name": "Ripley Hospital", "latitude": 53.0479436, "longitude": -1.4109774, "source": "osm", "_tags": {"addr:city": "Ripley", "addr:housename": "Ripley Hospital", "addr:postcode": "DE5 3HE", "addr:street": "Sandham Lane", "amenity": "hospital", "emergency": "no", "fhrs:id": "1169", "healthcare": "hospital", "name": "Ripley Hospital", "not:addr:postcode": "DE5 3HF", "operator": "Derbyshire Community Health Services NHS Foundation Trust", "operator:type": "government", "phone": "+44 1773 743456", "ref:GB:cqc_location": "RY8DG", "source": "survey;OS_OpenData_StreetView", "website": "https://www.nhs.uk/Services/hospitals/Overview/DefaultView.aspx?id=34465"}}, {"name": "Ilkeston Community Hospital", "latitude": 52.9881546, "longitude": -1.3207737, "source": "osm", "_tags": {"addr:city": "Ilkeston", "addr:postcode": "DE7 8LN", "addr:street": "Heanor Road", "amenity": "hospital", "fhrs:id": "251849;251771", "healthcare": "hospital", "name": "Ilkeston Community Hospital", "not:addr:postcode": "DE7 8TX", "ref:GB:cqc_location": "RY846", "source:addr": "FHRS Open Data", "source:area": "OS_OpenData_StreetView;estimation", "source:name": "survey"}}, {"name": "Stratford Road Centre", "latitude": 52.4514949, "longitude": -1.8641585, "source": "osm", "_tags": {"addr:city": "Birmingham", "addr:housenumber": "572-576", "addr:postcode": "B11 4AN", "addr:street": "Stratford Road", "amenity": "hospital", "building": "yes", "healthcare": "hospital", "name": "Stratford Road Centre", "note": "drug rehabilitation unit", "source": "bing"}}, {"name": "Richmond Primary Care Centre", "latitude": 52.47759, "longitude": -1.8160833, "source": "osm", "_tags": {"addr:housenumber": "299", "addr:postcode": "B33 8TA", "addr:street": "Bordesley Green East", "amenity": "hospital", "healthcare": "hospital", "name": "Richmond Primary Care Centre", "opening_hours": "Su 00:00-24:00; Mo-Sa 08:00-18:30", "phone": "+44 121 203 3000", "source": "visual survey; estimate", "website": "https://iridiummedicalpractice.nhs.uk/"}}, {"name": "Birmingham Chest Clinic", "latitude": 52.4816103, "longitude": -1.9050639, "source": "osm", "_tags": {"addr:city": "Birmingham", "addr:housenumber": "151", "addr:postcode": "B3 3HX", "addr:street": "Great Charles Street Queensway", "amenity": "hospital", "architect": "Jon P Osborne & Son", "building": "yes", "healthcare": "hospital", "name": "Birmingham Chest Clinic", "source": "cities_revealed_aerial_imagery", "start_date": "1930"}}, {"name": "St Patricks Centre for Community Health", "latitude": 52.464311, "longitude": -1.8874012, "source": "osm", "_tags": {"amenity": "hospital", "healthcare": "hospital", "name": "St Patricks Centre for Community Health", "note": "home of BRASH Birmingham Reproductive And Sexual Health", "source": "visual survey; estimate"}}, {"name": "Whitworth Hospital", "latitude": 53.1507222, "longitude": -1.574773, "source": "osm", "_tags": {"addr:city": "Matlock", "addr:county": "Derbyshire", "addr:housenumber": "330", "addr:postcode": "DE4 2JD", "addr:street": "Bakewell Road", "amenity": "hospital", "fhrs:id": "1626278", "healthcare": "hospital", "name": "Whitworth Hospital", "note": "Estimated area of hospital", "ref:GB:cqc_location": "RY838", "source": "estimation;survey;OS_OpenData_StreetView", "toilets:wheelchair": "yes", "website": "http://www.derbyshirecounty.nhs.uk/services_we_provide/dchs_service_directory/dchs_hospitals/id/52/t/10", "wheelchair": "yes"}}, {"name": "The Priory Hospital", "latitude": 52.456537, "longitude": -1.9105584, "source": "osm", "_tags": {"addr:city": "Birmingham", "addr:postcode": "B5 7UB", "addr:street": "Bristol Road", "amenity": "hospital", "building": "yes", "healthcare": "hospital", "name": "The Priory Hospital", "source": "OS_OpenData_StreetView"}}, {"name": "Runcorn Road Dialysis Unit", "latitude": 52.4556429, "longitude": -1.8837419, "source": "osm", "_tags": {"amenity": "hospital", "building": "yes", "emergency": "no", "healthcare": "hospital", "name": "Runcorn Road Dialysis Unit", "source": "survey;OS_OpenData_StreetView"}}, {"name": "Tamarind Centre", "latitude": 52.4749097, "longitude": -1.8360383, "source": "osm", "_tags": {"amenity": "hospital", "emergency": "no", "healthcare": "hospital", "name": "Tamarind Centre", "operator": "Birmingham & Solihull Mental Health Foundation Trust", "source": "visual survey; estimate", "website": "https://www.bsmhft.nhs.uk/our-services/secure-care-and-offender-health/medium-secure-forensic-service-for-men/tamarind-centre/"}}, {"name": "Riverside Lodge Intermediate Care Unit", "latitude": 52.4735151, "longitude": -1.8354011, "source": "osm", "_tags": {"amenity": "hospital", "healthcare": "hospital", "name": "Riverside Lodge Intermediate Care Unit", "source": "visual survey; estimate"}}, {"name": "Carnegie Centre", "latitude": 52.4971516, "longitude": -1.9154948, "source": "osm", "_tags": {"addr:city": "Birmingham", "addr:housename": "Carnegie Centre", "addr:postcode": "B19 1DU", "addr:street": "Hunters Road", "amenity": "hospital", "building": "yes", "healthcare": "hospital", "name": "Carnegie Centre", "operator": "NHS", "operator:wikidata": "Q918396", "previous_name": "The Carnegie Infant Welfare Institute", "source": "bing"}}, {"name": "Summerfield Urgent Care Centre", "latitude": 52.4877039, "longitude": -1.93733, "source": "osm", "_tags": {"addr:city": "Birmingham", "addr:postcode": "B18 7AL", "addr:street": "Heath Street", "amenity": "hospital", "building": "yes", "healthcare": "hospital", "name": "Summerfield Urgent Care Centre", "source": "visual survey;cities_revealed_aerial_ imagery"}}, {"name": "Babington Hospital", "latitude": 53.0183409, "longitude": -1.4859676, "source": "osm", "_tags": {"addr:city": "Belper", "addr:postcode": "DE56 1WH", "addr:street": "Derby Road", "amenity": "hospital", "emergency": "no", "healthcare": "hospital", "name": "Babington Hospital", "old_fhrs:id": "1082", "ref:GB:cqc_location": "RY8DE", "source": "estimation;OS_OpenData_StreetView", "source:name": "survey", "wikidata": "Q30292853"}}, {"name": "Rowley Regis Hospital", "latitude": 52.4809166, "longitude": -2.052547, "source": "osm", "_tags": {"addr:postcode": "B65 8DA", "addr:street": "Moor Lane", "amenity": "hospital", "fhrs:id": "108784", "healthcare": "hospital", "name": "Rowley Regis Hospital", "source": "visual survey;estimate", "source:addr": "FHRS Open Data", "wheelchair": "yes", "wikidata": "Q7372243", "wikipedia": "en:Rowley Regis Hospital"}}, {"name": "Hunters Moor Neurorehabilitation Unit", "latitude": 52.4413842, "longitude": -1.8426972, "source": "osm", "_tags": {"amenity": "hospital", "healthcare": "hospital", "name": "Hunters Moor Neurorehabilitation Unit", "source": "visual survey; estimate"}}, {"name": "Queens Medical Centre", "latitude": 52.9435829, "longitude": -1.1850335, "source": "osm", "_tags": {"addr:city": "Nottingham", "addr:postcode": "NG7 2UH", "addr:street": "Derby Road", "alt_name": "QMC", "amenity": "hospital", "emergency": "yes", "fhrs:id": "1076275;1200749;1200751;962388;1200750", "healthcare": "hospital", "name": "Queens Medical Centre", "source": "Bing;local_knowledge", "wheelchair": "yes", "wikidata": "Q7270030", "wikipedia": "en:Queen's Medical Centre"}}, {"name": "The Edgbaston Hospital", "latitude": 52.4574572, "longitude": -1.9331801, "source": "osm", "_tags": {"amenity": "hospital", "emergency": "no", "healthcare": "hospital", "name": "The Edgbaston Hospital", "ref:GB:nhs_ods": "NT445", "source": "visual survey;bing"}}, {"name": "Orsborn House NHS Substance Misuse Services", "latitude": 52.5010553, "longitude": -1.9213317, "source": "osm", "_tags": {"amenity": "hospital", "healthcare": "hospital", "name": "Orsborn House NHS Substance Misuse Services", "source": "visual survey;bing"}}, {"name": "Woodbourne Priory Hospital", "latitude": 52.4713375, "longitude": -1.9548769, "source": "osm", "_tags": {"amenity": "hospital", "healthcare": "hospital", "name": "Woodbourne Priory Hospital", "operator": "The Priory Group", "source": "visual survey; bing"}}, {"name": "Nuffield Health Derby Hospital", "latitude": 52.8934038, "longitude": -1.5302976, "source": "osm", "_tags": {"addr:city": "Derby", "addr:postcode": "DE23 4SN", "addr:street": "Rykneld Road", "amenity": "hospital", "healthcare": "hospital", "name": "Nuffield Health Derby Hospital", "operator": "Nuffield Health", "operator:type": "private", "operator:wikidata": "Q7068711", "phone": "+44 1332 540100", "ref:GB:cqc_location": "1-115574458", "website": "https://www.nuffieldhealth.com/hospitals/derby"}}, {"name": "Saint Andrew's Healthcare", "latitude": 52.4355352, "longitude": -1.9156324, "source": "osm", "_tags": {"amenity": "hospital", "healthcare": "hospital", "name": "Saint Andrew's Healthcare", "operator": "Saint Andrew's Healthcare"}}, {"name": "Buxton Health Centre", "latitude": 53.2541476, "longitude": -1.9174624, "source": "osm", "_tags": {"addr:city": "Buxton", "addr:postcode": "SK17 6HH", "addr:street": "Bath Road", "amenity": "hospital", "building": "yes", "emergency": "no", "healthcare": "hospital", "healthcare:speciality": "child_psychiatry;podiatry;paediatrics", "name": "Buxton Health Centre", "operator": "Chesterfield Royal Hospital NHS Foundation Trust", "wheelchair": "yes"}}, {"name": "Northcroft Hospital", "latitude": 52.5232292, "longitude": -1.8551237, "source": "osm", "_tags": {"addr:city": "Birmingham", "addr:postcode": "B23 6DW", "addr:street": "Reservoir Road", "amenity": "hospital", "emergency": "no", "healthcare": "hospital", "name": "Northcroft Hospital", "source": "visual survey;bing"}}, {"name": "Lightwood House", "latitude": 53.3377128, "longitude": -1.4399246, "source": "osm", "_tags": {"amenity": "hospital", "healthcare": "hospital", "name": "Lightwood House", "source": "Bing"}}, {"name": "St Stephen's Centre Rehabilitation Day Care", "latitude": 52.4988942, "longitude": -1.9350623, "source": "osm", "_tags": {"amenity": "hospital", "healthcare": "hospital", "name": "St Stephen's Centre Rehabilitation Day Care", "operator": "Birmingham City Council Social Services"}}, {"name": "Hallam Street Hospital", "latitude": 52.5277547, "longitude": -1.9858472, "source": "osm", "_tags": {"addr:city": "West Bromwich", "addr:postcode": "B71 4NH", "addr:street": "Hallam Street", "amenity": "hospital", "contact:phone": "+44 121 612 8628", "emergency": "no", "healthcare": "hospital", "name": "Hallam Street Hospital", "operator": "Black Country Partnership NHS Foundation Trust", "website": "https://www.blackcountryhealthcare.nhs.uk/our-services/hallam-street-hospital"}}, {"name": "The Barberry National Centre for Mental Health", "latitude": 52.4489199, "longitude": -1.9424287, "source": "osm", "_tags": {"addr:city": "Birmingham", "addr:housenumber": "25", "addr:postcode": "B15 2FG", "addr:street": "Vincent Drive", "amenity": "hospital", "building": "yes", "healthcare": "hospital", "name": "The Barberry National Centre for Mental Health", "ref:GB:nhs_ods": "RXTD3", "source": "OS_OpenData_StreetView"}}, {"name": "Walton Hospital", "latitude": 53.2214913, "longitude": -1.4415955, "source": "osm", "_tags": {"addr:city": "Chesterfield", "addr:postcode": "S40 3HW", "addr:street": "Whitecotes Lane", "amenity": "hospital", "fhrs:id": "215185", "healthcare": "hospital", "name": "Walton Hospital", "source": "Bing", "source:name": "survey"}}, {"name": "Sandwell Health Campus", "latitude": 52.5274438, "longitude": -1.9886247, "source": "osm", "_tags": {"addr:city": "West Bromwich", "addr:postcode": "B71 4HJ", "addr:street": "Lyndon", "amenity": "hospital", "emergency": "no", "fhrs:id": "575595", "fixme": "needs survey - whiich clinics are still in use?", "former:name": "Sandwell General Hospital", "healthcare": "hospital", "name": "Sandwell Health Campus", "note": "A&E Closed on 6 Oct 2024, replaced by new A&E at Midland Metropolitan Hospital. source: https://www.bbc.co.uk/news/articles/cwylg21epw4o", "source": "visual survey;bing", "source:addr": "FHRS Open Data", "source:name": "https://www.swbh.nhs.uk/our-new-hospital/sandwell-health-campus/", "wheelchair": "yes", "wikidata": "Q7417055"}}, {"name": "Heath Lane Hospital", "latitude": 52.5376333, "longitude": -1.9904271, "source": "osm", "_tags": {"addr:city": "West Bromwich", "addr:postcode": "B71 2BG", "addr:street": "Heath Lane", "amenity": "hospital", "fhrs:id": "90441", "healthcare": "hospital", "name": "Heath Lane Hospital", "source": "visual survey;bing", "source:addr": "FHRS Open Data"}}, {"name": "Feilding Palmer Hospital", "latitude": 52.4578489, "longitude": -1.1976736, "source": "osm", "_tags": {"addr:city": "Lutterworth", "addr:country": "GB", "addr:postcode": "LE17 4DZ", "addr:street": "Gilmorton Road", "amenity": "hospital", "building": "yes", "fhrs:authority": "Harborough", "fhrs:id": "893931", "fhrs:local_authority_id": "16/00026/FOODC", "healthcare": "hospital", "name": "Feilding Palmer Hospital"}}, {"name": "University Hospital Coventry & Warwickshire", "latitude": 52.4217727, "longitude": -1.4370726, "source": "osm", "_tags": {"addr:city": "Coventry", "addr:housename": "University Hospital Coventry & Warwickshire", "addr:postcode": "CV2 2DX", "addr:street": "Clifford Bridge Road", "amenity": "hospital", "building": "yes", "emergency": "yes", "healthcare": "hospital", "name": "University Hospital Coventry & Warwickshire", "operator": "NHS", "operator:type": "public", "operator:wikidata": "Q918396", "phone": "+44 24 7696 4000", "smoking": "no", "website": "https://www.uhcw.nhs.uk/", "wheelchair": "yes"}}, {"name": "BMI Meriden Hospital", "latitude": 52.4233953, "longitude": -1.4380762, "source": "osm", "_tags": {"amenity": "hospital", "check_date": "2024-06-13", "healthcare": "hospital", "name": "BMI Meriden Hospital", "wikidata": "Q7751074", "wikipedia": "en:The Meriden Hospital"}}, {"name": "University Hospital Coventry", "latitude": 52.4215366, "longitude": -1.4398492, "source": "osm", "_tags": {"amenity": "hospital", "emergency": "yes", "healthcare": "hospital", "name": "University Hospital Coventry", "source": "bing", "wikidata": "Q7894765", "wikipedia": "en:University Hospital Coventry"}}, {"name": "Cheadle Hosptal", "latitude": 52.9844926, "longitude": -1.9906276, "source": "osm", "_tags": {"amenity": "hospital", "emergency": "no", "healthcare:speciality": "general", "name": "Cheadle Hosptal", "operator": "NHS", "operator:type": "government"}}, {"name": "Hampton Surgery", "latitude": 52.4239013, "longitude": -1.7021597, "source": "osm", "_tags": {"addr:city": "Solihull", "addr:housename": "Fentham Hall", "addr:postcode": "B92 0AH", "addr:street": "Marsh Lane", "addr:suburb": "Hampton in Arden", "amenity": "hospital", "building": "yes", "email": "hampton.surgery1@nhs.net", "emergency": "no", "healthcare": "hospital", "healthcare:speciality": "general", "name": "Hampton Surgery", "operator": "NHS", "operator:type": "government", "phone": "+44 1675 442510", "source": "bing"}}, {"name": "Park View Clinic", "latitude": 52.4396902, "longitude": -1.8977674, "source": "osm", "_tags": {"amenity": "hospital", "healthcare": "hospital", "name": "Park View Clinic"}}, {"name": "Royal Hallamshire Hospital", "latitude": 53.3786684, "longitude": -1.4931511, "source": "osm", "_tags": {"addr:city": "Sheffield", "addr:country": "GB", "addr:postcode": "S10 2JF", "addr:street": "Glossop Road", "addr:suburb": "Broomhill", "amenity": "hospital", "fhrs:id": "437987", "healthcare": "hospital", "healthcare:speciality": "general", "name": "Royal Hallamshire Hospital", "operator": "Sheffield Teaching Hospitals NHS Foundation Trust", "wikidata": "Q7374251"}}, {"name": "Coalville Community Hospital", "latitude": 52.7240057, "longitude": -1.3479884, "source": "osm", "_tags": {"addr:city": "Coalville", "addr:postcode": "LE67 4DE", "addr:street": "Broom Leys Road", "amenity": "hospital", "fhrs:id": "1551891", "healthcare": "hospital", "name": "Coalville Community Hospital", "source": "Bing", "source:name": "Naptan;FHRS Open Data", "source:postcode": "FHRS Open Data", "wheelchair": "yes"}}, {"name": "Guernsey House", "latitude": 53.3634645, "longitude": -1.4721663, "source": "osm", "_tags": {"addr:city": "Sheffield", "addr:postcode": "S2 4HJ", "addr:street": "London Road", "amenity": "hospital", "building": "yes", "healthcare": "hospital", "name": "Guernsey House"}}, {"name": "Ardenleigh Hospital", "latitude": 52.5159208, "longitude": -1.8338363, "source": "osm", "_tags": {"addr:city": "Birmingham", "addr:postcode": "B24 9SB", "addr:street": "Kingsbury Road", "amenity": "hospital", "emergency": "no", "healthcare": "hospital", "name": "Ardenleigh Hospital", "operator": "Birmingham and Solihull Mental Health NHS Foundation Trust", "source": "bing"}}, {"name": "John Taylor Hospice", "latitude": 52.5275637, "longitude": -1.8224308, "source": "osm", "_tags": {"amenity": "hospital", "healthcare": "hospital", "name": "John Taylor Hospice", "source": "visual survey; bing"}}, {"name": "Park Road Children & Family Centre", "latitude": 52.4482984, "longitude": -1.8680365, "source": "osm", "_tags": {"amenity": "hospital", "healthcare": "hospital", "name": "Park Road Children & Family Centre", "operator": "South Birmingham NHS"}}, {"name": "Washwood Heath Urgent Care Centre", "latitude": 52.487432, "longitude": -1.8490631, "source": "osm", "_tags": {"addr:city": "Birmingham", "addr:postcode": "B8 3SW", "addr:street": "Clodeshall Road", "amenity": "hospital", "building": "yes", "healthcare": "hospital", "name": "Washwood Heath Urgent Care Centre", "source": "visual survey;OS_OpenData_StreetView"}}, {"name": "Newholme Hospital", "latitude": 53.2187164, "longitude": -1.6719323, "source": "osm", "_tags": {"addr:city": "Bakewell", "addr:postcode": "DE45 1AD", "addr:street": "Baslow Road", "amenity": "hospital", "building": "yes", "healthcare": "hospital", "name": "Newholme Hospital", "ref:GB:cqc_location": "RY81V", "wikidata": "Q30293134"}}, {"name": "Maple Leaf Centre", "latitude": 52.4703583, "longitude": -1.7362215, "source": "osm", "_tags": {"amenity": "hospital", "healthcare": "hospital", "name": "Maple Leaf Centre", "source": "visual survey;bing"}}, {"name": "Sherwood Oaks Hospital", "latitude": 53.1247702, "longitude": -1.15033, "source": "osm", "_tags": {"addr:city": "Mansfield", "addr:postcode": "NG18 4GW", "addr:street": "Sherwood Avenue", "amenity": "hospital", "fhrs:id": "1519349", "healthcare": "hospital", "healthcare:speciality": "learning_disabilities", "name": "Sherwood Oaks Hospital", "ref:GB:cqc_location": "1-233736027", "website": "https://www.nottinghamshirehealthcare.nhs.uk/sherwood-oaks/"}}, {"name": "Glenfield Hospital", "latitude": 52.655242, "longitude": -1.1796047, "source": "osm", "_tags": {"addr:city": "Leicester", "addr:postcode": "LE3 9QP", "addr:street": "Groby Road", "amenity": "hospital", "emergency": "no", "healthcare": "hospital", "name": "Glenfield Hospital", "operator": "University Hospitals of Leicester NHS Trust", "source": "Bing", "website": "https://www.leicestershospitals.nhs.uk/aboutus/our-hospitals/glenfield-hospital/", "wikidata": "Q5568506", "wikipedia": "en:Glenfield Hospital"}}, {"name": "Gorse Hill Hospital", "latitude": 52.6630447, "longitude": -1.1759996, "source": "osm", "_tags": {"addr:city": "Leicester", "addr:postcode": "LE7 7GX", "addr:street": "Anstey Lane", "amenity": "hospital", "emergency": "no", "healthcare": "hospital", "name": "Gorse Hill Hospital", "operator": "Leicestershire Partnership NHS Trust"}}, {"name": "Leicester General", "latitude": 52.6300107, "longitude": -1.081583, "source": "osm", "_tags": {"alt_name": "City General", "amenity": "hospital", "healthcare": "hospital", "name": "Leicester General", "source": "Bing", "wikidata": "Q6519183", "wikipedia": "en:Leicester General Hospital"}}, {"name": "", "latitude": 52.6134661, "longitude": -1.0786535, "source": "osm", "_tags": {"amenity": "hospital", "healthcare": "hospital", "source": "Bing"}}, {"name": "Spire Leicester Hospital", "latitude": 52.6135781, "longitude": -1.0782147, "source": "osm", "_tags": {"addr:city": "Oadby", "addr:country": "GB", "addr:postcode": "LE2 2FF", "addr:street": "Gartree Road", "amenity": "hospital", "building": "yes", "emergency": "no", "fhrs:authority": "Oadby and Wigston", "fhrs:id": "7303", "fhrs:local_authority_id": "02930/2006/2/000", "healthcare": "hospital", "name": "Spire Leicester Hospital", "not:addr:postcode": "LE2 2FG", "source": "Bing", "website": "https://www.spirehealthcare.com/leicester/"}}, {"name": "Nether Edge Hospital", "latitude": 53.3608726, "longitude": -1.4982445, "source": "osm", "_tags": {"access": "customers", "addr:city": "Sheffield", "addr:housename": "Nether Edge Hospital", "addr:housenumber": "75", "addr:postcode": "S11 9BF", "addr:street": "Osborne Road", "amenity": "hospital", "healthcare": "hospital", "name": "Nether Edge Hospital"}}, {"name": "Nether Edge Hospital", "latitude": 53.3603617, "longitude": -1.4937724, "source": "osm", "_tags": {"access": "customers", "addr:city": "Sheffield", "amenity": "hospital", "healthcare": "hospital", "name": "Nether Edge Hospital"}}, {"name": "Maplewood Independent Hospital", "latitude": 52.4457963, "longitude": -1.5454063, "source": "osm", "_tags": {"addr:city": "Coventry", "addr:street": "Tamworth Road", "amenity": "hospital", "healthcare": "hospital", "name": "Maplewood Independent Hospital"}}, {"name": "Duncan Macmillan House", "latitude": 52.9794761, "longitude": -1.1276605, "source": "osm", "_tags": {"addr:city": "Nottingham", "addr:postcode": "NG3 6AA", "addr:street": "Porchester Road", "addr:suburb": "Mapperley", "amenity": "hospital", "emergency": "no", "fhrs:id": "218855", "healthcare": "hospital", "name": "Duncan Macmillan House", "operator": "NHS", "operator:wikidata": "Q918396", "smoking": "no", "source:addr": "CQC open data", "wheelchair": "yes"}}, {"name": "City Hospital", "latitude": 52.9906441, "longitude": -1.1574913, "source": "osm", "_tags": {"addr:city": "Nottingham", "addr:postcode": "NG5 1PB", "addr:street": "Hucknall Road", "amenity": "hospital", "fhrs:id": "731203;962389;962390;1180483;1180486", "healthcare": "hospital", "name": "City Hospital", "operator": "Nottingham University Hospitals NHS Trust", "website": "https://www.nuh.nhs.uk/contact-city-hospital", "wikidata": "Q7063615", "wikipedia": "en:Nottingham City Hospital"}}, {"name": "", "latitude": 52.4749956, "longitude": -1.8329568, "source": "osm", "_tags": {"amenity": "hospital", "healthcare": "hospital", "source": "visual survey; estimate"}}, {"name": "The Park Hospital", "latitude": 53.0502929, "longitude": -1.1431495, "source": "osm", "_tags": {"addr:city": "Nottingham", "addr:postcode": "NG5 8RX", "addr:street": "Sherwood Lodge Drive", "amenity": "hospital", "emergency": "no", "healthcare": "hospital", "name": "The Park Hospital", "operator": "BMI Healthcare", "source:addr": "FHRS Open Data"}}, {"name": "Mansfield Community Hospital", "latitude": 53.1412644, "longitude": -1.205859, "source": "osm", "_tags": {"addr:city": "Mansfield", "addr:country": "GB", "addr:housename": "Mansfield Community Hospital", "addr:postcode": "NG18 5QJ", "addr:street": "Stockwell Gate", "amenity": "hospital", "emergency": "no", "healthcare": "hospital", "name": "Mansfield Community Hospital", "phone": "+44 1623 785050", "website": "https://www.sfh-tr.nhs.uk/our-hospitals/mansfield-community-hospital/"}}, {"name": "Dorothy Pattison Hospital", "latitude": 52.5826088, "longitude": -2.0024648, "source": "osm", "_tags": {"addr:city": "Walsall", "addr:postcode": "WS2 9XH", "addr:street": "Alumwell Close", "amenity": "hospital", "email": "dwmh.communication@nhs.net", "emergency": "no", "fhrs:id": "184696", "healthcare": "hospital", "name": "Dorothy Pattison Hospital", "phone": "+44 1922 607000", "website": "http://www.dwmh.nhs.uk", "wikidata": "Q28382462"}}, {"name": "Walsall Manor Hospital", "latitude": 52.5830475, "longitude": -1.9984571, "source": "osm", "_tags": {"addr:city": "Walsall", "addr:postcode": "WS2 9PS", "addr:street": "Moat Road", "amenity": "hospital", "beds": "550", "emergency": "yes", "fhrs:id": "188321", "healthcare": "hospital", "healthcare:speciality": "general", "name": "Walsall Manor Hospital", "operator": "Walsall Healthcare NHS Trust", "operator:type": "public", "start_date": "1896", "website": "https://www.walsallhealthcare.nhs.uk/patients-and-visitors/planning-your-visit/hospital/", "wikidata": "Q30280852", "wikipedia": "en:Walsall Manor Hospital"}}, {"name": "", "latitude": 52.5820097, "longitude": -1.995218, "source": "osm", "_tags": {"amenity": "hospital", "healthcare": "hospital", "source": "visual survey; bing"}}, {"name": "Clay Cross Hospital", "latitude": 53.1672706, "longitude": -1.4065197, "source": "osm", "_tags": {"addr:city": "Chesterfield", "addr:housename": "Clay Cross Community Hospital", "addr:postcode": "S45 9NZ", "addr:street": "Market Street", "addr:town": "Clay Cross", "amenity": "hospital", "fhrs:id": "351147", "healthcare": "hospital", "name": "Clay Cross Hospital"}}, {"name": "Saint Oswald's Hospital", "latitude": 53.0130185, "longitude": -1.7393121, "source": "osm", "_tags": {"addr:city": "Ashbourne", "addr:country": "GB", "addr:county": "Derbyshire", "addr:postcode": "DE6 1DR", "addr:street": "Clifton Road", "amenity": "hospital", "emergency": "no", "fhrs:id": "1626389", "healthcare": "hospital", "name": "Saint Oswald's Hospital", "operator": "NHS", "operator:type": "public", "operator:wikidata": "Q918396", "phone": "+44 1335 230000", "ref:GB:cqc_location": "RY87V", "source:addr": "FHRS Open Data", "website": "https://dchs.nhs.uk/our-services-and-locations/our-locations/community-hospitals/st-oswalds-hospital"}}, {"name": "Kings Mill Hospital", "latitude": 53.1357747, "longitude": -1.2344668, "source": "osm", "_tags": {"addr:city": "Sutton-in-Ashfield", "addr:housename": "Kings Mill Hospital", "addr:postcode": "NG17 4JL", "addr:street": "Mansfield Road", "amenity": "hospital", "emergency": "yes", "healthcare": "hospital", "name": "Kings Mill Hospital", "source": "View from each side;Bing", "wikidata": "Q6411025", "wikipedia": "en:King's Mill Hospital"}}, {"name": "", "latitude": 52.5198048, "longitude": -1.8522665, "source": "osm", "_tags": {"amenity": "hospital", "healthcare": "hospital", "source": "survey"}}, {"name": "Chesterfield Royal Hospital", "latitude": 53.2364539, "longitude": -1.3982786, "source": "osm", "_tags": {"addr:city": "Chesterfield", "addr:housename": "Chesterfield and North Derbyshire Royal Hospital", "addr:postcode": "S44 5BL", "addr:street": "Chesterfield Road", "addr:village": "Calow", "amenity": "hospital", "fhrs:id": "215420;215471;1389441", "healthcare": "hospital", "name": "Chesterfield Royal Hospital", "not:addr:street": "Hady Hill", "operator": "Chesterfield Royal Hospital NHS Foundation Trust", "operator:wikidata": "Q16890251", "source:addr": "FHRS Open Data", "wheelchair": "yes", "wikidata": "Q30279783"}}, {"name": "Hinckley & Market Bosworth Community Hospital", "latitude": 52.5616106, "longitude": -1.3690568, "source": "osm", "_tags": {"amenity": "hospital", "building": "yes", "emergency": "no", "healthcare": "hospital", "name": "Hinckley & Market Bosworth Community Hospital", "source": "Bing"}}, {"name": "Hinckley Hospital", "latitude": 52.5400042, "longitude": -1.3680918, "source": "osm", "_tags": {"amenity": "hospital", "healthcare": "hospital", "name": "Hinckley Hospital"}}, {"name": "Woodside Workplace Health & Wellbeing", "latitude": 53.417386, "longitude": -1.3460081, "source": "osm", "_tags": {"amenity": "hospital", "name": "Woodside Workplace Health & Wellbeing"}}, {"name": "Leicester Royal Infirmary", "latitude": 52.62662, "longitude": -1.1354918, "source": "osm", "_tags": {"amenity": "hospital", "emergency": "yes", "healthcare": "hospital", "name": "Leicester Royal Infirmary", "phone": "+44 300 303 1573", "source": "Bing imagery", "wikidata": "Q6519220", "wikipedia": "en:Leicester Royal Infirmary"}}, {"name": "Barlborough NHS Treatment Centre", "latitude": 53.2820001, "longitude": -1.2831239, "source": "osm", "_tags": {"addr:city": "Chesterfield", "addr:housenumber": "2", "addr:postcode": "S43 4XE", "addr:street": "Lindrick Way", "addr:suburb": "Barlborough", "amenity": "hospital", "fhrs:id": "197608", "healthcare": "hospital", "name": "Barlborough NHS Treatment Centre", "operator": "NHS", "operator:wikidata": "Q918396", "source": "OS OpenData StreetView", "source:geometry": "Bing", "source:name": "FHRS Open Data", "website": "http://www.barlboroughtreatmentcentre.nhs.uk/"}}, {"name": "The Wells Road Centre", "latitude": 52.9782937, "longitude": -1.1279375, "source": "osm", "_tags": {"addr:city": "Nottingham", "addr:postcode": "NG3 3AA", "addr:street": "The Wells Road", "amenity": "hospital", "emergency": "no", "healthcare": "hospital", "healthcare:speciality": "psychiatry", "name": "The Wells Road Centre", "operator": "NHS", "operator:wikidata": "Q918396", "source:addr": "NCC Open Data planning", "wheelchair": "yes"}}, {"name": "Highbury Hospital", "latitude": 52.9930641, "longitude": -1.1913482, "source": "osm", "_tags": {"addr:city": "Nottingham", "addr:postcode": "NG6 9DR", "amenity": "hospital", "healthcare": "hospital", "name": "Highbury Hospital", "operator": "NHS", "operator:wikidata": "Q918396"}}, {"name": "Priory Hospital Nottingham", "latitude": 52.9715733, "longitude": -1.1313094, "source": "osm", "_tags": {"addr:city": "Nottingham", "addr:postcode": "NG3 5GS", "addr:street": "Ransom Road", "amenity": "hospital", "building": "yes", "emergency": "no", "healthcare": "hospital", "healthcare:speciality": "mental_health;rehabilitation", "name": "Priory Hospital Nottingham", "operator": "The Priory Group", "ref:GB:uprn": "100032290283", "source:addr": "FHRS Open Data", "website": "https://www.priorygroup.com/location-results/item/the-priory-clinic-nottingham"}}, {"name": "BMI Thornbury Hospital", "latitude": 53.3740185, "longitude": -1.5175793, "source": "osm", "_tags": {"amenity": "hospital", "healthcare": "hospital", "name": "BMI Thornbury Hospital", "wikidata": "Q7796336", "wikipedia": "en:Thornbury Hospital"}}, {"name": "Beighton Community Hospital", "latitude": 53.3451774, "longitude": -1.3504555, "source": "osm", "_tags": {"amenity": "hospital", "healthcare": "hospital", "name": "Beighton Community Hospital"}}, {"name": "Midland Metropolitan University Hospital", "latitude": 52.4906705, "longitude": -1.9495563, "source": "osm", "_tags": {"addr:city": "Smethwick", "addr:housename": "Midland Metrpolitan Universifty Hospital", "addr:postcode": "B66 2QT", "addr:street": "Grove Lane", "amenity": "hospital", "check_date": "2024-09-25", "emergency": "yes", "healthcare": "hospital", "healthcare:speciality": "emergency;intensive;pathology;paediatrics;orthopaedics;cardiology;nuclear", "name": "Midland Metropolitan University Hospital", "note": "Due to open 6th October 2024", "opening_date": "2024-10-06", "website": "https://www.swbh.nhs.uk/our-new-hospital/", "wikidata": "Q28403356", "wikipedia": "en:Midland Metropolitan University Hospital"}}, {"name": "Florence Nightingale Community Hospital", "latitude": 52.9137526, "longitude": -1.4677299, "source": "osm", "_tags": {"addr:city": "Derby", "addr:postcode": "DE1 2QY", "addr:street": "London Road", "amenity": "hospital", "emergency": "no", "fhrs:id": "530598", "healthcare": "hospital", "name": "Florence Nightingale Community Hospital", "not:addr:postcode": "DE24 9UY", "old_name": "Derbyshire Royal Infirmary", "old_name:2": "London Road Community Hospital", "ref:GB:cqc_location": "RTGFA", "website": "https://www.uhdb.nhs.uk/about-florence-nightingale-community-hospital", "wheelchair": "yes", "wikidata": "Q60749142", "wikipedia": "en:Florence Nightingale Community Hospital"}}, {"name": "Birmingham Dental Hospital", "latitude": 52.4502742, "longitude": -1.9140293, "source": "osm", "_tags": {"amenity": "hospital", "healthcare": "hospital", "name": "Birmingham Dental Hospital", "ref:GB:nhs_ods": "RYWT3", "source": "estimate", "wheelchair": "yes", "wikidata": "Q30280075"}}, {"name": "Hopewood", "latitude": 52.9901921, "longitude": -1.1414044, "source": "osm", "_tags": {"amenity": "hospital", "healthcare": "hospital", "name": "Hopewood", "operator": "NHS", "operator:wikidata": "Q918396"}}, {"name": "Nottingham Woodthorpe Hospital", "latitude": 52.9904817, "longitude": -1.1391289, "source": "osm", "_tags": {"addr:city": "Nottingham", "addr:housenumber": "748", "addr:postcode": "NG5 3FZ", "addr:street": "Mansfield Road", "amenity": "hospital", "emergency": "no", "fhrs:id": "463435", "healthcare": "hospital", "name": "Nottingham Woodthorpe Hospital", "operator": "Ramsay Health Care", "source:addr": "FHRS Open Data"}}, {"name": "", "latitude": 52.4361699, "longitude": -1.9388585, "source": "osm", "_tags": {"amenity": "hospital", "healthcare": "hospital", "source": "visual survey;estimate"}}, {"name": "", "latitude": 52.4360968, "longitude": -1.9373539, "source": "osm", "_tags": {"amenity": "hospital", "healthcare": "hospital", "source": "visual survey;estimate"}}, {"name": "The Oaklands Centre", "latitude": 52.4361724, "longitude": -1.9379631, "source": "osm", "_tags": {"amenity": "hospital", "healthcare": "hospital", "name": "The Oaklands Centre", "source": "visual survey;estimate"}}, {"name": "", "latitude": 52.6138134, "longitude": -1.9768658, "source": "osm", "_tags": {"amenity": "hospital", "healthcare": "hospital", "source": "bing"}}, {"name": "Circle Rehabilitation Hospital Birmingham", "latitude": 52.4506406, "longitude": -1.9126749, "source": "osm", "_tags": {"addr:city": "Birmingham", "addr:postcode": "B5 7TR", "addr:street": "Pebble Mill Road", "amenity": "hospital", "emergency": "no", "healthcare": "hospital", "name": "Circle Rehabilitation Hospital Birmingham", "ref:GB:nhs_ods": "NV30H"}}, {"name": "", "latitude": 52.6580648, "longitude": -1.141873, "source": "osm", "_tags": {"amenity": "hospital", "healthcare": "hospital"}}, {"name": "The Manor", "latitude": 52.5273556, "longitude": -1.4786459, "source": "osm", "_tags": {"amenity": "hospital", "emergency": "no", "healthcare": "hospital", "name": "The Manor"}}, {"name": "Arnold Lodge Regional Secure Unit", "latitude": 52.6474554, "longitude": -1.09137, "source": "osm", "_tags": {"addr:city": "Leicester", "addr:postcode": "LE5 0LE", "addr:street": "Cordelia Close", "amenity": "hospital", "healthcare": "hospital", "name": "Arnold Lodge Regional Secure Unit", "operator": "Nottinghamshire Healthcare NHS Foundation Trust"}}, {"name": "The Willows", "latitude": 52.648691, "longitude": -1.0938206, "source": "osm", "_tags": {"addr:city": "Leicester", "addr:street": "Cordelia Close", "amenity": "hospital", "healthcare": "hospital", "name": "The Willows", "operator": "Leicestershire Partnership NHS Trust"}}, {"name": "Spire Nottingham Hospital", "latitude": 52.9186674, "longitude": -1.0829711, "source": "osm", "_tags": {"addr:city": "Nottingham", "addr:country": "GB", "addr:postcode": "NG12 4GA", "addr:street": "Tollerton Lane", "addr:suburb": "Tollerton", "amenity": "hospital", "building": "yes", "emergency": "no", "fhrs:id": "998076", "healthcare": "hospital", "name": "Spire Nottingham Hospital", "phone": "+441158280606", "website": "https://www.spirehealthcare.com/spire-nottingham-hospital/"}}, {"name": "Clipstone Health Centre", "latitude": 53.1574024, "longitude": -1.1381223, "source": "osm", "_tags": {"amenity": "hospital", "emergency": "no", "healthcare": "hospital", "healthcare:speciality": "general", "name": "Clipstone Health Centre", "operator": "NHS, Well"}}, {"name": "Bassetlaw Hospital", "latitude": 53.3169918, "longitude": -1.1103571, "source": "osm", "_tags": {"addr:city": "Worksop", "addr:postcode": "S81 0BD", "addr:street": "Blyth Road", "amenity": "hospital", "emergency": "yes", "healthcare": "hospital", "name": "Bassetlaw Hospital", "nohousenumber": "yes", "operator": "Doncaster and Bassetlaw Hospitals NHS Trust", "phone": "+44 1909 500990", "website": "http://www.dbh.nhs.uk/about_us/hospitals/bassetlaw_hospital/", "wikidata": "Q4868091", "wikipedia": "en:Bassetlaw District General Hospital"}}, {"name": "Leek Moorlands Hospital", "latitude": 53.1028493, "longitude": -2.0095409, "source": "osm", "_tags": {"addr:postcode": "ST13 5BQ", "addr:street": "Ashbourne Road", "amenity": "hospital", "beds": "44", "emergency": "no", "healthcare": "hospital", "name": "Leek Moorlands Hospital", "note": "Minor Injuries and Illnesses Unit", "phone": "+44 300 123 1894", "website": "https://www.mpft.nhs.uk/services/leek-moorlands-hospital"}}, {"name": "", "latitude": 52.5014056, "longitude": -1.7599284, "source": "osm", "_tags": {"amenity": "hospital", "healthcare": "hospital", "source": "local knowledge"}}, {"name": "Kingsway Hospital", "latitude": 52.918624, "longitude": -1.5128818, "source": "osm", "_tags": {"addr:city": "Derby", "addr:postcode": "DE22 3LZ", "addr:street": "Kingsway", "amenity": "hospital", "fhrs:id": "530645", "healthcare": "hospital", "name": "Kingsway Hospital", "not:addr:postcode": "DE22 3NH", "note": "approx current area", "ref:GB:cqc_location": "RXM14", "website": "https://www.nhs.uk/services/clinic/kingsway-hospital-headquarters/RXM14", "wikidata": "Q65057320"}}, {"name": "Cavendish Hospital", "latitude": 53.2623307, "longitude": -1.9207163, "source": "osm", "_tags": {"addr:city": "Buxton", "addr:housenumber": "24", "addr:postcode": "SK17 6TE", "addr:street": "Manchester Road", "amenity": "hospital", "emergency": "no", "fhrs:id": "1258993", "healthcare": "hospital", "name": "Cavendish Hospital", "toilets:wheelchair": "yes", "wheelchair": "yes", "wikidata": "Q30293222"}}, {"name": "Rehabilitation Centre", "latitude": 53.4210312, "longitude": -1.5204342, "source": "osm", "_tags": {"amenity": "hospital", "healthcare": "hospital", "name": "Rehabilitation Centre", "operator": "NHS"}}, {"name": "Sheffield Children's Hospital", "latitude": 53.3804034, "longitude": -1.4908218, "source": "osm", "_tags": {"addr:city": "Sheffield", "addr:housename": "Sheffield Children's Hospital", "addr:postcode": "S10 2TH", "addr:street": "Western Bank", "amenity": "hospital", "fhrs:id": "437985", "healthcare": "hospital", "healthcare:speciality": "paediatrics", "name": "Sheffield Children's Hospital", "operator": "Sheffield Children's Hospital NHS Foundation Trust", "phone": "+44 1142 717000", "website": "https://www.sheffieldchildrens.nhs.uk", "wikidata": "Q7492604"}}, {"name": "Forest Independent Hospital", "latitude": 53.1361675, "longitude": -1.1693247, "source": "osm", "_tags": {"addr:city": "Mansfield", "addr:country": "GB", "addr:postcode": "NG18 4XX", "addr:street": "Southwell Road West", "amenity": "hospital", "healthcare": "hospital", "healthcare:speciality": "mental_health", "name": "Forest Independent Hospital", "operator": "Barchester Healthcare Ltd", "website": "https://www.barchestermentalhealth.com/find-a-facility/forest-independent-hospital"}}, {"name": "", "latitude": 53.1022571, "longitude": -1.2489847, "source": "osm", "_tags": {"amenity": "hospital", "healthcare": "hospital"}}, {"name": "Little Aston Hospital", "latitude": 52.5997912, "longitude": -1.8755432, "source": "osm", "_tags": {"addr:postcode": "B74 3UP", "addr:street": "Little Aston Hall Drive", "amenity": "hospital", "emergency": "no", "fhrs:id": "1249111", "healthcare": "hospital", "name": "Little Aston Hospital", "operator": "BUPA", "operator:type": "private", "source:addr": "FHRS Open Data"}}, {"name": "George Eliot Hospital", "latitude": 52.5116237, "longitude": -1.4759239, "source": "osm", "_tags": {"amenity": "hospital", "check_date": "2025-01-09", "healthcare": "hospital", "name": "George Eliot Hospital", "source": "visual survey;estimate", "wikidata": "Q5538950"}}, {"name": "St Luke's Hospice", "latitude": 53.3433791, "longitude": -1.5220708, "source": "osm", "_tags": {"amenity": "hospital", "healthcare": "hospital", "name": "St Luke's Hospice"}}, {"name": "Weston Park Hospital", "latitude": 53.3802134, "longitude": -1.4945267, "source": "osm", "_tags": {"addr:city": "Sheffield", "addr:postcode": "S10 2SJ", "addr:street": "Whitham Road", "amenity": "hospital", "emergency": "no", "fhrs:id": "437986", "healthcare": "hospital", "healthcare:speciality": "oncology", "name": "Weston Park Hospital", "operator": "Sheffield Teaching Hospitals NHS Foundation Trust", "website": "https://www.sth.nhs.uk/our-hospitals/weston-park-hospital", "wikidata": "Q7989466"}}, {"name": "Sir Robert Peel Community Hospital", "latitude": 52.6203836, "longitude": -1.723154, "source": "osm", "_tags": {"amenity": "hospital", "check_date": "2025-03-06", "emergency": "no", "healthcare": "hospital", "name": "Sir Robert Peel Community Hospital", "wikidata": "Q30292857"}}, {"name": "Charles Clifford Dental Hospital", "latitude": 53.3797212, "longitude": -1.493634, "source": "osm", "_tags": {"amenity": "hospital", "healthcare": "hospital", "healthcare:speciality": "dentistry", "name": "Charles Clifford Dental Hospital", "operator": "Sheffield Teaching Hospitals NHS Foundation Trust", "website": "https://www.sth.nhs.uk/our-hospitals/charles-clifford-dental-hospital", "wikidata": "Q28407580", "wikipedia": "en:Charles Clifford Dental Hospital"}}, {"name": "Priory Hospital Arnold", "latitude": 53.0307577, "longitude": -1.1137659, "source": "osm", "_tags": {"amenity": "hospital", "branch": "Arnold", "brand": "Priory", "emergency": "no", "healthcare": "hospital", "healthcare:speciality": "psychiatry", "name": "Priory Hospital Arnold", "operator": "Priory Group", "website": "https://www.priorygroup.com/locations/nhs/priory-hospital-arnold"}}, {"name": "Cannock Chase Hospital", "latitude": 52.6926147, "longitude": -2.0306482, "source": "osm", "_tags": {"addr:postcode": "WS11 5XY", "addr:street": "Brunswick Road", "amenity": "hospital", "fhrs:id": "1254033", "healthcare": "hospital", "name": "Cannock Chase Hospital", "source:addr": "FHRS Open Data", "type": "multipolygon", "wikidata": "Q30293077"}}, {"name": "", "latitude": 52.6023547, "longitude": -1.154799, "source": "osm", "_tags": {"amenity": "hospital", "healthcare": "hospital"}}, {"name": "Sturdee Community Rehabilitation Hospital", "latitude": 52.5898595, "longitude": -1.1472653, "source": "osm", "_tags": {"addr:city": "Leicester", "addr:housenumber": "58-62", "addr:postcode": "LE2 9FS", "addr:street": "Runcorn Road", "amenity": "hospital", "healthcare": "hospital", "name": "Sturdee Community Rehabilitation Hospital"}}, {"name": "", "latitude": 52.6016852, "longitude": -1.1412168, "source": "osm", "_tags": {"amenity": "hospital", "healthcare": "hospital"}}, {"name": "Royal Hallamshire Hospital", "latitude": 53.3786671, "longitude": -1.4931437, "source": "osm", "_tags": {"addr:city": "Sheffield", "addr:country": "GB", "addr:postcode": "S10 2JF", "addr:street": "Glossop Road", "addr:suburb": "Broomhill", "fhrs:id": "437987", "healthcare": "hospital", "healthcare:speciality": "general", "name": "Royal Hallamshire Hospital", "operator": "Sheffield Teaching Hospitals NHS Foundation Trust", "wikidata": "Q7374251", "wikipedia": "en:Royal Hallamshire Hospital"}}, {"name": "Charles Clifford Dental Hospital", "latitude": 53.3797155, "longitude": -1.4936353, "source": "osm", "_tags": {"healthcare": "hospital", "healthcare:speciality": "dentistry", "name": "Charles Clifford Dental Hospital", "operator": "Sheffield Teaching Hospitals NHS Foundation Trust", "website": "https://www.sth.nhs.uk/our-hospitals/charles-clifford-dental-hospital", "wikidata": "Q28407580", "wikipedia": "en:Charles Clifford Dental Hospital"}}, {"name": "Lings Bar Hospital", "latitude": 52.9225556, "longitude": -1.100055, "source": "osm", "_tags": {"addr:city": "Nottingham", "addr:country": "GB", "addr:postcode": "NG2 6PR", "addr:street": "Ambleside", "addr:suburb": "Gamston", "amenity": "hospital", "building": "yes", "building:levels": "1", "emergency": "no", "fhrs:id": "266298", "healthcare": "hospital", "name": "Lings Bar Hospital", "operator": "Nottinghamshire Healthcare NHS Trust; Nottingham University Hospitals NHS Trust", "source:addr": "CQC open data", "type": "multipolygon"}}, {"name": "The Oleaster National Centre for Mental Health", "latitude": 52.4478761, "longitude": -1.940676, "source": "osm", "_tags": {"addr:city": "Birmingham", "addr:housenumber": "6", "addr:postcode": "B15 2SY", "addr:street": "Mindlesohn Crescent", "amenity": "hospital", "building": "yes", "healthcare": "hospital", "name": "The Oleaster National Centre for Mental Health", "operator": "Birmingham and Solihull Mental Health NHS Foundation Trust", "ref:GB:nhs_ods": "RXTD4", "start_date": "2008", "type": "multipolygon"}}, {"name": "Caludon Centre", "latitude": 52.4224592, "longitude": -1.4453191, "source": "osm", "_tags": {"addr:postcode": "CV2 2TE", "addr:street": "Clifford Bridge Road", "amenity": "hospital", "building": "yes", "emergency": "no", "healthcare": "hospital", "name": "Caludon Centre", "type": "multipolygon"}}, {"name": "Good Hope Hospital", "latitude": 52.5674735, "longitude": -1.8124855, "source": "osm", "_tags": {"addr:city": "Sutton Coldfield", "addr:postcode": "B75 7RR", "addr:street": "Rectory Road", "amenity": "hospital", "building": "hospital", "contact:website": "http://www.heartofengland.nhs.uk/good-hope-hospital/", "emergency": "yes", "fhrs:id": "600234", "fhrs:local_authority_id": "PI/000368301", "healthcare": "hospital", "name": "Good Hope Hospital", "source:addr": "FHRS Open Data", "type": "multipolygon", "wikidata": "Q5582666", "wikipedia": "en:Good Hope Hospital"}}, {"name": "Loughborough Health Centre", "latitude": 52.7715636, "longitude": -1.2030504, "source": "osm", "_tags": {"addr:city": "Loughborough", "addr:country": "GB", "addr:postcode": "LE11 1BE", "addr:street": "Pinfold Gate", "amenity": "hospital", "building": "yes", "healthcare": "hospital", "name": "Loughborough Health Centre", "phone": "+44 1509 553998", "type": "multipolygon", "wheelchair": "yes"}}, {"name": "Mill Lodge", "latitude": 52.8373534, "longitude": -1.2757244, "source": "osm", "_tags": {"addr:city": "Derby", "addr:postcode": "DE74 2EJ", "addr:street": "Mill Lane", "addr:village": "Kegworth", "amenity": "hospital", "building": "residential", "fhrs:id": "1063899", "healthcare": "hospital", "name": "Mill Lodge", "operator": "Leicestershire Partnership NHS Trust", "ref:GB:cqc_location": "1-5597018831", "residential": "nursing_home", "social_facility": "nursing_home", "source": "survey", "type": "multipolygon", "website": "https://rushcliffehospitals.co.uk/mill-lodge-about/", "wheelchair": "yes"}}, {"name": "Greet Urgent Care Centre", "latitude": 52.4519029, "longitude": -1.857725, "source": "osm", "_tags": {"amenity": "hospital", "building": "yes", "emergency": "yes", "healthcare": "hospital", "name": "Greet Urgent Care Centre", "type": "multipolygon"}}, {"name": "Thorneywood", "latitude": 52.9691662, "longitude": -1.120909, "source": "osm", "_tags": {"addr:city": "Nottingham", "addr:postcode": "NG3 6LF", "addr:street": "Porchester Road", "amenity": "hospital", "emergency": "no", "healthcare": "hospital", "healthcare:speciality": "psychiatry;rehabilitation", "name": "Thorneywood", "operator": "Nottingham Healthcare NHS Trust", "source:addr": "FHRS Open Data;CQC open data", "type": "multipolygon"}}, {"name": "Aston University Day Hospital", "latitude": 52.4852413, "longitude": -1.887738, "source": "osm", "_tags": {"amenity": "hospital", "building": "hospital", "building:levels": "2", "healthcare": "hospital", "name": "Aston University Day Hospital", "source": "visual survey;estimate", "type": "multipolygon", "website": "http://www1.aston.ac.uk/about/campus-redevelopment/aston-brain-centre/"}}, {"name": "Queen Elizabeth Hospital", "latitude": 52.4516854, "longitude": -1.9404304, "source": "osm", "_tags": {"amenity": "hospital", "healthcare": "hospital", "name": "Queen Elizabeth Hospital", "ref:GB:nhs_ods": "RRK15", "type": "multipolygon", "wikidata": "Q7270344", "wikipedia": "en:Queen Elizabeth Hospital Birmingham"}}]