[{"name": "Marienhospital Ankum-Bersenbrück", "latitude": 52.5404711, "longitude": 7.8742164, "source": "osm", "_tags": {"addr:city": "Ankum", "addr:housenumber": "11", "addr:postcode": "49577", "addr:street": "Lingener Straße", "amenity": "hospital", "email": "info@mha.de", "fax": "+49 5462 881 1100", "healthcare": "hospital", "name": "Marienhospital Ankum-Bersenbrück", "phone": "+49 5462 881 0", "website": "https://www.niels-stensen-kliniken.de/marienhospital-ankum-bersenbrueck.html", "wheelchair": "yes"}}, {"name": "Bundeswehrkrankenhaus Westerstede", "latitude": 53.2574925, "longitude": 7.9185221, "source": "osm", "_tags": {"addr:city": "Westerstede", "addr:housenumber": "38", "addr:postcode": "26655", "addr:street": "Lange Straße", "amenity": "hospital", "healthcare": "hospital", "name": "Bundeswehrkrankenhaus Westerstede", "wikidata": "Q1009275"}}, {"name": "Marien Hospital Papenburg Aschendorf", "latitude": 53.0768808, "longitude": 7.396166, "source": "osm", "_tags": {"addr:city": "Papenburg", "addr:housenumber": "75", "addr:postcode": "26871", "addr:street": "Hauptkanal rechts", "amenity": "hospital", "building": "yes", "email": "info@hospital-papenburg.de", "emergency": "yes", "healthcare": "hospital", "name": "Marien Hospital Papenburg Aschendorf", "opening_hours": "24/7", "operator": "Marienkrankenhaus Papenburg-Aschendorf GmbH", "phone": "+49 4961 93 0", "toilets:wheelchair": "yes", "website": "https://www.marien-hospital-papenburg.de/", "wheelchair": "yes", "wheelchair:description": "Fahrstuhl links neben der Treppe im Haupteingangsbereiches", "wikidata": "Q38747345"}}, {"name": "Borromäus Hospital", "latitude": 53.2285248, "longitude": 7.4447948, "source": "osm", "_tags": {"addr:city": "Leer", "addr:housenumber": "61-67", "addr:postcode": "26789", "addr:street": "Kirchstraße", "amenity": "hospital", "healthcare": "hospital", "name": "Borromäus Hospital", "name:etymology:wikidata": "Q216946", "phone": "+49 491 85 0", "website": "http://www.borromäus-hospital-leer.de", "wheelchair": "yes", "wikidata": "Q38252294"}}, {"name": "Klinikum Leer", "latitude": 53.2358311, "longitude": 7.4582025, "source": "osm", "_tags": {"addr:city": "Leer (Ostfriesland)", "addr:housenumber": "35-37", "addr:postcode": "26789", "addr:street": "Augustenstraße", "amenity": "hospital", "email": "info@klinikum-leer.de", "emergency": "yes", "fax": "+49 491 2149", "healthcare": "hospital", "healthcare:speciality": "vascular_surgery;trauma;pulmonology;neurology;paediatrics;ophthalmology;orthopaedics;emergency;proctology;surgery;gastroenterology;cardiology;angiology;gynaecology;geriatrics;anaesthetics;intensive;diagnostic_radiology", "name": "Klinikum Leer", "operator": "Klinikum Leer gGmbH", "phone": "+49 491 86 0", "toilets:wheelchair": "yes", "website": "https://klinikum-leer.de/", "wheelchair": "yes"}}, {"name": "Ommelander Ziekenhuis Groningen", "latitude": 53.1834244, "longitude": 6.9591074, "source": "osm", "_tags": {"addr:city": "Scheemda", "addr:housenumber": "1", "addr:postcode": "9679BJ", "addr:street": "Pastorieweg", "amenity": "hospital", "healthcare": "hospital", "name": "Ommelander Ziekenhuis Groningen", "website": "https://www.ommelanderziekenhuis.nl/home/", "wikidata": "Q64555574"}}, {"name": "MediClin Hedon Klinik", "latitude": 52.511984, "longitude": 7.3580851, "source": "osm", "_tags": {"addr:city": "Lingen (Ems)", "addr:housenumber": "1", "addr:postcode": "49811", "addr:street": "Hedonallee", "amenity": "hospital", "building": "yes", "emergency": "no", "healthcare": "hospital", "name": "MediClin Hedon Klinik", "operator": "Mediclin", "operator:wikidata": "Q1916295", "phone": "+49 591 918 0", "toilets:wheelchair": "yes", "website": "https://www.mediclin-hedon-klinik.de/", "wheelchair": "yes"}}, {"name": "Kinder- und Jugendpsychiatrie Marien Hospital Papenburg Aschendorf", "latitude": 53.0510074, "longitude": 7.3293276, "source": "osm", "_tags": {"addr:city": "Papenburg", "addr:country": "DE", "addr:housenumber": "8", "addr:postcode": "26871", "addr:street": "Marienstraße", "addr:suburb": "Aschendorf", "amenity": "hospital", "building": "hospital", "check_date": "2025-09-20", "email": "filip.caby@hospital-papenburg.de", "emergency": "no", "fax": "+49 4962 502 445", "healthcare": "hospital", "healthcare:speciality": "psychiatry", "name": "Kinder- und Jugendpsychiatrie Marien Hospital Papenburg Aschendorf", "phone": "+49 4962 502 100", "website": "https://www.marien-hospital-papenburg.de/medizin-pflege/fachabteilungen/kinder-jugendpsychiatrie/willkommen/kinder-jugendpsychiatrie.html", "wheelchair": "limited", "wheelchair:description": "Haupteingang ebenerdig. Fahrstuhl im Gebäude"}}, {"name": "Krankenhaus Ludmillenstift", "latitude": 52.6887266, "longitude": 7.2928697, "source": "osm", "_tags": {"addr:city": "Meppen", "addr:country": "DE", "addr:housenumber": "4-6", "addr:postcode": "49716", "addr:street": "Ludmillenstraße", "amenity": "hospital", "emergency": "yes", "healthcare": "hospital", "name": "Krankenhaus Ludmillenstift", "operator": "Kuratorium der Stiftung Ludmillenstift", "website": "https://www.ludmillenstift.de/", "wheelchair": "yes", "wikidata": "Q1786536", "wikipedia": "de:Krankenhaus Ludmillenstift Meppen"}}, {"name": "St.-Marien-Hospital", "latitude": 53.0218638, "longitude": 7.8543947, "source": "osm", "_tags": {"amenity": "hospital", "email": "info@marienstift-friesoythe.de", "emergency": "yes", "fax": "+49 4491 940 700", "healthcare": "hospital", "name": "St.-Marien-Hospital", "phone": "+49 4491 940 0", "website": "https://www.marienstift-friesoythe.de/st--marien-hospital"}}, {"name": "Bonifatius Hospital", "latitude": 52.5244814, "longitude": 7.3154594, "source": "osm", "_tags": {"addr:city": "Lingen (Ems)", "addr:housenumber": "13", "addr:postcode": "49808", "addr:street": "Wilhelmstraße", "amenity": "hospital", "check_date": "2025-07-28", "email": "info@hospital-lingen.de", "emergency": "yes", "healthcare": "hospital", "name": "Bonifatius Hospital", "opening_hours": "24/7", "phone": "+49 591 910 0", "website": "https://www.bonifatius-hospital-lingen.de/", "wheelchair": "yes", "wikidata": "Q30270464"}}, {"name": "St.-Vinzenz-Hospital Haselünne", "latitude": 52.6709568, "longitude": 7.4828725, "source": "osm", "_tags": {"addr:city": "Haselünne", "addr:housenumber": "9", "addr:postcode": "49740", "addr:street": "Hammer Straße", "amenity": "hospital", "building": "yes", "email": "info-svh@niels-stensen-kliniken.de", "emergency": "yes", "fax": "+49 5961 503 1109", "healthcare": "hospital", "healthcare:speciality": "psychiatry;gastroenterology;general", "internet_access": "wlan", "name": "St.-Vinzenz-Hospital Haselünne", "opening_hours": "24/7", "operator": "Niels-Stensen-Kliniken GmbH", "operator:type": "religious", "payment:apple_pay": "yes", "payment:cash": "yes", "payment:contactless": "yes", "payment:credit_cards": "yes", "payment:debit_cards": "yes", "payment:google_pay": "yes", "phone": "+49 5961 503 0", "website": "https://www.niels-stensen-kliniken.de/st-vinzenz-hospital.html", "wheelchair": "yes", "wikidata": "Q1408280", "wikipedia": "de:Niels-Stensen-Kliniken"}}, {"name": "Klinikzentrum Westerstede", "latitude": 53.2582985, "longitude": 7.9181889, "source": "osm", "_tags": {"amenity": "hospital", "emergency": "yes", "fax": "+49 4488 50 4999", "healthcare": "hospital", "name": "Klinikzentrum Westerstede", "opening_hours": "24/7", "operator": "Landkreis Ammerland", "phone": "+49 4488 50 0", "source": "http://www.ammerland-klinik.de/", "toilets:wheelchair": "yes", "website": "http://www.ammerland-klinik.de/", "wheelchair": "yes"}}, {"name": "Krankenhaus Rheiderland", "latitude": 53.1684537, "longitude": 7.3537725, "source": "osm", "_tags": {"addr:city": "Weener", "addr:housenumber": "22", "addr:postcode": "26826", "addr:street": "Neue Straße", "amenity": "hospital", "building": "hospital", "email": "info@krankenhaus-rheiderland.de", "emergency": "yes", "healthcare": "hospital", "name": "Krankenhaus Rheiderland", "operator": "Krankenhaus Rheiderland gGmbH", "phone": "+49 4951 3010", "toilets:wheelchair": "yes", "website": "https://krankenhaus-rheiderland.de/", "wheelchair": "yes"}}, {"name": "Hümmling Hospital Sögel", "latitude": 52.8435091, "longitude": 7.519361, "source": "osm", "_tags": {"addr:city": "Sögel", "addr:housenumber": "17", "addr:postcode": "49751", "addr:street": "Mühlenstraße", "amenity": "hospital", "email": "verwaltung@hospital-soegel.de", "emergency": "yes", "healthcare": "hospital", "name": "Hümmling Hospital Sögel", "opening_hours": "24/7", "phone": "+49 5952 209 0", "website": "https://www.hümmling-hospital-sögel.de/"}}, {"name": "", "latitude": 53.0753374, "longitude": 7.3945511, "source": "osm", "_tags": {"amenity": "hospital", "healthcare": "hospital"}}, {"name": "Christliches Krankenhaus Quakenbrück", "latitude": 52.6678377, "longitude": 7.9371716, "source": "osm", "_tags": {"amenity": "hospital", "contact:phone": "+49 5431 150", "contact:website": "https://www.ckq-gmbh.de", "emergency": "yes", "healthcare": "hospital", "internet_access": "wlan", "internet_access:description": "Automatische Trennug alle 10 Minuten.", "internet_access:fee": "no", "name": "Christliches Krankenhaus Quakenbrück", "opening_hours": "24/7", "wheelchair": "yes"}}, {"name": "Hans-Susemihl-Krankenhaus", "latitude": 53.3755565, "longitude": 7.2139931, "source": "osm", "_tags": {"addr:city": "Emden", "addr:country": "DE", "addr:housenumber": "20", "addr:postcode": "26721", "addr:street": "Bolardusstraße", "addr:suburb": "Barenburg", "alt_name": "Kilinikum Emden", "amenity": "hospital", "building": "hospital", "email": "info@klinikum-emden.de", "fax": "+49 4921 98 1550", "healthcare": "hospital", "name": "Hans-Susemihl-Krankenhaus", "operator": "Stadt Emden", "phone": "+49 4921 98 0", "short_name": "HSK", "type": "multipolygon", "website": "https://www.anevita.de/kliniken/klinik-emden", "wikidata": "Q15117106", "wikipedia": "de:Klinikum Emden"}}, {"name": "EUREGIO-KLINIK", "latitude": 52.4430106, "longitude": 7.0657531, "source": "osm", "_tags": {"addr:city": "Nordhorn", "addr:housenumber": "10", "addr:postcode": "48527", "addr:street": "Albert-Schweitzer-Straße", "amenity": "hospital", "building": "hospital", "email": "info@euregio-klinik.de", "emergency": "yes", "healthcare": "hospital", "name": "EUREGIO-KLINIK", "phone": "+49 5921 84 0", "toilets:wheelchair": "yes", "type": "multipolygon", "website": "https://www.euregio-klinik.de/", "wheelchair": "yes", "wikidata": "Q1374320"}}, {"name": "St.-Anna-Klinik Löningen", "latitude": 52.7345257, "longitude": 7.7546584, "source": "osm", "_tags": {"addr:city": "Löningen", "addr:country": "DE", "addr:housenumber": "9", "addr:postcode": "49624", "addr:street": "Sankt-Annen-Straße", "amenity": "hospital", "building": "hospital", "contact:facebook": "https://www.facebook.com/pages/Loeningen-Krankenhaus/217083321640009?fref=mentions&__tn__=K-R", "contact:phone": "-49 5432  969 -0", "contact:website": "https://www.anna-klinik.de/", "emergency": "yes", "healthcare": "hospital", "name": "St.-Anna-Klinik Löningen", "operator": "Löninger St.-Anna-Klinik gemeinnützige GmbH", "type": "multipolygon"}}, {"name": "Ammerland-Klinik", "latitude": 53.2579655, "longitude": 7.917816, "source": "osm", "_tags": {"addr:city": "Westerstede", "addr:country": "DE", "addr:housename": "Klinikzentrum", "addr:housenumber": "38", "addr:postcode": "26655", "addr:street": "Lange Straße", "amenity": "hospital", "building": "hospital", "emergency": "yes", "healthcare": "hospital", "name": "Ammerland-Klinik", "phone": "+49 4488 500", "type": "multipolygon", "website": "https://www.ammerland-klinik.de"}}]