[{"name": "Цэнтральная раённая бальніца", "latitude": 53.016435, "longitude": 27.5582187, "source": "osm", "_tags": {"amenity": "hospital", "name": "Цэнтральная раённая бальніца", "name:be": "Цэнтральная раённая бальніца", "name:ru": "Центральная районная больница"}}, {"name": "Ваенны Гарадок", "latitude": 53.04439, "longitude": 27.59285, "source": "osm", "_tags": {"amenity": "hospital", "healthcare": "hospital", "name": "Ваенны Гарадок", "name:be": "Ваенны Гарадок", "name:ru": "Воен.Городок"}}, {"name": "Радзільнае аддзяленне, афтальмалагічнае аддзяленне, отарыналарынгалагічнае аддзяленне", "latitude": 52.7800374, "longitude": 27.5341363, "source": "osm", "_tags": {"amenity": "hospital", "healthcare": "hospital", "name": "Радзільнае аддзяленне, афтальмалагічнае аддзяленне, отарыналарынгалагічнае аддзяленне", "name:be": "Радзільнае аддзяленне, афтальмалагічнае аддзяленне, отарыналарынгалагічнае аддзяленне", "name:ru": "Родильное отделение, офтальмологическое отделение, оториноларингологическое отделение"}}, {"name": "УАЗ «Салігорская цэнтральная раённая бальніца» Адміністрацыйны корпус", "latitude": 52.7797495, "longitude": 27.5321816, "source": "osm", "_tags": {"amenity": "hospital", "healthcare": "hospital", "name": "УАЗ «Салігорская цэнтральная раённая бальніца» Адміністрацыйны корпус", "name:be": "УАЗ «Салігорская цэнтральная раённая бальніца» Адміністрацыйны корпус", "name:ru": "УЗ «Солигорская центральная районная больница» Административный корпус", "name:uk": "УЗ «Солігорська центральна районна лікарня» Адміністративний корпус"}}, {"name": "Лячэбны корпус, прыёмны пакой, траўматалагічны пункт", "latitude": 52.7787612, "longitude": 27.5324003, "source": "osm", "_tags": {"amenity": "hospital", "healthcare": "hospital", "name": "Лячэбны корпус, прыёмны пакой, траўматалагічны пункт", "name:be": "Лячэбны корпус, прыёмны пакой, траўматалагічны пункт", "name:ru": "Лечебный корпус, приемный покой, травмотологический пункт"}}, {"name": "Паліклініка ААТ «Беларуськалій»", "latitude": 52.7785202, "longitude": 27.5331816, "source": "osm", "_tags": {"amenity": "hospital", "healthcare": "hospital", "name": "Паліклініка ААТ «Беларуськалій»", "name:be": "Паліклініка ААТ «Беларуськалій»", "name:ru": "Поликлиника ОАО«Беларуськалий»"}}, {"name": "Лячэбныя корпус", "latitude": 52.7794256, "longitude": 27.5327208, "source": "osm", "_tags": {"amenity": "hospital", "healthcare": "hospital", "name": "Лячэбныя корпус", "name:be": "Лячэбныя корпус", "name:ru": "Лечебные корпус"}}, {"name": "Стэрылізацыйная", "latitude": 52.7783603, "longitude": 27.5336216, "source": "osm", "_tags": {"amenity": "hospital", "healthcare": "hospital", "name": "Стэрылізацыйная", "name:be": "Стэрылізацыйная", "name:ru": "Стерилизационная"}}, {"name": "Корпус МРТ-дыягностыкі", "latitude": 52.779002, "longitude": 27.5328734, "source": "osm", "_tags": {"amenity": "hospital", "healthcare": "hospital", "name": "Корпус МРТ-дыягностыкі", "name:be": "Корпус МРТ-дыягностыкі", "name:ru": "Корпус МРТ-диагностики"}}, {"name": "Раённая дзіцячая паліклініка", "latitude": 53.0215435, "longitude": 27.5428206, "source": "osm", "_tags": {"amenity": "hospital", "building": "yes", "building:levels": "1", "healthcare": "hospital", "name": "Раённая дзіцячая паліклініка", "name:be": "Раённая дзіцячая паліклініка", "name:ru": "Районная детская поликлиника"}}, {"name": "Дзіцячая бальніца", "latitude": 52.7779758, "longitude": 27.5340184, "source": "osm", "_tags": {"addr:housenumber": "1", "addr:postcode": "223710", "addr:street": "вуліца Каржа", "amenity": "hospital", "building": "yes", "building:levels": "3", "healthcare": "hospital", "name": "Дзіцячая бальніца", "name:be": "Дзіцячая бальніца", "name:ru": "Детская больница", "opening_hours": "Mo-Su 08:00-20:00", "social_facility:for": "child"}}, {"name": "Радзільнае, Інсультнае, Паталогіі цяжарных, Афтальмалагічнае аддзяленні", "latitude": 52.7801633, "longitude": 27.5344773, "source": "osm", "_tags": {"addr:housenumber": "1", "addr:postcode": "223710", "addr:street": "вуліца Каржа", "amenity": "hospital", "building": "yes", "healthcare": "hospital", "name": "Радзільнае, Інсультнае, Паталогіі цяжарных, Афтальмалагічнае аддзяленні", "name:be": "Радзільнае, Інсультнае, Паталогіі цяжарных, Афтальмалагічнае аддзяленні", "name:ru": "Родильное, Инсультное, Патологии беременных, Офтальмологическое отделения"}}, {"name": "Сухотны дыспансер, інфекцыйнае аддзяленне", "latitude": 52.7795246, "longitude": 27.5356245, "source": "osm", "_tags": {"amenity": "hospital", "building": "yes", "healthcare": "hospital", "name": "Сухотны дыспансер, інфекцыйнае аддзяленне", "name:be": "Сухотны дыспансер, інфекцыйнае аддзяленне", "name:ru": "Туберкулёзный диспансер, инфекционное отделение"}}, {"name": "станцыя Хуткай Дапамогі", "latitude": 52.7908785, "longitude": 27.5472557, "source": "osm", "_tags": {"addr:housenumber": "28А", "addr:postcode": "223710", "addr:street": "вуліца Ленінскага Камсамолу", "amenity": "hospital", "building": "yes", "healthcare": "hospital", "name": "станцыя Хуткай Дапамогі", "name:be": "станцыя Хуткай Дапамогі", "name:ru": "станция Скорой Помощи"}}, {"name": "Рэабілітацыйны цэнтр «Зялёны бор»", "latitude": 52.7217084, "longitude": 27.4956004, "source": "osm", "_tags": {"amenity": "hospital", "contact:email": "speleo.by@gmail.com", "contact:fax": "+375(174) 23 79 85", "contact:phone": "+375(29) 323 73 40, +375(29) 666 96 56, +375(174) 23 79 85", "contact:website": "http://deti-speleo.by/", "healthcare": "hospital", "leisure": "resort", "name": "Рэабілітацыйны цэнтр «Зялёны бор»", "name:be": "Рэабілітацыйны цэнтр «Зялёны бор»", "name:ru": "Реабилитационный центр «Зелёный бор»", "social_facility": "healthcare", "social_facility:for": "child"}}, {"name": "Рэспубліканская бальніца спелеалячэння", "latitude": 52.7687318, "longitude": 27.5299939, "source": "osm", "_tags": {"addr:housenumber": "3", "addr:postcode": "223710", "addr:street": "Лясны праезд", "amenity": "hospital", "building": "yes", "contact:email": "speleo.by@gmail.com", "contact:phone": "+375(29) 323 73 40, +375(29) 666 96 56, +375(174) 23 79 85", "contact:website": "http://speleo.by/ru", "healthcare": "hospital", "name": "Рэспубліканская бальніца спелеалячэння", "name:be": "Рэспубліканская бальніца спелеалячэння", "name:ru": "Республиканская больница спелеолечения"}}, {"name": "", "latitude": 53.4141448, "longitude": 26.9830992, "source": "osm", "_tags": {"amenity": "hospital", "building": "yes", "emergency": "no", "healthcare": "hospital"}}, {"name": "Аддзяленне паталагічнай анатоміі (морг)", "latitude": 52.7791379, "longitude": 27.536009, "source": "osm", "_tags": {"amenity": "hospital", "building": "yes", "healthcare": "hospital", "name": "Аддзяленне паталагічнай анатоміі (морг)", "name:be": "Аддзяленне паталагічнай анатоміі (морг)", "name:ru": "Отделение патологической анатомии (морг)"}}, {"name": "Чырвонаслабодская гарадская бальніца", "latitude": 52.8622842, "longitude": 27.1574044, "source": "osm", "_tags": {"amenity": "hospital", "healthcare": "hospital", "name": "Чырвонаслабодская гарадская бальніца", "name:be": "Чырвонаслабодская гарадская бальніца", "name:ru": "Краснослободская городская больница", "website": "https://soligorskcrb.by/podrazdelenija-crb/selskie-medicinskie-uchrezhdenija/krasnoslobodskaja-gorodskaja-bolnica/"}}, {"name": "Слуцкая Раённая Цэнтральная бальніца", "latitude": 53.0160973, "longitude": 27.5570556, "source": "osm", "_tags": {"addr:housenumber": "21", "addr:street": "вуліца Чайкоўскага", "amenity": "hospital", "email": "slutsk.tmo@tut.by", "emergency": "yes", "healthcare": "hospital", "name": "Слуцкая Раённая Цэнтральная бальніца", "name:be": "Слуцкая Раённая Цэнтральная бальніца", "name:en": "Sluck District Central Hospital", "name:ru": "Слуцкая Районная Центральная Больница", "operator": "Министерство здравоохранения РБ", "phone": "+375(1795) 7-15-02", "website": "https://slcrb.by/"}}, {"name": "", "latitude": 53.0576038, "longitude": 26.9856831, "source": "osm", "_tags": {"amenity": "hospital", "emergency": "no", "healthcare": "hospital"}}, {"name": "Хаз. двор, гаражы, пральня", "latitude": 52.7790893, "longitude": 27.5341794, "source": "osm", "_tags": {"amenity": "hospital", "emergency": "yes", "healthcare": "hospital", "name": "Хаз. двор, гаражы, пральня", "name:be": "Хаз. двор, гаражы, пральня", "name:ru": "Хоз. двор,гаражи, прачечная"}}, {"name": "", "latitude": 52.9646144, "longitude": 26.9960735, "source": "osm", "_tags": {"amenity": "hospital"}}, {"name": "УАЗ Раённая дзіцячая паліклініка", "latitude": 53.0214744, "longitude": 27.542872, "source": "osm", "_tags": {"amenity": "hospital", "healthcare": "hospital", "name": "УАЗ Раённая дзіцячая паліклініка", "name:be": "УАЗ Раённая дзіцячая паліклініка", "name:ru": "УЗ Районная детская поликлиника"}}, {"name": "Кіслародная станцыя", "latitude": 52.7792582, "longitude": 27.5337052, "source": "osm", "_tags": {"amenity": "hospital", "building": "yes", "emergency": "no", "healthcare": "hospital", "name": "Кіслародная станцыя", "name:be": "Кіслародная станцыя", "name:ru": "Кислородная станция"}}, {"name": "", "latitude": 52.8592139, "longitude": 27.1501815, "source": "osm", "_tags": {"amenity": "hospital", "healthcare": "hospital"}}, {"name": "Рэспубліканская бальніца спелеалячэння", "latitude": 52.7686902, "longitude": 27.5304165, "source": "osm", "_tags": {"amenity": "hospital", "barrier": "fence", "healthcare": "hospital", "name": "Рэспубліканская бальніца спелеалячэння", "name:be": "Рэспубліканская бальніца спелеалячэння", "name:ru": "Республиканская больница спелеолечения"}}, {"name": "", "latitude": 53.2090341, "longitude": 27.5969454, "source": "osm", "_tags": {"addr:city": "Замосце", "addr:street": "Кастрычніцкая вуліца", "amenity": "hospital", "healthcare": "hospital"}}, {"name": "", "latitude": 53.1420245, "longitude": 27.6650801, "source": "osm", "_tags": {"amenity": "hospital", "healthcare": "hospital"}}, {"name": "", "latitude": 52.7877784, "longitude": 27.5501771, "source": "osm", "_tags": {"amenity": "hospital", "healthcare": "hospital"}}, {"name": "Капыльская цэнтральная раённая бальніца", "latitude": 53.1575874, "longitude": 27.0835128, "source": "osm", "_tags": {"amenity": "hospital", "healthcare": "hospital", "name": "Капыльская цэнтральная раённая бальніца", "name:be": "Капыльская цэнтральная раённая бальніца", "name:ru": "Копыльская центральная районная больница"}}, {"name": "", "latitude": 52.5259977, "longitude": 27.136078, "source": "osm", "_tags": {"amenity": "hospital", "emergency": "no", "healthcare": "hospital"}}, {"name": "Хорастаўская амбулаторыя", "latitude": 52.4973997, "longitude": 27.2761711, "source": "osm", "_tags": {"amenity": "hospital", "emergency": "no", "healthcare": "hospital", "name": "Хорастаўская амбулаторыя", "name:be": "Хорастаўская амбулаторыя", "website": "https://soligorskcrb.by/podrazdelenija-crb/selskie-medicinskie-uchrezhdenija/horostovskaja-ambulatorija/"}}, {"name": "Бабаўнянскі шпіталь сястрынскага догляду", "latitude": 53.2594367, "longitude": 26.9517535, "source": "osm", "_tags": {"amenity": "hospital", "healthcare": "hospital", "name": "Бабаўнянскі шпіталь сястрынскага догляду", "name:be": "Бабаўнянскі шпіталь сястрынскага догляду", "name:ru": "Бобовнянская больница сестринского ухода", "phone": "+375 17 1942136"}}, {"name": "", "latitude": 52.9500296, "longitude": 27.9081012, "source": "osm", "_tags": {"amenity": "hospital", "healthcare": "hospital"}}, {"name": "", "latitude": 53.1658229, "longitude": 27.4890621, "source": "osm", "_tags": {"amenity": "hospital", "healthcare": "hospital"}}, {"name": "Быстрыцкая ўчастковая бальніца", "latitude": 53.0365513, "longitude": 27.0812308, "source": "osm", "_tags": {"amenity": "hospital", "healthcare": "hospital", "name": "Быстрыцкая ўчастковая бальніца", "name:be": "Быстрыцкая ўчастковая бальніца", "name:ru": "Быстрицкая участковая больница"}}, {"name": "Ісернская бальніца сястрынскага догляду", "latitude": 52.9113569, "longitude": 27.6289546, "source": "osm", "_tags": {"amenity": "hospital", "healthcare": "hospital", "name": "Ісернская бальніца сястрынскага догляду", "name:be": "Ісернская бальніца сястрынскага догляду", "name:ru": "Исернская больница сестринского ухода", "website": "https://slcrb.by/isernskaya-bolnitsa-sestrinskogo-uhoda/"}}, {"name": "Бальніца сястрынскага догляду з амбулаторыяй", "latitude": 52.6176786, "longitude": 27.5668044, "source": "osm", "_tags": {"amenity": "hospital", "healthcare": "hospital", "name": "Бальніца сястрынскага догляду з амбулаторыяй", "name:be": "Бальніца сястрынскага догляду з амбулаторыяй", "website": "https://soligorskcrb.by/podrazdelenija-crb/selskie-medicinskie-uchrezhdenija/dolgovskaja-bolnica-sestrinskogo-uhoda-s-ambulatoriej/"}}, {"name": "Старобінская гарадская бальніца", "latitude": 52.7279009, "longitude": 27.4531893, "source": "osm", "_tags": {"amenity": "hospital", "healthcare": "hospital", "name": "Старобінская гарадская бальніца", "name:be": "Старобінская гарадская бальніца", "name:ru": "Старобинская городская больница", "website": "https://soligorskcrb.by/podrazdelenija-crb/selskie-medicinskie-uchrezhdenija/starobinskaja-gorodskaja-bolnica/"}}, {"name": "Цэнтральная раённая бальніца", "latitude": 52.7790301, "longitude": 27.5326178, "source": "osm", "_tags": {"addr:housenumber": "3", "addr:postcode": "223710", "addr:street": "Лясная вуліца", "amenity": "hospital", "building": "yes", "healthcare": "hospital", "name": "Цэнтральная раённая бальніца", "name:be": "Цэнтральная раённая бальніца", "name:ru": "Центральная районная больница", "type": "multipolygon"}}]