[{"name": "Filia nr 3 Wielkopolskiego Centrum Rehabilitacji", "latitude": 52.4783916, "longitude": 16.7838244, "source": "osm", "_tags": {"addr:city": "Poznań", "addr:housenumber": "1", "addr:postcode": "60-480", "addr:street": "Sanatoryjna", "amenity": "hospital", "healthcare": "hospital", "name": "Filia nr 3 Wielkopolskiego Centrum Rehabilitacji", "operator": "Narodowy Fundusz Zdrowia", "phone": "+4861 848 26 61"}}, {"name": "Szpital Podolany", "latitude": 52.4587, "longitude": 16.8895577, "source": "osm", "_tags": {"addr:city": "Poznań", "addr:housenumber": "37", "addr:postcode": "60-465", "addr:street": "Straży Ludowej", "amenity": "hospital", "emergency": "no", "healthcare": "clinic", "healthcare:speciality": "paediatrics;otolaryngology;orthopaedics;endocrinology", "name": "Szpital Podolany", "website": "https://szpitalpodolany.pl/"}}, {"name": "Szpital Powiatowy w Trzciance - Oddział w Krzyżu Wielkopolskim", "latitude": 52.8836392, "longitude": 16.00613, "source": "osm", "_tags": {"amenity": "hospital", "healthcare": "hospital", "name": "Szpital Powiatowy w Trzciance - Oddział w Krzyżu Wielkopolskim"}}, {"name": "107 Szpital Wojskowy z Przychodnią SPZOZ", "latitude": 53.282308, "longitude": 16.459366, "source": "osm", "_tags": {"alt_name": "107 Szpital Wojskowy z Przychodnią SPZOZ w Wałczu", "amenity": "hospital", "email": "sekretariat@107sw.pl", "emergency": "no", "healthcare": "hospital", "name": "107 Szpital Wojskowy z Przychodnią SPZOZ", "official_name": "107 Szpital Wojskowy z Przychodnią Samodzielny Publiczny Zakład Opieki Zdrowotnej w Wałczu", "operator": "Ministerstwo Obrony Narodowej", "phone": "+48 261 47 28 09", "website": "https://107sw.pl/"}}, {"name": "Wielkopolskie Centrum Pulmonologii i Torakochirurgii im. Eugenii i Janusza Zeylandów", "latitude": 52.9831125, "longitude": 16.9016708, "source": "osm", "_tags": {"addr:city": "Chodzież", "addr:city:simc": "0966760", "addr:housenumber": "32", "addr:postcode": "64-800", "addr:street": "Strzelecka", "alt_name": "Szpital Chorób Płuc i Gruźlicy", "amenity": "hospital", "building": "yes", "name": "Wielkopolskie Centrum Pulmonologii i Torakochirurgii im. Eugenii i Janusza Zeylandów", "phone": "67 2822837", "source:addr": "mchodziez.e-mapa.net", "website": "https://wcpit.pl/pl/szpital-w-chodziezy"}}, {"name": "Filia Nr 2 Szpital Rehabilitacyjno - Kardiologiczny w Kowanówku", "latitude": 52.6831033, "longitude": 16.8446571, "source": "osm", "_tags": {"addr:city": "Kowanówko", "addr:city:simc": "0591455", "addr:housenumber": "34/13", "addr:postcode": "64-600", "addr:street": "Sanatoryjna", "addr:street:sym_ul": "19488", "amenity": "hospital", "emergency": "no", "healthcare": "hospital", "name": "Filia Nr 2 Szpital Rehabilitacyjno - Kardiologiczny w Kowanówku", "source:addr": "oborniki.e-mapa.net"}}, {"name": "MedPolonia", "latitude": 52.4481112, "longitude": 16.9080821, "source": "osm", "_tags": {"addr:city": "Poznań", "addr:housenumber": "262", "addr:postcode": "60-693", "addr:street": "Obornicka", "alt_name": "Med Polonia", "amenity": "hospital", "building": "yes", "building:levels": "3", "email": "hospitalizacja@medpolonia.com.pl", "name": "MedPolonia", "phone": "+48 61 66 43 313; +48 514 971 722", "source:addr": "EMUiA (emuia.geoportal.gov.pl)", "website": "https://medpolonia.com.pl/"}}, {"name": "Samodzielny Publiczny Zakład Opieki Zdrowotnej w Szamotułach", "latitude": 52.6106449, "longitude": 16.5815459, "source": "osm", "_tags": {"addr:city": "Szamotuły", "addr:city:simc": "0971531", "addr:housenumber": "13", "addr:postcode": "64-500", "addr:street": "Sukiennicza", "amenity": "hospital", "emergency": "yes", "healthcare": "hospital", "name": "Samodzielny Publiczny Zakład Opieki Zdrowotnej w Szamotułach", "operator": "Samodzielny", "phone": "612927100", "source:addr": "szamotuly.e-mapa.net", "website": "https://www.szamotuly.med.pl/", "wheelchair": "yes"}}, {"name": "Szpital Specjalistyczny im. Stanisława Staszica w Pile", "latitude": 53.1219301, "longitude": 16.7161311, "source": "osm", "_tags": {"addr:city": "Piła", "addr:city:simc": "0966530", "addr:housenumber": "1", "addr:postcode": "64-920", "addr:street": "Ludwika Rydygiera", "amenity": "hospital", "email": "wszpila@pi.onet.pl", "emergency": "yes", "fax": "67 2124085", "name": "Szpital Specjalistyczny im. Stanisława Staszica w Pile", "phone": "672106666", "website": "https://www.szpitalpila.pl/"}}, {"name": "Wojewódzki Szpital Zespolony", "latitude": 52.4395578, "longitude": 16.9062226, "source": "osm", "_tags": {"addr:city": "Poznań", "addr:housenumber": "7/19", "addr:street": "Juraszów", "alt_name": "Szpital Wojewódzki w Poznaniu", "amenity": "hospital", "healthcare": "hospital", "name": "Wojewódzki Szpital Zespolony", "wikidata": "Q9352147", "wikipedia": "pl:Szpital Wojewódzki w Poznaniu"}}, {"name": "Zakład Opieki Zdrowotnej MSWiA im. prof. Ludwika Bierkowskiego", "latitude": 52.4362175, "longitude": 16.9048255, "source": "osm", "_tags": {"addr:city": "Poznań", "addr:housenumber": "34", "addr:street": "Dojazd", "alt_name": "Szpital MSWiA", "amenity": "hospital", "name": "Zakład Opieki Zdrowotnej MSWiA im. prof. Ludwika Bierkowskiego"}}, {"name": "Wielkpolskie Centrum Pediatrii", "latitude": 52.4376782, "longitude": 16.9060375, "source": "osm", "_tags": {"addr:city": "Poznań", "addr:housenumber": "1", "addr:postcode": "60-663", "addr:street": "Adama Wrzoska", "alt_name": "Wielkopolskie Centrum Zdrowia Dziecka w Poznaniu", "amenity": "hospital", "email": "sekretariat@szoz.pl", "full_name": "Specjalistyczny Zespół Opieki Zdrowotnej nad Matką i Dzieckiem w Poznaniu", "healthcare": "hospital", "loc_name": "Szpital Dziecięcy", "name": "Wielkpolskie Centrum Pediatrii", "phone": "+48 61 850 62 00", "website": "https://szoz.pl/dzieci/", "wikidata": "Q60862491", "wikipedia": "pl:Wielkopolskie Centrum Pediatrii"}}, {"name": "Zespół Zakładów Opieki Zdrowotnej - Szpital Powiatowy w Czarnkowie", "latitude": 52.8974696, "longitude": 16.5570727, "source": "osm", "_tags": {"amenity": "hospital", "email": "sekretariat@zzozczarnkow.x.pl", "healthcare": "hospital", "name": "Zespół Zakładów Opieki Zdrowotnej - Szpital Powiatowy w Czarnkowie", "phone": "67 352 81 70", "website": "http://zzozczarnkow.x.pl"}}, {"name": "Szpital Powiatowy w Chodzieży", "latitude": 52.9883165, "longitude": 16.9154776, "source": "osm", "_tags": {"amenity": "hospital", "healthcare": "hospital", "name": "Szpital Powiatowy w Chodzieży"}}, {"name": "Szpital Powiatowy w Obornikach", "latitude": 52.653531, "longitude": 16.8168007, "source": "osm", "_tags": {"amenity": "hospital", "emergency": "yes", "healthcare": "hospital", "name": "Szpital Powiatowy w Obornikach", "official_name": "Samodzielny Publiczny Zakład Opieki Zdrowotnej w Obornikach", "phone": "+48 61 29 73 500", "website": "https://szpital.oborniki.info/", "wheelchair": "yes"}}, {"name": "Szpital Powiatowy im. Jana Pawła II w Trzciance", "latitude": 53.0396017, "longitude": 16.4642366, "source": "osm", "_tags": {"addr:city": "Trzcianka", "addr:housenumber": "9", "addr:postcode": "64-980", "addr:street": "Generała Władysława Sikorskiego", "amenity": "hospital", "emergency": "yes", "healthcare": "hospital", "healthcare:speciality": "wojsko;gynaecology;cardiology;oncology;endocrinology;orthopaedics", "name": "Szpital Powiatowy im. Jana Pawła II w Trzciance", "operator": "Powiat Czarnkowsko-Trzcianecki, Ministerstwo Obrony Narodowej", "operator:type": "public", "phone": "+483523209", "website": "https://szpital-trzcianka.pl/", "wheelchair": "yes"}}, {"name": "Ars Medical", "latitude": 53.1523275, "longitude": 16.7175877, "source": "osm", "_tags": {"amenity": "hospital", "healthcare": "hospital", "name": "Ars Medical", "phone": "+48 67 211 99 00", "type": "multipolygon", "website": "https://www.arsmedical.pila.pl/"}}]