[{"name": "Maßregelvollzugszentrum Niedersachsen", "latitude": 52.4372495, "longitude": 9.2161474, "source": "osm", "_tags": {"amenity": "hospital", "email": "poststelle@mrvzn-badrehburg.niedersachsen.de", "healthcare": "hospital", "name": "Maßregelvollzugszentrum Niedersachsen", "phone": "+49 5037 90-0", "website": "https://www.mrvzn-badrehburg.niedersachsen.de"}}, {"name": "Öffentlicher AED Defibrilator", "latitude": 53.3121758, "longitude": 9.5240532, "source": "osm", "_tags": {"addr:city": "Freetz", "addr:housenumber": "6b", "addr:postcode": "27419", "addr:street": "Am Blöcken", "amenity": "hospital", "email": "info@thomaskannenberg.de", "healthcare": "hospital", "healthcare:speciality": "emergency", "name": "Öffentlicher AED Defibrilator", "opening_hours": "24/7", "operator": "Gemeinde Lengenbostel", "operator:type": "public"}}, {"name": "Agaplesion Diakonieklinikum Rotenburg", "latitude": 53.10524, "longitude": 9.4134232, "source": "osm", "_tags": {"addr:housenumber": "17", "addr:street": "Elise-Averdieck-Straße", "amenity": "hospital", "emergency": "yes", "healthcare": "hospital", "hospital:level:DE": "3", "name": "Agaplesion Diakonieklinikum Rotenburg", "old_name": "Diakoniekrankenhaus Rotenburg", "operator": "Agaplesion", "operator:type": "private", "operator:wikidata": "Q55445", "website": "https://www.diako-online.de/", "wheelchair": "yes", "wikidata": "Q1208290"}}, {"name": "KRH Klinikum Großburgwedel", "latitude": 52.4963677, "longitude": 9.8620387, "source": "osm", "_tags": {"addr:city": "Burgwedel", "addr:country": "DE", "addr:housename": "KRH Klinikum Großburgwedel", "addr:housenumber": "8", "addr:postcode": "30938", "addr:street": "Fuhrberger Straße", "amenity": "hospital", "building": "yes", "emergency": "yes", "healthcare": "hospital", "name": "KRH Klinikum Großburgwedel", "operator": "KRH Klinikum Region Hannover", "phone": "+49 5139 8011", "website": "http://www.krh.eu/klinikum/GBW/", "wheelchair": "yes"}}, {"name": "Helios Kliniken Mittelweser Nienburg", "latitude": 52.6354926, "longitude": 9.2244519, "source": "osm", "_tags": {"addr:city": "Nienburg/Weser", "addr:country": "DE", "addr:housenumber": "39", "addr:postcode": "31582", "addr:street": "Ziegelkampstraße", "amenity": "hospital", "contact:fax": "+49 5021 9210 7019", "contact:phone": "+49 5021 9210 0", "emergency": "yes", "healthcare": "hospital", "name": "Helios Kliniken Mittelweser Nienburg", "operator": "Helios Kliniken", "operator:type": "private", "operator:wikidata": "Q1254151", "operator:wikipedia": "de:Helios Kliniken", "website": "https://www.helios-gesundheit.de/kliniken/mittelweser/", "wheelchair": "yes", "wikidata": "Q50038589"}}, {"name": "KRH Klinikum Neustadt am Rübenberge", "latitude": 52.4936292, "longitude": 9.4660912, "source": "osm", "_tags": {"addr:city": "Neustadt am Rübenberge", "addr:housenumber": "75", "addr:postcode": "31535", "addr:street": "Lindenstraße", "amenity": "hospital", "building": "hospital", "building:levels": "7", "check_date": "2024-06-08", "email": "info.neustadt@krh.de", "emergency": "yes", "fax": "+49 5032 88 1001", "healthcare": "hospital", "name": "KRH Klinikum Neustadt am Rübenberge", "operator": "KRH Klinikum Region Hannover", "phone": "+49 5032 88 0", "source": "bing", "website": "https://neustadt.krh.de/", "wheelchair": "yes"}}, {"name": "KRH Psychiatrie Langenhagen - Haus im Park", "latitude": 52.4447989, "longitude": 9.7425755, "source": "osm", "_tags": {"addr:city": "Langenhagen", "addr:housenumber": "3", "addr:postcode": "30853", "addr:street": "Rohdehof", "amenity": "hospital", "building": "yes", "healthcare": "hospital", "name": "KRH Psychiatrie Langenhagen - Haus im Park", "operator": "KRH Klinikum Region Hannover", "source": "Bing", "website": "http://www.krh.eu/klinikum/PSL/"}}, {"name": "KRH Psychiatrie Langenhagen", "latitude": 52.4428733, "longitude": 9.7398248, "source": "osm", "_tags": {"addr:city": "Langenhagen", "addr:housenumber": "3", "addr:postcode": "30853", "addr:street": "Rohdehof", "amenity": "hospital", "building": "yes", "healthcare": "hospital", "healthcare:speciality": "psychiatry", "name": "KRH Psychiatrie Langenhagen", "operator": "KRH Klinikum Region Hannover", "website": "http://www.krh.eu/klinikum/PSL/"}}, {"name": "Krankenhaus Achim", "latitude": 53.0179762, "longitude": 9.0048071, "source": "osm", "_tags": {"addr:city": "Achim", "addr:country": "DE", "addr:housenumber": "2", "addr:postcode": "28832", "addr:street": "Bierdener Mühle", "amenity": "hospital", "brand": "Aller-Weser-Klinik gGmbH", "emergency": "yes", "healthcare": "hospital", "healthcare:speciality": "anaesthetics;emergency;geriatrics;internal;neurosurgery;orthopaedics;otolaryngology;plastic_surgery;surgery;trauma;urology", "name": "Krankenhaus Achim", "operator": "Aller-Weser-Klinik gGmbH", "operator:type": "public", "phone": "+49 4202 998-0", "toilets:wheelchair": "yes", "website": "https://www.aller-weser-klinik.de/klinik-achim/", "wheelchair": "yes"}}, {"name": "Paracelsus Klinik am Silbersee", "latitude": 52.4335377, "longitude": 9.7572918, "source": "osm", "_tags": {"addr:city": "Langenhagen", "addr:country": "DE", "addr:housenumber": "24", "addr:postcode": "30851", "addr:street": "Oertzeweg", "addr:suburb": "Langenforth", "amenity": "hospital", "healthcare": "hospital", "name": "Paracelsus Klinik am Silbersee", "website": "https://www.paracelsus-kliniken.de/langenhagen.html"}}, {"name": "Klinikum Bremen-Ost", "latitude": 53.0641569, "longitude": 8.9403138, "source": "osm", "_tags": {"addr:city": "Bremen", "addr:country": "DE", "addr:housenumber": "40", "addr:postcode": "28325", "addr:street": "Züricher Straße", "amenity": "hospital", "beds": "715", "check_date": "2024-06-09", "emergency": "yes", "healthcare": "hospital", "image": "http://upload.wikimedia.org/wikipedia/commons/8/8b/Klinikum_Bremen-Ost-04.jpg", "name": "Klinikum Bremen-Ost", "website": "https://www.gesundheitnord.de/krankenhaeuserundzentren/kbo.html", "wheelchair": "yes", "wikidata": "Q1774599", "wikipedia": "de:Klinikum Bremen-Ost"}}, {"name": "Maßregelvollzugszentrum Niedersachsen - Brauel", "latitude": 53.3240691, "longitude": 9.2623919, "source": "osm", "_tags": {"addr:city": "Zeven", "addr:country": "DE", "addr:housenumber": "1", "addr:postcode": "27404", "addr:street": "Bremervörder Straße", "addr:suburb": "Brauel", "amenity": "hospital", "barrier": "fence", "description": "Fachkrankenhaus für Forensische Psychiatrie und Psychotherapie", "email": "Poststelle@mrvzn-brauel.niedersachsen.de", "fax": "+49 4281 949 200", "health_specialty": "forensic_psychiatry", "healthcare": "hospital", "name": "Maßregelvollzugszentrum Niedersachsen - Brauel", "phone": "+49 4281 949 0", "short_name": "MRVZN Brauel", "website": "https://www.mrvzn-brauel.niedersachsen.de/", "wikidata": "Q55489729"}}, {"name": "Ameos Klinikum Dr. Heines", "latitude": 53.0759975, "longitude": 8.9425303, "source": "osm", "_tags": {"addr:city": "Bremen", "addr:country": "DE", "addr:housenumber": "110", "addr:postcode": "28325", "addr:street": "Rockwinkeler Landstraße", "alt_name": "Heines-Klinik;AMEOS Klinik", "amenity": "hospital", "beds": "230", "check_date": "2024-08-20", "contact:phone": "+49 421 42890", "contact:website": "https://www.ameos.eu/standorte/ameos-west/bremen/ameos-klinikum-bremen/", "healthcare": "hospital", "name": "Ameos Klinikum Dr. Heines", "official_name": "AMEOS Klinikum Dr. Heines Bremen", "operator": "AMEOS-Gruppe", "source:start_date": "website", "start_date": "1764", "wheelchair": "yes", "wikidata": "Q1516232", "wikipedia": "de:AMEOS Klinikum Bremen"}}, {"name": "HELIOS Kliniken Mittelweser Stolzenau", "latitude": 52.5153105, "longitude": 9.0686405, "source": "osm", "_tags": {"addr:city": "Stolzenau", "addr:country": "DE", "addr:housenumber": "28", "addr:postcode": "31592", "addr:street": "Holzhäuser Weg", "amenity": "hospital", "contact:phone": "+49 5761 9007 0", "emergency": "yes", "healthcare": "hospital", "name": "HELIOS Kliniken Mittelweser Stolzenau", "operator": "Helios Kliniken", "operator:wikidata": "Q1254151", "operator:wikipedia": "de:Helios Kliniken", "toilets:wheelchair": "yes", "website": "https://www.helios-gesundheit.de/kliniken/mittelweser/", "wheelchair": "yes"}}, {"name": "MEDICLIN Klinikum Soltau", "latitude": 52.9940633, "longitude": 9.857497, "source": "osm", "_tags": {"amenity": "hospital", "contact:email": "info.klinikum-soltau@mediclin.de", "contact:fax": "+49 5191 800 200", "contact:phone": "+49 5191 800 0", "contact:website": "https://www.klinikum-soltau.de/", "description": "Akutkrankenhaus und Rehabilitationsklinik für Patienten mit neurologischen, geriatrischen, orthopädischen und psychosomatischen Erkrankungen.", "emergency": "no", "healthcare": "rehabilitation", "healthcare:speciality": "neurology;orthopaedics;geriatrics;psychiatry", "name": "MEDICLIN Klinikum Soltau", "operator": "Mediclin", "operator:type": "private", "operator:wikidata": "Q1916295", "wheelchair": "yes"}}, {"name": "Aller-Weser-Klinik Verden", "latitude": 52.9139486, "longitude": 9.2322991, "source": "osm", "_tags": {"addr:city": "Verden (Aller)", "addr:housenumber": "20", "addr:street": "Eitzer Straße", "amenity": "hospital", "brand": "Aller-Weser-Klinik gGmbH", "check_date": "2025-08-19", "contact:email": "verden@aller-weser-klinik.de", "contact:fax": "+49 4321 103 333", "contact:phone": "+49 4231 103 0", "contact:website": "http://www.aller-weser-klinik.de/klinik-verden/", "healthcare": "hospital", "name": "Aller-Weser-Klinik Verden", "operator": "Aller-Weser-Klinik gGmbH", "wikidata": "Q15053898", "wikipedia": "de:Aller-Weser-Klinik"}}, {"name": "Krankenhaus Buchholz in der Nordheide", "latitude": 53.3332666, "longitude": 9.8718156, "source": "osm", "_tags": {"addr:city": "Buchholz in der Nordheide", "addr:country": "DE", "addr:housenumber": "44", "addr:postcode": "21244", "addr:street": "Steinbecker Straße", "amenity": "hospital", "emergency": "yes", "healthcare": "hospital", "name": "Krankenhaus Buchholz in der Nordheide", "opening_hours": "24/7", "phone": "+49 4181 130", "toilets:wheelchair": "yes", "website": "http://krankenhaus-buchholz.de", "wheelchair": "yes", "wikidata": "Q15117620"}}, {"name": "Kinder- und Jugendpsychiatrie Spiel und Ergotherapie", "latitude": 52.4252788, "longitude": 9.4394428, "source": "osm", "_tags": {"building": "hospital", "healthcare": "hospital", "healthcare:speciality": "occupational;psychiatry", "name": "Kinder- und Jugendpsychiatrie Spiel und Ergotherapie"}}, {"name": "Heidekreis-Klinikum Walsrode", "latitude": 52.8591794, "longitude": 9.5868433, "source": "osm", "_tags": {"addr:city": "Walsrode", "addr:housenumber": "4", "addr:postcode": "29664", "addr:street": "Robert-Koch-Straße", "amenity": "hospital", "email": "info@heidekreis-klinikum.de", "emergency": "yes", "healthcare": "hospital", "image": "https://commons.wikimedia.org/wiki/File:Heidekreis-Klinikum_Krankenhaus_Walsrode_2011.jpg", "name": "Heidekreis-Klinikum Walsrode", "operator": "Heidekreis-Klinikum gGmbH", "operator:type": "private", "operator:wikidata": "Q136227885", "phone": "+49 5161 602-0", "short_name": "HKK Walsrode", "website": "https://www.heidekreis-klinikum.de", "wheelchair": "yes", "wikidata": "Q1593968", "wikipedia": "de:Heidekreis-Klinikum"}}, {"name": "Heidekreis-Klinikum Soltau", "latitude": 52.9892941, "longitude": 9.8557584, "source": "osm", "_tags": {"amenity": "hospital", "contact:fax": "+49 5191 602-3280", "contact:phone": "+49 5191 602-0", "contact:website": "https://www.heidekreis-klinikum.de/", "emergency": "yes", "healthcare": "hospital", "healthcare:speciality": "cardiology;internal;radiology", "name": "Heidekreis-Klinikum Soltau", "operator": "Heidekreis-Klinikum gGmbH", "wikidata": "Q1593968", "wikipedia": "de:Heidekreis-Klinikum"}}, {"name": "OsteMed MVZ Zeven", "latitude": 53.3028888, "longitude": 9.2839316, "source": "osm", "_tags": {"amenity": "hospital", "contact:email": "info-mvz-zeven@ostemed.de", "contact:fax": "+49 4281 711-7486", "contact:phone": "+49 4281 711-0", "contact:website": "https://www.ostemed-mvz-zeven.de/", "emergency": "no", "healthcare": "hospital", "healthcare:speciality": "general;gastroenterology;internal;cardiology;trauma", "name": "OsteMed MVZ Zeven", "operator": "OsteMed MVZ GmbH", "wheelchair": "yes"}}, {"name": "KRH Psychiatrie Wunstorf", "latitude": 52.4253342, "longitude": 9.4352645, "source": "osm", "_tags": {"amenity": "hospital", "healthcare": "hospital", "healthcare:speciality": "psychiatry", "name": "KRH Psychiatrie Wunstorf", "old_name": "Niedersächsisches Landeskrankenhaus Wunstorf", "phone": "+49 5031 93 0", "type": "multipolygon", "website": "http://www.krh.eu/klinikum/PSW/"}}, {"name": "KRH Geriatrie Langenhagen", "latitude": 52.4441631, "longitude": 9.7400304, "source": "osm", "_tags": {"addr:city": "Langenhagen", "addr:housenumber": "3", "addr:postcode": "30853", "addr:street": "Rohdehof", "amenity": "hospital", "building": "yes", "healthcare": "hospital", "name": "KRH Geriatrie Langenhagen", "operator": "KRH Klinikum Region Hannover", "type": "multipolygon", "website": "http://www.krh.eu/klinikum/GEL/"}}]