[{"name": "ФАП", "latitude": 53.0544726, "longitude": 28.4128871, "source": "osm", "_tags": {"amenity": "hospital", "name": "ФАП", "name:be": "ФАП", "name:ru": "ФАП"}}, {"name": "Пестыцыды", "latitude": 52.5732194, "longitude": 28.8175771, "source": "osm", "_tags": {"amenity": "hospital", "name": "Пестыцыды", "name:be": "Пестыцыды", "name:ru": "Писцициды"}}, {"name": "Глушанская бальніца", "latitude": 53.0882644, "longitude": 28.8502037, "source": "osm", "_tags": {"addr:city": "Глуша", "amenity": "hospital", "emergency": "yes", "healthcare": "hospital", "name": "Глушанская бальніца", "name:be": "Глушанская бальніца", "name:ru": "Глушанская больница"}}, {"name": "Талькаўская ўчастковая бальніца", "latitude": 53.3678007, "longitude": 28.349812, "source": "osm", "_tags": {"addr:housenumber": "17", "addr:street": "Набярэжная вуліца", "amenity": "hospital", "building": "hospital", "name": "Талькаўская ўчастковая бальніца", "name:be": "Талькаўская ўчастковая бальніца", "name:ru": "Тальковская участковая больница"}}, {"name": "Гарадская паліклініка", "latitude": 53.3226603, "longitude": 28.646646, "source": "osm", "_tags": {"amenity": "hospital", "building": "yes", "building:levels": "3", "name": "Гарадская паліклініка", "name:be": "Гарадская паліклініка", "name:ru": "Городская поликлиника"}}, {"name": "Амбулаторыя", "latitude": 52.8558331, "longitude": 28.1822228, "source": "osm", "_tags": {"addr:housenumber": "19", "addr:street": "Лясная вуліца", "amenity": "hospital", "building": "yes", "healthcare": "hospital", "name": "Амбулаторыя", "name:be": "Амбулаторыя", "name:ru": "Амбулатория"}}, {"name": "УАЗ «Любанская ЦРБ»", "latitude": 52.7936174, "longitude": 27.9734943, "source": "osm", "_tags": {"amenity": "hospital", "name": "УАЗ «Любанская ЦРБ»", "name:be": "УАЗ «Любанская ЦРБ»", "name:ru": "УЗ «Любанская ЦРБ»", "name:uk": "УЗ «Любанська ЦРЛ»"}}, {"name": "", "latitude": 52.4492325, "longitude": 28.8111619, "source": "osm", "_tags": {"amenity": "hospital", "emergency": "no", "healthcare": "hospital"}}, {"name": "Глуская ЦРБ", "latitude": 52.9056246, "longitude": 28.6729874, "source": "osm", "_tags": {"amenity": "hospital", "healthcare": "yes", "name": "Глуская ЦРБ", "name:be": "Глуская ЦРБ", "name:ru": "Глусская ЦРБ"}}, {"name": "", "latitude": 53.4140216, "longitude": 28.8301383, "source": "osm", "_tags": {"amenity": "hospital", "emergency": "no", "healthcare": "hospital"}}, {"name": "", "latitude": 53.2962141, "longitude": 28.6422022, "source": "osm", "_tags": {"amenity": "hospital", "emergency": "no", "healthcare": "hospital"}}, {"name": "Асіповіцкая цэнтральная раённая бальніца", "latitude": 53.2950845, "longitude": 28.6460535, "source": "osm", "_tags": {"amenity": "hospital", "check_date": "2024-09-17", "emergency": "yes", "healthcare": "hospital", "name": "Асіповіцкая цэнтральная раённая бальніца", "name:be": "Асіповіцкая цэнтральная раённая бальніца", "name:ru": "Осиповичская центральная районная больница"}}, {"name": "", "latitude": 53.1689852, "longitude": 28.490855, "source": "osm", "_tags": {"amenity": "hospital", "healthcare": "hospital"}}, {"name": "Акцябрская ЦРБ", "latitude": 52.6369837, "longitude": 28.8915392, "source": "osm", "_tags": {"amenity": "hospital", "healthcare": "hospital", "name": "Акцябрская ЦРБ", "name:be": "Акцябрская ЦРБ", "name:ru": "Октябрьская ЦРБ"}}, {"name": "", "latitude": 53.3067894, "longitude": 28.6336736, "source": "osm", "_tags": {"amenity": "hospital", "healthcare": "hospital"}}, {"name": "Шчыткавіцкая ўчастковая бальніца", "latitude": 53.2202722, "longitude": 27.9859152, "source": "osm", "_tags": {"addr:housenumber": "32", "addr:street": "вуліца Леніна", "amenity": "hospital", "healthcare": "hospital", "name": "Шчыткавіцкая ўчастковая бальніца", "name:be": "Шчыткавіцкая ўчастковая бальніца", "phone": "+375179242167", "website": "https://starcrb.by/structure/lpu_list.php"}}, {"name": "Старадарожская цэнтральная раённая бальніца", "latitude": 53.0355432, "longitude": 28.2445258, "source": "osm", "_tags": {"amenity": "hospital", "healthcare": "hospital", "name": "Старадарожская цэнтральная раённая бальніца", "name:be": "Старадарожская цэнтральная раённая бальніца", "name:ru": "Стародорожская центральная районная больница"}}, {"name": "", "latitude": 52.9316388, "longitude": 28.4327496, "source": "osm", "_tags": {"amenity": "hospital", "healthcare": "hospital"}}]