[{"name": "Klinika Kardiochirurgii PUM", "latitude": 53.4082235, "longitude": 14.5296644, "source": "osm", "_tags": {"amenity": "clinic", "healthcare": "hospital", "name": "Klinika Kardiochirurgii PUM"}}, {"name": "Naturheilpraxis Kierstein", "latitude": 52.5327167, "longitude": 14.3811951, "source": "osm", "_tags": {"addr:city": "Seelow", "addr:housenumber": "7", "addr:postcode": "15306", "addr:street": "Puschkinplatz", "amenity": "hospital", "healthcare": "hospital", "healthcare:speciality": "herbalism", "name": "Naturheilpraxis Kierstein", "operator": "Anjte Kierstein", "operator:type": "public"}}, {"name": "profCymbaLOOK CLINIC - Aneta Cymbaluk - Specjalistyczne Gabinety Medyczne w Szczecinie", "latitude": 53.3953914, "longitude": 14.4916781, "source": "osm", "_tags": {"addr:city": "Szczecin", "addr:housenumber": "14/U9", "addr:postcode": "71-004", "addr:street": "Eugeniusza Kwiatkowskiego", "amenity": "hospital", "email": "kontakt@cymbalook.pl", "healthcare": "hospital", "healthcare:speciality": "gynaecology;psychiatry;urology;endocrinology;physiotherapy;surgery;blood_check;neurology;haematology;proctology;radiology", "name": "profCymbaLOOK CLINIC - Aneta Cymbaluk - Specjalistyczne Gabinety Medyczne w Szczecinie", "opening_hours": "Mo-Th 09:00-21:00; Fr 08:00-21:00", "phone:mobile": "+48 602 363 991", "short_name": "profCymbaLOOK CLINIC"}}, {"name": "Uniwersytecki Szpital Kliniczny nr 2 Pomorskiego Uniwersytetu Medycznego", "latitude": 53.4080998, "longitude": 14.5320178, "source": "osm", "_tags": {"alt_name": "Uniwersytecki Szpital Kliniczny nr 2 PUM", "amenity": "hospital", "contact:facebook": "https://www.facebook.com/SPSK2Pomorzany/", "email": "spsk2@spsk2-szczecin.pl", "emergency": "no", "fax": "+48 91 466 10 15", "healthcare": "hospital", "name": "Uniwersytecki Szpital Kliniczny nr 2 Pomorskiego Uniwersytetu Medycznego", "official_name": "Uniwersytecki Szpital Kliniczny nr 2 Pomorskiego Uniwersytetu Medycznego w Szczecinie", "old_name": "Samodzielny Publiczny Szpital Kliniczny nr 2 Pomorskiego Uniwersytetu Medycznego w Szczecinie", "old_name:de": "Städtisches Krankenhaus", "operator": "Pomorski Uniwersytet Medyczny w Szczecinie", "phone": "+48 91 466 10 00", "short_name": "USK 2 PUM", "website": "https://usk2.szczecin.pl"}}, {"name": "Samodzielny Publiczny Specjalistyczny Zakład Opieki Zdrowotnej „Zdroje”", "latitude": 53.3708977, "longitude": 14.6409799, "source": "osm", "_tags": {"amenity": "hospital", "contact:facebook": "https://www.facebook.com/szpitalzdroje", "email": "szpital@szpital-zdroje.pl", "emergency": "yes", "fax": "+48 91 880 62 03", "healthcare": "hospital", "name": "Samodzielny Publiczny Specjalistyczny Zakład Opieki Zdrowotnej „Zdroje”", "phone": "+48 91 880 62 50; +48 91 880 62 00", "website": "https://www.szpital-zdroje.pl/"}}, {"name": "AHG Klinik und Moorbad", "latitude": 52.7746389, "longitude": 14.0206875, "source": "osm", "_tags": {"addr:city": "Bad Freienwalde (Oder)", "addr:country": "DE", "addr:housenumber": "33", "addr:postcode": "16259", "addr:street": "Gesundbrunnenstraße", "amenity": "hospital", "emergency": "no", "name": "AHG Klinik und Moorbad", "wikidata": "Q1391333"}}, {"name": "Niepubliczny Zakład Opieki Zdrowotnej \"Nowy Szpital\" w Kostrzynie nad Odrą", "latitude": 52.6072796, "longitude": 14.6402609, "source": "osm", "_tags": {"amenity": "hospital", "email": "kostrzyn@nowyszpital.pl", "emergency": "no", "healthcare": "hospital", "name": "Niepubliczny Zakład Opieki Zdrowotnej \"Nowy Szpital\" w Kostrzynie nad Odrą", "phone": "+48 41 240 1800", "website": "https://www.nowyszpital.pl/"}}, {"name": "Samodzielny Publiczny Wojewódzki Szpital Zespolony - Zdunowo", "latitude": 53.3795883, "longitude": 14.7706719, "source": "osm", "_tags": {"amenity": "hospital", "emergency": "yes", "healthcare": "hospital", "name": "Samodzielny Publiczny Wojewódzki Szpital Zespolony - Zdunowo", "wheelchair": "yes"}}, {"name": "Szpital Powiatowy w Gryfinie", "latitude": 53.2549006, "longitude": 14.491143, "source": "osm", "_tags": {"addr:city": "Gryfino", "addr:housenumber": "5", "addr:postcode": "74-100", "addr:street": "Parkowa", "amenity": "hospital", "building": "hospital", "building:levels": "3", "contact:facebook": "https://www.facebook.com/szpital.gryfino", "email": "sekretariat@szpital-gryfino.pl", "emergency": "no", "healthcare": "hospital", "name": "Szpital Powiatowy w Gryfinie", "name:uk": "Районна лікарня в Грифіні", "official_name": "Szpital Powiatowy w Gryfinie Sp. z o.o.", "operator": "Dom Lekarski S.A.", "phone": "+48 691 506 504", "source:addr": "gryfino.e-mapa.net", "website": "https://szpital-gryfino.pl/"}}, {"name": "Krankenhaus Märkisch-Oderland Wriezen", "latitude": 52.7214287, "longitude": 14.1277347, "source": "osm", "_tags": {"addr:city": "Wriezen", "addr:housenumber": "3", "addr:postcode": "16269", "addr:street": "Sonnenburger Weg", "amenity": "hospital", "contact:website": "https://www.krankenhaus-mol.de/", "healthcare": "hospital", "name": "Krankenhaus Märkisch-Oderland Wriezen", "operator": "Krankenhaus Märkisch-Oderland GmbH", "wikidata": "Q50038641"}}, {"name": "GLG Krankenhaus Angermünde", "latitude": 53.0126238, "longitude": 13.9884388, "source": "osm", "_tags": {"amenity": "hospital", "emergency": "yes", "healthcare": "hospital", "name": "GLG Krankenhaus Angermünde", "operator": "Medizinisch-Soziales Zentrum Uckermark gGmbH", "phone": "+49 3331 2710", "website": "https://www.glg-gesundheit.de/krankenhaeuser/glg-krankenhaus-angermuende/", "wikidata": "Q117791429"}}, {"name": "Szpital Powiatowy w Pyrzycach", "latitude": 53.1467613, "longitude": 14.8960814, "source": "osm", "_tags": {"amenity": "hospital", "contact:facebook": "https://www.facebook.com/SzpitalPyrzyce/", "email": "sekretariat@szpital.pyrzyce.net.pl", "emergency": "no", "fax": "+48 91 579 32 27", "healthcare": "hospital", "name": "Szpital Powiatowy w Pyrzycach", "operator": "Powiat Pyrzycki", "phone": "+48 91 817 11 10", "website": "http://szpital.pyrzyce.net.pl"}}, {"name": "Asklepios Klinikum Uckermark", "latitude": 53.0528981, "longitude": 14.275875, "source": "osm", "_tags": {"addr:city": "Schwedt/Oder", "addr:housenumber": "1", "addr:postcode": "16303", "addr:street": "Am Klinikum", "amenity": "hospital", "emergency": "yes", "healthcare": "hospital", "name": "Asklepios Klinikum Uckermark", "operator": "Asklepios Kliniken", "operator:type": "private", "operator:wikidata": "Q732068", "toilets:wheelchair": "yes", "wheelchair": "yes", "wikidata": "Q81942739"}}, {"name": "Szpital w Dębnie im. Świętej Matki Teresy z Kalkuty", "latitude": 52.731811, "longitude": 14.7030115, "source": "osm", "_tags": {"amenity": "hospital", "email": "rejestracja@szpital-debno.pl;sekretariat@szpital-debno.pl", "emergency": "no", "healthcare": "hospital", "mobile": "+48 887 470 420", "name": "Szpital w Dębnie im. Świętej Matki Teresy z Kalkuty", "official_name": "Szpital w Dębnie im. św. Matki Teresy z Kalkuty Spółka z o.o.", "phone": "+48 95 76 02 063;+48 95 76 02 065;+48 95 76 02 733", "website": "https://szpital-debno.pl"}}, {"name": "Krankenhaus Seelow", "latitude": 52.5372764, "longitude": 14.3760246, "source": "osm", "_tags": {"amenity": "hospital", "emergency": "yes", "healthcare": "hospital", "name": "Krankenhaus Seelow", "operator": "Krankenhaus Märkisch-Oderland GmbH", "operator:type": "government"}}]