[{"name": "Ośrodek zdrowia", "latitude": 53.9058895, "longitude": 17.9224407, "source": "osm", "_tags": {"amenity": "doctors", "healthcare": "hospital", "name": "Ośrodek zdrowia"}}, {"name": "Forrest Ośrodek Leczenia Uzależnień", "latitude": 53.4586649, "longitude": 17.5241161, "source": "osm", "_tags": {"amenity": "hospital", "healthcare": "hospital", "name": "Forrest Ośrodek Leczenia Uzależnień"}}, {"name": "", "latitude": 53.6595128, "longitude": 17.354183, "source": "osm", "_tags": {"addr:city": "Człuchów", "addr:housenumber": "31", "addr:postcode": "77-300", "addr:street": "Szczecińska", "building": "hospital", "healthcare": "hospital"}}, {"name": "", "latitude": 53.6588098, "longitude": 17.3538228, "source": "osm", "_tags": {"addr:city": "Człuchów", "addr:postcode": "77-300", "addr:street": "Szczecińska", "building": "hospital", "healthcare": "hospital"}}, {"name": "Szpital Rehabilitacyjny Jarcewo", "latitude": 53.7358805, "longitude": 17.5605992, "source": "osm", "_tags": {"amenity": "hospital", "healthcare": "hospital", "name": "Szpital Rehabilitacyjny Jarcewo", "website": "https://www.szpitaljarcewo.pl"}}, {"name": "Szpital Tucholski", "latitude": 53.5899489, "longitude": 17.8621021, "source": "osm", "_tags": {"addr:city": "Tuchola", "addr:postcode": "89-500", "addr:street": "Bartłomieja Nowodworskiego", "amenity": "hospital", "healthcare": "hospital", "name": "Szpital Tucholski"}}, {"name": "Samodzielny Publiczny Zakład Opieki Zdrowotnej - Szpital im. Jana Parnasa", "latitude": 53.6592597, "longitude": 17.3541885, "source": "osm", "_tags": {"amenity": "hospital", "email": "sekretariat@spzoz-czluchow.pl", "healthcare": "hospital", "name": "Samodzielny Publiczny Zakład Opieki Zdrowotnej - Szpital im. Jana Parnasa", "phone": "59 83 42 459", "website": "https://spzoz-czluchow.pl"}}, {"name": "Szpital Specjalistyczny im. J. K. Łukowicza", "latitude": 53.7119023, "longitude": 17.5491359, "source": "osm", "_tags": {"amenity": "hospital", "check_date": "2025-09-10", "healthcare": "hospital", "name": "Szpital Specjalistyczny im. J. K. Łukowicza"}}, {"name": "Szpital Powiatu Bytowskiego Sp. z o.o.", "latitude": 54.178146, "longitude": 17.4850798, "source": "osm", "_tags": {"amenity": "hospital", "healthcare": "hospital", "name": "Szpital Powiatu Bytowskiego Sp. z o.o."}}, {"name": "Szpital Miejski w Miastku", "latitude": 54.0121627, "longitude": 16.9829543, "source": "osm", "_tags": {"addr:city": "Miastko", "addr:housename": "Szpital Miejski w Miastku", "addr:housenumber": "31", "addr:postcode": "77-200", "addr:street": "Generała Józefa Wybickiego", "amenity": "hospital", "healthcare": "hospital", "name": "Szpital Miejski w Miastku"}}]