[{"name": "Park-Klinik Blankenese", "latitude": 53.5636861, "longitude": 9.8120599, "source": "osm", "_tags": {"addr:city": "Hamburg", "addr:housenumber": "1", "addr:postcode": "22587", "addr:street": "Sülldorfer Kirchenweg", "amenity": "hospital", "healthcare": "hospital", "healthcare:speciality": "plastic_surgery", "name": "Park-Klinik Blankenese", "opening_hours": "Mo-Fr 08:00-18:00", "operator": "Medica Vita GmbH", "operator:type": "private"}}, {"name": "LipoClinic Dr. Heck", "latitude": 53.563668, "longitude": 9.811799, "source": "osm", "_tags": {"addr:housenumber": "1b", "addr:street": "Sülldorfer Kirchenweg", "amenity": "hospital", "description": "Behandlung von Lipödemen", "emergency": "no", "healthcare": "hospital", "healthcare:speciality": "plastic_surgery", "name": "LipoClinic Dr. Heck", "operator": "LipoClinic Dr. Heck GmbH", "operator:type": "private", "phone": "+49 208 44475981"}}, {"name": "Regio Klinikum Pinneberg", "latitude": 53.6540488, "longitude": 9.81189, "source": "osm", "_tags": {"addr:city": "Pinneberg", "addr:country": "DE", "addr:housenumber": "74", "addr:postcode": "25421", "addr:street": "Fahltskamp", "amenity": "hospital", "contact:email": "info-regiokliniken@sana.de", "contact:phone": "+49 4101 217-0", "contact:website": "https://www.sana.de", "emergency": "yes", "healthcare": "hospital", "name": "Regio Klinikum Pinneberg", "opening_hours": "24/7", "operator": "Regio Kliniken GmbH", "short_name": "Klinikum Pinneberg", "wheelchair": "yes"}}, {"name": "Altonaer Kinderkrankenhaus", "latitude": 53.5521531, "longitude": 9.9130178, "source": "osm", "_tags": {"addr:city": "Hamburg", "addr:country": "DE", "addr:housenumber": "38", "addr:postcode": "22763", "addr:street": "Bleickenallee", "amenity": "hospital", "check_date": "2024-08-13", "contact:email": "info@kinderkrankenhaus.net", "contact:fax": "+49 40 88908-366", "contact:phone": "+49 40 88908-0", "contact:website": "http://www.kinderkrankenhaus.net", "emergency": "yes", "healthcare": "hospital", "name": "Altonaer Kinderkrankenhaus", "opening_hours": "24/7", "operator": "AKK Altonaer Kinderkrankenhaus gGmbH", "short_name": "AKK", "toilets:wheelchair": "yes", "wheelchair": "yes", "wikidata": "Q26156624", "wikipedia": "de:Altonaer Kinderkrankenhaus"}}, {"name": "Schön Klinik Rendsburg", "latitude": 54.2972507, "longitude": 9.6575501, "source": "osm", "_tags": {"addr:city": "Rendsburg", "addr:country": "DE", "addr:housenumber": "20-28", "addr:postcode": "24768", "addr:street": "Lilienstraße", "amenity": "hospital", "contact:fax": "+49 4331 200-9010", "contact:phone": "+49 4331 200-0", "contact:website": "https://www.schoen-klinik.de/rendsburg", "emergency": "yes", "healthcare": "hospital", "internet_access": "wlan", "name": "Schön Klinik Rendsburg", "opening_hours": "24/7", "operator": "Schön Klinik", "operator:wikidata": "Q2258661", "wheelchair": "yes", "wikidata": "Q1787711"}}, {"name": "Albertinen Haus - Medizinisch-Geriatrische Klinik", "latitude": 53.6279904, "longitude": 9.9268881, "source": "osm", "_tags": {"amenity": "hospital", "check_date": "2024-12-20", "contact:phone": "+49 40 5581 0", "contact:website": "https://www.albertinen.de/gesundheit-medizin/albertinen-haus-medizinisch-geriatrische-klinik", "description": "Medizinisch-Geriatrische Klinik", "emergency": "no", "healthcare": "hospital", "healthcare:speciality": "geriatrics", "name": "Albertinen Haus - Medizinisch-Geriatrische Klinik", "opening_hours": "24/7", "operator": "Albertinen-Krankenhaus/Albertinen-Haus gGmbH", "toilets:wheelchair": "yes", "wheelchair": "yes"}}, {"name": "Klinikum Elmshorn", "latitude": 53.7525837, "longitude": 9.6820928, "source": "osm", "_tags": {"addr:city": "Elmshorn", "addr:housenumber": "17", "addr:postcode": "25337", "addr:street": "Agnes-Karll-Allee", "amenity": "hospital", "emergency": "yes", "healthcare": "hospital", "name": "Klinikum Elmshorn", "operator": "Regio-Kliniken GmbH", "operator:type": "private", "phone": "+49 4121 798 0", "website": "https://www.sana.de/regiokliniken"}}, {"name": "Krankenhaus Tabea", "latitude": 53.5641341, "longitude": 9.7914774, "source": "osm", "_tags": {"addr:city": "Hamburg", "addr:country": "DE", "addr:housenumber": "32", "addr:postcode": "22587", "addr:street": "Kösterbergstraße", "amenity": "hospital", "building": "hospital", "check_date": "2024-04-29", "email": "info@tabea-krankenhaus.de", "fax": "+49 40 86692-300", "healthcare": "hospital", "name": "Krankenhaus Tabea", "operator": "Krankenhaus Tabea GmbH & Co. KG", "phone": "+49 40 86692-0", "toilets:wheelchair": "yes", "website": "https://www.tabea-fachklinik.de/", "wheelchair": "yes"}}, {"name": "OsteMed Klinik Bremervörde", "latitude": 53.4712107, "longitude": 9.1352767, "source": "osm", "_tags": {"amenity": "hospital", "emergency": "yes", "healthcare": "hospital", "name": "OsteMed Klinik Bremervörde", "website": "https://www.ostemed.de/index.php/kliniken/klinik-bremervoerde", "wheelchair": "yes", "wikidata": "Q19964624"}}, {"name": "Westküstenklinikum Heide", "latitude": 54.1998687, "longitude": 9.0777166, "source": "osm", "_tags": {"addr:city": "Heide", "addr:country": "DE", "addr:housenumber": "50", "addr:postcode": "25746", "addr:street": "Esmarchstraße", "amenity": "hospital", "email": "fkeck@wkk-hei.de", "emergency": "yes", "healthcare": "hospital", "name": "Westküstenklinikum Heide", "phone": "+49 481 7850", "short_name": "WKK Heide", "website": "https://www.westkuestenklinikum.de", "wheelchair": "yes"}}, {"name": "Elbe Kliniken Stade", "latitude": 53.5961616, "longitude": 9.442593, "source": "osm", "_tags": {"addr:city": "Stade", "addr:country": "DE", "addr:housenumber": "111", "addr:postcode": "21682", "addr:street": "Bremervörder Straße", "amenity": "hospital", "healthcare": "hospital", "name": "Elbe Kliniken Stade", "website": "https://www.elbekliniken.de/de/kliniken-institute-stade", "wheelchair": "yes", "wikidata": "Q1325112", "wikipedia": "de:Elbe Kliniken Stade-Buxtehude"}}, {"name": "Asklepios Klinik Altona", "latitude": 53.5549447, "longitude": 9.9016476, "source": "osm", "_tags": {"addr:city": "Hamburg", "addr:country": "DE", "addr:housenumber": "1", "addr:postcode": "22763", "addr:street": "Paul-Ehrlich-Straße", "amenity": "hospital", "capacity:beds": "657", "contact:fax": "+49 40 1818-814922", "contact:phone": "+49 40 1818-810", "contact:website": "https://www.asklepios.com/altona/", "emergency": "yes", "healthcare": "hospital", "name": "Asklepios Klinik Altona", "opening_hours": "24/7", "operator": "Asklepios Kliniken", "operator:type": "private", "operator:wikidata": "Q732068", "short_name": "AK Altona", "wheelchair": "yes", "wikidata": "Q732015", "wikipedia": "de:Asklepios Klinik Altona"}}, {"name": "HELIOS Mariahilf Klinik Hamburg", "latitude": 53.4698643, "longitude": 9.9377592, "source": "osm", "_tags": {"addr:city": "Hamburg", "addr:country": "DE", "addr:housenumber": "203c", "addr:postcode": "21075", "addr:street": "Stader Straße", "amenity": "hospital", "contact:website": "https://www.helios-gesundheit.de/kliniken/helios-mariahilf-klinik-hamburg/", "healthcare": "hospital", "internet_access": "wlan", "internet_access:fee": "yes", "name": "HELIOS Mariahilf Klinik Hamburg", "operator": "Helios Kliniken", "operator:wikidata": "Q1254151", "wheelchair": "yes", "wikidata": "Q38643723"}}, {"name": "Klinik Dr. Guth", "latitude": 53.5568574, "longitude": 9.8538555, "source": "osm", "_tags": {"addr:city": "Hamburg", "addr:housenumber": "46-48", "addr:postcode": "22609", "addr:street": "Jürgensallee", "amenity": "hospital", "contact:fax": "+49 40 823945", "contact:phone": "+49 40 822810", "healthcare": "hospital", "name": "Klinik Dr. Guth", "website": "https://www.klinikdrguth.de/", "wheelchair": "yes"}}, {"name": "Westküstenklinikum Brunsbüttel", "latitude": 53.8999726, "longitude": 9.1461222, "source": "osm", "_tags": {"addr:city": "Brunsbüttel", "addr:housenumber": "2", "addr:postcode": "25541", "addr:street": "Delbrückstraße", "amenity": "hospital", "email": "info@wkk-bru.de", "emergency": "yes", "healthcare": "hospital", "name": "Westküstenklinikum Brunsbüttel", "phone": "+49 4852 9800", "website": "https://www.westkuestenklinikum.de/kontakt-anfahrt/standort-brunsbuettel/"}}, {"name": "Asklepios Westklinikum Hamburg", "latitude": 53.5823312, "longitude": 9.7777313, "source": "osm", "_tags": {"addr:city": "Hamburg", "addr:country": "DE", "addr:housenumber": "20", "addr:postcode": "22559", "addr:street": "Suurheid", "amenity": "hospital", "capacity:beds": "517", "contact:fax": "+49 40 8191-2001", "contact:phone": "+49 40 8191-0", "contact:website": "https://www.asklepios.com/hamburg/westklinikum/", "emergency": "yes", "healthcare": "hospital", "name": "Asklepios Westklinikum Hamburg", "opening_hours": "24/7", "operator": "Asklepios Kliniken", "operator:type": "private", "operator:wikidata": "Q732068", "short_name": "AK Rissen", "wheelchair": "yes", "wikidata": "Q732086", "wikipedia": "de:Asklepios Westklinikum Hamburg"}}, {"name": "Schön Klinik Bad Bramstedt", "latitude": 53.9044557, "longitude": 9.888273, "source": "osm", "_tags": {"addr:city": "Bad Bramstedt", "addr:country": "DE", "addr:housenumber": "10", "addr:postcode": "24576", "addr:street": "Birkenweg", "amenity": "hospital", "beds": "500", "emergency": "yes", "healthcare": "hospital", "healthcare:speciality": "psychiatry;psychosomatic;child_psychology", "name": "Schön Klinik Bad Bramstedt", "operator": "Schön Klinik", "operator:type": "private", "operator:wikidata": "Q2258661", "operator:wikipedia": "de:Schön Klinik", "phone": "+49-4192-5047600", "start_date": "1993", "toilets:wheelchair": "yes", "website": "https://www.schoen-klinik.de/bad-bramstedt", "wheelchair": "yes", "wikidata": "Q1386927", "wikipedia": "de:Psychosomatische Klinik Bad Bramstedt"}}, {"name": "Klinikum Bad Bramstedt", "latitude": 53.9039512, "longitude": 9.8934413, "source": "osm", "_tags": {"addr:city": "Bad Bramstedt", "addr:country": "DE", "addr:housenumber": "26", "addr:postcode": "24576", "addr:street": "Oskar-Alexander-Straße", "amenity": "hospital", "emergency": "yes", "healthcare": "hospital", "name": "Klinikum Bad Bramstedt", "operator": "KLINIKUM BAD BRAMSTEDT GmbH", "toilets:wheelchair": "yes", "website": "https://www.klinikumbadbramstedt.de/", "wheelchair": "yes", "wikidata": "Q1774588", "wikipedia": "de:Klinikum Bad Bramstedt"}}, {"name": "Klinikum Itzehoe", "latitude": 53.9417275, "longitude": 9.5037461, "source": "osm", "_tags": {"addr:city": "Itzehoe", "addr:country": "DE", "addr:housenumber": "2", "addr:postcode": "25524", "addr:street": "Robert-Koch-Straße", "amenity": "hospital", "email": "info@kh-itzehoe.de", "emergency": "yes", "fax": "+49 4821 7723999", "healthcare": "hospital", "name": "Klinikum Itzehoe", "phone": "+49 4821 7720", "ref": "Klinikum Itzehoe", "website": "http://www.kh-itzehoe.de", "wheelchair": "yes", "wikidata": "Q1774623"}}, {"name": "Elbe Kliniken Buxtehude", "latitude": 53.4619083, "longitude": 9.6760222, "source": "osm", "_tags": {"addr:city": "Buxtehude", "addr:country": "DE", "addr:housenumber": "1", "addr:postcode": "21614", "addr:street": "Am Krankenhaus", "amenity": "hospital", "emergency": "yes", "healthcare": "hospital", "name": "Elbe Kliniken Buxtehude", "toilets:wheelchair": "yes", "website": "https://www.elbekliniken.de/de/kliniken-buxtehude", "wheelchair": "yes", "wikidata": "Q20617503"}}, {"name": "Albertinen Krankenhaus", "latitude": 53.6308873, "longitude": 9.9047513, "source": "osm", "_tags": {"amenity": "hospital", "capacity:beds": "732", "contact:email": "info@albertinen-krankenhaus.de", "contact:fax": "+49 40 5588-2209", "contact:phone": "+49 40 5588-1", "contact:website": "https://www.albertinen.de/gesundheit-medizin/albertinen-krankenhaus", "emergency": "yes", "healthcare": "hospital", "name": "Albertinen Krankenhaus", "opening_hours": "24/7", "operator": "Immanuel Albertinen Diakonie gGmbH", "toilets:wheelchair": "yes", "wheelchair": "yes", "wikidata": "Q105724330", "wikipedia": "de:Albertinen Krankenhaus"}}, {"name": "Zentrum für Psychosoziale Medizin", "latitude": 53.9430359, "longitude": 9.5030649, "source": "osm", "_tags": {"addr:city": "Itzehoe", "addr:country": "DE", "addr:housenumber": "2", "addr:postcode": "25524", "addr:street": "Robert-Koch-Straße", "addr:unit": "Haus C", "building": "hospital", "contact:email": "psychiatrie@kh-itzehoe.de", "contact:fax": "+49 4821 772-2809", "contact:phone": "+49 4821 772-2802", "contact:website": "https://www.klinikum-itzehoe.de/kliniken/zentrum-fuer-psychosoziale-medizin/", "emergency": "no", "healthcare": "hospital", "healthcare:speciality": "psychiatry", "name": "Zentrum für Psychosoziale Medizin", "operator": "Klinikum Itzehoe", "type": "multipolygon"}}]