[{"name": "Withington Clinic", "latitude": 53.4305073, "longitude": -2.2282586, "source": "osm", "_tags": {"amenity": "hospital", "name": "Withington Clinic"}}, {"name": "Shiv Lodge Medical Centre", "latitude": 53.4561062, "longitude": -2.2022653, "source": "osm", "_tags": {"amenity": "hospital", "healthcare": "hospital", "name": "Shiv Lodge Medical Centre"}}, {"name": "The Ailsa Craig Medical Practise", "latitude": 53.4543947, "longitude": -2.2087682, "source": "osm", "_tags": {"addr:housenumber": "270", "addr:postcode": "M13 0YL", "addr:street": "Dickenson Road", "amenity": "hospital", "healthcare": "hospital", "name": "The Ailsa Craig Medical Practise", "website": "https://ailsacraigmedicalpractice.co.uk/"}}, {"name": "Community Hospital", "latitude": 53.8321035, "longitude": -2.6090067, "source": "osm", "_tags": {"amenity": "hospital", "healthcare": "hospital", "name": "Community Hospital"}}, {"name": "Ramsay Fulwood Hall Hospital", "latitude": 53.7863385, "longitude": -2.6839452, "source": "osm", "_tags": {"addr:city": "Preston", "addr:country": "GB", "addr:housename": "Preston Private Nursing Home", "addr:postcode": "PR2 9SZ", "addr:street": "Midgery Lane", "addr:suburb": "Fulwood", "amenity": "hospital", "fhrs:id": "479683", "name": "Ramsay Fulwood Hall Hospital"}}, {"name": "Birch Hill Hospital", "latitude": 53.6427571, "longitude": -2.1235988, "source": "osm", "_tags": {"amenity": "hospital", "name": "Birch Hill Hospital"}}, {"name": "Bolton Hospice", "latitude": 53.5811136, "longitude": -2.4423262, "source": "osm", "_tags": {"addr:city": "Bolton", "addr:postcode": "BL1 4QT", "addr:street": "Queens Park Street", "amenity": "hospital", "fhrs:id": "75775", "healthcare": "hospital", "name": "Bolton Hospice", "source:addr": "FHRS Open Data"}}, {"name": "Tameside General Hospital", "latitude": 53.4932154, "longitude": -2.0699798, "source": "osm", "_tags": {"amenity": "hospital", "healthcare": "hospital", "name": "Tameside General Hospital", "wheelchair": "yes", "wikidata": "Q54817777", "wikipedia": "en:Tameside General Hospital"}}, {"name": "The Beardwood Hospital", "latitude": 53.7550879, "longitude": -2.5130249, "source": "osm", "_tags": {"addr:city": "Blackburn", "addr:postcode": "BB2 7AA", "addr:street": "Preston New Road", "amenity": "hospital", "fhrs:id": "212107", "healthcare": "hospital", "name": "The Beardwood Hospital", "source": "OS_OpenData_StreetView", "source:addr": "FHRS Open Data"}}, {"name": "Fleetwood Hospital", "latitude": 53.9267965, "longitude": -3.0090102, "source": "osm", "_tags": {"addr:city": "Fleetwood", "addr:postcode": "FY7 6BE", "addr:street": "Pharos Street", "amenity": "hospital", "healthcare": "hospital", "name": "Fleetwood Hospital", "operator": "Blackpool Teaching Hospitals NHS Foundation Trust", "ref:GB:ENG:nhs_organisation": "43162", "wheelchair": "yes"}}, {"name": "health center", "latitude": 53.8573814, "longitude": -2.1676761, "source": "osm", "_tags": {"amenity": "hospital", "name": "health center"}}, {"name": "South Shore Primary Care Centre", "latitude": 53.7813764, "longitude": -3.0473452, "source": "osm", "_tags": {"addr:city": "Blackpool", "addr:housenumber": "575", "addr:postcode": "FY4 1TJ", "addr:street": "Lytham Road", "amenity": "hospital", "designation": "Health Centre", "emergency": "no", "healthcare": "hospital", "name": "South Shore Primary Care Centre", "note": "This building contains several Doctors surgeries and community nursing.", "phone": "+44 1253 953399", "source": "John Holt", "website": "https://www.nhs.uk/Services/clinics/MapsAndDirections/DefaultView.aspx?id=90513"}}, {"name": "Newlands Care Home", "latitude": 53.4225646, "longitude": -2.1854147, "source": "osm", "_tags": {"addr:city": "Stockport", "addr:housenumber": "122", "addr:postcode": "SK4 4JY", "addr:street": "Heaton Moor Road", "amenity": "hospital", "emergency": "no", "healthcare": "hospital", "name": "Newlands Care Home", "operator": "HC One"}}, {"name": "St Helens Hospital", "latitude": 53.4394484, "longitude": -2.7190111, "source": "osm", "_tags": {"addr:city": "St Helens", "addr:postcode": "WA9 3DA", "addr:street": "Marshalls Cross Road", "amenity": "hospital", "healthcare": "hospital", "name": "St Helens Hospital", "wikidata": "Q30289051"}}, {"name": "The Christie at Oldham", "latitude": 53.5520871, "longitude": -2.1213768, "source": "osm", "_tags": {"addr:city": "Oldham", "addr:country": "GB", "addr:postcode": "OL1 2JH", "addr:street": "Rochdale Road", "amenity": "hospital", "emergency": "no", "healthcare": "hospital", "name": "The Christie at Oldham", "operator": "The Christie NHS Foundation Trust", "operator:type": "public"}}, {"name": "Children's Outpatients Department", "latitude": 53.5649775, "longitude": -2.8711518, "source": "osm", "_tags": {"addr:city": "Ormskirk", "addr:housename": "Ormskirk District General Hospital", "addr:postcode": "L39 2AZ", "addr:street": "Wigan Road", "amenity": "hospital", "emergency": "no", "healthcare": "hospital", "name": "Children's Outpatients Department"}}, {"name": "Children's A&E", "latitude": 53.5650128, "longitude": -2.8712622, "source": "osm", "_tags": {"addr:city": "Ormskirk", "addr:housename": "Ormskirk District General Hospital", "addr:postcode": "L39 2AZ", "addr:street": "Wigan Road", "amenity": "hospital", "emergency": "yes", "healthcare": "hospital", "name": "Children's A&E"}}, {"name": "Greater Lancashire Hospital", "latitude": 53.7864778, "longitude": -2.6478674, "source": "osm", "_tags": {"addr:city": "Preston", "addr:postcode": "PR2 5BW", "addr:street": "Wyder Court", "amenity": "hospital", "name": "Greater Lancashire Hospital"}}, {"name": "Salford Gastric Bypass Surgery", "latitude": 53.4868497, "longitude": -2.2945338, "source": "osm", "_tags": {"amenity": "hospital", "healthcare": "hospital", "name": "Salford Gastric Bypass Surgery"}}, {"name": "First Trust Hospital", "latitude": 53.8040909, "longitude": -2.7112853, "source": "osm", "_tags": {"addr:postcode": "PR3 5LD", "amenity": "hospital", "check_date": "2025-06-08", "email": "reception@firsttrusthospital.org", "emergency": "no", "healthcare": "hospital", "name": "First Trust Hospital", "phone": "+44 1772 860884", "ref:GB:cqc_location": "1-108411638", "website": "https://www.firsttrusthospital.org/"}}, {"name": "Ormskirk District General Hospital", "latitude": 53.5649581, "longitude": -2.872584, "source": "osm", "_tags": {"addr:city": "Lancashire", "addr:postcode": "L39 2AZ", "addr:street": "Wigan Road", "amenity": "hospital", "fhrs:id": "179062", "healthcare": "hospital", "name": "Ormskirk District General Hospital", "wikidata": "Q30292828", "wikipedia": "en:Ormskirk District General Hospital"}}, {"name": "Royal Albert Edward Infirmary", "latitude": 53.5578245, "longitude": -2.6298156, "source": "osm", "_tags": {"addr:city": "Wigan", "addr:postcode": "WN1 2NN", "addr:street": "Wigan Lane", "amenity": "hospital", "healthcare": "hospital", "name": "Royal Albert Edward Infirmary", "operator": "Wrightington, Wigan and Leigh Teaching Hospitals"}}, {"name": "Thomas Linacre Outpatient Centre", "latitude": 53.5503998, "longitude": -2.6352793, "source": "osm", "_tags": {"addr:city": "Wigan", "addr:postcode": "WN1 1RU", "addr:street": "Parson's Walk", "amenity": "hospital", "contact:website": "https://www.nhs.uk/Services/clinics/Overview/DefaultView.aspx?id=RRF54", "healthcare": "hospital", "name": "Thomas Linacre Outpatient Centre", "operator": "Wrightington, Wigan and Leigh Teaching Hospitals"}}, {"name": "Queen Victoria Hospital", "latitude": 54.0727631, "longitude": -2.8588556, "source": "osm", "_tags": {"addr:city": "Morecambe", "addr:postcode": "LA4 5NN", "addr:street": "Thornton Road", "alt_name": "Queen Victoria Centre", "amenity": "hospital", "check_date": "2024-08-26", "healthcare": "hospital", "name": "Queen Victoria Hospital", "operator": "Lancashire & South Cumbria NHS Foundation Trust", "phone": "+44 1524 400445", "ref:GB:ENG:nhs_organisation": "42638", "website": "https://www.uhmb.nhs.uk/visiting-our-hospitals/parking-facilities/queen-victoria-general-hospital"}}, {"name": "Manchester University Hospitals (central site)", "latitude": 53.4615994, "longitude": -2.2252393, "source": "osm", "_tags": {"amenity": "hospital", "emergency": "yes", "healthcare": "hospital", "name": "Manchester University Hospitals (central site)", "operator": "Manchester University NHS Foundation Trust", "wheelchair": "yes"}}, {"name": "Ashworth Hospital", "latitude": 53.5213164, "longitude": -2.9132204, "source": "osm", "_tags": {"amenity": "hospital", "barrier": "wall", "healthcare": "hospital", "name": "Ashworth Hospital", "wikidata": "Q4806221", "wikipedia": "en:Ashworth Hospital"}}, {"name": "Fairfield Hospital", "latitude": 53.4846467, "longitude": -2.7496415, "source": "osm", "_tags": {"addr:city": "St Helens", "addr:postcode": "WA11 7RS", "addr:street": "Crank Road", "amenity": "hospital", "fhrs:id": "196805", "healthcare": "hospital", "name": "Fairfield Hospital"}}, {"name": "Southport and Formby District General Hospital", "latitude": 53.6335846, "longitude": -2.9785671, "source": "osm", "_tags": {"amenity": "hospital", "emergency": "yes", "healthcare": "hospital", "name": "Southport and Formby District General Hospital", "source": "local_knowledge", "wikidata": "Q30280717", "wikipedia": "en:Southport and Formby District General Hospital"}}, {"name": "Chorley & South Ribble District General Hospital", "latitude": 53.6657625, "longitude": -2.635891, "source": "osm", "_tags": {"addr:city": "Chorley", "addr:postcode": "PR7 1PP", "addr:street": "Preston Road", "amenity": "hospital", "emergency": "suspended", "healthcare": "hospital", "name": "Chorley & South Ribble District General Hospital", "ref:GB:cqc_location": "RXN01", "wikidata": "Q5105170", "wikipedia": "en:Chorley and South Ribble Hospital"}}, {"name": "Castleberg Hospital", "latitude": 54.0693435, "longitude": -2.2922063, "source": "osm", "_tags": {"amenity": "hospital", "building": "yes", "healthcare": "hospital", "name": "Castleberg Hospital", "wikidata": "Q30293097"}}, {"name": "Aintree University Hospital", "latitude": 53.4656926, "longitude": -2.933351, "source": "osm", "_tags": {"addr:city": "Liverpool", "addr:postcode": "L9 7AL", "addr:street": "Lower Lane", "amenity": "hospital", "emergency": "yes", "healthcare": "hospital", "name": "Aintree University Hospital", "phone": "+44 151 525 5980", "website": "https://www.aintreehospital.nhs.uk/", "wheelchair": "yes", "wikidata": "Q30253912"}}, {"name": "Breckfield and North Everton", "latitude": 53.4257533, "longitude": -2.9661357, "source": "osm", "_tags": {"amenity": "hospital", "healthcare": "hospital", "name": "Breckfield and North Everton"}}, {"name": "Ashton Community Care Centre", "latitude": 54.0396994, "longitude": -2.7987449, "source": "osm", "_tags": {"amenity": "hospital", "building": "yes", "check_date": "2025-05-07", "healthcare": "hospital", "name": "Ashton Community Care Centre", "roof:shape": "hipped", "wheelchair": "yes"}}, {"name": "Wrightington Hospital", "latitude": 53.5898452, "longitude": -2.711244, "source": "osm", "_tags": {"amenity": "hospital", "healthcare": "hospital", "name": "Wrightington Hospital", "source": "yahoo", "wikidata": "Q30281227"}}, {"name": "North Manchester General Hospital", "latitude": 53.517719, "longitude": -2.2287101, "source": "osm", "_tags": {"amenity": "hospital", "emergency": "yes", "healthcare": "hospital", "name": "North Manchester General Hospital", "wikidata": "Q7056035", "wikipedia": "en:North Manchester General Hospital"}}, {"name": "Rochdale Infirmary", "latitude": 53.6236686, "longitude": -2.1599962, "source": "osm", "_tags": {"addr:city": "Rochdale", "addr:postcode": "OL12 0NB", "addr:street": "Whitehall Street", "amenity": "hospital", "healthcare": "hospital", "name": "Rochdale Infirmary", "source": "Bing", "wheelchair": "yes", "wikidata": "Q30282050", "wikipedia": "en:Rochdale Infirmary"}}, {"name": "St Peters Centre", "latitude": 53.7905832, "longitude": -2.2399106, "source": "osm", "_tags": {"amenity": "hospital", "emergency": "no", "healthcare": "hospital", "name": "St Peters Centre"}}, {"name": "Kirkdale Medical Centre", "latitude": 53.4329678, "longitude": -2.9739335, "source": "osm", "_tags": {"amenity": "hospital", "healthcare": "hospital", "name": "Kirkdale Medical Centre"}}, {"name": "Clock View Hospital", "latitude": 53.4513971, "longitude": -2.9670636, "source": "osm", "_tags": {"amenity": "hospital", "healthcare": "hospital", "name": "Clock View Hospital", "wikidata": "Q30266560"}}, {"name": "Manchester Royal Infirmary", "latitude": 53.4629338, "longitude": -2.2261681, "source": "osm", "_tags": {"amenity": "hospital", "emergency": "yes", "healthcare": "hospital", "name": "Manchester Royal Infirmary", "wheelchair": "yes", "wikidata": "Q3285348", "wikipedia": "en:Manchester Royal Infirmary"}}, {"name": "Withington Community Hospital", "latitude": 53.4253112, "longitude": -2.2461827, "source": "osm", "_tags": {"addr:city": "Manchester", "addr:postcode": "M20 2LR", "addr:street": "Nell Lane", "amenity": "hospital", "emergency": "no", "fhrs:id": "466579", "healthcare": "hospital", "name": "Withington Community Hospital", "wheelchair": "yes", "wikidata": "Q8028200", "wikipedia": "en:Withington Community Hospital"}}, {"name": "Royal Bolton Hospital", "latitude": 53.5523533, "longitude": -2.4294913, "source": "osm", "_tags": {"addr:city": "Bolton", "addr:postcode": "BL4 0JR", "addr:street": "Minerva Road", "addr:suburb": "Farnworth", "amenity": "hospital", "fhrs:id": "42093", "healthcare": "hospital", "name": "Royal Bolton Hospital", "source:addr": "FHRS Open Data", "wikidata": "Q41566886"}}, {"name": "The Mount. Lancashire Care NHS", "latitude": 53.7596209, "longitude": -2.3688269, "source": "osm", "_tags": {"amenity": "hospital", "emergency": "no", "healthcare": "hospital", "name": "The Mount. Lancashire Care NHS"}}, {"name": "Wesham Rehabilitation Centre", "latitude": 53.7915306, "longitude": -2.8819273, "source": "osm", "_tags": {"addr:postcode": "PR4 3HA", "amenity": "hospital", "check_date": "2025-06-29", "emergency": "no", "healthcare": "hospital", "name": "Wesham Rehabilitation Centre", "website": "https://www.nhs.uk/services/clinic/wesham-hospital-rehabilitation-unit/M7Y9W/"}}, {"name": "Prestwich Hospital (Edenfield Centre)", "latitude": 53.5285097, "longitude": -2.3021888, "source": "osm", "_tags": {"addr:city": "Manchester", "addr:housename": "Preswich Hospital (Edenfield Center)", "addr:postcode": "M25 3BL", "addr:street": "Tottington Lane", "amenity": "hospital", "emergency": "no", "healthcare": "hospital", "healthcare:speciality": "psychiatry", "name": "Prestwich Hospital (Edenfield Centre)", "operator": "NHS", "operator:type": "government_facility-public"}}, {"name": "The Royal Oldham Hospital", "latitude": 53.5522463, "longitude": -2.123894, "source": "osm", "_tags": {"amenity": "hospital", "emergency": "yes", "healthcare": "hospital", "name": "The Royal Oldham Hospital", "wikidata": "Q7374640"}}, {"name": "Cygnet Hospital", "latitude": 53.5862379, "longitude": -2.3171295, "source": "osm", "_tags": {"addr:city": "Bury", "addr:postcode": "BL8 2BS", "addr:street": "Buller Street", "amenity": "hospital", "email": "grantstevens@cygnethealth.co.uk", "emergency": "no", "fax": "+44 161 762 4747", "healthcare": "hospital", "name": "Cygnet Hospital", "old_name": "Alpha Hospital", "operator": "Cygnet Health Care", "phone": "+44 161 762 7200", "website": "https://www.cygnethealth.co.uk/locations/cygnet-hospital-bury/"}}, {"name": "Trafford General Hospital", "latitude": 53.4539106, "longitude": -2.3705646, "source": "osm", "_tags": {"amenity": "hospital", "healthcare": "hospital", "name": "Trafford General Hospital", "wikidata": "Q7832576"}}, {"name": "Kinnaird House (The Christie NHS Foundation Trust)", "latitude": 53.4288291, "longitude": -2.2255965, "source": "osm", "_tags": {"amenity": "hospital", "building": "yes", "name": "Kinnaird House (The Christie NHS Foundation Trust)"}}, {"name": "St Marks Medical Centre", "latitude": 53.6472905, "longitude": -2.9960837, "source": "osm", "_tags": {"addr:city": "Southport", "addr:housenumber": "42", "addr:postcode": "PR9 0TZ", "addr:street": "Derby Road", "amenity": "hospital", "building": "yes", "healthcare": "hospital", "name": "St Marks Medical Centre"}}, {"name": "The Christie", "latitude": 53.4296179, "longitude": -2.230319, "source": "osm", "_tags": {"addr:city": "Manchester", "addr:housenumber": "550", "addr:postcode": "M20 4BX", "addr:street": "Wilmslow Road", "alt_name": "Christie Hospital", "amenity": "hospital", "contact:phone": "+44 161 446 3000", "emergency": "no", "fhrs:id": "1819381", "healthcare": "hospital", "healthcare:speciality": "oncology", "name": "The Christie", "operator": "The Christie NHS Foundation Trust", "website": "https://www.christie.nhs.uk/", "wikidata": "Q60740130", "wikipedia": "en:Christie Hospital"}}, {"name": "Plymouth Grove Medical Centre", "latitude": 53.4636863, "longitude": -2.2240912, "source": "osm", "_tags": {"amenity": "hospital", "emergency": "no", "healthcare": "hospital", "name": "Plymouth Grove Medical Centre"}}, {"name": "Royal Blackburn Teaching Hospital", "latitude": 53.7359638, "longitude": -2.4627303, "source": "osm", "_tags": {"addr:city": "Blackburn", "addr:postcode": "BB2 3HH", "addr:street": "Haslingden Road", "amenity": "hospital", "fhrs:id": "211600", "healthcare": "hospital", "name": "Royal Blackburn Teaching Hospital", "phone": "+44 1254 263555", "source": "local knowledge", "website": "https://www.elht.nhs.uk/hospitals-and-trust-locations/royal-blackburn-hospital.htm", "wikidata": "Q30281700"}}, {"name": "", "latitude": 53.7338204, "longitude": -2.4794377, "source": "osm", "_tags": {"amenity": "hospital", "source": "OS_OpenData_StreetView"}}, {"name": "The Harbour", "latitude": 53.8006218, "longitude": -2.9899857, "source": "osm", "_tags": {"addr:city": "Blackpool", "addr:postcode": "FY4 4FE", "addr:street": "Windmill Rise", "amenity": "hospital", "emergency": "no", "fhrs:id": "765379", "healthcare": "hospital", "name": "The Harbour", "wikidata": "Q55635276"}}, {"name": "Renacres Hospital", "latitude": 53.6011584, "longitude": -2.9539449, "source": "osm", "_tags": {"addr:city": "Ormskirk", "addr:housenumber": "17", "addr:postcode": "L39 8SE", "addr:street": "Renacres Lane", "amenity": "hospital", "name": "Renacres Hospital", "operator": "Ramsay Health Care UK", "operator:wikidata": "Q20047299", "operator:wikipedia": "en:Ramsay Health Care UK", "phone": "+44 1704 335 398", "website": "https://www.ramsayhealth.co.uk/hospitals/renacres-hospital"}}, {"name": "St Joseph's Hospice", "latitude": 53.508398, "longitude": -3.0118305, "source": "osm", "_tags": {"amenity": "hospital", "healthcare": "hospital", "name": "St Joseph's Hospice"}}, {"name": "Royal Lancaster Infirmary", "latitude": 54.0426284, "longitude": -2.8005027, "source": "osm", "_tags": {"addr:city": "Lancaster", "addr:postcode": "LA1 4RP", "addr:street": "Ashton Road", "amenity": "hospital", "emergency": "yes", "fhrs:id": "93336", "healthcare": "hospital", "name": "Royal Lancaster Infirmary", "operator": "University Hospitals of Morecambe Bay NHS Foundation Trust", "phone": "+44 1524 65944", "ref:GB:ENG:nhs_organisation": "42182", "ref:GB:cqc_location": "RXN12", "website": "https://www.nhs.uk/Services/hospitals/Overview/DefaultView.aspx?id=2122", "wikidata": "Q14956805", "wikipedia": "en:Royal Lancaster Infirmary"}}, {"name": "Burnley General Hospital", "latitude": 53.8089043, "longitude": -2.2284133, "source": "osm", "_tags": {"addr:city": "Burnley", "addr:postcode": "BB10 2PQ", "addr:street": "Casterton Avenue", "amenity": "hospital", "check_date": "2025-08-05", "emergency": "yes", "healthcare": "hospital", "name": "Burnley General Hospital", "operator": "National Health Service", "website": "nhs.uk", "wikidata": "Q27943307"}}, {"name": "Salford Royal Hospital", "latitude": 53.4872813, "longitude": -2.3233261, "source": "osm", "_tags": {"addr:postcode": "M6 8HD", "addr:street": "Stott Lane", "alt_name": "Hope Hospital", "amenity": "hospital", "healthcare": "hospital", "name": "Salford Royal Hospital", "note": "replacing nodes & buildings tagged hospital", "phone": "+44 161 789 7373", "source": "Bing", "website": "https://www.srft.nhs.uk/", "wikidata": "Q50575528", "wikipedia": "en:Salford Royal Hospital"}}, {"name": "", "latitude": 53.4768419, "longitude": -3.0347144, "source": "osm", "_tags": {"amenity": "hospital", "healthcare": "hospital", "source": "OS OpenMap Local"}}, {"name": "Alder Park", "latitude": 53.4764522, "longitude": -3.0193274, "source": "osm", "_tags": {"amenity": "hospital", "healthcare": "hospital", "name": "Alder Park", "source": "OS OpenMap Local"}}, {"name": "Waterloo EMI Day Hospital", "latitude": 53.4765922, "longitude": -3.0203619, "source": "osm", "_tags": {"amenity": "hospital", "healthcare": "hospital", "name": "Waterloo EMI Day Hospital", "source": "OS OpenMap Local"}}, {"name": "Walton Manor", "latitude": 53.435067, "longitude": -2.9708021, "source": "osm", "_tags": {"amenity": "hospital", "healthcare": "hospital", "name": "Walton Manor", "source": "OS OpenMap Local"}}, {"name": "Broadway Nursing Home", "latitude": 53.4392, "longitude": -2.9341077, "source": "osm", "_tags": {"amenity": "hospital", "healthcare": "hospital", "name": "Broadway Nursing Home", "source": "OS OpenMap Local"}}, {"name": "Alder Grange Nursing Home", "latitude": 53.4244154, "longitude": -2.9030902, "source": "osm", "_tags": {"amenity": "hospital", "healthcare": "hospital", "name": "Alder Grange Nursing Home", "source": "OS OpenMap Local"}}, {"name": "Appleby Court Nursing Home", "latitude": 53.4881769, "longitude": -2.8799507, "source": "osm", "_tags": {"amenity": "hospital", "healthcare": "hospital", "name": "Appleby Court Nursing Home", "source": "OS OpenMap Local"}}, {"name": "Fairfield Hospital", "latitude": 53.600548, "longitude": -2.2551874, "source": "osm", "_tags": {"addr:city": "Bury", "addr:postcode": "BL9 7TD", "addr:street": "Rochdale Old Road", "amenity": "hospital", "emergency": "yes", "fhrs:id": "93904", "healthcare": "hospital", "name": "Fairfield Hospital", "wikidata": "Q5430280", "wikipedia": "en:Fairfield General Hospital"}}, {"name": "The Beaumont Hospital", "latitude": 53.5812241, "longitude": -2.4991553, "source": "osm", "_tags": {"addr:city": "Bolton", "addr:country": "GB", "addr:postcode": "BL6 4PA", "addr:street": "Old Hall Clough", "amenity": "hospital", "emergency": "no", "healthcare": "hospital", "name": "The Beaumont Hospital"}}, {"name": "Clifton Hospital", "latitude": 53.7442807, "longitude": -3.0078112, "source": "osm", "_tags": {"addr:city": "Lytham St Annes", "addr:postcode": "FY8 1PB", "addr:street": "Pershore Road", "amenity": "hospital", "fhrs:id": "118938", "healthcare": "hospital", "name": "Clifton Hospital"}}, {"name": "Spire Fylde Coast Hospital", "latitude": 53.8260796, "longitude": -3.0194923, "source": "osm", "_tags": {"addr:city": "Blackpool", "addr:postcode": "FY3 8BP", "addr:street": "St Walburgas Road", "amenity": "hospital", "emergency": "no", "fhrs:id": "140582", "healthcare": "hospital", "healthcare:speciality": "surgery;psychiatry;dentistry;orthopaedics", "name": "Spire Fylde Coast Hospital", "operator": "Spire", "phone": "+44 1253 394 188", "website": "https://www.spirehealthcare.com/spire-fylde-coast-hospital/"}}, {"name": "The Lancaster Hospital", "latitude": 54.0431418, "longitude": -2.7952469, "source": "osm", "_tags": {"addr:city": "Lancaster", "addr:postcode": "LA1 3RH", "addr:street": "Meadowside", "amenity": "hospital", "contact:phone": "+44 1524 62345", "emergency": "no", "fhrs:id": "93278", "healthcare": "hospital", "name": "The Lancaster Hospital", "operator": "Circle Health Group", "ref:GB:cqc_location": "1-128766928", "website": "https://www.circlehealthgroup.co.uk/hospitals/the-lancaster-hospital"}}, {"name": "Bury Hospice", "latitude": 53.5999045, "longitude": -2.2672865, "source": "osm", "_tags": {"amenity": "hospital", "check_date": "2025-03-14", "healthcare": "hospital", "name": "Bury Hospice", "note": "Day care services are accessed by the main road. There's a back gate for the paliative care ward to the N/E", "phone": "+44 161 725 9800", "website": "https://buryhospice.org.uk/"}}, {"name": "Clitheroe Community Hospital", "latitude": 53.8831362, "longitude": -2.373463, "source": "osm", "_tags": {"amenity": "hospital", "emergency": "no", "healthcare": "hospital", "name": "Clitheroe Community Hospital", "operator": "East Lancashire Hospitals NHS Trust (ELHT)", "phone": "+44 1254 263555", "website": "https://www.elht.nhs.uk/your-visit/clitheroe-community-hospital"}}, {"name": "Leigh Infirmary", "latitude": 53.5042831, "longitude": -2.5118786, "source": "osm", "_tags": {"amenity": "hospital", "healthcare": "hospital", "name": "Leigh Infirmary"}}, {"name": "The Orchard", "latitude": 54.0321496, "longitude": -2.8040055, "source": "osm", "_tags": {"addr:city": "Lancaster", "addr:postcode": "LA1 4JJ", "addr:street": "Pathfinders Drive", "amenity": "hospital", "emergency": "no", "fhrs:id": "720339", "healthcare": "hospital", "healthcare:speciality": "psychiatry", "name": "The Orchard", "ref:GB:cqc_location": "RW5MQ", "website": "https://www.lancashirecare.nhs.uk/TheOrchard"}}, {"name": "DeVitre House", "latitude": 54.0315277, "longitude": -2.8026259, "source": "osm", "_tags": {"addr:city": "Lancaster", "addr:postcode": "LA1 5AL", "addr:street": "Ashton Road", "amenity": "hospital", "check_date": "2024-04-23", "emergency": "no", "healthcare": "hospital", "name": "DeVitre House", "website": "https://www.lancashirecare.nhs.uk/DeVitreHouse", "wheelchair": "yes"}}, {"name": "Dacrelands Clinic", "latitude": 54.0598681, "longitude": -2.8006616, "source": "osm", "_tags": {"addr:city": "Lancaster", "addr:postcode": "LA1 2DU", "addr:street": "Aldrens Lane", "amenity": "hospital", "emergency": "no", "healthcare": "hospital", "healthcare:speciality": "alternative", "name": "Dacrelands Clinic", "website": "https://www.dacrelands.co.uk/"}}, {"name": "Guild Park", "latitude": 53.8202607, "longitude": -2.6559306, "source": "osm", "_tags": {"addr:city": "Preston", "addr:postcode": "PR3 2JH", "addr:village": "Whittingham", "amenity": "hospital", "emergency": "no", "healthcare": "hospital", "healthcare:speciality": "psychiatry;adult_mental_illness", "name": "Guild Park", "operator": "NHS", "operator:type": "public", "operator:wikidata": "Q918396"}}, {"name": "", "latitude": 53.6612815, "longitude": -2.1745786, "source": "osm", "_tags": {"amenity": "hospital", "healthcare": "hospital"}}, {"name": "Newton Community Hospital", "latitude": 53.4462204, "longitude": -2.6354844, "source": "osm", "_tags": {"addr:city": "Newton-le-Willows", "addr:housename": "Newton Community Hospital", "addr:postcode": "WA12 8RB", "addr:street": "Bradlegh Road", "amenity": "hospital", "healthcare": "hospital", "name": "Newton Community Hospital", "operator": "NHS", "operator:type": "public", "wikidata": "Q30292789"}}, {"name": "Croft Shifa Medical Centre", "latitude": 53.6223204, "longitude": -2.1408618, "source": "osm", "_tags": {"amenity": "hospital", "healthcare": "hospital", "name": "Croft Shifa Medical Centre"}}, {"name": "Nye Bevan House", "latitude": 53.6106915, "longitude": -2.1553744, "source": "osm", "_tags": {"amenity": "hospital", "healthcare": "hospital", "name": "Nye Bevan House"}}, {"name": "Old Yorkshire Bank Clinic", "latitude": 53.9162936, "longitude": -2.1879576, "source": "osm", "_tags": {"amenity": "clinic", "emergency": "no", "healthcare": "hospital", "name": "Old Yorkshire Bank Clinic", "operator": "East Lancs NHS"}}, {"name": "Woodlands Hospital", "latitude": 53.5280668, "longitude": -2.4251689, "source": "osm", "_tags": {"amenity": "hospital", "healthcare": "hospital", "name": "Woodlands Hospital"}}, {"name": "St Ann's Hospice", "latitude": 53.5276912, "longitude": -2.4229332, "source": "osm", "_tags": {"amenity": "hospital", "healthcare": "hospital", "name": "St Ann's Hospice"}}, {"name": "NHS Atherleigh Park", "latitude": 53.5011944, "longitude": -2.5234378, "source": "osm", "_tags": {"amenity": "hospital", "healthcare": "hospital", "name": "NHS Atherleigh Park", "operator": "NHS", "operator:type": "public", "operator:wikidata": "Q918396"}}, {"name": "", "latitude": 53.558177, "longitude": -2.6293234, "source": "osm", "_tags": {"amenity": "hospital", "building": "hospital", "emergency": "yes", "healthcare": "hospital"}}, {"name": "The Highfield Hospital", "latitude": 53.6067716, "longitude": -2.1673272, "source": "osm", "_tags": {"addr:city": "Rochdale", "addr:postcode": "OL11 4LZ", "addr:street": "Manchester Road", "amenity": "hospital", "name": "The Highfield Hospital", "operator": "BMI"}}, {"name": "Hollins Park", "latitude": 53.4281273, "longitude": -2.6080642, "source": "osm", "_tags": {"addr:city": "Warrington", "addr:housename": "Hollins Park", "addr:postcode": "WA2 8WA", "addr:street": "Hollins Lane", "amenity": "hospital", "contact:phone": "+44 151 473 0303", "emergency": "no", "fixme": "Please check/update identifier code now occupation has changed.", "healthcare": "hospital", "healthcare:speciality": "psychiatry", "name": "Hollins Park", "operator": "Mersey Care NHS Foundation Trust", "operator:type": "state_primary_health_care", "wikidata": "Q30293221"}}, {"name": "Euxton Hall Hospital", "latitude": 53.6609256, "longitude": -2.6763004, "source": "osm", "_tags": {"HE_ref": "1072464", "addr:city": "Chorley", "addr:country": "GB", "addr:postcode": "PR7 6DY", "addr:street": "Wigan Road", "addr:suburb": "Euxton", "amenity": "hospital", "building": "hospital", "building:part": "house", "emergency": "no", "healthcare": "hospital", "healthcare:speciality": "gastroenterology;surgery;gynaecology;orthodontics;pain_management;plastic_surgery;spinal_surgery", "heritage": "2", "heritage:operator": "Historic England", "historic": "heritage", "listed_status": "Grade II", "name": "Euxton Hall Hospital", "operator": "Ramsey Health Care", "operator:type": "private", "start_date": "C18", "website": "https://historicengland.org.uk/listing/the-list/list-entry/1072464"}}, {"name": "Rowan View", "latitude": 53.5182481, "longitude": -2.9115603, "source": "osm", "_tags": {"addr:city": "Maghull", "addr:postcode": "L31 1FN", "addr:street": "Villas Park", "amenity": "hospital", "healthcare": "hospital", "healthcare:speciality": "psychiatry", "name": "Rowan View"}}, {"name": "Aspen Wood", "latitude": 53.5162296, "longitude": -2.9088893, "source": "osm", "_tags": {"amenity": "hospital", "healthcare": "hospital", "name": "Aspen Wood", "operator": "Mersey Care NHS Foundation Trust", "source": "survey"}}, {"name": "Oaklands Hospital", "latitude": 53.491749, "longitude": -2.3211741, "source": "osm", "_tags": {"addr:city": "Salford", "addr:housenumber": "19", "addr:postcode": "M6 8AQ", "addr:street": "Lancaster Road", "amenity": "hospital", "emergency": "no", "healthcare": "hospital", "healthcare:speciality": "general", "name": "Oaklands Hospital", "operator": "Ramsey Health", "operator:type": "private", "website": "https://www.oaklands-hospital.co.uk/"}}, {"name": "The Cove", "latitude": 54.0351442, "longitude": -2.8922193, "source": "osm", "_tags": {"addr:city": "Heysham", "addr:postcode": "LA3 2SL", "addr:street": "Plover Drive", "amenity": "hospital", "beds": "14", "check_date": "2025-05-27", "emergency": "no", "healthcare": "hospital", "healthcare:speciality": "psychiatry", "name": "The Cove", "operator": "Lancashire Care NHS Foundation", "ref:GB:cqc_location": "RW5LY", "walk-in": "no", "website": "https://www.lscft.nhs.uk/the-cove"}}, {"name": "Trinity Hospice", "latitude": 53.8425524, "longitude": -3.0272019, "source": "osm", "_tags": {"addr:city": "Blackpool", "addr:postcode": "FY2 0BG", "addr:street": "Low Moor Road", "amenity": "hospital", "building": "yes", "fhrs:id": "141942", "healthcare": "hospital", "name": "Trinity Hospice"}}, {"name": "Buckshaw Hospital", "latitude": 53.6870223, "longitude": -2.6740378, "source": "osm", "_tags": {"addr:city": "Chorley", "addr:postcode": "PR7 7NA", "addr:street": "Eaton Avenue", "addr:suburb": "Buckshaw Village", "amenity": "hospital", "healthcare": "hospital", "healthcare:speciality": "day_case_orthopedic;endoscopy;ent;surgery;gynaecology;urology", "name": "Buckshaw Hospital", "operator": "Ramsey Health Care", "operator:type": "private"}}, {"name": "Spire Manchester Hospital", "latitude": 53.4251194, "longitude": -2.2527579, "source": "osm", "_tags": {"addr:city": "Manchester", "addr:housenumber": "170", "addr:postcode": "M20 2AF", "addr:street": "Barlow Moor Road", "addr:suburb": "Didsbury", "amenity": "hospital", "healthcare": "hospital", "name": "Spire Manchester Hospital", "operator": "Spire", "operator:type": "private", "website": "https://www.spirehealthcare.com/spire-manchester-hospital/"}}, {"name": "Maghull Health Park", "latitude": 53.5192197, "longitude": -2.9099281, "source": "osm", "_tags": {"addr:city": "Maghull", "addr:street": "Villas Road", "amenity": "hospital", "check_date": "2024-04-03", "description": "Estate of Mersey Care NHS Foundation Trust secure hospitals and associated services.", "healthcare": "hospital", "healthcare:speciality": "psychiatry;neuropsychiatry", "name": "Maghull Health Park", "operator": "Mersey Care NHS Foundation Trust", "operator:type": "state_primary_health_care", "source": "survey", "website": "https://www.merseycare.nhs.uk/"}}, {"name": "Hartley Hospital", "latitude": 53.6384373, "longitude": -2.986559, "source": "osm", "_tags": {"addr:city": "Southport", "addr:housenumber": "1B", "addr:postcode": "PR8 6PL", "addr:street": "Curzon Road", "amenity": "hospital", "description": "New build on site of former maternity hospital and infirmary, opened by HRH Princess Royal July 2021", "emergency": "no", "healthcare": "hospital", "healthcare:speciality": "mental_health;psychiatry", "name": "Hartley Hospital", "operator": "Mersey Care NHS Foundation Trust", "operator:type": "state_primary_health_care", "phone": "+44151 473 0303", "source": "survey", "start_date": "2020"}}, {"name": "Braeburn House", "latitude": 53.4936614, "longitude": -2.2922877, "source": "osm", "_tags": {"amenity": "hospital", "healthcare": "hospital", "name": "Braeburn House", "ref:GB:cqc_location": "RXVH2", "website": "https://www.gmmh.nhs.uk/braeburn-house/"}}, {"name": "Breeze Hill Neighbourhood Health Centre", "latitude": 53.4479372, "longitude": -2.9679507, "source": "osm", "_tags": {"amenity": "hospital", "healthcare": "hospital", "name": "Breeze Hill Neighbourhood Health Centre"}}, {"name": "All Saints Hospital", "latitude": 53.529547, "longitude": -2.1289043, "source": "osm", "_tags": {"addr:city": "Oldham", "addr:housename": "All Saints Hospital", "addr:housenumber": "159", "addr:postcode": "OL8 4EF", "addr:street": "Grange Avenue", "amenity": "hospital", "email": "allsaints@elysiumhealthcare.co.uk", "emergency": "no", "healthcare": "hospital", "healthcare:speciality": "mental_health", "name": "All Saints Hospital", "operator": "Elysium Healthcare", "operator:type": "private", "phone": "+44161 622 4220", "website": "https://www.elysiumhealthcare.co.uk/location/all-saints-hospital/"}}, {"name": "Elizabeth Court Care Centre", "latitude": 53.4322617, "longitude": -2.7178468, "source": "osm", "_tags": {"addr:city": "St Helens", "addr:housenumber": "125", "addr:postcode": "WA9 3XE", "addr:street": "New Street", "amenity": "hospital", "building:levels": "2", "healthcare": "hospital", "name": "Elizabeth Court Care Centre", "smoking": "no"}}, {"name": "Royal Preston Hospital", "latitude": 53.7899597, "longitude": -2.7065811, "source": "osm", "_tags": {"addr:city": "Preston", "addr:housename": "Royal Preston Hospital", "addr:postcode": "PR2 9HT", "addr:street": "Sharoe Green Lane", "amenity": "hospital", "check_date": "2025-06-20", "emergency": "yes", "fhrs:id": "117227", "healthcare": "hospital", "name": "Royal Preston Hospital", "phone": "+44 1772 695300", "ref:GB:cqc_location": "RW5EE", "source": "local_knowledge", "type": "multipolygon"}}, {"name": "Westmorland General Hospital", "latitude": 54.3064666, "longitude": -2.7327012, "source": "osm", "_tags": {"addr:city": "Kendal", "addr:postcode": "LA9 7RG", "addr:street": "Burton Road", "amenity": "hospital", "emergency": "no", "fhrs:id": "299689", "healthcare": "hospital", "name": "Westmorland General Hospital", "operator": "University Hospitals of Morecambe Bay NHS Foundation Trust", "operator:type": "public", "phone": "+44 1539 732288", "ref:GB:ENG:nhs_organisation": "42187", "type": "multipolygon", "website": "https://www.uhmb.nhs.uk/visiting-our-hospitals/parking-facilities/westmorland-general-hospital", "wikidata": "Q7989308"}}, {"name": "Blackpool Victoria Hospital", "latitude": 53.8209587, "longitude": -3.0141402, "source": "osm", "_tags": {"addr:city": "Blackpool", "addr:postcode": "FY3 8NR", "amenity": "hospital", "emergency": "yes", "fhrs:id": "140415", "healthcare": "hospital", "name": "Blackpool Victoria Hospital", "type": "multipolygon", "wikidata": "Q4923282"}}]