[{"name": "Niepubliczny Zakład Opieki Długoterminowej pw. \"Szpital św. Jerzego\"", "latitude": 53.5063767, "longitude": 19.7491148, "source": "osm", "_tags": {"addr:city": "Lubawa", "amenity": "hospital", "healthcare": "hospital", "name": "Niepubliczny Zakład Opieki Długoterminowej pw. \"Szpital św. Jerzego\"", "operator": "NFZ", "patron": "Św. Jerzy"}}, {"name": "Szpital Powiatowy", "latitude": 53.42424, "longitude": 19.58645, "source": "osm", "_tags": {"addr:city": "Nowe Miasto Lubawskie", "addr:housenumber": "10", "addr:street": "Adama Mickiewicza", "amenity": "hospital", "healthcare": "hospital", "name": "Szpital Powiatowy", "phone": "+48564724100", "source": "http://ump.waw.pl/ retrieved 12:40:28 08/23/09 (UMP-Ciechanow/src/POI-Ciechanow.szpitale.pnt-converted.txt)"}}, {"name": "Szpital w Nowym Dworze Gdańskim", "latitude": 54.2114818, "longitude": 19.1195648, "source": "osm", "_tags": {"addr:city": "Nowy Dwór Gdański", "addr:housenumber": "12", "addr:postcode": "82-100", "addr:street": "Dworcowa", "amenity": "hospital", "name": "Szpital w Nowym Dworze Gdańskim", "operator": "Powiatowe Centrum Zdrowia w Malborku", "phone": "+48 55 247 24 11", "website": "http://pcz.net.pl/NDG/"}}, {"name": "Oddział Psychiatryczny", "latitude": 53.7376862, "longitude": 19.2054916, "source": "osm", "_tags": {"amenity": "hospital", "entrance": "yes", "name": "Oddział Psychiatryczny"}}, {"name": "Izba Przyjęć", "latitude": 53.7368533, "longitude": 19.2067663, "source": "osm", "_tags": {"amenity": "hospital", "entrance": "yes", "name": "Izba Przyjęć"}}, {"name": "Oddział Chirurgii Ogólnej i Chirurgii klatki Piersiowej", "latitude": 53.7366382, "longitude": 19.209373, "source": "osm", "_tags": {"amenity": "hospital", "name": "Oddział Chirurgii Ogólnej i Chirurgii klatki Piersiowej"}}, {"name": "Oddział Pulmunologii", "latitude": 53.7367577, "longitude": 19.2090712, "source": "osm", "_tags": {"amenity": "hospital", "name": "Oddział Pulmunologii"}}, {"name": "", "latitude": 54.1787783, "longitude": 19.4297906, "source": "osm", "_tags": {"addr:housenumber": "146", "addr:street": "Królewiecka", "amenity": "hospital"}}, {"name": "Szpital Miejski im. Jana Pawła II", "latitude": 54.1571752, "longitude": 19.4228765, "source": "osm", "_tags": {"addr:city": "Elbląg", "addr:housenumber": "22", "addr:postcode": "82-300", "addr:street": "Stefana Żeromskiego", "amenity": "hospital", "healthcare": "hospital", "name": "Szpital Miejski im. Jana Pawła II"}}, {"name": "Szpital Miejski im. Jana Pawła II", "latitude": 54.1552474, "longitude": 19.4257109, "source": "osm", "_tags": {"addr:city": "Elbląg", "addr:housenumber": "35", "addr:postcode": "82-300", "addr:street": "Jana Amosa Komeńskiego", "amenity": "hospital", "healthcare": "hospital", "name": "Szpital Miejski im. Jana Pawła II"}}, {"name": "Powiatowe Centrum Zdrowia", "latitude": 54.0313538, "longitude": 19.0221816, "source": "osm", "_tags": {"addr:city": "Malbork", "addr:housenumber": "105-106", "addr:postcode": "82-200", "addr:street": "Aleja Armii Krajowej", "amenity": "hospital", "building": "hospital", "emergency": "yes", "healthcare": "hospital", "name": "Powiatowe Centrum Zdrowia", "source:addr": "EMUiA (emuia.gugik.gov.pl)"}}, {"name": "Szpital Regionalistyczny w Łasinie", "latitude": 53.5186167, "longitude": 19.0830758, "source": "osm", "_tags": {"addr:city": "Łasin", "addr:city:simc": "0983557", "addr:housenumber": "2", "addr:postcode": "86-320", "addr:street": "Grudziądzka", "addr:street:sym_ul": "06236", "amenity": "hospital", "building": "yes", "name": "Szpital Regionalistyczny w Łasinie", "source:addr": "emuia.gugik.gov.pl"}}, {"name": "Szpital Psychiatryczny", "latitude": 54.352911, "longitude": 19.6792882, "source": "osm", "_tags": {"amenity": "hospital", "check_date": "2025-07-19", "name": "Szpital Psychiatryczny"}}, {"name": "", "latitude": 54.0313389, "longitude": 19.0228727, "source": "osm", "_tags": {"addr:city": "Malbork", "addr:housenumber": "2", "addr:postcode": "82-200", "addr:street": "Juliusza Słowackiego", "building": "hospital", "healthcare": "hospital", "source:addr": "EMUiA (emuia.gugik.gov.pl)"}}, {"name": "Ośrodek Zdrowia Kamed", "latitude": 53.6371193, "longitude": 19.4557041, "source": "osm", "_tags": {"addr:city": "Ząbrowo", "addr:housenumber": "16", "addr:postcode": "14-241", "addr:street": "Szkolna", "amenity": "doctors", "healthcare": "hospital", "name": "Ośrodek Zdrowia Kamed", "operator": "Kamed", "operator:type": "public"}}, {"name": "Wojewódzki Szpital Zespolony", "latitude": 54.1782506, "longitude": 19.4314296, "source": "osm", "_tags": {"addr:city": "Elbląg", "addr:housenumber": "146", "addr:postcode": "82-300", "addr:street": "Królewiecka", "amenity": "hospital", "emergency": "yes", "healthcare": "hospital", "name": "Wojewódzki Szpital Zespolony", "wikidata": "Q16616119", "wikipedia": "pl:Wojewódzki Szpital Zespolony w Elblągu"}}, {"name": "Szpital Specjalistyczny Prabuty", "latitude": 53.7367742, "longitude": 19.207485, "source": "osm", "_tags": {"amenity": "hospital", "name": "Szpital Specjalistyczny Prabuty"}}, {"name": "Powiatowy Szpital w Iławie", "latitude": 53.5854611, "longitude": 19.5668269, "source": "osm", "_tags": {"amenity": "hospital", "check_date": "2024-08-16", "name": "Powiatowy Szpital w Iławie"}}, {"name": "Szpital Polski w Sztumie", "latitude": 53.9225812, "longitude": 19.0264916, "source": "osm", "_tags": {"addr:city": "Sztum", "addr:housenumber": "12", "addr:postcode": "82-400", "addr:street": "Mikołaja Reja", "amenity": "hospital", "emergency": "yes", "healthcare": "hospital", "healthcare:speciality": "general;cardiology;emergency", "name": "Szpital Polski w Sztumie", "operator": "Szpitale Polskie S.A.", "website": "http://szpitale-polskie.pl/SPSA/placowki/sztum/"}}, {"name": "Powiatowe Centrum Medyczne", "latitude": 54.3750075, "longitude": 19.8299063, "source": "osm", "_tags": {"addr:city": "Braniewo", "addr:housenumber": "13", "addr:postcode": "14-500", "addr:street": "Stanisława Moniuszki", "amenity": "hospital", "name": "Powiatowe Centrum Medyczne"}}, {"name": "Szpital Miejski w Morągu", "latitude": 53.9154347, "longitude": 19.9232356, "source": "osm", "_tags": {"addr:city": "Morąg", "addr:housenumber": "16", "addr:postcode": "14-300", "addr:street": "Generała Jana Henryka Dąbrowskiego", "amenity": "hospital", "name": "Szpital Miejski w Morągu"}}, {"name": "Szpital Powiatowy w Pasłęku", "latitude": 54.0626501, "longitude": 19.6634353, "source": "osm", "_tags": {"amenity": "hospital", "fixme": "geometry", "name": "Szpital Powiatowy w Pasłęku"}}]