[{"name": "Наркалагічны дыспансер", "latitude": 53.9159429, "longitude": 27.5279941, "source": "osm", "_tags": {"addr:city": "Мінск", "addr:city:ru": "Минск", "addr:country": "BY", "addr:housenumber": "16", "addr:postcode": "220035", "addr:street": "вуліца Гастэлы", "amenity": "hospital", "description": "Минский городской наркологический диспансер", "healthcare": "hospital", "name": "Наркалагічны дыспансер", "name:be": "Наркалагічны дыспансер", "name:ru": "Наркодиспансер", "opening_hours": "Mo-Fr 08:00-20:00; Sa 08:00-14:30", "operator": "УЗ «Городской клинический наркологический диспансер»", "operator:type": "government", "phone": "+375 17 2373701", "website": "http://www.narcolog.by"}}, {"name": "бальніца", "latitude": 53.6465924, "longitude": 27.9208712, "source": "osm", "_tags": {"amenity": "hospital", "name": "бальніца", "name:be": "бальніца", "name:ru": "Больница"}}, {"name": "", "latitude": 53.7839045, "longitude": 27.6359083, "source": "osm", "_tags": {"amenity": "hospital"}}, {"name": "223 ЦAM", "latitude": 53.7781032, "longitude": 27.5931391, "source": "osm", "_tags": {"amenity": "hospital", "healthcare": "hospital", "name": "223 ЦAM", "name:be": "223 ЦAM", "name:ru": "223 ЦАМ"}}, {"name": "", "latitude": 53.796735, "longitude": 27.7972234, "source": "osm", "_tags": {"amenity": "hospital"}}, {"name": "Лашанскі фельчарска-акушэрскі пункт", "latitude": 54.0408182, "longitude": 27.3010147, "source": "osm", "_tags": {"amenity": "hospital", "name": "Лашанскі фельчарска-акушэрскі пункт", "name:be": "Лашанскі фельчарска-акушэрскі пункт", "name:ru": "Лошанский фельдшерско-акушерский пункт"}}, {"name": "", "latitude": 53.6701227, "longitude": 27.0081914, "source": "osm", "_tags": {"amenity": "hospital"}}, {"name": "", "latitude": 53.5875256, "longitude": 27.860403, "source": "osm", "_tags": {"amenity": "hospital"}}, {"name": "Прыватная стаматалогія", "latitude": 54.1546248, "longitude": 27.2448371, "source": "osm", "_tags": {"amenity": "hospital", "emergency": "no", "name": "Прыватная стаматалогія", "name:be": "Прыватная стаматалогія", "name:ru": "Частная стоматология"}}, {"name": "Станцыя хуткай медыцынскай дапамогі Мінскага раёну", "latitude": 53.9955413, "longitude": 27.6773017, "source": "osm", "_tags": {"amenity": "hospital", "healthcare": "hospital", "name": "Станцыя хуткай медыцынскай дапамогі Мінскага раёну", "name:be": "Станцыя хуткай медыцынскай дапамогі Мінскага раёну", "name:ru": "Станция скорой медицинской помощи Минского района"}}, {"name": "Ладэ", "latitude": 53.9075432, "longitude": 27.4389668, "source": "osm", "_tags": {"addr:city": "Мінск", "addr:city:ru": "Минск", "addr:country": "BY", "addr:housenumber": "140", "addr:street": "вуліца Прытыцкага", "amenity": "clinic", "contact:facebook": "https://www.facebook.com/lodemed.by", "contact:instagram": "https://www.instagram.com/lode.med/", "contact:ok": "https://ok.ru/lode.med", "contact:phone": "+375 17 2939800;+375 29 2701003;+375 29 6383003;111", "contact:vk": "https://vk.com/lode_by", "contact:website": "https://www.lode.by/", "contact:youtube": "https://www.youtube.com/channel/UCnkOvH6tmP9Qa0I2cOeQT8Q", "emergency": "no", "healthcare": "hospital", "name": "Ладэ", "name:be": "Ладэ", "name:ru": "Лодэ", "opening_hours": "Mo-Fr 07:30-21:00; Sa 08:00-21:00; Su 09:00-16:00", "operator": "ООО «ЛОДЭ»", "shop": "medical_supply", "wheelchair": "no"}}, {"name": "", "latitude": 54.0731005, "longitude": 27.8368317, "source": "osm", "_tags": {"amenity": "hospital"}}, {"name": "Беларускі дзіцячы хоспіс (новы будынак)", "latitude": 53.9967445, "longitude": 27.6997318, "source": "osm", "_tags": {"addr:city": "Вопытны", "addr:housenumber": "71", "addr:postcode": "223053", "amenity": "hospital", "email": "hospice.belarus@gmail.com", "healthcare": "hospital", "name": "Беларускі дзіцячы хоспіс (новы будынак)", "name:be": "Беларускі дзіцячы хоспіс (новы будынак)", "name:ru": "Белорусский детский хоспис (новое здание)", "website": "https://hospice.by/"}}, {"name": "Амбулаторыя", "latitude": 53.7355235, "longitude": 27.694158, "source": "osm", "_tags": {"addr:postcode": "223070", "amenity": "hospital", "healthcare": "hospital", "name": "Амбулаторыя", "name:be": "Амбулаторыя", "name:ru": "Амбулатория"}}, {"name": "Эксана", "latitude": 53.8685041, "longitude": 27.648657, "source": "osm", "_tags": {"amenity": "clinic", "contact:email": "eksana1@mail.ru", "contact:facebook": "https://web.facebook.com/eksana.by/", "contact:instagram": "https://www.instagram.com/eksana_belarus/", "contact:phone": "+375 17 2150202", "contact:website": "https://eksana.by/", "description": "Ваше здоровье для нас – дороже денег!", "furniture": "office", "healthcare": "hospital", "name": "Эксана", "name:be": "Эксана", "name:ru": "Эксана", "office": "company", "opening_hours": "Mo-Fr 09:00-21:00;Sa-Su 09:00-20:00", "operator": "Здоровое решение", "shop": "medical_supply"}}, {"name": "Клініка «Эмбрыа»", "latitude": 53.912777, "longitude": 27.37761, "source": "osm", "_tags": {"amenity": "hospital", "healthcare": "hospital", "name": "Клініка «Эмбрыа»", "name:be": "Клініка «Эмбрыа»", "name:ru": "Клиника «Эмбрио»"}}, {"name": "Рэспубліканскі цэнтр пазітронна-эмісійнай тамаграфіі (ПЭТ-цэнтр)", "latitude": 54.0060979, "longitude": 27.6962998, "source": "osm", "_tags": {"amenity": "hospital", "name": "Рэспубліканскі цэнтр пазітронна-эмісійнай тамаграфіі (ПЭТ-цэнтр)", "name:be": "Рэспубліканскі цэнтр пазітронна-эмісійнай тамаграфіі (ПЭТ-цэнтр)", "name:ru": "Республиканский центр позитронно-эмиссионной томографии (ПЭТ-центр)"}}, {"name": "СкурВен", "latitude": 53.909508, "longitude": 27.5830455, "source": "osm", "_tags": {"amenity": "hospital", "healthcare": "hospital", "name": "СкурВен", "name:be": "СкурВен", "name:ru": "Кожвен"}}, {"name": "Цэнтр лазернай і эстэтычны медыцыны «Шайнэст»", "latitude": 53.9044818, "longitude": 27.5805376, "source": "osm", "_tags": {"addr:city": "Мінск", "addr:city:ru": "Минск", "addr:country": "BY", "addr:housenumber": "40", "addr:postcode": "220034", "addr:street": "вуліца Захарава", "amenity": "clinic", "healthcare": "hospital", "healthcare:speciality": "plastic_surgery;cosmetic", "name": "Цэнтр лазернай і эстэтычны медыцыны «Шайнэст»", "name:be": "Цэнтр лазернай і эстэтычны медыцыны «Шайнэст»", "name:ru": "Центр лазерной и эстетический медицины «Шайнэст»", "opening_hours": "Mo-Su 09:00-21:00", "operator": "Шайнэст", "website": "https://www.shine-est.by"}}, {"name": "Паліклініка Янушкавіцкага ФАП", "latitude": 54.2767261, "longitude": 27.6034297, "source": "osm", "_tags": {"amenity": "hospital", "healthcare": "hospital", "name": "Паліклініка Янушкавіцкага ФАП", "name:be": "Паліклініка Янушкавіцкага ФАП", "name:ru": "Поликлинника Янушковический фап"}}, {"name": "ФАП", "latitude": 54.3575355, "longitude": 27.0819171, "source": "osm", "_tags": {"amenity": "hospital", "healthcare": "hospital", "name": "ФАП", "name:be": "ФАП", "name:ru": "ФАП"}}, {"name": "Паліклініка Цэнтральны Уваход", "latitude": 53.6914097, "longitude": 27.1240903, "source": "osm", "_tags": {"addr:housenumber": "72", "addr:street": "Кастрычніцкая вуліца", "amenity": "hospital", "healthcare": "hospital", "name": "Паліклініка Цэнтральны Уваход", "name:be": "Паліклініка Цэнтральны Уваход", "name:ru": "Поликлиника Центральный Вход"}}, {"name": "Ланцужок", "latitude": 53.6910449, "longitude": 27.1240872, "source": "osm", "_tags": {"amenity": "hospital", "healthcare": "hospital", "name": "Ланцужок", "name:be": "Ланцужок", "name:ru": "Цепочка"}}, {"name": "Амбулаторыя", "latitude": 53.8140006, "longitude": 27.6601327, "source": "osm", "_tags": {"addr:city": "Новы Двор", "addr:housenumber": "10", "addr:postcode": "223016", "addr:street": "Паркавая вуліца", "amenity": "hospital", "emergency": "no", "healthcare": "hospital", "healthcare:speciality": "paediatrics;dentist;general", "name": "Амбулаторыя", "name:be": "Амбулаторыя", "name:ru": "Амбулатория"}}, {"name": "Государственное предприятие \"Аква-Минск\"", "latitude": 53.8669574, "longitude": 27.5902794, "source": "osm", "_tags": {"addr:city": "Мінск", "addr:housenumber": "44 к2", "addr:street": "праспект Ракасоўскага", "amenity": "clinic", "healthcare": "hospital", "name": "Государственное предприятие \"Аква-Минск\"", "name:be": "Медыцынскі цэнтр", "name:ru": "Медицинский центр"}}, {"name": "Медыцынскі цэнтр «Парацэльс»", "latitude": 53.8607767, "longitude": 27.5755763, "source": "osm", "_tags": {"amenity": "hospital", "contact:email": "zakaz@narkolog.by", "contact:facebook": "https://www.facebook.com/narkolog.by/", "contact:ok": "https://ok.ru/paratsels", "contact:phone": "+375 17 2525103;+375 17 2717103;+375 29 3996103;+375 33 3996103", "contact:website": "https://narkolog.by/", "healthcare": "hospital", "name": "Медыцынскі цэнтр «Парацэльс»", "name:be": "Медыцынскі цэнтр «Парацэльс»", "name:ru": "Медицинский центр «Парацельс»", "name:uk": "Медичний центр «Парацельс»", "opening_hours": "24/7", "operator": "Частное предприятие «Парацельс»"}}, {"name": "Мінская абласная дзіцячая клінічная бальніца", "latitude": 53.9972619, "longitude": 27.6844353, "source": "osm", "_tags": {"amenity": "hospital", "healthcare": "hospital", "name": "Мінская абласная дзіцячая клінічная бальніца", "name:be": "Мінская абласная дзіцячая клінічная бальніца", "name:ru": "Минская областная детская клиническая больница", "name:uk": "Мінська обласна дитяча клінічна лікарня"}}, {"name": "Линлайн Клиника лазерной косметологии и хирургии", "latitude": 53.9222373, "longitude": 27.5511666, "source": "osm", "_tags": {"addr:housenumber": "8", "addr:street": "вуліца Чарвякова", "amenity": "hospital", "name": "Линлайн Клиника лазерной косметологии и хирургии"}}, {"name": "Центр зрения «Оптимед»", "latitude": 53.9267494, "longitude": 27.6613034, "source": "osm", "_tags": {"addr:housenumber": "15Д", "addr:postcode": "220114", "addr:street": "вуліца Францыска Скарыны", "amenity": "hospital", "name": "Центр зрения «Оптимед»", "opening_hours": "Mo-Su 08:00-20:00", "phone": "+375445495179", "website": "http://optimed.by"}}, {"name": "Гарадскі наркалагічны дыспансер", "latitude": 53.9185059, "longitude": 27.5287767, "source": "osm", "_tags": {"amenity": "hospital", "barrier": "fence", "description": "Отделение №2, №3, ОРИТ", "email": "uzgknd@gmail.com", "emergency": "yes", "fax": "+375 17 2718155", "healthcare": "hospital", "healthcare:speciality": "psychiatry", "name": "Гарадскі наркалагічны дыспансер", "name:be": "Гарадскі наркалагічны дыспансер", "name:ru": "Городской наркологический диспансер", "phone": "+375 29 3501248", "website": "https://gknd.by/"}}, {"name": "Гарадскі наркалагічны дыспансер", "latitude": 53.8990918, "longitude": 27.6208059, "source": "osm", "_tags": {"addr:city": "Мінск", "addr:country": "BY", "addr:housenumber": "11", "addr:postcode": "220037", "addr:street": "Перадавая вуліца", "amenity": "hospital", "building": "hospital", "description": "Отделение №1, №4", "email": "uzgknd@gmail.com", "emergency": "no", "fax": "+375 17 2718155", "healthcare": "hospital", "healthcare:speciality": "psychiatry", "name": "Гарадскі наркалагічны дыспансер", "name:be": "Гарадскі наркалагічны дыспансер", "name:ru": "Городской наркологический диспансер", "opening_hours": "Mo-Fr 08:00-15:00", "phone": "+375 17 3570909;+375 17 3749363;+375 17 240-99-96", "roof:shape": "gabled", "website": "https://gknd.by/"}}, {"name": "Бальніца паліятыўнага догляду «Хоспіс»", "latitude": 53.8875691, "longitude": 27.6086189, "source": "osm", "_tags": {"addr:housenumber": "19", "addr:postcode": "220070", "addr:street": "Стаханаўская вуліца", "amenity": "hospital", "building": "yes", "building:levels": "2", "description": "Отделение паллиативной медицинской помощи № 2", "email": "info@mhospice.of.by", "fax": "+375 17 2366733", "healthcare": "hospital", "healthcare:speciality": "palliative", "name": "Бальніца паліятыўнага догляду «Хоспіс»", "name:be": "Бальніца паліятыўнага догляду «Хоспіс»", "name:ru": "Больница паллиативного ухода «Хоспис»", "name:uk": "Лікарня паліативного догляду «Хоспіс»", "phone": "+375 17 3799034", "roof:colour": "red", "roof:shape": "hipped", "website": "https://mhospice.of.by/"}}, {"name": "Паліклініка №13", "latitude": 53.9309161, "longitude": 27.5976269, "source": "osm", "_tags": {"addr:housenumber": "3", "addr:postcode": "220113", "addr:street": "вуліца Ламаносава", "amenity": "clinic", "building": "yes", "building:levels": "3", "emergency": "no", "healthcare": "hospital", "name": "Паліклініка №13", "name:be": "Паліклініка №13", "name:ru": "Поликлиника №13", "opening_hours": "Mo-Fr 07:00-20:00; Sa 08:30-15:00", "roof:colour": "darkgray", "roof:shape": "hipped"}}, {"name": "Дыспансер спартыўнай медыцыны", "latitude": 53.933636, "longitude": 27.599147, "source": "osm", "_tags": {"addr:housenumber": "57 к3", "addr:postcode": "220113", "addr:street": "вуліца Якуба Коласа", "amenity": "hospital", "building": "yes", "building:levels": "4", "email": "mkcpif@gmail.com", "emergency": "no", "healthcare": "hospital", "healthcare:speciality": "pulmonology", "name": "Дыспансер спартыўнай медыцыны", "name:be": "Дыспансер спартыўнай медыцыны", "name:ru": "Дыспансер спартовай медыцыны", "phone": "+375 17 3800385;+375 17 2720115", "roof:colour": "dimgray", "website": "http://mkcpf.by/"}}, {"name": "Аддзяленне сястрынскага догляду дзяржаўнай установы «Бальніца паліятыўнага догляду «Хоспіс»", "latitude": 53.8966009, "longitude": 27.5698976, "source": "osm", "_tags": {"addr:city": "Мінск", "addr:housenumber": "16А", "addr:postcode": "220030", "addr:street": "Чырвонаармейская вуліца", "amenity": "hospital", "building": "yes", "building:levels": "2", "name": "Аддзяленне сястрынскага догляду дзяржаўнай установы «Бальніца паліятыўнага догляду «Хоспіс»", "name:be": "Аддзяленне сястрынскага догляду дзяржаўнай установы «Бальніца паліятыўнага догляду «Хоспіс»", "name:en": "Department of Nursing of the state institution \"Hospital Palliative Care\" Hospice \"", "name:ru": "Отделение сестринского ухода государственного учреждения «Больница паллиативного ухода «Хоспис»", "roof:shape": "hipped"}}, {"name": "1-я гарадская клінічная бальніца", "latitude": 53.9185098, "longitude": 27.5965651, "source": "osm", "_tags": {"amenity": "hospital", "contact:email": "uz@1gkb.by", "contact:fax": "+375 17 3534555", "contact:phone": "+375 17 3734612;+375 17 3799258", "contact:website": "http://1gkb.by/", "emergency": "yes", "healthcare": "hospital", "name": "1-я гарадская клінічная бальніца", "name:be": "1-я гарадская клінічная бальніца", "name:ru": "1-я городская клиническая больница", "official_name": "УЗ «1-я городская клиническая больница»", "opening_hours": "24/7", "short_name": "1 ГКБ", "wikidata": "Q99494963", "wikipedia": "be:Комплекс будынкаў 1-й клінічнай бальніцы (Мінск)"}}, {"name": "Паліклініка 2-й раённай бальніцы", "latitude": 53.8228766, "longitude": 27.5230014, "source": "osm", "_tags": {"addr:housenumber": "7", "addr:street": "вуліца Янкі Купалы", "amenity": "hospital", "building": "yes", "building:levels": "5", "emergency": "yes", "healthcare": "hospital", "name": "Паліклініка 2-й раённай бальніцы", "name:be": "Паліклініка 2-й раённай бальніцы", "name:ru": "Поликлиника 2-й районной больницы", "phone": "+375175061146"}}, {"name": "Рэспубліканскі шпіталь КДБ", "latitude": 53.920255, "longitude": 27.6278677, "source": "osm", "_tags": {"amenity": "hospital", "barrier": "fence", "healthcare": "hospital", "name": "Рэспубліканскі шпіталь КДБ", "name:be": "Рэспубліканскі шпіталь КДБ", "name:ru": "Республиканский госпиталь КГБ"}}, {"name": "Рэспубліканскі клінічны шпіталь інвалідаў ВАВ", "latitude": 53.9998894, "longitude": 27.6872016, "source": "osm", "_tags": {"alt_name": "Госпиталь ветеранов", "amenity": "hospital", "barrier": "fence", "healthcare": "hospital", "name": "Рэспубліканскі клінічны шпіталь інвалідаў ВАВ", "name:be": "Рэспубліканскі клінічны шпіталь інвалідаў ВАВ", "name:ru": "Республиканский клинический госпиталь инвалидов ВОВ", "website": "http://www.giv.by/", "wikidata": "Q104007117"}}, {"name": "Мінская абласная дзіцячая клінічная бальніца", "latitude": 53.9972025, "longitude": 27.6843701, "source": "osm", "_tags": {"addr:city": "Лясны", "addr:housenumber": "40", "addr:place": "Лясны", "amenity": "hospital", "barrier": "fence", "healthcare": "hospital", "name": "Мінская абласная дзіцячая клінічная бальніца", "name:be": "Мінская абласная дзіцячая клінічная бальніца", "name:ru": "Минская областная детская клиническая больница", "website": "http://modkb.by/", "wikidata": "Q66490350"}}, {"name": "Цэнтр дзіцячай анкалогіі, гематалогіі і імуналогіі", "latitude": 53.9969692, "longitude": 27.6898422, "source": "osm", "_tags": {"addr:postcode": "223053", "amenity": "hospital", "barrier": "fence", "email": "mail@oncology.by", "healthcare": "hospital", "name": "Цэнтр дзіцячай анкалогіі, гематалогіі і імуналогіі", "name:be": "Цэнтр дзіцячай анкалогіі, гематалогіі і імуналогіі", "name:en": "Center for Pediatric Oncology, Hatmatology and Immunology", "name:ru": "Центр детской онкологии, гематологии и иммунологии", "phone": "+375 17 2654871", "website": "https://www.oncology.by/"}}, {"name": "Мінская цэнтральная раённая бальніца", "latitude": 53.9964902, "longitude": 27.6785905, "source": "osm", "_tags": {"amenity": "hospital", "emergency": "yes", "healthcare": "hospital", "name": "Мінская цэнтральная раённая бальніца", "name:be": "Мінская цэнтральная раённая бальніца", "name:ru": "Минская центральная районная больница", "website": "http://www.mcrb.by/"}}, {"name": "", "latitude": 53.5870653, "longitude": 27.0539002, "source": "osm", "_tags": {"amenity": "hospital", "building": "hospital", "building:levels": "2", "healthcare": "hospital", "roof:shape": "hipped"}}, {"name": "3-ці гарадскі шпіталь імя Клумава", "latitude": 53.8961856, "longitude": 27.5635782, "source": "osm", "_tags": {"amenity": "hospital", "email": "info@3gkb.by", "emergency": "yes", "healthcare": "hospital", "heritage": "2", "heritage:description": "Комплекс былой яўрэйскай бальніцы", "heritage:operator": "mcrb", "mcrb:criteria": "3", "name": "3-ці гарадскі шпіталь імя Клумава", "name:be": "3-ці гарадскі шпіталь імя Клумава", "name:en": "3rd City Clinical Hospital", "name:ru": "3-я городская больница имени ЕВ Клумова", "opening_hours": "24/7", "phone": "+375 17 3653167;+375 29 3674137", "ref:mcrb": "713Г000104", "start_date": "late C19..early C20;1950s", "website": "https://3gkb.by/"}}, {"name": "4-я гарадская клінічная бальніца імя М.Я.Саўчанкі", "latitude": 53.8924642, "longitude": 27.5168712, "source": "osm", "_tags": {"addr:housenumber": "110", "addr:street": "вуліца Розы Люксембург", "amenity": "hospital", "email": "clinica@4gkb.by", "emergency": "yes", "healthcare": "hospital", "name": "4-я гарадская клінічная бальніца імя М.Я.Саўчанкі", "name:be": "4-я гарадская клінічная бальніца імя М.Я.Саўчанкі", "name:ru": "4-я городская клиническая больница имени Н.Е.Савченко", "opening_hours": "24/7", "phone": "+375 17 2089574", "website": "https://4gkb.by/", "wikidata": "Q4031231", "wikipedia": "ru:4-я городская клиническая больница имени Н. Е. Савченко (Минск)"}}, {"name": "бальніца хуткай медыцынскай дапамогі", "latitude": 53.8518437, "longitude": 27.5353057, "source": "osm", "_tags": {"amenity": "hospital", "check_date": "2022-09-18", "email": "info@bsmp.by", "emergency": "yes", "fax": "+375 17 2019160", "healthcare": "hospital", "healthcare:speciality": "emergency;general", "internet_access": "wlan", "internet_access:fee": "no", "name": "бальніца хуткай медыцынскай дапамогі", "name:be": "бальніца хуткай медыцынскай дапамогі", "name:en": "City Clinical Emergency Hospital", "name:ru": "Больница скорой медицинской помощи", "opening_hours": "24/7", "phone": "+375 17 2127621", "short_name": "УЗ ГКБСМП г. Минска", "start_date": "1978-12-01", "website": "http://www.bsmp.by/", "wheelchair": "yes", "wikidata": "Q4145422", "wikipedia": "be:Гарадская клінічная бальніца хуткай медыцынскай дапамогі (Мінск)"}}, {"name": "5-я гарадская клінічная бальніца", "latitude": 53.8701219, "longitude": 27.6339283, "source": "osm", "_tags": {"addr:housenumber": "9", "addr:postcode": "220026", "addr:street": "вуліца Філатава", "amenity": "hospital", "email": "info@5gkb.by", "emergency": "yes", "fax": "+375 17 2964516", "healthcare": "hospital", "internet_access": "wlan", "name": "5-я гарадская клінічная бальніца", "name:be": "5-я гарадская клінічная бальніца", "name:en": "Health care facility \"5th city clinical hospital»", "name:ru": "Учреждение здравоохранения «5-я городская клиническая больница»", "opening_hours": "24/7", "phone": "+375 17 2953302", "website": "https://www.5gkb.by/"}}, {"name": "Гарадская дзіцячая інфекцыйная клінічная бальніца", "latitude": 53.8933706, "longitude": 27.4563268, "source": "osm", "_tags": {"amenity": "hospital", "contact:icq": "229-918-821", "email": "info@gdikb.by", "emergency": "yes", "fax": "+375 17 3655590", "healthcare": "hospital", "healthcare:speciality": "infectious_diseases", "name": "Гарадская дзіцячая інфекцыйная клінічная бальніца", "name:be": "Гарадская дзіцячая інфекцыйная клінічная бальніца", "name:en": "Children's Infectious Diseases Hospital", "name:ru": "УЗ «Городская детская инфекционная клиническая больница»", "name:uk": "УЗ «Міська дитяча інфекційна клінічна лікарня»", "opening_hours": "24/7", "phone": "+375 17 3655713", "website": "https://www.gdikb.by/"}}, {"name": "Галоўны ваенны клінічны медыцынскі цэнтр", "latitude": 53.917468, "longitude": 27.5685092, "source": "osm", "_tags": {"addr:housenumber": "26", "addr:street": "праспект Машэрава", "alt_name": "Военный госпиталь", "amenity": "hospital", "healthcare": "hospital", "name": "Галоўны ваенны клінічны медыцынскі цэнтр", "name:be": "Галоўны ваенны клінічны медыцынскі цэнтр", "name:ru": "Главный военный клинический медицинский центр", "official_name": "Государственное учреждение «432 ордена Красной Звезды главный военный клинический медицинский центр Вооруженных Сил Республики Беларусь»", "short_name": "432 ГВКМЦ ВС РБ", "website": "http://www.432.by"}}, {"name": "Гарадская клінічная інфекцыйная бальніца", "latitude": 53.9211984, "longitude": 27.559816, "source": "osm", "_tags": {"amenity": "hospital", "barrier": "fence", "email": "info@gkib.by;gikb@tut.by", "emergency": "yes", "fax": "+375 17 3341443", "healthcare": "hospital", "healthcare:speciality": "infectious_diseases", "name": "Гарадская клінічная інфекцыйная бальніца", "name:be": "Гарадская клінічная інфекцыйная бальніца", "name:ru": "Городская клиническая инфекционная больница", "phone": "+375 17 3341443", "website": "https://gkib.by/"}}, {"name": "6-я гарадская клінічная бальніца", "latitude": 53.9015301, "longitude": 27.6092065, "source": "osm", "_tags": {"amenity": "hospital", "barrier": "fence", "check_date": "2023-02-26", "email": "uz@6gkb.by", "emergency": "yes", "fax": "+375 17 2452621", "fence_type": "bars", "healthcare": "hospital", "height": "2", "internet_access": "wlan", "internet_access:fee": "no", "name": "6-я гарадская клінічная бальніца", "name:be": "6-я гарадская клінічная бальніца", "name:en": "6 city clinical hospital", "name:ru": "6-я городская клиническая больница", "official_name": "Учреждение здравоохранения \"6-я городская клиническая больница г.Минскa\"", "official_name:be": "Установа аховы здароўя \"6-я гарадская клінічная бальніца г.Мінска\"", "official_name:ru": "Учреждение здравоохранения \"6-я городская клиническая больница г.Минскa\"", "opening_hours": "24/7", "phone": "+375 17 2452621", "short_name": "6 ГКБ г. Мінска", "short_name:be": "6 ГКБ г. Мінска", "short_name:ru": "6 ГКБ г. Минска", "smoking": "isolated", "walk-in": "yes", "website": "http://www.6gkb.by/", "wheelchair": "yes", "wikidata": "Q42302858", "wikipedia": "be:6-я гарадская клінічная бальніца (Мінск)"}}, {"name": "", "latitude": 54.0066891, "longitude": 27.8801, "source": "osm", "_tags": {"amenity": "hospital", "building": "yes"}}, {"name": "Рэспубліканская дзіцячая бальніца медыцынскай рэабілітацыі", "latitude": 54.0658878, "longitude": 27.6891432, "source": "osm", "_tags": {"addr:city": "Астрашыцкі Гарадок", "addr:housenumber": "1А", "addr:postcode": "223054", "addr:street": "Працоўны завулак", "amenity": "hospital", "building": "yes", "name": "Рэспубліканская дзіцячая бальніца медыцынскай рэабілітацыі", "name:be": "Рэспубліканская дзіцячая бальніца медыцынскай рэабілітацыі", "name:ru": "Республиканская детская больница медицинской реабилитации", "website": "https://www.rdbmr.by/"}}, {"name": "Паліклініка", "latitude": 53.7435268, "longitude": 27.321237, "source": "osm", "_tags": {"addr:city": "Фаніпаль", "addr:housenumber": "24", "addr:postcode": "222750", "addr:street": "Камсамольская вуліца", "amenity": "hospital", "building": "hospital", "building:levels": "3", "healthcare": "hospital", "name": "Паліклініка", "name:be": "Паліклініка", "name:en": "Hospital", "name:ru": "Поликлиника"}}, {"name": "11-я гарадская клінічная бальніца", "latitude": 53.8456062, "longitude": 27.4976936, "source": "osm", "_tags": {"addr:housenumber": "4", "addr:street": "вуліца Каржанеўскага", "amenity": "hospital", "barrier": "fence", "contact:instagram": "https://www.instagram.com/11gkbminskbelarus/", "email": "info@11gkb.by", "emergency": "yes", "healthcare": "hospital", "name": "11-я гарадская клінічная бальніца", "name:be": "11-я гарадская клінічная бальніца", "name:en": "11th Clinical Hospital", "name:ru": "11-я городская клиническая больница", "opening_hours": "24/7", "phone": "+375 17 3984453", "website": "http://11gkb.by/", "wikidata": "Q4028379"}}, {"name": "Наркалагічны дыспансер аддзяленне 5", "latitude": 53.9262519, "longitude": 27.4905953, "source": "osm", "_tags": {"addr:housenumber": "22", "addr:street": "вуліца Чыгладзэ", "amenity": "hospital", "barrier": "fence", "check_date": "2024-08-27", "email": "uzgknd@gmail.com", "emergency": "no", "fax": "+375 17 2718155", "healthcare": "hospital", "healthcare:speciality": "psychiatry", "name": "Наркалагічны дыспансер аддзяленне 5", "name:be": "Наркалагічны дыспансер аддзяленне 5", "name:ru": "Наркологический диспансер отделение 5", "opening_hours": "24/7", "phone": "+375 17 3747298", "website": "https://gknd.by/"}}, {"name": "Паліклініка Дружны", "latitude": 53.6318068, "longitude": 27.8955857, "source": "osm", "_tags": {"addr:city": "Дружны", "addr:housenumber": "19А", "addr:street": "Паркавая вуліца", "amenity": "hospital", "building": "yes", "building:levels": "1", "name": "Паліклініка Дружны", "name:be": "Паліклініка Дружны", "name:ru": "Поликлиника Дружный"}}, {"name": "Мінскі абласны супрацьсухотны дыспансер", "latitude": 54.0072737, "longitude": 27.7117765, "source": "osm", "_tags": {"amenity": "hospital", "barrier": "wall", "healthcare": "hospital", "healthcare:speciality": "pulmonology", "name": "Мінскі абласны супрацьсухотны дыспансер", "name:be": "Мінскі абласны супрацьсухотны дыспансер", "name:ru": "Минский областной противотуберкулезный диспансер", "website": "https://mopd.by/", "wikidata": "Q104029378"}}, {"name": "Праўдзінская гарадская бальніца", "latitude": 53.5272271, "longitude": 27.8296355, "source": "osm", "_tags": {"addr:city": "Праўдзінскі", "addr:housenumber": "56", "addr:postcode": "222839", "addr:street": "Юбілейная вуліца", "amenity": "hospital", "building": "hospital", "healthcare": "hospital", "name": "Праўдзінская гарадская бальніца", "name:be": "Праўдзінская гарадская бальніца", "name:ru": "Правдинская городская больница"}}, {"name": "Рэспубліканская сухотная бальніца «Ваўковічы»", "latitude": 53.7692339, "longitude": 27.3904835, "source": "osm", "_tags": {"addr:postcode": "222750", "amenity": "hospital", "healthcare": "hospital", "name": "Рэспубліканская сухотная бальніца «Ваўковічы»", "name:be": "Рэспубліканская сухотная бальніца «Ваўковічы»", "name:ru": "Республиканская туберкулезная больница «Волковичи»", "official_name": "Городская туберкулезная больница"}}, {"name": "Петрышкаўскі дыспансер", "latitude": 54.0715115, "longitude": 27.2203802, "source": "osm", "_tags": {"addr:housenumber": "7А", "addr:street": "вуліца Гагарына", "amenity": "hospital", "building": "yes", "healthcare": "hospital", "name": "Петрышкаўскі дыспансер", "name:be": "Петрышкаўскі дыспансер", "name:ru": "Петришковская амбулатория"}}, {"name": "НПЦ хірургіі, транспланталогіі і гематалогіі", "latitude": 53.8606234, "longitude": 27.4945333, "source": "osm", "_tags": {"addr:housenumber": "8", "addr:street": "вуліца Сямашкі", "amenity": "hospital", "email": "mnpc.htg@mail.ru", "emergency": "yes", "healthcare": "hospital", "healthcare:speciality": "surgery;transplant;biological_haematology", "name": "НПЦ хірургіі, транспланталогіі і гематалогіі", "name:be": "НПЦ хірургіі, транспланталогіі і гематалогіі", "name:ru": "НПЦ хирургии, трансплантологии и гематологии", "opening_hours": "24/7", "operator": "ГУ «Минский научно-практический центр хирургии, трансплантологии и гематологии»", "phone": "+375 17 2771091", "website": "https://msth.by/"}}, {"name": "4-я гарадская дзіцячая клінічная бальніца", "latitude": 53.8607074, "longitude": 27.6328726, "source": "osm", "_tags": {"addr:housenumber": "24", "addr:street": "вуліца Шышкіна", "amenity": "hospital", "barrier": "fence", "email": "info@4gdkb.by", "emergency": "yes", "healthcare": "hospital", "name": "4-я гарадская дзіцячая клінічная бальніца", "name:be": "4-я гарадская дзіцячая клінічная бальніца", "name:ru": "4-я городская детская клиническая больница", "opening_hours": "24/7", "phone": "+375 17 3403772", "website": "https://www.4gdkb.by/"}}, {"name": "терапевтический корпус", "latitude": 53.6922653, "longitude": 27.1248497, "source": "osm", "_tags": {"amenity": "hospital", "building": "yes", "building:use": "medical", "healthcare": "hospital", "name": "терапевтический корпус"}}, {"name": "Амбулаторыя", "latitude": 53.6286647, "longitude": 27.2304963, "source": "osm", "_tags": {"addr:city": "Станькава", "addr:housenumber": "36А", "addr:street": "вуліца Марата Казея", "amenity": "hospital", "building": "hospital", "building:levels": "1", "healthcare": "hospital", "name": "Амбулаторыя", "name:be": "Амбулаторыя", "name:ru": "Амбулатория"}}, {"name": "Гарадскі клінічны радзільны дом №2", "latitude": 53.8962116, "longitude": 27.4793651, "source": "osm", "_tags": {"addr:street": "вуліца Бельскага", "amenity": "hospital", "barrier": "wall", "contact:instagram": "https://www.instagram.com/roddom2.minsk/", "email": "priemnaya@gor-roddom2.by", "emergency": "yes", "healthcare": "birthing_centre", "healthcare:speciality": "gynaecology", "name": "Гарадскі клінічны радзільны дом №2", "name:be": "Гарадскі клінічны радзільны дом №2", "name:ru": "Городской клинический родильный дом №2 г. Минска", "opening_hours": "24/7", "phone": "+375 17 3900642", "website": "https://gor-roddom2.by/"}}, {"name": "", "latitude": 54.2659261, "longitude": 27.1092791, "source": "osm", "_tags": {"amenity": "hospital", "healthcare": "hospital"}}, {"name": "Рэспубліканскі навукова-практычны цэнтр «Маці і дзіця»", "latitude": 53.9311393, "longitude": 27.5354298, "source": "osm", "_tags": {"addr:city": "Мінск", "addr:housenumber": "66", "addr:street": "Арлоўская вуліца", "alt_name": "ГУ «Республиканский научно-практический центр „Мать и дитя“»", "amenity": "hospital", "email": "sevenhos@mail.belpak.by", "emergency": "yes", "fax": "+375 17 3792584", "healthcare": "hospital", "healthcare:speciality": "obstetrics;gynaecology", "name": "Рэспубліканскі навукова-практычны цэнтр «Маці і дзіця»", "name:be": "Рэспубліканскі навукова-практычны цэнтр «Маці і дзіця»", "name:ru": "Республиканский научно-практический центр «Мать и дитя»", "office": "research", "official_name": "ГУ «Республиканский научно-практический центр «Мать и дитя»", "opening_hours": "24/7", "phone": "+375 17 2334272;+375 17 2335584", "short_name": "РНПЦ «Мать и дитя»", "website": "https://medcenter.by/"}}, {"name": "Каладзішчанскія паліклініка", "latitude": 53.9557291, "longitude": 27.7784499, "source": "osm", "_tags": {"addr:housenumber": "5", "addr:street": "Мінская вуліца", "amenity": "hospital", "contact:phone": "+375 17 5081139", "emergency": "yes", "healthcare": "hospital", "name": "Каладзішчанскія паліклініка", "name:be": "Каладзішчанскія паліклініка", "name:ru": "Колодищанская поликлиника", "operator": "УЗ «Минская ЦРБ»"}}, {"name": "Філіял № 1 Мінскай ЦРБ «Атолінская бальніца»", "latitude": 53.7887514, "longitude": 27.4279172, "source": "osm", "_tags": {"addr:housenumber": "22", "addr:postcode": "223011", "addr:street": "Заходняя вуліца", "amenity": "hospital", "emergency": "yes", "healthcare": "hospital", "name": "Філіял № 1 Мінскай ЦРБ «Атолінская бальніца»", "name:be": "Філіял № 1 Мінскай ЦРБ «Атолінская бальніца»", "name:ru": "Филиал № 1 Минской ЦРБ «Атолинская больница»", "name:uk": "Філія №1 Мінської ЦРЛ «Атолінська лікарня»", "operator": "Минской ЦРБ", "wheelchair": "yes"}}, {"name": "УАЗ «10 гарадская клінічная бальніца»", "latitude": 53.8381272, "longitude": 27.6564704, "source": "osm", "_tags": {"addr:housenumber": "73", "addr:street": "вуліца Убарэвіча", "amenity": "hospital", "email": "info@10gkb.by", "emergency": "yes", "healthcare": "hospital", "name": "УАЗ «10 гарадская клінічная бальніца»", "name:be": "УАЗ «10 гарадская клінічная бальніца»", "name:en": "UZ «10 city clinical hospital»", "name:ru": "УЗ «10 городская клиническая больница»", "opening_hours": "24/7", "phone": "+375 17 345-30-46", "website": "http://www.10gkb.by/"}}, {"name": "Рэспубліканскі навукова-практычны цэнтр пульманалогіі і фтызіятрыі", "latitude": 53.9619432, "longitude": 27.5264618, "source": "osm", "_tags": {"amenity": "hospital", "barrier": "wall", "contact:email": "info@rnpcpf.by", "contact:fax": "+375 17 2898950", "contact:phone": "+375 17 2898795", "contact:website": "http://rnpcpf.by", "emergency": "yes", "healthcare": "hospital", "healthcare:speciality": "pulmonology", "int_name": "Republican scienific-practical centre for pulmonology and tuberculosis", "name": "Рэспубліканскі навукова-практычны цэнтр пульманалогіі і фтызіятрыі", "name:be": "Рэспубліканскі навукова-практычны цэнтр пульманалогіі і фтызіятрыі", "name:ru": "ГУ «РНПЦ пульмонологии и фтизиатрии»", "name:uk": "ДУ «РНВЦ пульмонології та фтизіатрії»", "office": "research", "opening_hours": "24/7"}}, {"name": "Ваенны шпіталь МУС", "latitude": 53.9100516, "longitude": 27.5829855, "source": "osm", "_tags": {"amenity": "hospital", "healthcare": "hospital", "name": "Ваенны шпіталь МУС", "name:be": "Ваенны шпіталь МУС", "name:ru": "Военный госпиталь МВД"}}, {"name": "РНПЦ неўралогіі і нейрахірургіі", "latitude": 53.9230567, "longitude": 27.6773838, "source": "osm", "_tags": {"addr:city": "Мінск", "addr:city:ru": "Минск", "addr:country": "BY", "addr:housenumber": "24", "addr:street": "вуліца Францыска Скарыны", "amenity": "hospital", "email": "info@neuro.by", "emergency": "yes", "healthcare": "hospital", "healthcare:speciality": "neurosurgery;neurology", "name": "РНПЦ неўралогіі і нейрахірургіі", "name:be": "РНПЦ неўралогіі і нейрахірургіі", "name:ru": "РНПЦ неврологии и нейрохирургии", "office": "research", "opening_hours": "24/7", "phone": "+375 17 2727732", "website": "http://www.neuro.by/"}}, {"name": "Лагойская цэнтральная раённая бальніца", "latitude": 54.2061609, "longitude": 27.8510576, "source": "osm", "_tags": {"addr:housenumber": "35", "addr:postcode": "223141", "addr:street": "вуліца Перамогі", "amenity": "hospital", "email": "logoisk79@mail.ru", "healthcare": "hospital", "name": "Лагойская цэнтральная раённая бальніца", "name:be": "Лагойская цэнтральная раённая бальніца", "name:en": "Lahojsk central district hospital", "name:ru": "Логойская центральная районная больница", "phone": "+375(1774) 54692, +375(1774) 54-2-32", "short_name": "УЗ «Логойская ЦРБ»", "website": "http://www.polyclinic.by/", "wikidata": "Q92744427"}}, {"name": "11-я гарадская клінічная бальніца", "latitude": 53.8768579, "longitude": 27.5220158, "source": "osm", "_tags": {"addr:housenumber": "3Е", "addr:street": "Аўтадораўская вуліца", "amenity": "hospital", "check_date": "2024-07-11", "contact:instagram": "https://www.instagram.com/11gkbminskbelarus/", "email": "info@11gkb.by", "emergency": "yes", "healthcare": "hospital", "name": "11-я гарадская клінічная бальніца", "name:be": "11-я гарадская клінічная бальніца", "name:ru": "11-я городская клиническая больница (отделение микрохирургии глаза и хоспис)", "official_name": "УЗ \"11-я городская клиническая больница\"", "opening_hours": "24/7", "phone": "+375 17 3984453", "website": "http://11gkb.by/"}}, {"name": "Зазерская бальніца сястрынскага догляду", "latitude": 53.65797, "longitude": 27.8081437, "source": "osm", "_tags": {"addr:housenumber": "26А", "addr:street": "Паркавая вуліца", "amenity": "hospital", "building": "hospital", "building:levels": "1", "healthcare": "hospital", "name": "Зазерская бальніца сястрынскага догляду", "name:be": "Зазерская бальніца сястрынскага догляду", "name:ru": "Зазерская больница сестринского ухода"}}, {"name": "2-я гарадская дзіцячая клінічная бальніца", "latitude": 53.9325226, "longitude": 27.4820176, "source": "osm", "_tags": {"amenity": "hospital", "barrier": "fence", "email": "info@2gdkb.by", "emergency": "yes", "fax": "+375 17 3112900", "healthcare": "hospital", "healthcare:speciality": "pediatrics", "name": "2-я гарадская дзіцячая клінічная бальніца", "name:be": "2-я гарадская дзіцячая клінічная бальніца", "name:ru": "2-я городская детская клиническая больница", "official_name": "Установа аховы здароўя \"2-я гарадская дзіцячая клінічная бальніца\"", "official_name:be": "Установа аховы здароўя \"2-я гарадская дзіцячая клінічная бальніца\"", "official_name:ru": "Учреждение здравоохранения \"2-я городская детская клиническая больница\"", "opening_hours": "24/7", "phone": "+375 17 2545771;+375 17 2096836;+375 29 2723486", "ref": "2", "short_name": "2-я ГДКБ", "short_name:be": "2-я ГДКБ", "short_name:ru": "2-я ГДКБ", "start_date": "2004-12", "website": "https://www.2gdkb.by/"}}, {"name": "Мінскі гарадскі сацыяльны пансіянат Вяча", "latitude": 54.0713697, "longitude": 27.6688543, "source": "osm", "_tags": {"addr:city": "Астрашыцкі-Гарадок", "addr:housenumber": "1", "addr:postcode": "223054", "addr:street": "Сямёнаўская вуліца", "amenity": "hospital", "name": "Мінскі гарадскі сацыяльны пансіянат Вяча", "name:be": "Мінскі гарадскі сацыяльны пансіянат Вяча", "name:ru": "Минский городской социальный пансионат Вяча", "website": "http://vyacha.by/", "wheelchair": "yes"}}, {"name": "Крупіцкая ўрачэбная амбулаторыя", "latitude": 53.6796923, "longitude": 27.5254486, "source": "osm", "_tags": {"amenity": "hospital", "healthcare": "hospital", "name": "Крупіцкая ўрачэбная амбулаторыя", "name:be": "Крупіцкая ўрачэбная амбулаторыя", "name:ru": "Крупицкая врачебная амбулатория"}}, {"name": "Рэспубліканскі рэабілітацыйны цэнтр для дзяцей-інвалідаў", "latitude": 53.9391972, "longitude": 27.6220005, "source": "osm", "_tags": {"amenity": "hospital", "email": "rrcdi@tut.by", "emergency": "no", "fax": "+375 17 3745817", "healthcare": "rehabilitation", "healthcare:speciality": "physiatry", "name": "Рэспубліканскі рэабілітацыйны цэнтр для дзяцей-інвалідаў", "name:be": "Рэспубліканскі рэабілітацыйны цэнтр для дзяцей-інвалідаў", "name:ru": "Республиканский реабилитационный центр для детей-инвалидов", "opening_hours": "Mo-Fr 08:00-13:00,13:30-17:00", "phone": "+375 17 3745817", "social_facility:for": "disabled", "website": "http://www.reacenter.by/"}}, {"name": "Гарадскі клінічны скурна-венералагічны дыспансер", "latitude": 53.8833188, "longitude": 27.4965665, "source": "osm", "_tags": {"amenity": "hospital", "email": "info@kvd.by", "emergency": "yes", "healthcare": "hospital", "healthcare:speciality": "dermatovenereology", "name": "Гарадскі клінічны скурна-венералагічны дыспансер", "name:be": "Гарадскі клінічны скурна-венералагічны дыспансер", "name:ru": "Городской клинический кожно-венерологический диспансер", "phone": "+375 17 3727429", "website": "https://kvd.by/", "wheelchair": "yes"}}, {"name": "УАЗ «Гарадскі клінічны псіхіятрычны дыспансер г.Мінска»", "latitude": 53.8763721, "longitude": 27.6389197, "source": "osm", "_tags": {"addr:housenumber": "5", "addr:postcode": "220026", "addr:street": "вуліца Бехцерава", "amenity": "hospital", "email": "mail@mgkpd.by", "name": "УАЗ «Гарадскі клінічны псіхіятрычны дыспансер г.Мінска»", "name:be": "УАЗ «Гарадскі клінічны псіхіятрычны дыспансер г.Мінска»", "name:en": "UZ \"City clinical psychiatric dispensary of Minsk”", "name:ru": "УЗ “Городской клинический психиатрический диспансер г.Минска”", "name:uk": "УЗ «Міський клінічний психіатричний диспансер м. Мінська»", "opening_hours": "Mo-Fr 07:30-20:00; Sa 08:30-16:00", "phone": "+375 17 2953492", "website": "http://www.gkpd.by", "wheelchair": "limited", "wikidata": "Q85831746"}}, {"name": "Рэспубліканскі навукова-практычны цэнтр анкалогіі і медыцынскай радыялогіі ім. Н.М.Аляксандрава", "latitude": 54.007193, "longitude": 27.6972919, "source": "osm", "_tags": {"amenity": "hospital", "healthcare": "hospital", "name": "Рэспубліканскі навукова-практычны цэнтр анкалогіі і медыцынскай радыялогіі ім. Н.М.Аляксандрава", "name:be": "Рэспубліканскі навукова-практычны цэнтр анкалогіі і медыцынскай радыялогіі ім. Н.М.Аляксандрава", "name:ru": "Республиканский научно-практический центр онкологии и медицинской радиологии им. Н.Н.Александрова", "short_name": "РНПЦ ОМР", "website": "https://omr.by/", "wikidata": "Q30270101"}}, {"name": "Беларускі пратэзна-артапедычны аднаўленчы цэнтр", "latitude": 53.9062684, "longitude": 27.5093357, "source": "osm", "_tags": {"amenity": "hospital", "email": "minsk@bpovc.by", "emergency": "no", "fax": "+375 17 3081403", "healthcare": "rehabilitation", "healthcare:speciality": "physiatry", "name": "Беларускі пратэзна-артапедычны аднаўленчы цэнтр", "name:be": "Беларускі пратэзна-артапедычны аднаўленчы цэнтр", "name:ru": "Белорусский протезно-ортопедический восстановительный центр", "phone": "+375 17 3081400;+375 29 1700334", "website": "https://bpovc.by/"}}, {"name": "Мінскі гарадскі клінічны анкалагічны дыспансер", "latitude": 53.9182816, "longitude": 27.5983981, "source": "osm", "_tags": {"amenity": "hospital", "contact:email": "onko@mgkod.by", "contact:fax": "+375 17 3316197", "contact:mobile": "+375 44 7484800", "contact:phone": "+375 17 2924131, +375 17 2373290", "contact:website": "http://www.mgkod.by/", "contact:whatsapp": "+375 44 7480260", "healthcare": "hospital", "healthcare:speciality": "oncology", "name": "Мінскі гарадскі клінічны анкалагічны дыспансер", "name:be": "Мінскі гарадскі клінічны анкалагічны дыспансер", "name:en": "Minsk City Clinical Oncologic Dispensary", "name:ru": "Минский городской клинический онкодиспансер", "short_name": "МГКОД", "wikidata": "Q64567717"}}, {"name": "Абласны радзільны дом", "latitude": 53.9222652, "longitude": 27.6712276, "source": "osm", "_tags": {"addr:city": "Мінск", "addr:housenumber": "16", "addr:street": "вуліца Францыска Скарыны", "alt_name": "Областной родильный дом;Областной роддом", "amenity": "hospital", "email": "info@rdmo.by", "emergency": "yes", "fax": "+375 17 2670173", "healthcare": "birthing_centre", "healthcare:speciality": "gynaecology", "name": "Абласны радзільны дом", "name:be": "Абласны радзільны дом", "name:ru": "Родильный дом Минской области", "official_name": "Клинический родильный дом Минской области", "opening_hours": "24/7", "phone": "+375 17 2697203", "short_name": "УЗ «КРДМО»", "website": "https://krdmo.by/"}}, {"name": "Лячэбны корпус", "latitude": 53.7983677, "longitude": 27.6040405, "source": "osm", "_tags": {"amenity": "hospital", "healthcare": "hospital", "name": "Лячэбны корпус", "name:be": "Лячэбны корпус", "name:ru": "Лечебный корпус"}}, {"name": "Інфекцыйны", "latitude": 53.7982558, "longitude": 27.6052522, "source": "osm", "_tags": {"amenity": "hospital", "healthcare": "hospital", "name": "Інфекцыйны", "name:be": "Інфекцыйны", "name:ru": "Инфекционный"}}, {"name": "Морг", "latitude": 53.7990096, "longitude": 27.6045872, "source": "osm", "_tags": {"amenity": "hospital", "healthcare": "hospital", "name": "Морг", "name:be": "Морг", "name:ru": "Морг"}}, {"name": "РНПЦ Псіхічнага здароўя", "latitude": 53.9548805, "longitude": 27.5429689, "source": "osm", "_tags": {"addr:city": "Мінск", "addr:housenumber": "152", "addr:postcode": "220053", "addr:street": "Даўгінаўскі тракт", "amenity": "hospital", "email": "rnpc@mentalhealth.by", "emergency": "yes", "fax": "+375 17 2898048", "healthcare": "hospital", "healthcare:speciality": "psychiatry", "name": "РНПЦ Псіхічнага здароўя", "name:be": "РНПЦ Псіхічнага здароўя", "name:en": "Republican Scientific and Practical Center for Mental Health", "name:ru": "РНПЦ психического здоровья", "office": "research", "opening_hours": "24/7", "phone": "+375 17 2898046", "website": "https://www.mentalhealth.by/"}}, {"name": "РНПЦ Отарыналарынгалогіі", "latitude": 53.9037486, "longitude": 27.5369963, "source": "osm", "_tags": {"amenity": "hospital", "email": "rnpc@lor.by", "emergency": "no", "fax": "+375 17 2588684", "healthcare": "hospital", "healthcare:speciality": "otolaryngology", "name": "РНПЦ Отарыналарынгалогіі", "name:be": "РНПЦ Отарыналарынгалогіі", "name:ru": "РНПЦ Оториноларингологии", "office": "research", "phone": "+375 17 2588684", "website": "https://www.lor.by/", "wikidata": "Q103934103"}}, {"name": "РНПЦ Кардыялогія", "latitude": 53.8913728, "longitude": 27.5158971, "source": "osm", "_tags": {"addr:city": "Мінск", "addr:country": "BY", "addr:housenumber": "110Б", "addr:postcode": "220036", "addr:street": "вуліца Розы Люксембург", "amenity": "hospital", "email": "info@cardio.by", "emergency": "yes", "healthcare": "hospital", "healthcare:speciality": "cardiology;cardiothoracic_surgery", "internet_access": "wlan", "name": "РНПЦ Кардыялогія", "name:be": "РНПЦ Кардыялогія", "name:en": "RSPC Cardiology", "name:ru": "РНПЦ Кардиология", "office": "research", "opening_hours": "24/7", "phone": "+375 17 2073762", "website": "https://www.cardio.by/", "wheelchair": "yes", "wikidata": "Q30274259"}}, {"name": "Мінскі гарадскі цэнтр медыцынскай рэабілітацыі дзяцей з псіханеўралагічнымі захворваннямі", "latitude": 53.8995233, "longitude": 27.550581, "source": "osm", "_tags": {"amenity": "hospital", "email": "mccmr@mail.ru", "emergency": "no", "fax": "+375 17 3654996", "healthcare": "hospital", "healthcare:speciality": "neuropsychiatry", "name": "Мінскі гарадскі цэнтр медыцынскай рэабілітацыі дзяцей з псіханеўралагічнымі захворваннямі", "name:be": "Мінскі гарадскі цэнтр медыцынскай рэабілітацыі дзяцей з псіханеўралагічнымі захворваннямі", "name:ru": "Минский городской центр медицинской реабилитации детей с психоневрологическими заболеваниями", "phone": "+375 17 3275506", "website": "firststep.by"}}, {"name": "Заслаўская гарадская бальніца (тэрапеўтычнае аддзяленне №2)", "latitude": 53.9998725, "longitude": 27.2967964, "source": "osm", "_tags": {"amenity": "hospital", "healthcare": "hospital", "name": "Заслаўская гарадская бальніца (тэрапеўтычнае аддзяленне №2)", "name:be": "Заслаўская гарадская бальніца (тэрапеўтычнае аддзяленне №2)", "name:ru": "Заславльская городская больница (терапевтическое отделение №2)"}}, {"name": "", "latitude": 53.933364, "longitude": 27.5990374, "source": "osm", "_tags": {"amenity": "hospital", "barrier": "fence", "fence_type": "chain_link"}}, {"name": "Ракаўская ўчастковая бальніца", "latitude": 53.9592403, "longitude": 27.0479027, "source": "osm", "_tags": {"amenity": "hospital", "barrier": "fence", "name": "Ракаўская ўчастковая бальніца", "name:be": "Ракаўская ўчастковая бальніца", "name:ru": "Раковская участковая больница"}}, {"name": "Цэнтр рэабілітацыі інвалідаў", "latitude": 53.9277274, "longitude": 27.7520224, "source": "osm", "_tags": {"addr:housenumber": "1А", "addr:street": "Спартыўная вуліца", "amenity": "hospital", "healthcare": "hospital", "name": "Цэнтр рэабілітацыі інвалідаў", "name:be": "Цэнтр рэабілітацыі інвалідаў", "name:ru": "Центр реабилитации инвалидов"}}, {"name": "", "latitude": 53.8377593, "longitude": 27.6560258, "source": "osm", "_tags": {"addr:city": "Мінск", "addr:housenumber": "73 к1", "addr:street": "вуліца Убарэвіча", "amenity": "hospital", "building": "hospital", "healthcare": "hospital", "roof:colour": "black", "roof:material": "tar_paper", "roof:shape": "flat"}}, {"name": "Гарадская паліклініка #27", "latitude": 53.9477106, "longitude": 27.6299725, "source": "osm", "_tags": {"amenity": "hospital", "emergency": "no", "healthcare": "clinic", "name": "Гарадская паліклініка #27", "name:be": "Гарадская паліклініка #27", "name:ru": "27 Городская поликлиника"}}, {"name": "УАЗ «Уздзенская цэнтральная раённая бальніца»", "latitude": 53.4711631, "longitude": 27.2076293, "source": "osm", "_tags": {"addr:postcode": "223411", "addr:street": "вуліца Навіцкага", "amenity": "hospital", "barrier": "fence", "healthcare": "hospital", "name": "УАЗ «Уздзенская цэнтральная раённая бальніца»", "name:be": "УАЗ «Уздзенская цэнтральная раённая бальніца»", "name:ru": "УЗ «Узденская центральная районная больница»"}}, {"name": "Рэспубліканскі клінічны медыцынскі цэнтр", "latitude": 53.9611745, "longitude": 27.4360474, "source": "osm", "_tags": {"amenity": "hospital", "healthcare": "hospital", "name": "Рэспубліканскі клінічны медыцынскі цэнтр", "name:be": "Рэспубліканскі клінічны медыцынскі цэнтр", "name:ru": "Республиканский клинический медицинский центр"}}, {"name": "Паліклініка", "latitude": 54.1525424, "longitude": 27.2539955, "source": "osm", "_tags": {"amenity": "hospital", "name": "Паліклініка", "name:be": "Паліклініка", "name:ru": "Поликлиника"}}, {"name": "", "latitude": 53.4661288, "longitude": 26.966054, "source": "osm", "_tags": {"addr:housenumber": "10", "addr:street": "Школьная вуліца", "amenity": "hospital", "building": "yes", "healthcare": "hospital"}}, {"name": "Дзіцячы шпіталь №3", "latitude": 53.849794, "longitude": 27.5342681, "source": "osm", "_tags": {"amenity": "hospital", "email": "info@3gdkb.by", "emergency": "yes", "fax": "+375 17 3739424", "healthcare": "hospital", "healthcare:speciality": "paediatrics", "name": "Дзіцячы шпіталь №3", "name:be": "Дзіцячы шпіталь №3", "name:en": "Children's hospital #3", "name:ru": "Детская больница №3", "opening_hours": "24/7", "phone": "+375 17 3739424", "website": "https://3gdkb.by/", "wikidata": "Q103932035"}}, {"name": "РНПЦ траўматалогіі і артапедыі", "latitude": 53.8527874, "longitude": 27.5306461, "source": "osm", "_tags": {"amenity": "hospital", "emergency": "yes", "healthcare": "hospital", "healthcare:speciality": "trauma;orthopaedics", "name": "РНПЦ траўматалогіі і артапедыі", "name:be": "РНПЦ траўматалогіі і артапедыі", "name:en": "RSPC for traumatology and orthopedics", "name:ru": "РНПЦ травматологии и ортопедии", "short_name": "РНПЦ ТиО", "wheelchair": "yes"}}, {"name": "УАЗ «Бальніца сястрынскага догляду в. Цялякова»", "latitude": 53.5245829, "longitude": 27.3963668, "source": "osm", "_tags": {"amenity": "hospital", "emergency": "no", "healthcare": "hospital", "name": "УАЗ «Бальніца сястрынскага догляду в. Цялякова»", "name:be": "УАЗ «Бальніца сястрынскага догляду в. Цялякова»", "name:ru": "УЗ «Больница сестринского ухода д.Теляково»"}}, {"name": "Фрунзенская ўчастковая бальніца", "latitude": 53.8027459, "longitude": 27.2410249, "source": "osm", "_tags": {"amenity": "hospital", "name": "Фрунзенская ўчастковая бальніца", "name:be": "Фрунзенская ўчастковая бальніца", "name:ru": "Фрунзенская участковая больница"}}, {"name": "", "latitude": 54.0029588, "longitude": 27.2784228, "source": "osm", "_tags": {"amenity": "hospital", "healthcare": "hospital"}}, {"name": "", "latitude": 53.9342477, "longitude": 27.634662, "source": "osm", "_tags": {"amenity": "hospital", "healthcare": "hospital"}}, {"name": "Рэспубліканская клінічная бальніца медыцынскай рэабілітацыі Аксакаўшчына", "latitude": 53.9519866, "longitude": 27.0981626, "source": "osm", "_tags": {"addr:housenumber": "1", "addr:street": "Рачная вуліца", "amenity": "hospital", "healthcare": "hospital", "name": "Рэспубліканская клінічная бальніца медыцынскай рэабілітацыі Аксакаўшчына", "name:be": "Рэспубліканская клінічная бальніца медыцынскай рэабілітацыі Аксакаўшчына", "name:en": "Republican Clinical Hospital for Medical Rehabilitation", "name:ru": "Республиканская клиническая больница медицинской реабилитации", "phone": "+375 17 5097562", "website": "https://aksakovschina.by"}}, {"name": "Шацкая ўчастковая бальніца", "latitude": 53.4343866, "longitude": 27.6866997, "source": "osm", "_tags": {"addr:city": "Шацк", "addr:housenumber": "5", "addr:postcode": "222824", "addr:street": "Школьная вуліца", "amenity": "hospital", "barrier": "fence", "healthcare": "hospital", "name": "Шацкая ўчастковая бальніца", "name:be": "Шацкая ўчастковая бальніца", "name:ru": "Шацкая участковая больница", "operator": "УЗ \"Марьиногорская центральная районная больница\"", "phone": "8 017 13 33 237", "surface": "grass"}}, {"name": "", "latitude": 53.6332154, "longitude": 27.3742452, "source": "osm", "_tags": {"amenity": "hospital", "healthcare": "hospital"}}, {"name": "", "latitude": 53.8499985, "longitude": 27.5317649, "source": "osm", "_tags": {"amenity": "hospital", "emergency": "no", "healthcare": "hospital", "healthcare:speciality": "pathology;clinical_pathology", "name:be": "Патолагаанатамічные аддзяленне дзіцячай паталогіі", "name:en": "Pediatric pathology department", "name:ru": "Патологоанатомическое отделение детской патологии", "operator": "УЗ \"Городское клиническое патологоанатомическое бюро\"", "operator:type": "state_primary_health_care", "website": "https://gkpbminsk.by/"}}, {"name": "", "latitude": 53.8762988, "longitude": 26.9551077, "source": "osm", "_tags": {"amenity": "hospital", "healthcare": "hospital"}}, {"name": "", "latitude": 53.7433686, "longitude": 27.1171911, "source": "osm", "_tags": {"amenity": "hospital", "barrier": "fence", "healthcare": "hospital"}}, {"name": "", "latitude": 53.960603, "longitude": 27.6670332, "source": "osm", "_tags": {"addr:city": "Копішча", "addr:housenumber": "6", "addr:postcode": "220082", "addr:street": "вуліца Братоў Райт", "amenity": "hospital", "healthcare": "hospital"}}, {"name": "", "latitude": 53.933628, "longitude": 27.6335293, "source": "osm", "_tags": {"amenity": "hospital", "healthcare": "hospital"}}, {"name": "", "latitude": 54.2659261, "longitude": 27.1092791, "source": "osm", "_tags": {"addr:housenumber": "3", "addr:street": "Садовая вуліца", "amenity": "hospital", "building": "yes", "healthcare": "hospital", "type": "multipolygon"}}, {"name": "Рэспубліканскі навукова-практычны цэнтр медыцынскай экспертызы і рэабілітацыі", "latitude": 53.9752128, "longitude": 27.8437536, "source": "osm", "_tags": {"amenity": "hospital", "healthcare": "hospital", "name": "Рэспубліканскі навукова-практычны цэнтр медыцынскай экспертызы і рэабілітацыі", "name:be": "Рэспубліканскі навукова-практычны цэнтр медыцынскай экспертызы і рэабілітацыі", "name:ru": "Республиканский научно-практический центр медицинской экспертизы и реабилитации", "resort": "sanatorium", "type": "multipolygon"}}, {"name": "Мінская абласная клінічная бальніца", "latitude": 54.0038568, "longitude": 27.6893782, "source": "osm", "_tags": {"addr:housenumber": "1", "addr:place": "Лясны", "amenity": "hospital", "healthcare": "hospital", "name": "Мінская абласная клінічная бальніца", "name:be": "Мінская абласная клінічная бальніца", "name:en": "Minsk regional clinical hospital", "name:ru": "Минская областная клиническая больница", "opening_hours": "24/7", "type": "multipolygon", "website": "https://minsk-okb.by/", "wikidata": "Q104029308"}}, {"name": "2-я гарадская клінічная бальніца", "latitude": 53.8977005, "longitude": 27.5669714, "source": "osm", "_tags": {"amenity": "hospital", "email": "official@2gkb.by", "emergency": "yes", "healthcare": "hospital", "name": "2-я гарадская клінічная бальніца", "name:be": "2-я гарадская клінічная бальніца", "name:ru": "2-я городская клиническая больница", "opening_hours": "24/7", "phone": "+375 17 3273205", "type": "multipolygon", "website": "https://2gkb.by/", "wikidata": "Q4029876", "wikipedia": "ru:2-я городская клиническая больница"}}, {"name": "Гарадская гінекалагічная бальніца", "latitude": 53.8752479, "longitude": 27.5516567, "source": "osm", "_tags": {"amenity": "hospital", "barrier": "fence", "email": "info@ggb.by", "emergency": "yes", "healthcare": "hospital", "healthcare:speciality": "gynaecology", "name": "Гарадская гінекалагічная бальніца", "name:be": "Гарадская гінекалагічная бальніца", "name:ru": "Городская гинекологическая больница", "opening_hours": "24/7", "phone": "+375 17 2206984", "type": "multipolygon", "website": "http://ggb.by/"}}]