[{"name": "Przychodnia Ramed. NZPOZ", "latitude": 53.9857299, "longitude": 20.3891101, "source": "osm", "_tags": {"amenity": "doctors", "healthcare": "hospital", "name": "Przychodnia Ramed. NZPOZ"}}, {"name": "Miejski Szpital Zespolony w Olsztynie", "latitude": 53.7698945, "longitude": 20.4786807, "source": "osm", "_tags": {"amenity": "hospital", "healthcare": "hospital", "name": "Miejski Szpital Zespolony w Olsztynie", "website": "https://www.szpital.olsztyn.pl/"}}, {"name": "Niepubliczny Zakład Opieki Zdrowotnej Sopat", "latitude": 53.6968229, "longitude": 19.963015, "source": "osm", "_tags": {"addr:city": "Ostróda", "addr:housenumber": "2", "addr:postcode": "14-100", "addr:street": "Tadeusza Kościuszki", "amenity": "clinic", "building": "yes", "building:levels": "4", "healthcare": "hospital", "name": "Niepubliczny Zakład Opieki Zdrowotnej Sopat", "phone": "+48 89 642 19 05", "source:building": "BDOT", "website": "https://sopat.ostroda.pl/"}}, {"name": "Samodzielny Publiczny Zespół Gruźlicy i Chorób Płuc, Szpital Położniczo-Ginekologiczny", "latitude": 53.8017524, "longitude": 20.5094027, "source": "osm", "_tags": {"amenity": "hospital", "healthcare": "hospital", "name": "Samodzielny Publiczny Zespół Gruźlicy i Chorób Płuc, Szpital Położniczo-Ginekologiczny", "old_name:de": "Lungenheilstätte"}}, {"name": "Samodzielny Publiczny Zakład Opieki Zdrowotnej MSWiA z Warmińsko-Mazurskim Centrum Onkologii", "latitude": 53.7938898, "longitude": 20.484301, "source": "osm", "_tags": {"amenity": "hospital", "healthcare": "hospital", "healthcare:speciality": "oncology", "name": "Samodzielny Publiczny Zakład Opieki Zdrowotnej MSWiA z Warmińsko-Mazurskim Centrum Onkologii"}}, {"name": "Wojewódzki Szpital Specjalistyczny w Olsztynie", "latitude": 53.768916, "longitude": 20.4925651, "source": "osm", "_tags": {"amenity": "hospital", "healthcare": "hospital", "name": "Wojewódzki Szpital Specjalistyczny w Olsztynie"}}, {"name": "Uniwersytecki Szpital Kliniczny", "latitude": 53.7729913, "longitude": 20.4703465, "source": "osm", "_tags": {"addr:city": "Olsztyn", "addr:housenumber": "30", "addr:street": "Aleja Warszawska", "amenity": "hospital", "healthcare": "hospital", "name": "Uniwersytecki Szpital Kliniczny"}}, {"name": "Szpital Powiatowy im. Marii Skłodowskiej-Curie w Lidzbarku Warmińskim", "latitude": 54.1262807, "longitude": 20.5914693, "source": "osm", "_tags": {"addr:city": "Lidzbark Warmiński", "addr:city:simc": "0964732", "addr:housenumber": "3", "addr:postcode": "11-100", "addr:street": "Bartoszycka", "addr:street:sym_ul": "00821", "amenity": "hospital", "healthcare": "hospital", "healthcare:speciality": "general", "name": "Szpital Powiatowy im. Marii Skłodowskiej-Curie w Lidzbarku Warmińskim", "phone": "+48 89 767 22 71", "website": "https://www.zozlw.pl/szpital-powiatowy-im--marii-sklodowskiej-curie-ul--bartoszycka-3--11-100-lidzbark-warminski"}}, {"name": "Szpital w Ostródzie S.A.", "latitude": 53.6928305, "longitude": 19.974482, "source": "osm", "_tags": {"addr:city": "Ostróda", "addr:city:simc": "0964927", "addr:housenumber": "1", "addr:postcode": "14-100", "addr:street": "Władysława Jagiełły", "amenity": "hospital", "building": "yes", "building:levels": "4", "healthcare": "hospital", "healthcare:speciality": "general;orthopaedics;gynaecology;surgery;internal;intensive", "name": "Szpital w Ostródzie S.A.", "source:addr": "gugik.gov.pl"}}, {"name": "Oddział Zakaźny", "latitude": 53.6931089, "longitude": 19.9755818, "source": "osm", "_tags": {"addr:city": "Ostróda", "addr:housenumber": "1", "addr:postcode": "14-100", "addr:street": "Władysława Jagiełły", "amenity": "hospital", "building": "yes", "healthcare": "hospital", "name": "Oddział Zakaźny", "operator": "Szpital w Ostródzie S.A.", "operator:type": "public"}}, {"name": "Wojewódzki Szpital Rehabilitacyjny w Górowie Iławeckim", "latitude": 54.2841825, "longitude": 20.4973502, "source": "osm", "_tags": {"amenity": "hospital", "email": "sekretariat@szpitalgorowo.pl", "name": "Wojewódzki Szpital Rehabilitacyjny w Górowie Iławeckim", "phone": "+48 89 762 70 70", "website": "https://www.szpitalgorowo.pl/"}}, {"name": "Powiatowy Szpital Pomocy Maltańskiej", "latitude": 53.8291502, "longitude": 20.6950995, "source": "osm", "_tags": {"addr:city": "Barczewo", "addr:housenumber": "9", "addr:postcode": "11-010", "addr:street": "Niepodległości", "amenity": "hospital", "building": "yes", "healthcare": "hospital", "name": "Powiatowy Szpital Pomocy Maltańskiej"}}, {"name": "Wojewódzki Szpital Rehabilitacyjny dla Dzieci w Ameryce", "latitude": 53.6172256, "longitude": 20.317948, "source": "osm", "_tags": {"addr:city": "Olsztynek", "addr:housenumber": "21", "addr:postcode": "11-015", "addr:street": "Ameryka", "amenity": "hospital", "healthcare": "hospital", "name": "Wojewódzki Szpital Rehabilitacyjny dla Dzieci w Ameryce"}}, {"name": "Rehabilitacja", "latitude": 53.6932262, "longitude": 19.9760786, "source": "osm", "_tags": {"addr:city": "Ostróda", "addr:housenumber": "1", "addr:postcode": "14-100", "addr:street": "Władysława Jagiełły", "amenity": "hospital", "building": "yes", "healthcare": "hospital", "name": "Rehabilitacja", "operator": "Szpital w Ostródzie S.A.", "operator:type": "public"}}, {"name": "Szpital w Ostródzie S.A.", "latitude": 53.692677, "longitude": 19.9748456, "source": "osm", "_tags": {"addr:city": "Ostróda", "addr:housenumber": "1", "addr:postcode": "14-100", "addr:street": "Władysława Jagiełły", "amenity": "hospital", "emergency": "yes", "healthcare": "hospital", "name": "Szpital w Ostródzie S.A."}}, {"name": "Wojewódzki Specjalistyczny Szpital Dziecięcy w Olsztynie", "latitude": 53.7681145, "longitude": 20.4957573, "source": "osm", "_tags": {"amenity": "hospital", "healthcare": "hospital", "name": "Wojewódzki Specjalistyczny Szpital Dziecięcy w Olsztynie"}}, {"name": "Miejski Szpital Zespolony w Olsztynie - Filia", "latitude": 53.7987069, "longitude": 20.4832648, "source": "osm", "_tags": {"amenity": "hospital", "healthcare": "hospital", "name": "Miejski Szpital Zespolony w Olsztynie - Filia"}}, {"name": "Wojewódzki Zespół Lecznictwa Psychiatrycznego", "latitude": 53.7949658, "longitude": 20.483817, "source": "osm", "_tags": {"amenity": "hospital", "healthcare": "hospital", "name": "Wojewódzki Zespół Lecznictwa Psychiatrycznego"}}, {"name": "", "latitude": 53.7892096, "longitude": 20.4412808, "source": "osm", "_tags": {"amenity": "hospital", "healthcare": "hospital"}}, {"name": "", "latitude": 54.3869524, "longitude": 20.6471608, "source": "osm", "_tags": {"amenity": "hospital", "source:geometry": "ЕГРН"}}, {"name": "Szpital Powiatowy im. Jana Pawła II w Bartoszycach", "latitude": 54.2585737, "longitude": 20.7924171, "source": "osm", "_tags": {"addr:city": "Bartoszyce", "addr:city:simc": "0964583", "addr:housenumber": "11", "addr:postcode": "11-200", "addr:street": "Kardynała Stefana Wyszyńskiego", "addr:street:sym_ul": "25103", "amenity": "hospital", "building": "yes", "building:levels": "1", "healthcare": "hospital", "name": "Szpital Powiatowy im. Jana Pawła II w Bartoszycach", "phone": "+48 89 675 23 60", "source:addr": "emuia.gugik.gov.pl", "source:building": "BDOT", "source:geometry": "EGiB", "type": "multipolygon", "website": "https://www.szpital-bartoszyce.pl/"}}]