[{"name": "Szpital w Kwidzynie", "latitude": 53.7272077, "longitude": 18.9208011, "source": "osm", "_tags": {"addr:city": "Kwidzyn", "addr:housenumber": "31", "addr:postcode": "82-500", "addr:street": "Generała Józefa Hallera", "amenity": "hospital", "check_date": "2024-07-05", "emergency": "yes", "healthcare": "hospital", "name": "Szpital w Kwidzynie", "operator": "NZOZ Zdrowie Sp. z o.o."}}, {"name": "Centrum Medyczne Smoluchowskiego", "latitude": 54.3642847, "longitude": 18.6175719, "source": "osm", "_tags": {"amenity": "hospital", "healthcare": "hospital", "name": "Centrum Medyczne Smoluchowskiego", "operator": "Szpitale Pomorskie Sp. z o.o."}}, {"name": "Uniwersyteckie Centrum Kliniczne", "latitude": 54.3657959, "longitude": 18.6227207, "source": "osm", "_tags": {"addr:city": "Gdańsk", "addr:housenumber": "7", "addr:postcode": "80-952", "addr:street": "Dębinki", "amenity": "hospital", "emergency": "yes", "healthcare": "hospital", "name": "Uniwersyteckie Centrum Kliniczne", "old_name:de": "Städtisches Krankenhaus Danzig-Langfuhr", "old_name:pl:1954-2002": "Państwowy Szpital Kliniczny nr 1", "old_name:pl:2002-2009": "Akademickie Centrum Kliniczne Akademii Medycznej", "short_name": "UCK", "wikidata": "Q9366804", "wikipedia": "pl:Uniwersyteckie Centrum Kliniczne w Gdańsku"}}, {"name": "Regionalny Szpital Specjalistyczny im. doktora Władysława Biegańskiego", "latitude": 53.4527743, "longitude": 18.7863223, "source": "osm", "_tags": {"addr:city": "Grudziądz", "addr:housenumber": "15-17", "addr:street": "Doktora Ludwika Rydygiera", "amenity": "hospital", "contact:phone": "+48 56 641 44 44", "emergency": "yes", "healthcare": "hospital", "loc_name": "Biegański", "name": "Regionalny Szpital Specjalistyczny im. doktora Władysława Biegańskiego", "website": "https://bieganski.org/"}}, {"name": "Szpital Dziecięcy Polanki", "latitude": 54.3952708, "longitude": 18.5626194, "source": "osm", "_tags": {"addr:city": "Gdańsk", "addr:country": "PL", "addr:housenumber": "119", "addr:postcode": "80-308", "addr:street": "Polanki", "amenity": "hospital", "emergency": "yes", "healthcare": "hospital", "name": "Szpital Dziecięcy Polanki", "official_name": "Szpital Dziecięcy Polanki im. Macieja Płażyńskiego", "website": "https://www.szpitalpolanki.pl/"}}, {"name": "Pomorskie Centrum Rehabilitacji - Szpital w Dzierżążnie", "latitude": 54.3281243, "longitude": 18.2627847, "source": "osm", "_tags": {"addr:city": "Dzierżążno", "addr:city:simc": "0163104", "addr:housename": "Pomorskie Centrum Rehabilitacji - Szpital w Dzierżążnie", "addr:housenumber": "36", "addr:postcode": "83-332", "addr:street": "Szpitalna", "addr:street:sym_ul": "22073", "amenity": "hospital", "barrier": "fence", "emergency": "no", "healthcare": "rehabilitation", "healthcare:speciality": "medical_rehabilitation", "name": "Pomorskie Centrum Rehabilitacji - Szpital w Dzierżążnie", "phone": "+48 586871900", "website": "https://szpital-koscierzyna.pl/index.php/pl/dzierzazno", "wheelchair": "yes"}}, {"name": "Zakład Opiekuńczo Lecniczy - Hospicjum", "latitude": 54.085289, "longitude": 18.7983641, "source": "osm", "_tags": {"addr:city": "Tczew", "addr:housenumber": "11", "addr:postcode": "83-110", "addr:street": "Ignacego Jana Paderewskiego", "amenity": "hospital", "building": "hospital", "building:levels": "3", "emergency": "no", "healthcare": "hospital", "healthcare:speciality": "internal", "name": "Zakład Opiekuńczo Lecniczy - Hospicjum", "operator": "Szpitale Tczewskie", "source": "www.geoportal.gov.pl", "source:addr": "mtczew.punktyadresowe.pl"}}, {"name": "Szpital dla Nerwowo i Psychicznie Chorych im. Stanisława Kryzana", "latitude": 53.9795208, "longitude": 18.5091447, "source": "osm", "_tags": {"addr:city": "Starogard Gdański", "addr:housenumber": "7", "addr:postcode": "83-200", "addr:street": "Skarszewska", "amenity": "hospital", "healthcare": "hospital", "name": "Szpital dla Nerwowo i Psychicznie Chorych im. Stanisława Kryzana"}}, {"name": "Wojewódzki Szpital Psychiatryczny im. Tadeusza Bilikiewicza", "latitude": 54.3756994, "longitude": 18.5757353, "source": "osm", "_tags": {"addr:city": "Gdańsk", "addr:housenumber": "17", "addr:postcode": "80-282", "addr:street": "Srebrniki", "amenity": "hospital", "healthcare": "hospital", "name": "Wojewódzki Szpital Psychiatryczny im. Tadeusza Bilikiewicza"}}, {"name": "Szpital Powiatowy w Tczewie", "latitude": 54.0832301, "longitude": 18.789558, "source": "osm", "_tags": {"amenity": "hospital", "healthcare": "hospital", "name": "Szpital Powiatowy w Tczewie", "operator": "Szpitale Tczewskie"}}, {"name": "Szpital Św. Wojciecha", "latitude": 54.4026377, "longitude": 18.6134649, "source": "osm", "_tags": {"addr:city": "Gdańsk", "addr:housenumber": "50", "addr:postcode": "80-462", "addr:street": "Aleja Jana Pawła II", "amenity": "hospital", "emergency": "yes", "healthcare": "hospital", "name": "Szpital Św. Wojciecha", "name:etymology:wikidata": "Q243427", "operator": "Copernicus Podmiot Leczniczy Sp. z o. o.", "wheelchair": "yes"}}, {"name": "Szpital im. Mikołaja Kopernika", "latitude": 54.3507351, "longitude": 18.6386183, "source": "osm", "_tags": {"amenity": "hospital", "contact:email": "sekretariat.kopernik@copernicus.gda.pl", "contact:phone": "+48 58 7640100", "healthcare": "hospital", "name": "Szpital im. Mikołaja Kopernika", "name:etymology:wikidata": "Q619", "old_name": "1956-2007 Szpital Wojewódzki im. Mikołaja Kopernika;Pomorskie Centrum Traumatologii im. Mikołaja Kopernika", "operator": "Copernicus Podmiot Leczniczy Sp. z o. o.", "operator:centre": "Szpital im. Mikołaja Kopernika", "website": "https://copernicus.gda.pl"}}, {"name": "Szpital MSWiA", "latitude": 54.3502802, "longitude": 18.6358956, "source": "osm", "_tags": {"amenity": "hospital", "healthcare": "hospital", "name": "Szpital MSWiA", "official_name": "Samodzielny Publiczny Zakład Opieki Zdrowotnej Ministerstwa Spraw Wewnętrznych i Administracji w Gdańsku"}}, {"name": "Szpital im. Mikołaja Kopernika", "latitude": 54.3519941, "longitude": 18.6356627, "source": "osm", "_tags": {"amenity": "hospital", "contact:email": "sekretariat.kopernik@copernicus.gda.pl", "contact:phone": "+48 58 7640100", "emergency": "yes", "healthcare": "hospital", "loc_name": "Szpital Kolejowy", "name": "Szpital im. Mikołaja Kopernika", "name:etymology:wikidata": "Q619", "old_name": "Okręgowy Szpital Kolejowy", "operator": "Copernicus Podmiot Leczniczy Sp. z o. o.", "operator:centre": "Szpital im. Mikołaja Kopernika", "website": "https://copernicus.gda.pl"}}, {"name": "7 Szpital Marynarki Wojennej", "latitude": 54.3928463, "longitude": 18.5663543, "source": "osm", "_tags": {"amenity": "hospital", "email": "sekretariat@7szmw.pl", "emergency": "yes", "healthcare": "hospital", "name": "7 Szpital Marynarki Wojennej", "phone": "+48 58 552 63 18", "website": "7szmw.pl", "wikidata": "Q64554184"}}, {"name": "Szpital św. Jana", "latitude": 53.9678798, "longitude": 18.5075958, "source": "osm", "_tags": {"amenity": "hospital", "contact:email": "sekretariat@szpital-starogard.pl", "contact:phone": "+48 58 5623031", "healthcare": "hospital", "name": "Szpital św. Jana", "operator": "Kociewskie Centrum Zdrowia Sp. z o.o.", "website": "https://www.szpital-starogard.pl/"}}, {"name": "Szpital Powiatowy im. Aleksandra Majkowskiego w Kartuzach", "latitude": 54.3368244, "longitude": 18.1972013, "source": "osm", "_tags": {"addr:city": "Kartuzy", "addr:housenumber": "7", "addr:postcode": "83-300", "addr:street": "Floriana Ceynowy", "amenity": "hospital", "email": "sekretariat@pczkartuzy.pl", "emergency": "yes", "healthcare": "hospital", "name": "Szpital Powiatowy im. Aleksandra Majkowskiego w Kartuzach", "phone": "+48 58 685 48 00", "website": "http://www.pczkartuzy.pl/"}}, {"name": "Szpital Jednodniowy im. dr. Michała Pawlaka", "latitude": 54.3470051, "longitude": 18.5097784, "source": "osm", "_tags": {"addr:city": "Gdańsk", "addr:housenumber": "15C", "addr:postcode": "80-178", "addr:street": "Otomińska", "amenity": "hospital", "emergency": "no", "healthcare": "hospital", "healthcare:speciality": "orthopaedics;surgery;ophthalmology", "name": "Szpital Jednodniowy im. dr. Michała Pawlaka", "operator": "Nadmorskie Centrum Medyczne Sp. z o.o.", "operator:type": "private", "phone": "+48 58 763 94 94", "website": "https://ncm.com.pl/szpital"}}, {"name": "Szpital Specjalistyczny w Kościerzynie", "latitude": 54.1218643, "longitude": 17.9500474, "source": "osm", "_tags": {"addr:city": "Kościerzyna", "addr:housenumber": "36", "addr:postcode": "83-400", "addr:street": "Alojzego Piechowskiego", "amenity": "hospital", "contact:facebook": "SzpitalSpecjalistycznywKoscierzynie", "contact:youtube": "https://www.youtube.com/channel/UCtSrK0t-WD6JO-jl4mKfYkA", "email": "sekretariat@szpital.koscierzyna.pl", "emergency": "yes", "healthcare": "hospital", "name": "Szpital Specjalistyczny w Kościerzynie", "name:en": "Specialist Hospital in Kościerzyna", "opening_hours": "24/7", "phone": "+48 58 686 00 00", "website": "https://szpital-koscierzyna.pl"}}, {"name": "Swiss-Med", "latitude": 54.3619728, "longitude": 18.6040225, "source": "osm", "_tags": {"addr:city": "Gdańsk", "addr:country": "PL", "addr:housenumber": "44", "addr:postcode": "80-215", "addr:street": "Wileńska", "amenity": "hospital", "building": "hospital", "name": "Swiss-Med", "source:addr": "Urząd Miasta Gdańsk", "start_date": "2000", "type": "multipolygon"}}]