[{"name": "Васілішкаўская ўчастковая бальніца", "latitude": 53.7847782, "longitude": 24.8532763, "source": "osm", "_tags": {"amenity": "hospital", "healthcare": "hospital", "name": "Васілішкаўская ўчастковая бальніца", "name:be": "Васілішкаўская ўчастковая бальніца", "name:ru": "Василишковская участковая больница"}}, {"name": "Merkinės palaikomojo gydymo ir slaugos ligoninė", "latitude": 54.1629973, "longitude": 24.1841188, "source": "osm", "_tags": {"addr:city": "Merkinė", "addr:housenumber": "3", "addr:postcode": "65001", "addr:street": "Seinų g.", "amenity": "hospital", "healthcare": "hospital", "name": "Merkinės palaikomojo gydymo ir slaugos ligoninė", "phone": "+370 310 57560"}}, {"name": "Alytaus apskrities S. Kudirkos ligoninė", "latitude": 54.3990493, "longitude": 24.0394927, "source": "osm", "_tags": {"addr:city": "Alytus", "addr:housenumber": "12", "addr:postcode": "62114", "addr:street": "Ligoninės g.", "amenity": "hospital", "building": "yes", "emergency": "yes", "name": "Alytaus apskrities S. Kudirkos ligoninė", "wikidata": "Q14956894", "wikipedia": "lt:Alytaus apskrities S. Kudirkos ligoninė"}}, {"name": "Druskininkų ligoninė", "latitude": 54.0164054, "longitude": 24.0095227, "source": "osm", "_tags": {"addr:city": "Druskininkai", "addr:housenumber": "30", "addr:postcode": "66251", "addr:street": "Sveikatos g.", "amenity": "hospital", "building": "yes", "name": "Druskininkų ligoninė"}}, {"name": "VŠĮ Valkininkų sanatorija", "latitude": 54.349486, "longitude": 24.7215029, "source": "osm", "_tags": {"addr:city": "Naujieji Valkininkai", "addr:housenumber": "2", "addr:postcode": "65462", "addr:street": "Vilties g.", "amenity": "hospital", "building": "yes", "name": "VŠĮ Valkininkų sanatorija", "website": "http://www.valkininkusanatorija.lt/"}}, {"name": "Alytaus tuberkuliozės ligoninė", "latitude": 54.4133848, "longitude": 24.0423588, "source": "osm", "_tags": {"amenity": "hospital", "building": "yes", "name": "Alytaus tuberkuliozės ligoninė"}}, {"name": "Скідзельская гарадская паліклініка і бальніца", "latitude": 53.5835886, "longitude": 24.2652068, "source": "osm", "_tags": {"amenity": "hospital", "emergency": "yes", "name": "Скідзельская гарадская паліклініка і бальніца", "name:be": "Скідзельская гарадская паліклініка і бальніца", "name:ru": "Скидельская городская поликлиника и больница", "opening_hours": "Mo-Fr 08:00-20:00", "phone": "+375 (152) 97-54-30"}}, {"name": "Мураванскі псіханеўралагічны дом-інтэрнат для састарэлых і інвалідаў", "latitude": 53.6658816, "longitude": 24.023872, "source": "osm", "_tags": {"addr:city": "Сколабава", "addr:postcode": "231762", "amenity": "hospital", "emergency": "no", "name": "Мураванскі псіханеўралагічны дом-інтэрнат для састарэлых і інвалідаў", "name:be": "Мураванскі псіханеўралагічны дом-інтэрнат для састарэлых і інвалідаў", "name:ru": "Мурованский психоневрологический дом-интернат для престарелых и инвалидов"}}, {"name": "VšĮ Varėnos ligoninė", "latitude": 54.2183891, "longitude": 24.5693515, "source": "osm", "_tags": {"amenity": "hospital", "name": "VšĮ Varėnos ligoninė"}}, {"name": "", "latitude": 53.7434577, "longitude": 24.5253681, "source": "osm", "_tags": {"amenity": "hospital"}}, {"name": "Дубноўская бальніца", "latitude": 53.4404278, "longitude": 24.380663, "source": "osm", "_tags": {"amenity": "hospital", "name": "Дубноўская бальніца", "name:be": "Дубноўская бальніца", "name:ru": "Дубновская больница", "operator": "УЗ \"Мостовская центральная районная больница\""}}, {"name": "Шчучынская цэнтральная раённая бальніца", "latitude": 53.6032939, "longitude": 24.7289694, "source": "osm", "_tags": {"amenity": "hospital", "name": "Шчучынская цэнтральная раённая бальніца", "name:be": "Шчучынская цэнтральная раённая бальніца", "name:ru": "Щучинская центральная районная больница"}}, {"name": "Азёрская бальніца", "latitude": 53.7186329, "longitude": 24.1819077, "source": "osm", "_tags": {"alt_name": "Участковая больница", "amenity": "hospital", "healthcare": "hospital", "name": "Азёрская бальніца", "name:be": "Азёрская бальніца", "name:ru": "Озерская больница", "opening_hours": "Mo-Fr 08:00-18:00; Sa 09:00-14:00"}}]