[{"name": "Szpital Powiatowy w Kętrzynie", "latitude": 54.082687, "longitude": 21.3773262, "source": "osm", "_tags": {"addr:housenumber": "2", "addr:postcode": "11-400", "addr:street": "Marii Skłodowskiej-Curie", "amenity": "hospital", "check_date": "2022-08-21", "emergency": "yes", "healthcare": "hospital", "healthcare:speciality": "general", "name": "Szpital Powiatowy w Kętrzynie", "operator:type": "public", "wikidata": "Q9352128", "wikipedia": "pl:Szpital Powiatowy w Kętrzynie"}}, {"name": "Szpital Powiatowy w Węgorzewie", "latitude": 54.2067023, "longitude": 21.7360289, "source": "osm", "_tags": {"amenity": "hospital", "email": "sekretariat@szpitalwegorzewo.pl", "healthcare": "hospital", "name": "Szpital Powiatowy w Węgorzewie", "official_name": "Mazurskie Centrum Zdrowia Szpital Powiatowy w Węgorzewie Publiczny Zakład Opieki Zdrowotnej", "phone": "+48 87 427 32 52", "website": "http://www.szpitalwegorzewo.pl", "wheelchair": "yes"}}, {"name": "Szpital Mrągowski im. Michała Kajki", "latitude": 53.8793087, "longitude": 21.3023865, "source": "osm", "_tags": {"addr:city": "Mrągowo", "addr:housenumber": "3", "addr:postcode": "11-700", "addr:street": "Wolności", "amenity": "hospital", "emergency": "yes", "healthcare": "hospital", "name": "Szpital Mrągowski im. Michała Kajki", "website": "https://www.szpital-mragowo.pl/"}}, {"name": "", "latitude": 54.3490898, "longitude": 21.3093191, "source": "osm", "_tags": {"addr:housenumber": "82", "addr:street": "Коммунистическая улица", "amenity": "hospital", "building": "yes", "building:levels": "3", "healthcare": "hospital", "wikidata": "Q116453123"}}, {"name": "Szpital Powiatowy w Szczytnie", "latitude": 53.558003, "longitude": 20.985237, "source": "osm", "_tags": {"amenity": "hospital", "healthcare": "hospital", "name": "Szpital Powiatowy w Szczytnie", "phone": "+48 89 623 21 21", "website": "http://szpital.szczytno.pl/"}}, {"name": "Szpital Powiatowy im. Jana Mikulicza w Biskupcu", "latitude": 53.8656694, "longitude": 20.9573077, "source": "osm", "_tags": {"amenity": "hospital", "emergency": "yes", "healthcare": "hospital", "name": "Szpital Powiatowy im. Jana Mikulicza w Biskupcu", "website": "https://www.szpital-biskupiec.pl/"}}, {"name": "Szpital Giżycki", "latitude": 54.0375217, "longitude": 21.7821087, "source": "osm", "_tags": {"amenity": "hospital", "healthcare": "hospital", "name": "Szpital Giżycki", "note": "szpital w upadłości", "official_name": "Giżycka Ochrona Zdrowia", "operator": "Szpital Giżycki Sp. z o.o.", "website": "https://zozgiz.pl/"}}, {"name": "Szpital Powiatowy w Piszu", "latitude": 53.6263918, "longitude": 21.7991614, "source": "osm", "_tags": {"addr:city": "Pisz", "addr:housenumber": "2", "addr:postcode": "12-200", "addr:street": "Henryka Sienkiewicza", "amenity": "hospital", "emergency": "yes", "healthcare": "hospital", "name": "Szpital Powiatowy w Piszu"}}]