[{"name": "Lincoln Wing - A Block Entrance", "latitude": 53.8067154, "longitude": -1.5205128, "source": "osm", "_tags": {"amenity": "hospital", "healthcare": "hospital", "name": "Lincoln Wing - A Block Entrance"}}, {"name": "St James's Hospital A&E", "latitude": 53.806396, "longitude": -1.5213303, "source": "osm", "_tags": {"addr:city": "Leeds", "addr:postcode": "LS9 7TF", "addr:street": "Beckett Street", "amenity": "hospital", "emergency": "yes", "healthcare": "hospital", "name": "St James's Hospital A&E", "phone": "+44 113 243 3144"}}, {"name": "Cancer Genetics Building", "latitude": 53.8084347, "longitude": -1.5188053, "source": "osm", "_tags": {"amenity": "hospital", "healthcare": "hospital", "name": "Cancer Genetics Building"}}, {"name": "St Monicas Hospital", "latitude": 54.118399, "longitude": -1.1892442, "source": "osm", "_tags": {"addr:city": "York", "addr:postcode": "YO61 3JD", "addr:street": "Long Street", "addr:suburb": "Easingwold", "amenity": "hospital", "name": "St Monicas Hospital", "nhs": "yes", "operator": "NHS", "phone": "+44 1347821214", "website": "https://www.yorkhospitals.nhs.uk/our_hospitals/st_monicas_easingwold/"}}, {"name": "Paul Sykes Urology Centre", "latitude": 53.8076363, "longitude": -1.5221743, "source": "osm", "_tags": {"amenity": "hospital", "healthcare": "hospital", "name": "Paul Sykes Urology Centre"}}, {"name": "Eccleshill NHS Treatment Centre", "latitude": 53.8238146, "longitude": -1.712072, "source": "osm", "_tags": {"amenity": "hospital", "name": "Eccleshill NHS Treatment Centre"}}, {"name": "Friary Community Hospital", "latitude": 54.4051135, "longitude": -1.7384116, "source": "osm", "_tags": {"addr:city": "Richmond", "addr:postcode": "DL10 4AJ", "addr:street": "Queens Road", "amenity": "hospital", "healthcare": "hospital", "name": "Friary Community Hospital", "phone": "+44 1748 822109", "toilets:wheelchair": "yes", "wheelchair": "yes", "wikidata": "Q30293115"}}, {"name": "Moorlands View", "latitude": 53.8106247, "longitude": -1.8049108, "source": "osm", "_tags": {"addr:city": "Bradford", "addr:postcode": "BD9 6DP", "addr:street": "Heights Lane", "amenity": "hospital", "name": "Moorlands View"}}, {"name": "", "latitude": 53.79641, "longitude": -1.5951703, "source": "osm", "_tags": {"amenity": "hospital", "healthcare": "hospital"}}, {"name": "Leeds General Infirmary", "latitude": 53.8023566, "longitude": -1.5528327, "source": "osm", "_tags": {"amenity": "hospital", "emergency": "yes", "healthcare": "hospital", "loc_name": "LGI", "name": "Leeds General Infirmary", "wikidata": "Q1245797", "wikipedia": "en:Leeds General Infirmary"}}, {"name": "Woodhouse Health Centre", "latitude": 53.812663, "longitude": -1.5476053, "source": "osm", "_tags": {"amenity": "hospital", "building": "yes", "healthcare": "hospital", "name": "Woodhouse Health Centre", "ref:GB:uprn": "72674348;72674347;72661394", "source": "guess"}}, {"name": "St. Luke's Hospital", "latitude": 53.7837358, "longitude": -1.7617133, "source": "osm", "_tags": {"addr:city": "Bradford", "addr:postcode": "BD5 0NA", "addr:street": "Little Horton Lane", "amenity": "hospital", "emergency": "no", "fhrs:id": "328405", "name": "St. Luke's Hospital", "source:addr": "FHRS Open Data", "wikidata": "Q7589799"}}, {"name": "St Mary's Hospital", "latitude": 53.7997783, "longitude": -1.61259, "source": "osm", "_tags": {"addr:city": "Leeds", "addr:postcode": "LS12 3QE", "addr:street": "Green Hill Road", "amenity": "hospital", "fhrs:id": "320899", "healthcare": "hospital", "name": "St Mary's Hospital", "wikidata": "Q30292959"}}, {"name": "Middleton Community Health Centre", "latitude": 53.7427808, "longitude": -1.5471861, "source": "osm", "_tags": {"amenity": "hospital", "healthcare": "hospital", "name": "Middleton Community Health Centre"}}, {"name": "Badsley Moor Lane NHS", "latitude": 53.4305155, "longitude": -1.3329887, "source": "osm", "_tags": {"amenity": "hospital", "area": "yes", "name": "Badsley Moor Lane NHS", "wheelchair": "yes"}}, {"name": "Dewsbury & District Hospital", "latitude": 53.7022943, "longitude": -1.6504132, "source": "osm", "_tags": {"addr:city": "Dewsbury", "addr:postcode": "WF13 4HS", "amenity": "hospital", "emergency": "yes", "is_in": "Dewsbury; West Yorkshire; England; UK", "name": "Dewsbury & District Hospital", "operator": "The Mid Yorkshire Hospitals NHS Trust", "website": "https://www.midyorks.nhs.uk/", "wikidata": "Q30279689"}}, {"name": "Bradford Royal Infirmary", "latitude": 53.8066968, "longitude": -1.7974488, "source": "osm", "_tags": {"addr:city": "Bradford", "addr:postcode": "BD9 6RJ", "addr:street": "Duckworth Lane", "amenity": "hospital", "emergency": "yes", "fhrs:id": "328138", "name": "Bradford Royal Infirmary", "operator": "Bradford Teaching Hospitals NHS Foundation Trust", "operator:type": "public", "source:addr": "FHRS Open Data", "wheelchair": "yes", "wikidata": "Q4954744"}}, {"name": "Listonshells Day Centre", "latitude": 53.7609674, "longitude": -1.7330256, "source": "osm", "_tags": {"amenity": "hospital", "name": "Listonshells Day Centre"}}, {"name": "Cygen Hospital, Bierley", "latitude": 53.7680871, "longitude": -1.7318796, "source": "osm", "_tags": {"amenity": "hospital", "name": "Cygen Hospital, Bierley"}}, {"name": "Yorkshire Clinic", "latitude": 53.8322521, "longitude": -1.818165, "source": "osm", "_tags": {"addr:city": "Bingley", "addr:postcode": "BD16 1TX", "addr:street": "Bradford Road", "amenity": "hospital", "building": "yes", "description": "Private hospital", "dispensing": "yes", "emergency": "no", "fhrs:id": "327394", "healthcare": "hospital", "name": "Yorkshire Clinic", "operator": "Ramsay Health care", "source": "OS StreetView", "website": "https://www.theyorkshireclinic.co.uk/", "wikidata": "Q88376988"}}, {"name": "Doncaster Royal Infirmary", "latitude": 53.5308452, "longitude": -1.1102706, "source": "osm", "_tags": {"amenity": "hospital", "area": "yes", "emergency": "yes", "name": "Doncaster Royal Infirmary", "wheelchair": "yes", "wikidata": "Q5295518", "wikipedia": "en:Doncaster Royal Infirmary"}}, {"name": "Tickhill Road", "latitude": 53.4955618, "longitude": -1.1456858, "source": "osm", "_tags": {"amenity": "hospital", "healthcare": "hospital", "name": "Tickhill Road", "wikidata": "Q30293053"}}, {"name": "Barnsley Hospital", "latitude": 53.5584406, "longitude": -1.4998301, "source": "osm", "_tags": {"amenity": "hospital", "check_date": "2025-01-18", "healthcare": "hospital", "name": "Barnsley Hospital", "source": "OS OpenData StreetView", "wikidata": "Q30280608"}}, {"name": "Calderdale Royal Hospital", "latitude": 53.7049662, "longitude": -1.8572295, "source": "osm", "_tags": {"amenity": "hospital", "emergency": "yes", "name": "Calderdale Royal Hospital", "wheelchair": "yes", "wikidata": "Q15206830"}}, {"name": "Huddersfield Royal Infirmary", "latitude": 53.6553447, "longitude": -1.8151013, "source": "osm", "_tags": {"amenity": "hospital", "emergency": "yes", "healthcare": "hospital", "name": "Huddersfield Royal Infirmary", "wikidata": "Q5928271", "wikipedia": "en:Huddersfield Royal Infirmary"}}, {"name": "Little Woodhouse Hall", "latitude": 53.8029738, "longitude": -1.5570682, "source": "osm", "_tags": {"addr:city": "Leeds", "addr:housenumber": "18", "addr:postcode": "LS2 9NT", "addr:street": "Clarendon Road", "addr:suburb": "Woodhouse", "amenity": "hospital", "building": "yes", "fhrs:id": "322476", "healthcare": "hospital", "name": "Little Woodhouse Hall", "source": "Bing;local_knowledge"}}, {"name": "Foss Park Hospital", "latitude": 53.9814584, "longitude": -1.0723051, "source": "osm", "_tags": {"addr:city": "York", "addr:postcode": "YO31 8TA", "addr:street": "Haxby Road", "amenity": "hospital", "healthcare": "hospital", "healthcare:speciality": "psychiatry", "name": "Foss Park Hospital", "operator": "NHS Tees, Eask and Wear Valleys", "operator:type": "government", "phone": "+441904461100", "source": "Local Knowledge;survey", "wheelchair": "yes"}}, {"name": "Huddersfield Royal Infirmary Acre Street Outpatents", "latitude": 53.6555977, "longitude": -1.8202648, "source": "osm", "_tags": {"amenity": "hospital", "healthcare": "hospital", "name": "Huddersfield Royal Infirmary Acre Street Outpatents"}}, {"name": "Chapel Allerton Hospital", "latitude": 53.8224209, "longitude": -1.5302961, "source": "osm", "_tags": {"addr:city": "Leeds", "addr:postcode": "LS7 4SA", "addr:street": "Chapeltown Road", "amenity": "hospital", "fhrs:id": "319644", "healthcare": "hospital", "name": "Chapel Allerton Hospital", "operator": "The Leeds Teaching Hospitals NHS Trust", "source:addr": "FHRS Open Data", "wikidata": "Q5072984"}}, {"name": "Cygnet Hospital Harrogate", "latitude": 53.9989923, "longitude": -1.5477203, "source": "osm", "_tags": {"amenity": "hospital", "building": "yes", "healthcare": "hospital", "name": "Cygnet Hospital Harrogate", "operator": "Cygbet", "ref:GB:uprn": "10003029175"}}, {"name": "The Retreat", "latitude": 53.9497536, "longitude": -1.0625503, "source": "osm", "_tags": {"addr:city": "York", "addr:postcode": "YO10 5BN", "addr:street": "Heslington Road", "amenity": "hospital", "emergency": "no", "healthcare": "hospital", "healthcare:speciality": "psychiatry", "name": "The Retreat", "website": "https://www.theretreatyork.org.uk/", "wikidata": "Q2146269", "wikipedia": "en:The Retreat"}}, {"name": "Nuffield Hospital", "latitude": 53.974411, "longitude": -1.0759015, "source": "osm", "_tags": {"addr:city": "York", "addr:country": "GB", "addr:postcode": "YO31 8TA", "amenity": "hospital", "building": "hospital", "building:levels": "4", "emergency": "no", "fee": "yes", "healthcare": "hospital", "name": "Nuffield Hospital", "operator": "Nuffield Health"}}, {"name": "Leeds Student Medical Practice", "latitude": 53.8073733, "longitude": -1.5491019, "source": "osm", "_tags": {"amenity": "hospital", "building": "yes", "building:levels": "3", "healthcare": "hospital", "name": "Leeds Student Medical Practice", "website": "https://www.leedsstudentmedicalpractice.co.uk/"}}, {"name": "St. James's University Hospital", "latitude": 53.8071804, "longitude": -1.5215599, "source": "osm", "_tags": {"amenity": "hospital", "emergency": "yes", "healthcare": "hospital", "loc_name": "Jimmy's", "name": "St. James's University Hospital", "operator": "Leeds Teaching Hospitals NHS Trust", "wikidata": "Q7593476", "wikipedia": "en:St James's University Hospital"}}, {"name": "Seacroft Hospital", "latitude": 53.805565, "longitude": -1.4712541, "source": "osm", "_tags": {"addr:city": "Leeds", "addr:postcode": "LS14 6UH", "addr:street": "York Road", "amenity": "hospital", "fhrs:id": "321061", "healthcare": "hospital", "name": "Seacroft Hospital", "note": "done by armchair mapping .. needs ground truthing!", "source": "Bing", "wikidata": "Q7440298"}}, {"name": "Parkside Lodge", "latitude": 53.7993136, "longitude": -1.5902553, "source": "osm", "_tags": {"addr:city": "Leeds", "addr:housenumber": "16", "addr:postcode": "LS12 2HE", "addr:street": "Stanningley Road", "amenity": "hospital", "fhrs:id": "322479", "healthcare": "hospital", "name": "Parkside Lodge", "note": "Psychiatric hospital for people with LDs"}}, {"name": "Friarage Hospital", "latitude": 54.3424449, "longitude": -1.4305565, "source": "osm", "_tags": {"amenity": "hospital", "emergency": "yes", "healthcare": "hospital", "name": "Friarage Hospital", "wikidata": "Q30280330", "wikipedia": "en:Friarage Hospital"}}, {"name": "Clifton Park Treatment Centre", "latitude": 53.9785561, "longitude": -1.1135184, "source": "osm", "_tags": {"addr:postcode": "YO30 5RA", "addr:street": "Blue Beck Drive", "amenity": "hospital", "building": "hospital", "name": "Clifton Park Treatment Centre", "operator": "NHS", "ref:GB:uprn": "10007236686", "source": "Bing"}}, {"name": "Ashcroft Surgery", "latitude": 53.8242795, "longitude": -1.7123333, "source": "osm", "_tags": {"amenity": "hospital", "building": "hospital", "name": "Ashcroft Surgery"}}, {"name": "Eccleshill Diagnostic Clinic", "latitude": 53.8238578, "longitude": -1.7113576, "source": "osm", "_tags": {"amenity": "hospital", "building": "hospital", "name": "Eccleshill Diagnostic Clinic", "ref:GB:uprn": "10096637757;10002322225"}}, {"name": "Duchy Hospital", "latitude": 53.9876034, "longitude": -1.5479096, "source": "osm", "_tags": {"amenity": "hospital", "building": "hospital", "emergency": "no", "healthcare": "hospital", "name": "Duchy Hospital", "source": "Local Knowlege", "wikidata": "Q30265240"}}, {"name": "Wharfedale Hospital", "latitude": 53.9146568, "longitude": -1.6994791, "source": "osm", "_tags": {"addr:city": "Otley", "addr:country": "GB", "addr:postcode": "LS21 2LY", "addr:street": "Newall Carr Road", "amenity": "hospital", "description": "Minor injuries only, no emergency ward", "emergency": "no", "fhrs:id": "320676", "healthcare": "hospital", "is_in:town": "Otley", "name": "Wharfedale Hospital", "old_name": "Wharfedale General Hospital", "source": "local_knowledge;Bing", "website": "https://www.leedsth.nhs.uk/", "wikidata": "Q7990674", "wikipedia": "en:Wharfedale Hospital"}}, {"name": "Lynfield Mount Hospital", "latitude": 53.809644, "longitude": -1.8050251, "source": "osm", "_tags": {"addr:city": "Bradford", "addr:postcode": "BD9 6DP", "addr:street": "Heights Lane", "amenity": "hospital", "fhrs:id": "328250", "name": "Lynfield Mount Hospital", "operator": "Bradford District Care Trust", "source": "Bing;local_knowledge", "source:addr": "FHRS Open Data"}}, {"name": "Mill Garth Hospital", "latitude": 53.8280325, "longitude": -1.5698687, "source": "osm", "_tags": {"addr:city": "Leeds", "addr:housename": "Millside", "addr:postcode": "LS6 4RA", "addr:street": "Mill Pond Lane", "addr:suburb": "Meanwood", "amenity": "hospital", "building": "yes", "fhrs:id": "1089492", "healthcare": "hospital", "name": "Mill Garth Hospital", "old_name": "Millside Community Unit", "ref:GB:uprn": "72536855"}}, {"name": "Shipley Hospital", "latitude": 53.8333663, "longitude": -1.7862359, "source": "osm", "_tags": {"addr:city": "Shipley", "addr:postcode": "BD18 3LT", "amenity": "hospital", "building": "yes", "emergency": "no", "name": "Shipley Hospital", "source": "Bing", "wikidata": "Q30293168"}}, {"name": "Archways", "latitude": 53.9724826, "longitude": -1.0799568, "source": "osm", "_tags": {"addr:city": "York", "addr:housenumber": "1-26", "addr:postcode": "YO31 8YZ", "addr:street": "Clarendon Court", "alt_name": "Archways Community Intermediate Care Inpatient Facility", "amenity": "hospital", "building": "hospital", "emergency": "no", "healthcare": "hospital", "name": "Archways", "operator": "York NHS Trust", "ref:GB:uprn": "10007238939"}}, {"name": "Airedale General Hospital", "latitude": 53.8977208, "longitude": -1.9643504, "source": "osm", "_tags": {"addr:city": "Keighley", "addr:postcode": "BD20 6TD", "addr:street": "Skipton Road", "addr:village": "Steeton With Eastburn", "amenity": "hospital", "emergency": "yes", "fhrs:id": "327000", "healthcare": "hospital", "name": "Airedale General Hospital", "source": "bing", "source:addr": "FHRS Open Data", "website": "https://www.airedale-trust.nhs.uk/", "wheelchair": "yes", "wikidata": "Q4698667", "wikipedia": "en:Airedale General Hospital"}}, {"name": "Cygnet Hospital Wyke", "latitude": 53.7285978, "longitude": -1.7750753, "source": "osm", "_tags": {"amenity": "hospital", "healthcare": "hospital", "name": "Cygnet Hospital Wyke", "operator": "Cygnet Healthcare"}}, {"name": "BMI Hospital Huddersfield", "latitude": 53.6590382, "longitude": -1.7999342, "source": "osm", "_tags": {"amenity": "hospital", "emergency": "no", "healthcare": "hospital", "name": "BMI Hospital Huddersfield"}}, {"name": "Kendray Hospital", "latitude": 53.5454818, "longitude": -1.4562398, "source": "osm", "_tags": {"amenity": "hospital", "healthcare": "hospital", "name": "Kendray Hospital", "ref:GB:uprn": "100052111582"}}, {"name": "Cambian Oaks Hospital", "latitude": 53.5426382, "longitude": -1.4686088, "source": "osm", "_tags": {"amenity": "hospital", "healthcare": "hospital", "name": "Cambian Oaks Hospital"}}, {"name": "Holme Valley Memorial Hospital", "latitude": 53.5787123, "longitude": -1.7844971, "source": "osm", "_tags": {"addr:city": "Holmfirth", "addr:postcode": "HD9 3TS", "addr:street": "Huddersfield Road", "amenity": "hospital", "emergency": "no", "healthcare": "hospital", "name": "Holme Valley Memorial Hospital", "nhs": "yes"}}, {"name": "Montagu Hospital", "latitude": 53.5002484, "longitude": -1.2854786, "source": "osm", "_tags": {"amenity": "hospital", "healthcare": "hospital", "name": "Montagu Hospital", "wikidata": "Q15255405"}}, {"name": "The Martinwells Centre", "latitude": 53.4812664, "longitude": -1.1927483, "source": "osm", "_tags": {"amenity": "hospital", "healthcare": "hospital", "name": "The Martinwells Centre"}}, {"name": "Holgate Hospital", "latitude": 53.607988, "longitude": -1.3800096, "source": "osm", "_tags": {"amenity": "hospital", "healthcare": "hospital", "name": "Holgate Hospital"}}, {"name": "Waterloo Manor Independent Hospital", "latitude": 53.7871323, "longitude": -1.4115731, "source": "osm", "_tags": {"addr:city": "Leeds", "addr:postcode": "LS25 1NA", "addr:street": "Selby Road", "addr:suburb": "Garforth", "amenity": "hospital", "healthcare": "hospital", "name": "Waterloo Manor Independent Hospital"}}, {"name": "Skipton General Hospital", "latitude": 53.9554599, "longitude": -2.0188468, "source": "osm", "_tags": {"amenity": "hospital", "building": "yes", "check_date": "2025-08-28", "healthcare": "hospital", "name": "Skipton General Hospital"}}, {"name": "Aire Court Community Unit", "latitude": 53.7470828, "longitude": -1.5396771, "source": "osm", "_tags": {"amenity": "hospital", "healthcare": "hospital", "name": "Aire Court Community Unit"}}, {"name": "Spire Leeds Hospital", "latitude": 53.8322112, "longitude": -1.5145005, "source": "osm", "_tags": {"addr:city": "Leeds", "addr:postcode": "LS8 1NT", "addr:street": "Jackson Avenue", "amenity": "hospital", "emergency": "no", "fhrs:id": "322000", "healthcare": "hospital", "name": "Spire Leeds Hospital", "website": "https://www.spirehealthcare.com/leeds/"}}, {"name": "Leeds Private Hospital", "latitude": 53.8421241, "longitude": -1.4743557, "source": "osm", "_tags": {"amenity": "hospital", "emergency": "no", "healthcare": "hospital", "landuse": "commercial", "name": "Leeds Private Hospital"}}, {"name": "St Helen's Rehabilitation Hospital", "latitude": 53.9433354, "longitude": -1.1055697, "source": "osm", "_tags": {"addr:city": "York", "addr:housenumber": "1A", "addr:postcode": "YO24 1HD", "addr:street": "Nelsons Lane", "amenity": "hospital", "emergency": "no", "fhrs:id": "245686", "healthcare": "rehabilitation", "name": "St Helen's Rehabilitation Hospital", "operator": "York NHS Trust", "phone": "+44 1904 724626", "website": "https://www.yorkhospitals.nhs.uk/our-hospitals/st-helens/", "wikidata": "Q30292936"}}, {"name": "Mill Lodge Hospital", "latitude": 53.991534, "longitude": -1.0649858, "source": "osm", "_tags": {"addr:city": "York", "addr:housenumber": "520", "addr:postcode": "YO32 9QA", "addr:street": "Huntington Road", "amenity": "hospital", "description": "Caring for children (0 - 18yrs) whose rights are restricted under the Mental Health Act", "fhrs:id": "245322", "healthcare": "hospital", "healthcare:speciality": "mental_health", "max_age": "18", "min_age": "0", "name": "Mill Lodge Hospital", "official_name": "Mill Lodge child and adolescent mental health inpatient service", "old_cqc:id": "5NV6H", "operator": "Leeds and York Partnership NHS Foundation Trust", "ref:GB:cqc_location": "RGDVE", "website": "https://www.nhs.uk/Services/clinics/Services/Service/DefaultView.aspx?id=255335"}}, {"name": "Wathwood Hospital", "latitude": 53.4885127, "longitude": -1.3453014, "source": "osm", "_tags": {"amenity": "hospital", "name": "Wathwood Hospital"}}, {"name": "", "latitude": 53.9560318, "longitude": -1.1260581, "source": "osm", "_tags": {"amenity": "hospital", "healthcare": "hospital"}}, {"name": "", "latitude": 53.9777794, "longitude": -1.1150266, "source": "osm", "_tags": {"amenity": "hospital", "healthcare": "hospital"}}, {"name": "York District Hospital", "latitude": 53.9703162, "longitude": -1.084045, "source": "osm", "_tags": {"addr:city": "York", "addr:postcode": "YO31 8HE", "addr:street": "Wigginton Road", "amenity": "hospital", "emergency": "yes", "healthcare": "hospital", "name": "York District Hospital", "operator": "York Teaching Hospitals NHS Trust", "phone": "+441904631313", "smoking": "no", "wikidata": "Q8055478", "wikipedia": "en:York Hospital"}}, {"name": "Nuffield Hospital", "latitude": 53.8006204, "longitude": -1.5542213, "source": "osm", "_tags": {"addr:city": "Leeds", "addr:housenumber": "2", "addr:postcode": "LS1 3EB", "addr:street": "Leighton Street", "amenity": "hospital", "building": "yes", "emergency": "no", "fhrs:id": "321958", "healthcare": "hospital", "height": "50", "name": "Nuffield Hospital", "source:addr": "FHRS Open Data"}}, {"name": "Spire Methley Park Hospital", "latitude": 53.7404461, "longitude": -1.4236145, "source": "osm", "_tags": {"addr:city": "Leeds", "addr:postcode": "LS26 9HG", "addr:street": "Methley Lane", "addr:suburb": "Methley", "amenity": "hospital", "fhrs:id": "322383", "healthcare": "hospital", "name": "Spire Methley Park Hospital", "operator": "Spire", "operator:type": "private", "phone": "+44 1977 719 412", "website": "https://www.spirehealthcare.com/spire-methley-park-hospital"}}, {"name": "Pinderfields Hospital", "latitude": 53.6937292, "longitude": -1.4883203, "source": "osm", "_tags": {"addr:city": "Wakefield", "addr:postcode": "WF1 4DG", "addr:street": "Aberford Road", "amenity": "hospital", "brand:website": "http://www.midyorks.nhs.uk", "check_date": "2024-06-14", "emergency": "yes", "healthcare": "hospital", "name": "Pinderfields Hospital", "not:operator:wikidata": "Q918396", "operator": "Mid Yorkshire Teaching NHS Trust", "phone": "+44 1924 541000", "website": "https://www.midyorks.nhs.uk/pinderfields-hospital", "wikidata": "Q30280299", "wikipedia": "en:Pinderfields Hospital"}}, {"name": "Fieldhead Hospital", "latitude": 53.6979013, "longitude": -1.4934922, "source": "osm", "_tags": {"addr:city": "Wakefield", "addr:postcode": "WF1 3SP", "addr:street": "Ouchthorpe Lane", "amenity": "hospital", "emergency": "no", "healthcare": "hospital", "name": "Fieldhead Hospital", "operator": "South West Yorkshire Partnership NHS Foundation Trust", "start_date": "1972-07-11", "wikidata": "Q20047295", "wikipedia": "en:Fieldhead Hospital"}}, {"name": "Cheswold Park", "latitude": 53.5269591, "longitude": -1.1508806, "source": "osm", "_tags": {"amenity": "hospital", "barrier": "fence", "emergency": "no", "healthcare": "hospital", "name": "Cheswold Park"}}, {"name": "Ripon Community Hospital", "latitude": 54.1355502, "longitude": -1.5272012, "source": "osm", "_tags": {"addr:city": "Ripon", "addr:postcode": "HG4 2PR", "addr:street": "Firby Lane", "amenity": "hospital", "description": "Ripon Community Hospital provides quality care for the local community and boasts X-ray facilities, same-sex wards and the highly praised Minor Injury Unit.", "fhrs:id": "224477", "healthcare": "hospital", "name": "Ripon Community Hospital", "source:postcode": "CodePoint Open", "wikidata": "Q30292965", "wikipedia": "en:Ripon Community Hospital"}}, {"name": "Spire Elland Hospital", "latitude": 53.6888478, "longitude": -1.8288206, "source": "osm", "_tags": {"amenity": "hospital", "emergency": "no", "healthcare": "hospital", "name": "Spire Elland Hospital"}}, {"name": "Huddersfield Royal Infirmary Acre Mills Outpatents", "latitude": 53.655383, "longitude": -1.8193201, "source": "osm", "_tags": {"building": "yes", "healthcare": "hospital", "name": "Huddersfield Royal Infirmary Acre Mills Outpatents", "operator": "Calderdale and Huddersfield NHS Foundation Trust"}}, {"name": "Vida Grange", "latitude": 53.9558115, "longitude": -1.5332381, "source": "osm", "_tags": {"amenity": "hospital", "healthcare": "hospital", "name": "Vida Grange"}}, {"name": "", "latitude": 53.9934267, "longitude": -1.5171621, "source": "osm", "_tags": {"amenity": "hospital", "healthcare": "hospital"}}, {"name": "Selby New War Memorial Hospital", "latitude": 53.7768802, "longitude": -1.0800116, "source": "osm", "_tags": {"amenity": "hospital", "healthcare": "hospital", "name": "Selby New War Memorial Hospital"}}, {"name": "Harrogate District Hospital", "latitude": 53.9938335, "longitude": -1.5178004, "source": "osm", "_tags": {"addr:city": "Harrogate", "addr:postcode": "HG2 7SX", "addr:street": "Lancaster Park Road", "amenity": "hospital", "building": "hospital", "emergency": "yes", "healthcare": "hospital", "name": "Harrogate District Hospital", "operator": "NHS", "operator:wikidata": "Q918396", "phone": "+44 1423 885959", "type": "multipolygon", "wikidata": "Q50514912"}}, {"name": "White Cross Court Community Rehabilitation Hospital", "latitude": 53.97172, "longitude": -1.0748087, "source": "osm", "_tags": {"addr:city": "York", "addr:postcode": "YO31 8FT", "amenity": "hospital", "building": "hospital", "emergency": "no", "healthcare": "rehabilitation", "name": "White Cross Court Community Rehabilitation Hospital", "operator": "York NHS Trust", "toilets:wheelchair": "yes", "type": "multipolygon", "wheelchair": "yes"}}, {"name": "The Mount", "latitude": 53.8050535, "longitude": -1.5601355, "source": "osm", "_tags": {"amenity": "hospital", "building": "hospital", "healthcare": "hospital", "name": "The Mount", "type": "multipolygon", "wikidata": "Q7752462"}}, {"name": "Newsam Centre", "latitude": 53.8049278, "longitude": -1.4715285, "source": "osm", "_tags": {"addr:city": "Leeds", "addr:postcode": "LS14 6WB", "amenity": "hospital", "building": "hospital", "healthcare": "hospital", "name": "Newsam Centre", "source": "OS OpenData StreetView", "type": "multipolygon"}}, {"name": "Pontefract Hospital", "latitude": 53.6900574, "longitude": -1.3078644, "source": "osm", "_tags": {"addr:city": "Pontefract", "addr:postcode": "WF8 1PL", "addr:street": "Friarwood Lane", "addr:town": "Pontefract", "amenity": "hospital", "emergency": "yes", "healthcare": "hospital", "name": "Pontefract Hospital", "operator": "Mid Yorkshire Hospitals NHS Trust", "smoking": "separated", "type": "multipolygon", "website": "https://www.midyorks.nhs.uk/", "wikidata": "Q55139229", "wikipedia": "en:Pontefract Hospital"}}]