[{"name": "Гарадская палаклініка №2", "latitude": 53.8818127, "longitude": 25.2976722, "source": "osm", "_tags": {"amenity": "hospital", "loc_name": "Ж/Д поликлиника", "name": "Гарадская палаклініка №2", "name:be": "Гарадская палаклініка №2", "name:ru": "Городская полоклиника №2"}}, {"name": "Філіял дзіцячай паліклінікі", "latitude": 53.8967274, "longitude": 25.2762044, "source": "osm", "_tags": {"amenity": "hospital", "emergency": "yes", "name": "Філіял дзіцячай паліклінікі", "name:be": "Філіял дзіцячай паліклінікі", "name:ru": "Филиал детской поликлиники"}}, {"name": "Урачэбная амбулаторыя мікрараёна Індустрыяльны", "latitude": 53.9383642, "longitude": 25.2641148, "source": "osm", "_tags": {"amenity": "hospital", "healthcare": "hospital", "name": "Урачэбная амбулаторыя мікрараёна Індустрыяльны", "name:be": "Урачэбная амбулаторыя мікрараёна Індустрыяльны", "name:ru": "Врачебная амбулатория микрорайона Индустриальный"}}, {"name": "Урачэбная амбулаторыя мікрараёна Маладзёжны", "latitude": 53.9153992, "longitude": 25.2370608, "source": "osm", "_tags": {"amenity": "hospital", "name": "Урачэбная амбулаторыя мікрараёна Маладзёжны", "name:be": "Урачэбная амбулаторыя мікрараёна Маладзёжны", "name:ru": "Врачебная амбулатория микрорайона Молодёжный"}}, {"name": "Гарадская паліклініка №1", "latitude": 53.8794897, "longitude": 25.3301453, "source": "osm", "_tags": {"amenity": "hospital", "name": "Гарадская паліклініка №1", "name:be": "Гарадская паліклініка №1", "name:ru": "Городская поликлиника №1"}}, {"name": "Скурвендыспансер", "latitude": 53.8836801, "longitude": 25.2983647, "source": "osm", "_tags": {"amenity": "hospital", "name": "Скурвендыспансер", "name:be": "Скурвендыспансер", "name:ru": "Кожвендиспансер"}}, {"name": "Лідская цэнтральная раённая бальніца", "latitude": 53.8949959, "longitude": 25.2842312, "source": "osm", "_tags": {"addr:housenumber": "1", "addr:postcode": "231300", "addr:street": "вуліца Міцкевіча", "amenity": "hospital", "contact:email": "lida.crb@mail.ru", "contact:phone": "+375(154) 52-43-77, +375(154) 53-20-12", "contact:website": "http://crb.lida.by/", "healthcare": "hospital", "name": "Лідская цэнтральная раённая бальніца", "name:be": "Лідская цэнтральная раённая бальніца", "name:ru": "Лидская центральная районная больница", "official_name": "Учреждение здравоохранения «Лидская центральная районная больница»", "short_name": "УЗ «ЛЦРБ»"}}, {"name": "Астроўля", "latitude": 53.8705829, "longitude": 25.232978, "source": "osm", "_tags": {"addr:housenumber": "17 к15", "addr:postcode": "231293", "addr:street": "Лідская вуліца", "amenity": "hospital", "building": "hospital", "name": "Астроўля", "name:be": "Астроўля", "name:ru": "Островля"}}, {"name": "Šalčininkų r. savivaldybės ligoninė", "latitude": 54.3055599, "longitude": 25.3798087, "source": "osm", "_tags": {"addr:city": "Šalčininkai", "addr:housenumber": "38", "addr:street": "Nepriklausomybės g.", "amenity": "hospital", "building": "yes", "name": "Šalčininkų r. savivaldybės ligoninė", "name:lt": "Šalčininkų r. savivaldybės ligoninė", "name:pl": "Szpital samorządowy rejonu solecznickiego"}}, {"name": "Зубапратэзнае аддзяленне", "latitude": 54.1496942, "longitude": 25.3171529, "source": "osm", "_tags": {"addr:city": "Воранава", "addr:housenumber": "49", "addr:street": "Савецкая вуліца", "amenity": "hospital", "building": "yes", "building:levels": "1", "healthcare": "hospital", "name": "Зубапратэзнае аддзяленне", "name:be": "Зубапратэзнае аддзяленне", "name:ru": "Зубопротезное отделение", "operator": "УЗ Вороновская ЦРБ"}}, {"name": "Жалудоцкая бальніца", "latitude": 53.6014532, "longitude": 24.9768466, "source": "osm", "_tags": {"addr:city": "Жалудок", "addr:housenumber": "15", "addr:postcode": "231506", "addr:street": "Савецкая вуліца", "amenity": "hospital", "emergency": "yes", "healthcare": "hospital", "name": "Жалудоцкая бальніца", "name:be": "Жалудоцкая бальніца", "name:ru": "Желудокская больница"}}, {"name": "Ліпнішкаўская ўрачэбная амбулаторыя", "latitude": 54.0150824, "longitude": 25.6093077, "source": "osm", "_tags": {"addr:city": "Ліпнішкі", "addr:housenumber": "3", "addr:postcode": "231335", "addr:street": "Паркавая вуліца", "amenity": "hospital", "building": "yes", "int_name": "Lipniškaŭskaja ŭračebnaja ambułatoryja", "name": "Ліпнішкаўская ўрачэбная амбулаторыя", "name:be": "Ліпнішкаўская ўрачэбная амбулаторыя", "name:pl": "Przychodnia w Lipniszkach", "name:ru": "Липнишковская врачебная амбулатория"}}, {"name": "Станцыя хуткай медыцынскай дапамогі", "latitude": 53.8940548, "longitude": 25.2948467, "source": "osm", "_tags": {"addr:housenumber": "57", "addr:street": "вуліца Перамогі", "amenity": "hospital", "emergency": "yes", "landuse": "residential", "name": "Станцыя хуткай медыцынскай дапамогі", "name:be": "Станцыя хуткай медыцынскай дапамогі", "name:ru": "Станция скорой медицинской помощи", "phone": "103", "residential": "urban", "start_date": "1946-01-18"}}, {"name": "Інфекцыйнае аддзяленне", "latitude": 53.5943062, "longitude": 25.8086545, "source": "osm", "_tags": {"amenity": "hospital", "building": "yes", "building:levels": "1", "name": "Інфекцыйнае аддзяленне", "name:be": "Інфекцыйнае аддзяленне", "name:ru": "Инфекционное отделение"}}, {"name": "ФАП", "latitude": 53.9217055, "longitude": 25.3121977, "source": "osm", "_tags": {"addr:housenumber": "27", "addr:place": "Малэйкаўшчызна", "addr:postcode": "231288", "addr:street": "Лясная вуліца", "amenity": "hospital", "name": "ФАП", "name:be": "ФАП", "name:ru": "Фап"}}, {"name": "Воранаўская ЦРБ", "latitude": 54.1460516, "longitude": 25.3183212, "source": "osm", "_tags": {"amenity": "hospital", "barrier": "fence", "emergency": "yes", "healthcare": "hospital", "name": "Воранаўская ЦРБ", "name:be": "Воранаўская ЦРБ", "name:ru": "Вороновская центральная районная больница"}}, {"name": "", "latitude": 53.4706661, "longitude": 25.8772949, "source": "osm", "_tags": {"amenity": "hospital"}}, {"name": "", "latitude": 53.6475628, "longitude": 25.3082549, "source": "osm", "_tags": {"amenity": "hospital"}}, {"name": "Дзятлаўская цэнтральная раённая бальніца", "latitude": 53.462299, "longitude": 25.395086, "source": "osm", "_tags": {"amenity": "hospital", "emergency": "yes", "healthcare": "hospital", "name": "Дзятлаўская цэнтральная раённая бальніца", "name:be": "Дзятлаўская цэнтральная раённая бальніца", "name:ru": "Дятловская центральная районная больница"}}, {"name": "Рэспубліканская псіхіятрычная клінічная бальніца Гайцюнішкі", "latitude": 54.2512914, "longitude": 25.4324351, "source": "osm", "_tags": {"amenity": "hospital", "barrier": "fence", "healthcare": "hospital", "int_name": "Respublikanskaja psichijatryčnaja kliničnaja baĺnica Hajciuniški", "name": "Рэспубліканская псіхіятрычная клінічная бальніца Гайцюнішкі", "name:be": "Рэспубліканская псіхіятрычная клінічная бальніца Гайцюнішкі", "name:ru": "Республиканская психиатрическая клиническая больница Гайтюнишки"}}, {"name": "", "latitude": 54.030555, "longitude": 25.9191768, "source": "osm", "_tags": {"amenity": "hospital"}}, {"name": "Навагрудская ЦРБ", "latitude": 53.5947558, "longitude": 25.809862, "source": "osm", "_tags": {"addr:housenumber": "53", "addr:street": "вуліца Валчэцкага", "amenity": "hospital", "contact:email": "tmon@mail.grodno.by", "contact:phone": "+375(1597) 2-13-31", "contact:website": "http://novcrb.by/", "name": "Навагрудская ЦРБ", "name:be": "Навагрудская ЦРБ", "name:ru": "Новогрудская ЦРБ", "official_name": "УЗ «Новогрудская центральная районная больница»"}}, {"name": "Гарадская Наваельнянская Бальніца", "latitude": 53.458784, "longitude": 25.5766778, "source": "osm", "_tags": {"amenity": "hospital", "healthcare": "hospital", "name": "Гарадская Наваельнянская Бальніца", "name:be": "Гарадская Наваельнянская Бальніца", "name:ru": "Городская Новоельнянская больница", "phone": "+375 15 631-56-30"}}, {"name": "", "latitude": 53.6998466, "longitude": 25.10587, "source": "osm", "_tags": {"amenity": "hospital"}}, {"name": "Іўеўская цэнтральная раённая бальніца", "latitude": 53.9358735, "longitude": 25.7896373, "source": "osm", "_tags": {"addr:housenumber": "71", "addr:street": "вуліца Карла Маркса", "amenity": "hospital", "healthcare": "hospital", "name": "Іўеўская цэнтральная раённая бальніца", "name:be": "Іўеўская цэнтральная раённая бальніца", "name:ru": "Ивьевская центральная районная больница", "website": "http://www.i-crb.by/"}}, {"name": "", "latitude": 53.8003569, "longitude": 25.1694278, "source": "osm", "_tags": {"amenity": "hospital", "building": "yes"}}, {"name": "", "latitude": 53.7259699, "longitude": 25.5141431, "source": "osm", "_tags": {"amenity": "hospital"}}, {"name": "", "latitude": 53.8340719, "longitude": 25.9367402, "source": "osm", "_tags": {"amenity": "hospital", "healthcare": "hospital"}}, {"name": "Рэспубліканская сухотная бальніца «Наваельня»", "latitude": 53.4635391, "longitude": 25.5659074, "source": "osm", "_tags": {"amenity": "hospital", "barrier": "fence", "name": "Рэспубліканская сухотная бальніца «Наваельня»", "name:be": "Рэспубліканская сухотная бальніца «Наваельня»", "name:ru": "Республиканская туббольница «Новоельня»", "name:uk": "Республіканська тубілікарня «Новольня»"}}, {"name": "", "latitude": 54.0508826, "longitude": 24.9883443, "source": "osm", "_tags": {"amenity": "hospital", "healthcare": "hospital"}}, {"name": "", "latitude": 54.1612363, "longitude": 25.9082795, "source": "osm", "_tags": {"amenity": "hospital", "barrier": "fence", "emergency": "no", "healthcare": "hospital"}}, {"name": "", "latitude": 54.0475854, "longitude": 24.9869831, "source": "osm", "_tags": {"amenity": "hospital", "healthcare": "hospital"}}, {"name": "", "latitude": 53.8711933, "longitude": 25.2359469, "source": "osm", "_tags": {"amenity": "hospital", "landuse": "residential", "type": "multipolygon"}}]