[{"name": "Марʼінагорская цэнтральная раённая бальніца", "latitude": 53.5185788, "longitude": 28.1558292, "source": "osm", "_tags": {"addr:housenumber": "50", "addr:street": "вуліца Калініна", "amenity": "hospital", "emergency": "yes", "healthcare": "hospital", "name": "Марʼінагорская цэнтральная раённая бальніца", "name:be": "Марʼінагорская цэнтральная раённая бальніца", "name:ru": "Марьиногорская центральная районная больница", "phone": "+375-17-1350715"}}, {"name": "", "latitude": 53.8308177, "longitude": 28.2365388, "source": "osm", "_tags": {"amenity": "hospital"}}, {"name": "", "latitude": 53.8834062, "longitude": 28.3698606, "source": "osm", "_tags": {"amenity": "hospital", "emergency": "yes"}}, {"name": "Амбулаторыя", "latitude": 54.0048463, "longitude": 28.0328234, "source": "osm", "_tags": {"amenity": "hospital", "name": "Амбулаторыя", "name:be": "Амбулаторыя", "name:ru": "Амбулатория"}}, {"name": "Гармонія", "latitude": 54.0997646, "longitude": 28.2981613, "source": "osm", "_tags": {"amenity": "hospital", "name": "Гармонія", "name:be": "Гармонія", "name:ru": "Гармония"}}, {"name": "Раённая бальніца №2", "latitude": 54.2743031, "longitude": 28.4876294, "source": "osm", "_tags": {"amenity": "hospital", "name": "Раённая бальніца №2", "name:be": "Раённая бальніца №2", "name:ru": "Районная больница №2"}}, {"name": "Раённая бальніца", "latitude": 53.7044379, "longitude": 28.4142494, "source": "osm", "_tags": {"amenity": "hospital", "name": "Раённая бальніца", "name:be": "Раённая бальніца", "name:ru": "Районная больница"}}, {"name": "", "latitude": 54.0941943, "longitude": 28.3169064, "source": "osm", "_tags": {"amenity": "hospital"}}, {"name": "Жаночая кансультацыя № 1", "latitude": 54.2297186, "longitude": 28.4876707, "source": "osm", "_tags": {"addr:street": "Інкубатарная вуліца", "amenity": "hospital", "name": "Жаночая кансультацыя № 1", "name:be": "Жаночая кансультацыя № 1", "name:ru": "Женская консультация № 1"}}, {"name": "Станцыя пералівання крыві", "latitude": 54.2232135, "longitude": 28.5217876, "source": "osm", "_tags": {"amenity": "hospital", "name": "Станцыя пералівання крыві", "name:be": "Станцыя пералівання крыві", "name:ru": "Станция переливания крови"}}, {"name": "Медпункт", "latitude": 54.1289284, "longitude": 28.3734888, "source": "osm", "_tags": {"amenity": "hospital", "healthcare": "hospital", "name": "Медпункт", "name:be": "Медпункт", "name:ru": "Медпункт"}}, {"name": "Synlab", "latitude": 54.227748, "longitude": 28.50384, "source": "osm", "_tags": {"amenity": "hospital", "contact:email": "lab.info@synlab-eml.by", "contact:phone": "+375177738888;+375177745000;+375296912643;+375297792435", "contact:website": "https://synlab.by/", "name": "Synlab", "name:be": "Synlab", "name:ru": "Синлаб", "opening_hours": "Mo-Fr 07:30-20:00;Sa 07:30-15:00;Su 08:00-14:00", "operator": "Синлаб-ЕМЛ"}}, {"name": "Пухавіцкі псіханеўралагічны дом-інтэрнат", "latitude": 53.4629501, "longitude": 28.1581696, "source": "osm", "_tags": {"amenity": "hospital", "name": "Пухавіцкі псіханеўралагічны дом-інтэрнат", "name:be": "Пухавіцкі псіханеўралагічны дом-інтэрнат", "name:ru": "Пуховичский психоневрологический дом-интернат"}}, {"name": "Марʼінагорская цэнтральная раённая бальніца", "latitude": 53.5178797, "longitude": 28.1556944, "source": "osm", "_tags": {"amenity": "hospital", "barrier": "fence", "healthcare": "hospital", "name": "Марʼінагорская цэнтральная раённая бальніца", "name:be": "Марʼінагорская цэнтральная раённая бальніца", "name:ru": "Марьиногорская центральная районная больница"}}, {"name": "Барысаўская цэнтральная раённая бальніца", "latitude": 54.2329405, "longitude": 28.4936814, "source": "osm", "_tags": {"addr:housenumber": "9", "addr:postcode": "222120", "addr:street": "вуліца 1812 года", "amenity": "hospital", "contact:email": "gtmoborisov@mail.ru", "contact:fax": "+375177734046", "contact:phone": "+375177734046", "contact:website": "http://www.borisov-crb.by", "emergency": "yes", "healthcare": "hospital", "name": "Барысаўская цэнтральная раённая бальніца", "name:be": "Барысаўская цэнтральная раённая бальніца", "name:en": "Central regional hospital of Barysaw", "name:ru": "Борисовская центральная районная больница", "official_name": "Учреждение здравоохранения Борисовская центральная районная больница", "old_name": "Первосоветская больница", "short_name": "УЗ Борисовская ЦРБ", "wikidata": "Q98520687"}}, {"name": "ГУАЗ «Абласны дзіцячы цэнтр медыцынскай рэабілітацыі «Пухавічы»", "latitude": 53.524388, "longitude": 28.1398611, "source": "osm", "_tags": {"addr:housenumber": "9", "addr:street": "вуліца Карла Маркса", "amenity": "hospital", "building": "yes", "building:levels": "1", "name": "ГУАЗ «Абласны дзіцячы цэнтр медыцынскай рэабілітацыі «Пухавічы»", "name:be": "ГУАЗ «Абласны дзіцячы цэнтр медыцынскай рэабілітацыі «Пухавічы»", "name:ru": "УЗ «Областной детский центр медицинской реабилитации «Пуховичи»", "phone": "+375171352912", "website": "https://odcmr.by/"}}, {"name": "Радзільня", "latitude": 54.22922, "longitude": 28.4889077, "source": "osm", "_tags": {"amenity": "hospital", "building": "yes", "name": "Радзільня", "name:be": "Радзільня", "name:ru": "Роддом"}}, {"name": "Ваенны шпіталь", "latitude": 54.2371964, "longitude": 28.4752795, "source": "osm", "_tags": {"addr:housenumber": "11", "addr:street": "Шпітальная вуліца", "amenity": "hospital", "emergency": "no", "healthcare": "hospital", "name": "Ваенны шпіталь", "name:be": "Ваенны шпіталь", "name:ru": "Военный госпиталь", "website": "https://www.mil.by/ru/health/medicine/895/"}}, {"name": "", "latitude": 54.0048796, "longitude": 28.0327635, "source": "osm", "_tags": {"addr:housenumber": "1А", "amenity": "hospital", "building": "yes"}}, {"name": "Смілавіцкая гарадская бальніца", "latitude": 53.7550781, "longitude": 28.0100179, "source": "osm", "_tags": {"addr:housenumber": "20", "addr:postcode": "223216", "addr:street": "Рэвалюцыйная вуліца", "amenity": "hospital", "building": "hospital", "building:levels": "1", "emergency": "yes", "healthcare": "hospital", "name": "Смілавіцкая гарадская бальніца", "name:be": "Смілавіцкая гарадская бальніца", "name:en": "Smilavičy town hospital", "name:ru": "Смиловичская городская больница", "phone": "+375 (1714) 2-33-70", "website": "http://chervenmed.by/"}}, {"name": "Зембінская ўчастковая бальніца", "latitude": 54.3707747, "longitude": 28.2295094, "source": "osm", "_tags": {"amenity": "hospital", "healthcare": "hospital", "name": "Зембінская ўчастковая бальніца", "name:be": "Зембінская ўчастковая бальніца", "name:ru": "Зембинская участковая больница"}}, {"name": "Жодзінская цэнтральная гарадская бальніца", "latitude": 54.1092258, "longitude": 28.3064041, "source": "osm", "_tags": {"alt_name:ru": "УЗ «Жодинская ЦГБ»", "amenity": "hospital", "healthcare": "hospital", "name": "Жодзінская цэнтральная гарадская бальніца", "name:be": "Жодзінская цэнтральная гарадская бальніца", "name:ru": "Жодинская центральная городская больница"}}, {"name": "Інфекцыйная бальніца", "latitude": 54.2746786, "longitude": 28.4848054, "source": "osm", "_tags": {"addr:housenumber": "172", "addr:street": "вуліца Лапаціна", "amenity": "hospital", "name": "Інфекцыйная бальніца", "name:be": "Інфекцыйная бальніца", "name:ru": "Инфекционная больница"}}, {"name": "Лапіцкая ўчастковая бальніца", "latitude": 53.4351256, "longitude": 28.5450084, "source": "osm", "_tags": {"amenity": "hospital", "name": "Лапіцкая ўчастковая бальніца", "name:be": "Лапіцкая ўчастковая бальніца", "name:ru": "Лапичская участковая больница"}}, {"name": "Амбулаторыя", "latitude": 54.3960451, "longitude": 28.7478335, "source": "osm", "_tags": {"amenity": "hospital", "healthcare": "hospital", "name": "Амбулаторыя", "name:be": "Амбулаторыя", "name:ru": "Амбулатория"}}, {"name": "", "latitude": 54.2783526, "longitude": 28.764929, "source": "osm", "_tags": {"amenity": "hospital", "healthcare": "hospital"}}, {"name": "", "latitude": 54.1635719, "longitude": 28.9053978, "source": "osm", "_tags": {"amenity": "hospital", "healthcare": "hospital"}}, {"name": "", "latitude": 53.5509531, "longitude": 28.7480621, "source": "osm", "_tags": {"amenity": "hospital", "healthcare": "hospital"}}, {"name": "Фельчарска акушэрскі пункт", "latitude": 53.8184619, "longitude": 28.5001697, "source": "osm", "_tags": {"amenity": "hospital", "healthcare": "hospital", "name": "Фельчарска акушэрскі пункт", "name:be": "Фельчарска акушэрскі пункт", "name:ru": "Фельдшерско акушерский пункт", "operator": "Червенская ЦРБ"}}, {"name": "Смалявіцкая цэнтральная раённая бальніца", "latitude": 54.0157358, "longitude": 28.0997885, "source": "osm", "_tags": {"amenity": "hospital", "healthcare": "hospital", "name": "Смалявіцкая цэнтральная раённая бальніца", "name:be": "Смалявіцкая цэнтральная раённая бальніца", "name:ru": "Смолевичская центральная районная больница"}}, {"name": "Дзіцячая паліклініка", "latitude": 54.0989929, "longitude": 28.301099, "source": "osm", "_tags": {"amenity": "hospital", "building": "yes", "building:levels": "5", "check_date": "2025-08-20", "healthcare": "hospital", "name": "Дзіцячая паліклініка", "name:be": "Дзіцячая паліклініка", "name:ru": "Детская поликлиника", "operator": "Жодинская ЦГБ", "roof:colour": "dimgray"}}, {"name": "", "latitude": 53.8844538, "longitude": 28.5976908, "source": "osm", "_tags": {"amenity": "hospital", "barrier": "fence", "healthcare": "hospital"}}, {"name": "", "latitude": 54.0972264, "longitude": 28.3595268, "source": "osm", "_tags": {"amenity": "hospital", "healthcare": "hospital"}}]