[{"name": "Klinik Klosterstraße", "latitude": 54.0787453, "longitude": 9.9948417, "source": "osm", "_tags": {"addr:city": "Neumünster", "addr:housenumber": "63-65", "addr:postcode": "24536", "addr:street": "Klosterstraße", "amenity": "hospital", "email": "info@klinik-klosterstrasse.de", "emergency": "no", "fax": "+49 4321 927622", "healthcare": "hospital", "name": "Klinik Klosterstraße", "phone": "+49 4321 92760", "website": "https://www.klinik-klosterstrasse.de/"}}, {"name": "Institut und Poliklinik für Allgemeinmedizin", "latitude": 53.5890661, "longitude": 9.9713778, "source": "osm", "_tags": {"email": "ipa@uke.de", "emergency": "no", "healthcare": "hospital", "healthcare:speciality": "primary_care", "level": "5", "name": "Institut und Poliklinik für Allgemeinmedizin", "operator": "UKE", "phone": "+49 40 7410 52400", "toilets:wheelchair": "yes", "website": "https://www.uke.de/ipa", "wheelchair": "yes"}}, {"name": "Die Facharztklinik Hamburg", "latitude": 53.5883283, "longitude": 9.9727691, "source": "osm", "_tags": {"addr:city": "Hamburg", "addr:country": "DE", "addr:housenumber": "78", "addr:postcode": "20251", "addr:street": "Martinistraße", "amenity": "hospital", "email": "info@facharztklinik-hamburg.de", "internet_access": "wlan", "name": "Die Facharztklinik Hamburg", "phone": "+49 40 49065-0", "website": "https://www.facharztklinik-hamburg.de"}}, {"name": "Universitätsklinikum Eppendorf", "latitude": 53.5907493, "longitude": 9.9746838, "source": "osm", "_tags": {"addr:city": "Hamburg", "addr:country": "DE", "addr:housenumber": "52", "addr:postcode": "20251", "addr:street": "Martinistraße", "amenity": "hospital", "contact:email": "info@uke.de", "contact:instagram": "uke_hamburg", "contact:linkedin": "universit-tsklinikum-hamburg-eppendorf", "contact:phone": "+49 40 7410-0", "contact:twitter": "UKEHamburg", "contact:website": "https://www.uke.de/", "contact:xing": "universitatsklinikumhamburg-eppendorf-uke", "contact:youtube": "UKEkanal", "emergency": "yes", "healthcare": "hospital", "healthcare:speciality": "psychiatry;paediatrics;ophthalmology;intensive;orthopaedics;gynaecology;emergency;dialysis;dermatology;surgery;cardiology;radiology;oncology;internal", "image": "https://upload.wikimedia.org/wikipedia/commons/thumb/c/c6/Dachmarke_universitaetsklinikum_hamburg-eppendorf.svg/192px-Dachmarke_universitaetsklinikum_hamburg-eppendorf.svg.png", "internet_access": "wlan", "internet_access:fee": "no", "internet_access:ssid": "UKE_freeWiFi", "logo": "https://upload.wikimedia.org/wikipedia/commons/thumb/c/c6/Dachmarke_universitaetsklinikum_hamburg-eppendorf.svg/192px-Dachmarke_universitaetsklinikum_hamburg-eppendorf.svg.png", "name": "Universitätsklinikum Eppendorf", "official_name": "Universitätsklinikum Hamburg-Eppendorf", "opening_hours": "24/7", "operator": "Behörde für Wissenschaft, Forschung, Gleichstellung und Bezirke", "operator:wikidata": "Q814590", "phone": "+49 40 74100", "ref:isil": "DE-18-64", "short_name": "UKE", "website": "https://www.uke.de/", "wheelchair": "yes", "wikidata": "Q316207", "wikipedia": "de:Universitätsklinikum Hamburg-Eppendorf"}}, {"name": "Amalie-Sieveking-Krankenhaus", "latitude": 53.6411291, "longitude": 10.1514133, "source": "osm", "_tags": {"addr:city": "Hamburg", "addr:housenumber": "33", "addr:postcode": "22359", "addr:street": "Haselkamp", "amenity": "hospital", "building": "hospital", "building:levels": "5", "check_date": "2025-09-09", "contact:website": "https://www.albertinen.de/krankenhaeuser/amalie", "emergency": "yes", "healthcare": "hospital", "name": "Amalie-Sieveking-Krankenhaus", "opening_hours": "24/7", "short_name": "ASK", "wheelchair": "yes"}}, {"name": "Städtisches Krankenhaus Kiel", "latitude": 54.322936, "longitude": 10.1164429, "source": "osm", "_tags": {"addr:city": "Kiel", "addr:country": "DE", "addr:housenumber": "33", "addr:postcode": "24116", "addr:street": "Chemnitzstraße", "amenity": "hospital", "email": "info@krankenhaus-kiel.de", "emergency": "yes", "fax": "+49 431 16974131", "healthcare": "hospital", "healthcare:speciality": "gynaecology;cardiology;oncology;geriatrics;paediatrics;gastroenterology;rheumatology;pathology;radiology;intensive;urology;anaesthetics;internal;emergency;haematology", "name": "Städtisches Krankenhaus Kiel", "operator": "Städtische Krankenhaus Kiel GmbH", "phone": "+49 431 16970", "toilets:wheelchair": "yes", "website": "https://www.krankenhaus-kiel.de/", "wheelchair": "yes", "wheelchair:description": "Das rollstuhlgerechte WC befindet sich rechts neben den Aufzügen.", "wikidata": "Q1724663", "wikimedia_commons": "Category:Städtisches Krankenhaus Kiel", "wikipedia": "de:Städtisches Krankenhaus Kiel"}}, {"name": "Asklepios Klinik St. Georg", "latitude": 53.559731, "longitude": 10.0180894, "source": "osm", "_tags": {"addr:city": "Hamburg", "addr:country": "DE", "addr:housenumber": "5", "addr:postcode": "20099", "addr:street": "Lohmühlenstraße", "amenity": "hospital", "capacity:beds": "707", "check_date": "2024-04-09", "contact:phone": "+49 40 181885-0", "contact:website": "https://www.asklepios.com/sanktgeorg", "emergency": "yes", "healthcare": "hospital", "name": "Asklepios Klinik St. Georg", "opening_hours": "24/7", "operator": "Asklepios Kliniken", "operator:type": "private", "operator:wikidata": "Q732068", "operator:wikipedia": "de:Asklepios Kliniken", "short_name": "AK St. Georg", "toilets:wheelchair": "yes", "wheelchair": "yes", "wikidata": "Q732056", "wikipedia": "de:Asklepios Klinik St. Georg"}}, {"name": "Zentrum für Integrative Psychiatrie", "latitude": 54.3433157, "longitude": 10.1454324, "source": "osm", "_tags": {"addr:city": "Kiel", "addr:housenumber": "147", "addr:postcode": "24105", "addr:street": "Niemannsweg", "amenity": "hospital", "healthcare": "hospital", "healthcare:speciality": "psychiatry", "name": "Zentrum für Integrative Psychiatrie", "short_name": "ZIP", "website": "https://www.zip-kiel.de/"}}, {"name": "Heinrich Sengelmann Krankenhaus", "latitude": 53.757387, "longitude": 10.1545234, "source": "osm", "_tags": {"addr:city": "Bargfeld-Stegen", "addr:country": "DE", "addr:housenumber": "65", "addr:postcode": "23863", "addr:street": "Kayhuder Straße", "amenity": "hospital", "emergency": "no", "healthcare": "hospital", "healthcare:speciality": "psychiatry", "name": "Heinrich Sengelmann Krankenhaus", "operator": "Heinrich Sengelmann Krankenhaus gGmbH", "short_name": "HSK", "website": "www.heinrich-sengelmann-krankenhaus.de", "wheelchair": "yes", "wikidata": "Q26794468"}}, {"name": "Norddeutsches Epilepsiezentrum", "latitude": 54.288247, "longitude": 10.2093301, "source": "osm", "_tags": {"addr:city": "Schwentinental", "addr:housenumber": "6", "addr:postcode": "24223", "addr:street": "Henry-Dunant-Straße", "amenity": "hospital", "healthcare": "hospital", "name": "Norddeutsches Epilepsiezentrum", "website": "https://www.drk-epilepsiezentrum.de", "wheelchair": "yes"}}, {"name": "Asklepios Klinik Barmbek", "latitude": 53.6065667, "longitude": 10.0367453, "source": "osm", "_tags": {"addr:city": "Hamburg", "addr:country": "DE", "addr:housenumber": "220", "addr:postcode": "22307", "addr:street": "Rübenkamp", "amenity": "hospital", "email": "info.barmbek@asklepios.com", "emergency": "yes", "fax": "+49 40 181882 7699", "healthcare": "hospital", "name": "Asklepios Klinik Barmbek", "opening_hours": "24/7", "operator": "Asklepios Kliniken", "operator:type": "private", "operator:wikidata": "Q732068", "operator:wikipedia": "de:Asklepios Kliniken", "phone": "+49 40 181882 0", "short_name": "AK Barmbek", "website": "https://www.asklepios.com/hamburg/barmbek/", "wheelchair": "yes", "wikidata": "Q732023"}}, {"name": "Asklepios Klinik am Kurpark", "latitude": 53.9217282, "longitude": 10.6996153, "source": "osm", "_tags": {"addr:city": "Bad Schwartau", "addr:housenumber": "6-12", "addr:postcode": "23611", "addr:street": "Am Kurpark", "amenity": "hospital", "healthcare": "hospital", "name": "Asklepios Klinik am Kurpark", "operator": "Asklepios Kliniken", "operator:type": "private", "operator:wikidata": "Q732068", "website": "https://www.asklepios.com/bad-schwartau/", "wheelchair": "yes"}}, {"name": "AMEOS Klinikum Neustadt", "latitude": 54.1049743, "longitude": 10.7947738, "source": "osm", "_tags": {"addr:city": "Neustadt in Holstein", "addr:postcode": "23730", "addr:street": "Wiesenhof", "amenity": "hospital", "email": "info@neustadt.ameos.de", "healthcare": "hospital", "healthcare:speciality": "psychiatry", "name": "AMEOS Klinikum Neustadt", "phone": "+49 4561 6110", "website": "https://www.ameos.eu/standorte/ameos-nord/neustadt-in-holstein/", "wheelchair": "yes", "wikidata": "Q43812929"}}, {"name": "Katholisches Kinderkrankenhaus Wilhelmstift", "latitude": 53.587338, "longitude": 10.164885, "source": "osm", "_tags": {"addr:city": "Hamburg", "addr:country": "DE", "addr:housenumber": "130", "addr:postcode": "22149", "addr:street": "Liliencronstraße", "amenity": "hospital", "contact:email": "info@kkh-wilhelmstift.de", "contact:fax": "+49 40 67377-133", "contact:phone": "+49 40 67377-0", "contact:website": "https://www.kkh-wilhelmstift.de/", "denomination": "catholic", "healthcare": "hospital", "name": "Katholisches Kinderkrankenhaus Wilhelmstift", "operator": "Katholisches Kinderkrankenhaus Wilhelmstift gemeinnützige GmbH", "religion": "christian", "wikidata": "Q21036358", "wikipedia": "de:Katholisches Kinderkrankenhaus Wilhelmstift"}}, {"name": "Israelitisches Krankenhaus", "latitude": 53.6058096, "longitude": 9.9913652, "source": "osm", "_tags": {"addr:city": "Hamburg", "addr:housenumber": "14", "addr:postcode": "22297", "addr:street": "Orchideenstieg", "amenity": "hospital", "beds": "138", "healthcare": "hospital", "name": "Israelitisches Krankenhaus", "website": "https://www.ik-h.de/", "wheelchair": "yes", "wikidata": "Q1674737", "wikipedia": "de:Israelitisches Krankenhaus Hamburg"}}, {"name": "Wilhelmsburger Krankenhaus Groß-Sand", "latitude": 53.5037044, "longitude": 9.9863014, "source": "osm", "_tags": {"addr:city": "Hamburg", "addr:country": "DE", "addr:housenumber": "3", "addr:postcode": "21107", "addr:street": "Groß-Sand", "amenity": "hospital", "contact:email": "info@gross-sand.de", "contact:fax": "+49 40 75205 209", "contact:phone": "+49 40 75205 0", "contact:website": "https://gross-sand.de/", "description:emergency": "2021-03: Nihmt nicht mehr an Notfallversorgung teil", "emergency": "no", "healthcare": "hospital", "name": "Wilhelmsburger Krankenhaus Groß-Sand", "operator": "Katholische Kirchengemeinde St. Bonifatius", "start_date": "1948", "wheelchair": "yes", "wikidata": "Q15854588", "wikipedia": "de:Wilhelmsburger Krankenhaus Groß-Sand"}}, {"name": "Asklepios Klinik Harburg", "latitude": 53.4595927, "longitude": 9.9477502, "source": "osm", "_tags": {"addr:city": "Hamburg", "addr:country": "DE", "addr:housenumber": "52", "addr:postcode": "21075", "addr:street": "Eißendorfer Pferdeweg", "alt_name": "AK Harburg", "amenity": "hospital", "capacity:beds": "868", "emergency": "yes", "healthcare": "hospital", "healthcare:speciality": "surgery;internal;psychiatry", "name": "Asklepios Klinik Harburg", "opening_hours": "24/7", "operator": "Asklepios Kliniken", "operator:type": "private", "operator:wikidata": "Q732068", "short_name": "AKH", "website": "https://www.asklepios.com/hamburg/harburg/", "wheelchair": "yes", "wikidata": "Q732030"}}, {"name": "Psychiatrisches Krankenhaus Rickling", "latitude": 53.9969023, "longitude": 10.1750382, "source": "osm", "_tags": {"addr:city": "Rickling", "addr:country": "DE", "addr:housenumber": "2", "addr:postcode": "24635", "addr:street": "Daldorfer Straße", "amenity": "hospital", "emergency": "yes", "healthcare": "hospital", "healthcare:speciality": "psychiatry", "name": "Psychiatrisches Krankenhaus Rickling", "operator": "Landesverein für Innere Mission in Schleswig-Holstein", "wheelchair": "yes", "wikidata": "Q120148021"}}, {"name": "Schön Klinik Neustadt", "latitude": 54.0903332, "longitude": 10.8291532, "source": "osm", "_tags": {"addr:city": "Neustadt in Holstein", "addr:housenumber": "10", "addr:postcode": "23730", "addr:street": "Am Kiebitzberg", "amenity": "hospital", "beds": "560", "check_date": "2025-08-30", "emergency": "yes", "healthcare": "hospital", "healthcare:speciality": "general;intensive;emergency;orthopaedics;neurology", "internet": "wlan", "name": "Schön Klinik Neustadt", "operator": "Schön Klinik", "operator:type": "private", "phone": "+49-4561-542000", "start_date": "1993", "website": "https://www.schoen-klinik.de/neustadt", "wheelchair": "yes"}}, {"name": "Kreiskrankenhaus des Kreises Plön", "latitude": 54.2389538, "longitude": 10.277964, "source": "osm", "_tags": {"addr:city": "Preetz", "addr:housenumber": "5", "addr:postcode": "24211", "addr:street": "Am Krankenhaus", "amenity": "hospital", "check_date": "2024-09-17", "healthcare": "hospital", "name": "Kreiskrankenhaus des Kreises Plön", "website": "http://www.kh-preetz.de/index.php", "wheelchair": "yes"}}, {"name": "Asklepios Klinik Nord Ochsenzoll", "latitude": 53.6740744, "longitude": 10.0078292, "source": "osm", "_tags": {"addr:city": "Hamburg", "addr:country": "DE", "addr:housenumber": "560", "addr:postcode": "22419", "addr:street": "Langenhorner Chaussee", "amenity": "hospital", "healthcare": "hospital", "healthcare:speciality": "psychiatry", "name": "Asklepios Klinik Nord Ochsenzoll", "operator": "Asklepios Kliniken", "operator:type": "private", "operator:wikidata": "Q732068", "operator:wikipedia": "de:Asklepios Kliniken", "website": "https://www.asklepios.com/hamburg/nord/psychiatrie-ochsenzoll/", "wheelchair": "yes"}}, {"name": "Asklepios-Klinik Bad Oldesloe", "latitude": 53.8124502, "longitude": 10.3630352, "source": "osm", "_tags": {"amenity": "hospital", "emergency": "yes", "healthcare": "hospital", "landuse": "healthcare", "name": "Asklepios-Klinik Bad Oldesloe", "operator": "Asklepios Kliniken", "operator:type": "private", "operator:wikidata": "Q732068", "operator:wikipedia": "de:Asklepios Kliniken", "website": "https://www.asklepios.com/bad-oldesloe/"}}, {"name": "Fachklinik Freudenholm-Ruhleben", "latitude": 54.2171158, "longitude": 10.3107208, "source": "osm", "_tags": {"addr:city": "Schellhorn", "addr:country": "DE", "addr:housenumber": "3", "addr:postcode": "24211", "addr:street": "Freudenholm", "amenity": "hospital", "healthcare": "hospital", "name": "Fachklinik Freudenholm-Ruhleben", "operator": "Landesverein für Innere Mission in Schleswig-Holstein", "website": "https://landesverein.de/uebersicht-fachklinik-freudenholm-ruhleben"}}, {"name": "Lubinus Clinicum", "latitude": 54.3528476, "longitude": 10.1168794, "source": "osm", "_tags": {"addr:city": "Kiel", "addr:country": "DE", "addr:housenumber": "25", "addr:postcode": "24106", "addr:street": "Steenbeker Weg", "amenity": "hospital", "check_date": "2025-04-07", "healthcare": "hospital", "name": "Lubinus Clinicum", "website": "https://www.lubinus-clinicum.de/", "wheelchair": "yes"}}, {"name": "Schön Klinik Hamburg Eilbek", "latitude": 53.577876, "longitude": 10.0525289, "source": "osm", "_tags": {"addr:city": "Hamburg", "addr:country": "DE", "addr:housenumber": "120", "addr:postcode": "22081", "addr:street": "Dehnhaide", "amenity": "hospital", "capacity:beds": "750", "check_date": "2024-06-02", "contact:facebook": "schoenklinik", "contact:instagram": "schoenklinik", "contact:phone": "+49 40 2092-0", "contact:twitter": "SchoenKlinik", "contact:website": "https://www.schoen-klinik.de/hamburg-eilbek", "contact:youtube": "SchoenKlinik", "emergency": "yes", "healthcare": "hospital", "name": "Schön Klinik Hamburg Eilbek", "official_name": "Schön Klinik Hamburg Eilbek", "operator": "Schön Klinik", "operator:type": "private", "operator:wikidata": "Q2258661", "operator:wikipedia": "de:Schön Klinik", "start_date": "1864", "wheelchair": "yes", "wikidata": "Q1602176"}}, {"name": "Asklepios Klinik Wandsbek", "latitude": 53.5699129, "longitude": 10.088317, "source": "osm", "_tags": {"addr:city": "Hamburg", "addr:country": "DE", "addr:housenumber": "14", "addr:postcode": "22043", "addr:street": "Alphonsstraße", "amenity": "hospital", "capacity:beds": "475", "emergency": "yes", "healthcare": "hospital", "healthcare:speciality": "geriatrics;internal", "name": "Asklepios Klinik Wandsbek", "operator": "Asklepios Kliniken GmbH & Co. KGaA", "operator:wikidata": "Q732068", "phone": "+49 40 181883-0", "short_name": "AKW", "website": "https://www.asklepios.com/hamburg/wandsbek/", "wikidata": "Q732061"}}, {"name": "Asklepios Klinik Nord Heidberg", "latitude": 53.6750137, "longitude": 10.030373, "source": "osm", "_tags": {"addr:city": "Hamburg", "addr:housenumber": "400", "addr:postcode": "22417", "addr:street": "Tangstedter Landstraße", "amenity": "hospital", "emergency": "yes", "healthcare": "hospital", "name": "Asklepios Klinik Nord Heidberg", "opening_hours": "24/7", "operator": "Asklepios Kliniken", "operator:type": "private", "operator:wikidata": "Q732068", "operator:wikipedia": "de:Asklepios Kliniken", "phone": "+49 40 1818870", "website": "https://www.asklepios.com/hamburg/nord/heidberg", "wheelchair": "yes"}}, {"name": "Berufsgenossenschaftliches Klinikum Hamburg", "latitude": 53.5063083, "longitude": 10.176976, "source": "osm", "_tags": {"addr:city": "Hamburg", "addr:country": "DE", "addr:housenumber": "10", "addr:postcode": "21033", "addr:street": "Bergedorfer Straße", "alt_name": "BG Klinikum Hamburg", "amenity": "hospital", "contact:email": "mail@bgk-hamburg.de", "contact:fax": "+49 40 7394660", "contact:phone": "+49 40 7306-0", "contact:website": "https://www.bg-kliniken.de/klinikum-hamburg", "contact:xing": "https://www.xing.com/companies/berufsgenossenschaftlichesunfallkrankenhaushamburg", "emergency": "yes", "healthcare": "hospital", "loc_name": "Boberg", "name": "Berufsgenossenschaftliches Klinikum Hamburg", "operator": "BG Klinikum Hamburg gGmbH", "short_name": "BGKH", "toilets:wheelchair": "yes", "wheelchair": "yes", "wikidata": "Q828953", "wikipedia": "de:BG Klinikum Hamburg"}}, {"name": "Bethesda Krankenhaus Bergedorf", "latitude": 53.4858345, "longitude": 10.2360233, "source": "osm", "_tags": {"addr:city": "Hamburg", "addr:country": "DE", "addr:housenumber": "80", "addr:postcode": "21029", "addr:street": "Glindersweg", "amenity": "hospital", "contact:email": "info@bkb.info", "contact:fax": "+49 40 72554 1147", "contact:phone": "+49 40 72554 0", "contact:website": "http://www.klinik-bergedorf.de/", "emergency": "yes", "healthcare": "hospital", "name": "Bethesda Krankenhaus Bergedorf", "operator": "Bethesda Krankenhaus Bergedorf gemeinnützige GmbH", "wheelchair": "yes"}}, {"name": "", "latitude": 54.2387664, "longitude": 10.2781718, "source": "osm", "_tags": {"building": "hospital", "building:levels": "3", "healthcare": "hospital", "material": "brick"}}, {"name": "Friedrich-Ebert-Krankenhaus", "latitude": 54.0652882, "longitude": 9.9931044, "source": "osm", "_tags": {"amenity": "hospital", "check_date": "2025-04-05", "healthcare": "hospital", "name": "Friedrich-Ebert-Krankenhaus", "short_name": "FEK", "toilets:wheelchair": "no", "website": "https://www.friedrich-ebert-krankenhaus.de/", "wheelchair": "yes", "wikidata": "Q1457719"}}, {"name": "Evangelisches Krankenhaus Alsterdorf", "latitude": 53.6141513, "longitude": 10.0242727, "source": "osm", "_tags": {"addr:city": "Hamburg", "addr:country": "DE", "addr:housenumber": "1", "addr:postcode": "22337", "addr:street": "Elisabeth-Flügge-Straße", "amenity": "hospital", "email": "eka@alsterdorf.de", "fax": "+49 40 50773361", "healthcare": "hospital", "name": "Evangelisches Krankenhaus Alsterdorf", "operator": "Evangelisches Krankenhaus Alsterdorf gGmbH", "phone": "+49 40 50773241", "toilets:wheelchair": "yes", "website": "https://www.evangelisches-krankenhaus-alsterdorf.de/", "wheelchair": "yes", "wikidata": "Q30269874"}}, {"name": "August-Bier-Klinik", "latitude": 54.1643909, "longitude": 10.5477266, "source": "osm", "_tags": {"addr:city": "Malente", "addr:country": "DE", "addr:housenumber": "7-11", "addr:postcode": "23714", "addr:street": "Diekseepromenade", "amenity": "hospital", "emergency": "no", "healthcare": "hospital", "name": "August-Bier-Klinik", "phone": "+49 4523 405 0", "toilets:wheelchair": "yes", "website": "https://www.august-bier-klinik.de/", "wheelchair": "yes"}}, {"name": "Curtius-Klinik", "latitude": 54.1717903, "longitude": 10.5661284, "source": "osm", "_tags": {"addr:city": "Malente", "addr:country": "DE", "addr:housenumber": "2", "addr:postcode": "23714", "addr:street": "Neue Kampstraße", "amenity": "hospital", "healthcare": "hospital", "name": "Curtius-Klinik", "website": "https://www.curtius-klinik.de", "wheelchair": "no"}}, {"name": "AMEOS Klinikum Oldenburg", "latitude": 54.2900614, "longitude": 10.8801334, "source": "osm", "_tags": {"addr:city": "Oldenburg in Holstein", "addr:country": "DE", "addr:housenumber": "5", "addr:postcode": "23758", "addr:street": "Mühlenkamp", "amenity": "hospital", "emergency": "yes", "healthcare": "hospital", "name": "AMEOS Klinikum Oldenburg", "operator": "Ameos", "operator:wikidata": "Q462865", "phone": "+49 4361 50804 0", "website": "https://www.ameos.eu/standorte/ameos-nord/oldenburg-in-holstein", "wheelchair": "yes"}}, {"name": "Helios Klinikum Kiel", "latitude": 54.3045621, "longitude": 10.1168621, "source": "osm", "_tags": {"addr:city": "Kiel", "addr:housenumber": "77", "addr:postcode": "24113", "addr:street": "Hamburger Chaussee", "amenity": "hospital", "emergency": "yes", "healthcare": "hospital", "name": "Helios Klinikum Kiel", "operator": "Helios Kliniken", "operator:wikidata": "Q1254151", "website": "https://www.helios-gesundheit.de/kliniken/kiel/"}}, {"name": "Universitätsklinikum Schleswig-Holstein - Campus Lübeck", "latitude": 53.8364382, "longitude": 10.7070617, "source": "osm", "_tags": {"amenity": "hospital", "check_date": "2025-04-09", "emergency": "yes", "healthcare": "hospital", "name": "Universitätsklinikum Schleswig-Holstein - Campus Lübeck", "phone": "+49 451 5000", "toilets:wheelchair": "yes", "website": "https://www.uksh.de", "wheelchair": "yes", "wikidata": "Q2496401", "wikipedia": "de:Universitätsklinikum Schleswig-Holstein"}}, {"name": "AMEOS Klinikum Preetz", "latitude": 54.2386983, "longitude": 10.2765019, "source": "osm", "_tags": {"addr:city": "Preetz", "addr:country": "DE", "addr:housenumber": "5a", "addr:postcode": "24211", "addr:street": "Am Krankenhaus", "amenity": "hospital", "check_date": "2024-09-17", "healthcare": "hospital", "healthcare:speciality": "psychiatry", "name": "AMEOS Klinikum Preetz", "website": "https://www.ameos.eu/standorte/ameos-nord/preetz/ameos-klinikum-preetz/", "wheelchair": "yes"}}, {"name": "Johanniter-Krankenhaus Geesthacht", "latitude": 53.4316441, "longitude": 10.3853014, "source": "osm", "_tags": {"addr:city": "Geesthacht", "addr:country": "DE", "addr:housenumber": "3", "addr:postcode": "21502", "addr:street": "Am Runden Berge", "amenity": "hospital", "brand": "Johanniter-Unfall-Hilfe", "brand:wikidata": "Q14751117", "contact:email": "info@johanniter-krankenhaus.de", "contact:fax": "+49 4152 179-558", "contact:phone": "+49 4152 179-0", "contact:website": "https://www.johanniter.de/johanniter-kliniken/johanniter-krankenhaus-geesthacht/", "emergency": "yes", "healthcare": "hospital", "healthcare:speciality": "emergency;gynaecology;internal;psychiatry;surgery", "name": "Johanniter-Krankenhaus Geesthacht", "opening_hours": "24/7", "operator": "Johanniter-Krankenhaus Geesthacht GmbH", "wheelchair": "yes", "wikidata": "Q15115764", "wikipedia": "de:Johanniter-Krankenhaus Geesthacht"}}, {"name": "Allgemeine Klinik Bad Segeberg", "latitude": 53.9411649, "longitude": 10.3091228, "source": "osm", "_tags": {"addr:city": "Bad Segeberg", "addr:country": "DE", "addr:housenumber": "2", "addr:postcode": "23795", "addr:street": "Krankenhausstraße", "amenity": "hospital", "emergency": "yes", "healthcare": "hospital", "healthcare:speciality": "abortion", "name": "Allgemeine Klinik Bad Segeberg", "operator": "Seegeberger Kliniken GmbH", "website": "https://www.segebergerkliniken.de/kliniken-und-zentren/allgemeine-klinik/allgemeines/", "wheelchair": "yes"}}, {"name": "Klinik für Psychsomatische Medizin und Psychotherapie", "latitude": 53.9420171, "longitude": 10.3101642, "source": "osm", "_tags": {"addr:city": "Bad Segeberg", "addr:country": "DE", "addr:housenumber": "15", "addr:postcode": "23795", "addr:street": "Krankenhausstraße", "amenity": "hospital", "healthcare": "hospital", "healthcare:speciality": "psychotherapy", "name": "Klinik für Psychsomatische Medizin und Psychotherapie", "operator": "SEGEBERGER KLINIKEN GMBH", "website": "https://www.segebergerkliniken.de/"}}, {"name": "Segeberger Kliniken Herzzentrum", "latitude": 53.9435213, "longitude": 10.3081553, "source": "osm", "_tags": {"addr:city": "Bad Segeberg", "addr:country": "DE", "addr:housenumber": "1", "addr:postcode": "23795", "addr:street": "Am Kurpark", "amenity": "hospital", "emergency": "no", "healthcare": "hospital", "healthcare:speciality": "cardiology", "name": "Segeberger Kliniken Herzzentrum", "toilets:wheelchair": "no", "website": "https://www.segebergerkliniken.de/fuer-patienten/kliniken-zentren/herzzentrum/herz-und-gefaesschirurgie.html", "wheelchair": "yes"}}, {"name": "Neurologisches Zentrum am Hamdorfer Weg", "latitude": 53.9518802, "longitude": 10.2950947, "source": "osm", "_tags": {"addr:city": "Bad Segeberg", "addr:country": "DE", "addr:housenumber": "3", "addr:postcode": "23795", "addr:street": "Hamdorfer Weg", "amenity": "hospital", "emergency": "no", "healthcare": "hospital", "healthcare:speciality": "neurology", "name": "Neurologisches Zentrum am Hamdorfer Weg", "operator": "Segeberger Kliniken", "toilets:wheelchair": "no", "website": "https://www.segebergerkliniken.de/fuer-patienten/kliniken-zentren/neurologisches-zentrum.html", "wheelchair": "limited"}}, {"name": "Krankenhaus Jerusalem", "latitude": 53.5695968, "longitude": 9.9674591, "source": "osm", "_tags": {"addr:city": "Hamburg", "addr:country": "DE", "addr:housenumber": "6", "addr:postcode": "20357", "addr:street": "Moorkamp", "amenity": "hospital", "contact:email": "info@jerusalem-hamburg.de", "contact:fax": "+49 40 4106973", "contact:phone": "+49 40 44190-0", "contact:website": "https://jerusalem-hamburg.de/", "emergency": "no", "healthcare": "hospital", "name": "Krankenhaus Jerusalem", "opening_hours": "24/7", "operator": "Krankenhaus Jerusalem GmbH", "wheelchair": "yes", "wikidata": "Q28859939", "wikipedia": "de:Krankenhaus Jerusalem"}}, {"name": "Klinik für Kinder- und Jugendmedizin Eppendorf", "latitude": 53.5912346, "longitude": 9.979582, "source": "osm", "_tags": {"addr:city": "Hamburg", "addr:country": "DE", "addr:housenumber": "52", "addr:postcode": "20251", "addr:street": "Martinistraße", "amenity": "hospital", "emergency": "yes", "healthcare": "hospital", "name": "Klinik für Kinder- und Jugendmedizin Eppendorf", "operator": "Universitätsklinikum Eppendorf", "phone": "+49 40 7410-0", "short_name": "Kinder-UKE", "website": "https://www.kinder-uke.de/", "wheelchair": "yes", "wikidata": "Q108545288"}}, {"name": "Parkklinik", "latitude": 54.3266814, "longitude": 10.1257219, "source": "osm", "_tags": {"addr:city": "Kiel", "addr:country": "DE", "addr:housenumber": "11", "addr:postcode": "24116", "addr:street": "Goethestraße", "amenity": "hospital", "healthcare": "hospital", "name": "Parkklinik", "website": "https://www.park-klinik-kiel.de/", "wheelchair": "limited", "wheelchair:description": "Klingel am Eingang"}}, {"name": "Schmerzklinik Kiel", "latitude": 54.3288825, "longitude": 10.183787, "source": "osm", "_tags": {"addr:city": "Kiel", "addr:housenumber": "9-27", "addr:postcode": "24149", "addr:street": "Heikendorfer Weg", "amenity": "hospital", "healthcare": "hospital", "name": "Schmerzklinik Kiel", "old_name": "Kompass Klinik", "website": "https://www.schmerzklinik.de/", "wheelchair": "yes"}}, {"name": "Klinik Manhagen", "latitude": 53.6630679, "longitude": 10.2574499, "source": "osm", "_tags": {"amenity": "hospital", "contact:email": "info@manhagen.de", "contact:fax": "+49 4102 605-190", "contact:phone": "+49 4102 605-0", "contact:website": "https://www.manhagen.de/", "healthcare": "hospital", "healthcare:speciality": "ophthalmology;fertility;orthopaedics;trauma", "name": "Klinik Manhagen", "operator": "Klinik Manhagen GmbH & Co. KG"}}, {"name": "Paracelsus-Klinik", "latitude": 53.7487216, "longitude": 10.0070122, "source": "osm", "_tags": {"addr:city": "Henstedt-Ulzburg", "addr:country": "DE", "addr:housenumber": "134", "addr:postcode": "24558", "addr:street": "Wilstedter Straße", "amenity": "hospital", "branch": "Henstedt-Ulzburg", "emergency": "yes", "fax": "+49 4193 70 3002", "healthcare": "hospital", "name": "Paracelsus-Klinik", "operator": "Paracelsus-Kliniken Deutschland GmbH & Co. KGaA", "operator:type": "private_for_profit", "phone": "+49 4193 70 0", "website": "https://www.paracelsus-kliniken.de/henstedt-ulzburg.html", "wheelchair": "yes"}}, {"name": "DRK-Krankenhaus Mölln-Ratzeburg", "latitude": 53.6899657, "longitude": 10.7781976, "source": "osm", "_tags": {"addr:city": "Ratzeburg", "addr:country": "DE", "addr:housenumber": "2", "addr:postcode": "23909", "addr:street": "Röpersberg", "amenity": "hospital", "brand": "Deutsches Rotes Kreuz", "brand:wikidata": "Q694104", "brand:wikipedia": "de:Deutsches Rotes Kreuz", "contact:email": "info@drk-krankenhaus.de", "contact:fax": "+49 4541 884500", "contact:phone": "+49 4541 8840", "contact:website": "https://www.drk-krankenhaus.de/", "emergency": "yes", "healthcare": "hospital", "name": "DRK-Krankenhaus Mölln-Ratzeburg", "operator": "DRK-Krankenhaus Mölln-Ratzeburg gGmbH", "toilets:wheelchair": "yes", "wheelchair": "yes"}}, {"name": "AMEOS Reha Klinikum Ratzeburg", "latitude": 53.6828859, "longitude": 10.7708083, "source": "osm", "_tags": {"amenity": "hospital", "check_date": "2024-11-22", "healthcare": "hospital", "name": "AMEOS Reha Klinikum Ratzeburg", "old_website": "http_//www.roepersbergklinik.de", "operator": "Ameos", "operator:type": "private", "operator:wikidata": "Q462865", "toilets:wheelchair": "no", "wheelchair": "yes"}}, {"name": "St. Elisabeth Krankenhaus", "latitude": 54.3169175, "longitude": 10.1269519, "source": "osm", "_tags": {"addr:city": "Kiel", "addr:country": "DE", "addr:housenumber": "8", "addr:postcode": "24103", "addr:street": "Königsweg", "amenity": "hospital", "fax": "+49 431 6603409", "healthcare": "hospital", "name": "St. Elisabeth Krankenhaus", "phone": "+49 431 66030", "website": "https://www.sek-kiel.de/", "wheelchair": "limited"}}, {"name": "AMEOS Klinikum", "latitude": 54.2965352, "longitude": 10.1850112, "source": "osm", "_tags": {"addr:city": "Kiel", "addr:country": "DE", "addr:housenumber": "621-623", "addr:postcode": "24147", "addr:street": "Tiroler Ring", "amenity": "hospital", "check_date": "2024-07-15", "emergency": "no", "healthcare": "hospital", "name": "AMEOS Klinikum", "phone": "+49 431 780530", "website": "https://www.ameos.eu/standorte/ameos-nord/kiel/ameos-klinikum-kiel/", "wheelchair": "limited"}}, {"name": "Krankenhaus Reinbek St. Adolf-Stift", "latitude": 53.5097589, "longitude": 10.2406783, "source": "osm", "_tags": {"addr:city": "Reinbek", "addr:country": "DE", "addr:housenumber": "41", "addr:postcode": "21465", "addr:street": "Hamburger Straße", "amenity": "hospital", "contact:email": "info@krankenhaus-reinbek.de", "contact:fax": "+49 40 7280-2246", "contact:phone": "+49 40 7280-0", "contact:website": "https://www.krankenhaus-reinbek.de/", "emergency": "yes", "healthcare": "hospital", "healthcare:speciality": "surgery;gastroenterology;gynaecology;internal;cardiology;nephrology;oncology;orthopaedics;radiology;trauma;urology", "name": "Krankenhaus Reinbek St. Adolf-Stift", "wheelchair": "yes", "wikidata": "Q30270032"}}, {"name": "AMEOS Klinikum Eutin", "latitude": 54.1328431, "longitude": 10.6014627, "source": "osm", "_tags": {"addr:city": "Eutin", "addr:country": "DE", "addr:housenumber": "22", "addr:postcode": "23701", "addr:street": "Hospitalstraße", "amenity": "hospital", "emergency": "yes", "healthcare": "hospital", "name": "AMEOS Klinikum Eutin", "operator": "Ameos", "operator:type": "private", "operator:wikidata": "Q462865", "phone": "+49 4521 787 0", "website": "https://www.ameos.eu/standorte/ameos-nord/eutin/", "wheelchair": "yes"}}, {"name": "Sankt Elisabeth Krankenhaus", "latitude": 54.1384412, "longitude": 10.6104367, "source": "osm", "_tags": {"addr:city": "Eutin", "addr:country": "DE", "addr:housenumber": "42", "addr:postcode": "23701", "addr:street": "Plöner Straße", "amenity": "hospital", "healthcare": "hospital", "name": "Sankt Elisabeth Krankenhaus", "phone": "+49 4521 8020", "website": "https://www.sekeutin.de/", "wheelchair": "yes"}}, {"name": "AMEOS Klinikum Middelburg", "latitude": 54.0824338, "longitude": 10.6838417, "source": "osm", "_tags": {"addr:city": "Süsel", "addr:housenumber": "1", "addr:postcode": "23701", "addr:street": "Middelburger Straße", "amenity": "hospital", "healthcare": "hospital", "name": "AMEOS Klinikum Middelburg", "operator": "Ameos", "phone": "+49 4524 9090", "website": "https://www.ameos.eu/standorte/ameos-nord/middelburg/"}}, {"name": "Ostseeklinik", "latitude": 53.9154532, "longitude": 10.6977777, "source": "osm", "_tags": {"addr:city": "Bad Schwartau", "addr:country": "DE", "addr:housenumber": "1", "addr:postcode": "23611", "addr:street": "Anton-Baumann-Straße", "amenity": "hospital", "contact:fax": "+49 451 88988710", "contact:phone": "+49 451 8898870", "contact:website": "http://www.ostsee-klinik.de", "healthcare": "hospital", "name": "Ostseeklinik", "toilets:wheelchair": "no", "wheelchair": "yes"}}, {"name": "Helios Agnes-Karll-Krankenhaus Bad Schwartau", "latitude": 53.9224211, "longitude": 10.693842, "source": "osm", "_tags": {"addr:city": "Bad Schwartau", "addr:country": "DE", "addr:housenumber": "21", "addr:postcode": "23611", "addr:street": "Am Hochkamp", "amenity": "hospital", "emergency": "no", "healthcare": "hospital", "name": "Helios Agnes-Karll-Krankenhaus Bad Schwartau", "opening_hours": "24/7", "operator": "Helios Kliniken", "operator:type": "private", "operator:wikidata": "Q1254151", "phone": "+49 451 20070", "toilets:wheelchair": "yes", "website": "https://www.helios-gesundheit.de/kliniken/bad-schwartau/", "wheelchair": "yes"}}, {"name": "MARE Klinikum", "latitude": 54.3384697, "longitude": 10.1043882, "source": "osm", "_tags": {"addr:city": "Kronshagen", "addr:country": "DE", "addr:housenumber": "219", "addr:postcode": "24119", "addr:street": "Eckernförder Straße", "amenity": "hospital", "check_date": "2024-09-22", "healthcare": "hospital", "name": "MARE Klinikum", "toilets:wheelchair": "yes", "wheelchair": "yes"}}, {"name": "O46", "latitude": 53.5917377, "longitude": 9.9791747, "source": "osm", "_tags": {"building": "hospital", "healthcare": "hospital", "name": "O46", "ref": "O46"}}, {"name": "Universitätsklinikum Schleswig-Holstein - Campus Kiel", "latitude": 54.3305428, "longitude": 10.142576, "source": "osm", "_tags": {"addr:city": "Kiel", "addr:housenumber": "3 - 6", "addr:postcode": "24105", "addr:street": "Arnold-Heller-Straße", "amenity": "hospital", "healthcare": "hospital", "name": "Universitätsklinikum Schleswig-Holstein - Campus Kiel", "phone": "+49 431 597 0", "short_name": "UKSH", "type": "multipolygon", "website": "https://www.uksh.de/kiel", "wheelchair": "yes", "wikidata": "Q2496401", "wikipedia": "de:Universitätsklinikum Schleswig-Holstein"}}, {"name": "Marienkrankenhaus", "latitude": 53.559017, "longitude": 10.0311583, "source": "osm", "_tags": {"addr:city": "Hamburg", "addr:country": "DE", "addr:housenumber": "9", "addr:postcode": "22087", "addr:street": "Alfredstraße", "alt_name": "Kath. Marienkrankenhaus", "amenity": "hospital", "capacity:beds": "605", "contact:email": "info@marienkrankenhaus.org", "contact:fax": "+49 40 2546-2546", "contact:phone": "+49 40 2546-0", "contact:website": "https://www.marienkrankenhaus.org", "denomination": "catholic", "healthcare": "hospital", "name": "Marienkrankenhaus", "opening_hours": "24/7", "operator": "Kath. Marienkrankenhaus gGmbH", "religion": "christian", "type": "multipolygon", "wheelchair": "yes", "wikidata": "Q1897895", "wikipedia": "de:Marienkrankenhaus Hamburg"}}, {"name": "Agaplesion Diakonieklinikum Hamburg", "latitude": 53.5718116, "longitude": 9.9661551, "source": "osm", "_tags": {"addr:city": "Hamburg", "addr:country": "DE", "addr:housenumber": "17", "addr:postcode": "20259", "addr:street": "Hohe Weide", "amenity": "hospital", "building": "hospital", "building:levels": "5", "email": "info@d-k-h.de", "emergency": "yes", "fax": "+49 40 790201079", "healthcare": "hospital", "name": "Agaplesion Diakonieklinikum Hamburg", "operator": "Agaplesion", "operator:type": "private", "operator:wikidata": "Q55445", "phone": "+49 40 790200", "roof:shape": "flat", "type": "multipolygon", "website": "https://www.d-k-h.de", "wheelchair": "yes"}}, {"name": "Universitätsklinikum Eppendorf", "latitude": 53.5902671, "longitude": 9.9746838, "source": "osm", "_tags": {"amenity": "hospital", "healthcare": "hospital", "name": "Universitätsklinikum Eppendorf", "phone": "+49 40 74100", "type": "site", "website": "https://www.uke.de", "wheelchair": "yes", "wikidata": "Q316207"}}, {"name": "Bundeswehrkrankenhaus Hamburg", "latitude": 53.5952534, "longitude": 10.0774097, "source": "osm", "_tags": {"addr:city": "Hamburg", "addr:country": "DE", "addr:housenumber": "180", "addr:postcode": "22049", "addr:street": "Lesserstraße", "alt_name": "BwKrhs Hamburg", "amenity": "hospital", "contact:email": "BwKrhsHamburg@bundeswehr.org", "contact:fax": "+49 40 6947-10629", "contact:phone": "+49 40 6947-0", "contact:website": "https://hamburg.bwkrankenhaus.de", "emergency": "yes", "healthcare": "hospital", "military": "hospital", "name": "Bundeswehrkrankenhaus Hamburg", "opening_hours": "24/7", "operator": "Zentraler Sanitätsdienst der Bundeswehr", "short_name": "BWK Hamburg", "type": "multipolygon", "wikidata": "Q1009270", "wikipedia": "de:Bundeswehrkrankenhaus Hamburg"}}, {"name": "Sana Kliniken Lübeck", "latitude": 53.8487442, "longitude": 10.6891488, "source": "osm", "_tags": {"amenity": "hospital", "contact:email": "info-luebeck@sana.de", "contact:fax": "+49 451 585-1234", "contact:phone": "+49 451 585-01", "contact:website": "https://www.sana.de/luebeck", "emergency": "yes", "healthcare": "hospital", "name": "Sana Kliniken Lübeck", "operator": "Sana Kliniken", "operator:type": "private", "operator:wikidata": "Q2220152", "type": "multipolygon", "wheelchair": "yes"}}, {"name": "O40 Martini-Klinik", "latitude": 53.5921728, "longitude": 9.9782336, "source": "osm", "_tags": {"building": "hospital", "building:levels": "7", "healthcare": "hospital", "healthcare:speciality": "urology", "name": "O40 Martini-Klinik", "ref": "O40", "roof:levels": "0", "roof:shape": "flat", "type": "multipolygon", "wikidata": "Q65998650", "wikipedia": "de:Martini-Klinik am UKE"}}]