[{"name": "Ośrodek Szkoleniowo Wypoczynkowy WSPR Szczecin", "latitude": 54.1698983, "longitude": 15.5532129, "source": "osm", "_tags": {"addr:city": "Kołobrzeg", "addr:country": "PL", "addr:housenumber": "13", "addr:postcode": "78-100", "addr:street": "Żurawia", "amenity": "hospital", "building": "hotel", "building:levels": "3", "healthcare": "hospital", "name": "Ośrodek Szkoleniowo Wypoczynkowy WSPR Szczecin", "operator": "Wojewódzka Stacja Pogotowia Ratunkowego w Szczecinie", "phone": "+48 91 4333801; +48 519307450", "website": "https://www.nocowanie.pl/noclegi/kolobrzeg/os__wypoczynkowe/177527/"}}, {"name": "Samodzielny Publiczny Szpital Rejonowy w Nowogardzie", "latitude": 53.6726733, "longitude": 15.1100042, "source": "osm", "_tags": {"addr:city": "Nowogard", "addr:housenumber": "7", "addr:postcode": "72-200", "addr:street": "Wojska Polskiego", "amenity": "hospital", "building": "hospital", "building:levels": "4", "email": "spsr_nowogard@wp.pl", "emergency": "no", "fax": "+48 91 392 00 59", "healthcare": "hospital", "name": "Samodzielny Publiczny Szpital Rejonowy w Nowogardzie", "operator": "Gmina Nowogard", "phone": "+48 91 392 13 56; +48 91 392 18 77", "short_name": "SPSR Nowogard", "website": "https://www.szpital.nowogard.pl"}}, {"name": "Samodzielny Publiczny Zespół Zakładów Opieki Zdrowotnej w Gryficach", "latitude": 53.923849, "longitude": 15.1760837, "source": "osm", "_tags": {"amenity": "hospital", "contact:facebook": "https://www.facebook.com/SPZZOZ-w-Gryficach-MEDICAM-113278858761363/", "email": "szpital@medicam.pl", "emergency": "yes", "fax": "+48 91 384 21 68", "healthcare": "hospital", "int_name": "Medicam", "landuse": "healthcare", "loc_name": "Szpital w Gryficach", "name": "Samodzielny Publiczny Zespół Zakładów Opieki Zdrowotnej w Gryficach", "official_name": "Samodzielny Publiczny Zespół Zakładów Opieki Zdrowotnej w Gryficach", "old_name": "Szpital im. prof. Julii i Witolda Starkiewiczów", "operator": "Zarząd Województwa Zachodniopomorskiego", "phone": "+48 91 384 20 61", "short_name": "SPZZOZ w Gryficach", "website": "http://www.medicam.pl/"}}, {"name": "Regionalny Szpital w Kołobrzegu", "latitude": 54.1741241, "longitude": 15.5679225, "source": "osm", "_tags": {"addr:city": "Kołobrzeg", "addr:country": "PL", "addr:housenumber": "31-33", "addr:postcode": "78-100", "addr:street": "Podporucznika Edmunda Łopuskiego", "amenity": "hospital", "email": "kancelaria@szpital.kolobrzeg.pl", "emergency": "no", "fax": "+48 94 35 23 982", "healthcare": "hospital", "name": "Regionalny Szpital w Kołobrzegu", "name:de": "Regionkrankenhaus", "name:en": "Regional Hospital", "operator": "Samorząd Województwa Zachodniopomorskiego", "phone": "+48 +48 94 35 30 200; +48 94 35 30 201", "source:geometry": "WMS EGIB powiat kołobrzeski : Działki ewidencyjne - https://kolobrzeski.webewid.pl/wms/wms-egib.php", "website": "https://szpital.kolobrzeg.pl/", "wheelchair": "yes"}}, {"name": "Drawskie Centrum Specjalistyczne", "latitude": 53.5252737, "longitude": 15.8108971, "source": "osm", "_tags": {"amenity": "hospital", "email": "sekretariat-drawsko@szpitale-polskie.pl", "emergency": "yes", "healthcare": "hospital", "name": "Drawskie Centrum Specjalistyczne", "operator": "Szpitale Polskie S.A.", "phone": "+48 94 363 03 41", "website": "https://www.szpitale-polskie.pl/drawsko-pomorskie/"}}]