[{"name": "Скурна-венеролагічнае аддзяленне", "latitude": 53.4803491, "longitude": 26.7488175, "source": "osm", "_tags": {"amenity": "hospital", "name": "Скурна-венеролагічнае аддзяленне", "name:be": "Скурна-венеролагічнае аддзяленне", "name:ru": "Кожно-венерологичекое отделение"}}, {"name": "Бакштанская амбулаторыя агульнай практыкі", "latitude": 53.9384269, "longitude": 26.1852975, "source": "osm", "_tags": {"addr:housenumber": "76", "addr:postcode": "231362", "addr:street": "Першамайская вуліца", "amenity": "hospital", "email": "avop_bak@mail.ru", "name": "Бакштанская амбулаторыя агульнай практыкі", "name:be": "Бакштанская амбулаторыя агульнай практыкі", "name:ru": "Бакштанская амбулатория общей практики", "opening_hours": "Mo-Sa 08:00-13:00, 14:00-18:00", "phone": "80159562811", "website": "http://www.i-crb.by/o-nas/struktura"}}, {"name": "Амбулаторыя", "latitude": 54.3132984, "longitude": 26.7053105, "source": "osm", "_tags": {"amenity": "hospital", "healthcare": "hospital", "name": "Амбулаторыя", "name:be": "Амбулаторыя", "name:ru": "Амбулатория"}}, {"name": "Раённая бальніца №2", "latitude": 54.3077077, "longitude": 26.8525671, "source": "osm", "_tags": {"addr:housenumber": "1", "addr:street": "вуліца Валынца", "amenity": "hospital", "building": "yes", "building:levels": "4", "healthcare": "hospital", "name": "Раённая бальніца №2", "name:be": "Раённая бальніца №2", "name:ru": "Районная больница №2", "roof:colour": "dimgray"}}, {"name": "Скура-венералагічны дыспансэр", "latitude": 54.3103954, "longitude": 26.8402275, "source": "osm", "_tags": {"addr:housenumber": "14", "addr:street": "вуліца Валынца", "amenity": "hospital", "building": "yes", "building:levels": "2", "name": "Скура-венералагічны дыспансэр", "name:be": "Скура-венералагічны дыспансэр", "name:ru": "Кожно-венерологический диспансер", "roof:colour": "darkgreen", "roof:shape": "hipped"}}, {"name": "Дзіцячая паліклініка", "latitude": 54.3101047, "longitude": 26.8459329, "source": "osm", "_tags": {"addr:housenumber": "11А", "addr:postcode": "222310", "addr:street": "Віленская вуліца", "amenity": "hospital", "building": "yes", "building:levels": "4", "healthcare": "hospital", "name": "Дзіцячая паліклініка", "name:be": "Дзіцячая паліклініка", "name:en": "Children's hospital", "name:ru": "Детская поликлиника", "opening_hours": "Mo-Sa 07:00-20:00", "phone": "+375 176 771711", "roof:colour": "dimgray"}}, {"name": "4-ы корпус", "latitude": 54.3002986, "longitude": 26.8317712, "source": "osm", "_tags": {"addr:housenumber": "3", "addr:street": "вуліца Чкалава", "amenity": "hospital", "building": "yes", "name": "4-ы корпус", "name:be": "4-ы корпус", "name:ru": "4-й корпус"}}, {"name": "", "latitude": 53.57758, "longitude": 26.1310753, "source": "osm", "_tags": {"amenity": "hospital", "building": "yes", "building:levels": "5"}}, {"name": "Бальніца", "latitude": 54.0884564, "longitude": 26.51497, "source": "osm", "_tags": {"amenity": "hospital", "healthcare": "hospital", "landuse": "residential", "name": "Бальніца", "name:be": "Бальніца", "name:ru": "Больница"}}, {"name": "", "latitude": 53.6673567, "longitude": 26.0861587, "source": "osm", "_tags": {"amenity": "hospital", "building": "yes"}}, {"name": "Морг Маладзечанскага МРА ГКСЭ РБ", "latitude": 54.316806, "longitude": 26.881299, "source": "osm", "_tags": {"addr:city": "Маладзечна", "addr:housenumber": "50", "addr:street": "вуліца Янкі Купалы", "amenity": "hospital", "building": "yes", "healthcare": "hospital", "healthcare:speciality": "forensic_medicine", "name": "Морг Маладзечанскага МРА ГКСЭ РБ", "name:be": "Морг Маладзечанскага МРА ГКСЭ РБ", "name:ru": "Морг Молоднченского МРО ГКСЭ РБ", "operator": "Государственный комитет судебных экспертиз", "operator:type": "government"}}, {"name": "Любчанская бальніца", "latitude": 53.7498881, "longitude": 26.056904, "source": "osm", "_tags": {"amenity": "hospital", "building": "yes", "healthcare": "hospital", "name": "Любчанская бальніца", "name:be": "Любчанская бальніца", "name:ru": "Любчанская больница"}}, {"name": "", "latitude": 54.2239296, "longitude": 26.611191, "source": "osm", "_tags": {"addr:city": "Беразінскае", "addr:housenumber": "21", "addr:street": "Кастрычніцкая вуліца", "amenity": "hospital", "building": "yes", "building:levels": "2"}}, {"name": "Iвянецкая бальніца", "latitude": 53.8904167, "longitude": 26.7436791, "source": "osm", "_tags": {"addr:housenumber": "3", "addr:postcode": "222370", "addr:street": "Беларуская вуліца", "amenity": "hospital", "building": "yes", "building:levels": "3", "healthcare": "hospital", "name": "Iвянецкая бальніца", "name:be": "Iвянецкая бальніца", "name:ru": "Ивенецкая больница", "operator": "Воложинская ЦРБ", "operator:type": "government", "phone": "+375 (17) 72 53332"}}, {"name": "Фельчарска-акушэрскі пункт", "latitude": 53.566772, "longitude": 26.3427063, "source": "osm", "_tags": {"amenity": "hospital", "healthcare": "hospital", "name": "Фельчарска-акушэрскі пункт", "name:be": "Фельчарска-акушэрскі пункт", "name:ru": "Фельдшерско-акушерский пункт"}}, {"name": "Маладзечанскі супрацьсухотны дыспансер", "latitude": 54.3550594, "longitude": 26.8644225, "source": "osm", "_tags": {"amenity": "hospital", "emergency": "no", "healthcare": "hospital", "name": "Маладзечанскі супрацьсухотны дыспансер", "name:be": "Маладзечанскі супрацьсухотны дыспансер", "name:ru": "Молодечненский противотуберкулезный диспансер"}}, {"name": "Дзіцячая бальніца", "latitude": 54.3079275, "longitude": 26.8471632, "source": "osm", "_tags": {"amenity": "hospital", "barrier": "fence", "name": "Дзіцячая бальніца", "name:be": "Дзіцячая бальніца", "name:ru": "Детская больница (1955 г.)"}}, {"name": "Рубяжэвіцкая ўчастковая бальніца", "latitude": 53.6947517, "longitude": 26.8573188, "source": "osm", "_tags": {"amenity": "hospital", "name": "Рубяжэвіцкая ўчастковая бальніца", "name:be": "Рубяжэвіцкая ўчастковая бальніца", "name:ru": "Рубежевичская участковая больница"}}, {"name": "Амбулаторыя", "latitude": 53.8200749, "longitude": 26.6742452, "source": "osm", "_tags": {"amenity": "hospital", "building": "yes", "healthcare": "hospital", "name": "Амбулаторыя", "name:be": "Амбулаторыя", "name:ru": "Амбулаторыя"}}, {"name": "УАЗ «Стаўбцоўская цэнтральная раённая бальніца»", "latitude": 53.4873356, "longitude": 26.7498172, "source": "osm", "_tags": {"amenity": "hospital", "email": "rtmo-stolbtsy@tut.by", "emergency": "yes", "healthcare": "hospital", "internet_access": "wlan", "name": "УАЗ «Стаўбцоўская цэнтральная раённая бальніца»", "name:be": "УАЗ «Стаўбцоўская цэнтральная раённая бальніца»", "name:ru": "УЗ «Столбцовская центральная районная больница»", "opening_hours": "Mo-Fr 07:30-20:00; Sa-Su 08:00-15:00", "phone": "+375-17-1752300", "website": "https://scrb.by"}}, {"name": "", "latitude": 54.4222145, "longitude": 26.5471357, "source": "osm", "_tags": {"amenity": "hospital", "healthcare": "hospital"}}, {"name": "", "latitude": 54.3000571, "longitude": 26.8343492, "source": "osm", "_tags": {"amenity": "hospital", "healthcare": "hospital"}}, {"name": "", "latitude": 53.6563444, "longitude": 26.1683001, "source": "osm", "_tags": {"amenity": "hospital", "healthcare": "hospital"}}, {"name": "", "latitude": 53.4750004, "longitude": 26.0205481, "source": "osm", "_tags": {"amenity": "hospital", "healthcare": "hospital"}}, {"name": "Мірская гарпасялковая бальніца", "latitude": 53.450768, "longitude": 26.4819952, "source": "osm", "_tags": {"amenity": "hospital", "healthcare": "hospital", "int_name": "Mirskaja harpasiałkovaja balnica", "name": "Мірская гарпасялковая бальніца", "name:be": "Мірская гарпасялковая бальніца", "name:pl": "Szpital miejski w Mirze", "name:ru": "Мирская горпоселковая больница"}}, {"name": "", "latitude": 53.8903352, "longitude": 26.7435514, "source": "osm", "_tags": {"area": "yes", "healthcare": "hospital"}}, {"name": "Гарадская бальніца", "latitude": 54.3010051, "longitude": 26.8329348, "source": "osm", "_tags": {"addr:housenumber": "3", "addr:street": "вуліца Чкалава", "amenity": "hospital", "building": "yes", "building:levels": "1", "emergency": "yes", "healthcare": "hospital", "name": "Гарадская бальніца", "name:be": "Гарадская бальніца", "name:ru": "Городская больница", "type": "multipolygon"}}]