[{"name": "Alfred Bean Community Hospital", "latitude": 54.0121698, "longitude": -0.423233, "source": "osm", "_tags": {"addr:city": "Driffield", "addr:postcode": "YO25 5JR", "addr:street": "Bridlington Road", "amenity": "hospital", "healthcare": "hospital", "name": "Alfred Bean Community Hospital", "operator": "York Teaching Hospital NHS Foundation Trust", "phone": "+44 1377 208700", "website": "https://www.chcpcic.org.uk/"}}, {"name": "Mill View", "latitude": 53.777579, "longitude": -0.4398342, "source": "osm", "_tags": {"amenity": "hospital", "check_date": "2024-04-12", "name": "Mill View", "operator": "Humber Mental Health NHS"}}, {"name": "Castle Hill Hospital", "latitude": 53.7785694, "longitude": -0.4432752, "source": "osm", "_tags": {"amenity": "hospital", "check_date": "2024-04-12", "emergency": "no", "healthcare": "hospital", "name": "Castle Hill Hospital", "wikidata": "Q5050141"}}, {"name": "Occupational Health Center", "latitude": 53.5857876, "longitude": -0.6245022, "source": "osm", "_tags": {"amenity": "hospital", "building": "yes", "healthcare": "hospital", "healthcare:speciality": "occupational", "name": "Occupational Health Center", "source:geometry": "Bing"}}, {"name": "Diana Princess of Wales Hospital", "latitude": 53.5455245, "longitude": -0.0952822, "source": "osm", "_tags": {"addr:city": "Grimsby", "addr:country": "GB", "addr:postcode": "DN33 2BA", "addr:street": "Scartho Road", "amenity": "hospital", "healthcare": "hospital", "name": "Diana Princess of Wales Hospital", "nohousenumber": "yes", "note": "Rough area of hospital", "phone": "+44 3033 306 999", "ref:GB:cqc_location": "RJL30", "ref:GB:nhs_ods": "RJL30", "source": "Bing;estimation", "source:name": "survey", "wikidata": "Q5271054", "wikipedia": "en:Diana, Princess of Wales Hospital"}}, {"name": "The Retreat", "latitude": 53.9497536, "longitude": -1.0625503, "source": "osm", "_tags": {"addr:city": "York", "addr:postcode": "YO10 5BN", "addr:street": "Heslington Road", "amenity": "hospital", "emergency": "no", "healthcare": "hospital", "healthcare:speciality": "psychiatry", "name": "The Retreat", "website": "https://www.theretreatyork.org.uk/", "wikidata": "Q2146269", "wikipedia": "en:The Retreat"}}, {"name": "Scunthorpe General Hospital", "latitude": 53.5870022, "longitude": -0.66719, "source": "osm", "_tags": {"addr:city": "Scunthorpe", "addr:postcode": "DN15 7BH", "addr:street": "Cliff Gardens", "amenity": "hospital", "emergency": "yes", "fhrs:id": "214156", "healthcare": "hospital", "name": "Scunthorpe General Hospital", "operator": "NHS", "operator:type": "public", "operator:wikidata": "Q918396", "source:addr": "FHRS Open Data", "source:geometry": "Bing", "wikidata": "Q7439496", "wikipedia": "en:Scunthorpe General Hospital"}}, {"name": "Goole and District Hospital", "latitude": 53.7159392, "longitude": -0.8742469, "source": "osm", "_tags": {"amenity": "hospital", "emergency": "yes", "healthcare": "hospital", "name": "Goole and District Hospital", "toilets:wheelchair": "yes", "wheelchair": "yes", "wikidata": "Q16966314"}}, {"name": "Hull and East Yorkshire Eye Hospital", "latitude": 53.7439635, "longitude": -0.3541585, "source": "osm", "_tags": {"addr:city": "Hull", "addr:housename": "Hull and East Yorkshire Eye Hospital", "addr:postcode": "HU3 2JZ", "addr:street": "Fountain Street", "amenity": "hospital", "building": "hospital", "check_date": "2024-07-03", "healthcare": "hospital", "name": "Hull and East Yorkshire Eye Hospital"}}, {"name": "Hull Royal Infirmary", "latitude": 53.7440232, "longitude": -0.3582041, "source": "osm", "_tags": {"amenity": "hospital", "building": "hospital", "building:levels": "13", "check_date": "2024-07-03", "emergency": "yes", "healthcare": "hospital", "height": "55", "name": "Hull Royal Infirmary", "roof:colour": "gray", "roof:shape": "flat", "wikidata": "Q5935973"}}, {"name": "Bridlington and District Hospital", "latitude": 54.0868452, "longitude": -0.2160278, "source": "osm", "_tags": {"addr:city": "Bridlington", "addr:postcode": "YO16 4QP", "addr:street": "Bessingby Road", "amenity": "hospital", "emergency": "no", "name": "Bridlington and District Hospital", "source": "Bing"}}, {"name": "East Riding Community Hospital", "latitude": 53.8530616, "longitude": -0.41245, "source": "osm", "_tags": {"addr:city": "Beverley", "addr:postcode": "HU17 0FA", "addr:street": "Swinemoor Lane", "amenity": "hospital", "emergency": "yes", "healthcare": "hospital", "name": "East Riding Community Hospital", "note": "has a urgent tratment centre open 07:000-23:00 not a full emergency department"}}, {"name": "Windermere House", "latitude": 53.7499177, "longitude": -0.3084265, "source": "osm", "_tags": {"addr:postcode": "HU9 2BH", "amenity": "hospital", "building": "yes", "name": "Windermere House", "ref:GB:uprn": "21118233"}}, {"name": "Townend Court", "latitude": 53.7705778, "longitude": -0.377032, "source": "osm", "_tags": {"addr:city": "Hull", "addr:postcode": "HU6 8QG", "amenity": "hospital", "name": "Townend Court", "ref:GB:uprn": "21118069"}}, {"name": "Hull Royal", "latitude": 53.7443751, "longitude": -0.3565565, "source": "osm", "_tags": {"amenity": "hospital", "healthcare": "hospital", "name": "Hull Royal", "toilets:wheelchair": "yes", "wheelchair": "yes"}}, {"name": "Scarborough Hospital", "latitude": 54.2821821, "longitude": -0.4360362, "source": "osm", "_tags": {"addr:city": "Scarborough", "addr:country": "GB", "addr:postcode": "YO12 6QL", "addr:street": "Woodlands Drive", "amenity": "hospital", "designation": "Scarborough & North East Yorkshire NHS Hospital", "emergency": "yes", "internet_access": "wlan", "name": "Scarborough Hospital", "opening_hours": "24/7", "phone": "+44 1723 368111", "short_name": "Scarborough Hospital", "toilets:wheelchair": "yes", "website": "https://www.yorkhospitals.nhs.uk/our-hospitals/scarborough-hospital", "wheelchair": "yes", "wikidata": "Q7430288"}}, {"name": "Cross Lane Hospital", "latitude": 54.2966212, "longitude": -0.4250402, "source": "osm", "_tags": {"addr:city": "Scarborough", "addr:postcode": "YO12 6DN", "addr:street": "Cross Lane", "amenity": "hospital", "emergency": "no", "healthcare": "hospital", "name": "Cross Lane Hospital"}}, {"name": "Stockton Hall", "latitude": 53.9958042, "longitude": -1.0048552, "source": "osm", "_tags": {"addr:city": "Stockton-on-the-Forest", "addr:postcode": "YO32 9UN", "addr:street": "The Village", "amenity": "hospital", "emergency": "no", "healthcare": "hospital", "name": "Stockton Hall"}}, {"name": "Malton Community Hospital", "latitude": 54.1371877, "longitude": -0.8063383, "source": "osm", "_tags": {"addr:city": "Malton", "addr:postcode": "YO17 7NG", "amenity": "hospital", "emergency": "no", "fhrs:id": "285163", "healthcare": "hospital", "name": "Malton Community Hospital", "website": "https://www.yorkhospitals.nhs.uk/our-hospitals/malton-community-hospital/", "wikidata": "Q85783509", "wikipedia": "en:Malton Community Hospital"}}, {"name": "Miranda House", "latitude": 53.7443436, "longitude": -0.361988, "source": "osm", "_tags": {"addr:city": "Hull", "addr:housename": "Miranda House", "addr:postcode": "HU3 2RT", "addr:street": "Gladstone Street", "amenity": "hospital", "healthcare": "hospital", "name": "Miranda House", "phone": "+44 1482 216624", "website": "https://www.humber.nhs.uk/"}}, {"name": "Deliveries Area", "latitude": 53.8533132, "longitude": -0.4123351, "source": "osm", "_tags": {"amenity": "hospital", "healthcare": "hospital", "name": "Deliveries Area"}}, {"name": "Drop Off Only", "latitude": 53.8524738, "longitude": -0.4132316, "source": "osm", "_tags": {"amenity": "hospital", "healthcare": "hospital", "name": "Drop Off Only"}}, {"name": "Ambulances Only", "latitude": 53.8524178, "longitude": -0.4130714, "source": "osm", "_tags": {"amenity": "hospital", "healthcare": "hospital", "name": "Ambulances Only"}}, {"name": "Drop Off Only", "latitude": 53.8526442, "longitude": -0.4136467, "source": "osm", "_tags": {"amenity": "hospital", "healthcare": "hospital", "name": "Drop Off Only"}}, {"name": "Harrison House", "latitude": 53.5506125, "longitude": -0.073695, "source": "osm", "_tags": {"amenity": "hospital", "emergency": "no", "healthcare": "hospital", "healthcare:speciality": "psychiatry", "name": "Harrison House", "operator": "Navogo"}}, {"name": "St Hughs", "latitude": 53.5506707, "longitude": -0.0717095, "source": "osm", "_tags": {"addr:city": "Grimsby", "addr:country": "GB", "addr:postcode": "DN32 9RP", "addr:street": "Peaks Lane", "amenity": "hospital", "contact:email": "info@hmtsthughs.org", "contact:phone": "+44 1472 251100", "contact:website": "https://hmtsthughs.org/", "emergency": "no", "fhrs:id": "676209", "healthcare": "hospital", "name": "St Hughs", "nohousenumber": "yes", "operator": "The Healthcare Management Trust (HMT)"}}, {"name": "Hornsea Cottage Hospital", "latitude": 53.9153644, "longitude": -0.1695718, "source": "osm", "_tags": {"addr:city": "Hornsea", "addr:postcode": "HU18 1LP", "addr:street": "Eastgate", "amenity": "hospital", "healthcare": "hospital", "name": "Hornsea Cottage Hospital", "wikidata": "Q30293223", "wikipedia": "en:Hornsea Cottage Hospital"}}, {"name": "Spire Hull and East Riding Hospital", "latitude": 53.7392851, "longitude": -0.4353644, "source": "osm", "_tags": {"amenity": "hospital", "building": "yes", "name": "Spire Hull and East Riding Hospital", "type": "multipolygon"}}, {"name": "Hull and East Riding Women and Childrens' Hospital", "latitude": 53.7437023, "longitude": -0.3560259, "source": "osm", "_tags": {"amenity": "hospital", "building": "hospital", "building:levels": "4", "healthcare": "hospital", "name": "Hull and East Riding Women and Childrens' Hospital", "roof:colour": "white", "roof:shape": "flat", "type": "multipolygon"}}, {"name": "Humber Centre", "latitude": 53.7720585, "longitude": -0.4448026, "source": "osm", "_tags": {"addr:city": "Hull", "addr:postcode": "HU10 6ED", "addr:suburb": "Willerby", "amenity": "hospital", "building": "yes", "name": "Humber Centre", "type": "multipolygon"}}, {"name": "Coronation Wing", "latitude": 53.587534, "longitude": -0.667282, "source": "osm", "_tags": {"amenity": "hospital", "healthcare": "hospital", "name": "Coronation Wing", "type": "multipolygon"}}, {"name": "Great Oaks", "latitude": 53.5681586, "longitude": -0.6376485, "source": "osm", "_tags": {"addr:city": "Scunthorpe", "addr:housenumber": "97", "addr:postcode": "DN16 2JX", "addr:street": "Ashby High Street", "amenity": "hospital", "building": "yes", "fhrs:id": "214013", "healthcare": "hospital", "name": "Great Oaks", "source:addr": "FHRS Open Data", "type": "multipolygon"}}]