[{"name": "Кардыядыспансер", "latitude": 53.6914363, "longitude": 23.7963535, "source": "osm", "_tags": {"amenity": "hospital", "email": "kardio@mail.grodno.by", "healthcare": "hospital", "name": "Кардыядыспансер", "name:be": "Кардыядыспансер", "name:ru": "Кардиодиспансер", "official_name": "Гродненский областной клинический кардиологический центр", "official_name:be": "Гродзенскі абласны клінічны кардыялагічны цэнтр", "official_name:ru": "Гродненский областной клинический кардиологический центр", "opening_hours": "08:00-19:00", "website": "https://cardio.grodno.by/"}}, {"name": "Тубдыспансэр", "latitude": 53.6971997, "longitude": 23.7927501, "source": "osm", "_tags": {"amenity": "hospital", "name": "Тубдыспансэр", "name:be": "Тубдыспансэр", "name:ru": "Тубдиспансер", "official_name": "Гродненское областное учреждение здравоохранения \"Фтизиатрия\"", "official_name:ru": "Гродненское областное учреждение здравоохранения \"Фтизиатрия\"", "phone": "+375 152 330 157", "website": "http://grodnotub.chat.ru/"}}, {"name": "Эндакрыналагічны дыспансер", "latitude": 53.690897, "longitude": 23.7995459, "source": "osm", "_tags": {"amenity": "clinic", "healthcare": "hospital", "healthcare:speciality": "endocrinology", "name": "Эндакрыналагічны дыспансер", "name:be": "Эндакрыналагічны дыспансер", "name:ru": "Эндокринологический диспансер", "official_name": "Гродненский областной эндокринологический диспансер", "official_name:be": "Гродзенскі абласны эндакрыналагічны дыспансер", "official_name:ru": "Гродненский областной эндокринологический диспансер"}}, {"name": "", "latitude": 54.3316825, "longitude": 23.897415, "source": "osm", "_tags": {"amenity": "hospital"}}, {"name": "Абласны дыспансер спартыўнай медыцыны", "latitude": 53.688239, "longitude": 23.8248718, "source": "osm", "_tags": {"amenity": "hospital", "email": "sportdispanc@mail.grodno.by", "healthcare": "hospital", "healthcare:speciality": "physiatry", "name": "Абласны дыспансер спартыўнай медыцыны", "name:be": "Абласны дыспансер спартыўнай медыцыны", "name:ru": "Областной диспансер спортивной медицины", "phone": "+375152557884", "website": "https://odsm.by/"}}, {"name": "Падлабенская амбулаторыя", "latitude": 53.6953549, "longitude": 23.6869554, "source": "osm", "_tags": {"amenity": "hospital", "healthcare": "hospital", "name": "Падлабенская амбулаторыя", "name:be": "Падлабенская амбулаторыя", "name:ru": "Подлабенская амбулатория", "opening_hours": "Mo, Sa 09:00-14:00; Su 00:00-24:00", "phone": "80152685924"}}, {"name": "Polsko-Amerykańskie Kliniki Serca Centrum Sercowo-Naczyniowe w Augustowie", "latitude": 53.8509287, "longitude": 22.9955835, "source": "osm", "_tags": {"addr:housenumber": "11", "addr:street": "Marii Konopnickiej", "amenity": "hospital", "name": "Polsko-Amerykańskie Kliniki Serca Centrum Sercowo-Naczyniowe w Augustowie", "phone": "+48876438181", "website": "https://ahop.pl/"}}, {"name": "Медыцынскі цэнтр прыгажосці і здароўя", "latitude": 53.6776623, "longitude": 23.8381811, "source": "osm", "_tags": {"addr:city": "Гродна", "addr:housenumber": "33А", "addr:street": "вуліца Кірава", "amenity": "hospital", "building": "hospital", "emergency": "no", "health_facility:type": "clinic", "healthcare": "centre", "healthcare:speciality": "dermatology;plastic_surgery", "name": "Медыцынскі цэнтр прыгажосці і здароўя", "name:be": "Медыцынскі цэнтр прыгажосці і здароўя", "name:ru": "Медицинский центр красоты и здоровья", "official_name": "КУП \"Медицинский центр красоты и здоровья\"", "opening_hours": "Mo-Fr 08:00-13:30,14:00-20:00; Sa-Su 09:00-15:00", "phone": "+375152680706;+375292822822", "roof:colour": "gray", "shop": "beauty", "website": "http://krasota-grodno.by"}}, {"name": "1134 ваенны клінічны медыцынскі цэнтр", "latitude": 53.6900254, "longitude": 23.8371368, "source": "osm", "_tags": {"addr:housenumber": "17", "addr:street": "вуліца Дзяржынскага", "amenity": "hospital", "building": "hospital", "building:levels": "4", "healthcare": "hospital", "name": "1134 ваенны клінічны медыцынскі цэнтр", "name:be": "1134 ваенны клінічны медыцынскі цэнтр", "name:en": "1134th Military clinical medical center", "name:lt": "1134 Karo klinikinės medicinos centras", "name:ru": "1134 военный клинический медицинский центр", "phone": "+375152721353", "website": "https://1134.by/"}}, {"name": "Гожская амбулаторыя", "latitude": 53.8074714, "longitude": 23.8647447, "source": "osm", "_tags": {"addr:housenumber": "5", "addr:place": "Новая Гожа", "addr:postcode": "231741", "amenity": "hospital", "building": "yes", "healthcare": "hospital", "name": "Гожская амбулаторыя", "name:be": "Гожская амбулаторыя", "name:ru": "Гожская Амбулатория", "phone": "+375152937364"}}, {"name": "Медыка-санітарная частка ААТ «Гродна Азот»", "latitude": 53.6760296, "longitude": 23.8950404, "source": "osm", "_tags": {"addr:city": "Гродна", "addr:housenumber": "100 к119", "addr:street": "праспект Касманаўтаў", "amenity": "hospital", "building": "hospital", "building:levels": "2", "name": "Медыка-санітарная частка ААТ «Гродна Азот»", "name:be": "Медыка-санітарная частка ААТ «Гродна Азот»", "name:ru": "Медико-санитарная часть ОАО «Гродно Азот»", "name:uk": "Медико-санітарна частина ВАТ «Гродно Азот»", "operator": "ОАО «Гродно Азот»", "website": "https://azot.by/ru/about/social/public-health"}}, {"name": "Lazdijų ligoninė", "latitude": 54.2362571, "longitude": 23.5158227, "source": "osm", "_tags": {"addr:city": "Lazdijai", "addr:housenumber": "8A", "addr:street": "Kauno g.", "amenity": "hospital", "building": "yes", "name": "Lazdijų ligoninė"}}, {"name": "Kalvarijos ligoninė", "latitude": 54.414366, "longitude": 23.2227016, "source": "osm", "_tags": {"addr:city": "Kalvarija", "addr:country": "LT", "addr:housenumber": "9", "addr:postcode": "69216", "addr:street": "Vytauto g.", "amenity": "hospital", "building": "yes", "healthcare": "hospital", "name": "Kalvarijos ligoninė"}}, {"name": "Veisiejų ambulatorija", "latitude": 54.0963224, "longitude": 23.7017118, "source": "osm", "_tags": {"addr:city": "Veisiejai", "addr:housenumber": "22A", "addr:street": "Vilties g.", "amenity": "hospital", "building": "yes", "name": "Veisiejų ambulatorija", "opening_hours": "Mo-Fr 08:00-12:00", "phone": "+37031856691"}}, {"name": "Гродзенская абласная клінічная бальніца медыцынскай рэабілітацыі", "latitude": 53.6872178, "longitude": 23.826128, "source": "osm", "_tags": {"addr:city": "Гродна", "addr:housenumber": "2", "addr:street": "Камунальная вуліца", "amenity": "hospital", "barrier": "fence", "fence_type": "metal", "full_name": "Гродненская областная клиническая больница медицинской реабилитации", "healthcare": "hospital", "name": "Гродзенская абласная клінічная бальніца медыцынскай рэабілітацыі", "name:be": "Гродзенская абласная клінічная бальніца медыцынскай рэабілітацыі", "name:ru": "Гродненская областная клиническая больница медицинской реабилитации", "old_name": "Гарадская клінічная бальніца №1", "old_name:be": "Гарадская клінічная бальніца №1", "old_name:ru": "Городская клиническая больница № 1", "phone": "+375 15 272-39-08", "short_name": "ГОКБМР", "website": "http://gokbmr.by"}}, {"name": "Ośrodek Zdrowia w Rutce-Tartak", "latitude": 54.3213624, "longitude": 22.9710156, "source": "osm", "_tags": {"addr:city": "Rutka-Tartak", "addr:city:simc": "0767470", "addr:housenumber": "1", "addr:postcode": "16-406", "addr:street": "Leśna", "addr:street:sym_ul": "10898", "amenity": "doctors", "building": "yes", "healthcare": "hospital", "name": "Ośrodek Zdrowia w Rutce-Tartak", "source:addr": "rutkatartak.e-mapa.net"}}, {"name": "Бальніца хуткай медыцынскай дапамогі", "latitude": 53.6736519, "longitude": 23.7979367, "source": "osm", "_tags": {"addr:city": "Гродна", "addr:housenumber": "115", "addr:postcode": "230024", "addr:street": "вуліца Савецкіх Пагранічнікаў", "amenity": "hospital", "email": "gr_smp@mail.ru", "emergency": "yes", "healthcare": "hospital", "name": "Бальніца хуткай медыцынскай дапамогі", "name:be": "Бальніца хуткай медыцынскай дапамогі", "name:ru": "Больница скорой медицинской помощи", "official_name:ru": "Городская клиническая больница скорой медицинской помощи г. Гродно", "short_name": "БСМП", "website": "https://bsmpgrodno.by/", "wheelchair": "yes"}}, {"name": "Гродзенская абласная дзіцячая клінічная бальніца", "latitude": 53.6915471, "longitude": 23.8331351, "source": "osm", "_tags": {"addr:city": "Гродна", "addr:housenumber": "22", "addr:street": "вуліца Астроўскага", "amenity": "hospital", "barrier": "fence", "contact:facebook": "4004", "contact:instagram": "https://www.instagram.com/grodkb/", "contact:ok": "https://ok.ru/group/54896326344903", "contact:vk": "https://vk.com/public183378858", "healthcare": "hospital", "name": "Гродзенская абласная дзіцячая клінічная бальніца", "name:be": "Гродзенская абласная дзіцячая клінічная бальніца", "name:ru": "Гродненская областная детская клиническая больница", "phone": "+375 15 279-62-70;+375 15 279-62-28", "short_name": "Детская больница", "short_name:be": "Дзіцячая бальніца", "short_name:ru": "Детская больница", "website": "http://grodkb.by/"}}, {"name": "Гродзенскі Абласны Клінічны Цэнтр «Псіхіятрыя і наркалогія»", "latitude": 53.6808524, "longitude": 23.8655644, "source": "osm", "_tags": {"amenity": "hospital", "emergency": "no", "healthcare": "hospital", "healthcare:speciality": "psychiatry;narcology", "name": "Гродзенскі Абласны Клінічны Цэнтр «Псіхіятрыя і наркалогія»", "name:be": "Гродзенскі Абласны Клінічны Цэнтр «Псіхіятрыя і наркалогія»", "name:ru": "Гродненский Областной Клинический Центр «Психиатрия и наркология»", "name:uk": "Гродненський Обласний Клінічний Центр «Психіатрія та наркологія»", "short_name": "ГОКЦ \"Психиатрия и наркология\""}}, {"name": "Гарадская клінічная бальніца № 2", "latitude": 53.6719856, "longitude": 23.8214885, "source": "osm", "_tags": {"addr:city": "Гродна", "addr:housenumber": "5", "addr:postcode": "230011", "addr:street": "вуліца Гагарына", "amenity": "hospital", "check_date": "2024-10-16", "contact:skype": "ГКБ2 г.Гродно", "email": "mail@gkb2.by", "healthcare": "hospital", "name": "Гарадская клінічная бальніца № 2", "name:be": "Гарадская клінічная бальніца № 2", "name:ru": "Городская клиническая больница № 2", "phone": "+375152322820", "website": "https://gkb2.by", "wheelchair": "yes"}}, {"name": "Абласны кардыядыспансер", "latitude": 53.691411, "longitude": 23.7969548, "source": "osm", "_tags": {"addr:housenumber": "9", "addr:street": "вуліца Болдзіна", "amenity": "hospital", "emergency": "no", "full_name": "Гродненский областной клинический кардиологический центр", "healthcare": "hospital", "healthcare:speciality": "cardiology", "name": "Абласны кардыядыспансер", "name:be": "Абласны кардыядыспансер", "name:ru": "Областной кардиодиспансер", "phone": "+375152798414", "website": "https://www.cardiod.103.by/", "wheelchair": "yes"}}, {"name": "Гродзенскі абласны цэнтр трансфузіялогіі", "latitude": 53.646061, "longitude": 23.8570664, "source": "osm", "_tags": {"addr:city": "Гродна", "addr:housenumber": "22", "addr:postcode": "230020", "addr:street": "вуліца Кабяка", "amenity": "hospital", "email": "donor@mail.grodno.by", "emergency": "yes", "healthcare": "blood_bank", "loc_name": "СПК", "name": "Гродзенскі абласны цэнтр трансфузіялогіі", "name:be": "Гродзенскі абласны цэнтр трансфузіялогіі", "name:ru": "Гродненский областной центр трансфузиологии", "official_name": "Государственное учреждение здравоохранения \"Гродненский областной центр трансфузиологии\"", "old_name": "Гродненская областная станция переливания крови", "opening_hours": "Mo-Fr 08:00-13:00, 13:30-16:00", "phone": "+375152315404;+375152315407", "website": "https://donor.grodno.by/"}}, {"name": "Сапоцкінская гарпасялковая бальніца", "latitude": 53.838003, "longitude": 23.6619427, "source": "osm", "_tags": {"addr:city": "Сапоцкін", "addr:housenumber": "69", "addr:street": "вуліца Яна Паўла II", "alt_name": "УЗ \"Сопоцкинская горпоселковая больница\"", "amenity": "hospital", "healthcare": "hospital", "name": "Сапоцкінская гарпасялковая бальніца", "name:be": "Сапоцкінская гарпасялковая бальніца", "name:ru": "Сопоцкинская горпоселковая больница"}}, {"name": "Гродзенскі абласны перынатальны центр", "latitude": 53.7004236, "longitude": 23.8216624, "source": "osm", "_tags": {"addr:city": "Гродна", "addr:housenumber": "77", "addr:postcode": "230009", "addr:street": "вуліца Максіма Горкага", "alt_name": "Роддом", "amenity": "hospital", "emergency": "no", "healthcare": "hospital", "int_name": "Hrodzienski ablasny pierynataĺny centr", "name": "Гродзенскі абласны перынатальны центр", "name:be": "Гродзенскі абласны перынатальны центр", "name:ru": "Гродненский областной перинатальный центр", "phone": "+375152451812", "website": "http://www.roddom.by/"}}, {"name": "Samodzielny Publiczny Zakład Opieki Zdrowotnej w Dąbrowie Białostockiej", "latitude": 53.6580191, "longitude": 23.3497962, "source": "osm", "_tags": {"amenity": "hospital", "email": "spzoz@home.pl", "healthcare": "hospital", "name": "Samodzielny Publiczny Zakład Opieki Zdrowotnej w Dąbrowie Białostockiej", "phone": "085 71 23 341", "website": "https://www.spzoz.home.pl/"}}, {"name": "Індурская ўчастковая бальніца", "latitude": 53.4579388, "longitude": 23.89276, "source": "osm", "_tags": {"amenity": "hospital", "name": "Індурская ўчастковая бальніца", "name:be": "Індурская ўчастковая бальніца", "name:ru": "Индурская участковая больница"}}, {"name": "Гродзенская абласная клінічная бальніца", "latitude": 53.6938995, "longitude": 23.7922352, "source": "osm", "_tags": {"addr:city": "Гродна", "addr:housenumber": "52", "addr:street": "бульвар Ленінскага Камсамола", "alt_name": "Гродненская университетская клиника", "amenity": "hospital", "emergency": "yes", "healthcare": "hospital", "name": "Гродзенская абласная клінічная бальніца", "name:be": "Гродзенская абласная клінічная бальніца", "name:ru": "Гродненская областная клиническая больница", "operator": "УЗ «Гродненская областная клиническая больница»", "operator:type": "government", "phone": "+375152432015", "website": "https://gocb.by/"}}, {"name": "Гродзенская абласная інфекцыйная клінічная бальніца", "latitude": 53.6977591, "longitude": 23.7898749, "source": "osm", "_tags": {"addr:city": "Гродна", "addr:housenumber": "57", "addr:postcode": "230030", "addr:street": "бульвар Ленінскага Камсамола", "amenity": "hospital", "email": "goikb@mail.grodno.by", "emergency": "no", "healthcare": "hospital", "healthcare:speciality": "infection", "name": "Гродзенская абласная інфекцыйная клінічная бальніца", "name:be": "Гродзенская абласная інфекцыйная клінічная бальніца", "name:ru": "Гродненская областная инфекционная клиническая больница", "operator": "УЗ «Гродненская областная инфекционная клиническая больница»", "phone": "+375152435209", "website": "http://goicb.by/"}}, {"name": "Гродзенскі абласны клінічны цэнтр «Фтызіятрыя»", "latitude": 53.6979395, "longitude": 23.792424, "source": "osm", "_tags": {"addr:city": "Гродна", "addr:housenumber": "55", "addr:postcode": "230017", "addr:street": "бульвар Ленінскага Камсамола", "amenity": "hospital", "email": "phthisiatria@mail.grodno.by", "healthcare": "hospital", "healthcare:speciality": "physiatry;phtysiatry", "name": "Гродзенскі абласны клінічны цэнтр «Фтызіятрыя»", "name:be": "Гродзенскі абласны клінічны цэнтр «Фтызіятрыя»", "name:ru": "Гродненский областной клинический центр «Фтизиатрия»", "name:uk": "Гродненський обласний клінічний центр «Фтизіатрія»"}}, {"name": "Гарадская клінічная бальніца № 3", "latitude": 53.6999718, "longitude": 23.7900142, "source": "osm", "_tags": {"addr:city": "Гродна", "addr:housenumber": "59", "addr:postcode": "230030", "addr:street": "бульвар Ленінскага Камсамола", "amenity": "hospital", "emergency": "no", "healthcare": "hospital", "healthcare:speciality": "general", "name": "Гарадская клінічная бальніца № 3", "name:be": "Гарадская клінічная бальніца № 3", "name:ru": "Городская клиническая больница №3", "phone": "+375152437224", "website": "http://www.grodno-gkb3.by/"}}, {"name": "Szpital im. Edmunda Biernackiego", "latitude": 53.8509199, "longitude": 22.9939645, "source": "osm", "_tags": {"amenity": "hospital", "contact:website": "https://www.spzoz.augustow.pl/", "healthcare": "hospital", "name": "Szpital im. Edmunda Biernackiego", "name:etymology:wikidata": "Q4582085", "name:etymology:wikipedia": "pl:Edmund Biernacki", "official_name": "Samodzielny Publiczny Zakład Opieki Zdrowotnej w Augustowie"}}, {"name": "Weterynarz", "latitude": 54.3239161, "longitude": 22.9741761, "source": "osm", "_tags": {"addr:city": "Rutka-Tartak", "addr:city:simc": "0767470", "addr:housenumber": "9", "addr:postcode": "16-406", "addr:street": "Wojska Polskiego", "addr:street:sym_ul": "24628", "amenity": "veterinary", "building": "yes", "healthcare": "hospital", "name": "Weterynarz", "source:addr": "rutkatartak.e-mapa.net"}}, {"name": "Гродзенскі Абласны Анкалагічны Дыспансер", "latitude": 53.7001723, "longitude": 23.7927357, "source": "osm", "_tags": {"amenity": "hospital", "healthcare": "hospital", "healthcare:speciality": "oncology", "name": "Гродзенскі Абласны Анкалагічны Дыспансер", "name:be": "Гродзенскі Абласны Анкалагічны Дыспансер", "name:ru": "Гроднеский Областной Онкологически Диспансер", "name:uk": "обласной онкологічні диспансер", "start_date": "2023"}}, {"name": "Скурна-венералагічны дыспансер", "latitude": 53.6753822, "longitude": 23.8382046, "source": "osm", "_tags": {"addr:city": "Гродна", "addr:housenumber": "2", "addr:street": "вуліца Будзённага", "amenity": "hospital", "description": "Стационарное отделение", "email": "gokvd@mail.grodno.by", "healthcare": "hospital", "healthcare:speciality": "dermatovenereology;dermatology", "name": "Скурна-венералагічны дыспансер", "name:be": "Скурна-венералагічны дыспансер", "name:ru": "Кожно-венерологический диспансер", "official_name": "Государственное учреждение здравоохранения «Гродненский областной клинический кожно-венерологический диспансер»", "website": "https://gokvd.grodno.by/"}}, {"name": "Szpital Powiatowy im. Doktora Edwarda Rittlera w Sejnach", "latitude": 54.114685, "longitude": 23.3515481, "source": "osm", "_tags": {"amenity": "hospital", "email": "sekretariat@szpital.sejny.pl", "name": "Szpital Powiatowy im. Doktora Edwarda Rittlera w Sejnach", "phone": "+48 87 516 20 09", "website": "https://www.szpital.sejny.pl/"}}, {"name": "Гарадская клінічная бальніца № 4", "latitude": 53.648583, "longitude": 23.8578824, "source": "osm", "_tags": {"addr:city": "Гродна", "addr:housenumber": "89", "addr:street": "праспект Янкі Купалы", "amenity": "hospital", "email": "priemnay@gkb4.by", "healthcare": "hospital", "name": "Гарадская клінічная бальніца № 4", "name:be": "Гарадская клінічная бальніца № 4", "name:ru": "Городская клиническая больница № 4", "phone": "+375 152 54 80 27", "short_name": "ГКБ № 4", "type": "multipolygon", "website": "http://gkb4.by/"}}]