[{"name": "Saint Loman's Hospital", "latitude": 53.5326147, "longitude": -7.322173, "source": "osm", "_tags": {"amenity": "hospital", "healthcare": "hospital", "name": "Saint Loman's Hospital", "source": "visual survey;estimate", "wikidata": "Q20047297"}}, {"name": "St. Francis Private Hospital", "latitude": 53.5142637, "longitude": -7.3348933, "source": "osm", "_tags": {"addr:postcode": "N91 FE40", "amenity": "hospital", "emergency": "no", "healthcare": "hospital", "name": "St. Francis Private Hospital", "phone": "+353-44-9385300", "source": "visual survey;estimate", "website": "http://stfrancisprivatehospital.com/"}}, {"name": "Midland Regional Hospital Mullingar", "latitude": 53.5344213, "longitude": -7.3489966, "source": "osm", "_tags": {"HSE_code": "503", "HSE_hgid": "2", "HSE_hgroup": "Ireland East Hospital Group", "HSE_region": "Dublin East", "addr:city": "Mullingar", "addr:street": "Longford Road", "amenity": "hospital", "emergency": "yes", "healthcare": "hospital", "name": "Midland Regional Hospital Mullingar", "operator": "Health Service Executive", "operator:short": "HSE", "operator:wikidata": "Q5690681", "operator:wikipedia": "en:Health Service Executive", "source": "visual survey;estimate", "wikidata": "Q6842434", "wikipedia": "en:Midland Regional Hospital, Mullingar"}}, {"name": "Cavan General Hospital", "latitude": 54.0010654, "longitude": -7.3717336, "source": "osm", "_tags": {"HSE_code": "702", "HSE_hgid": "4", "HSE_hgroup": "RCSI Hospitals Group", "HSE_region": "Dublin North East", "addr:street": "Golf Links Road", "amenity": "hospital", "emergency": "yes", "fax": "+353-49-4361065", "healthcare": "hospital", "name": "Cavan General Hospital", "name:en": "Cavan General Hospital", "name:ga": "Ospidéal Ginearálta an Chabháin", "operator": "Health Service Executive", "operator:short": "HSE", "operator:type": "public", "operator:wikidata": "Q5690681", "operator:wikipedia": "en:Health Service Executive", "phone": "+353-49-4376000", "source": "Bing", "wikidata": "Q5054847"}}, {"name": "South West Acute Hospital", "latitude": 54.3664932, "longitude": -7.6376731, "source": "osm", "_tags": {"addr:city": "Enniskillen", "addr:housenumber": "124", "addr:postcode": "BT74 6DN", "addr:street": "Irvinestown Road", "amenity": "hospital", "emergency": "yes", "healthcare": "hospital", "name": "South West Acute Hospital", "operator": "Western Trust", "phone": "+44 28 6638 2000", "wikidata": "Q28231997"}}, {"name": "St. Mary's Hospital", "latitude": 53.5357378, "longitude": -7.3510039, "source": "osm", "_tags": {"amenity": "hospital", "emergency": "no", "healthcare": "hospital", "name": "St. Mary's Hospital"}}, {"name": "St Mary's Hospital", "latitude": 53.6113796, "longitude": -7.0702182, "source": "osm", "_tags": {"amenity": "hospital", "healthcare": "hospital", "name": "St Mary's Hospital"}}, {"name": "St Peter's", "latitude": 53.6757038, "longitude": -7.3004622, "source": "osm", "_tags": {"amenity": "hospital", "emergency": "no", "healthcare": "hospital", "name": "St Peter's", "source": "bing"}}, {"name": "Saint Felim's Hospital", "latitude": 54.0047226, "longitude": -7.3580495, "source": "osm", "_tags": {"amenity": "hospital", "emergency": "no", "healthcare": "hospital", "name": "Saint Felim's Hospital"}}, {"name": "Cluain Lir Care Centre", "latitude": 53.5360245, "longitude": -7.352134, "source": "osm", "_tags": {"addr:city": "Mullingar", "addr:postcode": "N91 T267", "addr:street": "Longford Road", "amenity": "hospital", "healthcare": "hospital", "name": "Cluain Lir Care Centre", "operator": "Health Service Executive", "operator:short": "HSE", "operator:type": "public", "operator:wikidata": "Q5690681", "operator:wikipedia": "en:Health Service Executive", "social_facility": "nursing_home", "social_facility:for": "senior"}}, {"name": "", "latitude": 54.017072, "longitude": -7.3691607, "source": "osm", "_tags": {"amenity": "hospital", "healthcare": "hospital"}}, {"name": "St. Joseph's Hospital", "latitude": 53.7234964, "longitude": -7.7864401, "source": "osm", "_tags": {"addr:city": "Longford", "addr:street": "Dublin Road", "amenity": "hospital", "emergency": "no", "healthcare": "hospital", "name": "St. Joseph's Hospital"}}, {"name": "", "latitude": 53.7694372, "longitude": -7.160097, "source": "osm", "_tags": {"amenity": "hospital", "healthcare": "hospital"}}, {"name": "", "latitude": 53.9991284, "longitude": -7.3739429, "source": "osm", "_tags": {"amenity": "hospital", "healthcare": "hospital"}}, {"name": "", "latitude": 54.0132231, "longitude": -7.526809, "source": "osm", "_tags": {"amenity": "hospital", "healthcare": "hospital"}}, {"name": "", "latitude": 54.1178405, "longitude": -7.5839408, "source": "osm", "_tags": {"amenity": "hospital", "healthcare": "hospital"}}, {"name": "", "latitude": 53.9296564, "longitude": -7.410506, "source": "osm", "_tags": {"amenity": "hospital", "healthcare": "hospital"}}, {"name": "", "latitude": 54.0725717, "longitude": -7.0836939, "source": "osm", "_tags": {"amenity": "hospital", "healthcare": "hospital"}}, {"name": "", "latitude": 54.0756135, "longitude": -7.0858064, "source": "osm", "_tags": {"amenity": "hospital", "healthcare": "hospital"}}, {"name": "", "latitude": 54.0753306, "longitude": -7.08354, "source": "osm", "_tags": {"amenity": "hospital", "healthcare": "hospital"}}, {"name": "", "latitude": 54.1015854, "longitude": -7.4415708, "source": "osm", "_tags": {"amenity": "hospital", "healthcare": "hospital"}}, {"name": "", "latitude": 54.0500289, "longitude": -7.1471038, "source": "osm", "_tags": {"amenity": "hospital", "healthcare": "hospital"}}, {"name": "", "latitude": 54.2917039, "longitude": -7.8779167, "source": "osm", "_tags": {"amenity": "hospital", "healthcare": "hospital"}}, {"name": "St Vincent's Hospital", "latitude": 53.4269627, "longitude": -7.9418349, "source": "osm", "_tags": {"addr:city": "Athlone", "addr:street": "Coosan Point Road", "alt_name": "Athlone Hospital", "amenity": "hospital", "fixme": "Has this been  / is it being re-purposed?", "healthcare": "hospital", "name": "St Vincent's Hospital", "operator": "Health Service Executive", "operator:short": "HSE", "operator:type": "public", "operator:wikidata": "Q5690681", "operator:wikipedia": "en:Health Service Executive", "type": "multipolygon", "wheelchair": "yes"}}]