[{"name": "Haus L - Psychatrie", "latitude": 53.8854204, "longitude": 11.4377033, "source": "osm", "_tags": {"entrance": "yes", "healthcare": "hospital", "healthcare:speciality": "psychiatry", "name": "Haus L - Psychatrie", "operator": "Sana Hanse-Klinikum Wismar"}}, {"name": "Geschlossene Psychatrie", "latitude": 53.885204, "longitude": 11.4370883, "source": "osm", "_tags": {"healthcare": "hospital", "name": "Geschlossene Psychatrie", "operator": "Sana HANSE-Klinikum Wismar"}}, {"name": "Krankenhaus Bad Doberan", "latitude": 54.0908848, "longitude": 11.9061555, "source": "osm", "_tags": {"addr:city": "Bad Doberan", "addr:country": "DE", "addr:housenumber": "1", "addr:postcode": "18209", "addr:street": "Am Waldrand", "amenity": "hospital", "building": "hospital", "check_date": "2025-08-23", "healthcare": "hospital", "name": "Krankenhaus Bad Doberan", "toilets:wheelchair": "yes", "website": "https://www.krankenhaus-doberan.de", "wheelchair": "yes"}}, {"name": "Klinik Leezen", "latitude": 53.6603217, "longitude": 11.4908986, "source": "osm", "_tags": {"addr:city": "Leezen", "addr:country": "DE", "addr:housenumber": "1", "addr:postcode": "19067", "addr:street": "Wittgensteiner Platz", "amenity": "hospital", "building": "hospital", "emergency": "no", "fax": "+49 3866 60 1555", "healthcare": "hospital", "name": "Klinik Leezen", "note": "Akutkrankenhaus und Reha-Klinik", "operator": "Helios Kliniken", "operator:wikidata": "Q1254151", "phone": "+49 3866 60 0", "roof:shape": "hipped", "toilets:wheelchair": "yes", "website": "https://www.helios-gesundheit.de/standorte-angebote/kliniken/leezen/", "wheelchair": "yes"}}, {"name": "DRK-Krankenhaus Grevesmühlen", "latitude": 53.868473, "longitude": 11.1831989, "source": "osm", "_tags": {"addr:city": "Grevesmühlen", "addr:country": "DE", "addr:housenumber": "14", "addr:postcode": "23936", "addr:street": "Klützer Straße", "amenity": "hospital", "brand": "Deutsches Rotes Kreuz", "brand:wikidata": "Q694104", "brand:wikipedia": "de:Deutsches Rotes Kreuz", "building": "hospital", "email": "info@drk-kh-gvm.de", "emergency": "yes", "fax": "+49 3881 2580", "healthcare": "hospital", "name": "DRK-Krankenhaus Grevesmühlen", "opening_hours": "24/7", "operator": "DRK-Krankenhaus Grevesmühlen gGmbH", "phone": "+49 3881 7260", "toilets:wheelchair": "yes", "website": "https://www.drk-kh-gvm.de/", "wheelchair": "yes", "wikidata": "Q110253187"}}, {"name": "Strandklinik", "latitude": 53.9807801, "longitude": 11.2307729, "source": "osm", "_tags": {"addr:city": "Boltenhagen", "addr:country": "DE", "addr:housenumber": "103", "addr:postcode": "23946", "addr:street": "Ostseeallee", "amenity": "hospital", "check_date": "2023-06-11", "email": "info@strandklinik.de", "fax": "+49 38825 47999", "healthcare": "rehabilitation", "name": "Strandklinik", "phone": "+49 38825 470", "website": "https://www.strandklinik.de/", "wheelchair": "yes"}}, {"name": "AMEOS Klinikum Heiligenhafen", "latitude": 54.3742228, "longitude": 10.9565512, "source": "osm", "_tags": {"addr:city": "Heiligenhafen", "addr:country": "DE", "addr:housenumber": "100", "addr:postcode": "23774", "addr:street": "Friedrich-Ebert-Straße", "amenity": "hospital", "check_date": "2024-08-11", "healthcare": "hospital", "healthcare:speciality": "psychiatry", "name": "AMEOS Klinikum Heiligenhafen", "operator": "Ameos", "operator:wikidata": "Q462865", "operator:wikipedia": "de:Ameos", "website": "https://www.ameos.eu/standorte/ameos-nord/heiligenhafen/ameos-klinikum-heiligenhafen/"}}, {"name": "Klinikum Helene von Bülow", "latitude": 53.4342501, "longitude": 11.1818181, "source": "osm", "_tags": {"addr:city": "Hagenow", "addr:country": "DE", "addr:housenumber": "12", "addr:postcode": "19230", "addr:street": "Parkstraße", "amenity": "hospital", "contact:phone": "+4938837360", "contact:website": "https://www.wmk-hvb.de/hagenow/start/", "healthcare": "hospital", "name": "Klinikum Helene von Bülow", "operator": "Westmecklenburg Klinikum Helene von Bülow GmbH", "wheelchair": "yes"}}, {"name": "", "latitude": 53.9103885, "longitude": 11.42383, "source": "osm", "_tags": {"amenity": "hospital", "healthcare": "hospital"}}, {"name": "Krankenhaus am Crivitzer See", "latitude": 53.5754281, "longitude": 11.6481221, "source": "osm", "_tags": {"amenity": "hospital", "healthcare": "hospital", "name": "Krankenhaus am Crivitzer See", "operator": "Mediclin", "operator:wikidata": "Q1916295", "phone": "+49 3863 520 0", "website": "https://www.krankenhaus-am-crivitzer-see.de/"}}, {"name": "Helios Kliniken Schwerin", "latitude": 53.6515139, "longitude": 11.4085471, "source": "osm", "_tags": {"addr:city": "Schwerin", "addr:country": "DE", "addr:housenumber": "393-397", "addr:postcode": "19055", "addr:street": "Wismarsche Straße", "amenity": "hospital", "contact:fax": "+49 385 520 2007", "contact:phone": "+49 385 520 2500", "contact:website": "https://www.helios-gesundheit.de/standorte-angebote/kliniken/schwerin/", "emergency": "yes", "healthcare": "hospital", "name": "Helios Kliniken Schwerin", "operator": "Helios Kliniken", "operator:type": "private", "operator:wikidata": "Q1254151", "operator:wikipedia": "de:Helios Kliniken", "wheelchair": "yes", "wikidata": "Q1602556", "wikipedia": "de:Helios Kliniken Schwerin"}}, {"name": "", "latitude": 54.152184, "longitude": 11.7085719, "source": "osm", "_tags": {"amenity": "hospital", "healthcare": "hospital"}}, {"name": "Asklepios Klinik Parchim", "latitude": 53.4299062, "longitude": 11.8540774, "source": "osm", "_tags": {"amenity": "hospital", "check_date": "2025-08-01", "contact:fax": "+49 3871 37-2471", "contact:phone": "+49 3871 37-0", "contact:website": "https://www.asklepios.com/parchim", "emergency": "yes", "healthcare": "hospital", "name": "Asklepios Klinik Parchim", "opening_hours": "24/7", "operator": "Asklepios Kliniken", "operator:type": "private", "operator:wikidata": "Q732068", "wheelchair": "yes"}}, {"name": "Ostseeklinik Grömitz", "latitude": 54.1525333, "longitude": 10.9755209, "source": "osm", "_tags": {"addr:city": "Grömitz", "addr:country": "DE", "addr:housenumber": "65", "addr:postcode": "23743", "addr:street": "Blankwasserweg", "amenity": "hospital", "area": "yes", "contact:email": "info@ostseeklinik-groemitz.de", "contact:fax": "+49 4562 254-199", "contact:phone": "+49 4562 254-130", "contact:website": "https://www.ostseeklinik-groemitz.de/", "healthcare": "rehabilitation", "name": "Ostseeklinik Grömitz", "operator": "Rehasan Klinik Grömitz Betriebs GmbH"}}, {"name": "Klinik Ostseedeich", "latitude": 54.15312, "longitude": 10.9768837, "source": "osm", "_tags": {"addr:city": "Grömitz", "addr:country": "DE", "addr:housenumber": "1", "addr:postcode": "23743", "addr:street": "Deichweg", "amenity": "hospital", "area": "yes", "contact:email": "info@klinik-ostseedeich.de", "contact:fax": "+49 4562 253-100", "contact:phone": "+49 4562 253-0", "contact:website": "https://www.klinik-ostseedeich.de/", "healthcare": "rehabilitation", "name": "Klinik Ostseedeich", "operator": "Klinik Ostseedeich GmbH & Co. KG"}}, {"name": "Sana HANSE-Klinikum Wismar", "latitude": 53.8844672, "longitude": 11.4385667, "source": "osm", "_tags": {"addr:city": "Wismar", "addr:country": "DE", "addr:housenumber": "6", "addr:postcode": "23966", "addr:street": "Störtebekerstraße", "amenity": "hospital", "email": "wismar@sana.de", "emergency": "yes", "healthcare": "hospital", "internet_access": "wlan", "name": "Sana HANSE-Klinikum Wismar", "opening_hours": "24/7", "operator": "Sana", "phone": "+49 3841 330", "toilets:wheelchair": "yes", "type": "multipolygon", "website": "https://www.sana.de/wismar", "wheelchair": "yes", "wikidata": "Q62023499"}}]