[{"name": "Klinik für Orthopädie", "latitude": 54.0900578, "longitude": 12.1200091, "source": "osm", "_tags": {"addr:city": "Rostock", "addr:country": "DE", "addr:housenumber": "142", "addr:postcode": "18057", "addr:street": "Doberaner Straße", "addr:suburb": "Kröpeliner-Tor-Vorstadt", "amenity": "hospital", "building": "hospital", "building:levels": "4", "building:use": "hospital", "healthcare": "hospital", "height": "29.9 m", "kvl_hro:type": "1151", "name": "Klinik für Orthopädie", "roof:colour": "grey", "roof:levels": "2", "roof:shape": "hipped", "website": "https://orthopaedie.med.uni-rostock.de/", "wheelchair": "yes"}}, {"name": "Zentrum für Nervenheilkunde", "latitude": 54.1013841, "longitude": 12.1332011, "source": "osm", "_tags": {"addr:city": "Rostock", "addr:country": "DE", "addr:housenumber": "20", "addr:postcode": "18147", "addr:street": "Gehlsheimer Straße", "amenity": "hospital", "healthcare": "hospital", "name": "Zentrum für Nervenheilkunde", "phone": "+49 381 4949511", "website": "https://nervenheilkunde.med.uni-rostock.de/", "wheelchair": "yes"}}, {"name": "Zentrum für Innere Medizin", "latitude": 54.0842389, "longitude": 12.1014314, "source": "osm", "_tags": {"addr:city": "Rostock", "addr:country": "DE", "addr:housenumber": "6", "addr:postcode": "18057", "addr:street": "Ernst-Heydemann-Straße", "addr:suburb": "Hansaviertel", "amenity": "hospital", "building": "hospital", "building:levels": "3", "healthcare": "hospital", "height": "22.3 m", "internet_access": "wlan", "kvl_hro:type": "1151", "name": "Zentrum für Innere Medizin", "roof:levels": "1", "roof:shape": "flat", "website": "https://innere.med.uni-rostock.de/", "wheelchair": "yes"}}, {"name": "Kliniken Doberaner Straße", "latitude": 54.0902862, "longitude": 12.1197286, "source": "osm", "_tags": {"amenity": "hospital", "healthcare": "hospital", "name": "Kliniken Doberaner Straße", "operator": "Universität Rostock", "website": "https://www.med.uni-rostock.de", "wheelchair": "yes"}}, {"name": "DRK-Krankenhaus Teterow", "latitude": 53.7773182, "longitude": 12.5706055, "source": "osm", "_tags": {"amenity": "hospital", "brand": "Deutsches Rotes Kreuz", "brand:wikidata": "Q694104", "brand:wikipedia": "de:Deutsches Rotes Kreuz", "contact:email": "info@drk-kh-mv.de", "contact:phone": "+49 3996 141-0", "contact:website": "https://www.drk-kh-teterow.de/", "emergency": "yes", "healthcare": "hospital", "name": "DRK-Krankenhaus Teterow", "opening_hours": "24/7", "operator": "DRK-Krankenhaus Teterow gGmbH"}}, {"name": "Perioperatives Zentrum", "latitude": 54.0854001, "longitude": 12.103483, "source": "osm", "_tags": {"addr:city": "Rostock", "addr:country": "DE", "addr:housenumber": "15", "addr:postcode": "18057", "addr:street": "Strempelstraße", "addr:suburb": "Hansaviertel", "amenity": "hospital", "building:levels": "4", "healthcare": "hospital", "height": "22.8 m", "kvl_hro:type": "1151", "name": "Perioperatives Zentrum", "roof:levels": "1", "roof:shape": "flat", "website": "https://poz.med.uni-rostock.de", "wheelchair": "yes"}}, {"name": "Warnow Klinik", "latitude": 53.844025, "longitude": 11.9749867, "source": "osm", "_tags": {"addr:city": "Bützow", "addr:country": "DE", "addr:housenumber": "3", "addr:postcode": "18246", "addr:street": "Am Forsthof", "amenity": "hospital", "building": "hospital", "building:levels": "2", "emergency": "yes", "healthcare": "hospital", "healthcare:speciality": "surgery; geriatrics", "name": "Warnow Klinik", "roof:shape": "gabled", "website": "http://www.warnowklinik-buetzow.de/", "wheelchair": "yes"}}, {"name": "ZOM Zentrum operative Medizin", "latitude": 54.0857087, "longitude": 12.1025769, "source": "osm", "_tags": {"amenity": "hospital", "building": "hospital", "building:colour": "#F5D6A5", "building:levels": "3", "emergency": "yes", "healthcare": "hospital", "height": "22.8 m", "kvl_hro:type": "1151", "name": "ZOM Zentrum operative Medizin", "roof:levels": "1", "roof:shape": "hipped", "source": "KVL HRO", "toilets:wheelchair": "yes", "wheelchair": "yes"}}, {"name": "KMG-Klinikum", "latitude": 53.8110887, "longitude": 12.199513, "source": "osm", "_tags": {"amenity": "hospital", "healthcare": "hospital", "name": "KMG-Klinikum", "website": "https://www.kmg-kliniken.de/index.php/akutversorgung/kliniken-der-kmg-kliniken-plc/kmg-klinikum-guestrow/profil-kmg-klinikum-guestrow", "wheelchair": "yes", "wikidata": "Q28737953"}}, {"name": "MediClin Krankenhaus Plau am See", "latitude": 53.478459, "longitude": 12.284228, "source": "osm", "_tags": {"addr:city": "Plau am See", "addr:country": "DE", "addr:housenumber": "88", "addr:postcode": "19395", "addr:street": "Quetziner Straße", "amenity": "hospital", "building": "hospital", "building:levels": "4", "healthcare": "hospital", "name": "MediClin Krankenhaus Plau am See", "roof:levels": "0", "toilets:wheelchair": "yes", "website": "https://www.krankenhaus-plau.de/", "wheelchair": "yes"}}, {"name": "Universitätsmedizin Rostock", "latitude": 54.084638, "longitude": 12.1028392, "source": "osm", "_tags": {"addr:city": "Rostock", "addr:housenumber": "35", "addr:postcode": "18057", "addr:street": "Schillingallee", "amenity": "hospital", "contact:phone": "+49 381 494 0", "emergency": "yes", "healthcare": "hospital", "name": "Universitätsmedizin Rostock", "wheelchair": "yes"}}, {"name": "MediClin Müritz-Klinikum", "latitude": 53.5221782, "longitude": 12.6861009, "source": "osm", "_tags": {"amenity": "hospital", "contact:fax": "+49 3991 772005", "contact:phone": "+49 3991 770", "emergency": "yes", "healthcare": "hospital", "name": "MediClin Müritz-Klinikum", "opening_hours": "24/7", "operator": "MediClin GmbH & Co. KG", "operator:wikidata": "Q1916295", "website": "https://www.mueritz-klinikum.de/", "wheelchair": "yes", "wikidata": "Q47374903"}}, {"name": "Dietrich-Bonhoeffer-Klinikum", "latitude": 53.7366463, "longitude": 12.7556962, "source": "osm", "_tags": {"amenity": "hospital", "contact:email": "info@dbknb.de", "contact:phone": "+49 395 775-0", "contact:website": "https://dbknb.de/malchin", "emergency": "yes", "healthcare": "hospital", "name": "Dietrich-Bonhoeffer-Klinikum", "opening_hours": "24/7", "operator": "Diakonie"}}, {"name": "Krankenhaus der Bodden-Kliniken Ribnitz-Damgarten", "latitude": 54.2364304, "longitude": 12.4441598, "source": "osm", "_tags": {"amenity": "hospital", "contact:fax": "+49 3821 700-240", "contact:phone": "+49 3821 700-0", "contact:website": "https://www.bodden-kliniken.de/krankenhaus", "emergency": "yes", "healthcare": "hospital", "name": "Krankenhaus der Bodden-Kliniken Ribnitz-Damgarten", "opening_hours": "24/7", "operator": "Krankenhaus der Bodden-Kliniken Ribnitz-Damgarten GmbH", "wikidata": "Q108105095"}}, {"name": "MediClin Krankenhaus Plau am See", "latitude": 53.4788895, "longitude": 12.2834487, "source": "osm", "_tags": {"addr:city": "Plau am See", "addr:country": "DE", "addr:housenumber": "88", "addr:postcode": "19395", "addr:street": "Quetziner Straße", "amenity": "hospital", "building": "hospital", "building:levels": "4", "healthcare": "hospital", "name": "MediClin Krankenhaus Plau am See", "roof:levels": "0", "toilets:wheelchair": "yes", "website": "https://www.krankenhaus-plau.de/", "wheelchair": "yes"}}, {"name": "MEDIAN Klinik Bad Sülze", "latitude": 54.1127223, "longitude": 12.6530319, "source": "osm", "_tags": {"addr:city": "Bad Sülze", "addr:housenumber": "1", "addr:postcode": "18334", "addr:street": "Kastanienallee", "amenity": "hospital", "healthcare": "hospital", "name": "MEDIAN Klinik Bad Sülze", "operator": "Median Kliniken", "operator:type": "private", "operator:wikidata": "Q1916200", "website": "https://www.median-kliniken.de/de/median-klinik-bad-suelze/"}}, {"name": "Klinikum Südstadt Rostock", "latitude": 54.0715303, "longitude": 12.107871, "source": "osm", "_tags": {"addr:city": "Rostock", "addr:country": "DE", "addr:housenumber": "81", "addr:postcode": "18059", "addr:street": "Südring", "addr:suburb": "Südstadt", "amenity": "hospital", "building": "hospital", "building:colour": "#C5CBD1", "building:levels": "8", "email": "info@kliniksued-rostock.de", "fax": "+49 381 4401 7799", "healthcare": "hospital", "height": "22", "loc_name": "Südstadtklinikum", "name": "Klinikum Südstadt Rostock", "phone": "+49 381 4401 0", "roof:shape": "flat", "type": "multipolygon", "website": "https://www.kliniksued-rostock.de/", "wheelchair": "yes", "wikidata": "Q62287534"}}]