[{"name": "Бярэзінская ЦРБ", "latitude": 53.8255527, "longitude": 28.9881514, "source": "osm", "_tags": {"amenity": "hospital", "name": "Бярэзінская ЦРБ", "name:be": "Бярэзінская ЦРБ", "name:ru": "Березинская ЦРБ"}}, {"name": "Раённая бальніца", "latitude": 53.4877774, "longitude": 29.3371695, "source": "osm", "_tags": {"amenity": "hospital", "barrier": "fence", "healthcare": "hospital", "name": "Раённая бальніца", "name:be": "Раённая бальніца", "name:ru": "Районная больница"}}, {"name": "ФАП", "latitude": 53.5080748, "longitude": 29.2668306, "source": "osm", "_tags": {"amenity": "hospital", "building": "house", "healthcare": "hospital", "name": "ФАП", "name:be": "ФАП", "name:ru": "ФАП"}}, {"name": "Арэхаўская бальніца", "latitude": 53.5007436, "longitude": 29.1491579, "source": "osm", "_tags": {"addr:housenumber": "6Б", "addr:street": "вуліца Перамогі", "amenity": "hospital", "building": "house", "name": "Арэхаўская бальніца", "name:be": "Арэхаўская бальніца", "name:ru": "Ореховская больница"}}, {"name": "Свіслацкая вясковая ўрачэбная амбулаторыя", "latitude": 53.43267, "longitude": 28.9777226, "source": "osm", "_tags": {"amenity": "hospital", "building": "yes", "building:levels": "1", "name": "Свіслацкая вясковая ўрачэбная амбулаторыя", "name:be": "Свіслацкая вясковая ўрачэбная амбулаторыя", "name:ru": "Свислочская сельская врачебная амбулатория"}}, {"name": "", "latitude": 54.3215956, "longitude": 29.1287852, "source": "osm", "_tags": {"amenity": "hospital", "emergency": "yes", "healthcare": "hospital"}}]