[{"name": "Laboratorium \"Alab Laboratoria\"", "latitude": 54.1988915, "longitude": 16.2153026, "source": "osm", "_tags": {"addr:city": "Koszalin", "addr:postcode": "75-531", "addr:street": "Tytusa Chałubińskiego", "amenity": "clinic", "healthcare": "hospital", "name": "Laboratorium \"Alab Laboratoria\""}}, {"name": "Pracowania Scyntygrafii-Affidea", "latitude": 54.1989626, "longitude": 16.2152045, "source": "osm", "_tags": {"addr:city": "Koszalin", "addr:postcode": "75-531", "addr:street": "Tytusa Chałubińskiego", "amenity": "clinic", "healthcare": "hospital", "name": "Pracowania Scyntygrafii-Affidea"}}, {"name": "Stacja Dializ - Fresenius", "latitude": 54.1988128, "longitude": 16.2151576, "source": "osm", "_tags": {"addr:city": "Koszalin", "addr:postcode": "75-531", "addr:street": "Tytusa Chałubińskiego", "amenity": "clinic", "healthcare": "hospital", "name": "Stacja Dializ - Fresenius"}}, {"name": "Zakład Patomorfologii i Medycyny Sądowej", "latitude": 54.1971323, "longitude": 16.2145306, "source": "osm", "_tags": {"addr:city": "Koszalin", "addr:postcode": "75-581", "addr:street": "Tytusa Chałubińskiego", "amenity": "clinic", "healthcare": "hospital", "name": "Zakład Patomorfologii i Medycyny Sądowej", "opening_hours": "Mo-Fr 07:00-14:35"}}, {"name": "Szpitalny Oddział Ratunkowy", "latitude": 54.1984143, "longitude": 16.2129107, "source": "osm", "_tags": {"addr:city": "Koszalin", "addr:postcode": "75-581", "addr:street": "Tytusa Chałubińskiego", "alt_name": "SOR Koszalin", "amenity": "clinic", "emergency": "yes", "healthcare": "hospital", "name": "Szpitalny Oddział Ratunkowy", "opening_hours": "24/7", "website": "https://www.swk.med.pl/"}}, {"name": "Izba Przyjęć Ogólna", "latitude": 54.1979004, "longitude": 16.2134101, "source": "osm", "_tags": {"addr:city": "Koszalin", "addr:postcode": "75-581", "addr:street": "Tytusa Chałubińskiego", "amenity": "clinic", "emergency": "yes", "healthcare": "hospital", "name": "Izba Przyjęć Ogólna", "opening_hours": "Mo-Fr 18:00-08:00, PH,Sa,Su 00:00-24:00"}}, {"name": "Oddział Intensywnej Terapii", "latitude": 54.1978812, "longitude": 16.2135484, "source": "osm", "_tags": {"addr:city": "Koszalin", "addr:postcode": "75-581", "addr:street": "Tytusa Chałubińskiego", "amenity": "clinic", "healthcare": "hospital", "name": "Oddział Intensywnej Terapii", "opening_hours": "Mo-Su 07:00-14:35"}}, {"name": "Poradnia Chirurgii Naczyniowej", "latitude": 54.1981943, "longitude": 16.2140268, "source": "osm", "_tags": {"addr:city": "Koszalin", "addr:postcode": "75-581", "addr:street": "Tytusa Chałubińskiego", "amenity": "clinic", "healthcare": "hospital", "name": "Poradnia Chirurgii Naczyniowej"}}, {"name": "Samodzielny Publiczny Zakład Opieki Zdrowotnej MSWiA w Koszalinie", "latitude": 54.1871839, "longitude": 16.1856251, "source": "osm", "_tags": {"amenity": "hospital", "check_date": "2024-07-20", "email": "sekretariat@poliklinika.koszalin.pl", "emergency": "no", "fax": "+48 94 341 16 97", "healthcare": "hospital", "loc_name": "Poliklinika Koszalin", "name": "Samodzielny Publiczny Zakład Opieki Zdrowotnej MSWiA w Koszalinie", "official_name": "Samodzielny Publiczny Zakład Opieki Zdrowotnej Ministerstwa Spraw Wewnętrznych i Administracji w Koszalinie", "phone": "+48 94 347 16 44; +48 94 347 16 88; +48 94 347 16 00", "website": "https://poliklinika.koszalin.pl"}}, {"name": "Szpital Wojewódzki im. Mikołaja Kopernika w Koszalinie", "latitude": 54.1985488, "longitude": 16.2145897, "source": "osm", "_tags": {"amenity": "hospital", "email": "szpital@swk.med.pl", "emergency": "yes", "fax": "+48 94 34 88 299", "healthcare": "hospital", "name": "Szpital Wojewódzki im. Mikołaja Kopernika w Koszalinie", "official_name": "Szpital Wojewódzki im. M. Kopernika w Koszalinie", "phone": "+48 94 34 88 400", "website": "https://www.swk.med.pl"}}, {"name": "Szpital w Szczecinku", "latitude": 53.712549, "longitude": 16.6786983, "source": "osm", "_tags": {"alt_name": "Szpital Szczecinek", "amenity": "hospital", "email": "sekretariat@szpital.szczecinek.pl", "emergency": "yes", "fax": "+48 94 37 26 796", "healthcare": "hospital", "healthcare:speciality": "internal;orthopaedics;gynaecology;paediatrics;surgery", "name": "Szpital w Szczecinku", "official_name": "Szpital w Szczecinku Sp. z o.o.", "operator": "Powiat Szczecinek", "phone": "+48 94 37 26 700", "website": "https://szpital.szczecinek.pl/"}}, {"name": "Środkowopomorskie Centrum Zdrowia Psychicznego - MEDiSON", "latitude": 54.1714542, "longitude": 16.188192, "source": "osm", "_tags": {"addr:city": "Koszalin", "addr:housenumber": "9", "addr:postcode": "75-819", "addr:street": "Sarzyńska", "alt_name": "Centrum Zdrowia Psychicznego w Koszalinie;Środkowopomorskie Centrum Zdrowia Psychicznego", "amenity": "hospital", "emergency": "yes", "healthcare": "hospital", "healthcare:speciality": "psychiatry", "loc_name": "Szpital Psychiatryczny w Koszalinie", "name": "Środkowopomorskie Centrum Zdrowia Psychicznego - MEDiSON", "phone": "+48 94 712 55 55", "website": "https://medison.com.pl/"}}, {"name": "Regionalne Centrum Medyczne w Białogardzie", "latitude": 54.0068144, "longitude": 16.0078763, "source": "osm", "_tags": {"amenity": "hospital", "email": "sekretariat@rcm24.pl", "emergency": "no", "fax": "+48 94 311 37 27", "healthcare": "hospital", "loc_name": "Szpital Powiatowy w Białogardzie", "name": "Regionalne Centrum Medyczne w Białogardzie", "official_name": "Regionalne Centrum Medyczne w Białogardzie Sp. z o.o.", "phone": "+48 94 311 37 26", "website": "http://szpitalbialogard.pl/"}}, {"name": "Przyjazny Szpital w Połczynie-Zdroju", "latitude": 53.7627305, "longitude": 16.0902379, "source": "osm", "_tags": {"amenity": "hospital", "email": "sekretariat@szpitalpolczyn.pl", "emergency": "no", "fax": "+48 94 36 61 818", "healthcare": "hospital", "name": "Przyjazny Szpital w Połczynie-Zdroju", "official_name": "Przyjazny Szpital w Połczynie-Zdroju Sp. z o.o.", "operator": "Powiat Świdwiński", "phone": "+48 94 36 61 807", "website": "https://przyjazny-szpital.pl/"}}, {"name": "Regionalne Centrum Medyczne w Białogardzie (stary szpital)", "latitude": 54.0064543, "longitude": 15.9714323, "source": "osm", "_tags": {"amenity": "hospital", "email": "sekretariat@rcm24.pl", "emergency": "no", "fax": "+48 (94) 312 02 77", "healthcare": "hospital", "loc_name": "Szpital Powiatowy w Białogardzie (stary szpital)", "name": "Regionalne Centrum Medyczne w Białogardzie (stary szpital)", "official_name": "Regionalne Centrum Medyczne w Białogardzie Sp. z o.o.", "phone": "+48 (94) 312 02 10", "website": "http://szpitalbialogard.pl/"}}, {"name": "Specjalistyczny Zespół Gruźlicy I Chorób Płuc", "latitude": 54.1958751, "longitude": 16.1756956, "source": "osm", "_tags": {"amenity": "hospital", "email": "sekretariat@szgichp.med.pl", "emergency": "no", "healthcare": "hospital", "healthcare:speciality": "pulmonology", "name": "Specjalistyczny Zespół Gruźlicy I Chorób Płuc", "phone": "+48 94 34 06 730", "website": "https://www.szgichp.med.pl/"}}, {"name": "Szpital Powiatowy w Sławnie", "latitude": 54.3690618, "longitude": 16.6781496, "source": "osm", "_tags": {"amenity": "hospital", "email": "szpital@szpital-slawno.pl", "emergency": "no", "fax": "+48 59 810 24 23", "healthcare": "hospital", "name": "Szpital Powiatowy w Sławnie", "phone": "+48 59 810 63 21", "website": "https://www.szpital-slawno.pl/"}}, {"name": "", "latitude": 53.5051386, "longitude": 15.9867342, "source": "osm", "_tags": {"amenity": "hospital", "healthcare": "hospital", "type": "multipolygon"}}]