[{"name": "AMEOS Diakonie-Klinikum Ueckermünde", "latitude": 53.7407362, "longitude": 14.0220984, "source": "osm", "_tags": {"addr:city": "Ueckermünde", "addr:housenumber": "23", "addr:postcode": "17373", "addr:street": "Ravensteinstraße", "amenity": "hospital", "healthcare": "hospital", "name": "AMEOS Diakonie-Klinikum Ueckermünde", "phone": "+49 39771 41 0", "website": "https://www.ameos.de/klinikum-ueckermuende", "wheelchair": "limited"}}, {"name": "Uniwersytecki Szpital Kliniczny nr 1 Pomorskiego Uniwersytetu Medycznego", "latitude": 53.4485772, "longitude": 14.5042918, "source": "osm", "_tags": {"alt_name": "Uniwersytecki Szpital Kliniczny nr 1 PUM", "amenity": "hospital", "email": "szpital@usk1.szczecin.pl", "emergency": "yes", "healthcare": "hospital", "name": "Uniwersytecki Szpital Kliniczny nr 1 Pomorskiego Uniwersytetu Medycznego", "official_name": "Uniwersytecki Szpital Kliniczny nr 1 im. prof. Tadeusza Sokołowskiego Pomorskiego Uniwersytetu Medycznego w Szczecinie", "old_name": "Samodzielny Publiczny Szpital Kliniczny nr 1 Pomorskiego Uniwersytetu Medycznego", "old_official_name": "Samodzielny Publiczny Szpital Kliniczny nr 1 im. prof. Tadeusza Sokołowskiego Pomorskiego Uniwersytetu Medycznego w Szczecinie", "operator": "Pomorski Uniwersytet Medyczny w Szczecinie", "phone": "+48 91 425 30 00", "short_name": "USK 1 PUM", "website": "https://usk1.szczecin.pl/"}}, {"name": "Samodzielny Publiczny Zakład Opieki Zdrowotnej MSWiA w Szczecinie", "latitude": 53.4352621, "longitude": 14.5244951, "source": "osm", "_tags": {"amenity": "hospital", "email": "biuro@spzozmswia.szczecin.pl", "emergency": "no", "fax": "+48 91 43 29 501; +48 91 43 29 522", "healthcare": "hospital", "name": "Samodzielny Publiczny Zakład Opieki Zdrowotnej MSWiA w Szczecinie", "official_name": "Samodzielny Publiczny Zakład Opieki Zdrowotnej Ministerstwa Spraw Wewnętrznych i Administracji w Szczecinie", "operator": "Ministerstwo Spraw Wewnętrznych i Administracji", "phone": "+48 91 43 32 102; +48 91 43 29 511", "website": "https://www.gov.pl/web/spzoz-mswia-szczecin"}}, {"name": "Samodzielny Publiczny Wojewódzki Szpital Zespolony w Szczecinie", "latitude": 53.4535591, "longitude": 14.5276061, "source": "osm", "_tags": {"addr:city": "Szczecin", "addr:postcode": "71-455", "addr:street": "Arkońska", "alt_name": "Szpital Wojewódzki w Szczecinie", "amenity": "hospital", "contact:facebook": "https://www.facebook.com/SPWSZ/", "email": "spwsz@spwsz.szczecin.pl", "emergency": "yes", "fax": "+48 91 813 90 09", "healthcare": "hospital", "name": "Samodzielny Publiczny Wojewódzki Szpital Zespolony w Szczecinie", "phone": "+48 91 813 90 00;+48 91 813 90 10;+48 91 813 90 21", "short_name": "SPWSZ", "website": "https://www.spwsz.szczecin.pl/"}}, {"name": "Zachodniopomorskie Centrum Onkologii", "latitude": 53.4691961, "longitude": 14.5936516, "source": "osm", "_tags": {"amenity": "hospital", "email": "szpital@onkologia.szczecin.pl", "emergency": "no", "healthcare": "hospital", "healthcare:speciality": "radiology, oncology", "name": "Zachodniopomorskie Centrum Onkologii", "operator": "Marszałek Województwa Zachodniopomorskiego", "phone": "+48 91 42 51 410", "website": "https://onkologia.szczecin.pl/"}}, {"name": "109 Szpital Wojskowy z Przychodnią SP ZOZ", "latitude": 53.4429835, "longitude": 14.5409136, "source": "osm", "_tags": {"amenity": "hospital", "email": "sekretariat@109szpital.pl", "emergency": "no", "healthcare": "hospital", "heritage": "2", "heritage:operator": "nid", "loc_name": "Szpital Wojskowy", "mobile": "+48 606 719 613", "name": "109 Szpital Wojskowy z Przychodnią SP ZOZ", "operator": "Ministerstwo Obrony Narodowej", "phone": "+48 91 810 58 00; +48 91 810 59 31", "ref:nid": "1232", "website": "https://www.109szpital.pl/"}}, {"name": "Asklepios Klinik Pasewalk", "latitude": 53.4894556, "longitude": 13.9860745, "source": "osm", "_tags": {"addr:city": "Pasewalk", "addr:country": "DE", "addr:housenumber": "30", "addr:postcode": "17309", "addr:street": "Prenzlauer Chaussee", "amenity": "hospital", "emergency": "yes", "healthcare": "hospital", "name": "Asklepios Klinik Pasewalk", "operator": "Asklepios Kliniken", "operator:type": "private", "operator:wikidata": "Q732068", "operator:wikipedia": "de:Asklepios Kliniken", "phone": "+49 3973 230", "source": "bing+survey", "website": "https://www.asklepios.com/pasewalk/"}}, {"name": "Klinika Psychiatrii Pomorskiego Uniwersytetu Medycznego", "latitude": 53.4543725, "longitude": 14.533388, "source": "osm", "_tags": {"amenity": "hospital", "contact:fax": "+48 91 351 13 01", "contact:phone": "+48 91 351 13 22", "emergency": "yes", "name": "Klinika Psychiatrii Pomorskiego Uniwersytetu Medycznego", "official_name": "Klinika Psychiatrii z Oddziałem Dziennym Psychiatrycznym Pomorskiego Uniwersytetu Medycznego", "operator": "Uniwersytecki Szpital Kliniczny nr 1 Pomorskiego Uniwersytetu Medycznego", "website": "https://usk1.szczecin.pl/jednostki-medyczne/szczecin-ul-broniewskiego-26"}}, {"name": "Szpital w Kamieniu Pomorskim Sp. z o.o.", "latitude": 53.9690349, "longitude": 14.7770365, "source": "osm", "_tags": {"addr:city": "Kamień Pomorski", "addr:postcode": "72-400", "addr:street": "Szpitalna", "alt_name": "Szpital w Kamieniu Pomorskim", "amenity": "hospital", "email": "rejestracja@szpitalkamien.pl", "emergency": "no", "healthcare": "hospital", "name": "Szpital w Kamieniu Pomorskim Sp. z o.o.", "official_name": "Szpital w Kamieniu Pomorskim Sp. z o.o.", "operator": "Powiat Kamieński", "phone": "+48 91 326 26 90;+48 91 326 26 91;+48 91 326 26 92", "website": "https://szpitalkamien.pl"}}, {"name": "Uniwersytecki Szpital Kliniczny nr 1 PUM", "latitude": 53.5472068, "longitude": 14.5612922, "source": "osm", "_tags": {"amenity": "hospital", "emergency": "no", "healthcare": "hospital", "healthcare:speciality": "psychiatry;gynaecology;dermatology;radiology;internal;chirurgia;neonatologia", "name": "Uniwersytecki Szpital Kliniczny nr 1 PUM", "official_name": "Uniwersytecki Szpital Kliniczny nr 1 im. prof. Tadeusza Sokołowskiego Pomorskiego Uniwersytetu Medycznego w Szczecinie", "operator": "SPSK1 PUM Szczecin", "operator:type": "university", "phone": "+48 91 425 38 00", "website": "https://www.spsk1.szn.pl/"}}, {"name": "Szpitalne Centrum Medyczne w Goleniowie", "latitude": 53.5697335, "longitude": 14.8340537, "source": "osm", "_tags": {"addr:city": "Goleniów", "addr:housenumber": "2", "addr:postcode": "72-100", "addr:street": "Nowogardzka", "amenity": "hospital", "email": "sekretariat@szpitalgoleniow.pl", "emergency": "no", "fax": "+48 91 466 43 15", "healthcare": "hospital", "name": "Szpitalne Centrum Medyczne w Goleniowie", "official_name": "Szpitalne Centrum Medyczne w Goleniowie Spółka z o. o.", "phone": "+48 91 466 43 00;+48 573 808 301", "website": "https://szpitalgoleniow.pl"}}, {"name": "Szpital Miejski im. Jana Garduły w Świnoujściu", "latitude": 53.9097341, "longitude": 14.2578927, "source": "osm", "_tags": {"amenity": "hospital", "contact:facebook": "szpitalswinoujscie", "email": "sekretariat@szpital-swinoujscie.pl", "emergency": "no", "fax": "+48 91 321 41 74", "healthcare": "hospital", "name": "Szpital Miejski im. Jana Garduły w Świnoujściu", "official_name": "Szpital Miejski im. Jana Garduły w Świnoujściu Sp. z o.o.", "operator": "Gmina Miasto Świnoujście", "phone": "+48 91 32 67 424; +48 91 32 67 322; +48 91 32 67 345", "website": "https://szpital-swinoujscie.pl"}}, {"name": "IFA Therapiezentrum Usedom", "latitude": 54.0403333, "longitude": 14.0264853, "source": "osm", "_tags": {"addr:city": "Loddin", "addr:housenumber": "3", "addr:postcode": "17459", "addr:street": "Strandstraße", "amenity": "hospital", "healthcare": "hospital", "healthcare:speciality": "physiatry", "name": "IFA Therapiezentrum Usedom", "operator": "Balticum OpCo 1 Usedom GmbH", "website": "https://www.ifagesundheit.de/ifa-kurheim-usedom"}}, {"name": "Fachklinik Klaus Störtebeker Ostseestrand", "latitude": 54.0387246, "longitude": 14.0225675, "source": "osm", "_tags": {"addr:city": "Loddin", "addr:housenumber": "13", "addr:postcode": "17459", "addr:street": "Strandstraße", "amenity": "hospital", "healthcare": "hospital", "name": "Fachklinik Klaus Störtebeker Ostseestrand", "operator": "Johannesbad Holding SE & Co. KG", "website": "https://www.johannesbad-medizin.com"}}]