[{"name": "Psychiatrische Tagesklinik", "latitude": 53.8720731, "longitude": 8.6869824, "source": "osm", "_tags": {"addr:city": "Cuxhaven", "addr:housenumber": "24", "addr:postcode": "27472", "addr:street": "Feldweg", "amenity": "hospital", "email": "DienstzimmerTagesklinik@geestland.ameos.de", "emergency": "no", "fax": "+49 4721 6985820", "healthcare": "hospital", "healthcare:speciality": "psychiatry", "name": "Psychiatrische Tagesklinik", "operator": "Ameos", "operator:type": "private", "operator:wikidata": "Q462865", "phone": "+49 4721 6644188"}}, {"name": "Psychiatrische Institutsambulanz", "latitude": 53.8719346, "longitude": 8.6873512, "source": "osm", "_tags": {"addr:city": "Cuxhaven", "addr:housenumber": "24", "addr:postcode": "27472", "addr:street": "Feldweg", "amenity": "hospital", "emergency": "no", "healthcare": "hospital", "healthcare:speciality": "psychiatry", "name": "Psychiatrische Institutsambulanz", "operator": "Ameos", "operator:type": "private", "operator:wikidata": "Q462865"}}, {"name": "Klinikum Wilhelmshaven", "latitude": 53.5454757, "longitude": 8.0828256, "source": "osm", "_tags": {"addr:city": "Wilhelmshaven", "addr:country": "DE", "addr:housenumber": "100", "addr:postcode": "26389", "addr:street": "Friedrich-Paffrath-Straße", "alt_name": "Reinhard-Nieter-Krankenhaus", "amenity": "hospital", "healthcare": "hospital", "name": "Klinikum Wilhelmshaven", "phone": "+49 4421 890", "website": "https://www.klinikum-whv.de/", "wheelchair": "yes", "wikidata": "Q28946461"}}, {"name": "Klinikum Bremerhaven-Reinkenheide", "latitude": 53.5377387, "longitude": 8.6365604, "source": "osm", "_tags": {"addr:city": "Bremerhaven", "addr:country": "DE", "addr:housenumber": "103", "addr:postcode": "27574", "addr:street": "Postbrookstraße", "amenity": "hospital", "emergency": "yes", "healthcare": "hospital", "name": "Klinikum Bremerhaven-Reinkenheide", "phone": "+49 471 299 0", "toilets:wheelchair": "yes", "website": "https://www.klinikum-bremerhaven.de/", "wheelchair": "yes", "wikidata": "Q1774600", "wikipedia": "de:Klinikum Bremerhaven"}}, {"name": "Krankenhaus Land Hadeln", "latitude": 53.8122382, "longitude": 8.8879515, "source": "osm", "_tags": {"amenity": "hospital", "email": "info@khlh.de", "healthcare": "hospital", "name": "Krankenhaus Land Hadeln", "phone": "+49 4751 908 0", "toilets:wheelchair": "yes", "website": "https://www.krankenhaus-land-hadeln.de/", "wheelchair": "yes", "wikidata": "Q121077893"}}, {"name": "AMEOS Klinikum Seepark Geestland", "latitude": 53.6161629, "longitude": 8.6312159, "source": "osm", "_tags": {"amenity": "hospital", "contact:email": "info@geestland.ameos.de", "contact:fax": "+49 4743 893 2537", "contact:phone": "+49 4743 8930", "contact:website": "https://www.ameos.de/klinikum-seepark-geestland", "emergency": "yes", "healthcare": "hospital", "healthcare:speciality": "child_psychiatry;orthopaedics;paediatrics;psychiatry;urology", "name": "AMEOS Klinikum Seepark Geestland", "opening_hours": "24/7", "operator": "Ameos", "operator:wikidata": "Q462865", "operator:wikipedia": "de:Ameos", "toilets:wheelchair": "yes", "wheelchair": "yes"}}, {"name": "Klinik am Bürgerpark", "latitude": 53.5324132, "longitude": 8.6047696, "source": "osm", "_tags": {"addr:city": "Bremerhaven", "addr:country": "DE", "addr:housenumber": "29", "addr:postcode": "27574", "addr:street": "Schiffdorfer Chaussee", "amenity": "hospital", "email": "info.buergerpark@bremerhaven.ameos.de", "emergency": "yes", "fax": "+49 471 1414", "healthcare": "hospital", "name": "Klinik am Bürgerpark", "phone": "+49 471 1820", "website": "https://www.ameos.eu/standorte/ameos-west/bremerhaven/ameos-klinikum-am-buergerpark-bremerhaven", "wheelchair": "yes"}}, {"name": "Nordwest-Krankenhaus Sanderbusch", "latitude": 53.5069054, "longitude": 8.0090096, "source": "osm", "_tags": {"addr:city": "Sande", "addr:housenumber": "1", "addr:postcode": "26452", "addr:street": "Am Gut Sanderbusch", "amenity": "hospital", "email": "info@sanderbusch.de", "emergency": "yes", "fax": "+49 4422 801017", "healthcare": "hospital", "name": "Nordwest-Krankenhaus Sanderbusch", "operator": "Nordwest-Krankenhaus Sanderbusch GmbH", "phone": "+49 4422 800", "website": "https://www.sanderbusch.de/", "wheelchair": "yes", "wikidata": "Q17124949"}}, {"name": "Helios Klinik Cuxhaven", "latitude": 53.8524112, "longitude": 8.6927613, "source": "osm", "_tags": {"addr:city": "Cuxhaven", "addr:postcode": "27474", "addr:street": "Altenwalder Chaussee", "amenity": "hospital", "brand": "HELIOS Klinik", "brand:wikidata": "Q1254151", "contact:fax": "+49 4721 781200", "contact:phone": "+49 4721 78 0", "contact:website": "https://www.helios-gesundheit.de/kliniken/cuxhaven/", "emergency": "yes", "healthcare": "hospital", "name": "Helios Klinik Cuxhaven", "opening_hours": "24/7", "operator": "Helios Kliniken", "operator:type": "private", "operator:wikidata": "Q1254151", "wheelchair": "yes", "wikidata": "Q83168683", "wikipedia": "de:Helios Klinik Cuxhaven"}}, {"name": "Helios Klinik Wesermarsch", "latitude": 53.4559446, "longitude": 8.4417882, "source": "osm", "_tags": {"amenity": "hospital", "contact:phone": "+49 4731 3690 0", "contact:website": "https://www.helios-gesundheit.de/kliniken/wesermarsch/", "emergency": "yes", "healthcare": "hospital", "name": "Helios Klinik Wesermarsch", "opening_hours": "24/7", "operator": "Helios Kliniken", "operator:wikidata": "Q1254151", "wheelchair": "yes"}}, {"name": "Strandklinik St. Peter-Ording", "latitude": 54.3085976, "longitude": 8.6128851, "source": "osm", "_tags": {"amenity": "hospital", "healthcare": "hospital", "name": "Strandklinik St. Peter-Ording"}}, {"name": "", "latitude": 54.2992711, "longitude": 8.6538252, "source": "osm", "_tags": {"amenity": "hospital", "healthcare": "hospital"}}]