[{"name": "Pro-Medica", "latitude": 53.7938452, "longitude": 22.3389376, "source": "osm", "_tags": {"addr:city": "Ełk", "addr:housenumber": "24", "addr:street": "Baranki", "amenity": "hospital", "emergency": "yes", "name": "Pro-Medica"}}, {"name": "", "latitude": 54.0422214, "longitude": 22.4966933, "source": "osm", "_tags": {"building": "yes", "healthcare": "hospital"}}, {"name": "Szpital Wojewódzki im. dr. Ludwika Rydygiera w Suwałkach", "latitude": 54.119002, "longitude": 22.9258097, "source": "osm", "_tags": {"amenity": "hospital", "healthcare": "hospital", "name": "Szpital Wojewódzki im. dr. Ludwika Rydygiera w Suwałkach"}}, {"name": "Озёрская центральная больница", "latitude": 54.4111559, "longitude": 22.0092346, "source": "osm", "_tags": {"amenity": "hospital", "name": "Озёрская центральная больница", "name:de": "Zentralkrankenhaus Osjorsk", "name:ru": "Озёрская центральная больница"}}, {"name": "Centrum Medyczne Olmedica w Olecku", "latitude": 54.0422574, "longitude": 22.4963334, "source": "osm", "_tags": {"amenity": "hospital", "email": "olmedica@olmedica.pl", "healthcare": "hospital", "name": "Centrum Medyczne Olmedica w Olecku", "phone": "+48 87 520 22 95", "website": "http://www.olmedica.pl"}}, {"name": "Szpital Ogólny im. dr. Witolda Ginela", "latitude": 53.6455491, "longitude": 22.469981, "source": "osm", "_tags": {"addr:city": "Grajewo", "addr:housenumber": "34", "addr:postcode": "19-200", "addr:street": "Konstytucji 3 Maja", "amenity": "hospital", "emergency": "yes", "healthcare": "hospital", "name": "Szpital Ogólny im. dr. Witolda Ginela"}}, {"name": "1 Wojskowy Szpital Kliniczny z Polikliniką SPZOZ w Lublinie Filia w Ełku", "latitude": 53.8207743, "longitude": 22.3625187, "source": "osm", "_tags": {"amenity": "hospital", "emergency": "yes", "healthcare": "hospital", "name": "1 Wojskowy Szpital Kliniczny z Polikliniką SPZOZ w Lublinie Filia w Ełku", "note": "amenity=hospital wymaga weryfikacji"}}, {"name": "Szpital Miejski Pro-Medica", "latitude": 53.7940914, "longitude": 22.3399063, "source": "osm", "_tags": {"amenity": "hospital", "name": "Szpital Miejski Pro-Medica"}}, {"name": "Szpital", "latitude": 54.3097072, "longitude": 22.305825, "source": "osm", "_tags": {"amenity": "hospital", "emergency": "yes", "healthcare": "hospital", "healthcare:speciality": "paediatrics", "name": "Szpital"}}]