[{"name": "Daisy Hill Hospital", "latitude": 54.1797795, "longitude": -6.3508635, "source": "osm", "_tags": {"addr:city": "Newry", "addr:housenumber": "5", "addr:postcode": "BT35 8DR", "addr:street": "Hospital Road", "amenity": "hospital", "emergency": "yes", "healthcare": "hospital", "name": "Daisy Hill Hospital", "name:ga": "Ospidéal", "operator": "Southern Health and Social Care Trust", "operator:type": "public", "phone": "+44 28 3083 5000 x2347", "wikidata": "Q2571364"}}, {"name": "Saint Ita's Psychiatric Hospital", "latitude": 53.4874897, "longitude": -6.1131556, "source": "osm", "_tags": {"amenity": "hospital", "healthcare": "hospital", "healthcare:speciality": "psychiatry", "name": "Saint Ita's Psychiatric Hospital"}}, {"name": "Our Lady’s Hospital", "latitude": 53.6502026, "longitude": -6.6974837, "source": "osm", "_tags": {"HSE_code": "705", "HSE_hgid": "2", "HSE_hgroup": "Ireland East Hospital Group", "HSE_region": "Dublin East", "amenity": "hospital", "healthcare": "hospital", "name": "Our Lady’s Hospital", "operator": "Health Service Executive", "operator:short": "HSE", "operator:type": "government", "operator:wikidata": "Q5690681", "operator:wikipedia": "en:Health Service Executive", "wikidata": "Q30267679"}}, {"name": "", "latitude": 53.6512191, "longitude": -6.6832643, "source": "osm", "_tags": {"amenity": "hospital", "healthcare": "hospital", "wheelchair": "yes"}}, {"name": "Our Lady of Lourdes Hospital", "latitude": 53.7221584, "longitude": -6.3539146, "source": "osm", "_tags": {"HSE_code": "701", "HSE_hgid": "4", "HSE_hgroup": "RCSI Hospitals Group", "HSE_region": "Dublin North East", "amenity": "hospital", "emergency": "yes", "healthcare": "hospital", "name": "Our Lady of Lourdes Hospital", "name:ga": "Ospidéal Mhuire Lourdes", "operator": "Health Service Executive", "operator:short": "HSE", "operator:type": "government", "operator:wikidata": "Q5690681", "operator:wikipedia": "en:Health Service Executive", "wheelchair": "yes", "wikidata": "Q7110864"}}, {"name": "St. Mary's Hospital - Castleblayney", "latitude": 54.1201856, "longitude": -6.7447244, "source": "osm", "_tags": {"addr:city": "Castleblayney", "addr:place": "Bree", "amenity": "hospital", "emergency": "no", "healthcare": "hospital", "name": "St. Mary's Hospital - Castleblayney"}}, {"name": "Armagh Community Hospital", "latitude": 54.3507259, "longitude": -6.6424642, "source": "osm", "_tags": {"amenity": "hospital", "healthcare": "hospital", "name": "Armagh Community Hospital"}}, {"name": "St Lukes Hospital", "latitude": 54.3619936, "longitude": -6.6530973, "source": "osm", "_tags": {"amenity": "hospital", "healthcare": "hospital", "name": "St Lukes Hospital", "wikidata": "Q65043116"}}, {"name": "Monaghan General Hospital", "latitude": 54.249822, "longitude": -6.9741199, "source": "osm", "_tags": {"addr:city": "Monaghan", "addr:postcode": "H18 NV91", "addr:street": "High Street", "alt_name": "Monaghan Hospital", "amenity": "hospital", "healthcare": "hospital", "name": "Monaghan General Hospital", "operator": "Health Service Executive", "operator:short": "HSE", "operator:type": "public", "operator:wikidata": "Q5690681", "phone": "+353-47-81811", "wikidata": "Q6897900"}}, {"name": "National Forensic Mental Health Service", "latitude": 53.4891779, "longitude": -6.1200476, "source": "osm", "_tags": {"amenity": "hospital", "builder": "JJ Rhatigan", "emergency": "no", "healthcare": "hospital", "name": "National Forensic Mental Health Service", "operator": "Health Service Executive", "operator:short": "HSE", "operator:type": "public", "operator:wikidata": "Q5690681"}}, {"name": "", "latitude": 54.038416, "longitude": -6.1872786, "source": "osm", "_tags": {"amenity": "hospital", "healthcare": "hospital"}}, {"name": "Saint Davnet's Hospital", "latitude": 54.2516456, "longitude": -6.9612638, "source": "osm", "_tags": {"amenity": "hospital", "emergency": "no", "healthcare": "hospital", "healthcare:speciality": "psychiatry;occupational_therapy;social_work", "name": "Saint Davnet's Hospital", "operator": "Health Service Executive", "operator:short": "HSE", "operator:type": "government", "operator:wikidata": "Q5690681", "operator:wikipedia": "en:Health Service Executive"}}, {"name": "Saint Mary's Hospital", "latitude": 53.8619394, "longitude": -6.3785508, "source": "osm", "_tags": {"addr:city": "Dunleer", "addr:housename": "Saint Mary's Hospital", "amenity": "hospital", "emergency": "no", "healthcare": "hospital", "healthcare:speciality": "psychiatry", "name": "Saint Mary's Hospital", "operator": "Saint John of God North East Services", "operator:type": "religious", "phone": "+353 41 685 1211", "website": "https://sjognortheastservices.ie"}}, {"name": "", "latitude": 53.9133434, "longitude": -6.9698281, "source": "osm", "_tags": {"amenity": "hospital", "healthcare": "hospital"}}, {"name": "Saint Brigid's Complex", "latitude": 53.8570685, "longitude": -6.5492535, "source": "osm", "_tags": {"addr:city": "Ardee", "addr:street": "Kells Road", "alt_name": "Saint Brigid's Hospital", "amenity": "hospital", "healthcare": "hospital", "name": "Saint Brigid's Complex", "name:en": "Saint Brigid's Complex", "name:ga": "Áras Bhríde", "ref:IE:niah": "13823032"}}, {"name": "St Joseph's Community Unit", "latitude": 53.5512126, "longitude": -6.7899232, "source": "osm", "_tags": {"addr:city": "Trim", "addr:street": "Patrick Street", "amenity": "hospital", "healthcare": "hospital", "name": "St Joseph's Community Unit", "old_name": "St Joseph's Hospital"}}, {"name": "St Mary's Hospital", "latitude": 53.7119364, "longitude": -6.3405926, "source": "osm", "_tags": {"addr:city": "Drogheda", "addr:street": "Dublin Road", "amenity": "hospital", "emergency": "no", "healthcare": "hospital", "name": "St Mary's Hospital", "operator": "Health Service Executive", "operator:short": "HSE", "operator:type": "public", "operator:wikidata": "Q5690681"}}, {"name": "", "latitude": 54.0863969, "longitude": -6.2560721, "source": "osm", "_tags": {"amenity": "hospital", "healthcare": "hospital"}}, {"name": "Louth County Hospital", "latitude": 53.9878489, "longitude": -6.4008651, "source": "osm", "_tags": {"HSE_code": "703", "HSE_hgid": "4", "HSE_hgroup": "RCSI Hospitals Group", "HSE_region": "Dublin North East", "amenity": "hospital", "emergency": "no", "healthcare": "hospital", "name": "Louth County Hospital", "operator": "Health Service Executive", "operator:short": "HSE", "operator:wikidata": "Q5690681", "operator:wikipedia": "en:Health Service Executive", "type": "multipolygon", "wikidata": "Q65041195"}}, {"name": "Tara Winthrop Clinic", "latitude": 53.4441105, "longitude": -6.2264036, "source": "osm", "_tags": {"amenity": "hospital", "building": "yes", "healthcare": "hospital", "name": "Tara Winthrop Clinic", "type": "multipolygon"}}]