[{"name": "DRK Heim", "latitude": 53.600309, "longitude": 7.289318, "source": "osm", "_tags": {"addr:city": "Hage", "addr:housenumber": "3a", "addr:street": "Am Edenhof", "amenity": "hospital", "brand": "Deutsches Rotes Kreuz", "brand:wikidata": "Q694104", "healthcare": "hospital", "name": "DRK Heim", "wheelchair": "yes"}}, {"name": "Krankenhaus Norderney", "latitude": 53.7160712, "longitude": 7.1720602, "source": "osm", "_tags": {"addr:city": "Norderney", "addr:housenumber": "9-11", "addr:postcode": "26548", "addr:street": "Lippestraße", "alt_name": "Allergie- und Hautklinik Norderney", "amenity": "hospital", "email": "info@krankenhaus-norderney.de", "emergency": "yes", "healthcare": "hospital", "name": "Krankenhaus Norderney", "phone": "+49 4932 8050", "website": "https://krankenhaus-norderney.de/", "wheelchair": "yes"}}, {"name": "Ubbo-Emmius-Klinik", "latitude": 53.4680486, "longitude": 7.4987328, "source": "osm", "_tags": {"addr:city": "Aurich", "addr:housenumber": "8-12", "addr:postcode": "26603", "addr:street": "Wallinghausener Straße", "amenity": "hospital", "healthcare": "hospital", "healthcare:speciality": "abortion", "name": "Ubbo-Emmius-Klinik", "phone": "+49 4941 944101", "website": "https://www.u-e-k.de/", "wheelchair": "yes"}}, {"name": "Dr. K.-W. Heimberg", "latitude": 53.6988875, "longitude": 7.6965899, "source": "osm", "_tags": {"addr:city": "Neuharlingersiel", "addr:housenumber": "5", "addr:postcode": "26427", "addr:street": "Nordseestraße", "amenity": "hospital", "brand": "Deutsches Rotes Kreuz", "brand:wikidata": "Q694104", "building": "yes", "healthcare": "hospital", "name": "Dr. K.-W. Heimberg", "opening_hours": "Mo-Fr 08:00-12:00, Mo,Tu,Th 16:00-18:00"}}, {"name": "Krankenhaus Wittmund", "latitude": 53.571777, "longitude": 7.7881767, "source": "osm", "_tags": {"addr:city": "Wittmund", "addr:housenumber": "10", "addr:postcode": "26409", "addr:street": "Dohuser Weg", "amenity": "hospital", "building": "yes", "emergency": "yes", "health_facility:type": "hospital", "healthcare": "hospital", "medical_system:western": "yes", "name": "Krankenhaus Wittmund", "website": "https://kh-wtm.de/", "wheelchair": "yes", "wikidata": "Q15117628"}}, {"name": "Paracelsus-Nordseeklinik", "latitude": 54.1786841, "longitude": 7.886524, "source": "osm", "_tags": {"addr:city": "Helgoland", "addr:country": "DE", "addr:housenumber": "1040", "addr:postcode": "27498", "addr:street": "Invasorenpfad", "amenity": "hospital", "contact:email": "helgoland@pk-mx.de", "contact:fax": "+49 4725 803127", "contact:phone": "+49 4725 8030", "emergency": "yes", "health_facility:type": "clinic", "healthcare": "hospital", "name": "Paracelsus-Nordseeklinik", "opening_hours": "24/7", "website": "https://www.paracelsus-kliniken.de/helgoland", "wikidata": "Q61786518", "wikimedia_commons": "File:Helgoland Paracelsus-Nordseeklinik.jpg"}}]