[{"name": "Kreiskrankenhaus Wolgast", "latitude": 54.0523505, "longitude": 13.7659744, "source": "osm", "_tags": {"amenity": "hospital", "healthcare": "hospital", "name": "Kreiskrankenhaus Wolgast", "website": "https://www.kreiskrankenhaus-wolgast.de/", "wheelchair": "yes"}}, {"name": "HELIOS Hanseklinikum Stralsund Krankenhaus West", "latitude": 54.3008526, "longitude": 13.0412926, "source": "osm", "_tags": {"addr:city": "Stralsund", "addr:country": "DE", "addr:housenumber": "70", "addr:postcode": "18437", "addr:street": "Rostocker Chaussee", "amenity": "hospital", "healthcare": "hospital", "name": "HELIOS Hanseklinikum Stralsund Krankenhaus West", "operator": "Helios Kliniken", "operator:wikidata": "Q1254151", "operator:wikipedia": "de:Helios Kliniken", "phone": "+49 3831 450", "website": "https://www.helios-gesundheit.de/standorte-angebote/kliniken/stralsund/", "wikidata": "Q14906979"}}, {"name": "Kreiskrankenhaus Demmin", "latitude": 53.9020145, "longitude": 13.041648, "source": "osm", "_tags": {"addr:city": "Demmin", "addr:country": "DE", "addr:housenumber": "21", "addr:postcode": "17109", "addr:street": "Wollweberstraße", "amenity": "hospital", "emergency": "yes", "healthcare": "hospital", "name": "Kreiskrankenhaus Demmin", "operator": "Kreiskrankenhaus Demmin GmbH", "website": "https://www.kkh-demmin.de/"}}, {"name": "Sana-Krankenhaus Rügen", "latitude": 54.4196336, "longitude": 13.4291761, "source": "osm", "_tags": {"addr:city": "Bergen auf Rügen", "addr:country": "DE", "addr:housename": "Sana-Krankenhaus", "addr:housenumber": "7-8", "addr:postcode": "18528", "addr:street": "Calandstraße", "amenity": "hospital", "healthcare": "hospital", "name": "Sana-Krankenhaus Rügen", "toilets:wheelchair": "yes", "wheelchair": "yes"}}, {"name": "Dietrich-Bonhoeffer-Klinikum", "latitude": 53.5455588, "longitude": 13.2943189, "source": "osm", "_tags": {"addr:city": "Neubrandenburg", "addr:country": "DE", "addr:housenumber": "30", "addr:postcode": "17036", "addr:street": "Salvador-Allende-Straße", "amenity": "hospital", "emergency": "yes", "healthcare": "hospital", "name": "Dietrich-Bonhoeffer-Klinikum", "operator": "Diakonie Klinikum Dietrich Bonhoeffer GmbH", "subject:wikipedia": "de:Dietrich_Bonhoeffer", "toilets:wheelchair": "yes", "website": "https://dbknb.de/standorte/neubrandenburg", "wheelchair": "yes", "wikidata": "Q1223627", "wikipedia": "de:Dietrich-Bonhoeffer-Klinikum Neubrandenburg"}}, {"name": "Klinikum Karlsburg", "latitude": 53.9704708, "longitude": 13.6100796, "source": "osm", "_tags": {"addr:city": "Karlsburg", "addr:country": "DE", "addr:housenumber": "11", "addr:postcode": "17495", "addr:street": "Greifswalder Straße", "amenity": "hospital", "building": "yes", "check_date": "2024-06-22", "email": "klinikum-karlsburg@drguth.de", "fax": "+49 38355 701559", "healthcare": "hospital", "hospital_type:de": "Herz- und Diabeteszentrum", "name": "Klinikum Karlsburg", "phone": "+49 38355 700", "website": "https://www.klinikum-karlsburg.de/", "wheelchair": "yes", "wikidata": "Q1279408", "wikipedia": "de:Klinikum Karlsburg"}}, {"name": "Evangelisches Krankenhaus Bethanien", "latitude": 54.0781465, "longitude": 13.3834484, "source": "osm", "_tags": {"addr:city": "Greifswald", "addr:country": "DE", "addr:housenumber": "69", "addr:postcode": "17489", "addr:street": "Gützkower Landstraße", "amenity": "hospital", "check_date": "2024-03-19", "healthcare": "hospital", "name": "Evangelisches Krankenhaus Bethanien", "operator": "Johanna-Odebrecht Stiftung", "website": "http://www.odebrecht-stiftung.de/krankenhaus/startseite", "wheelchair": "yes"}}, {"name": "Dietrich-Bonhoeffer-Klinikum Altentreptow", "latitude": 53.6965734, "longitude": 13.2523635, "source": "osm", "_tags": {"addr:city": "Altentreptow", "addr:housenumber": "1a", "addr:postcode": "17087", "addr:street": "Klosterberg", "amenity": "hospital", "contact:website": "https://dbknb.de/altentreptow", "healthcare": "hospital", "name": "Dietrich-Bonhoeffer-Klinikum Altentreptow", "operator": "Diakonie Klinikum Dietrich Bonhoeffer GmbH"}}, {"name": "Universitätsklinikum Greifswald", "latitude": 54.0880889, "longitude": 13.405878, "source": "osm", "_tags": {"addr:city": "Greifswald", "addr:housenumber": "1", "addr:postcode": "17489", "addr:street": "Ferdinand-Sauerbruch-Straße", "amenity": "hospital", "check_date": "2025-03-18", "emergency": "yes", "health_facility:type": "hospital", "healthcare": "hospital", "medical_system:western": "yes", "name": "Universitätsklinikum Greifswald", "operator": "Universität Greifswald", "website": "http://klinikum.uni-greifswald.de/", "wheelchair": "yes", "wikidata": "Q2496421", "wikipedia": "de:Universitätsmedizin Greifswald"}}, {"name": "DRK-Krankenhaus Grimmen", "latitude": 54.120055, "longitude": 13.1074335, "source": "osm", "_tags": {"addr:city": "Süderholz", "addr:country": "DE", "addr:housenumber": "39", "addr:postcode": "18516", "addr:street": "Dorfstraße", "addr:suburb": "Bartmannshagen", "amenity": "hospital", "brand": "Deutsches Rotes Kreuz", "brand:wikidata": "Q694104", "contact:email": "info@krankenhaus-grimmen.de", "contact:fax": "+49 38326 521 21", "contact:phone": "+49 38326 520", "contact:website": "https://www.krankenhaus-grimmen.de/", "emergency": "yes", "healthcare": "hospital", "healthcare:speciality": "internal;orthopaedics;trauma;surgery", "name": "DRK-Krankenhaus Grimmen", "operator": "DRK-Krankenhaus Grimmen GmbH", "wheelchair": "limited"}}, {"name": "HELIOS Hanseklinikum Stralsund", "latitude": 54.3284936, "longitude": 13.0814709, "source": "osm", "_tags": {"addr:city": "Stralsund", "addr:country": "DE", "addr:housenumber": "47-53", "addr:postcode": "18435", "addr:street": "Große Parower Straße", "alt_name": "Krankenhaus am Sund", "amenity": "hospital", "email": "hst-info@helios-kliniken.de", "emergency": "yes", "fax": "+49 3831 350", "healthcare": "hospital", "landuse": "commercial", "name": "HELIOS Hanseklinikum Stralsund", "operator": "Helios Kliniken", "operator:wikidata": "Q1254151", "phone": "+49 3831 350", "website": "https://www.helios-gesundheit.de/standorte-angebote/kliniken/stralsund/", "wheelchair": "yes", "wikidata": "Q124079410"}}, {"name": "Ameos Klinikum Anklam", "latitude": 53.8486416, "longitude": 13.6995745, "source": "osm", "_tags": {"amenity": "hospital", "emergency": "yes", "healthcare": "hospital", "healthcare:speciality": "abortion", "loc_name": "Klinikum Anklam", "name": "Ameos Klinikum Anklam", "operator": "Ameos", "operator:type": "private", "operator:wikidata": "Q462865", "phone": "+49 3971 834 0", "website": "https://www.ameos.eu/klinikum-anklam.html", "wheelchair": "yes"}}]