[{"name": "ФАП", "latitude": 54.7134261, "longitude": 26.63891, "source": "osm", "_tags": {"amenity": "hospital", "name": "ФАП", "name:be": "ФАП", "name:ru": "ФАП"}}, {"name": "Смаргонская Цэнтральная раённая бальніца", "latitude": 54.4902288, "longitude": 26.4074558, "source": "osm", "_tags": {"addr:housenumber": "13", "addr:street": "Бальнічны завулак", "amenity": "hospital", "healthcare": "hospital", "name": "Смаргонская Цэнтральная раённая бальніца", "name:be": "Смаргонская Цэнтральная раённая бальніца", "name:ru": "Сморгонская Центральная районная больница"}}, {"name": "Першы шпіталь органаў памежнай службы", "latitude": 55.1132845, "longitude": 26.8853467, "source": "osm", "_tags": {"addr:housenumber": "26А", "addr:postcode": "211873", "addr:street": "вуліца Касманаўтаў", "amenity": "hospital", "building": "yes", "building:levels": "3", "healthcare": "hospital", "name": "Першы шпіталь органаў памежнай службы", "name:be": "Першы шпіталь органаў памежнай службы", "name:ru": "Первый госпиталь органов пограничной службы", "phone": "+375215527809"}}, {"name": "Наркалагічнае аддзяленне", "latitude": 55.1179188, "longitude": 26.8590229, "source": "osm", "_tags": {"amenity": "hospital", "building": "hospital", "building:levels": "1", "healthcare": "hospital", "name": "Наркалагічнае аддзяленне", "name:be": "Наркалагічнае аддзяленне", "name:ru": "Наркологическое отделение"}}, {"name": "Відзаўская ўчастковая бальніца", "latitude": 55.3946243, "longitude": 26.6275548, "source": "osm", "_tags": {"addr:city": "Відзы", "addr:housenumber": "1", "addr:postcode": "211990", "addr:street": "вуліца Кірава", "amenity": "hospital", "building": "yes", "building:levels": "2", "healthcare": "hospital", "name": "Відзаўская ўчастковая бальніца", "name:be": "Відзаўская ўчастковая бальніца", "name:en": "Vidzy district hospital", "name:ru": "Видзовская участковая больница", "phone": "+375 2153 28534", "website": "https://braslcrb.by/informatsiya/novosti-zdravookhraneniya/vidzovskaya-uchastkovaya-bolnitsa"}}, {"name": "", "latitude": 54.9367053, "longitude": 26.6846243, "source": "osm", "_tags": {"amenity": "hospital", "building": "yes", "building:levels": "2", "height": "12", "roof:shape": "hipped"}}, {"name": "", "latitude": 55.1271519, "longitude": 26.1563353, "source": "osm", "_tags": {"addr:city": "Švenčionys", "addr:housenumber": "4", "addr:street": "Partizanų g.", "amenity": "hospital", "building": "yes"}}, {"name": "ФАП", "latitude": 55.1436916, "longitude": 26.6883092, "source": "osm", "_tags": {"amenity": "hospital", "building": "yes", "building:levels": "1", "emergency": "no", "name": "ФАП", "name:be": "ФАП", "name:ru": "ФАП"}}, {"name": "Цэнтральная раённая бальніца", "latitude": 54.88741, "longitude": 26.9138992, "source": "osm", "_tags": {"amenity": "hospital", "healthcare": "hospital", "name": "Цэнтральная раённая бальніца", "name:be": "Цэнтральная раённая бальніца", "name:ru": "Центральная районная больница", "phone": "+375 (1797) 5-93-53"}}, {"name": "Анкалагічны дыспансер", "latitude": 54.4905712, "longitude": 26.9078655, "source": "osm", "_tags": {"amenity": "hospital", "healthcare": "hospital", "healthcare:speciality": "oncology", "name": "Анкалагічны дыспансер", "name:be": "Анкалагічны дыспансер", "name:en": "Oncology Dispensary", "name:ru": "Онкологический диспансер", "short_name": "Онкодиспансер"}}, {"name": "Вілейская цэнтральная раённая бальніца", "latitude": 54.4860242, "longitude": 26.9094219, "source": "osm", "_tags": {"addr:housenumber": "27", "addr:street": "вуліца Маркава", "amenity": "hospital", "emergency": "yes", "healthcare": "hospital", "name": "Вілейская цэнтральная раённая бальніца", "name:be": "Вілейская цэнтральная раённая бальніца", "name:pl": "Szpital Powiatowy Centralny w Wilejce", "name:ru": "Вилейская центральная районная больница"}}, {"name": "ФАП", "latitude": 54.572186, "longitude": 25.9567045, "source": "osm", "_tags": {"addr:street": "вуліца Слабодка", "amenity": "hospital", "building": "yes", "name": "ФАП", "name:be": "ФАП", "name:ru": "ФАП"}}, {"name": "бальніца", "latitude": 54.7292566, "longitude": 26.0081727, "source": "osm", "_tags": {"addr:housenumber": "113", "addr:street": "Савецкая вуліца", "amenity": "hospital", "building": "yes", "name": "бальніца", "name:be": "бальніца", "name:ru": "больница"}}, {"name": "Рэабілітацыйны цэнтр № 2", "latitude": 54.8561416, "longitude": 26.7078791, "source": "osm", "_tags": {"amenity": "hospital", "building": "hospital", "name": "Рэабілітацыйны цэнтр № 2", "name:be": "Рэабілітацыйны цэнтр № 2", "name:ru": "Реабилитационный центр № 2"}}, {"name": "Ашмянская цэнтральная раённая бальніца", "latitude": 54.4244413, "longitude": 25.9603013, "source": "osm", "_tags": {"amenity": "hospital", "contact:email": "office@oshmcrb.by", "contact:phone": "(015 93) 77-9-71", "contact:website": "https://oshmcrb.grodno.by", "healthcare": "hospital", "name": "Ашмянская цэнтральная раённая бальніца", "name:be": "Ашмянская цэнтральная раённая бальніца", "name:ru": "Ошмянская центральная районная больница"}}, {"name": "", "latitude": 54.6915533, "longitude": 26.1331559, "source": "osm", "_tags": {"amenity": "hospital", "healthcare": "hospital"}}, {"name": "Камайская ўчастковая бальніца", "latitude": 55.0585541, "longitude": 26.6055945, "source": "osm", "_tags": {"amenity": "hospital", "healthcare": "hospital", "name": "Камайская ўчастковая бальніца", "name:be": "Камайская ўчастковая бальніца", "name:ru": "Комайская участковая больница", "name:uk": "Комайська дільнична лікарня", "website": "http://www.postcrb.by/komai/"}}, {"name": "Пастаўская цэнтральная раённая бальніца", "latitude": 55.1020873, "longitude": 26.8369424, "source": "osm", "_tags": {"amenity": "hospital", "emergency": "yes", "healthcare": "hospital", "name": "Пастаўская цэнтральная раённая бальніца", "name:be": "Пастаўская цэнтральная раённая бальніца", "name:ru": "Поставская центральная районная больница", "website": "https://postcrb.by/"}}, {"name": "Астравецкая цэнтральная раённая клінічная бальніца", "latitude": 54.6070474, "longitude": 25.9811895, "source": "osm", "_tags": {"amenity": "hospital", "contact:email": "oscrkb@oscrkb.by", "contact:mobile": "+375(44)5656674", "contact:phone": "(801591) 3-45-47;(801591) 2-88-10", "contact:website": "https://oscrkb.by", "healthcare": "hospital", "healthcare:speciality": "general;neurology;cardiology;surgery;paediatrics;gynaecology", "name": "Астравецкая цэнтральная раённая клінічная бальніца", "name:be": "Астравецкая цэнтральная раённая клінічная бальніца", "name:ru": "Островецкая центральная районная клиническая больница", "short_name": "Островецкая ЦРКБ"}}, {"name": "Інфекцыйнае аддзяленне", "latitude": 54.6073775, "longitude": 25.9833631, "source": "osm", "_tags": {"addr:housenumber": "1 к7", "addr:street": "праспект Энергетыкаў", "building": "hospital", "building:levels": "3", "healthcare": "hospital", "height": "10", "name": "Інфекцыйнае аддзяленне", "name:be": "Інфекцыйнае аддзяленне", "name:ru": "Инфекционное отделение", "roof:colour": "dimgray"}}, {"name": "", "latitude": 54.4222145, "longitude": 26.5471357, "source": "osm", "_tags": {"amenity": "hospital", "healthcare": "hospital"}}, {"name": "", "latitude": 54.6113696, "longitude": 25.9661584, "source": "osm", "_tags": {"amenity": "hospital", "healthcare": "hospital"}}, {"name": "Ignalinos rajono ligoninė", "latitude": 55.3412738, "longitude": 26.1500766, "source": "osm", "_tags": {"addr:city": "Ignalina", "addr:housenumber": "13A", "addr:postcode": "30112", "addr:street": "Ligoninės g.", "amenity": "hospital", "building": "hospital", "name": "Ignalinos rajono ligoninė", "type": "multipolygon"}}]