[{"name": "Newton Stuart Hospital", "latitude": 54.9511681, "longitude": -4.4919239, "source": "osm", "_tags": {"addr:city": "Newton Stewart", "addr:postcode": "DG8 6LZ", "amenity": "hospital", "beds": "14", "emergency": "no", "healthcare": "hospital", "name": "Newton Stuart Hospital", "operator": "NHS Dumfries and Galloway", "operator:type": "public", "operator:wikidata": "Q6954127", "wikidata": "Q85011522", "wikipedia": "en:Newton Stewart Hospital"}}, {"name": "Maybole Health Centre", "latitude": 55.3547951, "longitude": -4.681544, "source": "osm", "_tags": {"amenity": "hospital", "building": "yes", "healthcare": "hospital", "name": "Maybole Health Centre"}}, {"name": "Girvan Community Hospital", "latitude": 55.2490704, "longitude": -4.8465411, "source": "osm", "_tags": {"addr:city": "Girvan", "addr:postcode": "KA26 9HQ", "amenity": "hospital", "healthcare": "hospital", "name": "Girvan Community Hospital", "operator": "NHS Ayrshire & Arran", "operator:type": "government", "wikidata": "Q84599467"}}, {"name": "Galloway Community Hospital", "latitude": 54.898989, "longitude": -5.0214561, "source": "osm", "_tags": {"addr:city": "Stranraer", "addr:postcode": "DG9 7DQ", "addr:street": "Dalrymple Street", "amenity": "hospital", "contact:phone": "+44 1776 707707", "emergency": "yes", "healthcare": "hospital", "name": "Galloway Community Hospital", "operator": "NHS Dumfries and Galloway", "operator:type": "public", "operator:wikidata": "Q6954127", "type": "multipolygon", "wikidata": "Q5519174", "wikipedia": "en:Galloway Community Hospital"}}]