[{"name": "Savičiūnų medicinos punktas", "latitude": 54.574906, "longitude": 25.5783661, "source": "osm", "_tags": {"addr:city": "Savičiūnai", "addr:contact": "yes", "addr:housenumber": "5A", "addr:postcode": "13180", "addr:street": "Naujakurių g.", "amenity": "hospital", "emergency": "yes", "name": "Savičiūnų medicinos punktas", "name:lt": "Savičiūnų medicinos punktas", "name:pl": "Punkt medyczny Sawiczuny"}}, {"name": "VšĮ Gėlos globos namai", "latitude": 54.8554127, "longitude": 25.5200253, "source": "osm", "_tags": {"addr:city": "Tuščiauliai", "addr:contact": "yes", "addr:housenumber": "2", "addr:postcode": "LT-15166", "addr:street": "Gėlos g.", "amenity": "hospital", "contact:facebook": "https://www.facebook.com/www.gelosglobosnamai.lt/?locale=lt_LT", "description": "VšĮ Gėlos globos namai – tai šiuolaikiška, moderni socialinės globos įstaiga, teikianti ilgalaikę ir trumpalaikę socialinę globą ir slaugą senyvo amžiaus asmenims ir suaugusiems darbingo amžiaus asmenims su negalia.", "email": "info@gelosglobosnamai.lt", "emergency": "no", "healthcare": "hospital", "image": "https://www.gelosglobosnamai.lt/.cm4all/iproc.php/lapukas.jpg/downsize_1280_0/lapukas.jpg", "mobile": "Mob. 8 615 91777", "name": "VšĮ Gėlos globos namai", "operator": "www.gelosglobosnamai.lt", "phone": "Tel: 8 5 234 4001", "ruins": "yes", "website": "https://www.gelosglobosnamai.lt/Titulinis/", "wheelchair": "yes"}}, {"name": "Santariškių klinikų Kraujo centras", "latitude": 54.75322, "longitude": 25.2780168, "source": "osm", "_tags": {"addr:city": "Vilnius", "addr:contact": "yes", "addr:housenumber": "2", "addr:street": "Santariškių g.", "amenity": "hospital", "designation": "send", "email": "donorai@santa.lt", "emergency": "no", "healthcare": "hospital", "internet_access": "wlan", "name": "Santariškių klinikų Kraujo centras", "opening_hours": "Mo 08:00-21:00; Tu 08:00-17:00; We 11:00-20:00; Th 08:00-21:00; Fr 08:00-17:00", "phone": "+37067600078", "website": "https://www.tavokraujas.lt/"}}, {"name": "Aušros vartų ligoninė", "latitude": 54.7186746, "longitude": 25.2208885, "source": "osm", "_tags": {"addr:city": "Vilnius", "addr:contact": "yes", "addr:housenumber": "64", "addr:postcode": "05239", "addr:street": "Justiniškių g.", "amenity": "hospital", "email": "ausrosvartuligonine@yahoo.com", "healthcare": "hospital", "name": "Aušros vartų ligoninė", "phone": "+37065212899", "website": "https://www.avl.lt/"}}, {"name": "Gemma", "latitude": 54.7057471, "longitude": 25.3206289, "source": "osm", "_tags": {"addr:city": "Vilnius", "addr:contact": "yes", "addr:housenumber": "13", "addr:street": "Bistryčios g.", "amenity": "hospital", "healthcare": "hospital", "healthcare:speciality": "general", "name": "Gemma", "opening_hours": "Mo-Su 08:00-22:00", "website": "https://www.gemma.lt/"}}, {"name": "Priėmimo skyrius", "latitude": 54.7525667, "longitude": 25.2774495, "source": "osm", "_tags": {"addr:city": "Vilnius", "addr:contact": "yes", "addr:housenumber": "2", "addr:street": "Santariškių g.", "amenity": "hospital", "emergency": "yes", "healthcare": "hospital", "name": "Priėmimo skyrius", "operator": "Santariškių klinikos"}}, {"name": "Akušerijos ir ginekologijos priėmimo-skubios pagalbos poskyris", "latitude": 54.7102136, "longitude": 25.315562, "source": "osm", "_tags": {"addr:city": "Vilnius", "addr:contact": "yes", "addr:housenumber": "57", "addr:postcode": "10207", "addr:street": "Antakalnio g.", "emergency": "emergency_ward_entrance", "healthcare": "hospital", "name": "Akušerijos ir ginekologijos priėmimo-skubios pagalbos poskyris", "office": "hospital", "operator": "Vilniaus miesto klinikinė ligoninė"}}, {"name": "Vaikų priėmimo-skubios pagalbos skyrius", "latitude": 54.7094696, "longitude": 25.3156715, "source": "osm", "_tags": {"addr:city": "Vilnius", "addr:contact": "yes", "addr:housenumber": "57", "addr:postcode": "10207", "addr:street": "Antakalnio g.", "emergency": "emergency_ward_entrance", "healthcare": "hospital", "name": "Vaikų priėmimo-skubios pagalbos skyrius", "office": "hospital", "operator": "Vilniaus miesto klinikinė ligoninė"}}, {"name": "Respublikinė Vilniaus psichiatrijos ligoninė", "latitude": 54.6836986, "longitude": 25.4177667, "source": "osm", "_tags": {"addr:city": "Vilnius", "addr:housenumber": "21", "addr:postcode": "11205", "addr:street": "Parko g.", "amenity": "hospital", "building": "yes", "name": "Respublikinė Vilniaus psichiatrijos ligoninė", "website": "https://www.rvpl.lt/", "wheelchair": "yes", "wikidata": "Q2115906", "wikipedia": "lt:Respublikinė Vilniaus psichiatrijos ligoninė"}}, {"name": "Kardiolita", "latitude": 54.7170254, "longitude": 25.2302473, "source": "osm", "_tags": {"addr:city": "Vilnius", "addr:housenumber": "64A", "addr:street": "Laisvės pr.", "amenity": "hospital", "building": "hospital", "building:levels": "6", "healthcare": "hospital", "internet_access": "wlan", "name": "Kardiolita", "roof:shape": "flat", "website": "https://www.kardiolitosklinikos.lt/vilniuje/21", "wheelchair": "yes", "wikidata": "Q20503732", "wikipedia": "lt:Kardiolita"}}, {"name": "Valakupių reabilitacijos centras", "latitude": 54.7363795, "longitude": 25.2932188, "source": "osm", "_tags": {"addr:city": "Vilnius", "addr:housenumber": "69", "addr:postcode": "10100", "addr:street": "Vaidilutės g.", "amenity": "hospital", "building": "yes", "name": "Valakupių reabilitacijos centras"}}, {"name": "Vilniaus universitetinė slaugos ir ilgalaikio gydymo ligoninė", "latitude": 54.6683003, "longitude": 25.2914298, "source": "osm", "_tags": {"addr:city": "Vilnius", "addr:housenumber": "18", "addr:postcode": "02106", "addr:street": "Tyzenhauzų g.", "amenity": "hospital", "building": "yes", "check_date": "2025-08-12", "healthcare": "hospital", "name": "Vilniaus universitetinė slaugos ir ilgalaikio gydymo ligoninė"}}, {"name": "Vilniaus gimdymo namai", "latitude": 54.6680824, "longitude": 25.2931395, "source": "osm", "_tags": {"addr:city": "Vilnius", "addr:housenumber": "18A", "addr:postcode": "02106", "addr:street": "Tyzenhauzų g.", "amenity": "hospital", "building": "yes", "check_date": "2025-08-12", "healthcare": "hospital", "name": "Vilniaus gimdymo namai"}}, {"name": "Vilniaus rajono centrinė poliklinika", "latitude": 54.7223134, "longitude": 25.2375529, "source": "osm", "_tags": {"addr:city": "Vilnius", "addr:housenumber": "79", "addr:postcode": "06122", "addr:street": "Laisvės pr.", "amenity": "hospital", "building": "yes", "healthcare": "hospital", "name": "Vilniaus rajono centrinė poliklinika"}}, {"name": "Žalgirio klinika", "latitude": 54.7048946, "longitude": 25.2789364, "source": "osm", "_tags": {"addr:city": "Vilnius", "addr:country": "LT", "addr:housenumber": "117", "addr:postcode": "08217", "addr:street": "Žalgirio g.", "amenity": "hospital", "building": "yes", "healthcare": "hospital", "name": "Žalgirio klinika"}}, {"name": "Pašilaičių šeimos medicinos centras", "latitude": 54.7254165, "longitude": 25.2256706, "source": "osm", "_tags": {"addr:city": "Vilnius", "addr:housenumber": "2", "addr:street": "Žemynos g.", "amenity": "hospital", "building": "yes", "building:levels": "1", "healthcare": "hospital", "name": "Pašilaičių šeimos medicinos centras"}}, {"name": "Vilniaus universiteto ligoninės Santariškių klinikos, Fizinės medicinos ir reabilitacijos centras", "latitude": 54.7577582, "longitude": 25.2699565, "source": "osm", "_tags": {"addr:city": "Vilnius", "addr:housenumber": "2", "addr:street": "Jono Kairiūkščio g.", "amenity": "hospital", "building": "yes", "name": "Vilniaus universiteto ligoninės Santariškių klinikos, Fizinės medicinos ir reabilitacijos centras"}}, {"name": "", "latitude": 54.6747177, "longitude": 25.2852709, "source": "osm", "_tags": {"addr:city": "Vilnius", "addr:housenumber": "9", "addr:postcode": "01306", "addr:street": "Visų Šventųjų g.", "amenity": "hospital", "building": "yes", "healthcare": "hospital"}}, {"name": "Respublikinė tuberkuliozės ir infekcinių ligų universitetinė ligoninė, Santariškių stacionaras", "latitude": 54.7566788, "longitude": 25.2792374, "source": "osm", "_tags": {"addr:city": "Vilnius", "addr:contact": "yes", "addr:housenumber": "14", "addr:street": "Santariškių g.", "amenity": "hospital", "healthcare": "hospital", "name": "Respublikinė tuberkuliozės ir infekcinių ligų universitetinė ligoninė, Santariškių stacionaras"}}, {"name": "", "latitude": 54.7567497, "longitude": 25.2793802, "source": "osm", "_tags": {"addr:city": "Vilnius", "addr:housenumber": "14", "addr:postcode": "08406", "addr:street": "Santariškių g.", "building": "hospital", "healthcare": "hospital"}}, {"name": "Grigiškių palaikomojo gydymo ir slaugos ligoninė", "latitude": 54.6718441, "longitude": 25.0897996, "source": "osm", "_tags": {"addr:city": "Grigiškės", "addr:housenumber": "10", "addr:postcode": "27105", "addr:street": "Mokyklos g.", "amenity": "hospital", "building": "yes", "emergency": "yes", "healthcare": "hospital", "name": "Grigiškių palaikomojo gydymo ir slaugos ligoninė"}}, {"name": "VšĮ Širvintų rajono savivaldybės sveikatos centras", "latitude": 55.0383766, "longitude": 24.9629806, "source": "osm", "_tags": {"addr:city": "Širvintos", "addr:country": "LT", "addr:housenumber": "85", "addr:postcode": "19121", "addr:street": "Vilniaus g.", "amenity": "hospital", "building": "yes", "building:levels": "3", "name": "VšĮ Širvintų rajono savivaldybės sveikatos centras", "source": "NŽT ORT10LT"}}, {"name": "Molėtų ligoninė", "latitude": 55.2261903, "longitude": 25.4114224, "source": "osm", "_tags": {"addr:city": "Molėtai", "addr:country": "LT", "addr:housenumber": "3", "addr:postcode": "33125", "addr:street": "Graužinių g.", "amenity": "hospital", "building": "yes", "name": "Molėtų ligoninė"}}, {"name": "Baltijos Amerikos klinika", "latitude": 54.7355196, "longitude": 25.3386208, "source": "osm", "_tags": {"addr:city": "Vilnius", "addr:housenumber": "54A", "addr:postcode": "10103", "addr:street": "Nemenčinės pl.", "amenity": "hospital", "building": "yes", "email": "info@bak.lt", "healthcare": "hospital", "image": "http://bak.lt/wp-content/uploads/2014/01/BAK-201209-111.jpg", "name": "Baltijos Amerikos klinika", "phone": "+37052342020", "website": "https://www.bak.lt/"}}, {"name": "Tarandes gyvunu namai", "latitude": 54.7490053, "longitude": 25.1955904, "source": "osm", "_tags": {"addr:city": "Vilnius", "addr:housenumber": "9", "addr:postcode": "14187", "addr:street": "Pikutiškių g.", "amenity": "veterinary", "building": "yes", "building:levels": "2", "healthcare": "hospital", "healthcare:speciality": "vet", "name": "Tarandes gyvunu namai"}}, {"name": "Skaidiškių ambulatorija", "latitude": 54.6068349, "longitude": 25.3848882, "source": "osm", "_tags": {"addr:city": "Skaidiškės", "addr:housenumber": "12A", "addr:street": "Rudaminos g.", "amenity": "hospital", "building": "yes", "name": "Skaidiškių ambulatorija", "website": "https://www.vrcp.lt/"}}, {"name": "Šumsko palaikomojo gydymo ir slaugos ligoninė", "latitude": 54.604708, "longitude": 25.7282191, "source": "osm", "_tags": {"addr:city": "Šumskas", "addr:contact": "yes", "addr:housenumber": "40", "addr:street": "Vilniaus g.", "amenity": "hospital", "name": "Šumsko palaikomojo gydymo ir slaugos ligoninė"}}, {"name": "M. Marcinkevičiaus ligoninė, Subačiaus padalinys", "latitude": 54.677006, "longitude": 25.2961625, "source": "osm", "_tags": {"addr:city": "Vilnius", "addr:contact": "yes", "addr:housenumber": "28", "addr:street": "Subačiaus g.", "amenity": "hospital", "building": "yes", "healthcare": "hospital", "name": "M. Marcinkevičiaus ligoninė, Subačiaus padalinys", "name:ru": "Больница М. Марцинкявичюса, филиал Субачюс"}}, {"name": "Vilniaus Universiteto psichiatrijos klinika", "latitude": 54.6906503, "longitude": 25.307081, "source": "osm", "_tags": {"addr:city": "Vilnius", "addr:housenumber": "5", "addr:street": "Vasaros g.", "amenity": "hospital", "building": "yes", "healthcare": "hospital", "healthcare:speciality": "psychiatry", "name": "Vilniaus Universiteto psichiatrijos klinika", "website": "https://www.mf.vu.lt/apie-mf/struktura/klinikines-medicinos-institutas/psichiatrijos-klinika"}}, {"name": "Slaugos ir palaikomojo gydymo ligoninė", "latitude": 54.8523768, "longitude": 25.4719423, "source": "osm", "_tags": {"addr:city": "Nemenčinė", "addr:housenumber": "80B", "addr:postcode": "15168", "addr:street": "Švenčionių g.", "amenity": "hospital", "building": "yes", "name": "Slaugos ir palaikomojo gydymo ligoninė"}}, {"name": "Respublikinė Vilniaus universitetinė ligoninė", "latitude": 54.6682662, "longitude": 25.2075975, "source": "osm", "_tags": {"addr:city": "Vilnius", "addr:contact": "yes", "addr:housenumber": "29", "addr:street": "Šiltnamių g.", "amenity": "hospital", "emergency": "yes", "healthcare": "hospital", "landuse": "residential", "name": "Respublikinė Vilniaus universitetinė ligoninė", "name:be": "Рэспубліканскі Віленскі ўнівэрсытэцкі шпіталь", "name:en": "Republican Vilnius University Hospital", "name:lt": "Respublikinė Vilniaus universitetinė ligoninė", "phone": "+370852169069", "short_name": "RVUL", "website": "http://www.rvul.lt", "wikidata": "Q15126052", "wikipedia": "lt:Respublikinė Vilniaus universitetinė ligoninė"}}, {"name": "Mykolo Marcinkevičiaus ligoninė", "latitude": 54.6733059, "longitude": 25.2761146, "source": "osm", "_tags": {"addr:city": "Vilnius", "addr:contact": "yes", "addr:housenumber": "7", "addr:postcode": "03215", "addr:street": "Kauno g.", "amenity": "hospital", "healthcare": "hospital", "healthcare:speciality": "general", "name": "Mykolo Marcinkevičiaus ligoninė", "operator": "Mykolo Marcinkevičiaus ligoninė", "operator:type": "public"}}, {"name": "VšĮ Vilkpėdės ligoninė", "latitude": 54.6654575, "longitude": 25.2433505, "source": "osm", "_tags": {"addr:city": "Vilnius", "addr:contact": "yes", "addr:housenumber": "3", "addr:postcode": "03151", "addr:street": "Vilkpėdės g.", "amenity": "hospital", "healthcare": "hospital", "name": "VšĮ Vilkpėdės ligoninė"}}, {"name": "Šv. Roko ligoninė", "latitude": 54.7088484, "longitude": 25.3148897, "source": "osm", "_tags": {"addr:city": "Vilnius", "addr:contact": "yes", "addr:housenumber": "2", "addr:postcode": "10207", "addr:street": "Klinikų g.", "amenity": "hospital", "healthcare": "hospital", "name": "Šv. Roko ligoninė", "website": "http://www.ligonine.eu/", "wikidata": "Q20503756", "wikipedia": "lt:Šv. Roko ligoninė"}}, {"name": "RVL šeimos sveikatingumo centras", "latitude": 54.7308304, "longitude": 25.1857406, "source": "osm", "_tags": {"addr:city": "Antežeriai", "addr:housenumber": "74", "addr:street": "Sūduvių g.", "amenity": "hospital", "healthcare": "hospital", "name": "RVL šeimos sveikatingumo centras", "website": "https://rvl.lt/"}}, {"name": "VUVL filialas Vaiko raidos centras", "latitude": 54.6881919, "longitude": 25.2565337, "source": "osm", "_tags": {"addr:city": "Vilnius", "addr:housenumber": "15", "addr:postcode": "08118", "addr:street": "Vytauto g.", "amenity": "hospital", "building": "yes", "healthcare": "hospital", "name": "VUVL filialas Vaiko raidos centras"}}, {"name": "Vaikų ligoninė", "latitude": 54.7553226, "longitude": 25.2784655, "source": "osm", "_tags": {"addr:city": "Vilnius", "addr:housenumber": "4", "addr:street": "Santariškių g.", "amenity": "hospital", "building": "yes", "emergency": "yes", "healthcare": "hospital", "name": "Vaikų ligoninė", "type": "multipolygon"}}, {"name": "Santariškių klinikos", "latitude": 54.7527189, "longitude": 25.2775391, "source": "osm", "_tags": {"addr:city": "Vilnius", "addr:housenumber": "2", "addr:postcode": "08406", "addr:street": "Santariškių g.", "amenity": "hospital", "building": "hospital", "healthcare": "hospital", "name": "Santariškių klinikos", "type": "multipolygon", "wikidata": "Q1774578"}}, {"name": "Vilniaus Universiteto onkologijos institutas", "latitude": 54.7517866, "longitude": 25.2821494, "source": "osm", "_tags": {"addr:city": "Vilnius", "addr:country": "LT", "addr:housenumber": "1", "addr:street": "Santariškių g.", "amenity": "hospital", "building": "yes", "healthcare": "hospital", "name": "Vilniaus Universiteto onkologijos institutas", "type": "multipolygon", "wikidata": "Q15115554"}}, {"name": "Vilniaus miesto klinikinės ligoninės Antakalnio filialas", "latitude": 54.719959, "longitude": 25.3159007, "source": "osm", "_tags": {"addr:city": "Vilnius", "addr:contact": "yes", "addr:housenumber": "124", "addr:postcode": "10200", "addr:street": "Antakalnio g.", "amenity": "hospital", "healthcare": "hospital", "name": "Vilniaus miesto klinikinės ligoninės Antakalnio filialas", "operator": "VšĮ Vilniaus miesto klinikinės ligoninės Antakalnio filialas", "phone": "+370 5 234 2371", "type": "multipolygon", "website": "https://www.vmkl.lt/poliklinika.html"}}, {"name": "Vilniaus miesto klinikinė ligoninė", "latitude": 54.7093205, "longitude": 25.3171533, "source": "osm", "_tags": {"addr:city": "Vilnius", "addr:housenumber": "57", "addr:postcode": "10207", "addr:street": "Antakalnio g.", "amenity": "hospital", "building": "hospital", "emergency": "yes", "healthcare": "hospital", "name": "Vilniaus miesto klinikinė ligoninė", "type": "multipolygon", "website": "https://www.vmkl.lt/", "wikidata": "Q14956897", "wikipedia": "lt:Vilniaus miesto klinikinė ligoninė"}}, {"name": "Vaiko raidos centras ir pediatrijos I korpusas", "latitude": 54.7559676, "longitude": 25.2825885, "source": "osm", "_tags": {"amenity": "hospital", "building": "yes", "healthcare": "hospital", "name": "Vaiko raidos centras ir pediatrijos I korpusas", "type": "multipolygon"}}, {"name": "Vaikų pediatrijos II korpusas", "latitude": 54.7560879, "longitude": 25.2838884, "source": "osm", "_tags": {"amenity": "hospital", "building": "yes", "healthcare": "hospital", "name": "Vaikų pediatrijos II korpusas", "type": "multipolygon"}}, {"name": "Santariškių klinikų vaikų ligoninė", "latitude": 54.7550734, "longitude": 25.2828618, "source": "osm", "_tags": {"addr:city": "Vilnius", "addr:country": "LT", "addr:housenumber": "7", "addr:postcode": "08406", "addr:street": "Santariškių g.", "amenity": "hospital", "building": "yes", "emergency": "yes", "healthcare": "hospital", "name": "Santariškių klinikų vaikų ligoninė", "type": "multipolygon"}}, {"name": "VšĮ Vilniaus miesto psichikos sveikatos centras", "latitude": 54.6908442, "longitude": 25.3077555, "source": "osm", "_tags": {"addr:city": "Vilnius", "addr:contact": "yes", "addr:housenumber": "5", "addr:street": "Vasaros g.", "amenity": "hospital", "healthcare": "hospital", "healthcare:speciality": "psychiatry", "name": "VšĮ Vilniaus miesto psichikos sveikatos centras", "type": "multipolygon", "website": "https://www.vasaros.lt"}}]