[{"name": "", "latitude": 54.45667, "longitude": 18.02178, "source": "osm", "_tags": {"addr:city": "Strzepcz", "addr:housenumber": "1", "addr:postcode": "84-223", "addr:street": "Księdza Józefa Rotty", "amenity": "doctors", "healthcare": "hospital", "source:addr": "linia.e-mapa.net"}}, {"name": "Zakład Balneologii / Rehabilitacji", "latitude": 54.4452435, "longitude": 18.5701006, "source": "osm", "_tags": {"addr:city": "Sopot", "addr:housenumber": "3", "addr:street": "Plac Zdrojowy", "amenity": "clinic", "check_date": "2025-09-19", "healthcare": "hospital", "healthcare:speciality": "physiotherapy;chiropractic;rehabilitation_medicine", "name": "Zakład Balneologii / Rehabilitacji"}}, {"name": "Pomorskie Centrum Reumatologiczne", "latitude": 54.4470241, "longitude": 18.5403461, "source": "osm", "_tags": {"amenity": "hospital", "name": "Pomorskie Centrum Reumatologiczne"}}, {"name": "115 Szpital Wojskowy", "latitude": 54.6120481, "longitude": 18.7992161, "source": "osm", "_tags": {"addr:city": "Hel", "addr:city:simc": "0934501", "addr:housenumber": "10", "addr:postcode": "84-150", "addr:street": "Boczna", "alt_name": "115 Szpital Wojskowy z Przychodnią", "amenity": "hospital", "building": "hospital", "email": "info@szpitalhel.pl", "healthcare": "hospital", "name": "115 Szpital Wojskowy", "phone": "+48 58 690 42 60", "website": "https://www.szpitalhel.pl/"}}, {"name": "Szpital Morski im. PCK", "latitude": 54.4883262, "longitude": 18.5529403, "source": "osm", "_tags": {"addr:city": "Gdynia", "addr:country": "PL", "addr:housenumber": "1", "addr:street": "Powstania Styczniowego", "amenity": "hospital", "healthcare": "hospital", "name": "Szpital Morski im. PCK", "operator": "Szpitale Wojewódzkie w Gdyni", "website": "http://szpitalegdynia.eu/"}}, {"name": "Uniwersyteckie Centrum Medycyny Morskiej i Tropikalnej", "latitude": 54.4879179, "longitude": 18.5490898, "source": "osm", "_tags": {"amenity": "hospital", "emergency": "no", "healthcare": "hospital", "healthcare:speciality": "tropical", "name": "Uniwersyteckie Centrum Medycyny Morskiej i Tropikalnej"}}, {"name": "Szpital Specjalistyczny im. Floriana Ceynowy w Wejherowie", "latitude": 54.6144128, "longitude": 18.2465509, "source": "osm", "_tags": {"addr:city": "Wejherowo", "addr:housenumber": "10", "addr:postcode": "84-200", "addr:street": "Doktora Alojzego Jagalskiego", "amenity": "hospital", "healthcare": "hospital", "name": "Szpital Specjalistyczny im. Floriana Ceynowy w Wejherowie", "operator": "Szpitale Pomorskie Sp. z o.o."}}, {"name": "Szpital Miejski", "latitude": 54.5219263, "longitude": 18.5414632, "source": "osm", "_tags": {"amenity": "hospital", "healthcare": "hospital", "name": "Szpital Miejski"}}, {"name": "Szpital Pucki", "latitude": 54.721221, "longitude": 18.4140297, "source": "osm", "_tags": {"amenity": "hospital", "building": "hospital", "building:levels": "4", "emergency": "no", "healthcare": "hospital", "name": "Szpital Pucki", "official_name": "Samodzielny Publiczny Zakład Opieki Zdrowotnej Szpital im. Franciszka Żaczka", "phone": "+48 58 690 43 00", "source:building": "BDOT", "website": "https://www.szpitalpucki.pl"}}, {"name": "Ośrodek Terapii Uzależnień w Smażynie", "latitude": 54.483245, "longitude": 18.1114818, "source": "osm", "_tags": {"addr:city": "Szemud", "addr:housenumber": "9", "addr:place": "Smażyno", "addr:postcode": "84-217", "amenity": "hospital", "description": "Ośrodek Terapii Uzależnień w Smażynie powstał w roku 1981 i jest jedynym z najdłużej działających Ośrodków w Polsce zajmujących się terapią uzależnień. Ośrodek mieści się w dawnym dworze, otoczonym pięknym, rozległym terenem.", "email": "sekretariat.smazyno@wotu.pl", "healthcare": "hospital", "healthcare:speciality": "general", "name": "Ośrodek Terapii Uzależnień w Smażynie", "operator": "Wojewódzki Ośrodek Terapii Uzależnień w Gdańsku", "operator:type": "public", "phone": "58 676 82 01", "start_date": "1981", "website": "https://wotu.pl/poradnie-i-oddzialy/osrodek-terapii-uzaleznien-w-smazynie-calodobowy"}}, {"name": "SP ZOZ Sanatorium Uzdrowiskowe MSWiA w Sopocie", "latitude": 54.4320509, "longitude": 18.5848348, "source": "osm", "_tags": {"amenity": "hospital", "barrier": "fence", "healthcare": "hospital", "name": "SP ZOZ Sanatorium Uzdrowiskowe MSWiA w Sopocie"}}, {"name": "", "latitude": 54.6116235, "longitude": 18.7990895, "source": "osm", "_tags": {"amenity": "hospital", "healthcare": "hospital"}}, {"name": "", "latitude": 54.7212654, "longitude": 18.4140308, "source": "osm", "_tags": {"amenity": "hospital", "healthcare": "hospital"}}]