[{"name": "Nakskov Sundhedscenter", "latitude": 54.8334082, "longitude": 11.1458464, "source": "osm", "_tags": {"amenity": "hospital", "name": "Nakskov Sundhedscenter", "website": "https://www.regionsjaelland.dk/Sundhed/Andre-sundhedstilbud/sundhedscentre/Sider/nakskov-sundheds-og-akuthus.aspx", "wheelchair": "yes"}}, {"name": "Psykiatrien Distrikt Maribo Psykiatisk Akutmodtagelse", "latitude": 54.9993654, "longitude": 11.9111614, "source": "osm", "_tags": {"amenity": "hospital", "fvst:navnelbnr": "85443", "healthcare": "hospital", "name": "Psykiatrien Distrikt Maribo Psykiatisk Akutmodtagelse", "ref:DK:cvr": "29190658", "ref:DK:cvr:pnummer": "1013848145"}}, {"name": "Psykiatrien i Vordingborg, afsnit G1 Bygning 41", "latitude": 55.0007425, "longitude": 11.9084309, "source": "osm", "_tags": {"amenity": "hospital", "name": "Psykiatrien i Vordingborg, afsnit G1 Bygning 41"}}, {"name": "Gerontopsykiatrisk afd. G 2", "latitude": 55.0000481, "longitude": 11.9113612, "source": "osm", "_tags": {"amenity": "hospital", "fvst:navnelbnr": "86528", "name": "Gerontopsykiatrisk afd. G 2", "ref:DK:cvr": "29190658", "ref:DK:cvr:pnummer": "1013848145"}}, {"name": "Psykiatrien syd S 2", "latitude": 54.9996181, "longitude": 11.9128248, "source": "osm", "_tags": {"amenity": "hospital", "fvst:navnelbnr": "87501", "name": "Psykiatrien syd S 2", "ref:DK:cvr": "29190658", "ref:DK:cvr:pnummer": "1013848145"}}, {"name": "Psykiatrien Syd S 1", "latitude": 54.9991759, "longitude": 11.9117723, "source": "osm", "_tags": {"amenity": "hospital", "fvst:navnelbnr": "76567", "name": "Psykiatrien Syd S 1", "ref:DK:cvr": "29190658", "ref:DK:cvr:pnummer": "1013848145"}}, {"name": "Psykiatrien Syd S 3", "latitude": 55.0000943, "longitude": 11.9121283, "source": "osm", "_tags": {"amenity": "hospital", "name": "Psykiatrien Syd S 3"}}, {"name": "Psykiatrien Syd S 4", "latitude": 55.0001993, "longitude": 11.9091143, "source": "osm", "_tags": {"amenity": "hospital", "name": "Psykiatrien Syd S 4"}}, {"name": "Psykiatrien Syd S 5", "latitude": 54.9994398, "longitude": 11.9118631, "source": "osm", "_tags": {"amenity": "hospital", "check_date": "2025-08-21", "name": "Psykiatrien Syd S 5"}}, {"name": "Psykiatrien Syd S 6", "latitude": 55.0000519, "longitude": 11.9111188, "source": "osm", "_tags": {"amenity": "hospital", "name": "Psykiatrien Syd S 6"}}, {"name": "Vordingborg Sundhedscenter", "latitude": 55.017452, "longitude": 11.9075342, "source": "osm", "_tags": {"amenity": "hospital", "healthcare": "hospital", "name": "Vordingborg Sundhedscenter", "website": "https://www.vordingborg.dk/borger/sundhed/sundhedscentre/vordingborg-sundhedscenter/"}}, {"name": "Næstved Sygehus", "latitude": 55.2371423, "longitude": 11.7590571, "source": "osm", "_tags": {"amenity": "hospital", "emergency": "yes", "healthcare": "hospital", "name": "Næstved Sygehus", "website": "https://www.regionsjaelland.dk/sundhed/geo/naestvedsygehus", "wikidata": "Q24293719", "wikipedia": "da:Næstved Sygehus"}}, {"name": "Højhuset", "latitude": 55.2363277, "longitude": 11.7588922, "source": "osm", "_tags": {"building": "yes", "building:colour": "#FFFFFF", "building:material": "metal", "emergency_room": "yes", "healthcare": "hospital", "height": "54", "name": "Højhuset", "ref": "16", "roof:colour": "#000000", "roof:material": "metal", "roof:shape": "flat"}}, {"name": "", "latitude": 55.0004203, "longitude": 11.9097625, "source": "osm", "_tags": {"amenity": "hospital", "healthcare": "hospital", "wikidata": "Q10611505", "wikipedia": "da:Oringe (psykiatrisk hospital)"}}, {"name": "Støttecenter Saxenhøj", "latitude": 54.8033338, "longitude": 11.6263904, "source": "osm", "_tags": {"amenity": "hospital", "name": "Støttecenter Saxenhøj"}}, {"name": "Støttecenter Saxenhøj", "latitude": 54.7998145, "longitude": 11.6215939, "source": "osm", "_tags": {"amenity": "hospital", "name": "Støttecenter Saxenhøj"}}, {"name": "AMEOS Klinikum Fehmarn", "latitude": 54.4414643, "longitude": 11.1758027, "source": "osm", "_tags": {"addr:city": "Fehmarn", "addr:country": "DE", "addr:housenumber": "12", "addr:postcode": "23769", "addr:street": "Mummendorfer Weg", "addr:suburb": "Burg auf Fehmarn", "amenity": "hospital", "contact:fax": "+49 4371 504101", "contact:phone": "+49 4371 5040", "contact:website": "https://www.ameos.de/klinikum-fehmarn", "healthcare": "hospital", "loc_name": "Inselklinik Fehmarn", "name": "AMEOS Klinikum Fehmarn", "operator": "AMEOS Krankenhausgesellschaft Ostholstein mbH", "owner": "AMEOS Holding AG", "owner:short": "AMEOS", "owner:wikidata": "Q462865"}}, {"name": "Sano Skælskør", "latitude": 55.260363, "longitude": 11.2824668, "source": "osm", "_tags": {"amenity": "hospital", "name": "Sano Skælskør", "website": "https://sanocenter.dk/"}}, {"name": "Slagelse Sygehus", "latitude": 55.4013535, "longitude": 11.3685965, "source": "osm", "_tags": {"amenity": "hospital", "emergency": "yes", "healthcare": "hospital", "name": "Slagelse Sygehus", "operator": "Region Sjælland"}}, {"name": "Slagelse Skadestue", "latitude": 55.4011307, "longitude": 11.3718151, "source": "osm", "_tags": {"amenity": "hospital", "building": "yes", "emergency_room": "yes", "healthcare": "hospital", "name": "Slagelse Skadestue", "type": "multipolygon"}}, {"name": "Sjællands Universitetshospital, Nykøbing F.", "latitude": 54.7783559, "longitude": 11.8598557, "source": "osm", "_tags": {"amenity": "hospital", "building": "hospital", "emergency": "yes", "healthcare": "hospital", "name": "Sjællands Universitetshospital, Nykøbing F.", "old_name": "Nykøbing Falster Sygehus", "type": "multipolygon", "website": "https://www.nfsygehus.dk/", "wheelchair": "yes", "wikidata": "Q16324236"}}]