[{"name": "Lochmaben Medical Group", "latitude": 55.1275709, "longitude": -3.4397335, "source": "osm", "_tags": {"addr:city": "Lochmaben", "addr:housenumber": "42-44", "addr:postcode": "DG11 1NH", "addr:street": "High Street", "amenity": "hospital", "email": "dg.gpclin.y18377@nhs.scot", "emergency": "no", "healthcare": "hospital", "healthcare:speciality": "general", "name": "Lochmaben Medical Group", "phone": "+441387 810252", "website": "https://lochmabenmedical.co.uk/", "wheelchair": "yes"}}, {"name": "Mary Hewetson Cottage Hospital", "latitude": 54.6065915, "longitude": -3.1398379, "source": "osm", "_tags": {"addr:city": "Keswick", "addr:postcode": "CA12 5PH", "addr:street": "Crosthwaite Road", "amenity": "hospital", "fhrs:id": "1549728", "healthcare": "hospital", "name": "Mary Hewetson Cottage Hospital", "phone": "+44 1768 245678", "website": "https://www.cumbriapartnership.nhs.uk/where-we-work/keswick-community-hospital"}}, {"name": "Mountainhall Treatment Centre", "latitude": 55.0570221, "longitude": -3.5989338, "source": "osm", "_tags": {"amenity": "hospital", "emergency": "no", "healthcare": "hospital", "name": "Mountainhall Treatment Centre", "note": "This is used mainly for offices and certain things like NHS eye tests and general outpatient things. No emergency or in-hospital care takes place; that is at the new DGRI to the west of Dumfries.", "old_name": "Dumfries and Galloway Royal Infirmary"}}, {"name": "Lochmaben Hospital", "latitude": 55.127976, "longitude": -3.4538507, "source": "osm", "_tags": {"amenity": "hospital", "emergency": "no", "healthcare": "hospital", "name": "Lochmaben Hospital", "operator": "NHS Dumfries and Galloway", "operator:type": "public", "operator:wikidata": "Q6954127", "source": "Estimate", "wikidata": "Q85011514", "wikipedia": "en:Lochmaben Hospital"}}, {"name": "Castle Douglas Hospital", "latitude": 54.9391809, "longitude": -3.9249525, "source": "osm", "_tags": {"addr:city": "Castle Douglas", "amenity": "hospital", "emergency": "no", "healthcare": "hospital", "name": "Castle Douglas Hospital", "operator": "NHS Dumfries and Galloway", "operator:type": "public", "operator:wikidata": "Q6954127", "wikidata": "Q85011478", "wikipedia": "en:Castle Douglas Hospital"}}, {"name": "Workington Community Hospital", "latitude": 54.6427879, "longitude": -3.5513524, "source": "osm", "_tags": {"amenity": "hospital", "emergency": "no", "healthcare": "hospital", "name": "Workington Community Hospital", "note": "Minor injuries centre not 24h", "source": "Bing", "wheelchair": "yes"}}, {"name": "Thornhill Hospital", "latitude": 55.2359157, "longitude": -3.7668589, "source": "osm", "_tags": {"addr:postcode": "DG3 5AA", "amenity": "hospital", "emergency": "no", "healthcare": "hospital", "name": "Thornhill Hospital", "operator": "NHS Dumfries and Galloway", "operator:type": "public", "operator:wikidata": "Q6954127", "wikidata": "Q85011541", "wikipedia": "en:Thornhill Hospital"}}, {"name": "Cockermouth Community Hospital", "latitude": 54.6662752, "longitude": -3.358421, "source": "osm", "_tags": {"addr:city": "Cockermouth", "addr:postcode": "CA13 9HT", "addr:street": "Isel Road", "amenity": "hospital", "emergency": "no", "healthcare": "hospital", "name": "Cockermouth Community Hospital", "phone": "+44 1228 602000", "ref:GB:cqc_location": "RNNCB", "ref:GB:nhs_ods": "RNNCB", "website": "https://www.nhs.uk/Services/hospitals/Overview/DefaultView.aspx?id=29616"}}, {"name": "Wigton Hospital", "latitude": 54.8306289, "longitude": -3.1714171, "source": "osm", "_tags": {"addr:city": "Wigton", "addr:postcode": "CA7 9DD", "addr:street": "Cross Lane", "amenity": "hospital", "building": "yes", "name": "Wigton Hospital", "phone": "+44 16973 66600"}}, {"name": "Midpark Hospital", "latitude": 55.051495, "longitude": -3.589031, "source": "osm", "_tags": {"amenity": "hospital", "emergency": "no", "healthcare": "hospital", "name": "Midpark Hospital", "operator": "NHS Dumfries and Galloway", "operator:type": "public", "operator:wikidata": "Q6954127", "wikidata": "Q19586076", "wikipedia": "en:Midpark Hospital"}}, {"name": "Annan Hospital", "latitude": 54.9885217, "longitude": -3.2469035, "source": "osm", "_tags": {"addr:city": "Annan", "addr:postcode": "DG12 6NQ", "amenity": "hospital", "emergency": "no", "healthcare": "hospital", "name": "Annan Hospital", "operator": "NHS Dumfries and Galloway", "operator:type": "public", "operator:wikidata": "Q6954127", "wikidata": "Q85011468", "wikipedia": "en:Annan Hospital"}}, {"name": "Dumfries and Galloway Royal Infirmary", "latitude": 55.0580725, "longitude": -3.6587197, "source": "osm", "_tags": {"addr:city": "Dumfries", "addr:postcode": "DG2 8RX", "addr:street": "Cargenbridge", "amenity": "hospital", "emergency": "yes", "healthcare": "hospital", "name": "Dumfries and Galloway Royal Infirmary", "operator": "NHS Dumfries and Galloway", "operator:type": "public", "operator:wikidata": "Q6954127", "wikidata": "Q5313810", "wikipedia": "en:Dumfries and Galloway Royal Infirmary"}}, {"name": "Moffat Hospital", "latitude": 55.3315729, "longitude": -3.4302088, "source": "osm", "_tags": {"amenity": "hospital", "emergency": "no", "healthcare": "hospital", "name": "Moffat Hospital", "operator": "NHS Dumfries and Galloway", "operator:type": "public", "operator:wikidata": "Q6954127", "source": "Bing", "wikidata": "Q42887887", "wikipedia": "en:Moffat Hospital"}}, {"name": "NHS D&G Board Headquarters", "latitude": 55.0575053, "longitude": -3.5993759, "source": "osm", "_tags": {"amenity": "hospital", "healthcare": "hospital", "healthcare:speciality": "psychiatry;ophthalmology;orthodontics;community;vaccination;dialysis", "name": "NHS D&G Board Headquarters", "operator": "NHS", "operator:type": "public", "operator:wikidata": "Q918396"}}, {"name": "NHS D&G Board Headquarters", "latitude": 55.0575053, "longitude": -3.5993759, "source": "osm", "_tags": {"amenity": "hospital", "healthcare": "hospital", "healthcare:speciality": "psychiatry;ophthalmology;orthodontics;community;vaccination;dialysis", "name": "NHS D&G Board Headquarters", "operator": "NHS", "operator:type": "public", "operator:wikidata": "Q918396"}}, {"name": "West Cumberland Hospital", "latitude": 54.5294903, "longitude": -3.5624294, "source": "osm", "_tags": {"amenity": "hospital", "building": "yes", "healthcare": "hospital", "name": "West Cumberland Hospital", "type": "multipolygon", "wikidata": "Q7984918", "wikipedia": "en:West Cumberland Hospital"}}]