[{"name": "Hospice Sydfyn", "latitude": 55.0549089, "longitude": 10.5721841, "source": "osm", "_tags": {"amenity": "hospital", "fvst:navnelbnr": "508456", "name": "Hospice Sydfyn", "ref:DK:cvr": "32687784", "ref:DK:cvr:pnummer": "1015832882"}}, {"name": "OUH Palliativt sengeafsnit Indgang 55 - 6. sal", "latitude": 55.3835623, "longitude": 10.3669346, "source": "osm", "_tags": {"amenity": "hospital", "fvst:navnelbnr": "757991", "name": "OUH Palliativt sengeafsnit Indgang 55 - 6. sal", "ref:DK:cvr": "29190909", "ref:DK:cvr:pnummer": "1003309680"}}, {"name": "Respirationscenter Syd", "latitude": 55.384673, "longitude": 10.369726, "source": "osm", "_tags": {"amenity": "hospital", "name": "Respirationscenter Syd", "ref:DK:cvr": "29190909", "ref:DK:cvr:pnummer": "1003309680", "website": "https://ouh.dk/til-patienter-og-parorende/odense/centre/respirationscenter-syd"}}, {"name": "Capio Odense", "latitude": 55.3958551, "longitude": 10.3796151, "source": "osm", "_tags": {"amenity": "hospital", "emergency": "no", "healthcare": "hospital", "name": "Capio Odense", "operator": "Capio", "operator:type": "private", "operator:wikidata": "Q498606"}}, {"name": "Nyborg Sygehus", "latitude": 55.3168322, "longitude": 10.7867373, "source": "osm", "_tags": {"amenity": "hospital", "healthcare": "hospital", "name": "Nyborg Sygehus", "wheelchair": "yes"}}, {"name": "Ærø Sygehus", "latitude": 54.8925871, "longitude": 10.4061905, "source": "osm", "_tags": {"amenity": "hospital", "building": "yes", "emergency": "no", "healthcare": "hospital", "name": "Ærø Sygehus", "wheelchair": "yes"}}, {"name": "Odense Universitetshospital", "latitude": 55.3855372, "longitude": 10.3649677, "source": "osm", "_tags": {"amenity": "hospital", "emergency": "yes", "healthcare": "hospital", "name": "Odense Universitetshospital", "name:de": "Universitätsklinikum Odense", "name:en": "Odense University Hospital", "ref:DK:cvr": "29190909", "short_name": "OUH", "website": "https://ouh.dk/", "wheelchair": "yes", "wikidata": "Q2496415"}}, {"name": "Svendborg Sygehus", "latitude": 55.0556271, "longitude": 10.6053472, "source": "osm", "_tags": {"amenity": "hospital", "emergency": "yes", "healthcare": "hospital", "name": "Svendborg Sygehus", "name:etymology:wikidata": "Q28031", "wikidata": "Q30281003"}}, {"name": "OUH Svendborg Sygehus", "latitude": 55.0562113, "longitude": 10.6083619, "source": "osm", "_tags": {"amenity": "hospital", "check_date": "2024-08-04", "name": "OUH Svendborg Sygehus"}}, {"name": "", "latitude": 55.0547859, "longitude": 10.6014088, "source": "osm", "_tags": {"amenity": "hospital"}}, {"name": "", "latitude": 55.3846108, "longitude": 10.3674975, "source": "osm", "_tags": {"building:levels": "15", "building:material": "concrete", "building:part": "yes", "healthcare": "hospital", "height": "57", "roof:shape": "flat"}}, {"name": "VAMED Ostseeklinik Damp", "latitude": 54.585639, "longitude": 10.0223288, "source": "osm", "_tags": {"amenity": "hospital", "check_date": "2025-06-08", "emergency": "no", "fax": "+49 4352 806002", "healthcare": "hospital", "name": "VAMED Ostseeklinik Damp", "operator": "VAMED", "operator:wikidata": "Q2509662", "phone": "+49 4352 806001", "website": "https://www.vamed-gesundheit.de/kliniken/damp-ostseeklinik/", "wheelchair": "yes"}}]