[{"name": "", "latitude": 55.0408393, "longitude": 21.6738007, "source": "osm", "_tags": {"addr:housenumber": "79", "addr:street": "Советская улица", "amenity": "hospital"}}, {"name": "Скорая помощь", "latitude": 54.4422303, "longitude": 21.0015233, "source": "osm", "_tags": {"amenity": "hospital", "name": "Скорая помощь"}}, {"name": "Районная больница", "latitude": 54.65186, "longitude": 21.0719144, "source": "osm", "_tags": {"amenity": "hospital", "building": "yes", "name": "Районная больница", "name:ru": "Детская районная больница"}}, {"name": "Районная больница", "latitude": 54.6522259, "longitude": 21.0710776, "source": "osm", "_tags": {"addr:city": "Гвардейск", "addr:housenumber": "22", "addr:street": "улица Тельмана", "amenity": "hospital", "building": "yes", "emergency": "yes", "name": "Районная больница"}}, {"name": "ЦРБ", "latitude": 54.8621779, "longitude": 21.102733, "source": "osm", "_tags": {"amenity": "hospital", "emergency": "yes", "healthcare": "hospital", "name": "ЦРБ"}}, {"name": "Neringos pirminės sveikatos priežiūros centras", "latitude": 55.3027567, "longitude": 21.0037791, "source": "osm", "_tags": {"addr:city": "Neringa", "addr:housenumber": "11", "addr:postcode": "93121", "addr:street": "Taikos g.", "amenity": "hospital", "building": "yes", "emergency": "yes", "healthcare": "hospital", "name": "Neringos pirminės sveikatos priežiūros centras"}}, {"name": "", "latitude": 55.084819, "longitude": 21.8834912, "source": "osm", "_tags": {"addr:city": "Советск", "addr:housenumber": "5", "addr:street": "улица Александра Невского", "building": "yes", "healthcare": "hospital"}}, {"name": "Pagėgių palaikomojo gydymo, slaugos ir senelių globos ligoninė", "latitude": 55.1448424, "longitude": 21.9088765, "source": "osm", "_tags": {"addr:city": "Pagėgiai", "addr:housenumber": "39", "addr:postcode": "99290", "addr:street": "Vytauto g.", "amenity": "hospital", "building": "yes", "name": "Pagėgių palaikomojo gydymo, slaugos ir senelių globos ligoninė"}}, {"name": "В/Ч", "latitude": 54.6492357, "longitude": 21.0742238, "source": "osm", "_tags": {"addr:street": "Красноармейская улица", "amenity": "hospital", "contact:phone": "+7 (40159) 3-2244", "emergency": "no", "healthcare": "hospital", "name": "В/Ч"}}, {"name": "ЦРБ", "latitude": 54.6253794, "longitude": 21.8178916, "source": "osm", "_tags": {"addr:city": "Черняховск", "addr:housenumber": "4", "addr:postcode": "238151", "addr:street": "Цветочная улица", "amenity": "hospital", "building": "yes", "building:levels": "3", "name": "ЦРБ", "phone": "+7 40141 31766", "roof:shape": "hipped"}}, {"name": "Pagėgių palaikomojo gydymo ir slaugos ligoninė", "latitude": 55.1330787, "longitude": 21.9146619, "source": "osm", "_tags": {"amenity": "hospital", "name": "Pagėgių palaikomojo gydymo ir slaugos ligoninė"}}, {"name": "Военный госпиталь", "latitude": 54.6489639, "longitude": 21.0753872, "source": "osm", "_tags": {"amenity": "hospital", "name": "Военный госпиталь"}}, {"name": "", "latitude": 54.8797346, "longitude": 21.6530664, "source": "osm", "_tags": {"amenity": "hospital", "building": "yes", "healthcare": "hospital"}}, {"name": "ФАП", "latitude": 54.9547077, "longitude": 21.8281367, "source": "osm", "_tags": {"addr:city": "п. Канаш", "addr:housenumber": "5", "addr:postcode": "238725", "addr:street": "Школьная улица", "amenity": "hospital", "healthcare": "hospital", "name": "ФАП"}}, {"name": "Психо-неврологический диспансер", "latitude": 55.0716967, "longitude": 21.9285264, "source": "osm", "_tags": {"addr:city": "Советск", "addr:housenumber": "6А", "addr:street": "улица Кутузова", "amenity": "hospital", "healthcare": "hospital", "name": "Психо-неврологический диспансер"}}, {"name": "Центральная больница", "latitude": 55.0730067, "longitude": 21.8903614, "source": "osm", "_tags": {"addr:city": "Советск", "addr:housenumber": "13", "addr:street": "улица 9-го Января", "amenity": "hospital", "healthcare": "hospital", "name": "Центральная больница"}}, {"name": "ПОЧТА ФАП", "latitude": 55.0637187, "longitude": 21.3818404, "source": "osm", "_tags": {"addr:city": "п. Заповедное", "addr:housenumber": "39", "addr:street": "Советская улица", "amenity": "hospital", "healthcare": "hospital", "name": "ПОЧТА ФАП"}}, {"name": "Библ.", "latitude": 54.8461825, "longitude": 21.6283558, "source": "osm", "_tags": {"addr:city": "п. Советское", "addr:housenumber": "26", "addr:street": "Советская улица", "amenity": "hospital", "healthcare": "hospital", "name": "Библ."}}, {"name": "ФАП", "latitude": 55.1297608, "longitude": 21.4397263, "source": "osm", "_tags": {"addr:city": "п. Вишнёвка", "addr:housenumber": "44", "addr:street": "улица Победы", "amenity": "hospital", "healthcare": "hospital", "name": "ФАП"}}, {"name": "ФАП", "latitude": 55.0111384, "longitude": 21.5570052, "source": "osm", "_tags": {"addr:city": "Гастеллово", "addr:housenumber": "98", "addr:street": "Центральная улица", "amenity": "hospital", "healthcare": "hospital", "name": "ФАП"}}, {"name": "ФАП", "latitude": 54.7726387, "longitude": 21.6970211, "source": "osm", "_tags": {"addr:city": "п. Красное", "addr:housenumber": "11", "addr:street": "Центральная улица", "amenity": "hospital", "healthcare": "hospital", "name": "ФАП"}}, {"name": "ФАП", "latitude": 55.1918679, "longitude": 21.2688952, "source": "osm", "_tags": {"addr:city": "Мысовка", "addr:housenumber": "13", "addr:street": "Набережная улица", "amenity": "hospital", "healthcare": "hospital", "name": "ФАП"}}, {"name": "ФАП", "latitude": 54.6045623, "longitude": 21.2655586, "source": "osm", "_tags": {"amenity": "hospital", "building": "yes", "name": "ФАП"}}, {"name": "", "latitude": 54.442066, "longitude": 21.0015377, "source": "osm", "_tags": {"amenity": "hospital", "source:geometry": "ЕГРН"}}, {"name": "Šilutės ligoninė", "latitude": 55.3382622, "longitude": 21.4595395, "source": "osm", "_tags": {"addr:city": "Šilutė", "addr:housenumber": "1", "addr:street": "Rusnės g.", "amenity": "hospital", "building": "yes", "healthcare": "hospital", "name": "Šilutės ligoninė", "type": "multipolygon", "website": "https://www.silutesligonine.lt/"}}]