[{"name": "", "latitude": 55.2727534, "longitude": 28.9719397, "source": "osm", "_tags": {"amenity": "hospital", "healthcare": "hospital"}}, {"name": "Бачэйкаўская бальніца сястрынскага догляду", "latitude": 55.0182027, "longitude": 29.1527995, "source": "osm", "_tags": {"addr:housenumber": "32Б", "addr:street": "Зарэчная вуліца", "amenity": "hospital", "building": "yes", "capacity": "10", "healthcare": "hospital", "name": "Бачэйкаўская бальніца сястрынскага догляду", "name:be": "Бачэйкаўская бальніца сястрынскага догляду", "name:ru": "Бочейковская больница сестринского ухода", "operator": "УЗ «Бешенковичская центральная районная больница»", "phone": "+375 02131 66173", "roof:orientation": "along", "roof:shape": "gabled", "start_date": "2006"}}, {"name": "Халопеніцкая гарпасялковая бальніца", "latitude": 54.5181967, "longitude": 28.9581582, "source": "osm", "_tags": {"amenity": "hospital", "name": "Халопеніцкая гарпасялковая бальніца", "name:be": "Халопеніцкая гарпасялковая бальніца", "name:ru": "Холопеничская горпоселковая больница"}}, {"name": "Чашніцкая раённая бальніца", "latitude": 54.8547102, "longitude": 29.1611299, "source": "osm", "_tags": {"amenity": "hospital", "barrier": "fence", "contact:email": "chasbol@tyt.by", "contact:phone": "+375(2133) 4-12-34", "name": "Чашніцкая раённая бальніца", "name:be": "Чашніцкая раённая бальніца", "name:ru": "Чашникская районная больница"}}, {"name": "", "latitude": 54.4965231, "longitude": 29.3435027, "source": "osm", "_tags": {"amenity": "hospital", "emergency": "no", "healthcare": "hospital"}}, {"name": "Бальніца", "latitude": 55.3481039, "longitude": 29.3041634, "source": "osm", "_tags": {"amenity": "hospital", "healthcare": "hospital", "name": "Бальніца", "name:be": "Бальніца", "name:ru": "Больница"}}, {"name": "Цэнтральная раённая бальніца", "latitude": 54.653659, "longitude": 29.139884, "source": "osm", "_tags": {"amenity": "hospital", "healthcare": "hospital", "name": "Цэнтральная раённая бальніца", "name:be": "Цэнтральная раённая бальніца", "name:ru": "Центральная районная больница"}}, {"name": "", "latitude": 55.2466397, "longitude": 29.274018, "source": "osm", "_tags": {"amenity": "hospital", "healthcare": "hospital"}}, {"name": "", "latitude": 54.6202992, "longitude": 29.2721206, "source": "osm", "_tags": {"amenity": "hospital", "healthcare": "hospital"}}, {"name": "Дубровская сельская участковая больница", "latitude": 55.183923, "longitude": 29.0387943, "source": "osm", "_tags": {"amenity": "hospital", "emergency": "no", "healthcare": "hospital", "name": "Дубровская сельская участковая больница", "name:ru": "Дубровская сельская участковая больница"}}]