[{"name": "", "latitude": 54.7293616, "longitude": 20.0080723, "source": "osm", "_tags": {"amenity": "hospital", "comment": "Местоположение примерное"}}, {"name": "Медицинский центр", "latitude": 54.7694839, "longitude": 20.4466131, "source": "osm", "_tags": {"amenity": "hospital", "name": "Медицинский центр", "opening_hours": "Mo-Su 09:00-19:00; Sa 10:00-16:00", "phone": "+7 4012 568565"}}, {"name": "Медэксперт", "latitude": 54.7221019, "longitude": 20.483226, "source": "osm", "_tags": {"amenity": "hospital", "entrance": "yes", "name": "Медэксперт"}}, {"name": "МедЭксперт", "latitude": 54.7260094, "longitude": 20.5301984, "source": "osm", "_tags": {"amenity": "hospital", "name": "МедЭксперт"}}, {"name": "Центр семейной медицины", "latitude": 54.7175146, "longitude": 20.4850534, "source": "osm", "_tags": {"amenity": "hospital", "entrance": "main", "name": "Центр семейной медицины"}}, {"name": "Медицинский центр TERVE", "latitude": 54.7319851, "longitude": 20.5163172, "source": "osm", "_tags": {"addr:city": "Калининград", "addr:housenumber": "4", "addr:street": "улица Лёни Голикова", "amenity": "hospital", "email": "toive@cardiosib.ru", "healthcare": "hospital", "name": "Медицинский центр TERVE", "phone": "+7 (401) 243 03 20", "website": "https://terve39.ru/"}}, {"name": "Поликлиника", "latitude": 54.676567, "longitude": 20.125314, "source": "osm", "_tags": {"amenity": "hospital", "name": "Поликлиника"}}, {"name": "Медико-диагностический центр", "latitude": 54.7408992, "longitude": 20.5069929, "source": "osm", "_tags": {"addr:city": "Калининград", "addr:housenumber": "81-85", "addr:postcode": "236029", "addr:street": "Зелёная улица", "amenity": "hospital", "name": "Медико-диагностический центр", "opening_hours": "Mo-Fr 09:00-20:00; Sa,Su 09:00-18:00", "phone": "+7 4012 309444;+7 4012 320202"}}, {"name": "МедЭксперт", "latitude": 54.7425364, "longitude": 20.4968552, "source": "osm", "_tags": {"amenity": "hospital", "name": "МедЭксперт"}}, {"name": "Филиал поликлиники № 2 Ленинградского района", "latitude": 54.7442667, "longitude": 20.4964138, "source": "osm", "_tags": {"amenity": "hospital", "entrance": "main", "name": "Филиал поликлиники № 2 Ленинградского района"}}, {"name": "", "latitude": 54.9427801, "longitude": 20.0372364, "source": "osm", "_tags": {"addr:city": "Приморье", "addr:housenumber": "2", "addr:street": "Офицерская улица", "amenity": "hospital", "healthcare": "hospital"}}, {"name": "", "latitude": 54.9490247, "longitude": 20.2350198, "source": "osm", "_tags": {"addr:street": "улица Шаманова", "amenity": "hospital", "healthcare": "hospital"}}, {"name": "Арсмедика", "latitude": 54.677798, "longitude": 20.1379586, "source": "osm", "_tags": {"amenity": "hospital", "contact:website": "http://arsmedica39.ru", "name": "Арсмедика"}}, {"name": "мед пункт", "latitude": 54.7202035, "longitude": 20.7440926, "source": "osm", "_tags": {"amenity": "hospital", "name": "мед пункт"}}, {"name": "мед. пункт Низовье", "latitude": 54.7040261, "longitude": 20.7386796, "source": "osm", "_tags": {"amenity": "hospital", "name": "мед. пункт Низовье"}}, {"name": "", "latitude": 54.7703036, "longitude": 20.6105457, "source": "osm", "_tags": {"addr:city": "Гурьевск", "addr:street": "улица Калининградское шоссе", "amenity": "hospital", "healthcare": "hospital"}}, {"name": "Больница Гурьевска", "latitude": 54.7926513, "longitude": 20.6378097, "source": "osm", "_tags": {"addr:city": "Гурьевск", "addr:housenumber": "31", "addr:street": "Калининградское шоссе", "amenity": "hospital", "healthcare": "hospital", "name": "Больница Гурьевска"}}, {"name": "ВиаМар Медцентр", "latitude": 54.7770675, "longitude": 20.5926313, "source": "osm", "_tags": {"amenity": "hospital", "healthcare": "hospital", "name": "ВиаМар Медцентр", "operator": "ВиаМар"}}, {"name": "ВОП", "latitude": 54.4234143, "longitude": 20.8284356, "source": "osm", "_tags": {"addr:street": "Садовая улица", "amenity": "hospital", "emergency": "yes", "healthcare": "hospital", "name": "ВОП", "operator": "Правдинская ЦРБ", "website": "http://pcrb39.ru"}}, {"name": "МВЦ Продвижение", "latitude": 54.7468697, "longitude": 20.460244, "source": "osm", "_tags": {"addr:city": "Калининград", "addr:housenumber": "40", "addr:street": "Броненосная улица", "amenity": "hospital", "healthcare": "hospital", "healthcare:speciality": "paediatrics;neurology;orthopaedics;physiotherapy", "name": "МВЦ Продвижение"}}, {"name": "Фельдшерско-акушерский пункт", "latitude": 54.5892064, "longitude": 20.6228607, "source": "osm", "_tags": {"amenity": "hospital", "name": "Фельдшерско-акушерский пункт", "name:en": "Paramedic"}}, {"name": "Больница", "latitude": 54.5817406, "longitude": 20.5671129, "source": "osm", "_tags": {"amenity": "hospital", "name": "Больница", "name:en": "Hospital"}}, {"name": "Екамед", "latitude": 54.7466854, "longitude": 20.4941273, "source": "osm", "_tags": {"addr:city": "Калининград", "addr:housenumber": "8", "addr:postcode": "236001", "addr:street": "улица Петра Панина", "amenity": "hospital", "email": "ekamed39@yandex.ru", "emergency": "no", "healthcare": "hospital", "healthcare:speciality": "general", "name": "Екамед", "opening_hours": "Mo-Su 08:00-20:00", "phone": "+74012323323;+79114606666"}}, {"name": "ФГКУ «1409 военно-морской клинический госпиталь» МО РФ", "latitude": 54.7450657, "longitude": 20.522394, "source": "osm", "_tags": {"amenity": "hospital", "barrier": "wall", "emergency": "no", "healthcare": "hospital", "loc_name": "Калининградский военный госпиталь Балтийского флота имени Саулькина", "name": "ФГКУ «1409 военно-морской клинический госпиталь» МО РФ"}}, {"name": "Областная инфекционная больница", "latitude": 54.7114317, "longitude": 20.5284894, "source": "osm", "_tags": {"amenity": "hospital", "emergency": "no", "healthcare": "hospital", "name": "Областная инфекционная больница"}}, {"name": "Класс Клиник", "latitude": 54.7284473, "longitude": 20.5391549, "source": "osm", "_tags": {"addr:street": "улица Партизана Железняка", "amenity": "hospital", "building": "yes", "name": "Класс Клиник"}}, {"name": "ГБУЗ центр медицинской профилактики и реабилитации", "latitude": 54.7082316, "longitude": 20.5373302, "source": "osm", "_tags": {"addr:city": "Калининград", "addr:country": "RU", "addr:housenumber": "64А", "addr:postcode": "236005", "addr:street": "улица Литовский Вал", "building": "hospital", "building:levels": "2", "healthcare": "hospital", "name": "ГБУЗ центр медицинской профилактики и реабилитации"}}, {"name": "Приемный покой", "latitude": 54.675689, "longitude": 20.1241474, "source": "osm", "_tags": {"addr:city": "Светлый", "addr:housenumber": "10", "addr:street": "Сосновый переулок", "amenity": "hospital", "building": "yes", "name": "Приемный покой"}}, {"name": "Светловская ЦОБ", "latitude": 54.6758767, "longitude": 20.1249485, "source": "osm", "_tags": {"addr:city": "Светлый", "addr:housenumber": "10", "addr:street": "Сосновый переулок", "amenity": "hospital", "building": "yes", "name": "Светловская ЦОБ"}}, {"name": "Станция переливания крови Калининградской области", "latitude": 54.7259739, "longitude": 20.4588488, "source": "osm", "_tags": {"addr:city": "Калининград", "addr:country": "RU", "addr:housenumber": "29", "addr:postcode": "236022", "addr:street": "улица Чкалова", "amenity": "hospital", "building": "yes", "emergency": "no", "healthcare": "hospital", "name": "Станция переливания крови Калининградской области", "phone": "+7 4012 935375"}}, {"name": "Родильный дом №4", "latitude": 54.7264921, "longitude": 20.480232, "source": "osm", "_tags": {"addr:city": "Калининград", "addr:country": "RU", "addr:housenumber": "49; 51", "addr:postcode": "236022", "addr:street": "улица Чайковского", "amenity": "hospital", "building": "yes", "building:levels": "3", "health_facility:type": "hospital", "health_specialty:gynaecology": "main", "healthcare": "hospital", "medical_system:western": "yes", "name": "Родильный дом №4", "provided_for:female": "yes"}}, {"name": "Городская больница №2", "latitude": 54.6737687, "longitude": 20.5433906, "source": "osm", "_tags": {"addr:city": "Калининград", "addr:country": "RU", "addr:housenumber": "147В", "addr:postcode": "236034", "addr:street": "улица Дзержинского", "amenity": "hospital", "building": "yes", "building:levels": "2", "check_date": "2024-06-25", "name": "Городская больница №2"}}, {"name": "", "latitude": 54.6773715, "longitude": 20.4855402, "source": "osm", "_tags": {"amenity": "hospital", "building": "yes"}}, {"name": "Областной онкологический диспансер", "latitude": 54.7183736, "longitude": 20.5051335, "source": "osm", "_tags": {"addr:city": "Калининград", "addr:country": "RU", "addr:housenumber": "7", "addr:postcode": "236040", "addr:street": "улица Подполковника Иванникова", "amenity": "hospital", "building": "hospital", "healthcare": "hospital", "healthcare:speciality": "oncology", "name": "Областной онкологический диспансер"}}, {"name": "Кожно-венерологический диспансер", "latitude": 54.7136159, "longitude": 20.5015312, "source": "osm", "_tags": {"addr:city": "Калининград", "addr:country": "RU", "addr:housenumber": "6", "addr:postcode": "236006", "addr:street": "Барнаульская улица", "amenity": "hospital", "building": "yes", "emergency": "no", "healthcare": "hospital", "name": "Кожно-венерологический диспансер"}}, {"name": "Поликлиника №3", "latitude": 54.72946, "longitude": 20.5083598, "source": "osm", "_tags": {"addr:city": "Калининград", "addr:country": "RU", "addr:housenumber": "65", "addr:postcode": "236029", "addr:street": "улица Горького", "amenity": "hospital", "building": "yes", "healthcare": "hospital", "name": "Поликлиника №3"}}, {"name": "Клинико-диагностический центр БФУ им. И. Канта", "latitude": 54.7157611, "longitude": 20.5246669, "source": "osm", "_tags": {"addr:city": "Калининград", "addr:housenumber": "60", "addr:street": "улица 9-го Апреля", "amenity": "hospital", "building": "yes", "contact:phone": "+74012313339", "contact:website": "http://clinic.kantiana.ru", "healthcare": "hospital", "name": "Клинико-диагностический центр БФУ им. И. Канта", "opening_hours": "Mo-Fr 09:00-20:00"}}, {"name": "Гурьевская поликлиника", "latitude": 54.7702971, "longitude": 20.6104994, "source": "osm", "_tags": {"addr:city": "Гурьевск", "addr:country": "RU", "addr:housenumber": "5", "addr:street": "улица Калининградское шоссе", "amenity": "hospital", "building": "yes", "healthcare": "hospital", "name": "Гурьевская поликлиника"}}, {"name": "Медэксперт", "latitude": 54.717875, "longitude": 20.5063981, "source": "osm", "_tags": {"amenity": "hospital", "building": "yes", "healthcare": "hospital", "name": "Медэксперт"}}, {"name": "санаторий Янтарь", "latitude": 54.9422672, "longitude": 20.1390251, "source": "osm", "_tags": {"addr:city": "Светлогорск", "addr:country": "RU", "addr:housenumber": "50", "addr:postcode": "238560", "addr:street": "улица Ленина", "amenity": "hospital", "building": "yes", "description": "Другой корпус", "name": "санаторий Янтарь", "tourism": "hotel"}}, {"name": "Водо-Грязелечебница санаторий зеленоградск", "latitude": 54.9612571, "longitude": 20.4759788, "source": "osm", "_tags": {"amenity": "hospital", "building": "yes", "name": "Водо-Грязелечебница санаторий зеленоградск"}}, {"name": "Медэксперт", "latitude": 54.7174299, "longitude": 20.5059686, "source": "osm", "_tags": {"amenity": "hospital", "building": "yes", "check_date": "2025-06-07", "healthcare": "hospital", "name": "Медэксперт"}}, {"name": "Светлогорский центральный военный санаторий", "latitude": 54.9438687, "longitude": 20.153718, "source": "osm", "_tags": {"addr:city": "Светлогорск", "addr:housenumber": "13", "addr:street": "Октябрьская улица", "amenity": "hospital", "building": "yes", "healthcare": "hospital", "name": "Светлогорский центральный военный санаторий", "tourism": "hotel"}}, {"name": "", "latitude": 54.7131251, "longitude": 20.5011221, "source": "osm", "_tags": {"addr:city": "Калининград", "addr:country": "RU", "addr:housenumber": "6А", "addr:street": "Барнаульская улица", "amenity": "hospital", "building": "yes", "healthcare": "hospital"}}, {"name": "Ладушкинская городская больница", "latitude": 54.5721937, "longitude": 20.172676, "source": "osm", "_tags": {"addr:city": "Ладушкин", "addr:housenumber": "8", "addr:postcode": "238460", "addr:street": "Школьная улица", "amenity": "hospital", "building": "hospital", "building:levels": "3", "email": "muz.lgb@mail.ru", "emergency": "yes", "name": "Ладушкинская городская больница", "name:de": "Städtisches Krankenhaus", "official_name:ru": "Государственное бюджетное учреждение здравоохранения Калининградской области „Ладушкинская городская больница“", "opening_hours": "Mo-Fr 08:00-18:00; Sa 08:00-13:00", "phone": "+7 40156 66360"}}, {"name": "ГБУЗ КО «Мамоновская городская больница»", "latitude": 54.4644222, "longitude": 19.942099, "source": "osm", "_tags": {"addr:city": "Мамоново", "addr:housenumber": "3", "addr:street": "улица Евсеева", "amenity": "hospital", "building": "hospital", "name": "ГБУЗ КО «Мамоновская городская больница»"}}, {"name": "Детская поликлиника", "latitude": 54.7470012, "longitude": 20.5849146, "source": "osm", "_tags": {"addr:city": "Васильково", "addr:housenumber": "51А", "addr:postcode": "238310", "addr:street": "Шатурская улица", "amenity": "hospital", "building": "yes", "name": "Детская поликлиника"}}, {"name": "Хоспис", "latitude": 54.6741705, "longitude": 20.5433861, "source": "osm", "_tags": {"addr:city": "Калининград", "addr:housenumber": "147А", "addr:street": "улица Дзержинского", "alt_name": "Городская больница №2", "amenity": "hospital", "building": "yes", "building:levels": "2", "check_date": "2024-06-25", "emergency": "no", "name": "Хоспис"}}, {"name": "Поликлиника УФСБ России по КО", "latitude": 54.6775359, "longitude": 20.4921508, "source": "osm", "_tags": {"addr:city": "Калининград", "addr:housenumber": "4; 6", "addr:street": "улица Генерала Толстикова", "amenity": "hospital", "building": "yes", "building:levels": "3", "name": "Поликлиника УФСБ России по КО"}}, {"name": "", "latitude": 54.8958122, "longitude": 20.4917334, "source": "osm", "_tags": {"addr:city": "Муромское", "addr:housenumber": "2", "addr:street": "Школьная улица", "amenity": "hospital", "building": "yes", "healthcare": "hospital"}}, {"name": "Поликлиника № 2 Ленинградского района", "latitude": 54.7138858, "longitude": 20.5083256, "source": "osm", "_tags": {"amenity": "hospital", "building": "yes", "building:levels": "1", "healthcare": "hospital", "name": "Поликлиника № 2 Ленинградского района"}}, {"name": "туберкулезный санаторий «Лесное»", "latitude": 54.9442777, "longitude": 20.0784516, "source": "osm", "_tags": {"amenity": "hospital", "name": "туберкулезный санаторий «Лесное»"}}, {"name": "", "latitude": 54.5809104, "longitude": 20.5787472, "source": "osm", "_tags": {"addr:city": "Нивенское", "addr:housenumber": "1", "addr:street": "Больничная улица", "amenity": "hospital", "building": "yes", "building:levels": "1", "healthcare": "hospital", "source:addr": "ЕГРН", "start_date": "1957"}}, {"name": "Федеральный центр по борьбе с онкологическими заболеваниями", "latitude": 54.7009756, "longitude": 20.655933, "source": "osm", "_tags": {"amenity": "hospital", "barrier": "fence", "healthcare": "hospital", "name": "Федеральный центр по борьбе с онкологическими заболеваниями"}}, {"name": "ФАП", "latitude": 54.8584196, "longitude": 20.5786425, "source": "osm", "_tags": {"addr:city": "Матросово", "addr:housenumber": "7", "addr:street": "улица Александра Матросова", "amenity": "hospital", "healthcare": "hospital", "name": "ФАП"}}, {"name": "", "latitude": 54.9581081, "longitude": 20.493205, "source": "osm", "_tags": {"amenity": "hospital", "healthcare": "hospital"}}, {"name": "", "latitude": 54.7468664, "longitude": 20.4602525, "source": "osm", "_tags": {"addr:city": "Калининград", "addr:housenumber": "40", "addr:street": "Броненосная улица", "amenity": "hospital", "healthcare": "hospital"}}, {"name": "Пионерская больница", "latitude": 54.9493521, "longitude": 20.2355387, "source": "osm", "_tags": {"amenity": "hospital", "healthcare": "hospital", "name": "Пионерская больница"}}, {"name": "Станция скорой медицинской помощи", "latitude": 54.7325925, "longitude": 20.5024016, "source": "osm", "_tags": {"amenity": "hospital", "healthcare": "hospital", "name": "Станция скорой медицинской помощи"}}, {"name": "", "latitude": 54.7134312, "longitude": 20.5009282, "source": "osm", "_tags": {"amenity": "hospital", "healthcare": "hospital"}}, {"name": "Областной перинатальный центр", "latitude": 54.7336049, "longitude": 20.4628277, "source": "osm", "_tags": {"amenity": "hospital", "healthcare": "hospital", "name": "Областной перинатальный центр"}}, {"name": "Светловская центральная больница", "latitude": 54.6763182, "longitude": 20.1244907, "source": "osm", "_tags": {"amenity": "hospital", "healthcare": "hospital", "name": "Светловская центральная больница"}}, {"name": "", "latitude": 54.7183672, "longitude": 20.5049485, "source": "osm", "_tags": {"amenity": "hospital", "healthcare": "hospital"}}, {"name": "Станция скорой медпомощи", "latitude": 54.6940049, "longitude": 20.5313048, "source": "osm", "_tags": {"amenity": "hospital", "healthcare": "hospital", "name": "Станция скорой медпомощи"}}, {"name": "", "latitude": 54.7926393, "longitude": 20.6382895, "source": "osm", "_tags": {"amenity": "hospital", "source:geometry": "ЕГРН"}}, {"name": "", "latitude": 54.5810012, "longitude": 20.5782048, "source": "osm", "_tags": {"amenity": "hospital", "source:geometry": "ЕГРН"}}, {"name": "Дорожная больница станции Калининград", "latitude": 54.6783805, "longitude": 20.4853473, "source": "osm", "_tags": {"amenity": "hospital", "emergency": "no", "name": "Дорожная больница станции Калининград", "type": "multipolygon"}}, {"name": "Центральная городская больница", "latitude": 54.6785033, "longitude": 20.4877943, "source": "osm", "_tags": {"alt_name": "Городская многопрофильная больница", "amenity": "hospital", "emergency": "yes", "name": "Центральная городская больница", "type": "multipolygon", "website": "http://cgb39.ru"}}, {"name": "Калининградская областная больница скорой медицинской помощи", "latitude": 54.7405359, "longitude": 20.53525, "source": "osm", "_tags": {"amenity": "hospital", "emergency": "yes", "name": "Калининградская областная больница скорой медицинской помощи", "type": "multipolygon"}}, {"name": "Областная психиатрическая больница №1", "latitude": 54.7382073, "longitude": 20.5370548, "source": "osm", "_tags": {"amenity": "hospital", "healthcare": "hospital", "name": "Областная психиатрическая больница №1", "type": "multipolygon"}}, {"name": "Детская областная больница (Бывшая больница рыбаков)", "latitude": 54.7144122, "longitude": 20.4723567, "source": "osm", "_tags": {"access": "no", "amenity": "hospital", "emergency": "yes", "healthcare": "hospital", "name": "Детская областная больница (Бывшая больница рыбаков)", "old_name": "Медсанчасть №1", "type": "multipolygon"}}, {"name": "Детская областная больница", "latitude": 54.7140859, "longitude": 20.4751277, "source": "osm", "_tags": {"amenity": "hospital", "emergency": "yes", "health_facility:type": "hospital", "healthcare": "hospital", "medical_system:western": "yes", "name": "Детская областная больница", "type": "multipolygon"}}, {"name": "Областной родильный дом №1", "latitude": 54.7185254, "longitude": 20.5212975, "source": "osm", "_tags": {"amenity": "hospital", "emergency": "no", "healthcare": "hospital", "name": "Областной родильный дом №1", "type": "multipolygon"}}, {"name": "Cтанция переливания крови Калининградской области", "latitude": 54.726207, "longitude": 20.4584804, "source": "osm", "_tags": {"amenity": "hospital", "healthcare": "hospital", "name": "Cтанция переливания крови Калининградской области", "type": "multipolygon"}}, {"name": "Родильный дом №2", "latitude": 54.6748878, "longitude": 20.4764913, "source": "osm", "_tags": {"amenity": "hospital", "name": "Родильный дом №2", "type": "multipolygon"}}, {"name": "Родильный дом №3", "latitude": 54.6756105, "longitude": 20.5200587, "source": "osm", "_tags": {"amenity": "hospital", "name": "Родильный дом №3", "type": "multipolygon"}}, {"name": "Портовая больница", "latitude": 54.7115949, "longitude": 20.5016103, "source": "osm", "_tags": {"amenity": "hospital", "healthcare": "hospital", "name": "Портовая больница", "type": "multipolygon"}}, {"name": "Противотуберкулёзный диспансер", "latitude": 54.7184034, "longitude": 20.421026, "source": "osm", "_tags": {"amenity": "hospital", "emergency": "no", "name": "Противотуберкулёзный диспансер", "type": "multipolygon"}}, {"name": "Детский противотуберкулёзный диспансер", "latitude": 54.7316141, "longitude": 20.4653169, "source": "osm", "_tags": {"amenity": "hospital", "emergency": "no", "healthcare": "hospital", "name": "Детский противотуберкулёзный диспансер", "type": "multipolygon"}}, {"name": "Городская больница №6", "latitude": 54.7148158, "longitude": 20.4293847, "source": "osm", "_tags": {"amenity": "hospital", "name": "Городская больница №6", "type": "multipolygon"}}, {"name": "Городская больница №1", "latitude": 54.7200727, "longitude": 20.4636091, "source": "osm", "_tags": {"amenity": "hospital", "name": "Городская больница №1", "type": "multipolygon"}}, {"name": "Городская больница №3", "latitude": 54.7223837, "longitude": 20.4949047, "source": "osm", "_tags": {"amenity": "hospital", "health_facility:type": "hospital", "healthcare": "hospital", "medical_system:western": "yes", "name": "Городская больница №3", "type": "multipolygon"}}, {"name": "Городская психиатрическая больница", "latitude": 54.646742, "longitude": 20.3336841, "source": "osm", "_tags": {"amenity": "hospital", "emergency": "no", "name": "Городская психиатрическая больница", "type": "multipolygon"}}, {"name": "", "latitude": 54.7292374, "longitude": 20.5084158, "source": "osm", "_tags": {"amenity": "hospital", "healthcare": "hospital", "type": "multipolygon"}}, {"name": "Калининградская областная клиническая больница", "latitude": 54.7177571, "longitude": 20.5229065, "source": "osm", "_tags": {"amenity": "hospital", "emergency": "yes", "healthcare": "hospital", "name": "Калининградская областная клиническая больница", "name:de": "Regionales klinisches Krankenhaus Kaliningrad", "name:en": "Kaliningrad Regional Clinical Hospital", "type": "multipolygon"}}, {"name": "Детская городская больница №3", "latitude": 54.7177875, "longitude": 20.4700065, "source": "osm", "_tags": {"addr:city": "Калининград", "addr:housenumber": "18", "addr:postcode": "236010", "addr:street": "улица Огарёва", "amenity": "hospital", "emergency": "no", "healthcare": "hospital", "name": "Детская городская больница №3", "type": "multipolygon"}}, {"name": "Детское инфекционное отделение", "latitude": 54.6777659, "longitude": 20.4893851, "source": "osm", "_tags": {"amenity": "hospital", "name": "Детское инфекционное отделение", "type": "multipolygon"}}, {"name": "Детский пульмонологический санаторий Отрадное", "latitude": 54.9416809, "longitude": 20.1148222, "source": "osm", "_tags": {"addr:city": "Светлогорск", "addr:housenumber": "74", "addr:street": "Калининградский проспект", "amenity": "hospital", "contact:website": "http://kurort-otradnoe.ru/", "healthcare": "hospital", "name": "Детский пульмонологический санаторий Отрадное", "type": "multipolygon"}}, {"name": "", "latitude": 54.9391485, "longitude": 20.1123615, "source": "osm", "_tags": {"amenity": "hospital", "healthcare": "hospital", "type": "multipolygon"}}, {"name": "", "latitude": 54.9394916, "longitude": 20.1112744, "source": "osm", "_tags": {"addr:city": "Светлогорск", "addr:housenumber": "5", "addr:street": "улица Фрунзе", "amenity": "hospital", "healthcare": "hospital", "type": "multipolygon"}}, {"name": "Госпиталь для ветеранов войн", "latitude": 54.7338454, "longitude": 20.4774406, "source": "osm", "_tags": {"amenity": "hospital", "name": "Госпиталь для ветеранов войн", "type": "multipolygon"}}, {"name": "Дом ветеранов", "latitude": 54.7338112, "longitude": 20.4757674, "source": "osm", "_tags": {"amenity": "hospital", "name": "Дом ветеранов", "type": "multipolygon"}}, {"name": "Федеральный центр сердечно-сосудистой хирургии", "latitude": 54.7004657, "longitude": 20.660227, "source": "osm", "_tags": {"amenity": "hospital", "contact:website": "http://kldcardio.ru/", "name": "Федеральный центр сердечно-сосудистой хирургии", "type": "multipolygon"}}, {"name": "Дом-интернат для престарелых и инвалидов \"Сосновая усадьба\"", "latitude": 54.9547709, "longitude": 20.2522455, "source": "osm", "_tags": {"amenity": "hospital", "healthcare": "hospital", "name": "Дом-интернат для престарелых и инвалидов \"Сосновая усадьба\"", "type": "multipolygon"}}, {"name": "Детский ортопедический санаторий \"Пионерск\"", "latitude": 54.9537874, "longitude": 20.2308046, "source": "osm", "_tags": {"amenity": "hospital", "email": "sanpionersk@mail.ru", "fee": "yes", "healthcare": "hospital", "name": "Детский ортопедический санаторий \"Пионерск\"", "official_name": "ФГБУ детский ортопедический санаторий \"Пионерск\"", "phone": "+7 4012 697900", "type": "multipolygon", "website": "http://www.ortosanatorium.ru/"}}]