[{"name": "Waterside Hospital", "latitude": 55.0135559, "longitude": -7.2804733, "source": "osm", "_tags": {"amenity": "hospital", "emergency": "no", "healthcare": "hospital", "name": "Waterside Hospital"}}, {"name": "Lakeview", "latitude": 55.0153949, "longitude": -7.2826835, "source": "osm", "_tags": {"amenity": "hospital", "emergency": "no", "healthcare": "hospital", "name": "Lakeview"}}, {"name": "Lifford Community Hospital", "latitude": 54.831272, "longitude": -7.483232, "source": "osm", "_tags": {"amenity": "hospital", "healthcare": "hospital", "name": "Lifford Community Hospital"}}, {"name": "Altnagelvin Hospital", "latitude": 54.9864391, "longitude": -7.2915854, "source": "osm", "_tags": {"addr:city": "Derry", "addr:postcode": "BT47 6SB", "addr:street": "Glenshane Road", "amenity": "hospital", "emergency": "yes", "healthcare": "hospital", "name": "Altnagelvin Hospital", "phone": "+44 28 7134 5171", "wikidata": "Q4736758"}}, {"name": "Gransha Park Hospital", "latitude": 55.015507, "longitude": -7.278551, "source": "osm", "_tags": {"addr:street": "Clooney Road", "alt_name": "Gransha Hospital", "amenity": "hospital", "healthcare": "hospital", "loc_name": "Gransha Complex", "name": "Gransha Park Hospital", "operator": "Western Health and Social Care Trust", "operator:type": "government", "wikidata": "Q96379854", "wikipedia": "en:Gransha Hospital"}}, {"name": "St Joseph's Community Hospital", "latitude": 54.8056631, "longitude": -7.7502221, "source": "osm", "_tags": {"addr:city": "Stranorlar", "addr:place": "Mullandrait", "amenity": "hospital", "healthcare": "hospital", "name": "St Joseph's Community Hospital"}}, {"name": "Omagh Hospital & Primary Care Complex", "latitude": 54.5904403, "longitude": -7.2660007, "source": "osm", "_tags": {"amenity": "hospital", "healthcare": "hospital", "name": "Omagh Hospital & Primary Care Complex"}}, {"name": "HSE St Conalls Hospital", "latitude": 54.9598814, "longitude": -7.7302475, "source": "osm", "_tags": {"amenity": "hospital", "healthcare": "hospital", "name": "HSE St Conalls Hospital", "operator": "Health Service Executive", "operator:short": "HSE", "operator:type": "government", "operator:wikidata": "Q5690681", "operator:wikipedia": "en:Health Service Executive", "source": "HSE Emergency Exit Plan"}}, {"name": "Letterkenny University Hospital", "latitude": 54.9601244, "longitude": -7.7348334, "source": "osm", "_tags": {"HSE_code": "601", "HSE_hgid": "1", "HSE_hgroup": "Saolta University Health Care Group", "HSE_region": "North West", "amenity": "hospital", "healthcare": "hospital", "name": "Letterkenny University Hospital", "operator": "Health Service Executive", "operator:short": "HSE", "operator:type": "government", "operator:wikidata": "Q5690681", "operator:wikipedia": "en:Health Service Executive", "type": "multipolygon"}}, {"name": "James Connolly Memorial Hospital", "latitude": 55.2457324, "longitude": -7.2681426, "source": "osm", "_tags": {"alt_name": "Carndonagh Community Hospital", "amenity": "hospital", "healthcare": "hospital", "name": "James Connolly Memorial Hospital", "type": "multipolygon"}}, {"name": "Buncrana Community Hospital", "latitude": 55.1337178, "longitude": -7.4492642, "source": "osm", "_tags": {"amenity": "hospital", "healthcare": "hospital", "name": "Buncrana Community Hospital", "type": "multipolygon"}}, {"name": "Tyrone and Fermanagh Hospital", "latitude": 54.5917393, "longitude": -7.2698206, "source": "osm", "_tags": {"addr:city": "Omagh", "addr:postcode": "BT79 0AP", "addr:street": "Hospital Road", "amenity": "hospital", "emergency": "yes", "healthcare": "hospital", "healthcare:speciality": "mental_health", "name": "Tyrone and Fermanagh Hospital", "operator": "Western Health and Social Care Trust", "phone": "+44 28 8283 3169", "type": "multipolygon", "website": "http://www.westerntrust.hscni.net/1584.htm", "wikidata": "Q65064682"}}]