[{"name": "Guisborough Priory Hospital MIU", "latitude": 54.5386008, "longitude": -1.0532301, "source": "osm", "_tags": {"amenity": "hospital", "emergency": "yes", "name": "Guisborough Priory Hospital MIU"}}, {"name": "Guisborough General Hospital", "latitude": 54.5386082, "longitude": -1.0525537, "source": "osm", "_tags": {"amenity": "hospital", "name": "Guisborough General Hospital", "source": "Bing", "source:name": "local_knowledge", "website": "https://www.nhs.uk/servicedirectories/pages/Hospital.aspx?id=RX3LQ"}}, {"name": "", "latitude": 54.5397424, "longitude": -1.0525662, "source": "osm", "_tags": {"amenity": "hospital"}}, {"name": "East Cleveland Hospital", "latitude": 54.5649191, "longitude": -0.9365139, "source": "osm", "_tags": {"amenity": "hospital", "name": "East Cleveland Hospital", "source": "Bing"}}, {"name": "Whitby Hospital", "latitude": 54.4837764, "longitude": -0.6171235, "source": "osm", "_tags": {"addr:city": "Whitby", "addr:postcode": "YO21 1DP", "addr:street": "Spring Hill", "amenity": "hospital", "healthcare": "hospital", "name": "Whitby Hospital", "toilets:wheelchair": "yes", "wheelchair": "yes", "wikidata": "Q30293180"}}]