[{"name": "Versmė", "latitude": 54.6013214, "longitude": 24.0306776, "source": "osm", "_tags": {"amenity": "hospital", "name": "Versmė", "toilets:wheelchair": "yes", "wheelchair": "yes"}}, {"name": "Tulpės", "latitude": 54.600478, "longitude": 24.0353987, "source": "osm", "_tags": {"amenity": "hospital", "name": "Tulpės", "website": "https://www.tulpe.lt/", "wheelchair": "yes"}}, {"name": "Versmė", "latitude": 54.6013382, "longitude": 24.0276635, "source": "osm", "_tags": {"amenity": "hospital", "name": "Versmė", "toilets:wheelchair": "yes", "website": "https://www.versme.com/lt/", "wheelchair": "yes"}}, {"name": "Ukmergės ligoninė", "latitude": 55.2573839, "longitude": 24.7864634, "source": "osm", "_tags": {"amenity": "hospital", "check_date": "2025-07-06", "name": "Ukmergės ligoninė"}}, {"name": "Moters sveikatos centras", "latitude": 54.8592987, "longitude": 24.4490136, "source": "osm", "_tags": {"addr:city": "Kaišiadorys", "addr:housenumber": "60", "addr:postcode": "56145", "addr:street": "Gedimino g.", "amenity": "hospital", "healthcare": "hospital", "name": "Moters sveikatos centras", "phone": "834651263", "wheelchair": "yes"}}, {"name": "Purvo gydykla", "latitude": 54.6010024, "longitude": 24.0356423, "source": "osm", "_tags": {"amenity": "hospital", "healthcare": "hospital", "name": "Purvo gydykla", "opening_hours": "Mo-Su 09:00-19:00"}}, {"name": "Prienų ligoninė", "latitude": 54.6307571, "longitude": 23.9625416, "source": "osm", "_tags": {"addr:city": "Prienai", "addr:housenumber": "2", "addr:postcode": "59115", "addr:street": "Pušyno g.", "amenity": "hospital", "building": "hospital", "name": "Prienų ligoninė"}}, {"name": "Birštono pirminės sveikatos priežiūros centras", "latitude": 54.6070431, "longitude": 24.0255958, "source": "osm", "_tags": {"addr:city": "Birštonas", "addr:housenumber": "8", "addr:postcode": "59206", "addr:street": "Jaunimo g.", "amenity": "hospital", "building": "yes", "healthcare": "hospital", "healthcare:speciality": "general;stomatology", "name": "Birštono pirminės sveikatos priežiūros centras", "operator": "Birštono pirminės sveikatos priežiūros centras", "phone": "+37031967018", "roof:colour": "red", "roof:material": "roof_tiles", "roof:shape": "gabled", "website": "https://www.birstonopspc.lt/"}}, {"name": "Trakų ligoninė", "latitude": 54.6374711, "longitude": 24.9365096, "source": "osm", "_tags": {"addr:city": "Trakai", "addr:housenumber": "13", "addr:street": "Mindaugo g.", "amenity": "hospital", "building": "hospital", "healthcare": "hospital", "name": "Trakų ligoninė", "name:en": "Trakai Hospital", "name:lt": "Trakų ligoninė"}}, {"name": "Jonavos ligoninė", "latitude": 55.0798923, "longitude": 24.2711542, "source": "osm", "_tags": {"addr:city": "Jonava", "addr:housenumber": "19", "addr:postcode": "55134", "addr:street": "Žeimių g.", "amenity": "hospital", "building": "hospital", "name": "Jonavos ligoninė", "operator": "Jonavos ligoninė", "smoking": "no", "website": "https://www.jonavosligonine.lt/", "wikidata": "Q16453830", "wikipedia": "lt:Jonavos ligoninė"}}, {"name": "Vievio m. palaikomojo gydymo ir slaugos ligoninė", "latitude": 54.7646048, "longitude": 24.8077696, "source": "osm", "_tags": {"addr:city": "Vievis", "addr:housenumber": "16", "addr:postcode": "21382", "addr:street": "Liepų g.", "amenity": "hospital", "building": "hospital", "building:levels": "2", "check_date": "2024-08-06", "name": "Vievio m. palaikomojo gydymo ir slaugos ligoninė"}}, {"name": "Onuškio palaikomojo gydymo ir slaugos ligoninė", "latitude": 54.4833098, "longitude": 24.592949, "source": "osm", "_tags": {"addr:city": "Onuškis", "addr:housenumber": "16", "addr:postcode": "21214", "addr:street": "K. Petrausko a.", "amenity": "hospital", "building": "yes", "email": "onuskio.ligonine@gmail.com", "name": "Onuškio palaikomojo gydymo ir slaugos ligoninė", "operator": "VšĮ Onuškio palaikomojo gydymo ir slaugos ligoninė", "website": "https://onuskioligonine.lt/"}}, {"name": "Abromiškių reabilitacijos ligoninė", "latitude": 54.76701, "longitude": 24.707964, "source": "osm", "_tags": {"addr:city": "Abromiškės", "addr:housenumber": "72", "addr:postcode": "26130", "addr:street": "Sanatorijos g.", "amenity": "hospital", "building": "yes", "image": "https://upload.wikimedia.org/wikipedia/commons/9/92/Abromi%C5%A1ki%C5%B3_sanatorija.JPG", "name": "Abromiškių reabilitacijos ligoninė", "wikidata": "Q20503629", "wikipedia": "lt:Abromiškių reabilitacijos ligoninė"}}, {"name": "K. Griniaus slaugos ir palaikomojo gydymo ligoninė", "latitude": 54.8851727, "longitude": 23.9798672, "source": "osm", "_tags": {"amenity": "hospital", "email": "info@kgriniausligonine.lt", "landuse": "residential", "name": "K. Griniaus slaugos ir palaikomojo gydymo ligoninė", "phone": "+370 37 346736", "website": "https://www.kgriniausligonine.lt/"}}, {"name": "Elektrėnų ligoninė", "latitude": 54.7869318, "longitude": 24.666207, "source": "osm", "_tags": {"addr:city": "Elektrėnai", "addr:housenumber": "8", "addr:postcode": "26115", "addr:street": "Taikos g.", "amenity": "hospital", "healthcare": "hospital", "name": "Elektrėnų ligoninė", "website": "https://www.eligon.lt/"}}, {"name": "Vaikų ligų klinikos V. Tumėnienės vardo vaikų ankstyvosios raidos centras", "latitude": 54.8803312, "longitude": 23.9833122, "source": "osm", "_tags": {"amenity": "hospital", "name": "Vaikų ligų klinikos V. Tumėnienės vardo vaikų ankstyvosios raidos centras", "website": "https://kaunoligonine.lt/vaiku-ligu-klinikos-v-tumenienes-vardo-vaiku-ankstyvosios-raidos-centras/"}}, {"name": "Kauno onkologijos ligoninė", "latitude": 54.8598239, "longitude": 23.9770538, "source": "osm", "_tags": {"amenity": "hospital", "landuse": "residential", "name": "Kauno onkologijos ligoninė", "phone": "+370 37 346145", "type": "multipolygon"}}, {"name": "Respublikinė Kauno ligoninė", "latitude": 54.8782388, "longitude": 23.943205, "source": "osm", "_tags": {"amenity": "hospital", "name": "Respublikinė Kauno ligoninė", "phone": "+370 37 342 170", "type": "multipolygon", "website": "https://www.kaunoligonine.lt/", "wikidata": "Q14956895"}}, {"name": "Kėdainių ligoninė", "latitude": 55.3100393, "longitude": 23.9843247, "source": "osm", "_tags": {"amenity": "hospital", "name": "Kėdainių ligoninė", "type": "multipolygon", "wikidata": "Q20504328", "wikipedia": "lt:Kėdainių ligoninė"}}, {"name": "Kaišiadorių ligoninė", "latitude": 54.8544086, "longitude": 24.4277223, "source": "osm", "_tags": {"amenity": "hospital", "healthcare": "hospital", "name": "Kaišiadorių ligoninė", "type": "multipolygon"}}, {"name": "Respublikinė Kauno ligoninė, VšĮ Psichiatrijos klinikos marių sektorius", "latitude": 54.8866427, "longitude": 24.0918531, "source": "osm", "_tags": {"amenity": "hospital", "healthcare": "hospital", "landuse": "residential", "name": "Respublikinė Kauno ligoninė, VšĮ Psichiatrijos klinikos marių sektorius", "type": "multipolygon"}}]