[{"name": "Vilkijos slaugos ir palaikomojo gydymo ligoninė", "latitude": 55.0413578, "longitude": 23.5828972, "source": "osm", "_tags": {"amenity": "hospital", "name": "Vilkijos slaugos ir palaikomojo gydymo ligoninė"}}, {"name": "Kazlų Rūdos ligoninė", "latitude": 54.7571656, "longitude": 23.4953704, "source": "osm", "_tags": {"amenity": "hospital", "emergency": "yes", "name": "Kazlų Rūdos ligoninė", "source": "http://krlig.lt"}}, {"name": "LSMU KK Gastroenterologijos klinika", "latitude": 54.9184956, "longitude": 23.9201253, "source": "osm", "_tags": {"addr:city": "Kaunas", "addr:contact": "yes", "addr:housenumber": "2", "addr:street": "Eivenių g.", "amenity": "clinic", "healthcare": "hospital", "healthcare:speciality": "endocrinology", "name": "LSMU KK Gastroenterologijos klinika", "wheelchair": "yes"}}, {"name": "Gelgaudiškio Poliklinika", "latitude": 55.0717469, "longitude": 22.9832836, "source": "osm", "_tags": {"addr:city": "Gelgaudiškis", "addr:contact": "yes", "addr:housenumber": "59", "addr:street": "Pievų g.", "amenity": "hospital", "name": "Gelgaudiškio Poliklinika"}}, {"name": "Šeimos klinika", "latitude": 54.6521219, "longitude": 23.0341667, "source": "osm", "_tags": {"amenity": "hospital", "healthcare": "hospital", "name": "Šeimos klinika", "name:lt": "Šeimos klinika", "opening_hours": "Mo-Th 08:00-17:00; Fr 08:00-15:00"}}, {"name": "Kauno Raudonojo Kryžiaus klinikinė ligoninė", "latitude": 54.8959378, "longitude": 23.9218895, "source": "osm", "_tags": {"addr:city": "Kaunas", "addr:housenumber": "36", "addr:postcode": "44320", "addr:street": "Gedimino g.", "amenity": "hospital", "building": "yes", "emergency": "yes", "healthcare": "hospital", "height": "16", "name": "Kauno Raudonojo Kryžiaus klinikinė ligoninė", "name:en": "Red Cross Hospital", "name:lt": "Kauno Raudonojo Kryžiaus klinikinė ligoninė", "wikidata": "Q1655716"}}, {"name": "LSMU Kauno klinikos", "latitude": 54.9195244, "longitude": 23.92139, "source": "osm", "_tags": {"addr:city": "Kaunas", "addr:contact": "yes", "addr:housenumber": "2", "addr:postcode": "50009", "addr:street": "Eivenių g.", "alt_name": "Lietuvos sveikatos mokslų universiteto ligoninė Kauno klinikos", "alt_name:en": "Hospital of Lithuanian University of Health Sciences Kaunas Clinics", "alt_name:ru": "Больница Литовского университета наук здоровья", "amenity": "hospital", "name": "LSMU Kauno klinikos", "name:en": "LSMU Kaunas Clinics", "name:lt": "LSMU Kauno klinikos", "website": "https://www.kaunoklinikos.lt/", "wikidata": "Q1165475", "wikipedia": "lt:Lietuvos sveikatos mokslų universiteto ligoninė Kauno klinikos"}}, {"name": "Kauno klinikinės ligoninės infekcinių ligų klinika", "latitude": 54.9175592, "longitude": 23.8605822, "source": "osm", "_tags": {"addr:city": "Kaunas", "addr:housenumber": "120", "addr:postcode": "47116", "addr:street": "Baltijos g.", "amenity": "hospital", "building": "yes", "healthcare": "hospital", "name": "Kauno klinikinės ligoninės infekcinių ligų klinika"}}, {"name": "Romainių tuberkuliozės ligoninė", "latitude": 54.9232745, "longitude": 23.83189, "source": "osm", "_tags": {"addr:city": "Kaunas", "addr:housenumber": "21", "addr:postcode": "47101", "addr:street": "Šilainių pl.", "amenity": "hospital", "building": "hospital", "name": "Romainių tuberkuliozės ligoninė", "operator": "Kauno klinikos", "phone": "+370 37 362625", "website": "https://www.kaunoklinikos.lt/", "wikidata": "Q20503706", "wikipedia": "lt:Romainių tuberkuliozės ligoninė"}}, {"name": "Raseinių ligoninė", "latitude": 55.3851986, "longitude": 23.1198295, "source": "osm", "_tags": {"addr:city": "Raseiniai", "addr:housenumber": "4", "addr:postcode": "60127", "addr:street": "Ligoninės g.", "amenity": "hospital", "building": "yes", "name": "Raseinių ligoninė", "website": "https://www.raseiniuligonine.lt/"}}, {"name": "Raseinių pirminės sveikatos priežiūros centras", "latitude": 55.3840043, "longitude": 23.1196583, "source": "osm", "_tags": {"addr:city": "Raseiniai", "addr:housenumber": "2", "addr:postcode": "60127", "addr:street": "Žemaitės g.", "amenity": "hospital", "building": "yes", "name": "Raseinių pirminės sveikatos priežiūros centras"}}, {"name": "LSMU Kauno ligoninės Krikščioniškieji gimdymo namai, akušerijos skyrius", "latitude": 54.8936056, "longitude": 23.9182967, "source": "osm", "_tags": {"addr:city": "Kaunas", "addr:housenumber": "27", "addr:postcode": "44313", "addr:street": "Miško g.", "amenity": "hospital", "building": "yes", "name": "LSMU Kauno ligoninės Krikščioniškieji gimdymo namai, akušerijos skyrius"}}, {"name": "Raudonojo Kryžiaus ligoninė", "latitude": 54.8967289, "longitude": 23.9231054, "source": "osm", "_tags": {"addr:city": "Kaunas", "addr:housenumber": "17", "addr:postcode": "44320", "addr:street": "Laisvės al.", "amenity": "hospital", "building": "hospital", "building:levels": "3", "check_date": "2025-04-07", "healthcare": "hospital", "image": "https://upload.wikimedia.org/wikipedia/commons/8/85/Kaunas_Red_Cross_Hospital_facade.jpg", "name": "Raudonojo Kryžiaus ligoninė", "roof:levels": "1", "wikidata": "Q1655716", "wikipedia": "lt:Kauno klinikinė ligoninė"}}, {"name": "Raudonojo Kryžiaus ligoninės Traumatologijos punktas", "latitude": 54.8965498, "longitude": 23.922315, "source": "osm", "_tags": {"addr:city": "Kaunas", "addr:housenumber": "19", "addr:postcode": "44320", "addr:street": "Laisvės al.", "amenity": "hospital", "building": "hospital", "building:levels": "4", "healthcare": "hospital", "name": "Raudonojo Kryžiaus ligoninės Traumatologijos punktas", "roof:levels": "0"}}, {"name": "Vilkaviškio ligoninė", "latitude": 54.6506971, "longitude": 23.0262597, "source": "osm", "_tags": {"addr:city": "Vilkaviškis", "addr:contact": "yes", "addr:housenumber": "25", "addr:street": "Maironio g.", "amenity": "hospital", "landuse": "residential", "name": "Vilkaviškio ligoninė", "name:en": "Vilkaviškis hospital", "name:lt": "Vilkaviškio ligoninė"}}, {"name": "LSMU Kauno ligoninės Krikščioniškieji gimdymo namai, ginekologijos skyrius", "latitude": 54.8936064, "longitude": 23.9179133, "source": "osm", "_tags": {"addr:city": "Kaunas", "addr:contact": "yes", "addr:housenumber": "25", "addr:street": "Miško g.", "amenity": "hospital", "building": "yes", "healthcare": "hospital", "name": "LSMU Kauno ligoninės Krikščioniškieji gimdymo namai, ginekologijos skyrius"}}, {"name": "Marijampolės ligoninė", "latitude": 54.5665305, "longitude": 23.3445935, "source": "osm", "_tags": {"addr:city": "Marijampolė", "addr:housenumber": "1", "addr:street": "Palangos g.", "amenity": "hospital", "emergency": "yes", "healthcare": "hospital", "name": "Marijampolės ligoninė", "website": "https://www.marijampolesligonine.lt/"}}, {"name": "Šakių Ligoninė", "latitude": 54.9550195, "longitude": 23.0316611, "source": "osm", "_tags": {"addr:city": "Šakiai", "addr:contact": "yes", "addr:housenumber": "37", "addr:street": "Bažnyčios g.", "amenity": "hospital", "healthcare": "hospital", "name": "Šakių Ligoninė"}}, {"name": "Kulautuvos reabilitacijos ligoninė", "latitude": 54.9419303, "longitude": 23.6455443, "source": "osm", "_tags": {"addr:city": "Kulautuva", "addr:housenumber": "18", "addr:postcode": "53483", "addr:street": "Akacijų al.", "amenity": "hospital", "building": "yes", "building:levels": "3", "healthcare": "hospital", "name": "Kulautuvos reabilitacijos ligoninė", "operator": "Kauno Klinikos"}}, {"name": "Psichiatrijos ligoninė", "latitude": 54.8895754, "longitude": 23.8842765, "source": "osm", "_tags": {"addr:city": "Kaunas", "addr:country": "LT", "addr:housenumber": "48", "addr:postcode": "46256", "addr:street": "S. Dariaus ir S. Girėno g.", "amenity": "hospital", "emergency": "no", "healthcare": "hospital", "name": "Psichiatrijos ligoninė"}}, {"name": "Lopšelis, vaikų reabilitacijos ligoninė", "latitude": 54.9111086, "longitude": 23.8732509, "source": "osm", "_tags": {"addr:city": "Kaunas", "addr:contact": "yes", "addr:housenumber": "10", "addr:postcode": "47179", "addr:street": "Lopšelio g.", "amenity": "hospital", "healthcare": "rehabilitation", "name": "Lopšelis, vaikų reabilitacijos ligoninė"}}, {"name": "Kačerginės vaikų sanatorija „Žibutė“", "latitude": 54.9303732, "longitude": 23.7201207, "source": "osm", "_tags": {"addr:city": "Kačerginė", "addr:contact": "yes", "addr:housenumber": "14", "addr:street": "J. Zikaro g.", "amenity": "hospital", "landuse": "residential", "name": "Kačerginės vaikų sanatorija „Žibutė“"}}, {"name": "Kauno klinikinė ligoninė", "latitude": 54.9149783, "longitude": 23.8578757, "source": "osm", "_tags": {"addr:city": "Kaunas", "addr:housenumber": "2", "addr:postcode": "47144", "addr:street": "Josvainių g.", "amenity": "hospital", "building": "yes", "name": "Kauno klinikinė ligoninė", "type": "multipolygon", "wikidata": "Q1655716", "wikipedia": "lt:Kauno klinikinė ligoninė"}}]