[{"name": "Macular Clinic", "latitude": 54.6079957, "longitude": -5.9394996, "source": "osm", "_tags": {"amenity": "hospital", "healthcare": "hospital", "name": "Macular Clinic"}}, {"name": "Ulster Hospital", "latitude": 54.5970115, "longitude": -5.8116589, "source": "osm", "_tags": {"addr:city": "Belfast", "addr:postcode": "BT16 1RH", "addr:street": "Upper Newtownards Road", "amenity": "hospital", "emergency": "yes", "healthcare": "hospital", "name": "Ulster Hospital", "operator": "South Eastern Health and Social Care Trust", "phone": "+44 28 9056 4875", "wikidata": "Q7879970"}}, {"name": "Ards Hospital", "latitude": 54.5938304, "longitude": -5.7055973, "source": "osm", "_tags": {"alt_name": "Ards Community Hospital", "amenity": "hospital", "healthcare": "hospital", "name": "Ards Hospital"}}, {"name": "Everton Centre", "latitude": 54.6161919, "longitude": -5.967655, "source": "osm", "_tags": {"amenity": "hospital", "emergency": "no", "healthcare": "hospital", "name": "Everton Centre"}}, {"name": "Royal Victoria Hospital", "latitude": 54.5947668, "longitude": -5.9543819, "source": "osm", "_tags": {"amenity": "hospital", "building": "hospital", "emergency": "yes", "healthcare": "hospital", "name": "Royal Victoria Hospital", "operator": "Belfast Health and Social Care Trust (BHSCT) - NHS", "operator:type": "government", "wheelchair": "yes", "wikidata": "Q7374970", "wikipedia": "en:Royal Victoria Hospital, Belfast"}}, {"name": "Forster Green Hospital", "latitude": 54.562309, "longitude": -5.906021, "source": "osm", "_tags": {"amenity": "hospital", "emergency": "no", "healthcare": "hospital", "name": "Forster Green Hospital", "operator": "Belfast Health and Social Care Trust", "wikidata": "Q60743399"}}, {"name": "Belfast City Hospital", "latitude": 54.587348, "longitude": -5.9443858, "source": "osm", "_tags": {"addr:city": "Belfast", "addr:housenumber": "51", "addr:postcode": "BT9 7AB", "addr:street": "Lisburn Road", "amenity": "hospital", "email": "info@belfasttrust.hscni.net", "emergency": "yes", "healthcare": "hospital", "name": "Belfast City Hospital", "operator": "Belfast Health and Social Care Trust (BHSCT) - NHS", "phone": "+44 28 90329241", "website": "https://belfasttrust.hscni.net/hospitals/bch/", "wikidata": "Q4882257"}}, {"name": "Moyle Hospital", "latitude": 54.8543825, "longitude": -5.817609, "source": "osm", "_tags": {"amenity": "hospital", "healthcare": "hospital", "name": "Moyle Hospital"}}, {"name": "Musgrave Park Hospital", "latitude": 54.5688772, "longitude": -5.9780581, "source": "osm", "_tags": {"amenity": "hospital", "healthcare": "hospital", "name": "Musgrave Park Hospital", "operator": "Belfast Health and Social Care Trust (BHSCT) - NHS", "source": "local_knowledge", "source:geometry": "Bing", "website": "https://belfasttrust.hscni.net/hospitals/MusgraveParkHospital.htm", "wikidata": "Q6941171", "wikipedia": "en:Musgrave Park Hospital"}}, {"name": "Mater Infirmorum Hospital", "latitude": 54.6087456, "longitude": -5.9394251, "source": "osm", "_tags": {"addr:city": "Belfast", "addr:housename": "Mater Hospital", "addr:housenumber": "45-54", "addr:postcode": "BT14 6AB", "addr:street": "Crumlin Road", "amenity": "hospital", "check_date": "2024-09-10", "emergency": "yes", "healthcare": "hospital", "name": "Mater Infirmorum Hospital", "operator": "Belfast Health and Social Care Trust (BHSCT) - NHS", "operator:type": "government", "phone": "+44 28 9074 1211", "wikidata": "Q6786517", "wikipedia": "en:Mater Infirmorum Hospital"}}, {"name": "Campbeltown Hospital", "latitude": 55.4211731, "longitude": -5.6036889, "source": "osm", "_tags": {"amenity": "hospital", "emergency": "yes", "healthcare": "hospital", "name": "Campbeltown Hospital", "website": "https://www.nhshighland.scot.nhs.uk/Services/Pages/CampbeltownHospital.aspx", "wikidata": "Q85011474"}}, {"name": "Knockbracken Healthcare Park", "latitude": 54.5394881, "longitude": -5.9060059, "source": "osm", "_tags": {"amenity": "hospital", "healthcare": "hospital", "name": "Knockbracken Healthcare Park", "operator": "Belfast Health and Social Care Trust (BHSCT) - NHS", "wikidata": "Q87866890"}}, {"name": "Lagan Valley Hospital", "latitude": 54.5050966, "longitude": -6.0448904, "source": "osm", "_tags": {"addr:city": "Lisburn", "addr:housenumber": "39", "addr:postcode": "BT28 1JP", "addr:street": "Hillsborough Road", "amenity": "hospital", "contact:phone": "+44 28 9266 5141", "contact:website": "http://www.setrust.hscni.net/hospitals/1984.htm", "emergency": "yes", "healthcare": "hospital", "name": "Lagan Valley Hospital", "operator": "South Eastern Health and Social Care Trust", "operator:type": "public", "phone": "+44 28 9260 4643", "wikidata": "Q6471867"}}, {"name": "The Royal Hospitals", "latitude": 54.5925179, "longitude": -5.9549746, "source": "osm", "_tags": {"addr:city": "Belfast", "addr:housenumber": "274", "addr:postcode": "BT12 6BA", "addr:street": "Grosvenor Road", "amenity": "hospital", "emergency": "yes", "healthcare": "hospital", "name": "The Royal Hospitals", "operator": "Belfast Health and Social Care Trust (BHSCT) - NHS", "phone": "+44 28 9063 2250"}}, {"name": "Thompson House Hospital", "latitude": 54.5186753, "longitude": -6.0492655, "source": "osm", "_tags": {"amenity": "hospital", "healthcare": "hospital", "name": "Thompson House Hospital", "operator": "South Eastern Health and Social Care Trust"}}, {"name": "Whiteabbey Hospital", "latitude": 54.6713942, "longitude": -5.9091895, "source": "osm", "_tags": {"addr:city": "Newtownabbey", "addr:postcode": "BT37 9RH", "addr:street": "Doagh Road", "amenity": "hospital", "emergency": "no", "healthcare": "hospital", "name": "Whiteabbey Hospital", "phone": "+44 28 9086 5181", "website": "http://www.northerntrust.hscni.net/hospitals/311.htm", "wikidata": "Q61439278"}}, {"name": "Bangor Community Hospital", "latitude": 54.6584835, "longitude": -5.6628391, "source": "osm", "_tags": {"addr:city": "Bangor", "addr:housename": "Bangor Community Hospital", "addr:postcode": "BT20 4TA", "addr:street": "Castle Street", "amenity": "hospital", "check_date": "2025-01-20", "healthcare": "hospital", "name": "Bangor Community Hospital", "website": "http://www.setrust.hscni.net/2101.htm"}}]