[{"name": "Muckamore Abbey Hospital", "latitude": 54.6924436, "longitude": -6.1878393, "source": "osm", "_tags": {"amenity": "hospital", "area": "yes", "emergency": "no", "healthcare": "hospital", "name": "Muckamore Abbey Hospital"}}, {"name": "Antrim Area Hospital", "latitude": 54.7330326, "longitude": -6.1891332, "source": "osm", "_tags": {"addr:city": "Antrim", "addr:postcode": "BT41 2RL", "amenity": "hospital", "emergency": "yes", "healthcare": "hospital", "name": "Antrim Area Hospital", "wikidata": "Q30280607"}}, {"name": "Holywell Hospital", "latitude": 54.7327846, "longitude": -6.2076337, "source": "osm", "_tags": {"amenity": "hospital", "emergency": "no", "healthcare": "hospital", "name": "Holywell Hospital", "wikidata": "Q65117925"}}, {"name": "Braid Valley Care Complex", "latitude": 54.8749648, "longitude": -6.272589, "source": "osm", "_tags": {"addr:city": "Ballymena", "addr:postcode": "BT43 6HL", "addr:street": "Cushendall Road", "amenity": "hospital", "emergency": "no", "healthcare": "hospital", "name": "Braid Valley Care Complex", "operator": "Northern Health and Social Care Trust", "operator:type": "public", "phone": "+44 28 2563 5200", "website": "https://www.northerntrust.hscni.net/community-complex/braid-valley-care-complex/", "wikidata": "Q65117436", "wikipedia": "en:Braid Valley Care Complex"}}, {"name": "Robinson Hospital", "latitude": 55.072073, "longitude": -6.5058616, "source": "osm", "_tags": {"amenity": "hospital", "healthcare": "hospital", "name": "Robinson Hospital", "wikidata": "Q96402277", "wikipedia": "en:Robinson Hospital"}}, {"name": "North West Independent Hospital, Ballykelly", "latitude": 55.0454705, "longitude": -7.0136224, "source": "osm", "_tags": {"addr:city": "Ballykelly", "addr:housename": "Church Hill House", "addr:postcode": "BT49 9HS", "addr:street": "Main Street", "amenity": "hospital", "email": "info@nwih.co.uk", "emergency": "no", "healthcare": "hospital", "name": "North West Independent Hospital, Ballykelly", "phone": "+44 28 77763090", "website": "https://www.nwih.co.uk/"}}, {"name": "Lurgan Hospital", "latitude": 54.4564919, "longitude": -6.3390073, "source": "osm", "_tags": {"addr:street": "Union Street", "amenity": "hospital", "healthcare": "hospital", "name": "Lurgan Hospital"}}, {"name": "Causeway Hospital", "latitude": 55.1244292, "longitude": -6.6508943, "source": "osm", "_tags": {"addr:city": "Coleraine", "addr:housenumber": "4", "addr:postcode": "BT52 1HS", "addr:street": "Newbridge Road", "amenity": "hospital", "emergency": "yes", "healthcare": "hospital", "name": "Causeway Hospital", "operator": "Northern Health and Social Care Trust", "operator:type": "public", "phone": "+44 28 7032 7032", "wikidata": "Q65063916", "wikipedia": "en:Causeway Hospital"}}, {"name": "South Tyrone Hospital", "latitude": 54.5102054, "longitude": -6.769264, "source": "osm", "_tags": {"addr:city": "Dungannon", "addr:postcode": "BT71 4AU", "addr:street": "Carland Road", "amenity": "hospital", "healthcare": "hospital", "name": "South Tyrone Hospital", "operator": "Southern Health and Social Care Trust", "phone": "+44 2887 722821", "website": "https://southerntrust.hscni.net/", "wikidata": "Q65064600"}}, {"name": "Dalriada Hospital", "latitude": 55.2004365, "longitude": -6.257831, "source": "osm", "_tags": {"addr:housenumber": "1A", "addr:postcode": "BT54 6EY", "addr:street": "Coleraine Road", "amenity": "hospital", "contact:phone": "+44 28 2076 2666", "healthcare": "hospital", "name": "Dalriada Hospital"}}, {"name": "Mountfern Complex", "latitude": 55.1207975, "longitude": -6.6575017, "source": "osm", "_tags": {"amenity": "hospital", "healthcare": "hospital", "name": "Mountfern Complex", "operator": "Northern Health and Social Care Trust", "operator:type": "public"}}, {"name": "Mid-Ulster Hospital", "latitude": 54.761817, "longitude": -6.6141307, "source": "osm", "_tags": {"amenity": "hospital", "healthcare": "hospital", "name": "Mid-Ulster Hospital", "wikidata": "Q65071728"}}, {"name": "Craigavon Area Hospital", "latitude": 54.4344305, "longitude": -6.4112199, "source": "osm", "_tags": {"addr:city": "Portadown", "addr:housenumber": "68", "addr:postcode": "BT63 5QQ", "addr:street": "Lurgan Road", "amenity": "hospital", "emergency": "yes", "healthcare": "hospital", "name": "Craigavon Area Hospital", "phone": "+44 28 3861 2006", "type": "multipolygon", "website": "https://southerntrust.hscni.net/1539.htm", "wikidata": "Q5181644"}}]