[{"name": "Докшыцкая ЦРБ (тэрапія)", "latitude": 54.8998871, "longitude": 27.7824724, "source": "osm", "_tags": {"amenity": "hospital", "name": "Докшыцкая ЦРБ (тэрапія)", "name:be": "Докшыцкая ЦРБ (тэрапія)", "name:ru": "Докшицкая ЦРБ (терапия)"}}, {"name": "Докшыцкая ЦРБ (паліклініка)", "latitude": 54.9001226, "longitude": 27.7811125, "source": "osm", "_tags": {"amenity": "hospital", "name": "Докшыцкая ЦРБ (паліклініка)", "name:be": "Докшыцкая ЦРБ (паліклініка)", "name:ru": "Докшицкая ЦРБ (поликлиника)"}}, {"name": "Докшыцкая ЦРБ (хірургія)", "latitude": 54.8998418, "longitude": 27.781164, "source": "osm", "_tags": {"amenity": "hospital", "name": "Докшыцкая ЦРБ (хірургія)", "name:be": "Докшыцкая ЦРБ (хірургія)", "name:ru": "Докшицкая ЦРБ (хирургия)"}}, {"name": "Докшыцкая ЦРБ (радзільня)", "latitude": 54.9002543, "longitude": 27.7816755, "source": "osm", "_tags": {"amenity": "hospital", "name": "Докшыцкая ЦРБ (радзільня)", "name:be": "Докшыцкая ЦРБ (радзільня)", "name:ru": "Докшицкая ЦРБ (родильное)"}}, {"name": "Бальніца/Паліклініка", "latitude": 54.7141467, "longitude": 27.290815, "source": "osm", "_tags": {"addr:city": "Крывічы", "addr:postcode": "222376", "amenity": "hospital", "level": "2", "name": "Бальніца/Паліклініка", "name:be": "Бальніца/Паліклініка", "name:ru": "Больница/Поликлиника"}}, {"name": "Дунілавіцкая ўчастковая бальніца", "latitude": 55.0847611, "longitude": 27.2408553, "source": "osm", "_tags": {"addr:city": "Дунілавічы", "addr:housenumber": "5", "addr:street": "Школьная вуліца", "amenity": "hospital", "healthcare": "hospital", "name": "Дунілавіцкая ўчастковая бальніца", "name:be": "Дунілавіцкая ўчастковая бальніца", "name:ru": "Дуниловичская участковая больница", "phone": "+375 21 5559040"}}, {"name": "Хуткая дапамога", "latitude": 54.423833, "longitude": 27.8173656, "source": "osm", "_tags": {"amenity": "hospital", "emergency": "yes", "healthcare": "hospital", "healthcare:speciality": "emergency", "name": "Хуткая дапамога", "name:be": "Хуткая дапамога", "name:ru": "Скорая помощь"}}, {"name": "Флюараграфія", "latitude": 54.4238443, "longitude": 27.8168317, "source": "osm", "_tags": {"amenity": "hospital", "healthcare": "hospital", "name": "Флюараграфія", "name:be": "Флюараграфія", "name:ru": "Флюорография"}}, {"name": "Дзённы стацыянар", "latitude": 54.4237749, "longitude": 27.8169267, "source": "osm", "_tags": {"amenity": "hospital", "healthcare": "hospital", "name": "Дзённы стацыянар", "name:be": "Дзённы стацыянар", "name:ru": "Дневной стационар"}}, {"name": "Плешчаніцкая 2-я раённая бальніца", "latitude": 54.4242096, "longitude": 27.816425, "source": "osm", "_tags": {"addr:city": "Плешчаніцы", "addr:housenumber": "1", "addr:postcode": "223130", "addr:street": "Лясны завулак", "alt_name:be": "Плешчаніцкая другая раённая бальніца", "alt_name:ru": "Плещеницкая вторая районная больница", "amenity": "hospital", "emergency": "yes", "healthcare": "hospital", "name": "Плешчаніцкая 2-я раённая бальніца", "name:be": "Плешчаніцкая 2-я раённая бальніца", "name:en": "Plieščanicy 2nd district hospital", "name:ru": "Плещеницкая 2-я районная больница", "wikidata": "Q92744590"}}, {"name": "Бярозкаўская бальніца сястрынскага догляду з амбулаторыяй", "latitude": 54.6986671, "longitude": 27.8211949, "source": "osm", "_tags": {"addr:housenumber": "1", "addr:street": "Цэнтральная вуліца", "amenity": "hospital", "healthcare": "hospital", "healthcare:speciality": "general", "name": "Бярозкаўская бальніца сястрынскага догляду з амбулаторыяй", "name:be": "Бярозкаўская бальніца сястрынскага догляду з амбулаторыяй", "name:ru": "Берёзковская больница сестринского ухода с амбулаторией"}}, {"name": "Глыбоцкая цэнтральная раённая бальніца", "latitude": 55.1690718, "longitude": 27.6783291, "source": "osm", "_tags": {"addr:housenumber": "240А", "addr:postcode": "211800", "addr:street": "Савецкая вуліца", "amenity": "hospital", "emergency": "yes", "healthcare": "hospital", "name": "Глыбоцкая цэнтральная раённая бальніца", "name:be": "Глыбоцкая цэнтральная раённая бальніца", "name:ru": "Глубокская центральная районная больница", "phone": "+375 21 5650215", "website": "http://crb-glubokoe.by"}}, {"name": "Германовичская врачебная амбулатория", "latitude": 55.4118194, "longitude": 27.7309268, "source": "osm", "_tags": {"addr:housenumber": "14", "addr:street": "Школьная вуліца", "building": "hospital", "building:levels": "1", "healthcare": "hospital", "name": "Германовичская врачебная амбулатория", "name:ru": "Германовичская врачебная амбулатория"}}, {"name": "", "latitude": 54.4241928, "longitude": 27.816232, "source": "osm", "_tags": {"amenity": "hospital", "barrier": "fence", "healthcare": "hospital"}}, {"name": "Даўгінаўская УБ", "latitude": 54.6442702, "longitude": 27.4617468, "source": "osm", "_tags": {"amenity": "hospital", "healthcare": "hospital", "name": "Даўгінаўская УБ", "name:be": "Даўгінаўская УБ", "name:ru": "Долгиновская УБ"}}, {"name": "Варапаеўскі раённая бальніца", "latitude": 55.1401395, "longitude": 27.2085698, "source": "osm", "_tags": {"amenity": "hospital", "emergency": "yes", "healthcare": "hospital", "name": "Варапаеўскі раённая бальніца", "name:be": "Варапаеўскі раённая бальніца", "name:ru": "Воропаевская районная больница", "phone": "+375215548476"}}, {"name": "Шаркаўшчынская бальніца", "latitude": 55.367748, "longitude": 27.4577807, "source": "osm", "_tags": {"addr:housenumber": "13А", "addr:street": "Савецкая вуліца", "amenity": "hospital", "contact:website": "https://shcrb.by", "healthcare": "hospital", "name": "Шаркаўшчынская бальніца", "name:be": "Шаркаўшчынская бальніца", "name:ru": "Шарковщинская больница", "official_name": "Учреждение здравоохранения \"Шарковщинская центральная районная больница\""}}, {"name": "Крулеўшчынкая участковая бальніца", "latitude": 55.0209803, "longitude": 27.7845942, "source": "osm", "_tags": {"amenity": "hospital", "name": "Крулеўшчынкая участковая бальніца", "name:be": "Крулеўшчынкая участковая бальніца"}}, {"name": "Германовичская врачебная амбулатория", "latitude": 55.4119252, "longitude": 27.731, "source": "osm", "_tags": {"amenity": "hospital", "emergency": "no", "healthcare": "hospital", "name": "Германовичская врачебная амбулатория", "name:ru": "Германовичская врачебная амбулатория"}}, {"name": "", "latitude": 55.3490981, "longitude": 27.879799, "source": "osm", "_tags": {"amenity": "hospital", "healthcare": "hospital"}}, {"name": "Плешчаніцкая 2-я раённая бальніца", "latitude": 54.4241928, "longitude": 27.816232, "source": "osm", "_tags": {"alt_name:be": "Плешчаніцкая другая раённая бальніца", "alt_name:ru": "Плещеницкая вторая районная больница", "amenity": "hospital", "healthcare": "hospital", "name": "Плешчаніцкая 2-я раённая бальніца", "name:be": "Плешчаніцкая 2-я раённая бальніца", "name:en": "Plieščanicy 2nd district hospital", "name:ru": "Плещеницкая 2-я районная больница", "site": "hospital", "type": "site", "wikidata": "Q92744590"}}]