[{"name": "Haltwhistle War Memorial Hospital", "latitude": 54.9700621, "longitude": -2.4630937, "source": "osm", "_tags": {"addr:city": "Haltwhistle", "addr:county": "Northumberland", "addr:postcode": "NE49 9AJ", "addr:street": "Westgate", "amenity": "hospital", "check_date": "2025-06-21", "emergency": "no", "fhrs:id": "285831", "healthcare": "hospital", "name": "Haltwhistle War Memorial Hospital", "operator": "Northumbria Healthcare NHS Foundation Trust", "phone": "+44 844 811 8111", "source:addr": "FHRS Open Data"}}, {"name": "Ruth Lancaster James Hospital", "latitude": 54.8101763, "longitude": -2.4405921, "source": "osm", "_tags": {"addr:city": "Alston", "addr:postcode": "CA9 3QX", "addr:street": "Church Road", "addr:suburb": "Townfoot", "alt_name": "Alston Community Hospital", "amenity": "hospital", "fhrs:id": "306923", "healthcare": "hospital", "name": "Ruth Lancaster James Hospital", "phone": "+44 1434 381218", "source": "Bing", "source:addr": "FHRS Open Data", "source:addr:postcode": "code-point_open", "source:name": "website", "website": "https://www.ncic.nhs.uk/locations/alston-community-hospital", "wikidata": "Q30292821"}}, {"name": "Hexham General Hospital", "latitude": 54.9696672, "longitude": -2.0940875, "source": "osm", "_tags": {"addr:city": "Hexham", "addr:county": "Northumberland", "addr:postcode": "NE46 1QJ", "addr:street": "Corbridge Road", "amenity": "hospital", "building": "yes", "emergency": "yes", "fhrs:id": "287624", "healthcare": "hospital", "name": "Hexham General Hospital", "wikidata": "Q30292969"}}, {"name": "Eden Valley Hospice", "latitude": 54.8704836, "longitude": -2.931026, "source": "osm", "_tags": {"addr:city": "Carlisle", "addr:postcode": "CA2 4SD", "addr:street": "Durdar Road", "amenity": "hospital", "building": "yes", "name": "Eden Valley Hospice", "website": "https://www.evhospice.org.uk/"}}, {"name": "Cumberland Infirmary", "latitude": 54.8959998, "longitude": -2.9575216, "source": "osm", "_tags": {"amenity": "hospital", "check_date": "2025-05-25", "emergency": "yes", "healthcare": "hospital", "name": "Cumberland Infirmary", "operator": "North Cumbria University Hopsitals NHS Trust", "wikidata": "Q5193911"}}, {"name": "Penrith Hospital", "latitude": 54.6567286, "longitude": -2.7429899, "source": "osm", "_tags": {"addr:city": "Penrith", "addr:postcode": "CA11 8HX", "addr:street": "Bridge Lane", "amenity": "hospital", "healthcare": "hospital", "name": "Penrith Hospital", "phone": "+44 1768 245300", "website": "https://www.cumbriapartnership.nhs.uk/where-we-work/penrith-community-hospital"}}, {"name": "Brampton War Memorial Hospital", "latitude": 54.9386815, "longitude": -2.7266223, "source": "osm", "_tags": {"addr:city": "Brampton", "addr:postcode": "CA8 1TX", "addr:street": "Tree Road", "amenity": "hospital", "emergency": "no", "healthcare": "hospital", "name": "Brampton War Memorial Hospital", "phone": "+44 1228 608345", "website": "https://www.ncic.nhs.uk/locations/brampton-war-memorial-hospital"}}, {"name": "Thomas Hope Hospital", "latitude": 55.1506301, "longitude": -2.9997754, "source": "osm", "_tags": {"addr:city": "Langholm", "addr:postcode": "DG13 0JX", "amenity": "hospital", "emergency": "no", "healthcare": "hospital", "name": "Thomas Hope Hospital", "operator": "NHS Dumfries and Galloway", "operator:type": "public", "operator:wikidata": "Q6954127", "wikidata": "Q85011538", "wikipedia": "en:Thomas Hope Hospital"}}]