[{"name": "Амбулаторыя № 1 Лепельскай ЦРБ", "latitude": 54.8825829, "longitude": 28.698703, "source": "osm", "_tags": {"amenity": "hospital", "name": "Амбулаторыя № 1 Лепельскай ЦРБ", "name:be": "Амбулаторыя № 1 Лепельскай ЦРБ", "name:ru": "Амбулатория N 1 Лепельский ЦРБ"}}, {"name": "", "latitude": 54.8920634, "longitude": 28.0039574, "source": "osm", "_tags": {"amenity": "hospital", "building": "yes", "building:levels": "1"}}, {"name": "Дзіцячы санаторый", "latitude": 54.8951336, "longitude": 28.7037517, "source": "osm", "_tags": {"addr:housenumber": "23", "addr:street": "Віцебская вуліца", "amenity": "hospital", "building": "yes", "building:levels": "1", "name": "Дзіцячы санаторый", "name:be": "Дзіцячы санаторый", "name:ru": "Детский санаторий"}}, {"name": "Інфекцыйнае аддзяленне", "latitude": 54.894794, "longitude": 28.7170761, "source": "osm", "_tags": {"amenity": "hospital", "building": "yes", "building:levels": "2", "name": "Інфекцыйнае аддзяленне", "name:be": "Інфекцыйнае аддзяленне", "name:ru": "Инфекционное отделение"}}, {"name": "", "latitude": 55.4094843, "longitude": 28.4696593, "source": "osm", "_tags": {"addr:housenumber": "39", "addr:street": "вуліца Леніна", "amenity": "hospital", "building": "yes", "building:levels": "1", "healthcare": "hospital"}}, {"name": "Пышнянская бальніца сястрынскага догляду", "latitude": 54.9561383, "longitude": 28.4866066, "source": "osm", "_tags": {"amenity": "hospital", "building": "hospital", "name": "Пышнянская бальніца сястрынскага догляду", "name:be": "Пышнянская бальніца сястрынскага догляду", "name:ru": "БСУ"}}, {"name": "", "latitude": 55.3956792, "longitude": 28.8313699, "source": "osm", "_tags": {"addr:street": "Цэнтральная вуліца", "amenity": "hospital", "building": "yes", "building:levels": "1", "healthcare": "hospital"}}, {"name": "Лепельская цэнтральная раённая бальніца", "latitude": 54.8945199, "longitude": 28.7154748, "source": "osm", "_tags": {"addr:city": "Лепель", "addr:housenumber": "2", "addr:postcode": "211174", "addr:street": "Шпітальная вуліца", "amenity": "hospital", "email": "leptmo@vitebsk.by", "healthcare": "hospital", "name": "Лепельская цэнтральная раённая бальніца", "name:be": "Лепельская цэнтральная раённая бальніца", "name:en": "Lepel central regional hospital", "name:ru": "Лепельская центральная районная больница", "opening_hours": "24/7", "phone": "+375 2132 67006", "website": "http://lepelcrb.by/"}}, {"name": "Ушацкая цэнтральная раённая бальніца", "latitude": 55.1698679, "longitude": 28.6130091, "source": "osm", "_tags": {"amenity": "hospital", "healthcare": "hospital", "name": "Ушацкая цэнтральная раённая бальніца", "name:be": "Ушацкая цэнтральная раённая бальніца", "name:ru": "Ушачская центральная районная больница"}}, {"name": "", "latitude": 54.563908, "longitude": 28.1844437, "source": "osm", "_tags": {"amenity": "hospital", "healthcare": "hospital"}}, {"name": "", "latitude": 54.4929306, "longitude": 28.6620807, "source": "osm", "_tags": {"amenity": "hospital", "healthcare": "hospital"}}, {"name": "Падсвільская раённая бальніца", "latitude": 55.1496616, "longitude": 27.9569772, "source": "osm", "_tags": {"addr:city": "Падсвілле", "addr:housenumber": "4", "addr:street": "Савецкі завулак", "amenity": "hospital", "healthcare": "hospital", "name": "Падсвільская раённая бальніца", "name:be": "Падсвільская раённая бальніца", "name:ru": "Подсвильская районная больница", "official_name": "Подсвильская районная больница Учреждения здравоохранения Глубокская центральная районная больница", "phone": "+375 21 5635533"}}, {"name": "", "latitude": 55.2958583, "longitude": 28.2194746, "source": "osm", "_tags": {"amenity": "hospital", "emergency": "no", "healthcare": "hospital"}}, {"name": "Бягомльская раённая бальніца", "latitude": 54.7298631, "longitude": 28.0582811, "source": "osm", "_tags": {"amenity": "hospital", "healthcare": "hospital", "int_name": "Biahomĺskaja rajonnaja balnica", "name": "Бягомльская раённая бальніца", "name:be": "Бягомльская раённая бальніца", "name:ru": "Бегомльская районная больница"}}]