[{"name": "Baltrušaičių medicinos punktas", "latitude": 55.2268805, "longitude": 22.3744088, "source": "osm", "_tags": {"addr:city": "Baltrušaičiai", "addr:contact": "yes", "addr:housenumber": "3", "addr:street": "Liepų g.", "amenity": "hospital", "name": "Baltrušaičių medicinos punktas"}}, {"name": "Tauragės visuomenės sveikatos centras", "latitude": 55.2504839, "longitude": 22.2898236, "source": "osm", "_tags": {"addr:city": "Tauragė", "addr:contact": "yes", "addr:housenumber": "38", "addr:street": "Prezidento g.", "amenity": "hospital", "healthcare": "hospital", "name": "Tauragės visuomenės sveikatos centras"}}, {"name": "Medicinos Namai", "latitude": 55.2528161, "longitude": 22.3002226, "source": "osm", "_tags": {"addr:city": "Tauragė", "addr:contact": "yes", "addr:housenumber": "23", "addr:street": "Gedimino g.", "amenity": "hospital", "healthcare": "hospital", "name": "Medicinos Namai", "operator": "Medicinos Bankas"}}, {"name": "Viešvilės Ambulatorija", "latitude": 55.068923, "longitude": 22.391132, "source": "osm", "_tags": {"addr:city": "Viešvilė", "addr:contact": "yes", "addr:housenumber": "59", "addr:street": "Klaipėdos g.", "amenity": "hospital", "name": "Viešvilės Ambulatorija"}}, {"name": "Smalinikų Ambulatorija", "latitude": 55.0729662, "longitude": 22.5760024, "source": "osm", "_tags": {"addr:city": "Smalininkai", "addr:contact": "yes", "addr:housenumber": "54", "addr:street": "Nemuno g.", "amenity": "hospital", "name": "Smalinikų Ambulatorija"}}, {"name": "Klinika Medicinos Namai", "latitude": 55.2530973, "longitude": 22.2995483, "source": "osm", "_tags": {"addr:city": "Tauragė", "addr:contact": "yes", "addr:housenumber": "118", "addr:postcode": "72265", "addr:street": "J. Tumo-Vaižganto g.", "amenity": "hospital", "healthcare": "hospital", "name": "Klinika Medicinos Namai", "operator": "Diaverum"}}, {"name": "Гусевский психоневрологический интернат", "latitude": 54.6031195, "longitude": 22.1555339, "source": "osm", "_tags": {"addr:postcode": "238042", "amenity": "hospital", "email": "gpni-gusev@mail.ru", "name": "Гусевский психоневрологический интернат", "phone": "+74014377755", "website": "https://gpni-gusev.klgd.socinfo.ru/"}}, {"name": "", "latitude": 54.5999563, "longitude": 22.210476, "source": "osm", "_tags": {"addr:city": "Гусев", "addr:country": "RU", "addr:housenumber": "56", "addr:postcode": "238051", "addr:street": "Московская улица", "amenity": "hospital", "building": "yes", "building:levels": "3", "roof:shape": "gabled"}}, {"name": "", "latitude": 54.5983806, "longitude": 21.9678369, "source": "osm", "_tags": {"amenity": "hospital", "building": "yes", "building:levels": "1", "start_date": "1986"}}, {"name": "Городская больница", "latitude": 55.0423275, "longitude": 22.0225806, "source": "osm", "_tags": {"addr:city": "Неман", "addr:country": "RU", "addr:housenumber": "25", "addr:postcode": "238710", "addr:street": "улица Победы", "amenity": "hospital", "building": "yes", "name": "Городская больница"}}, {"name": "Поликлиника", "latitude": 55.0416703, "longitude": 22.0220817, "source": "osm", "_tags": {"addr:city": "Неман", "addr:housenumber": "14", "addr:postcode": "238710", "addr:street": "улица Победы", "amenity": "hospital", "emergency": "yes", "name": "Поликлиника"}}, {"name": "Краснознаменская центральная районная больница", "latitude": 54.9469847, "longitude": 22.4777098, "source": "osm", "_tags": {"amenity": "hospital", "emergency": "yes", "healthcare": "hospital", "name": "Краснознаменская центральная районная больница", "name:de": "Kreiskrankenhaus Krasnosnamensk", "name:lt": "Krasnoznamensko centrinė rajono ligoninė", "name:ru": "Краснознаменская центральная районная больница", "source": "survey"}}, {"name": "Tauragės apskrities ligoninė", "latitude": 55.2538723, "longitude": 22.2830112, "source": "osm", "_tags": {"amenity": "hospital", "emergency": "yes", "healthcare": "hospital", "name": "Tauragės apskrities ligoninė", "wikidata": "Q20503969", "wikipedia": "lt:Tauragės ligoninė"}}, {"name": "Eržvilko Pirminės Sveikatos Priežiuros Centras", "latitude": 55.2603769, "longitude": 22.7040396, "source": "osm", "_tags": {"addr:city": "Eržvilkas", "addr:housenumber": "2A", "addr:postcode": "74285", "addr:street": "Piliakalnio g.", "amenity": "hospital", "building": "yes", "name": "Eržvilko Pirminės Sveikatos Priežiuros Centras"}}, {"name": "Skaudvilės slaugos ligoninė", "latitude": 55.4053964, "longitude": 22.5867318, "source": "osm", "_tags": {"amenity": "hospital", "healthcare": "hospital", "name": "Skaudvilės slaugos ligoninė"}}, {"name": "Jurbarko ligoninė", "latitude": 55.0844218, "longitude": 22.7501646, "source": "osm", "_tags": {"amenity": "hospital", "emergency": "yes", "name": "Jurbarko ligoninė"}}, {"name": "Jurbarko šeimos klinika", "latitude": 55.0824438, "longitude": 22.771583, "source": "osm", "_tags": {"amenity": "hospital", "building": "hospital", "name": "Jurbarko šeimos klinika"}}, {"name": "Частный Зубной Врач", "latitude": 55.0378741, "longitude": 22.0290957, "source": "osm", "_tags": {"amenity": "hospital", "healthcare": "hospital", "name": "Частный Зубной Врач"}}, {"name": "ФАП", "latitude": 55.0123742, "longitude": 21.9536703, "source": "osm", "_tags": {"addr:city": "Ветрово", "addr:housenumber": "12", "addr:street": "Школьная улица", "amenity": "hospital", "healthcare": "hospital", "name": "ФАП"}}, {"name": "Нестеровская центральная районная больница", "latitude": 54.6292712, "longitude": 22.5674214, "source": "osm", "_tags": {"amenity": "hospital", "healthcare": "hospital", "name": "Нестеровская центральная районная больница", "name:ru": "Нестеровская центральная районная больница", "website": "https://nesterov-crb.infomed39.ru/"}}, {"name": "ФАП", "latitude": 55.0045712, "longitude": 21.9885172, "source": "osm", "_tags": {"addr:city": "п. Ракитино", "addr:housenumber": "2А", "addr:street": "Центральная улица", "amenity": "hospital", "healthcare": "hospital", "name": "ФАП"}}, {"name": "Неманская районная больница", "latitude": 55.0425756, "longitude": 22.0223578, "source": "osm", "_tags": {"amenity": "hospital", "name": "Неманская районная больница", "type": "multipolygon"}}]