[{"name": "Asklepios Nordseeklinik", "latitude": 54.9255215, "longitude": 8.3132988, "source": "osm", "_tags": {"addr:city": "Sylt", "addr:housenumber": "81", "addr:postcode": "25980", "addr:street": "Norderstraße", "addr:suburb": "Westerland", "amenity": "hospital", "emergency": "yes", "healthcare": "hospital", "medical_system:western": "yes", "name": "Asklepios Nordseeklinik", "note": "Akutkrankenhaus und Reha-Klinik", "phone": "+49 4651 84 0", "website": "https://www.asklepios.com/sylt", "wikipedia": "de:Asklepios Kliniken"}}, {"name": "Klinikum Nordfriesland - Klinik Niebüll", "latitude": 54.7931051, "longitude": 8.8437762, "source": "osm", "_tags": {"addr:city": "Niebüll", "addr:housenumber": "75", "addr:postcode": "25899", "addr:street": "Gather Landstraße", "amenity": "hospital", "emergency": "yes", "healthcare": "hospital", "name": "Klinikum Nordfriesland - Klinik Niebüll", "phone": "+49 4661 150", "website": "https://www.klinikum-nf.de/", "wheelchair": "yes"}}, {"name": "Fachklinik Sylt", "latitude": 54.9146693, "longitude": 8.3058299, "source": "osm", "_tags": {"amenity": "hospital", "building": "hospital", "building:levels": "5", "name": "Fachklinik Sylt", "roof:levels": "0", "roof:shape": "flat"}}, {"name": "Inselklinik Föhr-Amrum", "latitude": 54.6852962, "longitude": 8.5642826, "source": "osm", "_tags": {"addr:city": "Wyk auf Föhr", "addr:country": "DE", "addr:housenumber": "24", "addr:postcode": "25938", "addr:street": "Rebbelstieg", "amenity": "hospital", "check_date": "2024-10-07", "emergency": "yes", "healthcare": "hospital", "name": "Inselklinik Föhr-Amrum", "phone": "+49 4681 480", "website": "https://www.klinikum-nf.de/kliniken-praxen/inselklinik-foehr-amrum"}}, {"name": "AOK Nordseeklinik", "latitude": 54.6830763, "longitude": 8.3278411, "source": "osm", "_tags": {"addr:city": "Norddorf auf Amrum", "addr:housenumber": "23", "addr:postcode": "25946", "addr:street": "Strunwai", "amenity": "hospital", "healthcare": "rehabilitation", "name": "AOK Nordseeklinik", "phone": "+49 4682 370", "website": "https://www.aok-nordseeklinik.de/"}}, {"name": "AOK Nordseeklinik - Haus Saltkrokan", "latitude": 54.6813709, "longitude": 8.3322743, "source": "osm", "_tags": {"addr:city": "Norddorf auf Amrum", "addr:country": "DE", "addr:housenumber": "11", "addr:postcode": "25946", "addr:street": "Miadwai", "amenity": "hospital", "check_date": "2024-05-24", "healthcare": "rehabilitation", "name": "AOK Nordseeklinik - Haus Saltkrokan", "website": "https://www.aok-nordseeklinik.de/startseite/aufenthalt/haeuser/haus-saltkrokan"}}, {"name": "Tønder Sygehus", "latitude": 54.9411348, "longitude": 8.8753568, "source": "osm", "_tags": {"amenity": "hospital", "building": "yes", "name": "Tønder Sygehus", "official_name": "Sygehus Sønderjylland i Tønder", "type": "multipolygon", "wikidata": "Q85951899"}}]