[{"name": "Butterwick Hospice", "latitude": 54.580466, "longitude": -1.3479517, "source": "osm", "_tags": {"addr:city": "Stockton-on-Tees", "addr:country": "GB", "addr:postcode": "TS19 8XN", "addr:street": "Middlefield Road", "amenity": "hospital", "designation": "amenity = hospice", "emergency": "no", "fhrs:id": "250524", "healthcare": "hospital", "name": "Butterwick Hospice", "source": "local_knowledge", "source:addr": "FHRS Open Data"}}, {"name": "Sunderland Primary care Trust", "latitude": 54.9266161, "longitude": -1.4468632, "source": "osm", "_tags": {"amenity": "hospital", "emergency": "yes", "name": "Sunderland Primary care Trust"}}, {"name": "Priory Day Hospital", "latitude": 55.0111438, "longitude": -1.4565366, "source": "osm", "_tags": {"addr:city": "North Shields", "addr:street": "Hawkey's Lane", "amenity": "hospital", "emergency": "no", "name": "Priory Day Hospital"}}, {"name": "Freeman Hospital", "latitude": 55.0025688, "longitude": -1.5931804, "source": "osm", "_tags": {"addr:city": "Newcastle upon Tyne", "addr:country": "GB", "addr:postcode": "NE7 7DN", "addr:street": "Freeman Road", "amenity": "hospital", "fhrs:id": "237284", "healthcare": "hospital", "name": "Freeman Hospital", "phone": "+44 191 233 6161", "wikidata": "Q5501016"}}, {"name": "Campus for Ageing and Vitality", "latitude": 54.9770977, "longitude": -1.64453, "source": "osm", "_tags": {"addr:city": "Newcastle upon Tyne", "addr:postcode": "NE4 9AQ", "addr:street": "Westgate Road", "amenity": "hospital", "healthcare": "hospital", "name": "Campus for Ageing and Vitality", "phone": "+44 191 233 6161", "website": "http://www.newcastle-hospitals.org.uk/hospitals/newcastle-general-hospital.aspx", "wikidata": "Q7017422", "wikipedia": "en:Newcastle General Hospital"}}, {"name": "Sunderland Royal Hospital", "latitude": 54.9028632, "longitude": -1.4088444, "source": "osm", "_tags": {"addr:city": "Sunderland", "addr:housename": "Sunderland Royal Hospital", "addr:postcode": "SR4 7TP", "addr:street": "Chester Road", "amenity": "hospital", "fhrs:id": "652124", "healthcare": "hospital", "name": "Sunderland Royal Hospital", "source:addr": "FHRS Open Data", "wikidata": "Q30280985"}}, {"name": "Monkwearmouth Hospital", "latitude": 54.9236483, "longitude": -1.3858816, "source": "osm", "_tags": {"amenity": "hospital", "healthcare": "hospital", "name": "Monkwearmouth Hospital", "wikidata": "Q30292727"}}, {"name": "Peterlee Community Hospital", "latitude": 54.7543924, "longitude": -1.3332639, "source": "osm", "_tags": {"amenity": "hospital", "healthcare": "hospital", "name": "Peterlee Community Hospital", "wikidata": "Q30292858", "wikipedia": "en:Peterlee Community Hospital"}}, {"name": "University Hospital of Hartlepool", "latitude": 54.7023471, "longitude": -1.2277927, "source": "osm", "_tags": {"addr:city": "Hartlepool", "addr:postcode": "TS24 9AH", "addr:street": "Holdforth Road", "amenity": "hospital", "emergency": "no", "fee": "no", "fhrs:id": "259221", "healthcare": "hospital", "name": "University Hospital of Hartlepool", "old_name": "Hartlepool General Hospital", "operator": "North Tees and Hartlepool Hospitals NHS Foundation Trust", "source:addr": "FHRS Open Data", "start_date": "1889", "wikidata": "Q7894769"}}, {"name": "North Tees Hospital", "latitude": 54.582608, "longitude": -1.3474464, "source": "osm", "_tags": {"addr:city": "Stockton-on-Tees", "addr:country": "GB", "addr:postcode": "TS19 8PE", "addr:street": "Hardwick Road", "amenity": "hospital", "fhrs:id": "251526", "healthcare": "hospital", "name": "North Tees Hospital", "operator": "North Tees and Hartlepool NHS foundation trust", "source": "landsat", "source:addr": "FHRS Open Data", "website": "https://www.nth.nhs.uk/"}}, {"name": "Royal Victoria Infirmary", "latitude": 54.9795524, "longitude": -1.6202886, "source": "osm", "_tags": {"addr:city": "Newcastle upon Tyne", "addr:housename": "Royal Victoria Infirmary", "addr:postcode": "NE1 4LP", "addr:street": "Queen Victoria Road", "alt_name": "RVI", "amenity": "hospital", "emergency": "yes", "healthcare": "hospital", "name": "Royal Victoria Infirmary", "phone": "+44 191 233 6161", "smoking": "no", "website": "http://www.newcastle-hospitals.org.uk/hospitals/royal-victoria-infirmary.aspx", "wheelchair": "yes", "wikidata": "Q7374975", "wikipedia": "en:Royal Victoria Infirmary"}}, {"name": "Lanchester Road Hospital", "latitude": 54.7996089, "longitude": -1.61147, "source": "osm", "_tags": {"addr:city": "Durham", "addr:postcode": "DH1 5RD", "addr:street": "Lanchester Road", "amenity": "hospital", "emergency": "no", "fhrs:id": "360712", "name": "Lanchester Road Hospital", "source:addr": "FHRS Open Data", "wikidata": "Q5326535", "wikipedia": "en:Lanchester Road Hospital"}}, {"name": "Sunderland Eye Infirmary", "latitude": 54.8892497, "longitude": -1.3810852, "source": "osm", "_tags": {"addr:city": "Sunderland", "addr:country": "GB", "addr:postcode": "SR2 9HP", "addr:street": "Queen Alexandra Road", "amenity": "hospital", "building": "yes", "contact:phone": "+44 191 565 6256", "contact:website": "https://www.stsft.nhs.uk/services/sunderland-eye-infirmary/", "healthcare": "hospital", "name": "Sunderland Eye Infirmary", "source": "OS Open data", "wikidata": "Q30282223"}}, {"name": "Queen Elizabeth Hospital", "latitude": 54.9388271, "longitude": -1.5803323, "source": "osm", "_tags": {"addr:city": "Gateshead", "addr:postcode": "NE9 6SX", "addr:street": "Queen Elizabeth Avenue", "addr:suburb": "Sheriff Hill", "amenity": "hospital", "emergency": "yes", "fhrs:id": "339363", "healthcare": "hospital", "name": "Queen Elizabeth Hospital", "source:addr": "FHRS Open Data", "wikidata": "Q7270338"}}, {"name": "South Tyneside District Hospital", "latitude": 54.9715641, "longitude": -1.4290073, "source": "osm", "_tags": {"addr:city": "South Shields", "addr:housename": "South Tyneside District Hospital", "addr:postcode": "NE34 0PL", "addr:street": "Harton Lane", "amenity": "hospital", "emergency": "yes", "fhrs:id": "1677913", "name": "South Tyneside District Hospital", "phone": "+44 191 404 1000", "ref:GB:cqc_location": "R0B0Q", "source": "OS OpenData StreetView", "website": "http://www.sthct.nhs.uk/home", "wheelchair": "yes", "wikidata": "Q7568700", "wikipedia": "en:South Tyneside District Hospital"}}, {"name": "Cobalt Treatment Centre", "latitude": 55.0280221, "longitude": -1.5108579, "source": "osm", "_tags": {"addr:postcode": "NE27 0BY", "addr:street": "The Silverlink North", "amenity": "hospital", "building": "yes", "building:levels": "1", "emergency": "no", "healthcare": "hospital", "name": "Cobalt Treatment Centre", "operator": "Ramsey Healthcare UK", "phone": "+44 191 283 5856", "ref:GB:uprn": "47191253", "website": "https://www.ramsayhealth.co.uk/hospitals/cobalt-hospital", "wikidata": "Q88281573"}}, {"name": "The Nuffield", "latitude": 54.5931868, "longitude": -1.3352403, "source": "osm", "_tags": {"amenity": "hospital", "name": "The Nuffield", "operator": "BUPA"}}, {"name": "Northumbria Specialist Emergency Care Hospital", "latitude": 55.0748359, "longitude": -1.5688766, "source": "osm", "_tags": {"addr:city": "Cramlington", "addr:country": "GB", "addr:county": "Northumberland", "addr:postcode": "NE23 6NZ", "addr:street": "Northumbria Way", "alt_name": "Northumbria Hospital", "amenity": "hospital", "emergency": "yes", "fhrs:id": "743890", "healthcare": "hospital", "name": "Northumbria Specialist Emergency Care Hospital", "ref:GB:cqc_location": "RTF86", "wheelchair": "yes", "wikidata": "Q23838614"}}, {"name": "Northgate Hospital", "latitude": 55.1847907, "longitude": -1.7089515, "source": "osm", "_tags": {"addr:city": "Morpeth", "addr:postcode": "NE61 3BP", "amenity": "hospital", "contact:phone": "+1912466800", "name": "Northgate Hospital", "ref:GB:cqc_location": "RX467"}}, {"name": "St George's Hospital", "latitude": 55.1780576, "longitude": -1.6825849, "source": "osm", "_tags": {"addr:city": "Morpeth", "addr:postcode": "NE61 2NU", "addr:suburb": "Cottingwood", "amenity": "hospital", "emergency": "no", "healthcare": "hospital", "healthcare:speciality": "psychiatry", "name": "St George's Hospital", "operator": "Cumbria, Northumberland, Tyne and Wear NHS Foundation Trust", "ref:GB:cqc_location": "RX4E2"}}, {"name": "Alnwick Infirmary", "latitude": 55.4109083, "longitude": -1.69718, "source": "osm", "_tags": {"addr:city": "Alnwick", "addr:postcode": "NE66 2NS", "addr:street": "Infirmary Drive", "amenity": "hospital", "building": "yes", "fhrs:id": "285924", "healthcare": "hospital", "name": "Alnwick Infirmary", "phone": "+44 344 811 8111", "website": "https://www.northumbria.nhs.uk/our-locations/alnwick-infirmary", "wikidata": "Q60764368"}}, {"name": "Redcar Primary Care Hospital", "latitude": 54.6007507, "longitude": -1.0697747, "source": "osm", "_tags": {"amenity": "hospital", "emergency": "no", "name": "Redcar Primary Care Hospital"}}, {"name": "Coquetdale Community Hospital", "latitude": 55.3068134, "longitude": -1.9138233, "source": "osm", "_tags": {"amenity": "hospital", "building": "hospital", "designation": "Community Hospital", "emergency": "no", "healthcare": "hospital", "name": "Coquetdale Community Hospital", "source": "User"}}, {"name": "Community Paramedic Service", "latitude": 55.3067526, "longitude": -1.9141491, "source": "osm", "_tags": {"amenity": "hospital", "designation": "NHS Ambulance Service", "emergency": "yes", "healthcare": "hospital", "name": "Community Paramedic Service", "source": "User"}}, {"name": "North Tyneside General Hospital", "latitude": 55.02514, "longitude": -1.4669678, "source": "osm", "_tags": {"addr:city": "North Shields", "addr:postcode": "NE29 8NH", "addr:street": "Rake Lane", "amenity": "hospital", "fhrs:id": "104963", "healthcare": "hospital", "name": "North Tyneside General Hospital", "phone": "+44 344 811 8111", "source": "Bing", "website": "https://www.northumbria.nhs.uk/", "wheelchair": "yes", "wikidata": "Q7057064", "wikipedia": "en:North Tyneside General Hospital"}}, {"name": "Flagg Court Primary Care Centre", "latitude": 54.9989662, "longitude": -1.4263942, "source": "osm", "_tags": {"addr:city": "South Shields", "addr:postcode": "NE33 2LS", "addr:street": "Flagg Court", "amenity": "hospital", "building": "yes", "emergency": "no", "name": "Flagg Court Primary Care Centre", "phone": "+44 191 283 2000", "website": "https://www.nhs.uk/Services/clinics/Overview/DefaultView.aspx?id=109087", "wheelchair": "yes"}}, {"name": "Sir GB Hunter Memorial Hospital", "latitude": 54.9961814, "longitude": -1.531265, "source": "osm", "_tags": {"addr:city": "Wallsend", "addr:postcode": "NE28 7PB", "addr:street": "The Green", "amenity": "hospital", "building": "yes", "name": "Sir GB Hunter Memorial Hospital", "phone": "+44 191 2205968", "website": "https://www.nhs.uk/Services/hospitals/Overview/DefaultView.aspx?id=1405", "wikidata": "Q26480706"}}, {"name": "Flatts Lane Centre", "latitude": 54.5456837, "longitude": -1.1469793, "source": "osm", "_tags": {"amenity": "hospital", "building": "hospital", "emergency": "no", "name": "Flatts Lane Centre", "operator": "nhs"}}, {"name": "St. Benedict’s Hospice and Centre for Specialist Palliative Care", "latitude": 54.8625787, "longitude": -1.3688434, "source": "osm", "_tags": {"addr:city": "Ryhope", "addr:postcode": "SR2 0NY", "addr:street": "St. Benedict's Way", "amenity": "hospital", "healthcare": "hospital", "name": "St. Benedict’s Hospice and Centre for Specialist Palliative Care", "phone": "+44 191 5128400", "website": "https://www.stbenedicts.co.uk/"}}, {"name": "Weardale Community Hospital", "latitude": 54.7481691, "longitude": -2.0177119, "source": "osm", "_tags": {"addr:city": "Bishop Auckland", "addr:postcode": "DL13 2JR", "addr:suburb": "Stanhope", "amenity": "hospital", "building": "yes", "fhrs:id": "304127", "name": "Weardale Community Hospital", "source": "OS_OpenData_StreetView"}}, {"name": "Ferndene - Children and Young Peoples Inpatient Service", "latitude": 54.9495596, "longitude": -1.8404929, "source": "osm", "_tags": {"addr:city": "Prudhoe", "addr:country": "GB", "addr:county": "Northumberland", "addr:housename": "Ferndene", "addr:postcode": "NE42 5PB", "addr:street": "Moor Road", "amenity": "hospital", "emergency": "no", "name": "Ferndene - Children and Young Peoples Inpatient Service", "note": "Inpatient centre which provides inpatient assessment and treatment for young people with complex health, behavioural and emotional needs including those with a learning disability", "operator": "NHS", "phone": "+44 1661 838 400", "website": "https://www.ntw.nhs.uk/sd.php?l=2&d=9&sm=37&id=277"}}, {"name": "Brooke House", "latitude": 54.8368414, "longitude": -1.4684659, "source": "osm", "_tags": {"addr:city": "Houghton-le-Spring", "addr:housename": "Brooke House", "addr:postcode": "DH5 8NB", "addr:street": "Hetton Road", "amenity": "hospital", "building": "yes", "check_date": "2025-09-11", "healthcare": "hospital", "name": "Brooke House", "operator": "NHS", "phone": "+44 191 584 2717"}}, {"name": "Houghton Day Unit", "latitude": 54.8372827, "longitude": -1.4688416, "source": "osm", "_tags": {"addr:city": "Houghton-le-Spring", "addr:housename": "Houghton Day Unit", "addr:postcode": "DH5 8PF", "addr:street": "Hetton Road", "amenity": "hospital", "building": "yes", "check_date": "2025-09-11", "healthcare": "hospital", "name": "Houghton Day Unit", "operator": "NHS"}}, {"name": "One-Life Middlesbrough", "latitude": 54.5662847, "longitude": -1.2401274, "source": "osm", "_tags": {"amenity": "hospital", "building": "yes", "healthcare": "hospital", "name": "One-Life Middlesbrough"}}, {"name": "Bishop Auckland General Hospital", "latitude": 54.6559287, "longitude": -1.6786898, "source": "osm", "_tags": {"addr:city": "Bishop Auckland", "addr:postcode": "DL14 6AD", "addr:street": "Cockton Hill Road", "amenity": "hospital", "building": "hospital", "emergency": "no", "fhrs:id": "303830", "healthcare": "hospital", "name": "Bishop Auckland General Hospital", "phone": "+44 1388 455000", "website": "https://www.nhs.uk/Services/hospitals/Overview/DefaultView.aspx?id=1817", "wikidata": "Q4917490"}}, {"name": "Auckland Park Hospital", "latitude": 54.6551777, "longitude": -1.6832678, "source": "osm", "_tags": {"addr:city": "Bishop Auckland", "addr:postcode": "DL14 6AE", "addr:street": "Westfield Road", "amenity": "hospital", "fhrs:id": "303818", "healthcare": "hospital", "name": "Auckland Park Hospital", "website": "https://www.tewv.nhs.uk/locations/auckland-park-hospital/"}}, {"name": "Richardson Hospital", "latitude": 54.5468329, "longitude": -1.9168329, "source": "osm", "_tags": {"addr:city": "Barnard Castle", "addr:postcode": "DL12 8ET", "addr:street": "John Street", "amenity": "hospital", "fhrs:id": "304419", "healthcare": "hospital", "name": "Richardson Hospital", "not:addr:postcode": "DL12 8HW", "phone": "+44 1833 696 500", "website": "https://www.cddft.nhs.uk/our-hospitals/richardson-hospital.aspx"}}, {"name": "Hundens Lane Day Hospital", "latitude": 54.5247157, "longitude": -1.5372523, "source": "osm", "_tags": {"addr:city": "Darlington", "addr:postcode": "DL1 1JE", "addr:street": "Hundens Lane", "amenity": "hospital", "name": "Hundens Lane Day Hospital", "phone": "+44 1325 380100", "website": "https://www.nhs.uk/Services/hospitals/Overview/DefaultView.aspx?id=88869"}}, {"name": "Washington Primary Care Centre", "latitude": 54.8980378, "longitude": -1.5290877, "source": "osm", "_tags": {"addr:city": "Washington", "addr:postcode": "NE38 7QZ", "addr:street": "Parkway", "amenity": "hospital", "name": "Washington Primary Care Centre", "phone": "+44 191 502 7569", "website": "https://www.washingtonucc.nhs.uk/"}}, {"name": "Carter Bequest Hospital, Middlesbrough", "latitude": 54.5545334, "longitude": -1.2492303, "source": "osm", "_tags": {"amenity": "hospital", "healthcare": "hospital", "name": "Carter Bequest Hospital, Middlesbrough"}}, {"name": "Primrose Hill Community Hospital", "latitude": 54.9676718, "longitude": -1.4844247, "source": "osm", "_tags": {"addr:city": "Jarrow", "addr:postcode": "NE32 5HA", "addr:street": "Primrose Terrace", "amenity": "hospital", "name": "Primrose Hill Community Hospital", "phone": "+44 191 451 6375", "website": "https://www.nhs.uk/Services/hospitals/Overview/DefaultView.aspx?id=RE9GC"}}, {"name": "Bensham Hospital", "latitude": 54.9449581, "longitude": -1.6156849, "source": "osm", "_tags": {"addr:city": "Gateshead", "addr:postcode": "NE8 4YL", "addr:street": "Fontwell Drive", "addr:suburb": "Teams", "amenity": "hospital", "fhrs:id": "339125", "name": "Bensham Hospital", "phone": "+44 191 482 0000", "source:addr": "FHRS Open Data", "website": "https://www.nhs.uk/Services/hospitals/Overview/DefaultView.aspx?id=2250", "wikidata": "Q30292918"}}, {"name": "Dunston Hill Hospital", "latitude": 54.9464737, "longitude": -1.6591853, "source": "osm", "_tags": {"addr:city": "Gateshead", "addr:postcode": "NE11 9QT", "addr:street": "Dunston Hill", "amenity": "hospital", "name": "Dunston Hill Hospital", "phone": "+44 191 482 0000", "website": "https://www.nhs.uk/Services/hospitals/Overview/DefaultView.aspx?id=1475"}}, {"name": "Nuffield Health Newcastle Hospital", "latitude": 54.9869714, "longitude": -1.6052044, "source": "osm", "_tags": {"addr:city": "Newcastle upon Tyne", "addr:postcode": "NE2 1JP", "addr:street": "Clayton Road", "amenity": "hospital", "building": "hospital", "contact:website": "https://www.nuffieldhealth.com/hospitals/newcastle-upon-tyne", "emergency": "no", "name": "Nuffield Health Newcastle Hospital", "operator": "Nuffield Health", "source": "OS_OpenData_StreetView"}}, {"name": "The Rutherford Cancer Centre North East", "latitude": 55.1549913, "longitude": -1.5751617, "source": "osm", "_tags": {"addr:city": "Bedlington", "addr:postcode": "NE22 7FD", "alt_name": "Rutherford Cancer Centre", "amenity": "hospital", "fhrs:id": "1049026", "healthcare": "hospital", "healthcare:speciality": "radiotherapy;radiology;diagnostic_radiology", "man_made": "particle_accelerator", "name": "The Rutherford Cancer Centre North East", "operator": "Proton Partners International Limited", "particle_accelerator": "circular", "substance": "proton"}}, {"name": "Molineux Street NHS Centre", "latitude": 54.9773838, "longitude": -1.5832629, "source": "osm", "_tags": {"addr:city": "Newcastle Upon Tyne", "addr:postcode": "NE6 1SG", "addr:street": "Molineux Street", "amenity": "hospital", "emergency": "no", "healthcare": "hospital", "name": "Molineux Street NHS Centre", "phone": "+44 191 275 5740", "toilets:wheelchair": "yes", "website": "http://www.thornfieldmedicalgroup.nhs.uk/", "wheelchair": "yes"}}, {"name": "Walkergate Park Hospital", "latitude": 54.9889552, "longitude": -1.5620519, "source": "osm", "_tags": {"addr:city": "Newcastle upon Tyne", "addr:postcode": "NE6 4QD", "addr:street": "Benfield Road", "amenity": "hospital", "emergency": "no", "healthcare": "hospital", "healthcare:speciality": "neurology", "name": "Walkergate Park Hospital", "phone": "+44 191 287 5000", "website": "https://www.ntw.nhs.uk/sites.php?site=4", "wheelchair": "limited", "wikidata": "Q30265253"}}, {"name": "North End House", "latitude": 54.7850797, "longitude": -1.5906516, "source": "osm", "_tags": {"amenity": "hospital", "emergency": "no", "name": "North End House"}}, {"name": "Holmeside and Parkway Medical Groups", "latitude": 54.995976, "longitude": -1.7165006, "source": "osm", "_tags": {"amenity": "hospital", "emergency": "no", "healthcare": "hospital", "healthcare:speciality": "general", "name": "Holmeside and Parkway Medical Groups", "operator": "NHS", "source": "Bing"}}, {"name": "Wansbeck General Hospital", "latitude": 55.1841381, "longitude": -1.5451347, "source": "osm", "_tags": {"addr:city": "Ashington", "addr:county": "Northumberland", "addr:postcode": "NE63 9JJ", "addr:street": "Woodhorn Lane", "amenity": "hospital", "contact:phone": "+44844 811 8111", "fhrs:id": "288825", "name": "Wansbeck General Hospital", "ref:GB:cqc_location": "RTFED", "wikidata": "Q7968066"}}, {"name": "Tees Valley Hospital", "latitude": 54.5464242, "longitude": -1.2466938, "source": "osm", "_tags": {"amenity": "hospital", "building": "yes", "building:levels": "3", "emergency": "no", "healthcare": "hospital", "name": "Tees Valley Hospital", "operator": "Ramsay Health Care", "operator:type": "private", "source": "Bing;local knowledge", "website": "https://www.ramsayhealth.co.uk/hospitals/tees-valley-hospital", "wikidata": "Q88370159"}}, {"name": "Sedgefield Community Hospital", "latitude": 54.6627079, "longitude": -1.4514085, "source": "osm", "_tags": {"addr:city": "Stockton-on-Tees", "addr:country": "GB", "addr:postcode": "TS21 3EE", "addr:street": "Salters Lane", "addr:suburb": "Sedgefield", "amenity": "hospital", "healthcare": "hospital", "name": "Sedgefield Community Hospital"}}, {"name": "Shotley Bridge Hospital", "latitude": 54.8699532, "longitude": -1.8432603, "source": "osm", "_tags": {"addr:city": "Consett", "addr:postcode": "DH8 0NB", "addr:street": "Queens Road", "addr:suburb": "Blackhill", "amenity": "hospital", "fhrs:id": "302449", "healthcare": "hospital", "name": "Shotley Bridge Hospital", "source:addr": "FHRS Open Data", "wikidata": "Q30280656"}}, {"name": "Sunderland Children's Centre", "latitude": 54.8927253, "longitude": -1.4057641, "source": "osm", "_tags": {"amenity": "hospital", "healthcare": "hospital", "name": "Sunderland Children's Centre"}}, {"name": "Houghton Primary Care Centre", "latitude": 54.8443173, "longitude": -1.4757611, "source": "osm", "_tags": {"addr:city": "Houghton-le-Spring", "addr:postcode": "DH4 5GU", "addr:street": "Brinkburn Crescent", "amenity": "hospital", "emergency": "no", "fhrs:id": "652987", "healthcare": "hospital", "name": "Houghton Primary Care Centre", "source:addr": "FHRS Open Data"}}, {"name": "Spire Washington Hospital", "latitude": 54.8793425, "longitude": -1.5595674, "source": "osm", "_tags": {"addr:city": "Sunderland", "addr:postcode": "NE38 9JZ", "addr:street": "Picktree Lane", "amenity": "hospital", "emergency": "no", "healthcare": "hospital", "name": "Spire Washington Hospital", "operator": "Spire Healthcare", "operator:type": "private", "source:name": "survey"}}, {"name": "University Hospital of North Durham", "latitude": 54.7887224, "longitude": -1.5928755, "source": "osm", "_tags": {"addr:city": "Durham", "addr:postcode": "DH1 5TW", "addr:street": "North Road", "amenity": "hospital", "emergency": "yes", "fhrs:id": "1640505", "name": "University Hospital of North Durham", "note": "Boundary approximate", "ref:GB:cqc_location": "RXPCP", "source:addr": "FHRS Open Data", "wikidata": "Q20047284", "wikipedia": "en:University Hospital of North Durham"}}, {"name": "Hopewood Park Hospital", "latitude": 54.863965, "longitude": -1.3702645, "source": "osm", "_tags": {"addr:postcode": "SR2 0NB", "addr:street": "Waterworks Road", "amenity": "hospital", "emergency": "no", "healthcare": "hospital", "name": "Hopewood Park Hospital", "operator": "Cumbria, Northumberland, Tyne and Wear NHS Foundation Trust", "phone": "+44 191 566 7001", "website": "https://www.cntw.nhs.uk/locations/hopewood-park/"}}, {"name": "Roseberry Park", "latitude": 54.5560174, "longitude": -1.2171177, "source": "osm", "_tags": {"addr:city": "Middlesbrough", "addr:postcode": "TS4 3AF", "addr:street": "Marton Road", "amenity": "hospital", "beds": "365", "emergency": "no", "fhrs:id": "257529", "healthcare": "hospital", "name": "Roseberry Park", "phone": "+44 1642 837300", "wikidata": "Q54817998", "wikipedia": "en:Roseberry Park Hospital"}}, {"name": "Chester-le-Street Community Hospital", "latitude": 54.8511207, "longitude": -1.5748276, "source": "osm", "_tags": {"addr:city": "Chester-le-Street", "addr:postcode": "DH3 3AT", "addr:street": "Front Street", "amenity": "hospital", "emergency": "no", "fhrs:id": "302717", "healthcare": "hospital", "name": "Chester-le-Street Community Hospital", "phone": "+44 191 333 2333", "wikidata": "Q30293145", "wikipedia": "en:Chester-le-Street Hospita\\l"}}, {"name": "Monkton Hall", "latitude": 54.9662497, "longitude": -1.5034812, "source": "osm", "_tags": {"amenity": "hospital", "healthcare": "hospital", "name": "Monkton Hall"}}, {"name": "West Park Hospital", "latitude": 54.5432136, "longitude": -1.5912748, "source": "osm", "_tags": {"addr:city": "Darlington", "addr:postcode": "DL2 2TS", "addr:street": "Edward Pease Way", "amenity": "hospital", "fhrs:id": "232304", "name": "West Park Hospital", "phone": "+44 1325 552000", "website": "https://www.tewv.nhs.uk/site/", "wikidata": "Q7986167", "wikipedia": "en:West Park Hospital"}}, {"name": "The James Cook University Hospital", "latitude": 54.5520503, "longitude": -1.213327, "source": "osm", "_tags": {"addr:city": "Middlesbrough", "addr:postcode": "TS4 3BW", "addr:street": "Marton Road", "amenity": "hospital", "emergency": "yes", "healthcare": "hospital", "name": "The James Cook University Hospital", "operator": "South Tees Hospitals NHS Foundation Trust", "operator:type": "public", "wikidata": "Q6131686", "wikipedia": "en:James Cook University Hospital"}}, {"name": "Woodlands Hospital", "latitude": 54.5202241, "longitude": -1.5044712, "source": "osm", "_tags": {"addr:city": "Darlington", "addr:postcode": "DL1 4PL", "addr:street": "Morton Park Way", "amenity": "hospital", "fhrs:id": "761000", "healthcare": "hospital", "name": "Woodlands Hospital", "phone": "+44 1325 341700", "source": "Bing", "website": "https://www.bmihealthcare.co.uk/"}}, {"name": "Darlington Memorial Hospital", "latitude": 54.5306688, "longitude": -1.5638238, "source": "osm", "_tags": {"addr:city": "Darlington", "addr:postcode": "DL3 6HX", "addr:street": "Hollyhurst Road", "amenity": "hospital", "building": "yes", "emergency": "yes", "fhrs:id": "232232", "name": "Darlington Memorial Hospital", "source:addr": "FHRS Open Data", "type": "multipolygon", "wikidata": "Q5223989"}}, {"name": "Denmark St Surgery", "latitude": 54.5387908, "longitude": -1.5524001, "source": "osm", "_tags": {"amenity": "hospital", "building": "yes", "description": "Medical Practice", "healthcare": "hospital", "name": "Denmark St Surgery", "type": "multipolygon"}}, {"name": "Blyth Community Hospital", "latitude": 55.1277296, "longitude": -1.5172526, "source": "osm", "_tags": {"amenity": "hospital", "building": "yes", "healthcare": "hospital", "name": "Blyth Community Hospital", "ref:GB:cqc_location": "RTFDX", "type": "multipolygon"}}, {"name": "Blyth Health Centre", "latitude": 55.1279933, "longitude": -1.515614, "source": "osm", "_tags": {"amenity": "hospital", "building": "yes", "name": "Blyth Health Centre", "type": "multipolygon"}}, {"name": "St Nicholas Hospital", "latitude": 55.0062817, "longitude": -1.6342557, "source": "osm", "_tags": {"amenity": "hospital", "building": "yes", "name": "St Nicholas Hospital", "source": "Bing", "type": "multipolygon", "wikidata": "Q7594955"}}, {"name": "Sandwell Park Hospital", "latitude": 54.6920863, "longitude": -1.2129166, "source": "osm", "_tags": {"addr:city": "Hartlepool", "addr:postcode": "TS24 8LN", "addr:street": "Lancaster Road", "amenity": "hospital", "building": "yes", "contact:phone": "+44 1429 285601", "description": "Sandwell Park is a mental health hospital for adults and older people, in Hartlepool.", "emergency": "no", "healthcare": "hospital", "name": "Sandwell Park Hospital", "operator": "NHS", "operator:type": "government", "type": "multipolygon", "website": "https://www.tewv.nhs.uk/locations/sandwell-park/"}}, {"name": "Palmer Community Hospital", "latitude": 54.980689, "longitude": -1.4923344, "source": "osm", "_tags": {"addr:city": "Jarrow", "addr:postcode": "NE32 3UX", "addr:street": "Wear Street", "amenity": "hospital", "building": "yes", "emergency": "no", "name": "Palmer Community Hospital", "phone": "+44 191 402 8000", "type": "multipolygon", "website": "https://www.nhs.uk/Services/hospitals/Overview/DefaultView.aspx?id=668"}}]