[{"name": "Wojewódzki Szpital Specjalistyczny im. J. Korczaka", "latitude": 54.4511256, "longitude": 17.0615645, "source": "osm", "_tags": {"addr:housename": "Blok B", "amenity": "hospital", "building": "hospital", "healthcare": "hospital", "name": "Wojewódzki Szpital Specjalistyczny im. J. Korczaka"}}, {"name": "Samodzielny Publiczny Specjalistyczny Zakład Opieki Zdrowotnej w Lęborku", "latitude": 54.5382486, "longitude": 17.7515618, "source": "osm", "_tags": {"addr:city": "Lębork", "addr:housenumber": "13", "addr:postcode": "84-300", "addr:street": "Juliana Węgrzynowicza", "amenity": "hospital", "emergency": "yes", "healthcare": "hospital", "healthcare:speciality": "intensive;anaesthetics;surgery;internal;geriatrics;cardiology;gynaecology;neonatology;paediatrics;psychiatry;child_psychiatry;physiatry;emergency", "name": "Samodzielny Publiczny Specjalistyczny Zakład Opieki Zdrowotnej w Lęborku", "phone": "+48 59 863 52 83", "website": "https://www.szpital-lebork.com.pl/"}}, {"name": "Salus", "latitude": 54.4535697, "longitude": 17.0290163, "source": "osm", "_tags": {"amenity": "hospital", "email": "szpital@salus.com.pl", "healthcare": "hospital", "name": "Salus", "phone": "+48 59 848 90 59", "website": "https://www.szpitalsalus.pl"}}, {"name": "Centrum Zdrowia Psychicznego w Słupsku", "latitude": 54.4681731, "longitude": 17.0443641, "source": "osm", "_tags": {"amenity": "hospital", "healthcare": "hospital", "healthcare:speciality": "psychiatry", "name": "Centrum Zdrowia Psychicznego w Słupsku", "operator:type": "public", "phone": "+48598322555", "website": "http://psychiatria-slupsk.pl/"}}]