[{"name": "Strathcarron Hospice", "latitude": 56.0244195, "longitude": -3.9393207, "source": "osm", "_tags": {"addr:city": "Denny", "addr:postcode": "FK6 5HJ", "addr:street": "Randolph Hill", "amenity": "hospital", "name": "Strathcarron Hospice", "source": "OS_Streetview_Opendata", "wikidata": "Q7622034"}}, {"name": "Astley Ainslie Hospital", "latitude": 55.9287569, "longitude": -3.1978374, "source": "osm", "_tags": {"addr:city": "Edinburgh", "addr:housenumber": "133", "addr:postcode": "EH9 2HL", "addr:street": "Grange Loan", "amenity": "hospital", "healthcare": "hospital", "name": "Astley Ainslie Hospital", "phone": "+44 131 537 9000", "source": "NLS_OS_Edinburgh_map_1940s;Bing", "wikidata": "Q4810902", "wikipedia": "en:Astley Ainslie Hospital"}}, {"name": "Spire Murrayfield Hospital", "latitude": 55.9437762, "longitude": -3.2640546, "source": "osm", "_tags": {"amenity": "hospital", "name": "Spire Murrayfield Hospital"}}, {"name": "Woodburn House NHS", "latitude": 55.9275212, "longitude": -3.2024259, "source": "osm", "_tags": {"amenity": "hospital", "healthcare": "hospital", "name": "Woodburn House NHS"}}, {"name": "Western General Hospital (Edinburgh)", "latitude": 55.9623853, "longitude": -3.2347813, "source": "osm", "_tags": {"amenity": "hospital", "description": "Minor Injuries Only", "emergency": "no", "healthcare": "hospital", "name": "Western General Hospital (Edinburgh)", "wikidata": "Q7987867", "wikipedia": "en:Western General Hospital"}}, {"name": "Perth Royal Infirmary", "latitude": 56.39617, "longitude": -3.4551643, "source": "osm", "_tags": {"addr:city": "Perth", "addr:postcode": "PH1 1NX", "amenity": "hospital", "emergency": "yes", "fhrs:id": "924277", "healthcare": "hospital", "name": "Perth Royal Infirmary", "operator": "NHS Tayside", "source": "GPS, OS_OpenData_StreetView, NHS Website", "wikidata": "Q7170888", "wikipedia": "en:Perth Royal Infirmary"}}, {"name": "St Michael's Hospital", "latitude": 55.9748135, "longitude": -3.587277, "source": "osm", "_tags": {"amenity": "hospital", "healthcare": "hospital", "name": "St Michael's Hospital", "wikidata": "Q7590702", "wikipedia": "en:St Michael's Hospital, Linlithgow"}}, {"name": "Stirling Health and Care Village", "latitude": 56.1066222, "longitude": -3.9348007, "source": "osm", "_tags": {"addr:city": "Stirling", "addr:postcode": "FK8 2AU", "addr:street": "Livilands Gate", "amenity": "hospital", "emergency": "no", "healthcare": "hospital", "name": "Stirling Health and Care Village", "operator": "NHS Forth Valley", "operator:type": "public", "operator:wikidata": "Q6954136", "phone": "+44 1786 434000", "website": "https://nhsforthvalley.com/hospitals/stirling-health-and-care-village/", "wikidata": "Q85011535", "wikipedia": "en:Stirling Health and Care Village"}}, {"name": "Saint John's Hospital", "latitude": 55.8923647, "longitude": -3.5225829, "source": "osm", "_tags": {"amenity": "hospital", "emergency": "yes", "healthcare": "hospital", "name": "Saint John's Hospital", "operator": "NHS Lothian", "operator:type": "government", "wikidata": "Q7593593", "wikipedia": "en:St John's Hospital, Livingston"}}, {"name": "The State Hospital", "latitude": 55.6951703, "longitude": -3.6533231, "source": "osm", "_tags": {"addr:city": "Carstairs", "addr:postcode": "ML11 8RP", "addr:street": "Lampits Road", "alt_name": "Carstairs Prison", "amenity": "hospital", "emergency": "no", "healthcare": "hospital", "healthcare:speciality": "psychiatry", "name": "The State Hospital", "operator": "NHS Scotland", "operator:type": "government", "phone": "+44 1555 840293", "source": "OS_OpenData_StreetView", "website": "https://www.tsh.scot.nhs.uk/", "wikidata": "Q7603368", "wikipedia": "en:State Hospital"}}, {"name": "Lady Home Cottage Hospital", "latitude": 55.5582657, "longitude": -3.8389467, "source": "osm", "_tags": {"amenity": "hospital", "healthcare": "hospital", "name": "Lady Home Cottage Hospital"}}, {"name": "Stonehouse Hospital", "latitude": 55.6922559, "longitude": -3.9916281, "source": "osm", "_tags": {"addr:postcode": "ML9 3NT", "addr:street": "Strathaven Road", "amenity": "hospital", "emergency": "no", "healthcare": "hospital", "name": "Stonehouse Hospital", "source": "estimated", "wikidata": "Q87677528", "wikipedia": "en:Stonehouse Hospital"}}, {"name": "Lockhart Hospital", "latitude": 55.670075, "longitude": -3.7599057, "source": "osm", "_tags": {"amenity": "hospital", "healthcare": "hospital", "name": "Lockhart Hospital", "source": "bing"}}, {"name": "Clackmannanshire Community Healthcare Centre", "latitude": 56.1247115, "longitude": -3.7843976, "source": "osm", "_tags": {"addr:city": "Sauchie", "addr:postcode": "FK10 3JQ", "addr:street": "Hallpark Road", "amenity": "hospital", "emergency": "no", "healthcare": "hospital", "name": "Clackmannanshire Community Healthcare Centre", "operator": "NHS Forth Valley", "operator:type": "public", "operator:wikidata": "Q6954136", "phone": "+44 1259 215333", "website": "https://nhsforthvalley.com/hospitals/clackmannanshire-community-healthcare-centre/"}}, {"name": "Royal Infirmary of Edinburgh (Little France)", "latitude": 55.9221695, "longitude": -3.1345976, "source": "osm", "_tags": {"addr:city": "Edinburgh", "addr:housenumber": "51", "addr:postcode": "EH16 4SA", "addr:street": "Little France Crescent", "amenity": "hospital", "emergency": "yes", "fhrs:id": "663220", "healthcare": "hospital", "healthcare:speciality": "emergency;surgery", "name": "Royal Infirmary of Edinburgh (Little France)", "operator": "NHS Lothian", "operator:type": "public", "start_date": "1729", "wikidata": "Q3822734", "wikipedia": "en:Royal Infirmary of Edinburgh"}}, {"name": "Hay Lodge Hospital", "latitude": 55.6517815, "longitude": -3.1985016, "source": "osm", "_tags": {"addr:postcode": "EH45 8JG", "addr:street": "Neidpath Road", "amenity": "hospital", "fhrs:id": "55114", "healthcare": "hospital", "name": "Hay Lodge Hospital", "source:addr": "FHRS Open Data", "wikidata": "Q85011493"}}, {"name": "St Margaret's Hospital", "latitude": 56.2932786, "longitude": -3.7186904, "source": "osm", "_tags": {"addr:city": "Auchterarder", "addr:postcode": "PH3 1JH", "amenity": "hospital", "emergency": "no", "fhrs:id": "924259", "healthcare": "hospital", "name": "St Margaret's Hospital", "website": "https://www.nhstayside.scot.nhs.uk/GoingToHospital/OurPremisesA-Z/StMargaretsHospital/index.htm"}}, {"name": "Queen Margaret Hospital", "latitude": 56.0820988, "longitude": -3.4284653, "source": "osm", "_tags": {"addr:city": "Dunfermline", "addr:postcode": "KY12 0SU", "addr:street": "Whitefield Road", "amenity": "hospital", "emergency": "no", "healthcare": "hospital", "name": "Queen Margaret Hospital", "operator": "NHS Fife", "operator:type": "public", "operator:wikidata": "Q6954135", "wikidata": "Q7270437", "wikipedia": "en:Queen Margaret Hospital"}}, {"name": "Falkirk Community Hospital", "latitude": 55.9973504, "longitude": -3.7955357, "source": "osm", "_tags": {"addr:city": "Falkirk", "addr:street": "Westburn Avenue", "amenity": "hospital", "emergency": "no", "healthcare": "hospital", "name": "Falkirk Community Hospital", "operator": "NHS Forth Valley", "operator:type": "public", "operator:wikidata": "Q6954136", "source": "Bing", "wikidata": "Q65076847", "wikipedia": "en:Falkirk Community Hospital"}}, {"name": "Crieff Community Hospital", "latitude": 56.3702671, "longitude": -3.8425715, "source": "osm", "_tags": {"addr:city": "Crieff", "addr:postcode": "PH7 3HR", "addr:street": "King Street", "amenity": "hospital", "fhrs:id": "924257", "healthcare": "hospital", "name": "Crieff Community Hospital", "operator": "NHS Tayside", "operator:type": "public", "website": "https://www.nhstayside.scot.nhs.uk/GoingToHospital/OurPremisesA-Z/CrieffCommunityHospital/index.htm"}}, {"name": "Lothian Birth Centre", "latitude": 55.9224609, "longitude": -3.1364967, "source": "osm", "_tags": {"amenity": "clinic", "building": "hospital", "building:levels": "1", "healthcare": "hospital", "name": "Lothian Birth Centre"}}, {"name": "Bellsdyke Hospital", "latitude": 56.0354604, "longitude": -3.8173108, "source": "osm", "_tags": {"addr:city": "Larbert", "addr:housename": "Bellsdyke Hospital", "addr:postcode": "FK5 4WS", "addr:street": "Bellsdyke Road", "amenity": "hospital", "description": "Trystview is a 20 bedded mental health ward for patients aged 18-65 who require intermediate care or more intensive rehabilitation. Trystpark is a 18 bedded rehabilitation mental health ward for men with complex mental health needs who require care, treat", "emergency": "no", "healthcare": "hospital", "healthcare:speciality": "psychiatry", "name": "Bellsdyke Hospital", "operator": "NHS", "operator:type": "public", "operator:wikidata": "Q918396", "website": "https://nhsforthvalley.com/hospitals/bellsdyke-hospital/", "wikidata": "Q54869681", "wikipedia": "en:Bellsdyke Hospital"}}, {"name": "Forth Valley Royal Hospital", "latitude": 56.0255487, "longitude": -3.8475665, "source": "osm", "_tags": {"addr:city": "Larbert", "addr:country": "GB", "addr:postcode": "FK5 4WR", "addr:street": "Stirling Road", "amenity": "hospital", "check_date": "2025-07-13", "emergency": "yes", "healthcare": "hospital", "name": "Forth Valley Royal Hospital", "operator": "NHS Forth Valley", "operator:type": "public", "operator:wikidata": "Q6954136", "phone": "+44 1324 566 000", "website": "https://www.nhsforthvalley.com/forthvalleyroyal", "wikidata": "Q5472596", "wikipedia": "en:Forth Valley Royal Hospital"}}, {"name": "Lynebank Hospital", "latitude": 56.0778089, "longitude": -3.4131622, "source": "osm", "_tags": {"addr:city": "Dunfermline", "amenity": "hospital", "emergency": "no", "healthcare": "hospital", "name": "Lynebank Hospital", "operator": "NHS Fife", "operator:type": "public", "operator:wikidata": "Q6954135", "wikidata": "Q85011516", "wikipedia": "en:Lynebank Hospital"}}, {"name": "Kello Hospital", "latitude": 55.6225558, "longitude": -3.5203916, "source": "osm", "_tags": {"amenity": "hospital", "building": "hospital", "healthcare": "hospital", "name": "Kello Hospital", "operator": "NHS Scotland", "operator:type": "public", "wikidata": "Q87677523", "wikipedia": "en:Kello Hospital"}}, {"name": "Liberton Hospital", "latitude": 55.908624, "longitude": -3.1542503, "source": "osm", "_tags": {"addr:city": "Edinburgh", "addr:housenumber": "113", "addr:postcode": "EH16 6UB", "addr:street": "Lasswade Road", "amenity": "hospital", "healthcare": "hospital", "landuse": "healthcare", "name": "Liberton Hospital", "phone": "+44 131 536 7800", "source": "https://www.nhslothian.scot/goingtohospital/liberton-hospital", "wikidata": "Q20714039", "wikipedia": "en:Liberton Hospital"}}, {"name": "Bo'ness Hospital", "latitude": 56.0113377, "longitude": -3.6136519, "source": "osm", "_tags": {"addr:city": "Bo'ness", "addr:country": "GB", "addr:postcode": "EH51 0DQ", "addr:street": "Richmond Terrace", "amenity": "hospital", "emergency": "no", "healthcare": "hospital", "name": "Bo'ness Hospital", "operator": "NHS Forth Valley", "operator:type": "public", "operator:wikidata": "Q6954136", "website": "https://nhsforthvalley.com/hospitals/boness-community-hospital/", "wikidata": "Q85011470", "wikipedia": "en:Bo'ness Hospital"}}, {"name": "University Hospital Wishaw", "latitude": 55.7736502, "longitude": -3.9414597, "source": "osm", "_tags": {"addr:city": "Wishaw", "amenity": "hospital", "emergency": "yes", "healthcare": "hospital", "is_in": "North Lanarkshire", "name": "University Hospital Wishaw", "source": "survey", "wheelchair": "yes", "wikidata": "Q8027577", "wikipedia": "en:University Hospital Wishaw"}}, {"name": "Glenrothes Hospital", "latitude": 56.2052251, "longitude": -3.1821703, "source": "osm", "_tags": {"amenity": "hospital", "check_date": "2025-02-05", "emergency": "no", "healthcare": "hospital", "name": "Glenrothes Hospital", "operator": "NHS Fife", "operator:type": "public", "operator:wikidata": "Q6954135", "phone": "+44 1592 743505", "wheelchair": "yes", "wikidata": "Q85011483", "wikipedia": "en:Glenrothes Hospital"}}, {"name": "Victoria Hospital", "latitude": 56.1245891, "longitude": -3.1579657, "source": "osm", "_tags": {"addr:city": "Kirkcaldy", "addr:postcode": "KY2 5AH", "addr:street": "Hayfield Road", "amenity": "hospital", "emergency": "yes", "healthcare": "hospital", "name": "Victoria Hospital", "operator": "NHS Fife", "operator:type": "public", "operator:wikidata": "Q6954135", "phone": "+44 1592 643355", "start_date": "1967", "toilets:wheelchair": "yes", "wheelchair": "yes", "wikidata": "Q7926784", "wikipedia": "en:Victoria Hospital, Kirkcaldy"}}, {"name": "Tippethill Hospital", "latitude": 55.8765747, "longitude": -3.6876171, "source": "osm", "_tags": {"addr:place": "Tippethill", "addr:postcode": "EH48 3BQ", "amenity": "hospital", "fhrs:id": "587958", "name": "Tippethill Hospital", "source:addr": "FHRS Open Data", "wikidata": "Q7808921", "wikipedia": "en:Tippethill House Hospital"}}, {"name": "Royal Edinburgh Hospital", "latitude": 55.9275818, "longitude": -3.2182639, "source": "osm", "_tags": {"addr:city": "Edinburgh", "addr:postcode": "EH10 5HF", "addr:street": "Morningside Place", "amenity": "hospital", "emergency": "no", "healthcare": "hospital", "healthcare:speciality": "psychiatry;psychology;mental_health", "loc_name": "Royal Ed", "name": "Royal Edinburgh Hospital", "operator": "NHS Lothian", "operator:type": "public", "phone": "+44 131 537 6000", "start_date": "1809", "website": "https://www.nhslothian.scot/goingtohospital/royal-edinburgh-hospital/", "wheelchair": "yes", "wikidata": "Q7374135", "wikipedia": "en:Royal Edinburgh Hospital"}}, {"name": "Wester Moffat Hospital", "latitude": 55.8686226, "longitude": -3.9409319, "source": "osm", "_tags": {"amenity": "hospital", "emergency": "no", "healthcare": "hospital", "name": "Wester Moffat Hospital"}}, {"name": "University Hospital Monklands", "latitude": 55.8663217, "longitude": -4.0001752, "source": "osm", "_tags": {"addr:city": "Airdrie", "addr:postcode": "ML6 0JS", "addr:street": "Monkscourt Avenue", "amenity": "hospital", "emergency": "yes", "healthcare": "hospital", "name": "University Hospital Monklands", "website": "http://www.nhslanarkshire.org.uk/Hospitals/Monklands/Pages/default.aspx", "wheelchair": "yes", "wikidata": "Q6900917", "wikipedia": "en:University Hospital Monklands"}}, {"name": "Murray Royal Hospital", "latitude": 56.4008372, "longitude": -3.4133537, "source": "osm", "_tags": {"addr:city": "Perth", "addr:postcode": "PH2 7BH", "addr:street": "Muirhall Road", "amenity": "hospital", "emergency": "no", "fhrs:id": "924269", "healthcare": "hospital", "healthcare:speciality": "psychiatry", "name": "Murray Royal Hospital", "operator": "NHS Tayside", "wikidata": "Q65065133"}}, {"name": "Beckford Lodge", "latitude": 55.782513, "longitude": -4.0519709, "source": "osm", "_tags": {"addr:city": "Hamilton", "addr:postcode": "ML3 0AL", "addr:street": "Caird Street", "amenity": "hospital", "building": "yes", "healthcare": "hospital", "name": "Beckford Lodge", "operator": "NHS Lanarkshire"}}, {"name": "Midlothian Community Hospital", "latitude": 55.8804268, "longitude": -3.0901291, "source": "osm", "_tags": {"addr:housenumber": "70", "addr:postcode": "EH22 3ND", "addr:street": "Eskbank Road", "amenity": "hospital", "emergency": "no", "fhrs:id": "157909", "healthcare": "hospital", "name": "Midlothian Community Hospital", "source:addr": "FHRS Open Data", "wikidata": "Q6842578", "wikipedia": "en:Midlothian Community Hospital"}}, {"name": "BMI Kings Park Hospital", "latitude": 56.1073744, "longitude": -3.9546803, "source": "osm", "_tags": {"addr:postcode": "FK7 9JH", "addr:street": "Polmaise Road", "amenity": "hospital", "emergency": "no", "healthcare": "hospital", "name": "BMI Kings Park Hospital", "operator": "BMI Healthcare", "operator:type": "private", "operator:wikidata": "Q5531938", "website": "https://www.bmihealthcare.co.uk/hospitals/bmi-kings-park-hospital"}}, {"name": "Whyteman's Brae Hospital", "latitude": 56.1280149, "longitude": -3.1606656, "source": "osm", "_tags": {"amenity": "hospital", "emergency": "no", "healthcare": "hospital", "healthcare:speciality": "psychiatry", "name": "Whyteman's Brae Hospital", "operator": "NHS Fife", "operator:type": "public", "operator:wikidata": "Q6954135", "start_date": "1983", "wikidata": "Q85011543", "wikipedia": "en:Whyteman's Brae Hospital"}}, {"name": "Coathill Hospital", "latitude": 55.8489087, "longitude": -4.0260977, "source": "osm", "_tags": {"addr:city": "Coatbridge", "addr:street": "Hospital Street", "amenity": "hospital", "emergency": "no", "healthcare": "hospital", "name": "Coathill Hospital", "postal_code": "ML5", "source": "survey", "wheelchair": "yes"}}, {"name": "Airbles Road Centre", "latitude": 55.7825737, "longitude": -3.983115, "source": "osm", "_tags": {"amenity": "hospital", "emergency": "no", "healthcare": "hospital", "name": "Airbles Road Centre"}}, {"name": "Royal Hospital for Children and Young People", "latitude": 55.9208958, "longitude": -3.1395955, "source": "osm", "_tags": {"addr:city": "Edinburgh", "addr:housenumber": "50", "addr:postcode": "EH16 4TJ", "addr:street": "Little France Crescent", "alt_name": "RHCYP", "amenity": "hospital", "emergency": "yes", "healthcare": "hospital", "max_age": "18", "name": "Royal Hospital for Children and Young People", "operator": "NHS Lothian", "website": "https://children.nhslothian.scot/the-rhcyp/"}}, {"name": "Castle Craig Hospital", "latitude": 55.6829633, "longitude": -3.3735332, "source": "osm", "_tags": {"addr:city": "Blyth Bridge", "addr:postcode": "EH46 7DH", "amenity": "hospital", "capacity:patients": "82", "contact:email": "info@castlecraig.co.uk", "contact:phone": "+44 1721 728118", "contact:website": "https://castlecraig.co.uk/", "emergency": "no", "healthcare": "rehabilitation", "healthcare:speciality": "psychiatry", "name": "Castle Craig Hospital", "operator": "Castle Craig Hospital Ltd", "operator:type": "private", "wikidata": "Q5050039", "wikipedia": "en:Castle Craig Hospital"}}, {"name": "Shawfair Park Hospital", "latitude": 55.9088219, "longitude": -3.0977132, "source": "osm", "_tags": {"addr:city": "Dalkeith", "addr:postcode": "EH22 1FE", "addr:street": "Easter Shawfair", "amenity": "hospital", "emergency": "yes", "healthcare": "hospital", "name": "Shawfair Park Hospital", "operator": "Spire", "operator:type": "private"}}, {"name": "Cleland Hospital", "latitude": 55.8027623, "longitude": -3.9073982, "source": "osm", "_tags": {"amenity": "hospital", "healthcare": "hospital", "name": "Cleland Hospital"}}, {"name": "St. Ellen’s Private Hospital", "latitude": 55.8805646, "longitude": -3.5313613, "source": "osm", "_tags": {"amenity": "hospital", "area": "yes", "emergency": "no", "healthcare": "hospital", "name": "St. Ellen’s Private Hospital"}}, {"name": "Ellen's Glen House", "latitude": 55.9094642, "longitude": -3.1494516, "source": "osm", "_tags": {"addr:city": "Edinburgh", "addr:housenumber": "72", "addr:postcode": "EH16 6FF", "addr:street": "Carnbee Avenue", "amenity": "hospital", "emergency": "no", "healthcare": "hospital", "healthcare:speciality": "geriatrics;psychiatry", "name": "Ellen's Glen House", "operator": "NHS Lothian", "operator:type": "public", "phone": "+44 131 664 8664", "source": "https://www.nhslothian.scot/goingtohospital/ellens-glen-house/", "wikidata": "Q5364707", "wikipedia": "en:Ellen's Glen House"}}, {"name": "Chalmers Centre", "latitude": 55.9445195, "longitude": -3.1983556, "source": "osm", "_tags": {"amenity": "hospital", "healthcare": "hospital", "name": "Chalmers Centre", "operator": "NHS Lothian", "operator:type": "public", "source": "Bing;survey", "wikidata": "Q48814992", "wikipedia": "en:Chalmers Hospital, Edinburgh"}}, {"name": "Princess Alexandra Eye Pavilion", "latitude": 55.94412, "longitude": -3.1981965, "source": "osm", "_tags": {"addr:city": "Edinburgh", "addr:postcode": "EH3 9HA", "addr:street": "Chalmers Street", "amenity": "hospital", "emergency": "no", "healthcare": "hospital", "healthcare:speciality": "ophthalmology", "name": "Princess Alexandra Eye Pavilion", "note": "Closed for repairs", "operator": "NHS Lothian", "operator:type": "public", "source": "Bing;survey", "wikidata": "Q7244518"}}, {"name": "Lauriston Building", "latitude": 55.9443689, "longitude": -3.1968024, "source": "osm", "_tags": {"addr:city": "Edinburgh", "addr:housenumber": "41", "addr:postcode": "EH3 9EN", "addr:street": "Lauriston Place", "amenity": "hospital", "emergency": "no", "healthcare": "hospital", "healthcare:speciality": "dentistry;dermatology", "name": "Lauriston Building", "operator": "NHS Lothian", "operator:type": "public", "wikidata": "Q6501856", "wikipedia": "en:Lauriston Building"}}, {"name": "Leith Community Treatment Centre", "latitude": 55.9714237, "longitude": -3.1760116, "source": "osm", "_tags": {"addr:city": "Edinburgh", "addr:postcode": "EH6 5JQ", "addr:street": "Junction Place", "amenity": "hospital", "emergency": "no", "healthcare": "hospital", "name": "Leith Community Treatment Centre", "operator": "NHS Lothian", "operator:type": "public", "source": "Bing", "wikidata": "Q6520385", "wikipedia": "en:Leith Community Treatment Centre"}}, {"name": "Findlay House", "latitude": 55.9680261, "longitude": -3.1442661, "source": "osm", "_tags": {"amenity": "hospital", "description": "continued care hospital with two wards (Fillyside for those with physical needs and Prospect Bank for those with dementia/alzheimers needs)", "emergency": "no", "healthcare": "hospital", "name": "Findlay House", "operator": "NHS Lothian", "operator:type": "public", "phone": "+44 131 454 2200"}}, {"name": "Simpson Centre", "latitude": 55.9228165, "longitude": -3.1360855, "source": "osm", "_tags": {"building": "hospital", "healthcare": "hospital", "name": "Simpson Centre", "type": "multipolygon"}}]