[{"name": "Palangos reabilitacijos ligoninė", "latitude": 55.9355852, "longitude": 21.0760009, "source": "osm", "_tags": {"addr:city": "Palanga", "addr:contact": "yes", "addr:housenumber": "153", "addr:postcode": "00163", "addr:street": "Vytauto g.", "amenity": "hospital", "email": "info@prl.lt", "name": "Palangos reabilitacijos ligoninė", "phone": "+370 460 41367", "website": "https://www.prl.lt/", "wheelchair": "yes"}}, {"name": "Klaipėdos apskrities ligoninė, Skuodo filialas", "latitude": 56.2738007, "longitude": 21.529265, "source": "osm", "_tags": {"amenity": "hospital", "emergency": "yes", "healthcare": "hospital", "name": "Klaipėdos apskrities ligoninė, Skuodo filialas"}}, {"name": "Medicinos Centras", "latitude": 55.4642595, "longitude": 21.462597, "source": "osm", "_tags": {"addr:city": "Saugos", "addr:contact": "yes", "addr:housenumber": "5", "addr:street": "Mažosios Lietuvos g.", "amenity": "hospital", "name": "Medicinos Centras"}}, {"name": "Priekulės Pirminės Sveikatos Priežiuros Centras", "latitude": 55.5562758, "longitude": 21.318854, "source": "osm", "_tags": {"addr:city": "Priekulė", "addr:contact": "yes", "addr:housenumber": "14", "addr:street": "Klaipėdos g.", "amenity": "hospital", "name": "Priekulės Pirminės Sveikatos Priežiuros Centras"}}, {"name": "Šventosios Ambulatorija", "latitude": 56.0284561, "longitude": 21.0871641, "source": "osm", "_tags": {"addr:city": "Palanga", "addr:contact": "yes", "addr:housenumber": "4", "addr:street": "Žuvėdrų g.", "amenity": "hospital", "healthcare": "hospital", "name": "Šventosios Ambulatorija"}}, {"name": "Reabilitacijos Centras Vyturys", "latitude": 55.9077337, "longitude": 21.0686793, "source": "osm", "_tags": {"addr:city": "Palanga", "addr:contact": "yes", "addr:housenumber": "20", "addr:street": "S. Dariaus ir S. Girėno g.", "amenity": "hospital", "name": "Reabilitacijos Centras Vyturys"}}, {"name": "Rietavo Ligoninė", "latitude": 55.727997, "longitude": 21.9318978, "source": "osm", "_tags": {"addr:city": "Rietavas", "addr:contact": "yes", "addr:housenumber": "8", "addr:street": "Parko g.", "amenity": "hospital", "name": "Rietavo Ligoninė"}}, {"name": "Rietavo Šeimos Daktaras", "latitude": 55.7251985, "longitude": 21.929251, "source": "osm", "_tags": {"addr:city": "Rietavas", "addr:contact": "yes", "addr:housenumber": "1A", "addr:street": "Paupio g.", "amenity": "hospital", "name": "Rietavo Šeimos Daktaras"}}, {"name": "Onkologinė ligoninė", "latitude": 55.7567301, "longitude": 21.1280627, "source": "osm", "_tags": {"amenity": "hospital", "healthcare": "hospital", "healthcare:speciality": "oncology", "name": "Onkologinė ligoninė"}}, {"name": "Vaiņodes doktorāts", "latitude": 56.4175029, "longitude": 21.8548888, "source": "osm", "_tags": {"addr:city": "Vaiņode", "addr:country": "LV", "addr:district": "Dienvidkurzemes novads", "addr:housenumber": "1A", "addr:postcode": "LV-3435", "addr:street": "Raiņa iela", "addr:subdistrict": "Vaiņodes pagasts", "amenity": "hospital", "healthcare": "hospital", "name": "Vaiņodes doktorāts", "ref:LV:addr": "103836117"}}, {"name": "Klaipėdos psichikos sveikatos centras", "latitude": 55.7058551, "longitude": 21.1397158, "source": "osm", "_tags": {"addr:city": "Klaipėda", "addr:housenumber": "3", "addr:postcode": "91231", "addr:street": "Galinio Pylimo g.", "amenity": "hospital", "building": "yes", "healthcare": "hospital", "name": "Klaipėdos psichikos sveikatos centras", "website": "https://kpsc.lt/"}}, {"name": "Švėkšnos psichiatrinė ligoninė", "latitude": 55.5209447, "longitude": 21.6248286, "source": "osm", "_tags": {"addr:city": "Švėkšna", "addr:housenumber": "27", "addr:postcode": "99382", "addr:street": "Aušros g.", "amenity": "hospital", "building": "yes", "name": "Švėkšnos psichiatrinė ligoninė"}}, {"name": "Plungės ligoninė", "latitude": 55.8988425, "longitude": 21.8282729, "source": "osm", "_tags": {"addr:city": "Plungė", "addr:housenumber": "89", "addr:postcode": "90143", "addr:street": "J. Tumo-Vaižganto g.", "amenity": "hospital", "building": "yes", "name": "Plungės ligoninė"}}, {"name": "", "latitude": 55.8968864, "longitude": 21.2542934, "source": "osm", "_tags": {"amenity": "hospital", "building": "yes", "building:levels": "2", "roof:orientation": "along", "roof:shape": "hipped"}}, {"name": "", "latitude": 55.8962996, "longitude": 21.2536463, "source": "osm", "_tags": {"addr:city": "Kretinga", "addr:housenumber": "1", "addr:postcode": "97106", "addr:street": "Žemaitės al.", "amenity": "hospital", "building": "yes", "emergency": "yes"}}, {"name": "Jūrininkų ligoninės Palangos skyrius", "latitude": 55.9367766, "longitude": 21.0870995, "source": "osm", "_tags": {"addr:city": "Palanga", "addr:housenumber": "76", "addr:postcode": "00163", "addr:street": "Klaipėdos pl.", "amenity": "hospital", "building": "yes", "name": "Jūrininkų ligoninės Palangos skyrius", "website": "https://www.jurlig.lt/departamentas/palangos-departamentas/"}}, {"name": "Dienos chirurgijos centras", "latitude": 55.7123969, "longitude": 21.1276816, "source": "osm", "_tags": {"addr:city": "Klaipėda", "addr:housenumber": "9", "addr:postcode": "92127", "addr:street": "Puodžių g.", "amenity": "hospital", "building": "yes", "healthcare": "hospital", "name": "Dienos chirurgijos centras", "website": "https://www.rkligonine.lt/dienos-chirurgijos-centras-puodziu-g-9-bokstu-g-6"}}, {"name": "Klaipėdos medicininės slaugos ligoninė", "latitude": 55.7158886, "longitude": 21.1349195, "source": "osm", "_tags": {"addr:city": "Klaipėda", "addr:housenumber": "15", "addr:postcode": "92141", "addr:street": "K. Donelaičio g.", "amenity": "hospital", "building": "yes", "name": "Klaipėdos medicininės slaugos ligoninė", "phone": "+370 46 410 071"}}, {"name": "", "latitude": 56.3524518, "longitude": 21.3247504, "source": "osm", "_tags": {"addr:city": "Bārta", "addr:country": "LV", "addr:district": "Dienvidkurzemes novads", "addr:housename": "Ambulance", "addr:postcode": "LV-3482", "addr:subdistrict": "Bārtas pagasts", "amenity": "hospital", "ref:LV:addr": "103629685"}}, {"name": "Respublikinė Klaipėdos ligoninė", "latitude": 55.7179235, "longitude": 21.1331886, "source": "osm", "_tags": {"addr:city": "Klaipėda", "addr:contact": "yes", "addr:housenumber": "3", "addr:street": "S. Nėries g.", "amenity": "hospital", "emergency": "yes", "name": "Respublikinė Klaipėdos ligoninė", "name:lt": "Respublikinė Klaipėdos ligoninė", "name:ru": "Клайпедская республиканская больница", "name:uk": "Клайпедська республіканська лікарня", "phone": "+370 46 410 688", "website": "https://www.rkligonine.lt/", "wheelchair": "yes", "wikidata": "Q15126047"}}, {"name": "Klaipėdos vaikų ligoninė", "latitude": 55.7146041, "longitude": 21.1355807, "source": "osm", "_tags": {"addr:city": "Klaipėda", "addr:contact": "yes", "addr:housenumber": "7", "addr:street": "K. Donelaičio g.", "amenity": "hospital", "emergency": "yes", "name": "Klaipėdos vaikų ligoninė", "phone": "+37046484144;+37046484120", "website": "https://www.kvl.lt/index.php/lt/", "wheelchair": "yes"}}, {"name": "Respublikinės Klaipėdos ligoninės Psichiatrijos filialas", "latitude": 55.707681, "longitude": 21.1438949, "source": "osm", "_tags": {"addr:city": "Klaipėda", "addr:contact": "yes", "addr:housenumber": "6A", "addr:postcode": "91251", "addr:street": "Bangų g.", "amenity": "hospital", "healthcare": "hospital", "name": "Respublikinės Klaipėdos ligoninės Psichiatrijos filialas", "website": "https://www.rkligonine.lt/psichiatrijos-filialas"}}, {"name": "Rietavo veterinarinė sanitarija", "latitude": 55.703919, "longitude": 21.909437, "source": "osm", "_tags": {"addr:city": "Kalakutiškė", "addr:housenumber": "27", "addr:street": "Žadvainų g.", "amenity": "hospital", "building": "yes", "healthcare": "hospital", "name": "Rietavo veterinarinė sanitarija"}}, {"name": "Klaipėdos rajono savivaldybės VŠĮ Gargždų ligoninė", "latitude": 55.7095982, "longitude": 21.4017755, "source": "osm", "_tags": {"addr:city": "Gargždai", "addr:housenumber": "2", "addr:street": "Tilto g.", "amenity": "hospital", "building": "yes", "emergency": "yes", "name": "Klaipėdos rajono savivaldybės VŠĮ Gargždų ligoninė", "phone": "Priėmimo - skubios pagalbos skyriaus tel. nr.: 8 46 452166 Registratūros tel. nr.: 8 46 453942", "type": "multipolygon", "wheelchair": "yes"}}, {"name": "Klaipėdos universiteto ligoninė", "latitude": 55.75481, "longitude": 21.1262856, "source": "osm", "_tags": {"amenity": "hospital", "emergency": "yes", "landuse": "residential", "name": "Klaipėdos universiteto ligoninė", "type": "multipolygon", "url": "http://www.kulig.lt", "wikidata": "Q15133255"}}]