[{"name": "Fødeafsnit", "latitude": 56.1930244, "longitude": 10.1705851, "source": "osm", "_tags": {"fvst:navnelbnr": "546898", "healthcare": "hospital", "name": "Fødeafsnit", "ref:DK:cvr": "29190925", "ref:DK:cvr:pnummer": "1003351542", "website": "https://www.auh.dk/afdelinger/kvindesygdomme-og-fodsler/foedeafsnit/"}}, {"name": "Sengeafsnit 2 Indgang 3, stuen A2.052", "latitude": 56.1928424, "longitude": 10.1718521, "source": "osm", "_tags": {"amenity": "hospital", "healthcare": "hospital", "name": "Sengeafsnit 2 Indgang 3, stuen A2.052"}}, {"name": "Aleris Aarhus", "latitude": 56.1894577, "longitude": 10.1808069, "source": "osm", "_tags": {"amenity": "hospital", "emergency": "no", "healthcare": "hospital", "name": "Aleris Aarhus", "operator:type": "private", "website": "https://www.aleris.dk"}}, {"name": "Grenaa Sundhedshus", "latitude": 56.418324, "longitude": 10.8633403, "source": "osm", "_tags": {"amenity": "hospital", "healthcare": "hospital", "name": "Grenaa Sundhedshus", "name:cs": "Nemocnice Grenaa", "operator": "Regionshospitalet Randers", "wikidata": "Q12314281", "wikipedia": "da:Grenaa Sundhedshus"}}, {"name": "Aarhus Universitetshospital", "latitude": 56.1908197, "longitude": 10.1705612, "source": "osm", "_tags": {"alt_name": "Skejby Sygehus", "amenity": "hospital", "emergency": "yes", "fvst:navnelbnr": "1397308", "healthcare": "hospital", "name": "Aarhus Universitetshospital", "name:en": "Aarhus University Hospital", "old_name": "Skejby Sygehus", "ref:DK:cvr": "29190925", "ref:DK:cvr:pnummer": "1003351542", "short_name": "AUH", "toilets:wheelchair": "yes", "website": "https://www.auh.dk/afdelinger/born-og-unge/kontakt/born-og-unge-klinik/", "wheelchair": "yes", "wikidata": "Q12300343", "wikipedia": "da:Aarhus Universitetshospital"}}, {"name": "Mølholm", "latitude": 56.1181814, "longitude": 10.1905366, "source": "osm", "_tags": {"amenity": "hospital", "building": "hospital", "fvst:name": "PRIVATHOSPITALET MØLHOLM - AARHUS", "healthcare": "hospital", "name": "Mølholm", "ref:DK:cvr": "35206264", "ref:DK:cvr:pnummer": "1020039449", "website": "https://www.molholm.dk/"}}, {"name": "Samsø Sundheds- og Akuthus", "latitude": 55.8308623, "longitude": 10.5910858, "source": "osm", "_tags": {"amenity": "hospital", "check_date": "2024-08-20", "emergency": "yes", "name": "Samsø Sundheds- og Akuthus", "wikidata": "Q12334459", "wikipedia": "da:Samsø Sundheds- og Akuthus"}}]