[{"name": "Glasgow Dental Hospital", "latitude": 55.8660617, "longitude": -4.2655792, "source": "osm", "_tags": {"addr:city": "Glasgow", "addr:housenumber": "378", "addr:postcode": "G2 3JZ", "addr:street": "Sauchiehall Street", "amenity": "hospital", "check_date": "2025-06-08", "emergency": "yes", "healthcare": "hospital", "healthcare:speciality": "dentist;orthodontics", "name": "Glasgow Dental Hospital", "operator": "NHS Greater Glasgow and Clyde", "phone": "+44 141 211 9600", "source": "survey", "wikidata": "Q5566797", "wikipedia": "en:Glasgow Dental Hospital and School"}}, {"name": "The Lady Margaret Hospital", "latitude": 55.7612798, "longitude": -4.9226837, "source": "osm", "_tags": {"addr:postcode": "KA28 0HF", "amenity": "hospital", "beds": "10", "emergency": "no", "healthcare": "hospital", "name": "The Lady Margaret Hospital", "operator": "NHS Ayrshire & Arran", "phone": "+44 1475 530307", "website": "https://www.nhsaaa.net/hospitals/lady-margaret-hospital/", "wikidata": "Q42887891", "wikipedia": "en:Lady Margaret Hospital"}}, {"name": "Ward 4B, Leverndale Hospital", "latitude": 55.8362902, "longitude": -4.3687587, "source": "osm", "_tags": {"amenity": "hospital", "name": "Ward 4B, Leverndale Hospital", "phone": "+44 141 211 6511"}}, {"name": "Royal Alexandra Hospital", "latitude": 55.8351217, "longitude": -4.4358116, "source": "osm", "_tags": {"amenity": "hospital", "healthcare": "hospital", "name": "Royal Alexandra Hospital", "wikidata": "Q7373656", "wikipedia": "en:Royal Alexandra Hospital, Paisley"}}, {"name": "Glasgow Royal Infirmary", "latitude": 55.8645686, "longitude": -4.2329782, "source": "osm", "_tags": {"amenity": "hospital", "emergency": "yes", "healthcare": "hospital", "name": "Glasgow Royal Infirmary", "website": "https://www.nhsinform.scot/scotlands-service-directory/aes-and-minor-injuries-units/9289%201glc1116", "wikidata": "Q5566905", "wikipedia": "en:Glasgow Royal Infirmary"}}, {"name": "Inverclyde Royal Hospital", "latitude": 55.9437863, "longitude": -4.8094292, "source": "osm", "_tags": {"amenity": "hospital", "emergency": "yes", "healthcare": "hospital", "name": "Inverclyde Royal Hospital", "wikidata": "Q6060060", "wikipedia": "en:Inverclyde Royal Hospital"}}, {"name": "Gartnavel General Hospital", "latitude": 55.8820382, "longitude": -4.3133264, "source": "osm", "_tags": {"amenity": "hospital", "check_date": "2024-08-30", "emergency": "no", "healthcare": "hospital", "name": "Gartnavel General Hospital", "note": "Not sure where the split between the 2 hospitals is", "source": "estimate", "wikidata": "Q5524427", "wikipedia": "en:Gartnavel General Hospital"}}, {"name": "Gartnavel Royal Hospital", "latitude": 55.8828576, "longitude": -4.3190979, "source": "osm", "_tags": {"amenity": "hospital", "emergency": "no", "healthcare": "hospital", "name": "Gartnavel Royal Hospital", "note": "Not sure where the split between the 2 hospitals is", "source": "estimate", "wikidata": "Q5524426", "wikipedia": "en:Gartnavel Royal Hospital"}}, {"name": "Dykebar Hospital", "latitude": 55.8229995, "longitude": -4.4000782, "source": "osm", "_tags": {"amenity": "hospital", "emergency": "no", "healthcare": "hospital", "name": "Dykebar Hospital", "source": "OS_OpenData_StreetView", "wikidata": "Q65065866"}}, {"name": "Shettleston Day Hospital & Parkview Resource Centre", "latitude": 55.8488907, "longitude": -4.1759115, "source": "osm", "_tags": {"amenity": "hospital", "building": "yes", "healthcare": "hospital", "name": "Shettleston Day Hospital & Parkview Resource Centre"}}, {"name": "Stobhill Hospital", "latitude": 55.8932647, "longitude": -4.2216667, "source": "osm", "_tags": {"alt_name": "St Hospital", "amenity": "hospital", "check_date": "2024-06-20", "emergency": "no", "healthcare": "hospital", "name": "Stobhill Hospital", "note": "Estimated", "wikidata": "Q7617773", "wikipedia": "en:Stobhill Hospital"}}, {"name": "MacKinnon House", "latitude": 55.8929244, "longitude": -4.2236752, "source": "osm", "_tags": {"amenity": "hospital", "building": "yes", "healthcare": "hospital", "name": "MacKinnon House", "operator": "NHS Greater Glasgow and Clyde", "source": "OS_OpenData_StreetView"}}, {"name": "The Queen Elizabeth University Hospital Campus", "latitude": 55.8622358, "longitude": -4.3406979, "source": "osm", "_tags": {"amenity": "hospital", "emergency": "yes", "healthcare": "hospital", "name": "The Queen Elizabeth University Hospital Campus", "note": "border estimated", "old_name": "Southern General Hospital", "operator": "NHS Greater Glasgow and Clyde", "source": "OS_OpenData_StreetView", "wikidata": "Q20027879", "wikipedia": "en:Queen Elizabeth University Hospital"}}, {"name": "Cowal Community Hospital", "latitude": 55.9589433, "longitude": -4.9277688, "source": "osm", "_tags": {"addr:housename": "Cowal Community Hospital", "addr:housenumber": "360", "addr:postcode": "PA23 7RL", "addr:street": "Argyll Street", "amenity": "hospital", "healthcare": "hospital", "name": "Cowal Community Hospital", "phone": "+44 1369704341", "source": "Bing", "wikidata": "Q5179425", "wikipedia": "en:Cowal Community Hospital"}}, {"name": "Golden Jubilee National Hospital", "latitude": 55.9062986, "longitude": -4.4258804, "source": "osm", "_tags": {"addr:postcode": "G81 4HX", "addr:street": "Beardmore Street", "amenity": "hospital", "area": "yes", "fhrs:id": "90610", "healthcare": "hospital", "name": "Golden Jubilee National Hospital", "name:etymology:wikidata": "Q5579602", "operator": "NHS Scotland", "source:addr": "FHRS Open Data", "wikidata": "Q5579596", "wikipedia": "en:Golden Jubilee University National Hospital"}}, {"name": "Ayr & Ailsa Hospitals", "latitude": 55.4324393, "longitude": -4.5972454, "source": "osm", "_tags": {"amenity": "hospital", "emergency": "yes", "healthcare": "hospital", "healthcare:speciality": "general;psychiatry", "name": "Ayr & Ailsa Hospitals", "operator": "Ayrshire NHS trust", "source": "estimate", "wikidata": "Q14943178", "wikipedia": "en:University Hospital Ayr"}}, {"name": "Victoria Hospital", "latitude": 55.8300885, "longitude": -5.055378, "source": "osm", "_tags": {"amenity": "hospital", "building": "hospital", "emergency": "yes", "healthcare": "hospital", "name": "Victoria Hospital", "operator": "NHS Highland", "source": "OS_OpenData_StreetView"}}, {"name": "Rowanbank Clinic", "latitude": 55.8909117, "longitude": -4.2177463, "source": "osm", "_tags": {"amenity": "hospital", "name": "Rowanbank Clinic"}}, {"name": "West Glasgow Ambulatory Care Hospital", "latitude": 55.8666562, "longitude": -4.2972819, "source": "osm", "_tags": {"amenity": "hospital", "emergency": "no", "healthcare": "hospital", "name": "West Glasgow Ambulatory Care Hospital", "wikidata": "Q7374303", "wikipedia": "en:West Glasgow Ambulatory Care Hospital"}}, {"name": "Lightburn Hospital", "latitude": 55.8608603, "longitude": -4.165615, "source": "osm", "_tags": {"amenity": "hospital", "emergency": "no", "name": "Lightburn Hospital", "wikidata": "Q84187065"}}, {"name": "", "latitude": 55.8525926, "longitude": -4.1960583, "source": "osm", "_tags": {"addr:city": "Glasgow", "addr:housenumber": "81", "addr:postcode": "G31 5ES", "addr:street": "Salamanca Street", "amenity": "hospital", "healthcare": "hospital", "start_date": "2020", "wikidata": "Q85011529", "wikipedia": "en:Parkhead Hospital"}}, {"name": "Ayrshire Central Hospital", "latitude": 55.6341163, "longitude": -4.6742345, "source": "osm", "_tags": {"addr:city": "Irvine", "addr:street": "Kilwinning Road", "amenity": "hospital", "emergency": "no", "healthcare": "hospital", "name": "Ayrshire Central Hospital", "wheelchair": "yes", "wikidata": "Q4831679", "wikipedia": "en:Ayrshire Central Hospital"}}, {"name": "Biggart Hospital", "latitude": 55.4926438, "longitude": -4.6044637, "source": "osm", "_tags": {"amenity": "hospital", "emergency": "no", "healthcare": "hospital", "name": "Biggart Hospital", "wikidata": "Q42887894", "wikipedia": "en:Biggart Hospital"}}, {"name": "East Ayrshire Community Hospital", "latitude": 55.4507882, "longitude": -4.2745439, "source": "osm", "_tags": {"amenity": "hospital", "name": "East Ayrshire Community Hospital", "wikidata": "Q5327766", "wikipedia": "en:East Ayrshire Community Hospital"}}, {"name": "Victoria Infirmary", "latitude": 56.0024664, "longitude": -4.7152964, "source": "osm", "_tags": {"amenity": "hospital", "healthcare": "hospital", "name": "Victoria Infirmary", "wikidata": "Q7926795", "wikipedia": "en:Victoria Integrated Care Centre, Helensburgh"}}, {"name": "Udston Hospital", "latitude": 55.7778296, "longitude": -4.0801941, "source": "osm", "_tags": {"amenity": "hospital", "emergency": "no", "healthcare": "hospital", "name": "Udston Hospital", "wikidata": "Q87677533", "wikipedia": "en:Udston Hospital"}}, {"name": "Kirklands Hospital", "latitude": 55.8116756, "longitude": -4.064298, "source": "osm", "_tags": {"amenity": "hospital", "emergency": "no", "healthcare": "hospital", "name": "Kirklands Hospital", "wheelchair": "yes", "wikidata": "Q65065832"}}, {"name": "Nuffield Health Glasgow Hospital", "latitude": 55.8853516, "longitude": -4.3064132, "source": "osm", "_tags": {"amenity": "hospital", "building": "hospital", "healthcare": "hospital", "name": "Nuffield Health Glasgow Hospital"}}, {"name": "Hairmyres Hospital", "latitude": 55.7588375, "longitude": -4.2215171, "source": "osm", "_tags": {"amenity": "hospital", "emergency": "yes", "healthcare": "hospital", "name": "Hairmyres Hospital", "wikidata": "Q5639556", "wikipedia": "en:University Hospital Hairmyres"}}, {"name": "Erskine Hospital", "latitude": 55.9172049, "longitude": -4.4777956, "source": "osm", "_tags": {"amenity": "hospital", "healthcare": "hospital", "name": "Erskine Hospital", "wikidata": "Q17509484"}}, {"name": "New Victoria Hospital", "latitude": 55.8287339, "longitude": -4.2635262, "source": "osm", "_tags": {"amenity": "hospital", "healthcare": "hospital", "name": "New Victoria Hospital", "wikidata": "Q25858870", "wikipedia": "en:New Victoria Hospital"}}, {"name": "Blantyre Health Centre", "latitude": 55.7910698, "longitude": -4.0924487, "source": "osm", "_tags": {"amenity": "hospital", "healthcare": "hospital", "name": "Blantyre Health Centre"}}, {"name": "Vale of Leven District General Hospital", "latitude": 55.9922827, "longitude": -4.5900782, "source": "osm", "_tags": {"addr:postcode": "G83 0UA", "addr:street": "Main Street", "amenity": "hospital", "emergency": "yes", "fhrs:id": "105057", "healthcare": "hospital", "name": "Vale of Leven District General Hospital", "ref:GB:phs_hospital_code": "C206H", "source:addr": "FHRS Open Data", "wikidata": "Q20570400", "wikipedia": "en:Vale of Leven Hospital"}}, {"name": "Dumbarton Joint Hospital", "latitude": 55.9487907, "longitude": -4.5946198, "source": "osm", "_tags": {"addr:housenumber": "99", "addr:postcode": "G82 5JA", "addr:street": "Cardross Road", "amenity": "hospital", "emergency": "no", "fhrs:id": "60138", "healthcare": "hospital", "name": "Dumbarton Joint Hospital", "source:addr": "FHRS Open Data", "wikidata": "Q84598648"}}, {"name": "Victoria Hospital Annex", "latitude": 55.8270242, "longitude": -5.0545905, "source": "osm", "_tags": {"amenity": "hospital", "emergency": "no", "healthcare": "hospital", "name": "Victoria Hospital Annex", "operator": "NHS Highland", "source": "OS_OpenData_StreetView"}}, {"name": "The Prince & Princess of Wales Hospice", "latitude": 55.8452741, "longitude": -4.3129094, "source": "osm", "_tags": {"addr:housenumber": "20", "addr:postcode": "G41 5BW", "addr:street": "Dumbreck Road", "amenity": "hospital", "emergency": "no", "healthcare": "hospital", "name": "The Prince & Princess of Wales Hospice", "phone": "+44 141 429 5599"}}, {"name": "", "latitude": 55.8853354, "longitude": -4.3064133, "source": "osm", "_tags": {"amenity": "hospital", "healthcare": "hospital"}}, {"name": "Ross Hall Hospital", "latitude": 55.8387947, "longitude": -4.3647546, "source": "osm", "_tags": {"addr:city": "Glasgow", "addr:housenumber": "221", "addr:postcode": "G52 3NQ", "addr:street": "Crookston Road", "amenity": "hospital", "emergency": "no", "healthcare": "hospital", "name": "Ross Hall Hospital", "operator": "Circle", "operator:type": "private", "source": "OS_OpenData_StreetView", "start_date": "1983"}}, {"name": "Ayrshire Hospice", "latitude": 55.4525697, "longitude": -4.6365323, "source": "osm", "_tags": {"addr:city": "Ayr", "addr:housenumber": "35", "addr:postcode": "KA7 2TG", "addr:street": "Racecourse Road", "amenity": "hospital", "healthcare": "hospice", "name": "Ayrshire Hospice", "phone": "+44 1292 269200", "website": "https://www.ayrshirehospice.org/"}}, {"name": "Victoria Memorial Cottage Hospital", "latitude": 55.976741, "longitude": -4.0700478, "source": "osm", "_tags": {"amenity": "hospital", "emergency": "no", "healthcare": "hospital", "name": "Victoria Memorial Cottage Hospital", "source": "OS_OpenData_StreetView"}}, {"name": "University Hospital Crosshouse", "latitude": 55.6136829, "longitude": -4.5397785, "source": "osm", "_tags": {"addr:postcode": "KA2 0BE", "addr:street": "Kilmarnock Road", "amenity": "hospital", "emergency": "yes", "fhrs:id": "538672", "healthcare": "hospital", "name": "University Hospital Crosshouse", "source:addr": "FHRS Open Data", "type": "multipolygon", "wikidata": "Q7894766", "wikipedia": "en:University Hospital Crosshouse"}}, {"name": "Leverndale Hospital", "latitude": 55.8351872, "longitude": -4.3664338, "source": "osm", "_tags": {"amenity": "hospital", "healthcare": "hospital", "name": "Leverndale Hospital", "postal_code": "G53 7TU", "type": "multipolygon", "wikidata": "Q65060169"}}]