[{"name": "Regionshospitalet Ringkøbing", "latitude": 56.0901366, "longitude": 8.2504954, "source": "osm", "_tags": {"amenity": "hospital", "name": "Regionshospitalet Ringkøbing"}}, {"name": "Privathospital Varde", "latitude": 55.6038782, "longitude": 8.4840822, "source": "osm", "_tags": {"amenity": "hospital", "fax": "+45 76 95 01 11", "healthcare": "hospital", "name": "Privathospital Varde", "phone": "+45 76 95 01 00", "website": "http://phvarde.com/", "wikidata": "Q12332394"}}, {"name": "Lokalpsykiatri Esbjerg", "latitude": 55.4670734, "longitude": 8.4565099, "source": "osm", "_tags": {"amenity": "hospital", "healthcare": "hospital", "name": "Lokalpsykiatri Esbjerg", "opening_hours": "Mo-Fr 08:00-15:00", "phone": "+45 99 44 70 10", "website": "https://psykiatrienisyddanmark.dk/wm388393"}}, {"name": "Psykiatrien i Region Syddanmark - Syddansk Universitetshospital", "latitude": 55.494144, "longitude": 8.4429527, "source": "osm", "_tags": {"amenity": "hospital", "emergency": "yes", "name": "Psykiatrien i Region Syddanmark - Syddansk Universitetshospital", "note": "also known as \"Psykiatricenter Vest\" for some years however \"Spangsbjerg\" is still in common use, so leaving that in old_name", "old_name": "Spangsbjerg Hospital", "source:old_name": "https://jv.dk/esbjerg/spangsbjerg-hospital-fylder-100-aar-2022-12-2", "start_date": "1908-08-15"}}, {"name": "Regionshospitalet Gødstrup", "latitude": 56.1568574, "longitude": 8.8895408, "source": "osm", "_tags": {"alt_name": "DNV-Gødstrup", "amenity": "hospital", "healthcare": "hospital", "name": "Regionshospitalet Gødstrup", "name:etymology:wikidata": "Q12314790", "start_date": "2022", "wikidata": "Q12314792", "wikipedia": "da:Regionshospitalet Gødstrup"}}, {"name": "", "latitude": 56.0902596, "longitude": 8.2496983, "source": "osm", "_tags": {"amenity": "hospital", "building": "yes"}}, {"name": "Aleris-Hamlet Esbjerg", "latitude": 55.4627934, "longitude": 8.455391, "source": "osm", "_tags": {"amenity": "hospital", "emergency": "no", "healthcare": "hospital", "name": "Aleris-Hamlet Esbjerg", "opening_hours": "Mo-Th 08:00-18:00; Fr 08:00-15:00", "operator:type": "private", "website": "https://www.aleris.dk/her-finder-du-os/aleris-hamlet-hospitaler/esbjerg/aleris-hamlet-esbjerg/"}}, {"name": "Esbjerg Sygehus - Syddansk Universitetshospital", "latitude": 55.4737221, "longitude": 8.4580361, "source": "osm", "_tags": {"amenity": "hospital", "branch": "Esbjerg", "emergency": "yes", "facebook": "https://www.facebook.com/esbjergsygehusgrindstedsygehus/", "healthcare": "hospital", "name": "Esbjerg Sygehus - Syddansk Universitetshospital", "official_name": "Esbjerg og Grindsted Sygehus", "old_name": "Sydvestjysk Sygehus Esbjerg", "operator": "Region Syddanmark", "operator:type": "public", "short_name": "Esbjerg Sygehus", "source:name": "https://esbjerggrindstedsygehus.dk/om-esbjerg-og-grindsted-sygehus/nyheder/2022/nye-navneskilte-til-esbjerg-og-grindsted-sygehuse", "website": "https://esbjerggrindstedsygehus.dk/", "wikidata": "Q25110238", "wikipedia": "da:Esbjerg Sygehus"}}, {"name": "Center for det Maritime Sundhedsvæsen", "latitude": 55.4500189, "longitude": 8.4027587, "source": "osm", "_tags": {"alt_name": "Fanø Sundhedscenter", "amenity": "hospital", "name": "Center for det Maritime Sundhedsvæsen"}}, {"name": "Grindsted Sygehus", "latitude": 55.7551764, "longitude": 8.9285391, "source": "osm", "_tags": {"amenity": "hospital", "branch": "Grindsted", "emergency": "yes", "facebook": "https://www.facebook.com/esbjergsygehusgrindstedsygehus/", "healthcare": "hospital", "name": "Grindsted Sygehus", "official_name": "Esbjerg og Grindsted Sygehus", "old_name": "Sydvestjysk Sygehus Grindsted", "operator": "Region Syddanmark", "operator:type": "public", "source:name": "https://esbjerggrindstedsygehus.dk/om-esbjerg-og-grindsted-sygehus/nyheder/2022/nye-navneskilte-til-esbjerg-og-grindsted-sygehuse", "website": "https://esbjerggrindstedsygehus.dk/"}}, {"name": "Regionshospitalet Gødstrup", "latitude": 56.1570697, "longitude": 8.89026, "source": "osm", "_tags": {"amenity": "hospital", "building": "hospital", "building:levels": "7", "emergency": "yes", "healthcare": "hospital", "name": "Regionshospitalet Gødstrup", "type": "multipolygon"}}]