[{"name": "Ķirurģijas nodaļa", "latitude": 55.886128, "longitude": 27.174676, "source": "osm", "_tags": {"addr:city": "Krāslava", "addr:country": "LV", "addr:district": "Krāslavas novads", "addr:housenumber": "159", "addr:postcode": "LV-5601", "addr:street": "Rīgas iela", "amenity": "hospital", "healthcare": "hospital", "name": "Ķirurģijas nodaļa", "ref:LV:addr": "101491707"}}, {"name": "Uzņemšanas nodaļa", "latitude": 55.88604, "longitude": 27.1744524, "source": "osm", "_tags": {"addr:city": "Krāslava", "addr:country": "LV", "addr:district": "Krāslavas novads", "addr:housenumber": "159", "addr:postcode": "LV-5601", "addr:street": "Rīgas iela", "amenity": "hospital", "emergency": "yes", "healthcare": "hospital", "name": "Uzņemšanas nodaļa", "ref:LV:addr": "101491707"}}, {"name": "Rāznas rehabilitācijas centrs", "latitude": 56.3338149, "longitude": 27.3077451, "source": "osm", "_tags": {"amenity": "hospital", "name": "Rāznas rehabilitācijas centrs"}}, {"name": "Krāslavas slimnīca", "latitude": 55.8866866, "longitude": 27.1748494, "source": "osm", "_tags": {"addr:city": "Krāslava", "addr:country": "LV", "addr:district": "Krāslavas novads", "addr:housenumber": "159", "addr:postcode": "LV-5601", "addr:street": "Rīgas iela", "amenity": "hospital", "building": "yes", "healthcare": "hospital", "name": "Krāslavas slimnīca", "operator": "SIA \"Krāslavas slimnīca\"", "ref:LV:addr": "101491707"}}, {"name": "Паліклініка", "latitude": 55.6201329, "longitude": 27.6208454, "source": "osm", "_tags": {"addr:housenumber": "4", "addr:street": "вуліца Дзяржынскага", "amenity": "hospital", "building": "yes", "building:levels": "1", "name": "Паліклініка", "name:be": "Паліклініка", "name:ru": "Поликлиника"}}, {"name": "Тэрапеўтычнае і інфекцыйнае аддз. бальніцы", "latitude": 55.6290164, "longitude": 27.6408511, "source": "osm", "_tags": {"amenity": "hospital", "building": "yes", "building:levels": "2", "healthcare": "hospital", "name": "Тэрапеўтычнае і інфекцыйнае аддз. бальніцы", "name:be": "Тэрапеўтычнае і інфекцыйнае аддз. бальніцы", "name:ru": "Терапевтическое и инфекционное отд. больницы"}}, {"name": "Мёрская ЦРБ", "latitude": 55.628884, "longitude": 27.6430339, "source": "osm", "_tags": {"amenity": "hospital", "building": "hospital", "building:levels": "3", "healthcare": "hospital", "height": "10", "name": "Мёрская ЦРБ", "name:be": "Мёрская ЦРБ", "name:ru": "Миорская ЦРБ"}}, {"name": "Санаторый падлеткавы сухотны", "latitude": 55.6410113, "longitude": 27.0250821, "source": "osm", "_tags": {"addr:housenumber": "120", "addr:postcode": "211970", "addr:street": "Савецкая вуліца", "amenity": "hospital", "building": "yes", "building:levels": "1", "name": "Санаторый падлеткавы сухотны", "name:be": "Санаторый падлеткавы сухотны", "name:en": "Teenage Tuberculosis Sanatorium", "name:ru": "Санаторий подростковый туберкулёзный"}}, {"name": "Цэнтральная раённая бальніца", "latitude": 55.6415658, "longitude": 27.0227133, "source": "osm", "_tags": {"amenity": "hospital", "email": "brasltmo@vitebsk.by", "healthcare": "hospital", "name": "Цэнтральная раённая бальніца", "name:be": "Цэнтральная раённая бальніца", "name:en": "Central District Hospital", "name:ru": "Центральная районная больница", "phone": "+375 2153 64819", "website": "https://www.braslcrb.by/"}}, {"name": "Dagdas slimnīca", "latitude": 56.0949684, "longitude": 27.5248564, "source": "osm", "_tags": {"amenity": "hospital", "healthcare": "hospital", "name": "Dagdas slimnīca"}}, {"name": "Браслаўская абласная псіхіятрычная бальніца «Слабодка»", "latitude": 55.6807809, "longitude": 27.1820925, "source": "osm", "_tags": {"amenity": "hospital", "emergency": "no", "name": "Браслаўская абласная псіхіятрычная бальніца «Слабодка»", "name:be": "Браслаўская абласная псіхіятрычная бальніца «Слабодка»", "name:ru": "Браславская областная психиатрическая больница «Слободка»"}}, {"name": "Бігосаўская участковая бальніца", "latitude": 55.8392209, "longitude": 27.7433847, "source": "osm", "_tags": {"addr:city": "Бігосава", "addr:housenumber": "17", "addr:street": "Маладзёжная вуліца", "amenity": "hospital", "healthcare": "hospital", "int_name": "Bihosaŭskaja učastkovaja balnica", "name": "Бігосаўская участковая бальніца", "name:be": "Бігосаўская участковая бальніца", "name:ru": "Бигосовская участковая больница", "opening_hours": "Mo-Fr 07:00-20:00", "phone": "+375 2151 58436"}}, {"name": "", "latitude": 55.614057, "longitude": 27.6308377, "source": "osm", "_tags": {"amenity": "hospital", "healthcare": "hospital"}}, {"name": "", "latitude": 55.7867749, "longitude": 27.4667702, "source": "osm", "_tags": {"amenity": "hospital", "emergency": "no", "healthcare": "hospital"}}]