[{"name": "Brørup Sygehus", "latitude": 55.480881, "longitude": 9.0218779, "source": "osm", "_tags": {"amenity": "hospital", "branch": "Brørup", "facebook": "https://www.facebook.com/esbjergsygehusgrindstedsygehus/", "healthcare": "hospital", "name": "Brørup Sygehus", "official_name": "Esbjerg og Grindsted Sygehus", "old_name": "Sydvestjysk Sygehus Brørup", "operator": "Region Syddanmark", "operator:type": "public", "source:name": "https://esbjerggrindstedsygehus.dk/om-esbjerg-og-grindsted-sygehus/nyheder/2022/nye-navneskilte-til-esbjerg-og-grindsted-sygehuse", "website": "https://esbjerggrindstedsygehus.dk/"}}, {"name": "Hammel Neurocenter", "latitude": 56.2554871, "longitude": 9.8699815, "source": "osm", "_tags": {"amenity": "hospital", "name": "Hammel Neurocenter"}}, {"name": "Silkeborg Centralsygehus - K", "latitude": 56.1701538, "longitude": 9.5591898, "source": "osm", "_tags": {"amenity": "hospital", "fvst:navnelbnr": "44105", "healthcare": "hospital", "name": "Silkeborg Centralsygehus - K", "ref:DK:cvr": "29190925", "ref:DK:cvr:pnummer": "1003351219"}}, {"name": "Silkeborg Centralsygehus - M1", "latitude": 56.1701581, "longitude": 9.558949, "source": "osm", "_tags": {"amenity": "hospital", "healthcare": "hospital", "name": "Silkeborg Centralsygehus - M1", "ref:DK:cvr": "29190925", "ref:DK:cvr:pnummer": "1003351219"}}, {"name": "Hammel Neurocenter afd. H5", "latitude": 56.2555438, "longitude": 9.86972, "source": "osm", "_tags": {"amenity": "hospital", "fvst:navnelbnr": "46674", "name": "Hammel Neurocenter afd. H5", "ref:DK:cvr": "29190925", "ref:DK:cvr:pnummer": "1008603983"}}, {"name": "Hammel Neurocenter afd. HB 1", "latitude": 56.2556451, "longitude": 9.8696396, "source": "osm", "_tags": {"amenity": "hospital", "fvst:navnelbnr": "46379", "name": "Hammel Neurocenter afd. HB 1", "ref": "HB1", "ref:DK:cvr": "29190925", "ref:DK:cvr:pnummer": "1008603983"}}, {"name": "Hammel Neurocenter afd. H1 og H2", "latitude": 56.25573, "longitude": 9.8695752, "source": "osm", "_tags": {"amenity": "hospital", "fvst:navnelbnr": "45951", "name": "Hammel Neurocenter afd. H1 og H2", "ref:DK:cvr": "29190925", "ref:DK:cvr:pnummer": "1008603983"}}, {"name": "Hammel Neurocenter afd. H3 og H4.", "latitude": 56.2558641, "longitude": 9.8697496, "source": "osm", "_tags": {"amenity": "hospital", "fvst:navnelbnr": "46378", "name": "Hammel Neurocenter afd. H3 og H4.", "ref:DK:cvr": "29190925", "ref:DK:cvr:pnummer": "1008603983"}}, {"name": "Vejle Sygehus", "latitude": 55.7147435, "longitude": 9.5380602, "source": "osm", "_tags": {"amenity": "hospital", "emergency": "yes", "healthcare": "hospital", "name": "Vejle Sygehus", "toilets:wheelchair": "yes", "website": "http://vejlesygehus.dk/", "wheelchair": "yes"}}, {"name": "Veneklinikken - Sydvestjysk Sygehus Brørup", "latitude": 55.4811513, "longitude": 9.0219378, "source": "osm", "_tags": {"amenity": "hospital", "healthcare": "hospital", "name": "Veneklinikken - Sydvestjysk Sygehus Brørup", "website": "https://sydvestjysksygehus.dk/wm280571"}}, {"name": "Psykiatrisk Afdeling Vejle", "latitude": 55.7168645, "longitude": 9.5393966, "source": "osm", "_tags": {"amenity": "hospital", "emergency": "yes", "healthcare": "hospital", "name": "Psykiatrisk Afdeling Vejle", "operator": "Region Syddanmark", "wikidata": "Q12343760", "wikimedia_commons": "Category:Vejle Sygehus", "wikipedia": "da:Vejle Sygehus"}}, {"name": "Skanderborg Sundhedscenter", "latitude": 56.0340539, "longitude": 9.9284001, "source": "osm", "_tags": {"alt_name": "Skanderborg Sundhedscenter, Hospitalsenheden Horsens", "amenity": "hospital", "building": "yes", "check_date": "2025-09-10", "name": "Skanderborg Sundhedscenter"}}, {"name": "Sundhedsområdet Klostergården", "latitude": 55.5008994, "longitude": 9.4823578, "source": "osm", "_tags": {"amenity": "hospital", "building": "yes", "name": "Sundhedsområdet Klostergården"}}, {"name": "Sct. Maria Hospice Center", "latitude": 55.7259955, "longitude": 9.5964131, "source": "osm", "_tags": {"amenity": "hospital", "building": "yes", "fvst:navnelbnr": "539391", "name": "Sct. Maria Hospice Center", "ref:DK:cvr": "18650142", "ref:DK:cvr:pnummer": "1003511641"}}, {"name": "Aleris-Hamlet Herning", "latitude": 56.1321909, "longitude": 8.9856098, "source": "osm", "_tags": {"amenity": "hospital", "building": "yes", "emergency": "no", "healthcare": "hospital", "name": "Aleris-Hamlet Herning", "operator:type": "private", "website": "https://www.aleris.dk/"}}, {"name": "Regionshospitalet Silkeborg", "latitude": 56.1705676, "longitude": 9.5589574, "source": "osm", "_tags": {"amenity": "hospital", "contact:phone": "+4578415000", "contact:website": "http://www.hospitalsenhedmidt.dk/regionshospitalet+silkeborg", "emergency": "yes", "healthcare": "hospital", "name": "Regionshospitalet Silkeborg", "name:da": "Regionshospitalet Silkeborg", "wheelchair": "yes", "wikidata": "Q17312478", "wikipedia": "da:Regionshospitalet Silkeborg"}}, {"name": "Regionshospitalet Horsens", "latitude": 55.8628993, "longitude": 9.8737079, "source": "osm", "_tags": {"amenity": "hospital", "emergency": "yes", "name": "Regionshospitalet Horsens", "website": "https://www.regionshospitalet-horsens.dk/", "wikidata": "Q17165676"}}, {"name": "Psykiatrisk Afdeling Middelfart", "latitude": 55.4950293, "longitude": 9.7341048, "source": "osm", "_tags": {"amenity": "hospital", "emergency": "no", "healthcare": "hospital", "name": "Psykiatrisk Afdeling Middelfart"}}, {"name": "Privathospitalet Mølholm", "latitude": 55.6986928, "longitude": 9.5384582, "source": "osm", "_tags": {"amenity": "hospital", "fvst:navnelbnr": "72258", "name": "Privathospitalet Mølholm", "name:etymology:wikidata": "Q12328095", "ref:DK:cvr": "35206264", "ref:DK:cvr:pnummer": "1018367978"}}, {"name": "Middelfart Sygehus", "latitude": 55.4967824, "longitude": 9.7395597, "source": "osm", "_tags": {"amenity": "hospital", "name": "Middelfart Sygehus", "website": "https://sygehuslillebaelt.dk/afdelinger/middelfart-sygehus"}}, {"name": "Privathospital Mølholm", "latitude": 55.7349126, "longitude": 9.5977865, "source": "osm", "_tags": {"amenity": "hospital", "healthcare": "hospital", "name": "Privathospital Mølholm"}}, {"name": "Kolding Sygehus", "latitude": 55.5019855, "longitude": 9.485428, "source": "osm", "_tags": {"amenity": "hospital", "building": "yes", "check_date": "2023-10-12", "emergency": "yes", "healthcare": "hospital", "healthcare:speciality": "clinic;covid19;dialysis;dentistry;dentist;vaccination;urology;surgery;radiology;proctology;orthopaedics;neonatology;intensive;internal;infectious_diseases;haematology;gynaecology;geriatrics;diagnostic_radiology;community;clinical_pathology;cardiology", "internet_access": "wlan", "internet_access:fee": "no", "loc_name": "Kolding Hospital", "name": "Kolding Sygehus", "name:etymology:wikidata": "Q27119", "operator:type": "public", "payment:cash": "yes", "payment:mastercard": "yes", "payment:visa": "yes", "toilets:wheelchair": "yes", "type": "multipolygon", "wheelchair": "yes", "wikidata": "Q12322453", "wikimedia_commons": "Category:Kolding Sygehus", "wikipedia": "da:Kolding Sygehus"}}, {"name": "Sundhedshuset", "latitude": 55.7076488, "longitude": 9.5171844, "source": "osm", "_tags": {"amenity": "hospital", "building": "yes", "name": "Sundhedshuset", "type": "multipolygon"}}]