[{"name": "Ögonmottagning 2", "latitude": 55.7107082, "longitude": 13.2001517, "source": "osm", "_tags": {"addr:city": "Lund", "addr:postcode": "221 85", "addr:street": "Klinikgatan 18A", "amenity": "hospital", "healthcare": "hospital", "healthcare:speciality": "ophthalmology", "name": "Ögonmottagning 2", "opening_hours": "Mo-Fr 07:00-16:30", "phone": "046-17 28 05", "website": "https://vard.skane.se/skanes-universitetssjukhus-sus/mottagningar-och-avdelningar/ogonmottagning-2-lund/", "wheelchair": "yes"}}, {"name": "Minneskliniken", "latitude": 55.6114724, "longitude": 13.0596507, "source": "osm", "_tags": {"amenity": "hospital", "emergency": "yes", "healthcare": "hospital", "name": "Minneskliniken"}}, {"name": "Ögonmottagning Malmö", "latitude": 55.5873014, "longitude": 13.0024958, "source": "osm", "_tags": {"addr:city": "Malmö", "addr:country": "SE", "addr:housenumber": "17", "addr:postcode": "205 02", "addr:street": "Tora Kjellgrens gata", "amenity": "hospital", "entrance": "yes", "healthcare": "hospital", "healthcare:speciality": "ophthalmology", "internet_access:fee": "no", "level": "0", "name": "Ögonmottagning Malmö", "phone": "040-33 27 50", "website": "https://vard.skane.se/skanes-universitetssjukhus-sus/mottagningar-och-avdelningar/ogonmottagning-malmo"}}, {"name": "Akutmottagning", "latitude": 55.710963, "longitude": 13.1995015, "source": "osm", "_tags": {"addr:city": "Lund", "addr:country": "SE", "addr:housenumber": "15", "addr:postcode": "22185", "addr:street": "Klinikgatan", "amenity": "hospital", "emergency": "emergency_ward_entrance", "healthcare": "hospital", "healthcare:speciality": "emergency", "name": "Akutmottagning", "opening_hours": "Mo-Su,00:00-24:59", "operator": "Skånes Universitetssjukhus", "operator:type": "public", "phone": "+46 46 171000", "website": "https://vard.skane.se/skanes-universitetssjukhus-sus/mottagningar-och-avdelningar/akutmottagning-lund/"}}, {"name": "Akutmottagning Barn", "latitude": 55.7123008, "longitude": 13.1995746, "source": "osm", "_tags": {"addr:city": "Lund", "amenity": "hospital", "healthcare": "hospital", "healthcare:speciality": "emergency;kids;children", "name": "Akutmottagning Barn", "operator": "Skånes Universitetssjukhus", "operator:type": "public", "phone": "+46 46 17 10 00"}}, {"name": "Endokrinologimottagning", "latitude": 55.5872752, "longitude": 13.0025138, "source": "osm", "_tags": {"addr:city": "Malmö", "addr:country": "SE", "addr:housenumber": "17", "addr:street": "Tora Kjellgrens gata", "amenity": "hospital", "entrance": "yes", "healthcare": "hospital", "healthcare:speciality": "endocrinology", "level": "3", "name": "Endokrinologimottagning", "phone": "040-33 60 24", "website": "https://vard.skane.se/skanes-universitetssjukhus-sus/mottagningar-och-avdelningar/endokrinologimottagning-malmo/"}}, {"name": "Lungavdelning Malmö", "latitude": 55.587323, "longitude": 13.0024835, "source": "osm", "_tags": {"addr:city": "Malmö", "addr:housenumber": "17", "addr:postcode": "214 28", "addr:street": "Tora Kjellgrens gata", "amenity": "hospital", "healthcare": "hospital", "healthcare:speciality": "pulmonology", "level": "4", "name": "Lungavdelning Malmö", "phone": "040-33 61 50", "website": "https://vard.skane.se/skanes-universitetssjukhus-sus/mottagningar-och-avdelningar/lungavdelning-malmo/"}}, {"name": "Skånes Universitetsjukhus Malmö", "latitude": 55.5870809, "longitude": 13.0018988, "source": "osm", "_tags": {"amenity": "hospital", "check_date": "2025-06-20", "emergency": "yes", "health_specialty:emergency_medicine": "yes", "health_specialty:family_medicine": "yes", "health_specialty:intensive_care_medicine": "yes", "health_specialty:orthopaedics": "yes", "health_specialty:paediatrics": "yes", "health_specialty:surgery": "yes", "health_specialty:vascular_surgery": "yes", "healthcare": "hospital", "name": "Skånes Universitetsjukhus Malmö", "opening_hours": "24/7", "wheelchair": "yes", "wikidata": "Q781200"}}, {"name": "Lasarettet i Ystad", "latitude": 55.4342177, "longitude": 13.8169593, "source": "osm", "_tags": {"amenity": "hospital", "emergency": "yes", "health_specialty:emergency_medicine": "yes", "health_specialty:family_medicine": "yes", "health_specialty:intensive_care_medicine": "yes", "health_specialty:surgery": "yes", "name": "Lasarettet i Ystad", "opening_hours": "24/7", "toilets:wheelchair": "yes", "wheelchair": "yes", "wikidata": "Q30263870"}}, {"name": "Hässleholms Sjukhus", "latitude": 56.1600845, "longitude": 13.7773084, "source": "osm", "_tags": {"amenity": "hospital", "emergency": "yes", "health_specialty:emergency_medicine": "yes", "health_specialty:family_medicine": "yes", "health_specialty:orthopaedics": "yes", "health_specialty:paediatrics": "yes", "healthcare": "hospital", "name": "Hässleholms Sjukhus", "opening_hours": "Mo-Su 08:00-20:00", "toilets:wheelchair": "yes", "website": "https://www.skane.se/webbplatser/hassleholm/hassleholm_internet/", "wheelchair": "yes"}}, {"name": "", "latitude": 56.158458, "longitude": 13.6024566, "source": "osm", "_tags": {"amenity": "hospital", "healthcare": "hospital"}}, {"name": "", "latitude": 56.1380488, "longitude": 13.4005077, "source": "osm", "_tags": {"amenity": "hospital", "healthcare": "hospital"}}, {"name": "Skånes Universitetssjukhus i Lund (SUS)", "latitude": 55.7131206, "longitude": 13.1983436, "source": "osm", "_tags": {"amenity": "hospital", "contact:website": "http://www.skane.se/sus", "emergency": "yes", "health_specialty:cardiothoracic_surgery": "yes", "health_specialty:emergency_medicine": "yes", "health_specialty:family_medicine": "yes", "health_specialty:intensive_care_medicine": "yes", "health_specialty:neurosurgery": "yes", "health_specialty:orthopaedics": "yes", "health_specialty:paediatric_intensive_care_medicine": "yes", "health_specialty:paediatrics": "yes", "health_specialty:surgery": "yes", "healthcare": "hospital", "name": "Skånes Universitetssjukhus i Lund (SUS)", "opening_hours": "24/7", "type": "multipolygon", "wikidata": "Q781200", "wikipedia": "sv:Skånes universitetssjukhus"}}, {"name": "Psykiatrisk mottagning Lund", "latitude": 55.718091, "longitude": 13.1908027, "source": "osm", "_tags": {"addr:city": "Lund", "addr:country": "SE", "addr:housenumber": "1", "addr:street": "Baravägen", "amenity": "hospital", "building": "yes", "designation": "psychiatric", "emergency": "yes", "healthcare": "hospital", "healthcare:speciality": "psychiatry", "name": "Psykiatrisk mottagning Lund", "operator": "Region Skåne", "operator:type": "government", "type": "multipolygon"}}]