[{"name": "Joniškio ligoninė", "latitude": 56.2321029, "longitude": 23.6276078, "source": "osm", "_tags": {"addr:city": "Joniškis", "addr:contact": "yes", "addr:housenumber": "21", "addr:postcode": "84152", "addr:street": "Pašvitinio g.", "amenity": "hospital", "email": "ligonine@joniskioligonine.lt", "healthcare": "hospital", "name": "Joniškio ligoninė", "phone": "+370 646 62 115", "website": "https://www.joniskioligonine.lt/"}}, {"name": "Valstybinė teismo medicinos tarnyba, Šiaulių skyrius", "latitude": 55.9446793, "longitude": 23.300995, "source": "osm", "_tags": {"amenity": "hospital", "name": "Valstybinė teismo medicinos tarnyba, Šiaulių skyrius"}}, {"name": "Lieporių šeimos sveikatos centras", "latitude": 55.9070045, "longitude": 23.2644887, "source": "osm", "_tags": {"addr:city": "Šiauliai", "addr:contact": "yes", "addr:housenumber": "17", "addr:postcode": "78296", "addr:street": "Sevastopolio g.", "amenity": "hospital", "emergency": "no", "healthcare": "hospital", "healthcare:speciality": "general;family_medicine;dentist", "internet_access": "wlan", "internet_access:fee": "no", "internet_access:ssid": "Lieporiai", "name": "Lieporių šeimos sveikatos centras", "source": "local knowledge"}}, {"name": "Šiaulių ligoninė 1 korpusas", "latitude": 55.9429448, "longitude": 23.3026833, "source": "osm", "_tags": {"addr:city": "Šiauliai", "addr:housenumber": "99", "addr:postcode": "76231", "addr:street": "V. Kudirkos g.", "amenity": "hospital", "building": "yes", "name": "Šiaulių ligoninė 1 korpusas"}}, {"name": "Šiaulių ligoninė 2 korpusas", "latitude": 55.9425009, "longitude": 23.3010109, "source": "osm", "_tags": {"addr:city": "Šiauliai", "addr:housenumber": "99B", "addr:street": "V. Kudirkos g.", "amenity": "hospital", "building": "yes", "name": "Šiaulių ligoninė 2 korpusas"}}, {"name": "Šiaulių ligoninė", "latitude": 55.9429697, "longitude": 23.3002349, "source": "osm", "_tags": {"amenity": "hospital", "landuse": "residential", "name": "Šiaulių ligoninė"}}, {"name": "Šiaulių ligoninė chirurgijos korpusas", "latitude": 55.943604, "longitude": 23.2996276, "source": "osm", "_tags": {"addr:city": "Šiauliai", "addr:housenumber": "99C", "addr:street": "V. Kudirkos g.", "amenity": "hospital", "building": "yes", "name": "Šiaulių ligoninė chirurgijos korpusas"}}, {"name": "Šiaulių psichiatrijos ligoninė", "latitude": 55.9426813, "longitude": 23.2985107, "source": "osm", "_tags": {"addr:city": "Šiauliai", "addr:country": "LT", "addr:housenumber": "12", "addr:street": "M. K. Čiurlionio g.", "amenity": "hospital", "building": "yes", "name": "Šiaulių psichiatrijos ligoninė"}}, {"name": "Tuberkuliozės ir plaučių ligų ligoninė", "latitude": 55.9419443, "longitude": 23.2994006, "source": "osm", "_tags": {"addr:city": "Šiauliai", "addr:housenumber": "97", "addr:postcode": "76231", "addr:street": "V. Kudirkos g.", "amenity": "hospital", "building": "yes", "name": "Tuberkuliozės ir plaučių ligų ligoninė"}}, {"name": "Šiaulių priklausomybės ligų centras", "latitude": 55.9063694, "longitude": 23.308688, "source": "osm", "_tags": {"addr:city": "Šiauliai", "addr:country": "LT", "addr:housenumber": "3", "addr:postcode": "78150", "addr:street": "Daubos g.", "amenity": "hospital", "building": "yes", "name": "Šiaulių priklausomybės ligų centras"}}, {"name": "Pakruojo ligoninė", "latitude": 55.9782481, "longitude": 23.8429117, "source": "osm", "_tags": {"addr:city": "Pakruojis", "addr:housenumber": "3", "addr:postcode": "83150", "addr:street": "L. Giros g.", "amenity": "hospital", "building": "hospital", "healthcare": "hospital", "name": "Pakruojo ligoninė"}}, {"name": "Tytuvėnų palaikomojo gydymo ir slaugos ligoninė", "latitude": 55.5978655, "longitude": 23.1973247, "source": "osm", "_tags": {"addr:city": "Tytuvėnai", "addr:contact": "yes", "addr:housenumber": "6", "addr:street": "J. Basanavičiaus g.", "amenity": "hospital", "landuse": "residential", "name": "Tytuvėnų palaikomojo gydymo ir slaugos ligoninė"}}, {"name": "VšĮ Radviliškio rajono pirminės sveikatos priežiūros centras", "latitude": 55.8105128, "longitude": 23.5420832, "source": "osm", "_tags": {"addr:city": "Radviliškis", "addr:housenumber": "9B", "addr:postcode": "82174", "addr:street": "Gedimino g.", "amenity": "hospital", "building": "yes", "healthcare": "hospital", "name": "VšĮ Radviliškio rajono pirminės sveikatos priežiūros centras", "opening_hours": "Mo-Th 08:00-17:00; Fr 08:00-15:45; Sa-Su off", "website": "https://www.radviliskiopoliklinika.lt/"}}, {"name": "Všį Radviliškio ligoninė", "latitude": 55.8111666, "longitude": 23.5414176, "source": "osm", "_tags": {"addr:city": "Radviliškis", "addr:country": "LT", "addr:housenumber": "9", "addr:postcode": "82157", "addr:street": "Gedimino g.", "amenity": "hospital", "building": "yes", "email": "radviliskioligonine@is.lt", "healthcare": "hospital", "name": "Všį Radviliškio ligoninė", "source": "knowledge; Bing", "website": "https://radviliskioligonine.lt/"}}, {"name": "Konsultacinė poliklinika", "latitude": 55.8111559, "longitude": 23.5427076, "source": "osm", "_tags": {"amenity": "hospital", "building": "yes", "name": "Konsultacinė poliklinika"}}, {"name": "Baisogalos ligoninė", "latitude": 55.6389157, "longitude": 23.722116, "source": "osm", "_tags": {"addr:city": "Baisogala", "addr:housenumber": "2", "addr:postcode": "82317", "addr:street": "R. Žebenkos g.", "amenity": "hospital", "building": "yes", "name": "Baisogalos ligoninė"}}, {"name": "Kelmės ligoninė", "latitude": 55.6309922, "longitude": 22.9467996, "source": "osm", "_tags": {"addr:city": "Kelmė", "addr:housenumber": "2", "addr:postcode": "86179", "addr:street": "Nepriklausomybės g.", "amenity": "hospital", "building": "yes", "building:levels": "4", "contact:website": "https://www.kelmesligonine.lt/", "emergency": "yes", "name": "Kelmės ligoninė"}}, {"name": "Meškuičių ambulatorija", "latitude": 56.0694051, "longitude": 23.480927, "source": "osm", "_tags": {"addr:city": "Meškuičiai", "addr:housenumber": "27", "addr:postcode": "81444", "addr:street": "Rupeikių g.", "amenity": "hospital", "building": "hospital", "healthcare": "hospital", "name": "Meškuičių ambulatorija"}}, {"name": "Onkologijos klinika", "latitude": 55.9433917, "longitude": 23.2902476, "source": "osm", "_tags": {"amenity": "hospital", "healthcare": "hospital", "healthcare:speciality": "oncology", "name": "Onkologijos klinika"}}, {"name": "VŠĮ Respublikinės Šiaulių ligoninės Moters ir vaiko klinika", "latitude": 55.9257606, "longitude": 23.2738684, "source": "osm", "_tags": {"addr:city": "Šiauliai", "addr:housenumber": "77", "addr:postcode": "78170", "addr:street": "Architektų g.", "amenity": "hospital", "building": "hospital", "emergency": "yes", "healthcare:speciality": "surgery;dentistry;general;emergency;radiology;maternity;neurology", "name": "VŠĮ Respublikinės Šiaulių ligoninės Moters ir vaiko klinika", "name:en": "Hospital Woman and Child Clinic", "name:lt": "VŠĮ Respublikinės Šiaulių ligoninės Moters ir vaiko klinika", "name:ru": "Клиника-больница «Женщина и ребенок»", "name:uk": "Клініка-лікарня «Жінка та дитина»", "phone": "(8-41) 552876", "type": "multipolygon", "website": "https://rsl.lrv.lt/"}}]