[{"name": "Visagino poliklinika", "latitude": 55.6053775, "longitude": 26.4331994, "source": "osm", "_tags": {"addr:city": "Visaginas", "addr:housenumber": "15", "addr:postcode": "31107", "addr:street": "Taikos pr.", "amenity": "hospital", "building": "yes", "name": "Visagino poliklinika", "name:be": "Вісагінская паліклініка", "name:lt": "Visagino poliklinika", "name:ru": "Поликлиника", "name:uk": "Поліклініка"}}, {"name": "Zarasų ligoninė", "latitude": 55.7321071, "longitude": 26.2556588, "source": "osm", "_tags": {"addr:city": "Zarasai", "addr:country": "LT", "addr:housenumber": "1B", "addr:street": "Vilniaus g.", "amenity": "hospital", "building": "hospital", "healthcare": "hospital", "name": "Zarasų ligoninė"}}, {"name": "", "latitude": 56.3543375, "longitude": 26.1738001, "source": "osm", "_tags": {"addr:city": "Līvāni", "addr:country": "LV", "addr:district": "Līvānu novads", "addr:housenumber": "44", "addr:postcode": "LV-5316", "addr:street": "Zaļā iela", "amenity": "hospital", "building": "yes", "healthcare": "hospital", "ref:LV:addr": "103166533"}}, {"name": "Daugavpils psihoneiroloģiskā slimnīca", "latitude": 55.8764039, "longitude": 26.561714, "source": "osm", "_tags": {"amenity": "hospital", "email": "dpns@dpns.gov.lv", "healthcare": "hospital", "name": "Daugavpils psihoneiroloģiskā slimnīca", "name:lv": "Daugavpils psihoneiroloģiskā slimnīca", "name:ru": "Психоневрологическая больница", "operator": "Daugavpils psihoneiroloģiskā slimnīca SIA", "phone": "+371 65402240", "website": "https://dpns.gov.lv"}}, {"name": "Plaušu slimību un tuberkulozes centrs", "latitude": 55.8923197, "longitude": 26.5910193, "source": "osm", "_tags": {"addr:city": "Daugavpils", "addr:country": "LV", "addr:housenumber": "311", "addr:postcode": "LV-5413", "addr:street": "18. novembra iela", "amenity": "hospital", "emergency": "yes", "healthcare": "hospital", "healthcare:speciality": "infectious_diseases;pulmonology", "name": "Plaušu slimību un tuberkulozes centrs", "operator": "Daugavpils Reģionālā Slimnīca", "phone": "+371 65432374", "ref:LV:addr": "101793291", "website": "https://slimnica.daugavpils.lv/plausu-slimibu-un-tuberkolozes-centrs"}}, {"name": "", "latitude": 56.3544653, "longitude": 26.1740558, "source": "osm", "_tags": {"addr:city": "Līvāni", "addr:country": "LV", "addr:district": "Līvānu novads", "addr:housenumber": "44", "addr:postcode": "LV-5316", "addr:street": "Zaļā iela", "amenity": "hospital", "healthcare": "hospital", "ref:LV:addr": "103166533"}}, {"name": "Visagino ligoninė", "latitude": 55.6065856, "longitude": 26.4331345, "source": "osm", "_tags": {"addr:city": "Visaginas", "addr:housenumber": "15A", "addr:street": "Taikos pr.", "amenity": "hospital", "building": "yes", "name": "Visagino ligoninė", "name:be": "Вісагінскі шпіталь", "name:lt": "Visagino ligoninė", "name:ru": "Больница", "name:uk": "Лікарня", "type": "multipolygon"}}, {"name": "Daugavpils Reģionālā slimnīca", "latitude": 55.8982951, "longitude": 26.592199, "source": "osm", "_tags": {"amenity": "hospital", "email": "sia.drs@apollo.lv", "emergency": "yes", "emergency:phone": "+371 654 05252;+371 654 05272", "fax": "+371 654 05254", "healthcare": "hospital", "healthcare:speciality": "surgery;cardiology;neurology;covid19;general;orthopaedics;paediatrics;rehabilitation;diagnostic_radiology;narcology;addiction;trauma;oncology;urology", "name": "Daugavpils Reģionālā slimnīca", "operator": "SIA “Daugavpils reģionālā slimnīca”", "operator:type": "public", "phone": "+371 654 05282", "start_date": "1986-01-25", "type": "multipolygon", "website": "https://slimnica.daugavpils.lv"}}]