[{"name": "Holbæk Sygehus", "latitude": 55.7113154, "longitude": 11.716941, "source": "osm", "_tags": {"amenity": "hospital", "check_date": "2025-08-08", "emergency": "yes", "healthcare": "hospital", "name": "Holbæk Sygehus", "wheelchair": "yes", "wikidata": "Q25476683"}}, {"name": "Epilepsi Moniterings Enhed", "latitude": 55.530107, "longitude": 11.502346, "source": "osm", "_tags": {"amenity": "hospital", "fvst:name": "Emuen", "fvst:navnelbnr": "89063", "name": "Epilepsi Moniterings Enhed", "ref:DK:cvr": "64723413", "ref:DK:cvr:pnummer": "1007718698"}}, {"name": "Neuropædiatrisk Afdeling", "latitude": 55.5313615, "longitude": 11.5037456, "source": "osm", "_tags": {"healthcare": "hospital", "healthcare:speciality": "paediatrics", "name": "Neuropædiatrisk Afdeling", "operator": "Filadelfia"}}, {"name": "Ringsted Sygehus", "latitude": 55.4500588, "longitude": 11.7909466, "source": "osm", "_tags": {"amenity": "hospital", "emergency": "yes", "healthcare": "hospital", "name": "Ringsted Sygehus"}}, {"name": "", "latitude": 55.5312635, "longitude": 11.5035943, "source": "osm", "_tags": {"amenity": "hospital", "healthcare": "hospital"}}, {"name": "Aleris Ringsted", "latitude": 55.4362474, "longitude": 11.8015041, "source": "osm", "_tags": {"amenity": "hospital", "emergency": "no", "healthcare": "hospital", "name": "Aleris Ringsted", "operator:type": "private", "phone": "+45 5761 0914", "type": "multipolygon"}}]