[{"name": "Lorn and Islands Hospital", "latitude": 56.4002288, "longitude": -5.4748664, "source": "osm", "_tags": {"amenity": "hospital", "emergency": "yes", "healthcare": "hospital", "name": "Lorn and Islands Hospital", "name:gd": "Ospadal Latharna 's nan Eilean", "source": "estimate", "wikidata": "Q18161222", "wikipedia": "en:Lorn and Islands Hospital"}}, {"name": "The Argyll and Bute Hospital", "latitude": 56.0424508, "longitude": -5.4172175, "source": "osm", "_tags": {"amenity": "hospital", "healthcare": "hospital", "name": "The Argyll and Bute Hospital", "source": "estimate", "wikidata": "Q30279784"}}, {"name": "Arran War Memorial Hospital", "latitude": 55.5429877, "longitude": -5.1156523, "source": "osm", "_tags": {"addr:city": "Isle of Arran", "addr:postcode": "KA27 8LF", "addr:street": "Hospital Road", "addr:suburb": "Lamlash", "amenity": "hospital", "contact:phone": "+44 1770 600777;+44 1770 601051", "contact:website": "https://www.nhsaaa.net/hospitals/arran-war-memorial-hospital", "emergency": "yes", "healthcare": "hospital", "name": "Arran War Memorial Hospital", "operator": "NHS Ayrshire & Arran", "wikidata": "Q27990508", "wikipedia": "en:Arran War Memorial Hospital"}}, {"name": "Mid Argyll Community Hospital and Integrated Care Centre", "latitude": 56.0405829, "longitude": -5.4229482, "source": "osm", "_tags": {"addr:postcode": "PA31 8JZ", "addr:street": "Blarbuie Road", "amenity": "hospital", "emergency": "yes", "healthcare": "hospital", "name": "Mid Argyll Community Hospital and Integrated Care Centre", "phone": "+44 1546 462000"}}]