[{"name": "Børneneurologisk Behandlingsklinik", "latitude": 55.7156153, "longitude": 12.565832, "source": "osm", "_tags": {"amenity": "hospital", "healthcare": "hospital", "name": "Børneneurologisk Behandlingsklinik"}}, {"name": "Privathospitalet Danmark", "latitude": 55.7536114, "longitude": 12.571778, "source": "osm", "_tags": {"amenity": "hospital", "emergency": "no", "name": "Privathospitalet Danmark", "ref:DK:cvr": "15501707", "ref:DK:cvr:pnummer": "1000934144", "wikidata": "Q7246270"}}, {"name": "Københavns Privathospital", "latitude": 55.7645027, "longitude": 12.519366, "source": "osm", "_tags": {"amenity": "hospital", "contact:email": "info@kbhprivat.dk", "name": "Københavns Privathospital", "opening_hours": "Mo-Fr 8:00-15:30", "phone": "+45 45933933", "website": "http://www.kbhprivat.dk/"}}, {"name": "Psykiatrisk akutmodtagelse", "latitude": 55.6858367, "longitude": 12.5217996, "source": "osm", "_tags": {"amenity": "hospital", "emergency": "yes", "name": "Psykiatrisk akutmodtagelse"}}, {"name": "Psykiatrisk Center Frederiksberg", "latitude": 55.6861512, "longitude": 12.520995, "source": "osm", "_tags": {"amenity": "hospital", "emergency": "yes", "name": "Psykiatrisk Center Frederiksberg"}}, {"name": "Psykiatrisk akutmodtagelse", "latitude": 55.929884, "longitude": 12.328904, "source": "osm", "_tags": {"amenity": "hospital", "emergency": "yes", "name": "Psykiatrisk akutmodtagelse"}}, {"name": "Psykiatrisk akutmodtagelse", "latitude": 55.6728051, "longitude": 12.3892316, "source": "osm", "_tags": {"amenity": "hospital", "emergency": "yes", "healthcare": "hospital", "name": "Psykiatrisk akutmodtagelse"}}, {"name": "Akutklinik", "latitude": 55.6872847, "longitude": 12.5257885, "source": "osm", "_tags": {"amenity": "hospital", "emergency": "yes", "name": "Akutklinik", "old_name": "Skadestuen Frederiksberg Hospital", "opening_hours": "07:00-22:00"}}, {"name": "Rigshospitalet - Glostrup", "latitude": 55.670262, "longitude": 12.389223, "source": "osm", "_tags": {"check_date": "2025-05-05", "emergency": "yes", "healthcare": "hospital", "internet_access": "wlan", "internet_access:fee": "customers", "name": "Rigshospitalet - Glostrup", "old_name": "Glostrup Hospital", "website": "https://www.glostruphospital.dk/", "wheelchair": "yes", "wikidata": "Q5571986"}}, {"name": "Akutklinik", "latitude": 55.7387178, "longitude": 12.5483545, "source": "osm", "_tags": {"amenity": "hospital", "healthcare": "hospital", "name": "Akutklinik"}}, {"name": "Blod Bank", "latitude": 55.7383383, "longitude": 12.5460507, "source": "osm", "_tags": {"amenity": "hospital", "healthcare": "blood_donation", "name": "Blod Bank"}}, {"name": "My Life Care Skodsborg", "latitude": 55.818613, "longitude": 12.57428, "source": "osm", "_tags": {"amenity": "hospital", "name": "My Life Care Skodsborg", "website": "http://www.mylife-skodsborg.dk/h"}}, {"name": "SUH i Roskilde - Plastikkirugi og brystkirugi", "latitude": 55.6366632, "longitude": 12.0905851, "source": "osm", "_tags": {"amenity": "hospital", "department": "plastic_surgery", "fvst:name": "SUH i Roskilde - Plastikkir. og brystkir. Sengeafsnit P93,", "fvst:navnelbnr": "96144", "name": "SUH i Roskilde - Plastikkirugi og brystkirugi", "ref:DK:cvr": "29190658", "ref:DK:cvr:pnummer": "1003284494"}}, {"name": "SUH i Roskilde Urologisk sengeafsnit", "latitude": 55.6362309, "longitude": 12.0898971, "source": "osm", "_tags": {"amenity": "hospital", "department": "urology", "fvst:name": "SUH i Roskilde Urologisk sengeafsnit D13, 01-508", "fvst:navnelbnr": "94122", "name": "SUH i Roskilde Urologisk sengeafsnit", "ref": "D13", "ref:DK:cvr": "29190658", "ref:DK:cvr:pnummer": "1003284494"}}, {"name": "SUH i Roskilde Kardiologisk sengeafsnit B71, 07-313", "latitude": 55.6366458, "longitude": 12.090231, "source": "osm", "_tags": {"amenity": "hospital", "department": "cardiology", "fvst:navnelbnr": "94123", "name": "SUH i Roskilde Kardiologisk sengeafsnit B71, 07-313", "ref:DK:cvr": "29190658", "ref:DK:cvr:pnummer": "1003284494"}}, {"name": "SUH i Roskilde Urologisk sengeafsnit D11, 01-310", "latitude": 55.6365087, "longitude": 12.089708, "source": "osm", "_tags": {"amenity": "hospital", "department": "urology", "fvst:navnelbnr": "97853", "name": "SUH i Roskilde Urologisk sengeafsnit D11, 01-310", "ref:DK:cvr": "29190658", "ref:DK:cvr:pnummer": "1003284494"}}, {"name": "Børneafdelingen neonatalafsnit", "latitude": 55.6364982, "longitude": 12.090408, "source": "osm", "_tags": {"amenity": "hospital", "department": "neonatal", "fvst:name": "SUH i Roskilde - Børneafdelingens neonatalafsnit C74 (mælkekøkken), 07-620A", "name": "Børneafdelingen neonatalafsnit", "ref": "C74"}}, {"name": "Center for Socialpsykiatri", "latitude": 55.6514977, "longitude": 12.0715707, "source": "osm", "_tags": {"amenity": "hospital", "emergency": "no", "healthcare": "hospital", "name": "Center for Socialpsykiatri", "operator": "Roskilde Kommune", "operator:type": "public"}}, {"name": "SUH i Roskilde - Børneafdelingens neonatalafsnit 07-613", "latitude": 55.6365128, "longitude": 12.0904782, "source": "osm", "_tags": {"amenity": "hospital", "department": "children", "fvst:name": "SUH i Roskilde - Børneafdelingens neonatalafsnit C74, 07-613", "name": "SUH i Roskilde - Børneafdelingens neonatalafsnit 07-613", "ref": "C74"}}, {"name": "SUH i Roskilde - Børneafdelingens neonatalafsnit", "latitude": 55.6367218, "longitude": 12.0907062, "source": "osm", "_tags": {"amenity": "hospital", "department": "Børneafdelingens neonatalafsnit", "fvst:name": "SUH i Roskilde - Børneafdelingens neonatalafsnit C74, 07-613", "fvst:navnelbnr": "94125", "name": "SUH i Roskilde - Børneafdelingens neonatalafsnit", "ref": "07-613", "ref:DK:cvr": "29190658", "ref:DK:cvr:pnummer": "1003284494"}}, {"name": "SUH i Roskilde - Intensiv terapi og opvågningsafsnit", "latitude": 55.636263, "longitude": 12.0898131, "source": "osm", "_tags": {"amenity": "hospital", "department": "intensiv terapi", "fvst:name": "SUH i Roskilde - Intensiv terapi og opvågningsafsnit II12, 01-408", "fvst:navnelbnr": "94127", "name": "SUH i Roskilde - Intensiv terapi og opvågningsafsnit", "ref": "01-408", "ref:DK:cvr": "29190658", "ref:DK:cvr:pnummer": "1003284494"}}, {"name": "SUH i Roskilde - Afsnit for fødende G73 (mælkekøkken)", "latitude": 55.6367952, "longitude": 12.0909181, "source": "osm", "_tags": {"amenity": "hospital", "fvst:name": "SUH i Roskilde - Børneafdelingens neonatalafsnit C74, 07-613", "name": "SUH i Roskilde - Afsnit for fødende G73 (mælkekøkken)", "ref": "07-511"}}, {"name": "Capio CFR Lyngby", "latitude": 55.764734, "longitude": 12.519646, "source": "osm", "_tags": {"amenity": "hospital", "name": "Capio CFR Lyngby", "ref:DK:cvr": "27506909", "ref:DK:cvr:pnummer": "1020669809", "website": "http://www.capiocfr.dk/"}}, {"name": "Børne- og Ungdomspsykiatrisk Center", "latitude": 55.7158717, "longitude": 12.5434342, "source": "osm", "_tags": {"amenity": "hospital", "branch": "Region Hovedstadens Psyk", "fvst:navnelbnr": "112091", "healthcare": "hospital", "name": "Børne- og Ungdomspsykiatrisk Center", "ref": "B102", "ref:DK:cvr": "29190623", "ref:DK:cvr:pnummer": "1016460121"}}, {"name": "Børne- og Ungdomspsykiatrisk Center Afs. B291", "latitude": 55.6710108, "longitude": 12.391971, "source": "osm", "_tags": {"department": "psyciatric", "fvst:navnelbnr": "123387", "healthcare": "hospital", "name": "Børne- og Ungdomspsykiatrisk Center Afs. B291", "ref:DK:cvr": "29190623", "ref:DK:cvr:pnummer": "1010567048"}}, {"name": "Børne- og Ungdomspsykiatrisk Center Afs. B203", "latitude": 55.6709802, "longitude": 12.3920454, "source": "osm", "_tags": {"amenity": "hospital", "fvst:navnelbnr": "95164", "healthcare": "hospital", "name": "Børne- og Ungdomspsykiatrisk Center Afs. B203", "ref:DK:cvr": "29190623", "ref:DK:cvr:pnummer": "1010567048"}}, {"name": "Børne- og Ungdomspykiatrisk Center Afs. B290", "latitude": 55.6709923, "longitude": 12.3919831, "source": "osm", "_tags": {"amenity": "hospital", "fvst:navnelbnr": "96185", "healthcare": "hospital", "name": "Børne- og Ungdomspykiatrisk Center Afs. B290", "ref:DK:cvr": "29190623", "ref:DK:cvr:pnummer": "1010567048"}}, {"name": "Børne- og Ungdomspykiatrisk Center Afs. 29A", "latitude": 55.6709711, "longitude": 12.3919804, "source": "osm", "_tags": {"amenity": "hospital", "fvst:navnelbnr": "93569", "healthcare": "hospital", "name": "Børne- og Ungdomspykiatrisk Center Afs. 29A", "ref:DK:cvr": "29190623", "ref:DK:cvr:pnummer": "1010567048"}}, {"name": "Hjerteafdelingen", "latitude": 55.7153933, "longitude": 12.5409579, "source": "osm", "_tags": {"healthcare": "hospital", "healthcare:speciality": "heart", "name": "Hjerteafdelingen", "operator": "Bispebjerg Hospital", "ref": "Y12;Y21;Y22"}}, {"name": "Capio Gildhøj", "latitude": 55.6508741, "longitude": 12.4144332, "source": "osm", "_tags": {"amenity": "hospital", "emergency": "no", "fvst:fixme": "fvst:no_pos", "fvst:navnelbnr": "1417790", "healthcare": "hospital", "name": "Capio Gildhøj", "operator": "Capio", "operator:type": "private", "operator:wikidata": "Q498606", "ref:DK:cvr": "27506909", "ref:DK:cvr:pnummer": "1029141807", "website": "https://capio.dk"}}, {"name": "Børne- og Ungdomspsykiatrisk Center Afs. B204", "latitude": 55.6710142, "longitude": 12.3923511, "source": "osm", "_tags": {"department": "psyciatric", "fvst:navnelbnr": "97881", "healthcare": "hospital", "name": "Børne- og Ungdomspsykiatrisk Center Afs. B204", "ref:DK:cvr": "29190623", "ref:DK:cvr:pnummer": "1010567048"}}, {"name": "Helsingør Sundhedshus", "latitude": 56.0193339, "longitude": 12.5687885, "source": "osm", "_tags": {"amenity": "hospital", "emergency": "yes", "healthcare": "hospital", "name": "Helsingør Sundhedshus", "operator": "Helsingør Kommune", "phone": "+ 45 4928 2828", "website": "https://sundhedshus.helsingor.dk/velkommen/"}}, {"name": "Aleris København", "latitude": 55.7271743, "longitude": 12.4754101, "source": "osm", "_tags": {"amenity": "hospital", "branch": "København", "brand": "Aleris", "emergency": "no", "healthcare": "hospital", "name": "Aleris København", "operator": "Aleris", "operator:type": "private", "phone": "+45 38170700", "website": "https://www.aleris.dk/her-finder-du-os/kobenhavn/aleris-kobenhavn/", "wheelchair": "yes"}}, {"name": "Capio Hellerup", "latitude": 55.7271482, "longitude": 12.5778859, "source": "osm", "_tags": {"amenity": "hospital", "emergency": "no", "fvst:fixme": "fvst:no_pos", "fvst:navnelbnr": "1472729", "healthcare": "hospital", "name": "Capio Hellerup", "operator": "Capio", "operator:type": "private", "operator:wikidata": "Q498606", "ref:DK:cvr": "27506909", "ref:DK:cvr:pnummer": "1010322681"}}, {"name": "Roskilde Sygehus", "latitude": 55.6360784, "longitude": 12.0912937, "source": "osm", "_tags": {"alt_name": "Sjællands Universitetshospital, Roskilde", "amenity": "hospital", "emergency": "yes", "name": "Roskilde Sygehus", "website": "https://www.regionsjaelland.dk/sundhed/geo/roskildesygehus", "wheelchair": "yes", "wikidata": "Q12333823"}}, {"name": "Amager Hospital - Italiensvej", "latitude": 55.655204, "longitude": 12.6201543, "source": "osm", "_tags": {"amenity": "hospital", "emergency": "yes", "healthcare": "hospital", "name": "Amager Hospital - Italiensvej", "wheelchair": "yes", "wikidata": "Q4739127", "wikipedia": "da:Amager Hospital"}}, {"name": "Diakonisse-stiftelsen", "latitude": 55.6784948, "longitude": 12.5183643, "source": "osm", "_tags": {"amenity": "hospital", "fvst:navnelbnr": "112741", "healthcare": "hospital", "name": "Diakonisse-stiftelsen", "ref:DK:cvr": "62572019", "ref:DK:cvr:pnummer": "1014910375", "wikidata": "Q10470404", "wikipedia": "da:Diakonissestiftelsen"}}, {"name": "Gentofte Hospital", "latitude": 55.7389047, "longitude": 12.5468106, "source": "osm", "_tags": {"amenity": "hospital", "emergency": "yes", "healthcare": "hospital", "name": "Gentofte Hospital", "smoking:outside": "no", "wheelchair": "yes", "wikidata": "Q5533764"}}, {"name": "Bispebjerg Hospital", "latitude": 55.714435, "longitude": 12.5404246, "source": "osm", "_tags": {"alt_name": "BBH", "amenity": "hospital", "emergency": "yes", "fvst:navnelbnr": "1491180", "healthcare": "hospital", "name": "Bispebjerg Hospital", "old_name": "Bispebjerg Sygehus", "ref:DK:cvr": "29190623", "ref:DK:cvr:pnummer": "1003251685", "website": "https://www.bispebjerghospital.dk/", "wheelchair": "yes", "wikidata": "Q3374802", "wikimedia_commons": "Category:Bispebjerg Hospital", "wikipedia": "da:Bispebjerg Hospital"}}, {"name": "", "latitude": 55.6729482, "longitude": 12.3892988, "source": "osm", "_tags": {"amenity": "hospital", "emergency": "yes", "healthcare": "hospital", "smokefree": "yes", "smoking": "no", "smoking:outside": "no"}}, {"name": "Hvidovre Hospital", "latitude": 55.6488083, "longitude": 12.4669496, "source": "osm", "_tags": {"amenity": "hospital", "emergency": "yes", "healthcare": "hospital", "name": "Hvidovre Hospital", "wheelchair": "yes", "wikidata": "Q3374772", "wikipedia": "da:Hvidovre Hospital"}}, {"name": "Steno Diabetes Center Copenhagen", "latitude": 55.7559274, "longitude": 12.5260383, "source": "osm", "_tags": {"amenity": "hospital", "healthcare": "hospital", "name": "Steno Diabetes Center Copenhagen", "ref:DK:cvr": "29190623", "ref:DK:cvr:pnummer": "1021672366", "short_name": "SDCC"}}, {"name": "Rigshospitalet", "latitude": 55.6970223, "longitude": 12.5662344, "source": "osm", "_tags": {"alt_name": "Riget", "amenity": "hospital", "emergency": "yes", "healthcare": "hospital", "name": "Rigshospitalet", "ref:DK:cvr": "29190623", "ref:DK:cvr:pnummer": "1003398648", "smoking": "no", "smoking:outside": "no", "website": "https://www.rigshospitalet.dk/", "wheelchair": "yes", "wikidata": "Q3357360", "wikipedia": "da:Rigshospitalet"}}, {"name": "Psykiatrisk Center Ballerup", "latitude": 55.7218994, "longitude": 12.3607502, "source": "osm", "_tags": {"amenity": "hospital", "check_date": "2025-05-14", "name": "Psykiatrisk Center Ballerup"}}, {"name": "Psykiatrisk Center Glostrup (afdeling Hvidovre)", "latitude": 55.6494825, "longitude": 12.4407327, "source": "osm", "_tags": {"amenity": "hospital", "emergency": "yes", "healthcare": "psychotherapist", "name": "Psykiatrisk Center Glostrup (afdeling Hvidovre)", "opening_hours": "Mo-Fr 08:00-16:00"}}, {"name": "Amtssygehuset Fjorden", "latitude": 55.6501925, "longitude": 12.0708124, "source": "osm", "_tags": {"amenity": "hospital", "healthcare": "hospital", "name": "Amtssygehuset Fjorden"}}, {"name": "Helsingborgs lasarett", "latitude": 56.0459884, "longitude": 12.7047913, "source": "osm", "_tags": {"addr:city": "Helsingborg", "addr:country": "SE", "addr:housenumber": "10", "addr:street": "Charlotte Yhlens gata", "amenity": "hospital", "emergency": "yes", "health_specialty:emergency_medicine": "yes", "health_specialty:family_medicine": "yes", "health_specialty:intensive_care_medicine": "yes", "health_specialty:orthopaedics": "yes", "health_specialty:paediatrics": "yes", "health_specialty:surgery": "yes", "health_specialty:vascular_surgery": "yes", "healthcare": "hospital", "name": "Helsingborgs lasarett", "opening_hours": "24/7", "operator": "Region Skåne", "operator:type": "public", "source": "Bing", "wheelchair": "yes"}}, {"name": "Nordsjællands Hospital – Frederikssund", "latitude": 55.8483715, "longitude": 12.0850638, "source": "osm", "_tags": {"amenity": "hospital", "emergency": "yes", "healthcare": "hospital", "name": "Nordsjællands Hospital – Frederikssund", "old_name": "Frederikssund Hospital", "short_name": "Nordsjællands Hospital", "website": "https://www.nordsjaellandshospital.dk/", "wheelchair": "yes"}}, {"name": "Psykiatrisk Center Nordsjælland - Afdeling Hillerød", "latitude": 55.9295485, "longitude": 12.3286312, "source": "osm", "_tags": {"amenity": "hospital", "name": "Psykiatrisk Center Nordsjælland - Afdeling Hillerød", "wheelchair": "yes"}}, {"name": "Psykiatrisk Center Amager", "latitude": 55.6433995, "longitude": 12.5858786, "source": "osm", "_tags": {"amenity": "hospital", "healthcare": "hospital", "name": "Psykiatrisk Center Amager"}}, {"name": "Region Hovedstadens psykiatriske hospital", "latitude": 55.7108057, "longitude": 12.5622115, "source": "osm", "_tags": {"building": "office", "building:levels": "5", "check_date": "2024-03-05", "healthcare": "hospital", "healthcare:speciality": "psychiatry", "name": "Region Hovedstadens psykiatriske hospital", "roof:levels": "1", "roof:shape": "flat", "website": "https://www.psykiatri-regionh.dk/"}}, {"name": "Arresødal Hospice", "latitude": 55.9767128, "longitude": 12.0313434, "source": "osm", "_tags": {"amenity": "hospital", "building": "yes", "historic": "manor", "name": "Arresødal Hospice", "website": "http://www.arresoedal-hospice.dk/", "wikidata": "Q106377407"}}, {"name": "Amager Hospital - Hans Bogbinders Allé", "latitude": 55.6544703, "longitude": 12.6086382, "source": "osm", "_tags": {"amenity": "hospital", "healthcare": "hospital", "name": "Amager Hospital - Hans Bogbinders Allé", "wheelchair": "yes"}}, {"name": "Landskrona lasarett", "latitude": 55.8778977, "longitude": 12.8407958, "source": "osm", "_tags": {"amenity": "hospital", "name": "Landskrona lasarett"}}, {"name": "Hillerød Hospital", "latitude": 55.9318842, "longitude": 12.3267314, "source": "osm", "_tags": {"amenity": "hospital", "check_date": "2025-09-28", "emergency": "yes", "healthcare": "hospital", "name": "Hillerød Hospital", "operator": "Nordsjællands Hospital", "website": "https://www.nordsjaellandshospital.dk/", "wheelchair": "yes", "wikidata": "Q63057948", "wikipedia": "da:Hillerød Hospital"}}, {"name": "Herlev Hospital", "latitude": 55.730926, "longitude": 12.4422095, "source": "osm", "_tags": {"amenity": "hospital", "emergency": "yes", "fvst:navnelbnr": "1481275", "healthcare": "hospital", "name": "Herlev Hospital", "name:etymology:wikidata": "Q3646715", "old_name": "Herlev Sygehus", "operator": "Region Hovedstaden", "ref:DK:cvr": "29190623", "ref:DK:cvr:pnummer": "1003259108", "website": "https://www.herlevhospital.dk/", "wheelchair": "yes", "wikidata": "Q3375948", "wikipedia": "da:Herlev Hospital"}}, {"name": "Rehabiliteringscentret Hedebo", "latitude": 55.5939903, "longitude": 12.249006, "source": "osm", "_tags": {"amenity": "hospital", "building": "yes", "fvst:navnelbnr": "92048", "name": "Rehabiliteringscentret Hedebo", "ref:DK:cvr": "44023911", "ref:DK:cvr:pnummer": "1003285118"}}, {"name": "Frederiksberg Hospital", "latitude": 55.6864293, "longitude": 12.5227142, "source": "osm", "_tags": {"alt_name": "Frederiksberg Sygehus", "amenity": "hospital", "emergency": "yes", "healthcare": "hospital", "name": "Frederiksberg Hospital", "name:etymology:wikidata": "Q30096", "short_name": "FRH", "smokefree": "no", "smoking": "no", "smoking:outside": "no", "website": "https://www.frederiksberghospital.dk/", "wheelchair": "yes", "wikidata": "Q1135057"}}, {"name": "Hospice Søndergård", "latitude": 55.7436859, "longitude": 12.3233953, "source": "osm", "_tags": {"amenity": "hospital", "emergency": "no", "fvst:navnelbnr": "110212", "name": "Hospice Søndergård", "ref:DK:cvr": "14268235", "ref:DK:cvr:pnummer": "1015823182", "website": "https://ok-hsg.dk/"}}, {"name": "Psykiatrisk Center Sct. Hans", "latitude": 55.6509328, "longitude": 12.0672568, "source": "osm", "_tags": {"amenity": "hospital", "healthcare": "hospital", "healthcare:speciality": "psychiatry", "name": "Psykiatrisk Center Sct. Hans", "wikidata": "Q10661356"}}, {"name": "Sjællands Universitetshospital, Køge", "latitude": 55.4766629, "longitude": 12.1657383, "source": "osm", "_tags": {"amenity": "hospital", "emergency": "yes", "healthcare": "hospital", "name": "Sjællands Universitetshospital, Køge", "note": "Navnet er ifølge wikipedia artiklen ændret pr 4. marts 2016", "old_name": "Køge Sygehus", "wikidata": "Q12323448", "wikipedia": "da:Sjællands Universitetshospital, Køge"}}, {"name": "Ängelholms sjukhus", "latitude": 56.2392057, "longitude": 12.8560039, "source": "osm", "_tags": {"alt_name": "Norra sjukhusområdet", "amenity": "hospital", "emergency": "yes", "health_specialty:emergency_medicine": "yes", "health_specialty:family_medicine": "yes", "health_specialty:orthopaedics": "yes", "health_specialty:surgery": "yes", "healthcare": "hospital", "name": "Ängelholms sjukhus", "opening_hours": "Mo-Su 08:00-20:00", "type": "multipolygon", "wikidata": "Q10725865"}}, {"name": "Södra sjukhusområdet", "latitude": 56.2389881, "longitude": 12.8536013, "source": "osm", "_tags": {"amenity": "hospital", "healthcare": "hospital", "name": "Södra sjukhusområdet", "type": "multipolygon"}}]