[{"name": "East Lothian Community Hospital", "latitude": 55.9574128, "longitude": -2.7972731, "source": "osm", "_tags": {"amenity": "hospital", "healthcare": "hospital", "name": "East Lothian Community Hospital", "old_name": "Roodlands Hospital", "operator": "NHS Scotland", "wheelchair": "yes", "wikidata": "Q28406015", "wikipedia": "en:East Lothian Community Hospital"}}, {"name": "Kelso Hospital (Inch Hosp.)", "latitude": 55.6026313, "longitude": -2.4357014, "source": "osm", "_tags": {"addr:postcode": "TD5 7JP", "addr:street": "Inch Road", "amenity": "hospital", "emergency": "yes", "fhrs:id": "28403", "healthcare": "hospital", "name": "Kelso Hospital (Inch Hosp.)", "operator": "Borders Primary Care NHS Trust", "source": "survey;estimation;OS_OpenData_StreetView", "source:addr": "FHRS Open Data"}}, {"name": "Knoll Community Hospital", "latitude": 55.7725339, "longitude": -2.3411301, "source": "osm", "_tags": {"addr:postcode": "TD11 3EL", "addr:street": "Station Road", "amenity": "hospital", "emergency": "no", "fhrs:id": "69770", "healthcare": "hospital", "name": "Knoll Community Hospital", "source:addr": "FHRS Open Data"}}, {"name": "Belhaven Hospital", "latitude": 55.9958501, "longitude": -2.5373587, "source": "osm", "_tags": {"amenity": "hospital", "healthcare": "hospital", "name": "Belhaven Hospital", "wikidata": "Q48814832", "wikipedia": "en:Belhaven Hospital"}}, {"name": "Borders General Hospital", "latitude": 55.5953572, "longitude": -2.7438817, "source": "osm", "_tags": {"addr:postcode": "TD6 9BS", "amenity": "hospital", "emergency": "yes", "fhrs:id": "52112", "healthcare": "hospital", "name": "Borders General Hospital", "operator": "NHS Borders", "source:addr:postcode": "FHRS Open Data", "wikidata": "Q4944702", "wikipedia": "en:Borders General Hospital"}}, {"name": "Hawick Community Hospital", "latitude": 55.4236746, "longitude": -2.7944796, "source": "osm", "_tags": {"addr:postcode": "TD9 7AH", "addr:street": "Victoria Road", "amenity": "hospital", "fhrs:id": "19343", "healthcare": "hospital", "name": "Hawick Community Hospital", "source:addr": "FHRS Open Data", "wikidata": "Q85011486"}}, {"name": "Cameron Hospital", "latitude": 56.1865595, "longitude": -3.0570042, "source": "osm", "_tags": {"amenity": "hospital", "emergency": "no", "healthcare": "hospital", "name": "Cameron Hospital", "operator": "NHS Fife", "operator:type": "public", "operator:wikidata": "Q6954135", "wikidata": "Q85200775", "wikipedia": "en:Cameron Hospital"}}, {"name": "Stratheden Hospital", "latitude": 56.3037062, "longitude": -3.0536291, "source": "osm", "_tags": {"addr:city": "Stratheden", "addr:postcode": "KY15 5RR", "amenity": "hospital", "emergency": "no", "healthcare": "hospital", "healthcare:speciality": "psychiatry", "name": "Stratheden Hospital", "operator": "NHS Fife", "operator:type": "public", "operator:wikidata": "Q6954135", "wikidata": "Q27167225", "wikipedia": "en:Stratheden Hospital"}}, {"name": "St Andrews Community Hospital", "latitude": 56.327619, "longitude": -2.8052279, "source": "osm", "_tags": {"amenity": "hospital", "emergency": "no", "healthcare": "hospital", "name": "St Andrews Community Hospital", "operator": "NHS Fife", "operator:type": "public", "operator:wikidata": "Q6954135", "toilets:wheelchair": "yes", "wheelchair": "yes", "wikidata": "Q7592438", "wikipedia": "en:St Andrews Community Hospital"}}, {"name": "Edington Cottage Hospital", "latitude": 56.0555526, "longitude": -2.718313, "source": "osm", "_tags": {"addr:city": "North Berwick", "addr:housenumber": "54", "addr:street": "St Baldreds Road", "amenity": "hospital", "building": "yes", "emergency": "no", "healthcare": "hospital", "name": "Edington Cottage Hospital", "source": "OS_OpenData_StreetView", "wikidata": "Q48814905", "wikipedia": "en:Edington Cottage Hospital"}}, {"name": "Adamson Hospital", "latitude": 56.3238396, "longitude": -3.0178848, "source": "osm", "_tags": {"amenity": "hospital", "emergency": "no", "healthcare": "hospital", "name": "Adamson Hospital", "operator": "NHS Fife", "operator:type": "public", "operator:wikidata": "Q6954135", "wikidata": "Q27167198", "wikipedia": "en:Adamson Hospital"}}, {"name": "Randolph Wemyss Memorial Hospital", "latitude": 56.1769982, "longitude": -3.0274675, "source": "osm", "_tags": {"amenity": "hospital", "emergency": "no", "healthcare": "hospital", "name": "Randolph Wemyss Memorial Hospital", "operator": "NHS Fife", "operator:type": "public", "operator:wikidata": "Q6954135", "wikidata": "Q17793635", "wikipedia": "en:Randolph Wemyss Memorial Hospital"}}, {"name": "The Esk Centre", "latitude": 55.9435306, "longitude": -3.055706, "source": "osm", "_tags": {"amenity": "hospital", "healthcare": "hospital", "name": "The Esk Centre", "operator": "NHS Lothian", "operator:type": "government"}}, {"name": "", "latitude": 55.7723534, "longitude": -2.3411722, "source": "osm", "_tags": {"amenity": "hospital", "building": "hospital", "healthcare": "hospital", "type": "multipolygon"}}]