[{"name": "Bauskas poliklīnika", "latitude": 56.4084469, "longitude": 24.1921047, "source": "osm", "_tags": {"addr:city": "Bauska", "addr:country": "LV", "addr:district": "Bauskas novads", "addr:housenumber": "7 k-1", "addr:postcode": "LV-3901", "addr:street": "Dārza iela", "amenity": "hospital", "building": "yes", "healthcare": "hospital", "name": "Bauskas poliklīnika", "old_addr:housenumber": "7/1", "ref:LV:addr": "101099276"}}, {"name": "Krekenavos pirminės sveikatos priežiūros centras", "latitude": 55.545029, "longitude": 24.0917597, "source": "osm", "_tags": {"addr:city": "Krekenava", "addr:housenumber": "8", "addr:street": "Maironio g.", "amenity": "hospital", "name": "Krekenavos pirminės sveikatos priežiūros centras"}}, {"name": "Krekenavos Palaikomojo Gydymo ir Slaugos Ligoninė", "latitude": 55.54825, "longitude": 24.0946478, "source": "osm", "_tags": {"addr:city": "Krekenava", "addr:housenumber": "42", "addr:postcode": "38308", "addr:street": "Vytauto g.", "amenity": "hospital", "building": "yes", "emergency": "no", "name": "Krekenavos Palaikomojo Gydymo ir Slaugos Ligoninė"}}, {"name": "joniškėlio palaikomojo gydymo ir slaugos skyrius", "latitude": 56.026384, "longitude": 24.1692783, "source": "osm", "_tags": {"addr:city": "Joniškėlis", "addr:housenumber": "3", "addr:postcode": "39305", "addr:street": "Vytauto g.", "alt_name": "Joniškėlio ligoninė", "amenity": "hospital", "building": "yes", "emergency": "yes", "name": "joniškėlio palaikomojo gydymo ir slaugos skyrius", "operator": "Pasvalio ligoninė", "website": "https://pasvalioligonine.eu/"}}, {"name": "Panevėžio respublikinė ligoninė", "latitude": 55.7349835, "longitude": 24.3669605, "source": "osm", "_tags": {"addr:city": "Panevėžys", "addr:housenumber": "25", "addr:postcode": "35144", "addr:street": "Smėlynės g.", "amenity": "hospital", "building": "yes", "name": "Panevėžio respublikinė ligoninė", "wikidata": "Q20504351", "wikipedia": "lt:Respublikinė Panevėžio ligoninė"}}, {"name": "Biržų ligoninė", "latitude": 56.1885538, "longitude": 24.759469, "source": "osm", "_tags": {"addr:city": "Biržai", "addr:housenumber": "115", "addr:postcode": "41115", "addr:street": "Vilniaus g.", "amenity": "hospital", "building": "yes", "emergency": "yes", "name": "Biržų ligoninė", "website": "http://www.birzuligonine.lt/index.php/lt/"}}, {"name": "Panevezio m. greitosios medicinos pagalbos stotis", "latitude": 55.7299644, "longitude": 24.3545734, "source": "osm", "_tags": {"addr:city": "Panevėžys", "addr:housenumber": "5B", "addr:street": "Sietyno g.", "amenity": "hospital", "healthcare": "hospital", "name": "Panevezio m. greitosios medicinos pagalbos stotis"}}, {"name": "Troškūnų ambulatorija", "latitude": 55.5857448, "longitude": 24.8844105, "source": "osm", "_tags": {"addr:city": "Smėlynė", "addr:housenumber": "1", "addr:postcode": "29305", "addr:street": "Šermukšnių g.", "amenity": "hospital", "building": "yes", "name": "Troškūnų ambulatorija"}}, {"name": "Troškūnų palaikomojo gydymo ir slaugos ligoninė", "latitude": 55.5871329, "longitude": 24.8751418, "source": "osm", "_tags": {"addr:city": "Troškūnai", "addr:contact": "yes", "addr:housenumber": "15", "addr:street": "Vytauto g.", "amenity": "hospital", "name": "Troškūnų palaikomojo gydymo ir slaugos ligoninė"}}, {"name": "Panevėžio infekcinė ligoninė", "latitude": 55.7242295, "longitude": 24.3629338, "source": "osm", "_tags": {"addr:city": "Panevėžys", "addr:housenumber": "25", "addr:postcode": "36211", "addr:street": "Ramygalos g.", "amenity": "hospital", "building": "yes", "emergency": "no", "name": "Panevėžio infekcinė ligoninė"}}, {"name": "Panevėžio palaikomojo gydymo ir slaugos ligoninė", "latitude": 55.7317098, "longitude": 24.3689784, "source": "osm", "_tags": {"addr:city": "Panevėžys", "addr:housenumber": "6", "addr:street": "M. Tiškevičiaus g.", "amenity": "hospital", "building": "hospital", "building:levels": "4", "name": "Panevėžio palaikomojo gydymo ir slaugos ligoninė"}}, {"name": "Akušerijos skyrius", "latitude": 55.7340546, "longitude": 24.3664794, "source": "osm", "_tags": {"addr:approximate": "yes", "addr:city": "Panevėžys", "amenity": "hospital", "building": "yes", "name": "Akušerijos skyrius"}}, {"name": "Pasvalio ligoninė", "latitude": 56.0676862, "longitude": 24.4078, "source": "osm", "_tags": {"addr:city": "Pasvalys", "addr:housenumber": "70", "addr:postcode": "39122", "addr:street": "Geležinkeliečių g.", "amenity": "hospital", "name": "Pasvalio ligoninė", "website": "http://www.pasvalioligonine.eu/en/"}}, {"name": "Likėnų reabilitacinė ligoninė", "latitude": 56.201347, "longitude": 24.6252341, "source": "osm", "_tags": {"amenity": "hospital", "email": "likenai@panevezioligonine.lt", "landuse": "residential", "name": "Likėnų reabilitacinė ligoninė", "type": "multipolygon", "website": "http://www.likenai.lt/"}}]