[{"name": "Хуткая дапамога", "latitude": 55.5325305, "longitude": 28.64533, "source": "osm", "_tags": {"amenity": "hospital", "healthcare": "hospital", "name": "Хуткая дапамога", "name:be": "Хуткая дапамога", "name:ru": "Скорая Помощь"}}, {"name": "Дзіцячая паліклініка", "latitude": 55.4916304, "longitude": 28.7691219, "source": "osm", "_tags": {"addr:housenumber": "18", "addr:street": "вуліца Еўфрасінні Полацкай", "amenity": "hospital", "healthcare": "hospital", "name": "Дзіцячая паліклініка", "name:be": "Дзіцячая паліклініка", "name:ru": "Детская Поликлиника", "website": "http://detskaya.polmed.by"}}, {"name": "Медвыцвярэзнік", "latitude": 55.532592, "longitude": 28.6457285, "source": "osm", "_tags": {"amenity": "hospital", "healthcare": "hospital", "name": "Медвыцвярэзнік", "name:be": "Медвыцвярэзнік", "name:ru": "Медвытрезвитель"}}, {"name": "Гінекалагічнае аддзяленне", "latitude": 55.4761613, "longitude": 28.7420435, "source": "osm", "_tags": {"amenity": "hospital", "contact:phone": "+375 (214) 43 34 30, +375 (214) 43 51 06", "contact:website": "http://polmed.by/index.php/Struktura/Polotskaya-tsentralnaya-gorodskaya-bolnitsa/Hirurgicheskiy-korpus/Ginekologicheskoe-otdelenie/Ginekologicheskoe-otdelenie.html", "healthcare": "hospital", "healthcare:speciality": "gynaecology", "level": "3", "name": "Гінекалагічнае аддзяленне", "name:be": "Гінекалагічнае аддзяленне", "name:ru": "Гинекологическое отделение", "opening_hours": "24/7", "operator": "ГУЗ «Полоцкая центральная городская больница»"}}, {"name": "Анкалагічны дыспансер", "latitude": 55.4762416, "longitude": 28.7407259, "source": "osm", "_tags": {"amenity": "hospital", "contact:email": "pmod@tut.by", "contact:phone": "+375(214) 43 99 60, +375(214) 43 49 30", "contact:website": "http://polmed.by/index.php/Struktura/Polotskiy-Mezhrayonnyiy-Onkologicheskiy-Dispanser.html", "emergency": "yes", "healthcare": "hospital", "healthcare:speciality": "oncology", "name": "Анкалагічны дыспансер", "name:be": "Анкалагічны дыспансер", "name:ru": "Онкологический диспансер", "official_name": "Полоцкий межрайонный онкологический диспансер", "operator": "ГУЗ «Полоцкая центральная городская больница»"}}, {"name": "Хірургічнае аддзяленне", "latitude": 55.4765923, "longitude": 28.7412002, "source": "osm", "_tags": {"amenity": "hospital", "healthcare": "hospital", "name": "Хірургічнае аддзяленне", "name:be": "Хірургічнае аддзяленне", "name:ru": "Хирургическое отделение", "opening_hours": "24/7"}}, {"name": "Хуткая дапамога", "latitude": 55.4758314, "longitude": 28.7892266, "source": "osm", "_tags": {"amenity": "hospital", "healthcare": "hospital", "name": "Хуткая дапамога", "name:be": "Хуткая дапамога", "name:en": "ambulance", "name:ru": "скорая помощь"}}, {"name": "Бальніца сястрынскага догляду", "latitude": 55.5444079, "longitude": 28.6208978, "source": "osm", "_tags": {"amenity": "hospital", "name": "Бальніца сястрынскага догляду", "name:be": "Бальніца сястрынскага догляду", "name:ru": "Больница сестринского ухода"}}, {"name": "Бальніца сястрынскага догляду", "latitude": 55.5444006, "longitude": 28.6208926, "source": "osm", "_tags": {"amenity": "hospital", "name": "Бальніца сястрынскага догляду", "name:be": "Бальніца сястрынскага догляду", "name:ru": "Больница сестринского ухода"}}, {"name": "Бяздзедавіцкая бальніца сястрынскага догляду", "latitude": 55.4927922, "longitude": 28.474032, "source": "osm", "_tags": {"amenity": "hospital", "name": "Бяздзедавіцкая бальніца сястрынскага догляду", "name:be": "Бяздзедавіцкая бальніца сястрынскага догляду", "name:ru": "Бездедовичская больница сестринского ухода"}}, {"name": "Процітуберкулёзны дыспансер", "latitude": 55.5397761, "longitude": 28.6255721, "source": "osm", "_tags": {"addr:housenumber": "6", "addr:postcode": "211443", "addr:street": "вуліца Дзяржынскага", "amenity": "hospital", "building": "yes", "building:levels": "1", "name": "Процітуберкулёзны дыспансер", "name:be": "Процітуберкулёзны дыспансер", "name:en": "TB Dispensary", "name:ru": "Противотуберкулёзный диспансер"}}, {"name": "Цэнтральная гарадская бальніца", "latitude": 55.5417766, "longitude": 28.6203143, "source": "osm", "_tags": {"amenity": "hospital", "barrier": "fence", "email": "novgtmo@vitebsk.by", "emergency": "yes", "name": "Цэнтральная гарадская бальніца", "name:be": "Цэнтральная гарадская бальніца", "name:ru": "Центральная городская больница", "official_name": "УЗ «Новополоцкая центральная городская больница»", "phone": "+375214536270", "short_name": "УЗ «НЦГБ»", "website": "http://www.ncgb.by/"}}, {"name": "Роддом", "latitude": 56.2842955, "longitude": 28.476978, "source": "osm", "_tags": {"addr:housenumber": "45", "addr:street": "Ленинская улица", "amenity": "hospital", "building": "yes", "building:levels": "1", "healthcare:speciality": "maternity", "name": "Роддом", "source": "Государственный комитет по здравоохранению и фармации Псковской области", "source:website": "http://zdrav.pskov.ru/"}}, {"name": "Полацкая цэнтральная гарадская бальніца", "latitude": 55.4756423, "longitude": 28.741675, "source": "osm", "_tags": {"amenity": "hospital", "contact:email": "polstathosp@tut.by", "contact:phone": "+375 (214) 43-45-14", "contact:website": "http://polmed.by/", "emergency": "yes", "healthcare": "hospital", "healthcare:speciality": "surgery", "name": "Полацкая цэнтральная гарадская бальніца", "name:be": "Полацкая цэнтральная гарадская бальніца", "name:ru": "Полоцкая центральная городская больница", "official_name": "ГУЗ «Полоцкая центральная городская больница»", "short_name": "Полоцкая ЦГБ", "wikidata": "Q87685676"}}, {"name": "Поликлиническое отделение Себежской РБ", "latitude": 56.3343772, "longitude": 28.9110211, "source": "osm", "_tags": {"addr:city": "Идрица", "addr:country": "RU", "addr:district": "Себежский район", "addr:housenumber": "58", "addr:region": "Псковская область", "addr:street": "улица Гагарина", "amenity": "hospital", "building": "yes", "healthcare": "hospital", "healthcare:speciality": "gynaecology;paediatric", "hospital:usage": "ward", "information": "terminal", "name": "Поликлиническое отделение Себежской РБ", "official_name": "Поликлиническое отделение п. Идрица ГБУЗ ПО \"Себежская районная больница\"", "phone": "+7 81140 44291", "source": "Государственный комитет по здравоохранению и фармации Псковской области", "source:website": "http://zdrav.pskov.ru/", "ward": "adult"}}, {"name": "Себежская ЦРБ", "latitude": 56.2840084, "longitude": 28.4756059, "source": "osm", "_tags": {"addr:housenumber": "43", "addr:street": "Ленинская улица", "amenity": "hospital", "building:levels": "1", "healthcare": "hospital", "hospital:usage": "ward", "name": "Себежская ЦРБ", "source": "Государственный комитет по здравоохранению и фармации Псковской области", "source:website": "http://zdrav.pskov.ru/"}}, {"name": "Полацкая гарадская бальніца №1", "latitude": 55.4752335, "longitude": 28.8501752, "source": "osm", "_tags": {"addr:city": "Полацк", "addr:street": "вуліца Гагарына", "amenity": "hospital", "contact:email": "hopital1@mail.ru", "contact:phone": "+375 (214) 45-66-31", "contact:website": "http://www.polmed.by/gorodskaya-bolnitsa-1", "healthcare": "hospital", "name": "Полацкая гарадская бальніца №1", "name:be": "Полацкая гарадская бальніца №1", "name:en": "City hospital №1 of Polotsk", "name:ru": "Полоцкая городская больница №1", "operator": "ГУЗ \"Полоцкая центральная городская больница\""}}, {"name": "Верхнядзвінская цэнтральная раённая бальніца", "latitude": 55.7983799, "longitude": 27.9569638, "source": "osm", "_tags": {"addr:housenumber": "9", "addr:street": "Партызанская вуліца", "amenity": "hospital", "contact:email": "vdvinskcrb@mail.ru", "contact:fax": "+375215152149;+375215152145", "contact:phone": "+375215152103", "contact:website": "http://vdvinskmed.by", "emergency": "yes", "healthcare": "hospital", "healthcare:speciality": "general", "name": "Верхнядзвінская цэнтральная раённая бальніца", "name:be": "Верхнядзвінская цэнтральная раённая бальніца", "name:en": "Central regional hospital of Verkhnedvinsk", "name:ru": "Верхнедвинская центральная районная больница", "official_name": "УЗ Верхнедвинская центральная районная больница", "opening_hours": "Mo-Fr 07:30-19:00; Sa 07:30-15:00", "short_name": "Верхнедвинская ЦРБ", "website": "http://vdvinskmed.by"}}, {"name": "Асвейская раённая бальніца", "latitude": 56.014471, "longitude": 28.1108563, "source": "osm", "_tags": {"addr:housenumber": "6", "addr:street": "вуліца Леніна", "amenity": "hospital", "healthcare": "hospital", "name": "Асвейская раённая бальніца", "name:be": "Асвейская раённая бальніца", "name:ru": "Освейская районная больница"}}, {"name": "Гарбальніца г.Дзісна", "latitude": 55.5675009, "longitude": 28.1947817, "source": "osm", "_tags": {"amenity": "hospital", "healthcare": "hospital", "name": "Гарбальніца г.Дзісна", "name:be": "Гарбальніца г.Дзісна", "name:ru": "Горбольница г.Дисна"}}, {"name": "Полацкая абласная псіхіятрычная бальніца", "latitude": 55.479962, "longitude": 28.7714384, "source": "osm", "_tags": {"addr:housenumber": "4А", "addr:street": "вуліца 23-х Гвардзейцаў", "amenity": "hospital", "healthcare": "hospital", "name": "Полацкая абласная псіхіятрычная бальніца", "name:be": "Полацкая абласная псіхіятрычная бальніца", "name:ru": "Полоцкая областная психиатрическая больница"}}, {"name": "Расонская цэнтральная раённая бальніца", "latitude": 55.9023205, "longitude": 28.8089407, "source": "osm", "_tags": {"addr:city": "Расоны", "addr:housenumber": "19", "addr:postcode": "211471", "addr:street": "Камсамольская вуліца", "amenity": "hospital", "check_date": "2025-07-30", "email": "ross_tmo@vitebsk.by", "emergency": "yes", "healthcare": "hospital", "healthcare:speciality": "general;emergency", "name": "Расонская цэнтральная раённая бальніца", "name:be": "Расонская цэнтральная раённая бальніца", "name:ru": "Россонская центральная районая больница", "official_name": "УЗ «Расонская цэнтральная раённая бальніца»", "official_name:be": "УЗ «Расонская цэнтральная раённая бальніца»", "official_name:ru": "УЗ «Россонская центральная районная больница»", "phone": "+375 2159 51322;+375 33 3995472;+375 2159 41563;+375 2159 41696", "short_name": "Расонская ЦРБ", "short_name:be": "Расонская ЦРБ", "short_name:ru": "Россонская ЦРБ", "website": "https://rcrb.by"}}, {"name": "Баркавіцкая ўчастковая бальніца", "latitude": 55.6721869, "longitude": 28.3331114, "source": "osm", "_tags": {"addr:city": "Боркавічы", "addr:housenumber": "34", "addr:postcode": "211600", "addr:street": "Чыгуначная вуліца", "amenity": "hospital", "emergency": "no", "healthcare": "hospital", "healthcare:speciality": "general", "name": "Баркавіцкая ўчастковая бальніца", "name:be": "Баркавіцкая ўчастковая бальніца", "name:ru": "Борковичская участковая больница", "operator": "Верхнядзвінская ЦРБ", "operator:be": "Верхнядзвінская ЦРБ", "operator:ru": "Верхнедвинская ЦРБ", "phone": "+375 215 165242;+375 215 55247", "website": "https://vdvinskmed.by/"}}, {"name": "", "latitude": 55.7111601, "longitude": 28.0901717, "source": "osm", "_tags": {"amenity": "hospital", "emergency": "no", "healthcare": "hospital"}}, {"name": "Районная больница", "latitude": 56.334122, "longitude": 28.9116004, "source": "osm", "_tags": {"amenity": "hospital", "healthcare": "hospital", "name": "Районная больница"}}, {"name": "Сястронкаўская бальніца", "latitude": 55.672605, "longitude": 28.8375932, "source": "osm", "_tags": {"addr:housenumber": "38", "addr:place": "Сястронкі", "amenity": "hospital", "barrier": "yes", "check_date": "2025-07-30", "full_name:ru": "Сестренковская больница сестринского ухода", "healthcare": "hospital", "name": "Сястронкаўская бальніца", "name:be": "Сястронкаўская бальніца", "name:ru": "Сестренковская больница", "note": "Закрыто на ремонт (2025-07-30)", "opening_hours": "closed", "operational_status": "closed", "operator": "Полацкая ЦГБ", "operator:be": "Полацкая ЦГБ", "operator:ru": "Полоцкая ЦГБ", "phone": "+375 214 469736", "website": "https://polmed.by"}}]