[{"name": "VšĮ „Kupiškio ligoninė“", "latitude": 55.8370948, "longitude": 24.9881278, "source": "osm", "_tags": {"addr:city": "Kupiškis", "addr:housenumber": "28", "addr:postcode": "40117", "addr:street": "Krantinės g.", "amenity": "hospital", "building": "hospital", "emergency": "yes", "name": "VšĮ „Kupiškio ligoninė“"}}, {"name": "Rokiškio psichiatrijos ligoninė", "latitude": 55.9754295, "longitude": 25.5815754, "source": "osm", "_tags": {"addr:city": "Rokiškis", "addr:housenumber": "47", "addr:street": "Vytauto g.", "amenity": "hospital", "landuse": "residential", "name": "Rokiškio psichiatrijos ligoninė", "wikidata": "Q12671569"}}, {"name": "Rokiškio rajono ligoninė", "latitude": 55.9705932, "longitude": 25.5816231, "source": "osm", "_tags": {"addr:city": "Rokiškis", "addr:housenumber": "3", "addr:postcode": "42106", "addr:street": "V. Lašo g.", "amenity": "hospital", "building": "yes", "name": "Rokiškio rajono ligoninė"}}, {"name": "VšĮ Kupiškio Pirminės Sveikatos Priežiūros Centras", "latitude": 55.8366361, "longitude": 24.9912478, "source": "osm", "_tags": {"addr:city": "Kupiškis", "addr:housenumber": "30", "addr:postcode": "40117", "addr:street": "Krantinės g.", "amenity": "hospital", "building": "yes", "emergency": "yes", "name": "VšĮ Kupiškio Pirminės Sveikatos Priežiūros Centras"}}, {"name": "Anykščių rajono savivaldybės ligoninė", "latitude": 55.5202596, "longitude": 25.1225225, "source": "osm", "_tags": {"amenity": "hospital", "landuse": "residential", "name": "Anykščių rajono savivaldybės ligoninė"}}, {"name": "Utenos ligoninė", "latitude": 55.509258, "longitude": 25.5907087, "source": "osm", "_tags": {"amenity": "hospital", "healthcare": "hospital", "name": "Utenos ligoninė"}}]