[{"name": "Kvėdarnos Poliklinika", "latitude": 55.556562, "longitude": 21.9865685, "source": "osm", "_tags": {"amenity": "hospital", "name": "Kvėdarnos Poliklinika"}}, {"name": "Židikų ambulatorija-medicinos punktas", "latitude": 56.3196357, "longitude": 22.0103508, "source": "osm", "_tags": {"amenity": "hospital", "healthcare": "hospital", "name": "Židikų ambulatorija-medicinos punktas"}}, {"name": "Kuršėnų palaikomojo gydymo ir slaugos skyrius", "latitude": 56.0043025, "longitude": 22.937386, "source": "osm", "_tags": {"addr:city": "Kuršėnai", "addr:housenumber": "12C", "addr:postcode": "81183", "addr:street": "J. Basanavičiaus g.", "amenity": "hospital", "building": "yes", "name": "Kuršėnų palaikomojo gydymo ir slaugos skyrius", "phone": "+370 41 581 593"}}, {"name": "Kuršėnų ligoninė", "latitude": 56.0035319, "longitude": 22.9371922, "source": "osm", "_tags": {"addr:city": "Kuršėnai", "addr:housenumber": "10", "addr:postcode": "81183", "addr:street": "J. Basanavičiaus g.", "amenity": "hospital", "building": "hospital", "building:levels": "3", "healthcare": "hospital", "name": "Kuršėnų ligoninė", "phone": "+370 41 582 443", "website": "https://www.kursenai-medicina.lt/l/"}}, {"name": "Mažeikių pirminės sveikatos priežiūros centras", "latitude": 56.3055302, "longitude": 22.3400099, "source": "osm", "_tags": {"addr:city": "Mažeikiai", "addr:housenumber": "9", "addr:postcode": "89239", "addr:street": "Naftininkų g.", "amenity": "hospital", "building": "yes", "name": "Mažeikių pirminės sveikatos priežiūros centras", "website": "https://www.mazeikiupspc.lt/"}}, {"name": "Ventos ambulatorija", "latitude": 56.1890344, "longitude": 22.6824284, "source": "osm", "_tags": {"addr:city": "Venta", "addr:housenumber": "28", "addr:street": "Ventos g.", "amenity": "hospital", "building": "hospital", "name": "Ventos ambulatorija"}}, {"name": "Mažeikių ligoninė", "latitude": 56.3165208, "longitude": 22.3445248, "source": "osm", "_tags": {"addr:city": "Mažeikiai", "addr:housenumber": "22", "addr:postcode": "89217", "addr:street": "J. Basanavičiaus g.", "amenity": "hospital", "name": "Mažeikių ligoninė", "website": "https://www.mazeikiuligonine.lt/"}}, {"name": "Varnių slaugos ir palaikomojo gydymo ligoninė", "latitude": 55.7440419, "longitude": 22.3668022, "source": "osm", "_tags": {"amenity": "hospital", "name": "Varnių slaugos ir palaikomojo gydymo ligoninė", "website": "https://varniupspc.lt/"}}, {"name": "Varnių pirminės sveikatos priežiūros centras", "latitude": 55.7435253, "longitude": 22.3671201, "source": "osm", "_tags": {"amenity": "hospital", "name": "Varnių pirminės sveikatos priežiūros centras"}}, {"name": "Kražių ambulatorija", "latitude": 55.6028521, "longitude": 22.6895259, "source": "osm", "_tags": {"addr:city": "Kražiai", "addr:housenumber": "35", "addr:postcode": "86285", "addr:street": "S. Dariaus ir S. Girėno g.", "amenity": "hospital", "building": "yes", "emergency": "yes", "name": "Kražių ambulatorija"}}, {"name": "Telšių apskrities ligoninė", "latitude": 55.984338, "longitude": 22.2326962, "source": "osm", "_tags": {"addr:city": "Telšiai", "addr:contact": "yes", "addr:housenumber": "40", "addr:street": "Kalno g.", "amenity": "hospital", "name": "Telšių apskrities ligoninė"}}, {"name": "Naujosios Akmenės ligoninė - sveikatos centras", "latitude": 56.319746, "longitude": 22.8691362, "source": "osm", "_tags": {"addr:city": "Naujoji Akmenė", "addr:contact": "yes", "addr:housenumber": "6", "addr:postcode": "85138", "addr:street": "Žemaitijos g.", "amenity": "hospital", "healthcare": "hospital", "name": "Naujosios Akmenės ligoninė - sveikatos centras"}}]