[{"name": "Госпиталь", "latitude": 57.355465, "longitude": 28.2982251, "source": "osm", "_tags": {"amenity": "hospital", "name": "Госпиталь"}}, {"name": "Красногородская районная больница", "latitude": 56.838075, "longitude": 28.2745818, "source": "osm", "_tags": {"addr:city": "Красногородск", "addr:housenumber": "25", "addr:postcode": "182370", "addr:street": "Больничная улица", "amenity": "hospital", "building": "yes", "name": "Красногородская районная больница", "phone": "+78113721533"}}, {"name": "Опочецкая районная больница", "latitude": 56.7089122, "longitude": 28.6489372, "source": "osm", "_tags": {"addr:country": "RU", "addr:district": "Опочецкий район", "addr:full": "Псковская область, Опочецкий район, г. Опочка, ул. Гагарина, д.65А", "addr:housenumber": "65А", "addr:postcode": "182330", "addr:region": "Псковская область", "addr:street": "улица Гагарина", "amenity": "hospital", "emergency": "yes", "healthcare": "hospital", "hospital:usage": "ward", "name": "Опочецкая районная больница", "official_name": "ГБУ ПО \"Опочецкая районная больница\"", "opening_hours": "Mo-Sa 08:30-17:30", "phone": "+7 81138 34979", "source": "Государственный комитет по здравоохранению и фармации Псковской области", "source:website": "http://zdrav.pskov.ru/", "ward": "yes"}}, {"name": "Пушкиногорская районная больница", "latitude": 57.0306185, "longitude": 28.9330217, "source": "osm", "_tags": {"addr:city": "Псков/Пушкинские Горы", "addr:country": "RU", "addr:district": "Пушкиногорский район", "addr:full": "Псковская обл. р.п. Пушкинские Горы ул. Ленина д. 41", "addr:housenumber": "41", "addr:postcode": "181370", "addr:region": "Псковская область", "addr:street": "улица Ленина", "amenity": "hospital", "healthcare:speciality": "paediatric;adult;gynaecology;stomatology;trauma;emergency;surgery;infectious_diseases", "hospital:usage": "ward", "name": "Пушкиногорская районная больница", "official_name": "ГБУЗ ПО \"Пушкиногорская районная больница\"", "opening_hours": "24/7", "phone": "+7 81146 21375", "source": "Государственный комитет по здравоохранению и фармации Псковской области", "source:website": "http://zdrav.pskov.ru/", "ward": "yes"}}, {"name": "Островская ЦРБ", "latitude": 57.3488433, "longitude": 28.357779, "source": "osm", "_tags": {"addr:country": "RU", "addr:district": "Островский район", "addr:full": "Псковская обл., Островский р-н, г.Остров ул.К.Маркса д.10", "addr:housenumber": "10", "addr:postcode": "181350", "addr:region": "Псковская область", "addr:street": "улица Карла Маркса", "amenity": "hospital", "healthcare:speciality": "emergency", "name": "Островская ЦРБ", "official_name": "ГБУЗ ПО Островская РБ", "opening_hours": "Mo-Fr 08:00-17:00", "phone": "+7 81152 32747", "source": "Государственный комитет по здравоохранению и фармации Псковской области", "source:website": "http://zdrav.pskov.ru/", "ward": "yes", "website": "http://ostrovcrb.med-oms.ru/", "wheelchair": "limited"}}, {"name": "Красногородская районная больница", "latitude": 56.8386115, "longitude": 28.2743633, "source": "osm", "_tags": {"addr:country": "RU", "addr:district": "Красногородский район", "addr:full": "Псковская область, Красногородск, ул. Больничная, д.25", "addr:housenumber": "25", "addr:postcode": "182370", "addr:region": "Псковская область", "addr:street": "Больничная улица", "amenity": "hospital", "healthcare:speciality": "emergency", "hospital:usage": "ward", "name": "Красногородская районная больница", "official_name": "Государственное бюджетное учреждение здравоохранения Псковской области \"Красногородская районная больница\"", "opening_hours": "Mo-Sa 08:00-17:00", "phone": "+7 81137 21138", "source": "Государственный комитет по здравоохранению и фармации Псковской области", "source:website": "http://zdrav.pskov.ru/", "ward": "adult", "website": "http://www.kb60.ru/"}}]