[{"name": "Ziemeļkurzemes reģionālā slimnīca", "latitude": 57.2385274, "longitude": 22.5923933, "source": "osm", "_tags": {"addr:city": "Talsi", "addr:country": "LV", "addr:district": "Talsu novads", "addr:housenumber": "1", "addr:postcode": "LV-3201", "addr:street": "Stendes iela", "amenity": "hospital", "emergency": "yes", "name": "Ziemeļkurzemes reģionālā slimnīca", "ref:LV:addr": "106204162", "source": "http://www.talsi.lv/ziemelkurzemes-regionala-slimnica-talsu-filiale434"}}, {"name": "Doktorāts", "latitude": 57.2452245, "longitude": 22.593252, "source": "osm", "_tags": {"addr:city": "Talsi", "addr:country": "LV", "addr:district": "Talsu novads", "addr:housenumber": "4", "addr:postcode": "LV-3201", "addr:street": "Kalna iela", "amenity": "hospital", "building": "yes", "name": "Doktorāts", "ref:LV:addr": "102088000"}}, {"name": "Kuldīgas slimnīca", "latitude": 56.9614326, "longitude": 21.9538817, "source": "osm", "_tags": {"amenity": "hospital", "healthcare": "hospital", "name": "Kuldīgas slimnīca", "website": "https://www.kuldigasslimnica.lv/"}}, {"name": "", "latitude": 56.6720115, "longitude": 22.4920769, "source": "osm", "_tags": {"amenity": "hospital", "healthcare": "hospital"}}, {"name": "Talsu poliklīnika", "latitude": 57.2437328, "longitude": 22.6003599, "source": "osm", "_tags": {"amenity": "hospital", "building": "yes", "name": "Talsu poliklīnika", "source": "Talsu novada teritorijas plānojums 2015"}}]