[{"name": "Ekbacken", "latitude": 57.1684913, "longitude": 14.5914319, "source": "osm", "_tags": {"amenity": "hospital", "healthcare": "hospital", "name": "Ekbacken"}}, {"name": "Värnamo sjukhus", "latitude": 57.1736325, "longitude": 14.029285, "source": "osm", "_tags": {"amenity": "hospital", "emergency": "yes", "healthcare": "hospital", "healthcare:speciality": "general;surgery;orthopaedics;family_medicine;emergency", "name": "Värnamo sjukhus", "opening_hours": "24/7", "operator": "Region Jönköpings län", "operator:type": "public", "operator:wikidata": "Q3231587", "start_date": "1976", "type": "multipolygon", "website": "https://www.rjl.se/varnamosjukhus", "wikidata": "Q7944365", "wikipedia": "sv:Värnamo sjukhus"}}, {"name": "Centrallasarettet Växjö", "latitude": 56.874291, "longitude": 14.8059628, "source": "osm", "_tags": {"amenity": "hospital", "emergency": "yes", "health_specialty:emergency_medicine": "yes", "health_specialty:family_medicine": "yes", "health_specialty:intensive_care_medicine": "yes", "health_specialty:orthopaedics": "yes", "health_specialty:surgery": "yes", "health_specialty:vascular_surgery": "yes", "healthcare": "hospital", "name": "Centrallasarettet Växjö", "opening_hours": "24/7", "type": "multipolygon"}}]