[{"name": "Poliklīnika", "latitude": 56.9690281, "longitude": 23.1564725, "source": "osm", "_tags": {"addr:city": "Tukums", "addr:country": "LV", "addr:district": "Tukuma novads", "addr:housenumber": "8", "addr:postcode": "LV-3101", "addr:street": "Raudas iela", "amenity": "hospital", "name": "Poliklīnika", "ref:LV:addr": "101215093"}}, {"name": "Jelgavas slimnīca", "latitude": 56.6574369, "longitude": 23.7500845, "source": "osm", "_tags": {"addr:city": "Jelgava", "addr:country": "LV", "addr:housenumber": "6", "addr:postcode": "LV-3002", "addr:street": "Brīvības bulvāris", "amenity": "hospital", "healthcare": "hospital", "name": "Jelgavas slimnīca", "ref:LV:addr": "101757720"}}, {"name": "Zemgales veselības centrs", "latitude": 56.6429352, "longitude": 23.7318396, "source": "osm", "_tags": {"addr:city": "Jelgava", "addr:country": "LV", "addr:housenumber": "15", "addr:postcode": "LV-3001", "addr:street": "Zemgales prospekts", "amenity": "hospital", "healthcare": "hospital", "name": "Zemgales veselības centrs", "ref:LV:addr": "102642883"}}, {"name": "Veselības un sociālās aprūpes centrs - Sloka", "latitude": 56.943208, "longitude": 23.6236865, "source": "osm", "_tags": {"amenity": "hospital", "healthcare": "hospital", "name": "Veselības un sociālās aprūpes centrs - Sloka"}}, {"name": "Poliklīnika", "latitude": 56.6469741, "longitude": 23.7241783, "source": "osm", "_tags": {"addr:city": "Jelgava", "addr:country": "LV", "addr:housenumber": "10", "addr:postcode": "LV-3001", "addr:street": "Sudrabu Edžus iela", "amenity": "hospital", "building": "yes", "name": "Poliklīnika", "ref:LV:addr": "101786204"}}, {"name": "Veselības centrs OlainMed", "latitude": 56.7856186, "longitude": 23.9344089, "source": "osm", "_tags": {"addr:city": "Olaine", "addr:country": "LV", "addr:district": "Olaines novads", "addr:housenumber": "5", "addr:postcode": "LV-2114", "addr:street": "Veselības iela", "amenity": "hospital", "building": "yes", "email": "info@olainmed.lv", "healthcare": "hospital", "name": "Veselības centrs OlainMed", "opening_hours": "Mo-Th 07:45-19:00; Fr 07:45-17:00", "operator": "AS \"Veselības Centru Apvienība\"", "operator:type": "private", "phone": "+37165111651", "ref:LV:addr": "102765924", "website": "http://olainmed.lv"}}, {"name": "", "latitude": 56.9693422, "longitude": 23.1577051, "source": "osm", "_tags": {"amenity": "hospital", "building": "yes"}}, {"name": "", "latitude": 56.9694649, "longitude": 23.1566323, "source": "osm", "_tags": {"amenity": "hospital", "amenity_1": "pharmacy", "building": "yes", "healthcare": "hospital"}}, {"name": "Slimnīca \"Ģintermuiža\"", "latitude": 56.6373382, "longitude": 23.6947167, "source": "osm", "_tags": {"amenity": "hospital", "healthcare": "hospital", "name": "Slimnīca \"Ģintermuiža\"", "note": "This is psychoneurological hospital with additional services for addicts", "wikidata": "Q20405119"}}, {"name": "Rehabilitācijas centrs \"Tērvete\"", "latitude": 56.4849039, "longitude": 23.3932395, "source": "osm", "_tags": {"addr:city": "Tērvete", "addr:country": "LV", "addr:district": "Dobeles novads", "addr:housename": "Rehabilitācijas centrs Tērvete", "addr:postcode": "LV-3730", "addr:subdistrict": "Tērvetes pagasts", "amenity": "hospital", "building": "hospital", "healthcare": "hospital", "name": "Rehabilitācijas centrs \"Tērvete\"", "operator": "SIA Rehabilitācijas centrs \"Tērvete\"", "ref:LV:addr": "106520551"}}, {"name": "Jūrmalas slimnīca", "latitude": 56.9807966, "longitude": 23.8588362, "source": "osm", "_tags": {"addr:city": "Jūrmala", "addr:country": "LV", "addr:housenumber": "19/21", "addr:postcode": "LV-2010", "addr:street": "Vienības prospekts", "amenity": "hospital", "emergency": "yes", "healthcare": "hospital", "name": "Jūrmalas slimnīca", "name:lv": "Jūrmalas slimnīca", "name:ru": "Юрмальская больница", "ref:LV:addr": "101747035"}}, {"name": "Dobeles slimnīca", "latitude": 56.6220672, "longitude": 23.2693711, "source": "osm", "_tags": {"addr:city": "Dobele", "addr:country": "LV", "addr:district": "Dobeles novads", "addr:housenumber": "2", "addr:postcode": "LV-3701", "addr:street": "Ādama iela", "amenity": "hospital", "contact:email": "slimnica@dobele.lv", "contact:phone": "+371 63723442", "contact:website": "www.dobelesslimnica.lv", "name": "Dobeles slimnīca", "ref:LV:addr": "101550814", "source": "Dobeles novada teritorijas plānojums 2013. - 2025. gadam."}}, {"name": "", "latitude": 56.8023922, "longitude": 23.6074794, "source": "osm", "_tags": {"addr:city": "Kalnciems", "addr:country": "LV", "addr:district": "Jelgavas novads", "addr:housenumber": "27", "addr:postcode": "LV-3016", "addr:street": "Lielupes iela", "addr:subdistrict": "Kalnciema pagasts", "amenity": "hospital", "healthcare": "hospital", "ref:LV:addr": "101536522"}}]