[{"name": "Ninewells Hospital", "latitude": 56.4636835, "longitude": -3.0372742, "source": "osm", "_tags": {"addr:postcode": "DD1 9SY", "amenity": "hospital", "emergency": "yes", "healthcare": "hospital", "name": "Ninewells Hospital", "note": "Postcode is for deliveries, and may direct you to Dundee Mail Delivery Office", "opening_hours": "24/7", "operator": "NHS Tayside", "operator:type": "government", "ref:GB:phs_hospital_code": "T101H", "short_name": "Hospital", "source:postcode": "public_helath_scotland", "wikidata": "Q7038594", "wikipedia": "en:Ninewells Hospital"}}, {"name": "Kings Cross Hospital", "latitude": 56.4767928, "longitude": -2.9871666, "source": "osm", "_tags": {"addr:city": "Dundee", "addr:housename": "Kings Cross Hospital", "addr:postcode": "DD3 8EA", "addr:street": "Clepington Road", "amenity": "hospital", "healthcare": "hospital", "name": "Kings Cross Hospital", "official_name": "Kings Cross Health and Community Care Centre", "operator": "NHS Tayside", "wheelchair": "yes", "wikidata": "Q16852446", "wikipedia": "en:King's Cross Hospital"}}, {"name": "Inverurie Hospital", "latitude": 57.2768052, "longitude": -2.3793159, "source": "osm", "_tags": {"amenity": "hospital", "emergency": "no", "healthcare": "hospital", "name": "Inverurie Hospital", "wikidata": "Q6060585", "wikipedia": "en:Inverurie Hospital"}}, {"name": "Insch War Memorial Hospital", "latitude": 57.3404063, "longitude": -2.6139924, "source": "osm", "_tags": {"amenity": "hospital", "building": "hospital", "emergency": "yes", "healthcare": "hospital", "historic": "memorial", "memorial": "hospital", "memorial:conflict": "WW1;WW2", "name": "Insch War Memorial Hospital", "ref:canmore": "176602", "ref:iwm": "57109", "source": "Bing, survey", "wikidata": "Q6037160", "wikipedia": "en:Insch War Memorial Hospital"}}, {"name": "Stracathro Hospital", "latitude": 56.7760993, "longitude": -2.61572, "source": "osm", "_tags": {"amenity": "hospital", "healthcare": "hospital", "name": "Stracathro Hospital", "wikidata": "Q7620842", "wikipedia": "en:Stracathro Hospital"}}, {"name": "Whitehills Health & Community Care Centre", "latitude": 56.6511591, "longitude": -2.871462, "source": "osm", "_tags": {"addr:city": "Forfar", "addr:postcode": "DD8 3DY", "addr:street": "Station Road", "amenity": "hospital", "healthcare": "hospital", "name": "Whitehills Health & Community Care Centre"}}, {"name": "Arbroath Infirmary", "latitude": 56.5546689, "longitude": -2.5973833, "source": "osm", "_tags": {"amenity": "hospital", "emergency": "no", "healthcare": "hospital", "name": "Arbroath Infirmary", "wikidata": "Q4784932", "wikipedia": "en:Arbroath Infirmary"}}, {"name": "Aberdeen Community Health and Care Village", "latitude": 57.150008, "longitude": -2.0923725, "source": "osm", "_tags": {"amenity": "hospital", "building": "yes", "emergency": "no", "healthcare": "hospital", "name": "Aberdeen Community Health and Care Village", "note": "Bounds approximate, appears to join onto building to the east, parking ramp goes underneath?", "operator": "NHS Grampian", "operator:type": "public", "operator:wikidata": "Q6954137", "wikidata": "Q17151793", "wikipedia": "en:Aberdeen Community Health and Care Village"}}, {"name": "Woodend Hospital", "latitude": 57.1480479, "longitude": -2.1727752, "source": "osm", "_tags": {"amenity": "hospital", "healthcare": "hospital", "name": "Woodend Hospital", "wikidata": "Q8032615", "wikipedia": "en:Woodend Hospital"}}, {"name": "Royal Victoria Hospital", "latitude": 56.4625282, "longitude": -3.0147078, "source": "osm", "_tags": {"addr:city": "Dundee", "addr:postcode": "DD2 1SP", "addr:street": "Jedburgh Road", "amenity": "hospital", "emergency": "no", "fhrs:id": "160254", "healthcare": "hospital", "name": "Royal Victoria Hospital", "nohousenumber": "yes", "operator": "NHS Tayside", "ref:GB:phs_hospital_code": "T123H", "short_name": "Hospital", "source:addr:postcode": "code-point_open", "wikidata": "Q20027890", "wikipedia": "en:Royal Victoria Hospital, Dundee"}}, {"name": "Kincardine Community Hospital", "latitude": 56.9690806, "longitude": -2.230798, "source": "osm", "_tags": {"addr:postcode": "AB39 2NJ", "amenity": "hospital", "emergency": "no", "healthcare": "hospital", "name": "Kincardine Community Hospital", "phone": "+44 1569 792000", "wikidata": "Q6410450", "wikipedia": "en:Kincardine Community Hospital"}}, {"name": "Glen O'Dee Hospital", "latitude": 57.060794, "longitude": -2.5208921, "source": "osm", "_tags": {"amenity": "hospital", "building": "hospital", "emergency": "no", "healthcare": "hospital", "name": "Glen O'Dee Hospital", "wikidata": "Q5567918", "wikipedia": "en:Glen o' Dee Hospital"}}, {"name": "Kingsway Care Centre", "latitude": 56.4770234, "longitude": -3.0005991, "source": "osm", "_tags": {"addr:postcode": "DD2 3PT", "addr:street": "King's Cross Road", "amenity": "hospital", "building": "hospital", "name": "Kingsway Care Centre", "operator": "NHS Tayside", "phone": "+44 1382 649003", "website": "https://www.nhstayside.scot.nhs.uk/GoingToHospital/OurPremisesA-Z/KingswayCentre/index.htm"}}, {"name": "Royal Cornhill Hospital", "latitude": 57.154806, "longitude": -2.1170945, "source": "osm", "_tags": {"amenity": "hospital", "healthcare": "hospital", "name": "Royal Cornhill Hospital", "operator": "NHS Grampian", "wikidata": "Q7374066", "wikipedia": "en:Royal Cornhill Hospital"}}, {"name": "City Hospital", "latitude": 57.1540881, "longitude": -2.0881282, "source": "osm", "_tags": {"addr:city": "Aberdeen", "addr:postcode": "AB24 5AU", "addr:street": "Park Road", "amenity": "hospital", "emergency": "no", "healthcare": "hospital", "name": "City Hospital", "operator": "NHS Grampian", "operator:type": "government", "website": "https://www.nhsgrampian.org/hospital-hub/city-hospital/"}}, {"name": "Dee View Court", "latitude": 57.1149702, "longitude": -2.1154054, "source": "osm", "_tags": {"addr:city": "Aberdeen", "addr:housename": "Dee View Court", "addr:postcode": "AB12 5JY", "addr:street": "Caiesdykes Road", "amenity": "hospital", "description": "Dee View Court is a facility owned by Sue Ryder. It is the only purpose-built neurological care centre in Scotland and caters to adults with debilitating illnesses in addition to the terminally ill.", "emergency": "no", "healthcare": "hospital", "healthcare:speciality": "community;physiotherapy;neurology", "name": "Dee View Court", "operator": "Sue Ryder", "operator:type": "private"}}, {"name": "Foresterhill Health Campus", "latitude": 57.1547326, "longitude": -2.1367295, "source": "osm", "_tags": {"amenity": "hospital", "emergency": "yes", "healthcare": "hospital", "name": "Foresterhill Health Campus", "operator": "NHS Grampian", "operator:type": "public"}}, {"name": "Albyn Hospital", "latitude": 57.1422249, "longitude": -2.1186924, "source": "osm", "_tags": {"addr:city": "Aberdeen", "addr:housenumber": "21-24", "addr:postcode": "AB10 1RW", "addr:street": "Albyn Place", "amenity": "hospital", "emergency": "no", "healthcare": "hospital", "name": "Albyn Hospital", "operator": "Circle Health Group", "operator:type": "private", "website": "https://www.circlehealthgroup.co.uk/hospitals/albyn-hospital"}}, {"name": "Elmwood", "latitude": 57.1573193, "longitude": -2.1256457, "source": "osm", "_tags": {"addr:city": "Aberdeen", "addr:housename": "Royal Cornhill Hospital", "addr:postcode": "AB25 3BW", "addr:street": "Ashgrove Road", "amenity": "hospital", "emergency": "no", "healthcare": "hospital", "name": "Elmwood", "operator": "NHS Grampian"}}, {"name": "Roxburghe House", "latitude": 57.1564076, "longitude": -2.1250216, "source": "osm", "_tags": {"addr:city": "Aberdeen", "addr:postcode": "AB25 3BX", "addr:street": "Ashgrove Road", "amenity": "hospital", "healthcare": "hospital", "healthcare:speciality": "palliative", "name": "Roxburghe House", "operator": "NHS Grampian", "website": "https://www.nhsgrampian.org/hospital-hub/roxburghe-house/"}}, {"name": "Clerkseat Building", "latitude": 57.1538432, "longitude": -2.1167947, "source": "osm", "_tags": {"addr:city": "Aberdeen", "addr:housename": "Clerkseat Building, Royal Cornhill Hospital", "addr:postcode": "AB25 2ZH", "addr:street": "Cornhill Road", "building": "hospital", "building:levels": "2", "description": "The Clerkseat Building is the main and largest building on the grounds of Royal Cornhill Hospital. It is the main centre for the treatment of people with mental health problems in the Grampian region.", "emergency": "no", "healthcare": "hospital", "healthcare:speciality": "psychiatry", "name": "Clerkseat Building", "operator": "NHS Grampian", "smoking": "no", "type": "multipolygon", "wheelchair": "yes"}}, {"name": "Dudhope Young Peoples Inpatient Unit", "latitude": 56.4661063, "longitude": -2.9899619, "source": "osm", "_tags": {"addr:housenumber": "17", "addr:postcode": "DD3 6HH", "addr:street": "Dudhope Terrace", "amenity": "hospital", "building": "yes", "capacity:beds": "12", "emergency": "no", "health_facility:type": "department", "healthcare": "hospital", "healthcare:speciality": "psychiatric", "name": "Dudhope Young Peoples Inpatient Unit", "ref:GB:phs_hospital_code": "T324H", "short_name": "Young Persons Unit", "treat:inpatient": "only", "type": "multipolygon"}}, {"name": "Aboyne Hospital and Health Centre", "latitude": 57.0762129, "longitude": -2.7669447, "source": "osm", "_tags": {"addr:city": "Aboyne", "addr:country": "GB", "addr:postcode": "AB34 5HQ", "addr:street": "Bellwood Road", "amenity": "hospital", "building": "yes", "emergency": "no", "healthcare": "hospital", "name": "Aboyne Hospital and Health Centre", "type": "multipolygon", "wikidata": "Q85011465", "wikipedia": "en:Aboyne Hospital"}}]