[{"name": "Doctor Mackinnon Memorial Hospital", "latitude": 57.2463941, "longitude": -5.911228, "source": "osm", "_tags": {"amenity": "hospital", "building": "yes", "healthcare": "hospital", "name": "Doctor Mackinnon Memorial Hospital", "name:gd": "Ospadal an Ã€th Leathainn", "ref:GB:phs_hospital_code": "H214H", "roof:colour": "grey", "roof:material": "slate", "roof:shape": "gabled", "wikidata": "Q6724535", "wikipedia": "en:Mackinnon Memorial Hospital"}}, {"name": "Mull and Iona Community Hospital", "latitude": 56.4797657, "longitude": -5.7157478, "source": "osm", "_tags": {"addr:housenumber": "1-15", "addr:street": "Bowman Court", "amenity": "hospital", "building": "yes", "emergency": "yes", "healthcare": "hospital", "name": "Mull and Iona Community Hospital", "name:en": "Mull and Iona Community Hospital", "name:gd": "Ospadal Coimhearsnachd Eilean Mhuile 's Idhe"}}, {"name": "Broadford Hospital", "latitude": 57.2455678, "longitude": -5.9109904, "source": "osm", "_tags": {"amenity": "hospital", "healthcare": "hospital", "name": "Broadford Hospital", "ref:GB:phs_hospital_code": "H229H", "source:name": "ref:GB:phs_hospital_codes"}}, {"name": "Belford Hospital", "latitude": 56.8192484, "longitude": -5.1049163, "source": "osm", "_tags": {"addr:city": "Fort William", "addr:postcode": "PH33 6BS", "addr:street": "Belford Road", "amenity": "hospital", "building": "yes", "fhrs:id": "359847", "healthcare": "hospital", "name": "Belford Hospital", "operator": "NHS Highland", "type": "multipolygon", "wikidata": "Q4882380", "wikipedia": "en:Belford Hospital"}}]