[{"name": "Regionshospitalet Skive", "latitude": 56.5726583, "longitude": 9.0287838, "source": "osm", "_tags": {"healthcare": "hospital", "name": "Regionshospitalet Skive", "website": "https://www.hospitalsenhedmidt.dk/afdelinger-og-steder/regionshospitalet-skive/", "wheelchair": "limited", "wikidata": "Q30280742"}}, {"name": "Regionspsykiatrien Viborg", "latitude": 56.4469128, "longitude": 9.4099081, "source": "osm", "_tags": {"amenity": "hospital", "name": "Regionspsykiatrien Viborg"}}, {"name": "Vestdansk Center for Rygmarvsskade", "latitude": 56.4476789, "longitude": 9.4128313, "source": "osm", "_tags": {"amenity": "hospital", "name": "Vestdansk Center for Rygmarvsskade"}}, {"name": "Aleris Aalborg", "latitude": 57.0176285, "longitude": 9.8765866, "source": "osm", "_tags": {"amenity": "hospital", "emergency": "no", "healthcare": "hospital", "name": "Aleris Aalborg", "operator:type": "private", "phone": "+45 3637 2750"}}, {"name": "Capio Aalborg", "latitude": 57.0419419, "longitude": 9.9182235, "source": "osm", "_tags": {"amenity": "hospital", "emergency": "no", "healthcare": "hospital", "level": "4;5", "name": "Capio Aalborg", "operator": "Capio", "operator:type": "private", "operator:wikidata": "Q498606"}}, {"name": "Skive Sundhedshus", "latitude": 56.5726808, "longitude": 9.0289181, "source": "osm", "_tags": {"amenity": "hospital", "building": "hospital", "healthcare": "hospital", "name": "Skive Sundhedshus", "name:etymology:wikidata": "Q1019470", "website": "https://www.skivesundhedshus.dk/"}}, {"name": "Aalborg Universitetshospital", "latitude": 57.0380886, "longitude": 9.9047747, "source": "osm", "_tags": {"alt_name": "Aalborg Sygehus, Syd", "amenity": "hospital", "emergency": "yes", "healthcare": "hospital", "name": "Aalborg Universitetshospital", "wikidata": "Q2757508"}}, {"name": "Patienthotellet Regionshospital Viborg", "latitude": 56.4447731, "longitude": 9.4061493, "source": "osm", "_tags": {"amenity": "hospital", "building": "yes", "fvst:navnelbnr": "27758", "name": "Patienthotellet Regionshospital Viborg", "ref:DK:cvr": "29190925", "ref:DK:cvr:pnummer": "1022273724", "wheelchair": "yes"}}, {"name": "Aalborg Universitetshospital Nord", "latitude": 57.0487532, "longitude": 9.9124457, "source": "osm", "_tags": {"amenity": "hospital", "name": "Aalborg Universitetshospital Nord"}}, {"name": "Aalborg Universitetshospital, Hobro", "latitude": 56.6334003, "longitude": 9.7982955, "source": "osm", "_tags": {"amenity": "hospital", "email": "aalborguh@rn.dk", "emergency": "yes", "healthcare": "hospital", "healthcare:speciality": "internal;cardiology;general;radiology;nephrology;rehabilitation", "name": "Aalborg Universitetshospital, Hobro", "operator": "Region Nordjylland", "operator:type": "public/government", "phone": "+4597652000", "website": "https://aalborguh.rn.dk/afsnit-og-ambulatorier/afdelinger-fordelt-paa-lokaliteter/afdelinger-hobro"}}, {"name": "Aalborg Universitetshospital, Farsø", "latitude": 56.7770478, "longitude": 9.3372669, "source": "osm", "_tags": {"amenity": "hospital", "emergency": "yes", "healthcare": "hospital", "loc_name": "Farsø Sygehus", "name": "Aalborg Universitetshospital, Farsø", "wikidata": "Q12311101"}}, {"name": "", "latitude": 56.4454708, "longitude": 9.4037292, "source": "osm", "_tags": {"amenity": "hospital", "healthcare": "hospital"}}, {"name": "", "latitude": 56.7772202, "longitude": 9.3374738, "source": "osm", "_tags": {"amenity": "hospital", "building": "hospital", "healthcare": "hospital", "type": "multipolygon"}}, {"name": "Regionshospitalet Viborg", "latitude": 56.445317, "longitude": 9.4044003, "source": "osm", "_tags": {"amenity": "hospital", "building": "hospital", "emergency": "yes", "healthcare": "hospital", "name": "Regionshospitalet Viborg", "type": "multipolygon", "wheelchair": "yes", "wikidata": "Q12333118"}}]