[{"name": "Centrālā laboratorija", "latitude": 56.5656992, "longitude": 26.9267383, "source": "osm", "_tags": {"addr:city": "Viļāni", "addr:country": "LV", "addr:district": "Rēzeknes novads", "addr:housenumber": "57A", "addr:postcode": "LV-4650", "addr:street": "Rīgas iela", "amenity": "hospital", "healthcare": "hospital", "name": "Centrālā laboratorija", "ref:LV:addr": "103127235"}}, {"name": "", "latitude": 56.7036869, "longitude": 26.1924362, "source": "osm", "_tags": {"addr:city": "Ļaudona", "addr:country": "LV", "addr:district": "Madonas novads", "addr:housenumber": "3", "addr:postcode": "LV-4862", "addr:street": "Avotu iela", "addr:subdistrict": "Ļaudonas pagasts", "amenity": "hospital", "ref:LV:addr": "102175073"}}, {"name": "", "latitude": 57.1570874, "longitude": 26.761994, "source": "osm", "_tags": {"addr:city": "Gulbene", "addr:country": "LV", "addr:district": "Gulbenes novads", "addr:housenumber": "1", "addr:postcode": "LV-4401", "addr:street": "Upes iela", "amenity": "hospital", "healthcare": "hospital", "ref:LV:addr": "101548360"}}, {"name": "Jaunpiebalgas ambulance", "latitude": 57.1806591, "longitude": 26.0353907, "source": "osm", "_tags": {"addr:city": "Jaunpiebalga", "addr:country": "LV", "addr:district": "Cēsu novads", "addr:housenumber": "10", "addr:postcode": "LV-4125", "addr:street": "Brāļu Kaudzīšu iela", "addr:subdistrict": "Jaunpiebalgas pagasts", "amenity": "hospital", "healthcare": "hospital", "name": "Jaunpiebalgas ambulance", "ref:LV:addr": "102298774"}}, {"name": "", "latitude": 57.1399963, "longitude": 26.4309251, "source": "osm", "_tags": {"addr:city": "Tirza", "addr:country": "LV", "addr:district": "Gulbenes novads", "addr:housename": "Doktorāts", "addr:postcode": "LV-4424", "addr:subdistrict": "Tirzas pagasts", "amenity": "hospital", "healthcare": "hospital", "ref:LV:addr": "103983550"}}, {"name": "", "latitude": 56.851824, "longitude": 26.2359589, "source": "osm", "_tags": {"amenity": "hospital", "building": "yes", "healthcare": "hospital"}}, {"name": "", "latitude": 56.8525857, "longitude": 26.2338746, "source": "osm", "_tags": {"amenity": "hospital", "building": "yes", "healthcare": "hospital"}}, {"name": "", "latitude": 56.8528429, "longitude": 26.2346332, "source": "osm", "_tags": {"amenity": "hospital", "building": "yes", "healthcare": "hospital"}}, {"name": "", "latitude": 56.8512843, "longitude": 26.2366028, "source": "osm", "_tags": {"addr:city": "Madona", "addr:country": "LV", "addr:district": "Madonas novads", "addr:housenumber": "38", "addr:postcode": "LV-4801", "addr:street": "Rūpniecības iela", "amenity": "hospital", "building": "yes", "healthcare": "hospital", "ref:LV:addr": "101394545"}}, {"name": "", "latitude": 56.8522312, "longitude": 26.2355972, "source": "osm", "_tags": {"amenity": "hospital", "building": "yes", "healthcare": "hospital"}}, {"name": "", "latitude": 56.8989107, "longitude": 26.7186726, "source": "osm", "_tags": {"addr:city": "Lubāna", "addr:country": "LV", "addr:district": "Madonas novads", "addr:housenumber": "12", "addr:postcode": "LV-4830", "addr:street": "Oskara Kalpaka iela", "amenity": "hospital", "healthcare": "hospital", "ref:LV:addr": "101400297"}}, {"name": "", "latitude": 56.609608, "longitude": 26.7695153, "source": "osm", "_tags": {"addr:city": "Varakļāni", "addr:country": "LV", "addr:district": "Madonas novads", "addr:housenumber": "25A", "addr:postcode": "LV-4838", "addr:street": "Pils iela", "amenity": "hospital", "building": "hospital", "healthcare": "hospital", "ref:LV:addr": "104579131"}}, {"name": "", "latitude": 56.8524226, "longitude": 26.2351927, "source": "osm", "_tags": {"addr:city": "Madona", "addr:country": "LV", "addr:district": "Madonas novads", "addr:housenumber": "38", "addr:postcode": "LV-4801", "addr:street": "Rūpniecības iela", "amenity": "hospital", "healthcare": "hospital", "ref:LV:addr": "101394545"}}]