[{"name": "", "latitude": 56.7102217, "longitude": 27.4172219, "source": "osm", "_tags": {"addr:city": "Rogovka", "addr:country": "LV", "addr:district": "Rēzeknes novads", "addr:housename": "Vidusskola", "addr:postcode": "LV-4652", "addr:subdistrict": "Nautrēnu pagasts", "amenity": "hospital", "emergency": "yes", "ref:LV:addr": "105744807", "source": "USSR-Latvia"}}, {"name": "Tuberkulozes slimnīca", "latitude": 57.1412954, "longitude": 27.2558719, "source": "osm", "_tags": {"addr:city": "Balvi", "addr:country": "LV", "addr:district": "Balvu novads", "addr:housenumber": "2", "addr:postcode": "LV-4501", "addr:street": "Liepu iela", "amenity": "hospital", "name": "Tuberkulozes slimnīca", "ref:LV:addr": "102326943"}}, {"name": "Medicīnskās laboratorijas pieņemšanas punkts \"E. Gulbja laboratorija\"", "latitude": 57.1393148, "longitude": 27.2590558, "source": "osm", "_tags": {"addr:city": "Balvi", "addr:country": "LV", "addr:district": "Balvu novads", "addr:housenumber": "1", "addr:postcode": "LV-4501", "addr:street": "Krasta iela", "amenity": "hospital", "healthcare": "hospital", "name": "Medicīnskās laboratorijas pieņemšanas punkts \"E. Gulbja laboratorija\"", "ref:LV:addr": "103158278"}}, {"name": "Ludzas slimnīca", "latitude": 56.5430835, "longitude": 27.7141261, "source": "osm", "_tags": {"addr:city": "Ludza", "addr:country": "LV", "addr:district": "Ludzas novads", "addr:housenumber": "43", "addr:postcode": "LV-5701", "addr:street": "Raiņa iela", "amenity": "hospital", "building": "hospital", "name": "Ludzas slimnīca", "ref:LV:addr": "102599033"}}, {"name": "Rēzeknes slimnīca", "latitude": 56.5079171, "longitude": 27.3426725, "source": "osm", "_tags": {"addr:city": "Rēzekne", "addr:country": "LV", "addr:housenumber": "41", "addr:postcode": "LV-4601", "addr:street": "18. novembra iela", "amenity": "hospital", "building": "yes", "building:levels": "6", "emergency": "yes", "healthcare": "hospital", "name": "Rēzeknes slimnīca", "ref:LV:addr": "101664848", "wikidata": "Q20564651"}}, {"name": "", "latitude": 57.1404889, "longitude": 27.2561047, "source": "osm", "_tags": {"amenity": "hospital", "healthcare": "hospital"}}, {"name": "Viļakas SAC", "latitude": 57.1776672, "longitude": 27.6825224, "source": "osm", "_tags": {"addr:city": "Viļaka", "addr:country": "LV", "addr:district": "Balvu novads", "addr:housenumber": "2", "addr:postcode": "LV-4583", "addr:street": "Parka iela", "amenity": "hospital", "name": "Viļakas SAC", "ref:LV:addr": "102329563"}}, {"name": "Rēzeknes slimnīca", "latitude": 56.5085924, "longitude": 27.3439088, "source": "osm", "_tags": {"amenity": "hospital", "contact:facebook": "https://www.facebook.com/rezeknesslimnica/", "email": "kanceleja@rslimnica.lv", "emergency": "yes", "healthcare": "hospital", "healthcare:speciality": "dentistry;anaesthetics;dermatology;diabetology;gynaecology;endocrinology;physiatry;cardiology;infectious_diseases;hepatology;neurology;neurosurgery;oncology;osteopathy;paediatrics;trauma;vaccination;urology;radiology", "mobile": "+371 68 80 50 50", "name": "Rēzeknes slimnīca", "opening_hours": "Mo-Fr 08:00-16:30", "phone": "+371 68 80 50 50", "website": "https://rslimnica.lv/"}}, {"name": "Пыталовская районная больница", "latitude": 57.059655, "longitude": 27.919953, "source": "osm", "_tags": {"addr:city": "город Пыталово", "addr:country": "RU", "addr:district": "Пыталовский район", "addr:full": "Псковская область, г. Пыталово, ул. Юнкерова, д.27", "addr:housenumber": "27", "addr:postcode": "181410", "addr:region": "Псковская область", "addr:street": "улица Юнкерова", "amenity": "hospital", "healthcare:speciality": "general;paediatric;adult;gynaecology;stomatology;emergency;surgery", "name": "Пыталовская районная больница", "official_name": "ГБУЗ \"Пыталовская районная больница\"", "opening_hours": "Mo-Fr 08:00-17:30", "phone": "+7 81147 21892", "source:website": "http://zdrav.pskov.ru/", "type": "multipolygon", "ward": "yes"}}]