[{"name": "Poliklīnika", "latitude": 57.3289364, "longitude": 25.6177759, "source": "osm", "_tags": {"addr:city": "Rauna", "addr:country": "LV", "addr:district": "Smiltenes novads", "addr:housenumber": "6", "addr:postcode": "LV-4131", "addr:street": "Dīķa iela", "addr:subdistrict": "Raunas pagasts", "amenity": "hospital", "name": "Poliklīnika", "ref:LV:addr": "104297015"}}, {"name": "Aizkraukles medicīnas centrs", "latitude": 56.6033739, "longitude": 25.2519464, "source": "osm", "_tags": {"amenity": "hospital", "name": "Aizkraukles medicīnas centrs"}}, {"name": "", "latitude": 57.058575, "longitude": 25.809852, "source": "osm", "_tags": {"addr:city": "Vecpiebalga", "addr:country": "LV", "addr:district": "Cēsu novads", "addr:housenumber": "1A", "addr:postcode": "LV-4122", "addr:street": "Gaismas iela", "addr:subdistrict": "Vecpiebalgas pagasts", "amenity": "hospital", "ref:LV:addr": "105879743"}}, {"name": "Doktorāts", "latitude": 57.1887632, "longitude": 25.0377253, "source": "osm", "_tags": {"addr:city": "Augšlīgatne", "addr:country": "LV", "addr:district": "Cēsu novads", "addr:housenumber": "2", "addr:postcode": "LV-4108", "addr:street": "Dārza iela", "addr:subdistrict": "Līgatnes pagasts", "amenity": "hospital", "name": "Doktorāts", "ref:LV:addr": "102301166"}}, {"name": "", "latitude": 57.0526311, "longitude": 25.6229277, "source": "osm", "_tags": {"addr:city": "Kaive", "addr:country": "LV", "addr:district": "Cēsu novads", "addr:housename": "Pagasta Dārziņi", "addr:postcode": "LV-4144", "addr:subdistrict": "Kaives pagasts", "amenity": "hospital", "healthcare": "hospital", "ref:LV:addr": "103456167"}}, {"name": "Jēkabpils Reģionālā slimnīca", "latitude": 56.4968197, "longitude": 25.841814, "source": "osm", "_tags": {"addr:city": "Jēkabpils", "addr:country": "LV", "addr:district": "Jēkabpils novads", "addr:housenumber": "125", "addr:postcode": "LV-5201", "addr:street": "Andreja Pormaļa iela", "amenity": "hospital", "building": "hospital", "email": "rcs@zednet.lv", "emergency": "yes", "fax": "65237811", "healthcare": "hospital", "name": "Jēkabpils Reģionālā slimnīca", "name:de": "Zentralkrankenhaus Jakobstadt", "name:lv": "Jēkabpils Reģionālā slimnīca", "name:ru": "Центральная больница Екабпилского округа", "phone": "65237816", "ref:LV:addr": "101503558", "source": "Jēkabpils territorial plan, 2009"}}, {"name": "Jēkabpils poliklīnika", "latitude": 56.4983659, "longitude": 25.8398362, "source": "osm", "_tags": {"addr:city": "Jēkabpils", "addr:country": "LV", "addr:district": "Jēkabpils novads", "addr:housenumber": "1", "addr:postcode": "LV-5201", "addr:street": "Stadiona iela", "amenity": "hospital", "building": "yes", "healthcare": "hospital", "name": "Jēkabpils poliklīnika", "name:de": "Poliklinik", "name:lv": "Jēkabpils poliklīnika", "name:ru": "Екабпилская поликлиника", "operator": "Jēkabpils RCS poliklīnika", "ref:LV:addr": "101525085", "source": "Jēkabpils territorial plan, 2009"}}, {"name": "Rīdzenes FVP", "latitude": 57.2620899, "longitude": 25.4306518, "source": "osm", "_tags": {"addr:city": "Rīdzene", "addr:country": "LV", "addr:district": "Cēsu novads", "addr:housenumber": "2", "addr:postcode": "LV-4136", "addr:street": "Ezera iela", "addr:subdistrict": "Vaives pagasts", "amenity": "hospital", "building": "yes", "building:levels": "3", "name": "Rīdzenes FVP", "ref:LV:addr": "102306302"}}, {"name": "Ērgļu slimnīca", "latitude": 56.8934788, "longitude": 25.6410916, "source": "osm", "_tags": {"addr:city": "Ērgļi", "addr:country": "LV", "addr:district": "Madonas novads", "addr:housenumber": "7", "addr:postcode": "LV-4840", "addr:street": "Parka iela", "addr:subdistrict": "Ērgļu pagasts", "amenity": "hospital", "building": "yes", "healthcare": "hospital", "name": "Ērgļu slimnīca", "ref:LV:addr": "101406201"}}, {"name": "", "latitude": 57.3125837, "longitude": 25.2592684, "source": "osm", "_tags": {"addr:city": "Cēsis", "addr:country": "LV", "addr:district": "Cēsu novads", "addr:housenumber": "16/18", "addr:postcode": "LV-4101", "addr:street": "Bērzaines iela", "amenity": "hospital", "healthcare": "hospital", "ref:LV:addr": "102959927"}}, {"name": "Cēsu klīnika", "latitude": 57.3152034, "longitude": 25.2559411, "source": "osm", "_tags": {"amenity": "hospital", "emergency": "yes", "healthcare": "hospital", "name": "Cēsu klīnika", "operator": "SIA \"CĒSU KLĪNIKA"}}, {"name": "Jēkabpils Reģionālā slimnīca", "latitude": 56.4974963, "longitude": 25.8415693, "source": "osm", "_tags": {"amenity": "hospital", "healthcare": "hospital", "name": "Jēkabpils Reģionālā slimnīca"}}, {"name": "Cēsu klīnika", "latitude": 57.3152775, "longitude": 25.2555569, "source": "osm", "_tags": {"addr:city": "Cēsis", "addr:country": "LV", "addr:district": "Cēsu novads", "addr:housenumber": "9", "addr:postcode": "LV-4101", "addr:street": "Slimnīcas iela", "amenity": "hospital", "building": "hospital", "emergency": "yes", "healthcare": "hospital", "healthcare:speciality": "general;emergency;radiology;internal", "name": "Cēsu klīnika", "old_addr:housenumber": "11", "old_addr:street": "Beverīnas iela", "operator": "SIA \"CĒSU KLĪNIKA", "operator:type": "private", "ref:LV:addr": "101579241", "type": "multipolygon", "website": "https://www.cesuklinika.lv/"}}]