[{"name": "Nacionālo Bruņoto spēku militārās medicīnas centrs", "latitude": 56.9771623, "longitude": 24.1395394, "source": "osm", "_tags": {"amenity": "hospital", "name": "Nacionālo Bruņoto spēku militārās medicīnas centrs"}}, {"name": "", "latitude": 56.7453336, "longitude": 24.7129288, "source": "osm", "_tags": {"addr:city": "Ķegums", "addr:country": "LV", "addr:district": "Ogres novads", "addr:housenumber": "5", "addr:postcode": "LV-5020", "addr:street": "Komunālā iela", "amenity": "hospital", "healthcare": "hospital", "ref:LV:addr": "102156367"}}, {"name": "Rīgas Austrumu klīniskās universitātes slimnīcas stacionārs \"Biķernieki\"", "latitude": 56.9685185, "longitude": 24.197394, "source": "osm", "_tags": {"addr:city": "Rīga", "addr:country": "LV", "addr:housenumber": "68", "addr:postcode": "LV-1006", "addr:street": "Lielvārdes iela", "amenity": "hospital", "name": "Rīgas Austrumu klīniskās universitātes slimnīcas stacionārs \"Biķernieki\"", "name:lv": "Rīgas Austrumu klīniskās universitātes slimnīcas stacionārs \"Biķernieki\"", "name:ru": "Стационар \"Бикерниеки\" при Рижском Восточном клиническом университете", "ref:LV:addr": "101929208"}}, {"name": "MFD Veselības centrs Pārdaugava", "latitude": 56.9085243, "longitude": 24.0835872, "source": "osm", "_tags": {"addr:city": "Rīga", "addr:country": "LV", "addr:housenumber": "109", "addr:postcode": "LV-1058", "addr:street": "Vienības gatve", "amenity": "hospital", "healthcare": "hospital", "name": "MFD Veselības centrs Pārdaugava", "ref:LV:addr": "104420127"}}, {"name": "Neatliekamās medicīnas un pacientu uzņemšanas klīnika (traumpunkts)", "latitude": 56.9664971, "longitude": 24.2450879, "source": "osm", "_tags": {"amenity": "hospital", "emergency": "yes", "healthcare": "hospital", "healthcare:speciality": "general", "name": "Neatliekamās medicīnas un pacientu uzņemšanas klīnika (traumpunkts)", "operator": "SIA \"Rīgas Austrumu klīniskā universitātes slimnīca\"", "operator:type": "private"}}, {"name": "Patoloģijas centrs", "latitude": 56.9648739, "longitude": 24.2471356, "source": "osm", "_tags": {"addr:city": "Rīga", "addr:country": "LV", "addr:housenumber": "2 k-5", "addr:postcode": "LV-1079", "addr:street": "Hipokrāta iela", "amenity": "hospital", "healthcare": "hospital", "name": "Patoloģijas centrs", "ref:LV:addr": "106702187"}}, {"name": "Poliklīnika", "latitude": 56.5991624, "longitude": 24.5153643, "source": "osm", "_tags": {"addr:city": "Vecumnieki", "addr:country": "LV", "addr:district": "Bauskas novads", "addr:housename": "Atvasaras", "addr:postcode": "LV-3933", "addr:subdistrict": "Vecumnieku pagasts", "amenity": "hospital", "healthcare": "hospital", "name": "Poliklīnika", "ref:LV:addr": "106035664"}}, {"name": "A korpuss", "latitude": 56.9325738, "longitude": 24.064419, "source": "osm", "_tags": {"addr:city": "Rīga", "addr:country": "LV", "addr:housenumber": "13", "addr:postcode": "LV-1002", "addr:street": "Pilsoņu iela", "amenity": "hospital", "healthcare": "hospital", "name": "A korpuss", "ref:LV:addr": "102696742"}}, {"name": "Veselības Centrs 4", "latitude": 56.9041255, "longitude": 24.1475626, "source": "osm", "_tags": {"addr:city": "Valdlauči", "addr:country": "LV", "addr:district": "Ķekavas novads", "addr:housenumber": "5", "addr:postcode": "LV-1076", "addr:street": "Atpūtas iela", "addr:subdistrict": "Ķekavas pagasts", "amenity": "hospital", "healthcare": "hospital", "name": "Veselības Centrs 4", "ref:LV:addr": "106237440"}}, {"name": "Stacionāra \"Gaiļezers\" poliklīnika", "latitude": 56.9673894, "longitude": 24.2447049, "source": "osm", "_tags": {"amenity": "hospital", "healthcare": "hospital", "healthcare:speciality": "general", "name": "Stacionāra \"Gaiļezers\" poliklīnika", "operator": "SIA \"Rīgas Austrumu klīniskā universitātes slimnīca\"", "operator:type": "private"}}, {"name": "Stacionāra \"Latvijas Onkoloģijas centrs\" poliklīnika", "latitude": 56.9668949, "longitude": 24.2420798, "source": "osm", "_tags": {"addr:city": "Rīga", "addr:country": "LV", "addr:housenumber": "4", "addr:postcode": "LV-1079", "addr:street": "Hipokrāta iela", "amenity": "hospital", "healthcare": "hospital", "healthcare:speciality": "general", "name": "Stacionāra \"Latvijas Onkoloģijas centrs\" poliklīnika", "operator": "SIA \"Rīgas Austrumu klīniskā universitātes slimnīca\"", "operator:type": "private", "ref:LV:addr": "102640398"}}, {"name": "Stacionāra \"Latvijas Onkoloģijas centrs\" Uzņemšanas nodaļa", "latitude": 56.9664184, "longitude": 24.2418399, "source": "osm", "_tags": {"addr:city": "Rīga", "addr:country": "LV", "addr:housenumber": "4", "addr:postcode": "LV-1079", "addr:street": "Hipokrāta iela", "amenity": "hospital", "healthcare": "hospital", "healthcare:speciality": "general", "name": "Stacionāra \"Latvijas Onkoloģijas centrs\" Uzņemšanas nodaļa", "operator": "SIA \"Rīgas Austrumu klīniskā universitātes slimnīca\"", "operator:type": "private", "ref:LV:addr": "102640398"}}, {"name": "PSKUS Neatliekamās medicīnas centrs", "latitude": 56.9313847, "longitude": 24.0659397, "source": "osm", "_tags": {"addr:city": "Rīga", "addr:country": "LV", "addr:housenumber": "13 k-15", "addr:postcode": "LV-1002", "addr:street": "Pilsoņu iela", "amenity": "hospital", "check_date": "2024-10-23", "email": "info@stradini.lv", "emergency": "yes", "healthcare": "hospital", "healthcare:speciality": "general", "name": "PSKUS Neatliekamās medicīnas centrs", "operator": "Paula Stradiņa klīniskā universitātes slimnīca", "operator:type": "public", "phone": "+371 67069600; +371 67069770", "ref:LV:addr": "106604503", "wheelchair": "yes"}}, {"name": "Tiesu psihiatrisko ekspertīžu un piespiedu ārstēšanas centrs", "latitude": 56.9798148, "longitude": 24.1417638, "source": "osm", "_tags": {"amenity": "hospital", "barrier": "wall", "email": "rpnc@rpnc.lv", "healthcare": "hospital", "name": "Tiesu psihiatrisko ekspertīžu un piespiedu ārstēšanas centrs", "operator": "Nacionālais psihiskās veselības centrs", "phone": "+371 67080201", "website": "https://rpnc.lv/"}}, {"name": "", "latitude": 56.9811555, "longitude": 24.2161815, "source": "osm", "_tags": {"addr:city": "Rīga", "addr:country": "LV", "addr:housenumber": "2", "addr:postcode": "LV-1006", "addr:street": "Šmerļa iela", "amenity": "hospital", "building": "yes", "healthcare": "hospital", "ref:LV:addr": "103200080"}}, {"name": "Rīgas 1. slimnīca", "latitude": 56.9614858, "longitude": 24.1255288, "source": "osm", "_tags": {"amenity": "hospital", "check_date": "2023-03-15", "contact:website": "https://www.1slimnica.lv/", "name": "Rīgas 1. slimnīca", "name:lv": "Rīgas 1. slimnīca", "name:ru": "Рижская Первая больница", "wikidata": "Q16351399"}}, {"name": "Traumatoloģijas un ortopēdijas slimnīca", "latitude": 56.9827641, "longitude": 24.1391512, "source": "osm", "_tags": {"amenity": "hospital", "healthcare": "hospital", "name": "Traumatoloģijas un ortopēdijas slimnīca", "phone": "+ 371 67399284", "website": "http://www.tos.lv/"}}, {"name": "Rīgas dzemdību nams", "latitude": 56.9669367, "longitude": 24.1323887, "source": "osm", "_tags": {"amenity": "hospital", "check_date": "2023-10-09", "healthcare": "hospital", "healthcare:speciality": "vaccination;gynaecology;maternity", "name": "Rīgas dzemdību nams", "operator:type": "government", "payment:mastercard": "yes", "payment:visa": "yes", "website": "https://rdn.lv", "wikidata": "Q20564732"}}, {"name": "LJMC Vecmīlgrāvja slimnīca un Ziemeļu diagnostikas centrs", "latitude": 57.0328113, "longitude": 24.1117633, "source": "osm", "_tags": {"addr:city": "Rīga", "addr:country": "LV", "addr:housenumber": "26", "addr:postcode": "LV-1015", "addr:street": "Vecmīlgrāvja 5. līnija", "amenity": "hospital", "building": "yes", "building:levels": "3", "fax": "+371 67340341", "healthcare": "hospital", "name": "LJMC Vecmīlgrāvja slimnīca un Ziemeļu diagnostikas centrs", "phone": "+371 67098433", "ref:LV:addr": "102019450", "website": "https://ljmc.lv/"}}, {"name": "Nacionālais psihiskās veselības centrs", "latitude": 56.99529, "longitude": 24.1220641, "source": "osm", "_tags": {"amenity": "hospital", "email": "rpnc@rpnc.lv", "healthcare": "hospital", "name": "Nacionālais psihiskās veselības centrs", "phone": "67080112", "website": "https://rpnc.lv/"}}, {"name": "\"Sociālās aprūpes centrs Baldone\", SIA", "latitude": 56.7415076, "longitude": 24.3895407, "source": "osm", "_tags": {"addr:city": "Baldone", "addr:country": "LV", "addr:district": "Ķekavas novads", "addr:housenumber": "4", "addr:postcode": "LV-2125", "addr:street": "Iecavas iela", "amenity": "hospital", "building": "yes", "building:levels": "2", "name": "\"Sociālās aprūpes centrs Baldone\", SIA", "ref:LV:addr": "105246977"}}, {"name": "\"Veselības centrs 4\" diagnostikas centrs", "latitude": 56.9382839, "longitude": 24.137848, "source": "osm", "_tags": {"addr:city": "Rīga", "addr:country": "LV", "addr:housenumber": "1", "addr:postcode": "LV-1003", "addr:street": "Grebenščikova iela", "amenity": "hospital", "building": "hospital", "healthcare": "hospital", "name": "\"Veselības centrs 4\" diagnostikas centrs", "ref:LV:addr": "101832996"}}, {"name": "Ādažu slimnīca", "latitude": 57.077828, "longitude": 24.3249649, "source": "osm", "_tags": {"addr:city": "Ādaži", "addr:country": "LV", "addr:district": "Ādažu novads", "addr:housenumber": "13/15", "addr:postcode": "LV-2164", "addr:street": "Gaujas iela", "amenity": "hospital", "building": "yes", "check_date": "2025-01-21", "healthcare": "hospital", "name": "Ādažu slimnīca", "ref:LV:addr": "101297728"}}, {"name": "Tuberkulozes un plaušu slimību klīnika", "latitude": 56.9282931, "longitude": 24.3759721, "source": "osm", "_tags": {"access": "yes", "amenity": "hospital", "name": "Tuberkulozes un plaušu slimību klīnika"}}, {"name": "Latvijas Infektoloģijas centrs", "latitude": 56.9773386, "longitude": 24.2001823, "source": "osm", "_tags": {"amenity": "hospital", "barrier": "fence", "healthcare": "hospital", "name": "Latvijas Infektoloģijas centrs", "name:lv": "Latvijas Infektoloģijas centrs", "name:ru": "Латвийский инфектологический центр"}}, {"name": "Rīgas Austrumu klīniskā universitātes slimnīca", "latitude": 56.9662625, "longitude": 24.244518, "source": "osm", "_tags": {"amenity": "hospital", "emergency": "yes", "healthcare": "hospital", "name": "Rīgas Austrumu klīniskā universitātes slimnīca", "operator:type": "private"}}, {"name": "Siguldas slimnīca", "latitude": 57.1565682, "longitude": 24.8444587, "source": "osm", "_tags": {"addr:city": "Sigulda", "addr:country": "LV", "addr:district": "Siguldas novads", "addr:housenumber": "13", "addr:postcode": "LV-2150", "addr:street": "Lakstīgalas iela", "amenity": "hospital", "healthcare": "hospital", "name": "Siguldas slimnīca", "name:fr": "Hôpital de Sigulda", "name:lv": "Siguldas slimnīca", "ref:LV:addr": "101288413"}}, {"name": "LJMC Centrāla slimnīca", "latitude": 56.9894514, "longitude": 24.1366694, "source": "osm", "_tags": {"addr:city": "Rīga", "addr:country": "LV", "addr:housenumber": "27", "addr:postcode": "LV-1005", "addr:street": "Patversmes iela", "amenity": "hospital", "building": "yes", "name": "LJMC Centrāla slimnīca", "old_addr:housenumber": "23", "operator": "LJMC", "ref:LV:addr": "106651472", "website": "https://ljmc.lv/"}}, {"name": "Saulkrastu slimnīca", "latitude": 57.2736932, "longitude": 24.4169808, "source": "osm", "_tags": {"addr:city": "Saulkrasti", "addr:country": "LV", "addr:district": "Saulkrastu novads", "addr:housenumber": "34", "addr:postcode": "LV-2160", "addr:street": "Ainažu iela", "amenity": "hospital", "emergency": "yes", "healthcare": "hospital", "name": "Saulkrastu slimnīca", "ref:LV:addr": "102110400"}}, {"name": "", "latitude": 56.9626011, "longitude": 24.2399964, "source": "osm", "_tags": {"amenity": "hospital", "healthcare": "hospital"}}, {"name": "", "latitude": 56.9690911, "longitude": 24.197404, "source": "osm", "_tags": {"amenity": "hospital", "healthcare": "hospital"}}, {"name": "SIA \"Rīgas veselības centrs\" filiāle \"Bolderāja\"", "latitude": 57.0302835, "longitude": 24.0500904, "source": "osm", "_tags": {"addr:city": "Rīga", "addr:country": "LV", "addr:housenumber": "43", "addr:postcode": "LV-1016", "addr:street": "Mežrozīšu iela", "amenity": "hospital", "building": "yes", "healthcare": "hospital", "name": "SIA \"Rīgas veselības centrs\" filiāle \"Bolderāja\"", "ref:LV:addr": "106249576"}}, {"name": "Ogres rajona slimnīca", "latitude": 56.8191328, "longitude": 24.6196082, "source": "osm", "_tags": {"amenity": "hospital", "healthcare": "hospital", "name": "Ogres rajona slimnīca"}}, {"name": "SIA \"Rīgas veselības centrs\" filiāle \"Ziepniekkalns\"", "latitude": 56.9024697, "longitude": 24.0898821, "source": "osm", "_tags": {"addr:city": "Rīga", "addr:country": "LV", "addr:housenumber": "24", "addr:postcode": "LV-1058", "addr:street": "Spulgas iela", "amenity": "hospital", "healthcare": "hospital", "healthcare:speciality": "dentistry;radiology;ophthalmology", "name": "SIA \"Rīgas veselības centrs\" filiāle \"Ziepniekkalns\"", "opening_hours": "08:00-17:00", "operator": "SIA \"Rīgas veselības centrs\"", "ref:LV:addr": "102014683", "website": "https://rigasveseliba.lv/lv/filiales/ziepniekkalns/", "wheelchair": "yes"}}, {"name": "Rīgas Austrumu slimnīcas stacionārs “Gaiļezers”", "latitude": 56.9671833, "longitude": 24.2451603, "source": "osm", "_tags": {"amenity": "hospital", "building": "hospital", "emergency": "yes", "healthcare": "hospital", "name": "Rīgas Austrumu slimnīcas stacionārs “Gaiļezers”", "type": "multipolygon"}}, {"name": "Ģimenes centra klīnika", "latitude": 56.9144484, "longitude": 24.1701459, "source": "osm", "_tags": {"addr:city": "Rīga", "addr:country": "LV", "addr:housenumber": "10A", "addr:postcode": "LV-1063", "addr:street": "Kaņiera iela", "amenity": "hospital", "building": "kindergarten", "building:levels": "2", "healthcare": "hospital", "name": "Ģimenes centra klīnika", "ref:LV:addr": "101841562", "type": "multipolygon", "website": "https://www.gimenescentrs.lv/"}}, {"name": "Bērnu klīniskā universitātes slimnīca", "latitude": 56.9223536, "longitude": 24.0857866, "source": "osm", "_tags": {"amenity": "hospital", "healthcare": "hospital", "name": "Bērnu klīniskā universitātes slimnīca", "name:en": "Children's Clinical University Hospital", "name:lv": "Bērnu klīniskā universitātes slimnīca", "phone": "+371 807 08866", "type": "multipolygon", "website": "https://www.bkus.lv", "wikidata": "Q16353601"}}, {"name": "Rīgas 2. slimnīca", "latitude": 56.9169598, "longitude": 24.0906358, "source": "osm", "_tags": {"amenity": "hospital", "healthcare": "hospital", "loc_name": "2. slimnīca", "name": "Rīgas 2. slimnīca", "type": "multipolygon"}}, {"name": "Latvijas Onkoloģijas centrs", "latitude": 56.9662284, "longitude": 24.2420403, "source": "osm", "_tags": {"addr:city": "Rīga", "addr:country": "LV", "addr:housenumber": "4", "addr:postcode": "LV-1079", "addr:street": "Hipokrāta iela", "amenity": "hospital", "building": "hospital", "building:levels": "1", "healthcare": "hospital", "name": "Latvijas Onkoloģijas centrs", "name:lv": "Latvijas Onkoloģijas centrs", "name:ru": "Латвийский онкологический центр", "ref:LV:addr": "102640398", "type": "multipolygon"}}, {"name": "Tuberkulozes un plaušu slimību Valsts centrs", "latitude": 56.9279087, "longitude": 24.3766916, "source": "osm", "_tags": {"addr:city": "Upeslejas", "addr:country": "LV", "addr:district": "Ropažu novads", "addr:housename": "Tuberkulozes un plaušu slimību valsts centrs", "addr:postcode": "LV-2118", "addr:subdistrict": "Stopiņu pagasts", "amenity": "hospital", "building": "yes", "name": "Tuberkulozes un plaušu slimību Valsts centrs", "old_addr:housename": "Tuberkulozes slimnīca", "ref:LV:addr": "102784286", "type": "multipolygon"}}, {"name": "Paula Stradiņa Klīniskā universitātes slimnīca", "latitude": 56.9313277, "longitude": 24.065126, "source": "osm", "_tags": {"amenity": "hospital", "check_date": "2023-03-15", "healthcare": "hospital", "name": "Paula Stradiņa Klīniskā universitātes slimnīca", "name:en": "Pauls Stradiņš Clinical university hospital", "name:lv": "Paula Stradiņa Klīniskā universitātes slimnīca", "name:ru": "Университетская клиническая больница имени Паула Страдыня", "short_name": "PSKUS", "type": "multipolygon", "website": "https://stradini.lv", "wikidata": "Q2034327"}}]