[{"name": "Hallands sjukhus Halmstad", "latitude": 56.6816136, "longitude": 12.8463704, "source": "osm", "_tags": {"addr:city": "Halmstad", "addr:street": "Lasarettsv√§gen", "amenity": "hospital", "contact:phone": "+46 35-131000", "contact:website": "http://www.regionhalland.se/hallandssjukhushalmstad", "emergency": "yes", "emergency:paediatric": "yes", "health_specialty:emergency_medicine": "yes", "health_specialty:family_medicine": "yes", "health_specialty:intensive_care_medicine": "yes", "health_specialty:orthopaedics": "yes", "health_specialty:paediatrics": "yes", "health_specialty:surgery": "yes", "health_specialty:vascular_surgery": "yes", "healthcare": "hospital", "name": "Hallands sjukhus Halmstad", "opening_hours": "24/7", "type": "multipolygon"}}, {"name": "Hallands sjukhus Varberg", "latitude": 57.0985724, "longitude": 12.2776312, "source": "osm", "_tags": {"amenity": "hospital", "emergency": "yes", "health_specialty:emergency_medicine": "yes", "health_specialty:family_medicine": "yes", "health_specialty:intensive_care_medicine": "yes", "health_specialty:orthopaedics": "yes", "health_specialty:paediatrics": "yes", "health_specialty:surgery": "yes", "healthcare": "hospital", "name": "Hallands sjukhus Varberg", "opening_hours": "24/7", "type": "multipolygon", "website": "https://www.regionhalland.se/vard-halsa/hitta-din-vard/sjukhuset-i-varberg", "wikidata": "Q7915503"}}]