[{"name": "", "latitude": 56.5238152, "longitude": 21.0255543, "source": "osm", "_tags": {"addr:city": "Liepāja", "addr:country": "LV", "addr:housenumber": "95", "addr:postcode": "LV-3401", "addr:street": "Brīvības iela", "amenity": "hospital", "healthcare": "hospital", "ref:LV:addr": "101691408"}}, {"name": "Kuldīgas slimnīcas Aizputes filiāle", "latitude": 56.7153164, "longitude": 21.6131257, "source": "osm", "_tags": {"addr:city": "Aizpute", "addr:country": "LV", "addr:district": "Dienvidkurzemes novads", "addr:housenumber": "2", "addr:postcode": "LV-3456", "addr:street": "Avotu iela", "amenity": "hospital", "healthcare": "hospital", "name": "Kuldīgas slimnīcas Aizputes filiāle", "ref:LV:addr": "101448304"}}, {"name": "Doktorāts", "latitude": 56.5190045, "longitude": 21.0156477, "source": "osm", "_tags": {"addr:city": "Liepāja", "addr:country": "LV", "addr:housenumber": "37/39", "addr:postcode": "LV-3401", "addr:street": "Rīgas iela", "amenity": "hospital", "healthcare": "hospital", "name": "Doktorāts", "ref:LV:addr": "102435902"}}, {"name": "Liepājas Reģionālā Slimnīca", "latitude": 56.5529289, "longitude": 21.1002073, "source": "osm", "_tags": {"addr:city": "Liepāja", "addr:country": "LV", "addr:housenumber": "25", "addr:postcode": "LV-3414", "addr:street": "Slimnīcas iela", "alt_name": "LIEPĀJAS REĢIONĀLĀ SLIMNĪCA", "amenity": "hospital", "emergency": "yes", "healthcare": "hospital", "healthcare:speciality": "general;paediatrics;orthopaedics;surgery;ophthalmology;emergency;gynaecology;oncology;radiology;cardiology;internal;neurology;maternity", "name": "Liepājas Reģionālā Slimnīca", "ref:LV:addr": "101082500", "url": "http://www.liepajasslimnica.lv", "website": "htttp://www.liepajasslimnica.lv", "wheelchair": "yes"}}, {"name": "Piejūras Slimnīca", "latitude": 56.4990528, "longitude": 20.998106, "source": "osm", "_tags": {"access": "discouraged", "amenity": "hospital", "healthcare": "hospital", "healthcare:speciality": "psychiatry", "name": "Piejūras Slimnīca"}}, {"name": "Liepājas Reģionālā Slimnīca", "latitude": 56.553182, "longitude": 21.0997982, "source": "osm", "_tags": {"addr:city": "Liepāja", "addr:country": "LV", "addr:housenumber": "25", "addr:postcode": "LV-3414", "addr:street": "Slimnīcas iela", "amenity": "hospital", "building": "hospital", "emergency": "yes", "healthcare": "hospital", "name": "Liepājas Reģionālā Slimnīca", "old_addr:housenumber": "100", "old_addr:street": "Grīzupes iela", "ref:LV:addr": "101082500", "type": "multipolygon"}}, {"name": "Priekules slimnīca", "latitude": 56.4417931, "longitude": 21.583585, "source": "osm", "_tags": {"amenity": "hospital", "building": "yes", "name": "Priekules slimnīca", "type": "multipolygon"}}]