[{"name": "", "latitude": 56.6649993, "longitude": 16.3669189, "source": "osm", "_tags": {"amenity": "hospital", "building": "yes", "healthcare": "hospital"}}, {"name": "", "latitude": 56.6645488, "longitude": 16.3666703, "source": "osm", "_tags": {"amenity": "hospital", "building": "yes", "healthcare": "hospital"}}, {"name": "", "latitude": 56.6647533, "longitude": 16.3673224, "source": "osm", "_tags": {"amenity": "hospital", "building": "yes", "healthcare": "hospital"}}, {"name": "Länssjukhuset i Kalmar", "latitude": 56.6589395, "longitude": 16.3291743, "source": "osm", "_tags": {"amenity": "hospital", "emergency": "yes", "health_specialty:emergency_medicine": "yes", "health_specialty:family_medicine": "yes", "health_specialty:intensive_care_medicine": "yes", "health_specialty:orthopaedics": "yes", "health_specialty:paediatrics": "yes", "health_specialty:surgery": "yes", "health_specialty:vascular_surgery": "yes", "healthcare": "hospital", "name": "Länssjukhuset i Kalmar", "opening_hours": "24/7"}}, {"name": "Stensbergshemmet", "latitude": 56.6595526, "longitude": 16.3355647, "source": "osm", "_tags": {"amenity": "hospital", "building": "yes", "name": "Stensbergshemmet", "type": "multipolygon"}}, {"name": "Oskarshamns Sjukhus", "latitude": 57.2636569, "longitude": 16.4218116, "source": "osm", "_tags": {"amenity": "hospital", "emergency": "yes", "healthcare": "hospital", "name": "Oskarshamns Sjukhus", "operator": "Region Kalmar län", "operator:type": "public", "type": "multipolygon"}}]