[{"name": "", "latitude": 42.4482898, "longitude": -121.8250384, "elevation": 1997.0, "source": "osm", "_tags": {"ele": "1997", "natural": "peak"}}, {"name": "The Watchman", "latitude": 42.9429528, "longitude": -122.1724048, "elevation": 2442.0, "source": "osm", "_tags": {"ele": "2442", "gnis:feature_id": "1151047", "name": "The Watchman", "natural": "peak", "tourism": "viewpoint", "wikidata": "Q49083077"}}, {"name": "Bald Hill", "latitude": 42.2993093, "longitude": -121.8061175, "elevation": 1490.0, "source": "osm", "_tags": {"ele": "1490", "gnis:feature_id": "1117173", "name": "Bald Hill", "natural": "peak", "wikidata": "Q49009800"}}, {"name": "Buck Butte", "latitude": 42.0918188, "longitude": -121.4458271, "elevation": 1572.0, "source": "osm", "_tags": {"ele": "1572", "gnis:feature_id": "1118177", "name": "Buck Butte", "natural": "peak", "wikidata": "Q49015974"}}, {"name": "Government Hill", "latitude": 42.2740316, "longitude": -121.8580632, "elevation": 1409.0, "source": "osm", "_tags": {"ele": "1409", "gnis:feature_id": "1121272", "name": "Government Hill", "natural": "peak", "wikidata": "Q49032503"}}, {"name": "Grizzly Butte", "latitude": 42.0323659, "longitude": -122.1094565, "elevation": 1340.0, "source": "osm", "_tags": {"ele": "1340", "gnis:feature_id": "1121442", "name": "Grizzly Butte", "natural": "peak", "wikidata": "Q49033970"}}, {"name": "Grizzly Butte", "latitude": 42.3512545, "longitude": -121.6402815, "elevation": 1364.0, "source": "osm", "_tags": {"ele": "1364", "gnis:feature_id": "1121443", "name": "Grizzly Butte", "natural": "peak", "wikidata": "Q49033972"}}, {"name": "Grizzly Mountain", "latitude": 42.0402146, "longitude": -122.2882867, "elevation": 1557.223, "source": "osm", "_tags": {"ele": "1557.223", "gnis:feature_id": "1121447", "name": "Grizzly Mountain", "natural": "peak", "wikidata": "Q49033990"}}, {"name": "Hayden Mountain", "latitude": 42.1068092, "longitude": -122.0997353, "elevation": 1562.0, "source": "osm", "_tags": {"ele": "1562", "gnis:feature_id": "1121694", "name": "Hayden Mountain", "natural": "peak", "wikidata": "Q5686352"}}, {"name": "Hogback Mountain", "latitude": 42.2427673, "longitude": -121.7060483, "elevation": 1889.76, "source": "osm", "_tags": {"ele": "1889.76", "gnis:feature_id": "1121885", "name": "Hogback Mountain", "name:acv": "salak̓u", "natural": "peak", "wikidata": "Q8520950"}}, {"name": "Hopper Hill", "latitude": 42.2582014, "longitude": -121.5788894, "elevation": 1558.0, "source": "osm", "_tags": {"ele": "1558", "gnis:feature_id": "1121979", "name": "Hopper Hill", "natural": "peak", "wikidata": "Q49037072"}}, {"name": "Moyina Hill", "latitude": 42.2412757, "longitude": -121.6407618, "elevation": 1820.875, "source": "osm", "_tags": {"ele": "1820.875", "gnis:feature_id": "1124439", "name": "Moyina Hill", "natural": "peak", "wikidata": "Q49055464"}}, {"name": "Mud Spring Mountain", "latitude": 42.0795861, "longitude": -122.2072381, "elevation": 1434.0, "source": "osm", "_tags": {"ele": "1434", "gnis:feature_id": "1124496", "name": "Mud Spring Mountain", "natural": "peak", "wikidata": "Q49055560"}}, {"name": "Mule Hill", "latitude": 42.1045865, "longitude": -122.1425144, "elevation": 1550.0, "source": "osm", "_tags": {"ele": "1550", "gnis:feature_id": "1124519", "name": "Mule Hill", "natural": "peak", "wikidata": "Q49055660"}}, {"name": "Naylox Mountain", "latitude": 42.3429198, "longitude": -121.7750063, "elevation": 1754.0, "source": "osm", "_tags": {"ele": "1754", "gnis:feature_id": "1124607", "name": "Naylox Mountain", "natural": "peak", "wikidata": "Q49056476"}}, {"name": "Parker Mountain", "latitude": 42.1054181, "longitude": -122.2786295, "elevation": 1586.0, "source": "osm", "_tags": {"ele": "1586", "gnis:feature_id": "1125186", "name": "Parker Mountain", "natural": "peak"}}, {"name": "Rosebud Mountain", "latitude": 42.0745114, "longitude": -122.3729495, "elevation": 1337.462, "source": "osm", "_tags": {"ele": "1337.462", "gnis:feature_id": "1126297", "name": "Rosebud Mountain", "natural": "peak", "wikidata": "Q49069451"}}, {"name": "Spence Mountain", "latitude": 42.3637503, "longitude": -121.9744583, "elevation": 1783.0, "source": "osm", "_tags": {"ele": "1783", "gnis:feature_id": "1127381", "name": "Spence Mountain", "natural": "peak", "wikidata": "Q49076303"}}, {"name": "Stukel Mountain", "latitude": 42.100306, "longitude": -121.6353666, "elevation": 1988.82, "source": "osm", "_tags": {"ele": "1988.82", "gnis:feature_id": "1127674", "name": "Stukel Mountain", "natural": "peak", "wikidata": "Q49078980"}}, {"name": "Wild Horse Butte", "latitude": 42.0784798, "longitude": -121.8522255, "elevation": 1349.0, "source": "osm", "_tags": {"ele": "1349", "gnis:feature_id": "1129048", "name": "Wild Horse Butte", "natural": "peak", "wikidata": "Q49089865"}}, {"name": "Tom Mountain", "latitude": 42.7651659, "longitude": -122.2420709, "elevation": 2077.0, "source": "osm", "_tags": {"ele": "2077", "gnis:feature_id": "1135279", "name": "Tom Mountain", "natural": "peak", "wikidata": "Q49084210"}}, {"name": "Captain Jack", "latitude": 42.0729256, "longitude": -121.7702775, "elevation": 1424.0, "source": "osm", "_tags": {"ele": "1424", "gnis:feature_id": "1136121", "name": "Captain Jack", "natural": "peak", "wikidata": "Q49018060"}}, {"name": "Chicken Hills", "latitude": 42.0551443, "longitude": -122.0286212, "elevation": 1666.0, "source": "osm", "_tags": {"ele": "1666", "gnis:feature_id": "1136146", "name": "Chicken Hills", "natural": "peak", "wikidata": "Q49020139"}}, {"name": "Klamath Hills", "latitude": 42.0800875, "longitude": -121.7693557, "elevation": 1581.302, "source": "osm", "_tags": {"ele": "1581.302", "gnis:feature_id": "1136446", "name": "Klamath Hills", "natural": "peak", "wikidata": "Q49041997"}}, {"name": "Miller Hill", "latitude": 42.1420909, "longitude": -121.7666679, "elevation": 1369.0, "source": "osm", "_tags": {"ele": "1369", "gnis:feature_id": "1136539", "name": "Miller Hill", "natural": "peak", "wikidata": "Q49050227"}}, {"name": "Plum Hills", "latitude": 42.2992748, "longitude": -121.7847441, "elevation": 1814.474, "source": "osm", "_tags": {"ele": "1814.474", "gnis:feature_id": "1136633", "name": "Plum Hills", "natural": "peak", "wikidata": "Q49062694"}}, {"name": "Porter Butte", "latitude": 42.2704196, "longitude": -121.938344, "elevation": 1691.0, "source": "osm", "_tags": {"ele": "1691", "gnis:feature_id": "1136644", "name": "Porter Butte", "natural": "peak", "wikidata": "Q49063511"}}, {"name": "Round Lake Hill", "latitude": 42.2468084, "longitude": -121.9769562, "elevation": 1534.0, "source": "osm", "_tags": {"ele": "1534", "gnis:feature_id": "1136709", "name": "Round Lake Hill", "natural": "peak", "wikidata": "Q49069695"}}, {"name": "Turkey Hill", "latitude": 42.0359876, "longitude": -121.414714, "elevation": 1377.0, "source": "osm", "_tags": {"ele": "1377", "gnis:feature_id": "1136843", "name": "Turkey Hill", "natural": "peak", "wikidata": "Q49085339"}}, {"name": "Agency Hill", "latitude": 42.6387462, "longitude": -121.936407, "elevation": 1496.0, "source": "osm", "_tags": {"ele": "1496", "gnis:feature_id": "1137032", "name": "Agency Hill", "natural": "peak", "wikidata": "Q49008513"}}, {"name": "Antone Butte", "latitude": 42.5095874, "longitude": -121.5027825, "elevation": 1435.0, "source": "osm", "_tags": {"ele": "1435", "gnis:feature_id": "1137266", "name": "Antone Butte", "natural": "peak", "wikidata": "Q49008940"}}, {"name": "Applegate Butte", "latitude": 42.7073594, "longitude": -121.719736, "elevation": 1834.0, "source": "osm", "_tags": {"ele": "1834", "gnis:feature_id": "1137273", "name": "Applegate Butte", "natural": "peak", "wikidata": "Q49008993"}}, {"name": "Applegate Peak", "latitude": 42.8998518, "longitude": -122.1053048, "elevation": 2450.0, "source": "osm", "_tags": {"ele": "2450", "gnis:feature_id": "1137278", "name": "Applegate Peak", "natural": "peak", "wikidata": "Q49008995"}}, {"name": "Arant Point", "latitude": 42.8554071, "longitude": -122.1678056, "elevation": 2053.0, "source": "osm", "_tags": {"ele": "2053", "gnis:feature_id": "1137282", "name": "Arant Point", "natural": "peak", "wikidata": "Q49009005"}}, {"name": "Bald Top", "latitude": 42.8044837, "longitude": -122.2121144, "elevation": 1894.0, "source": "osm", "_tags": {"ele": "1894", "gnis:feature_id": "1137465", "name": "Bald Top", "natural": "peak", "wikidata": "Q49010306"}}, {"name": "Bareface Butte", "latitude": 42.7012717, "longitude": -122.2080054, "elevation": 1929.0, "source": "osm", "_tags": {"ele": "1929", "gnis:feature_id": "1137511", "name": "Bareface Butte", "natural": "peak", "wikidata": "Q49010752"}}, {"name": "Bear Butte", "latitude": 42.9837413, "longitude": -121.9958589, "elevation": 1923.0, "source": "osm", "_tags": {"ele": "1923", "gnis:feature_id": "1137630", "name": "Bear Butte", "natural": "peak", "wikidata": "Q49011274"}}, {"name": "Big Bunchgrass", "latitude": 42.7030549, "longitude": -122.1962933, "elevation": 2024.5, "source": "osm", "_tags": {"ele": "2024.5", "gnis:feature_id": "1137981", "name": "Big Bunchgrass", "natural": "peak", "wikidata": "Q49012329"}}, {"name": "Bly Mountain", "latitude": 42.4037567, "longitude": -121.4372233, "elevation": 1733.0, "source": "osm", "_tags": {"ele": "1733", "gnis:feature_id": "1138345", "name": "Bly Mountain", "natural": "peak", "wikidata": "Q49014584"}}, {"name": "Boundary Butte", "latitude": 42.6979067, "longitude": -122.4000316, "elevation": 1174.0, "source": "osm", "_tags": {"ele": "1174", "gnis:feature_id": "1138498", "name": "Boundary Butte", "natural": "peak", "wikidata": "Q49015040"}}, {"name": "Boundary Butte", "latitude": 42.8051335, "longitude": -121.9208542, "elevation": 1739.0, "source": "osm", "_tags": {"ele": "1739", "gnis:feature_id": "1138499", "name": "Boundary Butte", "natural": "peak", "wikidata": "Q49015043"}}, {"name": "Brush Mountain", "latitude": 42.2506928, "longitude": -122.3191884, "elevation": 1861.0, "source": "osm", "_tags": {"ele": "1861", "gnis:feature_id": "1138723", "name": "Brush Mountain", "natural": "peak", "wikidata": "Q49015784"}}, {"name": "Buck Mountain", "latitude": 42.1729187, "longitude": -122.14696, "elevation": 1884.0, "source": "osm", "_tags": {"ele": "1884", "gnis:feature_id": "1138798", "name": "Buck Mountain", "natural": "peak", "wikidata": "Q49016121"}}, {"name": "Buck Peak", "latitude": 42.2790281, "longitude": -122.1216834, "elevation": 1849.0, "source": "osm", "_tags": {"ele": "1849", "gnis:feature_id": "1138807", "name": "Buck Peak", "natural": "peak", "wikidata": "Q49016206"}}, {"name": "Bunker Hill", "latitude": 42.7149211, "longitude": -122.1628447, "elevation": 1976.0, "source": "osm", "_tags": {"ele": "1976", "gnis:feature_id": "1138958", "name": "Bunker Hill", "natural": "peak", "wikidata": "Q49016763"}}, {"name": "Burton Butte", "latitude": 42.2829153, "longitude": -122.2489093, "elevation": 1855.0, "source": "osm", "_tags": {"ele": "1855", "gnis:feature_id": "1139019", "name": "Burton Butte", "natural": "peak", "wikidata": "Q49017094"}}, {"name": "Buttes of the Gods", "latitude": 42.5179197, "longitude": -121.5525059, "elevation": 1312.0, "source": "osm", "_tags": {"ele": "1312", "gnis:feature_id": "1139072", "name": "Buttes of the Gods", "natural": "peak", "wikidata": "Q49017286"}}, {"name": "Calimus Butte", "latitude": 42.6318077, "longitude": -121.5597313, "elevation": 2012.0, "source": "osm", "_tags": {"ele": "2012", "gnis:feature_id": "1139161", "name": "Calimus Butte", "name:en": "Calimus Butte", "name:kla": "kelmas", "natural": "peak", "wikidata": "Q49017661"}}, {"name": "Mount Carmine", "latitude": 42.3331941, "longitude": -122.0827944, "elevation": 2396.0, "source": "osm", "_tags": {"ele": "2396", "gnis:feature_id": "1139381", "name": "Mount Carmine", "natural": "peak", "note": "Mount Carmine lies in the Mountain Lakes Wilderness in Southern Oregon. Mount Carmine is ranked at #97 on the Oregon Top 100 Peaks at 7882 feet of elevation.", "website": "https://www.summitpost.org/mount-carmine/817703", "wikidata": "Q49052238"}}, {"name": "Castle Point", "latitude": 42.8774922, "longitude": -122.2440819, "elevation": 1913.0, "source": "osm", "_tags": {"ele": "1913", "gnis:feature_id": "1139443", "name": "Castle Point", "natural": "peak", "wikidata": "Q49018488"}}, {"name": "Cat Hill", "latitude": 42.5237431, "longitude": -122.2991924, "elevation": 1942.0, "source": "osm", "_tags": {"ele": "1942", "gnis:feature_id": "1139460", "name": "Cat Hill", "natural": "peak", "wikidata": "Q49018623"}}, {"name": "Cave Mountain", "latitude": 42.6020809, "longitude": -121.8300142, "elevation": 1599.0, "source": "osm", "_tags": {"ele": "1599", "gnis:feature_id": "1139475", "name": "Cave Mountain", "natural": "peak", "wikidata": "Q49018800"}}, {"name": "Chase Mountain", "latitude": 42.0945885, "longitude": -121.9938986, "elevation": 1935.0, "source": "osm", "_tags": {"ele": "1935", "gnis:feature_id": "1139583", "name": "Chase Mountain", "natural": "peak", "wikidata": "Q49019868"}}, {"name": "Cherry Peak", "latitude": 42.5779109, "longitude": -122.1511339, "elevation": 2003.0, "source": "osm", "_tags": {"ele": "2003", "gnis:feature_id": "1139601", "name": "Cherry Peak", "natural": "peak", "wikidata": "Q49019989"}}, {"name": "Cinnamon Peak", "latitude": 42.7637404, "longitude": -122.2725289, "elevation": 1933.0, "source": "osm", "_tags": {"ele": "1933", "gnis:feature_id": "1139737", "name": "Cinnamon Peak", "natural": "peak", "wikidata": "Q49020751"}}, {"name": "Clover Butte", "latitude": 42.2448631, "longitude": -122.0502919, "elevation": 1646.0, "source": "osm", "_tags": {"ele": "1646", "gnis:feature_id": "1139844", "name": "Clover Butte", "natural": "peak", "wikidata": "Q49021071"}}, {"name": "Cooks Mountain", "latitude": 42.5362552, "longitude": -121.438337, "elevation": 1632.0, "source": "osm", "_tags": {"ele": "1632", "gnis:feature_id": "1140059", "name": "Cooks Mountain", "natural": "peak", "wikidata": "Q49021835"}}, {"name": "Corbell Butte", "latitude": 42.5712483, "longitude": -121.7836232, "elevation": 1641.0, "source": "osm", "_tags": {"ele": "1641", "gnis:feature_id": "1140116", "name": "Corbell Butte", "natural": "peak", "wikidata": "Q49022080"}}, {"name": "Council Butte", "latitude": 42.4537567, "longitude": -121.4055568, "elevation": 1409.0, "source": "osm", "_tags": {"ele": "1409", "gnis:feature_id": "1140253", "name": "Council Butte", "natural": "peak", "wikidata": "Q49022358"}}, {"name": "Cox Butte", "latitude": 42.3195802, "longitude": -122.3233563, "elevation": 1632.0, "source": "osm", "_tags": {"ele": "1632", "gnis:feature_id": "1140298", "name": "Cox Butte", "natural": "peak", "wikidata": "Q49022511"}}, {"name": "Coyote Butte", "latitude": 42.5123643, "longitude": -121.5441723, "elevation": 1386.0, "source": "osm", "_tags": {"ele": "1386", "gnis:feature_id": "1140308", "name": "Coyote Butte", "natural": "peak", "wikidata": "Q49022566"}}, {"name": "Crater Mountain", "latitude": 42.3287489, "longitude": -122.1483517, "elevation": 2363.0, "source": "osm", "_tags": {"ele": "2363", "gnis:feature_id": "1140399", "name": "Crater Mountain", "natural": "peak", "note": "Elevation: 7777 feet, 2370 meters, Latitude/Longitude (WGS84) 42° 20' N;122° 9' W Country United States State/Province Oregon County/Second Level Region Klamath", "website": "https://www.peakbagger.com/peak.aspx?pid=56274", "wikidata": "Q49022838"}}, {"name": "Crater Peak", "latitude": 42.848186, "longitude": -122.0978038, "elevation": 2207.0, "source": "osm", "_tags": {"ele": "2207", "gnis:feature_id": "1140400", "name": "Crater Peak", "natural": "peak", "wikidata": "Q49022855"}}, {"name": "Crawford Butte", "latitude": 42.6504161, "longitude": -121.6861229, "elevation": 1628.0, "source": "osm", "_tags": {"ele": "1628", "gnis:feature_id": "1140410", "name": "Crawford Butte", "natural": "peak", "wikidata": "Q49022861"}}, {"name": "Cruikshank Butte", "latitude": 42.3873657, "longitude": -121.5816702, "elevation": 1546.0, "source": "osm", "_tags": {"ele": "1546", "gnis:feature_id": "1140496", "name": "Cruikshank Butte", "natural": "peak", "wikidata": "Q49023231"}}, {"name": "Devils Peak", "latitude": 42.6431145, "longitude": -122.2138013, "elevation": 2300.0, "source": "osm", "_tags": {"ele": "2300", "gnis:feature_id": "1140966", "name": "Devils Peak", "natural": "peak", "wikidata": "Q49024557"}}, {"name": "Dry Butte", "latitude": 42.8545769, "longitude": -121.9439113, "elevation": 1722.0, "source": "osm", "_tags": {"ele": "1722", "gnis:feature_id": "1141262", "name": "Dry Butte", "natural": "peak", "wikidata": "Q49025874"}}, {"name": "Eagle Butte", "latitude": 42.4945869, "longitude": -121.5355605, "elevation": 1426.0, "source": "osm", "_tags": {"ele": "1426", "gnis:feature_id": "1141458", "name": "Eagle Butte", "natural": "peak", "wikidata": "Q49026446"}}, {"name": "Eagle Crags", "latitude": 42.9022612, "longitude": -122.1146589, "elevation": 2060.0, "source": "osm", "_tags": {"ele": "2060", "gnis:feature_id": "1141465", "name": "Eagle Crags", "natural": "peak", "wikidata": "Q49026473"}}, {"name": "Edgewood Mountain", "latitude": 42.4168075, "longitude": -121.7147288, "elevation": 2038.0, "source": "osm", "_tags": {"ele": "2038", "gnis:feature_id": "1141674", "name": "Edgewood Mountain", "natural": "peak", "wikidata": "Q49027245"}}, {"name": "Ethel Mountain", "latitude": 42.7226652, "longitude": -122.186304, "elevation": 2139.0, "source": "osm", "_tags": {"ele": "2139", "gnis:feature_id": "1141904", "name": "Ethel Mountain", "natural": "peak", "wikidata": "Q49028238"}}, {"name": "Fuego Mountain", "latitude": 42.63931, "longitude": -121.4380616, "elevation": 2080.0, "source": "osm", "_tags": {"ele": "2080", "gnis:feature_id": "1142526", "name": "Fuego Mountain", "name:en": "Fuego Mountain", "name:kla": "koyLa", "natural": "peak", "wikidata": "Q49030742"}}, {"name": "Gardner Peak", "latitude": 42.6539009, "longitude": -122.1654895, "elevation": 2092.0, "source": "osm", "_tags": {"ele": "2092", "gnis:feature_id": "1142575", "name": "Gardner Peak", "natural": "peak", "wikidata": "Q49031057"}}, {"name": "Garfield Peak", "latitude": 42.9040182, "longitude": -122.123083, "elevation": 2454.0, "source": "osm", "_tags": {"ele": "2454", "gnis:feature_id": "1142578", "name": "Garfield Peak", "natural": "peak", "wikidata": "Q21010068"}}, {"name": "Goose Egg", "latitude": 42.7716131, "longitude": -122.1811802, "elevation": 2031.0, "source": "osm", "_tags": {"ele": "2031", "gnis:feature_id": "1142853", "name": "Goose Egg", "natural": "peak", "wikidata": "Q49032325"}}, {"name": "Goose Nest", "latitude": 42.7877167, "longitude": -122.1523668, "elevation": 2043.0, "source": "osm", "_tags": {"ele": "2043", "gnis:feature_id": "1142858", "name": "Goose Nest", "natural": "peak", "wikidata": "Q49032345"}}, {"name": "Grenada Butte", "latitude": 42.0259784, "longitude": -122.0025088, "elevation": 1594.0, "source": "osm", "_tags": {"ele": "1594", "gnis:feature_id": "1143075", "name": "Grenada Butte", "natural": "peak", "wikidata": "Q49033826"}}, {"name": "Greylock Mountain", "latitude": 42.3562484, "longitude": -122.1408519, "elevation": 2348.0, "source": "osm", "_tags": {"ele": "2348", "gnis:feature_id": "1143077", "name": "Greylock Mountain", "natural": "peak", "note": "Greylock Mountain is a 7,703 ft / 2,348 m mountain peak near Klamath Falls, Oregon, United States. Based on peakery data, it ranks as the 129th highest mountain in Oregon and the 10811th highest mountain in the United States.", "website": "https://www.peakbagger.com/peak.aspx?pid=51033", "wikidata": "Q49033870"}}, {"name": "Grouse Butte", "latitude": 42.1381964, "longitude": -122.1939053, "elevation": 1381.0, "source": "osm", "_tags": {"ele": "1381", "gnis:feature_id": "1143118", "name": "Grouse Butte", "natural": "peak", "wikidata": "Q49034096"}}, {"name": "Grouse Hill", "latitude": 42.9917947, "longitude": -122.1211399, "elevation": 2256.0, "source": "osm", "_tags": {"ele": "2256", "gnis:feature_id": "1143128", "name": "Grouse Hill", "natural": "peak", "website": "https://www.craterlakeinstitute.com/natural-history/geology-grouse-hill.htm", "wikidata": "Q49034114"}}, {"name": "Hamaker Mountain", "latitude": 42.0684782, "longitude": -121.9725083, "elevation": 2003.0, "source": "osm", "_tags": {"ele": "2003", "gnis:feature_id": "1143236", "name": "Hamaker Mountain", "natural": "peak", "wikidata": "Q49034675"}}, {"name": "Mount Harriman", "latitude": 42.3731931, "longitude": -122.091962, "elevation": 2401.0, "source": "osm", "_tags": {"ele": "2401", "gnis:feature_id": "1143325", "name": "Mount Harriman", "natural": "peak", "note": "Mount Harriman lies in the Mountain Lakes Wilderness in Southern Oregon. Mount Harriman is ranked at #91 on the Oregon Top 100 Peaks at 7979 feet of elevation.", "website": "https://www.summitpost.org/mount-harriman/817634", "wikidata": "Q49052927"}}, {"name": "High Knob", "latitude": 42.3087492, "longitude": -122.1608517, "elevation": 1902.0, "source": "osm", "_tags": {"ele": "1902", "gnis:feature_id": "1143570", "name": "High Knob", "natural": "peak", "wikidata": "Q49036275"}}, {"name": "Horse Butte", "latitude": 42.5095887, "longitude": -121.4383364, "elevation": 1495.0, "source": "osm", "_tags": {"ele": "1495", "gnis:feature_id": "1143739", "name": "Horse Butte", "natural": "peak", "wikidata": "Q49037161"}}, {"name": "Huckleberry Mountain", "latitude": 42.8454054, "longitude": -122.3144761, "elevation": 1936.0, "source": "osm", "_tags": {"ele": "1936", "gnis:feature_id": "1143878", "name": "Huckleberry Mountain", "natural": "peak"}}, {"name": "Imagination Peak", "latitude": 42.5520772, "longitude": -122.2022459, "elevation": 1980.0, "source": "osm", "_tags": {"ele": "1980", "gnis:feature_id": "1143997", "name": "Imagination Peak", "natural": "peak", "wikidata": "Q49038327"}}, {"name": "Jerry Mountain", "latitude": 42.7654073, "longitude": -122.2483615, "elevation": 1968.0, "source": "osm", "_tags": {"ele": "1968", "gnis:feature_id": "1144261", "name": "Jerry Mountain", "natural": "peak", "wikidata": "Q49039739"}}, {"name": "Jupiter", "latitude": 42.6398534, "longitude": -122.2358593, "elevation": 2256.0, "source": "osm", "_tags": {"ele": "2256", "gnis:feature_id": "1144469", "name": "Jupiter", "natural": "peak", "wikidata": "Q49040492"}}, {"name": "Kent Peak", "latitude": 42.2232979, "longitude": -122.2118176, "elevation": 1931.213, "source": "osm", "_tags": {"ele": "1931.213", "gnis:feature_id": "1144556", "name": "Kent Peak", "natural": "peak", "wikidata": "Q49041253"}}, {"name": "Kerby Hill", "latitude": 42.7397416, "longitude": -122.2573564, "elevation": 2016.0, "source": "osm", "_tags": {"ele": "2016", "gnis:feature_id": "1144567", "name": "Kerby Hill", "natural": "peak", "wikidata": "Q49041297"}}, {"name": "Klamath Point", "latitude": 42.6893338, "longitude": -122.1235655, "elevation": 2192.0, "source": "osm", "_tags": {"ele": "2192", "gnis:feature_id": "1144659", "name": "Klamath Point", "natural": "peak", "wikidata": "Q49041999"}}, {"name": "Lather Mountain", "latitude": 42.609577, "longitude": -122.1611347, "elevation": 2102.0, "source": "osm", "_tags": {"ele": "2102", "gnis:feature_id": "1144855", "name": "Lather Mountain", "natural": "peak", "wikidata": "Q49043585"}}, {"name": "Lee Peak", "latitude": 42.6413414, "longitude": -122.2065513, "elevation": 2288.4, "source": "osm", "_tags": {"ele": "2288.4", "gnis:feature_id": "1144913", "name": "Lee Peak", "natural": "peak", "wikidata": "Q49043875"}}, {"name": "Little Applegate Butte", "latitude": 42.6831933, "longitude": -121.6994573, "elevation": 1766.0, "source": "osm", "_tags": {"ele": "1766", "gnis:feature_id": "1145069", "name": "Little Applegate Butte", "natural": "peak", "wikidata": "Q49044503"}}, {"name": "Little Aspen Butte", "latitude": 42.2859731, "longitude": -122.0680708, "elevation": 2192.0, "source": "osm", "_tags": {"ele": "2192", "gnis:feature_id": "1145071", "name": "Little Aspen Butte", "natural": "peak", "wikidata": "Q49044508"}}, {"name": "Little Chinquapin Mountain", "latitude": 42.1673602, "longitude": -122.372522, "elevation": 1741.0, "source": "osm", "_tags": {"ele": "1741", "gnis:feature_id": "1145126", "name": "Little Chinquapin Mountain", "natural": "peak", "wikidata": "Q49044797"}}, {"name": "Little Wocus Butte", "latitude": 42.8037473, "longitude": -121.7177941, "elevation": 1547.0, "source": "osm", "_tags": {"ele": "1547", "gnis:feature_id": "1145291", "name": "Little Wocus Butte", "natural": "peak", "wikidata": "Q49045704"}}, {"name": "Little Yamsay Mountain", "latitude": 42.9985892, "longitude": -121.4155408, "elevation": 1811.426, "source": "osm", "_tags": {"ele": "1811.426", "gnis:feature_id": "1145293", "name": "Little Yamsay Mountain", "natural": "peak"}}, {"name": "Lone Wolf", "latitude": 42.7326149, "longitude": -122.1956479, "elevation": 2017.0, "source": "osm", "_tags": {"ele": "2017", "gnis:feature_id": "1145371", "name": "Lone Wolf", "natural": "peak", "wikidata": "Q49046269"}}, {"name": "Lookout Butte", "latitude": 42.9837419, "longitude": -121.9428024, "elevation": 1834.0, "source": "osm", "_tags": {"ele": "1834", "gnis:feature_id": "1145459", "name": "Lookout Butte", "natural": "peak", "wikidata": "Q49046519"}}, {"name": "Lost Peak", "latitude": 42.5059665, "longitude": -122.2130788, "elevation": 2052.0, "source": "osm", "_tags": {"ele": "2052", "gnis:feature_id": "1145553", "name": "Lost Peak", "natural": "peak", "wikidata": "Q49046956"}}, {"name": "Lucifer Peak", "latitude": 42.6368897, "longitude": -122.224767, "elevation": 2244.0, "source": "osm", "_tags": {"ele": "2244", "gnis:feature_id": "1145651", "name": "Lucifer Peak", "natural": "peak"}}, {"name": "Luther Mountain", "latitude": 42.6070764, "longitude": -122.2111359, "elevation": 2171.0, "source": "osm", "_tags": {"ele": "2171", "gnis:feature_id": "1145687", "name": "Luther Mountain", "natural": "peak", "wikidata": "Q49047215"}}, {"name": "Magpie Butte", "latitude": 42.5001423, "longitude": -121.5386163, "elevation": 1361.0, "source": "osm", "_tags": {"ele": "1361", "gnis:feature_id": "1145735", "name": "Magpie Butte", "natural": "peak", "wikidata": "Q49047441"}}, {"name": "Maude Mountain", "latitude": 42.7152898, "longitude": -122.1849899, "elevation": 2189.7, "source": "osm", "_tags": {"ele": "2189.7", "gnis:feature_id": "1145879", "name": "Maude Mountain", "natural": "peak", "wikidata": "Q49048320"}}, {"name": "Modoc Point", "latitude": 42.4395502, "longitude": -121.8588372, "elevation": 1634.0, "source": "osm", "_tags": {"ele": "1634", "gnis:feature_id": "1146382", "name": "Modoc Point", "natural": "peak", "wikidata": "Q6889559", "wikipedia": "en:Modoc Point"}}, {"name": "Mousehawk Butte", "latitude": 42.5045867, "longitude": -121.539172, "elevation": 1379.0, "source": "osm", "_tags": {"ele": "1379", "gnis:feature_id": "1146553", "name": "Mousehawk Butte", "natural": "peak", "wikidata": "Q49055434"}}, {"name": "Mudjekeewis Mountain", "latitude": 42.7461433, "longitude": -122.2503867, "elevation": 2018.7, "source": "osm", "_tags": {"ele": "2018.7", "gnis:feature_id": "1146620", "name": "Mudjekeewis Mountain", "natural": "peak", "wikidata": "Q49055587"}}, {"name": "Munson Point", "latitude": 42.8806846, "longitude": -122.1580835, "elevation": 2112.0, "source": "osm", "_tags": {"ele": "2112", "gnis:feature_id": "1146667", "name": "Munson Point", "natural": "peak", "wikidata": "Q49055853"}}, {"name": "Wilámxa Tip", "latitude": 42.4517995, "longitude": -122.334469, "elevation": 2157.0, "source": "osm", "_tags": {"ele": "2157", "gnis:feature_id": "1147066", "name": "Wilámxa Tip", "natural": "peak", "old_name": "North Squaw Tip", "wikidata": "Q49057546"}}, {"name": "Oak Mountain", "latitude": 42.5356864, "longitude": -122.3944726, "elevation": 1210.0, "source": "osm", "_tags": {"ele": "1210", "gnis:feature_id": "1147120", "name": "Oak Mountain", "natural": "peak", "wikidata": "Q49058027"}}, {"name": "Old Baldy", "latitude": 42.2476377, "longitude": -122.2883542, "elevation": 1930.0, "source": "osm", "_tags": {"ele": "1930", "gnis:feature_id": "1147182", "name": "Old Baldy", "natural": "peak", "wikidata": "Q49058365"}}, {"name": "Pearce Point", "latitude": 42.3987466, "longitude": -122.2105768, "elevation": 1585.0, "source": "osm", "_tags": {"ele": "1585", "gnis:feature_id": "1147525", "name": "Pearce Point", "natural": "peak", "wikidata": "Q49060380"}}, {"name": "Pearson Butte", "latitude": 42.0623682, "longitude": -121.9011162, "elevation": 1688.0, "source": "osm", "_tags": {"ele": "1688", "gnis:feature_id": "1147529", "name": "Pearson Butte", "natural": "peak", "wikidata": "Q49060406"}}, {"name": "Pothole Butte", "latitude": 42.9506867, "longitude": -121.9436351, "elevation": 1842.0, "source": "osm", "_tags": {"ele": "1842", "gnis:feature_id": "1147939", "name": "Pothole Butte", "natural": "peak", "wikidata": "Q49063810"}}, {"name": "Rat Butte", "latitude": 42.5073644, "longitude": -121.5422276, "elevation": 1391.0, "source": "osm", "_tags": {"ele": "1391", "gnis:feature_id": "1148230", "name": "Rat Butte", "natural": "peak", "wikidata": "Q49066637"}}, {"name": "Red Blanket Mountain", "latitude": 42.808739, "longitude": -122.341143, "elevation": 1908.0, "source": "osm", "_tags": {"ele": "1908", "gnis:feature_id": "1148273", "name": "Red Blanket Mountain", "natural": "peak"}}, {"name": "Robinson Butte", "latitude": 42.3643008, "longitude": -122.3816918, "elevation": 1786.0, "source": "osm", "_tags": {"ele": "1786", "gnis:feature_id": "1148549", "name": "Robinson Butte", "natural": "peak", "wikidata": "Q49068789"}}, {"name": "Rocktop Butte", "latitude": 42.8426279, "longitude": -122.2861419, "elevation": 1937.0, "source": "osm", "_tags": {"ele": "1937", "gnis:feature_id": "1148648", "name": "Rocktop Butte", "natural": "peak"}}, {"name": "Round Mountain", "latitude": 42.3901442, "longitude": -121.5330581, "elevation": 1649.0, "source": "osm", "_tags": {"ele": "1649", "gnis:feature_id": "1148780", "name": "Round Mountain", "natural": "peak", "wikidata": "Q49069889"}}, {"name": "Roundtop", "latitude": 42.9653228, "longitude": -122.0574839, "elevation": 2109.0, "source": "osm", "_tags": {"ele": "2109", "gnis:feature_id": "1148806", "name": "Roundtop", "natural": "peak", "wikidata": "Q49070174"}}, {"name": "Rustler Peak", "latitude": 42.619297, "longitude": -122.3480841, "elevation": 1892.0, "source": "osm", "_tags": {"ele": "1892", "gnis:feature_id": "1148863", "name": "Rustler Peak", "natural": "peak", "wikidata": "Q49070436"}}, {"name": "Ruth Mountain", "latitude": 42.7300143, "longitude": -122.1842196, "elevation": 2096.1, "source": "osm", "_tags": {"ele": "2096.1", "gnis:feature_id": "1148869", "name": "Ruth Mountain", "natural": "peak", "wikidata": "Q49070452"}}, {"name": "Saddle Mountain", "latitude": 42.5106952, "longitude": -121.6652858, "elevation": 2087.0, "source": "osm", "_tags": {"ele": "2087", "gnis:feature_id": "1148910", "name": "Saddle Mountain", "name:en": "Saddle Mountain", "name:kla": "čeeLaqsdi", "natural": "peak", "wikidata": "Q49070686"}}, {"name": "Scoria Cone", "latitude": 42.8073525, "longitude": -122.1489154, "elevation": 2021.0, "source": "osm", "_tags": {"ele": "2021", "gnis:feature_id": "1149156", "name": "Scoria Cone", "natural": "peak", "wikidata": "Q49071904"}}, {"name": "Scout Hill", "latitude": 42.9676307, "longitude": -121.9708581, "elevation": 1942.0, "source": "osm", "_tags": {"ele": "1942", "gnis:feature_id": "1149185", "name": "Scout Hill", "natural": "peak", "wikidata": "Q49072022"}}, {"name": "Shale Butte", "latitude": 42.632793, "longitude": -122.2226558, "elevation": 2238.0, "source": "osm", "_tags": {"ele": "2238", "gnis:feature_id": "1149277", "name": "Shale Butte", "natural": "peak", "wikidata": "Q49072530"}}, {"name": "Sharp Peak", "latitude": 43.0006853, "longitude": -122.0075261, "elevation": 1812.0, "source": "osm", "_tags": {"ele": "1812", "gnis:feature_id": "1149289", "name": "Sharp Peak", "natural": "peak", "wikidata": "Q49072617"}}, {"name": "Short Lake Mountain", "latitude": 42.2479255, "longitude": -121.4369427, "elevation": 1519.0, "source": "osm", "_tags": {"ele": "1519", "gnis:feature_id": "1149438", "name": "Short Lake Mountain", "natural": "peak", "wikidata": "Q49073467"}}, {"name": "Skunk Butte", "latitude": 42.5240308, "longitude": -121.5511172, "elevation": 1372.0, "source": "osm", "_tags": {"ele": "1372", "gnis:feature_id": "1149637", "name": "Skunk Butte", "natural": "peak", "wikidata": "Q49074360"}}, {"name": "Smith Rock", "latitude": 42.5401319, "longitude": -122.2911369, "elevation": 1994.0, "source": "osm", "_tags": {"ele": "1994", "gnis:feature_id": "1149769", "name": "Smith Rock", "natural": "peak", "wikidata": "Q49074851"}}, {"name": "Snowshoe Butte", "latitude": 42.5281868, "longitude": -122.3611384, "elevation": 1274.0, "source": "osm", "_tags": {"ele": "1274", "gnis:feature_id": "1149827", "name": "Snowshoe Butte", "natural": "peak", "wikidata": "Q49075236"}}, {"name": "Soloman Butte", "latitude": 42.7310814, "longitude": -121.794645, "elevation": 1761.744, "source": "osm", "_tags": {"ele": "1761.744", "gnis:feature_id": "1149871", "name": "Soloman Butte", "natural": "peak", "wikidata": "Q49075522"}}, {"name": "Máalsi Tip", "latitude": 42.4412443, "longitude": -122.328358, "elevation": 2318.0, "source": "osm", "_tags": {"ele": "2318", "gnis:feature_id": "1150085", "name": "Máalsi Tip", "natural": "peak", "old_name": "South Squaw Tip", "wikidata": "Q49076100"}}, {"name": "Steiger Butte", "latitude": 42.5929137, "longitude": -121.9022384, "elevation": 1428.0, "source": "osm", "_tags": {"ele": "1428", "gnis:feature_id": "1150398", "name": "Steiger Butte", "natural": "peak", "wikidata": "Q49077984"}}, {"name": "Sugar Hill", "latitude": 42.6898566, "longitude": -121.9566864, "elevation": 1441.0, "source": "osm", "_tags": {"ele": "1441", "gnis:feature_id": "1150534", "name": "Sugar Hill", "natural": "peak", "wikidata": "Q49079034"}}, {"name": "Summit Rock Point", "latitude": 42.2129396, "longitude": -122.1805913, "elevation": 1994.002, "source": "osm", "_tags": {"ele": "1994.002", "gnis:feature_id": "1150640", "name": "Summit Rock Point", "natural": "peak", "wikidata": "Q49079991"}}, {"name": "Sun Mountain", "latitude": 42.7726332, "longitude": -121.9797441, "elevation": 1671.0, "source": "osm", "_tags": {"ele": "1671", "gnis:feature_id": "1150652", "name": "Sun Mountain", "natural": "peak", "wikidata": "Q49080025"}}, {"name": "Surveyor Mountain", "latitude": 42.2140787, "longitude": -122.1816149, "elevation": 1987.296, "source": "osm", "_tags": {"ele": "1987.296", "gnis:feature_id": "1150704", "name": "Surveyor Mountain", "natural": "peak", "wikidata": "Q49080332"}}, {"name": "Surveyor Peak", "latitude": 42.2294957, "longitude": -122.194837, "elevation": 1932.432, "source": "osm", "_tags": {"ele": "1932.432", "gnis:feature_id": "1150705", "name": "Surveyor Peak", "natural": "peak", "wikidata": "Q49080334"}}, {"name": "Swan Lake Mountain", "latitude": 42.4223632, "longitude": -121.6944508, "elevation": 2136.0, "source": "osm", "_tags": {"ele": "2136", "gnis:feature_id": "1150762", "name": "Swan Lake Mountain", "natural": "peak", "wikidata": "Q49080401"}}, {"name": "Swan Lake Point", "latitude": 42.4079196, "longitude": -121.6683388, "elevation": 2216.0, "source": "osm", "_tags": {"ele": "2216", "gnis:feature_id": "1150763", "name": "Swan Lake Point", "natural": "peak", "wikidata": "Q49080403"}}, {"name": "Switchboard Hill", "latitude": 42.4245876, "longitude": -121.5569482, "elevation": 1492.0, "source": "osm", "_tags": {"ele": "1492", "gnis:feature_id": "1150795", "name": "Switchboard Hill", "natural": "peak"}}, {"name": "Taylor Butte", "latitude": 42.7048653, "longitude": -121.4294517, "elevation": 1650.0, "source": "osm", "_tags": {"ele": "1650", "gnis:feature_id": "1150909", "name": "Taylor Butte", "natural": "peak"}}, {"name": "Union Peak", "latitude": 42.8312399, "longitude": -122.2236398, "elevation": 2315.0, "source": "osm", "_tags": {"ele": "2315", "gnis:feature_id": "1151653", "name": "Union Peak", "natural": "peak", "wikidata": "Q7885954", "wikipedia": "en:Union Peak"}}, {"name": "Venus", "latitude": 42.6460907, "longitude": -122.2377705, "elevation": 2229.6, "source": "osm", "_tags": {"ele": "2229.6", "gnis:feature_id": "1151749", "name": "Venus", "natural": "peak", "wikidata": "Q49086963"}}, {"name": "Violet Hill", "latitude": 42.6579247, "longitude": -122.231656, "elevation": 2106.4, "source": "osm", "_tags": {"ele": "2106.4", "gnis:feature_id": "1151780", "name": "Violet Hill", "natural": "peak", "wikidata": "Q49087078"}}, {"name": "Watchdog Butte", "latitude": 42.4837539, "longitude": -121.5288935, "elevation": 1402.0, "source": "osm", "_tags": {"ele": "1402", "gnis:feature_id": "1151932", "name": "Watchdog Butte", "natural": "peak", "wikidata": "Q49087759"}}, {"name": "Whiteface Peak", "latitude": 42.3393044, "longitude": -122.1311292, "elevation": 2338.0, "source": "osm", "_tags": {"ele": "2338", "gnis:feature_id": "1152255", "name": "Whiteface Peak", "natural": "peak", "note": "Whiteface Peak is a 7,671 ft / 2,338 m mountain peak near Klamath Falls, Oregon, United States. -", "website": "https://peakery.com/whiteface-peak-oregon/", "wikidata": "Q49089585"}}, {"name": "Wocus Butte", "latitude": 42.8265255, "longitude": -121.6825165, "elevation": 1619.0, "source": "osm", "_tags": {"ele": "1619", "gnis:feature_id": "1152571", "name": "Wocus Butte", "natural": "peak"}}, {"name": "Wolf Butte", "latitude": 42.5259747, "longitude": -121.5750066, "elevation": 1375.0, "source": "osm", "_tags": {"ele": "1375", "gnis:feature_id": "1152572", "name": "Wolf Butte", "natural": "peak", "wikidata": "Q49090691"}}, {"name": "Maklaks Crater", "latitude": 42.8331874, "longitude": -122.0178016, "elevation": 1939.0, "source": "osm", "_tags": {"ele": "1939", "gnis:feature_id": "1154305", "name": "Maklaks Crater", "natural": "peak", "wikidata": "Q49047620"}}, {"name": "Mazama Rock", "latitude": 42.9831845, "longitude": -122.0733608, "elevation": 2084.0, "source": "osm", "_tags": {"ele": "2084", "gnis:feature_id": "1154306", "name": "Mazama Rock", "natural": "peak", "wikidata": "Q49048495"}}, {"name": "Horsehead Island", "latitude": 42.1165342, "longitude": -121.8886168, "elevation": 1265.0, "source": "osm", "_tags": {"ele": "1265", "gnis:feature_id": "1154770", "name": "Horsehead Island", "natural": "peak", "wikidata": "Q49037448"}}, {"name": "Spring Creek Hill", "latitude": 42.6206908, "longitude": -121.9344621, "elevation": 1273.0, "source": "osm", "_tags": {"ele": "1273", "gnis:feature_id": "1154977", "name": "Spring Creek Hill", "natural": "peak"}}, {"name": "Williams Crater", "latitude": 42.9537388, "longitude": -122.1800297, "elevation": 2315.0, "source": "osm", "_tags": {"ele": "2315", "gnis:feature_id": "1155357", "name": "Williams Crater", "natural": "peak", "wikidata": "Q49090153"}}, {"name": "Spring Hill", "latitude": 42.6826354, "longitude": -121.8722394, "elevation": 1485.0, "source": "osm", "_tags": {"ele": "1485", "gnis:feature_id": "1155418", "name": "Spring Hill", "natural": "peak"}}, {"name": "Sand Point", "latitude": 42.7368032, "longitude": -121.7364037, "elevation": 1410.0, "source": "osm", "_tags": {"ele": "1410", "gnis:feature_id": "1155422", "name": "Sand Point", "natural": "peak", "wikidata": "Q49071280"}}, {"name": "Cloudcap", "latitude": 42.9313233, "longitude": -122.0419054, "elevation": 2444.0, "source": "osm", "_tags": {"ele": "2444", "gnis:feature_id": "1158169", "name": "Cloudcap", "natural": "peak", "wikidata": "Q49021057"}}, {"name": "Skull Island", "latitude": 42.0168143, "longitude": -121.8422238, "elevation": 1261.0, "source": "osm", "_tags": {"ele": "1261", "gnis:feature_id": "1161517", "name": "Skull Island", "natural": "peak", "wikidata": "Q49074324"}}, {"name": "Zuckerman Island", "latitude": 42.064036, "longitude": -121.8302799, "elevation": 1269.0, "source": "osm", "_tags": {"ele": "1269", "gnis:feature_id": "1161606", "name": "Zuckerman Island", "natural": "peak", "wikidata": "Q49091492"}}, {"name": "Doak Mountain", "latitude": 42.3406435, "longitude": -121.9740573, "elevation": 1456.0, "source": "osm", "_tags": {"ele": "1456", "gnis:feature_id": "1162454", "name": "Doak Mountain", "natural": "peak"}}, {"name": "Skeeter Butte", "latitude": 42.9923527, "longitude": -121.4306769, "elevation": 1626.413, "source": "osm", "_tags": {"ele": "1626.413", "gnis:feature_id": "1162547", "name": "Skeeter Butte", "natural": "peak"}}, {"name": "Switchback Hill", "latitude": 42.4248654, "longitude": -121.5577817, "elevation": 1502.0, "source": "osm", "_tags": {"ele": "1502", "gnis:feature_id": "2061618", "name": "Switchback Hill", "natural": "peak", "wikidata": "Q49080531"}}, {"name": "Hillman Peak", "latitude": 42.9518581, "longitude": -122.1692073, "elevation": 2433.0, "source": "osm", "_tags": {"alt_name": "Mount Mazama", "ele": "2433", "gnis:feature_id": "1143602", "name": "Hillman Peak", "natural": "peak", "wikidata": "Q49036534"}}, {"name": "Llao Rock", "latitude": 42.973228, "longitude": -122.1354725, "elevation": 2453.0, "source": "osm", "_tags": {"ele": "2453", "name": "Llao Rock", "natural": "peak", "wikidata": "Q22072812"}}, {"name": "", "latitude": 42.861236, "longitude": -122.210104, "elevation": 1905.0, "source": "osm", "_tags": {"ele": "1905", "natural": "peak", "source": "USGS Topographic map"}}, {"name": "", "latitude": 42.86449, "longitude": -122.063602, "elevation": 1920.0, "source": "osm", "_tags": {"ele": "1920", "natural": "peak"}}, {"name": "", "latitude": 42.865123, "longitude": -122.189096, "elevation": 1959.0, "source": "osm", "_tags": {"ele": "1959", "natural": "peak", "source": "USGS Topographic map"}}, {"name": "", "latitude": 42.870585, "longitude": -122.051463, "elevation": 1809.0, "source": "osm", "_tags": {"ele": "1809", "natural": "peak"}}, {"name": "", "latitude": 42.87895, "longitude": -122.120149, "elevation": 2060.0, "source": "osm", "_tags": {"ele": "2060", "natural": "peak", "source": "USGS Topographic map"}}, {"name": "", "latitude": 42.879164, "longitude": -122.188031, "elevation": 1903.0, "source": "osm", "_tags": {"ele": "1903", "natural": "peak"}}, {"name": "", "latitude": 42.88911, "longitude": -122.106387, "elevation": 2246.0, "source": "osm", "_tags": {"ele": "2246", "natural": "peak", "source": "USGS Topographic map"}}, {"name": "", "latitude": 42.890185, "longitude": -122.148304, "elevation": 2138.0, "source": "osm", "_tags": {"ele": "2138", "natural": "peak", "source": "USGS Topographic map"}}, {"name": "", "latitude": 42.890559, "longitude": -122.159811, "elevation": 1955.0, "source": "osm", "_tags": {"ele": "1955", "natural": "peak", "source": "USGS Topographic map"}}, {"name": "", "latitude": 42.898348, "longitude": -122.146428, "elevation": 2148.0, "source": "osm", "_tags": {"ele": "2148", "natural": "peak", "source": "USGS Topographic map"}}, {"name": "", "latitude": 42.902443, "longitude": -122.084293, "elevation": 2483.0, "source": "osm", "_tags": {"ele": "2483", "natural": "peak"}}, {"name": "", "latitude": 42.906478, "longitude": -122.084478, "elevation": 2471.0, "source": "osm", "_tags": {"ele": "2471", "natural": "peak", "source": "USGS Topographic map"}}, {"name": "", "latitude": 42.920654, "longitude": -122.025798, "elevation": 2566.0, "source": "osm", "_tags": {"ele": "2566", "natural": "peak", "source": "USGS Topographic map"}}, {"name": "", "latitude": 42.936773, "longitude": -122.04932, "elevation": 2426.0, "source": "osm", "_tags": {"ele": "2426", "natural": "peak", "source": "USGS Topographic map"}}, {"name": "", "latitude": 42.939785, "longitude": -122.030448, "elevation": 2281.0, "source": "osm", "_tags": {"ele": "2281", "natural": "peak", "source": "USGS Topographic map"}}, {"name": "", "latitude": 42.961183, "longitude": -122.158164, "elevation": 2279.0, "source": "osm", "_tags": {"ele": "2279", "natural": "peak", "source": "USGS Topographic map"}}, {"name": "", "latitude": 42.962741, "longitude": -122.027586, "elevation": 2074.0, "source": "osm", "_tags": {"ele": "2074", "natural": "peak", "source": "USGS Topographic map"}}, {"name": "", "latitude": 42.970833, "longitude": -122.021818, "elevation": 1996.0, "source": "osm", "_tags": {"ele": "1996", "natural": "peak", "source": "USGS Topographic map"}}, {"name": "Mazama Rock", "latitude": 42.9778565, "longitude": -122.0721053, "elevation": 2149.0, "source": "osm", "_tags": {"ele": "2149", "name": "Mazama Rock", "natural": "peak", "wikidata": "Q49048495"}}, {"name": "", "latitude": 42.978608, "longitude": -122.123439, "elevation": 2243.0, "source": "osm", "_tags": {"ele": "2243", "natural": "peak"}}, {"name": "", "latitude": 42.980018, "longitude": -122.110075, "elevation": 2164.0, "source": "osm", "_tags": {"ele": "2164", "natural": "peak", "source": "USGS Topographic map"}}, {"name": "", "latitude": 42.981886, "longitude": -122.068691, "elevation": 2136.0, "source": "osm", "_tags": {"ele": "2136", "natural": "peak"}}, {"name": "", "latitude": 42.922365, "longitude": -122.174671, "elevation": 2096.0, "source": "osm", "_tags": {"ele": "2096", "natural": "peak", "source": "USGS Topographic map"}}, {"name": "", "latitude": 42.924735, "longitude": -122.188805, "elevation": 1843.0, "source": "osm", "_tags": {"ele": "1843", "natural": "peak", "source": "USGS Topographic map"}}, {"name": "", "latitude": 42.930387, "longitude": -122.168241, "elevation": 2231.0, "source": "osm", "_tags": {"ele": "2231", "natural": "peak", "source": "USGS Topographic map"}}, {"name": "", "latitude": 42.933278, "longitude": -122.194722, "elevation": 1977.0, "source": "osm", "_tags": {"ele": "1977", "natural": "peak", "source": "USGS Topographic map"}}, {"name": "", "latitude": 42.946457, "longitude": -122.183911, "elevation": 2148.0, "source": "osm", "_tags": {"ele": "2148", "natural": "peak", "source": "USGS Topographic map"}}, {"name": "", "latitude": 42.897425, "longitude": -122.172799, "elevation": 1925.0, "source": "osm", "_tags": {"ele": "1925", "natural": "peak", "source": "USGS Topographic map"}}, {"name": "", "latitude": 42.904199, "longitude": -122.163105, "elevation": 1978.0, "source": "osm", "_tags": {"ele": "1978", "natural": "peak", "source": "USGS Topographic map"}}, {"name": "", "latitude": 42.904268, "longitude": -122.208232, "elevation": 1853.0, "source": "osm", "_tags": {"ele": "1853", "natural": "peak", "source": "USGS Topographic map"}}, {"name": "", "latitude": 42.915315, "longitude": -122.181136, "elevation": 2052.0, "source": "osm", "_tags": {"ele": "2052", "natural": "peak", "source": "USGS Topographic map"}}, {"name": "", "latitude": 42.995258, "longitude": -122.013776, "elevation": 1809.0, "source": "osm", "_tags": {"ele": "1809", "natural": "peak"}}, {"name": "", "latitude": 43.014254, "longitude": -122.045181, "elevation": 1725.0, "source": "osm", "_tags": {"ele": "1725", "natural": "peak"}}, {"name": "", "latitude": 43.015656, "longitude": -122.075495, "elevation": 1825.0, "source": "osm", "_tags": {"ele": "1825", "natural": "peak"}}, {"name": "", "latitude": 42.812688, "longitude": -122.00763, "elevation": 1857.0, "source": "osm", "_tags": {"ele": "1857", "natural": "peak"}}, {"name": "", "latitude": 42.820955, "longitude": -122.056675, "elevation": 1660.0, "source": "osm", "_tags": {"ele": "1660", "natural": "peak"}}, {"name": "", "latitude": 42.823782, "longitude": -122.067594, "elevation": 1757.0, "source": "osm", "_tags": {"ele": "1757", "natural": "peak"}}, {"name": "", "latitude": 42.832177, "longitude": -122.041626, "elevation": 1760.0, "source": "osm", "_tags": {"ele": "1760", "natural": "peak"}}, {"name": "", "latitude": 42.853008, "longitude": -122.055943, "elevation": 1963.0, "source": "osm", "_tags": {"ele": "1963", "natural": "peak"}}, {"name": "", "latitude": 42.855648, "longitude": -121.945743, "elevation": 1734.0, "source": "osm", "_tags": {"ele": "1734", "natural": "peak"}}, {"name": "", "latitude": 42.7441127, "longitude": -122.2532201, "elevation": 2017.8, "source": "osm", "_tags": {"ele": "2017.8", "natural": "peak"}}, {"name": "", "latitude": 42.4204786, "longitude": -122.2212267, "elevation": 1958.0, "source": "osm", "_tags": {"ele": "1958", "natural": "peak"}}, {"name": "", "latitude": 42.9602267, "longitude": -122.1807073, "elevation": 2159.0, "source": "osm", "_tags": {"ele": "2159", "natural": "peak"}}, {"name": "", "latitude": 42.4068148, "longitude": -121.5665639, "elevation": 1442.6, "source": "osm", "_tags": {"ele": "1442.6", "natural": "peak"}}, {"name": "", "latitude": 42.2969178, "longitude": -121.8499398, "elevation": 1358.0, "source": "osm", "_tags": {"ele": "1358", "natural": "peak"}}, {"name": "", "latitude": 42.4212614, "longitude": -121.9361066, "elevation": 1384.0, "source": "osm", "_tags": {"ele": "1384", "natural": "peak"}}, {"name": "", "latitude": 42.423129, "longitude": -121.933617, "elevation": 1354.0, "source": "osm", "_tags": {"ele": "1354", "natural": "peak"}}, {"name": "Indian Spring Ridge", "latitude": 42.1767157, "longitude": -121.9283891, "elevation": 1671.523, "source": "osm", "_tags": {"ele": "1671.523", "name": "Indian Spring Ridge", "natural": "peak"}}, {"name": "Horton Rim", "latitude": 42.1984474, "longitude": -121.557022, "elevation": 1675.181, "source": "osm", "_tags": {"ele": "1675.181", "name": "Horton Rim", "natural": "peak"}}]