[{"name": "Angel Butte", "latitude": 46.866001, "longitude": -117.0690579, "elevation": 950.0, "source": "osm", "_tags": {"ele": "950", "gnis:feature_id": "1503036", "name": "Angel Butte", "natural": "peak"}}, {"name": "Little Butte", "latitude": 46.1429304, "longitude": -117.2734976, "elevation": 1393.0, "source": "osm", "_tags": {"addr:state": "WA", "ele": "1393", "gnis:feature_id": "1506189", "name": "Little Butte", "natural": "peak"}}, {"name": "Parker Butte", "latitude": 46.8504453, "longitude": -117.055446, "elevation": 1006.0, "source": "osm", "_tags": {"ele": "1006", "gnis:feature_id": "1507304", "name": "Parker Butte", "natural": "peak"}}, {"name": "Potter Hill", "latitude": 46.3245994, "longitude": -117.3515603, "elevation": 1040.0, "source": "osm", "_tags": {"addr:state": "WA", "ele": "1040", "gnis:feature_id": "1507604", "name": "Potter Hill", "natural": "peak"}}, {"name": "Anatone Butte", "latitude": 46.1084854, "longitude": -117.2543293, "elevation": 1491.0, "source": "osm", "_tags": {"addr:state": "WA", "ele": "1491", "gnis:feature_id": "1511965", "name": "Anatone Butte", "natural": "peak"}}, {"name": "Bald Butte", "latitude": 46.6334967, "longitude": -117.0879432, "elevation": 1047.0, "source": "osm", "_tags": {"ele": "1047", "gnis:feature_id": "1511981", "name": "Bald Butte", "natural": "peak"}}, {"name": "Big Butte", "latitude": 46.1154301, "longitude": -117.249329, "elevation": 1527.0, "source": "osm", "_tags": {"addr:state": "WA", "ele": "1527", "gnis:feature_id": "1512008", "name": "Big Butte", "natural": "peak"}}, {"name": "Castle Rock", "latitude": 46.5887699, "longitude": -117.3565654, "elevation": 500.0, "source": "osm", "_tags": {"ele": "500", "gnis:feature_id": "1512073", "name": "Castle Rock", "natural": "peak"}}, {"name": "Ladow Butte", "latitude": 46.9921154, "longitude": -117.0643365, "elevation": 1000.0, "source": "osm", "_tags": {"ele": "1000", "gnis:feature_id": "1512363", "name": "Ladow Butte", "natural": "peak"}}, {"name": "Lime Hill", "latitude": 46.0557095, "longitude": -116.9637599, "elevation": 888.0, "source": "osm", "_tags": {"addr:state": "WA", "ele": "888", "gnis:feature_id": "1512390", "name": "Lime Hill", "natural": "peak"}}, {"name": "Puffer Butte", "latitude": 46.07293, "longitude": -117.174325, "elevation": 1363.0, "source": "osm", "_tags": {"addr:state": "WA", "ele": "1363", "gnis:feature_id": "1512584", "name": "Puffer Butte", "natural": "peak"}}, {"name": "Ringo Butte", "latitude": 46.8771126, "longitude": -117.0498905, "elevation": 988.0, "source": "osm", "_tags": {"ele": "988", "gnis:feature_id": "1512606", "name": "Ringo Butte", "natural": "peak"}}, {"name": "Smoot Hill", "latitude": 46.8182205, "longitude": -117.2379529, "elevation": 922.0, "source": "osm", "_tags": {"ele": "922", "gnis:feature_id": "1512666", "name": "Smoot Hill", "natural": "peak"}}, {"name": "Tamarack Butte", "latitude": 46.0673719, "longitude": -117.3765597, "elevation": 1148.0, "source": "osm", "_tags": {"addr:state": "WA", "ele": "1148", "gnis:feature_id": "1512714", "name": "Tamarack Butte", "natural": "peak"}}, {"name": "Whitetail Butte", "latitude": 46.0426494, "longitude": -117.3537802, "elevation": 1078.0, "source": "osm", "_tags": {"addr:state": "WA", "ele": "1078", "gnis:feature_id": "1512804", "name": "Whitetail Butte", "natural": "peak"}}, {"name": "Kamiak Butte", "latitude": 46.8623515, "longitude": -117.1672495, "elevation": 1101.0, "source": "osm", "_tags": {"ele": "1101", "gnis:feature_id": "1533343", "name": "Kamiak Butte", "natural": "peak"}}, {"name": "Cottonwood Butte", "latitude": 46.0687691, "longitude": -116.4654234, "elevation": 1740.0, "source": "osm", "_tags": {"ele": "1740", "gnis:feature_id": "372153", "name": "Cottonwood Butte", "natural": "peak"}}, {"name": "Gold Hill", "latitude": 46.0829329, "longitude": -116.9295927, "elevation": 992.0, "source": "osm", "_tags": {"ele": "992", "gnis:feature_id": "372866", "name": "Gold Hill", "natural": "peak", "wikidata": "Q49032111"}}, {"name": "Green Knob", "latitude": 46.5732227, "longitude": -116.7998773, "elevation": 880.0, "source": "osm", "_tags": {"ele": "880", "gnis:feature_id": "372921", "name": "Green Knob", "natural": "peak", "wikidata": "Q49033472"}}, {"name": "Lewiston Hill", "latitude": 46.4634965, "longitude": -116.9768236, "elevation": 784.0, "source": "osm", "_tags": {"ele": "784", "gnis:feature_id": "373565", "name": "Lewiston Hill", "natural": "peak"}}, {"name": "Mason Butte", "latitude": 46.1962729, "longitude": -116.5618118, "elevation": 1412.0, "source": "osm", "_tags": {"ele": "1412", "gnis:feature_id": "373851", "name": "Mason Butte", "natural": "peak", "wikidata": "Q49048199"}}, {"name": "Pigeon Roost", "latitude": 46.2812713, "longitude": -116.9451511, "elevation": 711.0, "source": "osm", "_tags": {"ele": "711", "gnis:feature_id": "374394", "name": "Pigeon Roost", "natural": "peak", "wikidata": "Q49061180"}}, {"name": "Randall Butte", "latitude": 46.8732238, "longitude": -117.0212782, "elevation": 1005.0, "source": "osm", "_tags": {"ele": "1005", "gnis:feature_id": "374570", "name": "Randall Butte", "natural": "peak", "wikidata": "Q49066567"}}, {"name": "Tomer Butte", "latitude": 46.706833, "longitude": -116.9229398, "elevation": 1059.0, "source": "osm", "_tags": {"ele": "1059", "gnis:feature_id": "375550", "name": "Tomer Butte", "natural": "peak", "wikidata": "Q49084247"}}, {"name": "Abes Knob", "latitude": 46.9524022, "longitude": -116.4454351, "elevation": 1283.0, "source": "osm", "_tags": {"ele": "1283", "gnis:feature_id": "376459", "name": "Abes Knob", "natural": "peak"}}, {"name": "Baby Grand Mountain", "latitude": 47.0037913, "longitude": -116.5123813, "elevation": 1429.0, "source": "osm", "_tags": {"ele": "1429", "gnis:feature_id": "376797", "name": "Baby Grand Mountain", "natural": "peak"}}, {"name": "Basalt Hill", "latitude": 46.8404492, "longitude": -116.7818266, "elevation": 1004.0, "source": "osm", "_tags": {"ele": "1004", "gnis:feature_id": "376995", "name": "Basalt Hill", "natural": "peak", "wikidata": "Q49010957"}}, {"name": "Beals Butte", "latitude": 46.94379, "longitude": -116.5054356, "elevation": 1490.0, "source": "osm", "_tags": {"ele": "1490", "gnis:feature_id": "377060", "name": "Beals Butte", "natural": "peak"}}, {"name": "Cherry Butte", "latitude": 46.8143422, "longitude": -116.5196002, "elevation": 1124.0, "source": "osm", "_tags": {"ele": "1124", "gnis:feature_id": "379218", "name": "Cherry Butte", "natural": "peak", "wikidata": "Q49019939"}}, {"name": "Flynn Butte", "latitude": 46.9882328, "longitude": -116.6473825, "elevation": 1087.0, "source": "osm", "_tags": {"ele": "1087", "gnis:feature_id": "381894", "name": "Flynn Butte", "natural": "peak", "wikidata": "Q49029841"}}, {"name": "Gold Hill", "latitude": 46.967952, "longitude": -116.7932176, "elevation": 1416.0, "source": "osm", "_tags": {"ele": "1416", "gnis:feature_id": "382378", "name": "Gold Hill", "natural": "peak", "wikidata": "Q49032110"}}, {"name": "Granite Point", "latitude": 46.8143357, "longitude": -116.880718, "elevation": 1373.0, "source": "osm", "_tags": {"ele": "1373", "gnis:feature_id": "382553", "name": "Granite Point", "natural": "peak", "wikidata": "Q49032888"}}, {"name": "Mount Margaret", "latitude": 46.9029525, "longitude": -116.6793259, "elevation": 1146.0, "source": "osm", "_tags": {"ele": "1146", "gnis:feature_id": "386462", "name": "Mount Margaret", "natural": "peak"}}, {"name": "Moon Hill", "latitude": 46.9035072, "longitude": -116.722382, "elevation": 957.0, "source": "osm", "_tags": {"ele": "957", "gnis:feature_id": "387133", "name": "Moon Hill", "natural": "peak", "wikidata": "Q49051311"}}, {"name": "Moscow Mountain", "latitude": 46.8035024, "longitude": -116.8687731, "elevation": 1520.0, "source": "osm", "_tags": {"ele": "1520", "gnis:feature_id": "387251", "name": "Moscow Mountain", "natural": "peak", "wikidata": "Q49051671"}}, {"name": "Potato Hill", "latitude": 46.8151749, "longitude": -116.5584897, "elevation": 1204.0, "source": "osm", "_tags": {"ele": "1204", "gnis:feature_id": "388816", "name": "Potato Hill", "natural": "peak", "wikidata": "Q22058988"}}, {"name": "Rocky Point", "latitude": 46.8465588, "longitude": -116.8782182, "elevation": 1137.0, "source": "osm", "_tags": {"ele": "1137", "gnis:feature_id": "389566", "name": "Rocky Point", "natural": "peak", "wikidata": "Q49069220"}}, {"name": "West Emerald", "latitude": 47.0090707, "longitude": -116.4165471, "elevation": 1404.0, "source": "osm", "_tags": {"ele": "1404", "gnis:feature_id": "393034", "name": "West Emerald", "natural": "peak", "wikidata": "Q49088305"}}, {"name": "West Twin", "latitude": 46.8110017, "longitude": -116.9162746, "elevation": 1381.0, "source": "osm", "_tags": {"ele": "1381", "gnis:feature_id": "393249", "name": "West Twin", "natural": "peak", "wikidata": "Q49088754"}}, {"name": "Ball Butte", "latitude": 46.8776688, "longitude": -116.9876659, "elevation": 1015.0, "source": "osm", "_tags": {"ele": "1015", "gnis:feature_id": "396067", "name": "Ball Butte", "natural": "peak", "wikidata": "Q49010525"}}, {"name": "Boundary Point", "latitude": 46.9040643, "longitude": -116.64127, "elevation": 1178.0, "source": "osm", "_tags": {"ele": "1178", "gnis:feature_id": "396167", "name": "Boundary Point", "natural": "peak"}}, {"name": "Craig Mountain", "latitude": 46.0759892, "longitude": -116.8515353, "elevation": 1609.0, "source": "osm", "_tags": {"ele": "1609", "gnis:feature_id": "396337", "name": "Craig Mountain", "name:en": "Craig Mountain", "name:nez": "weeyekinwees", "natural": "peak", "wikidata": "Q49022735"}}, {"name": "Culdesac Hill", "latitude": 46.3568323, "longitude": -116.6587586, "elevation": 721.0, "source": "osm", "_tags": {"ele": "721", "gnis:feature_id": "396353", "name": "Culdesac Hill", "natural": "peak"}}, {"name": "Farber Point", "latitude": 46.9773949, "longitude": -116.9012756, "elevation": 927.0, "source": "osm", "_tags": {"ele": "927", "gnis:feature_id": "396478", "name": "Farber Point", "natural": "peak", "wikidata": "Q49028564"}}, {"name": "Gold Hill", "latitude": 46.6568413, "longitude": -116.4940403, "elevation": 976.0, "source": "osm", "_tags": {"ele": "976", "gnis:feature_id": "396567", "name": "Gold Hill", "natural": "peak", "wikidata": "Q49032107"}}, {"name": "Little Sand Mountain", "latitude": 46.9310092, "longitude": -116.6521038, "elevation": 1049.0, "source": "osm", "_tags": {"ele": "1049", "gnis:feature_id": "396807", "name": "Little Sand Mountain", "natural": "peak", "wikidata": "Q49045518"}}, {"name": "Thunder Hill / yewninwees", "latitude": 46.4212758, "longitude": -116.8054292, "elevation": 321.0, "source": "osm", "_tags": {"ele": "321", "gnis:feature_id": "397259", "name": "Thunder Hill / yewninwees", "name:en": "Thunder Hill", "name:nez": "yewninwees", "natural": "peak", "wikidata": "Q49083571"}}, {"name": "Turnbow Point", "latitude": 46.8701721, "longitude": -116.7843271, "elevation": 1040.0, "source": "osm", "_tags": {"ele": "1040", "gnis:feature_id": "397277", "name": "Turnbow Point", "natural": "peak", "wikidata": "Q49085495"}}, {"name": "East Twin", "latitude": 46.8118352, "longitude": -116.9051632, "elevation": 1367.0, "source": "osm", "_tags": {"ele": "1367", "gnis:feature_id": "397675", "name": "East Twin", "natural": "peak", "wikidata": "Q49027106"}}, {"name": "Mica Mountain", "latitude": 46.9065658, "longitude": -116.5671024, "elevation": 1481.0, "source": "osm", "_tags": {"ele": "1481", "gnis:feature_id": "397905", "name": "Mica Mountain", "natural": "peak"}}, {"name": "Sand Mountain", "latitude": 46.9260104, "longitude": -116.5796029, "elevation": 1506.0, "source": "osm", "_tags": {"ele": "1506", "gnis:feature_id": "398091", "name": "Sand Mountain", "natural": "peak"}}, {"name": "Stanford Point", "latitude": 46.8179506, "longitude": -116.6757134, "elevation": 899.0, "source": "osm", "_tags": {"ele": "899", "gnis:feature_id": "398178", "name": "Stanford Point", "natural": "peak", "wikidata": "Q49077570"}}, {"name": "East Moscow Mountain", "latitude": 46.804614, "longitude": -116.8398834, "elevation": 1437.0, "source": "osm", "_tags": {"ele": "1437", "gnis:feature_id": "399026", "name": "East Moscow Mountain", "natural": "peak", "wikidata": "Q49026984"}}, {"name": "Steakhouse Hill", "latitude": 46.8004448, "longitude": -116.9807208, "elevation": 892.0, "source": "osm", "_tags": {"ele": "892", "gnis:feature_id": "399208", "name": "Steakhouse Hill", "natural": "peak", "wikidata": "Q49077778"}}, {"name": "Benson Hill", "latitude": 46.8154531, "longitude": -116.5376561, "elevation": 890.0, "source": "osm", "_tags": {"ele": "890", "gnis:feature_id": "399367", "name": "Benson Hill", "natural": "peak", "wikidata": "Q49012104"}}, {"name": "Bean Hill", "latitude": 46.6937833, "longitude": -116.6129321, "elevation": 832.0, "source": "osm", "_tags": {"ele": "832", "gnis:feature_id": "399370", "name": "Bean Hill", "natural": "peak", "wikidata": "Q49011245"}}, {"name": "East Gold Hill", "latitude": 46.9768412, "longitude": -116.7793285, "elevation": 1413.0, "source": "osm", "_tags": {"ele": "1413", "gnis:feature_id": "399556", "name": "East Gold Hill", "natural": "peak", "wikidata": "Q49026924"}}, {"name": "Paradise Ridge", "latitude": 46.6773265, "longitude": -116.9776591, "elevation": null, "source": "osm", "_tags": {"name": "Paradise Ridge", "natural": "peak"}}, {"name": "Swallow Rock", "latitude": 46.3725036, "longitude": -117.0600475, "elevation": 346.0, "source": "osm", "_tags": {"ele": "346", "name": "Swallow Rock", "natural": "peak"}}, {"name": "", "latitude": 46.7176263, "longitude": -117.1952901, "elevation": null, "source": "osm", "_tags": {"natural": "peak", "tourism": "viewpoint"}}, {"name": "Paradise Point", "latitude": 46.8160976, "longitude": -116.937949, "elevation": 1325.0, "source": "osm", "_tags": {"direction": "200", "ele": "1325", "gnis:feature_id": "388189", "name": "Paradise Point", "natural": "peak", "tourism": "viewpoint", "wikidata": "Q49059836"}}, {"name": "Bracken Point", "latitude": 46.249348, "longitude": -117.3255301, "elevation": 1038.8, "source": "osm", "_tags": {"ele": "1038.8", "name": "Bracken Point", "natural": "peak"}}]