[{"name": "Vedder Mountain", "latitude": 49.0535006, "longitude": -122.044128, "elevation": 932.0, "source": "osm", "_tags": {"ele": "932", "name": "Vedder Mountain", "name:sal": "Qoqó:lem", "natural": "peak"}}, {"name": "Ford Mountain", "latitude": 49.1096953, "longitude": -121.5880189, "elevation": 1424.0, "source": "osm", "_tags": {"created_by": "JOSM", "ele": "1424", "name": "Ford Mountain", "natural": "peak"}}, {"name": "Welch Peak", "latitude": 49.1601566, "longitude": -121.6007489, "elevation": 2438.0, "source": "osm", "_tags": {"attribution": "Natural Resources Canada", "canvec:CODE": "1200020", "ele": "2438", "man_made": "survey_point", "name": "Welch Peak", "natural": "peak", "source": "CanVec_Import_2009", "wikidata": "Q7980557", "wikipedia": "en:Welch Peak"}}, {"name": "Four Brothers Mountain", "latitude": 49.216977, "longitude": -121.6472561, "elevation": 1528.0, "source": "osm", "_tags": {"attribution": "Natural Resources Canada", "canvec:CODE": "1200020", "ele": "1528", "name": "Four Brothers Mountain", "natural": "peak", "source": "CanVec_Import_2009"}}, {"name": "", "latitude": 49.2439068, "longitude": -121.6406, "elevation": 1419.0, "source": "osm", "_tags": {"attribution": "Natural Resources Canada", "canvec:CODE": "1200020", "ele": "1419", "natural": "peak", "source": "CanVec_Import_2009"}}, {"name": "Harrison Knob", "latitude": 49.2237669, "longitude": -121.9559887, "elevation": 277.0, "source": "osm", "_tags": {"attribution": "Natural Resources Canada", "canvec:CODE:1580010": "280", "ele": "277", "name": "Harrison Knob", "name:fr": "Harrison Knob", "natural": "peak", "source": "CanVec_Import_2009"}}, {"name": "Mount Ling", "latitude": 49.2067592, "longitude": -121.5150389, "elevation": 1992.0, "source": "osm", "_tags": {"attribution": "Natural Resources Canada", "canvec:CODE:1580010": "280", "ele": "1992", "name": "Mount Ling", "name:fr": "Mount Ling", "natural": "peak", "source": "CanVec_Import_2009"}}, {"name": "Baby Munday Peak", "latitude": 49.1665342, "longitude": -121.628077, "elevation": 2250.0, "source": "osm", "_tags": {"attribution": "Natural Resources Canada", "canvec:CODE:1580010": "280", "ele": "2250", "name": "Baby Munday Peak", "name:fr": "Baby Munday Peak", "natural": "peak", "source": "CanVec_Import_2009"}}, {"name": "Foley Peak", "latitude": 49.1601497, "longitude": -121.584756, "elevation": 2308.0, "source": "osm", "_tags": {"attribution": "Natural Resources Canada", "canvec:CODE": "1200020", "canvec:CODE:1580010": "280", "ele": "2308", "man_made": "survey_point", "name": "Foley Peak", "name:fr": "Foley Peak", "natural": "peak", "source": "CanVec_Import_2009", "wikidata": "Q5464337", "wikipedia": "en:Foley Peak"}}, {"name": "Mount Mercer", "latitude": 49.1156953, "longitude": -121.7208626, "elevation": 1704.0, "source": "osm", "_tags": {"attribution": "Natural Resources Canada", "canvec:CODE:1580010": "280", "ele": "1704", "name": "Mount Mercer", "name:fr": "Mount Mercer", "natural": "peak", "source": "CanVec_Import_2009"}}, {"name": "Mount Archibald", "latitude": 49.1594303, "longitude": -121.7199836, "elevation": 1729.0, "source": "osm", "_tags": {"attribution": "Natural Resources Canada", "canvec:CODE:1580010": "280", "ele": "1729", "name": "Mount Archibald", "name:fr": "Mount Archibald", "natural": "peak", "source": "CanVec_Import_2009"}}, {"name": "Mount Parkes", "latitude": 49.0344516, "longitude": -121.6061801, "elevation": 2100.0, "source": "osm", "_tags": {"attribution": "Natural Resources Canada", "canvec:CODE:1580010": "280", "ele": "2100", "name": "Mount Parkes", "name:fr": "Mount Parkes", "natural": "peak", "source": "CanVec_Import_2009"}}, {"name": "Mount Thurston", "latitude": 49.1069538, "longitude": -121.7677656, "elevation": 1630.0, "source": "osm", "_tags": {"attribution": "Natural Resources Canada", "canvec:CODE:1580010": "280", "ele": "1630", "name": "Mount Thurston", "name:fr": "Mount Thurston", "natural": "peak", "source": "CanVec_Import_2009"}}, {"name": "Elk Mountain", "latitude": 49.1134965, "longitude": -121.8034179, "elevation": 1432.0, "source": "osm", "_tags": {"attribution": "Natural Resources Canada", "canvec:CODE:1580010": "280", "ele": "1432", "name": "Elk Mountain", "name:fr": "Elk Mountain", "natural": "peak", "source": "CanVec_Import_2009"}}, {"name": "Mount Laughington", "latitude": 49.1402379, "longitude": -121.6588477, "elevation": 1798.0, "source": "osm", "_tags": {"attribution": "Natural Resources Canada", "canvec:CODE:1580010": "280", "ele": "1798", "name": "Mount Laughington", "natural": "peak", "source": "CanVec_Import_2009"}}, {"name": "Mount MacFarlane", "latitude": 49.0528078, "longitude": -121.6254694, "elevation": 2095.0, "source": "osm", "_tags": {"attribution": "Natural Resources Canada", "canvec:CODE:1580010": "280", "ele": "2095", "name": "Mount MacFarlane", "name:fr": "Mount MacFarlane", "natural": "peak", "source": "CanVec_Import_2009"}}, {"name": "Mount Shannon", "latitude": 49.1831765, "longitude": -121.9199672, "elevation": 119.0, "source": "osm", "_tags": {"attribution": "Natural Resources Canada", "canvec:CODE:1580010": "280", "ele": "119", "name": "Mount Shannon", "name:fr": "Mount Shannon", "natural": "peak", "source": "https://maps.chilliwack.com/b/"}}, {"name": "Knight Peak", "latitude": 49.1685537, "longitude": -121.637693, "elevation": 2237.0, "source": "osm", "_tags": {"attribution": "Natural Resources Canada", "canvec:CODE:1580010": "280", "ele": "2237", "name": "Knight Peak", "name:fr": "Knight Peak", "natural": "peak", "source": "CanVec_Import_2009"}}, {"name": "Crossover Peak", "latitude": 49.0440578, "longitude": -121.6060684, "elevation": 2136.0, "source": "osm", "_tags": {"attribution": "Natural Resources Canada", "canvec:CODE:1580010": "280", "ele": "2136", "name": "Crossover Peak", "name:fr": "Crossover Peak", "natural": "peak", "source": "CanVec_Import_2009"}}, {"name": "Mount Rexford", "latitude": 49.0335633, "longitude": -121.5243564, "elevation": 2320.0, "source": "osm", "_tags": {"canvec:CODE:1580010": "280", "ele": "2320", "name": "Mount Rexford", "name:fr": "Mount Rexford", "natural": "peak", "note": "Location and elevation based on lidar. Other elevations available on the Internet are likely incorrect."}}, {"name": "Hopyard Hill", "latitude": 49.2321348, "longitude": -121.7909737, "elevation": 235.0, "source": "osm", "_tags": {"attribution": "Natural Resources Canada", "canvec:CODE:1580010": "280", "ele": "235", "name": "Hopyard Hill", "name:fr": "Hopyard Hill", "natural": "peak", "source": "CanVec_Import_2009"}}, {"name": "Goetz Peak", "latitude": 49.1490823, "longitude": -121.5068698, "elevation": 2033.0, "source": "osm", "_tags": {"attribution": "Natural Resources Canada", "canvec:CODE:1580010": "280", "ele": "2033", "name": "Goetz Peak", "natural": "peak", "source": "CanVec_Import_2009"}}, {"name": "Williams Peak", "latitude": 49.1295352, "longitude": -121.5053051, "elevation": 2123.0, "source": "osm", "_tags": {"attribution": "Natural Resources Canada", "canvec:CODE:1580010": "280", "ele": "2123", "name": "Williams Peak", "natural": "peak", "source": "CanVec_Import_2009"}}, {"name": "Mount Thom", "latitude": 49.1028675, "longitude": -121.9126682, "elevation": 475.0, "source": "osm", "_tags": {"attribution": "Natural Resources Canada", "canvec:CODE:1580010": "280", "ele": "475", "name": "Mount Thom", "name:fr": "Mount Tom", "natural": "peak", "source": "CanVec_Import_2009"}}, {"name": "Mount McGuire", "latitude": 49.0339236, "longitude": -121.7729925, "elevation": 2018.0, "source": "osm", "_tags": {"attribution": "Natural Resources Canada", "canvec:CODE:1580010": "280", "ele": "2018", "name": "Mount McGuire", "name:fr": "Mount McGuire", "natural": "peak"}}, {"name": "Mount Amadis", "latitude": 49.0210762, "longitude": -121.9569325, "elevation": 1510.0, "source": "osm", "_tags": {"ele": "1510", "name": "Mount Amadis", "name:fr": "Mount Amadis", "natural": "peak", "note": "Elevation and location determined by lidar."}}, {"name": "Teapot Hill", "latitude": 49.0312616, "longitude": -121.9938811, "elevation": 310.0, "source": "osm", "_tags": {"ele": "310", "name": "Teapot Hill", "name:fr": "Teapot Hill", "natural": "peak", "note": "Position and elevation determined from high quality lidar."}}, {"name": "Slesse Mountain", "latitude": 49.0254139, "longitude": -121.597461, "elevation": 2429.0, "source": "osm", "_tags": {"attribution": "Natural Resources Canada", "canvec:CODE:1580010": "280", "ele": "2429", "name": "Slesse Mountain", "name:sal": "Selísi", "natural": "peak", "source": "CanVec_Import_2009"}}, {"name": "Conway Peak", "latitude": 49.1749407, "longitude": -121.5634684, "elevation": 1996.0, "source": "osm", "_tags": {"attribution": "Natural Resources Canada", "canvec:CODE:1580010": "280", "ele": "1996", "name": "Conway Peak", "natural": "peak", "source": "CanVec_Import_2009"}}, {"name": "The Still", "latitude": 49.1626028, "longitude": -121.6099888, "elevation": 2297.0, "source": "osm", "_tags": {"attribution": "Natural Resources Canada", "canvec:CODE:1580010": "280", "ele": "2297", "name": "The Still", "name:fr": "The Still", "natural": "peak", "source": "CanVec_Import_2009"}}, {"name": "Lady Peak", "latitude": 49.1759064, "longitude": -121.6656711, "elevation": 2189.0, "source": "osm", "_tags": {"attribution": "Natural Resources Canada", "canvec:CODE:1580010": "280", "ele": "2189", "name": "Lady Peak", "name:fr": "Lady Peak", "natural": "peak", "source": "CanVec_Import_2009", "wikidata": "Q6470490", "wikipedia": "en:Lady Peak"}}, {"name": "Church Mountain", "latitude": 49.0318487, "longitude": -121.8540883, "elevation": 1711.0, "source": "osm", "_tags": {"canvec:CODE:1580010": "280", "ele": "1711", "name": "Church Mountain", "name:fr": "Church Mountain", "natural": "peak", "note": "Location and elevation derived from lidar."}}, {"name": "Harrison Hill", "latitude": 49.2199901, "longitude": -121.9827796, "elevation": 613.0, "source": "osm", "_tags": {"attribution": "Natural Resources Canada", "canvec:CODE:1580010": "280", "ele": "613", "name": "Harrison Hill", "name:fr": "Harrison Hill", "natural": "peak", "note": "Location and elevation determined from lidar.", "old_name": "Squakum Mountain", "source": "CanVec_Import_2009"}}, {"name": "Illusion Peaks", "latitude": 49.0433801, "longitude": -121.5409261, "elevation": 2104.0, "source": "osm", "_tags": {"canvec:CODE:1580010": "280", "ele": "2104", "name": "Illusion Peaks", "name:fr": "Illusion Peaks", "natural": "peak"}}, {"name": "Stewart Peak", "latitude": 49.1709852, "longitude": -121.6208008, "elevation": 2238.0, "source": "osm", "_tags": {"attribution": "Natural Resources Canada", "canvec:CODE:1580010": "280", "ele": "2238", "name": "Stewart Peak", "name:fr": "Stewart Peak", "natural": "peak", "source": "survey"}}, {"name": "Cemetery Hill", "latitude": 49.2371911, "longitude": -121.8138332, "elevation": 254.0, "source": "osm", "_tags": {"attribution": "Natural Resources Canada", "canvec:CODE:1580010": "280", "ele": "254", "name": "Cemetery Hill", "name:fr": "Cemetery Hill", "natural": "peak", "source": "CanVec_Import_2009"}}, {"name": "Mount Webb", "latitude": 49.0512873, "longitude": -121.456444, "elevation": 2163.0, "source": "osm", "_tags": {"ele": "2163", "name": "Mount Webb", "natural": "peak"}}, {"name": "Macdonald Peak", "latitude": 49.0376305, "longitude": -121.4628926, "elevation": 2247.0, "source": "osm", "_tags": {"ele": "2247", "name": "Macdonald Peak", "natural": "peak"}}, {"name": "Mount Corriveau", "latitude": 49.0637608, "longitude": -121.4963681, "elevation": 1977.0, "source": "osm", "_tags": {"ele": "1977", "name": "Mount Corriveau", "natural": "peak", "source": "NRCan-CanVec-7.0"}}, {"name": "Mount Wittenberg", "latitude": 49.1261778, "longitude": -121.4033593, "elevation": 2007.0, "source": "osm", "_tags": {"ele": "2007", "name": "Mount Wittenberg", "natural": "peak", "source": "NRCan-CanVec-7.0"}}, {"name": "Jeffrey Peak", "latitude": 49.1946772, "longitude": -121.4590124, "elevation": 2055.0, "source": "osm", "_tags": {"ele": "2055", "name": "Jeffrey Peak", "natural": "peak", "source": "NRCan-CanVec-7.0"}}, {"name": "Mount Northgraves", "latitude": 49.1670413, "longitude": -121.4782729, "elevation": 2121.0, "source": "osm", "_tags": {"ele": "2121", "name": "Mount Northgraves", "natural": "peak", "source": "NRCan-CanVec-7.0"}}, {"name": "Mount Nowell", "latitude": 49.1721432, "longitude": -121.4058397, "elevation": 1828.0, "source": "osm", "_tags": {"ele": "1828", "name": "Mount Nowell", "natural": "peak", "source": "NRCan-CanVec-7.0"}}, {"name": "Mount Woodside", "latitude": 49.2637856, "longitude": -121.8828789, "elevation": 946.0, "source": "osm", "_tags": {"ele": "946", "name": "Mount Woodside", "natural": "peak", "source": "NRCan-CanVec-7.0"}}, {"name": "Mount Keenan (formerly Mount Morris)", "latitude": 49.3657151, "longitude": -121.9434518, "elevation": 1412.0, "source": "osm", "_tags": {"ele": "1412", "name": "Mount Keenan (formerly Mount Morris)", "natural": "peak", "source": "NRCan-CanVec-7.0"}}, {"name": "Mount Agassiz", "latitude": 49.2772895, "longitude": -121.822201, "elevation": 962.0, "source": "osm", "_tags": {"ele": "962", "name": "Mount Agassiz", "natural": "peak", "source": "NRCan-CanVec-7.0"}}, {"name": "Mount Klaudt", "latitude": 49.3761903, "longitude": -121.9055277, "elevation": 1402.0, "source": "osm", "_tags": {"ele": "1402", "name": "Mount Klaudt", "natural": "peak", "source": "NRCan-CanVec-7.0"}}, {"name": "Mount Davies", "latitude": 49.3907278, "longitude": -121.9696381, "elevation": 1248.0, "source": "osm", "_tags": {"ele": "1248", "name": "Mount Davies", "natural": "peak", "source": "NRCan-CanVec-7.0"}}, {"name": "Mount McRae", "latitude": 49.4767535, "longitude": -121.9551623, "elevation": 1534.0, "source": "osm", "_tags": {"ele": "1534", "name": "Mount McRae", "natural": "peak", "source": "NRCan-CanVec-7.0"}}, {"name": "Mount Downing", "latitude": 49.4480972, "longitude": -121.9622945, "elevation": 1504.0, "source": "osm", "_tags": {"ele": "1504", "name": "Mount Downing", "natural": "peak", "source": "NRCan-CanVec-7.0"}}, {"name": "Slollicum Peak", "latitude": 49.408655, "longitude": -121.716816, "elevation": 1575.0, "source": "osm", "_tags": {"ele": "1575", "name": "Slollicum Peak", "name:hur": "Stl'áleqem Smált", "natural": "peak", "source": "NRCan-CanVec-7.0"}}, {"name": "Lookout Peak", "latitude": 49.4406211, "longitude": -121.73541, "elevation": 1529.0, "source": "osm", "_tags": {"ele": "1529", "name": "Lookout Peak", "natural": "peak", "source": "NRCan-CanVec-7.0"}}, {"name": "Field Peak", "latitude": 49.4872337, "longitude": -121.7244103, "elevation": 1563.0, "source": "osm", "_tags": {"ele": "1563", "name": "Field Peak", "natural": "peak", "source": "NRCan-CanVec-7.0"}}, {"name": "Mount Parker", "latitude": 49.4557333, "longitude": -121.6482288, "elevation": 1696.0, "source": "osm", "_tags": {"ele": "1696", "name": "Mount Parker", "natural": "peak", "source": "NRCan-CanVec-7.0"}}, {"name": "Mount McNair", "latitude": 49.4664293, "longitude": -121.6620164, "elevation": 1784.0, "source": "osm", "_tags": {"ele": "1784", "name": "Mount McNair", "natural": "peak", "source": "NRCan-CanVec-7.0"}}, {"name": "Mount Baird", "latitude": 49.489592, "longitude": -121.561627, "elevation": 1828.0, "source": "osm", "_tags": {"ele": "1828", "name": "Mount Baird", "natural": "peak", "source": "NRCan-CanVec-7.0"}}, {"name": "Bear Mountain", "latitude": 49.3006318, "longitude": -121.7405587, "elevation": 1036.0, "source": "osm", "_tags": {"ele": "1036", "name": "Bear Mountain", "natural": "peak", "source": "NRCan-CanVec-7.0"}}, {"name": "Mount Ludwig", "latitude": 49.2660306, "longitude": -121.6512993, "elevation": 1395.0, "source": "osm", "_tags": {"ele": "1395", "name": "Mount Ludwig", "natural": "peak", "source": "NRCan-CanVec-7.0"}}, {"name": "Mount Hicks", "latitude": 49.3426101, "longitude": -121.656716, "elevation": 809.0, "source": "osm", "_tags": {"ele": "809", "name": "Mount Hicks", "name:hur": "Lhelhxwáyeleq", "natural": "peak", "source": "NRCan-CanVec-7.0"}}, {"name": "Mount Devoy", "latitude": 49.3191291, "longitude": -121.5713823, "elevation": 1424.0, "source": "osm", "_tags": {"ele": "1424", "name": "Mount Devoy", "natural": "peak", "source": "NRCan-CanVec-7.0"}}, {"name": "Mount Barr", "latitude": 49.2638391, "longitude": -121.5593394, "elevation": 1907.0, "source": "osm", "_tags": {"ele": "1907", "name": "Mount Barr", "natural": "peak", "source": "NRCan-CanVec-7.0", "wikidata": "Q6919626", "wikipedia": "en:Mount Barr"}}, {"name": "Isolillock Peak", "latitude": 49.3004155, "longitude": -121.475136, "elevation": 2052.0, "source": "osm", "_tags": {"ele": "2052", "name": "Isolillock Peak", "name:hur": "Isléleqw", "natural": "peak", "source": "NRCan-CanVec-7.0"}}, {"name": "Mount Stoneman", "latitude": 49.2819959, "longitude": -121.4334366, "elevation": 1683.0, "source": "osm", "_tags": {"ele": "1683", "name": "Mount Stoneman", "natural": "peak", "source": "NRCan-CanVec-7.0"}}, {"name": "Silver Peak", "latitude": 49.304111, "longitude": -121.4625537, "elevation": 1949.0, "source": "osm", "_tags": {"ele": "1949", "name": "Silver Peak", "natural": "peak", "source": "NRCan-CanVec-7.0"}}, {"name": "Hope Mountain", "latitude": 49.3474454, "longitude": -121.4176279, "elevation": 1844.0, "source": "osm", "_tags": {"ele": "1844", "name": "Hope Mountain", "natural": "peak", "source": "CanVec"}}, {"name": "Dog Mountain", "latitude": 49.3982069, "longitude": -121.494817, "elevation": 1312.0, "source": "osm", "_tags": {"ele": "1312", "name": "Dog Mountain", "name:hur": "Q'á:w", "natural": "peak", "source": "NRCan-CanVec-7.0"}}, {"name": "Sumas Mountain", "latitude": 49.1206173, "longitude": -122.127503, "elevation": 910.0, "source": "osm", "_tags": {"ele": "910", "name": "Sumas Mountain", "name:sal": "Teq’qéyex", "natural": "peak"}}, {"name": "Cairn Needle", "latitude": 49.8189209, "longitude": -121.9930427, "elevation": 2294.0, "source": "osm", "_tags": {"ele": "2294", "name": "Cairn Needle", "natural": "peak", "source": "NRCan-CanVec-7.0"}}, {"name": "Spuzzum Mountain", "latitude": 49.7200482, "longitude": -121.4921731, "elevation": 1913.0, "source": "osm", "_tags": {"ele": "1913", "name": "Spuzzum Mountain", "natural": "peak", "source": "NRCan-CanVec-10.0"}}, {"name": "The Old Settler", "latitude": 49.5117531, "longitude": -121.6215929, "elevation": 2132.0, "source": "osm", "_tags": {"ele": "2132", "name": "The Old Settler", "natural": "peak", "source": "NRCan-CanVec-10.0"}}, {"name": "Mount Urquhart", "latitude": 49.6245565, "longitude": -121.6439724, "elevation": 2098.0, "source": "osm", "_tags": {"ele": "2098", "name": "Mount Urquhart", "natural": "peak", "source": "NRCan-CanVec-10.0"}}, {"name": "Mount Fagervik", "latitude": 49.5626193, "longitude": -121.5676348, "elevation": 1910.0, "source": "osm", "_tags": {"ele": "1910", "name": "Mount Fagervik", "natural": "peak", "source": "NRCan-CanVec-10.0"}}, {"name": "Mount Breakenridge", "latitude": 49.7197992, "longitude": -121.9335547, "elevation": 2395.0, "source": "osm", "_tags": {"ele": "2395", "name": "Mount Breakenridge", "natural": "peak", "source": "NRCan-CanVec-10.0", "wikidata": "Q6919832", "wikipedia": "en:Mount Breakenridge"}}, {"name": "Mount Wardrop", "latitude": 49.3189867, "longitude": -122.0724621, "elevation": 1210.0, "source": "osm", "_tags": {"ele": "1210", "name": "Mount Wardrop", "natural": "peak", "source": "NRCan-CanVec-10.0"}}, {"name": "Mount Catherwood", "latitude": 49.3360747, "longitude": -122.1140166, "elevation": 1265.0, "source": "osm", "_tags": {"ele": "1265", "name": "Mount Catherwood", "natural": "peak", "source": "NRCan-CanVec-10.0"}}, {"name": "Mount St. Benedict", "latitude": 49.3013084, "longitude": -122.203159, "elevation": 1275.0, "source": "osm", "_tags": {"ele": "1275", "name": "Mount St. Benedict", "natural": "peak", "source": "survey"}}, {"name": "", "latitude": 49.316014, "longitude": -122.3954833, "elevation": 1187.0, "source": "osm", "_tags": {"ele": "1187", "natural": "peak"}}, {"name": "Mount Crickmer", "latitude": 49.3207212, "longitude": -122.3772346, "elevation": 1359.0, "source": "osm", "_tags": {"ele": "1359", "name": "Mount Crickmer", "natural": "peak", "source": "NRCan-CanVec-10.0", "wikidata": "Q6920294", "wikipedia": "en:Mount Crickmer"}}, {"name": "Mount Gatey", "latitude": 49.3739606, "longitude": -122.3851541, "elevation": 1444.0, "source": "osm", "_tags": {"ele": "1444", "name": "Mount Gatey", "natural": "peak", "source": "NRCan-CanVec-10.0"}}, {"name": "Mount Fletcher", "latitude": 49.4279594, "longitude": -122.0695352, "elevation": 1412.0, "source": "osm", "_tags": {"ele": "1412", "name": "Mount Fletcher", "natural": "peak", "source": "NRCan-CanVec-10.0"}}, {"name": "Mount Jasper", "latitude": 49.4017404, "longitude": -122.1352604, "elevation": 1402.0, "source": "osm", "_tags": {"ele": "1402", "name": "Mount Jasper", "natural": "peak", "source": "NRCan-CanVec-10.0"}}, {"name": "Mount Kettley", "latitude": 49.3864641, "longitude": -122.1761134, "elevation": 1390.0, "source": "osm", "_tags": {"ele": "1390", "name": "Mount Kettley", "natural": "peak", "source": "NRCan-CanVec-10.0"}}, {"name": "Mount Robie Reid W0", "latitude": 49.431547, "longitude": -122.3618214, "elevation": 1987.0, "source": "osm", "_tags": {"ele": "1987", "name": "Mount Robie Reid W0", "natural": "peak"}}, {"name": "Mount Higgins", "latitude": 49.4641226, "longitude": -122.3932002, "elevation": 1362.0, "source": "osm", "_tags": {"ele": "1362", "name": "Mount Higgins", "natural": "peak"}}, {"name": "Mount Kranrod", "latitude": 49.4754504, "longitude": -122.3115909, "elevation": 1817.0, "source": "osm", "_tags": {"ele": "1817", "name": "Mount Kranrod", "natural": "peak", "source": "NRCan-CanVec-10.0"}}, {"name": "Mount Breier", "latitude": 49.4698943, "longitude": -122.1736032, "elevation": 1540.0, "source": "osm", "_tags": {"ele": "1540", "name": "Mount Breier", "natural": "peak", "source": "NRCan-CanVec-10.0"}}, {"name": "Mount Orrock", "latitude": 49.4806877, "longitude": -122.0343529, "elevation": 1563.0, "source": "osm", "_tags": {"ele": "1563", "name": "Mount Orrock", "natural": "peak", "source": "NRCan-CanVec-10.0"}}, {"name": "Mount Clarke", "latitude": 49.532938, "longitude": -122.1026307, "elevation": 2159.0, "source": "osm", "_tags": {"ele": "2159", "name": "Mount Clarke", "natural": "peak", "source": "NRCan-CanVec-10.0", "wikidata": "Q6920165", "wikipedia": "en:Mount Clarke"}}, {"name": "Grainger Peak", "latitude": 49.5824701, "longitude": -122.0722215, "elevation": 2183.0, "source": "osm", "_tags": {"ele": "2183", "name": "Grainger Peak", "natural": "peak", "source": "NRCan-CanVec-10.0"}}, {"name": "Robertson Peak", "latitude": 49.6458102, "longitude": -122.2504212, "elevation": 2252.0, "source": "osm", "_tags": {"ele": "2252", "name": "Robertson Peak", "natural": "peak", "source": "NRCan-CanVec-10.0"}}, {"name": "Mount Lamont", "latitude": 49.6569992, "longitude": -122.3504888, "elevation": 1994.0, "source": "osm", "_tags": {"ele": "1994", "name": "Mount Lamont", "natural": "peak", "source": "NRCan-CanVec-10.0"}}, {"name": "Mount Judge Howay", "latitude": 49.5071087, "longitude": -122.3217251, "elevation": 2262.0, "source": "osm", "_tags": {"ele": "2262", "name": "Mount Judge Howay", "natural": "peak", "source": "NRCan-CanVec-10.0", "wikidata": "Q6921539", "wikipedia": "en:Mount Judge Howay"}}, {"name": "Stonerabbit Peak", "latitude": 49.4831842, "longitude": -122.1360528, "elevation": 1856.0, "source": "osm", "_tags": {"ele": "1856", "name": "Stonerabbit Peak", "natural": "peak", "source": "NRCan-CanVec-10.0"}}, {"name": "Recourse Peak", "latitude": 49.5347193, "longitude": -122.0966014, "elevation": 2104.0, "source": "osm", "_tags": {"ele": "2104", "name": "Recourse Peak", "natural": "peak"}}, {"name": "Mt Bardean", "latitude": 49.4901056, "longitude": -122.1090525, "elevation": 1926.0, "source": "osm", "_tags": {"ele": "1926", "name": "Mt Bardean", "natural": "peak"}}, {"name": "Mount Ratney", "latitude": 49.4884812, "longitude": -122.1212793, "elevation": 1967.0, "source": "osm", "_tags": {"ele": "1967", "name": "Mount Ratney", "natural": "peak"}}, {"name": "Viennese Peak", "latitude": 49.5385216, "longitude": -122.0872877, "elevation": 2074.0, "source": "osm", "_tags": {"ele": "2074", "name": "Viennese Peak", "natural": "peak"}}, {"name": "Mount Robie Reid", "latitude": 49.4318267, "longitude": -122.3558833, "elevation": 2095.0, "source": "osm", "_tags": {"ele": "2095", "name": "Mount Robie Reid", "natural": "peak", "wikidata": "Q8528467", "wikipedia": "en:Mount Robie Reid"}}, {"name": "Cheam Peak", "latitude": 49.1866745, "longitude": -121.6821242, "elevation": 2112.0, "source": "osm", "_tags": {"attribution": "Natural Resources Canada", "canvec:CODE": "1200020", "canvec:CODE:1580010": "280", "ele": "2112", "man_made": "survey_point", "name": "Cheam Peak", "name:fr": "Cheam Peak", "name:sal": "Lhílheqey", "natural": "peak", "source": "CanVec_Import_2009", "wikidata": "Q5088828", "wikipedia": "en:Cheam Peak"}}, {"name": "McKee Peak", "latitude": 49.0634343, "longitude": -122.2145518, "elevation": 468.0, "source": "osm", "_tags": {"ele": "468", "name": "McKee Peak", "natural": "peak"}}, {"name": "", "latitude": 49.4262781, "longitude": -122.3462542, "elevation": 1997.0, "source": "osm", "_tags": {"ele": "1997", "natural": "peak"}}, {"name": "", "latitude": 49.4200663, "longitude": -122.3468891, "elevation": 1784.0, "source": "osm", "_tags": {"ele": "1784", "natural": "peak"}}, {"name": "", "latitude": 49.4421478, "longitude": -122.3629601, "elevation": 1658.0, "source": "osm", "_tags": {"ele": "1658", "natural": "peak"}}, {"name": "", "latitude": 49.4707203, "longitude": -121.5230681, "elevation": 1443.0, "source": "osm", "_tags": {"ele": "1443", "natural": "peak"}}, {"name": "", "latitude": 49.4819331, "longitude": -121.4991508, "elevation": 1559.0, "source": "osm", "_tags": {"ele": "1559", "natural": "peak"}}, {"name": "", "latitude": 49.5850185, "longitude": -122.0550718, "elevation": 1915.0, "source": "osm", "_tags": {"ele": "1915", "natural": "peak"}}, {"name": "", "latitude": 49.5820649, "longitude": -122.0232061, "elevation": 1880.0, "source": "osm", "_tags": {"ele": "1880", "natural": "peak"}}, {"name": "Slesse Mountain South Peak", "latitude": 49.0226921, "longitude": -121.5953292, "elevation": 2278.0, "source": "osm", "_tags": {"ele": "2278", "name": "Slesse Mountain South Peak", "natural": "peak"}}, {"name": "", "latitude": 49.5042662, "longitude": -122.3253944, "elevation": 2180.0, "source": "osm", "_tags": {"ele": "2180", "natural": "peak"}}, {"name": "Mount Hansen", "latitude": 49.2369212, "longitude": -121.4600428, "elevation": 2000.0, "source": "osm", "_tags": {"ele": "2000", "name": "Mount Hansen", "natural": "peak"}}, {"name": "Flora Peak", "latitude": 49.1135712, "longitude": -121.4288419, "elevation": 1953.0, "source": "osm", "_tags": {"ele": "1953", "name": "Flora Peak", "natural": "peak"}}, {"name": "Pretty Peak", "latitude": 49.267899, "longitude": -122.0018478, "elevation": 1338.0, "source": "osm", "_tags": {"ele": "1338", "name": "Pretty Peak", "natural": "peak"}}, {"name": "", "latitude": 49.3526781, "longitude": -121.4282904, "elevation": 1507.0, "source": "osm", "_tags": {"ele": "1507", "natural": "peak"}}, {"name": "", "latitude": 49.3451676, "longitude": -121.4118361, "elevation": 1687.0, "source": "osm", "_tags": {"ele": "1687", "natural": "peak"}}, {"name": "Mount Lincoln", "latitude": 49.5677633, "longitude": -121.413599, "elevation": 650.0, "source": "osm", "_tags": {"ele": "650", "name": "Mount Lincoln", "natural": "peak"}}, {"name": "Taggart Peak", "latitude": 49.1055616, "longitude": -122.1419476, "elevation": 796.0, "source": "osm", "_tags": {"ele": "796", "name": "Taggart Peak", "natural": "peak"}}, {"name": "Bear Mountain", "latitude": 49.1951541, "longitude": -122.2987593, "elevation": 543.0, "source": "osm", "_tags": {"ele": "543", "name": "Bear Mountain", "natural": "peak"}}, {"name": "", "latitude": 49.1970279, "longitude": -122.3104886, "elevation": 465.0, "source": "osm", "_tags": {"ele": "465", "natural": "peak"}}, {"name": "Red Mountain", "latitude": 49.20718, "longitude": -122.3354808, "elevation": 541.0, "source": "osm", "_tags": {"ele": "541", "name": "Red Mountain", "natural": "peak"}}, {"name": "", "latitude": 49.2977696, "longitude": -121.7531162, "elevation": 837.0, "source": "osm", "_tags": {"ele": "837", "natural": "peak"}}, {"name": "Chawuthen Peak", "latitude": 49.3392566, "longitude": -121.517287, "elevation": 1537.0, "source": "osm", "_tags": {"ele": "1537", "name": "Chawuthen Peak", "natural": "peak"}}, {"name": "", "latitude": 49.3279311, "longitude": -121.4900106, "elevation": 1618.0, "source": "osm", "_tags": {"ele": "1618", "natural": "peak"}}, {"name": "", "latitude": 49.3121911, "longitude": -121.4932554, "elevation": 1577.0, "source": "osm", "_tags": {"ele": "1577", "natural": "peak"}}, {"name": "", "latitude": 49.2970668, "longitude": -121.4817488, "elevation": 1808.0, "source": "osm", "_tags": {"ele": "1808", "natural": "peak"}}, {"name": "", "latitude": 49.2919821, "longitude": -121.5072557, "elevation": 1878.0, "source": "osm", "_tags": {"ele": "1878", "natural": "peak"}}, {"name": "", "latitude": 49.2749907, "longitude": -121.4473273, "elevation": 1615.0, "source": "osm", "_tags": {"ele": "1615", "natural": "peak"}}, {"name": "", "latitude": 49.2635377, "longitude": -121.4555885, "elevation": 1568.0, "source": "osm", "_tags": {"ele": "1568", "natural": "peak"}}, {"name": "Little Nicomen Peak", "latitude": 49.1899895, "longitude": -122.1472927, "elevation": 495.0, "source": "osm", "_tags": {"ele": "495", "name": "Little Nicomen Peak", "natural": "peak"}}, {"name": "Heritage Mountain", "latitude": 49.1497646, "longitude": -122.2746504, "elevation": 212.0, "source": "osm", "_tags": {"ele": "212", "name": "Heritage Mountain", "natural": "peak"}}, {"name": "The Nipple", "latitude": 49.9450337, "longitude": -121.5848425, "elevation": 2299.0, "source": "osm", "_tags": {"ele": "2299", "name": "The Nipple", "natural": "peak"}}, {"name": "", "latitude": 49.9472894, "longitude": -121.5813461, "elevation": 2274.0, "source": "osm", "_tags": {"ele": "2274", "natural": "peak"}}, {"name": "", "latitude": 49.0930086, "longitude": -122.1607088, "elevation": 575.0, "source": "osm", "_tags": {"ele": "575", "natural": "peak"}}, {"name": "Thacker Mountain", "latitude": 49.3932827, "longitude": -121.4207246, "elevation": 250.0, "source": "osm", "_tags": {"ele": "250", "name": "Thacker Mountain", "natural": "peak"}}, {"name": "Monastic Peak", "latitude": 49.2958904, "longitude": -122.2525444, "elevation": 644.0, "source": "osm", "_tags": {"ele": "644", "name": "Monastic Peak", "natural": "peak"}}, {"name": "Murdo Peak", "latitude": 49.3097086, "longitude": -122.2307543, "elevation": 995.0, "source": "osm", "_tags": {"ele": "995", "name": "Murdo Peak", "natural": "peak"}}, {"name": "", "latitude": 49.4914301, "longitude": -122.0937938, "elevation": 1766.0, "source": "osm", "_tags": {"ele": "1766", "natural": "peak"}}, {"name": "", "latitude": 49.4905561, "longitude": -122.1059814, "elevation": 1876.0, "source": "osm", "_tags": {"ele": "1876", "natural": "peak"}}, {"name": "", "latitude": 49.4910458, "longitude": -122.0859813, "elevation": 1652.0, "source": "osm", "_tags": {"ele": "1652", "natural": "peak"}}, {"name": "", "latitude": 49.4930045, "longitude": -122.073612, "elevation": 1612.0, "source": "osm", "_tags": {"ele": "1612", "natural": "peak"}}, {"name": "", "latitude": 49.4946932, "longitude": -122.0664274, "elevation": 1573.0, "source": "osm", "_tags": {"ele": "1573", "natural": "peak"}}, {"name": "", "latitude": 49.4928646, "longitude": -122.0618274, "elevation": 1564.0, "source": "osm", "_tags": {"ele": "1564", "natural": "peak"}}, {"name": "", "latitude": 49.4994385, "longitude": -122.0534141, "elevation": 1529.0, "source": "osm", "_tags": {"ele": "1529", "natural": "peak"}}, {"name": "", "latitude": 49.5169866, "longitude": -122.0896926, "elevation": 1741.0, "source": "osm", "_tags": {"ele": "1741", "natural": "peak"}}, {"name": "", "latitude": 49.5385885, "longitude": -122.0780196, "elevation": 1964.0, "source": "osm", "_tags": {"ele": "1964", "natural": "peak"}}, {"name": "", "latitude": 49.5465216, "longitude": -122.0728172, "elevation": 1663.0, "source": "osm", "_tags": {"ele": "1663", "natural": "peak"}}, {"name": "", "latitude": 49.55011, "longitude": -122.0758018, "elevation": 1663.0, "source": "osm", "_tags": {"ele": "1663", "natural": "peak"}}, {"name": "", "latitude": 49.554822, "longitude": -122.0838788, "elevation": 1915.0, "source": "osm", "_tags": {"ele": "1915", "natural": "peak"}}, {"name": "", "latitude": 49.561334, "longitude": -122.0702501, "elevation": 2004.0, "source": "osm", "_tags": {"ele": "2004", "natural": "peak"}}, {"name": "Nursery Peak", "latitude": 49.5646641, "longitude": -122.0779723, "elevation": 2098.0, "source": "osm", "_tags": {"ele": "2098", "name": "Nursery Peak", "natural": "peak"}}, {"name": "", "latitude": 49.5859536, "longitude": -122.0783545, "elevation": 2068.0, "source": "osm", "_tags": {"ele": "2068", "natural": "peak"}}, {"name": "", "latitude": 49.5845173, "longitude": -122.1524925, "elevation": 1613.0, "source": "osm", "_tags": {"ele": "1613", "natural": "peak"}}, {"name": "", "latitude": 49.5954483, "longitude": -122.148795, "elevation": 1743.0, "source": "osm", "_tags": {"ele": "1743", "natural": "peak"}}, {"name": "", "latitude": 49.6013745, "longitude": -122.1447328, "elevation": 1756.0, "source": "osm", "_tags": {"ele": "1756", "natural": "peak"}}, {"name": "", "latitude": 49.608269, "longitude": -122.1534629, "elevation": 1766.0, "source": "osm", "_tags": {"ele": "1766", "natural": "peak"}}, {"name": "", "latitude": 49.6184143, "longitude": -122.1418169, "elevation": 1733.0, "source": "osm", "_tags": {"ele": "1733", "natural": "peak"}}, {"name": "", "latitude": 49.6221696, "longitude": -122.1457225, "elevation": 1796.0, "source": "osm", "_tags": {"ele": "1796", "natural": "peak"}}, {"name": "", "latitude": 49.6266571, "longitude": -122.1421076, "elevation": 1763.0, "source": "osm", "_tags": {"ele": "1763", "natural": "peak"}}, {"name": "", "latitude": 49.6390989, "longitude": -122.1348973, "elevation": 1754.0, "source": "osm", "_tags": {"ele": "1754", "natural": "peak"}}, {"name": "", "latitude": 49.6563395, "longitude": -122.1203535, "elevation": 1872.0, "source": "osm", "_tags": {"ele": "1872", "natural": "peak"}}, {"name": "", "latitude": 49.6539597, "longitude": -122.0969866, "elevation": 1598.0, "source": "osm", "_tags": {"ele": "1598", "natural": "peak"}}, {"name": "", "latitude": 49.6187501, "longitude": -122.0652242, "elevation": 1835.0, "source": "osm", "_tags": {"ele": "1835", "natural": "peak"}}, {"name": "", "latitude": 49.6149826, "longitude": -122.0624132, "elevation": 1887.0, "source": "osm", "_tags": {"ele": "1887", "natural": "peak"}}, {"name": "", "latitude": 49.6117987, "longitude": -122.066576, "elevation": 1837.0, "source": "osm", "_tags": {"ele": "1837", "natural": "peak"}}, {"name": "", "latitude": 49.6215721, "longitude": -122.0552035, "elevation": 1966.0, "source": "osm", "_tags": {"ele": "1966", "natural": "peak"}}, {"name": "Trio Creek Spires", "latitude": 49.6188891, "longitude": -122.034346, "elevation": 1823.0, "source": "osm", "_tags": {"ele": "1823", "name": "Trio Creek Spires", "natural": "peak", "source": "Bivouac"}}, {"name": "Blinch Peak", "latitude": 49.4281441, "longitude": -122.2022563, "elevation": 1511.0, "source": "osm", "_tags": {"ele": "1511", "name": "Blinch Peak", "natural": "peak"}}, {"name": "", "latitude": 49.4184855, "longitude": -122.1705418, "elevation": 1507.0, "source": "osm", "_tags": {"ele": "1507", "natural": "peak"}}, {"name": "", "latitude": 49.4191834, "longitude": -122.1934801, "elevation": 1433.0, "source": "osm", "_tags": {"ele": "1433", "natural": "peak"}}, {"name": "", "latitude": 49.4609375, "longitude": -122.1860862, "elevation": 1475.0, "source": "osm", "_tags": {"ele": "1475", "natural": "peak"}}, {"name": "", "latitude": 49.4527361, "longitude": -122.1462607, "elevation": 1592.0, "source": "osm", "_tags": {"ele": "1592", "natural": "peak"}}, {"name": "", "latitude": 49.469156, "longitude": -122.1466828, "elevation": 1557.0, "source": "osm", "_tags": {"ele": "1557", "natural": "peak"}}, {"name": "", "latitude": 49.4478557, "longitude": -122.1371398, "elevation": 1585.0, "source": "osm", "_tags": {"ele": "1585", "natural": "peak"}}, {"name": "", "latitude": 49.4518035, "longitude": -122.1258316, "elevation": 1565.0, "source": "osm", "_tags": {"ele": "1565", "natural": "peak"}}, {"name": "", "latitude": 49.454691, "longitude": -122.1167979, "elevation": 1467.0, "source": "osm", "_tags": {"ele": "1467", "natural": "peak"}}, {"name": "", "latitude": 49.459089, "longitude": -122.1083747, "elevation": 1427.0, "source": "osm", "_tags": {"ele": "1427", "natural": "peak"}}, {"name": "", "latitude": 49.4575597, "longitude": -122.1003352, "elevation": 1465.0, "source": "osm", "_tags": {"ele": "1465", "natural": "peak"}}, {"name": "", "latitude": 49.4600703, "longitude": -122.0929753, "elevation": 1408.0, "source": "osm", "_tags": {"ele": "1408", "natural": "peak"}}, {"name": "", "latitude": 49.4609489, "longitude": -122.0882117, "elevation": 1410.0, "source": "osm", "_tags": {"ele": "1410", "natural": "peak"}}, {"name": "", "latitude": 49.4511435, "longitude": -122.066876, "elevation": 1276.0, "source": "osm", "_tags": {"ele": "1276", "natural": "peak"}}, {"name": "", "latitude": 49.4433311, "longitude": -122.0896855, "elevation": 1475.0, "source": "osm", "_tags": {"ele": "1475", "natural": "peak"}}, {"name": "", "latitude": 49.433843, "longitude": -122.0972601, "elevation": 1534.0, "source": "osm", "_tags": {"ele": "1534", "natural": "peak"}}, {"name": "", "latitude": 49.4021358, "longitude": -122.1436244, "elevation": 1430.0, "source": "osm", "_tags": {"ele": "1430", "natural": "peak"}}, {"name": "", "latitude": 49.4172138, "longitude": -122.2304581, "elevation": 1216.0, "source": "osm", "_tags": {"ele": "1216", "natural": "peak"}}, {"name": "", "latitude": 49.410769, "longitude": -122.2507159, "elevation": 1090.0, "source": "osm", "_tags": {"ele": "1090", "natural": "peak", "note": "Position and elevation obtained from lidar."}}, {"name": "", "latitude": 49.4008066, "longitude": -122.256761, "elevation": 1183.0, "source": "osm", "_tags": {"ele": "1183", "loc_name": "BS Mountain", "natural": "peak", "website:peakbagger": "https://www.peakbagger.com/peak.aspx?pid=53692"}}, {"name": "", "latitude": 49.3871974, "longitude": -122.2572369, "elevation": 905.0, "source": "osm", "_tags": {"ele": "905", "natural": "peak", "note": "Position and elevation obtained from lidar."}}, {"name": "", "latitude": 49.3858983, "longitude": -122.2445886, "elevation": 831.0, "source": "osm", "_tags": {"ele": "831", "natural": "peak", "note": "Location and elevation obtained from lidar."}}, {"name": "", "latitude": 49.3851531, "longitude": -122.2069455, "elevation": 1254.0, "source": "osm", "_tags": {"ele": "1254", "natural": "peak"}}, {"name": "", "latitude": 49.3793419, "longitude": -122.1988345, "elevation": 1210.0, "source": "osm", "_tags": {"ele": "1210", "natural": "peak"}}, {"name": "", "latitude": 49.3748434, "longitude": -122.2015597, "elevation": 1147.0, "source": "osm", "_tags": {"ele": "1147", "natural": "peak"}}, {"name": "", "latitude": 49.3437196, "longitude": -122.1627427, "elevation": 1259.0, "source": "osm", "_tags": {"ele": "1259", "natural": "peak"}}, {"name": "", "latitude": 49.3347435, "longitude": -122.1702529, "elevation": 1221.0, "source": "osm", "_tags": {"ele": "1221", "natural": "peak"}}, {"name": "", "latitude": 49.3291781, "longitude": -122.1634723, "elevation": 1210.0, "source": "osm", "_tags": {"ele": "1210", "natural": "peak"}}, {"name": "", "latitude": 49.3221715, "longitude": -122.1505333, "elevation": 1145.0, "source": "osm", "_tags": {"ele": "1145", "natural": "peak"}}, {"name": "", "latitude": 49.3190805, "longitude": -122.1838571, "elevation": 1044.0, "source": "osm", "_tags": {"ele": "1044", "natural": "peak"}}, {"name": "", "latitude": 49.3124501, "longitude": -122.1960021, "elevation": 1263.0, "source": "osm", "_tags": {"ele": "1263", "natural": "peak"}}, {"name": "", "latitude": 49.3189847, "longitude": -122.2596457, "elevation": 482.0, "source": "osm", "_tags": {"ele": "482", "natural": "peak"}}, {"name": "", "latitude": 49.3240694, "longitude": -122.2708804, "elevation": 257.0, "source": "osm", "_tags": {"ele": "257", "natural": "peak"}}, {"name": "", "latitude": 49.3218764, "longitude": -122.2461636, "elevation": 489.0, "source": "osm", "_tags": {"ele": "489", "natural": "peak"}}, {"name": "", "latitude": 49.3265155, "longitude": -122.2668351, "elevation": 274.0, "source": "osm", "_tags": {"ele": "274", "natural": "peak"}}, {"name": "", "latitude": 49.3460128, "longitude": -122.2649185, "elevation": 822.0, "source": "osm", "_tags": {"ele": "822", "natural": "peak"}}, {"name": "", "latitude": 49.3581175, "longitude": -122.2487609, "elevation": 780.0, "source": "osm", "_tags": {"ele": "780", "natural": "peak"}}, {"name": "", "latitude": 49.3611921, "longitude": -122.2654549, "elevation": 570.0, "source": "osm", "_tags": {"ele": "570", "natural": "peak"}}, {"name": "Stanford Peak", "latitude": 49.7716941, "longitude": -122.3920609, "elevation": 2010.0, "source": "osm", "_tags": {"ele": "2010", "name": "Stanford Peak", "natural": "peak"}}, {"name": "", "latitude": 49.0949739, "longitude": -122.3918822, "elevation": 126.0, "source": "osm", "_tags": {"ele": "126", "natural": "peak"}}, {"name": "", "latitude": 49.0645377, "longitude": -122.3551099, "elevation": 148.0, "source": "osm", "_tags": {"ele": "148", "natural": "peak"}}, {"name": "Eagle Mountain", "latitude": 49.0518194, "longitude": -122.2461138, "elevation": 300.0, "source": "osm", "_tags": {"ele": "300", "name": "Eagle Mountain", "natural": "peak"}}, {"name": "Fire Mountain", "latitude": 49.8616249, "longitude": -122.3833519, "elevation": 2104.0, "source": "osm", "_tags": {"ele": "2104", "name": "Fire Mountain", "natural": "peak", "source": "NRCan-CanVec-10.0"}}, {"name": "The Defendant", "latitude": 49.5105255, "longitude": -122.3645869, "elevation": 1884.0, "source": "osm", "_tags": {"ele": "1884", "name": "The Defendant", "natural": "peak"}}, {"name": "", "latitude": 49.5072212, "longitude": -122.366919, "elevation": 1666.0, "source": "osm", "_tags": {"ele": "1666", "natural": "peak"}}, {"name": "", "latitude": 49.5233326, "longitude": -122.3900333, "elevation": 1634.0, "source": "osm", "_tags": {"ele": "1634", "natural": "peak"}}, {"name": "", "latitude": 49.5261996, "longitude": -122.3533491, "elevation": 1767.0, "source": "osm", "_tags": {"ele": "1767", "natural": "peak"}}, {"name": "", "latitude": 49.5298208, "longitude": -122.3387364, "elevation": 1529.0, "source": "osm", "_tags": {"ele": "1529", "natural": "peak"}}, {"name": "", "latitude": 49.4258627, "longitude": -122.1603895, "elevation": 1456.0, "source": "osm", "_tags": {"ele": "1456", "natural": "peak"}}, {"name": "", "latitude": 49.499537, "longitude": -122.2183281, "elevation": 1055.0, "source": "osm", "_tags": {"ele": "1055", "natural": "peak"}}, {"name": "", "latitude": 49.5157055, "longitude": -122.2329221, "elevation": 1536.0, "source": "osm", "_tags": {"ele": "1536", "natural": "peak"}}, {"name": "", "latitude": 49.5211572, "longitude": -122.2590516, "elevation": 1371.0, "source": "osm", "_tags": {"ele": "1371", "natural": "peak"}}, {"name": "", "latitude": 49.5356458, "longitude": -122.2334014, "elevation": 1693.0, "source": "osm", "_tags": {"ele": "1693", "natural": "peak"}}, {"name": "", "latitude": 49.5293214, "longitude": -122.2480836, "elevation": 1559.0, "source": "osm", "_tags": {"ele": "1559", "natural": "peak"}}, {"name": "", "latitude": 49.5436359, "longitude": -122.2526441, "elevation": 1658.0, "source": "osm", "_tags": {"ele": "1658", "natural": "peak"}}, {"name": "", "latitude": 49.5458758, "longitude": -122.2425784, "elevation": 1838.0, "source": "osm", "_tags": {"ele": "1838", "natural": "peak"}}, {"name": "", "latitude": 49.5520709, "longitude": -122.2257185, "elevation": 1726.0, "source": "osm", "_tags": {"ele": "1726", "natural": "peak"}}, {"name": "", "latitude": 49.5650512, "longitude": -122.1678706, "elevation": 1380.0, "source": "osm", "_tags": {"ele": "1380", "natural": "peak"}}, {"name": "", "latitude": 49.5739697, "longitude": -122.1586287, "elevation": 1472.0, "source": "osm", "_tags": {"ele": "1472", "natural": "peak"}}, {"name": "", "latitude": 49.5621614, "longitude": -122.2488552, "elevation": 1905.0, "source": "osm", "_tags": {"ele": "1905", "natural": "peak"}}, {"name": "", "latitude": 49.5722551, "longitude": -122.3014151, "elevation": 1522.0, "source": "osm", "_tags": {"ele": "1522", "natural": "peak"}}, {"name": "", "latitude": 49.5875871, "longitude": -122.2477904, "elevation": 2001.0, "source": "osm", "_tags": {"ele": "2001", "natural": "peak"}}, {"name": "", "latitude": 49.588952, "longitude": -122.2379883, "elevation": 1962.0, "source": "osm", "_tags": {"ele": "1962", "natural": "peak"}}, {"name": "", "latitude": 49.5912472, "longitude": -122.305816, "elevation": 1315.0, "source": "osm", "_tags": {"ele": "1315", "natural": "peak"}}, {"name": "", "latitude": 49.6076574, "longitude": -122.2915611, "elevation": 1932.0, "source": "osm", "_tags": {"ele": "1932", "natural": "peak"}}, {"name": "", "latitude": 49.591081, "longitude": -122.1981317, "elevation": 1810.0, "source": "osm", "_tags": {"ele": "1810", "natural": "peak"}}, {"name": "", "latitude": 49.6113785, "longitude": -122.3549511, "elevation": 1829.0, "source": "osm", "_tags": {"ele": "1829", "natural": "peak"}}, {"name": "", "latitude": 49.6212363, "longitude": -122.3457667, "elevation": 1767.0, "source": "osm", "_tags": {"ele": "1767", "natural": "peak"}}, {"name": "", "latitude": 49.625262, "longitude": -122.3756123, "elevation": 1700.0, "source": "osm", "_tags": {"ele": "1700", "natural": "peak"}}, {"name": "Mount Widdess", "latitude": 49.948957, "longitude": -122.0469226, "elevation": 2215.0, "source": "osm", "_tags": {"ele": "2215", "name": "Mount Widdess", "natural": "peak", "source": "NRCan-CanVec-10.0"}}, {"name": "Mount Mason", "latitude": 49.8633884, "longitude": -122.1200416, "elevation": 2322.0, "source": "osm", "_tags": {"ele": "2322", "name": "Mount Mason", "natural": "peak", "source": "NRCan-CanVec-10.0"}}, {"name": "Nahatlatch Needle", "latitude": 49.9899157, "longitude": -121.872949, "elevation": 1951.0, "source": "osm", "_tags": {"ele": "1951", "name": "Nahatlatch Needle", "natural": "peak", "source": "NRCan-CanVec-10.0"}}, {"name": "Mount McEwen", "latitude": 49.878539, "longitude": -121.6656951, "elevation": 2042.0, "source": "osm", "_tags": {"ele": "2042", "name": "Mount McEwen", "natural": "peak", "source": "NRCan-CanVec-10.0"}}, {"name": "Two Squaws Mountain", "latitude": 49.975327, "longitude": -121.708975, "elevation": 1856.0, "source": "osm", "_tags": {"ele": "1856", "name": "Two Squaws Mountain", "natural": "peak", "source": "NRCan-CanVec-10.0"}}, {"name": "Fraser Peak", "latitude": 49.8523946, "longitude": -121.6754418, "elevation": 2115.0, "source": "osm", "_tags": {"ele": "2115", "name": "Fraser Peak", "natural": "peak", "source": "NRCan-CanVec-10.0"}}, {"name": "Scuzzy Mountain", "latitude": 49.8545605, "longitude": -121.6324011, "elevation": 2221.0, "source": "osm", "_tags": {"ele": "2221", "name": "Scuzzy Mountain", "natural": "peak", "source": "NRCan-CanVec-10.0"}}, {"name": "Mount Nesbitt", "latitude": 49.8174952, "longitude": -121.6967987, "elevation": 2065.0, "source": "osm", "_tags": {"ele": "2065", "name": "Mount Nesbitt", "natural": "peak", "source": "NRCan-CanVec-10.0"}}, {"name": "", "latitude": 49.0729091, "longitude": -122.2101311, "elevation": 306.0, "source": "osm", "_tags": {"ele": "306", "natural": "peak"}}, {"name": "", "latitude": 49.1010346, "longitude": -122.2089854, "elevation": 397.0, "source": "osm", "_tags": {"ele": "397", "natural": "peak"}}, {"name": "", "latitude": 49.0935022, "longitude": -122.2357425, "elevation": 305.0, "source": "osm", "_tags": {"ele": "305", "natural": "peak"}}, {"name": "", "latitude": 49.0932145, "longitude": -122.2318451, "elevation": 277.0, "source": "osm", "_tags": {"ele": "277", "natural": "peak"}}, {"name": "Dewdney Peak", "latitude": 49.1891723, "longitude": -122.1980708, "elevation": 930.0, "source": "osm", "_tags": {"alt_name": "Hatzic Mountain", "ele": "930", "name": "Dewdney Peak", "natural": "peak", "source": "BC Geographical Names", "website": "https://apps.gov.bc.ca/pub/bcgnws/names/17287.html", "wikidata": "Q5268130", "wikipedia": "en:Dewdney Peak"}}, {"name": "Nicomen Mountain", "latitude": 49.2052835, "longitude": -122.120293, "elevation": 1221.0, "source": "osm", "_tags": {"ele": "1221", "name": "Nicomen Mountain", "natural": "peak", "source": "BC Geographical Names", "website": "https://apps.gov.bc.ca/pub/bcgnws/names/14302.html", "wikidata": "Q14874724", "wikipedia": "en:Nicomen Mountain"}}, {"name": "Chillwack Mountain", "latitude": 49.1514286, "longitude": -122.0257573, "elevation": 363.0, "source": "osm", "_tags": {"ele": "363", "name": "Chillwack Mountain", "natural": "peak"}}, {"name": "Noroche Mountain", "latitude": 49.2592247, "longitude": -122.0582123, "elevation": 1371.0, "source": "osm", "_tags": {"ele": "1371", "name": "Noroche Mountain", "natural": "peak"}}, {"name": "Deroche Mountain", "latitude": 49.2396522, "longitude": -122.061195, "elevation": 1416.0, "source": "osm", "_tags": {"ele": "1416", "name": "Deroche Mountain", "natural": "peak", "source": "NRCan-CanVec-10.0"}}, {"name": "Peak 1280", "latitude": 49.2311077, "longitude": -122.0914788, "elevation": 1283.0, "source": "osm", "_tags": {"ele": "1283", "name": "Peak 1280", "natural": "peak"}}, {"name": "Rockwell Knob", "latitude": 49.2731525, "longitude": -122.380684, "elevation": 726.0, "source": "osm", "_tags": {"alt_name": "Rolley Peak", "ele": "726", "name": "Rockwell Knob", "natural": "peak"}}, {"name": "Poignant", "latitude": 49.113989, "longitude": -122.20647, "elevation": 533.0, "source": "osm", "_tags": {"ele": "533", "name": "Poignant", "natural": "peak"}}, {"name": "Goat Mountain", "latitude": 49.1367058, "longitude": -121.481075, "elevation": 1962.0, "source": "osm", "_tags": {"ele": "1962", "name": "Goat Mountain", "natural": "peak"}}, {"name": "Mount Cannell", "latitude": 49.2631938, "longitude": -122.2892137, "elevation": 555.0, "source": "osm", "_tags": {"ele": "555", "name": "Mount Cannell", "natural": "peak"}}, {"name": "Quirin Peak", "latitude": 49.2496647, "longitude": -122.324658, "elevation": 669.0, "source": "osm", "_tags": {"alt_name": "Hydro Mountain", "ele": "669", "name": "Quirin Peak", "natural": "peak"}}, {"name": "Kenworthy Peak", "latitude": 49.2147749, "longitude": -122.2712433, "elevation": 530.0, "source": "osm", "_tags": {"ele": "530", "name": "Kenworthy Peak", "natural": "peak"}}, {"name": "Cardinalis Peak", "latitude": 49.2316032, "longitude": -122.2666721, "elevation": 603.0, "source": "osm", "_tags": {"ele": "603", "name": "Cardinalis Peak", "natural": "peak"}}, {"name": "Silver Hill", "latitude": 49.169268, "longitude": -122.362088, "elevation": 358.0, "source": "osm", "_tags": {"ele": "358", "name": "Silver Hill", "natural": "peak"}}, {"name": "North Nesakwatch Spire", "latitude": 49.0360628, "longitude": -121.5299759, "elevation": 2209.0, "source": "osm", "_tags": {"ele": "2209", "landmark": "yes", "name": "North Nesakwatch Spire", "natural": "peak", "note": "Location and elevation based on lidar. Other elevations available on the Internet are likely incorrect.", "rock": "pinnacle"}}, {"name": "South Nesakwatch Spire", "latitude": 49.0342304, "longitude": -121.526912, "elevation": 2249.0, "source": "osm", "_tags": {"ele": "2249", "landmark": "yes", "name": "South Nesakwatch Spire", "natural": "peak", "note": "Location and elevation based on lidar. Other elevations available on the Internet are likely incorrect.", "rock": "pinnacle"}}, {"name": "", "latitude": 49.1041614, "longitude": -121.4217579, "elevation": 1863.0, "source": "osm", "_tags": {"ele": "1863", "natural": "peak"}}, {"name": "Post Creek Spires", "latitude": 49.1192811, "longitude": -121.437165, "elevation": 1707.0, "source": "osm", "_tags": {"alt_name": "The Gargoyles", "ele": "1707", "name": "Post Creek Spires", "natural": "peak"}}, {"name": "Post Creek Spires", "latitude": 49.1201145, "longitude": -121.437562, "elevation": 1703.0, "source": "osm", "_tags": {"alt_name": "The Gargoyles", "ele": "1703", "name": "Post Creek Spires", "natural": "peak"}}, {"name": "Mount Rexford Southeast Peak", "latitude": 49.0307105, "longitude": -121.5183952, "elevation": 2224.0, "source": "osm", "_tags": {"ele": "2224", "name": "Mount Rexford Southeast Peak", "natural": "peak", "note": "Location and elevation based on lidar. Other elevations available on the Internet are likely incorrect."}}, {"name": "Guardian Peak", "latitude": 49.0520735, "longitude": -121.5382438, "elevation": 1790.0, "source": "osm", "_tags": {"ele": "1790", "name": "Guardian Peak", "natural": "peak", "note": "Location and elevation based on lidar. Other elevations available on the Internet are likely incorrect."}}, {"name": "Disillusion Peak", "latitude": 49.0512204, "longitude": -121.5444977, "elevation": 1986.0, "source": "osm", "_tags": {"ele": "1986", "name": "Disillusion Peak", "natural": "peak", "note": "Location and elevation based on lidar. Other elevations available on the Internet are likely incorrect."}}, {"name": "North Illusion Peaks", "latitude": 49.044835, "longitude": -121.54423, "elevation": 2083.0, "source": "osm", "_tags": {"ele": "2083", "name": "North Illusion Peaks", "natural": "peak", "note": "Location and elevation based on lidar. Other elevations available on the Internet are likely incorrect."}}, {"name": "South Illusion Peaks", "latitude": 49.0412958, "longitude": -121.5411476, "elevation": 2110.0, "source": "osm", "_tags": {"ele": "2110", "name": "South Illusion Peaks", "natural": "peak", "note": "Location and elevation based on lidar. Other elevations available on the Internet are likely incorrect."}}, {"name": "Rose Peak", "latitude": 49.2821885, "longitude": -122.1558705, "elevation": 1283.0, "source": "osm", "_tags": {"alt_name": "Rose NW3", "description": "Informally named peak.", "ele": "1283", "name": "Rose Peak", "natural": "peak"}}, {"name": "MacNab Peak", "latitude": 49.2403528, "longitude": -122.1810538, "elevation": 1217.0, "source": "osm", "_tags": {"alt_name": "Middle Miracle Mountain", "ele": "1217", "name": "MacNab Peak", "natural": "peak"}}, {"name": "Pattinson Peak", "latitude": 49.2196681, "longitude": -122.1782511, "elevation": 1103.0, "source": "osm", "_tags": {"alt_name": "Little Miracle Mountain", "ele": "1103", "name": "Pattinson Peak", "natural": "peak"}}, {"name": "Gregory Peak", "latitude": 49.2634133, "longitude": -122.172222, "elevation": 1355.0, "source": "osm", "_tags": {"alt_name": "Big Miracle Mountain", "ele": "1355", "name": "Gregory Peak", "natural": "peak"}}, {"name": "Station D Peak", "latitude": 49.0166161, "longitude": -121.5849262, "elevation": 2120.0, "source": "osm", "_tags": {"ele": "2120", "name": "Station D Peak", "natural": "peak"}}, {"name": "Sayres Mountain", "latitude": 49.3196554, "longitude": -122.3126503, "elevation": 394.0, "source": "osm", "_tags": {"ele": "394", "name": "Sayres Mountain", "natural": "peak"}}, {"name": "Mount Wahleach", "latitude": 49.1880612, "longitude": -121.6084369, "elevation": 1637.0, "source": "osm", "_tags": {"ele": "1637", "name": "Mount Wahleach", "natural": "peak"}}, {"name": "Peak 580", "latitude": 49.4192132, "longitude": -121.4567555, "elevation": 580.0, "source": "osm", "_tags": {"ele": "580", "name": "Peak 580", "natural": "peak", "note": "Placement and elevation derived from lidar"}}, {"name": "Kilby Hill", "latitude": 49.253245, "longitude": -121.9673611, "elevation": 391.0, "source": "osm", "_tags": {"ele": "391", "loc_name": "Kilby Hill", "name": "Kilby Hill", "natural": "peak"}}, {"name": "Landstrom Ridge", "latitude": 49.3816352, "longitude": -121.4667941, "elevation": 275.0, "source": "osm", "_tags": {"alt_name": "Crack Mountain", "ele": "275", "loc_name": "Devil's Bump", "name": "Landstrom Ridge", "natural": "peak"}}, {"name": "Sasquatch Peak", "latitude": 49.3579242, "longitude": -121.6664078, "elevation": 894.0, "source": "osm", "_tags": {"ele": "894", "name": "Sasquatch Peak", "natural": "peak"}}, {"name": "Mount Pierce", "latitude": 49.064215, "longitude": -121.6134939, "elevation": 1959.0, "source": "osm", "_tags": {"ele": "1959", "name": "Mount Pierce", "natural": "peak"}}, {"name": "Windy Knob", "latitude": 49.0385715, "longitude": -121.8756806, "elevation": 1691.0, "source": "osm", "_tags": {"ele": "1691", "name": "Windy Knob", "natural": "peak", "note": "Location and elevation were lidar derived."}}, {"name": "Old Baldy", "latitude": 49.0319986, "longitude": -121.8721636, "elevation": 1657.0, "source": "osm", "_tags": {"ele": "1657", "name": "Old Baldy", "natural": "peak", "note": "Location and elevation were lidar derived."}}, {"name": "", "latitude": 49.0272353, "longitude": -121.8675096, "elevation": 1724.0, "source": "osm", "_tags": {"ele": "1724", "natural": "peak", "note": "Location and elevation lidar derived."}}, {"name": "Batholith Peak", "latitude": 49.0204273, "longitude": -121.5194308, "elevation": 2112.0, "source": "osm", "_tags": {"ele": "2112", "name": "Batholith Peak", "natural": "peak"}}, {"name": "All Hallows Mountain", "latitude": 49.5702305, "longitude": -121.4422735, "elevation": 617.0, "source": "osm", "_tags": {"ele": "617", "name": "All Hallows Mountain", "natural": "peak", "note": "Placement and elevation is lidar derived. \n\nYale First Nations Final Agreement refers to this as \"All Hallows Mountain\" - pending formal entry into BC Geographical Names Database. Historical references also refer to it as \"Pointing Thumb Mountain\"."}}, {"name": "", "latitude": 49.4751491, "longitude": -121.9341334, "elevation": 1311.0, "source": "osm", "_tags": {"ele": "1311", "natural": "peak"}}, {"name": "", "latitude": 49.103445, "longitude": -121.6487196, "elevation": 464.0, "source": "osm", "_tags": {"ele": "464", "natural": "peak"}}, {"name": "", "latitude": 49.5274221, "longitude": -121.6770214, "elevation": 1698.0, "source": "osm", "_tags": {"ele": "1698", "natural": "peak"}}, {"name": "", "latitude": 49.3316999, "longitude": -122.3603199, "elevation": 1153.0, "source": "osm", "_tags": {"ele": "1153", "natural": "peak"}}, {"name": "", "latitude": 49.3297101, "longitude": -122.3631733, "elevation": 1129.0, "source": "osm", "_tags": {"ele": "1129", "natural": "peak"}}, {"name": "", "latitude": 49.3651829, "longitude": -122.3305036, "elevation": null, "source": "osm", "_tags": {"natural": "peak"}}]