[{"name": "Puig de Cervera", "latitude": 42.4352293, "longitude": 3.1707559, "elevation": 206.9, "source": "osm", "_tags": {"ele": "206.9", "name": "Puig de Cervera", "name:ca": "Puig de Cervera", "natural": "peak", "wikidata": "Q11943569"}}, {"name": "Puig de l'Àliga", "latitude": 42.4355419, "longitude": 3.1233781, "elevation": 527.5, "source": "osm", "_tags": {"ele": "527.5", "name": "Puig de l'Àliga", "name:ca": "Puig de l'Àliga", "natural": "peak", "wikidata": "Q17481208", "wikipedia": "ca:Llista de topònims de Portbou"}}, {"name": "Puig de Taravaus", "latitude": 42.4251065, "longitude": 3.0987331, "elevation": 699.0, "source": "osm", "_tags": {"ele": "699", "name": "Puig de Taravaus", "name:ca": "Puig de Taravaus", "natural": "peak", "source": "Instituto Geográfico Nacional", "source:date": "201011", "wikidata": "Q11943648", "wikipedia": "ca:Puig de Taravaus"}}, {"name": "La Torre Petita", "latitude": 42.4258439, "longitude": 3.085199, "elevation": 746.0, "source": "osm", "_tags": {"ele": "746", "name": "La Torre Petita", "name:ca": "la Torre Petita", "natural": "peak"}}, {"name": "Puig d'en Jordà", "latitude": 42.4277552, "longitude": 3.082045, "elevation": 754.2, "source": "osm", "_tags": {"ele": "754.2", "name": "Puig d'en Jordà", "name:ca": "Puig d'en Jordà", "natural": "peak", "prominence": "402", "source:prominence": "ICGC map. Key col: Coll de Banyuls 352m", "wikidata": "Q11943529", "wikipedia": "ca:Puig d'en Jordà"}}, {"name": "Puig de les Guilles", "latitude": 42.4312167, "longitude": 3.0778119, "elevation": 684.5, "source": "osm", "_tags": {"ele": "684.5", "name": "Puig de les Guilles", "name:ca": "Puig de les Guilles", "natural": "peak"}}, {"name": "Puig del Torn", "latitude": 42.435379, "longitude": 3.076523, "elevation": 663.3, "source": "osm", "_tags": {"ele": "663.3", "name": "Puig del Torn", "name:ca": "Puig del Torn", "natural": "peak", "wikidata": "Q11943785", "wikipedia": "ca:Puig del Torn (Banyuls de la Marenda)"}}, {"name": "Pic dels Quatre Termes", "latitude": 42.4731692, "longitude": 2.9981746, "elevation": 1157.5, "source": "osm", "_tags": {"description": "Borne en granit gravée IGN - Point vu en place en 1960", "ele": "1157.5", "man_made": "survey_point", "name": "Pic dels Quatre Termes", "name:ca": "Pic dels Quatre Termes", "name:fr": "Pic des Quatre Termes", "natural": "peak", "note": "Ne pas déplacer ce point, cf. - Do not move this node, see - http://wiki.openstreetmap.org/wiki/WikiProject_France/Repères_Géodésiques#Permanence_des_rep.C3.A8res", "ref": "6619602 - 1", "source": "©IGN 2010 dans le cadre de la cartographie réglementaire", "summit:cross": "no", "summit:register": "no", "url": "http://geodesie.ign.fr/fiches/index.php?module=e&action=fichepdf&source=carte&sit_no=6619602"}}, {"name": "Ses Falugues", "latitude": 41.9316218, "longitude": 3.2102701, "elevation": 176.3, "source": "osm", "_tags": {"ele": "176.3", "name": "Ses Falugues", "natural": "peak", "wikidata": "Q121009668", "wikipedia": "ca:Ses Falugues"}}, {"name": "Madeloc", "latitude": 42.4902112, "longitude": 3.0749037, "elevation": 670.0, "source": "osm", "_tags": {"ele": "670", "name": "Madeloc", "name:ca": "Madeloc", "natural": "peak", "prominence": "248", "source": "cadastre-dgi-fr source : Direction Générale des Impôts - Cadastre. Mise à jour : 2010", "source:prominence": "CNIG map. Key col: Coll de Valloria 422m"}}, {"name": "Puig de Miraviles", "latitude": 41.9325488, "longitude": 3.0592023, "elevation": 224.1, "source": "osm", "_tags": {"ele": "224.1", "name": "Puig de Miraviles", "natural": "peak", "source": "Instituto Geográfico Nacional", "source:date": "201011"}}, {"name": "Puig Gros", "latitude": 41.9076536, "longitude": 3.1203851, "elevation": 244.9, "source": "osm", "_tags": {"ele": "244.9", "name": "Puig Gros", "name:ca": "Puig Gros", "natural": "peak", "source": "Instituto Geográfico Nacional", "source:date": "201011", "wikidata": "Q11943395", "wikipedia": "ca:Puig Gros d'en Torroella"}}, {"name": "Puig Blanquet", "latitude": 41.8767708, "longitude": 3.0461996, "elevation": 214.8, "source": "osm", "_tags": {"ele": "214.8", "name": "Puig Blanquet", "name:ca": "Puig Blanquet", "natural": "peak", "source": "Instituto Geográfico Nacional", "source:date": "201011", "wikidata": "Q11943337", "wikipedia": "ca:Puig Blanquet"}}, {"name": "Puig del Monjo", "latitude": 41.8408322, "longitude": 3.035408, "elevation": 244.4, "source": "osm", "_tags": {"ele": "244.4", "name": "Puig del Monjo", "name:ca": "Puig del Monjo", "natural": "peak", "wikidata": "Q17482699", "wikipedia": "ca:Puig del Monjo"}}, {"name": "Puig de les Forques", "latitude": 41.9327749, "longitude": 3.0538795, "elevation": 201.7, "source": "osm", "_tags": {"ele": "201.7", "name": "Puig de les Forques", "name:ca": "Puig de Forques", "natural": "peak", "source": "Instituto Geográfico Nacional", "source:date": "201011", "wikidata": "Q11943581", "wikipedia": "ca:Puig de Forques"}}, {"name": "Puig d' en Ribot", "latitude": 41.8954359, "longitude": 3.0961876, "elevation": 325.3, "source": "osm", "_tags": {"ele": "325.3", "name": "Puig d' en Ribot", "name:ca": "Puig d'en Ribot", "natural": "peak", "source": "Instituto Geográfico Nacional", "source:date": "201011", "wikidata": "Q17483276", "wikipedia": "ca:Puig d'en Ribot"}}, {"name": "Puig Moliner", "latitude": 41.8609818, "longitude": 3.0072634, "elevation": 215.0, "source": "osm", "_tags": {"ele": "215", "name": "Puig Moliner", "name:ca": "Puig Moliner", "natural": "peak"}}, {"name": "Puig Rosell", "latitude": 41.8734307, "longitude": 3.0700713, "elevation": 90.0, "source": "osm", "_tags": {"ele": "90", "name": "Puig Rosell", "natural": "peak", "source": "Instituto Geográfico Nacional", "source:date": "201011"}}, {"name": "Puig de Porreres", "latitude": 41.8861597, "longitude": 3.0581091, "elevation": 181.3, "source": "osm", "_tags": {"ele": "181.3", "name": "Puig de Porreres", "name:ca": "Puig de Porreres", "natural": "peak", "source": "Instituto Geográfico Nacional", "source:date": "201011", "wikidata": "Q17483066", "wikipedia": "ca:Puig de Porreres"}}, {"name": "Puig Gros", "latitude": 41.9342648, "longitude": 3.0720904, "elevation": 189.1, "source": "osm", "_tags": {"ele": "189.1", "name": "Puig Gros", "name:ca": "Puig Gros", "natural": "peak", "source": "Instituto Geográfico Nacional", "source:date": "201011"}}, {"name": "Puig de la Cendrosa", "latitude": 41.8901497, "longitude": 3.0870365, "elevation": 333.0, "source": "osm", "_tags": {"ele": "333", "name": "Puig de la Cendrosa", "name:ca": "Puig de la Cendrosa", "natural": "peak", "source": "Instituto Geográfico Nacional", "source:date": "201011", "wikidata": "Q17481654", "wikipedia": "ca:Puig de la Cendrosa"}}, {"name": "Puig del Roquet", "latitude": 41.8675478, "longitude": 2.9824558, "elevation": 430.8, "source": "osm", "_tags": {"ele": "430.8", "name": "Puig del Roquet", "name:ca": "Puig del Roquet", "natural": "peak", "source": "Instituto Geográfico Nacional", "source:date": "201011"}}, {"name": "Puig de Sois", "latitude": 41.8974955, "longitude": 3.131155, "elevation": 153.4, "source": "osm", "_tags": {"ele": "153.4", "name": "Puig de Sois", "natural": "peak", "source": "Instituto Geográfico Nacional", "source:date": "201011"}}, {"name": "Puig Navic", "latitude": 41.9187558, "longitude": 3.1049391, "elevation": 283.2, "source": "osm", "_tags": {"ele": "283.2", "name": "Puig Navic", "name:ca": "Puig de Navic", "natural": "peak", "source": "Instituto Geográfico Nacional", "source:date": "201011", "wikidata": "Q17482858", "wikipedia": "ca:Puig de Navic"}}, {"name": "Puig d'en Gotes", "latitude": 41.889377, "longitude": 3.1324941, "elevation": 108.4, "source": "osm", "_tags": {"ele": "108.4", "name": "Puig d'en Gotes", "name:ca": "Puig d'en Gotes", "natural": "peak", "source": "Instituto Geográfico Nacional", "source:date": "201011", "wikidata": "Q17482111", "wikipedia": "ca:Puig d'en Gotes"}}, {"name": "Puig de la Batería", "latitude": 41.8988193, "longitude": 3.0579866, "elevation": 258.7, "source": "osm", "_tags": {"ele": "258.7", "name": "Puig de la Batería", "name:ca": "Puig de la Bateria", "natural": "peak", "source": "Instituto Geográfico Nacional", "source:date": "201011", "wikidata": "Q17481328", "wikipedia": "ca:Puig de la Bateria"}}, {"name": "Puig de la Sardina", "latitude": 42.2801381, "longitude": 3.2092455, "elevation": 436.0, "source": "osm", "_tags": {"ele": "436", "name": "Puig de la Sardina", "name:ca": "Puig de la Sardina", "natural": "peak", "source": "Instituto Geográfico Nacional", "source:date": "201011"}}, {"name": "Puig Cabrer", "latitude": 41.8669598, "longitude": 3.096397, "elevation": 114.9, "source": "osm", "_tags": {"ele": "114.9", "name": "Puig Cabrer", "name:ca": "Puig Cabrer", "natural": "peak", "source": "Instituto Geográfico Nacional", "source:date": "201011", "wikidata": "Q17301201", "wikipedia": "ca:Puig Cabrer"}}, {"name": "Puig Ros", "latitude": 41.9356681, "longitude": 3.0687185, "elevation": 181.5, "source": "osm", "_tags": {"ele": "181.5", "name": "Puig Ros", "name:ca": "Puig Ros", "natural": "peak", "source": "Instituto Geográfico Nacional", "source:date": "201011", "wikidata": "Q11943446", "wikipedia": "ca:Puig Ros (Forallac)"}}, {"name": "Puig Ventós d'Anyells", "latitude": 41.9922832, "longitude": 2.9958421, "elevation": 128.7, "source": "osm", "_tags": {"ele": "128.7", "name": "Puig Ventós d'Anyells", "name:ca": "Puig Ventós d'Anyells", "natural": "peak"}}, {"name": "Puig dels Daus", "latitude": 41.8818345, "longitude": 3.0732643, "elevation": 137.0, "source": "osm", "_tags": {"ele": "137", "name": "Puig dels Daus", "name:ca": "Puig dels Daus", "natural": "peak", "source": "Instituto Geográfico Nacional", "source:date": "201011", "wikidata": "Q17481865", "wikipedia": "ca:Puig dels Daus"}}, {"name": "Puig Parany", "latitude": 41.8365972, "longitude": 3.0306354, "elevation": 309.7, "source": "osm", "_tags": {"ele": "309.7", "name": "Puig Parany", "name:ca": "Puig Parany", "natural": "peak"}}, {"name": "Puig del Duc", "latitude": 41.9422796, "longitude": 2.981021, "elevation": 135.4, "source": "osm", "_tags": {"ele": "135.4", "name": "Puig del Duc", "name:ca": "Puig del Duc", "natural": "peak", "source": "Instituto Geográfico Nacional", "source:date": "201011"}}, {"name": "Puig Agudell", "latitude": 41.893922, "longitude": 3.1272607, "elevation": 195.7, "source": "osm", "_tags": {"ele": "195.7", "name": "Puig Agudell", "name:ca": "Puig Agudell", "natural": "peak", "source": "Instituto Geográfico Nacional", "source:date": "201011", "wikidata": "Q11943326", "wikipedia": "ca:Puig Agudell"}}, {"name": "Puig Maruny", "latitude": 41.8820613, "longitude": 3.1323064, "elevation": 46.5, "source": "osm", "_tags": {"ele": "46.5", "name": "Puig Maruny", "name:ca": "Puig Maruny", "natural": "peak"}}, {"name": "Puig de la Bandera", "latitude": 41.9325077, "longitude": 3.1245423, "elevation": 162.9, "source": "osm", "_tags": {"ele": "162.9", "name": "Puig de la Bandera", "name:ca": "Puig de la Bandera", "natural": "peak", "source": "Instituto Geográfico Nacional", "source:date": "201011", "wikidata": "Q11943667", "wikipedia": "ca:Puig de la Bandera"}}, {"name": "Puig Ferrer", "latitude": 41.9267455, "longitude": 3.0760543, "elevation": 244.9, "source": "osm", "_tags": {"ele": "244.9", "name": "Puig Ferrer", "name:ca": "Puig Ferrer", "natural": "peak", "source": "Instituto Geográfico Nacional", "source:date": "201011", "wikidata": "Q17481996", "wikipedia": "ca:Puig Ferrer (Forallac)"}}, {"name": "Puig d'en Boix", "latitude": 41.8810596, "longitude": 3.1154323, "elevation": 149.3, "source": "osm", "_tags": {"ele": "149.3", "name": "Puig d'en Boix", "name:ca": "Puig d'en Boix", "natural": "peak", "source": "Instituto Geográfico Nacional", "source:date": "201011", "wikidata": "Q11943508", "wikipedia": "ca:Puig d'en Boix"}}, {"name": "Puig del Veguer", "latitude": 41.8817561, "longitude": 3.0644734, "elevation": 134.0, "source": "osm", "_tags": {"ele": "134", "name": "Puig del Veguer", "name:ca": "Puig del Veguer", "natural": "peak", "source": "Instituto Geográfico Nacional", "source:date": "201011"}}, {"name": "Puig d'en Xifre", "latitude": 41.8631997, "longitude": 3.1164445, "elevation": 91.2, "source": "osm", "_tags": {"ele": "91.2", "name": "Puig d'en Xifre", "name:ca": "Puig d'en Xifre", "natural": "peak", "source": "Instituto Geográfico Nacional", "source:date": "201011"}}, {"name": "Puig Rodó", "latitude": 41.8421976, "longitude": 3.0238333, "elevation": 290.8, "source": "osm", "_tags": {"ele": "290.8", "name": "Puig Rodó", "name:ca": "Puig Rodó", "natural": "peak", "wikidata": "Q11943438", "wikipedia": "ca:Puig Rodó (Santa Cristina d'Aro)"}}, {"name": "Puig de la Creu de Castellar", "latitude": 41.865297, "longitude": 3.0606304, "elevation": 205.8, "source": "osm", "_tags": {"ele": "205.8", "name": "Puig de la Creu de Castellar", "name:ca": "Puig de la Creu de Castellar", "natural": "peak", "source": "Instituto Geográfico Nacional", "source:date": "201011"}}, {"name": "Puig de la Sesta", "latitude": 41.9753308, "longitude": 3.0078669, "elevation": null, "source": "osm", "_tags": {"name": "Puig de la Sesta", "name:ca": "Puig de la Sesta", "natural": "peak", "source": "Instituto Geográfico Nacional", "source:date": "201011"}}, {"name": "Puig d'en Calç", "latitude": 41.9182947, "longitude": 3.0794953, "elevation": 314.0, "source": "osm", "_tags": {"ele": "314.0", "name": "Puig d'en Calç", "name:ca": "Puig d'en Calç", "natural": "peak", "source": "Instituto Geográfico Nacional", "source:date": "201011", "wikidata": "Q11943512", "wikipedia": "ca:Puig d'en Calç"}}, {"name": "Turó de Pardells", "latitude": 42.3794852, "longitude": 3.0404974, "elevation": 117.8, "source": "osm", "_tags": {"ele": "117.8", "name": "Turó de Pardells", "name:ca": "Turó de Pardells", "natural": "peak"}}, {"name": "Puig Blanc", "latitude": 41.899488, "longitude": 3.1119129, "elevation": 255.7, "source": "osm", "_tags": {"ele": "255.7", "name": "Puig Blanc", "name:ca": "Puig Blanc", "natural": "peak", "source": "Instituto Geográfico Nacional", "source:date": "201011", "wikidata": "Q11943333", "wikipedia": "ca:Puig Blanc (Forallac)"}}, {"name": "Puig de l'Avellana", "latitude": 41.9390654, "longitude": 2.9867226, "elevation": 143.8, "source": "osm", "_tags": {"ele": "143.8", "name": "Puig de l'Avellana", "name:ca": "Puig de l'Avellana", "natural": "peak", "source": "Instituto Geográfico Nacional", "source:date": "201011", "wikidata": "Q17481281", "wikipedia": "ca:Puig de l'Avellana"}}, {"name": "Puig d'en Perals", "latitude": 41.869215, "longitude": 3.1323152, "elevation": 66.32, "source": "osm", "_tags": {"ele": "66.32", "name": "Puig d'en Perals", "name:ca": "Puig d'en Perals", "natural": "peak"}}, {"name": "Puig de la Palma", "latitude": 42.085852, "longitude": 3.1677593, "elevation": 149.0, "source": "osm", "_tags": {"ele": "149", "name": "Puig de la Palma", "name:ca": "Puig de la Palma", "natural": "peak", "source": "Instituto Geográfico Nacional", "source:date": "201011", "wikidata": "Q11943700", "wikipedia": "ca:Puig de la Palma"}}, {"name": "Puig d'en Mallola", "latitude": 42.1079518, "longitude": 3.0036386, "elevation": null, "source": "osm", "_tags": {"alt_name": "Puig d'en Mallol", "alt_name:ca": "Puig d'en Mallol", "name": "Puig d'en Mallola", "name:ca": "Puig d'en Mallola", "natural": "peak", "source": "Instituto Geográfico Nacional", "source:date": "201011", "wikidata": "Q11943532", "wikipedia": "ca:Puig d'en Mallol"}}, {"name": "Puig de la Mala Veïna", "latitude": 42.3310293, "longitude": 3.0365622, "elevation": 100.2, "source": "osm", "_tags": {"ele": "100.2", "name": "Puig de la Mala Veïna", "name:ca": "Puig de la Mala Veïna", "natural": "peak", "wikidata": "Q17482434", "wikipedia": "ca:Puig de la Mala Veïna"}}, {"name": "Puig d'en Vidal", "latitude": 41.9162507, "longitude": 3.1072161, "elevation": 291.5, "source": "osm", "_tags": {"ele": "291.5", "name": "Puig d'en Vidal", "name:ca": "Puig d'en Vidal", "natural": "peak"}}, {"name": "Puig Grosser", "latitude": 42.450018, "longitude": 2.9883297, "elevation": null, "source": "osm", "_tags": {"name": "Puig Grosser", "name:ca": "Puig Grosser", "natural": "peak", "source": "Instituto Geográfico Nacional", "source:date": "201011", "wikidata": "Q11943397", "wikipedia": "ca:Puig Grosser"}}, {"name": "Puig de la Carbassera", "latitude": 42.4663819, "longitude": 3.0130681, "elevation": null, "source": "osm", "_tags": {"name": "Puig de la Carbassera", "name:ca": "Puig de la Carbassera", "natural": "peak", "wikidata": "Q17481559", "wikipedia": "ca:Puig de la Carbassera"}}, {"name": "Puig de la Granja", "latitude": 42.335092, "longitude": 3.1543064, "elevation": 510.9, "source": "osm", "_tags": {"ele": "510.9", "name": "Puig de la Granja", "name:ca": "Puig de la Granja", "natural": "peak"}}, {"name": "Puig Gruí", "latitude": 41.9150873, "longitude": 3.2017961, "elevation": 164.2, "source": "osm", "_tags": {"ele": "164.2", "name": "Puig Gruí", "name:ca": "Puig Gruí", "natural": "peak", "source": "Instituto Geográfico Nacional", "source:date": "201011", "wikidata": "Q17482172", "wikipedia": "ca:Puig Gruí"}}, {"name": "Puig Gallifa", "latitude": 41.8869542, "longitude": 3.1582114, "elevation": 90.9, "source": "osm", "_tags": {"alt_name": "Puig de Gallifa", "alt_name:ca": "Puig de Gallifa", "ele": "90.9", "name": "Puig Gallifa", "name:ca": "Puig Gallifa", "natural": "peak", "source": "Instituto Geográfico Nacional", "source:date": "201011", "wikidata": "Q11943587", "wikipedia": "ca:Puig de Gallifa"}}, {"name": "Montori de Rupià", "latitude": 42.0288033, "longitude": 3.0055786, "elevation": null, "source": "osm", "_tags": {"name": "Montori de Rupià", "name:ca": "Montori de Rupià", "natural": "peak", "source": "Instituto Geográfico Nacional", "source:date": "201011", "wikidata": "Q17482763", "wikipedia": "ca:Montori de Rupià"}}, {"name": "Puig de les Teules", "latitude": 41.8257284, "longitude": 3.0122901, "elevation": 272.7, "source": "osm", "_tags": {"ele": "272.7", "name": "Puig de les Teules", "name:ca": "Puig de les Teules", "natural": "peak", "source": "Instituto Geográfico Nacional", "source:date": "201011", "wikidata": "Q11943741", "wikipedia": "ca:Puig de les Teules"}}, {"name": "Puig Cornell", "latitude": 41.9965568, "longitude": 3.0226713, "elevation": null, "source": "osm", "_tags": {"name": "Puig Cornell", "name:ca": "Puig Cornell", "natural": "peak", "source": "Instituto Geográfico Nacional", "source:date": "201011", "wikidata": "Q11943361", "wikipedia": "ca:Puig Cornell"}}, {"name": "Montcal", "latitude": 41.9368942, "longitude": 3.2023092, "elevation": 233.0, "source": "osm", "_tags": {"ele": "233", "name": "Montcal", "name:ca": "Montcal", "natural": "peak", "source": "Instituto Geográfico Nacional", "source:date": "201011", "wikidata": "Q17482723", "wikipedia": "ca:Montcal (Begur)"}}, {"name": "Roca de l'Àliga", "latitude": 42.3256334, "longitude": 3.1146987, "elevation": 233.2, "source": "osm", "_tags": {"ele": "233.2", "name": "Roca de l'Àliga", "name:ca": "Roca de l'Àliga", "natural": "peak", "wikidata": "Q11946006", "wikipedia": "ca:Roca de l'Àliga (Pau)"}}, {"name": "Puig Vilar", "latitude": 42.011929, "longitude": 3.0976162, "elevation": null, "source": "osm", "_tags": {"name": "Puig Vilar", "name:ca": "Puig Vilar", "natural": "peak", "source": "Instituto Geográfico Nacional", "source:date": "201011", "wikidata": "Q17483851", "wikipedia": "ca:Puig Vilar"}}, {"name": "Puig Sesforques", "latitude": 41.9018581, "longitude": 3.1545242, "elevation": 67.2, "source": "osm", "_tags": {"ele": "67.2", "name": "Puig Sesforques", "natural": "peak", "source": "Instituto Geográfico Nacional", "source:date": "201011"}}, {"name": "Puig de l'Àliga", "latitude": 42.2805003, "longitude": 3.2049718, "elevation": 463.4, "source": "osm", "_tags": {"ele": "463.4", "name": "Puig de l'Àliga", "name:ca": "Puig de l'Àliga", "natural": "peak", "source": "Instituto Geográfico Nacional", "source:date": "201011", "summit:cross": "yes", "summit:register": "yes", "wikidata": "Q17481209", "wikipedia": "ca:Puig de l'Àliga (Roses)"}}, {"name": "Puig Cargol", "latitude": 41.8877997, "longitude": 3.0914216, "elevation": 363.0, "source": "osm", "_tags": {"ele": "363", "name": "Puig Cargol", "name:ca": "Puig Cargol", "natural": "peak", "source": "Instituto Geográfico Nacional", "source:date": "201011", "wikidata": "Q11943341", "wikipedia": "ca:Puig Cargol (Calonge)"}}, {"name": "la Carbonera", "latitude": 42.3434224, "longitude": 3.2060504, "elevation": 120.8, "source": "osm", "_tags": {"ele": "120.8", "name": "la Carbonera", "name:ca": "la Carbonera", "natural": "peak", "source": "Instituto Geográfico Nacional", "source:date": "201011"}}, {"name": "Puig del Gall", "latitude": 42.2494157, "longitude": 3.2161243, "elevation": 253.0, "source": "osm", "_tags": {"ele": "253", "name": "Puig del Gall", "name:ca": "Puig del Gall", "natural": "peak", "source": "Instituto Geográfico Nacional", "source:date": "201011", "wikidata": "Q17482068", "wikipedia": "ca:Puig del Gall"}}, {"name": "Puig de Cal Carrony", "latitude": 41.9131452, "longitude": 3.1084332, "elevation": 299.7, "source": "osm", "_tags": {"ele": "299.7", "name": "Puig de Cal Carrony", "name:ca": "Puig de Cal Carrony", "natural": "peak", "source": "Instituto Geográfico Nacional", "source:date": "201011", "wikidata": "Q11943561", "wikipedia": "ca:Puig de Cal Carrony"}}, {"name": "Muntanya de Siurana", "latitude": 42.1245165, "longitude": 3.040782, "elevation": null, "source": "osm", "_tags": {"name": "Muntanya de Siurana", "name:ca": "Muntanya de Siurana", "natural": "peak", "source": "Instituto Geográfico Nacional", "source:date": "201011", "wikidata": "Q17483609", "wikipedia": "ca:Muntanya de Siurana"}}, {"name": "Puig d'en Pitxolí", "latitude": 41.829209, "longitude": 3.0769477, "elevation": 111.6, "source": "osm", "_tags": {"ele": "111.6", "name": "Puig d'en Pitxolí", "name:ca": "Puig d'en Pitxolí", "natural": "peak", "source": "Instituto Geográfico Nacional", "source:date": "201011"}}, {"name": "Puig Miquel", "latitude": 41.9001577, "longitude": 3.0123641, "elevation": 355.9, "source": "osm", "_tags": {"ele": "355.9", "name": "Puig Miquel", "name:ca": "Puig Miquel", "natural": "peak", "source": "Instituto Geográfico Nacional", "source:date": "201011", "wikidata": "Q17482594", "wikipedia": "ca:Puig Miquel"}}, {"name": "Puig Segalar", "latitude": 42.1125143, "longitude": 3.0499279, "elevation": 177.0, "source": "osm", "_tags": {"ele": "177", "name": "Puig Segalar", "name:ca": "Puig Segalar", "natural": "peak", "wikidata": "Q11943459", "wikipedia": "ca:Puig Segalar (Albons)"}}, {"name": "Puig del Mig", "latitude": 42.4454345, "longitude": 2.9804953, "elevation": 734.8, "source": "osm", "_tags": {"ele": "734.8", "name": "Puig del Mig", "name:ca": "Puig del Mig", "natural": "peak", "source": "Institut Cartogràfic de Catalunya", "wikidata": "Q17482554", "wikipedia": "ca:Puig del Mig"}}, {"name": "Puig de las Dainas", "latitude": 42.5062837, "longitude": 3.0818269, "elevation": 333.0, "source": "osm", "_tags": {"ele": "333", "name": "Puig de las Dainas", "natural": "peak"}}, {"name": "Puig Palet", "latitude": 41.8438006, "longitude": 3.0803726, "elevation": null, "source": "osm", "_tags": {"name": "Puig Palet", "name:ca": "Puig Palet", "natural": "peak"}}, {"name": "Puig de Castellbarri", "latitude": 41.8551781, "longitude": 3.0468085, "elevation": 273.0, "source": "osm", "_tags": {"ele": "273", "name": "Puig de Castellbarri", "natural": "peak"}}, {"name": "Puig del Molí de Vent", "latitude": 41.8729959, "longitude": 3.0718096, "elevation": 61.0, "source": "osm", "_tags": {"ele": "61", "name": "Puig del Molí de Vent", "name:ca": "Puig del Molí de Vent", "natural": "peak", "wikidata": "Q17482683", "wikipedia": "ca:Puig del Molí de Vent (Calonge)"}}, {"name": "Puig de la Gavarra", "latitude": 41.8888242, "longitude": 2.9943529, "elevation": 532.7, "source": "osm", "_tags": {"ele": "532.7", "loc_name": "Puig de la Gavarra", "name": "Puig de la Gavarra", "name:ca": "Puig de la Gavarra", "natural": "peak"}}, {"name": "Puig Monturiol", "latitude": 41.9282546, "longitude": 3.1203758, "elevation": 176.2, "source": "osm", "_tags": {"ele": "176.2", "name": "Puig Monturiol", "name:ca": "Puig Monturiol", "natural": "peak"}}, {"name": "Puig de Cucala", "latitude": 41.904583, "longitude": 3.1369655, "elevation": 194.8, "source": "osm", "_tags": {"ele": "194.8", "name": "Puig de Cucala", "name:ca": "Puig de Cucala", "natural": "peak", "wikidata": "Q11943578", "wikipedia": "ca:Puig de Cucala"}}, {"name": "Puig d'Esquers", "latitude": 42.3926466, "longitude": 3.096457, "elevation": 605.0, "source": "osm", "_tags": {"ele": "605", "name": "Puig d'Esquers", "name:ca": "Puig d'Esquers", "natural": "peak", "wikidata": "Q17481953", "wikipedia": "ca:Puig d'Esquers"}}, {"name": "Puig de Rambols", "latitude": 41.9211114, "longitude": 3.0578965, "elevation": 242.0, "source": "osm", "_tags": {"ele": "242.0", "name": "Puig de Rambols", "name:ca": "Puig de Rambols", "natural": "peak", "wikidata": "Q17483246", "wikipedia": "ca:Puig de Rambols"}}, {"name": "Puig de la Trona", "latitude": 41.9198828, "longitude": 3.2120761, "elevation": 101.5, "source": "osm", "_tags": {"ele": "101.5", "name": "Puig de la Trona", "name:ca": "Puig de la Trona", "natural": "peak"}}, {"name": "Puig del Piverd", "latitude": 41.9233117, "longitude": 3.1753011, "elevation": 97.4, "source": "osm", "_tags": {"ele": "97.4", "name": "Puig del Piverd", "name:ca": "Puig del Piverd", "natural": "peak"}}, {"name": "Puig d'en Ponç", "latitude": 41.9156246, "longitude": 3.1764943, "elevation": 79.0, "source": "osm", "_tags": {"ele": "79.0", "name": "Puig d'en Ponç", "name:ca": "Puig d'en Ponç", "natural": "peak", "wikidata": "Q11943541", "wikipedia": "ca:Puig d'en Ponç (Palafrugell)"}}, {"name": "Puig del Cap de Gall", "latitude": 41.9170119, "longitude": 3.1843419, "elevation": 101.0, "source": "osm", "_tags": {"ele": "101", "name": "Puig del Cap de Gall", "name:ca": "Puig del Cap de Gall", "natural": "peak"}}, {"name": "Puig-rodon", "latitude": 41.9042193, "longitude": 3.1776557, "elevation": 63.2, "source": "osm", "_tags": {"ele": "63.2", "name": "Puig-rodon", "name:ca": "Puig-rodon", "natural": "peak"}}, {"name": "Puig sa Guàrdia", "latitude": 41.8999293, "longitude": 3.2027672, "elevation": 171.3, "source": "osm", "_tags": {"ele": "171.3", "name": "Puig sa Guàrdia", "name:ca": "Puig de sa Guàrdia", "natural": "peak", "wikidata": "Q17483428", "wikipedia": "ca:Puig de sa Guàrdia"}}, {"name": "Puig de les Pasteres", "latitude": 41.8995877, "longitude": 3.2000807, "elevation": 157.4, "source": "osm", "_tags": {"ele": "157.4", "name": "Puig de les Pasteres", "name:ca": "Puig de les Pasteres", "natural": "peak", "wikidata": "Q11943738", "wikipedia": "ca:Puig de les Pasteres"}}, {"name": "Puig de la Guardiola", "latitude": 41.8865919, "longitude": 3.1772386, "elevation": 98.5, "source": "osm", "_tags": {"ele": "98.5", "name": "Puig de la Guardiola", "name:ca": "Puig de Guardiola", "natural": "peak", "wikidata": "Q17482197", "wikipedia": "ca:Puig de Guardiola (Palafrugell)"}}, {"name": "la Creu de les Palomeres", "latitude": 42.3186663, "longitude": 3.1684354, "elevation": 669.5, "source": "osm", "_tags": {"ele": "669.5", "name": "la Creu de les Palomeres", "natural": "peak", "source": "Institut Cartogràfic i Geològic de Catalunya"}}, {"name": "el Pení", "latitude": 42.2813997, "longitude": 3.2432039, "elevation": 607.7, "source": "osm", "_tags": {"ele": "607.7", "name": "el Pení", "name:ca": "el Pení", "natural": "peak", "prominence": "323", "source:prominence": "ICGC map. Key col: 285m", "wikidata": "Q11940847", "wikipedia": "ca:Pení"}}, {"name": "Puig de Pradets", "latitude": 42.4740207, "longitude": 2.9896863, "elevation": 1175.5, "source": "osm", "_tags": {"ele": "1175.5", "name": "Puig de Pradets", "name:ca": "Puig de Pradets", "natural": "peak", "prominence": "203", "source:prominence": "ICGC map. Key col: Coll de l’Orri 973m", "wikidata": "Q11943614", "wikipedia": "ca:Puig de Pradets"}}, {"name": "Massane", "latitude": 42.4981371, "longitude": 3.0263412, "elevation": 793.0, "source": "osm", "_tags": {"ele": "793", "name": "Massane", "name:ca": "Maçana", "natural": "peak"}}, {"name": "Puig de les Muralles", "latitude": 42.2562012, "longitude": 3.1894443, "elevation": 187.0, "source": "osm", "_tags": {"ele": "187", "name": "Puig de les Muralles", "name:ca": "Puig de les Muralles", "natural": "peak"}}, {"name": "Alt de s'Illa", "latitude": 41.8626566, "longitude": 3.1859727, "elevation": 8.9, "source": "osm", "_tags": {"addr:city": "Palamós", "ele": "8.9", "name": "Alt de s'Illa", "natural": "peak"}}, {"name": "Muntanya del Montgrí", "latitude": 42.0520907, "longitude": 3.1316319, "elevation": 303.0, "source": "osm", "_tags": {"alt_name": "Muntanya de Santa Caterina", "ele": "303.0", "name": "Muntanya del Montgrí", "name:ca": "Muntanya del Montgrí", "natural": "peak", "source": "Institut Cartogràfic i Geològic de Catalunya", "wikidata": "Q11937456", "wikipedia": "ca:Montgrí"}}, {"name": "la Roca Blanca", "latitude": 41.8750391, "longitude": 3.1101556, "elevation": 166.2, "source": "osm", "_tags": {"alt_name": "Puig Arbucies", "ele": "166.2", "name": "la Roca Blanca", "name:ca": "la Roca Blanca", "natural": "peak"}}, {"name": "", "latitude": 42.3023083, "longitude": 3.1791855, "elevation": 514.9, "source": "osm", "_tags": {"ele": "514.9", "natural": "peak"}}, {"name": "Puigsaquera", "latitude": 42.3001032, "longitude": 3.1796598, "elevation": 471.0, "source": "osm", "_tags": {"ele": "471", "name": "Puigsaquera", "name:ca": "Puigsaquera", "natural": "peak"}}, {"name": "Puig Alt", "latitude": 42.2714799, "longitude": 3.2269116, "elevation": 488.0, "source": "osm", "_tags": {"ele": "488", "name": "Puig Alt", "name:ca": "Puig Alt", "natural": "peak", "source": "Instituto Geográfico Nacional", "source:date": "201011", "wikidata": "Q17481228", "wikipedia": "ca:Puig Alt (Roses)"}}, {"name": "Puig de Can Vilar", "latitude": 41.8441594, "longitude": 3.0760785, "elevation": 142.0, "source": "osm", "_tags": {"ele": "142", "name": "Puig de Can Vilar", "name:ca": "Puig de Can Vilar", "natural": "peak", "wikidata": "Q11943566", "wikipedia": "ca:Puig de Can Vilar"}}, {"name": "Puig de la Murtra", "latitude": 41.9339754, "longitude": 3.1161354, "elevation": 242.6, "source": "osm", "_tags": {"ele": "242.6", "name": "Puig de la Murtra", "natural": "peak"}}, {"name": "", "latitude": 42.041234, "longitude": 3.2268141, "elevation": 12.6, "source": "osm", "_tags": {"ele": "12.6", "natural": "peak"}}, {"name": "", "latitude": 42.0417722, "longitude": 3.2283139, "elevation": 70.1, "source": "osm", "_tags": {"ele": "70.1", "natural": "peak"}}, {"name": "", "latitude": 42.0419205, "longitude": 3.2272111, "elevation": 39.8, "source": "osm", "_tags": {"ele": "39.8", "natural": "peak"}}, {"name": "", "latitude": 42.0423258, "longitude": 3.2256531, "elevation": 6.7, "source": "osm", "_tags": {"ele": "6.7", "natural": "peak"}}, {"name": "", "latitude": 42.0437316, "longitude": 3.2254593, "elevation": 67.2, "source": "osm", "_tags": {"ele": "67.2", "natural": "peak"}}, {"name": "", "latitude": 42.0478467, "longitude": 3.2217015, "elevation": 73.9, "source": "osm", "_tags": {"ele": "73.9", "natural": "peak", "source": "Institut Cartogràfic i Geològic de Catalunya"}}, {"name": "", "latitude": 42.0517616, "longitude": 3.2217854, "elevation": 24.5, "source": "osm", "_tags": {"ele": "24.5", "natural": "peak"}}, {"name": "", "latitude": 42.0502353, "longitude": 3.2246075, "elevation": 0.4, "source": "osm", "_tags": {"ele": "0.4", "natural": "peak"}}, {"name": "", "latitude": 42.4132461, "longitude": 3.0747584, "elevation": 578.4, "source": "osm", "_tags": {"ele": "578.4", "natural": "peak"}}, {"name": "Puig Rom", "latitude": 42.2501135, "longitude": 3.1893235, "elevation": 225.1, "source": "osm", "_tags": {"ele": "225.1", "name": "Puig Rom", "name:ca": "Puig Rom", "natural": "peak", "wikidata": "Q17483394", "wikipedia": "ca:Puig Rom"}}, {"name": "Puig Rodó d'Aiguafreda", "latitude": 41.9671904, "longitude": 3.2287987, "elevation": 116.2, "source": "osm", "_tags": {"ele": "116.2", "name": "Puig Rodó d'Aiguafreda", "name:ca": "Puig Rodó d'Aiguafreda", "natural": "peak", "source": "Institut Cartogràfic de Catalunya"}}, {"name": "Puig Rodó", "latitude": 41.9673897, "longitude": 3.2221924, "elevation": 183.0, "source": "osm", "_tags": {"ele": "183.0", "name": "Puig Rodó", "name:ca": "Puig Rodó", "natural": "peak", "source": "Institut Cartogràfic de Catalunya"}}, {"name": "Puig Creu d'en Rodo", "latitude": 41.9526602, "longitude": 3.2172658, "elevation": 258.9, "source": "osm", "_tags": {"ele": "258.9", "name": "Puig Creu d'en Rodo", "name:ca": "Puig Creu d'en Rodo", "natural": "peak", "source": "Institut Cartogràfic de Catalunya"}}, {"name": "Alt de Sant Pau", "latitude": 41.9605833, "longitude": 3.233594, "elevation": 32.2, "source": "osm", "_tags": {"ele": "32.2", "name": "Alt de Sant Pau", "name:ca": "Alt de Sant Pau", "natural": "peak", "source": "Institut Cartogràfic de Catalunya"}}, {"name": "ses Pedres Blanques", "latitude": 41.9596213, "longitude": 3.2329692, "elevation": 25.6, "source": "osm", "_tags": {"ele": "25.6", "name": "ses Pedres Blanques", "name:ca": "ses Pedres Blanques", "natural": "peak", "source": "Institut Cartogràfic de Catalunya"}}, {"name": "Puig de la Roureda", "latitude": 42.4414212, "longitude": 2.977704, "elevation": 730.7, "source": "osm", "_tags": {"ele": "730.7", "name": "Puig de la Roureda", "name:ca": "Puig de la Roureda", "natural": "peak", "source": "Institut Cartogràfic de Catalunya", "wikidata": "Q17483415", "wikipedia": "ca:Puig de la Roureda (Espolla)"}}, {"name": "Puig dels Conillers", "latitude": 42.4355023, "longitude": 2.9711434, "elevation": 588.7, "source": "osm", "_tags": {"ele": "588.7", "name": "Puig dels Conillers", "name:ca": "Puig dels Conillers", "natural": "peak", "source": "Institut Cartogràfic de Catalunya", "wikidata": "Q17481770", "wikipedia": "ca:Puig dels Conillers"}}, {"name": "el Castellar Gran", "latitude": 42.4155744, "longitude": 2.9815941, "elevation": 532.3, "source": "osm", "_tags": {"ele": "532.3", "name": "el Castellar Gran", "name:ca": "el Castellar Gran", "natural": "peak", "source": "Institut Cartogràfic de Catalunya", "wikidata": "Q11918230", "wikipedia": "ca:El Castellar Gran"}}, {"name": "el Castellar Petit", "latitude": 42.4189537, "longitude": 2.9825785, "elevation": 530.4, "source": "osm", "_tags": {"ele": "530.4", "name": "el Castellar Petit", "name:ca": "el Castellar Petit", "natural": "peak", "source": "Institut Cartogràfic de Catalunya", "wikidata": "Q11918233", "wikipedia": "ca:El Castellar Petit"}}, {"name": "la Pedra Tova", "latitude": 42.4092093, "longitude": 2.9699736, "elevation": 216.4, "source": "osm", "_tags": {"ele": "216.4", "name": "la Pedra Tova", "natural": "peak", "source": "Institut Cartogràfic de Catalunya"}}, {"name": "Puig de l'Ossetera", "latitude": 42.4193345, "longitude": 3.1132501, "elevation": 557.9, "source": "osm", "_tags": {"ele": "557.9", "name": "Puig de l'Ossetera", "name:ca": "Puig de l'Ossetera", "natural": "peak", "wikidata": "Q17482900", "wikipedia": "ca:Puig de l'Ossetera"}}, {"name": "Puig del Perdigó", "latitude": 42.4138667, "longitude": 3.1265476, "elevation": 331.4, "source": "osm", "_tags": {"ele": "331.4", "name": "Puig del Perdigó", "name:ca": "Puig del Perdigó", "natural": "peak", "wikidata": "Q11943776", "wikipedia": "ca:Puig del Perdigó"}}, {"name": "Puig Bonic", "latitude": 42.4286527, "longitude": 3.0600924, "elevation": 494.9, "source": "osm", "_tags": {"ele": "494.9", "name": "Puig Bonic", "name:ca": "Puig Bonic", "natural": "peak", "wikidata": "Q11943336", "wikipedia": "ca:Puig Bonic"}}, {"name": "Cap de Bol", "latitude": 42.3533351, "longitude": 3.1828944, "elevation": 6.6, "source": "osm", "_tags": {"ele": "6.6", "name": "Cap de Bol", "natural": "peak"}}, {"name": "Puig de la Farella", "latitude": 42.4324286, "longitude": 3.1399507, "elevation": 359.3, "source": "osm", "_tags": {"ele": "359.3", "name": "Puig de la Farella", "name:ca": "Puig de la Farella", "natural": "peak"}}, {"name": "Puig Rodó", "latitude": 42.0579684, "longitude": 3.1205676, "elevation": 307.9, "source": "osm", "_tags": {"alt_name": "Puig Anill", "ele": "307.9", "name": "Puig Rodó", "name:ca": "Puig Rodó", "natural": "peak", "ref": "ftp://geofons.icc.cat/fitxes/100CIMS/312094006.pdf", "source": "Institut Cartogràfic i Geològic de Catalunya", "wikidata": "Q17483340", "wikipedia": "ca:Puig Rodó (Massís del Montgrí)"}}, {"name": "Roca Galera", "latitude": 42.0644927, "longitude": 3.1393495, "elevation": 204.3, "source": "osm", "_tags": {"ele": "204.3", "name": "Roca Galera", "natural": "peak", "source": "Institut Cartogràfic i Geològic de Catalunya"}}, {"name": "Puig Mas Pla", "latitude": 42.0115391, "longitude": 3.1634172, "elevation": 14.4, "source": "osm", "_tags": {"ele": "14.4", "name": "Puig Mas Pla", "name:ca": "Puig Mas Pla", "natural": "peak"}}, {"name": "Puig Mascarós", "latitude": 42.0117779, "longitude": 3.173769, "elevation": 11.4, "source": "osm", "_tags": {"ele": "11.4", "name": "Puig Mascarós", "natural": "peak"}}, {"name": "Puig de la Fonollera", "latitude": 42.0117096, "longitude": 3.1860825, "elevation": 17.3, "source": "osm", "_tags": {"ele": "17.3", "name": "Puig de la Fonollera", "name:ca": "Puig de la Fonollera", "natural": "peak"}}, {"name": "Puig Ferral", "latitude": 42.2955286, "longitude": 3.2745169, "elevation": 116.0, "source": "osm", "_tags": {"ele": "116", "name": "Puig Ferral", "name:ca": "Puig Ferral", "natural": "peak"}}, {"name": "Puig de sa Rierassa", "latitude": 42.294107, "longitude": 3.2696897, "elevation": 104.0, "source": "osm", "_tags": {"ele": "104", "name": "Puig de sa Rierassa", "name:ca": "Puig de sa Rierassa", "natural": "peak"}}, {"name": "Puig d'en Mamet", "latitude": 42.2421405, "longitude": 3.2545173, "elevation": 151.0, "source": "osm", "_tags": {"ele": "151", "name": "Puig d'en Mamet", "name:ca": "Puig d'en Mamet", "natural": "peak", "wikidata": "Q17482455", "wikipedia": "ca:Puig d'en Mamet"}}, {"name": "Puig d'en Manyana", "latitude": 42.2630927, "longitude": 3.260166, "elevation": 257.0, "source": "osm", "_tags": {"ele": "257", "name": "Puig d'en Manyana", "name:ca": "Puig d'en Manyana", "natural": "peak", "wikidata": "Q17482461", "wikipedia": "ca:Puig d'en Manyana"}}, {"name": "Puig d'en Raban", "latitude": 42.2571454, "longitude": 3.2588686, "elevation": 178.0, "source": "osm", "_tags": {"ele": "178", "name": "Puig d'en Raban", "name:ca": "Puig d'en Raban", "natural": "peak", "wikidata": "Q11943544", "wikipedia": "ca:Puig d'en Raban"}}, {"name": "Puig de sa Cruïlla", "latitude": 42.2681384, "longitude": 3.2584749, "elevation": 322.0, "source": "osm", "_tags": {"ele": "322", "name": "Puig de sa Cruïlla", "name:ca": "Puig de sa Cruïlla", "natural": "peak", "wikidata": "Q11943749", "wikipedia": "ca:Puig de sa Cruïlla"}}, {"name": "", "latitude": 42.243456, "longitude": 3.2503472, "elevation": 170.0, "source": "osm", "_tags": {"ele": "170", "natural": "peak"}}, {"name": "els Torradors", "latitude": 41.9660831, "longitude": 3.2012054, "elevation": 216.9, "source": "osm", "_tags": {"ele": "216.9", "name": "els Torradors", "name:ca": "els Torradors", "natural": "peak", "source": "Institut Cartogràfic i Geològic de Catalunya"}}, {"name": "Montgó", "latitude": 42.110798, "longitude": 3.1740231, "elevation": 96.0, "source": "osm", "_tags": {"ele": "96", "name": "Montgó", "name:ca": "Montgó", "natural": "peak", "wikidata": "Q11937466", "wikipedia": "ca:Montgó (l'Escala)"}}, {"name": "", "latitude": 42.1132713, "longitude": 3.160805, "elevation": 61.0, "source": "osm", "_tags": {"ele": "61", "natural": "peak"}}, {"name": "Puig del Molí de Vent", "latitude": 41.855444, "longitude": 3.1313195, "elevation": 56.0, "source": "osm", "_tags": {"ele": "56", "name": "Puig del Molí de Vent", "name:ca": "Puig del Molí de Vent", "natural": "peak", "wikidata": "Q17482684", "wikipedia": "ca:Puig del Molí de Vent (Palamós)"}}, {"name": "Puig Moragues", "latitude": 42.0880617, "longitude": 3.0934713, "elevation": 33.8, "source": "osm", "_tags": {"ele": "33.8", "name": "Puig Moragues", "name:ca": "Puig Moragues", "natural": "peak", "source": "Institut Cartogràfic i Geològic de Catalunya", "wikidata": "Q11943407", "wikipedia": "ca:Puig Moragues"}}, {"name": "Puig Torró", "latitude": 42.0690995, "longitude": 3.1887724, "elevation": 166.0, "source": "osm", "_tags": {"ele": "166.0", "name": "Puig Torró", "name:ca": "Puig Torró", "natural": "peak", "wikidata": "Q11943474", "wikipedia": "ca:Puig Torró"}}, {"name": "", "latitude": 42.0446264, "longitude": 3.2238245, "elevation": 5.2, "source": "osm", "_tags": {"ele": "5.2", "natural": "peak", "source": "Institut Cartogràfic i Geològic de Catalunya"}}, {"name": "Roca Maura", "latitude": 42.0553953, "longitude": 3.1898392, "elevation": 225.4, "source": "osm", "_tags": {"alt_name": "Rocamaura", "alt_name:ca": "Rocamaura", "ele": "225.4", "name": "Roca Maura", "name:ca": "Roca Maura", "natural": "peak", "source": "Institut Cartogràfic i Geològic de Catalunya", "wikidata": "Q11945931", "wikipedia": "ca:Rocamaura"}}, {"name": "Torre Moratxa", "latitude": 42.0556999, "longitude": 3.1837927, "elevation": 220.1, "source": "osm", "_tags": {"ele": "220.1", "name": "Torre Moratxa", "name:ca": "Torre Moratxa", "natural": "peak", "source": "Institut Cartogràfic i Geològic de Catalunya", "wikidata": "Q17483680", "wikipedia": "ca:Torre Moratxa (cim)"}}, {"name": "el Tossal Gros", "latitude": 42.0572092, "longitude": 3.1766261, "elevation": 159.0, "source": "osm", "_tags": {"ele": "159.0", "name": "el Tossal Gros", "name:ca": "Tossal Gros", "natural": "peak", "source": "Institut Cartogràfic i Geològic de Catalunya", "wikidata": "Q17483730", "wikipedia": "ca:Tossal Gros (Torroella de Montgrí)"}}, {"name": "el Tossal Petit", "latitude": 42.0603545, "longitude": 3.1705026, "elevation": 126.7, "source": "osm", "_tags": {"ele": "126.7", "name": "el Tossal Petit", "name:ca": "Tossal Petit", "natural": "peak", "source": "Institut Cartogràfic i Geològic de Catalunya", "wikidata": "Q11952636", "wikipedia": "ca:Tossal Petit"}}, {"name": "Puig de la Reina", "latitude": 42.0670957, "longitude": 3.1560156, "elevation": 130.3, "source": "osm", "_tags": {"ele": "130.3", "name": "Puig de la Reina", "name:ca": "Puig de la Reina", "natural": "peak", "source": "Institut Cartogràfic i Geològic de Catalunya", "wikidata": "Q17483267", "wikipedia": "ca:Puig de la Reina"}}, {"name": "la Muntanyeta", "latitude": 42.0743184, "longitude": 3.1073325, "elevation": 77.6, "source": "osm", "_tags": {"ele": "77.6", "name": "la Muntanyeta", "name:ca": "la Muntanyeta", "natural": "peak", "source": "Institut Cartogràfic i Geològic de Catalunya", "wikidata": "Q17482298", "wikipedia": "ca:La Muntanyeta (Bellcaire d'Empordà)"}}, {"name": "Puig de les Cogullades", "latitude": 42.0665356, "longitude": 3.1290155, "elevation": 209.8, "source": "osm", "_tags": {"alt_name": "Puig Romanyac", "ele": "209.8", "name": "Puig de les Cogullades", "name:ca": "Puig de les Cogullades", "natural": "peak", "note": "Els mapes de l'intitut Cartogràfic i Geològic de Catalunya utilitzen els dos noms segons l'escala", "source": "Institut Cartogràfic i Geològic de Catalunya", "wikidata": "Q11943719", "wikipedia": "ca:Puig de les Cogullades"}}, {"name": "Puig de Carroig", "latitude": 42.0617738, "longitude": 3.1340463, "elevation": 261.3, "source": "osm", "_tags": {"ele": "261.3", "name": "Puig de Carroig", "name:ca": "Puig Carroig", "natural": "peak", "source": "Institut Cartogràfic i Geològic de Catalunya", "wikidata": "Q17483114", "wikipedia": "ca:Puig Carroig"}}, {"name": "Puig Roig", "latitude": 42.0601903, "longitude": 3.1371886, "elevation": 258.6, "source": "osm", "_tags": {"ele": "258.6", "name": "Puig Roig", "name:ca": "Puig Roig", "natural": "peak", "source": "Institut Cartogràfic i Geològic de Catalunya", "wikidata": "Q11943445", "wikipedia": "ca:Puig Roig (Torroella de Montgrí)"}}, {"name": "Puig Rodó", "latitude": 42.0588931, "longitude": 3.1414781, "elevation": 266.7, "source": "osm", "_tags": {"ele": "266.7", "name": "Puig Rodó", "name:ca": "Puig Rodó", "natural": "peak", "source": "Institut Cartogràfic i Geològic de Catalunya"}}, {"name": "Montplà (Montgrí)", "latitude": 42.0562238, "longitude": 3.1417217, "elevation": 310.3, "source": "osm", "_tags": {"ele": "310.3", "name": "Montplà (Montgrí)", "name:ca": "Montplà", "natural": "peak", "prominence": "302", "source": "Institut Cartogràfic i Geològic de Catalunya", "source:prominence": "ICGC map. Key col: Bellcaire 8m", "wikidata": "Q8539027", "wikipedia": "ca:Montplà"}}, {"name": "Puig d'en Marquès", "latitude": 42.4113068, "longitude": 3.1533182, "elevation": 118.2, "source": "osm", "_tags": {"ele": "118.2", "name": "Puig d'en Marquès", "name:ca": "Puig d'en Marquès", "natural": "peak", "source": "Institut Cartogràfic i Geològic de Catalunya"}}, {"name": "Puig Pelat", "latitude": 42.4173843, "longitude": 3.1539951, "elevation": 313.7, "source": "osm", "_tags": {"ele": "313.7", "name": "Puig Pelat", "name:ca": "Puig Pelat", "natural": "peak", "source": "Institut Cartogràfic i Geològic de Catalunya", "wikidata": "Q11943419", "wikipedia": "ca:Puig Pelat (Colera)"}}, {"name": "Puig del Falcó", "latitude": 42.4162222, "longitude": 3.1481697, "elevation": 371.8, "source": "osm", "_tags": {"ele": "371.8", "name": "Puig del Falcó", "name:ca": "Puig del Falcó", "natural": "peak", "source": "Institut Cartogràfic i Geològic de Catalunya", "wikidata": "Q17481973", "wikipedia": "ca:Puig del Falcó"}}, {"name": "Puig de la Pedrera", "latitude": 42.3996185, "longitude": 3.1457491, "elevation": 124.9, "source": "osm", "_tags": {"ele": "124.9", "name": "Puig de la Pedrera", "name:ca": "Puig de la Pedrera", "natural": "peak", "source": "Institut Cartogràfic i Geològic de Catalunya"}}, {"name": "Rocs Blancs", "latitude": 42.3944585, "longitude": 3.1442376, "elevation": 66.9, "source": "osm", "_tags": {"ele": "66.9", "name": "Rocs Blancs", "name:ca": "Rocs Blancs", "natural": "peak", "source": "Institut Cartogràfic i Geològic de Catalunya"}}, {"name": "Puig del Pi Bord", "latitude": 42.3882862, "longitude": 3.1210533, "elevation": 166.7, "source": "osm", "_tags": {"ele": "166.7", "name": "Puig del Pi Bord", "name:ca": "Puig del Pi Bord", "natural": "peak", "source": "Institut Cartogràfic i Geològic de Catalunya", "wikidata": "Q17482994", "wikipedia": "ca:Puig del Pi Bord"}}, {"name": "Puig de la Figuerassa", "latitude": 42.3879071, "longitude": 3.1188892, "elevation": 205.6, "source": "osm", "_tags": {"ele": "205.6", "name": "Puig de la Figuerassa", "name:ca": "Puig de la Figuerassa", "natural": "peak", "source": "Institut Cartogràfic i Geològic de Catalunya", "wikidata": "Q17482000", "wikipedia": "ca:Puig de la Figuerassa"}}, {"name": "Puig del Llop", "latitude": 42.3835835, "longitude": 3.1037408, "elevation": 453.8, "source": "osm", "_tags": {"ele": "453.8", "name": "Puig del Llop", "name:ca": "Puig del Llop", "natural": "peak", "source": "Institut Cartogràfic i Geològic de Catalunya", "wikidata": "Q11943767", "wikipedia": "ca:Puig del Llop"}}, {"name": "Puig de la Folguera", "latitude": 42.3690029, "longitude": 3.1360239, "elevation": 162.8, "source": "osm", "_tags": {"ele": "162.8", "name": "Puig de la Folguera", "name:ca": "Puig de la Folguera", "natural": "peak", "source": "Institut Cartogràfic i Geològic de Catalunya", "wikidata": "Q17482007", "wikipedia": "ca:Puig de la Folguera"}}, {"name": "Puig de la Coma d'en Ral", "latitude": 42.3835253, "longitude": 3.1393821, "elevation": 165.3, "source": "osm", "_tags": {"ele": "165.3", "name": "Puig de la Coma d'en Ral", "name:ca": "Puig de la Coma d'en Ral", "natural": "peak", "source": "Institut Cartogràfic i Geològic de Catalunya"}}, {"name": "Puig del Rec de l'Illa", "latitude": 42.3815477, "longitude": 3.131811, "elevation": 224.8, "source": "osm", "_tags": {"ele": "224.8", "name": "Puig del Rec de l'Illa", "name:ca": "Puig del Rec de l'Illa", "natural": "peak", "source": "Institut Cartogràfic i Geològic de Catalunya"}}, {"name": "Puig de les Aigües", "latitude": 42.3763518, "longitude": 3.1202188, "elevation": 333.3, "source": "osm", "_tags": {"ele": "333.3", "name": "Puig de les Aigües", "name:ca": "Puig de les Aigües", "natural": "peak", "source": "Institut Cartogràfic i Geològic de Catalunya", "wikidata": "Q11943716", "wikipedia": "ca:Puig de les Aigües"}}, {"name": "Puig Tifell", "latitude": 42.3744068, "longitude": 3.1116858, "elevation": 408.7, "source": "osm", "_tags": {"ele": "408.7", "name": "Puig Tifell", "name:ca": "Puig Tifell", "natural": "peak", "source": "Institut Cartogràfic i Geològic de Catalunya", "wikidata": "Q11943470", "wikipedia": "ca:Puig Tifell"}}, {"name": "Montperdut", "latitude": 42.3454919, "longitude": 3.1084609, "elevation": 327.1, "source": "osm", "_tags": {"ele": "327.1", "name": "Montperdut", "name:ca": "Montperdut", "natural": "peak", "source": "Institut Cartogràfic i Geològic de Catalunya", "wikidata": "Q11937500", "wikipedia": "ca:Montperdut (Llançà)"}}, {"name": "Montcal", "latitude": 42.3527435, "longitude": 3.1212311, "elevation": 202.2, "source": "osm", "_tags": {"ele": "202.2", "name": "Montcal", "name:ca": "Montcal", "natural": "peak", "source": "Institut Cartogràfic i Geològic de Catalunya"}}, {"name": "Roca de Miralles", "latitude": 42.3422153, "longitude": 3.1331051, "elevation": 278.2, "source": "osm", "_tags": {"ele": "278.2", "name": "Roca de Miralles", "name:ca": "Roca de Miralles", "natural": "peak", "source": "Institut Cartogràfic i Geològic de Catalunya", "wikidata": "Q11945989", "wikipedia": "ca:Roca de Miralles"}}, {"name": "Puig Margall", "latitude": 42.3298031, "longitude": 3.1389922, "elevation": 436.5, "source": "osm", "_tags": {"ele": "436.5", "name": "Puig Margall", "name:ca": "Puig Margall", "natural": "peak", "source": "Institut Cartogràfic i Geològic de Catalunya", "wikidata": "Q11943402", "wikipedia": "ca:Puig Margall"}}, {"name": "Puig de la Borda", "latitude": 42.3489909, "longitude": 3.1618755, "elevation": 311.2, "source": "osm", "_tags": {"ele": "311.2", "name": "Puig de la Borda", "name:ca": "Puig de la Borda", "natural": "peak", "source": "Institut Cartogràfic i Geològic de Catalunya", "wikidata": "Q17481397", "wikipedia": "ca:Puig de la Borda"}}, {"name": "Puig del Vaquer", "latitude": 42.3439791, "longitude": 3.1659187, "elevation": 423.3, "source": "osm", "_tags": {"ele": "423.3", "name": "Puig del Vaquer", "name:ca": "Puig del Vaquer", "natural": "peak", "source": "Institut Cartogràfic i Geològic de Catalunya", "wikidata": "Q11943784", "wikipedia": "ca:Puig del Vaquer"}}, {"name": "Puig de la Vall", "latitude": 42.3388922, "longitude": 3.1705681, "elevation": 328.8, "source": "osm", "_tags": {"ele": "328.8", "name": "Puig de la Vall", "name:ca": "Puig de la Vall", "natural": "peak", "source": "Institut Cartogràfic i Geològic de Catalunya"}}, {"name": "Roca del Corb", "latitude": 42.322755, "longitude": 3.158202, "elevation": 572.2, "source": "osm", "_tags": {"ele": "572.2", "name": "Roca del Corb", "name:ca": "Roca del Corb", "natural": "peak", "source": "Institut Cartogràfic i Geològic de Catalunya"}}, {"name": "el Fitó", "latitude": 42.32026, "longitude": 3.1619725, "elevation": 586.8, "source": "osm", "_tags": {"ele": "586.8", "name": "el Fitó", "name:ca": "el Fitó", "natural": "peak", "source": "Institut Cartogràfic i Geològic de Catalunya"}}, {"name": "Sant Salvador Saverdera", "latitude": 42.3199582, "longitude": 3.1678342, "elevation": 682.0, "source": "osm", "_tags": {"ele": "682.0", "name": "Sant Salvador Saverdera", "name:ca": "Sant Salvador Saverdera", "natural": "peak", "prominence": "555", "source": "Institut Cartogràfic i Geològic de Catalunya", "wikidata": "Q17483518", "wikipedia": "ca:Sant Salvador Saverdera"}}, {"name": "", "latitude": 42.3191275, "longitude": 3.1684647, "elevation": 661.1, "source": "osm", "_tags": {"ele": "661.1", "natural": "peak", "source": "Institut Cartogràfic i Geològic de Catalunya"}}, {"name": "la Verderola", "latitude": 42.317493, "longitude": 3.1687475, "elevation": 630.6, "source": "osm", "_tags": {"ele": "630.6", "name": "la Verderola", "name:ca": "la Verderola", "natural": "peak", "source": "Institut Cartogràfic i Geològic de Catalunya"}}, {"name": "Puig Dijous", "latitude": 42.3296671, "longitude": 3.1836515, "elevation": 300.1, "source": "osm", "_tags": {"ele": "300.1", "name": "Puig Dijous", "name:ca": "Puig Dijous", "natural": "peak", "source": "Institut Cartogràfic i Geològic de Catalunya", "wikidata": "Q17481880", "wikipedia": "ca:Puig Dijous"}}, {"name": "Puig de Queralbs", "latitude": 42.3072831, "longitude": 3.1744133, "elevation": 617.9, "source": "osm", "_tags": {"ele": "617.9", "name": "Puig de Queralbs", "name:ca": "Puig de Queralbs", "natural": "peak", "source": "Institut Cartogràfic i Geològic de Catalunya", "wikidata": "Q17483233", "wikipedia": "ca:Puig de Queralbs"}}, {"name": "Puig d'en Grau", "latitude": 42.3085428, "longitude": 3.1973512, "elevation": 296.4, "source": "osm", "_tags": {"ele": "296.4", "name": "Puig d'en Grau", "name:ca": "Puig d'en Grau", "natural": "peak", "source": "Institut Cartogràfic i Geològic de Catalunya", "wikidata": "Q17482119", "wikipedia": "ca:Puig d'en Grau"}}, {"name": "Puig d'en Paga", "latitude": 42.3092974, "longitude": 3.2046051, "elevation": 212.3, "source": "osm", "_tags": {"ele": "212.3", "name": "Puig d'en Paga", "name:ca": "Puig d'en Paga", "natural": "peak", "source": "Institut Cartogràfic i Geològic de Catalunya", "wikidata": "Q17481917", "wikipedia": "ca:Puig d'en Paga"}}, {"name": "Roques de la Regalada", "latitude": 42.3142612, "longitude": 3.2237402, "elevation": 275.4, "source": "osm", "_tags": {"ele": "275.4", "name": "Roques de la Regalada", "name:ca": "Roques de la Regalada", "natural": "peak", "source": "Institut Cartogràfic i Geològic de Catalunya", "wikidata": "Q11946261", "wikipedia": "ca:Roques de la Regalada"}}, {"name": "Puig Gros", "latitude": 42.3463312, "longitude": 3.2327258, "elevation": 161.0, "source": "osm", "_tags": {"ele": "161.0", "name": "Puig Gros", "name:ca": "Puig Gros", "natural": "peak", "source": "Institut Cartogràfic i Geològic de Catalunya", "wikidata": "Q17482125", "wikipedia": "ca:Puig Gros (el Port de la Selva)"}}, {"name": "Turó d'en Llaures", "latitude": 42.346821, "longitude": 3.2305234, "elevation": 168.4, "source": "osm", "_tags": {"ele": "168.40", "name": "Turó d'en Llaures", "name:ca": "Turó d'en Llaures", "natural": "peak", "source": "Institut Cartogràfic i Geològic de Catalunya", "wikidata": "Q11953771", "wikipedia": "ca:Turó dels Llaures"}}, {"name": "Puig Traïc", "latitude": 42.3339856, "longitude": 3.21116, "elevation": 200.8, "source": "osm", "_tags": {"ele": "200.8", "name": "Puig Traïc", "name:ca": "Puig Traïc", "natural": "peak", "source": "Institut Cartogràfic i Geològic de Catalunya"}}, {"name": "", "latitude": 42.3271441, "longitude": 3.2147647, "elevation": 236.1, "source": "osm", "_tags": {"ele": "236.1", "natural": "peak", "source": "Institut Cartogràfic i Geològic de Catalunya"}}, {"name": "Puig de l'Oratori", "latitude": 42.3295163, "longitude": 3.2141282, "elevation": 217.8, "source": "osm", "_tags": {"ele": "217.8", "name": "Puig de l'Oratori", "name:ca": "Puig de l'Oratori", "natural": "peak", "source": "Institut Cartogràfic i Geològic de Catalunya", "wikidata": "Q11943662", "wikipedia": "ca:Puig de l'Oratori"}}, {"name": "el Torrelló", "latitude": 42.3247912, "longitude": 3.2187958, "elevation": 258.2, "source": "osm", "_tags": {"ele": "258.2", "name": "el Torrelló", "name:ca": "el Torrelló", "natural": "peak", "source": "Institut Cartogràfic i Geològic de Catalunya", "wikidata": "Q11918611", "wikipedia": "ca:El Torrelló"}}, {"name": "Puignau", "latitude": 42.3376107, "longitude": 3.2263024, "elevation": 203.7, "source": "osm", "_tags": {"ele": "203.7", "name": "Puignau", "name:ca": "Puignau", "natural": "peak", "source": "Institut Cartogràfic i Geològic de Catalunya", "wikidata": "Q17483171", "wikipedia": "ca:Puignau"}}, {"name": "Puig de Talabre", "latitude": 42.3357048, "longitude": 3.2388483, "elevation": 76.9, "source": "osm", "_tags": {"ele": "76.9", "name": "Puig de Talabre", "name:ca": "Puig de Talabre", "natural": "peak", "source": "Institut Cartogràfic i Geològic de Catalunya"}}, {"name": "", "latitude": 42.3254814, "longitude": 3.2547039, "elevation": 127.9, "source": "osm", "_tags": {"ele": "127.9", "natural": "peak", "source": "Institut Cartogràfic i Geològic de Catalunya"}}, {"name": "Puig del Moro", "latitude": 42.33186, "longitude": 3.2408042, "elevation": 152.2, "source": "osm", "_tags": {"ele": "152.2", "name": "Puig del Moro", "name:ca": "Puig del Moro", "natural": "peak", "source": "Institut Cartogràfic i Geològic de Catalunya", "wikidata": "Q17482800", "wikipedia": "ca:Puig del Moro (el Port de la Selva)"}}, {"name": "Puig de n'Amat", "latitude": 42.3210802, "longitude": 3.2549403, "elevation": 153.5, "source": "osm", "_tags": {"ele": "153.5", "name": "Puig de n'Amat", "name:ca": "Puig de n'Amat", "natural": "peak", "source": "Institut Cartogràfic i Geològic de Catalunya", "wikidata": "Q11943750", "wikipedia": "ca:Puig de n'Amat"}}, {"name": "", "latitude": 42.3358362, "longitude": 3.2714426, "elevation": 101.4, "source": "osm", "_tags": {"ele": "101.4", "natural": "peak", "source": "Institut Cartogràfic i Geològic de Catalunya"}}, {"name": "", "latitude": 42.3330699, "longitude": 3.2722225, "elevation": 87.1, "source": "osm", "_tags": {"ele": "87.1", "natural": "peak", "source": "Institut Cartogràfic i Geològic de Catalunya"}}, {"name": "", "latitude": 42.3357317, "longitude": 3.2671953, "elevation": 81.4, "source": "osm", "_tags": {"ele": "81.4", "natural": "peak", "source": "Institut Cartogràfic i Geològic de Catalunya"}}, {"name": "Puig de Cala Sardina", "latitude": 42.3341319, "longitude": 3.2715153, "elevation": 94.9, "source": "osm", "_tags": {"ele": "94.9", "name": "Puig de Cala Sardina", "name:ca": "Puig de Cala Sardina", "natural": "peak", "note": "Els mapes de l'intitut Cartogràfic i Geològic de Catalunya situen aquest topònim a dos punts diferents, al NW i al SE d'aquest. I algunes altres fonts al turó de 101 m que hi ha al N.", "source": "Revista Muntanya de la FEEC, 887, 2/2010", "wikidata": "Q11943559", "wikipedia": "ca:Puig de Cala Sardina"}}, {"name": "Puig de Castellets", "latitude": 42.3296836, "longitude": 3.26589, "elevation": 128.2, "source": "osm", "_tags": {"ele": "128.2", "name": "Puig de Castellets", "name:ca": "Puig de Castellets", "natural": "peak", "source": "Institut Cartogràfic i Geològic de Catalunya", "wikidata": "Q17481620", "wikipedia": "ca:Puig de Castellets"}}, {"name": "Puig Melus", "latitude": 42.3261357, "longitude": 3.2690118, "elevation": 150.8, "source": "osm", "_tags": {"ele": "150.8", "name": "Puig Melus", "name:ca": "Puig Melus", "natural": "peak", "source": "Institut Cartogràfic i Geològic de Catalunya", "wikidata": "Q11943405", "wikipedia": "ca:Puig Melus"}}, {"name": "Puig Palau", "latitude": 42.3113939, "longitude": 3.2828347, "elevation": 153.6, "source": "osm", "_tags": {"ele": "153.6", "name": "Puig Palau", "name:ca": "Puig Palau", "natural": "peak", "source": "Institut Cartogràfic i Geològic de Catalunya"}}, {"name": "Puig de sa Freita", "latitude": 42.3123577, "longitude": 3.2782682, "elevation": 181.2, "source": "osm", "_tags": {"ele": "181.2", "name": "Puig de sa Freita", "name:ca": "Puig de sa Freita", "natural": "peak", "source": "Institut Cartogràfic i Geològic de Catalunya"}}, {"name": "Puig Alt Gran", "latitude": 42.3160184, "longitude": 3.2743341, "elevation": 239.2, "source": "osm", "_tags": {"ele": "239.2", "name": "Puig Alt Gran", "name:ca": "Puig Alt Gran", "natural": "peak", "source": "Institut Cartogràfic i Geològic de Catalunya", "wikidata": "Q17481231", "wikipedia": "ca:Puig Alt Gran"}}, {"name": "Puig Alt Petit", "latitude": 42.3119169, "longitude": 3.2729358, "elevation": 231.4, "source": "osm", "_tags": {"ele": "231.4", "name": "Puig Alt Petit", "name:ca": "Puig Alt Petit", "natural": "peak", "source": "Institut Cartogràfic i Geològic de Catalunya"}}, {"name": "Puig Paulí", "latitude": 42.3080019, "longitude": 3.2678439, "elevation": 188.8, "source": "osm", "_tags": {"ele": "188.8", "name": "Puig Paulí", "name:ca": "Puig Paulí", "natural": "peak", "source": "Institut Cartogràfic i Geològic de Catalunya", "wikidata": "Q17482932", "wikipedia": "ca:Puig Paulí"}}, {"name": "Puig de l'Infern", "latitude": 42.3039716, "longitude": 3.25098, "elevation": 384.2, "source": "osm", "_tags": {"ele": "384.2", "name": "Puig de l'Infern", "name:ca": "Puig de l'Infern", "natural": "peak", "source": "Institut Cartogràfic i Geològic de Catalunya"}}, {"name": "Puig dels Bufadors", "latitude": 42.3010694, "longitude": 3.2487411, "elevation": 431.7, "source": "osm", "_tags": {"ele": "431.7", "name": "Puig dels Bufadors", "name:ca": "Puig dels Bufadors", "natural": "peak", "prominence": "190", "source": "Institut Cartogràfic i Geològic de Catalunya", "source:prominence": "ICGC map. Key col: Coll de Perafita 242m", "wikidata": "Q17481417", "wikipedia": "ca:Puig dels Bufadors"}}, {"name": "Puig Vidriera", "latitude": 42.2919211, "longitude": 3.2097678, "elevation": 321.0, "source": "osm", "_tags": {"ele": "321.0", "name": "Puig Vidriera", "name:ca": "Puig Vidriera", "natural": "peak", "source": "Institut Cartogràfic i Geològic de Catalunya"}}, {"name": "Muntanya d'en Sot", "latitude": 42.318765, "longitude": 3.1403668, "elevation": 328.8, "source": "osm", "_tags": {"ele": "328.8", "name": "Muntanya d'en Sot", "name:ca": "Muntanya d'en Sot", "natural": "peak", "source": "Institut Cartogràfic i Geològic de Catalunya", "wikidata": "Q11937901", "wikipedia": "ca:Muntanya d'en Sot"}}, {"name": "Turó de Sant Andreu", "latitude": 42.0057893, "longitude": 3.0797051, "elevation": 53.3, "source": "osm", "_tags": {"ele": "53.3", "name": "Turó de Sant Andreu", "name:ca": "Turó de Sant Andreu", "natural": "peak", "source": "Institut Cartogràfic i Geològic de Catalunya", "wikidata": "Q11953555", "wikipedia": "ca:Turó de Sant Andreu (Ullastret)"}}, {"name": "Puig d'en Torró", "latitude": 41.9752356, "longitude": 3.0832489, "elevation": 90.3, "source": "osm", "_tags": {"ele": "90.3", "name": "Puig d'en Torró", "name:ca": "Puig d'en Torró", "natural": "peak", "source": "Institut Cartogràfic i Geològic de Catalunya"}}, {"name": "Puig Negre", "latitude": 41.9649762, "longitude": 3.0491823, "elevation": 106.4, "source": "osm", "_tags": {"ele": "106.4", "name": "Puig Negre", "name:ca": "Puig Negre", "natural": "peak", "source": "Institut Cartogràfic i Geològic de Catalunya"}}, {"name": "Turó de Marenys", "latitude": 41.9751387, "longitude": 3.0456313, "elevation": 85.9, "source": "osm", "_tags": {"ele": "85.9", "name": "Turó de Marenys", "name:ca": "Turó de Marenys", "natural": "peak", "source": "Institut Cartogràfic i Geològic de Catalunya"}}, {"name": "Puig del Torrent del Cargol", "latitude": 41.9724842, "longitude": 3.0411717, "elevation": 77.1, "source": "osm", "_tags": {"ele": "77.1", "name": "Puig del Torrent del Cargol", "name:ca": "Puig del Torrent del Cargol", "natural": "peak", "source": "Institut Cartogràfic i Geològic de Catalunya"}}, {"name": "Puig de sa Guàrdia", "latitude": 41.9482571, "longitude": 3.2218929, "elevation": 248.7, "source": "osm", "_tags": {"ele": "248.7", "name": "Puig de sa Guàrdia", "name:ca": "Puig de sa Guàrdia", "natural": "peak", "source": "Institut Cartogràfic i Geològic de Catalunya"}}, {"name": "Puig de Son Ric", "latitude": 41.9474325, "longitude": 3.2088487, "elevation": 322.3, "source": "osm", "_tags": {"ele": "322.3", "name": "Puig de Son Ric", "name:ca": "Puig de Son Ric", "natural": "peak", "prominence": "260", "source": "Institut Cartogràfic i Geològic de Catalunya", "source:prominence": "ICGC map. Key col: Palafrugell 60m approx.", "wikidata": "Q11943643", "wikipedia": "ca:Puig de Son Ric"}}, {"name": "Puig Brocà", "latitude": 41.9492045, "longitude": 3.1939137, "elevation": 205.6, "source": "osm", "_tags": {"ele": "205.6", "name": "Puig Brocà", "name:ca": "Puig Brocà", "natural": "peak", "source": "Institut Cartogràfic i Geològic de Catalunya", "wikidata": "Q11943340", "wikipedia": "ca:Puig Brocà"}}, {"name": "Puig Pedrós", "latitude": 41.9800192, "longitude": 3.1912233, "elevation": 102.9, "source": "osm", "_tags": {"ele": "102.9", "name": "Puig Pedrós", "name:ca": "Puig Pedrós", "natural": "peak", "source": "Institut Cartogràfic i Geològic de Catalunya", "wikidata": "Q17482956", "wikipedia": "ca:Puig Pedrós (Pals)"}}, {"name": "Puig d'en Quim", "latitude": 41.9705387, "longitude": 3.1798622, "elevation": 90.4, "source": "osm", "_tags": {"ele": "90.4", "name": "Puig d'en Quim", "name:ca": "Puig d'en Quim", "natural": "peak", "source": "Institut Cartogràfic i Geològic de Catalunya", "wikidata": "Q11943545", "wikipedia": "ca:Puig d'en Quim"}}, {"name": "Roca Blanca", "latitude": 41.9746476, "longitude": 3.1912693, "elevation": 154.6, "source": "osm", "_tags": {"ele": "154.6", "name": "Roca Blanca", "name:ca": "Roca Blanca", "natural": "peak", "source": "Institut Cartogràfic i Geològic de Catalunya"}}, {"name": "Puig dels Corbs", "latitude": 41.9725319, "longitude": 3.185116, "elevation": 116.8, "source": "osm", "_tags": {"ele": "116.8", "name": "Puig dels Corbs", "name:ca": "Puig dels Corbs", "natural": "peak", "source": "Institut Cartogràfic i Geològic de Catalunya", "wikidata": "Q11943791", "wikipedia": "ca:Puig dels Corbs (Pals)"}}, {"name": "Puig Major", "latitude": 41.9729364, "longitude": 3.1944832, "elevation": 171.3, "source": "osm", "_tags": {"ele": "171.3", "name": "Puig Major", "name:ca": "Puig Major", "natural": "peak", "source": "Institut Cartogràfic i Geològic de Catalunya", "wikidata": "Q17482424", "wikipedia": "ca:Puig Major (Baix Empordà)"}}, {"name": "Puig d'en Pou", "latitude": 41.9732312, "longitude": 3.1746877, "elevation": 173.3, "source": "osm", "_tags": {"ele": "173.3", "name": "Puig d'en Pou", "name:ca": "Puig d'en Pou", "natural": "peak", "source": "Institut Cartogràfic i Geològic de Catalunya", "wikidata": "Q11943543", "wikipedia": "ca:Puig d'en Pou"}}, {"name": "Quermany Petit", "latitude": 41.9619049, "longitude": 3.1567561, "elevation": 114.4, "source": "osm", "_tags": {"ele": "114.4", "name": "Quermany Petit", "name:ca": "Quermany Petit", "natural": "peak", "source": "Institut Cartogràfic i Geològic de Catalunya", "wikidata": "Q17483237", "wikipedia": "ca:Quermany Petit"}}, {"name": "Quermany Gros", "latitude": 41.960224, "longitude": 3.1701159, "elevation": 221.5, "source": "osm", "_tags": {"ele": "221.5", "name": "Quermany Gros", "name:ca": "Quermany Gros", "natural": "peak", "source": "Institut Cartogràfic i Geològic de Catalunya", "wikidata": "Q11944227", "wikipedia": "ca:Quermany Gros"}}, {"name": "Puig d'Aiguabona", "latitude": 41.8873237, "longitude": 2.9903764, "elevation": 533.1, "source": "osm", "_tags": {"ele": "533.1", "name": "Puig d'Aiguabona", "name:ca": "Puig d'Aiguabona", "natural": "peak", "wikidata": "Q11943488", "wikipedia": "ca:Puig d'Aiguabona"}}, {"name": "Puig Rodó", "latitude": 41.8867598, "longitude": 2.9937622, "elevation": 501.2, "source": "osm", "_tags": {"ele": "501.2", "name": "Puig Rodó", "name:ca": "Puig Rodó", "natural": "peak", "wikidata": "Q11943434", "wikipedia": "ca:Puig Rodó (Cruïlles, Monells i Sant Sadurní de l'Heura)"}}, {"name": "Cap Gros", "latitude": 41.8506845, "longitude": 3.1441906, "elevation": 71.0, "source": "osm", "_tags": {"ele": "71.0", "name": "Cap Gros", "name:ca": "Cap Gros", "natural": "peak"}}, {"name": "Puig de Terme", "latitude": 41.8702349, "longitude": 3.1710523, "elevation": 132.5, "source": "osm", "_tags": {"ele": "132.5", "name": "Puig de Terme", "name:ca": "Puig de Terme", "natural": "peak", "wikidata": "Q17483654", "wikipedia": "ca:Puig de Terme"}}, {"name": "Roca Criadora", "latitude": 41.83597, "longitude": 3.0802558, "elevation": 109.7, "source": "osm", "_tags": {"ele": "109.7", "name": "Roca Criadora", "natural": "peak"}}, {"name": "Pic dels Ocells", "latitude": 41.9616463, "longitude": 3.2283771, "elevation": 64.27, "source": "osm", "_tags": {"ele": "64.27", "name": "Pic dels Ocells", "name:ca": "Pic dels Ocells", "natural": "peak"}}, {"name": "Puig de Norfeu", "latitude": 42.2400683, "longitude": 3.2608432, "elevation": 143.4, "source": "osm", "_tags": {"ele": "143.4", "name": "Puig de Norfeu", "natural": "peak"}}, {"name": "la Cabra", "latitude": 42.3502384, "longitude": 3.234457, "elevation": 20.6, "source": "osm", "_tags": {"ele": "20.6", "name": "la Cabra", "natural": "peak"}}, {"name": "el Boc", "latitude": 42.34992, "longitude": 3.2343468, "elevation": 34.9, "source": "osm", "_tags": {"ele": "34.9", "name": "el Boc", "natural": "peak"}}, {"name": "Puig de les Forques", "latitude": 42.3340617, "longitude": 3.2064244, "elevation": 92.0, "source": "osm", "_tags": {"ele": "92", "name": "Puig de les Forques", "name:ca": "Puig de les Forques", "natural": "peak"}}, {"name": "el Cavall Bernat", "latitude": 42.2373545, "longitude": 3.2636067, "elevation": 36.9, "source": "osm", "_tags": {"ele": "36.9", "name": "el Cavall Bernat", "natural": "peak"}}, {"name": "", "latitude": 42.2515879, "longitude": 3.2509088, "elevation": 123.0, "source": "osm", "_tags": {"ele": "123", "natural": "peak"}}, {"name": "Puig Morera", "latitude": 41.8738111, "longitude": 3.1698037, "elevation": 122.9, "source": "osm", "_tags": {"ele": "122.9", "name": "Puig Morera", "name:ca": "Puig Morera", "natural": "peak", "wikidata": "Q17482790", "wikipedia": "ca:Puig Morera"}}, {"name": "", "latitude": 42.2409296, "longitude": 3.2184674, "elevation": 156.2, "source": "osm", "_tags": {"ele": "156.2", "natural": "peak"}}, {"name": "Pic Joan", "latitude": 42.4533204, "longitude": 3.1351725, "elevation": null, "source": "osm", "_tags": {"name": "Pic Joan", "name:ca": "Pic Joan", "natural": "peak"}}, {"name": "Puig d'Arques", "latitude": 41.8890615, "longitude": 2.9972136, "elevation": 527.6, "source": "osm", "_tags": {"ele": "527.6", "name": "Puig d'Arques", "name:ca": "Puig d'Arques", "natural": "peak", "prominence": "400", "source:prominence": "ICGC map. Key col: around Girona around 100m", "wikidata": "Q7259025", "wikipedia": "ca:Puig d'Arques"}}, {"name": "Puig de la Gelaberta", "latitude": 41.8258625, "longitude": 3.0433749, "elevation": 251.6, "source": "osm", "_tags": {"ele": "251.6", "name": "Puig de la Gelaberta", "name:ca": "Puig de la Gelaberta", "natural": "peak", "wikidata": "Q11943690", "wikipedia": "ca:Puig de la Gelaberta"}}, {"name": "Puig de Vallvanera", "latitude": 41.8322423, "longitude": 3.0278717, "elevation": 339.7, "source": "osm", "_tags": {"ele": "339.7", "name": "Puig de Vallvanera", "name:ca": "Puig de Vallvanera", "natural": "peak", "wikidata": "Q11943653", "wikipedia": "ca:Puig de Vallvanera"}}, {"name": "Puig Més Alt de Mas Pi", "latitude": 41.832874, "longitude": 3.051779, "elevation": 163.8, "source": "osm", "_tags": {"ele": "163.8", "name": "Puig Més Alt de Mas Pi", "name:ca": "Puig Més Alt de Mas Pi", "natural": "peak"}}, {"name": "Puig de les Eres", "latitude": 42.4615728, "longitude": 3.0454954, "elevation": 697.7, "source": "osm", "_tags": {"ele": "697.7", "name": "Puig de les Eres", "name:ca": "Puig de les Eres", "natural": "peak", "source": "Institut Cartogràfic i Geològic de Catalunya", "wikidata": "Q11943726", "wikipedia": "ca:Pic de l'Estella"}}, {"name": "", "latitude": 42.4773276, "longitude": 3.0400935, "elevation": 979.4, "source": "osm", "_tags": {"ele": "979.4", "natural": "peak", "source": "Institut Cartogràfic i Geològic de Catalunya"}}, {"name": "", "latitude": 42.4727132, "longitude": 3.0409263, "elevation": 978.2, "source": "osm", "_tags": {"ele": "978.2", "natural": "peak", "source": "Institut Cartogràfic i Geològic de Catalunya"}}, {"name": "Pic de Sallfort", "latitude": 42.47349, "longitude": 3.0380491, "elevation": 993.5, "source": "osm", "_tags": {"alt_name": "Pic de Sallafort", "ele": "993.5", "name": "Pic de Sallfort", "natural": "peak", "note": "He preferit el nom local a l'oficial de l'ICGC. Els mapes francesos situel el cim 238 metres al nordest, amb 10 metres menys, comprovat amb un altímetre.", "source": "Institut Cartogràfic i Geològic de Catalunya", "summit:cross": "no", "summit:register": "no", "wikidata": "Q3382387", "wikipedia": "ca:Pic de Sallfort"}}, {"name": "Puig de Migdia", "latitude": 41.8916344, "longitude": 3.0140623, "elevation": 444.4, "source": "osm", "_tags": {"ele": "444.4", "name": "Puig de Migdia", "name:ca": "Puig de Migdia", "natural": "peak", "wikidata": "Q17482559", "wikipedia": "ca:Puig de Migdia (Cruïlles, Monells i Sant Sadurní de l'Heura)"}}, {"name": "Puig Cremat", "latitude": 41.8829565, "longitude": 3.0089216, "elevation": 422.7, "source": "osm", "_tags": {"ele": "422.7", "name": "Puig Cremat", "name:ca": "Puig Cremat", "natural": "peak"}}, {"name": "Puigsesforques", "latitude": 41.8579871, "longitude": 3.1079589, "elevation": 54.1, "source": "osm", "_tags": {"ele": "54.1", "name": "Puigsesforques", "name:ca": "Puigsesforques", "natural": "peak"}}, {"name": "Puig del Molló del Rei", "latitude": 41.9203383, "longitude": 3.119094, "elevation": 180.4, "source": "osm", "_tags": {"ele": "180.4", "name": "Puig del Molló del Rei", "name:ca": "Puig del Molló del Rei", "natural": "peak"}}, {"name": "Puigcogol", "latitude": 41.9204793, "longitude": 3.1232971, "elevation": 152.3, "source": "osm", "_tags": {"ele": "152.3", "name": "Puigcogol", "name:ca": "Puigcogol", "natural": "peak"}}, {"name": "Puig Vidal", "latitude": 41.9166596, "longitude": 3.1111392, "elevation": 301.7, "source": "osm", "_tags": {"ele": "301.7", "name": "Puig Vidal", "name:ca": "Puig Vidal", "natural": "peak"}}, {"name": "Puig del Compte", "latitude": 41.8843708, "longitude": 3.1138693, "elevation": 171.7, "source": "osm", "_tags": {"ele": "171.7", "name": "Puig del Compte", "name:ca": "Puig del Compte", "natural": "peak"}}, {"name": "Puig de les Parets", "latitude": 41.933399, "longitude": 3.1078641, "elevation": 257.9, "source": "osm", "_tags": {"ele": "257.9", "name": "Puig de les Parets", "name:ca": "Puig de les Parets", "natural": "peak", "wikidata": "Q11943739", "wikipedia": "ca:Puig de les Parets"}}, {"name": "Puig de les Mines", "latitude": 41.928648, "longitude": 3.1177202, "elevation": 183.3, "source": "osm", "_tags": {"ele": "183.3", "name": "Puig de les Mines", "name:ca": "Puig de les Mines", "natural": "peak"}}, {"name": "la Capgrossa", "latitude": 41.8639976, "longitude": 3.1190265, "elevation": 82.7, "source": "osm", "_tags": {"ele": "82.7", "name": "la Capgrossa", "name:ca": "la Capgrossa", "natural": "peak"}}, {"name": "Puig dels Abells", "latitude": 41.8816594, "longitude": 3.0119291, "elevation": 385.6, "source": "osm", "_tags": {"ele": "385.6", "name": "Puig dels Abells", "name:ca": "Puig dels Abells", "natural": "peak", "wikidata": "Q17481182", "wikipedia": "ca:Puig dels Abells (Cruïlles, Monells i Sant Sadurní de l'Heura)"}}, {"name": "Puig Dalmau", "latitude": 41.8778217, "longitude": 3.015253, "elevation": 352.8, "source": "osm", "_tags": {"ele": "352.8", "name": "Puig Dalmau", "name:ca": "Puig Dalmau", "natural": "peak", "wikidata": "Q11943367", "wikipedia": "ca:Puig Dalmau"}}, {"name": "Roquissar d'en Sala", "latitude": 41.8658993, "longitude": 3.0457196, "elevation": 283.0, "source": "osm", "_tags": {"ele": "283.0", "name": "Roquissar d'en Sala", "name:ca": "Roquissar d'en Sala", "natural": "peak", "wikidata": "Q11946274", "wikipedia": "ca:Roquissar d'en Sala"}}, {"name": "Puig Sec", "latitude": 42.1081892, "longitude": 3.1537701, "elevation": 60.8, "source": "osm", "_tags": {"ele": "60.8", "name": "Puig Sec", "name:ca": "Puig Sec", "natural": "peak", "wikidata": "Q11943454", "wikipedia": "ca:Puig Sec (l'Escala)"}}, {"name": "Puig d'en Batlle", "latitude": 42.0945197, "longitude": 3.0137662, "elevation": 101.3, "source": "osm", "_tags": {"ele": "101.3", "name": "Puig d'en Batlle", "name:ca": "Puig d'en Batlle", "natural": "peak", "wikidata": "Q17481330", "wikipedia": "ca:Puig d'en Batlle"}}, {"name": "Muntanya de Jafre", "latitude": 42.0877945, "longitude": 3.014719, "elevation": 81.7, "source": "osm", "_tags": {"ele": "81.7", "name": "Muntanya de Jafre", "name:ca": "Muntanya de Jafre", "natural": "peak", "wikidata": "Q11937911", "wikipedia": "ca:Muntanya de Jafre"}}, {"name": "Puig Rodó", "latitude": 42.2685774, "longitude": 3.2175231, "elevation": 423.3, "source": "osm", "_tags": {"ele": "423.3", "name": "Puig Rodó", "name:ca": "Puig Rodó", "natural": "peak", "wikidata": "Q11943436", "wikipedia": "ca:Puig Rodó (Roses)"}}, {"name": "Puig de Queralb", "latitude": 42.0032681, "longitude": 2.9745375, "elevation": 200.5, "source": "osm", "_tags": {"ele": "200.5", "name": "Puig de Queralb", "name:ca": "Puig de Queralb", "natural": "peak", "wikidata": "Q17483232", "wikipedia": "ca:Puig de Queralb"}}, {"name": "Puig Balaguer", "latitude": 42.423168, "longitude": 3.0128889, "elevation": 367.5, "source": "osm", "_tags": {"ele": "367.5", "name": "Puig Balaguer", "name:ca": "Puig Balaguer", "natural": "peak", "wikidata": "Q11943554", "wikipedia": "ca:Puig de Balaguer"}}, {"name": "Rocal dels Marroquins", "latitude": 42.3247921, "longitude": 3.2737088, "elevation": 133.8, "source": "osm", "_tags": {"ele": "133.8", "name": "Rocal dels Marroquins", "natural": "peak"}}, {"name": "Puig de la Coma", "latitude": 41.9657825, "longitude": 3.2117475, "elevation": 121.3, "source": "osm", "_tags": {"ele": "121.3", "name": "Puig de la Coma", "name:ca": "Puig de la Coma", "natural": "peak"}}, {"name": "Cap Castell", "latitude": 42.08107, "longitude": 3.1999887, "elevation": 76.0, "source": "osm", "_tags": {"ele": "76", "name": "Cap Castell", "name:ca": "Cap Castell", "natural": "peak"}}, {"name": "Puig Ventós", "latitude": 41.9922651, "longitude": 3.1496783, "elevation": 13.3, "source": "osm", "_tags": {"ele": "13.3", "name": "Puig Ventós", "name:ca": "Puig Ventós", "natural": "peak"}}, {"name": "Puig dels Quatre Termes", "latitude": 42.4731876, "longitude": 2.9983062, "elevation": 1158.0, "source": "osm", "_tags": {"ele": "1158", "name": "Puig dels Quatre Termes", "name:ca": "Puig dels Quatre Termes", "natural": "peak", "summit:cross": "no", "summit:register": "no"}}, {"name": "", "latitude": 42.5283365, "longitude": 3.0182487, "elevation": 123.0, "source": "osm", "_tags": {"ele": "123", "natural": "peak"}}, {"name": "Puig del Migdia", "latitude": 42.4320436, "longitude": 3.0449179, "elevation": 377.2, "source": "osm", "_tags": {"ele": "377.2", "name": "Puig del Migdia", "name:ca": "Puig del Migdia", "natural": "peak", "wikidata": "Q11943771", "wikipedia": "ca:Puig del Migdia"}}, {"name": "Roques Blanques", "latitude": 42.4183183, "longitude": 3.0768672, "elevation": 591.7, "source": "osm", "_tags": {"ele": "591.7", "name": "Roques Blanques", "name:ca": "Roques Blanques", "natural": "peak", "wikidata": "Q17483400", "wikipedia": "ca:Roques Blanques (Rabós)"}}, {"name": "Puig del Trauc", "latitude": 42.4055008, "longitude": 3.0768649, "elevation": 478.0, "source": "osm", "_tags": {"ele": "478.0", "name": "Puig del Trauc", "name:ca": "Puig del Trauc", "natural": "peak"}}, {"name": "Puig del Roure", "latitude": 42.3962121, "longitude": 3.0772609, "elevation": 391.2, "source": "osm", "_tags": {"ele": "391.2", "name": "Puig del Roure", "name:ca": "Puig del Roure", "natural": "peak", "wikidata": "Q11943782", "wikipedia": "ca:Puig del Roure"}}, {"name": "les Orelles de la Mula", "latitude": 42.4215035, "longitude": 3.0866367, "elevation": 688.7, "source": "osm", "_tags": {"ele": "688.7", "name": "les Orelles de la Mula", "name:ca": "les Orelles de la Mula", "natural": "peak", "wikidata": "Q11931632", "wikipedia": "ca:Les Orelles de la Mula"}}, {"name": "Puig de la Coma Grossa", "latitude": 42.431982, "longitude": 3.0087503, "elevation": 464.4, "source": "osm", "_tags": {"ele": "464.4", "name": "Puig de la Coma Grossa", "name:ca": "Puig de la Coma Grossa", "natural": "peak"}}, {"name": "Puig d'en Tarba", "latitude": 42.4412545, "longitude": 2.9985924, "elevation": 563.2, "source": "osm", "_tags": {"ele": "563.2", "name": "Puig d'en Tarba", "name:ca": "Puig d'en Tarba", "natural": "peak", "wikidata": "Q11943552", "wikipedia": "ca:Puig d'en Tarba"}}, {"name": "Pic de la Jaça de l'Home", "latitude": 42.4454064, "longitude": 3.0361053, "elevation": 412.2, "source": "osm", "_tags": {"ele": "412.2", "name": "Pic de la Jaça de l'Home", "natural": "peak", "wikidata": "Q11941536", "wikipedia": "ca:Pic de la Jaça de l'Home"}}, {"name": "Roca dels Pastors", "latitude": 42.4260261, "longitude": 3.031256, "elevation": 280.8, "source": "osm", "_tags": {"ele": "280.8", "name": "Roca dels Pastors", "name:ca": "Roca dels Pastors", "natural": "peak"}}, {"name": "", "latitude": 42.435033, "longitude": 3.1323234, "elevation": 356.5, "source": "osm", "_tags": {"ele": "356.5", "natural": "peak"}}, {"name": "Turó de la Roca Ventosa", "latitude": 42.3385918, "longitude": 3.1187203, "elevation": 241.3, "source": "osm", "_tags": {"ele": "241.3", "name": "Turó de la Roca Ventosa", "name:ca": "Turó de la Roca Ventosa", "natural": "peak"}}, {"name": "Montagut", "latitude": 41.8862629, "longitude": 3.1091564, "elevation": 266.0, "source": "osm", "_tags": {"ele": "266", "name": "Montagut", "name:ca": "Montagut", "natural": "peak", "wikidata": "Q11937391", "wikipedia": "ca:Montagut (Palamós)"}}, {"name": "Montagut Petit", "latitude": 41.8894764, "longitude": 3.1039012, "elevation": 258.0, "source": "osm", "_tags": {"ele": "258", "name": "Montagut Petit", "name:ca": "Montagut Petit", "natural": "peak"}}, {"name": "", "latitude": 42.3108726, "longitude": 3.1731552, "elevation": 622.8, "source": "osm", "_tags": {"ele": "622.8", "natural": "peak"}}, {"name": "Puig dels Frares", "latitude": 42.4357355, "longitude": 3.1534853, "elevation": null, "source": "osm", "_tags": {"name": "Puig dels Frares", "natural": "peak", "source": "IGN - 2022-06"}}, {"name": "Puig Nalt", "latitude": 42.514181, "longitude": 2.9761653, "elevation": 561.0, "source": "osm", "_tags": {"ele": "561", "name": "Puig Nalt", "natural": "peak"}}, {"name": "", "latitude": 42.5014603, "longitude": 2.9836932, "elevation": 620.0, "source": "osm", "_tags": {"ele": "620", "natural": "peak"}}, {"name": "", "latitude": 42.4893894, "longitude": 2.9984965, "elevation": 920.0, "source": "osm", "_tags": {"ele": "920", "natural": "peak"}}, {"name": "", "latitude": 42.4816574, "longitude": 2.9989622, "elevation": 1080.0, "source": "osm", "_tags": {"ele": "1080", "natural": "peak"}}, {"name": "", "latitude": 42.487042, "longitude": 3.0321167, "elevation": 780.0, "source": "osm", "_tags": {"ele": "780", "natural": "peak"}}, {"name": "", "latitude": 42.512073, "longitude": 3.0110221, "elevation": 570.0, "source": "osm", "_tags": {"ele": "570", "natural": "peak"}}, {"name": "", "latitude": 42.5157847, "longitude": 2.9999323, "elevation": 520.0, "source": "osm", "_tags": {"ele": "520", "natural": "peak"}}, {"name": "", "latitude": 42.505009, "longitude": 3.0633246, "elevation": 340.0, "source": "osm", "_tags": {"ele": "340", "natural": "peak"}}, {"name": "", "latitude": 42.4778709, "longitude": 3.0639423, "elevation": 490.0, "source": "osm", "_tags": {"ele": "490", "natural": "peak"}}, {"name": "Puig Oriol", "latitude": 42.5166336, "longitude": 3.0660738, "elevation": 247.0, "source": "osm", "_tags": {"ele": "247", "name": "Puig Oriol", "name:ca": "Puig Oriol", "natural": "peak"}}, {"name": "Puig de Querroig", "latitude": 42.4383181, "longitude": 3.1209458, "elevation": 670.0, "source": "osm", "_tags": {"ele": "670", "name": "Puig de Querroig", "name:ca": "Puig de Querroig", "natural": "peak", "summit:cross": "no", "summit:register": "no", "wikidata": "Q11943615", "wikipedia": "ca:Puig de Querroig"}}, {"name": "Puig de les Redoleres", "latitude": 42.489582, "longitude": 3.1177959, "elevation": 131.0, "source": "osm", "_tags": {"ele": "131", "name": "Puig de les Redoleres", "name:ca": "Puig de les Redoleres", "natural": "peak", "wikidata": "Q56402605", "wikipedia": "ca:Puig de les Redoleres"}}, {"name": "Martal", "latitude": 42.4558611, "longitude": 3.0937153, "elevation": 322.0, "source": "osm", "_tags": {"ele": "322", "name": "Martal", "natural": "peak"}}, {"name": "Pic de Sallfort", "latitude": 42.474579, "longitude": 3.0405616, "elevation": 982.0, "source": "osm", "_tags": {"alt_name": "Pic de Sailfort", "ele": "982", "name": "Pic de Sallfort", "name:ca": "Pic de Sallfort", "natural": "peak", "note:2": "Le point le plus haut et le pic selon les cartes catalanes est 238 m vers le sud-ouest. Le nom utilisé localement est Sallfort, on le trouve à tous les poteaux indicateurs.", "wikidata": "Q3382387", "wikipedia": "ca:Pic de Sallfort"}}, {"name": "Puig de la Calma", "latitude": 42.4357563, "longitude": 3.0699932, "elevation": 715.0, "source": "osm", "_tags": {"ele": "715", "name": "Puig de la Calma", "name:ca": "Puig de la Calma", "natural": "peak", "summit:cross": "no", "summit:register": "no", "wikidata": "Q11943671", "wikipedia": "ca:Puig de la Calma"}}, {"name": "Puig Margallot", "latitude": 41.9277638, "longitude": 3.0093727, "elevation": 139.3, "source": "osm", "_tags": {"ele": "139.3", "name": "Puig Margallot", "name:ca": "Puig Margallot", "natural": "peak"}}, {"name": "Puig de les Costes", "latitude": 41.9722633, "longitude": 3.0028239, "elevation": 97.5, "source": "osm", "_tags": {"ele": "97.5", "name": "Puig de les Costes", "natural": "peak"}}, {"name": "Puig de la Bandera", "latitude": 42.0064269, "longitude": 2.9741997, "elevation": 198.2, "source": "osm", "_tags": {"ele": "198.2", "name": "Puig de la Bandera", "name:ca": "Puig de la Bandera", "natural": "peak"}}, {"name": "Puig d'en Patller", "latitude": 42.0052, "longitude": 2.9698391, "elevation": 192.0, "source": "osm", "_tags": {"ele": "192", "name": "Puig d'en Patller", "name:ca": "Puig d'en Patller", "natural": "peak"}}, {"name": "Puig d'en Font", "latitude": 42.0087151, "longitude": 2.9725175, "elevation": 188.7, "source": "osm", "_tags": {"ele": "188.7", "name": "Puig d'en Font", "name:ca": "Puig d'en Font", "natural": "peak"}}, {"name": "Pedres Negres", "latitude": 42.2717725, "longitude": 3.2211869, "elevation": 471.0, "source": "osm", "_tags": {"ele": "471", "name": "Pedres Negres", "natural": "peak"}}, {"name": "Turó d'Aiguablava", "latitude": 41.9311129, "longitude": 3.2155991, "elevation": null, "source": "osm", "_tags": {"name": "Turó d'Aiguablava", "natural": "peak"}}, {"name": "Puig Sec", "latitude": 42.4715602, "longitude": 3.070184, "elevation": 380.0, "source": "osm", "_tags": {"ele": "380", "name": "Puig Sec", "natural": "peak"}}, {"name": "Puig del Grec", "latitude": 42.4602799, "longitude": 3.0825805, "elevation": 227.0, "source": "osm", "_tags": {"ele": "227", "name": "Puig del Grec", "natural": "peak"}}, {"name": "Puig de la Martina", "latitude": 42.4482651, "longitude": 3.0921689, "elevation": 361.0, "source": "osm", "_tags": {"ele": "361", "name": "Puig de la Martina", "natural": "peak"}}, {"name": "Puig de les Cabanasses", "latitude": 42.4432625, "longitude": 3.092025, "elevation": 354.0, "source": "osm", "_tags": {"ele": "354", "name": "Puig de les Cabanasses", "natural": "peak"}}, {"name": "Taula Rodona", "latitude": 42.4424868, "longitude": 3.1036493, "elevation": 360.0, "source": "osm", "_tags": {"ele": "360", "name": "Taula Rodona", "natural": "peak"}}, {"name": "Pla de Ras", "latitude": 42.4356475, "longitude": 3.1101353, "elevation": 563.0, "source": "osm", "_tags": {"ele": "563", "name": "Pla de Ras", "natural": "peak"}}, {"name": "Puig de Rabus", "latitude": 42.4641393, "longitude": 3.1194096, "elevation": 181.0, "source": "osm", "_tags": {"ele": "181", "name": "Puig de Rabus", "natural": "peak"}}, {"name": "Puig dels Gascons", "latitude": 42.4803805, "longitude": 3.0906009, "elevation": 361.0, "source": "osm", "_tags": {"ele": "361", "name": "Puig dels Gascons", "natural": "peak"}}, {"name": "Puig Girau", "latitude": 42.484115, "longitude": 3.0980418, "elevation": 284.0, "source": "osm", "_tags": {"ele": "284", "name": "Puig Girau", "natural": "peak"}}, {"name": "els Culers", "latitude": 42.4839822, "longitude": 3.1230199, "elevation": 56.0, "source": "osm", "_tags": {"ele": "56", "name": "els Culers", "natural": "peak"}}, {"name": "Puig de les Elmes", "latitude": 42.4943784, "longitude": 3.1233841, "elevation": 126.0, "source": "osm", "_tags": {"ele": "126", "name": "Puig de les Elmes", "natural": "peak"}}, {"name": "Puig de les Cabreres", "latitude": 42.5048635, "longitude": 3.1152788, "elevation": 72.0, "source": "osm", "_tags": {"ele": "72", "name": "Puig de les Cabreres", "natural": "peak"}}, {"name": "Puig del Verderol", "latitude": 42.5108727, "longitude": 3.112509, "elevation": null, "source": "osm", "_tags": {"name": "Puig del Verderol", "natural": "peak"}}, {"name": "la Miranda", "latitude": 42.5217559, "longitude": 3.1090683, "elevation": 49.0, "source": "osm", "_tags": {"ele": "49", "name": "la Miranda", "natural": "peak"}}, {"name": "Puig de la Granja", "latitude": 42.5057826, "longitude": 3.0977391, "elevation": 238.0, "source": "osm", "_tags": {"ele": "238", "name": "Puig de la Granja", "natural": "peak"}}, {"name": "Puig d'en Bernadi", "latitude": 42.5125179, "longitude": 3.0633717, "elevation": 231.0, "source": "osm", "_tags": {"ele": "231", "name": "Puig d'en Bernadi", "natural": "peak"}}, {"name": "Puig d'Ambella", "latitude": 42.5266966, "longitude": 3.071093, "elevation": 104.0, "source": "osm", "_tags": {"ele": "104", "name": "Puig d'Ambella", "natural": "peak"}}, {"name": "Puig dels Oms", "latitude": 42.5078673, "longitude": 3.0189624, "elevation": 584.0, "source": "osm", "_tags": {"ele": "584", "name": "Puig dels Oms", "natural": "peak"}}, {"name": "Puig Ferrant", "latitude": 42.6117985, "longitude": 2.992642, "elevation": 28.0, "source": "osm", "_tags": {"ele": "28", "name": "Puig Ferrant", "natural": "peak"}}]