[{"name": "Itzaga / Peña de Izaga", "latitude": 42.7122555, "longitude": -1.4299117, "elevation": 1360.0, "source": "osm", "_tags": {"ele": "1360", "name": "Itzaga / Peña de Izaga", "name:es": "Peña de Izaga", "name:eu": "Itzaga", "natural": "peak", "official_name": "Peña de Izaga", "prominence": "801", "source:prominence": "1361-560 (Col at the NA-150 road)", "wikidata": "Q8538688", "wikipedia": "es:Peña Izaga"}}, {"name": "Perdon 2", "latitude": 42.7324287, "longitude": -1.7028818, "elevation": 1033.82, "source": "osm", "_tags": {"ele": "1033.82", "ideewfs:nombre": "Perdon 2", "ideewfs:numeroROI": "14102", "name": "Perdon 2", "natural": "peak", "wikidata": "Q115507889"}}, {"name": "Subida San Martin", "latitude": 41.8244146, "longitude": -1.8220344, "elevation": null, "source": "osm", "_tags": {"name": "Subida San Martin", "natural": "peak"}}, {"name": "Alto de las Pilas", "latitude": 42.4204351, "longitude": -1.4636574, "elevation": 634.0, "source": "osm", "_tags": {"ele": "634", "name": "Alto de las Pilas", "natural": "peak", "source": "Instituto Geográfico Nacional", "source:date": "201011"}}, {"name": "Alto de Lamores", "latitude": 42.0147522, "longitude": -1.8671142, "elevation": null, "source": "osm", "_tags": {"name": "Alto de Lamores", "natural": "peak", "source": "Instituto Geográfico Nacional", "source:date": "201011"}}, {"name": "Monte Rades", "latitude": 42.0827118, "longitude": -1.9169707, "elevation": null, "source": "osm", "_tags": {"name": "Monte Rades", "natural": "peak", "source": "Instituto Geográfico Nacional", "source:date": "201011"}}, {"name": "Alto de La Falconera", "latitude": 42.5092974, "longitude": -1.621832, "elevation": null, "source": "osm", "_tags": {"name": "Alto de La Falconera", "natural": "peak", "source": "Instituto Geográfico Nacional", "source:date": "201011"}}, {"name": "Alto de Aramendia", "latitude": 42.6336291, "longitude": -1.6591048, "elevation": null, "source": "osm", "_tags": {"name": "Alto de Aramendia", "natural": "peak", "source": "Instituto Geográfico Nacional", "source:date": "201011"}}, {"name": "Artatxu", "latitude": 42.6525013, "longitude": -1.6135793, "elevation": 844.0, "source": "osm", "_tags": {"ele": "844", "name": "Artatxu", "natural": "peak"}}, {"name": "Alto de Gurugú", "latitude": 42.6773216, "longitude": -2.0109799, "elevation": null, "source": "osm", "_tags": {"name": "Alto de Gurugú", "natural": "peak", "source": "Instituto Geográfico Nacional", "source:date": "201011"}}, {"name": "Altos de Pozuelo", "latitude": 42.526671, "longitude": -1.6229374, "elevation": null, "source": "osm", "_tags": {"name": "Altos de Pozuelo", "natural": "peak", "source": "Instituto Geográfico Nacional", "source:date": "201011"}}, {"name": "Yerga", "latitude": 42.1435548, "longitude": -1.9722401, "elevation": 1100.7, "source": "osm", "_tags": {"ele": "1100.70", "name": "Yerga", "natural": "peak", "wikidata": "Q115511594"}}, {"name": "Nasa Alta", "latitude": 42.1386669, "longitude": -1.4004109, "elevation": 629.2, "source": "osm", "_tags": {"alt_name": "Tripa Azul", "ele": "629.20", "name": "Nasa Alta", "natural": "peak", "wikidata": "Q23991279"}}, {"name": "Canales", "latitude": 42.371274, "longitude": -1.9619503, "elevation": 427.1, "source": "osm", "_tags": {"ele": "427.10", "name": "Canales", "natural": "peak", "wikidata": "Q115500688"}}, {"name": "Vedadillo", "latitude": 42.3897063, "longitude": -1.8135205, "elevation": 445.4, "source": "osm", "_tags": {"alt_name": "El Pilón", "ele": "445.40", "name": "Vedadillo", "natural": "peak", "wikidata": "Q115511330"}}, {"name": "Malkaitz", "latitude": 42.8107983, "longitude": -1.5542419, "elevation": 771.8, "source": "osm", "_tags": {"ele": "771.80", "name": "Malkaitz", "natural": "peak", "wikidata": "Q115505708"}}, {"name": "Basagaitz", "latitude": 42.62128, "longitude": -1.5179518, "elevation": 989.8, "source": "osm", "_tags": {"alt_name": "Uzquita", "ele": "989.80", "name": "Basagaitz", "natural": "peak", "wikidata": "Q115510967"}}, {"name": "Ugarte", "latitude": 42.5932799, "longitude": -1.2463978, "elevation": 629.4, "source": "osm", "_tags": {"ele": "629.40", "name": "Ugarte", "natural": "peak", "wikidata": "Q115510925"}}, {"name": "Jenariz", "latitude": 42.4671641, "longitude": -1.8590938, "elevation": 550.8, "source": "osm", "_tags": {"ele": "550.80", "name": "Jenariz", "natural": "peak", "wikidata": "Q115504369"}}, {"name": "Vigas", "latitude": 42.4290349, "longitude": -1.4931216, "elevation": 700.9, "source": "osm", "_tags": {"ele": "700.90", "name": "Vigas", "natural": "peak", "wikidata": "Q115499808"}}, {"name": "Zarikieta", "latitude": 42.8097575, "longitude": -1.2965007, "elevation": 1050.1, "source": "osm", "_tags": {"ele": "1050.10", "name": "Zarikieta", "natural": "peak", "wikidata": "Q115511630"}}, {"name": "Trinidad", "latitude": 42.6382861, "longitude": -1.2864207, "elevation": 845.9, "source": "osm", "_tags": {"ele": "845.90", "name": "Trinidad", "name:es": "Trinidad", "name:eu": "Trinitatea", "natural": "peak", "wikidata": "Q115510862"}}, {"name": "Santa Cruz", "latitude": 42.5961023, "longitude": -1.1615994, "elevation": 852.5, "source": "osm", "_tags": {"ele": "852.50", "name": "Santa Cruz", "name:an": "Pueyo de Santa Cruz", "natural": "peak"}}, {"name": "Cantera", "latitude": 41.9840945, "longitude": -1.7231363, "elevation": 459.3, "source": "osm", "_tags": {"ele": "459.30", "name": "Cantera", "natural": "peak", "wikidata": "Q115500769"}}, {"name": "Peña", "latitude": 42.4983118, "longitude": -1.286324, "elevation": 1068.6, "source": "osm", "_tags": {"ele": "1068.60", "name": "Peña", "natural": "peak", "wikidata": "Q115507625"}}, {"name": "Santa Ágata", "latitude": 42.576717, "longitude": -1.4294015, "elevation": 863.4, "source": "osm", "_tags": {"ele": "863.40", "name": "Santa Ágata", "natural": "peak", "wikidata": "Q112784676", "wikipedia": "eu:Santa Ágata"}}, {"name": "Arangoiti", "latitude": 42.6445912, "longitude": -1.1956142, "elevation": 1355.8, "source": "osm", "_tags": {"ele": "1355.80", "name": "Arangoiti", "natural": "peak", "wikidata": "Q12253827"}}, {"name": "San Cristóbal 2", "latitude": 42.6548195, "longitude": -1.9246473, "elevation": 738.7, "source": "osm", "_tags": {"ele": "738.7", "name": "San Cristóbal 2", "name:es": "San Cristóbal 2", "name:eu": "San Kristobal 2 baseliza", "natural": "peak", "wikidata": "Q115509295"}}, {"name": "Bandera", "latitude": 42.0830774, "longitude": -1.4756975, "elevation": 511.8, "source": "osm", "_tags": {"ele": "511.80", "name": "Bandera", "natural": "peak", "wikidata": "Q115499592"}}, {"name": "San Bartolomé", "latitude": 42.5633296, "longitude": -1.9364219, "elevation": 518.8, "source": "osm", "_tags": {"ele": "518.80", "name": "San Bartolomé", "natural": "peak", "wikidata": "Q23992292"}}, {"name": "Txutxu", "latitude": 42.5424321, "longitude": -1.5162297, "elevation": 930.5, "source": "osm", "_tags": {"alt_name": "Chucho Alto", "ele": "930.50", "name": "Txutxu", "natural": "peak", "wikidata": "Q112785116", "wikipedia": "eu:Txutxu"}}, {"name": "San Pedro", "latitude": 42.5029576, "longitude": -1.3851148, "elevation": 888.9, "source": "osm", "_tags": {"ele": "888.90", "name": "San Pedro", "natural": "peak", "wikidata": "Q115509439"}}, {"name": "Cornialto", "latitude": 42.2871304, "longitude": -1.4520447, "elevation": 508.5, "source": "osm", "_tags": {"ele": "508.50", "name": "Cornialto", "natural": "peak", "wikidata": "Q24001671"}}, {"name": "Portal", "latitude": 42.1275646, "longitude": -1.5219664, "elevation": 462.4, "source": "osm", "_tags": {"ele": "462.40", "name": "Portal", "natural": "peak", "wikidata": "Q115508289"}}, {"name": "San Marcos", "latitude": 42.5275579, "longitude": -1.9319842, "elevation": 528.1, "source": "osm", "_tags": {"ele": "528.10", "name": "San Marcos", "natural": "peak", "wikidata": "Q115509393"}}, {"name": "Irulegi", "latitude": 42.7794831, "longitude": -1.513399, "elevation": 893.0, "source": "osm", "_tags": {"alt_name": "Laquidáin;Lakidain;Irurlegi", "ele": "893", "name": "Irulegi", "natural": "peak", "wikidata": "Q12259766"}}, {"name": "Lantxurda", "latitude": 42.6458677, "longitude": -1.4477986, "elevation": 1037.0, "source": "osm", "_tags": {"ele": "1037.00", "name": "Lantxurda", "natural": "peak", "wikidata": "Q66732669"}}, {"name": "Pegado", "latitude": 41.9076803, "longitude": -2.0028421, "elevation": 1291.3, "source": "osm", "_tags": {"ele": "1291.30", "name": "Pegado", "natural": "peak", "wikidata": "Q115507530"}}, {"name": "Muga", "latitude": 41.9724654, "longitude": -1.8140667, "elevation": 860.7, "source": "osm", "_tags": {"ele": "860.70", "name": "Muga", "natural": "peak"}}, {"name": "Escalar", "latitude": 42.643638, "longitude": -1.0804777, "elevation": 1299.8, "source": "osm", "_tags": {"ele": "1299.80", "name": "Escalar", "natural": "peak"}}, {"name": "Sancho Abarca", "latitude": 42.020912, "longitude": -1.3231539, "elevation": 630.0, "source": "osm", "_tags": {"ele": "630.00", "name": "Sancho Abarca", "natural": "peak", "wikidata": "Q23992306"}}, {"name": "Selva", "latitude": 42.4450632, "longitude": -1.1185045, "elevation": 1158.0, "source": "osm", "_tags": {"ele": "1158.00", "name": "Selva", "natural": "peak"}}, {"name": "Albortu", "latitude": 41.8631706, "longitude": -1.7368078, "elevation": 815.5, "source": "osm", "_tags": {"ele": "815.50", "name": "Albortu", "natural": "peak"}}, {"name": "Lomo Royo", "latitude": 41.9503038, "longitude": -1.3310827, "elevation": 344.0, "source": "osm", "_tags": {"ele": "344.00", "name": "Lomo Royo", "natural": "peak"}}, {"name": "Punta la Negra", "latitude": 42.0742409, "longitude": -1.3099927, "elevation": 649.9, "source": "osm", "_tags": {"ele": "649.90", "name": "Punta la Negra", "natural": "peak", "wikidata": "Q66314603"}}, {"name": "Elizmendi", "latitude": 42.8076856, "longitude": -1.6064986, "elevation": null, "source": "osm", "_tags": {"name": "Elizmendi", "name:es": "Monte Campamento", "name:eu": "Elizmendi", "natural": "peak", "source": "Instituto Geográfico Nacional", "source:date": "201011"}}, {"name": "Obiarri", "latitude": 42.8110603, "longitude": -1.8623513, "elevation": 982.0, "source": "osm", "_tags": {"ele": "982", "name": "Obiarri", "natural": "peak", "source": "Instituto Geográfico Nacional", "source:date": "201011"}}, {"name": "Ezpeldiabazter", "latitude": 42.8053601, "longitude": -1.8915724, "elevation": 1014.0, "source": "osm", "_tags": {"ele": "1014", "name": "Ezpeldiabazter", "natural": "peak", "source": "Instituto Geográfico Nacional", "source:date": "201011"}}, {"name": "Izmendia", "latitude": 42.7823471, "longitude": -1.8957458, "elevation": 927.0, "source": "osm", "_tags": {"ele": "927", "name": "Izmendia", "natural": "peak", "source": "Instituto Geográfico Nacional", "source:date": "201011", "wikidata": "Q112788878", "wikipedia": "eu:Izmendia"}}, {"name": "Karbatoki", "latitude": 42.6797681, "longitude": -1.5605418, "elevation": 1115.0, "source": "osm", "_tags": {"ele": "1115", "name": "Karbatoki", "natural": "peak", "source": "Instituto Geográfico Nacional", "source:date": "201011"}}, {"name": "Soroluzeta", "latitude": 42.7996349, "longitude": -1.8955263, "elevation": 1014.0, "source": "osm", "_tags": {"ele": "1014", "name": "Soroluzeta", "natural": "peak", "source": "Instituto Geográfico Nacional", "source:date": "201011"}}, {"name": "Andaradia", "latitude": 42.7940064, "longitude": -1.8961123, "elevation": 1003.0, "source": "osm", "_tags": {"ele": "1003", "name": "Andaradia", "natural": "peak", "source": "Instituto Geográfico Nacional", "source:date": "201011"}}, {"name": "Ezkarai", "latitude": 42.7831175, "longitude": -1.2058186, "elevation": 914.0, "source": "osm", "_tags": {"ele": "914", "name": "Ezkarai", "natural": "peak"}}, {"name": "Talluntzelarre", "latitude": 42.7296904, "longitude": -1.3722942, "elevation": 718.0, "source": "osm", "_tags": {"ele": "718", "name": "Talluntzelarre", "natural": "peak", "source:date": "201011"}}, {"name": "Alduntza", "latitude": 42.8003956, "longitude": -1.366004, "elevation": 652.0, "source": "osm", "_tags": {"ele": "652", "name": "Alduntza", "natural": "peak", "source:date": "201011"}}, {"name": "Artasoeta", "latitude": 42.7943461, "longitude": -1.1186682, "elevation": 959.0, "source": "osm", "_tags": {"ele": "959", "name": "Artasoeta", "natural": "peak", "source": "Instituto Geográfico Nacional", "source:date": "201011", "wikidata": "Q112786290", "wikipedia": "eu:Artasoeta"}}, {"name": "Salbatore", "latitude": 42.8155198, "longitude": -1.2851967, "elevation": 1039.16, "source": "osm", "_tags": {"ele": "1039.16", "name": "Salbatore", "natural": "peak", "source": "Instituto Geográfico Nacional", "source:date": "201011"}}, {"name": "Cabezo de Piskerra", "latitude": 42.2224581, "longitude": -1.4392537, "elevation": 466.0, "source": "osm", "_tags": {"ele": "466", "name": "Cabezo de Piskerra", "name:es": "Cabezo de Pisquerra", "name:eu": "Piskerrako tontorra", "natural": "peak", "source": "Minisdef", "source:date": "201011"}}, {"name": "Puntal de Lecinera", "latitude": 42.6869788, "longitude": -1.0750769, "elevation": 1222.0, "source": "osm", "_tags": {"ele": "1222", "name": "Puntal de Lecinera", "natural": "peak", "source:date": "201011"}}, {"name": "Kurkuxulo", "latitude": 42.7833256, "longitude": -1.1639999, "elevation": 1018.0, "source": "osm", "_tags": {"ele": "1018", "name": "Kurkuxulo", "natural": "peak", "source:date": "201011", "wikidata": "Q112786192", "wikipedia": "eu:Kurkuxulo"}}, {"name": "El Púlpito", "latitude": 42.7973246, "longitude": -1.1305575, "elevation": 1042.0, "source": "osm", "_tags": {"ele": "1042", "name": "El Púlpito", "natural": "peak", "source:date": "201011"}}, {"name": "La Sarda del Trillo", "latitude": 42.2126885, "longitude": -1.5594898, "elevation": null, "source": "osm", "_tags": {"name": "La Sarda del Trillo", "natural": "peak", "population": "432", "source": "Instituto Geográfico Nacional", "source:date": "201011"}}, {"name": "San Bernabé", "latitude": 42.6582431, "longitude": -1.6347495, "elevation": 822.0, "source": "osm", "_tags": {"ele": "822", "name": "San Bernabé", "natural": "peak", "source:date": "201011"}}, {"name": "Arazeki", "latitude": 42.8191324, "longitude": -1.1110308, "elevation": 978.0, "source": "osm", "_tags": {"ele": "978", "name": "Arazeki", "natural": "peak", "source": "Instituto Geográfico Nacional", "source:date": "201011"}}, {"name": "Santa Ágata", "latitude": 42.8191848, "longitude": -1.124792, "elevation": 1087.0, "source": "osm", "_tags": {"ele": "1087", "name": "Santa Ágata", "natural": "peak", "source": "Instituto Geográfico Nacional", "source:date": "201011"}}, {"name": "Muniain", "latitude": 42.6843026, "longitude": -1.3732385, "elevation": 741.0, "source": "osm", "_tags": {"ele": "741", "name": "Muniain", "natural": "peak", "source:date": "201011"}}, {"name": "Puntallo de Berroeta", "latitude": 42.7997318, "longitude": -1.1503727, "elevation": 1143.0, "source": "osm", "_tags": {"ele": "1143", "name": "Puntallo de Berroeta", "natural": "peak", "source": "Instituto Geográfico Nacional", "source:date": "201011"}}, {"name": "El Rallón", "latitude": 42.2098223, "longitude": -1.4280857, "elevation": 493.0, "source": "osm", "_tags": {"ele": "493", "name": "El Rallón", "natural": "peak", "source": "Instituto Geográfico Nacional", "source:date": "201011"}}, {"name": "Ganbella", "latitude": 42.7036715, "longitude": -1.4220322, "elevation": 1256.0, "source": "osm", "_tags": {"alt_name": "Sambelles", "ele": "1256", "name": "Ganbella", "natural": "peak", "source": "Instituto Geográfico Nacional", "source:date": "201011"}}, {"name": "Alto de la Tejera", "latitude": 41.9029167, "longitude": -1.9544321, "elevation": 992.0, "source": "osm", "_tags": {"ele": "992", "name": "Alto de la Tejera", "natural": "peak", "source": "Instituto Geográfico Nacional", "source:date": "201011", "source:name": "Nomenclator Geográfico Básico de España"}}, {"name": "Cerro del Nocedillo", "latitude": 41.8640504, "longitude": -1.8858988, "elevation": 904.0, "source": "osm", "_tags": {"ele": "904", "name": "Cerro del Nocedillo", "natural": "peak", "source": "Instituto Geográfico Nacional", "source:date": "201011", "source:name": "Nomenclator Geográfico Básico de España"}}, {"name": "Atalaya del Renegado", "latitude": 41.826739, "longitude": -1.842452, "elevation": 1062.0, "source": "osm", "_tags": {"ele": "1062", "name": "Atalaya del Renegado", "natural": "peak", "source": "Instituto Geográfico Nacional", "source:date": "201011", "source:name": "Nomenclator Geográfico Básico de España"}}, {"name": "Alto de la Cerradilla", "latitude": 41.8328998, "longitude": -1.8963645, "elevation": 1176.0, "source": "osm", "_tags": {"ele": "1176", "name": "Alto de la Cerradilla", "natural": "peak", "source": "Instituto Geográfico Nacional", "source:date": "201011", "source:name": "Nomenclator Geográfico Básico de España"}}, {"name": "Alto de Valmayor", "latitude": 41.8739518, "longitude": -1.842629, "elevation": null, "source": "osm", "_tags": {"name": "Alto de Valmayor", "natural": "peak", "source": "Instituto Geográfico Nacional", "source:date": "201011", "source:name": "Nomenclator Geográfico Básico de España"}}, {"name": "Alto de Rojitas", "latitude": 41.9604075, "longitude": -1.7276766, "elevation": 481.0, "source": "osm", "_tags": {"ele": "481", "name": "Alto de Rojitas", "natural": "peak", "source": "Instituto Geográfico Nacional", "source:date": "201011"}}, {"name": "Alto de la Dehesa", "latitude": 41.8702862, "longitude": -1.7867335, "elevation": 732.0, "source": "osm", "_tags": {"ele": "732", "name": "Alto de la Dehesa", "natural": "peak"}}, {"name": "Alto de la Paridera", "latitude": 41.879869, "longitude": -1.7201804, "elevation": 593.0, "source": "osm", "_tags": {"ele": "593", "name": "Alto de la Paridera", "natural": "peak", "source": "Instituto Geográfico Nacional", "source:date": "201011"}}, {"name": "Cerro del Haya", "latitude": 42.6976227, "longitude": -1.4669672, "elevation": 861.0, "source": "osm", "_tags": {"ele": "861", "name": "Cerro del Haya", "natural": "peak", "source": "Instituto Geográfico Nacional", "source:date": "201011"}}, {"name": "Alto de Pecha", "latitude": 42.6163511, "longitude": -1.7570452, "elevation": null, "source": "osm", "_tags": {"name": "Alto de Pecha", "natural": "peak", "source": "Instituto Geográfico Nacional", "source:date": "201011"}}, {"name": "Alto Borda de las Vacas", "latitude": 42.6656029, "longitude": -1.5730859, "elevation": 938.0, "source": "osm", "_tags": {"ele": "938", "name": "Alto Borda de las Vacas", "natural": "peak", "source": "Instituto Geográfico Nacional", "source:date": "201011"}}, {"name": "Monte Canraso", "latitude": 42.0792474, "longitude": -1.6330713, "elevation": null, "source": "osm", "_tags": {"name": "Monte Canraso", "natural": "peak", "source": "Instituto Geográfico Nacional", "source:date": "201011"}}, {"name": "Alto del Gollizo", "latitude": 42.2195293, "longitude": -2.0225633, "elevation": null, "source": "osm", "_tags": {"name": "Alto del Gollizo", "natural": "peak", "source": "Instituto Geográfico Nacional", "source:date": "201011"}}, {"name": "Alto de Panadiago", "latitude": 42.4931751, "longitude": -1.8501376, "elevation": 417.0, "source": "osm", "_tags": {"ele": "417", "name": "Alto de Panadiago", "natural": "peak", "source": "Instituto Geográfico Nacional", "source:date": "201011"}}, {"name": "Itxesorde", "latitude": 42.8076864, "longitude": -1.8522898, "elevation": 1009.0, "source": "osm", "_tags": {"ele": "1009", "name": "Itxesorde", "natural": "peak", "source": "Instituto Geográfico Nacional", "source:date": "201011", "wikidata": "Q112788991", "wikipedia": "eu:Itxesorde"}}, {"name": "Alto del Carbonero", "latitude": 42.4808323, "longitude": -1.7449498, "elevation": null, "source": "osm", "_tags": {"name": "Alto del Carbonero", "natural": "peak", "source": "Instituto Geográfico Nacional", "source:date": "201011"}}, {"name": "Peñas Negras", "latitude": 42.0362326, "longitude": -1.9790211, "elevation": null, "source": "osm", "_tags": {"name": "Peñas Negras", "natural": "peak", "source": "Instituto Geográfico Nacional", "source:date": "201011"}}, {"name": "Peñón de San Francisco", "latitude": 42.0766869, "longitude": -1.9798405, "elevation": null, "source": "osm", "_tags": {"name": "Peñón de San Francisco", "natural": "peak", "source": "Instituto Geográfico Nacional", "source:date": "201011"}}, {"name": "Alto de Eristáin", "latitude": 42.6156141, "longitude": -1.6059783, "elevation": 652.0, "source": "osm", "_tags": {"ele": "652", "name": "Alto de Eristáin", "natural": "peak", "source": "Instituto Geográfico Nacional", "source:date": "201011"}}, {"name": "Alto El Paco", "latitude": 42.7775815, "longitude": -1.3210781, "elevation": null, "source": "osm", "_tags": {"name": "Alto El Paco", "natural": "peak", "source": "Instituto Geográfico Nacional", "source:date": "201011"}}, {"name": "Alto del Txaparro", "latitude": 42.6572839, "longitude": -1.7348209, "elevation": 695.0, "source": "osm", "_tags": {"ele": "695", "name": "Alto del Txaparro", "natural": "peak", "source": "Instituto Geográfico Nacional", "source:date": "201011"}}, {"name": "Alto del Pelón", "latitude": 42.0314289, "longitude": -1.8708183, "elevation": 624.0, "source": "osm", "_tags": {"ele": "624", "name": "Alto del Pelón", "natural": "peak", "source": "Instituto Geográfico Nacional", "source:date": "201011"}}, {"name": "Alto de la Marquesa", "latitude": 42.613949, "longitude": -1.5220231, "elevation": 986.0, "source": "osm", "_tags": {"ele": "986", "name": "Alto de la Marquesa", "natural": "peak", "source": "Instituto Geográfico Nacional", "source:date": "201011"}}, {"name": "Altos de la Corona", "latitude": 42.6135257, "longitude": -1.8310477, "elevation": null, "source": "osm", "_tags": {"name": "Altos de la Corona", "natural": "peak", "source": "Instituto Geográfico Nacional", "source:date": "201011"}}, {"name": "Alto de los Fuejos", "latitude": 42.0808064, "longitude": -1.9907444, "elevation": null, "source": "osm", "_tags": {"name": "Alto de los Fuejos", "natural": "peak", "source": "Instituto Geográfico Nacional", "source:date": "201011"}}, {"name": "Alto de Camproñal", "latitude": 42.5047785, "longitude": -1.5847642, "elevation": 527.0, "source": "osm", "_tags": {"ele": "527", "name": "Alto de Camproñal", "natural": "peak", "source": "Instituto Geográfico Nacional", "source:date": "201011"}}, {"name": "Peña Redonda", "latitude": 42.7421858, "longitude": -1.8111815, "elevation": 899.0, "source": "osm", "_tags": {"ele": "899", "name": "Peña Redonda", "natural": "peak", "source": "Instituto Geográfico Nacional", "source:date": "201011"}}, {"name": "Alastrain", "latitude": 42.700849, "longitude": -1.5915809, "elevation": 975.0, "source": "osm", "_tags": {"ele": "975", "name": "Alastrain", "natural": "peak", "source": "Instituto Geográfico Nacional", "source:date": "201011"}}, {"name": "Alto Redondo", "latitude": 42.532403, "longitude": -1.8580589, "elevation": null, "source": "osm", "_tags": {"name": "Alto Redondo", "natural": "peak", "source": "Instituto Geográfico Nacional", "source:date": "201011"}}, {"name": "Alto del Chomo", "latitude": 42.4320713, "longitude": -1.8375516, "elevation": null, "source": "osm", "_tags": {"name": "Alto del Chomo", "natural": "peak", "source": "Instituto Geográfico Nacional", "source:date": "201011"}}, {"name": "Altos de Muruzar", "latitude": 42.5856095, "longitude": -1.5928523, "elevation": null, "source": "osm", "_tags": {"name": "Altos de Muruzar", "natural": "peak", "source": "Instituto Geográfico Nacional", "source:date": "201011"}}, {"name": "Landabarren", "latitude": 42.7834286, "longitude": -1.5934457, "elevation": 533.0, "source": "osm", "_tags": {"ele": "533", "name": "Landabarren", "natural": "peak", "source": "Instituto Geográfico Nacional", "source:date": "201011"}}, {"name": "Alto de Peñas", "latitude": 42.5530042, "longitude": -1.9313751, "elevation": null, "source": "osm", "_tags": {"name": "Alto de Peñas", "natural": "peak", "source": "Instituto Geográfico Nacional", "source:date": "201011"}}, {"name": "Alto de Pingolotero", "latitude": 42.5481352, "longitude": -1.7777521, "elevation": null, "source": "osm", "_tags": {"name": "Alto de Pingolotero", "natural": "peak", "source": "Instituto Geográfico Nacional", "source:date": "201011"}}, {"name": "Altos de Valgorra", "latitude": 42.5254064, "longitude": -1.6360079, "elevation": null, "source": "osm", "_tags": {"name": "Altos de Valgorra", "natural": "peak", "source": "Instituto Geográfico Nacional", "source:date": "201011"}}, {"name": "Alto Roque El Moro", "latitude": 42.0707948, "longitude": -1.9857132, "elevation": null, "source": "osm", "_tags": {"name": "Alto Roque El Moro", "natural": "peak", "source": "Instituto Geográfico Nacional", "source:date": "201011"}}, {"name": "Peña Grande", "latitude": 42.6929686, "longitude": -1.5351887, "elevation": 1093.0, "source": "osm", "_tags": {"ele": "1093", "name": "Peña Grande", "natural": "peak", "source": "Instituto Geográfico Nacional", "source:date": "201011"}}, {"name": "Alto de Santa Cruz", "latitude": 42.6296732, "longitude": -1.8667707, "elevation": null, "source": "osm", "_tags": {"name": "Alto de Santa Cruz", "natural": "peak", "source": "Instituto Geográfico Nacional", "source:date": "201011"}}, {"name": "Altos de Kandaraitz", "latitude": 42.5231472, "longitude": -1.7679158, "elevation": null, "source": "osm", "_tags": {"name": "Altos de Kandaraitz", "natural": "peak", "source": "Instituto Geográfico Nacional", "source:date": "201011"}}, {"name": "Alto de Torroplín", "latitude": 41.9678668, "longitude": -1.73437, "elevation": 506.0, "source": "osm", "_tags": {"ele": "506", "name": "Alto de Torroplín", "natural": "peak", "source": "Instituto Geográfico Nacional", "source:date": "201011"}}, {"name": "Alto de Kapana", "latitude": 42.6953, "longitude": -1.9536816, "elevation": null, "source": "osm", "_tags": {"name": "Alto de Kapana", "natural": "peak", "source": "Instituto Geográfico Nacional", "source:date": "201011"}}, {"name": "Alto de los Conejos", "latitude": 42.6153846, "longitude": -1.6140933, "elevation": null, "source": "osm", "_tags": {"name": "Alto de los Conejos", "natural": "peak", "source": "Instituto Geográfico Nacional", "source:date": "201011"}}, {"name": "Alto del Pinar", "latitude": 42.4401501, "longitude": -1.472066, "elevation": null, "source": "osm", "_tags": {"name": "Alto del Pinar", "natural": "peak", "source": "Instituto Geográfico Nacional", "source:date": "201011"}}, {"name": "Alto del Pelán", "latitude": 42.0027304, "longitude": -2.027962, "elevation": null, "source": "osm", "_tags": {"name": "Alto del Pelán", "natural": "peak", "source": "Instituto Geográfico Nacional", "source:date": "201011"}}, {"name": "Peña La Culeca", "latitude": 42.5671821, "longitude": -1.8881868, "elevation": null, "source": "osm", "_tags": {"name": "Peña La Culeca", "natural": "peak", "source": "Instituto Geográfico Nacional", "source:date": "201011"}}, {"name": "Alto de Gurrucho", "latitude": 42.545158, "longitude": -1.7035793, "elevation": null, "source": "osm", "_tags": {"name": "Alto de Gurrucho", "natural": "peak", "source": "Instituto Geográfico Nacional", "source:date": "201011"}}, {"name": "Alto las Cruces", "latitude": 42.5255655, "longitude": -1.6880558, "elevation": 489.0, "source": "osm", "_tags": {"ele": "489", "name": "Alto las Cruces", "natural": "peak"}}, {"name": "Alto de los Sequeros", "latitude": 42.0704939, "longitude": -1.9812333, "elevation": null, "source": "osm", "_tags": {"name": "Alto de los Sequeros", "natural": "peak", "source": "Instituto Geográfico Nacional", "source:date": "201011"}}, {"name": "Morro del Capitán", "latitude": 42.0361564, "longitude": -1.9506974, "elevation": null, "source": "osm", "_tags": {"name": "Morro del Capitán", "natural": "peak", "source": "Instituto Geográfico Nacional", "source:date": "201011"}}, {"name": "Alto de las Saleras", "latitude": 42.6544626, "longitude": -1.539461, "elevation": 913.0, "source": "osm", "_tags": {"ele": "913", "name": "Alto de las Saleras", "natural": "peak", "source": "Instituto Geográfico Nacional", "source:date": "201011"}}, {"name": "Cabezomoro", "latitude": 42.1071255, "longitude": -1.4267566, "elevation": 445.0, "source": "osm", "_tags": {"ele": "445", "name": "Cabezomoro", "natural": "peak", "source": "Instituto Geográfico Nacional", "source:date": "201011"}}, {"name": "Peña de Unzué", "latitude": 42.6574985, "longitude": -1.6148902, "elevation": 987.0, "source": "osm", "_tags": {"ele": "987", "name": "Peña de Unzué", "name:eu": "Untzueko haitza", "natural": "peak", "source": "Instituto Geográfico Nacional", "source:date": "201011", "wikidata": "Q6073906"}}, {"name": "Alto Carricas", "latitude": 42.3656785, "longitude": -1.8023814, "elevation": null, "source": "osm", "_tags": {"name": "Alto Carricas", "natural": "peak", "source": "Instituto Geográfico Nacional", "source:date": "201011"}}, {"name": "Alto del Piedral", "latitude": 42.5697294, "longitude": -1.6904964, "elevation": null, "source": "osm", "_tags": {"name": "Alto del Piedral", "natural": "peak", "source": "Instituto Geográfico Nacional", "source:date": "201011"}}, {"name": "Alto del Cascajo", "latitude": 42.6996129, "longitude": -1.6707591, "elevation": 628.0, "source": "osm", "_tags": {"ele": "628", "name": "Alto del Cascajo", "natural": "peak", "source": "Instituto Geográfico Nacional", "source:date": "201011"}}, {"name": "Alto Umbano", "latitude": 42.4018851, "longitude": -1.8139409, "elevation": 428.0, "source": "osm", "_tags": {"ele": "428", "name": "Alto Umbano", "natural": "peak", "source": "Instituto Geográfico Nacional", "source:date": "201011"}}, {"name": "Alto de la Quitería", "latitude": 42.0767542, "longitude": -1.8976207, "elevation": null, "source": "osm", "_tags": {"name": "Alto de la Quitería", "natural": "peak", "source": "Instituto Geográfico Nacional", "source:date": "201011"}}, {"name": "Monte El Mediano", "latitude": 42.025552, "longitude": -1.9314168, "elevation": null, "source": "osm", "_tags": {"name": "Monte El Mediano", "natural": "peak", "source": "Instituto Geográfico Nacional", "source:date": "201011"}}, {"name": "Cerrillo de Gorrión", "latitude": 42.0776228, "longitude": -1.950823, "elevation": null, "source": "osm", "_tags": {"name": "Cerrillo de Gorrión", "natural": "peak", "source": "Instituto Geográfico Nacional", "source:date": "201011"}}, {"name": "Alto de la Borda", "latitude": 42.7980142, "longitude": -1.572854, "elevation": null, "source": "osm", "_tags": {"name": "Alto de la Borda", "natural": "peak", "source": "Instituto Geográfico Nacional", "source:date": "201011"}}, {"name": "Alto de la Iglesia", "latitude": 42.6221298, "longitude": -1.6095865, "elevation": null, "source": "osm", "_tags": {"name": "Alto de la Iglesia", "natural": "peak", "source": "Instituto Geográfico Nacional", "source:date": "201011"}}, {"name": "Alto de Santa Ágata", "latitude": 42.6267202, "longitude": -1.5239774, "elevation": null, "source": "osm", "_tags": {"name": "Alto de Santa Ágata", "natural": "peak", "source": "Instituto Geográfico Nacional", "source:date": "201011"}}, {"name": "Monte de Canraso", "latitude": 42.0894299, "longitude": -1.6366996, "elevation": null, "source": "osm", "_tags": {"name": "Monte de Canraso", "natural": "peak", "source": "Instituto Geográfico Nacional", "source:date": "201011"}}, {"name": "Alto de las Coronas occ.", "latitude": 42.7234244, "longitude": -1.0583114, "elevation": null, "source": "osm", "_tags": {"name": "Alto de las Coronas occ.", "natural": "peak", "source": "Instituto Geográfico Nacional", "source:date": "201011"}}, {"name": "Olkotz", "latitude": 42.6470991, "longitude": -1.6666347, "elevation": 701.0, "source": "osm", "_tags": {"ele": "701", "name": "Olkotz", "natural": "peak", "source": "Instituto Geográfico Nacional", "source:date": "201011"}}, {"name": "Alto de los Pasaros", "latitude": 42.5218632, "longitude": -1.5318844, "elevation": 737.0, "source": "osm", "_tags": {"ele": "737", "name": "Alto de los Pasaros", "natural": "peak", "source": "Instituto Geográfico Nacional", "source:date": "201011"}}, {"name": "Alto Los Llanos", "latitude": 42.0459343, "longitude": -1.9792948, "elevation": null, "source": "osm", "_tags": {"name": "Alto Los Llanos", "natural": "peak", "source": "Instituto Geográfico Nacional", "source:date": "201011"}}, {"name": "Alto de las Cabras", "latitude": 42.5377791, "longitude": -1.8016397, "elevation": null, "source": "osm", "_tags": {"name": "Alto de las Cabras", "natural": "peak", "source": "Instituto Geográfico Nacional", "source:date": "201011"}}, {"name": "Alto de Aiurdi", "latitude": 42.674977, "longitude": -1.60077, "elevation": 979.0, "source": "osm", "_tags": {"ele": "979", "name": "Alto de Aiurdi", "natural": "peak", "source": "Instituto Geográfico Nacional", "source:date": "201011"}}, {"name": "Alto del Coronel", "latitude": 42.4970509, "longitude": -1.5618621, "elevation": 558.0, "source": "osm", "_tags": {"ele": "558", "name": "Alto del Coronel", "natural": "peak", "source": "Instituto Geográfico Nacional", "source:date": "201011"}}, {"name": "Alto de la Tejada", "latitude": 42.3209136, "longitude": -1.9006199, "elevation": null, "source": "osm", "_tags": {"name": "Alto de la Tejada", "natural": "peak", "source": "Instituto Geográfico Nacional", "source:date": "201011"}}, {"name": "Peña La Hiedra", "latitude": 42.0549792, "longitude": -2.0052051, "elevation": null, "source": "osm", "_tags": {"name": "Peña La Hiedra", "natural": "peak", "source": "Instituto Geográfico Nacional", "source:date": "201011"}}, {"name": "Peña del Ladrón", "latitude": 42.598922, "longitude": -1.5625911, "elevation": 908.0, "source": "osm", "_tags": {"ele": "908", "name": "Peña del Ladrón", "natural": "peak", "source": "Instituto Geográfico Nacional", "source:date": "201011"}}, {"name": "Santa Agata", "latitude": 42.6985256, "longitude": -1.4207612, "elevation": 1208.0, "source": "osm", "_tags": {"ele": "1208", "name": "Santa Agata", "natural": "peak", "source": "Instituto Geográfico Nacional", "source:date": "201011"}}, {"name": "Altos de Karakidoia", "latitude": 42.6018742, "longitude": -1.7273905, "elevation": null, "source": "osm", "_tags": {"name": "Altos de Karakidoia", "natural": "peak", "source": "Instituto Geográfico Nacional", "source:date": "201011"}}, {"name": "Alto del Chaparral", "latitude": 42.6153513, "longitude": -1.5977298, "elevation": null, "source": "osm", "_tags": {"name": "Alto del Chaparral", "natural": "peak", "source": "Instituto Geográfico Nacional", "source:date": "201011"}}, {"name": "Alto del Baño", "latitude": 42.0618077, "longitude": -1.9027385, "elevation": 576.0, "source": "osm", "_tags": {"ele": "576", "name": "Alto del Baño", "natural": "peak", "source": "Instituto Geográfico Nacional", "source:date": "201011"}}, {"name": "Alto del Corral Chiquito", "latitude": 42.6003369, "longitude": -1.5510191, "elevation": 834.0, "source": "osm", "_tags": {"ele": "834", "name": "Alto del Corral Chiquito", "natural": "peak", "source": "Instituto Geográfico Nacional", "source:date": "201011"}}, {"name": "Oritz", "latitude": 42.731955, "longitude": -1.6254093, "elevation": 558.0, "source": "osm", "_tags": {"ele": "558", "name": "Oritz", "natural": "peak", "source": "Instituto Geográfico Nacional", "source:date": "201011"}}, {"name": "Alto de Iturtxuria", "latitude": 42.6381361, "longitude": -1.8866909, "elevation": null, "source": "osm", "_tags": {"name": "Alto de Iturtxuria", "natural": "peak", "source": "Instituto Geográfico Nacional", "source:date": "201011"}}, {"name": "Alto de Juan Domingo", "latitude": 42.4509325, "longitude": -1.5640014, "elevation": null, "source": "osm", "_tags": {"name": "Alto de Juan Domingo", "natural": "peak", "source": "Instituto Geográfico Nacional", "source:date": "201011"}}, {"name": "Alto de Juan Barranco", "latitude": 42.6109253, "longitude": -1.60106, "elevation": 615.0, "source": "osm", "_tags": {"ele": "615", "name": "Alto de Juan Barranco", "natural": "peak", "source": "Instituto Geográfico Nacional", "source:date": "201011"}}, {"name": "Peña de Santa Barbara", "latitude": 42.8067429, "longitude": -1.3333297, "elevation": 1012.0, "source": "osm", "_tags": {"ele": "1012", "name": "Peña de Santa Barbara", "natural": "peak", "source:date": "201011"}}, {"name": "Alto Canteras", "latitude": 42.6287392, "longitude": -1.8063925, "elevation": null, "source": "osm", "_tags": {"name": "Alto Canteras", "natural": "peak", "source": "Instituto Geográfico Nacional", "source:date": "201011"}}, {"name": "Altos del Monte", "latitude": 42.5485412, "longitude": -1.6922309, "elevation": null, "source": "osm", "_tags": {"name": "Altos del Monte", "natural": "peak", "source": "Instituto Geográfico Nacional", "source:date": "201011"}}, {"name": "Alto de las Cabras", "latitude": 42.5991746, "longitude": -1.7471642, "elevation": null, "source": "osm", "_tags": {"name": "Alto de las Cabras", "natural": "peak", "source": "Instituto Geográfico Nacional", "source:date": "201011"}}, {"name": "Altos de Arambero", "latitude": 42.5774175, "longitude": -1.6547973, "elevation": null, "source": "osm", "_tags": {"name": "Altos de Arambero", "natural": "peak", "source": "Instituto Geográfico Nacional", "source:date": "201011"}}, {"name": "Alto Igeano", "latitude": 42.0109898, "longitude": -1.9843837, "elevation": null, "source": "osm", "_tags": {"name": "Alto Igeano", "natural": "peak", "source": "Instituto Geográfico Nacional", "source:date": "201011"}}, {"name": "Alto de la Planilla", "latitude": 42.7703739, "longitude": -2.0182134, "elevation": 966.0, "source": "osm", "_tags": {"ele": "966", "name": "Alto de la Planilla", "natural": "peak", "source": "Instituto Geográfico Nacional", "source:date": "201011"}}, {"name": "Alto de la Ermita", "latitude": 42.7093751, "longitude": -1.6242004, "elevation": null, "source": "osm", "_tags": {"name": "Alto de la Ermita", "natural": "peak", "source": "Instituto Geográfico Nacional", "source:date": "201011"}}, {"name": "Alto Real", "latitude": 42.6387845, "longitude": -2.0060312, "elevation": null, "source": "osm", "_tags": {"name": "Alto Real", "natural": "peak", "source": "Instituto Geográfico Nacional", "source:date": "201011"}}, {"name": "Las Tres Mugas", "latitude": 42.447227, "longitude": -1.7354924, "elevation": null, "source": "osm", "_tags": {"name": "Las Tres Mugas", "natural": "peak", "source": "Instituto Geográfico Nacional", "source:date": "201011"}}, {"name": "Alto de las Saleras", "latitude": 42.6265448, "longitude": -1.6169656, "elevation": null, "source": "osm", "_tags": {"name": "Alto de las Saleras", "natural": "peak", "source": "Instituto Geográfico Nacional", "source:date": "201011"}}, {"name": "Alto de los Cuervos", "latitude": 42.7741535, "longitude": -1.6195316, "elevation": null, "source": "osm", "_tags": {"name": "Alto de los Cuervos", "natural": "peak", "source": "Instituto Geográfico Nacional", "source:date": "201011"}}, {"name": "Alto de Laboriz", "latitude": 42.5778637, "longitude": -1.9279404, "elevation": null, "source": "osm", "_tags": {"name": "Alto de Laboriz", "natural": "peak", "source": "Instituto Geográfico Nacional", "source:date": "201011"}}, {"name": "Alto del Portillo del Sastre", "latitude": 42.5585052, "longitude": -1.7028642, "elevation": null, "source": "osm", "_tags": {"name": "Alto del Portillo del Sastre", "natural": "peak", "source": "Instituto Geográfico Nacional", "source:date": "201011"}}, {"name": "Peño del Fuelle", "latitude": 42.5429197, "longitude": -1.7742719, "elevation": null, "source": "osm", "_tags": {"name": "Peño del Fuelle", "natural": "peak", "source": "Instituto Geográfico Nacional", "source:date": "201011"}}, {"name": "Peña Cervera", "latitude": 42.4535196, "longitude": -1.0682185, "elevation": 1009.0, "source": "osm", "_tags": {"ele": "1009", "name": "Peña Cervera", "natural": "peak", "source": "Instituto Geográfico Nacional", "source:date": "201011"}}, {"name": "Alto de Sinforiano", "latitude": 42.802801, "longitude": -1.5506532, "elevation": null, "source": "osm", "_tags": {"name": "Alto de Sinforiano", "natural": "peak", "source": "Instituto Geográfico Nacional", "source:date": "201011"}}, {"name": "Alto de Cabezaguarín", "latitude": 42.5070793, "longitude": -1.8526781, "elevation": null, "source": "osm", "_tags": {"name": "Alto de Cabezaguarín", "natural": "peak", "source": "Instituto Geográfico Nacional", "source:date": "201011"}}, {"name": "Alto de Yesada", "latitude": 42.6482941, "longitude": -1.7982863, "elevation": null, "source": "osm", "_tags": {"name": "Alto de Yesada", "natural": "peak", "source": "Instituto Geográfico Nacional", "source:date": "201011"}}, {"name": "Peña del Abrigo", "latitude": 42.6618278, "longitude": -1.6366296, "elevation": 915.0, "source": "osm", "_tags": {"ele": "915", "name": "Peña del Abrigo", "natural": "peak", "source:date": "201011", "wikidata": "Q112786001", "wikipedia": "eu:Peña del Abrigo"}}, {"name": "Alto de Morea", "latitude": 42.7711305, "longitude": -1.6838365, "elevation": null, "source": "osm", "_tags": {"name": "Alto de Morea", "natural": "peak", "source": "Instituto Geográfico Nacional", "source:date": "201011"}}, {"name": "Alto de las Pulgas", "latitude": 42.5772464, "longitude": -1.8603107, "elevation": null, "source": "osm", "_tags": {"name": "Alto de las Pulgas", "natural": "peak", "source": "Instituto Geográfico Nacional", "source:date": "201011"}}, {"name": "Cerro del Saco", "latitude": 42.052397, "longitude": -1.9056561, "elevation": 514.0, "source": "osm", "_tags": {"ele": "514", "name": "Cerro del Saco", "natural": "peak", "source": "Instituto Geográfico Nacional", "source:date": "201011"}}, {"name": "Alto de la Sarrea", "latitude": 42.5841325, "longitude": -1.701641, "elevation": 647.9, "source": "osm", "_tags": {"alt_name": "La Sarrea", "ele": "647.9", "name": "Alto de la Sarrea", "natural": "peak"}}, {"name": "Alto del Especiel", "latitude": 42.3933723, "longitude": -1.8240812, "elevation": 457.0, "source": "osm", "_tags": {"ele": "457", "name": "Alto del Especiel", "natural": "peak", "source": "Instituto Geográfico Nacional", "source:date": "201011"}}, {"name": "Alto del Chiri", "latitude": 42.0804549, "longitude": -1.8891299, "elevation": null, "source": "osm", "_tags": {"name": "Alto del Chiri", "natural": "peak", "source": "Instituto Geográfico Nacional", "source:date": "201011"}}, {"name": "Cerro Moroso", "latitude": 42.0695892, "longitude": -1.9498436, "elevation": null, "source": "osm", "_tags": {"name": "Cerro Moroso", "natural": "peak", "source": "Instituto Geográfico Nacional", "source:date": "201011"}}, {"name": "Alto de la Cruz", "latitude": 42.7837736, "longitude": -1.6454641, "elevation": null, "source": "osm", "_tags": {"name": "Alto de la Cruz", "natural": "peak", "source": "Instituto Geográfico Nacional", "source:date": "201011"}}, {"name": "Cerro del Cristo", "latitude": 42.6972802, "longitude": -1.2060434, "elevation": null, "source": "osm", "_tags": {"name": "Cerro del Cristo", "natural": "peak", "source": "Instituto Geográfico Nacional", "source:date": "201011"}}, {"name": "Altos de Sanin", "latitude": 42.6182216, "longitude": -1.6190155, "elevation": null, "source": "osm", "_tags": {"name": "Altos de Sanin", "natural": "peak", "source": "Instituto Geográfico Nacional", "source:date": "201011"}}, {"name": "Cabezomorico", "latitude": 42.1061981, "longitude": -1.4326816, "elevation": 449.0, "source": "osm", "_tags": {"ele": "449", "name": "Cabezomorico", "natural": "peak", "source": "Instituto Geográfico Nacional", "source:date": "201011"}}, {"name": "Monteidorra", "latitude": 42.6770453, "longitude": -1.1922255, "elevation": 830.0, "source": "osm", "_tags": {"ele": "830", "name": "Monteidorra", "natural": "peak", "source": "Instituto Geográfico Nacional", "source:date": "201011", "wikidata": "Q56653803", "wikipedia": "eu:Monteidorra"}}, {"name": "Alto de Ozarán", "latitude": 42.6552229, "longitude": -1.6682666, "elevation": 634.0, "source": "osm", "_tags": {"ele": "634", "name": "Alto de Ozarán", "natural": "peak", "source": "Instituto Geográfico Nacional", "source:date": "201011"}}, {"name": "Alto de Arasa", "latitude": 42.3972472, "longitude": -1.6120054, "elevation": null, "source": "osm", "_tags": {"name": "Alto de Arasa", "natural": "peak", "source": "Instituto Geográfico Nacional", "source:date": "201011"}}, {"name": "Alto de las Viñas", "latitude": 42.8216011, "longitude": -1.7636835, "elevation": null, "source": "osm", "_tags": {"name": "Alto de las Viñas", "natural": "peak", "source": "Instituto Geográfico Nacional", "source:date": "201011"}}, {"name": "Altos de la Vaqueriza", "latitude": 42.5398855, "longitude": -1.843589, "elevation": null, "source": "osm", "_tags": {"name": "Altos de la Vaqueriza", "natural": "peak", "source": "Instituto Geográfico Nacional", "source:date": "201011"}}, {"name": "Alto de Juan García", "latitude": 42.4361953, "longitude": -1.6200933, "elevation": null, "source": "osm", "_tags": {"name": "Alto de Juan García", "natural": "peak", "source": "Instituto Geográfico Nacional", "source:date": "201011"}}, {"name": "Alto de la Gudilla", "latitude": 42.4405952, "longitude": -1.4059453, "elevation": 525.0, "source": "osm", "_tags": {"ele": "525", "name": "Alto de la Gudilla", "natural": "peak", "source": "Instituto Geográfico Nacional", "source:date": "201011"}}, {"name": "Agudo", "latitude": 42.0474433, "longitude": -1.9607946, "elevation": null, "source": "osm", "_tags": {"name": "Agudo", "natural": "peak", "source": "Instituto Geográfico Nacional", "source:date": "201011"}}, {"name": "Peña La Graja", "latitude": 42.0672425, "longitude": -1.9671311, "elevation": null, "source": "osm", "_tags": {"name": "Peña La Graja", "natural": "peak", "source": "Instituto Geográfico Nacional", "source:date": "201011"}}, {"name": "Alto Navarro", "latitude": 42.0711674, "longitude": -1.9918311, "elevation": null, "source": "osm", "_tags": {"name": "Alto Navarro", "natural": "peak", "source": "Instituto Geográfico Nacional", "source:date": "201011"}}, {"name": "Alto de Martín Pastor", "latitude": 42.3952145, "longitude": -1.7465375, "elevation": null, "source": "osm", "_tags": {"name": "Alto de Martín Pastor", "natural": "peak", "source": "Instituto Geográfico Nacional", "source:date": "201011"}}, {"name": "Erripaburua", "latitude": 42.8183562, "longitude": -1.6182506, "elevation": 468.0, "source": "osm", "_tags": {"ele": "468", "name": "Erripaburua", "natural": "peak"}}, {"name": "Elizmendi", "latitude": 42.8080185, "longitude": -1.607416, "elevation": 531.0, "source": "osm", "_tags": {"ele": "531", "name": "Elizmendi", "natural": "peak"}}, {"name": "Legin", "latitude": 42.756465, "longitude": -1.425055, "elevation": 781.0, "source": "osm", "_tags": {"ele": "781", "name": "Legin", "natural": "peak"}}, {"name": "Oskandia", "latitude": 42.8094365, "longitude": -1.9978156, "elevation": 1215.0, "source": "osm", "_tags": {"ele": "1215", "name": "Oskandia", "natural": "peak"}}, {"name": "Malkaxko", "latitude": 42.8186953, "longitude": -1.9916123, "elevation": 1238.0, "source": "osm", "_tags": {"ele": "1238", "name": "Malkaxko", "natural": "peak"}}, {"name": "Mugaga bis", "latitude": 42.7975242, "longitude": -1.9786197, "elevation": null, "source": "osm", "_tags": {"man_made": "survey_point", "name": "Mugaga bis", "natural": "peak"}}, {"name": "Cabezo del Fraile", "latitude": 42.0036439, "longitude": -1.3755465, "elevation": 557.0, "source": "osm", "_tags": {"ele": "557", "name": "Cabezo del Fraile", "natural": "peak"}}, {"name": "Bordalarre", "latitude": 42.7868902, "longitude": -1.5751486, "elevation": 573.0, "source": "osm", "_tags": {"ele": "573", "name": "Bordalarre", "natural": "peak"}}, {"name": "Etxauriko Haitzak / Peña Etxauri", "latitude": 42.8009883, "longitude": -1.8460489, "elevation": 1136.0, "source": "osm", "_tags": {"ele": "1136", "loc_name": "Cabezón de Etxauri", "name": "Etxauriko Haitzak / Peña Etxauri", "name:es": "Peña Etxauri", "name:eu": "Etxauriko Haitzak", "natural": "peak", "official_name": "Peña Etxauri", "wikidata": "Q112783088", "wikipedia": "eu:Etxauriko haitzak"}}, {"name": "Erreniega / Alto del Perdón", "latitude": 42.7333784, "longitude": -1.7018552, "elevation": 1034.06, "source": "osm", "_tags": {"ele": "1034.06", "name": "Erreniega / Alto del Perdón", "name:es": "Alto del Perdón", "name:eu": "Erreniega", "natural": "peak", "sym": "Summit", "wikidata": "Q56822896", "wikipedia": "eu:Erreniega (mendia)"}}, {"name": "Aizkibel", "latitude": 42.721727, "longitude": -1.693759, "elevation": 1016.0, "source": "osm", "_tags": {"ele": "1016", "name": "Aizkibel", "natural": "peak", "sym": "Summit"}}, {"name": "Bordatxar", "latitude": 42.728117, "longitude": -1.686345, "elevation": 1002.0, "source": "osm", "_tags": {"ele": "1002", "name": "Bordatxar", "natural": "peak", "sym": "Summit"}}, {"name": "Sierra de Tajonar", "latitude": 42.7555108, "longitude": -1.593562, "elevation": 672.0, "source": "osm", "_tags": {"ele": "672", "name": "Sierra de Tajonar", "natural": "peak", "wikidata": "Q23992085", "wikipedia": "eu:Taxoareko gaina"}}, {"name": "San Salvador", "latitude": 42.7640447, "longitude": -1.5967512, "elevation": 587.0, "source": "osm", "_tags": {"ele": "587", "name": "San Salvador", "natural": "peak"}}, {"name": "Santo Domingo", "latitude": 42.7487499, "longitude": -1.6110213, "elevation": 574.0, "source": "osm", "_tags": {"ele": "574", "name": "Santo Domingo", "natural": "peak"}}, {"name": "Bizkaia", "latitude": 42.7478058, "longitude": -1.5562869, "elevation": 762.0, "source": "osm", "_tags": {"ele": "762", "name": "Bizkaia", "natural": "peak"}}, {"name": "Bagadi / Pagadia", "latitude": 42.7491381, "longitude": -1.5367901, "elevation": 898.0, "source": "osm", "_tags": {"ele": "898", "name": "Bagadi / Pagadia", "natural": "peak"}}, {"name": "Urramendi", "latitude": 42.7579156, "longitude": -1.51856, "elevation": 896.0, "source": "osm", "_tags": {"ele": "896", "name": "Urramendi", "natural": "peak"}}, {"name": "Arikita", "latitude": 42.7675796, "longitude": -1.5176555, "elevation": 834.0, "source": "osm", "_tags": {"alt_name": "Bandericas", "ele": "834", "name": "Arikita", "natural": "peak"}}, {"name": "Txaparre", "latitude": 42.7884079, "longitude": -1.5122493, "elevation": 852.0, "source": "osm", "_tags": {"ele": "852", "name": "Txaparre", "natural": "peak"}}, {"name": "Aritzko", "latitude": 42.7939388, "longitude": -1.5257573, "elevation": 844.0, "source": "osm", "_tags": {"ele": "844", "name": "Aritzko", "name:es": "Los Ariscos", "name:eu": "Aritzko", "natural": "peak"}}, {"name": "Tangorri", "latitude": 42.8015994, "longitude": -1.5376977, "elevation": 845.0, "source": "osm", "_tags": {"ele": "845", "name": "Tangorri", "natural": "peak", "wikidata": "Q112784932", "wikipedia": "eu:Tangorri"}}, {"name": "Donatsai", "latitude": 42.8073918, "longitude": -1.5443817, "elevation": 795.0, "source": "osm", "_tags": {"ele": "795", "name": "Donatsai", "natural": "peak"}}, {"name": "Bordalarre", "latitude": 42.8114853, "longitude": -1.5662361, "elevation": 615.0, "source": "osm", "_tags": {"ele": "615", "name": "Bordalarre", "natural": "peak"}}, {"name": "Urraun", "latitude": 42.6640101, "longitude": -1.6462887, "elevation": 816.0, "source": "osm", "_tags": {"ele": "816", "name": "Urraun", "natural": "peak"}}, {"name": "Itzula", "latitude": 42.6766788, "longitude": -1.6219983, "elevation": 1044.0, "source": "osm", "_tags": {"ele": "1044", "name": "Itzula", "natural": "peak"}}, {"name": "Orrontz", "latitude": 42.6818077, "longitude": -1.6247545, "elevation": 1123.0, "source": "osm", "_tags": {"ele": "1123", "name": "Orrontz", "natural": "peak"}}, {"name": "Santa Cruz", "latitude": 42.6888209, "longitude": -1.5943724, "elevation": 1051.0, "source": "osm", "_tags": {"ele": "1051", "name": "Santa Cruz", "natural": "peak"}}, {"name": "Txanburu", "latitude": 42.694313, "longitude": -1.5604806, "elevation": 1136.0, "source": "osm", "_tags": {"ele": "1136", "name": "Txanburu", "natural": "peak", "wikidata": "Q112785025", "wikipedia": "eu:Txanburu"}}, {"name": "Irumuga", "latitude": 42.6923511, "longitude": -1.5693857, "elevation": 1132.0, "source": "osm", "_tags": {"ele": "1132", "name": "Irumuga", "natural": "peak"}}, {"name": "Ekisoain", "latitude": 42.6768353, "longitude": -1.5436756, "elevation": 1071.0, "source": "osm", "_tags": {"ele": "1071", "name": "Ekisoain", "natural": "peak"}}, {"name": "Mendiurrun", "latitude": 42.672117, "longitude": -1.5197069, "elevation": 1000.0, "source": "osm", "_tags": {"ele": "1000", "name": "Mendiurrun", "natural": "peak"}}, {"name": "Ekisoain", "latitude": 42.6821127, "longitude": -1.5144452, "elevation": 801.0, "source": "osm", "_tags": {"ele": "801", "name": "Ekisoain", "natural": "peak"}}, {"name": "Higa de Monreal", "latitude": 42.6958508, "longitude": -1.5312513, "elevation": 1289.0, "source": "osm", "_tags": {"ele": "1289", "name": "Higa de Monreal", "natural": "peak"}}, {"name": "El Huso", "latitude": 42.7971939, "longitude": -1.8152811, "elevation": 644.0, "source": "osm", "_tags": {"climbing": "route", "description": "Aguja de piedra. Escalada deportiva equipada. Vía normal IV+", "ele": "644", "name": "El Huso", "natural": "peak"}}, {"name": "Txarakardia", "latitude": 42.7713136, "longitude": -1.8566136, "elevation": 945.0, "source": "osm", "_tags": {"ele": "945", "name": "Txarakardia", "natural": "peak"}}, {"name": "Esparatz", "latitude": 42.7541432, "longitude": -1.870929, "elevation": 1022.0, "source": "osm", "_tags": {"ele": "1022", "name": "Esparatz", "natural": "peak", "wikidata": "Q112783072", "wikipedia": "eu:Esparatz"}}, {"name": "Peña Grande", "latitude": 42.7612037, "longitude": -1.8789923, "elevation": 934.0, "source": "osm", "_tags": {"ele": "934", "name": "Peña Grande", "natural": "peak"}}, {"name": "Sotoburu", "latitude": 42.7824462, "longitude": -1.589648, "elevation": 549.0, "source": "osm", "_tags": {"ele": "549", "name": "Sotoburu", "natural": "peak"}}, {"name": "Sotoaldapa", "latitude": 42.786287, "longitude": -1.5865126, "elevation": 589.0, "source": "osm", "_tags": {"alt_name": "Santa Lucía", "ele": "589", "name": "Sotoaldapa", "natural": "peak", "source": "https://www.mendikat.net/com/mount/20817", "source:name": "https://www.mendikat.net/com/mount/20817"}}, {"name": "Cerro de la Borda", "latitude": 42.7869533, "longitude": -1.5621586, "elevation": 593.0, "source": "osm", "_tags": {"ele": "593", "name": "Cerro de la Borda", "natural": "peak"}}, {"name": "Beltzunegigain", "latitude": 42.7911084, "longitude": -1.5665534, "elevation": 589.0, "source": "osm", "_tags": {"ele": "589", "name": "Beltzunegigain", "natural": "peak"}}, {"name": "Muskilda", "latitude": 42.7621957, "longitude": -1.4979469, "elevation": 766.0, "source": "osm", "_tags": {"ele": "766", "name": "Muskilda", "natural": "peak"}}, {"name": "San Martín", "latitude": 42.6585785, "longitude": -1.7199098, "elevation": 715.0, "source": "osm", "_tags": {"ele": "715", "name": "San Martín", "natural": "peak"}}, {"name": "Mendi", "latitude": 42.7554369, "longitude": -1.6558867, "elevation": 518.0, "source": "osm", "_tags": {"ele": "518", "name": "Mendi", "natural": "peak"}}, {"name": "Garindo", "latitude": 42.8124283, "longitude": -1.8818091, "elevation": 1003.0, "source": "osm", "_tags": {"ele": "1003", "name": "Garindo", "natural": "peak"}}, {"name": "Txirimendia", "latitude": 42.311121, "longitude": -1.4280106, "elevation": 493.0, "source": "osm", "_tags": {"ele": "493", "name": "Txirimendia", "natural": "peak"}}, {"name": "Punta de la Estroza", "latitude": 42.2553985, "longitude": -1.4886496, "elevation": 460.0, "source": "osm", "_tags": {"ele": "460", "name": "Punta de la Estroza", "natural": "peak"}}, {"name": "Candévalos", "latitude": 42.2288766, "longitude": -1.5420192, "elevation": 408.0, "source": "osm", "_tags": {"ele": "408", "name": "Candévalos", "natural": "peak"}}, {"name": "Yugo", "latitude": 42.1894903, "longitude": -1.5668883, "elevation": 498.0, "source": "osm", "_tags": {"alt_name": "El Cuerno", "ele": "498", "name": "Yugo", "natural": "peak", "wikidata": "Q23990597"}}, {"name": "Cabezo de las Cortinas", "latitude": 42.2112808, "longitude": -1.5063253, "elevation": 364.0, "source": "osm", "_tags": {"ele": "364", "name": "Cabezo de las Cortinas", "natural": "peak"}}, {"name": "Cabezo de las Cortinillas", "latitude": 42.2070312, "longitude": -1.4987963, "elevation": 370.0, "source": "osm", "_tags": {"ele": "370", "name": "Cabezo de las Cortinillas", "natural": "peak"}}, {"name": "Sanchicorrota", "latitude": 42.1985201, "longitude": -1.4210174, "elevation": 425.0, "source": "osm", "_tags": {"ele": "425", "name": "Sanchicorrota", "natural": "peak"}}, {"name": "La Ralla", "latitude": 42.2149693, "longitude": -1.424461, "elevation": 498.0, "source": "osm", "_tags": {"ele": "498", "name": "La Ralla", "natural": "peak"}}, {"name": "La Gorra", "latitude": 42.2429098, "longitude": -1.4200708, "elevation": 460.0, "source": "osm", "_tags": {"ele": "460", "name": "La Gorra", "natural": "peak"}}, {"name": "Los Jeronales", "latitude": 42.8076407, "longitude": -1.3106711, "elevation": 1032.0, "source": "osm", "_tags": {"ele": "1032", "name": "Los Jeronales", "natural": "peak"}}, {"name": "Induriaga", "latitude": 42.8026627, "longitude": -1.3157931, "elevation": 1025.0, "source": "osm", "_tags": {"ele": "1025", "name": "Induriaga", "natural": "peak"}}, {"name": "Peña Txikita", "latitude": 42.8031697, "longitude": -1.3255198, "elevation": 1029.0, "source": "osm", "_tags": {"ele": "1029", "name": "Peña Txikita", "natural": "peak"}}, {"name": "Rala", "latitude": 42.8052478, "longitude": -1.3414629, "elevation": 981.0, "source": "osm", "_tags": {"ele": "981", "name": "Rala", "natural": "peak"}}, {"name": "Axarimendia", "latitude": 42.7858181, "longitude": -1.3572343, "elevation": 723.0, "source": "osm", "_tags": {"ele": "723", "name": "Axarimendia", "natural": "peak", "wikidata": "Q112788849", "wikipedia": "eu:Axarimendia"}}, {"name": "Murugain", "latitude": 42.7785895, "longitude": -1.3389309, "elevation": 722.0, "source": "osm", "_tags": {"ele": "722", "name": "Murugain", "natural": "peak"}}, {"name": "Txuringo W", "latitude": 42.7871567, "longitude": -1.3213463, "elevation": 861.0, "source": "osm", "_tags": {"ele": "861", "name": "Txuringo W", "natural": "peak"}}, {"name": "Txuringo E", "latitude": 42.7889991, "longitude": -1.3158424, "elevation": 881.0, "source": "osm", "_tags": {"alt_name": "Txubingo, Zuringo", "ele": "881", "name": "Txuringo E", "natural": "peak"}}, {"name": "Urroz Goiti", "latitude": 42.7781013, "longitude": -1.3174517, "elevation": 745.0, "source": "osm", "_tags": {"ele": "745", "name": "Urroz Goiti", "natural": "peak"}}, {"name": "Santa Lucia", "latitude": 42.7598566, "longitude": -1.2159574, "elevation": 721.0, "source": "osm", "_tags": {"ele": "721", "name": "Santa Lucia", "natural": "peak"}}, {"name": "Alto del Pino", "latitude": 42.6911369, "longitude": -1.3860701, "elevation": 737.0, "source": "osm", "_tags": {"ele": "737", "name": "Alto del Pino", "natural": "peak"}}, {"name": "Monte Pequeño", "latitude": 42.6738923, "longitude": -1.3812501, "elevation": 772.0, "source": "osm", "_tags": {"ele": "772", "name": "Monte Pequeño", "natural": "peak"}}, {"name": "Sierra de Tabar", "latitude": 42.6747414, "longitude": -1.3561088, "elevation": 791.0, "source": "osm", "_tags": {"ele": "791", "name": "Sierra de Tabar", "natural": "peak", "wikidata": "Q23992077"}}, {"name": "Kausutxiki", "latitude": 42.7346395, "longitude": -1.3813279, "elevation": 741.0, "source": "osm", "_tags": {"ele": "741", "name": "Kausutxiki", "natural": "peak"}}, {"name": "Kausu", "latitude": 42.738879, "longitude": -1.3778303, "elevation": 790.0, "source": "osm", "_tags": {"ele": "790", "name": "Kausu", "natural": "peak"}}, {"name": "Sanmigelbizkar", "latitude": 42.7495319, "longitude": -1.3999775, "elevation": 832.0, "source": "osm", "_tags": {"ele": "832", "name": "Sanmigelbizkar", "natural": "peak", "wikidata": "Q112783460", "wikipedia": "eu:Sanmigelbizkar"}}, {"name": "San Quirico", "latitude": 42.6989716, "longitude": -1.1436647, "elevation": 1081.0, "source": "osm", "_tags": {"ele": "1081", "name": "San Quirico", "natural": "peak", "wikidata": "Q112784650", "wikipedia": "eu:San Quirico"}}, {"name": "Illón", "latitude": 42.6896322, "longitude": -1.12202, "elevation": 1278.0, "source": "osm", "_tags": {"ele": "1278", "name": "Illón", "natural": "peak", "wikidata": "Q12259534"}}, {"name": "Belbún", "latitude": 42.6908058, "longitude": -1.0422129, "elevation": 1424.0, "source": "osm", "_tags": {"alt_name": "Alto del Borreguil", "ele": "1424", "name": "Belbún", "natural": "peak"}}, {"name": "Iburtu", "latitude": 42.79178, "longitude": -1.1359466, "elevation": 1091.0, "source": "osm", "_tags": {"ele": "1091", "name": "Iburtu", "natural": "peak", "wikidata": "Q112786017", "wikipedia": "eu:Iburtu"}}, {"name": "Zorokieta", "latitude": 42.794514, "longitude": -1.147984, "elevation": 1116.0, "source": "osm", "_tags": {"ele": "1116", "name": "Zorokieta", "natural": "peak"}}, {"name": "Oihanburu", "latitude": 42.7958716, "longitude": -1.1535836, "elevation": 1123.0, "source": "osm", "_tags": {"ele": "1123", "name": "Oihanburu", "natural": "peak"}}, {"name": "Santa Cruz", "latitude": 42.8051263, "longitude": -1.1609229, "elevation": 1232.0, "source": "osm", "_tags": {"ele": "1232", "name": "Santa Cruz", "natural": "peak"}}, {"name": "Arburua", "latitude": 42.8003354, "longitude": -1.1065628, "elevation": 1037.0, "source": "osm", "_tags": {"ele": "1037", "name": "Arburua", "natural": "peak", "wikidata": "Q25476049"}}, {"name": "Bezea", "latitude": 42.8220281, "longitude": -1.1652188, "elevation": 1195.0, "source": "osm", "_tags": {"ele": "1195", "name": "Bezea", "natural": "peak"}}, {"name": "Urizabe", "latitude": 42.8121925, "longitude": -1.151244, "elevation": 1182.0, "source": "osm", "_tags": {"ele": "1182", "name": "Urizabe", "natural": "peak"}}, {"name": "Zipuru", "latitude": 42.8082117, "longitude": -1.225102, "elevation": 1019.0, "source": "osm", "_tags": {"ele": "1019", "name": "Zipuru", "natural": "peak"}}, {"name": "Ekia", "latitude": 42.8143002, "longitude": -1.0883617, "elevation": 912.0, "source": "osm", "_tags": {"ele": "912", "name": "Ekia", "natural": "peak", "wikidata": "Q26232213"}}, {"name": "Mantxola", "latitude": 42.8181056, "longitude": -1.068141, "elevation": 869.0, "source": "osm", "_tags": {"ele": "869", "name": "Mantxola", "natural": "peak"}}, {"name": "Elimendi", "latitude": 42.8042531, "longitude": -1.9323875, "elevation": 1135.0, "source": "osm", "_tags": {"ele": "1135", "name": "Elimendi", "natural": "peak", "wikidata": "Q12256723"}}, {"name": "Zoiolagana", "latitude": 42.8161898, "longitude": -1.9331743, "elevation": 1147.0, "source": "osm", "_tags": {"alt_name": "Zoiolagaina, Zoiolagaña", "ele": "1147", "name": "Zoiolagana", "natural": "peak", "official_name": "Zoiolagana", "wikidata": "Q12269387", "wikipedia": "eu:Zoiolagana"}}, {"name": "Iguste", "latitude": 42.7024977, "longitude": -1.8991525, "elevation": 884.0, "source": "osm", "_tags": {"ele": "884", "name": "Iguste", "natural": "peak", "wikidata": "Q112787077", "wikipedia": "eu:Iguste"}}, {"name": "San Cristóbal", "latitude": 42.721059, "longitude": -1.891039, "elevation": 756.0, "source": "osm", "_tags": {"ele": "756", "name": "San Cristóbal", "natural": "peak"}}, {"name": "San Quiriaco", "latitude": 42.703705, "longitude": -1.922129, "elevation": 659.0, "source": "osm", "_tags": {"ele": "659", "name": "San Quiriaco", "natural": "peak"}}, {"name": "Markalagain", "latitude": 42.6908394, "longitude": -1.8753244, "elevation": 757.0, "source": "osm", "_tags": {"ele": "757", "name": "Markalagain", "natural": "peak"}}, {"name": "Axixuri", "latitude": 42.704291, "longitude": -1.881862, "elevation": 806.0, "source": "osm", "_tags": {"ele": "806", "name": "Axixuri", "natural": "peak"}}, {"name": "Peña de la Torre", "latitude": 42.701132, "longitude": -1.918535, "elevation": 638.0, "source": "osm", "_tags": {"ele": "638", "name": "Peña de la Torre", "natural": "peak"}}, {"name": "Txapardia", "latitude": 42.6990043, "longitude": -1.9282304, "elevation": 706.0, "source": "osm", "_tags": {"ele": "706", "name": "Txapardia", "natural": "peak"}}, {"name": "Burumendi", "latitude": 42.7053831, "longitude": -1.9484778, "elevation": 603.0, "source": "osm", "_tags": {"ele": "603", "name": "Burumendi", "natural": "peak"}}, {"name": "Txaparrandia", "latitude": 42.701833, "longitude": -1.9545236, "elevation": 598.0, "source": "osm", "_tags": {"ele": "598", "name": "Txaparrandia", "natural": "peak"}}, {"name": "Irurre", "latitude": 42.708353, "longitude": -1.935688, "elevation": 687.0, "source": "osm", "_tags": {"ele": "687", "name": "Irurre", "natural": "peak"}}, {"name": "San Blas", "latitude": 41.8608355, "longitude": -1.9697967, "elevation": 1219.0, "source": "osm", "_tags": {"ele": "1219", "name": "San Blas", "natural": "peak"}}, {"name": "", "latitude": 42.6512656, "longitude": -1.5413251, "elevation": 872.0, "source": "osm", "_tags": {"ele": "872", "natural": "peak"}}, {"name": "", "latitude": 42.6583601, "longitude": -1.5515699, "elevation": 929.0, "source": "osm", "_tags": {"ele": "929", "natural": "peak"}}, {"name": "Montejulio", "latitude": 42.6082673, "longitude": -1.502996, "elevation": 1002.0, "source": "osm", "_tags": {"ele": "1002", "name": "Montejulio", "natural": "peak", "wikidata": "Q66424249"}}, {"name": "El Roblar", "latitude": 42.8163403, "longitude": -1.3942448, "elevation": 763.0, "source": "osm", "_tags": {"ele": "763", "name": "El Roblar", "natural": "peak"}}, {"name": "Argain", "latitude": 42.8113995, "longitude": -1.3918898, "elevation": 743.0, "source": "osm", "_tags": {"ele": "743", "name": "Argain", "natural": "peak"}}, {"name": "Arantze", "latitude": 42.8227207, "longitude": -1.3977985, "elevation": 753.0, "source": "osm", "_tags": {"ele": "753", "name": "Arantze", "natural": "peak"}}, {"name": "Olaberri, Alto de", "latitude": 42.7984558, "longitude": -1.387175, "elevation": 752.0, "source": "osm", "_tags": {"ele": "752", "name": "Olaberri, Alto de", "natural": "peak"}}, {"name": "Ollaran", "latitude": 42.8060043, "longitude": -1.3841414, "elevation": 785.0, "source": "osm", "_tags": {"ele": "785", "name": "Ollaran", "natural": "peak"}}, {"name": "San Lorenzo", "latitude": 42.8019996, "longitude": -1.3830472, "elevation": 765.0, "source": "osm", "_tags": {"ele": "765", "name": "San Lorenzo", "natural": "peak"}}, {"name": "Larrañeta", "latitude": 42.8164832, "longitude": -1.3107609, "elevation": 1042.32, "source": "osm", "_tags": {"ele": "1042.32", "name": "Larrañeta", "natural": "peak"}}, {"name": "Artxuga", "latitude": 42.8171657, "longitude": -1.304293, "elevation": 1049.0, "source": "osm", "_tags": {"ele": "1049", "name": "Artxuga", "natural": "peak"}}, {"name": "Alto de las Coronas", "latitude": 42.7208283, "longitude": -1.0460141, "elevation": 989.0, "source": "osm", "_tags": {"ele": "989", "name": "Alto de las Coronas", "natural": "peak"}}, {"name": "Valdefuesa", "latitude": 42.740372, "longitude": -1.0536724, "elevation": 1036.0, "source": "osm", "_tags": {"ele": "1036", "name": "Valdefuesa", "natural": "peak"}}, {"name": "Peña de la Guardia", "latitude": 42.7427526, "longitude": -1.068648, "elevation": 1008.0, "source": "osm", "_tags": {"ele": "1008", "name": "Peña de la Guardia", "natural": "peak"}}, {"name": "Cabezogancho", "latitude": 42.103724, "longitude": -1.4550792, "elevation": 452.0, "source": "osm", "_tags": {"ele": "452", "name": "Cabezogancho", "natural": "peak"}}, {"name": "Cruz del Pelotero", "latitude": 42.1398341, "longitude": -1.4722192, "elevation": 461.0, "source": "osm", "_tags": {"ele": "461", "name": "Cruz del Pelotero", "natural": "peak"}}, {"name": "San Antón", "latitude": 42.1098444, "longitude": -1.3759376, "elevation": 565.0, "source": "osm", "_tags": {"ele": "565", "name": "San Antón", "natural": "peak"}}, {"name": "Cabezo Gancho", "latitude": 42.1310097, "longitude": -1.4250755, "elevation": 509.0, "source": "osm", "_tags": {"ele": "509", "name": "Cabezo Gancho", "natural": "peak"}}, {"name": "Cabezo de la Loma de la Madera", "latitude": 42.1447256, "longitude": -1.4211169, "elevation": 434.0, "source": "osm", "_tags": {"ele": "434", "name": "Cabezo de la Loma de la Madera", "natural": "peak"}}, {"name": "Tresmontes", "latitude": 42.1148993, "longitude": -1.486717, "elevation": 487.0, "source": "osm", "_tags": {"ele": "487", "name": "Tresmontes", "natural": "peak"}}, {"name": "Belcho", "latitude": 42.1722345, "longitude": -1.49236, "elevation": 361.0, "source": "osm", "_tags": {"ele": "361", "name": "Belcho", "natural": "peak"}}, {"name": "Cabezo Chimorra", "latitude": 42.1414489, "longitude": -1.4901021, "elevation": 459.0, "source": "osm", "_tags": {"ele": "459", "name": "Cabezo Chimorra", "natural": "peak"}}, {"name": "Cabezo Hermoso", "latitude": 42.1374992, "longitude": -1.5006991, "elevation": 459.0, "source": "osm", "_tags": {"ele": "459", "name": "Cabezo Hermoso", "natural": "peak"}}, {"name": "Cabezo de las Pilas", "latitude": 42.1002177, "longitude": -1.4886506, "elevation": 426.0, "source": "osm", "_tags": {"ele": "426", "name": "Cabezo de las Pilas", "natural": "peak"}}, {"name": "Cabezo de Atalaya", "latitude": 42.1079804, "longitude": -1.4842228, "elevation": 481.0, "source": "osm", "_tags": {"ele": "481", "name": "Cabezo de Atalaya", "natural": "peak"}}, {"name": "Cabezo de Malafé", "latitude": 42.1096953, "longitude": -1.4971096, "elevation": 451.0, "source": "osm", "_tags": {"ele": "451", "name": "Cabezo de Malafé", "natural": "peak"}}, {"name": "Mesalobar", "latitude": 42.1752497, "longitude": -1.4901695, "elevation": 367.0, "source": "osm", "_tags": {"ele": "367", "name": "Mesalobar", "natural": "peak"}}, {"name": "Plana Alta", "latitude": 42.1508037, "longitude": -1.446757, "elevation": 489.0, "source": "osm", "_tags": {"ele": "489", "name": "Plana Alta", "natural": "peak"}}, {"name": "Olivete", "latitude": 42.0805808, "longitude": -1.5005501, "elevation": 494.0, "source": "osm", "_tags": {"ele": "494", "name": "Olivete", "natural": "peak"}}, {"name": "Cabezo Balsaforada", "latitude": 42.1218325, "longitude": -1.5271514, "elevation": 444.0, "source": "osm", "_tags": {"ele": "444", "name": "Cabezo Balsaforada", "natural": "peak"}}, {"name": "Peña Rostro", "latitude": 42.2797269, "longitude": -1.4105552, "elevation": 443.0, "source": "osm", "_tags": {"ele": "443", "name": "Peña Rostro", "natural": "peak"}}, {"name": "Cabezo de Sardazuria", "latitude": 42.28048, "longitude": -1.39248, "elevation": 461.0, "source": "osm", "_tags": {"ele": "461", "name": "Cabezo de Sardazuria", "natural": "peak"}}, {"name": "Puy Águila", "latitude": 42.2697149, "longitude": -1.3959916, "elevation": 500.0, "source": "osm", "_tags": {"ele": "500", "name": "Puy Águila", "name:an": "Pui Águila", "name:es": "Puy Águila", "natural": "peak"}}, {"name": "Alto de las Cañas", "latitude": 42.2915847, "longitude": -1.4101482, "elevation": 478.0, "source": "osm", "_tags": {"ele": "478", "name": "Alto de las Cañas", "natural": "peak"}}, {"name": "Tres Mugas", "latitude": 42.2921371, "longitude": -1.3980967, "elevation": 511.0, "source": "osm", "_tags": {"ele": "511", "name": "Tres Mugas", "natural": "peak", "wikidata": "Q23991268"}}, {"name": "Castillo de Peñaflor", "latitude": 42.2521126, "longitude": -1.5189497, "elevation": 394.0, "source": "osm", "_tags": {"ele": "394", "name": "Castillo de Peñaflor", "name:eu": "Peñaflor gaztelua", "natural": "peak"}}, {"name": "Larrate", "latitude": 42.3935706, "longitude": -1.4031295, "elevation": 478.0, "source": "osm", "_tags": {"ele": "478", "name": "Larrate", "natural": "peak"}}, {"name": "Puyalato", "latitude": 42.4067256, "longitude": -1.4061982, "elevation": 437.0, "source": "osm", "_tags": {"ele": "437", "name": "Puyalato", "natural": "peak"}}, {"name": "Caneluche Redondo", "latitude": 42.4455514, "longitude": -1.3762255, "elevation": 578.0, "source": "osm", "_tags": {"ele": "578", "name": "Caneluche Redondo", "natural": "peak"}}, {"name": "Jarés", "latitude": 42.5080727, "longitude": -1.3959937, "elevation": 835.0, "source": "osm", "_tags": {"ele": "835", "name": "Jarés", "natural": "peak"}}, {"name": "Mendizelaia", "latitude": 42.7747908, "longitude": -1.9807936, "elevation": 982.0, "source": "osm", "_tags": {"ele": "982", "name": "Mendizelaia", "natural": "peak", "wikidata": "Q12263428"}}, {"name": "Artxurieta", "latitude": 42.8142444, "longitude": -1.9846655, "elevation": 1228.0, "source": "osm", "_tags": {"ele": "1228", "name": "Artxurieta", "natural": "peak"}}, {"name": "Iturgoiengo Hirutasuna", "latitude": 42.8115608, "longitude": -1.981621, "elevation": 1224.0, "source": "osm", "_tags": {"ele": "1224", "name": "Iturgoiengo Hirutasuna", "name:es": "Trinidad de Iturgoyen", "name:eu": "Iturgoiengo Hirutasuna", "name:fr": "Trinité d'Iturgoien", "natural": "peak"}}, {"name": "Mugaga", "latitude": 42.807003, "longitude": -1.977794, "elevation": 1219.0, "source": "osm", "_tags": {"ele": "1219", "name": "Mugaga", "natural": "peak", "wikidata": "Q12263851"}}, {"name": "Monosarios", "latitude": 42.8208163, "longitude": -2.007366, "elevation": 1067.0, "source": "osm", "_tags": {"ele": "1067", "name": "Monosarios", "natural": "peak", "wikidata": "Q112789644", "wikipedia": "eu:Monosarios"}}, {"name": "Tanturaundi", "latitude": 42.810773, "longitude": -1.9656864, "elevation": 1162.0, "source": "osm", "_tags": {"ele": "1162", "name": "Tanturaundi", "natural": "peak"}}, {"name": "Zurloz", "latitude": 42.8159836, "longitude": -1.9760436, "elevation": 1224.0, "source": "osm", "_tags": {"ele": "1224", "name": "Zurloz", "natural": "peak"}}, {"name": "Lardanburu", "latitude": 42.8201447, "longitude": -1.9634013, "elevation": 1183.0, "source": "osm", "_tags": {"ele": "1183", "name": "Lardanburu", "natural": "peak", "wikidata": "Q12261896"}}, {"name": "Otsaurka", "latitude": 42.8150751, "longitude": -1.9572092, "elevation": 1171.0, "source": "osm", "_tags": {"ele": "1171", "name": "Otsaurka", "natural": "peak"}}, {"name": "Tanturtxiki", "latitude": 42.8066971, "longitude": -1.9598328, "elevation": 1102.0, "source": "osm", "_tags": {"ele": "1102", "name": "Tanturtxiki", "natural": "peak"}}, {"name": "Motxope", "latitude": 42.8211547, "longitude": -1.9166155, "elevation": 1079.0, "source": "osm", "_tags": {"ele": "1079", "name": "Motxope", "natural": "peak"}}, {"name": "Meaz", "latitude": 42.7829493, "longitude": -1.7630565, "elevation": 513.0, "source": "osm", "_tags": {"ele": "513", "name": "Meaz", "natural": "peak"}}, {"name": "Martxamendi", "latitude": 42.7756265, "longitude": -1.7867345, "elevation": 549.0, "source": "osm", "_tags": {"ele": "549", "name": "Martxamendi", "natural": "peak"}}, {"name": "Biribilleta", "latitude": 42.772123, "longitude": -1.8018368, "elevation": 526.0, "source": "osm", "_tags": {"ele": "526", "name": "Biribilleta", "natural": "peak"}}, {"name": "Zulozar", "latitude": 42.7596331, "longitude": -1.8117372, "elevation": 759.0, "source": "osm", "_tags": {"ele": "759", "name": "Zulozar", "natural": "peak"}}, {"name": "Aritzdigorri", "latitude": 42.7436379, "longitude": -1.8172255, "elevation": 874.0, "source": "osm", "_tags": {"ele": "874", "name": "Aritzdigorri", "natural": "peak", "wikidata": "Q112787093", "wikipedia": "eu:Aritzdigorri"}}, {"name": "San Esteban", "latitude": 42.7458256, "longitude": -1.800541, "elevation": 887.0, "source": "osm", "_tags": {"ele": "887", "name": "San Esteban", "natural": "peak"}}, {"name": "Kalaberagain", "latitude": 42.7439355, "longitude": -1.7900166, "elevation": 845.0, "source": "osm", "_tags": {"ele": "845", "name": "Kalaberagain", "natural": "peak"}}, {"name": "Elzate", "latitude": 42.7463164, "longitude": -1.7793159, "elevation": 771.0, "source": "osm", "_tags": {"ele": "771", "name": "Elzate", "natural": "peak"}}, {"name": "Ertxubia", "latitude": 42.7513053, "longitude": -1.7835436, "elevation": 798.0, "source": "osm", "_tags": {"ele": "798", "name": "Ertxubia", "natural": "peak"}}, {"name": "Arriurdin", "latitude": 42.6730356, "longitude": -1.5890389, "elevation": 1002.0, "source": "osm", "_tags": {"ele": "1002", "name": "Arriurdin", "natural": "peak"}}, {"name": "Mugaluze", "latitude": 42.6603218, "longitude": -1.5016133, "elevation": 1013.0, "source": "osm", "_tags": {"ele": "1013", "name": "Mugaluze", "natural": "peak"}}, {"name": "Etxabakoitz", "latitude": 42.6518391, "longitude": -1.4893002, "elevation": 1025.0, "source": "osm", "_tags": {"ele": "1025", "name": "Etxabakoitz", "natural": "peak"}}, {"name": "Castillo de Sabaiza", "latitude": 42.6305587, "longitude": -1.4763393, "elevation": 854.0, "source": "osm", "_tags": {"ele": "854", "name": "Castillo de Sabaiza", "natural": "peak"}}, {"name": "Izko", "latitude": 42.6415848, "longitude": -1.4282771, "elevation": 976.0, "source": "osm", "_tags": {"ele": "976", "name": "Izko", "natural": "peak", "wikidata": "Q66732880"}}, {"name": "Alto de Juandomingo", "latitude": 42.6433706, "longitude": -1.4360659, "elevation": 1010.0, "source": "osm", "_tags": {"ele": "1010", "name": "Alto de Juandomingo", "natural": "peak", "wikidata": "Q66732966"}}, {"name": "El Rallar", "latitude": 42.6451557, "longitude": -1.1736831, "elevation": 1282.0, "source": "osm", "_tags": {"ele": "1282", "name": "El Rallar", "natural": "peak"}}, {"name": "Alto de la Fontana", "latitude": 42.6149553, "longitude": -1.32629, "elevation": 761.0, "source": "osm", "_tags": {"ele": "761", "name": "Alto de la Fontana", "natural": "peak"}}, {"name": "Santa Cilia", "latitude": 42.6210312, "longitude": -1.3440639, "elevation": 778.0, "source": "osm", "_tags": {"ele": "778", "name": "Santa Cilia", "natural": "peak"}}, {"name": "Ibarra", "latitude": 42.6361629, "longitude": -1.2502848, "elevation": 988.0, "source": "osm", "_tags": {"ele": "988", "name": "Ibarra", "natural": "peak"}}, {"name": "Raso de la Mata", "latitude": 42.621663, "longitude": -1.2485464, "elevation": 657.0, "source": "osm", "_tags": {"ele": "657", "name": "Raso de la Mata", "natural": "peak"}}, {"name": "Peña del Monumento", "latitude": 42.6428754, "longitude": -1.2290444, "elevation": 1125.0, "source": "osm", "_tags": {"ele": "1125", "name": "Peña del Monumento", "natural": "peak"}}, {"name": "Liaceta", "latitude": 42.6064744, "longitude": -1.2677093, "elevation": 563.0, "source": "osm", "_tags": {"ele": "563", "name": "Liaceta", "name:es": "Liaceta", "name:eu": "Laiazeta", "natural": "peak"}}, {"name": "La Magdalena", "latitude": 42.6185854, "longitude": -1.3104149, "elevation": 629.0, "source": "osm", "_tags": {"ele": "629", "name": "La Magdalena", "natural": "peak"}}, {"name": "Alto de la Borda", "latitude": 42.6248327, "longitude": -1.3231108, "elevation": 646.0, "source": "osm", "_tags": {"ele": "646", "name": "Alto de la Borda", "natural": "peak"}}, {"name": "Burdisibar", "latitude": 42.6314577, "longitude": -1.3346285, "elevation": 662.0, "source": "osm", "_tags": {"ele": "662", "name": "Burdisibar", "natural": "peak"}}, {"name": "Biezcas", "latitude": 42.6300174, "longitude": -1.3046054, "elevation": 580.0, "source": "osm", "_tags": {"ele": "580", "name": "Biezcas", "natural": "peak"}}, {"name": "Romastaca", "latitude": 42.638142, "longitude": -1.2663127, "elevation": 933.0, "source": "osm", "_tags": {"ele": "933", "name": "Romastaca", "natural": "peak"}}, {"name": "Txosne", "latitude": 42.591646, "longitude": -1.2907043, "elevation": 531.0, "source": "osm", "_tags": {"ele": "531", "name": "Txosne", "natural": "peak"}}, {"name": "Romeral", "latitude": 42.597706, "longitude": -1.3266302, "elevation": 609.0, "source": "osm", "_tags": {"ele": "609", "name": "Romeral", "natural": "peak"}}, {"name": "Castellar Oeste", "latitude": 42.5842582, "longitude": -1.2230527, "elevation": 616.0, "source": "osm", "_tags": {"ele": "616", "name": "Castellar Oeste", "natural": "peak"}}, {"name": "Escó", "latitude": 42.6188103, "longitude": -1.0573267, "elevation": 593.0, "source": "osm", "_tags": {"ele": "593", "name": "Escó", "natural": "peak"}}, {"name": "Alto de las Ripas", "latitude": 42.6000253, "longitude": -1.1591343, "elevation": 834.0, "source": "osm", "_tags": {"ele": "834", "name": "Alto de las Ripas", "natural": "peak"}}, {"name": "Muga de Sigüés", "latitude": 42.6517209, "longitude": -1.0338096, "elevation": 1178.0, "source": "osm", "_tags": {"ele": "1178", "name": "Muga de Sigüés", "natural": "peak"}}, {"name": "Las Leras", "latitude": 42.6474754, "longitude": -1.0975306, "elevation": 1361.0, "source": "osm", "_tags": {"ele": "1361", "name": "Las Leras", "natural": "peak"}}, {"name": "Cerro de las Cabañas", "latitude": 42.6464548, "longitude": -1.1084814, "elevation": 1359.0, "source": "osm", "_tags": {"ele": "1359", "name": "Cerro de las Cabañas", "natural": "peak"}}, {"name": "Pasopetón", "latitude": 42.6443337, "longitude": -1.0791133, "elevation": 1302.0, "source": "osm", "_tags": {"ele": "1302", "name": "Pasopetón", "natural": "peak"}}, {"name": "A Zerrada", "latitude": 42.6481439, "longitude": -1.151518, "elevation": 1284.0, "source": "osm", "_tags": {"ele": "1284", "name": "A Zerrada", "name:an": "A Zerrada", "name:es": "La Cerrada", "natural": "peak"}}, {"name": "Kastellar", "latitude": 42.6458778, "longitude": -1.1621496, "elevation": 1281.0, "source": "osm", "_tags": {"ele": "1281", "name": "Kastellar", "natural": "peak"}}, {"name": "Paso del Oso", "latitude": 42.6477037, "longitude": -1.1440996, "elevation": 1334.0, "source": "osm", "_tags": {"alt_name": "Paso de Peñagujerada", "ele": "1334", "name": "Paso del Oso", "natural": "peak"}}, {"name": "Los Pasetes", "latitude": 42.6621526, "longitude": -1.1813183, "elevation": 894.0, "source": "osm", "_tags": {"ele": "894", "name": "Los Pasetes", "natural": "peak"}}, {"name": "Grúmalo", "latitude": 42.6658502, "longitude": -1.1300175, "elevation": 1174.0, "source": "osm", "_tags": {"ele": "1174", "name": "Grúmalo", "natural": "peak", "wikidata": "Q112789616", "wikipedia": "eu:Grumalo"}}, {"name": "Gasu", "latitude": 42.653679, "longitude": -1.4761467, "elevation": 1035.0, "source": "osm", "_tags": {"ele": "1035", "name": "Gasu", "natural": "peak"}}, {"name": "Ugarra", "latitude": 42.7307483, "longitude": -1.2334046, "elevation": 854.0, "source": "osm", "_tags": {"ele": "854", "name": "Ugarra", "natural": "peak"}}, {"name": "Idokorri", "latitude": 42.7105701, "longitude": -1.1865676, "elevation": 1071.0, "source": "osm", "_tags": {"ele": "1071", "name": "Idokorri", "natural": "peak", "wikidata": "Q112783606", "wikipedia": "eu:Idokorri"}}, {"name": "Egastiaga", "latitude": 42.6250311, "longitude": -1.7460032, "elevation": 594.0, "source": "osm", "_tags": {"ele": "594", "name": "Egastiaga", "natural": "peak"}}, {"name": "Larrabeltz", "latitude": 42.6249341, "longitude": -1.7588721, "elevation": 571.0, "source": "osm", "_tags": {"ele": "571", "name": "Larrabeltz", "natural": "peak", "source": "IGN"}}, {"name": "Puyalote", "latitude": 42.7048162, "longitude": -1.0875417, "elevation": 988.0, "source": "osm", "_tags": {"ele": "988", "name": "Puyalote", "natural": "peak"}}, {"name": "Aldaxur", "latitude": 42.8035101, "longitude": -1.2008413, "elevation": 1191.0, "source": "osm", "_tags": {"ele": "1191", "name": "Aldaxur", "natural": "peak", "wikidata": "Q24004027", "wikipedia": "eu:Aldaxur"}}, {"name": "Carrascal", "latitude": 42.8028724, "longitude": -1.191036, "elevation": 1193.0, "source": "osm", "_tags": {"ele": "1193", "name": "Carrascal", "natural": "peak"}}, {"name": "Elimendi-W", "latitude": 42.8037322, "longitude": -1.9354236, "elevation": 1121.0, "source": "osm", "_tags": {"ele": "1121", "name": "Elimendi-W", "natural": "peak"}}, {"name": "", "latitude": 42.8148115, "longitude": -1.9356154, "elevation": 1141.0, "source": "osm", "_tags": {"ele": "1141", "natural": "peak"}}, {"name": "", "latitude": 42.8159846, "longitude": -1.939557, "elevation": 1138.0, "source": "osm", "_tags": {"ele": "1138", "natural": "peak"}}, {"name": "Alto de Santa Ágata", "latitude": 42.5813406, "longitude": -1.443897, "elevation": 879.0, "source": "osm", "_tags": {"ele": "879", "name": "Alto de Santa Ágata", "natural": "peak"}}, {"name": "San Miguel", "latitude": 42.5753963, "longitude": -1.4135114, "elevation": 739.0, "source": "osm", "_tags": {"ele": "739", "name": "San Miguel", "natural": "peak"}}, {"name": "Basagar", "latitude": 42.5959694, "longitude": -1.5071428, "elevation": 980.0, "source": "osm", "_tags": {"ele": "980", "name": "Basagar", "natural": "peak"}}, {"name": "Zaldinaga", "latitude": 42.5333794, "longitude": -1.4580783, "elevation": 806.0, "source": "osm", "_tags": {"ele": "806", "name": "Zaldinaga", "natural": "peak", "wikidata": "Q112788906", "wikipedia": "eu:Zaldinaga"}}, {"name": "Sandagata", "latitude": 42.5686252, "longitude": -1.5305419, "elevation": 892.0, "source": "osm", "_tags": {"ele": "892", "name": "Sandagata", "natural": "peak"}}, {"name": "Kazteluxar", "latitude": 42.640431, "longitude": -1.5599659, "elevation": 908.0, "source": "osm", "_tags": {"ele": "908", "name": "Kazteluxar", "natural": "peak"}}, {"name": "Ekoiengo Gaina", "latitude": 42.741297, "longitude": -1.8078465, "elevation": 924.0, "source": "osm", "_tags": {"ele": "924", "name": "Ekoiengo Gaina", "natural": "peak", "wikidata": "Q112783691", "wikipedia": "eu:Ekoiengo gaina"}}, {"name": "Lakubarga", "latitude": 42.7563911, "longitude": -1.8658048, "elevation": null, "source": "osm", "_tags": {"name": "Lakubarga", "natural": "peak"}}, {"name": "Orraunandia", "latitude": 42.6856477, "longitude": -1.616425, "elevation": 1155.0, "source": "osm", "_tags": {"ele": "1155", "name": "Orraunandia", "natural": "peak"}}, {"name": "Bagadigorri / Alaitz", "latitude": 42.6912493, "longitude": -1.6066967, "elevation": 1171.0, "source": "osm", "_tags": {"ele": "1171", "name": "Bagadigorri / Alaitz", "natural": "peak", "source": "Instituto Geográfico Nacional", "source:date": "201011"}}, {"name": "Kaparreta", "latitude": 42.511447, "longitude": -1.410942, "elevation": 669.0, "source": "osm", "_tags": {"ele": "669", "name": "Kaparreta", "natural": "peak"}}, {"name": "Peña de Cubilar", "latitude": 42.5173187, "longitude": -1.3960939, "elevation": 593.0, "source": "osm", "_tags": {"ele": "593", "name": "Peña de Cubilar", "natural": "peak"}}, {"name": "Zalatambor", "latitude": 42.6678191, "longitude": -2.0287005, "elevation": 515.0, "source": "osm", "_tags": {"ele": "515", "name": "Zalatambor", "natural": "peak"}}, {"name": "Atalaya", "latitude": 42.6650974, "longitude": -2.0280505, "elevation": 539.0, "source": "osm", "_tags": {"ele": "539", "name": "Atalaya", "natural": "peak"}}, {"name": "Peñaguda", "latitude": 42.6772006, "longitude": -2.027567, "elevation": 605.0, "source": "osm", "_tags": {"ele": "605", "name": "Peñaguda", "natural": "peak"}}, {"name": "San Millán", "latitude": 42.6834372, "longitude": -2.0220851, "elevation": 670.0, "source": "osm", "_tags": {"alt_name": "Orlegi", "ele": "670", "name": "San Millán", "natural": "peak"}}, {"name": "Apalaz", "latitude": 42.6871056, "longitude": -2.0137229, "elevation": 677.0, "source": "osm", "_tags": {"ele": "677", "name": "Apalaz", "natural": "peak"}}, {"name": "Arena Blanca", "latitude": 42.6620095, "longitude": -2.0260699, "elevation": 545.0, "source": "osm", "_tags": {"ele": "545", "name": "Arena Blanca", "natural": "peak"}}, {"name": "Lizarrara", "latitude": 42.6691477, "longitude": -2.0285118, "elevation": 476.0, "source": "osm", "_tags": {"ele": "476", "name": "Lizarrara", "natural": "peak"}}, {"name": "Ordoiz", "latitude": 42.6578413, "longitude": -2.0230542, "elevation": 547.0, "source": "osm", "_tags": {"ele": "547", "name": "Ordoiz", "natural": "peak"}}, {"name": "Mauriain", "latitude": 42.6550471, "longitude": -1.9532877, "elevation": 686.0, "source": "osm", "_tags": {"ele": "686", "name": "Mauriain", "natural": "peak", "wikidata": "Q112787016", "wikipedia": "eu:Mauriain"}}, {"name": "Eskintza", "latitude": 42.6518156, "longitude": -1.9192565, "elevation": 740.0, "source": "osm", "_tags": {"ele": "740", "name": "Eskintza", "natural": "peak", "wikidata": "Q112783031", "wikipedia": "eu:Eskintza"}}, {"name": "Santa Bárbara", "latitude": 42.6898616, "longitude": -1.9718082, "elevation": 554.0, "source": "osm", "_tags": {"ele": "554", "name": "Santa Bárbara", "natural": "peak"}}, {"name": "Orlagatu", "latitude": 42.7839636, "longitude": -1.1358141, "elevation": 1133.0, "source": "osm", "_tags": {"ele": "1133", "name": "Orlagatu", "natural": "peak", "wikidata": "Q112784318", "wikipedia": "eu:Orlagatu"}}, {"name": "Erbiñagaburua", "latitude": 42.5917142, "longitude": -1.4938646, "elevation": 999.0, "source": "osm", "_tags": {"alt_name": "Alto de Lerga", "ele": "999", "name": "Erbiñagaburua", "natural": "peak"}}, {"name": "Montearriba", "latitude": 42.5840505, "longitude": -1.5057667, "elevation": 886.0, "source": "osm", "_tags": {"ele": "886", "name": "Montearriba", "natural": "peak"}}, {"name": "Subiza", "latitude": 42.5690233, "longitude": -1.5046147, "elevation": 715.0, "source": "osm", "_tags": {"ele": "715", "name": "Subiza", "natural": "peak"}}, {"name": "Urniza", "latitude": 42.570311, "longitude": -1.4977245, "elevation": 724.0, "source": "osm", "_tags": {"ele": "724", "name": "Urniza", "natural": "peak"}}, {"name": "La Cruz", "latitude": 42.4396342, "longitude": -1.0917297, "elevation": 1145.0, "source": "osm", "_tags": {"ele": "1145", "name": "La Cruz", "natural": "peak"}}, {"name": "Puiladrones", "latitude": 42.4403879, "longitude": -1.1553313, "elevation": 952.0, "source": "osm", "_tags": {"ele": "952", "name": "Puiladrones", "natural": "peak"}}, {"name": "Valdearagón", "latitude": 42.4320912, "longitude": -1.163574, "elevation": 930.0, "source": "osm", "_tags": {"ele": "930", "name": "Valdearagón", "natural": "peak"}}, {"name": "Aitisimo", "latitude": 42.709831, "longitude": -1.0427328, "elevation": 1105.0, "source": "osm", "_tags": {"ele": "1105", "name": "Aitisimo", "natural": "peak"}}, {"name": "Larrondoa", "latitude": 42.7968729, "longitude": -1.0617188, "elevation": 1188.0, "source": "osm", "_tags": {"ele": "1188", "name": "Larrondoa", "natural": "peak"}}, {"name": "Seseta", "latitude": 42.7944823, "longitude": -1.0334991, "elevation": 1183.0, "source": "osm", "_tags": {"ele": "1183", "name": "Seseta", "natural": "peak", "wikidata": "Q112784785", "wikipedia": "eu:Seseta"}}, {"name": "Oxe", "latitude": 42.8015687, "longitude": -1.0529508, "elevation": 1138.0, "source": "osm", "_tags": {"ele": "1138", "name": "Oxe", "natural": "peak"}}, {"name": "Arabarko", "latitude": 42.801657, "longitude": -1.0810988, "elevation": 1046.0, "source": "osm", "_tags": {"ele": "1046", "name": "Arabarko", "natural": "peak", "wikidata": "Q112788449", "wikipedia": "eu:Arabarko"}}, {"name": "Oianburua", "latitude": 42.7884367, "longitude": -1.1233948, "elevation": 1002.0, "source": "osm", "_tags": {"ele": "1002", "name": "Oianburua", "natural": "peak"}}, {"name": "San Jorge", "latitude": 42.7642629, "longitude": -1.7524332, "elevation": 518.0, "source": "osm", "_tags": {"ele": "518", "name": "San Jorge", "natural": "peak"}}, {"name": "", "latitude": 42.7709771, "longitude": -1.7472803, "elevation": 513.0, "source": "osm", "_tags": {"ele": "513", "natural": "peak"}}, {"name": "", "latitude": 42.7737902, "longitude": -1.7527195, "elevation": 488.0, "source": "osm", "_tags": {"ele": "488", "natural": "peak"}}, {"name": "Argurutz", "latitude": 42.6657423, "longitude": -1.8000123, "elevation": 531.0, "source": "osm", "_tags": {"ele": "531", "name": "Argurutz", "natural": "peak"}}, {"name": "El Angel", "latitude": 42.4728392, "longitude": -1.8651443, "elevation": 545.0, "source": "osm", "_tags": {"ele": "545", "name": "El Angel", "natural": "peak"}}, {"name": "Cruzate", "latitude": 42.470438, "longitude": -1.8620548, "elevation": 546.0, "source": "osm", "_tags": {"ele": "546", "name": "Cruzate", "natural": "peak"}}, {"name": "Montealto", "latitude": 42.4594799, "longitude": -1.8499706, "elevation": 548.0, "source": "osm", "_tags": {"ele": "548", "name": "Montealto", "natural": "peak"}}, {"name": "Cerro Mondiuso", "latitude": 42.4530689, "longitude": -1.8874631, "elevation": 512.0, "source": "osm", "_tags": {"ele": "512", "name": "Cerro Mondiuso", "natural": "peak"}}, {"name": "Montemotxa", "latitude": 42.6633872, "longitude": -1.7437147, "elevation": 626.0, "source": "osm", "_tags": {"ele": "626", "name": "Montemotxa", "natural": "peak"}}, {"name": "Monte de Santa Cruz", "latitude": 42.7810211, "longitude": -1.5492546, "elevation": 659.0, "source": "osm", "_tags": {"ele": "659", "name": "Monte de Santa Cruz", "name:es": "Monte de Santa Cruz", "name:eu": "Zarbeta", "natural": "peak"}}, {"name": "Indusi", "latitude": 42.5576799, "longitude": -1.5196189, "elevation": 789.0, "source": "osm", "_tags": {"ele": "789", "name": "Indusi", "natural": "peak"}}, {"name": "", "latitude": 42.5509226, "longitude": -1.5255627, "elevation": 808.0, "source": "osm", "_tags": {"ele": "808", "natural": "peak"}}, {"name": "Alto Burlon", "latitude": 42.5540652, "longitude": -1.5240566, "elevation": 809.0, "source": "osm", "_tags": {"ele": "809", "name": "Alto Burlon", "natural": "peak"}}, {"name": "Piskerra", "latitude": 42.2226705, "longitude": -1.4378423, "elevation": 476.0, "source": "osm", "_tags": {"ele": "476", "name": "Piskerra", "name:es": "Pisquerra", "name:eu": "¨Piskerra", "natural": "peak", "wikidata": "Q112784524", "wikipedia": "eu:Piskerra"}}, {"name": "La Estaca", "latitude": 42.1243115, "longitude": -1.3957728, "elevation": 593.0, "source": "osm", "_tags": {"ele": "593", "name": "La Estaca", "natural": "peak"}}, {"name": "Eskargaitz", "latitude": 42.6634, "longitude": -1.3890369, "elevation": 801.0, "source": "osm", "_tags": {"ele": "801", "name": "Eskargaitz", "natural": "peak"}}, {"name": "Santa Barbara", "latitude": 42.6288033, "longitude": -1.9743222, "elevation": 572.0, "source": "osm", "_tags": {"ele": "572", "name": "Santa Barbara", "natural": "peak"}}, {"name": "", "latitude": 42.6310405, "longitude": -1.9807055, "elevation": 564.0, "source": "osm", "_tags": {"ele": "564", "natural": "peak"}}, {"name": "Peña Cornota", "latitude": 42.6769325, "longitude": -1.1869405, "elevation": null, "source": "osm", "_tags": {"name": "Peña Cornota", "natural": "peak"}}, {"name": "Santa Cruz", "latitude": 42.817039, "longitude": -1.913568, "elevation": 1042.0, "source": "osm", "_tags": {"ele": "1042", "name": "Santa Cruz", "natural": "peak"}}, {"name": "", "latitude": 42.7806764, "longitude": -1.2166396, "elevation": 807.0, "source": "osm", "_tags": {"ele": "807", "natural": "peak"}}, {"name": "Ekuren", "latitude": 42.7843919, "longitude": -1.2146842, "elevation": 862.0, "source": "osm", "_tags": {"ele": "862", "name": "Ekuren", "natural": "peak"}}, {"name": "", "latitude": 42.7891795, "longitude": -1.1480701, "elevation": null, "source": "osm", "_tags": {"natural": "peak"}}, {"name": "Likarri", "latitude": 42.7505603, "longitude": -1.1786638, "elevation": 852.0, "source": "osm", "_tags": {"ele": "852", "name": "Likarri", "natural": "peak"}}, {"name": "Urtakain", "latitude": 42.7867312, "longitude": -1.2602687, "elevation": 849.0, "source": "osm", "_tags": {"ele": "849", "name": "Urtakain", "natural": "peak"}}, {"name": "Garrantxulo", "latitude": 42.797202, "longitude": -1.2623818, "elevation": 876.0, "source": "osm", "_tags": {"ele": "876", "name": "Garrantxulo", "natural": "peak"}}, {"name": "Barasota", "latitude": 42.7927073, "longitude": -1.26311, "elevation": 857.0, "source": "osm", "_tags": {"ele": "857", "name": "Barasota", "natural": "peak"}}, {"name": "Sastoia", "latitude": 42.7781925, "longitude": -1.2680773, "elevation": 773.0, "source": "osm", "_tags": {"ele": "773", "name": "Sastoia", "natural": "peak"}}, {"name": "Peña de Abajo", "latitude": 42.7093834, "longitude": -1.2096797, "elevation": 742.0, "source": "osm", "_tags": {"ele": "742", "name": "Peña de Abajo", "natural": "peak"}}, {"name": "El Ontinar", "latitude": 42.335977, "longitude": -1.8984982, "elevation": 442.0, "source": "osm", "_tags": {"ele": "442", "name": "El Ontinar", "natural": "peak"}}, {"name": "El Espartal", "latitude": 42.3284052, "longitude": -1.8883572, "elevation": 442.0, "source": "osm", "_tags": {"ele": "442", "name": "El Espartal", "natural": "peak"}}, {"name": "Argain", "latitude": 42.6055932, "longitude": -1.5333098, "elevation": 965.0, "source": "osm", "_tags": {"ele": "965", "name": "Argain", "natural": "peak"}}, {"name": "El Cascajo", "latitude": 42.6094468, "longitude": -1.5424069, "elevation": 956.0, "source": "osm", "_tags": {"ele": "956", "name": "El Cascajo", "natural": "peak"}}, {"name": "Amunarrizketa", "latitude": 42.6075449, "longitude": -1.5410445, "elevation": 982.0, "source": "osm", "_tags": {"ele": "982", "name": "Amunarrizketa", "natural": "peak"}}, {"name": "Royuela", "latitude": 42.3521521, "longitude": -1.811906, "elevation": 438.0, "source": "osm", "_tags": {"ele": "438", "name": "Royuela", "natural": "peak"}}, {"name": "Vallacuera", "latitude": 42.3454229, "longitude": -1.7973139, "elevation": 410.0, "source": "osm", "_tags": {"ele": "410", "name": "Vallacuera", "natural": "peak"}}, {"name": "Portidelobos", "latitude": 42.3433211, "longitude": -1.7923678, "elevation": 403.0, "source": "osm", "_tags": {"ele": "403", "name": "Portidelobos", "natural": "peak"}}, {"name": "Gurugu", "latitude": 42.3086356, "longitude": -1.811727, "elevation": null, "source": "osm", "_tags": {"name": "Gurugu", "natural": "peak"}}, {"name": "Angarillones", "latitude": 42.2243577, "longitude": -1.4211382, "elevation": 489.0, "source": "osm", "_tags": {"ele": "489", "name": "Angarillones", "natural": "peak", "wikidata": "Q112786128", "wikipedia": "eu:Angarillones"}}, {"name": "", "latitude": 42.2812904, "longitude": -1.4016227, "elevation": 449.0, "source": "osm", "_tags": {"ele": "449", "natural": "peak"}}, {"name": "Caparroso", "latitude": 42.3378622, "longitude": -1.6686778, "elevation": 425.0, "source": "osm", "_tags": {"ele": "425", "name": "Caparroso", "natural": "peak"}}, {"name": "Unson", "latitude": 42.4309844, "longitude": -1.9068936, "elevation": 461.0, "source": "osm", "_tags": {"ele": "461", "name": "Unson", "natural": "peak"}}, {"name": "Las Animas", "latitude": 42.4381432, "longitude": -1.907645, "elevation": 425.0, "source": "osm", "_tags": {"ele": "425", "name": "Las Animas", "natural": "peak"}}, {"name": "", "latitude": 42.453426, "longitude": -1.8910301, "elevation": 511.0, "source": "osm", "_tags": {"ele": "511", "natural": "peak"}}, {"name": "Caneluche Pelado", "latitude": 42.4430902, "longitude": -1.3837744, "elevation": 593.0, "source": "osm", "_tags": {"alt_name": "Pinar de Valdarras", "ele": "593", "name": "Caneluche Pelado", "natural": "peak"}}, {"name": "Solano Mayor", "latitude": 42.7083179, "longitude": -1.1056872, "elevation": 812.0, "source": "osm", "_tags": {"ele": "812", "name": "Solano Mayor", "natural": "peak"}}, {"name": "Txukartea", "latitude": 42.7619004, "longitude": -1.3153033, "elevation": 633.0, "source": "osm", "_tags": {"ele": "633", "name": "Txukartea", "natural": "peak"}}, {"name": "", "latitude": 42.7685367, "longitude": -1.3096533, "elevation": 664.0, "source": "osm", "_tags": {"ele": "664", "natural": "peak"}}, {"name": "Cabezo Aguilar", "latitude": 42.0231149, "longitude": -1.3456931, "elevation": 613.0, "source": "osm", "_tags": {"ele": "613", "name": "Cabezo Aguilar", "natural": "peak"}}, {"name": "La Modorra", "latitude": 41.9858682, "longitude": -1.3873291, "elevation": 375.0, "source": "osm", "_tags": {"ele": "375", "name": "La Modorra", "natural": "peak"}}, {"name": "Punta del Aguilar", "latitude": 42.0287025, "longitude": -1.3397137, "elevation": 613.0, "source": "osm", "_tags": {"ele": "613", "name": "Punta del Aguilar", "natural": "peak"}}, {"name": "Cabezo de Portillovihuela", "latitude": 42.0712127, "longitude": -1.4441703, "elevation": 477.0, "source": "osm", "_tags": {"ele": "477", "name": "Cabezo de Portillovihuela", "natural": "peak"}}, {"name": "Muga de Sádaba", "latitude": 42.245324, "longitude": -1.4020205, "elevation": 456.0, "source": "osm", "_tags": {"ele": "456", "name": "Muga de Sádaba", "natural": "peak"}}, {"name": "Cabezo de Cabaña Blanca", "latitude": 42.24157, "longitude": -1.4073027, "elevation": 444.0, "source": "osm", "_tags": {"ele": "444", "name": "Cabezo de Cabaña Blanca", "natural": "peak"}}, {"name": "Cabezo del Salinero", "latitude": 42.2725875, "longitude": -1.4132276, "elevation": 431.0, "source": "osm", "_tags": {"ele": "431", "name": "Cabezo del Salinero", "natural": "peak"}}, {"name": "Aurino", "latitude": 42.4643135, "longitude": -1.4383028, "elevation": 698.0, "source": "osm", "_tags": {"ele": "698", "name": "Aurino", "natural": "peak"}}, {"name": "Peña de los Huevos", "latitude": 42.4609653, "longitude": -1.4325115, "elevation": 689.0, "source": "osm", "_tags": {"ele": "689", "name": "Peña de los Huevos", "natural": "peak"}}, {"name": "Aristuziaga", "latitude": 42.4928632, "longitude": -1.4617473, "elevation": 727.0, "source": "osm", "_tags": {"ele": "727", "name": "Aristuziaga", "natural": "peak"}}, {"name": "Capaburros", "latitude": 42.5013291, "longitude": -1.4698643, "elevation": 754.0, "source": "osm", "_tags": {"ele": "754", "name": "Capaburros", "natural": "peak"}}, {"name": "Alto de Perrería", "latitude": 42.5405437, "longitude": -1.4749228, "elevation": 759.0, "source": "osm", "_tags": {"ele": "759", "name": "Alto de Perrería", "natural": "peak"}}, {"name": "Andiaga", "latitude": 42.5372132, "longitude": -1.4784257, "elevation": 782.0, "source": "osm", "_tags": {"ele": "782", "name": "Andiaga", "natural": "peak"}}, {"name": "Herrerico", "latitude": 42.5418668, "longitude": -1.5111574, "elevation": 911.0, "source": "osm", "_tags": {"ele": "911", "name": "Herrerico", "natural": "peak"}}, {"name": "Monte de Abaiz", "latitude": 42.542676, "longitude": -1.4965728, "elevation": 806.0, "source": "osm", "_tags": {"ele": "806", "name": "Monte de Abaiz", "natural": "peak"}}, {"name": "Iguzkun", "latitude": 42.5759068, "longitude": -1.4809091, "elevation": 789.0, "source": "osm", "_tags": {"ele": "789", "name": "Iguzkun", "natural": "peak"}}, {"name": "Kaztelualdea", "latitude": 42.8103913, "longitude": -1.2430631, "elevation": null, "source": "osm", "_tags": {"name": "Kaztelualdea", "natural": "peak"}}, {"name": "Argibel", "latitude": 42.8040959, "longitude": -1.2276303, "elevation": null, "source": "osm", "_tags": {"name": "Argibel", "natural": "peak"}}, {"name": "El Boyeral", "latitude": 42.8058094, "longitude": -1.235054, "elevation": null, "source": "osm", "_tags": {"name": "El Boyeral", "natural": "peak"}}, {"name": "Beragu", "latitude": 42.5301306, "longitude": -1.4423451, "elevation": 803.0, "source": "osm", "_tags": {"ele": "803", "name": "Beragu", "natural": "peak"}}, {"name": "", "latitude": 42.633457, "longitude": -1.26947, "elevation": null, "source": "osm", "_tags": {"natural": "peak"}}, {"name": "Los Parapetos", "latitude": 42.555126, "longitude": -1.555704, "elevation": 899.0, "source": "osm", "_tags": {"ele": "899", "name": "Los Parapetos", "natural": "peak"}}, {"name": "Cuerno de la Cimota", "latitude": 42.5440519, "longitude": -1.5966917, "elevation": 852.0, "source": "osm", "_tags": {"ele": "852", "name": "Cuerno de la Cimota", "natural": "peak"}}, {"name": "Lamores", "latitude": 42.0103833, "longitude": -1.8667119, "elevation": 694.0, "source": "osm", "_tags": {"ele": "694", "name": "Lamores", "natural": "peak"}}, {"name": "Cuevanos", "latitude": 42.0271806, "longitude": -1.8841727, "elevation": 684.0, "source": "osm", "_tags": {"ele": "684", "name": "Cuevanos", "natural": "peak"}}, {"name": "La Atalaya", "latitude": 42.0179851, "longitude": -1.8596145, "elevation": 743.0, "source": "osm", "_tags": {"ele": "743", "name": "La Atalaya", "natural": "peak"}}, {"name": "La Mesa", "latitude": 41.974741, "longitude": -1.6101372, "elevation": 427.0, "source": "osm", "_tags": {"ele": "427", "name": "La Mesa", "natural": "peak"}}, {"name": "Roscas", "latitude": 42.0443848, "longitude": -1.8818325, "elevation": 594.0, "source": "osm", "_tags": {"ele": "594", "name": "Roscas", "natural": "peak", "wikidata": "Q112786457", "wikipedia": "eu:Las Roscas"}}, {"name": "Tudejen", "latitude": 42.0495874, "longitude": -1.8940546, "elevation": 571.0, "source": "osm", "_tags": {"ele": "571", "name": "Tudejen", "natural": "peak"}}, {"name": "Los Blancares", "latitude": 42.0419582, "longitude": -1.889509, "elevation": 649.0, "source": "osm", "_tags": {"ele": "649", "name": "Los Blancares", "natural": "peak", "place": "locality"}}, {"name": "Nasa Baja", "latitude": 42.1292458, "longitude": -1.4001451, "elevation": 602.0, "source": "osm", "_tags": {"ele": "602", "name": "Nasa Baja", "natural": "peak"}}, {"name": "Monte de Arriba", "latitude": 42.663752, "longitude": -1.549458, "elevation": 969.0, "source": "osm", "_tags": {"ele": "969", "name": "Monte de Arriba", "natural": "peak"}}, {"name": "El Characal", "latitude": 42.606967, "longitude": -1.58357, "elevation": 769.0, "source": "osm", "_tags": {"ele": "769", "name": "El Characal", "natural": "peak"}}, {"name": "San Pelaio", "latitude": 42.6041633, "longitude": -1.5643855, "elevation": 959.0, "source": "osm", "_tags": {"ele": "959", "name": "San Pelaio", "natural": "peak"}}, {"name": "Karrazketa", "latitude": 42.603008, "longitude": -1.481177, "elevation": 814.0, "source": "osm", "_tags": {"ele": "814", "name": "Karrazketa", "natural": "peak"}}, {"name": "Santa Finia", "latitude": 42.601988, "longitude": -1.432186, "elevation": 702.0, "source": "osm", "_tags": {"ele": "702", "name": "Santa Finia", "natural": "peak"}}, {"name": "Salvatore", "latitude": 42.60629, "longitude": -1.462616, "elevation": 804.0, "source": "osm", "_tags": {"ele": "804", "name": "Salvatore", "natural": "peak"}}, {"name": "Jautu", "latitude": 42.599249, "longitude": -1.415738, "elevation": 689.0, "source": "osm", "_tags": {"ele": "689", "name": "Jautu", "natural": "peak", "wikidata": "Q66732995"}}, {"name": "Alto de Gaiu", "latitude": 42.600673, "longitude": -1.425661, "elevation": 700.0, "source": "osm", "_tags": {"ele": "700", "name": "Alto de Gaiu", "natural": "peak"}}, {"name": "Monte Txikito", "latitude": 42.8140008, "longitude": -1.531377, "elevation": 683.0, "source": "osm", "_tags": {"ele": "683", "name": "Monte Txikito", "natural": "peak"}}, {"name": "Santa Cruz de Gazteluzar", "latitude": 42.619232, "longitude": -1.595229, "elevation": 757.0, "source": "osm", "_tags": {"ele": "757", "name": "Santa Cruz de Gazteluzar", "natural": "peak"}}, {"name": "El Puno", "latitude": 42.71437, "longitude": -1.598556, "elevation": 569.0, "source": "osm", "_tags": {"ele": "569", "name": "El Puno", "natural": "peak"}}, {"name": "San Miguel", "latitude": 42.779674, "longitude": -1.495827, "elevation": 802.0, "source": "osm", "_tags": {"ele": "802", "name": "San Miguel", "natural": "peak"}}, {"name": "Monte Grande", "latitude": 42.8179923, "longitude": -1.5276923, "elevation": 642.0, "source": "osm", "_tags": {"ele": "642", "name": "Monte Grande", "natural": "peak"}}, {"name": "Bordaxar", "latitude": 42.787144, "longitude": -1.510305, "elevation": 850.0, "source": "osm", "_tags": {"ele": "850", "name": "Bordaxar", "natural": "peak"}}, {"name": "Elusmendi", "latitude": 42.79087, "longitude": -1.51573, "elevation": 843.0, "source": "osm", "_tags": {"ele": "843", "name": "Elusmendi", "natural": "peak"}}, {"name": "Eurri", "latitude": 42.815207, "longitude": -1.539514, "elevation": 668.0, "source": "osm", "_tags": {"ele": "668", "name": "Eurri", "natural": "peak"}}, {"name": "La Facería", "latitude": 42.795583, "longitude": -1.522195, "elevation": 829.0, "source": "osm", "_tags": {"ele": "829", "name": "La Facería", "natural": "peak"}}, {"name": "Gazolatz", "latitude": 42.8000558, "longitude": -1.7260431, "elevation": 554.0, "source": "osm", "_tags": {"alt_name": "Miravalles", "ele": "554", "name": "Gazolatz", "name:es": "Gazólaz", "name:eu": "Gatzolatz", "natural": "peak"}}, {"name": "Santa Bárbara", "latitude": 42.5772598, "longitude": -1.2896162, "elevation": 525.0, "source": "osm", "_tags": {"ele": "525", "name": "Santa Bárbara", "natural": "peak"}}, {"name": "Erripagaña", "latitude": 42.8196936, "longitude": -1.6122462, "elevation": 479.0, "source": "osm", "_tags": {"ele": "479", "name": "Erripagaña", "natural": "peak"}}, {"name": "Mendillorri", "latitude": 42.8106542, "longitude": -1.623558, "elevation": 497.0, "source": "osm", "_tags": {"ele": "497", "name": "Mendillorri", "natural": "peak"}}, {"name": "Altzutzate", "latitude": 42.8201082, "longitude": -1.6006672, "elevation": 486.0, "source": "osm", "_tags": {"ele": "486", "name": "Altzutzate", "natural": "peak"}}, {"name": "Irigarai", "latitude": 42.800123, "longitude": -1.6018992, "elevation": 539.0, "source": "osm", "_tags": {"ele": "539", "name": "Irigarai", "natural": "peak"}}, {"name": "Gorraitz", "latitude": 42.8178179, "longitude": -1.5691426, "elevation": 558.0, "source": "osm", "_tags": {"ele": "558", "name": "Gorraitz", "natural": "peak"}}, {"name": "Alkoskoa", "latitude": 42.820706, "longitude": -1.358167, "elevation": 692.0, "source": "osm", "_tags": {"ele": "692", "name": "Alkoskoa", "natural": "peak"}}, {"name": "Bidegaña", "latitude": 42.820142, "longitude": -1.374818, "elevation": 746.0, "source": "osm", "_tags": {"ele": "746", "name": "Bidegaña", "natural": "peak"}}, {"name": "Axariburu", "latitude": 42.81787, "longitude": -1.358902, "elevation": 649.0, "source": "osm", "_tags": {"ele": "649", "name": "Axariburu", "natural": "peak"}}, {"name": "Kapana", "latitude": 42.772622, "longitude": -1.582221, "elevation": 543.0, "source": "osm", "_tags": {"ele": "543", "name": "Kapana", "natural": "peak"}}, {"name": "Torreón", "latitude": 42.4844175, "longitude": -1.8335022, "elevation": 401.0, "source": "osm", "_tags": {"ele": "401", "name": "Torreón", "natural": "peak"}}, {"name": "Altocabezón", "latitude": 42.4835911, "longitude": -1.8408178, "elevation": 446.0, "source": "osm", "_tags": {"ele": "446", "name": "Altocabezón", "natural": "peak"}}, {"name": "Altomedios", "latitude": 42.4837187, "longitude": -1.8481157, "elevation": 439.0, "source": "osm", "_tags": {"ele": "439", "name": "Altomedios", "natural": "peak"}}, {"name": "Cotilla", "latitude": 42.475146, "longitude": -1.833054, "elevation": 419.0, "source": "osm", "_tags": {"ele": "419", "name": "Cotilla", "natural": "peak"}}, {"name": "Mondiuso", "latitude": 42.4606414, "longitude": -1.9102642, "elevation": 516.0, "source": "osm", "_tags": {"ele": "516", "name": "Mondiuso", "natural": "peak"}}, {"name": "Cahués", "latitude": 42.4696697, "longitude": -1.8168563, "elevation": 385.0, "source": "osm", "_tags": {"ele": "385", "name": "Cahués", "natural": "peak"}}, {"name": "Carrigas", "latitude": 42.4217381, "longitude": -1.8631686, "elevation": 455.0, "source": "osm", "_tags": {"ele": "455", "name": "Carrigas", "natural": "peak"}}, {"name": "Monte Redondo", "latitude": 42.4209245, "longitude": -1.8565224, "elevation": 471.0, "source": "osm", "_tags": {"ele": "471", "name": "Monte Redondo", "natural": "peak"}}, {"name": "Beroate", "latitude": 42.723726, "longitude": -1.40482, "elevation": 788.0, "source": "osm", "_tags": {"ele": "788", "name": "Beroate", "natural": "peak"}}, {"name": "Mendeleku", "latitude": 42.733151, "longitude": -1.412323, "elevation": 713.0, "source": "osm", "_tags": {"ele": "713", "name": "Mendeleku", "natural": "peak"}}, {"name": "Txurriko", "latitude": 42.782372, "longitude": -1.300036, "elevation": 879.0, "source": "osm", "_tags": {"ele": "879", "name": "Txurriko", "natural": "peak"}}, {"name": "Alto de la Chusta", "latitude": 42.720064, "longitude": -1.245863, "elevation": 756.0, "source": "osm", "_tags": {"ele": "756", "name": "Alto de la Chusta", "natural": "peak"}}, {"name": "Ugarrón", "latitude": 42.725532, "longitude": -1.271395, "elevation": 728.0, "source": "osm", "_tags": {"ele": "728", "name": "Ugarrón", "natural": "peak"}}, {"name": "Boluntza", "latitude": 42.719814, "longitude": -1.231361, "elevation": 839.0, "source": "osm", "_tags": {"ele": "839", "name": "Boluntza", "natural": "peak", "wikidata": "Q112786573", "wikipedia": "eu:Boluntza"}}, {"name": "Alto de los Barrancos", "latitude": 42.718363, "longitude": -1.27676, "elevation": 659.0, "source": "osm", "_tags": {"ele": "659", "name": "Alto de los Barrancos", "natural": "peak"}}, {"name": "Chaparral", "latitude": 42.722703, "longitude": -1.282111, "elevation": 689.0, "source": "osm", "_tags": {"ele": "689", "name": "Chaparral", "natural": "peak"}}, {"name": "San Cristóbal", "latitude": 42.76939, "longitude": -1.270432, "elevation": 752.0, "source": "osm", "_tags": {"ele": "752", "name": "San Cristóbal", "natural": "peak"}}, {"name": "Peñasca", "latitude": 42.717346, "longitude": -1.218354, "elevation": 819.0, "source": "osm", "_tags": {"ele": "819", "name": "Peñasca", "natural": "peak"}}, {"name": "Sierra Alta", "latitude": 42.702368, "longitude": -1.230575, "elevation": 709.0, "source": "osm", "_tags": {"ele": "709", "name": "Sierra Alta", "natural": "peak"}}, {"name": "Petronillo", "latitude": 42.733654, "longitude": -1.268801, "elevation": 767.0, "source": "osm", "_tags": {"ele": "767", "name": "Petronillo", "natural": "peak"}}, {"name": "Monte Pequeño", "latitude": 42.745303, "longitude": -1.291494, "elevation": 657.0, "source": "osm", "_tags": {"ele": "657", "name": "Monte Pequeño", "natural": "peak"}}, {"name": "Txitxibar", "latitude": 42.753354, "longitude": -1.272357, "elevation": 693.0, "source": "osm", "_tags": {"ele": "693", "name": "Txitxibar", "natural": "peak"}}, {"name": "Cerro Grande", "latitude": 42.726693, "longitude": -1.416456, "elevation": 775.0, "source": "osm", "_tags": {"ele": "775", "name": "Cerro Grande", "natural": "peak"}}, {"name": "Boyeral", "latitude": 42.786791, "longitude": -1.298875, "elevation": 901.0, "source": "osm", "_tags": {"ele": "901", "name": "Boyeral", "natural": "peak", "wikidata": "Q112788268", "wikipedia": "eu:Boyeral"}}, {"name": "Izeki", "latitude": 42.733183, "longitude": -1.404908, "elevation": 800.0, "source": "osm", "_tags": {"ele": "800", "name": "Izeki", "natural": "peak", "wikidata": "Q112789299", "wikipedia": "eu:Izeki"}}, {"name": "Montarraga", "latitude": 42.6697401, "longitude": -1.777302, "elevation": 517.0, "source": "osm", "_tags": {"ele": "517", "name": "Montarraga", "natural": "peak"}}, {"name": "Arnotegi", "latitude": 42.6681817, "longitude": -1.7959421, "elevation": 524.0, "source": "osm", "_tags": {"ele": "524", "name": "Arnotegi", "natural": "peak"}}, {"name": "Askoz", "latitude": 42.7024567, "longitude": -1.3542663, "elevation": 719.0, "source": "osm", "_tags": {"ele": "719", "name": "Askoz", "natural": "peak"}}, {"name": "Torres", "latitude": 42.7506752, "longitude": -1.0695993, "elevation": 1012.0, "source": "osm", "_tags": {"ele": "1012", "name": "Torres", "natural": "peak"}}, {"name": "Argaña", "latitude": 42.8214875, "longitude": -1.0790418, "elevation": 965.0, "source": "osm", "_tags": {"ele": "965", "name": "Argaña", "natural": "peak", "wikidata": "Q112788819", "wikipedia": "eu:Argaña"}}, {"name": "El Encinar", "latitude": 42.782701, "longitude": -1.8460906, "elevation": 875.0, "source": "osm", "_tags": {"ele": "875", "name": "El Encinar", "natural": "peak"}}, {"name": "Ollakarizketa", "latitude": 42.7643305, "longitude": -1.8615686, "elevation": 989.0, "source": "osm", "_tags": {"ele": "989", "name": "Ollakarizketa", "natural": "peak"}}, {"name": "Peña Txikita", "latitude": 42.7610877, "longitude": -1.8706841, "elevation": 885.0, "source": "osm", "_tags": {"ele": "885", "name": "Peña Txikita", "natural": "peak"}}, {"name": "Gerinda", "latitude": 42.5488637, "longitude": -1.5816974, "elevation": 886.0, "source": "osm", "_tags": {"ele": "886", "name": "Gerinda", "natural": "peak", "wikidata": "Q112783439", "wikipedia": "eu:Gerinda"}}, {"name": "Alto Burgueiro", "latitude": 42.6503254, "longitude": -1.9043967, "elevation": 629.0, "source": "osm", "_tags": {"ele": "629", "name": "Alto Burgueiro", "natural": "peak"}}, {"name": "Markora", "latitude": 42.6446573, "longitude": -1.908729, "elevation": 663.0, "source": "osm", "_tags": {"ele": "663", "name": "Markora", "natural": "peak"}}, {"name": "Metelua", "latitude": 42.6578196, "longitude": -1.7815232, "elevation": 456.0, "source": "osm", "_tags": {"ele": "456", "name": "Metelua", "natural": "peak"}}, {"name": "Las Tres Mugas", "latitude": 42.637445, "longitude": -1.8085225, "elevation": 440.0, "source": "osm", "_tags": {"ele": "440", "name": "Las Tres Mugas", "natural": "peak"}}, {"name": "Antelugar", "latitude": 42.6206167, "longitude": -1.8253781, "elevation": 443.0, "source": "osm", "_tags": {"ele": "443", "name": "Antelugar", "natural": "peak"}}, {"name": "Peñas de Gorriti", "latitude": 42.6289667, "longitude": -1.8029402, "elevation": 472.0, "source": "osm", "_tags": {"ele": "472", "name": "Peñas de Gorriti", "natural": "peak"}}, {"name": "Txingarra Txiki", "latitude": 42.6246856, "longitude": -1.7795722, "elevation": 524.0, "source": "osm", "_tags": {"ele": "524", "name": "Txingarra Txiki", "natural": "peak"}}, {"name": "Cascajo", "latitude": 42.5217213, "longitude": -1.8506562, "elevation": 404.0, "source": "osm", "_tags": {"ele": "404", "name": "Cascajo", "natural": "peak"}}, {"name": "Gazteluzar", "latitude": 42.6256128, "longitude": -1.7652498, "elevation": 567.0, "source": "osm", "_tags": {"ele": "567", "name": "Gazteluzar", "natural": "peak"}}, {"name": "San Lorente", "latitude": 42.5375993, "longitude": -1.912568, "elevation": 492.0, "source": "osm", "_tags": {"ele": "492", "name": "San Lorente", "natural": "peak"}}, {"name": "Los Pilares", "latitude": 42.5267332, "longitude": -1.9447658, "elevation": 498.0, "source": "osm", "_tags": {"ele": "498", "name": "Los Pilares", "natural": "peak"}}, {"name": "Ventura", "latitude": 42.5350269, "longitude": -1.9291735, "elevation": 499.0, "source": "osm", "_tags": {"ele": "499", "name": "Ventura", "natural": "peak"}}, {"name": "Txingarra", "latitude": 42.6252041, "longitude": -1.7724648, "elevation": 544.0, "source": "osm", "_tags": {"ele": "544", "name": "Txingarra", "natural": "peak"}}, {"name": "Coraza", "latitude": 42.1101736, "longitude": -1.6541344, "elevation": 412.42, "source": "osm", "_tags": {"ele": "412.42", "name": "Coraza", "natural": "peak"}}, {"name": "Loma Negra", "latitude": 42.0720935, "longitude": -1.3643928, "elevation": 646.0, "source": "osm", "_tags": {"ele": "646", "name": "Loma Negra", "natural": "peak", "source": "ign"}}, {"name": "La Umbría", "latitude": 42.0713263, "longitude": -1.3827013, "elevation": 549.0, "source": "osm", "_tags": {"ele": "549", "name": "La Umbría", "natural": "peak", "source": "ign"}}, {"name": "Cabezotinaja", "latitude": 42.0699061, "longitude": -1.3899415, "elevation": 543.0, "source": "osm", "_tags": {"ele": "543", "name": "Cabezotinaja", "natural": "peak"}}, {"name": "Peña la Aguda", "latitude": 42.0563697, "longitude": -1.3474909, "elevation": 629.0, "source": "osm", "_tags": {"ele": "629", "name": "Peña la Aguda", "natural": "peak"}}, {"name": "Sobradera", "latitude": 42.0752591, "longitude": -1.3914623, "elevation": 507.0, "source": "osm", "_tags": {"ele": "507", "name": "Sobradera", "natural": "peak"}}, {"name": "Donapea", "latitude": 42.7930004, "longitude": -1.6526792, "elevation": 453.0, "source": "osm", "_tags": {"ele": "453", "name": "Donapea", "natural": "peak"}}, {"name": "La Cruz Blanca", "latitude": 42.8006805, "longitude": -1.6331275, "elevation": 447.0, "source": "osm", "_tags": {"ele": "447", "name": "La Cruz Blanca", "name:es": "La Cruz Blanca", "name:eu": "Gurutzezuria", "natural": "peak"}}, {"name": "El Campamento", "latitude": 42.8047566, "longitude": -1.6195796, "elevation": 471.0, "source": "osm", "_tags": {"ele": "471", "name": "El Campamento", "name:es": "El Campamento", "name:eu": "Mugartea", "natural": "peak"}}, {"name": "Garitón de Ripalda", "latitude": 42.7917548, "longitude": -1.6351071, "elevation": 455.0, "source": "osm", "_tags": {"ele": "455", "name": "Garitón de Ripalda", "natural": "peak"}}, {"name": "Malpaso", "latitude": 42.8006719, "longitude": -1.6221707, "elevation": 462.0, "source": "osm", "_tags": {"ele": "462", "name": "Malpaso", "natural": "peak"}}, {"name": "La Cruz", "latitude": 42.8001305, "longitude": -1.7125349, "elevation": 513.0, "source": "osm", "_tags": {"ele": "513", "name": "La Cruz", "natural": "peak"}}, {"name": "Santa Águeda", "latitude": 42.8007909, "longitude": -1.7209694, "elevation": 544.0, "source": "osm", "_tags": {"ele": "544", "name": "Santa Águeda", "natural": "peak"}}, {"name": "Errotondoa", "latitude": 42.8045192, "longitude": -1.7201207, "elevation": 470.0, "source": "osm", "_tags": {"ele": "470", "name": "Errotondoa", "natural": "peak"}}, {"name": "Puydul", "latitude": 42.5688773, "longitude": -1.2533779, "elevation": 498.0, "source": "osm", "_tags": {"ele": "498", "name": "Puydul", "name:es": "Puydul", "name:eu": "Puidul", "natural": "peak"}}, {"name": "Santa Lucía", "latitude": 42.5797405, "longitude": -1.2411163, "elevation": 593.0, "source": "osm", "_tags": {"ele": "593", "name": "Santa Lucía", "natural": "peak"}}, {"name": "Peña del Adiós", "latitude": 42.5848164, "longitude": -1.2308574, "elevation": 612.0, "source": "osm", "_tags": {"ele": "612", "name": "Peña del Adiós", "natural": "peak"}}, {"name": "Castellar", "latitude": 42.5855351, "longitude": -1.2158691, "elevation": 621.0, "source": "osm", "_tags": {"ele": "621", "name": "Castellar", "natural": "peak"}}, {"name": "Ugarte", "latitude": 42.5932045, "longitude": -1.2463994, "elevation": 629.0, "source": "osm", "_tags": {"ele": "629", "name": "Ugarte", "name:es": "Ugarte", "name:eu": "Ugasti", "natural": "peak"}}, {"name": "Mongallés", "latitude": 42.5945315, "longitude": -1.2550254, "elevation": 573.0, "source": "osm", "_tags": {"ele": "573", "name": "Mongallés", "name:es": "Mongallés", "name:eu": "Ugarte Txiki", "natural": "peak"}}, {"name": "Santa Cruz", "latitude": 42.6125367, "longitude": -1.2932415, "elevation": 596.0, "source": "osm", "_tags": {"ele": "596", "name": "Santa Cruz", "natural": "peak"}}, {"name": "Peña del Oratorio", "latitude": 42.6006127, "longitude": -1.2904734, "elevation": 621.0, "source": "osm", "_tags": {"ele": "621", "name": "Peña del Oratorio", "natural": "peak"}}, {"name": "Alto de Nora", "latitude": 42.5736294, "longitude": -1.2931127, "elevation": 472.0, "source": "osm", "_tags": {"ele": "472", "name": "Alto de Nora", "natural": "peak"}}, {"name": "Saso", "latitude": 42.5596953, "longitude": -1.3175824, "elevation": 428.0, "source": "osm", "_tags": {"ele": "428", "name": "Saso", "natural": "peak"}}, {"name": "Sanjuste", "latitude": 42.6179293, "longitude": -1.1953161, "elevation": 553.0, "source": "osm", "_tags": {"ele": "553", "name": "Sanjuste", "natural": "peak"}}, {"name": "Alto de la Refoya", "latitude": 42.6077595, "longitude": -1.180124, "elevation": 697.0, "source": "osm", "_tags": {"ele": "697", "name": "Alto de la Refoya", "natural": "peak"}}, {"name": "Alto de Las Foyazas", "latitude": 42.6235978, "longitude": -1.1800167, "elevation": 738.0, "source": "osm", "_tags": {"ele": "738", "name": "Alto de Las Foyazas", "natural": "peak"}}, {"name": "El Desnucadero", "latitude": 42.6265187, "longitude": -1.1843083, "elevation": 726.0, "source": "osm", "_tags": {"ele": "726", "name": "El Desnucadero", "natural": "peak"}}, {"name": "Alto de Valmayor", "latitude": 42.628808, "longitude": -1.1885354, "elevation": 741.0, "source": "osm", "_tags": {"ele": "741", "name": "Alto de Valmayor", "natural": "peak"}}, {"name": "Cerro Piolé", "latitude": 42.6331178, "longitude": -1.1501906, "elevation": 736.0, "source": "osm", "_tags": {"ele": "736", "name": "Cerro Piolé", "natural": "peak"}}, {"name": "Alto de la Degollada", "latitude": 42.6120708, "longitude": -1.1307285, "elevation": 543.0, "source": "osm", "_tags": {"ele": "543", "name": "Alto de la Degollada", "natural": "peak"}}, {"name": "Montico", "latitude": 42.6208821, "longitude": -1.119828, "elevation": 633.0, "source": "osm", "_tags": {"ele": "633", "name": "Montico", "natural": "peak"}}, {"name": "Tiermas", "latitude": 42.6149517, "longitude": -1.1169554, "elevation": 587.0, "source": "osm", "_tags": {"ele": "587", "name": "Tiermas", "natural": "peak"}}, {"name": "Balcón de Pilatos", "latitude": 42.141827, "longitude": -1.4806047, "elevation": 466.0, "source": "osm", "_tags": {"ele": "466", "name": "Balcón de Pilatos", "name:eu": "Pilatosen balkoia", "natural": "peak"}}, {"name": "Peñartea", "latitude": 42.6665916, "longitude": -1.6422538, "elevation": 797.0, "source": "osm", "_tags": {"ele": "797", "name": "Peñartea", "natural": "peak"}}, {"name": "Aieregi", "latitude": 42.6578193, "longitude": -1.6136018, "elevation": 961.0, "source": "osm", "_tags": {"ele": "961", "name": "Aieregi", "natural": "peak"}}, {"name": "San Esteban", "latitude": 42.6428254, "longitude": -1.7067736, "elevation": 708.0, "source": "osm", "_tags": {"ele": "708", "name": "San Esteban", "natural": "peak"}}, {"name": "El Boyeral", "latitude": 42.6370492, "longitude": -1.7136382, "elevation": 712.0, "source": "osm", "_tags": {"ele": "712", "name": "El Boyeral", "natural": "peak"}}, {"name": "Larrazpilleta", "latitude": 42.6918385, "longitude": -1.5963406, "elevation": 1056.0, "source": "osm", "_tags": {"ele": "1056", "name": "Larrazpilleta", "natural": "peak"}}, {"name": "Alto de las Tres Mugas", "latitude": 42.6931724, "longitude": -1.6030615, "elevation": 1146.0, "source": "osm", "_tags": {"ele": "1146", "name": "Alto de las Tres Mugas", "natural": "peak"}}, {"name": "Aitzertea", "latitude": 42.6666706, "longitude": -1.6277309, "elevation": 813.0, "source": "osm", "_tags": {"ele": "813", "name": "Aitzertea", "natural": "peak"}}, {"name": "Mendialto", "latitude": 42.645034, "longitude": -1.6966398, "elevation": 701.0, "source": "osm", "_tags": {"ele": "701", "name": "Mendialto", "natural": "peak"}}, {"name": "Aitakaio", "latitude": 42.6342356, "longitude": -1.7288831, "elevation": 642.0, "source": "osm", "_tags": {"ele": "642", "name": "Aitakaio", "natural": "peak"}}, {"name": "El Alto de la Borda Larga", "latitude": 42.6649682, "longitude": -1.5269288, "elevation": 982.0, "source": "osm", "_tags": {"ele": "982", "name": "El Alto de la Borda Larga", "natural": "peak"}}, {"name": "Cerros Viejos", "latitude": 42.6275232, "longitude": -1.4116557, "elevation": 929.0, "source": "osm", "_tags": {"ele": "929", "name": "Cerros Viejos", "natural": "peak"}}, {"name": "Olatz", "latitude": 42.6542873, "longitude": -1.4006655, "elevation": 808.0, "source": "osm", "_tags": {"ele": "808", "name": "Olatz", "natural": "peak"}}, {"name": "El Fayal", "latitude": 42.6295676, "longitude": -1.4624824, "elevation": 965.0, "source": "osm", "_tags": {"ele": "965", "name": "El Fayal", "natural": "peak"}}, {"name": "Alto de Leotz", "latitude": 42.6399469, "longitude": -1.4981602, "elevation": 922.0, "source": "osm", "_tags": {"ele": "922", "name": "Alto de Leotz", "natural": "peak"}}, {"name": "Alto de Juandelusaiets", "latitude": 42.5762491, "longitude": -1.4506579, "elevation": 783.0, "source": "osm", "_tags": {"ele": "783", "name": "Alto de Juandelusaiets", "natural": "peak"}}, {"name": "San Miguel", "latitude": 42.6492032, "longitude": -1.372811, "elevation": 731.0, "source": "osm", "_tags": {"ele": "731", "name": "San Miguel", "natural": "peak"}}, {"name": "El Chaparral", "latitude": 42.6438054, "longitude": -1.3580457, "elevation": 689.0, "source": "osm", "_tags": {"ele": "689", "name": "El Chaparral", "natural": "peak"}}, {"name": "Arrobia", "latitude": 42.6347477, "longitude": -1.3450266, "elevation": 601.0, "source": "osm", "_tags": {"ele": "601", "name": "Arrobia", "natural": "peak"}}, {"name": "La Magdalena", "latitude": 42.6109619, "longitude": -1.3967639, "elevation": 783.0, "source": "osm", "_tags": {"ele": "783", "name": "La Magdalena", "natural": "peak"}}, {"name": "Sargalalto", "latitude": 42.6113162, "longitude": -1.3835268, "elevation": 803.0, "source": "osm", "_tags": {"ele": "803", "name": "Sargalalto", "natural": "peak"}}, {"name": "El Ardil", "latitude": 42.6003868, "longitude": -1.5002811, "elevation": 1001.0, "source": "osm", "_tags": {"ele": "1001", "name": "El Ardil", "natural": "peak"}}, {"name": "San Roque", "latitude": 42.5915156, "longitude": -1.3571036, "elevation": 605.0, "source": "osm", "_tags": {"ele": "605", "name": "San Roque", "natural": "peak"}}, {"name": "Las Pinillas", "latitude": 42.6024349, "longitude": -1.3593156, "elevation": 701.0, "source": "osm", "_tags": {"ele": "701", "name": "Las Pinillas", "natural": "peak"}}, {"name": "Alto de Berrazulo", "latitude": 42.6173317, "longitude": -1.4700627, "elevation": 786.0, "source": "osm", "_tags": {"ele": "786", "name": "Alto de Berrazulo", "natural": "peak"}}, {"name": "Alto de Nablas", "latitude": 42.5914728, "longitude": -1.3832111, "elevation": 578.0, "source": "osm", "_tags": {"ele": "578", "name": "Alto de Nablas", "natural": "peak"}}, {"name": "Caracierzo del Barrio", "latitude": 42.5955585, "longitude": -1.3772793, "elevation": 606.0, "source": "osm", "_tags": {"ele": "606", "name": "Caracierzo del Barrio", "natural": "peak"}}, {"name": "Puyarraso", "latitude": 42.5402997, "longitude": -1.4420606, "elevation": 558.0, "source": "osm", "_tags": {"ele": "558", "name": "Puyarraso", "natural": "peak"}}, {"name": "Santa Bárbara", "latitude": 42.5652564, "longitude": -1.4588853, "elevation": 582.0, "source": "osm", "_tags": {"ele": "582", "name": "Santa Bárbara", "natural": "peak"}}, {"name": "Peñas Altas", "latitude": 42.5119371, "longitude": -1.3992978, "elevation": 746.0, "source": "osm", "_tags": {"ele": "746", "name": "Peñas Altas", "natural": "peak"}}, {"name": "Santa Cruz", "latitude": 42.5421753, "longitude": -1.4536752, "elevation": 581.0, "source": "osm", "_tags": {"ele": "581", "name": "Santa Cruz", "natural": "peak"}}, {"name": "Alto de Bordatxar", "latitude": 42.7060463, "longitude": -1.5902571, "elevation": 773.0, "source": "osm", "_tags": {"ele": "773", "name": "Alto de Bordatxar", "natural": "peak"}}, {"name": "Peña del Cantero / Harginaren Haitza", "latitude": 42.797226, "longitude": -1.8163126, "elevation": 741.0, "source": "osm", "_tags": {"alt_name:es": "Peña de los Canteros", "alt_name:eu": "Harginen Haitza", "climbing": "route", "ele": "741", "name": "Peña del Cantero / Harginaren Haitza", "name:es": "Peña del Cantero", "name:eu": "Harginaren Haitza", "natural": "peak"}}, {"name": "Entrepeñas", "latitude": 42.8166553, "longitude": -1.3155374, "elevation": 1004.42, "source": "osm", "_tags": {"ele": "1004.42", "name": "Entrepeñas", "natural": "peak"}}, {"name": "La Peña Grande", "latitude": 42.8191893, "longitude": -1.3044552, "elevation": 1045.0, "source": "osm", "_tags": {"ele": "1045", "name": "La Peña Grande", "name:eu": "Haitza Handia", "natural": "peak"}}, {"name": "Pinopeta", "latitude": 42.8223023, "longitude": -1.2833644, "elevation": 922.46, "source": "osm", "_tags": {"ele": "922.46", "name": "Pinopeta", "natural": "peak"}}, {"name": "Sario", "latitude": 42.8202619, "longitude": -1.2891845, "elevation": 909.36, "source": "osm", "_tags": {"ele": "909.36", "name": "Sario", "natural": "peak"}}, {"name": "Calvario", "latitude": 42.7855686, "longitude": -1.7240035, "elevation": 472.0, "source": "osm", "_tags": {"ele": "472", "name": "Calvario", "natural": "peak"}}, {"name": "Lizasetagaña", "latitude": 42.7968877, "longitude": -1.7464178, "elevation": 442.0, "source": "osm", "_tags": {"ele": "442", "name": "Lizasetagaña", "natural": "peak"}}, {"name": "Sancristobalgaña", "latitude": 42.8032955, "longitude": -1.7419116, "elevation": 441.0, "source": "osm", "_tags": {"ele": "441", "name": "Sancristobalgaña", "natural": "peak"}}, {"name": "Alto Ubani", "latitude": 42.7583813, "longitude": -1.7856407, "elevation": null, "source": "osm", "_tags": {"name": "Alto Ubani", "natural": "peak"}}, {"name": "Alto de la Muga", "latitude": 42.7886425, "longitude": -1.4262769, "elevation": 629.0, "source": "osm", "_tags": {"ele": "629", "name": "Alto de la Muga", "natural": "peak"}}, {"name": "Muru", "latitude": 42.7944789, "longitude": -1.4482561, "elevation": 625.0, "source": "osm", "_tags": {"ele": "625", "name": "Muru", "natural": "peak"}}, {"name": "Argonga", "latitude": 42.7738488, "longitude": -1.4716235, "elevation": 683.0, "source": "osm", "_tags": {"ele": "683", "name": "Argonga", "natural": "peak"}}, {"name": "Cerro Medio", "latitude": 42.7675639, "longitude": -1.4758721, "elevation": 572.0, "source": "osm", "_tags": {"ele": "572", "name": "Cerro Medio", "natural": "peak"}}, {"name": "Arrueta", "latitude": 42.7569774, "longitude": -1.4877167, "elevation": 682.0, "source": "osm", "_tags": {"ele": "682", "name": "Arrueta", "natural": "peak"}}, {"name": "Cerro de Gesaltze", "latitude": 42.7709664, "longitude": -1.5012565, "elevation": 642.0, "source": "osm", "_tags": {"ele": "642", "name": "Cerro de Gesaltze", "natural": "peak"}}, {"name": "San Jaun Salbatore", "latitude": 42.7512266, "longitude": -1.4539638, "elevation": 601.0, "source": "osm", "_tags": {"ele": "601", "name": "San Jaun Salbatore", "natural": "peak"}}, {"name": "Iparraguirre", "latitude": 42.7479176, "longitude": -1.448535, "elevation": 620.0, "source": "osm", "_tags": {"ele": "620", "name": "Iparraguirre", "natural": "peak"}}, {"name": "Eluspeltz", "latitude": 42.742418, "longitude": -1.4537492, "elevation": 639.0, "source": "osm", "_tags": {"ele": "639", "name": "Eluspeltz", "natural": "peak"}}, {"name": "Txarribizkar", "latitude": 42.7331197, "longitude": -1.4666668, "elevation": 838.0, "source": "osm", "_tags": {"ele": "838", "name": "Txarribizkar", "natural": "peak", "wikidata": "Q112789063", "wikipedia": "eu:Txarribizkar"}}, {"name": "Peña Iruaga", "latitude": 42.7304244, "longitude": -1.4724174, "elevation": 797.0, "source": "osm", "_tags": {"ele": "797", "name": "Peña Iruaga", "natural": "peak"}}, {"name": "Basaba", "latitude": 42.7375641, "longitude": -1.486043, "elevation": 665.0, "source": "osm", "_tags": {"ele": "665", "name": "Basaba", "natural": "peak"}}, {"name": "Alto del Juncal", "latitude": 42.7411258, "longitude": -1.4799061, "elevation": 682.0, "source": "osm", "_tags": {"ele": "682", "name": "Alto del Juncal", "natural": "peak"}}, {"name": "Ollagar", "latitude": 42.7281705, "longitude": -1.5097967, "elevation": 581.0, "source": "osm", "_tags": {"ele": "581", "name": "Ollagar", "natural": "peak"}}, {"name": "San Juan", "latitude": 42.7223066, "longitude": -1.5184656, "elevation": 675.0, "source": "osm", "_tags": {"ele": "675", "name": "San Juan", "natural": "peak"}}, {"name": "Cerro de Ata", "latitude": 42.7183024, "longitude": -1.5003553, "elevation": 748.0, "source": "osm", "_tags": {"ele": "748", "name": "Cerro de Ata", "natural": "peak"}}, {"name": "Castillo de Elo", "latitude": 42.7050585, "longitude": -1.5103546, "elevation": 616.0, "source": "osm", "_tags": {"ele": "616", "name": "Castillo de Elo", "natural": "peak"}}, {"name": "El Castillo", "latitude": 42.691449, "longitude": -1.49012, "elevation": 591.0, "source": "osm", "_tags": {"ele": "591", "name": "El Castillo", "natural": "peak"}}, {"name": "Erensuge", "latitude": 42.6889885, "longitude": -1.4815798, "elevation": 608.0, "source": "osm", "_tags": {"ele": "608", "name": "Erensuge", "natural": "peak"}}, {"name": "El Montico", "latitude": 42.6849034, "longitude": -1.4702287, "elevation": 662.0, "source": "osm", "_tags": {"ele": "662", "name": "El Montico", "natural": "peak"}}, {"name": "Cantera del Soto", "latitude": 42.6787514, "longitude": -1.4737907, "elevation": 641.0, "source": "osm", "_tags": {"ele": "641", "name": "Cantera del Soto", "natural": "peak"}}, {"name": "Andurgain", "latitude": 42.6770004, "longitude": -1.4828458, "elevation": 677.0, "source": "osm", "_tags": {"ele": "677", "name": "Andurgain", "natural": "peak"}}, {"name": "Lekaun", "latitude": 42.6831525, "longitude": -1.4359608, "elevation": 928.0, "source": "osm", "_tags": {"ele": "928", "name": "Lekaun", "natural": "peak"}}, {"name": "Karramitxa", "latitude": 42.6820956, "longitude": -1.4286867, "elevation": 954.0, "source": "osm", "_tags": {"ele": "954", "name": "Karramitxa", "natural": "peak"}}, {"name": "Alto de la Viña", "latitude": 42.6829159, "longitude": -1.4040318, "elevation": 734.0, "source": "osm", "_tags": {"ele": "734", "name": "Alto de la Viña", "natural": "peak"}}, {"name": "Alto del Común", "latitude": 42.6845406, "longitude": -1.3971439, "elevation": 729.0, "source": "osm", "_tags": {"ele": "729", "name": "Alto del Común", "natural": "peak"}}, {"name": "San Jus", "latitude": 42.6926476, "longitude": -1.358327, "elevation": 618.0, "source": "osm", "_tags": {"ele": "618", "name": "San Jus", "natural": "peak"}}, {"name": "Santa Cruz", "latitude": 42.7100726, "longitude": -1.3505164, "elevation": 697.0, "source": "osm", "_tags": {"ele": "697", "name": "Santa Cruz", "natural": "peak"}}, {"name": "Muru", "latitude": 42.7174826, "longitude": -1.3678327, "elevation": 638.0, "source": "osm", "_tags": {"ele": "638", "name": "Muru", "natural": "peak"}}, {"name": "Laigain", "latitude": 42.7135619, "longitude": -1.393359, "elevation": 778.0, "source": "osm", "_tags": {"ele": "778", "name": "Laigain", "natural": "peak"}}, {"name": "Aizkolerri", "latitude": 42.7100775, "longitude": -1.4055041, "elevation": 816.0, "source": "osm", "_tags": {"ele": "816", "name": "Aizkolerri", "natural": "peak"}}, {"name": "Fuente de los Moros", "latitude": 42.7589832, "longitude": -1.4232496, "elevation": 756.0, "source": "osm", "_tags": {"ele": "756", "name": "Fuente de los Moros", "name:eu": "Mairuen iturria", "natural": "peak"}}, {"name": "Cerrogrande", "latitude": 42.7788308, "longitude": -1.4118341, "elevation": 583.0, "source": "osm", "_tags": {"ele": "583", "name": "Cerrogrande", "natural": "peak"}}, {"name": "Campo de la Iglesia", "latitude": 42.7927833, "longitude": -1.4115122, "elevation": 627.0, "source": "osm", "_tags": {"ele": "627", "name": "Campo de la Iglesia", "natural": "peak"}}, {"name": "Murugain", "latitude": 42.8015532, "longitude": -1.4096454, "elevation": 627.0, "source": "osm", "_tags": {"ele": "627", "name": "Murugain", "natural": "peak"}}, {"name": "Oiezki", "latitude": 42.8053788, "longitude": -1.4261678, "elevation": 686.0, "source": "osm", "_tags": {"ele": "686", "name": "Oiezki", "natural": "peak"}}, {"name": "Koxko", "latitude": 42.7992388, "longitude": -1.4410809, "elevation": 641.0, "source": "osm", "_tags": {"ele": "641", "name": "Koxko", "natural": "peak"}}, {"name": "Murucerro", "latitude": 42.8016791, "longitude": -1.4502862, "elevation": 609.0, "source": "osm", "_tags": {"ele": "609", "name": "Murucerro", "natural": "peak"}}, {"name": "Alto de San Juan", "latitude": 42.8166024, "longitude": -1.4443424, "elevation": 711.0, "source": "osm", "_tags": {"ele": "711", "name": "Alto de San Juan", "natural": "peak"}}, {"name": "Ezpilaga", "latitude": 42.8159413, "longitude": -1.4265111, "elevation": 801.0, "source": "osm", "_tags": {"ele": "801", "name": "Ezpilaga", "natural": "peak"}}, {"name": "Moreabizkar", "latitude": 42.8013593, "longitude": -1.561904, "elevation": 604.0, "source": "osm", "_tags": {"ele": "604", "name": "Moreabizkar", "natural": "peak"}}, {"name": "Picacho", "latitude": 42.6740869, "longitude": -2.0249161, "elevation": 522.0, "source": "osm", "_tags": {"ele": "522", "name": "Picacho", "natural": "peak"}}, {"name": "Monte redondo", "latitude": 42.6732954, "longitude": -2.0267089, "elevation": null, "source": "osm", "_tags": {"name": "Monte redondo", "natural": "peak"}}, {"name": "Altos de Valgorra", "latitude": 42.5233329, "longitude": -1.6326533, "elevation": 596.0, "source": "osm", "_tags": {"ele": "596", "name": "Altos de Valgorra", "natural": "peak"}}, {"name": "Pui Pepín", "latitude": 42.4865374, "longitude": -1.0358215, "elevation": 696.0, "source": "osm", "_tags": {"ele": "696", "name": "Pui Pepín", "name:an": "Pui Pepín", "name:es": "Puig Pepín", "natural": "peak"}}, {"name": "Forcola Peñarrata", "latitude": 42.4903337, "longitude": -1.0639013, "elevation": 632.0, "source": "osm", "_tags": {"ele": "632", "name": "Forcola Peñarrata", "name:an": "Forcola Peñarrata", "natural": "peak", "source:name:an": "Direzión Cheneral de Politica Linguistica (DGA)"}}, {"name": "Punta l'Enforcau", "latitude": 42.3108048, "longitude": -1.0748077, "elevation": 754.0, "source": "osm", "_tags": {"ele": "754", "name": "Punta l'Enforcau", "name:an": "Punta l'Enforcau", "name:es": "Punta del Enforcau", "natural": "peak"}}, {"name": "Pui Negré", "latitude": 42.2985588, "longitude": -1.3349911, "elevation": 435.0, "source": "osm", "_tags": {"ele": "435", "name": "Pui Negré", "natural": "peak"}}, {"name": "Pui Amarillo", "latitude": 42.4136039, "longitude": -1.1030284, "elevation": 853.0, "source": "osm", "_tags": {"ele": "853", "name": "Pui Amarillo", "name:an": "Pui Amarillo", "name:es": "Puig Amarillo", "natural": "peak"}}, {"name": "Pui Arraso", "latitude": 42.3197365, "longitude": -1.2169575, "elevation": 547.0, "source": "osm", "_tags": {"ele": "547", "name": "Pui Arraso", "name:an": "Pui Arraso", "name:es": "Puy Arraso", "natural": "peak"}}, {"name": "Pui d'Olid", "latitude": 42.3765683, "longitude": -1.0691502, "elevation": 884.0, "source": "osm", "_tags": {"ele": "884", "name": "Pui d'Olid", "name:an": "Pui d'Olid", "name:es": "Poyo de Olid", "natural": "peak"}}, {"name": "Sierra Alta", "latitude": 42.7670511, "longitude": -1.0529682, "elevation": 1068.0, "source": "osm", "_tags": {"ele": "1068", "name": "Sierra Alta", "natural": "peak", "wikidata": "Q112789802", "wikipedia": "eu:Sierra Alta"}}, {"name": "Mataperri", "latitude": 42.7544431, "longitude": -1.0507969, "elevation": 1041.0, "source": "osm", "_tags": {"ele": "1041", "name": "Mataperri", "natural": "peak"}}, {"name": "Paitu", "latitude": 42.7670986, "longitude": -1.0690631, "elevation": 1017.0, "source": "osm", "_tags": {"ele": "1017", "name": "Paitu", "natural": "peak"}}, {"name": "Mercader", "latitude": 42.7461367, "longitude": -1.0732553, "elevation": 1003.0, "source": "osm", "_tags": {"alt_name": "Cerro de las Losas", "ele": "1003", "name": "Mercader", "natural": "peak"}}, {"name": "Peña de la Guardia N.", "latitude": 42.7454, "longitude": -1.0706, "elevation": 1002.0, "source": "osm", "_tags": {"ele": "1002", "name": "Peña de la Guardia N.", "natural": "peak"}}, {"name": "La Sierra", "latitude": 42.7262099, "longitude": -1.047492, "elevation": 999.0, "source": "osm", "_tags": {"ele": "999", "name": "La Sierra", "natural": "peak"}}, {"name": "Puntallo del Paco Mayor", "latitude": 42.7542247, "longitude": -1.1146509, "elevation": 829.0, "source": "osm", "_tags": {"ele": "829", "name": "Puntallo del Paco Mayor", "natural": "peak"}}, {"name": "Alto de los Linares", "latitude": 42.7529516, "longitude": -1.0883813, "elevation": 727.0, "source": "osm", "_tags": {"ele": "727", "name": "Alto de los Linares", "natural": "peak"}}, {"name": "Cuatroaires", "latitude": 42.7603513, "longitude": -1.0876894, "elevation": 823.0, "source": "osm", "_tags": {"ele": "823", "name": "Cuatroaires", "natural": "peak"}}, {"name": "Zegarra", "latitude": 42.7482645, "longitude": -1.0465065, "elevation": 1017.0, "source": "osm", "_tags": {"ele": "1017", "name": "Zegarra", "natural": "peak"}}, {"name": "Puntallo del Gorrillón", "latitude": 42.7660708, "longitude": -1.1220402, "elevation": 881.0, "source": "osm", "_tags": {"ele": "881", "name": "Puntallo del Gorrillón", "natural": "peak"}}, {"name": "Alto de Zuazo", "latitude": 42.5570852, "longitude": -1.657995, "elevation": null, "source": "osm", "_tags": {"name": "Alto de Zuazo", "natural": "peak"}}, {"name": "Malkaitz", "latitude": 42.8107884, "longitude": -1.5542359, "elevation": 772.0, "source": "osm", "_tags": {"ele": "772", "name": "Malkaitz", "natural": "peak", "note": "\"Cumbre de la sierra de Aranguren entre los valles de Aranguren y Egues, si bien la cumbre pertenece íntegramente a este segundo valle. También se denomina Ezpikuri. Por otro lado, la proximidad de esta montaña a la vieja Iruñea (496 m) la hace susceptibl"}}, {"name": "El Pineral", "latitude": 42.7872587, "longitude": -1.5896269, "elevation": 575.0, "source": "osm", "_tags": {"ele": "575", "name": "El Pineral", "natural": "peak", "source": "https://www.mendikat.net/com/mount/20817", "source:name": "https://www.mendikat.net/com/mount/20817"}}, {"name": "Urrizabal", "latitude": 42.6191771, "longitude": -1.5089385, "elevation": 953.0, "source": "osm", "_tags": {"ele": "953", "name": "Urrizabal", "natural": "peak"}}, {"name": "Alto de Gardalain", "latitude": 42.6346237, "longitude": -1.4574306, "elevation": 953.0, "source": "osm", "_tags": {"ele": "953", "name": "Alto de Gardalain", "natural": "peak"}}, {"name": "Artaldea", "latitude": 42.623494, "longitude": -1.4756674, "elevation": 774.0, "source": "osm", "_tags": {"ele": "774", "name": "Artaldea", "natural": "peak"}}, {"name": "Alto del Pinar", "latitude": 42.6386403, "longitude": -1.4769565, "elevation": 939.0, "source": "osm", "_tags": {"ele": "939", "name": "Alto del Pinar", "natural": "peak"}}, {"name": "Arrondo", "latitude": 42.6413177, "longitude": -1.4683895, "elevation": 944.0, "source": "osm", "_tags": {"ele": "944", "name": "Arrondo", "natural": "peak"}}, {"name": "Malacara", "latitude": 42.6138444, "longitude": -1.4916308, "elevation": 863.0, "source": "osm", "_tags": {"ele": "863", "name": "Malacara", "natural": "peak"}}, {"name": "Murugain", "latitude": 42.6242671, "longitude": -1.5035613, "elevation": 936.0, "source": "osm", "_tags": {"alt_name": "Alto de Getadar, Guetádar, Borda de Ciriza, Corral de Ciriza, Ziriza, Alto de Sabaiza, Murugain, Murigain, Murugáin, Murigáin", "ele": "936", "name": "Murugain", "natural": "peak"}}, {"name": "Puntal del Peñasco", "latitude": 41.8659974, "longitude": -1.6198797, "elevation": 808.0, "source": "osm", "_tags": {"alt_name": "Muela Alta", "ele": "808", "name": "Puntal del Peñasco", "natural": "peak"}}, {"name": "Las Torres", "latitude": 41.9320238, "longitude": -1.796739, "elevation": 817.0, "source": "osm", "_tags": {"ele": "817", "name": "Las Torres", "natural": "peak"}}, {"name": "Cerro del Boquerón", "latitude": 41.8710437, "longitude": -1.6230969, "elevation": 804.0, "source": "osm", "_tags": {"ele": "804", "name": "Cerro del Boquerón", "natural": "peak"}}, {"name": "Mendibiribil", "latitude": 42.8040394, "longitude": -1.728532, "elevation": 456.0, "source": "osm", "_tags": {"ele": "456", "name": "Mendibiribil", "natural": "peak"}}, {"name": "Turendo", "latitude": 42.6966919, "longitude": -1.0663933, "elevation": 1151.0, "source": "osm", "_tags": {"ele": "1151", "name": "Turendo", "natural": "peak"}}, {"name": "Pasopetón Occidental", "latitude": 42.6452979, "longitude": -1.0824034, "elevation": 1310.0, "source": "osm", "_tags": {"ele": "1310", "name": "Pasopetón Occidental", "natural": "peak"}}, {"name": "Escalar", "latitude": 42.6419202, "longitude": -1.0665365, "elevation": 1239.0, "source": "osm", "_tags": {"ele": "1239", "name": "Escalar", "natural": "peak"}}, {"name": "Escalar Oriental", "latitude": 42.6423024, "longitude": -1.0619894, "elevation": 1209.0, "source": "osm", "_tags": {"ele": "1209", "name": "Escalar Oriental", "natural": "peak"}}, {"name": "Fragas", "latitude": 42.6673546, "longitude": -1.0378637, "elevation": 869.0, "source": "osm", "_tags": {"ele": "869", "name": "Fragas", "natural": "peak"}}, {"name": "El Montecillo", "latitude": 42.6764777, "longitude": -1.0351033, "elevation": 739.0, "source": "osm", "_tags": {"ele": "739", "name": "El Montecillo", "natural": "peak"}}, {"name": "Castillonuevo / Gazteluberri", "latitude": 42.6792695, "longitude": -1.0446264, "elevation": 809.0, "source": "osm", "_tags": {"ele": "809", "name": "Castillonuevo / Gazteluberri", "natural": "peak"}}, {"name": "Cerro del Regallón", "latitude": 42.675583, "longitude": -1.0888898, "elevation": 836.0, "source": "osm", "_tags": {"ele": "836", "name": "Cerro del Regallón", "natural": "peak"}}, {"name": "Cerro Bradín", "latitude": 42.7032769, "longitude": -1.0522815, "elevation": 1093.0, "source": "osm", "_tags": {"ele": "1093", "name": "Cerro Bradín", "natural": "peak"}}, {"name": "Baracisa", "latitude": 42.7038955, "longitude": -1.0585209, "elevation": 1055.0, "source": "osm", "_tags": {"ele": "1055", "name": "Baracisa", "natural": "peak"}}, {"name": "Puntallo del Turendo", "latitude": 42.6965739, "longitude": -1.0603578, "elevation": 1137.0, "source": "osm", "_tags": {"ele": "1137", "name": "Puntallo del Turendo", "natural": "peak"}}, {"name": "Peñarroya", "latitude": 42.6958202, "longitude": -1.0858892, "elevation": 993.0, "source": "osm", "_tags": {"ele": "993", "name": "Peñarroya", "natural": "peak"}}, {"name": "Solano de la Foz", "latitude": 42.6999417, "longitude": -1.0873255, "elevation": 933.0, "source": "osm", "_tags": {"ele": "933", "name": "Solano de la Foz", "natural": "peak"}}, {"name": "Ezpelgorria", "latitude": 42.7734923, "longitude": -1.5235372, "elevation": 657.0, "source": "osm", "_tags": {"ele": "657", "name": "Ezpelgorria", "natural": "peak"}}, {"name": "Olendain", "latitude": 42.7748787, "longitude": -1.5270292, "elevation": 622.0, "source": "osm", "_tags": {"ele": "622", "name": "Olendain", "natural": "peak"}}, {"name": "Alto Hundido", "latitude": 42.4773992, "longitude": -1.8233714, "elevation": 385.0, "source": "osm", "_tags": {"ele": "385", "name": "Alto Hundido", "natural": "peak"}}, {"name": "Garaioa", "latitude": 42.4613262, "longitude": -1.8519215, "elevation": 546.0, "source": "osm", "_tags": {"ele": "546", "name": "Garaioa", "natural": "peak"}}, {"name": "La Cambra", "latitude": 42.4655701, "longitude": -1.8866906, "elevation": 494.0, "source": "osm", "_tags": {"ele": "494", "name": "La Cambra", "natural": "peak"}}, {"name": "El Corvo", "latitude": 42.4535655, "longitude": -1.8836419, "elevation": 512.0, "source": "osm", "_tags": {"ele": "512", "name": "El Corvo", "natural": "peak"}}, {"name": "Sierras", "latitude": 42.45387, "longitude": -1.8764636, "elevation": 501.0, "source": "osm", "_tags": {"ele": "501", "name": "Sierras", "natural": "peak"}}, {"name": "", "latitude": 42.4424702, "longitude": -1.7791435, "elevation": 481.0, "source": "osm", "_tags": {"ele": "481", "natural": "peak"}}, {"name": "", "latitude": 42.4554735, "longitude": -1.8431631, "elevation": 528.0, "source": "osm", "_tags": {"ele": "528", "natural": "peak"}}, {"name": "Alto del Portillo de los Lobos", "latitude": 42.5263005, "longitude": -1.9362491, "elevation": 508.0, "source": "osm", "_tags": {"alt_name": "San Marcos Occidental", "ele": "508", "name": "Alto del Portillo de los Lobos", "natural": "peak"}}, {"name": "San Marcos Central", "latitude": 42.5284208, "longitude": -1.9276791, "elevation": 521.0, "source": "osm", "_tags": {"ele": "521", "name": "San Marcos Central", "natural": "peak"}}, {"name": "Alto de Barrancohondo", "latitude": 42.5175121, "longitude": -1.9302761, "elevation": 443.0, "source": "osm", "_tags": {"ele": "443", "name": "Alto de Barrancohondo", "natural": "peak"}}, {"name": "El Mochuelo", "latitude": 42.6296563, "longitude": -1.8120858, "elevation": 462.0, "source": "osm", "_tags": {"ele": "462", "name": "El Mochuelo", "natural": "peak"}}, {"name": "Alto de Zabarate", "latitude": 42.6296117, "longitude": -1.8252333, "elevation": 412.0, "source": "osm", "_tags": {"ele": "412", "name": "Alto de Zabarate", "natural": "peak"}}, {"name": "Cabezos de Juan Obispo", "latitude": 42.2049649, "longitude": -1.4317826, "elevation": 389.0, "source": "osm", "_tags": {"ele": "389", "name": "Cabezos de Juan Obispo", "natural": "peak"}}, {"name": "Cabezo de la Nasa", "latitude": 42.1511882, "longitude": -1.3945759, "elevation": 417.0, "source": "osm", "_tags": {"ele": "417", "name": "Cabezo de la Nasa", "natural": "peak"}}, {"name": "Cabezo del Cubilar", "latitude": 42.2584012, "longitude": -1.4124433, "elevation": 435.0, "source": "osm", "_tags": {"ele": "435", "name": "Cabezo del Cubilar", "natural": "peak"}}, {"name": "Cabezo de los Cristinos", "latitude": 42.2635072, "longitude": -1.4163044, "elevation": 405.0, "source": "osm", "_tags": {"ele": "405", "name": "Cabezo de los Cristinos", "natural": "peak"}}, {"name": "Panchín", "latitude": 42.1174545, "longitude": -1.4025644, "elevation": 462.0, "source": "osm", "_tags": {"ele": "462", "name": "Panchín", "natural": "peak"}}, {"name": "El Castellón", "latitude": 42.618468, "longitude": -1.2666176, "elevation": 562.0, "source": "osm", "_tags": {"ele": "562", "name": "El Castellón", "natural": "peak"}}, {"name": "Alto de la Sarrea", "latitude": 42.5870468, "longitude": -1.6978601, "elevation": null, "source": "osm", "_tags": {"name": "Alto de la Sarrea", "natural": "peak", "source": "Instituto Geográfico Nacional", "source:date": "201011"}}, {"name": "Alto del Corral del Conde", "latitude": 42.6001543, "longitude": -1.3491363, "elevation": 673.0, "source": "osm", "_tags": {"ele": "673", "name": "Alto del Corral del Conde", "natural": "peak"}}, {"name": "Puyagudo", "latitude": 42.6055108, "longitude": -1.355273, "elevation": 681.0, "source": "osm", "_tags": {"ele": "681", "name": "Puyagudo", "natural": "peak"}}, {"name": "La Ereta", "latitude": 42.6205284, "longitude": -1.3617513, "elevation": 865.0, "source": "osm", "_tags": {"ele": "865", "name": "La Ereta", "natural": "peak"}}, {"name": "Juana", "latitude": 42.7457897, "longitude": -1.0776389, "elevation": 957.0, "source": "osm", "_tags": {"ele": "957", "name": "Juana", "natural": "peak"}}, {"name": "Urdaniborda", "latitude": 42.7262609, "longitude": -1.1108326, "elevation": 687.0, "source": "osm", "_tags": {"ele": "687", "name": "Urdaniborda", "natural": "peak"}}, {"name": "Cabo de Urdani", "latitude": 42.7279755, "longitude": -1.0917034, "elevation": 854.0, "source": "osm", "_tags": {"ele": "854", "name": "Cabo de Urdani", "natural": "peak"}}, {"name": "Urdani", "latitude": 42.7246601, "longitude": -1.0893952, "elevation": 855.0, "source": "osm", "_tags": {"ele": "855", "name": "Urdani", "natural": "peak"}}, {"name": "Baritziela", "latitude": 42.7449734, "longitude": -1.0860792, "elevation": 916.0, "source": "osm", "_tags": {"ele": "916", "name": "Baritziela", "natural": "peak"}}, {"name": "Jaitzila", "latitude": 42.7451229, "longitude": -1.0896226, "elevation": 883.0, "source": "osm", "_tags": {"ele": "883", "name": "Jaitzila", "natural": "peak"}}, {"name": "Txipi", "latitude": 42.7341608, "longitude": -1.1023825, "elevation": 760.0, "source": "osm", "_tags": {"ele": "760", "name": "Txipi", "natural": "peak"}}, {"name": "Zezenkao", "latitude": 42.7371277, "longitude": -1.0962846, "elevation": 784.0, "source": "osm", "_tags": {"ele": "784", "name": "Zezenkao", "natural": "peak"}}, {"name": "Kerpatu", "latitude": 42.739658, "longitude": -1.0900317, "elevation": 795.0, "source": "osm", "_tags": {"ele": "795", "name": "Kerpatu", "natural": "peak"}}, {"name": "Biazkatze", "latitude": 42.7371467, "longitude": -1.079524, "elevation": 865.0, "source": "osm", "_tags": {"ele": "865", "name": "Biazkatze", "natural": "peak"}}, {"name": "Barrera N.", "latitude": 42.7330726, "longitude": -1.0693349, "elevation": 945.0, "source": "osm", "_tags": {"ele": "945", "name": "Barrera N.", "natural": "peak"}}, {"name": "Balamonda", "latitude": 42.7236836, "longitude": -1.0737017, "elevation": 930.0, "source": "osm", "_tags": {"ele": "930", "name": "Balamonda", "natural": "peak"}}, {"name": "Barrera S.", "latitude": 42.7290869, "longitude": -1.0704804, "elevation": 946.0, "source": "osm", "_tags": {"ele": "946", "name": "Barrera S.", "natural": "peak"}}, {"name": "Farratiela", "latitude": 42.7119707, "longitude": -1.1174981, "elevation": 725.0, "source": "osm", "_tags": {"ele": "725", "name": "Farratiela", "natural": "peak"}}, {"name": "Buskil", "latitude": 42.572984, "longitude": -1.7025603, "elevation": 638.0, "source": "osm", "_tags": {"ele": "638", "name": "Buskil", "natural": "peak"}}, {"name": "Alto del Portillo del Sastre", "latitude": 42.556999, "longitude": -1.7028949, "elevation": 574.0, "source": "osm", "_tags": {"ele": "574", "name": "Alto del Portillo del Sastre", "natural": "peak"}}, {"name": "Santa Lucía", "latitude": 42.5294346, "longitude": -1.6775856, "elevation": 481.0, "source": "osm", "_tags": {"ele": "481", "name": "Santa Lucía", "natural": "peak"}}, {"name": "Murumundigaña", "latitude": 42.6825126, "longitude": -1.7704482, "elevation": 436.0, "source": "osm", "_tags": {"ele": "436", "name": "Murumundigaña", "natural": "peak"}}, {"name": "Ermita San Cristóbal", "latitude": 42.6795643, "longitude": -1.7435117, "elevation": 464.0, "source": "osm", "_tags": {"ele": "464", "name": "Ermita San Cristóbal", "natural": "peak"}}, {"name": "Axarimendia", "latitude": 42.6798939, "longitude": -1.7464406, "elevation": 462.0, "source": "osm", "_tags": {"ele": "462", "name": "Axarimendia", "natural": "peak"}}, {"name": "Sagrado Corazón", "latitude": 42.669812, "longitude": -1.7313862, "elevation": 458.0, "source": "osm", "_tags": {"ele": "458", "name": "Sagrado Corazón", "natural": "peak"}}, {"name": "Alto de Santiago", "latitude": 42.5639358, "longitude": -1.6496604, "elevation": 579.0, "source": "osm", "_tags": {"ele": "579", "name": "Alto de Santiago", "natural": "peak"}}, {"name": "La Campaña", "latitude": 42.5667407, "longitude": -1.6685078, "elevation": 619.0, "source": "osm", "_tags": {"ele": "619", "name": "La Campaña", "natural": "peak"}}, {"name": "Alto de Lerga", "latitude": 42.590556, "longitude": -1.4971042, "elevation": 983.0, "source": "osm", "_tags": {"alt_name": "El Chaparral", "ele": "983", "name": "Alto de Lerga", "natural": "peak"}}, {"name": "Narbaiza", "latitude": 42.7803731, "longitude": -1.1903965, "elevation": 911.0, "source": "osm", "_tags": {"alt_name": "Naruayça, Narvasa, Narvasi, Narvaira", "ele": "911", "name": "Narbaiza", "natural": "peak"}}, {"name": "Estarbe", "latitude": 42.787037, "longitude": -1.2058517, "elevation": 884.0, "source": "osm", "_tags": {"ele": "884", "name": "Estarbe", "natural": "peak"}}, {"name": "Argumeta", "latitude": 42.7727163, "longitude": -1.1502339, "elevation": 927.0, "source": "osm", "_tags": {"ele": "927", "name": "Argumeta", "natural": "peak"}}, {"name": "Olabe", "latitude": 42.8023709, "longitude": -1.2617725, "elevation": 863.0, "source": "osm", "_tags": {"alt_name": "Urtakain", "ele": "863", "name": "Olabe", "natural": "peak"}}, {"name": "Añuki", "latitude": 42.773902, "longitude": -1.1696584, "elevation": 923.0, "source": "osm", "_tags": {"alt_name": "Hoyo del Tajudo", "ele": "923", "name": "Añuki", "natural": "peak"}}, {"name": "Alto de la Sierra", "latitude": 42.8078599, "longitude": -1.1747233, "elevation": 1208.0, "source": "osm", "_tags": {"alt_name": "La Sierra, Babola", "ele": "1208", "name": "Alto de la Sierra", "natural": "peak"}}, {"name": "Legorbe", "latitude": 42.8176225, "longitude": -1.2556573, "elevation": 983.0, "source": "osm", "_tags": {"alt_name": "Llegorbe, Llegorbemendi", "ele": "983", "name": "Legorbe", "natural": "peak"}}, {"name": "Peña del Cubilar", "latitude": 42.8234629, "longitude": -1.2583556, "elevation": 1009.0, "source": "osm", "_tags": {"ele": "1009", "name": "Peña del Cubilar", "natural": "peak"}}, {"name": "Zerrun", "latitude": 42.8146544, "longitude": -1.2641805, "elevation": 956.0, "source": "osm", "_tags": {"alt_name": "Cerrún", "ele": "956", "name": "Zerrun", "natural": "peak"}}, {"name": "Kaztelualdea", "latitude": 42.8213828, "longitude": -1.2744146, "elevation": 1033.0, "source": "osm", "_tags": {"alt_name": "Gaztelualdea, Gastelualdea", "ele": "1033", "name": "Kaztelualdea", "natural": "peak"}}, {"name": "Peña Roya", "latitude": 42.8221481, "longitude": -1.2714207, "elevation": 1034.0, "source": "osm", "_tags": {"alt_name": "Peñatxutxur", "ele": "1034", "name": "Peña Roya", "natural": "peak"}}, {"name": "Zelaigaña", "latitude": 42.7449299, "longitude": -1.2099257, "elevation": 796.0, "source": "osm", "_tags": {"ele": "796", "name": "Zelaigaña", "natural": "peak"}}, {"name": "Angerta", "latitude": 42.7270128, "longitude": -1.2321581, "elevation": 834.0, "source": "osm", "_tags": {"alt_name": "Monte de Ugarra Sur", "ele": "834", "name": "Angerta", "natural": "peak"}}, {"name": "Aritzandia", "latitude": 42.7344016, "longitude": -1.2161899, "elevation": 853.0, "source": "osm", "_tags": {"alt_name": "Aritzaundi, Lizandi, Lizandia, Bagoaundia, Bagoandia, Haritzandi", "ele": "853", "name": "Aritzandia", "natural": "peak"}}, {"name": "Egúrzanos", "latitude": 42.7332993, "longitude": -1.2044336, "elevation": 792.0, "source": "osm", "_tags": {"ele": "792", "name": "Egúrzanos", "natural": "peak"}}, {"name": "Cerro de la Salera", "latitude": 42.7084541, "longitude": -1.2055896, "elevation": 743.0, "source": "osm", "_tags": {"ele": "743", "name": "Cerro de la Salera", "natural": "peak"}}, {"name": "Cerromalo", "latitude": 42.708661, "longitude": -1.2142166, "elevation": 701.0, "source": "osm", "_tags": {"ele": "701", "name": "Cerromalo", "natural": "peak"}}, {"name": "Cerro del Soto", "latitude": 42.7090907, "longitude": -1.2221535, "elevation": 671.0, "source": "osm", "_tags": {"alt_name": "Artiga Vieja, Quiñones Viejos", "ele": "671", "name": "Cerro del Soto", "natural": "peak"}}, {"name": "Belóriz", "latitude": 42.728267, "longitude": -1.191949, "elevation": 771.0, "source": "osm", "_tags": {"alt_name": "Belori", "ele": "771", "name": "Belóriz", "natural": "peak"}}, {"name": "Urdantxi", "latitude": 42.7346221, "longitude": -1.164059, "elevation": 749.0, "source": "osm", "_tags": {"alt_name": "Urdanchi, Urdanche, Urdauchi", "ele": "749", "name": "Urdantxi", "natural": "peak"}}, {"name": "Anzali", "latitude": 42.7354676, "longitude": -1.136133, "elevation": 815.0, "source": "osm", "_tags": {"alt_name": "Anzati", "ele": "815", "name": "Anzali", "natural": "peak"}}, {"name": "Centenar", "latitude": 42.7549576, "longitude": -1.149076, "elevation": 835.0, "source": "osm", "_tags": {"ele": "835", "name": "Centenar", "natural": "peak"}}, {"name": "Santa Águeda", "latitude": 42.7397248, "longitude": -1.1853244, "elevation": 779.0, "source": "osm", "_tags": {"alt_name": "La Plana", "ele": "779", "name": "Santa Águeda", "natural": "peak"}}, {"name": "Zelagaña", "latitude": 42.7573949, "longitude": -1.1729917, "elevation": 849.0, "source": "osm", "_tags": {"ele": "849", "name": "Zelagaña", "natural": "peak"}}, {"name": "El Zoque", "latitude": 42.749678, "longitude": -1.1668281, "elevation": 835.0, "source": "osm", "_tags": {"ele": "835", "name": "El Zoque", "natural": "peak"}}, {"name": "Alto Cañada", "latitude": 42.745037, "longitude": -1.214765, "elevation": 778.0, "source": "osm", "_tags": {"ele": "778", "name": "Alto Cañada", "natural": "peak"}}, {"name": "Estoki", "latitude": 42.74413, "longitude": -1.229334, "elevation": 645.0, "source": "osm", "_tags": {"alt_name": "Narín", "ele": "645", "name": "Estoki", "natural": "peak"}}, {"name": "El Pontarrón", "latitude": 42.7039457, "longitude": -1.2153055, "elevation": 715.0, "source": "osm", "_tags": {"alt_name": "Cerro la Peña;Cerromalo", "ele": "715", "name": "El Pontarrón", "natural": "peak"}}, {"name": "El Montico", "latitude": 42.7071779, "longitude": -1.1965785, "elevation": 789.0, "source": "osm", "_tags": {"alt_name": "Muga de Napal, Muga de Iso, El Pinarico", "ele": "789", "name": "El Montico", "natural": "peak"}}, {"name": "Cerro de la Caseta", "latitude": 42.6927281, "longitude": -1.1859734, "elevation": 689.0, "source": "osm", "_tags": {"alt_name": "Alto de las Revueltas", "ele": "689", "name": "Cerro de la Caseta", "natural": "peak"}}, {"name": "Cerro del Pinar", "latitude": 42.6962938, "longitude": -1.2002143, "elevation": 736.0, "source": "osm", "_tags": {"alt_name": "Cerro del Cristo", "ele": "736", "name": "Cerro del Pinar", "natural": "peak"}}, {"name": "Txarri", "latitude": 42.6858442, "longitude": -1.2665272, "elevation": 508.0, "source": "osm", "_tags": {"alt_name": "Charri, Etxarri", "ele": "508", "name": "Txarri", "natural": "peak"}}, {"name": "Las Trancas", "latitude": 42.6855626, "longitude": -1.177064, "elevation": 782.0, "source": "osm", "_tags": {"alt_name": "Los Tufarros", "ele": "782", "name": "Las Trancas", "natural": "peak"}}, {"name": "La Cruz", "latitude": 42.708328, "longitude": -1.2521645, "elevation": 591.0, "source": "osm", "_tags": {"ele": "591", "name": "La Cruz", "natural": "peak"}}, {"name": "Focila", "latitude": 42.7020966, "longitude": -1.120283, "elevation": 821.0, "source": "osm", "_tags": {"alt_name": "Paco Sandiso", "ele": "821", "name": "Focila", "natural": "peak"}}, {"name": "Puntallo Alto", "latitude": 42.7035487, "longitude": -1.1536324, "elevation": 1013.0, "source": "osm", "_tags": {"alt_name": "Los Puntallos, Puntallo de Pío, Puntallo de la Fuente, Barrera de Mateo, Cerro de Chirlosmirlos", "ele": "1013", "name": "Puntallo Alto", "natural": "peak"}}, {"name": "San Kiriko", "latitude": 42.6975116, "longitude": -1.1389415, "elevation": 1181.0, "source": "osm", "_tags": {"ele": "1181", "name": "San Kiriko", "natural": "peak"}}, {"name": "La Magdalena", "latitude": 42.6944011, "longitude": -1.1660625, "elevation": 718.0, "source": "osm", "_tags": {"ele": "718", "name": "La Magdalena", "natural": "peak"}}, {"name": "Ososki", "latitude": 42.7155396, "longitude": -1.1657087, "elevation": 763.0, "source": "osm", "_tags": {"description": "El Bosque, Cueva del Moro", "ele": "763", "name": "Ososki", "natural": "peak", "source:ele": "gpx"}}, {"name": "San Pedro", "latitude": 42.7194163, "longitude": -1.1408637, "elevation": 687.0, "source": "osm", "_tags": {"ele": "687", "name": "San Pedro", "natural": "peak"}}, {"name": "Forca NE", "latitude": 42.7182267, "longitude": -1.1452468, "elevation": 672.0, "source": "osm", "_tags": {"ele": "672", "name": "Forca NE", "natural": "peak"}}, {"name": "Forca SW", "latitude": 42.7170647, "longitude": -1.1471414, "elevation": 669.0, "source": "osm", "_tags": {"ele": "669", "name": "Forca SW", "natural": "peak"}}, {"name": "La Mantierla", "latitude": 42.7226026, "longitude": -1.1485484, "elevation": 676.0, "source": "osm", "_tags": {"ele": "676", "name": "La Mantierla", "natural": "peak"}}, {"name": "La Bachaquera", "latitude": 42.7270297, "longitude": -1.1651136, "elevation": 716.0, "source": "osm", "_tags": {"ele": "716", "name": "La Bachaquera", "natural": "peak"}}, {"name": "Los Montetes", "latitude": 42.7246704, "longitude": -1.1763954, "elevation": 759.0, "source": "osm", "_tags": {"ele": "759", "name": "Los Montetes", "natural": "peak"}}, {"name": "Auzegi", "latitude": 42.7544333, "longitude": -1.196345, "elevation": 811.0, "source": "osm", "_tags": {"ele": "811", "name": "Auzegi", "natural": "peak"}}, {"name": "Zarambulo", "latitude": 42.7225545, "longitude": -1.1645738, "elevation": 743.0, "source": "osm", "_tags": {"ele": "743", "name": "Zarambulo", "natural": "peak"}}, {"name": "Burrén", "latitude": 41.8712577, "longitude": -1.424293, "elevation": 443.0, "source": "osm", "_tags": {"ele": "443", "name": "Burrén", "natural": "peak"}}, {"name": "Burrena", "latitude": 41.8695511, "longitude": -1.4217127, "elevation": 423.0, "source": "osm", "_tags": {"ele": "423", "name": "Burrena", "natural": "peak"}}, {"name": "Haitza Txikia", "latitude": 42.8196437, "longitude": -1.3085625, "elevation": 1001.0, "source": "osm", "_tags": {"ele": "1001", "name": "Haitza Txikia", "natural": "peak"}}, {"name": "", "latitude": 42.8233416, "longitude": -1.3172608, "elevation": 932.0, "source": "osm", "_tags": {"ele": "932", "natural": "peak"}}, {"name": "", "latitude": 42.8153047, "longitude": -1.2953335, "elevation": 1049.0, "source": "osm", "_tags": {"ele": "1049", "natural": "peak"}}, {"name": "", "latitude": 42.8136919, "longitude": -1.2984392, "elevation": 1035.0, "source": "osm", "_tags": {"ele": "1035", "natural": "peak"}}, {"name": "", "latitude": 42.8128457, "longitude": -1.2997407, "elevation": 1032.0, "source": "osm", "_tags": {"ele": "1032", "natural": "peak"}}, {"name": "", "latitude": 42.8136195, "longitude": -1.3022745, "elevation": 1026.0, "source": "osm", "_tags": {"ele": "1026", "natural": "peak"}}, {"name": "", "latitude": 42.0591513, "longitude": -1.9026607, "elevation": 574.0, "source": "osm", "_tags": {"ele": "574", "natural": "peak"}}, {"name": "", "latitude": 42.0612123, "longitude": -1.9068776, "elevation": 527.0, "source": "osm", "_tags": {"ele": "527", "natural": "peak"}}, {"name": "Zurbau", "latitude": 42.8097634, "longitude": -1.7685765, "elevation": 409.0, "source": "osm", "_tags": {"ele": "409", "name": "Zurbau", "natural": "peak"}}, {"name": "Iridia", "latitude": 42.8061081, "longitude": -1.7694929, "elevation": 409.0, "source": "osm", "_tags": {"alt_name": "Isterria, Alto de las Tres Cruces, Aizpea, Murubea, Elizalde", "ele": "409", "name": "Iridia", "natural": "peak"}}, {"name": "El Calvario", "latitude": 42.7855036, "longitude": -1.7244529, "elevation": 472.0, "source": "osm", "_tags": {"ele": "472", "name": "El Calvario", "natural": "peak"}}, {"name": "", "latitude": 42.5897985, "longitude": -1.0778851, "elevation": 554.0, "source": "osm", "_tags": {"ele": "554", "natural": "peak"}}, {"name": "Alto de La Diezma", "latitude": 41.8671234, "longitude": -1.7525871, "elevation": 834.0, "source": "osm", "_tags": {"ele": "834", "name": "Alto de La Diezma", "natural": "peak"}}, {"name": "Cabezo de la Muga", "latitude": 42.1787599, "longitude": -1.5274779, "elevation": 358.0, "source": "osm", "_tags": {"ele": "358", "name": "Cabezo de la Muga", "natural": "peak"}}, {"name": "Barrera", "latitude": 41.8718599, "longitude": -1.8083016, "elevation": 803.0, "source": "osm", "_tags": {"ele": "803", "name": "Barrera", "natural": "peak"}}, {"name": "el Puntalón", "latitude": 41.8366068, "longitude": -1.8635841, "elevation": 1029.0, "source": "osm", "_tags": {"ele": "1029", "name": "el Puntalón", "natural": "peak"}}, {"name": "Monegro", "latitude": 41.936604, "longitude": -1.999783, "elevation": 1192.0, "source": "osm", "_tags": {"ele": "1192", "name": "Monegro", "natural": "peak"}}, {"name": "El Castellar", "latitude": 41.9334244, "longitude": -2.0279949, "elevation": 977.0, "source": "osm", "_tags": {"ele": "977", "name": "El Castellar", "natural": "peak"}}, {"name": "Alto de La Cabeza", "latitude": 41.922747, "longitude": -2.0052578, "elevation": 1169.0, "source": "osm", "_tags": {"ele": "1169", "name": "Alto de La Cabeza", "natural": "peak"}}, {"name": "Alto de la Peña", "latitude": 41.9252217, "longitude": -1.997636, "elevation": 1136.0, "source": "osm", "_tags": {"ele": "1136", "name": "Alto de la Peña", "natural": "peak"}}, {"name": "Las Boqueras", "latitude": 41.9151789, "longitude": -1.9944626, "elevation": 1103.0, "source": "osm", "_tags": {"ele": "1103", "name": "Las Boqueras", "natural": "peak"}}, {"name": "Castro de Murugain", "latitude": 42.6704084, "longitude": -1.6709508, "elevation": 636.0, "source": "osm", "_tags": {"ele": "636", "name": "Castro de Murugain", "natural": "peak"}}, {"name": "Murugain", "latitude": 42.6707527, "longitude": -1.6741945, "elevation": 639.0, "source": "osm", "_tags": {"ele": "639", "name": "Murugain", "natural": "peak"}}, {"name": "Eskibel", "latitude": 42.7079129, "longitude": -1.694656, "elevation": 795.0, "source": "osm", "_tags": {"ele": "795", "name": "Eskibel", "natural": "peak"}}, {"name": "Agudillo", "latitude": 42.0149654, "longitude": -1.4170979, "elevation": 337.0, "source": "osm", "_tags": {"ele": "337", "name": "Agudillo", "natural": "peak"}}, {"name": "Alto de San Cristóbal", "latitude": 42.6940216, "longitude": -1.6755154, "elevation": 668.0, "source": "osm", "_tags": {"ele": "668", "name": "Alto de San Cristóbal", "natural": "peak"}}, {"name": "Larrea", "latitude": 42.7056432, "longitude": -1.6659458, "elevation": 614.0, "source": "osm", "_tags": {"ele": "614", "name": "Larrea", "natural": "peak"}}, {"name": "Belazkoarena", "latitude": 42.6824544, "longitude": -1.6778705, "elevation": 583.0, "source": "osm", "_tags": {"ele": "583", "name": "Belazkoarena", "natural": "peak"}}, {"name": "Lizoain", "latitude": 42.6869539, "longitude": -1.6666303, "elevation": 592.0, "source": "osm", "_tags": {"ele": "592", "name": "Lizoain", "natural": "peak"}}, {"name": "San Miguel", "latitude": 42.7096199, "longitude": -1.6656698, "elevation": 597.0, "source": "osm", "_tags": {"ele": "597", "name": "San Miguel", "natural": "peak"}}, {"name": "Larremendigaña", "latitude": 42.7161727, "longitude": -1.6704043, "elevation": 640.0, "source": "osm", "_tags": {"ele": "640", "name": "Larremendigaña", "natural": "peak"}}, {"name": "Alto de las Viñas", "latitude": 42.8228102, "longitude": -1.7258014, "elevation": 431.0, "source": "osm", "_tags": {"ele": "431", "name": "Alto de las Viñas", "natural": "peak"}}, {"name": "Olatz", "latitude": 42.6243073, "longitude": -1.3633459, "elevation": 884.0, "source": "osm", "_tags": {"ele": "884", "name": "Olatz", "natural": "peak"}}, {"name": "Muru", "latitude": 42.7348158, "longitude": -1.2751565, "elevation": 774.0, "source": "osm", "_tags": {"ele": "774", "name": "Muru", "natural": "peak"}}, {"name": "Kiriako", "latitude": 42.7971959, "longitude": -1.8173889, "elevation": 740.0, "source": "osm", "_tags": {"climbing": "route", "ele": "740", "name": "Kiriako", "natural": "peak"}}, {"name": "El Pozaz", "latitude": 42.4899555, "longitude": -1.2978246, "elevation": 931.0, "source": "osm", "_tags": {"ele": "931", "name": "El Pozaz", "natural": "peak"}}, {"name": "Valdegorrillón", "latitude": 42.5124414, "longitude": -1.3167307, "elevation": 602.0, "source": "osm", "_tags": {"ele": "602", "name": "Valdegorrillón", "natural": "peak"}}, {"name": "Barduces", "latitude": 42.4936602, "longitude": -1.3237977, "elevation": 844.0, "source": "osm", "_tags": {"ele": "844", "name": "Barduces", "natural": "peak"}}, {"name": "Las Bacías", "latitude": 42.4979878, "longitude": -1.2805944, "elevation": 1059.0, "source": "osm", "_tags": {"ele": "1059", "name": "Las Bacías", "natural": "peak"}}, {"name": "Tortorofuso", "latitude": 42.4971706, "longitude": -1.3394059, "elevation": 766.0, "source": "osm", "_tags": {"ele": "766", "name": "Tortorofuso", "natural": "peak"}}, {"name": "Barduces W", "latitude": 42.5004454, "longitude": -1.3359083, "elevation": 706.0, "source": "osm", "_tags": {"ele": "706", "name": "Barduces W", "natural": "peak"}}, {"name": "Vedadillo", "latitude": 42.4891698, "longitude": -1.3128224, "elevation": 879.0, "source": "osm", "_tags": {"ele": "879", "name": "Vedadillo", "natural": "peak"}}, {"name": "El Peñazo", "latitude": 42.5070579, "longitude": -1.3390841, "elevation": 654.0, "source": "osm", "_tags": {"ele": "654", "name": "El Peñazo", "natural": "peak"}}, {"name": "Barduces N", "latitude": 42.505302, "longitude": -1.3235916, "elevation": 707.0, "source": "osm", "_tags": {"ele": "707", "name": "Barduces N", "natural": "peak"}}, {"name": "Asurmendi", "latitude": 42.5145396, "longitude": -1.33505, "elevation": 565.0, "source": "osm", "_tags": {"ele": "565", "name": "Asurmendi", "natural": "peak"}}, {"name": "Las Bacias SE", "latitude": 42.4953013, "longitude": -1.2753876, "elevation": 1034.0, "source": "osm", "_tags": {"ele": "1034", "name": "Las Bacias SE", "natural": "peak"}}, {"name": "Corraletes N", "latitude": 42.4853122, "longitude": -1.2749488, "elevation": 929.0, "source": "osm", "_tags": {"ele": "929", "name": "Corraletes N", "natural": "peak"}}, {"name": "Corraletes S", "latitude": 42.4746945, "longitude": -1.2764702, "elevation": 834.0, "source": "osm", "_tags": {"ele": "834", "name": "Corraletes S", "natural": "peak"}}, {"name": "Poyaz", "latitude": 42.4769446, "longitude": -1.2932525, "elevation": 829.0, "source": "osm", "_tags": {"ele": "829", "name": "Poyaz", "natural": "peak"}}, {"name": "Peñas de los Canteros", "latitude": 42.7977151, "longitude": -1.8153478, "elevation": 708.83, "source": "osm", "_tags": {"ele": "708.83", "name": "Peñas de los Canteros", "natural": "peak"}}, {"name": "Ciervalisa", "latitude": 41.9504491, "longitude": -2.0119223, "elevation": 999.0, "source": "osm", "_tags": {"ele": "999", "name": "Ciervalisa", "natural": "peak"}}, {"name": "Cabezo Moro", "latitude": 42.1102152, "longitude": -1.570838, "elevation": 364.0, "source": "osm", "_tags": {"ele": "364", "name": "Cabezo Moro", "natural": "peak"}}, {"name": "Valdetellas", "latitude": 42.1035545, "longitude": -1.5742418, "elevation": 341.0, "source": "osm", "_tags": {"ele": "341", "name": "Valdetellas", "natural": "peak"}}, {"name": "La Serna", "latitude": 42.0749867, "longitude": -1.6508576, "elevation": 344.0, "source": "osm", "_tags": {"ele": "344", "name": "La Serna", "natural": "peak"}}, {"name": "", "latitude": 42.0259867, "longitude": -1.9278117, "elevation": 637.0, "source": "osm", "_tags": {"ele": "637", "natural": "peak"}}, {"name": "Merina", "latitude": 42.0112824, "longitude": -1.9300141, "elevation": 779.0, "source": "osm", "_tags": {"ele": "779", "name": "Merina", "natural": "peak"}}, {"name": "", "latitude": 42.0309027, "longitude": -1.9436275, "elevation": 682.0, "source": "osm", "_tags": {"ele": "682", "natural": "peak"}}, {"name": "Antruetas", "latitude": 42.0232421, "longitude": -1.9691688, "elevation": 850.0, "source": "osm", "_tags": {"ele": "850", "name": "Antruetas", "natural": "peak"}}, {"name": "Morote", "latitude": 42.0462619, "longitude": -1.9134697, "elevation": 614.0, "source": "osm", "_tags": {"ele": "614", "name": "Morote", "natural": "peak"}}, {"name": "Albotea", "latitude": 42.0368232, "longitude": -1.9168997, "elevation": 612.0, "source": "osm", "_tags": {"ele": "612", "name": "Albotea", "natural": "peak"}}, {"name": "San Gregorio", "latitude": 42.0673862, "longitude": -1.5616698, "elevation": 331.0, "source": "osm", "_tags": {"ele": "331", "name": "San Gregorio", "natural": "peak"}}, {"name": "Cabezatón", "latitude": 41.8407342, "longitude": -1.6157226, "elevation": 684.0, "source": "osm", "_tags": {"ele": "684", "name": "Cabezatón", "natural": "peak"}}, {"name": "El Badarron", "latitude": 41.8421165, "longitude": -1.6401675, "elevation": 768.0, "source": "osm", "_tags": {"ele": "768", "name": "El Badarron", "natural": "peak"}}, {"name": "Urandia", "latitude": 42.8211617, "longitude": -1.5257017, "elevation": 598.0, "source": "osm", "_tags": {"ele": "598", "name": "Urandia", "natural": "peak"}}, {"name": "", "latitude": 42.0540323, "longitude": -1.5551352, "elevation": 345.0, "source": "osm", "_tags": {"ele": "345", "natural": "peak"}}, {"name": "Cabezo de San Jorge", "latitude": 41.9602563, "longitude": -1.3731198, "elevation": 311.0, "source": "osm", "_tags": {"ele": "311", "name": "Cabezo de San Jorge", "natural": "peak"}}, {"name": "Cabezo de la Roncalesa", "latitude": 41.9666872, "longitude": -1.3806998, "elevation": 295.0, "source": "osm", "_tags": {"ele": "295", "name": "Cabezo de la Roncalesa", "natural": "peak"}}, {"name": "Peña del Sol", "latitude": 41.9693343, "longitude": -1.3836777, "elevation": 290.0, "source": "osm", "_tags": {"ele": "290", "name": "Peña del Sol", "natural": "peak"}}, {"name": "Valdevalerio", "latitude": 41.9703375, "longitude": -1.3798392, "elevation": 301.0, "source": "osm", "_tags": {"ele": "301", "name": "Valdevalerio", "natural": "peak"}}, {"name": "Las Corralizas", "latitude": 41.9690386, "longitude": -1.3731411, "elevation": 330.0, "source": "osm", "_tags": {"ele": "330", "name": "Las Corralizas", "natural": "peak"}}]