[{"name": "Pic de Cagire", "latitude": 42.9465968, "longitude": 0.7658842, "elevation": 1912.0, "source": "osm", "_tags": {"ele": "1912", "name": "Pic de Cagire", "natural": "peak", "wikidata": "Q3382354"}}, {"name": "Pic de Paloumère", "latitude": 42.9610927, "longitude": 0.8434471, "elevation": 1608.0, "source": "osm", "_tags": {"ele": "1608", "name": "Pic de Paloumère", "natural": "peak"}}, {"name": "Pic du Midi de Bigorre", "latitude": 42.9367764, "longitude": 0.1416107, "elevation": 2877.0, "source": "osm", "_tags": {"ele": "2877", "name": "Pic du Midi de Bigorre", "natural": "peak", "prominence": "762", "source:prominence": "2877-2115 (Col du Tourmalet)", "wikidata": "Q1139060", "wikipedia": "fr:Pic du Midi de Bigorre"}}, {"name": "Tuc dera Comassa", "latitude": 42.8285955, "longitude": 0.8468548, "elevation": 2393.4, "source": "osm", "_tags": {"ele": "2393.4", "name": "Tuc dera Comassa", "name:ca": "Tuc dera Comassa", "name:oc": "Tuc dera Comassa", "natural": "peak", "source:name:oc": "ieo-bdtopoc", "wikidata": "Q17481756"}}, {"name": "Pica de Horadic", "latitude": 42.8387069, "longitude": 0.8107448, "elevation": 2115.5, "source": "osm", "_tags": {"ele": "2115.5", "name": "Pica de Horadic", "name:ca": "Pica de Horadic", "name:oc": "Pica de Horadic", "natural": "peak", "source:name:oc": "ieo-bdtopoc", "wikidata": "Q11941570"}}, {"name": "Tuc de Comagrana", "latitude": 42.8427695, "longitude": 0.7614593, "elevation": 1648.0, "source": "osm", "_tags": {"ele": "1648", "name": "Tuc de Comagrana", "name:ca": "Tuc de Comagrana", "name:oc": "Tuc de Comagrana", "natural": "peak", "source:name:oc": "ieo-bdtopoc", "wikidata": "Q11953276", "wikipedia": "ca:Tuc de Comagrana"}}, {"name": "Pic de Picharot", "latitude": 43.0200595, "longitude": 0.4356423, "elevation": 1129.0, "source": "osm", "_tags": {"ele": "1129", "name": "Pic de Picharot", "natural": "peak"}}, {"name": "Borne des Trois Seigneurs", "latitude": 42.9862077, "longitude": 0.423435, "elevation": 1516.0, "source": "osm", "_tags": {"ele": "1516", "man_made": "survey_point", "name": "Borne des Trois Seigneurs", "natural": "peak"}}, {"name": "Signal de Bassia", "latitude": 42.9771546, "longitude": 0.3041389, "elevation": 1921.0, "source": "osm", "_tags": {"alt_name": "Bassia de Hèches", "ele": "1921", "name": "Signal de Bassia", "natural": "peak"}}, {"name": "cap d'Aygue Rouye", "latitude": 42.9677458, "longitude": 0.1651383, "elevation": 2005.0, "source": "osm", "_tags": {"ele": "2005", "name": "cap d'Aygue Rouye", "natural": "peak"}}, {"name": "Tuc de Haurades", "latitude": 42.9560333, "longitude": 0.8545842, "elevation": 1554.0, "source": "osm", "_tags": {"ele": "1554", "name": "Tuc de Haurades", "natural": "peak"}}, {"name": "Tuc de Hosets", "latitude": 43.0304476, "longitude": 0.7583713, "elevation": 710.0, "source": "osm", "_tags": {"ele": "710", "name": "Tuc de Hosets", "natural": "peak", "source": "IGN"}}, {"name": "Rouère", "latitude": 43.0538745, "longitude": 0.8665548, "elevation": 503.0, "source": "osm", "_tags": {"ele": "503", "name": "Rouère", "natural": "peak"}}, {"name": "Pic du Cresp", "latitude": 42.9537571, "longitude": 0.6905143, "elevation": 1650.0, "source": "osm", "_tags": {"ele": "1650", "name": "Pic du Cresp", "natural": "peak"}}, {"name": "Tire-Cantan", "latitude": 42.9785811, "longitude": 0.6842387, "elevation": 1002.0, "source": "osm", "_tags": {"ele": "1002", "name": "Tire-Cantan", "natural": "peak"}}, {"name": "Vierge du Bédat", "latitude": 43.0586173, "longitude": 0.1374593, "elevation": 862.0, "source": "osm", "_tags": {"ele": "862", "name": "Vierge du Bédat", "natural": "peak", "summit:cross": "no", "summit:register": "no"}}, {"name": "Pic de Bergons", "latitude": 42.840912, "longitude": 0.0147889, "elevation": 2068.0, "source": "osm", "_tags": {"ele": "2068", "name": "Pic de Bergons", "natural": "peak"}}, {"name": "Pic de Nerbiou", "latitude": 42.9590649, "longitude": -0.0207391, "elevation": 1747.0, "source": "osm", "_tags": {"ele": "1747", "name": "Pic de Nerbiou", "natural": "peak"}}, {"name": "Pic de Bizourtère", "latitude": 42.9464416, "longitude": 0.0694591, "elevation": 2311.0, "source": "osm", "_tags": {"ele": "2311", "name": "Pic de Bizourtère", "natural": "peak", "source": "cadastre-dgi-fr source : Direction Générale des Impôts - Cadastre ; mise à jour : 2010"}}, {"name": "Pic d'Ayré", "latitude": 42.8729654, "longitude": 0.0709876, "elevation": 2416.0, "source": "osm", "_tags": {"ele": "2416", "name": "Pic d'Ayré", "natural": "peak", "source": "cadastre-dgi-fr source : Direction Générale des Impôts - Cadastre ; mise à jour : 2010", "wikidata": "Q31652419"}}, {"name": "Pic de Caoubère", "latitude": 42.8921168, "longitude": 0.1264496, "elevation": 2496.0, "source": "osm", "_tags": {"ele": "2496", "name": "Pic de Caoubère", "natural": "peak"}}, {"name": "Pène Det Pouri", "latitude": 42.9210568, "longitude": 0.0679398, "elevation": 2587.0, "source": "osm", "_tags": {"ele": "2587", "name": "Pène Det Pouri", "natural": "peak", "prominence": "237", "source": "cadastre-dgi-fr source : Direction Générale des Impôts - Cadastre ; mise à jour : 2010"}}, {"name": "Pic d'Estibère", "latitude": 42.8566517, "longitude": 0.1465845, "elevation": 2663.0, "source": "osm", "_tags": {"ele": "2663", "name": "Pic d'Estibère", "natural": "peak", "source": "cadastre-dgi-fr source : Direction Générale des Impôts - Cadastre ; mise à jour : 2010"}}, {"name": "La Peyre", "latitude": 43.0056898, "longitude": 0.0899056, "elevation": 1821.0, "source": "osm", "_tags": {"ele": "1821", "name": "La Peyre", "natural": "peak"}}, {"name": "Pic de Barran", "latitude": 42.9605086, "longitude": 0.0338127, "elevation": 1982.0, "source": "osm", "_tags": {"ele": "1982", "name": "Pic de Barran", "natural": "peak"}}, {"name": "Pic de Léviste", "latitude": 42.9302742, "longitude": 0.0211679, "elevation": 2463.0, "source": "osm", "_tags": {"ele": "2463", "name": "Pic de Léviste", "natural": "peak", "wikidata": "Q31639074"}}, {"name": "Pic de Montaigu", "latitude": 42.9837315, "longitude": 0.0687795, "elevation": 2339.0, "source": "osm", "_tags": {"ele": "2339", "name": "Pic de Montaigu", "natural": "peak", "wikidata": "Q3382430"}}, {"name": "Cap de Boupillac", "latitude": 42.8372078, "longitude": 0.3831072, "elevation": 1659.0, "source": "osm", "_tags": {"ele": "1659", "name": "Cap de Boupillac", "natural": "peak"}}, {"name": "Pic d'Anglade", "latitude": 42.838767, "longitude": 0.168123, "elevation": 2511.0, "source": "osm", "_tags": {"ele": "2511", "name": "Pic d'Anglade", "natural": "peak"}}, {"name": "", "latitude": 42.9178861, "longitude": 0.2641129, "elevation": 1878.0, "source": "osm", "_tags": {"ele": "1878", "natural": "peak"}}, {"name": "Arbizon", "latitude": 42.8759675, "longitude": 0.2726372, "elevation": 2831.0, "source": "osm", "_tags": {"ele": "2831", "name": "Arbizon", "natural": "peak", "prominence": "366", "source:prominence": "IGN map. Key col: Hourquette Nere 2465m", "wikidata": "Q2859683"}}, {"name": "Pène Conseillère", "latitude": 42.9553709, "longitude": 0.3958184, "elevation": 1350.0, "source": "osm", "_tags": {"ele": "1350", "name": "Pène Conseillère", "natural": "peak"}}, {"name": "Pène Haute", "latitude": 43.0003572, "longitude": 0.4162981, "elevation": 1451.0, "source": "osm", "_tags": {"ele": "1451", "name": "Pène Haute", "natural": "peak"}}, {"name": "Soum de Marraut", "latitude": 42.831482, "longitude": 0.0585134, "elevation": 2710.0, "source": "osm", "_tags": {"ele": "2710", "name": "Soum de Marraut", "natural": "peak", "prominence": "244", "source": "IGN", "source:prominence": "IGN map. Key col: Col de Pierrefitte 2466m"}}, {"name": "Sommet de Pique Poque", "latitude": 42.9427553, "longitude": 0.7584025, "elevation": 1898.0, "source": "osm", "_tags": {"ele": "1898", "name": "Sommet de Pique Poque", "natural": "peak"}}, {"name": "Cap de Lastodet", "latitude": 43.0718187, "longitude": 0.7354311, "elevation": 578.0, "source": "osm", "_tags": {"ele": "578", "name": "Cap de Lastodet", "natural": "peak"}}, {"name": "Cap de Gauch", "latitude": 42.8707856, "longitude": 0.8356349, "elevation": 2148.0, "source": "osm", "_tags": {"ele": "2148", "name": "Cap de Gauch", "natural": "peak"}}, {"name": "Pic de l'Escalette", "latitude": 42.9279488, "longitude": 0.7518555, "elevation": 1856.0, "source": "osm", "_tags": {"ele": "1856", "name": "Pic de l'Escalette", "natural": "peak"}}, {"name": "Montagne d'Areng", "latitude": 42.9147035, "longitude": 0.4595957, "elevation": 2079.0, "source": "osm", "_tags": {"ele": "2079", "name": "Montagne d'Areng", "natural": "peak"}}, {"name": "Pic du Crabere", "latitude": 42.8256902, "longitude": 0.8582133, "elevation": 2630.0, "source": "osm", "_tags": {"ele": "2630", "name": "Pic du Crabere", "natural": "peak", "wikidata": "Q3382364"}}, {"name": "Casque du Lhéris", "latitude": 43.0146292, "longitude": 0.2311825, "elevation": 1595.0, "source": "osm", "_tags": {"ele": "1595", "name": "Casque du Lhéris", "natural": "peak", "source": "survey"}}, {"name": "Pic du Burat", "latitude": 42.85935, "longitude": 0.6708445, "elevation": 2154.0, "source": "osm", "_tags": {"ele": "2154", "name": "Pic du Burat", "natural": "peak", "wikidata": "Q3382422"}}, {"name": "Pic de Pouy Pradaus", "latitude": 42.8675651, "longitude": 0.5257483, "elevation": 1899.0, "source": "osm", "_tags": {"ele": "1899", "name": "Pic de Pouy Pradaus", "natural": "peak"}}, {"name": "Mont Las", "latitude": 42.9299363, "longitude": 0.5336849, "elevation": 1729.0, "source": "osm", "_tags": {"ele": "1729", "name": "Mont Las", "natural": "peak"}}, {"name": "Mont Né", "latitude": 42.8770702, "longitude": 0.4766567, "elevation": 2147.0, "source": "osm", "_tags": {"ele": "2147", "name": "Mont Né", "natural": "peak"}}, {"name": "Sommet d'Antenac", "latitude": 42.8564933, "longitude": 0.5649758, "elevation": 1990.0, "source": "osm", "_tags": {"ele": "1990", "name": "Sommet d'Antenac", "natural": "peak"}}, {"name": "Pic de Pouy Usclat", "latitude": 42.9056878, "longitude": 0.5317498, "elevation": 1755.0, "source": "osm", "_tags": {"ele": "1755", "name": "Pic de Pouy Usclat", "natural": "peak"}}, {"name": "Tuc de Piscatelle", "latitude": 42.9662112, "longitude": 0.9298411, "elevation": 1396.0, "source": "osm", "_tags": {"ele": "1396", "name": "Tuc de Piscatelle", "natural": "peak"}}, {"name": "Tuc de Nédé", "latitude": 42.8939295, "longitude": 0.9049173, "elevation": 1637.0, "source": "osm", "_tags": {"ele": "1637", "name": "Tuc de Nédé", "natural": "peak"}}, {"name": "Cap de la Pique", "latitude": 42.8405672, "longitude": 0.8016691, "elevation": 2034.0, "source": "osm", "_tags": {"ele": "2034", "name": "Cap de la Pique", "name:es": "Era Pica", "name:fr": "Cap de la Pique", "natural": "peak", "wikidata": "Q17481925"}}, {"name": "Pic de la Calabasse", "latitude": 42.8696104, "longitude": 0.8593455, "elevation": 2210.0, "source": "osm", "_tags": {"ele": "2210", "name": "Pic de la Calabasse", "natural": "peak"}}, {"name": "Le Puech", "latitude": 42.9172363, "longitude": 0.8278688, "elevation": 1669.0, "source": "osm", "_tags": {"ele": "1669", "name": "Le Puech", "natural": "peak"}}, {"name": "Pic de l'Har", "latitude": 42.8347803, "longitude": 0.8954148, "elevation": 2424.0, "source": "osm", "_tags": {"ele": "2424", "name": "Pic de l'Har", "natural": "peak"}}, {"name": "Sommet de Cournudère", "latitude": 42.957901, "longitude": 0.8904519, "elevation": 1561.0, "source": "osm", "_tags": {"ele": "1561", "name": "Sommet de Cournudère", "natural": "peak"}}, {"name": "Pic de Sérau", "latitude": 42.8994452, "longitude": 0.943351, "elevation": 1720.0, "source": "osm", "_tags": {"ele": "1720", "name": "Pic de Sérau", "natural": "peak"}}, {"name": "Pic de Paumaudé", "latitude": 42.8680104, "longitude": 0.886055, "elevation": 2082.0, "source": "osm", "_tags": {"ele": "2082", "name": "Pic de Paumaudé", "natural": "peak"}}, {"name": "Sommet de l'Aigle", "latitude": 42.8402264, "longitude": 0.4643896, "elevation": 2078.0, "source": "osm", "_tags": {"ele": "2078", "name": "Sommet de l'Aigle", "natural": "peak", "source": "gps"}}, {"name": "Pic de Pièle de Mil", "latitude": 42.8572377, "longitude": 0.8485725, "elevation": 2128.0, "source": "osm", "_tags": {"ele": "2128", "name": "Pic de Pièle de Mil", "natural": "peak"}}, {"name": "Montious", "latitude": 42.8610641, "longitude": 0.4414456, "elevation": 2171.0, "source": "osm", "_tags": {"ele": "2171", "name": "Montious", "natural": "peak"}}, {"name": "La Bonida", "latitude": 42.9234063, "longitude": 0.1266269, "elevation": 2529.0, "source": "osm", "_tags": {"ele": "2529", "name": "La Bonida", "natural": "peak"}}, {"name": "Tuc de l'Étang", "latitude": 42.9019979, "longitude": 0.7662365, "elevation": 1816.0, "source": "osm", "_tags": {"ele": "1816", "name": "Tuc de l'Étang", "natural": "peak"}}, {"name": "Daüsse", "latitude": 43.0471597, "longitude": 0.7942061, "elevation": 570.0, "source": "osm", "_tags": {"ele": "570", "name": "Daüsse", "natural": "peak"}}, {"name": "Pic de Courbayran", "latitude": 42.8535158, "longitude": 0.9640392, "elevation": 1759.0, "source": "osm", "_tags": {"ele": "1759", "name": "Pic de Courbayran", "natural": "peak"}}, {"name": "Pic de Pale Bidau", "latitude": 42.873611, "longitude": 0.8218531, "elevation": 1936.0, "source": "osm", "_tags": {"ele": "1936", "name": "Pic de Pale Bidau", "natural": "peak"}}, {"name": "Cap du Mont", "latitude": 42.9225053, "longitude": 0.7040893, "elevation": 1257.0, "source": "osm", "_tags": {"ele": "1257", "name": "Cap du Mont", "natural": "peak", "source": "IGN"}}, {"name": "Pic de Montaut", "latitude": 42.9737582, "longitude": 0.4250121, "elevation": 1722.0, "source": "osm", "_tags": {"ele": "1722", "name": "Pic de Montaut", "natural": "peak"}}, {"name": "Cap de la Lit", "latitude": 42.845603, "longitude": 0.486906, "elevation": 1970.0, "source": "osm", "_tags": {"ele": "1970", "name": "Cap de la Lit", "natural": "peak"}}, {"name": "La Cigalière", "latitude": 42.8767606, "longitude": 0.5756917, "elevation": 1698.0, "source": "osm", "_tags": {"ele": "1698", "name": "La Cigalière", "natural": "peak"}}, {"name": "Pic de Baget", "latitude": 43.0221288, "longitude": 0.7138651, "elevation": 790.0, "source": "osm", "_tags": {"ele": "790", "name": "Pic de Baget", "natural": "peak"}}, {"name": "Cap du Teil", "latitude": 43.0583586, "longitude": 0.6568224, "elevation": 710.0, "source": "osm", "_tags": {"ele": "710", "name": "Cap du Teil", "natural": "peak", "source": "IGN"}}, {"name": "Rochers de Pène Nère", "latitude": 42.9878697, "longitude": 0.8521236, "elevation": 1317.0, "source": "osm", "_tags": {"ele": "1317", "name": "Rochers de Pène Nère", "natural": "peak"}}, {"name": "Sommet de la Husse", "latitude": 42.981841, "longitude": 0.8503761, "elevation": 1358.0, "source": "osm", "_tags": {"ele": "1358", "name": "Sommet de la Husse", "natural": "peak"}}, {"name": "Pic de Naouit", "latitude": 42.9687144, "longitude": 0.0136114, "elevation": 1813.0, "source": "osm", "_tags": {"ele": "1813", "name": "Pic de Naouit", "natural": "peak"}}, {"name": "Cap dera Potèrla", "latitude": 42.8368224, "longitude": 0.7904074, "elevation": 1781.1, "source": "osm", "_tags": {"ele": "1781.1", "name": "Cap dera Potèrla", "name:ca": "Cap dera Potèrla", "name:oc": "Cap dera Potèrla", "natural": "peak", "source": "Instituto Geográfico Nacional", "source:date": "201011", "wikidata": "Q11912162"}}, {"name": "Cap dera Maleda", "latitude": 42.8317253, "longitude": 0.8247135, "elevation": 2013.5, "source": "osm", "_tags": {"ele": "2013.5", "name": "Cap dera Maleda", "name:ca": "Cap dera Maleda", "name:oc": "Cap dera Maleda", "natural": "peak", "source": "Instituto Geográfico Nacional", "source:date": "201011", "wikidata": "Q11912155"}}, {"name": "Cap deth Malh de Cristalh", "latitude": 42.8270263, "longitude": 0.8510135, "elevation": 2399.0, "source": "osm", "_tags": {"ele": "2399", "name": "Cap deth Malh de Cristalh", "name:ca": "Cap deth Malh de Cristalh", "name:oc": "Cap deth Malh de Cristalh", "natural": "peak", "source": "Instituto Geográfico Nacional", "source:date": "201011", "wikidata": "Q11912169"}}, {"name": "Cap des Agudes", "latitude": 42.8265866, "longitude": 0.6893271, "elevation": 1678.2, "source": "osm", "_tags": {"ele": "1678.2", "name": "Cap des Agudes", "name:ca": "Cap des Agudes", "name:oc": "Cap des Agudes", "natural": "peak", "source": "Instituto Geográfico Nacional", "source:date": "201011", "wikidata": "Q11912165"}}, {"name": "Pic d'Aygues-Cluses", "latitude": 42.8715995, "longitude": 0.1679958, "elevation": 2620.0, "source": "osm", "_tags": {"ele": "2620", "name": "Pic d'Aygues-Cluses", "natural": "peak"}}, {"name": "Pic de Gourget", "latitude": 42.8639508, "longitude": 0.1600755, "elevation": 2619.0, "source": "osm", "_tags": {"ele": "2619", "name": "Pic de Gourget", "natural": "peak"}}, {"name": "Pic de Madamète", "latitude": 42.8579228, "longitude": 0.1366154, "elevation": 2657.0, "source": "osm", "_tags": {"ele": "2657", "name": "Pic de Madamète", "natural": "peak"}}, {"name": "Pic de Tracens", "latitude": 42.8667847, "longitude": 0.133171, "elevation": 2551.0, "source": "osm", "_tags": {"ele": "2551", "name": "Pic de Tracens", "natural": "peak"}}, {"name": "Mont Pourcet", "latitude": 43.0380293, "longitude": 0.7981789, "elevation": 710.0, "source": "osm", "_tags": {"ele": "710", "name": "Mont Pourcet", "natural": "peak"}}, {"name": "Cap de Pouy de Hourmigué", "latitude": 42.9191077, "longitude": 0.5966687, "elevation": 1685.0, "source": "osm", "_tags": {"ele": "1685", "name": "Cap de Pouy de Hourmigué", "natural": "peak"}}, {"name": "Pic de l'Oussouet", "latitude": 43.001745, "longitude": 0.0690934, "elevation": 1873.0, "source": "osm", "_tags": {"ele": "1873", "name": "Pic de l'Oussouet", "natural": "peak"}}, {"name": "Hount Blanque", "latitude": 42.974636, "longitude": 0.1667509, "elevation": 1941.0, "source": "osm", "_tags": {"ele": "1941", "name": "Hount Blanque", "natural": "peak"}}, {"name": "Castet Sarradis", "latitude": 42.9155969, "longitude": 0.2376118, "elevation": 1781.0, "source": "osm", "_tags": {"ele": "1781", "name": "Castet Sarradis", "natural": "peak"}}, {"name": "Cap de Payssas", "latitude": 42.9856451, "longitude": 0.7707028, "elevation": 922.0, "source": "osm", "_tags": {"ele": "922", "name": "Cap de Payssas", "natural": "peak"}}, {"name": "tuhou d'Arredoun du bas", "latitude": 42.8745283, "longitude": 0.216387, "elevation": 2502.0, "source": "osm", "_tags": {"ele": "2502", "name": "tuhou d'Arredoun du bas", "natural": "peak", "source": "cadastre-dgi-fr source : Direction Générale des Impôts - Cadastre. Mise à jour : 2012"}}, {"name": "Le Pain de Sucre", "latitude": 42.8969732, "longitude": 0.1878217, "elevation": 2331.0, "source": "osm", "_tags": {"ele": "2331", "name": "Le Pain de Sucre", "natural": "peak", "source": "cadastre-dgi-fr source : Direction Générale des Impôts - Cadastre. Mise à jour : 2012"}}, {"name": "Pic de Barassé", "latitude": 42.9044061, "longitude": 0.1977038, "elevation": 2352.0, "source": "osm", "_tags": {"ele": "2352", "name": "Pic de Barassé", "natural": "peak", "source": "cadastre-dgi-fr source : Direction Générale des Impôts - Cadastre. Mise à jour : 2012"}}, {"name": "Pic de Guilhemteste", "latitude": 42.8981096, "longitude": 0.1771582, "elevation": 2386.0, "source": "osm", "_tags": {"ele": "2386", "name": "Pic de Guilhemteste", "natural": "peak", "source": "cadastre-dgi-fr source : Direction Générale des Impôts - Cadastre. Mise à jour : 2012"}}, {"name": "Pic de Pène Blanque", "latitude": 42.901868, "longitude": 0.1932165, "elevation": 2441.0, "source": "osm", "_tags": {"ele": "2441", "name": "Pic de Pène Blanque", "natural": "peak", "source": "cadastre-dgi-fr source : Direction Générale des Impôts - Cadastre. Mise à jour : 2012", "wikidata": "Q49753136"}}, {"name": "Pic des Quatre Termes", "latitude": 42.8869128, "longitude": 0.1753833, "elevation": 2724.0, "source": "osm", "_tags": {"ele": "2724", "name": "Pic des Quatre Termes", "natural": "peak", "prominence": "259", "source": "cadastre-dgi-fr source : Direction Générale des Impôts - Cadastre. Mise à jour : 2012", "source:prominence": "IGN map. Key col: Hourquette Nere 2465m"}}, {"name": "Pic du Teste Guilhem", "latitude": 42.8881844, "longitude": 0.1802991, "elevation": 2679.0, "source": "osm", "_tags": {"ele": "2679", "name": "Pic du Teste Guilhem", "natural": "peak", "source": "cadastre-dgi-fr source : Direction Générale des Impôts - Cadastre. Mise à jour : 2012"}}, {"name": "Piquet de Pène Blanque", "latitude": 42.9052765, "longitude": 0.1915647, "elevation": 2277.0, "source": "osm", "_tags": {"ele": "2277", "name": "Piquet de Pène Blanque", "natural": "peak", "source": "cadastre-dgi-fr source : Direction Générale des Impôts - Cadastre. Mise à jour : 2012"}}, {"name": "Pène Nègre", "latitude": 42.8912944, "longitude": 0.1863726, "elevation": 2554.0, "source": "osm", "_tags": {"ele": "2554", "name": "Pène Nègre", "natural": "peak", "source": "cadastre-dgi-fr source : Direction Générale des Impôts - Cadastre. Mise à jour : 2012", "wikidata": "Q134983208"}}, {"name": "Le Taoulet", "latitude": 42.9199284, "longitude": 0.1628566, "elevation": 2341.0, "source": "osm", "_tags": {"ele": "2341", "name": "Le Taoulet", "natural": "peak"}}, {"name": "Serpolet", "latitude": 42.9122842, "longitude": 0.1950263, "elevation": 2113.0, "source": "osm", "_tags": {"ele": "2113", "name": "Serpolet", "natural": "peak", "source": "cadastre-dgi-fr source : Direction Générale des Impôts - Cadastre. Mise à jour : 2012"}}, {"name": "Cap de Sencours", "latitude": 42.9268716, "longitude": 0.150807, "elevation": 2230.0, "source": "osm", "_tags": {"ele": "2230", "name": "Cap de Sencours", "natural": "peak", "source": "cadastre-dgi-fr source : Direction Générale des Impôts - Cadastre. Mise à jour : 2012"}}, {"name": "Le Taoulet d'Aouet", "latitude": 42.9501886, "longitude": 0.1526823, "elevation": 2293.0, "source": "osm", "_tags": {"ele": "2293", "name": "Le Taoulet d'Aouet", "natural": "peak", "source": "cadastre-dgi-fr source : Direction Générale des Impôts - Cadastre. Mise à jour : 2012", "wikidata": "Q3515416"}}, {"name": "Tuhou du Goulet", "latitude": 42.9275633, "longitude": 0.1866977, "elevation": 1598.0, "source": "osm", "_tags": {"ele": "1598", "name": "Tuhou du Goulet", "natural": "peak", "source": "cadastre-dgi-fr source : Direction Générale des Impôts - Cadastre. Mise à jour : 2012"}}, {"name": "Cap de Labasset", "latitude": 42.9491828, "longitude": 0.110098, "elevation": 2038.0, "source": "osm", "_tags": {"ele": "2038", "name": "Cap de Labasset", "natural": "peak", "source": "cadastre-dgi-fr source : Direction Générale des Impôts - Cadastre. Mise à jour : 2012"}}, {"name": "Pic de Moussaou", "latitude": 42.9003452, "longitude": 0.9649184, "elevation": 1675.0, "source": "osm", "_tags": {"ele": "1675", "name": "Pic de Moussaou", "natural": "peak"}}, {"name": "Rocher des Graues", "latitude": 42.9277277, "longitude": 0.7641938, "elevation": 1636.0, "source": "osm", "_tags": {"ele": "1636", "name": "Rocher des Graues", "natural": "peak"}}, {"name": "Pic d'Escales", "latitude": 42.8987204, "longitude": 0.7754957, "elevation": 1816.0, "source": "osm", "_tags": {"ele": "1816", "name": "Pic d'Escales", "natural": "peak"}}, {"name": "Tuc d'Angost", "latitude": 42.8503965, "longitude": 0.6792995, "elevation": 2127.9, "source": "osm", "_tags": {"ele": "2127.9", "name": "Tuc d'Angost", "name:ca": "Tuc d'Angost", "name:oc": "Tuc d'Angost", "natural": "peak", "source": "Institut Cartogràfic de Catalunya", "wikidata": "Q17481243", "wikipedia": "ca:Tuc d'Angost"}}, {"name": "Pic de Pène d'Uch", "latitude": 42.9665381, "longitude": 0.5278611, "elevation": 1346.0, "source": "osm", "_tags": {"ele": "1346", "name": "Pic de Pène d'Uch", "natural": "peak"}}, {"name": "Pic de la Humassade", "latitude": 42.9702262, "longitude": 0.529175, "elevation": 1359.0, "source": "osm", "_tags": {"ele": "1359", "name": "Pic de la Humassade", "natural": "peak"}}, {"name": "Pic de Néouvielle", "latitude": 42.8353661, "longitude": 0.1151204, "elevation": 3091.0, "source": "osm", "_tags": {"ele": "3091", "name": "Pic de Néouvielle", "name:fr": "Pic de Néouvielle", "natural": "peak", "prominence": "487", "wikidata": "Q3088745", "wikipedia": "fr:Pic de Néouvielle"}}, {"name": "Soum de Trezères", "latitude": 43.0133995, "longitude": -0.0164596, "elevation": 1617.0, "source": "osm", "_tags": {"ele": "1617", "name": "Soum de Trezères", "natural": "peak", "source": "bing"}}, {"name": "Soum des Lits", "latitude": 43.0212563, "longitude": -0.0170988, "elevation": 1406.0, "source": "osm", "_tags": {"ele": "1406", "name": "Soum des Lits", "natural": "peak"}}, {"name": "Sommet du Templa", "latitude": 42.8924559, "longitude": 0.4728395, "elevation": 2121.0, "source": "osm", "_tags": {"ele": "2121", "name": "Sommet du Templa", "natural": "peak"}}, {"name": "Pic de La Clique", "latitude": 43.0512553, "longitude": 0.0495195, "elevation": 1048.0, "source": "osm", "_tags": {"ele": "1048", "name": "Pic de La Clique", "natural": "peak"}}, {"name": "", "latitude": 43.0618555, "longitude": 0.0046505, "elevation": 873.0, "source": "osm", "_tags": {"ele": "873", "natural": "peak"}}, {"name": "Soum de Nére", "latitude": 42.9071217, "longitude": 0.0100579, "elevation": 2394.0, "source": "osm", "_tags": {"ele": "2394", "name": "Soum de Nére", "natural": "peak", "source": "Donnée GPS"}}, {"name": "Tuc du Tucol", "latitude": 42.9576549, "longitude": 0.8751784, "elevation": 1579.0, "source": "osm", "_tags": {"ele": "1579", "name": "Tuc du Tucol", "natural": "peak"}}, {"name": "Pic du Lion", "latitude": 42.8519479, "longitude": 0.4602753, "elevation": 2102.0, "source": "osm", "_tags": {"ele": "2102", "name": "Pic du Lion", "natural": "peak", "source": "gps", "summit:cross": "no", "summit:register": "no"}}, {"name": "Sommet de Pouy Louby", "latitude": 42.8469714, "longitude": 0.4678, "elevation": 2091.0, "source": "osm", "_tags": {"ele": "2091", "name": "Sommet de Pouy Louby", "natural": "peak"}}, {"name": "Mont Jammes", "latitude": 43.0901293, "longitude": 0.7599908, "elevation": 487.0, "source": "osm", "_tags": {"ele": "487", "name": "Mont Jammes", "natural": "peak"}}, {"name": "Pic des Trois Conseillers", "latitude": 42.831159, "longitude": 0.1129302, "elevation": 3039.0, "source": "osm", "_tags": {"ele": "3039", "name": "Pic des Trois Conseillers", "natural": "peak", "wikidata": "Q3382420"}}, {"name": "Turon de Néouvielle", "latitude": 42.8277711, "longitude": 0.1077501, "elevation": 3035.0, "source": "osm", "_tags": {"ele": "3035", "name": "Turon de Néouvielle", "natural": "peak", "wikidata": "Q3542372"}}, {"name": "Pic d'Espade", "latitude": 42.8993319, "longitude": 0.1488376, "elevation": 2467.0, "source": "osm", "_tags": {"ele": "2467", "name": "Pic d'Espade", "natural": "peak"}}, {"name": "Cap de la Pène", "latitude": 42.953104, "longitude": 0.3467146, "elevation": 1198.0, "source": "osm", "_tags": {"ele": "1198", "name": "Cap de la Pène", "natural": "peak"}}, {"name": "Cap d'Arrouye", "latitude": 42.9444866, "longitude": 0.3380177, "elevation": null, "source": "osm", "_tags": {"name": "Cap d'Arrouye", "natural": "peak"}}, {"name": "Plat de la Peyre", "latitude": 42.9814327, "longitude": 0.3653212, "elevation": 1093.0, "source": "osm", "_tags": {"ele": "1093", "name": "Plat de la Peyre", "natural": "peak"}}, {"name": "Cap de Castillon", "latitude": 42.9745384, "longitude": 0.311598, "elevation": 1900.0, "source": "osm", "_tags": {"ele": "1900", "name": "Cap de Castillon", "natural": "peak"}}, {"name": "Cap de Paou", "latitude": 42.97165, "longitude": 0.3293808, "elevation": 1769.0, "source": "osm", "_tags": {"ele": "1769", "name": "Cap de Paou", "natural": "peak"}}, {"name": "", "latitude": 42.8457378, "longitude": 0.4757398, "elevation": 2016.0, "source": "osm", "_tags": {"ele": "2016", "natural": "peak"}}, {"name": "Soum de Leviste", "latitude": 42.932649, "longitude": 0.0104158, "elevation": 2437.0, "source": "osm", "_tags": {"ele": "2437", "name": "Soum de Leviste", "natural": "peak"}}, {"name": "Pic de Montfaucon", "latitude": 42.8799306, "longitude": 0.258118, "elevation": 2712.0, "source": "osm", "_tags": {"ele": "2712", "name": "Pic de Montfaucon", "natural": "peak"}}, {"name": "Petit Arbizon", "latitude": 42.8742534, "longitude": 0.2803688, "elevation": 2737.0, "source": "osm", "_tags": {"ele": "2737", "name": "Petit Arbizon", "natural": "peak"}}, {"name": "Plo del naou", "latitude": 42.9194582, "longitude": 0.3135999, "elevation": 1754.0, "source": "osm", "_tags": {"ele": "1754", "name": "Plo del naou", "natural": "peak"}}, {"name": "Le Courouaou", "latitude": 42.9977001, "longitude": 0.1681729, "elevation": 1290.0, "source": "osm", "_tags": {"ele": "1290", "name": "Le Courouaou", "natural": "peak"}}, {"name": "", "latitude": 43.0815622, "longitude": 0.0176643, "elevation": 713.0, "source": "osm", "_tags": {"ele": "713", "natural": "peak"}}, {"name": "Turon de Gueys", "latitude": 43.106917, "longitude": 0.1027724, "elevation": 584.0, "source": "osm", "_tags": {"ele": "584", "name": "Turon de Gueys", "natural": "peak"}}, {"name": "Rocher de la Vierge", "latitude": 43.0919431, "longitude": -0.0219985, "elevation": null, "source": "osm", "_tags": {"description": "Statue de la Vierge", "name": "Rocher de la Vierge", "natural": "peak"}}, {"name": "Cap det Buala", "latitude": 43.0924318, "longitude": 0.0167631, "elevation": null, "source": "osm", "_tags": {"name": "Cap det Buala", "natural": "peak", "place": "locality", "source": "cadastre-dgi-fr source : Direction Générale des Impôts - Cadastre. Mise à jour : 2013"}}, {"name": "La Tourette", "latitude": 42.8289351, "longitude": 0.237582, "elevation": 2328.0, "source": "osm", "_tags": {"ele": "2328", "name": "La Tourette", "natural": "peak"}}, {"name": "Miramont", "latitude": 43.1260096, "longitude": 0.0088243, "elevation": 645.0, "source": "osm", "_tags": {"ele": "645", "name": "Miramont", "natural": "peak", "source": "cadastre-dgi-fr source : Direction Générale des Impôts - Cadastre. Mise à jour : 2013"}}, {"name": "Sarraméa", "latitude": 43.1194244, "longitude": -0.0089295, "elevation": 565.0, "source": "osm", "_tags": {"ele": "565", "name": "Sarraméa", "natural": "peak", "source": "cadastre-dgi-fr source : Direction Générale des Impôts - Cadastre. Mise à jour : 2013"}}, {"name": "le Turonnet", "latitude": 43.1631295, "longitude": -0.0240123, "elevation": null, "source": "osm", "_tags": {"name": "le Turonnet", "natural": "peak", "source": "cadastre-dgi-fr source : Direction Générale des Impôts - Cadastre. Mise à jour : 2013"}}, {"name": "le Pouey", "latitude": 43.171771, "longitude": 0.0047406, "elevation": 387.0, "source": "osm", "_tags": {"ele": "387", "name": "le Pouey", "natural": "peak", "source": "cadastre-dgi-fr source : Direction Générale des Impôts - Cadastre. Mise à jour : 2013"}}, {"name": "Le Pouy", "latitude": 43.1382245, "longitude": 0.0251168, "elevation": 412.0, "source": "osm", "_tags": {"ele": "412", "name": "Le Pouy", "natural": "peak"}}, {"name": "Turon", "latitude": 43.1227114, "longitude": 0.0708967, "elevation": 549.0, "source": "osm", "_tags": {"ele": "549", "name": "Turon", "natural": "peak", "source": "cadastre-dgi-fr source : Direction Générale des Impôts - Cadastre. Mise à jour : 2013"}}, {"name": "Cap de la Serre", "latitude": 43.1451859, "longitude": 0.1331462, "elevation": 530.0, "source": "osm", "_tags": {"ele": "530", "name": "Cap de la Serre", "natural": "peak"}}, {"name": "Soum du Buala", "latitude": 43.1245797, "longitude": 0.1324099, "elevation": 571.0, "source": "osm", "_tags": {"ele": "571", "name": "Soum du Buala", "natural": "peak", "source": "cadastre-dgi-fr source : Direction Générale des Impôts - Cadastre. Mise à jour : 2014"}}, {"name": "Castet", "latitude": 43.0573792, "longitude": 0.2172779, "elevation": 781.0, "source": "osm", "_tags": {"ele": "781", "name": "Castet", "natural": "peak"}}, {"name": "Pic d'Arneille", "latitude": 43.016434, "longitude": 0.3407096, "elevation": 1271.0, "source": "osm", "_tags": {"ele": "1271", "name": "Pic d'Arneille", "natural": "peak"}}, {"name": "Soum Deth Raygade", "latitude": 43.0279815, "longitude": 0.2577347, "elevation": 756.0, "source": "osm", "_tags": {"ele": "756", "name": "Soum Deth Raygade", "natural": "peak"}}, {"name": "Pic de Labassère", "latitude": 43.0438558, "longitude": 0.0966348, "elevation": 1162.0, "source": "osm", "_tags": {"ele": "1162", "name": "Pic de Labassère", "natural": "peak", "source": "cadastre-dgi-fr source : Direction Générale des Impôts - Cadastre. Mise à jour : 2014"}}, {"name": "Turon", "latitude": 43.0642614, "longitude": 0.0875321, "elevation": 826.0, "source": "osm", "_tags": {"ele": "826", "name": "Turon", "natural": "peak", "source": "cadastre-dgi-fr source : Direction Générale des Impôts - Cadastre. Mise à jour : 2014"}}, {"name": "Pic de Bouteran", "latitude": 43.0168666, "longitude": 0.3105491, "elevation": 1022.0, "source": "osm", "_tags": {"ele": "1022", "name": "Pic de Bouteran", "natural": "peak"}}, {"name": "Pic de Carrot", "latitude": 43.0190347, "longitude": 0.2970574, "elevation": null, "source": "osm", "_tags": {"name": "Pic de Carrot", "natural": "peak"}}, {"name": "Pic de Momé", "latitude": 43.0391659, "longitude": 0.3106873, "elevation": null, "source": "osm", "_tags": {"name": "Pic de Momé", "natural": "peak"}}, {"name": "Pic de Pène de Coussa", "latitude": 43.018468, "longitude": 0.2873718, "elevation": null, "source": "osm", "_tags": {"name": "Pic de Pène de Coussa", "natural": "peak"}}, {"name": "Pic du Cap de Lusclade", "latitude": 43.0250003, "longitude": 0.2709754, "elevation": null, "source": "osm", "_tags": {"name": "Pic du Cap de Lusclade", "natural": "peak"}}, {"name": "Pic du Montégut", "latitude": 43.0233304, "longitude": 0.2840077, "elevation": null, "source": "osm", "_tags": {"name": "Pic du Montégut", "natural": "peak"}}, {"name": "Soum Det Hours", "latitude": 43.0451283, "longitude": 0.3260165, "elevation": 728.0, "source": "osm", "_tags": {"ele": "728", "name": "Soum Det Hours", "natural": "peak"}}, {"name": "Soum du Haillo", "latitude": 43.0426857, "longitude": 0.3125238, "elevation": 701.0, "source": "osm", "_tags": {"alt_name": "Momé", "ele": "701", "name": "Soum du Haillo", "natural": "peak"}}, {"name": "la Coubère", "latitude": 43.0421248, "longitude": 0.2447562, "elevation": 716.0, "source": "osm", "_tags": {"ele": "716", "name": "la Coubère", "natural": "peak", "source": "cadastre-dgi-fr source : Direction Générale des Impôts - Cadastre. Mise à jour : 2014"}}, {"name": "Pic de Lascrouts d'Artigaou", "latitude": 43.0138716, "longitude": 0.2841551, "elevation": null, "source": "osm", "_tags": {"name": "Pic de Lascrouts d'Artigaou", "natural": "peak", "source": "cadastre-dgi-fr source : Direction Générale des Impôts - Cadastre. Mise à jour : 2014"}}, {"name": "Soum det Roujès", "latitude": 43.0332155, "longitude": 0.2651965, "elevation": null, "source": "osm", "_tags": {"name": "Soum det Roujès", "natural": "peak", "source": "cadastre-dgi-fr source : Direction Générale des Impôts - Cadastre. Mise à jour : 2014"}}, {"name": "Sarrat de Peret", "latitude": 43.0590332, "longitude": 0.2827201, "elevation": 530.0, "source": "osm", "_tags": {"ele": "530", "name": "Sarrat de Peret", "natural": "peak"}}, {"name": "le Turon", "latitude": 43.1000371, "longitude": 0.2914762, "elevation": 538.0, "source": "osm", "_tags": {"ele": "538", "name": "le Turon", "natural": "peak"}}, {"name": "Pic de Bastan", "latitude": 42.8659574, "longitude": 0.2007309, "elevation": 2715.0, "source": "osm", "_tags": {"ele": "2715", "name": "Pic de Bastan", "natural": "peak", "prominence": "206", "source:prominence": "IGN map. Key col: Col de Bastanet 2509m", "wikidata": "Q3382348", "wikipedia": "fr:Pic de Bastan"}}, {"name": "Pic de Montarrouye", "latitude": 42.8863649, "longitude": 0.2244875, "elevation": 2568.0, "source": "osm", "_tags": {"ele": "2568", "name": "Pic de Montarrouye", "natural": "peak"}}, {"name": "Pene Arrouye", "latitude": 42.8951311, "longitude": 0.221218, "elevation": 2420.0, "source": "osm", "_tags": {"ele": "2420", "name": "Pene Arrouye", "natural": "peak"}}, {"name": "Soum de Marianette", "latitude": 42.8994172, "longitude": 0.2254401, "elevation": 2353.0, "source": "osm", "_tags": {"ele": "2353", "name": "Soum de Marianette", "natural": "peak"}}, {"name": "Pla de l'arcouade", "latitude": 42.9183828, "longitude": 0.2610977, "elevation": null, "source": "osm", "_tags": {"name": "Pla de l'arcouade", "natural": "peak"}}, {"name": "Pène de la Télouère", "latitude": 42.9799941, "longitude": 0.28008, "elevation": 1800.0, "source": "osm", "_tags": {"ele": "1800", "name": "Pène de la Télouère", "natural": "peak"}}, {"name": "Pic Ramougn", "latitude": 42.8348178, "longitude": 0.1201617, "elevation": 3011.0, "source": "osm", "_tags": {"ele": "3011", "name": "Pic Ramougn", "natural": "peak", "wikidata": "Q3088783"}}, {"name": "Cap des Canarilhes", "latitude": 42.8359712, "longitude": 0.7793082, "elevation": 1764.1, "source": "osm", "_tags": {"ele": "1764.1", "name": "Cap des Canarilhes", "name:ca": "Cap des Canarilhes", "name:oc": "Cap des Canarilhes", "natural": "peak", "wikidata": "Q17481515"}}, {"name": "Tuc de Barrièr", "latitude": 42.834594, "longitude": 0.817768, "elevation": 2075.2, "source": "osm", "_tags": {"ele": "2075.2", "name": "Tuc de Barrièr", "name:ca": "Tuc de Barrièr", "name:oc": "Tuc de Barrièr", "natural": "peak"}}, {"name": "Tuc des Pans", "latitude": 42.8385276, "longitude": 0.7725354, "elevation": 1724.5, "source": "osm", "_tags": {"ele": "1724.5", "name": "Tuc des Pans", "natural": "peak"}}, {"name": "Tuc des Estanhs", "latitude": 42.8553136, "longitude": 0.6850534, "elevation": 2055.6, "source": "osm", "_tags": {"ele": "2055.6", "name": "Tuc des Estanhs", "name:ca": "Tuc des Estanhs", "name:oc": "Tuc des Estanhs", "natural": "peak", "source": "Institut Cartogràfic de Catalunya"}}, {"name": "Cap dera Sèrra", "latitude": 42.8443524, "longitude": 0.7437059, "elevation": 1209.2, "source": "osm", "_tags": {"ele": "1209.2", "name": "Cap dera Sèrra", "name:ca": "Cap dera Sèrra", "name:oc": "Cap dera Sèrra", "natural": "peak", "source": "Institut Cartogràfic de Catalunya", "wikidata": "Q11912160", "wikipedia": "ca:Cap dera Sèrra (Canejan)"}}, {"name": "Malh de Cigalèra", "latitude": 42.8469548, "longitude": 0.684, "elevation": 2007.9, "source": "osm", "_tags": {"ele": "2007.9", "name": "Malh de Cigalèra", "name:ca": "Malh de Cigalèra", "name:oc": "Malh de Cigalèra", "natural": "peak"}}, {"name": "Soum de Monpelat", "latitude": 42.8330161, "longitude": 0.1810264, "elevation": 2474.0, "source": "osm", "_tags": {"ele": "2474", "name": "Soum de Monpelat", "natural": "peak"}}, {"name": "Pène d'Aube", "latitude": 42.8294242, "longitude": 0.4351166, "elevation": 1631.0, "source": "osm", "_tags": {"ele": "1631", "name": "Pène d'Aube", "natural": "peak", "source": "MapBox"}}, {"name": "Serre de Mengeotte", "latitude": 43.0493382, "longitude": 0.5569104, "elevation": null, "source": "osm", "_tags": {"name": "Serre de Mengeotte", "natural": "peak"}}, {"name": "Cap Nestès", "latitude": 42.9354633, "longitude": 0.4467103, "elevation": 1887.0, "source": "osm", "_tags": {"ele": "1887", "name": "Cap Nestès", "natural": "peak"}}, {"name": "Cap d'Ausour", "latitude": 42.9486102, "longitude": 0.4486441, "elevation": 1701.0, "source": "osm", "_tags": {"ele": "1701", "name": "Cap d'Ausour", "natural": "peak"}}, {"name": "Mont Mérac", "latitude": 42.9439241, "longitude": 0.4670445, "elevation": 1730.0, "source": "osm", "_tags": {"ele": "1730", "name": "Mont Mérac", "natural": "peak"}}, {"name": "Pic de Pou de Ré", "latitude": 43.0037309, "longitude": 0.5458348, "elevation": 986.0, "source": "osm", "_tags": {"ele": "986", "name": "Pic de Pou de Ré", "natural": "peak"}}, {"name": "", "latitude": 42.8891458, "longitude": 0.2488363, "elevation": 2510.0, "source": "osm", "_tags": {"ele": "2510", "natural": "peak"}}, {"name": "Tuc de Sacauva", "latitude": 42.8614596, "longitude": 0.7083768, "elevation": 1742.6, "source": "osm", "_tags": {"ele": "1742.6", "name": "Tuc de Sacauva", "natural": "peak", "source": "Institut Cartogràfic de Catalunya", "wikidata": "Q11953301", "wikipedia": "ca:Tuc de Sacauva (Bausen)"}}, {"name": "", "latitude": 42.8680274, "longitude": 0.1195244, "elevation": 2261.0, "source": "osm", "_tags": {"ele": "2261", "natural": "peak"}}, {"name": "Soum de la Piquette", "latitude": 42.8876794, "longitude": 0.097757, "elevation": 2302.0, "source": "osm", "_tags": {"ele": "2302", "name": "Soum de la Piquette", "natural": "peak"}}, {"name": "Pic des Crampettes", "latitude": 42.8719481, "longitude": 0.1045074, "elevation": 2484.0, "source": "osm", "_tags": {"ele": "2484", "name": "Pic des Crampettes", "natural": "peak"}}, {"name": "Pic de Lurtet", "latitude": 42.8693185, "longitude": 0.1001694, "elevation": 2506.0, "source": "osm", "_tags": {"ele": "2506", "name": "Pic de Lurtet", "natural": "peak"}}, {"name": "Pic d'Astazou", "latitude": 42.8599298, "longitude": 0.1088535, "elevation": 2622.0, "source": "osm", "_tags": {"ele": "2622", "name": "Pic d'Astazou", "natural": "peak"}}, {"name": "Cap des Canaus", "latitude": 42.8476849, "longitude": 0.6781731, "elevation": 2127.2, "source": "osm", "_tags": {"ele": "2127.2", "name": "Cap des Canaus", "natural": "peak", "source": "Institut Cartogràfic de Catalunya", "wikidata": "Q11912164"}}, {"name": "Cap d'Estanhs", "latitude": 42.8318777, "longitude": 0.6610662, "elevation": 2083.7, "source": "osm", "_tags": {"ele": "2083.7", "name": "Cap d'Estanhs", "name:ca": "Cap deth Còth d'Estanhs", "name:fr": "Plan de Montmajou", "natural": "peak", "source": "Institut Cartogràfic de Catalunya", "wikidata": "Q17481955"}}, {"name": "Malh des Bessons", "latitude": 42.8260053, "longitude": 0.667434, "elevation": 1945.7, "source": "osm", "_tags": {"ele": "1945.7", "name": "Malh des Bessons", "name:ca": "Malh des Bessons", "name:oc": "Malh des Bessons", "natural": "peak", "source": "Institut Cartogràfic de Catalunya", "wikidata": "Q18004241", "wikipedia": "ca:Malh des Bessons"}}, {"name": "Tiron de Sahaja", "latitude": 42.8552803, "longitude": 0.6780303, "elevation": 2162.6, "source": "osm", "_tags": {"ele": "2162.6", "name": "Tiron de Sahaja", "natural": "peak", "source": "Institut Cartogràfic de Catalunya"}}, {"name": "Tuc des Tres Corets", "latitude": 42.8243138, "longitude": 0.6701149, "elevation": 1949.6, "source": "osm", "_tags": {"ele": "1949.6", "name": "Tuc des Tres Corets", "name:ca": "Tuc des Tres Corets", "name:es": "Tuc Des Tres Corets", "name:fr": "Tuc des Trois Courets", "natural": "peak", "source": "Institut Cartogràfic de Catalunya", "wikidata": "Q11953338", "wikipedia": "ca:Tuc des Tres Corets"}}, {"name": "Tuc deth Plan deth Òme", "latitude": 42.8460783, "longitude": 0.6752126, "elevation": 2193.2, "source": "osm", "_tags": {"ele": "2193.2", "name": "Tuc deth Plan deth Òme", "name:ca": "Tuc deth Plan deth Òme", "name:fr": "Pic de Bacanère", "name:oc": "Tuc deth Plan deth Òme", "natural": "peak", "prominence": "900", "source": "Institut Cartogràfic de Catalunya", "source:prominence": "2193-1293 (Eth Portilhon)", "wikidata": "Q23990662", "wikipedia": "ca:Tuc del Pla de l'Home"}}, {"name": "Coudet", "latitude": 43.0475306, "longitude": -0.0167148, "elevation": 710.0, "source": "osm", "_tags": {"ele": "710", "name": "Coudet", "natural": "peak"}}, {"name": "Pic de Merlheu", "latitude": 42.9373879, "longitude": 0.102367, "elevation": 2636.0, "source": "osm", "_tags": {"ele": "2636", "name": "Pic de Merlheu", "natural": "peak"}}, {"name": "Pic d'Ourdégon", "latitude": 42.9197688, "longitude": 0.0866628, "elevation": null, "source": "osm", "_tags": {"name": "Pic d'Ourdégon", "natural": "peak"}}, {"name": "Soum de Mountarra", "latitude": 42.9253933, "longitude": 0.0894848, "elevation": 2452.0, "source": "osm", "_tags": {"ele": "2452", "name": "Soum de Mountarra", "natural": "peak"}}, {"name": "La Bèque", "latitude": 42.9339377, "longitude": 0.2337116, "elevation": 1721.0, "source": "osm", "_tags": {"ele": "1721", "name": "La Bèque", "natural": "peak"}}, {"name": "Pla de las Pénès", "latitude": 42.924534, "longitude": 0.2227261, "elevation": 1904.0, "source": "osm", "_tags": {"ele": "1904", "name": "Pla de las Pénès", "natural": "peak"}}, {"name": "Tuhou Gran", "latitude": 42.9104946, "longitude": 0.2323627, "elevation": 1911.0, "source": "osm", "_tags": {"ele": "1911", "name": "Tuhou Gran", "natural": "peak"}}, {"name": "Soum de Coste Oueillère", "latitude": 42.8953843, "longitude": 0.2492559, "elevation": 2453.0, "source": "osm", "_tags": {"ele": "2453", "name": "Soum de Coste Oueillère", "natural": "peak"}}, {"name": "Le Tuco", "latitude": 42.9453193, "longitude": 0.2484792, "elevation": 1304.0, "source": "osm", "_tags": {"ele": "1304", "name": "Le Tuco", "natural": "peak"}}, {"name": "Sommet de Tignous", "latitude": 42.9594304, "longitude": 0.2880337, "elevation": 1623.0, "source": "osm", "_tags": {"ele": "1623", "name": "Sommet de Tignous", "natural": "peak"}}, {"name": "Clot de Portillou", "latitude": 42.8978811, "longitude": 0.2901445, "elevation": 1647.0, "source": "osm", "_tags": {"ele": "1647", "name": "Clot de Portillou", "natural": "peak"}}, {"name": "Pic du Bassia", "latitude": 42.885127, "longitude": 0.275795, "elevation": 2557.0, "source": "osm", "_tags": {"ele": "2557", "name": "Pic du Bassia", "natural": "peak"}}, {"name": "Soum de Hailla", "latitude": 42.9587006, "longitude": 0.197499, "elevation": 1889.0, "source": "osm", "_tags": {"ele": "1889", "name": "Soum de Hailla", "natural": "peak"}}, {"name": "Cap de la Taoula", "latitude": 42.9502773, "longitude": 0.1845463, "elevation": 2239.0, "source": "osm", "_tags": {"ele": "2239", "name": "Cap de la Taoula", "natural": "peak"}}, {"name": "Pic de la Ballonque", "latitude": 42.9499774, "longitude": 0.1703655, "elevation": 2285.0, "source": "osm", "_tags": {"ele": "2285", "name": "Pic de la Ballonque", "natural": "peak"}}, {"name": "La Montagnette", "latitude": 42.9528038, "longitude": 0.1630385, "elevation": 2235.0, "source": "osm", "_tags": {"ele": "2235", "name": "La Montagnette", "natural": "peak"}}, {"name": "Pic de Cettiou", "latitude": 42.8709134, "longitude": 0.2252908, "elevation": 2588.0, "source": "osm", "_tags": {"ele": "2588", "name": "Pic de Cettiou", "natural": "peak"}}, {"name": "Picarres", "latitude": 42.8818408, "longitude": 0.2251927, "elevation": 2499.0, "source": "osm", "_tags": {"ele": "2499", "name": "Picarres", "natural": "peak"}}, {"name": "Pic d'Aulon", "latitude": 42.8745662, "longitude": 0.2443716, "elevation": 2738.0, "source": "osm", "_tags": {"ele": "2738", "name": "Pic d'Aulon", "natural": "peak", "prominence": "223", "source:prominence": "IGN map. Key col: Port de la Paloume 2515"}}, {"name": "Pic d'asté", "latitude": 43.0284698, "longitude": 0.1857437, "elevation": 1215.0, "source": "osm", "_tags": {"ele": "1215", "name": "Pic d'asté", "natural": "peak"}}, {"name": "Soum Arra", "latitude": 43.0087316, "longitude": 0.2184263, "elevation": 1621.0, "source": "osm", "_tags": {"ele": "1621", "name": "Soum Arra", "natural": "peak"}}, {"name": "Le Haboura", "latitude": 43.0070323, "longitude": 0.2261467, "elevation": 1628.0, "source": "osm", "_tags": {"ele": "1628", "name": "Le Haboura", "natural": "peak"}}, {"name": "Le Theilhet", "latitude": 43.0205474, "longitude": 0.1917915, "elevation": 1287.0, "source": "osm", "_tags": {"ele": "1287", "name": "Le Theilhet", "natural": "peak"}}, {"name": "Pène de Bedout", "latitude": 42.9817269, "longitude": 0.267086, "elevation": 1798.0, "source": "osm", "_tags": {"ele": "1798", "name": "Pène de Bedout", "natural": "peak"}}, {"name": "Soum de Castet", "latitude": 42.978355, "longitude": 0.1826915, "elevation": 1591.0, "source": "osm", "_tags": {"ele": "1591", "name": "Soum de Castet", "natural": "peak"}}, {"name": "Pène Nère", "latitude": 42.9588795, "longitude": 0.151435, "elevation": 2256.0, "source": "osm", "_tags": {"ele": "2256", "name": "Pène Nère", "natural": "peak"}}, {"name": "Crête de conques", "latitude": 42.9629004, "longitude": 0.1413548, "elevation": 2179.0, "source": "osm", "_tags": {"ele": "2179", "name": "Crête de conques", "natural": "peak"}}, {"name": "Pène Lounque", "latitude": 42.9380469, "longitude": 0.0417574, "elevation": 2321.0, "source": "osm", "_tags": {"ele": "2321", "name": "Pène Lounque", "natural": "peak"}}, {"name": "Pène Blanque", "latitude": 42.9357688, "longitude": 0.1297778, "elevation": null, "source": "osm", "_tags": {"name": "Pène Blanque", "natural": "peak"}}, {"name": "Pic Crémat", "latitude": 42.9339403, "longitude": 0.113562, "elevation": 2630.0, "source": "osm", "_tags": {"ele": "2630", "name": "Pic Crémat", "natural": "peak"}}, {"name": "Pic Bédérat", "latitude": 42.9266294, "longitude": 0.10907, "elevation": 2513.0, "source": "osm", "_tags": {"ele": "2513", "name": "Pic Bédérat", "natural": "peak"}}, {"name": "Pic de Barbe", "latitude": 42.9242164, "longitude": 0.1002103, "elevation": 2468.0, "source": "osm", "_tags": {"ele": "2468", "name": "Pic de Barbe", "natural": "peak"}}, {"name": "Les Aiguillettes", "latitude": 42.9331662, "longitude": 0.0696423, "elevation": 2399.0, "source": "osm", "_tags": {"ele": "2399", "name": "Les Aiguillettes", "natural": "peak"}}, {"name": "Soum de Lascours", "latitude": 42.9324148, "longitude": 0.0464152, "elevation": 2485.0, "source": "osm", "_tags": {"ele": "2485", "name": "Soum de Lascours", "natural": "peak"}}, {"name": "Soum Arrouy", "latitude": 42.9269404, "longitude": 0.0266108, "elevation": 2488.0, "source": "osm", "_tags": {"ele": "2488", "name": "Soum Arrouy", "natural": "peak"}}, {"name": "Soum de Siarrousse", "latitude": 42.9496225, "longitude": 0.0158047, "elevation": 2018.0, "source": "osm", "_tags": {"ele": "2018", "name": "Soum de Siarrousse", "natural": "peak"}}, {"name": "Pic du Mont", "latitude": 42.9636844, "longitude": 0.0382247, "elevation": 2003.0, "source": "osm", "_tags": {"ele": "2003", "name": "Pic du Mont", "natural": "peak"}}, {"name": "Pic de Campana", "latitude": 42.896403, "longitude": 0.13939, "elevation": 2369.0, "source": "osm", "_tags": {"ele": "2369", "name": "Pic de Campana", "natural": "peak"}}, {"name": "Soum du cot de l'espade", "latitude": 42.8898458, "longitude": 0.1562012, "elevation": 2641.0, "source": "osm", "_tags": {"ele": "2641", "name": "Soum du cot de l'espade", "natural": "peak"}}, {"name": "Pic du Contadé", "latitude": 42.8850475, "longitude": 0.1754178, "elevation": 2714.0, "source": "osm", "_tags": {"ele": "2714", "name": "Pic du Contadé", "natural": "peak"}}, {"name": "Pic de Cloutou", "latitude": 42.8772982, "longitude": 0.1940329, "elevation": null, "source": "osm", "_tags": {"name": "Pic de Cloutou", "natural": "peak"}}, {"name": "Tuhou du Cloutou", "latitude": 42.8738801, "longitude": 0.1994801, "elevation": 2568.0, "source": "osm", "_tags": {"ele": "2568", "name": "Tuhou du Cloutou", "natural": "peak"}}, {"name": "Pic de Portarras", "latitude": 42.8664966, "longitude": 0.2111341, "elevation": 2697.0, "source": "osm", "_tags": {"ele": "2697", "name": "Pic de Portarras", "natural": "peak"}}, {"name": "Pla de Pouy Caou", "latitude": 42.9446596, "longitude": 0.3025672, "elevation": 1441.0, "source": "osm", "_tags": {"ele": "1441", "name": "Pla de Pouy Caou", "natural": "peak"}}, {"name": "Marrougne", "latitude": 42.9635441, "longitude": 0.5125073, "elevation": 1405.0, "source": "osm", "_tags": {"ele": "1405", "name": "Marrougne", "natural": "peak"}}, {"name": "Pic de Douly", "latitude": 42.9665108, "longitude": 0.4920493, "elevation": 1630.0, "source": "osm", "_tags": {"ele": "1630", "name": "Pic de Douly", "natural": "peak"}}, {"name": "Pic de Belloc", "latitude": 42.9628127, "longitude": 0.4858031, "elevation": 1601.0, "source": "osm", "_tags": {"ele": "1601", "name": "Pic de Belloc", "natural": "peak"}}, {"name": "Sommet de cave de l'Eyde", "latitude": 42.9395221, "longitude": 0.4661492, "elevation": 1758.0, "source": "osm", "_tags": {"ele": "1758", "name": "Sommet de cave de l'Eyde", "natural": "peak"}}, {"name": "Sommet de Peberé", "latitude": 42.8948391, "longitude": 0.4643703, "elevation": 2078.0, "source": "osm", "_tags": {"ele": "2078", "name": "Sommet de Peberé", "natural": "peak"}}, {"name": "Hourgue de la Fousserette", "latitude": 42.8568217, "longitude": 0.4688924, "elevation": 2072.0, "source": "osm", "_tags": {"ele": "2072", "name": "Hourgue de la Fousserette", "natural": "peak"}}, {"name": "Sommet deres hèches", "latitude": 42.853507, "longitude": 0.4636184, "elevation": 2084.0, "source": "osm", "_tags": {"ele": "2084", "name": "Sommet deres hèches", "natural": "peak"}}, {"name": "Sommet du Tech", "latitude": 42.8568148, "longitude": 0.4542507, "elevation": 2138.0, "source": "osm", "_tags": {"ele": "2138", "name": "Sommet du Tech", "natural": "peak"}}, {"name": "Sommet de Pouyaué", "latitude": 42.8298973, "longitude": 0.458907, "elevation": 2062.0, "source": "osm", "_tags": {"ele": "2062", "name": "Sommet de Pouyaué", "natural": "peak"}}, {"name": "Pichaley", "latitude": 42.853469, "longitude": 0.2199188, "elevation": 2626.0, "source": "osm", "_tags": {"ele": "2626", "name": "Pichaley", "natural": "peak"}}, {"name": "Pic de Montarrouyes", "latitude": 42.8469595, "longitude": 0.2360016, "elevation": 2462.0, "source": "osm", "_tags": {"ele": "2462", "name": "Pic de Montarrouyes", "natural": "peak"}}, {"name": "Cap d'Esterdou", "latitude": 42.8260055, "longitude": 0.1866266, "elevation": 2296.0, "source": "osm", "_tags": {"ele": "2296", "name": "Cap d'Esterdou", "natural": "peak"}}, {"name": "Pic dets coubous", "latitude": 42.8579981, "longitude": 0.1327475, "elevation": 2647.0, "source": "osm", "_tags": {"ele": "2647", "name": "Pic dets coubous", "natural": "peak"}}, {"name": "Pic de la Mourèle", "latitude": 42.8502758, "longitude": 0.1125113, "elevation": 2679.0, "source": "osm", "_tags": {"ele": "2679", "name": "Pic de la Mourèle", "natural": "peak"}}, {"name": "Pic Costallat", "latitude": 42.9236949, "longitude": 0.1420032, "elevation": 2502.0, "source": "osm", "_tags": {"ele": "2502", "name": "Pic Costallat", "natural": "peak"}}, {"name": "Pic du Tourmalet", "latitude": 42.9201155, "longitude": 0.1429423, "elevation": 2486.0, "source": "osm", "_tags": {"ele": "2486", "name": "Pic du Tourmalet", "natural": "peak"}}, {"name": "Pla de Castet", "latitude": 42.9349984, "longitude": 0.2582397, "elevation": 1385.0, "source": "osm", "_tags": {"ele": "1385", "name": "Pla de Castet", "natural": "peak"}}, {"name": "Montagne de Billexe", "latitude": 43.014934, "longitude": 0.245588, "elevation": 1433.0, "source": "osm", "_tags": {"ele": "1433", "name": "Montagne de Billexe", "natural": "peak"}}, {"name": "Le Turon", "latitude": 43.1913964, "longitude": 0.0060346, "elevation": 384.0, "source": "osm", "_tags": {"ele": "384", "name": "Le Turon", "natural": "peak"}}, {"name": "Le Tucou", "latitude": 43.0481847, "longitude": 0.1358133, "elevation": 950.0, "source": "osm", "_tags": {"ele": "950", "name": "Le Tucou", "natural": "peak"}}, {"name": "Plo de Berdaoulou", "latitude": 42.972447, "longitude": 0.3343163, "elevation": 1781.0, "source": "osm", "_tags": {"ele": "1781", "name": "Plo de Berdaoulou", "natural": "peak"}}, {"name": "Soum de Terre Nère", "latitude": 42.8281558, "longitude": 0.2359848, "elevation": 2331.0, "source": "osm", "_tags": {"ele": "2331", "name": "Soum de Terre Nère", "natural": "peak"}}, {"name": "Bacivèr", "latitude": 42.8346845, "longitude": 0.8206165, "elevation": 2107.0, "source": "osm", "_tags": {"ele": "2107", "name": "Bacivèr", "name:ca": "Bacivèr", "name:oc": "Bacivèr", "natural": "peak"}}, {"name": "Magnouet", "latitude": 42.99714, "longitude": 0.64295, "elevation": 1006.0, "source": "osm", "_tags": {"ele": "1006", "name": "Magnouet", "natural": "peak"}}, {"name": "Plamajou", "latitude": 43.00984, "longitude": 0.64428, "elevation": 1041.0, "source": "osm", "_tags": {"ele": "1041", "name": "Plamajou", "natural": "peak"}}, {"name": "Pène Houssadet", "latitude": 42.8238067, "longitude": 0.2179514, "elevation": 2240.0, "source": "osm", "_tags": {"ele": "2240", "name": "Pène Houssadet", "natural": "peak"}}, {"name": "Cap de Pède", "latitude": 42.8387348, "longitude": 0.3022034, "elevation": 1634.0, "source": "osm", "_tags": {"ele": "1634", "name": "Cap de Pède", "natural": "peak"}}, {"name": "Pic Plumieres", "latitude": 42.8825878, "longitude": 0.7717215, "elevation": 1486.0, "source": "osm", "_tags": {"ele": "1486", "name": "Pic Plumieres", "natural": "peak"}}, {"name": "Peyre Blanque", "latitude": 42.8734452, "longitude": 0.3707629, "elevation": 1360.0, "source": "osm", "_tags": {"ele": "1360", "name": "Peyre Blanque", "natural": "peak"}}, {"name": "Pic de Pignaue", "latitude": 42.8734035, "longitude": 0.3667012, "elevation": 1326.0, "source": "osm", "_tags": {"ele": "1326", "name": "Pic de Pignaue", "natural": "peak"}}, {"name": "Cap de Trespadau", "latitude": 42.8491336, "longitude": 0.3909831, "elevation": 1677.0, "source": "osm", "_tags": {"ele": "1677", "name": "Cap de Trespadau", "natural": "peak"}}, {"name": "Cap de Tech", "latitude": 42.8311659, "longitude": 0.3846018, "elevation": 1678.0, "source": "osm", "_tags": {"ele": "1678", "name": "Cap de Tech", "natural": "peak"}}, {"name": "Pic du Mail des Morères", "latitude": 42.8943419, "longitude": 0.9412948, "elevation": 1618.0, "source": "osm", "_tags": {"ele": "1618", "name": "Pic du Mail des Morères", "natural": "peak"}}, {"name": "Coume Escure", "latitude": 42.8290266, "longitude": 0.3515506, "elevation": 1286.0, "source": "osm", "_tags": {"ele": "1286", "name": "Coume Escure", "natural": "peak"}}, {"name": "Pic de Montious", "latitude": 42.8617383, "longitude": 0.439874, "elevation": 2173.0, "source": "osm", "_tags": {"ele": "2173", "name": "Pic de Montious", "natural": "peak"}}, {"name": "", "latitude": 43.2197195, "longitude": 0.8800629, "elevation": null, "source": "osm", "_tags": {"natural": "peak"}}, {"name": "Pène de Caouapeyre", "latitude": 42.9921218, "longitude": -0.0140468, "elevation": 1712.0, "source": "osm", "_tags": {"ele": "1712", "name": "Pène de Caouapeyre", "natural": "peak"}}, {"name": "Couroualet", "latitude": 43.0433253, "longitude": 0.0362633, "elevation": 945.0, "source": "osm", "_tags": {"ele": "945", "name": "Couroualet", "natural": "peak", "ref:FR:FANTOIR": "65348B005M", "source": "cadastre-dgi-fr source : Direction Générale des Finances Publiques - Cadastre. Mise à jour : 2017"}}, {"name": "Premier Conseiller", "latitude": 42.8299126, "longitude": 0.1099062, "elevation": 3035.0, "source": "osm", "_tags": {"ele": "3035", "name": "Premier Conseiller", "natural": "peak"}}, {"name": "Cuq Crémail", "latitude": 43.015497, "longitude": 0.0530277, "elevation": 1691.0, "source": "osm", "_tags": {"ele": "1691", "name": "Cuq Crémail", "natural": "peak"}}, {"name": "Soum de Coumète de Manaout", "latitude": 42.9207281, "longitude": 0.0273719, "elevation": null, "source": "osm", "_tags": {"name": "Soum de Coumète de Manaout", "natural": "peak", "source": "Cadastre 2017"}}, {"name": "Soum de Domy", "latitude": 42.9168488, "longitude": 0.022139, "elevation": null, "source": "osm", "_tags": {"name": "Soum de Domy", "natural": "peak", "source": "Cadastre 2017"}}, {"name": "Soum de Tuque Roque", "latitude": 42.9150357, "longitude": 0.0156024, "elevation": null, "source": "osm", "_tags": {"name": "Soum de Tuque Roque", "natural": "peak", "source": "Cadastre 2017"}}, {"name": "Soum de Hérechets", "latitude": 42.8960001, "longitude": 0.0245127, "elevation": null, "source": "osm", "_tags": {"name": "Soum de Hérechets", "natural": "peak"}}, {"name": "Soum de Puyos", "latitude": 42.8924651, "longitude": 0.0293514, "elevation": null, "source": "osm", "_tags": {"name": "Soum de Puyos", "natural": "peak"}}, {"name": "Soum de Pène de Port", "latitude": 42.9095353, "longitude": 0.0069737, "elevation": null, "source": "osm", "_tags": {"name": "Soum de Pène de Port", "natural": "peak", "source": "Cadastre 2017"}}, {"name": "Soum de Maillebec", "latitude": 42.919035, "longitude": 0.0244081, "elevation": null, "source": "osm", "_tags": {"name": "Soum de Maillebec", "natural": "peak", "source": "Cadastre 2017"}}, {"name": "Le Monné", "latitude": 43.0353009, "longitude": 0.1385175, "elevation": 1259.0, "source": "osm", "_tags": {"ele": "1259", "name": "Le Monné", "natural": "peak"}}, {"name": "Le Petit Monné", "latitude": 43.034346, "longitude": 0.1469683, "elevation": 1172.0, "source": "osm", "_tags": {"ele": "1172", "name": "Le Petit Monné", "natural": "peak"}}, {"name": "Soum de Basta", "latitude": 43.0641571, "longitude": -0.007004, "elevation": 855.0, "source": "osm", "_tags": {"ele": "855", "name": "Soum de Basta", "natural": "peak", "ref:FR:FANTOIR": "65233B003K", "source": "cadastre-dgi-fr source : Direction Générale des Finances Publiques - Cadastre. Mise à jour : 2018"}}, {"name": "Soum de Caubi", "latitude": 43.065655, "longitude": -0.0152261, "elevation": 829.0, "source": "osm", "_tags": {"ele": "829", "name": "Soum de Caubi", "natural": "peak", "ref:FR:FANTOIR": "65233B008R", "source": "cadastre-dgi-fr source : Direction Générale des Finances Publiques - Cadastre. Mise à jour : 2018"}}, {"name": "le Buala", "latitude": 43.0787651, "longitude": -0.0148724, "elevation": 568.0, "source": "osm", "_tags": {"ele": "568", "name": "le Buala", "natural": "peak", "ref:FR:FANTOIR": "65233B005M", "source": "cadastre-dgi-fr source : Direction Générale des Finances Publiques - Cadastre. Mise à jour : 2018"}}, {"name": "Pic de la Touatère", "latitude": 42.87349, "longitude": 0.1328468, "elevation": null, "source": "osm", "_tags": {"name": "Pic de la Touatère", "natural": "peak"}}, {"name": "Pic d'Izes", "latitude": 42.8917748, "longitude": 0.1215707, "elevation": 2395.0, "source": "osm", "_tags": {"ele": "2395", "name": "Pic d'Izes", "natural": "peak"}}, {"name": "Pic d'Aumar", "latitude": 42.8515803, "longitude": 0.152067, "elevation": 2578.0, "source": "osm", "_tags": {"ele": "2578", "name": "Pic d'Aumar", "natural": "peak"}}, {"name": "Le Gourguet", "latitude": 42.8669557, "longitude": 0.179922, "elevation": null, "source": "osm", "_tags": {"name": "Le Gourguet", "natural": "peak"}}, {"name": "Pic de Cumiadères", "latitude": 42.8301092, "longitude": 0.0440051, "elevation": 2623.0, "source": "osm", "_tags": {"ele": "2623", "name": "Pic de Cumiadères", "natural": "peak", "source": "IGN"}}, {"name": "Mont Arrouy", "latitude": 42.8367833, "longitude": 0.0738054, "elevation": 2781.0, "source": "osm", "_tags": {"ele": "2781", "name": "Mont Arrouy", "natural": "peak", "prominence": "272", "source": "IGN", "source:prominence": "IGN map. Key col: Col de Rabiet 2509m"}}, {"name": "Honteyde", "latitude": 42.8359977, "longitude": 0.5046014, "elevation": 1912.0, "source": "osm", "_tags": {"ele": "1912", "name": "Honteyde", "natural": "peak"}}, {"name": "Cap de Salière", "latitude": 42.8277416, "longitude": 0.5750025, "elevation": 1774.0, "source": "osm", "_tags": {"ele": "1774", "name": "Cap de Salière", "natural": "peak"}}, {"name": "Cap de Laragouère", "latitude": 42.8324307, "longitude": 0.5717486, "elevation": 1793.0, "source": "osm", "_tags": {"ele": "1793", "name": "Cap de Laragouère", "natural": "peak"}}, {"name": "Cap de la Coume de Mourdère", "latitude": 42.8362487, "longitude": 0.5708298, "elevation": 1830.0, "source": "osm", "_tags": {"ele": "1830", "name": "Cap de la Coume de Mourdère", "natural": "peak"}}, {"name": "Cap de la Pique", "latitude": 42.8452138, "longitude": 0.5672032, "elevation": 1878.0, "source": "osm", "_tags": {"ele": "1878", "name": "Cap de la Pique", "natural": "peak"}}, {"name": "Cap de Bassias", "latitude": 42.8477517, "longitude": 0.5688281, "elevation": 1890.0, "source": "osm", "_tags": {"ele": "1890", "name": "Cap de Bassias", "natural": "peak"}}, {"name": "Cap de la Passade des Agnères", "latitude": 42.852513, "longitude": 0.5673317, "elevation": null, "source": "osm", "_tags": {"name": "Cap de la Passade des Agnères", "natural": "peak"}}, {"name": "Sommet des Conques", "latitude": 42.8607832, "longitude": 0.5623555, "elevation": 1965.0, "source": "osm", "_tags": {"ele": "1965", "name": "Sommet des Conques", "natural": "peak"}}, {"name": "Sommet de la Serre Traversière", "latitude": 42.8602851, "longitude": 0.5540069, "elevation": 1916.0, "source": "osm", "_tags": {"ele": "1916", "name": "Sommet de la Serre Traversière", "natural": "peak"}}, {"name": "Mail de Salières", "latitude": 42.8649079, "longitude": 0.5490464, "elevation": 1893.0, "source": "osm", "_tags": {"ele": "1893", "name": "Mail de Salières", "natural": "peak"}}, {"name": "Cap de Serrède", "latitude": 42.8612904, "longitude": 0.534246, "elevation": 1855.0, "source": "osm", "_tags": {"ele": "1855", "name": "Cap de Serrède", "natural": "peak"}}, {"name": "Cap des Barres", "latitude": 42.863106, "longitude": 0.5154512, "elevation": 1761.0, "source": "osm", "_tags": {"ele": "1761", "name": "Cap des Barres", "natural": "peak"}}, {"name": "Mail de Sapène", "latitude": 42.864207, "longitude": 0.5098667, "elevation": 1733.0, "source": "osm", "_tags": {"ele": "1733", "name": "Mail de Sapène", "natural": "peak"}}, {"name": "Pouy Guillé", "latitude": 42.8672366, "longitude": 0.5703365, "elevation": 1916.0, "source": "osm", "_tags": {"ele": "1916", "name": "Pouy Guillé", "natural": "peak"}}, {"name": "Sommet de Hourdouch", "latitude": 42.8710249, "longitude": 0.5754563, "elevation": 1781.0, "source": "osm", "_tags": {"ele": "1781", "name": "Sommet de Hourdouch", "natural": "peak"}}, {"name": "Montagne de Lège", "latitude": 42.8830985, "longitude": 0.5778542, "elevation": 1738.0, "source": "osm", "_tags": {"ele": "1738", "name": "Montagne de Lège", "natural": "peak"}}, {"name": "Soum d'Arraït", "latitude": 42.8948148, "longitude": 0.5845856, "elevation": 1553.0, "source": "osm", "_tags": {"ele": "1553", "name": "Soum d'Arraït", "natural": "peak"}}, {"name": "Cap du Mont", "latitude": 42.9012798, "longitude": 0.5855553, "elevation": 1481.0, "source": "osm", "_tags": {"ele": "1481", "name": "Cap du Mont", "natural": "peak"}}, {"name": "Mail de la Madeleine", "latitude": 42.9045263, "longitude": 0.5880645, "elevation": 1503.0, "source": "osm", "_tags": {"ele": "1503", "name": "Mail de la Madeleine", "natural": "peak"}}, {"name": "Sommet de l'Oudérou", "latitude": 42.9081738, "longitude": 0.5917243, "elevation": 1620.0, "source": "osm", "_tags": {"ele": "1620", "name": "Sommet de l'Oudérou", "natural": "peak"}}, {"name": "Sommet de la Réouère de Binos", "latitude": 42.9109606, "longitude": 0.5962843, "elevation": 1600.0, "source": "osm", "_tags": {"ele": "1600", "name": "Sommet de la Réouère de Binos", "natural": "peak"}}, {"name": "Soum d'Olive", "latitude": 42.9295462, "longitude": 0.6030345, "elevation": 1609.0, "source": "osm", "_tags": {"ele": "1609", "name": "Soum d'Olive", "natural": "peak"}}, {"name": "Sommet d'Esclete", "latitude": 42.9344732, "longitude": 0.6059317, "elevation": 1587.0, "source": "osm", "_tags": {"ele": "1587", "name": "Sommet d'Esclete", "natural": "peak"}}, {"name": "Sommet de Cot de Coudous", "latitude": 42.9364712, "longitude": 0.6152218, "elevation": 1503.0, "source": "osm", "_tags": {"ele": "1503", "name": "Sommet de Cot de Coudous", "natural": "peak"}}, {"name": "Sommet de Culo", "latitude": 42.9331119, "longitude": 0.6289625, "elevation": 1060.0, "source": "osm", "_tags": {"ele": "1060", "name": "Sommet de Culo", "natural": "peak"}}, {"name": "Mail de Serre", "latitude": 42.9331671, "longitude": 0.637151, "elevation": 938.0, "source": "osm", "_tags": {"ele": "938", "name": "Mail de Serre", "natural": "peak"}}, {"name": "Montagne de Rié", "latitude": 42.9111919, "longitude": 0.6783144, "elevation": 1130.0, "source": "osm", "_tags": {"ele": "1130", "name": "Montagne de Rié", "natural": "peak"}}, {"name": "Mail Blanc", "latitude": 42.9080307, "longitude": 0.6802472, "elevation": 971.0, "source": "osm", "_tags": {"ele": "971", "name": "Mail Blanc", "natural": "peak"}}, {"name": "Cap des Picons", "latitude": 42.9034312, "longitude": 0.6784523, "elevation": 1071.0, "source": "osm", "_tags": {"ele": "1071", "name": "Cap des Picons", "natural": "peak"}}, {"name": "Cap de Tus", "latitude": 42.894232, "longitude": 0.6829942, "elevation": null, "source": "osm", "_tags": {"name": "Cap de Tus", "natural": "peak"}}, {"name": "Pic de Tucoulet", "latitude": 42.8800062, "longitude": 0.6796058, "elevation": 1553.0, "source": "osm", "_tags": {"ele": "1553", "name": "Pic de Tucoulet", "natural": "peak"}}, {"name": "Pic du Pouch", "latitude": 42.8805032, "longitude": 0.6897737, "elevation": 1473.0, "source": "osm", "_tags": {"ele": "1473", "name": "Pic du Pouch", "natural": "peak"}}, {"name": "Cap des Piches", "latitude": 42.8755461, "longitude": 0.6836562, "elevation": 1716.0, "source": "osm", "_tags": {"ele": "1716", "name": "Cap des Piches", "natural": "peak"}}, {"name": "Pic de la Parquère", "latitude": 42.8690385, "longitude": 0.6810195, "elevation": 1858.0, "source": "osm", "_tags": {"ele": "1858", "name": "Pic de la Parquère", "natural": "peak"}}, {"name": "Cap de Monts Sec", "latitude": 42.8682541, "longitude": 0.6763583, "elevation": 1861.0, "source": "osm", "_tags": {"ele": "1861", "name": "Cap de Monts Sec", "natural": "peak"}}, {"name": "Pic de la Hage", "latitude": 42.855058, "longitude": 0.6764797, "elevation": 2165.0, "source": "osm", "_tags": {"ele": "2165", "name": "Pic de la Hage", "natural": "peak"}}, {"name": "Pujau", "latitude": 42.942957, "longitude": 0.5817654, "elevation": 905.0, "source": "osm", "_tags": {"ele": "905", "name": "Pujau", "natural": "peak"}}, {"name": "Pic de Jourda", "latitude": 42.9443607, "longitude": 0.5477021, "elevation": 1038.0, "source": "osm", "_tags": {"ele": "1038", "name": "Pic de Jourda", "natural": "peak"}}, {"name": "Pic de Picharet", "latitude": 42.9405536, "longitude": 0.5478963, "elevation": 1083.0, "source": "osm", "_tags": {"ele": "1083", "name": "Pic de Picharet", "natural": "peak"}}, {"name": "Pic de la Mérite", "latitude": 42.9335508, "longitude": 0.5385567, "elevation": 1612.0, "source": "osm", "_tags": {"ele": "1612", "name": "Pic de la Mérite", "natural": "peak"}}, {"name": "pic du Couret Medan", "latitude": 42.9190422, "longitude": 0.5319509, "elevation": 1450.0, "source": "osm", "_tags": {"ele": "1450", "name": "pic du Couret Medan", "natural": "peak"}}, {"name": "Cap de Sarrustach", "latitude": 42.9083445, "longitude": 0.4981849, "elevation": 1654.0, "source": "osm", "_tags": {"ele": "1654", "name": "Cap de Sarrustach", "natural": "peak"}}, {"name": "Montagne de Hontagnère", "latitude": 42.902069, "longitude": 0.4845615, "elevation": 1852.0, "source": "osm", "_tags": {"ele": "1852", "name": "Montagne de Hontagnère", "natural": "peak"}}, {"name": "Cap de Hount Sec", "latitude": 42.906453, "longitude": 0.4706847, "elevation": null, "source": "osm", "_tags": {"name": "Cap de Hount Sec", "natural": "peak"}}, {"name": "Mail d'Hachan", "latitude": 42.9157156, "longitude": 0.4762107, "elevation": 1649.0, "source": "osm", "_tags": {"ele": "1649", "name": "Mail d'Hachan", "natural": "peak"}}, {"name": "Montagne du Pin", "latitude": 42.9080261, "longitude": 0.4579048, "elevation": 2001.0, "source": "osm", "_tags": {"ele": "2001", "name": "Montagne du Pin", "natural": "peak"}}, {"name": "Montagne de Cardouet", "latitude": 42.8857055, "longitude": 0.4760423, "elevation": 2076.0, "source": "osm", "_tags": {"ele": "2076", "name": "Montagne de Cardouet", "natural": "peak"}}, {"name": "Cap de la Péne", "latitude": 42.8730255, "longitude": 0.4750166, "elevation": 2040.0, "source": "osm", "_tags": {"ele": "2040", "name": "Cap de la Péne", "natural": "peak"}}, {"name": "Cap du pré de Rouquet", "latitude": 42.8327305, "longitude": 0.4830648, "elevation": 1773.0, "source": "osm", "_tags": {"ele": "1773", "name": "Cap du pré de Rouquet", "natural": "peak"}}, {"name": "Coum de Herrère", "latitude": 42.8322755, "longitude": 0.5190413, "elevation": 1841.0, "source": "osm", "_tags": {"ele": "1841", "name": "Coum de Herrère", "natural": "peak"}}, {"name": "Pène d'Escalaruc", "latitude": 42.8331209, "longitude": 0.5288204, "elevation": null, "source": "osm", "_tags": {"name": "Pène d'Escalaruc", "natural": "peak"}}, {"name": "Cap de Sestignes", "latitude": 42.8294768, "longitude": 0.5361746, "elevation": 1627.0, "source": "osm", "_tags": {"ele": "1627", "name": "Cap de Sestignes", "natural": "peak"}}, {"name": "Pic de Granous", "latitude": 42.9611027, "longitude": 0.9145545, "elevation": 1227.0, "source": "osm", "_tags": {"ele": "1227", "name": "Pic de Granous", "natural": "peak"}}, {"name": "Cap de Moumou", "latitude": 43.0441977, "longitude": 0.5314529, "elevation": 753.0, "source": "osm", "_tags": {"ele": "753", "name": "Cap de Moumou", "natural": "peak"}}, {"name": "Le Picon", "latitude": 43.050921, "longitude": 0.5322254, "elevation": 783.0, "source": "osm", "_tags": {"ele": "783", "name": "Le Picon", "natural": "peak"}}, {"name": "Pic de Bastan d’Aulon", "latitude": 42.8623702, "longitude": 0.217728, "elevation": 2721.0, "source": "osm", "_tags": {"ele": "2721", "name": "Pic de Bastan d’Aulon", "natural": "peak", "prominence": "211", "source": "Institut géographique national", "source:prominence": "IGN map. Key col: 2510m"}}, {"name": "", "latitude": 43.060265, "longitude": 0.3045128, "elevation": null, "source": "osm", "_tags": {"natural": "peak"}}, {"name": "", "latitude": 42.8491036, "longitude": 0.1193779, "elevation": 2562.0, "source": "osm", "_tags": {"ele": "2562", "natural": "peak"}}, {"name": "Pic d'Estéred", "latitude": 42.8540496, "longitude": 0.1276215, "elevation": 2599.0, "source": "osm", "_tags": {"ele": "2599", "name": "Pic d'Estéred", "natural": "peak"}}, {"name": "Pène Lounque", "latitude": 42.9463411, "longitude": 0.1829652, "elevation": 2275.0, "source": "osm", "_tags": {"ele": "2275", "name": "Pène Lounque", "natural": "peak"}}, {"name": "Le Tuco", "latitude": 42.9589619, "longitude": 0.2149789, "elevation": 1624.0, "source": "osm", "_tags": {"ele": "1624", "name": "Le Tuco", "natural": "peak"}}, {"name": "Pène nère", "latitude": 42.9556432, "longitude": 0.1729664, "elevation": 2069.0, "source": "osm", "_tags": {"ele": "2069", "name": "Pène nère", "natural": "peak"}}, {"name": "Pène de bourg", "latitude": 42.9688806, "longitude": 0.1848196, "elevation": 1328.0, "source": "osm", "_tags": {"ele": "1328", "name": "Pène de bourg", "natural": "peak"}}, {"name": "Tuc de Pujatech", "latitude": 42.8791398, "longitude": 0.9081726, "elevation": 1681.0, "source": "osm", "_tags": {"ele": "1681", "name": "Tuc de Pujatech", "natural": "peak"}}, {"name": "Péne Oubac", "latitude": 43.0212211, "longitude": 0.2056517, "elevation": 1371.0, "source": "osm", "_tags": {"ele": "1371", "name": "Péne Oubac", "natural": "peak"}}, {"name": "Cap de las Penas", "latitude": 43.0283768, "longitude": 0.2288855, "elevation": 1138.0, "source": "osm", "_tags": {"ele": "1138", "name": "Cap de las Penas", "natural": "peak"}}, {"name": "Mail Ardoun", "latitude": 43.030458, "longitude": 0.2269736, "elevation": 1092.0, "source": "osm", "_tags": {"ele": "1092", "name": "Mail Ardoun", "natural": "peak"}}, {"name": "Cap de Picadés", "latitude": 43.0349392, "longitude": 0.2099119, "elevation": 1196.0, "source": "osm", "_tags": {"ele": "1196", "name": "Cap de Picadés", "natural": "peak"}}, {"name": "Le Turonnet", "latitude": 43.043612, "longitude": 0.2083533, "elevation": 949.0, "source": "osm", "_tags": {"ele": "949", "name": "Le Turonnet", "natural": "peak"}}, {"name": "Cap de Lasserre", "latitude": 43.0478037, "longitude": 0.2097457, "elevation": 824.0, "source": "osm", "_tags": {"ele": "824", "name": "Cap de Lasserre", "natural": "peak"}}, {"name": "Cap de Castet", "latitude": 43.046528, "longitude": 0.1960715, "elevation": 1029.0, "source": "osm", "_tags": {"ele": "1029", "name": "Cap de Castet", "natural": "peak"}}, {"name": "La Lizaou", "latitude": 43.0469988, "longitude": 0.1864496, "elevation": 973.0, "source": "osm", "_tags": {"ele": "973", "name": "La Lizaou", "natural": "peak"}}, {"name": "La Soumère", "latitude": 43.0519952, "longitude": 0.18061, "elevation": 853.0, "source": "osm", "_tags": {"ele": "853", "name": "La Soumère", "natural": "peak"}}, {"name": "Tuco de lazat", "latitude": 43.0476008, "longitude": 0.1071239, "elevation": 968.0, "source": "osm", "_tags": {"ele": "968", "name": "Tuco de lazat", "natural": "peak"}}, {"name": "Le Castelmouly", "latitude": 43.0416489, "longitude": 0.1222882, "elevation": 1137.0, "source": "osm", "_tags": {"ele": "1137", "name": "Le Castelmouly", "natural": "peak"}}, {"name": "Escalère de Coume Nère", "latitude": 43.0015476, "longitude": 0.5423031, "elevation": 1037.0, "source": "osm", "_tags": {"ele": "1037", "name": "Escalère de Coume Nère", "natural": "peak"}}, {"name": "Tuc aux Pentières", "latitude": 42.9686766, "longitude": 0.9622644, "elevation": 1328.0, "source": "osm", "_tags": {"ele": "1328", "name": "Tuc aux Pentières", "natural": "peak"}}, {"name": "Sommet de l'Herbe Blanche", "latitude": 42.9706108, "longitude": 0.9648528, "elevation": 1242.0, "source": "osm", "_tags": {"ele": "1242", "name": "Sommet de l'Herbe Blanche", "natural": "peak"}}, {"name": "Mont Aragnoué", "latitude": 43.0074886, "longitude": 0.9191487, "elevation": null, "source": "osm", "_tags": {"name": "Mont Aragnoué", "natural": "peak"}}, {"name": "Pic de la Mède", "latitude": 42.8459106, "longitude": 0.8693024, "elevation": 2044.0, "source": "osm", "_tags": {"ele": "2044", "name": "Pic de la Mède", "natural": "peak"}}, {"name": "", "latitude": 42.8480229, "longitude": 0.8744912, "elevation": 1855.0, "source": "osm", "_tags": {"ele": "1855", "natural": "peak"}}, {"name": "", "latitude": 42.8477419, "longitude": 0.8542231, "elevation": 1981.0, "source": "osm", "_tags": {"ele": "1981", "natural": "peak"}}, {"name": "", "latitude": 42.8428068, "longitude": 0.4906737, "elevation": 1938.0, "source": "osm", "_tags": {"ele": "1938", "natural": "peak"}}, {"name": "", "latitude": 42.8388422, "longitude": 0.4973134, "elevation": 1918.0, "source": "osm", "_tags": {"ele": "1918", "natural": "peak"}}, {"name": "", "latitude": 42.8339541, "longitude": 0.4982967, "elevation": 1918.0, "source": "osm", "_tags": {"ele": "1918", "natural": "peak"}}, {"name": "", "latitude": 42.832344, "longitude": 0.4986205, "elevation": 1881.0, "source": "osm", "_tags": {"ele": "1881", "natural": "peak"}}, {"name": "", "latitude": 43.3324534, "longitude": 0.1457539, "elevation": 310.0, "source": "osm", "_tags": {"ele": "310", "natural": "peak"}}, {"name": "Cap de l'Empaillou", "latitude": 42.8302728, "longitude": 0.9649443, "elevation": 1838.0, "source": "osm", "_tags": {"ele": "1838", "name": "Cap de l'Empaillou", "natural": "peak"}}, {"name": "Tuc des Pans", "latitude": 42.8705724, "longitude": 0.8931606, "elevation": 1951.0, "source": "osm", "_tags": {"ele": "1951", "name": "Tuc des Pans", "natural": "peak"}}, {"name": "Tuc de Lourech", "latitude": 42.8740029, "longitude": 0.9036238, "elevation": 1754.0, "source": "osm", "_tags": {"ele": "1754", "name": "Tuc de Lourech", "natural": "peak"}}, {"name": "Tuc de la Ruère", "latitude": 42.8477979, "longitude": 0.9629406, "elevation": 1683.0, "source": "osm", "_tags": {"ele": "1683", "name": "Tuc de la Ruère", "natural": "peak"}}, {"name": "Tuc de la Pale", "latitude": 42.8387763, "longitude": 0.9604425, "elevation": 1767.0, "source": "osm", "_tags": {"ele": "1767", "name": "Tuc de la Pale", "natural": "peak"}}, {"name": "Bourdallé", "latitude": 42.9415912, "longitude": 0.8580881, "elevation": 1055.0, "source": "osm", "_tags": {"ele": "1055", "name": "Bourdallé", "natural": "peak"}}, {"name": "", "latitude": 42.9259094, "longitude": 0.8449754, "elevation": 1448.0, "source": "osm", "_tags": {"ele": "1448", "natural": "peak"}}, {"name": "Tucole de Paillère", "latitude": 42.8896939, "longitude": 0.8440769, "elevation": 1724.0, "source": "osm", "_tags": {"ele": "1724", "name": "Tucole de Paillère", "natural": "peak"}}, {"name": "Pale Grande", "latitude": 42.8982964, "longitude": 0.8390172, "elevation": 1621.0, "source": "osm", "_tags": {"ele": "1621", "name": "Pale Grande", "natural": "peak"}}, {"name": "Mail de l'Aube", "latitude": 42.921473, "longitude": 0.8625298, "elevation": 1167.0, "source": "osm", "_tags": {"ele": "1167", "name": "Mail de l'Aube", "natural": "peak"}}, {"name": "Tuc de la Pale Pouch", "latitude": 42.9235794, "longitude": 0.8422725, "elevation": 1478.0, "source": "osm", "_tags": {"ele": "1478", "name": "Tuc de la Pale Pouch", "natural": "peak"}}, {"name": "Tuc de Puja Ech", "latitude": 42.8553283, "longitude": 0.9531371, "elevation": 1586.0, "source": "osm", "_tags": {"ele": "1586", "name": "Tuc de Puja Ech", "natural": "peak"}}, {"name": "Tuc de la Roucasse", "latitude": 42.8381678, "longitude": 0.9259602, "elevation": null, "source": "osm", "_tags": {"name": "Tuc de la Roucasse", "natural": "peak"}}, {"name": "Tuc des Ours", "latitude": 42.8355657, "longitude": 0.9142148, "elevation": null, "source": "osm", "_tags": {"name": "Tuc des Ours", "natural": "peak"}}, {"name": "Pic Long", "latitude": 42.8377298, "longitude": 0.8905081, "elevation": 2232.0, "source": "osm", "_tags": {"ele": "2232", "name": "Pic Long", "natural": "peak"}}, {"name": "Pic de Lanères", "latitude": 42.8382426, "longitude": 0.8599333, "elevation": null, "source": "osm", "_tags": {"name": "Pic de Lanères", "natural": "peak"}}, {"name": "Pic de Birens", "latitude": 42.8492361, "longitude": 0.8768024, "elevation": 1806.0, "source": "osm", "_tags": {"ele": "1806", "name": "Pic de Birens", "natural": "peak"}}, {"name": "Pic des Coupets", "latitude": 42.8444636, "longitude": 0.8384897, "elevation": 2105.0, "source": "osm", "_tags": {"ele": "2105", "name": "Pic des Coupets", "natural": "peak"}}, {"name": "Canau Grande", "latitude": 42.8412254, "longitude": 0.8474089, "elevation": 2202.0, "source": "osm", "_tags": {"ele": "2202", "name": "Canau Grande", "natural": "peak"}}, {"name": "Pic de Huradic", "latitude": 42.8359174, "longitude": 0.8219286, "elevation": 2056.0, "source": "osm", "_tags": {"ele": "2056", "name": "Pic de Huradic", "natural": "peak"}}, {"name": "Pic de Taillare", "latitude": 42.8548232, "longitude": 0.8319155, "elevation": null, "source": "osm", "_tags": {"name": "Pic de Taillare", "natural": "peak"}}, {"name": "Tuc de Bouc", "latitude": 42.83935, "longitude": 0.8568679, "elevation": 2277.0, "source": "osm", "_tags": {"ele": "2277", "name": "Tuc de Bouc", "natural": "peak"}}, {"name": "Pic de la Malède", "latitude": 42.8520891, "longitude": 0.8365089, "elevation": 1964.0, "source": "osm", "_tags": {"ele": "1964", "name": "Pic de la Malède", "natural": "peak"}}, {"name": "Tuc des Cos", "latitude": 42.8508875, "longitude": 0.9048416, "elevation": 1571.0, "source": "osm", "_tags": {"ele": "1571", "name": "Tuc des Cos", "natural": "peak"}}, {"name": "Cap des Tucs", "latitude": 42.8537278, "longitude": 0.9087063, "elevation": 1568.0, "source": "osm", "_tags": {"ele": "1568", "name": "Cap des Tucs", "natural": "peak"}}, {"name": "Mail de Hard", "latitude": 43.0191472, "longitude": 0.5574524, "elevation": 819.0, "source": "osm", "_tags": {"ele": "819", "name": "Mail de Hard", "natural": "peak"}}, {"name": "", "latitude": 42.982923, "longitude": 0.0682662, "elevation": 2339.0, "source": "osm", "_tags": {"ele": "2339", "natural": "peak"}}, {"name": "", "latitude": 42.9631952, "longitude": 0.0226997, "elevation": null, "source": "osm", "_tags": {"natural": "peak"}}, {"name": "Tuc de l'Homme Mort", "latitude": 42.9792052, "longitude": 0.9561968, "elevation": 1033.0, "source": "osm", "_tags": {"ele": "1033", "name": "Tuc de l'Homme Mort", "natural": "peak"}}, {"name": "", "latitude": 42.8687588, "longitude": 0.513104, "elevation": 1832.0, "source": "osm", "_tags": {"ele": "1832", "natural": "peak"}}, {"name": "", "latitude": 42.8643931, "longitude": 0.4959809, "elevation": 1683.0, "source": "osm", "_tags": {"ele": "1683", "natural": "peak"}}, {"name": "Sommet de Gert", "latitude": 42.9818111, "longitude": 0.6131161, "elevation": 1018.0, "source": "osm", "_tags": {"ele": "1018", "name": "Sommet de Gert", "natural": "peak"}}, {"name": "Pic de Lauech", "latitude": 42.8864811, "longitude": 0.8866011, "elevation": 1432.0, "source": "osm", "_tags": {"ele": "1432", "name": "Pic de Lauech", "natural": "peak"}}, {"name": "", "latitude": 43.0547774, "longitude": 0.5435807, "elevation": 577.0, "source": "osm", "_tags": {"ele": "577", "natural": "peak"}}, {"name": "Montégut", "latitude": 42.9636853, "longitude": 0.7328439, "elevation": 981.0, "source": "osm", "_tags": {"ele": "981", "name": "Montégut", "natural": "peak"}}, {"name": "Mail de Laroque", "latitude": 42.8952724, "longitude": 0.9220405, "elevation": 1397.0, "source": "osm", "_tags": {"ele": "1397", "name": "Mail de Laroque", "natural": "peak"}}, {"name": "Pic de Tourmas", "latitude": 42.8898719, "longitude": 0.9224655, "elevation": 1292.0, "source": "osm", "_tags": {"ele": "1292", "name": "Pic de Tourmas", "natural": "peak"}}, {"name": "", "latitude": 42.9748801, "longitude": 0.2961502, "elevation": 1865.0, "source": "osm", "_tags": {"ele": "1865", "natural": "peak"}}, {"name": "Montarrouyet", "latitude": 42.8496425, "longitude": 0.2293167, "elevation": 2473.0, "source": "osm", "_tags": {"ele": "2473", "name": "Montarrouyet", "natural": "peak"}}, {"name": "Pics de Virennes", "latitude": 42.8338197, "longitude": 0.9642003, "elevation": 1793.0, "source": "osm", "_tags": {"ele": "1793", "name": "Pics de Virennes", "natural": "peak"}}, {"name": "Moulidé", "latitude": 43.0420241, "longitude": 0.5400295, "elevation": 639.0, "source": "osm", "_tags": {"ele": "639", "name": "Moulidé", "natural": "peak"}}, {"name": "Tucot de la Courbe", "latitude": 42.8612619, "longitude": 0.0260749, "elevation": 1807.0, "source": "osm", "_tags": {"ele": "1807", "name": "Tucot de la Courbe", "natural": "peak"}}, {"name": "Mount Agut", "latitude": 42.8566428, "longitude": 0.0464979, "elevation": 2157.0, "source": "osm", "_tags": {"ele": "2157", "name": "Mount Agut", "natural": "peak"}}, {"name": "Soum de la Courbe", "latitude": 42.8605117, "longitude": 0.0304411, "elevation": 1989.0, "source": "osm", "_tags": {"ele": "1989", "name": "Soum de la Courbe", "natural": "peak"}}, {"name": "Pic des Quettes", "latitude": 43.0263218, "longitude": 0.6384408, "elevation": 890.0, "source": "osm", "_tags": {"ele": "890", "name": "Pic des Quettes", "natural": "peak"}}, {"name": "Le Plech", "latitude": 43.0439664, "longitude": 0.7311273, "elevation": 572.0, "source": "osm", "_tags": {"ele": "572", "name": "Le Plech", "natural": "peak"}}, {"name": "La Tougne du Milieu", "latitude": 42.9243724, "longitude": 0.1172006, "elevation": 2241.0, "source": "osm", "_tags": {"ele": "2241", "name": "La Tougne du Milieu", "natural": "peak"}}, {"name": "Pic de Pan", "latitude": 42.8984359, "longitude": 0.754556, "elevation": 1734.0, "source": "osm", "_tags": {"ele": "1734", "name": "Pic de Pan", "natural": "peak"}}, {"name": "Tuc de la Core de Léat", "latitude": 42.8581104, "longitude": 0.9119732, "elevation": 1704.0, "source": "osm", "_tags": {"ele": "1704", "name": "Tuc de la Core de Léat", "natural": "peak"}}, {"name": "Pic de Bénaquès", "latitude": 42.9798407, "longitude": 0.0765019, "elevation": 2023.0, "source": "osm", "_tags": {"ele": "2023", "name": "Pic de Bénaquès", "natural": "peak"}}, {"name": "Sommet d’Herbe Rouge", "latitude": 42.9757002, "longitude": 0.5922856, "elevation": 1052.0, "source": "osm", "_tags": {"ele": "1052", "name": "Sommet d’Herbe Rouge", "natural": "peak"}}, {"name": "Pic de Picarre", "latitude": 42.9933086, "longitude": 0.4801907, "elevation": 1368.0, "source": "osm", "_tags": {"ele": "1368", "name": "Pic de Picarre", "natural": "peak"}}, {"name": "Pic de Mont Caup", "latitude": 43.0053275, "longitude": 0.5148717, "elevation": 1246.0, "source": "osm", "_tags": {"ele": "1246", "name": "Pic de Mont Caup", "natural": "peak"}}, {"name": "Pic de Cau", "latitude": 43.0004198, "longitude": 0.5536968, "elevation": 1080.0, "source": "osm", "_tags": {"ele": "1080", "historic": "wayside_cross", "name": "Pic de Cau", "natural": "peak"}}, {"name": "Pic de Mont Aspet", "latitude": 42.9523077, "longitude": 0.4784499, "elevation": 1849.0, "source": "osm", "_tags": {"ele": "1849", "name": "Pic de Mont Aspet", "natural": "peak"}}, {"name": "Tourroc", "latitude": 42.9814789, "longitude": 0.5376818, "elevation": 1541.0, "source": "osm", "_tags": {"ele": "1541", "name": "Tourroc", "natural": "peak"}}, {"name": "Pic de Campoun", "latitude": 43.0168509, "longitude": 0.6958854, "elevation": 880.0, "source": "osm", "_tags": {"ele": "880", "name": "Pic de Campoun", "natural": "peak"}}, {"name": "Pic Saillant", "latitude": 42.9485547, "longitude": 0.6962308, "elevation": 1762.0, "source": "osm", "_tags": {"ele": "1762", "name": "Pic Saillant", "natural": "peak", "note": "Pic du Gar ou Pic Saillant ? IGN les indique inversés !...", "wikidata": "Q3382332"}}, {"name": "Pic du Gar", "latitude": 42.9502913, "longitude": 0.6987221, "elevation": 1785.0, "source": "osm", "_tags": {"ele": "1785", "name": "Pic du Gar", "natural": "peak", "note": "Pic du Gar ou Pic Saillant ? IGN les indique inversés !...", "wikidata": "Q3382425"}}, {"name": "", "latitude": 43.0568872, "longitude": 0.6151374, "elevation": 714.0, "source": "osm", "_tags": {"ele": "714", "natural": "peak"}}, {"name": "1521", "latitude": 42.8381275, "longitude": 0.639493, "elevation": null, "source": "osm", "_tags": {"name": "1521", "natural": "peak"}}, {"name": "1888", "latitude": 42.8288771, "longitude": 0.6417346, "elevation": null, "source": "osm", "_tags": {"name": "1888", "natural": "peak"}}, {"name": "Tor de Cabrèra", "latitude": 42.826852, "longitude": 0.855309, "elevation": 2553.0, "source": "osm", "_tags": {"ele": "2553", "name": "Tor de Cabrèra", "natural": "peak"}}, {"name": "Tuc dera Comassa", "latitude": 42.828718, "longitude": 0.840537, "elevation": 2247.0, "source": "osm", "_tags": {"ele": "2247", "name": "Tuc dera Comassa", "natural": "peak"}}, {"name": "Mont Olivet", "latitude": 43.0642302, "longitude": 0.1328132, "elevation": null, "source": "osm", "_tags": {"name": "Mont Olivet", "natural": "peak"}}, {"name": "Mont Tailhet", "latitude": 43.0622305, "longitude": 0.1291749, "elevation": 844.0, "source": "osm", "_tags": {"ele": "844", "name": "Mont Tailhet", "natural": "peak"}}, {"name": "Plan des Sédères", "latitude": 42.8754586, "longitude": 0.817733, "elevation": null, "source": "osm", "_tags": {"name": "Plan des Sédères", "natural": "peak"}}, {"name": "Pic de Prada", "latitude": 42.8693012, "longitude": 0.2148528, "elevation": 2712.0, "source": "osm", "_tags": {"alt_name": "Pic d'Arroque", "ele": "2712", "name": "Pic de Prada", "natural": "peak"}}, {"name": "Monné Rouye", "latitude": 42.9512499, "longitude": 0.3190137, "elevation": 1755.0, "source": "osm", "_tags": {"ele": "1755", "name": "Monné Rouye", "natural": "peak"}}, {"name": "le Crébissou", "latitude": 42.8857804, "longitude": 0.3590375, "elevation": 1090.0, "source": "osm", "_tags": {"ele": "1090", "name": "le Crébissou", "natural": "peak"}}, {"name": "mont Gaillard", "latitude": 42.8894393, "longitude": 0.3646807, "elevation": 1178.0, "source": "osm", "_tags": {"ele": "1178", "name": "mont Gaillard", "natural": "peak"}}, {"name": "la Soulane", "latitude": 42.884447, "longitude": 0.3759365, "elevation": 1074.0, "source": "osm", "_tags": {"ele": "1074", "name": "la Soulane", "natural": "peak"}}, {"name": "Pla de la Coume Sourde", "latitude": 42.8615508, "longitude": 0.3793903, "elevation": null, "source": "osm", "_tags": {"name": "Pla de la Coume Sourde", "natural": "peak"}}, {"name": "cap de Prat Let", "latitude": 42.8371439, "longitude": 0.3650307, "elevation": 1382.0, "source": "osm", "_tags": {"ele": "1382", "name": "cap de Prat Let", "natural": "peak"}}, {"name": "cap de la Pique du Plas", "latitude": 42.8285809, "longitude": 0.5685666, "elevation": 1741.0, "source": "osm", "_tags": {"ele": "1741", "name": "cap de la Pique du Plas", "natural": "peak"}}, {"name": "pic d'Agudes", "latitude": 42.870389, "longitude": 0.5873133, "elevation": 1508.0, "source": "osm", "_tags": {"ele": "1508", "name": "pic d'Agudes", "natural": "peak"}}, {"name": "Pointe de la Mouline", "latitude": 42.8932921, "longitude": 0.6537925, "elevation": 1204.0, "source": "osm", "_tags": {"ele": "1204", "name": "Pointe de la Mouline", "natural": "peak"}}, {"name": "Cap des Tissures", "latitude": 42.8852891, "longitude": 0.6524904, "elevation": 1500.0, "source": "osm", "_tags": {"ele": "1500", "name": "Cap des Tissures", "natural": "peak"}}, {"name": "cap de Tuquet", "latitude": 42.8363397, "longitude": 0.4436527, "elevation": 1844.0, "source": "osm", "_tags": {"ele": "1844", "name": "cap de Tuquet", "natural": "peak"}}, {"name": "cap de Peyrehicade", "latitude": 42.83787, "longitude": 0.4533822, "elevation": 1915.0, "source": "osm", "_tags": {"ele": "1915", "name": "cap de Peyrehicade", "natural": "peak"}}, {"name": "Castéra", "latitude": 42.8578428, "longitude": 0.4103487, "elevation": 1096.0, "source": "osm", "_tags": {"ele": "1096", "name": "Castéra", "natural": "peak"}}, {"name": "pic de Coume de la Serre", "latitude": 42.8616314, "longitude": 0.4210526, "elevation": null, "source": "osm", "_tags": {"name": "pic de Coume de la Serre", "natural": "peak"}}, {"name": "Pène du Mail", "latitude": 42.8631457, "longitude": 0.4251741, "elevation": 1801.0, "source": "osm", "_tags": {"ele": "1801", "name": "Pène du Mail", "natural": "peak"}}, {"name": "montagne de l'Erm", "latitude": 42.8637115, "longitude": 0.4526997, "elevation": 2876.0, "source": "osm", "_tags": {"ele": "2876", "name": "montagne de l'Erm", "natural": "peak"}}, {"name": "montagne de Séuès", "latitude": 42.8821384, "longitude": 0.4992913, "elevation": 1750.0, "source": "osm", "_tags": {"ele": "1750", "name": "montagne de Séuès", "natural": "peak"}}, {"name": "les Poujaus", "latitude": 42.8864983, "longitude": 0.5137048, "elevation": 1658.0, "source": "osm", "_tags": {"ele": "1658", "name": "les Poujaus", "natural": "peak"}}, {"name": "Cap du Bost de Montmort", "latitude": 42.8756602, "longitude": 0.6607027, "elevation": 1508.0, "source": "osm", "_tags": {"ele": "1508", "name": "Cap du Bost de Montmort", "natural": "peak"}}, {"name": "mail de la Pique", "latitude": 42.8723621, "longitude": 0.6502042, "elevation": 1754.0, "source": "osm", "_tags": {"ele": "1754", "name": "mail de la Pique", "natural": "peak"}}, {"name": "Pic de Maupas", "latitude": 42.8660863, "longitude": 0.658277, "elevation": 1894.0, "source": "osm", "_tags": {"ele": "1894", "name": "Pic de Maupas", "natural": "peak"}}, {"name": "tuhou d'Arredoun du bas", "latitude": 42.8780935, "longitude": 0.2143524, "elevation": null, "source": "osm", "_tags": {"name": "tuhou d'Arredoun du bas", "natural": "peak"}}, {"name": "pic Mail", "latitude": 42.8677904, "longitude": 0.2477782, "elevation": 2621.0, "source": "osm", "_tags": {"ele": "2621", "name": "pic Mail", "natural": "peak"}}, {"name": "cap de Coumirole", "latitude": 42.8581783, "longitude": 0.2873655, "elevation": 1771.0, "source": "osm", "_tags": {"ele": "1771", "name": "cap de Coumirole", "natural": "peak"}}, {"name": "cap de Pouy", "latitude": 42.8572919, "longitude": 0.3004116, "elevation": null, "source": "osm", "_tags": {"name": "cap de Pouy", "natural": "peak"}}, {"name": "pène d'Escalère", "latitude": 42.8795828, "longitude": 0.2777657, "elevation": 2634.0, "source": "osm", "_tags": {"ele": "2634", "name": "pène d'Escalère", "natural": "peak"}}, {"name": "pic plat", "latitude": 42.8566466, "longitude": 0.1687214, "elevation": 2559.0, "source": "osm", "_tags": {"ele": "2559", "name": "pic plat", "natural": "peak"}}, {"name": "pic du Quartier", "latitude": 42.8526368, "longitude": 0.174832, "elevation": 2491.0, "source": "osm", "_tags": {"ele": "2491", "name": "pic du Quartier", "natural": "peak"}}, {"name": "tuco Aumar", "latitude": 42.8369623, "longitude": 0.151861, "elevation": 2301.0, "source": "osm", "_tags": {"ele": "2301", "name": "tuco Aumar", "natural": "peak"}}, {"name": "pic de Hèche Castet", "latitude": 42.8292512, "longitude": 0.1402487, "elevation": 2568.0, "source": "osm", "_tags": {"ele": "2568", "name": "pic de Hèche Castet", "natural": "peak"}}, {"name": "pic des Castets de Marraut", "latitude": 42.8302848, "longitude": 0.0652665, "elevation": 2643.0, "source": "osm", "_tags": {"ele": "2643", "name": "pic des Castets de Marraut", "natural": "peak"}}, {"name": "le Campanal", "latitude": 42.8407345, "longitude": 0.048272, "elevation": 2152.0, "source": "osm", "_tags": {"ele": "2152", "name": "le Campanal", "natural": "peak"}}, {"name": "pic de Budéraou", "latitude": 42.8407867, "longitude": 0.0440959, "elevation": 2196.0, "source": "osm", "_tags": {"ele": "2196", "name": "pic de Budéraou", "natural": "peak"}}, {"name": "puic de la Coum de l'Ours", "latitude": 42.8316016, "longitude": 0.0964659, "elevation": 2855.0, "source": "osm", "_tags": {"ele": "2855", "name": "puic de la Coum de l'Ours", "natural": "peak"}}, {"name": "Campana de Larrens", "latitude": 42.8394229, "longitude": 0.0931333, "elevation": 2712.0, "source": "osm", "_tags": {"ele": "2712", "name": "Campana de Larrens", "natural": "peak"}}, {"name": "pic Prudent", "latitude": 42.8351086, "longitude": 0.0934221, "elevation": 2787.0, "source": "osm", "_tags": {"ele": "2787", "name": "pic Prudent", "natural": "peak"}}, {"name": "pic dera Goye d'Estagn", "latitude": 42.8481924, "longitude": 0.0795287, "elevation": 2563.0, "source": "osm", "_tags": {"ele": "2563", "name": "pic dera Goye d'Estagn", "natural": "peak"}}, {"name": "Soum d'Eres Agassères", "latitude": 42.847338, "longitude": 0.067647, "elevation": 2514.0, "source": "osm", "_tags": {"ele": "2514", "name": "Soum d'Eres Agassères", "natural": "peak"}}, {"name": "Pène d'éra Mayrits", "latitude": 42.866564, "longitude": 0.077624, "elevation": 2321.0, "source": "osm", "_tags": {"ele": "2321", "name": "Pène d'éra Mayrits", "natural": "peak"}}, {"name": "soum de Pène de Viella", "latitude": 42.8666493, "longitude": 0.0223921, "elevation": null, "source": "osm", "_tags": {"name": "soum de Pène de Viella", "natural": "peak"}}, {"name": "Crète de Couret", "latitude": 42.8687923, "longitude": 0.0133684, "elevation": null, "source": "osm", "_tags": {"name": "Crète de Couret", "natural": "peak"}}, {"name": "soum de Noubasséoube", "latitude": 42.8248812, "longitude": -0.0218264, "elevation": 2187.0, "source": "osm", "_tags": {"ele": "2187", "name": "soum de Noubasséoube", "natural": "peak"}}, {"name": "la Pène", "latitude": 43.0193976, "longitude": 0.1438082, "elevation": 1060.0, "source": "osm", "_tags": {"ele": "1060", "name": "la Pène", "natural": "peak"}}, {"name": "las Aygues", "latitude": 43.0089633, "longitude": 0.0998837, "elevation": 1679.0, "source": "osm", "_tags": {"ele": "1679", "name": "las Aygues", "natural": "peak"}}, {"name": "Peyrenere", "latitude": 43.0070035, "longitude": 0.063699, "elevation": 1783.0, "source": "osm", "_tags": {"ele": "1783", "name": "Peyrenere", "natural": "peak"}}, {"name": "Pic de Mesplède", "latitude": 42.9934809, "longitude": 0.0553356, "elevation": 1704.0, "source": "osm", "_tags": {"ele": "1704", "name": "Pic de Mesplède", "natural": "peak"}}, {"name": "pic d'Oussamiaou", "latitude": 42.9799274, "longitude": 0.0459596, "elevation": 2056.0, "source": "osm", "_tags": {"ele": "2056", "name": "pic d'Oussamiaou", "natural": "peak"}}, {"name": "pic de l'Embarrète", "latitude": 42.9417198, "longitude": 0.1092386, "elevation": 2213.0, "source": "osm", "_tags": {"ele": "2213", "name": "pic de l'Embarrète", "natural": "peak"}}, {"name": "pic d'Oncet", "latitude": 42.9292394, "longitude": 0.1247269, "elevation": 2607.0, "source": "osm", "_tags": {"ele": "2607", "name": "pic d'Oncet", "natural": "peak"}}, {"name": "Turon de la Lahude", "latitude": 42.9189644, "longitude": 0.1050004, "elevation": null, "source": "osm", "_tags": {"name": "Turon de la Lahude", "natural": "peak"}}, {"name": "Pène Taillade", "latitude": 42.923294, "longitude": 0.0600925, "elevation": 2532.0, "source": "osm", "_tags": {"ele": "2532", "name": "Pène Taillade", "natural": "peak"}}, {"name": "Capet", "latitude": 42.9129922, "longitude": 0.0626605, "elevation": 2328.0, "source": "osm", "_tags": {"ele": "2328", "name": "Capet", "natural": "peak"}}, {"name": "Cap d'Argelès", "latitude": 42.8547298, "longitude": 0.3675963, "elevation": 1250.0, "source": "osm", "_tags": {"ele": "1250", "name": "Cap d'Argelès", "natural": "peak"}}, {"name": "la Pigeonnière", "latitude": 42.8801427, "longitude": 0.2882664, "elevation": 2301.0, "source": "osm", "_tags": {"ele": "2301", "name": "la Pigeonnière", "natural": "peak"}}, {"name": "Cap de Sarrat Termé", "latitude": 42.9070955, "longitude": 0.306749, "elevation": 1613.0, "source": "osm", "_tags": {"ele": "1613", "name": "Cap de Sarrat Termé", "natural": "peak"}}, {"name": "la Galaye", "latitude": 42.9326734, "longitude": 0.3755232, "elevation": 916.0, "source": "osm", "_tags": {"ele": "916", "name": "la Galaye", "natural": "peak"}}, {"name": "le Mouné", "latitude": 42.9857396, "longitude": 0.3466037, "elevation": 1146.0, "source": "osm", "_tags": {"ele": "1146", "name": "le Mouné", "natural": "peak"}}, {"name": "le Bouch", "latitude": 42.9958507, "longitude": 0.3606408, "elevation": 822.0, "source": "osm", "_tags": {"ele": "822", "name": "le Bouch", "natural": "peak"}}, {"name": "Mont Aurous", "latitude": 43.0003707, "longitude": 0.3707737, "elevation": 801.0, "source": "osm", "_tags": {"ele": "801", "name": "Mont Aurous", "natural": "peak"}}, {"name": "Serres de Bat", "latitude": 43.0052847, "longitude": 0.3670081, "elevation": 661.0, "source": "osm", "_tags": {"ele": "661", "name": "Serres de Bat", "natural": "peak"}}, {"name": "Brouquère", "latitude": 42.9918822, "longitude": 0.3836897, "elevation": 812.0, "source": "osm", "_tags": {"ele": "812", "name": "Brouquère", "natural": "peak"}}, {"name": "Moumède", "latitude": 43.0125277, "longitude": 0.3622428, "elevation": null, "source": "osm", "_tags": {"name": "Moumède", "natural": "peak"}}, {"name": "le Pourrasse", "latitude": 43.0218718, "longitude": 0.3628397, "elevation": 932.0, "source": "osm", "_tags": {"ele": "932", "name": "le Pourrasse", "natural": "peak"}}, {"name": "cap de Brouca", "latitude": 43.0069341, "longitude": 0.3381454, "elevation": 1136.0, "source": "osm", "_tags": {"ele": "1136", "name": "cap de Brouca", "natural": "peak"}}, {"name": "le Coustet", "latitude": 43.0029979, "longitude": 0.3110363, "elevation": null, "source": "osm", "_tags": {"name": "le Coustet", "natural": "peak"}}, {"name": "Cap de Bourdiou", "latitude": 43.0173038, "longitude": 0.2761452, "elevation": 831.0, "source": "osm", "_tags": {"ele": "831", "name": "Cap de Bourdiou", "natural": "peak"}}, {"name": "Cap de la Pène", "latitude": 42.9930868, "longitude": 0.2482266, "elevation": 1463.0, "source": "osm", "_tags": {"ele": "1463", "name": "Cap de la Pène", "natural": "peak"}}, {"name": "pic de Beauté", "latitude": 42.8960224, "longitude": 0.1565503, "elevation": 2395.0, "source": "osm", "_tags": {"ele": "2395", "name": "pic de Beauté", "natural": "peak"}}, {"name": "Tuhou du Piquet", "latitude": 42.8903623, "longitude": 0.2323918, "elevation": 2148.0, "source": "osm", "_tags": {"ele": "2148", "name": "Tuhou du Piquet", "natural": "peak"}}, {"name": "la Picarde", "latitude": 42.9292437, "longitude": 0.1567441, "elevation": 2281.0, "source": "osm", "_tags": {"ele": "2281", "name": "la Picarde", "natural": "peak"}}, {"name": "le Ténaou", "latitude": 42.9400419, "longitude": 0.2284982, "elevation": 1435.0, "source": "osm", "_tags": {"ele": "1435", "name": "le Ténaou", "natural": "peak"}}, {"name": "Tuc de la Séquède", "latitude": 42.8567726, "longitude": 0.781252, "elevation": 1589.0, "source": "osm", "_tags": {"ele": "1589", "name": "Tuc de la Séquède", "natural": "peak"}}, {"name": "Tuc de Peyre Picade", "latitude": 42.8521862, "longitude": 0.7870978, "elevation": 1625.0, "source": "osm", "_tags": {"ele": "1625", "name": "Tuc de Peyre Picade", "natural": "peak"}}, {"name": "Pic de la Soulère", "latitude": 42.8467103, "longitude": 0.7889464, "elevation": 1799.0, "source": "osm", "_tags": {"ele": "1799", "name": "Pic de la Soulère", "natural": "peak"}}, {"name": "Cap de la Pale des Sestagnes", "latitude": 42.8445319, "longitude": 0.813182, "elevation": 1960.0, "source": "osm", "_tags": {"ele": "1960", "name": "Cap de la Pale des Sestagnes", "natural": "peak"}}, {"name": "Mallède de Bassiouès", "latitude": 42.8612257, "longitude": 0.6790116, "elevation": 1768.0, "source": "osm", "_tags": {"ele": "1768", "name": "Mallède de Bassiouès", "natural": "peak"}}, {"name": "Pouy de Géry", "latitude": 42.9195137, "longitude": 0.6688371, "elevation": 625.0, "source": "osm", "_tags": {"ele": "625", "name": "Pouy de Géry", "natural": "peak"}}, {"name": "Pouy du Calvaire", "latitude": 42.9224048, "longitude": 0.6806127, "elevation": 532.0, "source": "osm", "_tags": {"ele": "532", "name": "Pouy du Calvaire", "natural": "peak"}}, {"name": "Tuc de Saint-Germes", "latitude": 42.9213722, "longitude": 0.7209312, "elevation": null, "source": "osm", "_tags": {"name": "Tuc de Saint-Germes", "natural": "peak"}}, {"name": "Tuc de Poredon", "latitude": 42.9192209, "longitude": 0.7199543, "elevation": null, "source": "osm", "_tags": {"name": "Tuc de Poredon", "natural": "peak"}}, {"name": "Tuc de Cascaille", "latitude": 42.9170297, "longitude": 0.7197509, "elevation": 741.0, "source": "osm", "_tags": {"ele": "741", "name": "Tuc de Cascaille", "natural": "peak"}}, {"name": "Tuc de la Garole", "latitude": 42.9110309, "longitude": 0.7353147, "elevation": 999.0, "source": "osm", "_tags": {"ele": "999", "name": "Tuc de la Garole", "natural": "peak"}}, {"name": "Tuc des Mouches", "latitude": 42.9012944, "longitude": 0.7161726, "elevation": null, "source": "osm", "_tags": {"name": "Tuc des Mouches", "natural": "peak"}}, {"name": "Rocher du Midi", "latitude": 42.9017769, "longitude": 0.7190418, "elevation": 1181.0, "source": "osm", "_tags": {"ele": "1181", "name": "Rocher du Midi", "natural": "peak"}}, {"name": "Tuc Usclat", "latitude": 42.9022897, "longitude": 0.7293128, "elevation": 1347.0, "source": "osm", "_tags": {"ele": "1347", "name": "Tuc Usclat", "natural": "peak"}}, {"name": "Tuc de Serre Longue", "latitude": 42.9000542, "longitude": 0.7417504, "elevation": 1525.0, "source": "osm", "_tags": {"ele": "1525", "name": "Tuc de Serre Longue", "natural": "peak"}}, {"name": "Tuc de Bermache", "latitude": 42.8916906, "longitude": 0.7536626, "elevation": 1572.0, "source": "osm", "_tags": {"ele": "1572", "name": "Tuc de Bermache", "natural": "peak"}}, {"name": "Pic de l'Auech", "latitude": 42.8949787, "longitude": 0.7556594, "elevation": 1671.0, "source": "osm", "_tags": {"ele": "1671", "name": "Pic de l'Auech", "natural": "peak"}}, {"name": "Cap de la Pale du Broucau", "latitude": 42.8847339, "longitude": 0.7535922, "elevation": 1351.0, "source": "osm", "_tags": {"ele": "1351", "name": "Cap de la Pale du Broucau", "natural": "peak"}}, {"name": "Mail de Castera", "latitude": 42.8760645, "longitude": 0.7517366, "elevation": 1026.0, "source": "osm", "_tags": {"ele": "1026", "name": "Mail de Castera", "natural": "peak"}}, {"name": "Tuc de la Cauérère", "latitude": 42.870357, "longitude": 0.7496807, "elevation": 774.0, "source": "osm", "_tags": {"ele": "774", "name": "Tuc de la Cauérère", "natural": "peak"}}, {"name": "Pujes", "latitude": 42.8722288, "longitude": 0.7400338, "elevation": 593.0, "source": "osm", "_tags": {"ele": "593", "name": "Pujes", "natural": "peak"}}, {"name": "Pujaut", "latitude": 42.8641817, "longitude": 0.7402163, "elevation": 810.0, "source": "osm", "_tags": {"ele": "810", "name": "Pujaut", "natural": "peak"}}, {"name": "Peyre Hite", "latitude": 42.8859449, "longitude": 0.721404, "elevation": 772.0, "source": "osm", "_tags": {"ele": "772", "name": "Peyre Hite", "natural": "peak"}}, {"name": "Tucau de Castera", "latitude": 42.8878689, "longitude": 0.729591, "elevation": 882.0, "source": "osm", "_tags": {"ele": "882", "name": "Tucau de Castera", "natural": "peak"}}, {"name": "Mont Castéra", "latitude": 42.961629, "longitude": 0.4414509, "elevation": 1569.0, "source": "osm", "_tags": {"ele": "1569", "name": "Mont Castéra", "natural": "peak"}}, {"name": "Cul de la Serre", "latitude": 42.962336, "longitude": 0.4709328, "elevation": null, "source": "osm", "_tags": {"name": "Cul de la Serre", "natural": "peak"}}, {"name": "Cuc Ravet", "latitude": 42.9478324, "longitude": 0.4997938, "elevation": 1369.0, "source": "osm", "_tags": {"ele": "1369", "name": "Cuc Ravet", "natural": "peak"}}, {"name": "Mont Sec", "latitude": 42.9444608, "longitude": 0.4915914, "elevation": 1597.0, "source": "osm", "_tags": {"ele": "1597", "name": "Mont Sec", "natural": "peak"}}, {"name": "Trés Culs", "latitude": 42.916983, "longitude": 0.5055827, "elevation": 1229.0, "source": "osm", "_tags": {"ele": "1229", "name": "Trés Culs", "natural": "peak"}}, {"name": "Pic du Mail de Compiens", "latitude": 42.900205, "longitude": 0.5308368, "elevation": 1713.0, "source": "osm", "_tags": {"ele": "1713", "name": "Pic du Mail de Compiens", "natural": "peak"}}, {"name": "le Tes", "latitude": 42.9183975, "longitude": 0.5668351, "elevation": 1036.0, "source": "osm", "_tags": {"ele": "1036", "name": "le Tes", "natural": "peak"}}, {"name": "Suquet", "latitude": 42.9332532, "longitude": 0.5732896, "elevation": null, "source": "osm", "_tags": {"name": "Suquet", "natural": "peak"}}, {"name": "Mont Soureil", "latitude": 42.9356335, "longitude": 0.5874896, "elevation": null, "source": "osm", "_tags": {"name": "Mont Soureil", "natural": "peak"}}, {"name": "Gallèpe", "latitude": 42.9331787, "longitude": 0.5472252, "elevation": 1244.0, "source": "osm", "_tags": {"ele": "1244", "name": "Gallèpe", "natural": "peak"}}, {"name": "Monteil", "latitude": 42.9406953, "longitude": 0.5574198, "elevation": 837.0, "source": "osm", "_tags": {"ele": "837", "name": "Monteil", "natural": "peak"}}, {"name": "Batpouy", "latitude": 42.9489607, "longitude": 0.5673767, "elevation": 654.0, "source": "osm", "_tags": {"ele": "654", "name": "Batpouy", "natural": "peak"}}, {"name": "Char", "latitude": 42.9497434, "longitude": 0.5704869, "elevation": 676.0, "source": "osm", "_tags": {"ele": "676", "name": "Char", "natural": "peak"}}, {"name": "Castéra", "latitude": 42.9537605, "longitude": 0.5603847, "elevation": 865.0, "source": "osm", "_tags": {"ele": "865", "name": "Castéra", "natural": "peak"}}, {"name": "le Calvaire", "latitude": 42.9561675, "longitude": 0.5709876, "elevation": 691.0, "source": "osm", "_tags": {"ele": "691", "name": "le Calvaire", "natural": "peak"}}, {"name": "Suberpeyre", "latitude": 42.9583277, "longitude": 0.5790414, "elevation": 683.0, "source": "osm", "_tags": {"ele": "683", "name": "Suberpeyre", "natural": "peak"}}, {"name": "Gouargère", "latitude": 42.9635405, "longitude": 0.5806808, "elevation": 797.0, "source": "osm", "_tags": {"ele": "797", "name": "Gouargère", "natural": "peak"}}, {"name": "la Côte", "latitude": 42.9589526, "longitude": 0.5924714, "elevation": 638.0, "source": "osm", "_tags": {"ele": "638", "name": "la Côte", "natural": "peak"}}, {"name": "Bernets", "latitude": 42.9554766, "longitude": 0.5984547, "elevation": 761.0, "source": "osm", "_tags": {"ele": "761", "name": "Bernets", "natural": "peak"}}, {"name": "Cap d'Artigue Couade", "latitude": 42.9032756, "longitude": 0.4418409, "elevation": 1731.0, "source": "osm", "_tags": {"ele": "1731", "name": "Cap d'Artigue Couade", "natural": "peak"}}, {"name": "Cap du Cros", "latitude": 42.9125891, "longitude": 0.429421, "elevation": 1646.0, "source": "osm", "_tags": {"ele": "1646", "name": "Cap du Cros", "natural": "peak"}}, {"name": "Plan des Pins", "latitude": 42.9126047, "longitude": 0.4159046, "elevation": 1482.0, "source": "osm", "_tags": {"ele": "1482", "name": "Plan des Pins", "natural": "peak"}}, {"name": "Cap Deraut", "latitude": 42.9145758, "longitude": 0.3990716, "elevation": 1511.0, "source": "osm", "_tags": {"ele": "1511", "name": "Cap Deraut", "natural": "peak"}}, {"name": "", "latitude": 42.9289067, "longitude": 0.4392609, "elevation": 1854.0, "source": "osm", "_tags": {"ele": "1854", "natural": "peak"}}, {"name": "Cap du Plat de l'Estaque", "latitude": 42.9329517, "longitude": 0.4238279, "elevation": 1745.0, "source": "osm", "_tags": {"ele": "1745", "name": "Cap du Plat de l'Estaque", "natural": "peak"}}, {"name": "Montarrouy", "latitude": 42.9397889, "longitude": 0.4194519, "elevation": 1805.0, "source": "osm", "_tags": {"ele": "1805", "name": "Montarrouy", "natural": "peak"}}, {"name": "Cap des Pènes", "latitude": 42.941875, "longitude": 0.410616, "elevation": 1788.0, "source": "osm", "_tags": {"ele": "1788", "name": "Cap des Pènes", "natural": "peak"}}, {"name": "Pic de la Hèche", "latitude": 42.9395487, "longitude": 0.408008, "elevation": null, "source": "osm", "_tags": {"name": "Pic de la Hèche", "natural": "peak"}}, {"name": "Pic de Trespics", "latitude": 42.9440236, "longitude": 0.3983009, "elevation": 1436.0, "source": "osm", "_tags": {"ele": "1436", "name": "Pic de Trespics", "natural": "peak"}}, {"name": "Pic de Montillet", "latitude": 42.9517777, "longitude": 0.4026966, "elevation": 1502.0, "source": "osm", "_tags": {"ele": "1502", "name": "Pic de Montillet", "natural": "peak"}}, {"name": "Mont du Pas de l'Anesse", "latitude": 42.9467783, "longitude": 0.4063072, "elevation": 1577.0, "source": "osm", "_tags": {"ele": "1577", "name": "Mont du Pas de l'Anesse", "natural": "peak"}}, {"name": "Pic des Limes", "latitude": 42.9494156, "longitude": 0.4219921, "elevation": 1434.0, "source": "osm", "_tags": {"ele": "1434", "name": "Pic des Limes", "natural": "peak"}}, {"name": "Soum de Maucasau", "latitude": 42.9641724, "longitude": -0.0134976, "elevation": 1744.0, "source": "osm", "_tags": {"ele": "1744", "name": "Soum de Maucasau", "natural": "peak"}}, {"name": "Courade de Maucasau", "latitude": 42.9673632, "longitude": -0.0061308, "elevation": 1651.0, "source": "osm", "_tags": {"ele": "1651", "name": "Courade de Maucasau", "natural": "peak"}}, {"name": "Pic de moulata", "latitude": 42.9688159, "longitude": -0.0023199, "elevation": 1687.0, "source": "osm", "_tags": {"ele": "1687", "name": "Pic de moulata", "natural": "peak"}}, {"name": "Soum de Tramassel", "latitude": 42.9758088, "longitude": -0.001152, "elevation": 1653.0, "source": "osm", "_tags": {"alt_name": "la Pène", "ele": "1653", "name": "Soum de Tramassel", "natural": "peak"}}, {"name": "Pan Harie", "latitude": 42.9803369, "longitude": 0.000588, "elevation": 1623.0, "source": "osm", "_tags": {"ele": "1623", "name": "Pan Harie", "natural": "peak"}}, {"name": "le Haut de Courbes", "latitude": 42.9825947, "longitude": 0.0007989, "elevation": 1645.0, "source": "osm", "_tags": {"ele": "1645", "name": "le Haut de Courbes", "natural": "peak"}}, {"name": "Peyrou", "latitude": 42.9872002, "longitude": -0.0169875, "elevation": 1516.0, "source": "osm", "_tags": {"ele": "1516", "name": "Peyrou", "natural": "peak"}}, {"name": "Soum de Peyre Dufau", "latitude": 42.9868474, "longitude": -0.0286575, "elevation": 1378.0, "source": "osm", "_tags": {"ele": "1378", "name": "Soum de Peyre Dufau", "natural": "peak"}}, {"name": "Pic de Lhens", "latitude": 42.9768056, "longitude": 0.0377851, "elevation": 1802.0, "source": "osm", "_tags": {"ele": "1802", "name": "Pic de Lhens", "natural": "peak"}}, {"name": "Turon des Longues", "latitude": 42.8548307, "longitude": 0.0086492, "elevation": 1573.0, "source": "osm", "_tags": {"ele": "1573", "name": "Turon des Longues", "natural": "peak"}}, {"name": "Soum de Moustayou", "latitude": 42.8941076, "longitude": 0.0043056, "elevation": 1821.0, "source": "osm", "_tags": {"ele": "1821", "name": "Soum de Moustayou", "natural": "peak"}}, {"name": "Soum d'Espade d'Arbéouse", "latitude": 42.9023091, "longitude": 0.0212668, "elevation": 2161.0, "source": "osm", "_tags": {"ele": "2161", "name": "Soum d'Espade d'Arbéouse", "natural": "peak"}}, {"name": "Turon de Hailla", "latitude": 42.9129003, "longitude": -0.0118843, "elevation": 1825.0, "source": "osm", "_tags": {"ele": "1825", "name": "Turon de Hailla", "natural": "peak"}}, {"name": "Pic de la Courbe", "latitude": 42.923116, "longitude": -0.0032323, "elevation": 1963.0, "source": "osm", "_tags": {"ele": "1963", "name": "Pic de la Courbe", "natural": "peak"}}, {"name": "Soum de Lagette", "latitude": 42.9250869, "longitude": -0.0018282, "elevation": 2027.0, "source": "osm", "_tags": {"ele": "2027", "name": "Soum de Lagette", "natural": "peak"}}, {"name": "Pic des Trois Hiboux", "latitude": 42.9384077, "longitude": 0.0051247, "elevation": 2260.0, "source": "osm", "_tags": {"ele": "2260", "name": "Pic des Trois Hiboux", "natural": "peak"}}, {"name": "Pics ds Gahus", "latitude": 42.9407554, "longitude": -0.0025653, "elevation": 2190.0, "source": "osm", "_tags": {"ele": "2190", "name": "Pics ds Gahus", "natural": "peak"}}, {"name": "Pic de la Courbe", "latitude": 42.8687344, "longitude": 0.9020602, "elevation": null, "source": "osm", "_tags": {"name": "Pic de la Courbe", "natural": "peak"}}, {"name": "Pic de la Tourette", "latitude": 42.8712072, "longitude": 0.9103909, "elevation": 1380.0, "source": "osm", "_tags": {"ele": "1380", "name": "Pic de la Tourette", "natural": "peak"}}, {"name": "Tuc du Cendè", "latitude": 42.872851, "longitude": 0.9093742, "elevation": 1517.0, "source": "osm", "_tags": {"ele": "1517", "name": "Tuc du Cendè", "natural": "peak"}}, {"name": "Tuc Dour", "latitude": 42.8747962, "longitude": 0.9247073, "elevation": 1327.0, "source": "osm", "_tags": {"ele": "1327", "name": "Tuc Dour", "natural": "peak"}}, {"name": "Tuc de la Marguerite", "latitude": 42.8725526, "longitude": 0.9320076, "elevation": 1193.0, "source": "osm", "_tags": {"ele": "1193", "name": "Tuc de la Marguerite", "natural": "peak"}}, {"name": "Castéra", "latitude": 42.8666665, "longitude": 0.9365214, "elevation": 843.0, "source": "osm", "_tags": {"ele": "843", "name": "Castéra", "natural": "peak"}}, {"name": "Tuc de Seneviès", "latitude": 42.8797269, "longitude": 0.8014751, "elevation": 1781.0, "source": "osm", "_tags": {"ele": "1781", "name": "Tuc de Seneviès", "natural": "peak"}}, {"name": "Tuc de Baricargue", "latitude": 42.8833422, "longitude": 0.8009893, "elevation": 1672.0, "source": "osm", "_tags": {"ele": "1672", "name": "Tuc de Baricargue", "natural": "peak"}}, {"name": "Tuc de Roquefort", "latitude": 42.8897628, "longitude": 0.8112391, "elevation": 1380.0, "source": "osm", "_tags": {"ele": "1380", "name": "Tuc de Roquefort", "natural": "peak"}}, {"name": "Les Deux Rocs", "latitude": 42.9088699, "longitude": 0.7891356, "elevation": 1434.0, "source": "osm", "_tags": {"ele": "1434", "name": "Les Deux Rocs", "natural": "peak"}}, {"name": "Tuc de la Serre", "latitude": 42.9228064, "longitude": 0.7782515, "elevation": 1390.0, "source": "osm", "_tags": {"ele": "1390", "name": "Tuc de la Serre", "natural": "peak"}}, {"name": "Mail des Craus", "latitude": 42.9310012, "longitude": 0.7789956, "elevation": 1281.0, "source": "osm", "_tags": {"ele": "1281", "name": "Mail des Craus", "natural": "peak"}}, {"name": "les Escales", "latitude": 42.9366139, "longitude": 0.7955176, "elevation": 1131.0, "source": "osm", "_tags": {"ele": "1131", "name": "les Escales", "natural": "peak"}}, {"name": "Mont Noir", "latitude": 42.940874, "longitude": 0.8212538, "elevation": 1201.0, "source": "osm", "_tags": {"ele": "1201", "name": "Mont Noir", "natural": "peak"}}, {"name": "Tuc Desse", "latitude": 42.9363403, "longitude": 0.8278471, "elevation": 1232.0, "source": "osm", "_tags": {"ele": "1232", "name": "Tuc Desse", "natural": "peak"}}, {"name": "le Couras", "latitude": 42.9348086, "longitude": 0.8440174, "elevation": 1284.0, "source": "osm", "_tags": {"ele": "1284", "name": "le Couras", "natural": "peak"}}, {"name": "castéra", "latitude": 42.9374495, "longitude": 0.8794554, "elevation": 919.0, "source": "osm", "_tags": {"ele": "919", "name": "castéra", "natural": "peak"}}, {"name": "Tuc de l'Haoua", "latitude": 42.9373467, "longitude": 0.8926246, "elevation": 948.0, "source": "osm", "_tags": {"ele": "948", "name": "Tuc de l'Haoua", "natural": "peak"}}, {"name": "Tuc de la Haje", "latitude": 42.934126, "longitude": 0.9008946, "elevation": 898.0, "source": "osm", "_tags": {"ele": "898", "name": "Tuc de la Haje", "natural": "peak"}}, {"name": "Tuc de Croue", "latitude": 42.9273558, "longitude": 0.8701227, "elevation": 1222.0, "source": "osm", "_tags": {"ele": "1222", "name": "Tuc de Croue", "natural": "peak"}}, {"name": "les Tucs", "latitude": 42.9283917, "longitude": 0.8675321, "elevation": 1198.0, "source": "osm", "_tags": {"ele": "1198", "name": "les Tucs", "natural": "peak"}}, {"name": "Rochers de Guiraude", "latitude": 42.9262264, "longitude": 0.8625187, "elevation": 1218.0, "source": "osm", "_tags": {"ele": "1218", "name": "Rochers de Guiraude", "natural": "peak"}}, {"name": "Pico", "latitude": 42.9260778, "longitude": 0.9350904, "elevation": 780.0, "source": "osm", "_tags": {"ele": "780", "name": "Pico", "natural": "peak"}}, {"name": "Tucau", "latitude": 42.9211251, "longitude": 0.923119, "elevation": 912.0, "source": "osm", "_tags": {"ele": "912", "name": "Tucau", "natural": "peak"}}, {"name": "Cap Sourd", "latitude": 42.915168, "longitude": 0.8998232, "elevation": null, "source": "osm", "_tags": {"name": "Cap Sourd", "natural": "peak"}}, {"name": "Pic de Craberon", "latitude": 42.907781, "longitude": 0.9003731, "elevation": 1342.0, "source": "osm", "_tags": {"ele": "1342", "name": "Pic de Craberon", "natural": "peak"}}, {"name": "Pic de Pujatech", "latitude": 42.9028192, "longitude": 0.9016519, "elevation": 1322.0, "source": "osm", "_tags": {"ele": "1322", "name": "Pic de Pujatech", "natural": "peak"}}, {"name": "Pic de Brignac", "latitude": 42.9042671, "longitude": 0.8328284, "elevation": null, "source": "osm", "_tags": {"name": "Pic de Brignac", "natural": "peak"}}, {"name": "Tuc de Bourgade", "latitude": 42.9052655, "longitude": 0.8396927, "elevation": 1484.0, "source": "osm", "_tags": {"ele": "1484", "name": "Tuc de Bourgade", "natural": "peak"}}, {"name": "Pic de Piéjau", "latitude": 42.9085666, "longitude": 0.8338381, "elevation": 1497.0, "source": "osm", "_tags": {"ele": "1497", "name": "Pic de Piéjau", "natural": "peak"}}, {"name": "Tuc d'Aucous", "latitude": 42.9045771, "longitude": 0.8739581, "elevation": 1336.0, "source": "osm", "_tags": {"ele": "1336", "name": "Tuc d'Aucous", "natural": "peak"}}, {"name": "Porcilles", "latitude": 42.9013411, "longitude": 0.8728961, "elevation": 1432.0, "source": "osm", "_tags": {"ele": "1432", "name": "Porcilles", "natural": "peak"}}, {"name": "Tuc Saint-Jean", "latitude": 42.8982753, "longitude": 0.8735182, "elevation": 1497.0, "source": "osm", "_tags": {"ele": "1497", "name": "Tuc Saint-Jean", "natural": "peak"}}, {"name": "La Pierre Percée", "latitude": 42.8968667, "longitude": 0.8725505, "elevation": 1470.0, "source": "osm", "_tags": {"ele": "1470", "name": "La Pierre Percée", "natural": "peak"}}, {"name": "Tuc d'Aubaguet", "latitude": 42.891881, "longitude": 0.8707625, "elevation": 1604.0, "source": "osm", "_tags": {"ele": "1604", "name": "Tuc d'Aubaguet", "natural": "peak"}}, {"name": "Les Tuts", "latitude": 42.8872672, "longitude": 0.8677924, "elevation": 1650.0, "source": "osm", "_tags": {"ele": "1650", "name": "Les Tuts", "natural": "peak"}}, {"name": "Rocher de l'Ane", "latitude": 42.878677, "longitude": 0.8536566, "elevation": 1717.0, "source": "osm", "_tags": {"ele": "1717", "name": "Rocher de l'Ane", "natural": "peak"}}, {"name": "Pic des Agneres", "latitude": 42.8720002, "longitude": 0.8514859, "elevation": 1996.0, "source": "osm", "_tags": {"ele": "1996", "name": "Pic des Agneres", "natural": "peak"}}, {"name": "Cap de la Coume d'Oueillet", "latitude": 42.8681682, "longitude": 0.8528322, "elevation": 2096.0, "source": "osm", "_tags": {"ele": "2096", "name": "Cap de la Coume d'Oueillet", "natural": "peak"}}, {"name": "Pic d'Auere", "latitude": 42.8655543, "longitude": 0.8480593, "elevation": 2110.0, "source": "osm", "_tags": {"ele": "2110", "name": "Pic d'Auere", "natural": "peak"}}, {"name": "Pic de Peyre Nere", "latitude": 42.8662294, "longitude": 0.8441459, "elevation": 2139.0, "source": "osm", "_tags": {"ele": "2139", "name": "Pic de Peyre Nere", "natural": "peak"}}, {"name": "Couret de l'Etang", "latitude": 42.8528178, "longitude": 0.8515984, "elevation": 2001.0, "source": "osm", "_tags": {"ele": "2001", "name": "Couret de l'Etang", "natural": "peak"}}, {"name": "Tuc de l'Usclade", "latitude": 42.8540162, "longitude": 0.8818413, "elevation": 1561.0, "source": "osm", "_tags": {"ele": "1561", "name": "Tuc de l'Usclade", "natural": "peak"}}, {"name": "Roche des Gours", "latitude": 42.8675988, "longitude": 0.8709036, "elevation": 2067.0, "source": "osm", "_tags": {"ele": "2067", "name": "Roche des Gours", "natural": "peak"}}, {"name": "Couret du Teil", "latitude": 42.8652464, "longitude": 0.8912581, "elevation": 1868.0, "source": "osm", "_tags": {"ele": "1868", "name": "Couret du Teil", "natural": "peak"}}, {"name": "Tuc des Courdals", "latitude": 42.8637386, "longitude": 0.8933131, "elevation": 1846.0, "source": "osm", "_tags": {"ele": "1846", "name": "Tuc des Courdals", "natural": "peak"}}, {"name": "Pic de l'Auère", "latitude": 42.8622964, "longitude": 0.896289, "elevation": 1630.0, "source": "osm", "_tags": {"ele": "1630", "name": "Pic de l'Auère", "natural": "peak"}}, {"name": "Sagès", "latitude": 42.9512267, "longitude": 0.632756, "elevation": 537.0, "source": "osm", "_tags": {"ele": "537", "name": "Sagès", "natural": "peak"}}, {"name": "Sommet de Teillède", "latitude": 42.9506692, "longitude": 0.6210771, "elevation": 941.0, "source": "osm", "_tags": {"ele": "941", "name": "Sommet de Teillède", "natural": "peak"}}, {"name": "Sommet de Mayroue", "latitude": 42.9601433, "longitude": 0.6117723, "elevation": 793.0, "source": "osm", "_tags": {"ele": "793", "name": "Sommet de Mayroue", "natural": "peak"}}, {"name": "la Gatère", "latitude": 42.9843771, "longitude": 0.6068584, "elevation": 869.0, "source": "osm", "_tags": {"ele": "869", "name": "la Gatère", "natural": "peak"}}, {"name": "Hajole", "latitude": 42.9852199, "longitude": 0.6110832, "elevation": 937.0, "source": "osm", "_tags": {"ele": "937", "name": "Hajole", "natural": "peak"}}, {"name": "Cap de Picon", "latitude": 42.9957914, "longitude": 0.6088067, "elevation": 889.0, "source": "osm", "_tags": {"ele": "889", "name": "Cap de Picon", "natural": "peak"}}, {"name": "Mail de Montégut", "latitude": 43.0043942, "longitude": 0.6098408, "elevation": 661.0, "source": "osm", "_tags": {"ele": "661", "name": "Mail de Montégut", "natural": "peak"}}, {"name": "Mail de Mau Bourg", "latitude": 43.0082134, "longitude": 0.6085426, "elevation": 746.0, "source": "osm", "_tags": {"ele": "746", "name": "Mail de Mau Bourg", "natural": "peak"}}, {"name": "Pic des Corbeaux", "latitude": 43.0110631, "longitude": 0.6125581, "elevation": 636.0, "source": "osm", "_tags": {"ele": "636", "name": "Pic des Corbeaux", "natural": "peak"}}, {"name": "Saint-Martin", "latitude": 43.0130529, "longitude": 0.5967997, "elevation": 503.0, "source": "osm", "_tags": {"ele": "503", "name": "Saint-Martin", "natural": "peak"}}, {"name": "Sarrats", "latitude": 43.0094818, "longitude": 0.5895615, "elevation": null, "source": "osm", "_tags": {"name": "Sarrats", "natural": "peak"}}, {"name": "Souliri", "latitude": 43.0068879, "longitude": 0.5858131, "elevation": 566.0, "source": "osm", "_tags": {"ele": "566", "name": "Souliri", "natural": "peak"}}, {"name": "Soubiaman", "latitude": 43.0070454, "longitude": 0.5946995, "elevation": null, "source": "osm", "_tags": {"name": "Soubiaman", "natural": "peak"}}, {"name": "Cap de Mouhous", "latitude": 43.0021286, "longitude": 0.6022618, "elevation": 659.0, "source": "osm", "_tags": {"ele": "659", "name": "Cap de Mouhous", "natural": "peak"}}, {"name": "Baraties", "latitude": 42.997308, "longitude": 0.6020108, "elevation": 749.0, "source": "osm", "_tags": {"ele": "749", "name": "Baraties", "natural": "peak"}}, {"name": "l'Eperon", "latitude": 42.9380908, "longitude": 0.6968583, "elevation": 1031.0, "source": "osm", "_tags": {"ele": "1031", "name": "l'Eperon", "natural": "peak"}}, {"name": "Peyre Nère", "latitude": 42.9379168, "longitude": 0.7248823, "elevation": 1411.0, "source": "osm", "_tags": {"ele": "1411", "name": "Peyre Nère", "natural": "peak"}}, {"name": "Escalette", "latitude": 42.9344167, "longitude": 0.7282668, "elevation": 1484.0, "source": "osm", "_tags": {"ele": "1484", "name": "Escalette", "natural": "peak"}}, {"name": "Sausane", "latitude": 42.9362224, "longitude": 0.7325847, "elevation": 1421.0, "source": "osm", "_tags": {"ele": "1421", "name": "Sausane", "natural": "peak"}}, {"name": "Mail des Roses", "latitude": 42.9369104, "longitude": 0.7432486, "elevation": null, "source": "osm", "_tags": {"name": "Mail des Roses", "natural": "peak"}}, {"name": "Sommet des Parets", "latitude": 42.9324391, "longitude": 0.7497522, "elevation": 1869.0, "source": "osm", "_tags": {"ele": "1869", "name": "Sommet des Parets", "natural": "peak"}}, {"name": "Mail du Casse", "latitude": 42.9413008, "longitude": 0.7673635, "elevation": 1715.0, "source": "osm", "_tags": {"ele": "1715", "name": "Mail du Casse", "natural": "peak"}}, {"name": "Mail Blanc", "latitude": 42.9522151, "longitude": 0.7174967, "elevation": 1522.0, "source": "osm", "_tags": {"ele": "1522", "name": "Mail Blanc", "natural": "peak"}}, {"name": "Mail du Col de la Serre", "latitude": 42.9595038, "longitude": 0.6898968, "elevation": 1490.0, "source": "osm", "_tags": {"ele": "1490", "name": "Mail du Col de la Serre", "natural": "peak"}}, {"name": "Plan de Calem", "latitude": 42.9686936, "longitude": 0.710819, "elevation": 866.0, "source": "osm", "_tags": {"ele": "866", "name": "Plan de Calem", "natural": "peak"}}, {"name": "Cap de Montcuc", "latitude": 42.9034265, "longitude": 0.6511924, "elevation": null, "source": "osm", "_tags": {"name": "Cap de Montcuc", "natural": "peak"}}, {"name": "Cap de la Serre d'Auarje", "latitude": 42.9162175, "longitude": 0.6222755, "elevation": 1184.0, "source": "osm", "_tags": {"ele": "1184", "name": "Cap de la Serre d'Auarje", "natural": "peak"}}, {"name": "Bazouert", "latitude": 42.928979, "longitude": 0.6409928, "elevation": 615.0, "source": "osm", "_tags": {"ele": "615", "name": "Bazouert", "natural": "peak"}}, {"name": "Mail de Castech", "latitude": 42.9430285, "longitude": 0.6375236, "elevation": 681.0, "source": "osm", "_tags": {"ele": "681", "name": "Mail de Castech", "natural": "peak"}}, {"name": "MAil de Cas", "latitude": 42.9411813, "longitude": 0.6292427, "elevation": 1055.0, "source": "osm", "_tags": {"ele": "1055", "name": "MAil de Cas", "natural": "peak"}}, {"name": "les Pujos", "latitude": 42.9570612, "longitude": 0.6590813, "elevation": null, "source": "osm", "_tags": {"name": "les Pujos", "natural": "peak"}}, {"name": "Maillas", "latitude": 42.9490771, "longitude": 0.6541574, "elevation": 691.0, "source": "osm", "_tags": {"ele": "691", "name": "Maillas", "natural": "peak"}}, {"name": "Mail Long", "latitude": 42.936683, "longitude": 0.6663448, "elevation": null, "source": "osm", "_tags": {"name": "Mail Long", "natural": "peak"}}, {"name": "Pic du Puy Venteux", "latitude": 42.9392608, "longitude": 0.6724005, "elevation": 1101.0, "source": "osm", "_tags": {"ele": "1101", "name": "Pic du Puy Venteux", "natural": "peak"}}, {"name": "Couroué", "latitude": 43.0000368, "longitude": 0.5740598, "elevation": 619.0, "source": "osm", "_tags": {"ele": "619", "name": "Couroué", "natural": "peak"}}, {"name": "Pujolle", "latitude": 42.9875763, "longitude": 0.5777706, "elevation": null, "source": "osm", "_tags": {"name": "Pujolle", "natural": "peak"}}, {"name": "Mont Sec", "latitude": 43.0328593, "longitude": 0.535476, "elevation": 736.0, "source": "osm", "_tags": {"ele": "736", "name": "Mont Sec", "natural": "peak"}}, {"name": "Cap de la Cassagne", "latitude": 43.027201, "longitude": 0.5340953, "elevation": 769.0, "source": "osm", "_tags": {"ele": "769", "name": "Cap de la Cassagne", "natural": "peak"}}, {"name": "Sarrat Medan", "latitude": 43.0041654, "longitude": 0.5300883, "elevation": 786.0, "source": "osm", "_tags": {"ele": "786", "name": "Sarrat Medan", "natural": "peak"}}, {"name": "Cap de Serre", "latitude": 42.9947198, "longitude": 0.5311806, "elevation": 1171.0, "source": "osm", "_tags": {"ele": "1171", "name": "Cap de Serre", "natural": "peak"}}, {"name": "Turon de Doussieu", "latitude": 43.0066389, "longitude": 0.5504148, "elevation": 874.0, "source": "osm", "_tags": {"ele": "874", "name": "Turon de Doussieu", "natural": "peak"}}, {"name": "Arbé Segnat", "latitude": 43.008463, "longitude": 0.5535304, "elevation": 873.0, "source": "osm", "_tags": {"ele": "873", "name": "Arbé Segnat", "natural": "peak"}}, {"name": "Cuguron", "latitude": 43.013028, "longitude": 0.5647695, "elevation": 828.0, "source": "osm", "_tags": {"ele": "828", "name": "Cuguron", "natural": "peak"}}, {"name": "Turon de Campels", "latitude": 43.0155004, "longitude": 0.5672092, "elevation": null, "source": "osm", "_tags": {"name": "Turon de Campels", "natural": "peak"}}, {"name": "Sarrat", "latitude": 43.0156757, "longitude": 0.5748526, "elevation": 711.0, "source": "osm", "_tags": {"ele": "711", "name": "Sarrat", "natural": "peak"}}, {"name": "Pujo des Arriails", "latitude": 42.9850373, "longitude": 0.5816198, "elevation": 571.0, "source": "osm", "_tags": {"ele": "571", "name": "Pujo des Arriails", "natural": "peak"}}, {"name": "Poupetans", "latitude": 42.982267, "longitude": 0.5832404, "elevation": null, "source": "osm", "_tags": {"name": "Poupetans", "natural": "peak"}}, {"name": "Terre Rouge", "latitude": 42.9836212, "longitude": 0.5739569, "elevation": 529.0, "source": "osm", "_tags": {"ele": "529", "name": "Terre Rouge", "natural": "peak"}}, {"name": "Hard", "latitude": 42.9797046, "longitude": 0.5743283, "elevation": 587.0, "source": "osm", "_tags": {"ele": "587", "name": "Hard", "natural": "peak"}}, {"name": "Sarrat", "latitude": 42.9766234, "longitude": 0.601379, "elevation": 1059.0, "source": "osm", "_tags": {"ele": "1059", "name": "Sarrat", "natural": "peak"}}, {"name": "Mail de Casteret", "latitude": 42.9722724, "longitude": 0.5669213, "elevation": 940.0, "source": "osm", "_tags": {"ele": "940", "name": "Mail de Casteret", "natural": "peak"}}, {"name": "Mail de Tépé", "latitude": 42.9709639, "longitude": 0.5614808, "elevation": 1025.0, "source": "osm", "_tags": {"ele": "1025", "name": "Mail de Tépé", "natural": "peak"}}, {"name": "Pic de Sarrat Aragnouet", "latitude": 42.9691115, "longitude": 0.5565949, "elevation": 1205.0, "source": "osm", "_tags": {"ele": "1205", "name": "Pic de Sarrat Aragnouet", "natural": "peak"}}, {"name": "Poumajou", "latitude": 42.9739949, "longitude": 0.5413961, "elevation": 1227.0, "source": "osm", "_tags": {"ele": "1227", "name": "Poumajou", "natural": "peak"}}, {"name": "Pic d'Arien", "latitude": 42.9763705, "longitude": 0.532646, "elevation": 1334.0, "source": "osm", "_tags": {"ele": "1334", "name": "Pic d'Arien", "natural": "peak"}}, {"name": "Sommet de Castet Nauet", "latitude": 43.0346198, "longitude": 0.5052781, "elevation": 907.0, "source": "osm", "_tags": {"ele": "907", "name": "Sommet de Castet Nauet", "natural": "peak"}}, {"name": "Sommet de Cudeille", "latitude": 43.0311562, "longitude": 0.5050165, "elevation": 874.0, "source": "osm", "_tags": {"ele": "874", "name": "Sommet de Cudeille", "natural": "peak"}}, {"name": "Sommet de Liors", "latitude": 43.0274697, "longitude": 0.5034216, "elevation": 817.0, "source": "osm", "_tags": {"ele": "817", "name": "Sommet de Liors", "natural": "peak"}}, {"name": "Mail de la Couradette", "latitude": 43.02558, "longitude": 0.5045199, "elevation": null, "source": "osm", "_tags": {"name": "Mail de la Couradette", "natural": "peak"}}, {"name": "Cassagnette", "latitude": 43.0252644, "longitude": 0.5167814, "elevation": 666.0, "source": "osm", "_tags": {"ele": "666", "name": "Cassagnette", "natural": "peak"}}, {"name": "Cap de Montardon", "latitude": 43.0227196, "longitude": 0.5068011, "elevation": 866.0, "source": "osm", "_tags": {"ele": "866", "name": "Cap de Montardon", "natural": "peak"}}, {"name": "Cap des Echarts", "latitude": 43.017167, "longitude": 0.5160391, "elevation": 896.0, "source": "osm", "_tags": {"ele": "896", "name": "Cap des Echarts", "natural": "peak"}}, {"name": "les Coueres", "latitude": 43.0014012, "longitude": 0.5191138, "elevation": 1051.0, "source": "osm", "_tags": {"ele": "1051", "name": "les Coueres", "natural": "peak"}}, {"name": "Mont du Rat", "latitude": 42.9883297, "longitude": 0.5002017, "elevation": 1065.0, "source": "osm", "_tags": {"ele": "1065", "name": "Mont du Rat", "natural": "peak"}}, {"name": "Mont Sieut", "latitude": 42.9830837, "longitude": 0.4990555, "elevation": 1143.0, "source": "osm", "_tags": {"ele": "1143", "name": "Mont Sieut", "natural": "peak"}}, {"name": "Pic du Mont Né", "latitude": 42.9812418, "longitude": 0.4860916, "elevation": 1341.0, "source": "osm", "_tags": {"ele": "1341", "name": "Pic du Mont Né", "natural": "peak"}}, {"name": "Glouppe Hup", "latitude": 42.9680452, "longitude": 0.4301328, "elevation": 1658.0, "source": "osm", "_tags": {"ele": "1658", "name": "Glouppe Hup", "natural": "peak"}}, {"name": "Tuhou", "latitude": 43.0033079, "longitude": 0.4693387, "elevation": 687.0, "source": "osm", "_tags": {"ele": "687", "name": "Tuhou", "natural": "peak"}}, {"name": "Pic de Mont Mouch", "latitude": 43.0037575, "longitude": 0.4826405, "elevation": 1056.0, "source": "osm", "_tags": {"ele": "1056", "name": "Pic de Mont Mouch", "natural": "peak"}}, {"name": "Monpelat", "latitude": 43.0284821, "longitude": 0.4756683, "elevation": 818.0, "source": "osm", "_tags": {"ele": "818", "name": "Monpelat", "natural": "peak"}}, {"name": "Montagna", "latitude": 43.0238615, "longitude": 0.4640969, "elevation": 823.0, "source": "osm", "_tags": {"ele": "823", "name": "Montagna", "natural": "peak"}}, {"name": "Cap d'Estiou", "latitude": 43.0031361, "longitude": 0.4260696, "elevation": null, "source": "osm", "_tags": {"name": "Cap d'Estiou", "natural": "peak"}}, {"name": "Cap de Curreu", "latitude": 43.0075297, "longitude": 0.4411278, "elevation": 1102.0, "source": "osm", "_tags": {"ele": "1102", "name": "Cap de Curreu", "natural": "peak"}}, {"name": "Mail de Gat", "latitude": 43.0160126, "longitude": 0.4404166, "elevation": 1138.0, "source": "osm", "_tags": {"ele": "1138", "name": "Mail de Gat", "natural": "peak"}}, {"name": "Cap du Mont", "latitude": 43.0185018, "longitude": 0.4379798, "elevation": 1121.0, "source": "osm", "_tags": {"ele": "1121", "name": "Cap du Mont", "natural": "peak"}}, {"name": "Pic de Pinçon", "latitude": 43.0312875, "longitude": 0.4352843, "elevation": 971.0, "source": "osm", "_tags": {"ele": "971", "name": "Pic de Pinçon", "natural": "peak"}}, {"name": "Montilh", "latitude": 43.0274648, "longitude": 0.4507048, "elevation": 718.0, "source": "osm", "_tags": {"ele": "718", "name": "Montilh", "natural": "peak"}}, {"name": "Pic du Pla du Souil", "latitude": 43.0339999, "longitude": 0.4387171, "elevation": 886.0, "source": "osm", "_tags": {"ele": "886", "name": "Pic du Pla du Souil", "natural": "peak"}}, {"name": "Pic de Teillède", "latitude": 43.0356544, "longitude": 0.4423065, "elevation": 891.0, "source": "osm", "_tags": {"ele": "891", "name": "Pic de Teillède", "natural": "peak"}}, {"name": "Cap des Pènes", "latitude": 43.0465382, "longitude": 0.4441621, "elevation": 751.0, "source": "osm", "_tags": {"ele": "751", "name": "Cap des Pènes", "natural": "peak"}}, {"name": "Mont Pelat", "latitude": 43.0558798, "longitude": 0.4373909, "elevation": 668.0, "source": "osm", "_tags": {"ele": "668", "name": "Mont Pelat", "natural": "peak"}}, {"name": "le Bouchet", "latitude": 43.0356712, "longitude": 0.4299704, "elevation": 769.0, "source": "osm", "_tags": {"ele": "769", "name": "le Bouchet", "natural": "peak"}}, {"name": "la Comette", "latitude": 43.0310119, "longitude": 0.4288032, "elevation": 886.0, "source": "osm", "_tags": {"ele": "886", "name": "la Comette", "natural": "peak"}}, {"name": "le Monteil", "latitude": 43.0255694, "longitude": 0.4285139, "elevation": 778.0, "source": "osm", "_tags": {"ele": "778", "name": "le Monteil", "natural": "peak"}}, {"name": "Cap d'Estivère", "latitude": 43.0164551, "longitude": 0.4012902, "elevation": 1211.0, "source": "osm", "_tags": {"ele": "1211", "name": "Cap d'Estivère", "natural": "peak"}}, {"name": "le Crestadou", "latitude": 43.0193449, "longitude": 0.3985386, "elevation": null, "source": "osm", "_tags": {"name": "le Crestadou", "natural": "peak"}}, {"name": "le Pic de Mazouau", "latitude": 43.0223925, "longitude": 0.4052437, "elevation": 1104.0, "source": "osm", "_tags": {"ele": "1104", "name": "le Pic de Mazouau", "natural": "peak"}}, {"name": "le Tucol", "latitude": 43.0351, "longitude": 0.3936753, "elevation": 725.0, "source": "osm", "_tags": {"ele": "725", "name": "le Tucol", "natural": "peak"}}, {"name": "le Mont", "latitude": 43.0464975, "longitude": 0.3914064, "elevation": 809.0, "source": "osm", "_tags": {"ele": "809", "name": "le Mont", "natural": "peak"}}, {"name": "la Mayne", "latitude": 43.0471699, "longitude": 0.3984432, "elevation": 637.0, "source": "osm", "_tags": {"ele": "637", "name": "la Mayne", "natural": "peak"}}, {"name": "la Bousche", "latitude": 43.0541092, "longitude": 0.3941445, "elevation": 708.0, "source": "osm", "_tags": {"ele": "708", "name": "la Bousche", "natural": "peak"}}, {"name": "Cap de la Coume det Aze", "latitude": 43.0579844, "longitude": 0.3450648, "elevation": 600.0, "source": "osm", "_tags": {"ele": "600", "name": "Cap de la Coume det Aze", "natural": "peak"}}, {"name": "Cap du Soum", "latitude": 43.0328287, "longitude": 0.3355156, "elevation": 765.0, "source": "osm", "_tags": {"ele": "765", "name": "Cap du Soum", "natural": "peak"}}, {"name": "Pic d'Arramés", "latitude": 43.0356613, "longitude": 0.3327754, "elevation": 769.0, "source": "osm", "_tags": {"ele": "769", "name": "Pic d'Arramés", "natural": "peak"}}, {"name": "Cap det Hours", "latitude": 43.0472896, "longitude": 0.3194832, "elevation": 658.0, "source": "osm", "_tags": {"ele": "658", "name": "Cap det Hours", "natural": "peak"}}, {"name": "Turounet", "latitude": 43.1049009, "longitude": 0.2846024, "elevation": 474.0, "source": "osm", "_tags": {"ele": "474", "name": "Turounet", "natural": "peak"}}, {"name": "Mont Saint-Jean", "latitude": 43.0918474, "longitude": 0.2939476, "elevation": 497.0, "source": "osm", "_tags": {"ele": "497", "name": "Mont Saint-Jean", "natural": "peak"}}, {"name": "Turn det Haou", "latitude": 43.0709043, "longitude": 0.2821873, "elevation": 571.0, "source": "osm", "_tags": {"ele": "571", "name": "Turn det Haou", "natural": "peak"}}, {"name": "le Trouncouet", "latitude": 43.0600649, "longitude": 0.2784267, "elevation": 575.0, "source": "osm", "_tags": {"ele": "575", "name": "le Trouncouet", "natural": "peak"}}, {"name": "Stiouère", "latitude": 43.0442264, "longitude": 0.2701047, "elevation": 821.0, "source": "osm", "_tags": {"ele": "821", "name": "Stiouère", "natural": "peak"}}, {"name": "Cap de Taillat", "latitude": 43.0337517, "longitude": 0.2380098, "elevation": null, "source": "osm", "_tags": {"name": "Cap de Taillat", "natural": "peak"}}, {"name": "Cap det Coustau", "latitude": 43.0363661, "longitude": 0.2307231, "elevation": 767.0, "source": "osm", "_tags": {"ele": "767", "name": "Cap det Coustau", "natural": "peak"}}, {"name": "Puyo", "latitude": 43.0698041, "longitude": 0.2298933, "elevation": 664.0, "source": "osm", "_tags": {"ele": "664", "name": "Puyo", "natural": "peak"}}, {"name": "Arrimoun", "latitude": 43.0528845, "longitude": -0.029918, "elevation": 805.0, "source": "osm", "_tags": {"ele": "805", "name": "Arrimoun", "natural": "peak"}}, {"name": "Mail d'Alli", "latitude": 43.0529011, "longitude": -0.0257611, "elevation": 783.0, "source": "osm", "_tags": {"ele": "783", "name": "Mail d'Alli", "natural": "peak"}}, {"name": "Tail", "latitude": 43.0566947, "longitude": 0.0592299, "elevation": 921.0, "source": "osm", "_tags": {"ele": "921", "name": "Tail", "natural": "peak"}}, {"name": "Pic de la Clique", "latitude": 43.0513485, "longitude": 0.0494999, "elevation": 1048.0, "source": "osm", "_tags": {"ele": "1048", "name": "Pic de la Clique", "natural": "peak"}}, {"name": "Cap de Larras", "latitude": 43.0467515, "longitude": 0.0329372, "elevation": 891.0, "source": "osm", "_tags": {"ele": "891", "name": "Cap de Larras", "natural": "peak"}}, {"name": "Massey", "latitude": 43.0600305, "longitude": 0.0177206, "elevation": 805.0, "source": "osm", "_tags": {"ele": "805", "name": "Massey", "natural": "peak"}}, {"name": "Cantet d'Oulets", "latitude": 43.0621007, "longitude": 0.0302196, "elevation": 856.0, "source": "osm", "_tags": {"ele": "856", "name": "Cantet d'Oulets", "natural": "peak"}}, {"name": "la Serre", "latitude": 43.0489433, "longitude": -0.0281322, "elevation": 784.0, "source": "osm", "_tags": {"ele": "784", "name": "la Serre", "natural": "peak"}}, {"name": "Soum de Trées", "latitude": 43.040238, "longitude": -0.0160187, "elevation": 983.0, "source": "osm", "_tags": {"ele": "983", "name": "Soum de Trées", "natural": "peak"}}, {"name": "Soum de Trémou", "latitude": 43.0406214, "longitude": -0.0086292, "elevation": 956.0, "source": "osm", "_tags": {"ele": "956", "name": "Soum de Trémou", "natural": "peak"}}, {"name": "Tuquet de Lhési", "latitude": 43.0323559, "longitude": -0.0261675, "elevation": 1102.0, "source": "osm", "_tags": {"ele": "1102", "name": "Tuquet de Lhési", "natural": "peak"}}, {"name": "Hautacam", "latitude": 43.0024054, "longitude": -0.0147613, "elevation": 1746.0, "source": "osm", "_tags": {"alt_name": "Soum de Dabant Aygue", "ele": "1746", "name": "Hautacam", "natural": "peak"}}, {"name": "Côte de Roc", "latitude": 42.897987, "longitude": 0.847911, "elevation": 1453.0, "source": "osm", "_tags": {"ele": "1453", "name": "Côte de Roc", "natural": "peak"}}, {"name": "Espones", "latitude": 42.9411307, "longitude": 0.8857088, "elevation": 887.0, "source": "osm", "_tags": {"ele": "887", "name": "Espones", "natural": "peak"}}, {"name": "le Tignan", "latitude": 42.9432564, "longitude": 0.9301734, "elevation": 934.0, "source": "osm", "_tags": {"ele": "934", "name": "le Tignan", "natural": "peak"}}, {"name": "Tuc de Coumere", "latitude": 42.8864407, "longitude": 0.9573543, "elevation": 1066.0, "source": "osm", "_tags": {"ele": "1066", "name": "Tuc de Coumere", "natural": "peak"}}, {"name": "le Turon", "latitude": 43.1592286, "longitude": 0.1267523, "elevation": null, "source": "osm", "_tags": {"name": "le Turon", "natural": "peak"}}, {"name": "Cos", "latitude": 43.1340619, "longitude": 0.0591552, "elevation": 500.0, "source": "osm", "_tags": {"ele": "500", "name": "Cos", "natural": "peak"}}, {"name": "las Puyoles", "latitude": 43.1219515, "longitude": 0.0943834, "elevation": 601.0, "source": "osm", "_tags": {"ele": "601", "name": "las Puyoles", "natural": "peak"}}, {"name": "le Turonet", "latitude": 43.1103622, "longitude": -0.0201619, "elevation": null, "source": "osm", "_tags": {"name": "le Turonet", "natural": "peak"}}, {"name": "Pouey Long", "latitude": 43.1115445, "longitude": -0.0040098, "elevation": 601.0, "source": "osm", "_tags": {"ele": "601", "name": "Pouey Long", "natural": "peak"}}, {"name": "le Castéra", "latitude": 43.1165828, "longitude": -0.0216477, "elevation": 565.0, "source": "osm", "_tags": {"ele": "565", "name": "le Castéra", "natural": "peak"}}, {"name": "le Castéra", "latitude": 43.0871731, "longitude": -0.0114682, "elevation": null, "source": "osm", "_tags": {"name": "le Castéra", "natural": "peak"}}, {"name": "Cap de Lauga", "latitude": 43.0726781, "longitude": 0.4042714, "elevation": null, "source": "osm", "_tags": {"name": "Cap de Lauga", "natural": "peak"}}, {"name": "le Bédat", "latitude": 43.0634287, "longitude": 0.3963681, "elevation": 654.0, "source": "osm", "_tags": {"ele": "654", "name": "le Bédat", "natural": "peak"}}, {"name": "les Tuques", "latitude": 43.060342, "longitude": 0.4051641, "elevation": 630.0, "source": "osm", "_tags": {"ele": "630", "name": "les Tuques", "natural": "peak"}}, {"name": "le Couret d'en haut", "latitude": 43.0623728, "longitude": 0.410025, "elevation": 640.0, "source": "osm", "_tags": {"ele": "640", "name": "le Couret d'en haut", "natural": "peak"}}, {"name": "Mont Mezan", "latitude": 43.0595544, "longitude": 0.4465405, "elevation": 613.0, "source": "osm", "_tags": {"ele": "613", "name": "Mont Mezan", "natural": "peak"}}, {"name": "Mont Arès", "latitude": 43.0596394, "longitude": 0.4708129, "elevation": 596.0, "source": "osm", "_tags": {"ele": "596", "name": "Mont Arès", "natural": "peak"}}, {"name": "Monsaoux", "latitude": 43.0580309, "longitude": 0.4802301, "elevation": 551.0, "source": "osm", "_tags": {"ele": "551", "name": "Monsaoux", "natural": "peak"}}, {"name": "ont Aredon", "latitude": 43.0216844, "longitude": 0.5496135, "elevation": 731.0, "source": "osm", "_tags": {"ele": "731", "name": "ont Aredon", "natural": "peak"}}, {"name": "le Bouale", "latitude": 43.0623572, "longitude": 0.5462743, "elevation": 481.0, "source": "osm", "_tags": {"ele": "481", "name": "le Bouale", "natural": "peak"}}, {"name": "Tuco", "latitude": 43.0894749, "longitude": 0.52325, "elevation": null, "source": "osm", "_tags": {"name": "Tuco", "natural": "peak"}}, {"name": "Castéra", "latitude": 42.9885803, "longitude": 0.6202324, "elevation": 641.0, "source": "osm", "_tags": {"ele": "641", "name": "Castéra", "natural": "peak"}}, {"name": "Peré", "latitude": 42.9828751, "longitude": 0.6452031, "elevation": 719.0, "source": "osm", "_tags": {"ele": "719", "name": "Peré", "natural": "peak"}}, {"name": "Mail de Boucou", "latitude": 42.9819101, "longitude": 0.6425272, "elevation": 594.0, "source": "osm", "_tags": {"ele": "594", "name": "Mail de Boucou", "natural": "peak"}}, {"name": "Gouaus", "latitude": 42.9846423, "longitude": 0.6492317, "elevation": 701.0, "source": "osm", "_tags": {"ele": "701", "name": "Gouaus", "natural": "peak"}}, {"name": "les Coustous", "latitude": 42.9911477, "longitude": 0.6428311, "elevation": 838.0, "source": "osm", "_tags": {"ele": "838", "name": "les Coustous", "natural": "peak"}}, {"name": "Caube", "latitude": 43.0124152, "longitude": 0.6366163, "elevation": 941.0, "source": "osm", "_tags": {"ele": "941", "name": "Caube", "natural": "peak"}}, {"name": "Pic de Superpeyre", "latitude": 42.9998326, "longitude": 0.6534458, "elevation": 925.0, "source": "osm", "_tags": {"ele": "925", "name": "Pic de Superpeyre", "natural": "peak"}}, {"name": "Marrquère", "latitude": 43.0020843, "longitude": 0.6562138, "elevation": 934.0, "source": "osm", "_tags": {"ele": "934", "name": "Marrquère", "natural": "peak"}}, {"name": "Rive de Hour", "latitude": 42.9990423, "longitude": 0.6605805, "elevation": 805.0, "source": "osm", "_tags": {"ele": "805", "name": "Rive de Hour", "natural": "peak"}}, {"name": "Mail de Lias", "latitude": 42.9917768, "longitude": 0.6558385, "elevation": 813.0, "source": "osm", "_tags": {"ele": "813", "name": "Mail de Lias", "natural": "peak"}}, {"name": "les Croues", "latitude": 42.9909151, "longitude": 0.6613157, "elevation": null, "source": "osm", "_tags": {"name": "les Croues", "natural": "peak"}}, {"name": "Teillède", "latitude": 42.9938417, "longitude": 0.6617198, "elevation": 801.0, "source": "osm", "_tags": {"ele": "801", "name": "Teillède", "natural": "peak"}}, {"name": "Tarride", "latitude": 42.9903156, "longitude": 0.666757, "elevation": 838.0, "source": "osm", "_tags": {"ele": "838", "name": "Tarride", "natural": "peak"}}, {"name": "Serruille", "latitude": 42.9805872, "longitude": 0.6601021, "elevation": 606.0, "source": "osm", "_tags": {"ele": "606", "name": "Serruille", "natural": "peak"}}, {"name": "Pardios", "latitude": 42.9750299, "longitude": 0.6638565, "elevation": 612.0, "source": "osm", "_tags": {"ele": "612", "name": "Pardios", "natural": "peak"}}, {"name": "Picon", "latitude": 43.0153036, "longitude": 0.716225, "elevation": 803.0, "source": "osm", "_tags": {"ele": "803", "name": "Picon", "natural": "peak"}}, {"name": "Mont Joie", "latitude": 43.0048856, "longitude": 0.7273724, "elevation": 797.0, "source": "osm", "_tags": {"ele": "797", "name": "Mont Joie", "natural": "peak"}}, {"name": "Bouchet", "latitude": 43.0711231, "longitude": 0.5665703, "elevation": null, "source": "osm", "_tags": {"name": "Bouchet", "natural": "peak"}}, {"name": "Picon Garros", "latitude": 43.0587769, "longitude": 0.5755631, "elevation": 631.0, "source": "osm", "_tags": {"ele": "631", "name": "Picon Garros", "natural": "peak"}}, {"name": "Pouy d'Arrivet", "latitude": 43.0474132, "longitude": 0.5720184, "elevation": 566.0, "source": "osm", "_tags": {"ele": "566", "name": "Pouy d'Arrivet", "natural": "peak"}}, {"name": "Catarre", "latitude": 43.0454221, "longitude": 0.5788613, "elevation": null, "source": "osm", "_tags": {"name": "Catarre", "natural": "peak"}}, {"name": "Mont Lau", "latitude": 43.0292, "longitude": 0.5675687, "elevation": 512.0, "source": "osm", "_tags": {"ele": "512", "name": "Mont Lau", "natural": "peak"}}, {"name": "Ares", "latitude": 43.0235171, "longitude": 0.5769214, "elevation": 553.0, "source": "osm", "_tags": {"ele": "553", "name": "Ares", "natural": "peak"}}, {"name": "Juan Malaut", "latitude": 42.9799892, "longitude": 0.6868036, "elevation": 1014.0, "source": "osm", "_tags": {"ele": "1014", "name": "Juan Malaut", "natural": "peak"}}, {"name": "Pic de Perruque", "latitude": 42.9932797, "longitude": 0.6824935, "elevation": 869.0, "source": "osm", "_tags": {"ele": "869", "name": "Pic de Perruque", "natural": "peak"}}, {"name": "Cot de Bellan", "latitude": 42.9907007, "longitude": 0.6877315, "elevation": 820.0, "source": "osm", "_tags": {"ele": "820", "name": "Cot de Bellan", "natural": "peak"}}, {"name": "Boudancio", "latitude": 42.9915272, "longitude": 0.6925683, "elevation": null, "source": "osm", "_tags": {"name": "Boudancio", "natural": "peak"}}, {"name": "les Arrouerets", "latitude": 43.0090755, "longitude": 0.7001318, "elevation": 794.0, "source": "osm", "_tags": {"ele": "794", "name": "les Arrouerets", "natural": "peak"}}, {"name": "Charraute de Bouves", "latitude": 43.0016819, "longitude": 0.6990989, "elevation": 818.0, "source": "osm", "_tags": {"ele": "818", "name": "Charraute de Bouves", "natural": "peak"}}, {"name": "Poujarras", "latitude": 42.9963191, "longitude": 0.6959455, "elevation": 813.0, "source": "osm", "_tags": {"ele": "813", "name": "Poujarras", "natural": "peak"}}, {"name": "Sarrat", "latitude": 42.9939697, "longitude": 0.7001272, "elevation": 852.0, "source": "osm", "_tags": {"ele": "852", "name": "Sarrat", "natural": "peak"}}, {"name": "Prat Piail", "latitude": 42.9861193, "longitude": 0.7004658, "elevation": 931.0, "source": "osm", "_tags": {"ele": "931", "name": "Prat Piail", "natural": "peak"}}, {"name": "Groues", "latitude": 42.9876013, "longitude": 0.7158154, "elevation": 750.0, "source": "osm", "_tags": {"ele": "750", "name": "Groues", "natural": "peak"}}, {"name": "Mail de la Guille", "latitude": 42.987143, "longitude": 0.7046427, "elevation": 917.0, "source": "osm", "_tags": {"ele": "917", "name": "Mail de la Guille", "natural": "peak"}}, {"name": "Tucaut", "latitude": 42.9955158, "longitude": 0.708134, "elevation": 890.0, "source": "osm", "_tags": {"ele": "890", "name": "Tucaut", "natural": "peak"}}, {"name": "Pujo", "latitude": 42.9961749, "longitude": 0.712895, "elevation": 867.0, "source": "osm", "_tags": {"ele": "867", "name": "Pujo", "natural": "peak"}}, {"name": "Mail de la Guillie Laie", "latitude": 43.0036003, "longitude": 0.7109175, "elevation": 905.0, "source": "osm", "_tags": {"ele": "905", "name": "Mail de la Guillie Laie", "natural": "peak"}}, {"name": "Cap de la Goutte", "latitude": 43.0349545, "longitude": 0.6361349, "elevation": 651.0, "source": "osm", "_tags": {"ele": "651", "name": "Cap de la Goutte", "natural": "peak"}}, {"name": "Cap d'Aristou", "latitude": 43.0393475, "longitude": 0.6251984, "elevation": 580.0, "source": "osm", "_tags": {"ele": "580", "name": "Cap d'Aristou", "natural": "peak"}}, {"name": "Pic de Moncouers", "latitude": 43.0443792, "longitude": 0.6302386, "elevation": 628.0, "source": "osm", "_tags": {"ele": "628", "name": "Pic de Moncouers", "natural": "peak"}}, {"name": "Pic de Montagut", "latitude": 43.0424992, "longitude": 0.6359498, "elevation": 636.0, "source": "osm", "_tags": {"ele": "636", "name": "Pic de Montagut", "natural": "peak"}}, {"name": "Sarramendan", "latitude": 43.047149, "longitude": 0.6359242, "elevation": 586.0, "source": "osm", "_tags": {"ele": "586", "name": "Sarramendan", "natural": "peak"}}, {"name": "Cap d'Aumasc", "latitude": 43.0461021, "longitude": 0.6480376, "elevation": 615.0, "source": "osm", "_tags": {"ele": "615", "name": "Cap d'Aumasc", "natural": "peak"}}, {"name": "Pic de Pecavarin", "latitude": 43.0468156, "longitude": 0.6519214, "elevation": 595.0, "source": "osm", "_tags": {"ele": "595", "name": "Pic de Pecavarin", "natural": "peak"}}, {"name": "Sommet de la Hajole", "latitude": 43.0495421, "longitude": 0.6586846, "elevation": 617.0, "source": "osm", "_tags": {"ele": "617", "name": "Sommet de la Hajole", "natural": "peak"}}, {"name": "Mont Majou", "latitude": 43.0527922, "longitude": 0.6413684, "elevation": 618.0, "source": "osm", "_tags": {"ele": "618", "name": "Mont Majou", "natural": "peak"}}, {"name": "Monteil", "latitude": 43.0510552, "longitude": 0.6357032, "elevation": 528.0, "source": "osm", "_tags": {"ele": "528", "name": "Monteil", "natural": "peak"}}, {"name": "la Coumette", "latitude": 43.0561667, "longitude": 0.628708, "elevation": null, "source": "osm", "_tags": {"name": "la Coumette", "natural": "peak"}}, {"name": "Poumajou", "latitude": 43.0398121, "longitude": 0.6780147, "elevation": 524.0, "source": "osm", "_tags": {"ele": "524", "name": "Poumajou", "natural": "peak"}}, {"name": "Couerles de Roston", "latitude": 43.0398866, "longitude": 0.6874581, "elevation": null, "source": "osm", "_tags": {"name": "Couerles de Roston", "natural": "peak"}}, {"name": "Cacillères", "latitude": 43.0250752, "longitude": 0.692936, "elevation": 686.0, "source": "osm", "_tags": {"ele": "686", "name": "Cacillères", "natural": "peak"}}, {"name": "Castera", "latitude": 43.0319613, "longitude": 0.7020019, "elevation": 523.0, "source": "osm", "_tags": {"ele": "523", "name": "Castera", "natural": "peak"}}, {"name": "Cap de Houcheton", "latitude": 43.0693231, "longitude": 0.6546392, "elevation": 599.0, "source": "osm", "_tags": {"ele": "599", "name": "Cap de Houcheton", "natural": "peak"}}, {"name": "Mont Saint-Pey", "latitude": 43.0683458, "longitude": 0.6850324, "elevation": 472.0, "source": "osm", "_tags": {"ele": "472", "name": "Mont Saint-Pey", "natural": "peak"}}, {"name": "Bout du Mont", "latitude": 43.0655997, "longitude": 0.6879532, "elevation": null, "source": "osm", "_tags": {"name": "Bout du Mont", "natural": "peak"}}, {"name": "Mont Jaudat", "latitude": 43.0640737, "longitude": 0.6975551, "elevation": 502.0, "source": "osm", "_tags": {"ele": "502", "name": "Mont Jaudat", "natural": "peak"}}, {"name": "Castillon", "latitude": 43.0599802, "longitude": 0.6835059, "elevation": 556.0, "source": "osm", "_tags": {"ele": "556", "name": "Castillon", "natural": "peak"}}, {"name": "Pic d'Aillo", "latitude": 43.0515459, "longitude": 0.6996889, "elevation": 611.0, "source": "osm", "_tags": {"ele": "611", "name": "Pic d'Aillo", "natural": "peak"}}, {"name": "Cap de Pascau", "latitude": 43.0465791, "longitude": 0.7024342, "elevation": null, "source": "osm", "_tags": {"name": "Cap de Pascau", "natural": "peak"}}, {"name": "Cap de Pascau", "latitude": 43.0508394, "longitude": 0.7059304, "elevation": 574.0, "source": "osm", "_tags": {"ele": "574", "name": "Cap de Pascau", "natural": "peak"}}, {"name": "Cap de Charpeyre", "latitude": 43.0479003, "longitude": 0.7084213, "elevation": 586.0, "source": "osm", "_tags": {"ele": "586", "name": "Cap de Charpeyre", "natural": "peak"}}, {"name": "Montespan", "latitude": 43.0468515, "longitude": 0.7121993, "elevation": null, "source": "osm", "_tags": {"name": "Montespan", "natural": "peak"}}, {"name": "Pic de Bertet", "latitude": 43.0256731, "longitude": 0.7130413, "elevation": null, "source": "osm", "_tags": {"name": "Pic de Bertet", "natural": "peak"}}, {"name": "Castech", "latitude": 43.0171617, "longitude": 0.722411, "elevation": 759.0, "source": "osm", "_tags": {"ele": "759", "name": "Castech", "natural": "peak"}}, {"name": "Pic Poulaté", "latitude": 43.0213111, "longitude": 0.7213784, "elevation": 756.0, "source": "osm", "_tags": {"ele": "756", "name": "Pic Poulaté", "natural": "peak"}}, {"name": "Pic de Bédat", "latitude": 43.0220244, "longitude": 0.7251593, "elevation": 739.0, "source": "osm", "_tags": {"ele": "739", "name": "Pic de Bédat", "natural": "peak"}}, {"name": "Pic de Cabanassès", "latitude": 43.0246102, "longitude": 0.7276961, "elevation": 774.0, "source": "osm", "_tags": {"ele": "774", "name": "Pic de Cabanassès", "natural": "peak"}}, {"name": "le Pain de Sucre", "latitude": 43.0277569, "longitude": 0.7294503, "elevation": 803.0, "source": "osm", "_tags": {"ele": "803", "name": "le Pain de Sucre", "natural": "peak"}}, {"name": "Cap de Laspiède", "latitude": 43.0696548, "longitude": 0.7310854, "elevation": 581.0, "source": "osm", "_tags": {"ele": "581", "name": "Cap de Laspiède", "natural": "peak"}}, {"name": "Sarrat", "latitude": 43.0751487, "longitude": 0.7183176, "elevation": 511.0, "source": "osm", "_tags": {"ele": "511", "name": "Sarrat", "natural": "peak"}}, {"name": "le Puy", "latitude": 43.0859798, "longitude": 0.7209807, "elevation": 535.0, "source": "osm", "_tags": {"ele": "535", "name": "le Puy", "natural": "peak"}}, {"name": "la Serre", "latitude": 43.1122077, "longitude": 0.5552654, "elevation": null, "source": "osm", "_tags": {"name": "la Serre", "natural": "peak"}}, {"name": "Turon", "latitude": 43.110204, "longitude": 0.5745909, "elevation": 505.0, "source": "osm", "_tags": {"ele": "505", "name": "Turon", "natural": "peak"}}, {"name": "Cap de la Bousigue", "latitude": 43.05299, "longitude": 0.6034595, "elevation": 702.0, "source": "osm", "_tags": {"ele": "702", "name": "Cap de la Bousigue", "natural": "peak"}}, {"name": "Castillon", "latitude": 43.0471449, "longitude": 0.6055974, "elevation": 684.0, "source": "osm", "_tags": {"ele": "684", "name": "Castillon", "natural": "peak"}}, {"name": "Cap du Mail", "latitude": 43.0696099, "longitude": 0.7506079, "elevation": 496.0, "source": "osm", "_tags": {"ele": "496", "name": "Cap du Mail", "natural": "peak"}}, {"name": "Sarrat d'Hourbets", "latitude": 43.0621255, "longitude": 0.7369537, "elevation": 475.0, "source": "osm", "_tags": {"ele": "475", "name": "Sarrat d'Hourbets", "natural": "peak"}}, {"name": "Bout des Piques", "latitude": 43.0455712, "longitude": 0.7598344, "elevation": 565.0, "source": "osm", "_tags": {"ele": "565", "name": "Bout des Piques", "natural": "peak"}}, {"name": "Sarrat", "latitude": 43.0358634, "longitude": 0.7806761, "elevation": null, "source": "osm", "_tags": {"name": "Sarrat", "natural": "peak"}}, {"name": "Pic de Montbajan", "latitude": 43.0350208, "longitude": 0.7622686, "elevation": 680.0, "source": "osm", "_tags": {"ele": "680", "name": "Pic de Montbajan", "natural": "peak"}}, {"name": "Mail du Teing", "latitude": 43.0256763, "longitude": 0.7599878, "elevation": 557.0, "source": "osm", "_tags": {"ele": "557", "name": "Mail du Teing", "natural": "peak"}}, {"name": "Mail du Cap de la Pelade", "latitude": 43.0228116, "longitude": 0.76157, "elevation": 560.0, "source": "osm", "_tags": {"ele": "560", "name": "Mail du Cap de la Pelade", "natural": "peak"}}, {"name": "Montidet", "latitude": 43.0174126, "longitude": 0.7578685, "elevation": 441.0, "source": "osm", "_tags": {"ele": "441", "name": "Montidet", "natural": "peak"}}, {"name": "Plan de la Croix", "latitude": 42.9973398, "longitude": 0.7787369, "elevation": 799.0, "source": "osm", "_tags": {"ele": "799", "name": "Plan de la Croix", "natural": "peak"}}, {"name": "le Serre", "latitude": 42.9949131, "longitude": 0.7803789, "elevation": 822.0, "source": "osm", "_tags": {"ele": "822", "name": "le Serre", "natural": "peak"}}, {"name": "les Hougadères", "latitude": 42.9930973, "longitude": 0.7677605, "elevation": 781.0, "source": "osm", "_tags": {"ele": "781", "name": "les Hougadères", "natural": "peak"}}, {"name": "les Paloumères", "latitude": 42.9950221, "longitude": 0.7632132, "elevation": 831.0, "source": "osm", "_tags": {"ele": "831", "name": "les Paloumères", "natural": "peak"}}, {"name": "le Turon", "latitude": 42.9915298, "longitude": 0.744538, "elevation": 572.0, "source": "osm", "_tags": {"ele": "572", "name": "le Turon", "natural": "peak"}}, {"name": "Cap de la Rive", "latitude": 42.9781648, "longitude": 0.7459026, "elevation": 602.0, "source": "osm", "_tags": {"ele": "602", "name": "Cap de la Rive", "natural": "peak"}}, {"name": "Montagne de Pouech", "latitude": 42.9445459, "longitude": 0.7995852, "elevation": 1228.0, "source": "osm", "_tags": {"ele": "1228", "name": "Montagne de Pouech", "natural": "peak"}}, {"name": "les Pugues", "latitude": 42.9493534, "longitude": 0.8071948, "elevation": 976.0, "source": "osm", "_tags": {"ele": "976", "name": "les Pugues", "natural": "peak"}}, {"name": "Plan d'Anso", "latitude": 42.9595983, "longitude": 0.8231129, "elevation": 1102.0, "source": "osm", "_tags": {"ele": "1102", "name": "Plan d'Anso", "natural": "peak"}}, {"name": "Couéu de Picon", "latitude": 42.9696268, "longitude": 0.8240193, "elevation": 1202.0, "source": "osm", "_tags": {"ele": "1202", "name": "Couéu de Picon", "natural": "peak"}}, {"name": "Coubech", "latitude": 42.9901114, "longitude": 0.8290895, "elevation": 1015.0, "source": "osm", "_tags": {"ele": "1015", "name": "Coubech", "natural": "peak"}}, {"name": "Cap de Garrot", "latitude": 43.0278949, "longitude": 0.8022166, "elevation": 527.0, "source": "osm", "_tags": {"ele": "527", "name": "Cap de Garrot", "natural": "peak"}}, {"name": "la Garrosse", "latitude": 43.0293431, "longitude": 0.8126343, "elevation": 498.0, "source": "osm", "_tags": {"ele": "498", "name": "la Garrosse", "natural": "peak"}}, {"name": "la Hage", "latitude": 43.0391632, "longitude": 0.8103437, "elevation": 538.0, "source": "osm", "_tags": {"ele": "538", "name": "la Hage", "natural": "peak"}}, {"name": "Montescat", "latitude": 43.0478807, "longitude": 0.8023205, "elevation": 590.0, "source": "osm", "_tags": {"ele": "590", "name": "Montescat", "natural": "peak"}}, {"name": "Plagnère", "latitude": 43.0506501, "longitude": 0.8115231, "elevation": 504.0, "source": "osm", "_tags": {"ele": "504", "name": "Plagnère", "natural": "peak"}}, {"name": "la Ruère", "latitude": 43.0515056, "longitude": 0.8171035, "elevation": 467.0, "source": "osm", "_tags": {"ele": "467", "name": "la Ruère", "natural": "peak"}}, {"name": "Cap du Dos", "latitude": 43.0764519, "longitude": 0.8038504, "elevation": null, "source": "osm", "_tags": {"name": "Cap du Dos", "natural": "peak"}}, {"name": "le Dos", "latitude": 43.0788794, "longitude": 0.8011488, "elevation": null, "source": "osm", "_tags": {"name": "le Dos", "natural": "peak"}}, {"name": "Cap de l'Espone", "latitude": 43.0812118, "longitude": 0.8038608, "elevation": null, "source": "osm", "_tags": {"name": "Cap de l'Espone", "natural": "peak"}}, {"name": "Montauriol", "latitude": 43.0809115, "longitude": 0.7965536, "elevation": 389.0, "source": "osm", "_tags": {"ele": "389", "name": "Montauriol", "natural": "peak"}}, {"name": "Couéu", "latitude": 42.9958458, "longitude": 0.8378172, "elevation": 1025.0, "source": "osm", "_tags": {"ele": "1025", "name": "Couéu", "natural": "peak"}}, {"name": "Sauère", "latitude": 43.0034923, "longitude": 0.8509387, "elevation": 902.0, "source": "osm", "_tags": {"ele": "902", "name": "Sauère", "natural": "peak"}}, {"name": "Cap de Laclin", "latitude": 43.0157296, "longitude": 0.844708, "elevation": 765.0, "source": "osm", "_tags": {"ele": "765", "name": "Cap de Laclin", "natural": "peak"}}, {"name": "Tuc de la Casse", "latitude": 42.9564013, "longitude": 0.8430486, "elevation": 1538.0, "source": "osm", "_tags": {"ele": "1538", "name": "Tuc de la Casse", "natural": "peak"}}, {"name": "Cap des Teches", "latitude": 42.9582608, "longitude": 0.8647433, "elevation": null, "source": "osm", "_tags": {"name": "Cap des Teches", "natural": "peak"}}, {"name": "Mail de Peyreguile", "latitude": 42.963199, "longitude": 0.8685137, "elevation": null, "source": "osm", "_tags": {"name": "Mail de Peyreguile", "natural": "peak"}}, {"name": "Mail des Hustes", "latitude": 42.973391, "longitude": 0.8805839, "elevation": 1115.0, "source": "osm", "_tags": {"ele": "1115", "name": "Mail des Hustes", "natural": "peak"}}, {"name": "Mail le Bouruse", "latitude": 42.9827293, "longitude": 0.8878819, "elevation": null, "source": "osm", "_tags": {"name": "Mail le Bouruse", "natural": "peak"}}, {"name": "Mail de iech", "latitude": 42.981962, "longitude": 0.8839133, "elevation": null, "source": "osm", "_tags": {"name": "Mail de iech", "natural": "peak"}}, {"name": "Rohr de Péne Blanque", "latitude": 42.9795427, "longitude": 0.8778975, "elevation": 1117.0, "source": "osm", "_tags": {"ele": "1117", "name": "Rohr de Péne Blanque", "natural": "peak"}}, {"name": "Sommet de la Rueron", "latitude": 42.9868016, "longitude": 0.8629612, "elevation": null, "source": "osm", "_tags": {"name": "Sommet de la Rueron", "natural": "peak"}}, {"name": "Cap de l'Aure", "latitude": 42.9898066, "longitude": 0.8718138, "elevation": 904.0, "source": "osm", "_tags": {"ele": "904", "name": "Cap de l'Aure", "natural": "peak"}}, {"name": "Tuc de Masquere", "latitude": 42.9947185, "longitude": 0.8983532, "elevation": 495.0, "source": "osm", "_tags": {"ele": "495", "name": "Tuc de Masquere", "natural": "peak"}}, {"name": "le Tuc", "latitude": 43.0010224, "longitude": 0.9002312, "elevation": 466.0, "source": "osm", "_tags": {"ele": "466", "name": "le Tuc", "natural": "peak"}}, {"name": "Tucau", "latitude": 43.0122665, "longitude": 0.8996321, "elevation": 472.0, "source": "osm", "_tags": {"ele": "472", "name": "Tucau", "natural": "peak"}}, {"name": "Mont Caup", "latitude": 43.0249662, "longitude": 0.8928483, "elevation": 517.0, "source": "osm", "_tags": {"ele": "517", "name": "Mont Caup", "natural": "peak"}}, {"name": "Lozes", "latitude": 43.0295407, "longitude": 0.8870681, "elevation": 423.0, "source": "osm", "_tags": {"ele": "423", "name": "Lozes", "natural": "peak"}}, {"name": "Tuque d'Artigouli", "latitude": 43.0184989, "longitude": 0.8601494, "elevation": 769.0, "source": "osm", "_tags": {"ele": "769", "name": "Tuque d'Artigouli", "natural": "peak"}}, {"name": "Plan du Lac", "latitude": 43.0223463, "longitude": 0.8675255, "elevation": null, "source": "osm", "_tags": {"name": "Plan du Lac", "natural": "peak"}}, {"name": "le Thouas", "latitude": 43.0246012, "longitude": 0.8706142, "elevation": 812.0, "source": "osm", "_tags": {"ele": "812", "name": "le Thouas", "natural": "peak"}}, {"name": "la Pique", "latitude": 43.0297043, "longitude": 0.8696786, "elevation": 684.0, "source": "osm", "_tags": {"ele": "684", "name": "la Pique", "natural": "peak"}}, {"name": "Cap du Sarrach", "latitude": 43.0319121, "longitude": 0.869802, "elevation": 616.0, "source": "osm", "_tags": {"ele": "616", "name": "Cap du Sarrach", "natural": "peak"}}, {"name": "Ruérole", "latitude": 43.0312082, "longitude": 0.8756662, "elevation": 627.0, "source": "osm", "_tags": {"ele": "627", "name": "Ruérole", "natural": "peak"}}, {"name": "Rouère d'Alle", "latitude": 43.0398448, "longitude": 0.8702573, "elevation": 628.0, "source": "osm", "_tags": {"ele": "628", "name": "Rouère d'Alle", "natural": "peak"}}, {"name": "le Régon", "latitude": 43.0376527, "longitude": 0.8592372, "elevation": 577.0, "source": "osm", "_tags": {"ele": "577", "name": "le Régon", "natural": "peak"}}, {"name": "le Castérot", "latitude": 43.0347613, "longitude": 0.85385, "elevation": 547.0, "source": "osm", "_tags": {"ele": "547", "name": "le Castérot", "natural": "peak"}}, {"name": "le Croudet", "latitude": 43.0314815, "longitude": 0.8600507, "elevation": 648.0, "source": "osm", "_tags": {"ele": "648", "name": "le Croudet", "natural": "peak"}}, {"name": "la Rouère de Cériros", "latitude": 43.0258286, "longitude": 0.8517328, "elevation": 656.0, "source": "osm", "_tags": {"ele": "656", "name": "la Rouère de Cériros", "natural": "peak"}}, {"name": "la Picoulette", "latitude": 43.021546, "longitude": 0.8530524, "elevation": 695.0, "source": "osm", "_tags": {"ele": "695", "name": "la Picoulette", "natural": "peak"}}, {"name": "Peyregade", "latitude": 43.05569, "longitude": 0.8689569, "elevation": 493.0, "source": "osm", "_tags": {"ele": "493", "name": "Peyregade", "natural": "peak"}}, {"name": "Mont Arlech", "latitude": 43.0765676, "longitude": 0.8578872, "elevation": null, "source": "osm", "_tags": {"name": "Mont Arlech", "natural": "peak"}}, {"name": "Sommet du Col Plan", "latitude": 43.0752037, "longitude": 0.8526775, "elevation": null, "source": "osm", "_tags": {"name": "Sommet du Col Plan", "natural": "peak"}}, {"name": "", "latitude": 43.0760601, "longitude": 0.8470631, "elevation": 488.0, "source": "osm", "_tags": {"ele": "488", "natural": "peak"}}, {"name": "les Vignaques", "latitude": 43.086141, "longitude": 0.8618359, "elevation": 451.0, "source": "osm", "_tags": {"ele": "451", "name": "les Vignaques", "natural": "peak"}}, {"name": "la Rouère", "latitude": 43.0831956, "longitude": 0.8690968, "elevation": 484.0, "source": "osm", "_tags": {"ele": "484", "name": "la Rouère", "natural": "peak"}}, {"name": "Cap du Castel", "latitude": 43.0758896, "longitude": 0.9561559, "elevation": null, "source": "osm", "_tags": {"name": "Cap du Castel", "natural": "peak"}}, {"name": "Tuquet", "latitude": 43.0738987, "longitude": 0.9291788, "elevation": null, "source": "osm", "_tags": {"name": "Tuquet", "natural": "peak"}}, {"name": "Cap du Tuc", "latitude": 43.0461264, "longitude": 0.9026623, "elevation": null, "source": "osm", "_tags": {"name": "Cap du Tuc", "natural": "peak"}}, {"name": "Poueigh", "latitude": 43.1139363, "longitude": 0.9427975, "elevation": 433.0, "source": "osm", "_tags": {"ele": "433", "name": "Poueigh", "natural": "peak"}}, {"name": "Tuquet", "latitude": 43.1007655, "longitude": 0.9274323, "elevation": null, "source": "osm", "_tags": {"name": "Tuquet", "natural": "peak"}}, {"name": "Poumarau", "latitude": 43.1027878, "longitude": 0.9376365, "elevation": null, "source": "osm", "_tags": {"name": "Poumarau", "natural": "peak"}}, {"name": "Serres", "latitude": 43.0961933, "longitude": 0.9413942, "elevation": null, "source": "osm", "_tags": {"name": "Serres", "natural": "peak"}}, {"name": "Montayan", "latitude": 43.0969025, "longitude": 0.9571081, "elevation": null, "source": "osm", "_tags": {"name": "Montayan", "natural": "peak"}}, {"name": "Cap du Tuc", "latitude": 43.0583223, "longitude": 0.9342223, "elevation": null, "source": "osm", "_tags": {"name": "Cap du Tuc", "natural": "peak"}}, {"name": "Lasère", "latitude": 43.0615324, "longitude": 0.9496966, "elevation": null, "source": "osm", "_tags": {"name": "Lasère", "natural": "peak"}}, {"name": "Montaudet", "latitude": 43.0546928, "longitude": 0.9455561, "elevation": null, "source": "osm", "_tags": {"name": "Montaudet", "natural": "peak"}}, {"name": "Tucau", "latitude": 43.0440084, "longitude": 0.9607844, "elevation": null, "source": "osm", "_tags": {"name": "Tucau", "natural": "peak"}}, {"name": "Mont Caud", "latitude": 43.0426245, "longitude": 0.9576585, "elevation": null, "source": "osm", "_tags": {"name": "Mont Caud", "natural": "peak"}}, {"name": "Touquères", "latitude": 43.0306218, "longitude": 0.9544302, "elevation": 503.0, "source": "osm", "_tags": {"ele": "503", "name": "Touquères", "natural": "peak"}}, {"name": "Montignous", "latitude": 43.0274057, "longitude": 0.9454909, "elevation": 606.0, "source": "osm", "_tags": {"ele": "606", "name": "Montignous", "natural": "peak"}}, {"name": "Cap de la pale", "latitude": 43.0343421, "longitude": 0.9437954, "elevation": 607.0, "source": "osm", "_tags": {"ele": "607", "name": "Cap de la pale", "natural": "peak"}}, {"name": "Tuetch", "latitude": 43.046134, "longitude": 0.9026553, "elevation": 420.0, "source": "osm", "_tags": {"ele": "420", "name": "Tuetch", "natural": "peak"}}, {"name": "Tiquet", "latitude": 43.0399357, "longitude": 0.9093733, "elevation": 388.0, "source": "osm", "_tags": {"ele": "388", "name": "Tiquet", "natural": "peak"}}, {"name": "la Plane", "latitude": 43.0278033, "longitude": 0.9120878, "elevation": 440.0, "source": "osm", "_tags": {"ele": "440", "name": "la Plane", "natural": "peak"}}, {"name": "Coustalat", "latitude": 43.0261785, "longitude": 0.9088883, "elevation": 446.0, "source": "osm", "_tags": {"ele": "446", "name": "Coustalat", "natural": "peak"}}, {"name": "Sommet de Radin", "latitude": 43.017732, "longitude": 0.920763, "elevation": 659.0, "source": "osm", "_tags": {"ele": "659", "name": "Sommet de Radin", "natural": "peak"}}, {"name": "Tucas", "latitude": 43.018031, "longitude": 0.9278713, "elevation": 702.0, "source": "osm", "_tags": {"ele": "702", "name": "Tucas", "natural": "peak"}}, {"name": "Laugères", "latitude": 43.0144778, "longitude": 0.9254486, "elevation": 689.0, "source": "osm", "_tags": {"ele": "689", "name": "Laugères", "natural": "peak"}}, {"name": "Mont Majou", "latitude": 43.0026289, "longitude": 0.9333035, "elevation": 763.0, "source": "osm", "_tags": {"ele": "763", "name": "Mont Majou", "natural": "peak"}}, {"name": "Cap de la Pale", "latitude": 42.9955292, "longitude": 0.9332823, "elevation": 727.0, "source": "osm", "_tags": {"ele": "727", "name": "Cap de la Pale", "natural": "peak"}}, {"name": "Tuc d'Agal", "latitude": 42.9859196, "longitude": 0.9560188, "elevation": 913.0, "source": "osm", "_tags": {"ele": "913", "name": "Tuc d'Agal", "natural": "peak"}}, {"name": "Poupelat", "latitude": 42.9504339, "longitude": 0.9577276, "elevation": 873.0, "source": "osm", "_tags": {"ele": "873", "name": "Poupelat", "natural": "peak"}}, {"name": "Tuc de Gausset", "latitude": 42.9508515, "longitude": 0.9429348, "elevation": 976.0, "source": "osm", "_tags": {"ele": "976", "name": "Tuc de Gausset", "natural": "peak"}}, {"name": "Tuc de Linguet", "latitude": 42.9661456, "longitude": 0.9504994, "elevation": 1332.0, "source": "osm", "_tags": {"ele": "1332", "name": "Tuc de Linguet", "natural": "peak"}}, {"name": "Tuc de Graué", "latitude": 42.9658166, "longitude": 0.9360205, "elevation": null, "source": "osm", "_tags": {"name": "Tuc de Graué", "natural": "peak"}}, {"name": "Montagnat", "latitude": 42.9817919, "longitude": 0.9126223, "elevation": 815.0, "source": "osm", "_tags": {"ele": "815", "name": "Montagnat", "natural": "peak"}}, {"name": "Sougasses", "latitude": 42.9721278, "longitude": 0.9049281, "elevation": 833.0, "source": "osm", "_tags": {"ele": "833", "name": "Sougasses", "natural": "peak"}}, {"name": "Côte Rouge", "latitude": 42.9504948, "longitude": 0.9078617, "elevation": 1157.0, "source": "osm", "_tags": {"ele": "1157", "name": "Côte Rouge", "natural": "peak"}}, {"name": "PIc de Mardans", "latitude": 42.899944, "longitude": 0.9506254, "elevation": 1706.0, "source": "osm", "_tags": {"ele": "1706", "name": "PIc de Mardans", "natural": "peak"}}]