[{"name": "Mount Middleton", "latitude": 56.2650369, "longitude": -130.615449, "elevation": 1667.0, "source": "osm", "_tags": {"alt_name": "Monument 27", "ele": "1667", "historic": "boundary_stone", "man_made": "survey_point", "name": "Mount Middleton", "name:fr": "Borne frontière 27", "natural": "peak", "operator": "International Boundary Commission", "ref": "MON 27", "source": "CA-US International Boundary Commission", "start_date": "1920"}}, {"name": "Mount Stoeckl", "latitude": 56.3668442, "longitude": -130.78198, "elevation": 1828.0, "source": "osm", "_tags": {"alt_name": "Monument 40", "ele": "1828", "historic": "boundary_stone", "man_made": "survey_point", "name": "Mount Stoeckl", "name:fr": "Borne frontière 40", "natural": "peak", "operator": "International Boundary Commission", "ref": "MON 40", "source": "CA-US International Boundary Commission", "start_date": "1905"}}, {"name": "Mount Lewis Cass", "latitude": 56.4060047, "longitude": -131.087348, "elevation": 1840.0, "source": "osm", "_tags": {"alt_name": "Unmarked Boundary Point 47", "ele": "1840", "man_made": "survey_point", "name": "Mount Lewis Cass", "name:fr": "Point frontalier non-marqué 47", "natural": "peak", "operator": "International Boundary Commission", "ref": "BP 47", "source": "CA-US International Boundary Commission", "start_date": "1907"}}, {"name": "Mount Pounder", "latitude": 56.4495239, "longitude": -131.173466, "elevation": 1985.0, "source": "osm", "_tags": {"alt_name": "Unmarked Boundary Point 48", "ele": "1985", "man_made": "survey_point", "name": "Mount Pounder", "name:fr": "Point frontalier non-marqué 48", "natural": "peak", "operator": "International Boundary Commission", "ref": "BP 48", "source": "CA-US International Boundary Commission", "start_date": "1907"}}, {"name": "Mount Willibert", "latitude": 56.2430533, "longitude": -130.46787, "elevation": 2146.0, "source": "osm", "_tags": {"alt_name": "Monument 23", "ele": "2146", "historic": "boundary_stone", "man_made": "survey_point", "name": "Mount Willibert", "name:fr": "Borne frontière 23", "natural": "peak", "operator": "International Boundary Commission", "ref": "MON 23", "source": "CA-US International Boundary Commission;NRCan-CanVec-10.0", "start_date": "1909"}}, {"name": "Mount Blaine", "latitude": 56.2474506, "longitude": -130.540531, "elevation": 1790.0, "source": "osm", "_tags": {"alt_name": "Monument 24", "ele": "1790", "historic": "boundary_stone", "man_made": "survey_point", "name": "Mount Blaine", "name:fr": "Borne frontière 24", "natural": "peak", "operator": "International Boundary Commission", "ref": "MON 24", "source": "CA-US International Boundary Commission", "start_date": "1909"}}, {"name": "Mount John Jay", "latitude": 56.1415614, "longitude": -130.426006, "elevation": 2102.0, "source": "osm", "_tags": {"alt_name": "Boundary point 18", "ele": "2102", "historic": "boundary_stone", "man_made": "survey_point", "name": "Mount John Jay", "name:fr": "Borne frontière 18", "natural": "peak", "operator": "International Boundary Commission", "ref": "BP 18", "source": "CA-US International Boundary Commission;NRCan-CanVec-10.0", "start_date": "1905"}}, {"name": "Mount Upshur", "latitude": 56.1285419, "longitude": -130.35009, "elevation": 2052.0, "source": "osm", "_tags": {"alt_name": "Monument 17", "ele": "2052", "historic": "boundary_stone", "man_made": "survey_point", "name": "Mount Upshur", "name:fr": "Borne frontière 17", "natural": "peak", "operator": "International Boundary Commission", "ref": "MON 17", "source": "CA-US International Boundary Commission;NRCan-CanVec-10.0", "start_date": "1905"}}, {"name": "Mount Frank Mackie", "latitude": 56.3151554, "longitude": -130.3266283, "elevation": 2386.0, "source": "osm", "_tags": {"ele": "2386", "name": "Mount Frank Mackie", "natural": "peak", "source": "NRCan-CanVec-10.0"}}, {"name": "Mosheim Dome", "latitude": 56.3768847, "longitude": -130.85965, "elevation": 1956.0, "source": "osm", "_tags": {"alt_name": "Monument 41", "ele": "1956", "historic": "boundary_stone", "man_made": "survey_point", "name": "Mosheim Dome", "name:fr": "Borne frontière 41", "natural": "peak", "operator": "International Boundary Commission", "ref": "MON 41", "source": "CA-US International Boundary Commission", "start_date": "1909"}}, {"name": "Unuk Finger", "latitude": 56.4372679, "longitude": -130.4021535, "elevation": 2365.0, "source": "osm", "_tags": {"ele": "2365", "name": "Unuk Finger", "natural": "peak", "source": "NRCan-CanVec-10.0"}}, {"name": "Mount Madge", "latitude": 56.4624795, "longitude": -130.445446, "elevation": 1688.0, "source": "osm", "_tags": {"ele": "1688", "name": "Mount Madge", "natural": "peak", "source": "NRCan-CanVec-10.0"}}, {"name": "Lehua Mountain", "latitude": 56.49092, "longitude": -130.7714653, "elevation": 2462.0, "source": "osm", "_tags": {"ele": "2462", "name": "Lehua Mountain", "natural": "peak", "source": "NRCan-CanVec-10.0"}}, {"name": "The Beak", "latitude": 56.4757243, "longitude": -130.7755316, "elevation": 2247.0, "source": "osm", "_tags": {"ele": "2247", "name": "The Beak", "natural": "peak", "source": "NRCan-CanVec-10.0"}}, {"name": "Ptarmigan Peak", "latitude": 56.440029, "longitude": -130.9498762, "elevation": 1985.0, "source": "osm", "_tags": {"ele": "1985", "name": "Ptarmigan Peak", "natural": "peak", "source": "NRCan-CanVec-10.0"}}, {"name": "John Peaks", "latitude": 56.529043, "longitude": -130.431826, "elevation": 2163.0, "source": "osm", "_tags": {"ele": "2163", "name": "John Peaks", "natural": "peak", "source": "NRCan-CanVec-10.0"}}, {"name": "Dickins Peak", "latitude": 56.2647838, "longitude": -130.7042499, "elevation": 1874.0, "source": "osm", "_tags": {"ele": "1874", "gnis:feature_id": "1421461", "name": "Dickins Peak", "natural": "peak"}}, {"name": "Spur Mountain", "latitude": 56.1726499, "longitude": -131.0985973, "elevation": 1503.0, "source": "osm", "_tags": {"ele": "1503", "gnis:feature_id": "1414947", "name": "Spur Mountain", "natural": "peak"}}, {"name": "Mount Reid", "latitude": 55.7063802, "longitude": -131.2468201, "elevation": 1378.0, "source": "osm", "_tags": {"ele": "1378", "gnis:feature_id": "1424802", "name": "Mount Reid", "natural": "peak"}}, {"name": "Banded Mountain", "latitude": 56.0253734, "longitude": -130.3841247, "elevation": 1720.0, "source": "osm", "_tags": {"ele": "1720", "gnis:feature_id": "1420222", "name": "Banded Mountain", "natural": "peak"}}, {"name": "Mount Wilson", "latitude": 56.0961427, "longitude": -130.3651517, "elevation": 2229.0, "source": "osm", "_tags": {"ele": "2229", "gnis:feature_id": "1415784", "name": "Mount Wilson", "natural": "peak"}}, {"name": "Mount Lewis Cass", "latitude": 56.4060063, "longitude": -131.0850904, "elevation": 2010.0, "source": "osm", "_tags": {"ele": "2010", "name": "Mount Lewis Cass", "natural": "peak", "source": "NRCan-CanVec-10.0"}}, {"name": "Mount Zara", "latitude": 56.4662799, "longitude": -131.0505996, "elevation": 1920.0, "source": "osm", "_tags": {"ele": "1920", "name": "Mount Zara", "natural": "peak", "source": "NRCan-CanVec-10.0"}}, {"name": "Mount Pounder", "latitude": 56.4502434, "longitude": -131.1753827, "elevation": 1979.0, "source": "osm", "_tags": {"ele": "1979", "name": "Mount Pounder", "natural": "peak", "source": "NRCan-CanVec-10.0"}}, {"name": "Mount Alex", "latitude": 56.4726407, "longitude": -131.1719422, "elevation": 2052.0, "source": "osm", "_tags": {"ele": "2052", "name": "Mount Alex", "natural": "peak", "source": "NRCan-CanVec-10.0"}}, {"name": "Olatine Mountain", "latitude": 56.4829027, "longitude": -130.9625195, "elevation": 2192.0, "source": "osm", "_tags": {"ele": "2192", "name": "Olatine Mountain", "natural": "peak", "source": "NRCan-CanVec-10.0"}}, {"name": "Mount Stoeckl", "latitude": 56.3673529, "longitude": -130.7806546, "elevation": 1816.0, "source": "osm", "_tags": {"ele": "1816", "name": "Mount Stoeckl", "natural": "peak", "source": "NRCan-CanVec-10.0"}}, {"name": "McQuillan Ridge", "latitude": 56.3760936, "longitude": -130.5807772, "elevation": 2059.0, "source": "osm", "_tags": {"ele": "2059", "name": "McQuillan Ridge", "natural": "peak", "source": "NRCan-CanVec-10.0"}}, {"name": "McQuillan Ridge", "latitude": 56.4200525, "longitude": -130.5237479, "elevation": 1553.0, "source": "osm", "_tags": {"ele": "1553", "name": "McQuillan Ridge", "natural": "peak", "source": "NRCan-CanVec-10.0"}}, {"name": "Mount Dunn", "latitude": 56.4349617, "longitude": -130.7317183, "elevation": 1882.0, "source": "osm", "_tags": {"ele": "1882", "name": "Mount Dunn", "natural": "peak", "source": "NRCan-CanVec-10.0"}}, {"name": "McQuillan Ridge", "latitude": 56.4003386, "longitude": -130.545007, "elevation": 1612.0, "source": "osm", "_tags": {"ele": "1612", "name": "McQuillan Ridge", "natural": "peak", "source": "NRCan-CanVec-10.0"}}, {"name": "Benno Mountain", "latitude": 56.5221242, "longitude": -131.1854165, "elevation": 1743.0, "source": "osm", "_tags": {"ele": "1743", "name": "Benno Mountain", "natural": "peak", "source": "NRCan-CanVec-10.0"}}]