[{"name": "Mount Whipple", "latitude": 56.6122319, "longitude": -131.581067, "elevation": 1595.0, "source": "osm", "_tags": {"alt_name": "Unmarked Boundary Point 54", "ele": "1595", "man_made": "survey_point", "name": "Mount Whipple", "name:fr": "Point frontalier non-marqué 54", "natural": "peak", "operator": "International Boundary Commission", "ref": "BP 54", "source": "CA-US International Boundary Commission", "start_date": "1905"}}, {"name": "Mount Fawcett", "latitude": 56.5525902, "longitude": -131.471829, "elevation": 1844.0, "source": "osm", "_tags": {"alt_name": "Unmarked Boundary Point 53", "ele": "1844", "man_made": "survey_point", "name": "Mount Fawcett", "name:fr": "Point frontalier non-marqué 53", "natural": "peak", "operator": "International Boundary Commission", "ref": "BP 53", "source": "CA-US International Boundary Commission", "start_date": "1907"}}, {"name": "Mount Cote", "latitude": 56.5992028, "longitude": -131.835327, "elevation": 1309.0, "source": "osm", "_tags": {"alt_name": "Monument 62", "ele": "1309", "historic": "boundary_stone", "man_made": "survey_point", "name": "Mount Cote", "name:fr": "Borne frontière 62", "natural": "peak", "operator": "International Boundary Commission", "ref": "MON 62", "source": "CA-US International Boundary Commission", "start_date": "1904"}}, {"name": "Elbow Mountain", "latitude": 56.7029842, "longitude": -131.860669, "elevation": 1294.0, "source": "osm", "_tags": {"alt_name": "Monument 66", "ele": "1294", "historic": "boundary_stone", "man_made": "survey_point", "name": "Elbow Mountain", "name:fr": "Borne frontière 66", "natural": "peak", "operator": "International Boundary Commission", "ref": "MON 66", "source": "CA-US International Boundary Commission", "start_date": "1904"}}, {"name": "Mount Gallatin", "latitude": 56.753675, "longitude": -131.9010717, "elevation": 1526.0, "source": "osm", "_tags": {"ele": "1526", "man_made": "survey_point", "name": "Mount Gallatin", "natural": "peak", "operator": "International Boundary Commission", "ref": "BP 67", "source": "CA-US International Boundary Commission", "start_date": "1904", "wikidata": "Q16981599", "wikipedia": "en:Mount Gallatin"}}, {"name": "Castle Mountain", "latitude": 56.8736483, "longitude": -132.123567, "elevation": 2107.0, "source": "osm", "_tags": {"alt_name": "Boundary Point 69", "ele": "2107", "man_made": "survey_point", "name": "Castle Mountain", "name:fr": "Point frontalier non-marqué 69", "natural": "peak", "operator": "International Boundary Commission", "ref": "BP 69", "source": "CA-US International Boundary Commission", "source:position": "USGS Topo", "start_date": "1904"}}, {"name": "Kates Needle", "latitude": 57.0450592, "longitude": -132.045191, "elevation": 3053.0, "source": "osm", "_tags": {"alt_name": "Boundary Point 70", "ele": "3053", "gnis:feature_id": "1420636", "man_made": "survey_point", "name": "Kates Needle", "name:fr": "Point frontalier non-marqué 70", "natural": "peak", "operator": "International Boundary Commission", "ref": "BP 70", "source": "CA-US International Boundary Commission", "start_date": "1907", "wikidata": "Q6376005", "wikipedia": "en:Kates Needle"}}, {"name": "Unmarked Boundary Point 72", "latitude": 57.2112533, "longitude": -132.247921, "elevation": 2296.0, "source": "osm", "_tags": {"ele": "2296", "man_made": "survey_point", "name": "Unmarked Boundary Point 72", "name:fr": "Point frontalier non-marqué 72", "natural": "peak", "operator": "International Boundary Commission", "ref": "BP 72", "source": "CA-US International Boundary Commission", "start_date": "1907"}}, {"name": "Mount Talbot", "latitude": 56.805995, "longitude": -131.8728761, "elevation": 1332.0, "source": "osm", "_tags": {"ele": "1332", "historic": "boundary_stone", "man_made": "survey_point", "name": "Mount Talbot", "natural": "peak", "operator": "International Boundary Commission", "ref": "MON 68", "source": "CA-US International Boundary Commission", "start_date": "1904"}}, {"name": "Ambition Mountain", "latitude": 57.3950231, "longitude": -131.4852662, "elevation": 2953.0, "source": "osm", "_tags": {"ele": "2953", "name": "Ambition Mountain", "natural": "peak"}}, {"name": "Glacier Mountain", "latitude": 56.7793947, "longitude": -131.8472779, "elevation": 1433.0, "source": "osm", "_tags": {"ele": "1433", "name": "Glacier Mountain", "natural": "peak", "wikidata": "Q22646087"}}, {"name": "Devils Elbow Mountain", "latitude": 57.5002445, "longitude": -131.6766342, "elevation": 2198.0, "source": "osm", "_tags": {"ele": "2198", "name": "Devils Elbow Mountain", "natural": "peak", "source": "NRCan-CanVec-10.0"}}, {"name": "Endeavour Mountain", "latitude": 57.4229625, "longitude": -131.4999379, "elevation": 2820.0, "source": "osm", "_tags": {"ele": "2820", "name": "Endeavour Mountain", "natural": "peak", "source": "NRCan-CanVec-10.0"}}, {"name": "Dokdaon Mountain", "latitude": 57.4525498, "longitude": -131.4855811, "elevation": 2595.0, "source": "osm", "_tags": {"ele": "2595", "name": "Dokdaon Mountain", "natural": "peak", "source": "NRCan-CanVec-10.0"}}, {"name": "Commander Mountain", "latitude": 57.2933923, "longitude": -131.9768574, "elevation": 2163.0, "source": "osm", "_tags": {"ele": "2163", "name": "Commander Mountain", "natural": "peak", "source": "NRCan-CanVec-10.0"}}, {"name": "Geology Ridge", "latitude": 57.3675719, "longitude": -131.9989047, "elevation": 1878.0, "source": "osm", "_tags": {"ele": "1878", "name": "Geology Ridge", "natural": "peak", "source": "NRCan-CanVec-10.0"}}, {"name": "Geology Ridge", "latitude": 57.3525158, "longitude": -131.9335953, "elevation": 1581.0, "source": "osm", "_tags": {"ele": "1581", "name": "Geology Ridge", "natural": "peak", "source": "NRCan-CanVec-10.0"}}, {"name": "Mount Donnaker", "latitude": 57.4587454, "longitude": -131.8861252, "elevation": 1775.0, "source": "osm", "_tags": {"ele": "1775", "name": "Mount Donnaker", "natural": "peak", "source": "NRCan-CanVec-10.0"}}, {"name": "Cirque Mountain", "latitude": 57.4839367, "longitude": -131.8583942, "elevation": 1787.0, "source": "osm", "_tags": {"ele": "1787", "name": "Cirque Mountain", "natural": "peak", "source": "NRCan-CanVec-10.0"}}, {"name": "Mount Jonquette", "latitude": 57.4051912, "longitude": -131.8500163, "elevation": 1642.0, "source": "osm", "_tags": {"ele": "1642", "name": "Mount Jonquette", "natural": "peak", "source": "NRCan-CanVec-10.0"}}, {"name": "Hamper Mountain", "latitude": 57.4307662, "longitude": -131.665391, "elevation": 1814.0, "source": "osm", "_tags": {"ele": "1814", "name": "Hamper Mountain", "natural": "peak", "source": "NRCan-CanVec-10.0"}}, {"name": "Phacops Mountain", "latitude": 57.4722534, "longitude": -131.6859375, "elevation": 2111.0, "source": "osm", "_tags": {"ele": "2111", "name": "Phacops Mountain", "natural": "peak", "source": "NRCan-CanVec-10.0"}}, {"name": "Butterfly Mountain", "latitude": 57.4619214, "longitude": -131.6545262, "elevation": 2022.0, "source": "osm", "_tags": {"ele": "2022", "name": "Butterfly Mountain", "natural": "peak", "source": "NRCan-CanVec-10.0"}}, {"name": "Oksa Mountain", "latitude": 57.4308548, "longitude": -131.7152796, "elevation": 1767.0, "source": "osm", "_tags": {"ele": "1767", "name": "Oksa Mountain", "natural": "peak", "source": "NRCan-CanVec-10.0"}}, {"name": "Cone Mountain", "latitude": 57.3676603, "longitude": -131.6970104, "elevation": 2117.0, "source": "osm", "_tags": {"ele": "2117", "name": "Cone Mountain", "natural": "peak", "source": "NRCan-CanVec-10.0"}}, {"name": "Cornice Mountain", "latitude": 57.1360564, "longitude": -131.9506989, "elevation": 1498.0, "source": "osm", "_tags": {"ele": "1498", "name": "Cornice Mountain", "natural": "peak", "source": "NRCan-CanVec-10.0"}}, {"name": "Mount Rufus", "latitude": 57.218751, "longitude": -131.9753945, "elevation": 2058.0, "source": "osm", "_tags": {"ele": "2058", "name": "Mount Rufus", "natural": "peak", "source": "NRCan-CanVec-10.0"}}, {"name": "Alpha Mountain", "latitude": 57.1500409, "longitude": -131.8556229, "elevation": 1710.0, "source": "osm", "_tags": {"ele": "1710", "name": "Alpha Mountain", "natural": "peak", "source": "NRCan-CanVec-10.0"}}, {"name": "Saddle Mountain", "latitude": 57.1289195, "longitude": -131.627659, "elevation": 1534.0, "source": "osm", "_tags": {"ele": "1534", "name": "Saddle Mountain", "natural": "peak", "source": "NRCan-CanVec-10.0"}}, {"name": "Mount Pereleshin", "latitude": 57.2340485, "longitude": -131.7267732, "elevation": 1990.0, "source": "osm", "_tags": {"ele": "1990", "name": "Mount Pereleshin", "natural": "peak", "source": "NRCan-CanVec-10.0"}}, {"name": "Saddlehorn Mountain", "latitude": 57.1515239, "longitude": -131.5485137, "elevation": 2129.0, "source": "osm", "_tags": {"ele": "2129", "name": "Saddlehorn Mountain", "natural": "peak", "source": "NRCan-CanVec-10.0"}}, {"name": "Mount Scotsimpson", "latitude": 57.0712647, "longitude": -131.5780123, "elevation": 2065.0, "source": "osm", "_tags": {"ele": "2065", "name": "Mount Scotsimpson", "natural": "peak", "source": "NRCan-CanVec-10.0"}}, {"name": "Surprise Mountain", "latitude": 56.7898042, "longitude": -131.4679896, "elevation": 2231.0, "source": "osm", "_tags": {"ele": "2231", "name": "Surprise Mountain", "natural": "peak", "source": "NRCan-CanVec-10.0"}}, {"name": "Pheno Mountain", "latitude": 56.9161367, "longitude": -131.4542158, "elevation": 2278.0, "source": "osm", "_tags": {"ele": "2278", "name": "Pheno Mountain", "natural": "peak", "source": "NRCan-CanVec-10.0"}}, {"name": "Mount Gilroy", "latitude": 57.0817589, "longitude": -132.1432789, "elevation": 2706.0, "source": "osm", "_tags": {"ele": "2706", "name": "Mount Gilroy", "natural": "peak", "source": "NRCan-CanVec-10.0"}}, {"name": "Dominion Mountain", "latitude": 57.1121128, "longitude": -132.0201378, "elevation": 1967.0, "source": "osm", "_tags": {"ele": "1967", "name": "Dominion Mountain", "natural": "peak", "source": "NRCan-CanVec-10.0"}}, {"name": "Geology Ridge", "latitude": 57.394173, "longitude": -132.0084008, "elevation": 1790.0, "source": "osm", "_tags": {"ele": "1790", "name": "Geology Ridge", "natural": "peak", "source": "NRCan-CanVec-10.0"}}, {"name": "Geology Ridge", "latitude": 57.3623814, "longitude": -132.0017986, "elevation": 1770.0, "source": "osm", "_tags": {"ele": "1770", "name": "Geology Ridge", "natural": "peak", "source": "NRCan-CanVec-10.0"}}, {"name": "Mount Flemer", "latitude": 56.6200663, "longitude": -131.9542838, "elevation": 1430.0, "source": "osm", "_tags": {"ele": "1430", "gnis:feature_id": "1421974", "name": "Mount Flemer", "natural": "peak"}}, {"name": "Mount Rynda", "latitude": 56.6487621, "longitude": -132.2581407, "elevation": 730.0, "source": "osm", "_tags": {"ele": "730", "gnis:feature_id": "1414388", "name": "Mount Rynda", "natural": "peak"}}, {"name": "Mount Basargin", "latitude": 56.7332073, "longitude": -132.2263382, "elevation": 713.0, "source": "osm", "_tags": {"ele": "713", "gnis:feature_id": "1420256", "name": "Mount Basargin", "natural": "peak"}}, {"name": "Big Mountain", "latitude": 56.7232965, "longitude": -131.9075474, "elevation": 1422.0, "source": "osm", "_tags": {"ele": "1422", "gnis:feature_id": "1893625", "name": "Big Mountain", "natural": "peak"}}, {"name": "Mount Stinenia", "latitude": 56.6756203, "longitude": -132.1422131, "elevation": 1249.0, "source": "osm", "_tags": {"ele": "1249", "gnis:feature_id": "1415013", "name": "Mount Stinenia", "natural": "peak"}}, {"name": "Black Crag", "latitude": 56.546564, "longitude": -131.7139306, "elevation": 1711.0, "source": "osm", "_tags": {"ele": "1711", "gnis:feature_id": "1420470", "name": "Black Crag", "natural": "peak"}}, {"name": "Mount Pratt", "latitude": 56.9544849, "longitude": -132.1270672, "elevation": 2400.0, "source": "osm", "_tags": {"ele": "2400", "gnis:feature_id": "1424641", "name": "Mount Pratt", "natural": "peak"}}, {"name": "Fizzle Mountain", "latitude": 56.6661367, "longitude": -131.443543, "elevation": 1750.0, "source": "osm", "_tags": {"ele": "1750", "name": "Fizzle Mountain", "natural": "peak", "source": "NRCan-CanVec-10.0"}}, {"name": "Zippa Mountain", "latitude": 56.6526039, "longitude": -131.3129242, "elevation": 1484.0, "source": "osm", "_tags": {"ele": "1484", "name": "Zippa Mountain", "natural": "peak", "source": "NRCan-CanVec-10.0"}}, {"name": "Mount Rastus", "latitude": 56.5547938, "longitude": -131.3939491, "elevation": 1862.0, "source": "osm", "_tags": {"ele": "1862", "name": "Mount Rastus", "natural": "peak", "source": "NRCan-CanVec-10.0"}}, {"name": "Mount Claude", "latitude": 56.6247199, "longitude": -131.3630921, "elevation": 1886.0, "source": "osm", "_tags": {"ele": "1886", "name": "Mount Claude", "natural": "peak", "source": "NRCan-CanVec-10.0"}}, {"name": "Simma Mountain", "latitude": 56.5921746, "longitude": -131.3570012, "elevation": 1862.0, "source": "osm", "_tags": {"ele": "1862", "name": "Simma Mountain", "natural": "peak", "source": "NRCan-CanVec-10.0"}}, {"name": "Inhini Mountain", "latitude": 56.6044606, "longitude": -131.4084, "elevation": 1829.0, "source": "osm", "_tags": {"ele": "1829", "name": "Inhini Mountain", "natural": "peak", "source": "NRCan-CanVec-10.0"}}]