[{"name": "Shell Mountain", "latitude": 57.1253424, "longitude": -135.6861466, "elevation": null, "source": "osm", "_tags": {"name": "Shell Mountain", "natural": "peak"}}, {"name": "Khaz Peak", "latitude": 57.500248, "longitude": -135.9573654, "elevation": 819.0, "source": "osm", "_tags": {"ele": "819", "name": "Khaz Peak", "natural": "peak"}}, {"name": "Mount Kliuchef", "latitude": 56.8386533, "longitude": -135.3395266, "elevation": null, "source": "osm", "_tags": {"name": "Mount Kliuchef", "natural": "peak"}}, {"name": "Camel Mountain", "latitude": 56.8699037, "longitude": -135.3312868, "elevation": 565.0, "source": "osm", "_tags": {"ele": "565", "name": "Camel Mountain", "natural": "peak"}}, {"name": "Mount Kincad", "latitude": 56.9534977, "longitude": -135.3249354, "elevation": 779.0, "source": "osm", "_tags": {"ele": "779", "name": "Mount Kincad", "natural": "peak"}}, {"name": "Annahootz Mountain", "latitude": 57.2874498, "longitude": -135.3131938, "elevation": 1311.0, "source": "osm", "_tags": {"ele": "1311", "name": "Annahootz Mountain", "natural": "peak"}}, {"name": "Mount Rosenberg", "latitude": 57.2831147, "longitude": -135.3235929, "elevation": null, "source": "osm", "_tags": {"name": "Mount Rosenberg", "natural": "peak"}}, {"name": "Harbor Mountain", "latitude": 57.0937489, "longitude": -135.32929, "elevation": 963.0, "source": "osm", "_tags": {"ele": "963", "name": "Harbor Mountain", "name:en": "Harbor Mountain", "name:tli": "Tax̱gu", "natural": "peak"}}, {"name": "No Name Mountain", "latitude": 57.1224075, "longitude": -135.3819025, "elevation": null, "source": "osm", "_tags": {"name": "No Name Mountain", "natural": "peak"}}, {"name": "Saddle Mountain", "latitude": 57.1085022, "longitude": -135.3914817, "elevation": null, "source": "osm", "_tags": {"name": "Saddle Mountain", "natural": "peak"}}, {"name": "", "latitude": 57.0821725, "longitude": -135.7044985, "elevation": null, "source": "osm", "_tags": {"name:en": "Crater Ridge", "name:tli": "L'úx Yátx'i", "natural": "peak"}}, {"name": "", "latitude": 57.2326872, "longitude": -135.7521283, "elevation": 680.0, "source": "osm", "_tags": {"ele": "680", "natural": "peak"}}, {"name": "Gavan Hill", "latitude": 57.085287, "longitude": -135.3070556, "elevation": 801.0, "source": "osm", "_tags": {"ele": "801", "gnis:feature_id": "1422117", "name": "Gavan Hill", "natural": "peak"}}, {"name": "The Beehive", "latitude": 56.7815113, "longitude": -135.4025399, "elevation": 141.0, "source": "osm", "_tags": {"ele": "141", "gnis:feature_id": "1415232", "name": "The Beehive", "natural": "peak"}}, {"name": "Montana de San Jacinto", "latitude": 57.0292596, "longitude": -135.7988797, "elevation": 346.0, "source": "osm", "_tags": {"ele": "346", "gnis:feature_id": "1896486", "name": "Montana de San Jacinto", "natural": "peak"}}, {"name": "Mount Georgiana", "latitude": 57.3284681, "longitude": -135.8432727, "elevation": 415.0, "source": "osm", "_tags": {"ele": "415", "gnis:feature_id": "1422129", "name": "Mount Georgiana", "natural": "peak"}}, {"name": "Krestof Mountain", "latitude": 57.1786591, "longitude": -135.4858613, "elevation": 503.0, "source": "osm", "_tags": {"ele": "503", "gnis:feature_id": "1423157", "name": "Krestof Mountain", "natural": "peak"}}, {"name": "Harbor Peak", "latitude": 57.0738352, "longitude": -135.3325504, "elevation": 670.0, "source": "osm", "_tags": {"ele": "670", "name": "Harbor Peak", "name:en": "Harbor Peak", "name:tli": "Tsísk’u Goojí", "natural": "peak"}}]