[{"name": "Trident Peak", "latitude": 56.7281718, "longitude": -124.0824082, "elevation": 2090.0, "source": "osm", "_tags": {"ele": "2090", "name": "Trident Peak", "natural": "peak", "source": "NRCan-CanVec-8.0", "wikidata": "Q22525078"}}, {"name": "Mount Lady Laurier", "latitude": 56.6824992, "longitude": -123.7844566, "elevation": 2362.0, "source": "osm", "_tags": {"ele": "2362", "name": "Mount Lady Laurier", "natural": "peak", "source": "NRCan-CanVec-8.0"}}, {"name": "Montagnes Rocheuses", "latitude": 56.8672556, "longitude": -123.739793, "elevation": 1960.0, "source": "osm", "_tags": {"ele": "1960", "name": "Montagnes Rocheuses", "natural": "peak", "source": "NRCan-CanVec-7.0"}}, {"name": "Mount Kenny", "latitude": 56.9256602, "longitude": -123.8170129, "elevation": 2669.0, "source": "osm", "_tags": {"ele": "2669", "name": "Mount Kenny", "natural": "peak", "source": "NRCan-CanVec-7.0", "wikidata": "Q22439878"}}, {"name": "Mount Laurier", "latitude": 56.7763073, "longitude": -123.4831669, "elevation": 2351.0, "source": "osm", "_tags": {"ele": "2351", "name": "Mount Laurier", "natural": "peak", "source": "NRCan-CanVec-7.0", "wikidata": "Q22441498"}}, {"name": "Mount Robb", "latitude": 56.8616459, "longitude": -123.8136129, "elevation": 2543.0, "source": "osm", "_tags": {"ele": "2543", "name": "Mount Robb", "natural": "peak", "source": "NRCan-CanVec-7.0"}}, {"name": "Mount Penelope", "latitude": 57.3324552, "longitude": -124.0737917, "elevation": 2815.0, "source": "osm", "_tags": {"ele": "2815", "name": "Mount Penelope", "natural": "peak", "source": "NRCan-CanVec-10.0"}}, {"name": "Mount Ulysses", "latitude": 57.346396, "longitude": -124.0932273, "elevation": 3024.0, "source": "osm", "_tags": {"ele": "3024", "name": "Mount Ulysses", "natural": "peak", "prominence": "2304", "source": "NRCan-CanVec-10.0", "source:prominence": "3024-720 (Col between Melbern and Grand Pacific Glaciers) at the E of Mt Fairweather", "wikidata": "Q3548164", "wikipedia": "en:Mount Ulysses"}}, {"name": "Mount Ford", "latitude": 57.1897391, "longitude": -124.0993738, "elevation": 2296.0, "source": "osm", "_tags": {"ele": "2296", "name": "Mount Ford", "natural": "peak", "source": "NRCan-CanVec-10.0", "wikidata": "Q22430467"}}, {"name": "Montagnes Rocheuses", "latitude": 57.1194113, "longitude": -124.2562241, "elevation": 1178.0, "source": "osm", "_tags": {"ele": "1178", "name": "Montagnes Rocheuses", "name:en": "Rocky Mountains", "name:fr": "Montagnes Rocheuses", "natural": "peak", "source": "NRCan-CanVec-10.0"}}, {"name": "Great Snow Mountain", "latitude": 57.4491511, "longitude": -124.0987454, "elevation": 2948.0, "source": "osm", "_tags": {"ele": "2948", "name": "Great Snow Mountain", "natural": "peak", "source": "NRCan-CanVec-10.0", "wikidata": "Q22426049"}}, {"name": "Cyclops Peak", "latitude": 57.3669526, "longitude": -124.1988609, "elevation": 2683.0, "source": "osm", "_tags": {"ele": "2683", "name": "Cyclops Peak", "natural": "peak", "source": "NRCan-CanVec-10.0", "wikidata": "Q22551980"}}, {"name": "Mount Eurylochos", "latitude": 57.3864776, "longitude": -124.0771436, "elevation": 2770.0, "source": "osm", "_tags": {"ele": "2770", "name": "Mount Eurylochos", "natural": "peak", "source": "NRCan-CanVec-10.0"}}, {"name": "Montagnes Rocheuses", "latitude": 57.3552602, "longitude": -124.2542184, "elevation": 2159.0, "source": "osm", "_tags": {"ele": "2159", "name": "Montagnes Rocheuses", "name:en": "Rocky Mountains", "name:fr": "Montagnes Rocheuses", "natural": "peak", "source": "NRCan-CanVec-10.0"}}, {"name": "Mount Telemachos", "latitude": 57.3387208, "longitude": -124.0337846, "elevation": 2766.0, "source": "osm", "_tags": {"ele": "2766", "name": "Mount Telemachos", "natural": "peak", "source": "NRCan-CanVec-10.0"}}, {"name": "Mount Circe", "latitude": 57.4255557, "longitude": -124.1178028, "elevation": 2803.0, "source": "osm", "_tags": {"ele": "2803", "name": "Mount Circe", "natural": "peak", "source": "NRCan-CanVec-10.0"}}, {"name": "Great Rock Peak", "latitude": 57.4449097, "longitude": -124.0715921, "elevation": 2898.0, "source": "osm", "_tags": {"ele": "2898", "name": "Great Rock Peak", "natural": "peak", "source": "NRCan-CanVec-10.0", "wikidata": "Q22425923"}}, {"name": "Mount Stearns", "latitude": 57.0255067, "longitude": -123.3965564, "elevation": 1942.0, "source": "osm", "_tags": {"ele": "1942", "name": "Mount Stearns", "natural": "peak", "source": "NRCan-CanVec-10.0"}}, {"name": "Mount Trimble (Southeast Summit)", "latitude": 57.2499017, "longitude": -123.6104901, "elevation": 2120.0, "source": "osm", "_tags": {"ele": "2120", "name": "Mount Trimble (Southeast Summit)", "natural": "peak", "source": "NRCan-CanVec-10.0"}}, {"name": "Mount Bertha", "latitude": 57.1972516, "longitude": -123.7249964, "elevation": 2127.0, "source": "osm", "_tags": {"ele": "2127", "name": "Mount Bertha", "natural": "peak", "source": "NRCan-CanVec-10.0", "wikidata": "Q22416719"}}, {"name": "Montagnes Rocheuses", "latitude": 57.1196951, "longitude": -123.8957299, "elevation": 1763.0, "source": "osm", "_tags": {"ele": "1763", "name": "Montagnes Rocheuses", "name:en": "Rocky Mountains", "name:fr": "Montagnes Rocheuses", "natural": "peak", "source": "NRCan-CanVec-10.0"}}, {"name": "Mount McCusker", "latitude": 57.0811845, "longitude": -123.9256194, "elevation": 2581.0, "source": "osm", "_tags": {"ele": "2581", "name": "Mount McCusker", "natural": "peak", "source": "NRCan-CanVec-10.0", "wikidata": "Q22547037"}}, {"name": "Montagnes Rocheuses", "latitude": 57.3827071, "longitude": -123.8628155, "elevation": 2296.0, "source": "osm", "_tags": {"ele": "2296", "name": "Montagnes Rocheuses", "name:en": "Rocky Mountains", "name:fr": "Montagnes Rocheuses", "natural": "peak", "source": "NRCan-CanVec-10.0"}}, {"name": "Mount Trimble (Northwest Summit)", "latitude": 57.2504407, "longitude": -123.6110455, "elevation": 2114.0, "source": "osm", "_tags": {"ele": "2114", "name": "Mount Trimble (Northwest Summit)", "natural": "peak", "source": "NRCan-CanVec-10.0"}}, {"name": "Mount Helen", "latitude": 57.2745953, "longitude": -123.9194232, "elevation": 2537.0, "source": "osm", "_tags": {"ele": "2537", "name": "Mount Helen", "natural": "peak", "source": "NRCan-CanVec-10.0"}}, {"name": "Mount Stringer", "latitude": 57.44555, "longitude": -123.9736967, "elevation": 2782.0, "source": "osm", "_tags": {"ele": "2782", "name": "Mount Stringer", "natural": "peak", "source": "NRCan-CanVec-10.0", "wikidata": "Q22555108"}}, {"name": "Mount Dopp", "latitude": 57.3450119, "longitude": -123.7403967, "elevation": 2011.0, "source": "osm", "_tags": {"ele": "2011", "name": "Mount Dopp", "natural": "peak", "source": "NRCan-CanVec-10.0"}}, {"name": "Redfern Mountain", "latitude": 57.3976796, "longitude": -123.9354846, "elevation": 2575.0, "source": "osm", "_tags": {"ele": "2575", "name": "Redfern Mountain", "natural": "peak", "source": "NRCan-CanVec-10.0", "wikidata": "Q24250847"}}, {"name": "Montagnes Rocheuses", "latitude": 57.2687769, "longitude": -123.7845968, "elevation": 1473.0, "source": "osm", "_tags": {"ele": "1473", "name": "Montagnes Rocheuses", "name:en": "Rocky Mountains", "name:fr": "Montagnes Rocheuses", "natural": "peak", "source": "NRCan-CanVec-10.0"}}, {"name": "Montagnes Rocheuses", "latitude": 57.4859124, "longitude": -123.9141322, "elevation": 1265.0, "source": "osm", "_tags": {"ele": "1265", "name": "Montagnes Rocheuses", "name:en": "Rocky Mountains", "name:fr": "Montagnes Rocheuses", "natural": "peak", "source": "NRCan-CanVec-10.0"}}, {"name": "Mount Withrow", "latitude": 57.2581626, "longitude": -123.4011635, "elevation": 1958.0, "source": "osm", "_tags": {"ele": "1958", "name": "Mount Withrow", "natural": "peak", "source": "NRCan-CanVec-10.0", "wikidata": "Q22557874"}}, {"name": "Mount Boe", "latitude": 57.5297668, "longitude": -123.9848649, "elevation": 2600.0, "source": "osm", "_tags": {"ele": "2600", "name": "Mount Boe", "natural": "peak", "source": "NRCan-CanVec-10.0"}}]