[{"name": "", "latitude": 57.4493562, "longitude": -125.778408, "elevation": 1675.0, "source": "osm", "_tags": {"ele": "1675", "natural": "peak"}}, {"name": "", "latitude": 56.9393091, "longitude": -125.6962968, "elevation": 2148.0, "source": "osm", "_tags": {"ele": "2148", "natural": "peak"}}, {"name": "", "latitude": 56.9217463, "longitude": -125.6750108, "elevation": 1906.0, "source": "osm", "_tags": {"ele": "1906", "natural": "peak"}}, {"name": "", "latitude": 56.9108298, "longitude": -125.6496049, "elevation": 1795.0, "source": "osm", "_tags": {"ele": "1795", "natural": "peak"}}, {"name": "Mount Russel", "latitude": 57.1095388, "longitude": -125.7853436, "elevation": 2061.0, "source": "osm", "_tags": {"ele": "2061", "name": "Mount Russel", "natural": "peak", "source": "NRCan-CanVec-10.0"}}, {"name": "", "latitude": 57.1585888, "longitude": -125.6492186, "elevation": 2065.0, "source": "osm", "_tags": {"ele": "2065", "natural": "peak"}}, {"name": "McGraw Peak", "latitude": 57.1166704, "longitude": -125.6208291, "elevation": 2219.0, "source": "osm", "_tags": {"ele": "2219", "name": "McGraw Peak", "natural": "peak", "source": "NRCan-CanVec-10.0", "wikidata": "Q22474575"}}, {"name": "Pivot Peak", "latitude": 57.0868094, "longitude": -125.415458, "elevation": 1873.0, "source": "osm", "_tags": {"ele": "1873", "name": "Pivot Peak", "natural": "peak", "source": "NRCan-CanVec-10.0", "wikidata": "Q22382423"}}, {"name": "", "latitude": 57.3800001, "longitude": -125.6650544, "elevation": 1474.0, "source": "osm", "_tags": {"ele": "1474", "natural": "peak"}}, {"name": "Mount Bennett", "latitude": 57.3690814, "longitude": -125.6965542, "elevation": 1975.0, "source": "osm", "_tags": {"ele": "1975", "name": "Mount Bennett", "natural": "peak", "source": "NRCan-CanVec-10.0", "wikidata": "Q22416377"}}, {"name": "Prairie Mountain", "latitude": 57.4384442, "longitude": -125.738375, "elevation": 1565.0, "source": "osm", "_tags": {"ele": "1565", "name": "Prairie Mountain", "natural": "peak", "source": "NRCan-CanVec-10.0", "wikidata": "Q22562550"}}, {"name": "Mount Bower", "latitude": 57.4726678, "longitude": -126.0765429, "elevation": 1939.0, "source": "osm", "_tags": {"ele": "1939", "name": "Mount Bower", "natural": "peak", "source": "NRCan-CanVec-10.0"}}, {"name": "Mount Irish", "latitude": 57.4066353, "longitude": -125.9761094, "elevation": 2266.0, "source": "osm", "_tags": {"ele": "2266", "name": "Mount Irish", "natural": "peak", "source": "NRCan-CanVec-10.0"}}, {"name": "", "latitude": 57.3444952, "longitude": -126.0415079, "elevation": 1823.0, "source": "osm", "_tags": {"ele": "1823", "natural": "peak"}}, {"name": "", "latitude": 57.3975317, "longitude": -126.2303354, "elevation": 1849.0, "source": "osm", "_tags": {"ele": "1849", "natural": "peak"}}, {"name": "", "latitude": 57.3804166, "longitude": -126.1271669, "elevation": 1525.0, "source": "osm", "_tags": {"ele": "1525", "natural": "peak"}}, {"name": "", "latitude": 57.2778365, "longitude": -126.1089707, "elevation": 2128.0, "source": "osm", "_tags": {"ele": "2128", "natural": "peak"}}, {"name": "", "latitude": 57.292727, "longitude": -126.2216664, "elevation": 2138.0, "source": "osm", "_tags": {"ele": "2138", "natural": "peak"}}, {"name": "", "latitude": 57.2091047, "longitude": -125.5368234, "elevation": 1562.0, "source": "osm", "_tags": {"ele": "1562", "natural": "peak"}}, {"name": "", "latitude": 57.2355444, "longitude": -125.709858, "elevation": 1867.0, "source": "osm", "_tags": {"ele": "1867", "natural": "peak"}}, {"name": "Fleet Peak", "latitude": 56.7799831, "longitude": -126.2714856, "elevation": 2329.0, "source": "osm", "_tags": {"ele": "2329", "name": "Fleet Peak", "natural": "peak", "source": "NRCan-CanVec-10.0", "wikidata": "Q22482618"}}, {"name": "Mount Basnett", "latitude": 57.5189193, "longitude": -126.2270227, "elevation": 1987.0, "source": "osm", "_tags": {"ele": "1987", "name": "Mount Basnett", "natural": "peak", "source": "NRCan-CanVec-10.0", "wikidata": "Q22415561"}}, {"name": "Mount Lay", "latitude": 56.5452524, "longitude": -125.5477609, "elevation": 2201.0, "source": "osm", "_tags": {"ele": "2201", "name": "Mount Lay", "natural": "peak", "source": "NRCan-CanVec-10.0", "wikidata": "Q22441639"}}, {"name": "Mount Melvin", "latitude": 56.8657192, "longitude": -125.9227854, "elevation": 2179.0, "source": "osm", "_tags": {"ele": "2179", "name": "Mount Melvin", "natural": "peak", "source": "NRCan-CanVec-10.0", "wikidata": "Q22547724"}}, {"name": "Ravenal Peak (West Summit)", "latitude": 56.8830475, "longitude": -125.5042909, "elevation": 2076.0, "source": "osm", "_tags": {"ele": "2076", "name": "Ravenal Peak (West Summit)", "natural": "peak", "source": "NRCan-CanVec-10.0"}}, {"name": "Conical Peak", "latitude": 56.7918384, "longitude": -125.9758204, "elevation": 2248.0, "source": "osm", "_tags": {"ele": "2248", "name": "Conical Peak", "natural": "peak", "source": "NRCan-CanVec-10.0", "wikidata": "Q22533573"}}, {"name": "Forres Mountain", "latitude": 56.8153102, "longitude": -125.6215105, "elevation": 2006.0, "source": "osm", "_tags": {"ele": "2006", "name": "Forres Mountain", "natural": "peak", "source": "NRCan-CanVec-10.0", "wikidata": "Q22493251"}}, {"name": "Pelly Peak", "latitude": 56.8356084, "longitude": -125.3842134, "elevation": 2041.0, "source": "osm", "_tags": {"ele": "2041", "name": "Pelly Peak", "natural": "peak", "source": "NRCan-CanVec-10.0"}}, {"name": "Barrier Peak", "latitude": 56.8586314, "longitude": -125.2981339, "elevation": 2080.0, "source": "osm", "_tags": {"ele": "2080", "name": "Barrier Peak", "natural": "peak", "source": "NRCan-CanVec-10.0", "wikidata": "Q22528454"}}, {"name": "Ravenal Peak (East Summit)", "latitude": 56.8829151, "longitude": -125.4996608, "elevation": 2015.0, "source": "osm", "_tags": {"ele": "2015", "name": "Ravenal Peak (East Summit)", "natural": "peak", "source": "NRCan-CanVec-10.0"}}, {"name": "England Mountain", "latitude": 57.0003052, "longitude": -125.3737896, "elevation": 2080.0, "source": "osm", "_tags": {"ele": "2080", "name": "England Mountain", "natural": "peak", "source": "NRCan-CanVec-10.0"}}, {"name": "Montagnes Rocheuses", "latitude": 57.3556044, "longitude": -125.5098008, "elevation": 759.0, "source": "osm", "_tags": {"ele": "759", "name": "Montagnes Rocheuses", "name:en": "Rocky Mountains", "name:fr": "Montagnes Rocheuses", "natural": "peak", "source": "NRCan-CanVec-10.0"}}, {"name": "Kwadacha Mountain", "latitude": 57.4482982, "longitude": -125.5839567, "elevation": 1622.0, "source": "osm", "_tags": {"ele": "1622", "name": "Kwadacha Mountain", "natural": "peak", "source": "NRCan-CanVec-10.0", "wikidata": "Q22563179"}}, {"name": "Mount Haworth", "latitude": 57.4997436, "longitude": -125.5396955, "elevation": 1679.0, "source": "osm", "_tags": {"ele": "1679", "name": "Mount Haworth", "natural": "peak", "source": "NRCan-CanVec-10.0"}}, {"name": "Montagnes Rocheuses", "latitude": 57.4971943, "longitude": -125.5865727, "elevation": 987.0, "source": "osm", "_tags": {"ele": "987", "name": "Montagnes Rocheuses", "name:en": "Rocky Mountains", "name:fr": "Montagnes Rocheuses", "natural": "peak", "source": "NRCan-CanVec-10.0"}}, {"name": "Grave Mountain", "latitude": 57.3019065, "longitude": -125.3931951, "elevation": 1433.0, "source": "osm", "_tags": {"ele": "1433", "name": "Grave Mountain", "natural": "peak", "source": "NRCan-CanVec-10.0", "wikidata": "Q22419179"}}, {"name": "Mount Paul", "latitude": 57.3533362, "longitude": -125.4572281, "elevation": 1551.0, "source": "osm", "_tags": {"ele": "1551", "name": "Mount Paul", "natural": "peak", "source": "NRCan-CanVec-10.0", "wikidata": "Q22550245"}}, {"name": "Mount Haworth", "latitude": 57.5044163, "longitude": -125.5330563, "elevation": 1866.0, "source": "osm", "_tags": {"ele": "1866", "name": "Mount Haworth", "natural": "peak", "source": "NRCan-CanVec-10.0", "wikidata": "Q22435637"}}, {"name": "Montagnes Rocheuses", "latitude": 57.5019625, "longitude": -125.5616769, "elevation": 1356.0, "source": "osm", "_tags": {"ele": "1356", "name": "Montagnes Rocheuses", "name:en": "Rocky Mountains", "name:fr": "Montagnes Rocheuses", "natural": "peak", "source": "NRCan-CanVec-10.0"}}]