[{"name": "", "latitude": 57.6973596, "longitude": -126.3652612, "elevation": 1872.0, "source": "osm", "_tags": {"ele": "1872", "natural": "peak"}}, {"name": "", "latitude": 57.7005243, "longitude": -126.3830281, "elevation": 1877.0, "source": "osm", "_tags": {"ele": "1877", "natural": "peak"}}, {"name": "", "latitude": 57.6957083, "longitude": -126.4988995, "elevation": 1777.0, "source": "osm", "_tags": {"ele": "1777", "natural": "peak"}}, {"name": "", "latitude": 57.7300023, "longitude": -126.452036, "elevation": 1156.0, "source": "osm", "_tags": {"ele": "1156", "natural": "peak"}}, {"name": "Mount Ward", "latitude": 57.5964861, "longitude": -126.4324935, "elevation": 2016.0, "source": "osm", "_tags": {"ele": "2016", "name": "Mount Ward", "natural": "peak", "source": "NRCan-CanVec-10.0"}}, {"name": "Pulpit Peak", "latitude": 57.6005309, "longitude": -126.6734635, "elevation": 2573.0, "source": "osm", "_tags": {"ele": "2573", "name": "Pulpit Peak", "natural": "peak", "source": "NRCan-CanVec-10.0", "wikidata": "Q22620166"}}, {"name": "Mount Cushing", "latitude": 57.6151389, "longitude": -126.8497065, "elevation": 2627.0, "source": "osm", "_tags": {"ele": "2627", "name": "Mount Cushing", "natural": "peak", "source": "NRCan-CanVec-10.0"}}, {"name": "Spiked Peak", "latitude": 57.6071311, "longitude": -126.6902599, "elevation": 2504.0, "source": "osm", "_tags": {"ele": "2504", "name": "Spiked Peak", "natural": "peak", "source": "NRCan-CanVec-10.0"}}, {"name": "Claw Mountain", "latitude": 57.5820814, "longitude": -127.2779071, "elevation": 2168.0, "source": "osm", "_tags": {"ele": "2168", "name": "Claw Mountain", "natural": "peak", "source": "NRCan-CanVec-10.0"}}, {"name": "Mount McNamara", "latitude": 57.6568553, "longitude": -127.2286781, "elevation": 2514.0, "source": "osm", "_tags": {"ele": "2514", "name": "Mount McNamara", "natural": "peak", "source": "NRCan-CanVec-10.0"}}, {"name": "Harmon Peak", "latitude": 57.5577287, "longitude": -127.1452349, "elevation": 2078.0, "source": "osm", "_tags": {"ele": "2078", "name": "Harmon Peak", "natural": "peak", "source": "NRCan-CanVec-10.0"}}, {"name": "Thudaka Peak", "latitude": 57.927124, "longitude": -126.848572, "elevation": 2739.0, "source": "osm", "_tags": {"ele": "2739", "name": "Thudaka Peak", "natural": "peak", "source": "NRCan-CanVec-10.0", "wikidata": "Q7798675", "wikipedia": "en:Thudaka Peak"}}, {"name": "Flat Top Mountain", "latitude": 57.9357931, "longitude": -126.3766904, "elevation": 2187.0, "source": "osm", "_tags": {"ele": "2187", "name": "Flat Top Mountain", "natural": "peak", "source": "NRCan-CanVec-10.0"}}, {"name": "Mount Slocomb", "latitude": 57.8882346, "longitude": -126.3214722, "elevation": 2228.0, "source": "osm", "_tags": {"ele": "2228", "name": "Mount Slocomb", "natural": "peak", "source": "NRCan-CanVec-10.0"}}, {"name": "Mount New", "latitude": 58.2446492, "longitude": -126.435744, "elevation": 2102.0, "source": "osm", "_tags": {"ele": "2102", "name": "Mount New", "natural": "peak", "source": "NRCan-CanVec-10.0"}}, {"name": "Bighorn Mountain", "latitude": 58.1721116, "longitude": -126.3985779, "elevation": 1936.0, "source": "osm", "_tags": {"ele": "1936", "name": "Bighorn Mountain", "natural": "peak", "source": "NRCan-CanVec-10.0"}}, {"name": "Montagnes Rocheuses", "latitude": 58.3744859, "longitude": -126.522912, "elevation": 1579.0, "source": "osm", "_tags": {"ele": "1579", "name": "Montagnes Rocheuses", "name:en": "Rocky Mountains", "name:fr": "Montagnes Rocheuses", "natural": "peak", "source": "NRCan-CanVec-10.0"}}, {"name": "Montagnes Rocheuses", "latitude": 58.4285208, "longitude": -126.6012194, "elevation": 1297.0, "source": "osm", "_tags": {"ele": "1297", "name": "Montagnes Rocheuses", "name:en": "Rocky Mountains", "name:fr": "Montagnes Rocheuses", "natural": "peak", "source": "NRCan-CanVec-10.0"}}, {"name": "Forsberg Ridge", "latitude": 58.3921949, "longitude": -126.6508647, "elevation": 1412.0, "source": "osm", "_tags": {"ele": "1412", "name": "Forsberg Ridge", "natural": "peak", "source": "NRCan-CanVec-10.0"}}, {"name": "Montagnes Rocheuses", "latitude": 58.4853737, "longitude": -126.6960588, "elevation": 867.0, "source": "osm", "_tags": {"ele": "867", "name": "Montagnes Rocheuses", "name:en": "Rocky Mountains", "name:fr": "Montagnes Rocheuses", "natural": "peak", "source": "NRCan-CanVec-10.0"}}, {"name": "Valemont Mountain", "latitude": 58.2968376, "longitude": -126.6391835, "elevation": 1625.0, "source": "osm", "_tags": {"ele": "1625", "name": "Valemont Mountain", "natural": "peak", "source": "NRCan-CanVec-10.0"}}, {"name": "Split Top Mountain", "latitude": 58.4933646, "longitude": -126.5694351, "elevation": 1645.0, "source": "osm", "_tags": {"ele": "1645", "name": "Split Top Mountain", "natural": "peak", "source": "NRCan-CanVec-10.0"}}, {"name": "Montagnes Rocheuses", "latitude": 58.5044148, "longitude": -126.5782254, "elevation": 1207.0, "source": "osm", "_tags": {"ele": "1207", "name": "Montagnes Rocheuses", "name:en": "Rocky Mountains", "name:fr": "Montagnes Rocheuses", "natural": "peak", "source": "NRCan-CanVec-10.0"}}]