[{"name": "Miners Peak", "latitude": 58.5140806, "longitude": -125.4351616, "elevation": 2475.0, "source": "osm", "_tags": {"ele": "2475", "name": "Miners Peak", "natural": "peak", "source": "NRCan-CanVec-8.0"}}, {"name": "Alexandria Peak", "latitude": 58.4470333, "longitude": -125.367579, "elevation": 2549.0, "source": "osm", "_tags": {"ele": "2549", "name": "Alexandria Peak", "natural": "peak", "source": "NRCan-CanVec-10.0"}}, {"name": "Arnhem Mountain", "latitude": 58.4093398, "longitude": -125.4344527, "elevation": 2827.0, "source": "osm", "_tags": {"ele": "2827", "name": "Arnhem Mountain", "natural": "peak", "source": "NRCan-CanVec-10.0"}}, {"name": "Caen Mountain", "latitude": 58.3311978, "longitude": -125.3212382, "elevation": 2740.0, "source": "osm", "_tags": {"ele": "2740", "name": "Caen Mountain", "natural": "peak", "source": "NRCan-CanVec-10.0"}}, {"name": "Casablanca Peak", "latitude": 58.4555498, "longitude": -125.3230149, "elevation": 2678.0, "source": "osm", "_tags": {"ele": "2678", "name": "Casablanca Peak", "natural": "peak", "source": "NRCan-CanVec-10.0"}}, {"name": "Dieppe Mountain", "latitude": 58.4752506, "longitude": -125.4855186, "elevation": 2850.0, "source": "osm", "_tags": {"ele": "2850", "name": "Dieppe Mountain", "natural": "peak", "source": "NRCan-CanVec-10.0", "wikidata": "Q5274976", "wikipedia": "en:Dieppe Mountain"}}, {"name": "Mount Roosevelt", "latitude": 58.4399458, "longitude": -125.3470725, "elevation": 2814.0, "source": "osm", "_tags": {"ele": "2814", "name": "Mount Roosevelt", "natural": "peak", "source": "NRCan-CanVec-10.0"}}, {"name": "Schjeld Mountain", "latitude": 58.4037785, "longitude": -125.4006401, "elevation": 2737.0, "source": "osm", "_tags": {"ele": "2737", "name": "Schjeld Mountain", "natural": "peak", "source": "NRCan-CanVec-10.0"}}, {"name": "Brandon Peak", "latitude": 57.632677, "longitude": -126.071815, "elevation": 2107.0, "source": "osm", "_tags": {"ele": "2107", "name": "Brandon Peak", "natural": "peak", "source": "NRCan-CanVec-10.0"}}, {"name": "Rocky Peak", "latitude": 57.7354318, "longitude": -126.1737957, "elevation": 2251.0, "source": "osm", "_tags": {"ele": "2251", "name": "Rocky Peak", "natural": "peak", "source": "NRCan-CanVec-10.0"}}, {"name": "Warner Peak", "latitude": 57.6644552, "longitude": -126.1086271, "elevation": 2357.0, "source": "osm", "_tags": {"ele": "2357", "name": "Warner Peak", "natural": "peak", "source": "NRCan-CanVec-10.0", "wikidata": "Q22549525"}}, {"name": "Mount Finlay", "latitude": 57.5886441, "longitude": -126.2217734, "elevation": 1803.0, "source": "osm", "_tags": {"ele": "1803", "name": "Mount Finlay", "natural": "peak", "source": "NRCan-CanVec-10.0", "wikidata": "Q22429957"}}, {"name": "Hedges Peak", "latitude": 57.7181629, "longitude": -126.1557022, "elevation": 2211.0, "source": "osm", "_tags": {"ele": "2211", "name": "Hedges Peak", "natural": "peak", "source": "NRCan-CanVec-10.0"}}, {"name": "Montagnes Rocheuses", "latitude": 57.8712612, "longitude": -126.0078079, "elevation": 1615.0, "source": "osm", "_tags": {"ele": "1615", "name": "Montagnes Rocheuses", "name:en": "Rocky Mountains", "name:fr": "Montagnes Rocheuses", "natural": "peak", "source": "NRCan-CanVec-10.0"}}, {"name": "Scarcity Mountain", "latitude": 57.9365138, "longitude": -126.1099779, "elevation": 1966.0, "source": "osm", "_tags": {"ele": "1966", "name": "Scarcity Mountain", "natural": "peak", "source": "NRCan-CanVec-10.0"}}, {"name": "Montagnes Rocheuses", "latitude": 57.9984303, "longitude": -126.1958552, "elevation": 1812.0, "source": "osm", "_tags": {"ele": "1812", "name": "Montagnes Rocheuses", "name:en": "Rocky Mountains", "name:fr": "Montagnes Rocheuses", "natural": "peak", "source": "NRCan-CanVec-10.0"}}, {"name": "Montagnes Rocheuses", "latitude": 57.9988587, "longitude": -126.1894824, "elevation": 1816.0, "source": "osm", "_tags": {"ele": "1816", "name": "Montagnes Rocheuses", "name:en": "Rocky Mountains", "name:fr": "Montagnes Rocheuses", "natural": "peak", "source": "NRCan-CanVec-10.0"}}, {"name": "Montagnes Rocheuses", "latitude": 57.9068522, "longitude": -126.0083659, "elevation": 1207.0, "source": "osm", "_tags": {"ele": "1207", "name": "Montagnes Rocheuses", "name:en": "Rocky Mountains", "name:fr": "Montagnes Rocheuses", "natural": "peak", "source": "NRCan-CanVec-10.0"}}, {"name": "Fox Peak", "latitude": 57.7601193, "longitude": -126.2433224, "elevation": 2152.0, "source": "osm", "_tags": {"ele": "2152", "name": "Fox Peak", "natural": "peak", "source": "NRCan-CanVec-10.0", "wikidata": "Q22503160"}}, {"name": "Mount Lavoie", "latitude": 57.5640094, "longitude": -125.4014184, "elevation": 2034.0, "source": "osm", "_tags": {"ele": "2034", "name": "Mount Lavoie", "natural": "peak", "source": "NRCan-CanVec-10.0", "wikidata": "Q22441560"}}, {"name": "Mount Yuen", "latitude": 57.570243, "longitude": -125.3111245, "elevation": 2054.0, "source": "osm", "_tags": {"ele": "2054", "name": "Mount Yuen", "natural": "peak", "source": "NRCan-CanVec-10.0", "wikidata": "Q22558160"}}, {"name": "Mount Luke", "latitude": 57.6960007, "longitude": -125.3296091, "elevation": 1714.0, "source": "osm", "_tags": {"ele": "1714", "name": "Mount Luke", "natural": "peak", "source": "NRCan-CanVec-10.0"}}, {"name": "Mount Alcock", "latitude": 57.6565225, "longitude": -125.4092198, "elevation": 1964.0, "source": "osm", "_tags": {"ele": "1964", "name": "Mount Alcock", "natural": "peak", "source": "NRCan-CanVec-10.0", "wikidata": "Q22412879"}}, {"name": "Mount Holben", "latitude": 57.7062928, "longitude": -125.2963818, "elevation": 2048.0, "source": "osm", "_tags": {"ele": "2048", "name": "Mount Holben", "natural": "peak", "source": "NRCan-CanVec-10.0"}}, {"name": "Montagnes Rocheuses", "latitude": 57.6383694, "longitude": -125.586871, "elevation": 1122.0, "source": "osm", "_tags": {"ele": "1122", "name": "Montagnes Rocheuses", "name:en": "Rocky Mountains", "name:fr": "Montagnes Rocheuses", "natural": "peak", "source": "NRCan-CanVec-10.0"}}, {"name": "Mount Chief Davie", "latitude": 57.5481508, "longitude": -125.7039646, "elevation": 1651.0, "source": "osm", "_tags": {"ele": "1651", "name": "Mount Chief Davie", "natural": "peak", "source": "NRCan-CanVec-10.0", "wikidata": "Q22421589"}}, {"name": "Spectre Peak", "latitude": 57.7130912, "longitude": -125.6873091, "elevation": 2018.0, "source": "osm", "_tags": {"ele": "2018", "name": "Spectre Peak", "natural": "peak", "source": "NRCan-CanVec-10.0", "wikidata": "Q22592524"}}, {"name": "Montagnes Rocheuses", "latitude": 57.7458063, "longitude": -125.7646251, "elevation": 1039.0, "source": "osm", "_tags": {"ele": "1039", "name": "Montagnes Rocheuses", "name:en": "Rocky Mountains", "name:fr": "Montagnes Rocheuses", "natural": "peak", "source": "NRCan-CanVec-10.0"}}, {"name": "Chisholm Peak", "latitude": 57.6522443, "longitude": -125.7467142, "elevation": 2027.0, "source": "osm", "_tags": {"ele": "2027", "name": "Chisholm Peak", "natural": "peak", "source": "NRCan-CanVec-10.0", "wikidata": "Q22495173"}}, {"name": "Montagnes Rocheuses", "latitude": 57.6403385, "longitude": -125.8572167, "elevation": 982.0, "source": "osm", "_tags": {"ele": "982", "name": "Montagnes Rocheuses", "name:en": "Rocky Mountains", "name:fr": "Montagnes Rocheuses", "natural": "peak", "source": "NRCan-CanVec-10.0"}}, {"name": "Mount McCrae", "latitude": 57.6065012, "longitude": -125.5657233, "elevation": 1854.0, "source": "osm", "_tags": {"ele": "1854", "name": "Mount McCrae", "natural": "peak", "source": "NRCan-CanVec-10.0", "wikidata": "Q22546962"}}, {"name": "Mount Balourdet", "latitude": 57.5969216, "longitude": -125.9498657, "elevation": 2148.0, "source": "osm", "_tags": {"ele": "2148", "name": "Mount Balourdet", "natural": "peak", "source": "NRCan-CanVec-10.0", "wikidata": "Q22415179"}}, {"name": "Mount McCook", "latitude": 57.7559656, "longitude": -125.8687903, "elevation": 1955.0, "source": "osm", "_tags": {"ele": "1955", "name": "Mount McCook", "natural": "peak", "source": "NRCan-CanVec-10.0"}}, {"name": "Montagnes Rocheuses", "latitude": 57.8871884, "longitude": -125.7685892, "elevation": 1185.0, "source": "osm", "_tags": {"ele": "1185", "name": "Montagnes Rocheuses", "name:en": "Rocky Mountains", "name:fr": "Montagnes Rocheuses", "natural": "peak", "source": "NRCan-CanVec-10.0"}}, {"name": "Mount Josefina", "latitude": 57.8424016, "longitude": -125.9939889, "elevation": 2095.0, "source": "osm", "_tags": {"ele": "2095", "name": "Mount Josefina", "natural": "peak", "source": "NRCan-CanVec-10.0"}}, {"name": "Citroen Peak", "latitude": 58.0276507, "longitude": -126.2325939, "elevation": 1939.0, "source": "osm", "_tags": {"ele": "1939", "name": "Citroen Peak", "natural": "peak", "source": "NRCan-CanVec-10.0"}}, {"name": "Mount Mark", "latitude": 58.0961603, "longitude": -126.2800335, "elevation": 1989.0, "source": "osm", "_tags": {"ele": "1989", "name": "Mount Mark", "natural": "peak", "source": "NRCan-CanVec-10.0"}}, {"name": "Montagnes Rocheuses", "latitude": 58.1402914, "longitude": -126.2247597, "elevation": 1402.0, "source": "osm", "_tags": {"ele": "1402", "name": "Montagnes Rocheuses", "name:en": "Rocky Mountains", "name:fr": "Montagnes Rocheuses", "natural": "peak", "source": "NRCan-CanVec-10.0"}}, {"name": "Montagnes Rocheuses", "latitude": 58.3779858, "longitude": -126.2524756, "elevation": 801.0, "source": "osm", "_tags": {"ele": "801", "name": "Montagnes Rocheuses", "name:en": "Rocky Mountains", "name:fr": "Montagnes Rocheuses", "natural": "peak", "source": "NRCan-CanVec-10.0"}}]