[{"name": "Unmarked Boundary Point 75", "latitude": 57.6167369, "longitude": -132.660864, "elevation": 2282.0, "source": "osm", "_tags": {"ele": "2282", "man_made": "survey_point", "name": "Unmarked Boundary Point 75", "name:fr": "Point frontalier non-marqué 75", "natural": "peak", "operator": "International Boundary Commission", "ref": "BP 75", "source": "CA-US International Boundary Commission", "start_date": "1908"}}, {"name": "Unmarked Boundary Point 76", "latitude": 57.6959731, "longitude": -132.751058, "elevation": 2156.0, "source": "osm", "_tags": {"ele": "2156", "man_made": "survey_point", "name": "Unmarked Boundary Point 76", "name:fr": "Point frontalier non-marqué 76", "natural": "peak", "operator": "International Boundary Commission", "ref": "BP 76", "source": "CA-US International Boundary Commission", "start_date": "1908"}}, {"name": "Unmarked Boundary Point 77", "latitude": 57.8397131, "longitude": -132.869367, "elevation": 2015.0, "source": "osm", "_tags": {"ele": "2015", "man_made": "survey_point", "name": "Unmarked Boundary Point 77", "name:fr": "Point frontalier non-marqué 77", "natural": "peak", "operator": "International Boundary Commission", "ref": "BP 77", "source": "CA-US International Boundary Commission", "start_date": "1908"}}, {"name": "Unmarked Boundary Point 79", "latitude": 58.1536756, "longitude": -133.172311, "elevation": 1609.0, "source": "osm", "_tags": {"ele": "1609", "man_made": "survey_point", "name": "Unmarked Boundary Point 79", "name:fr": "Point frontalier non-marqué 79", "natural": "peak", "operator": "International Boundary Commission", "ref": "BP 79", "source": "CA-US International Boundary Commission", "start_date": "1906"}}, {"name": "Mount Hill", "latitude": 58.0003406, "longitude": -133.070095, "elevation": 1960.0, "source": "osm", "_tags": {"alt_name": "Boundary Point 78", "ele": "1960", "man_made": "survey_point", "name": "Mount Hill", "name:fr": "Point frontalier non-marqué 78", "natural": "peak", "operator": "International Boundary Commission", "ref": "BP 78", "source": "CA-US International Boundary Commission", "start_date": "1908"}}, {"name": "", "latitude": 58.4223029, "longitude": -132.3946955, "elevation": 1024.0, "source": "osm", "_tags": {"ele": "1024", "natural": "peak"}}, {"name": "", "latitude": 58.4415343, "longitude": -132.3356439, "elevation": 1843.0, "source": "osm", "_tags": {"ele": "1843", "natural": "peak"}}, {"name": "", "latitude": 58.4343462, "longitude": -132.311783, "elevation": 1942.0, "source": "osm", "_tags": {"ele": "1942", "natural": "peak"}}, {"name": "", "latitude": 58.0632596, "longitude": -132.3936655, "elevation": 2233.0, "source": "osm", "_tags": {"ele": "2233", "natural": "peak"}}, {"name": "", "latitude": 58.0270097, "longitude": -132.5220682, "elevation": 2297.0, "source": "osm", "_tags": {"ele": "2297", "natural": "peak"}}, {"name": "", "latitude": 58.0491365, "longitude": -132.4606133, "elevation": 2383.0, "source": "osm", "_tags": {"ele": "2383", "natural": "peak"}}, {"name": "", "latitude": 58.1048698, "longitude": -132.4441338, "elevation": 2060.0, "source": "osm", "_tags": {"ele": "2060", "natural": "peak"}}, {"name": "", "latitude": 58.099382, "longitude": -132.4950314, "elevation": 2254.0, "source": "osm", "_tags": {"ele": "2254", "natural": "peak"}}, {"name": "", "latitude": 58.4796516, "longitude": -132.6248933, "elevation": 935.0, "source": "osm", "_tags": {"ele": "935", "natural": "peak"}}, {"name": "Sheppard Peak", "latitude": 57.6857504, "longitude": -132.6108781, "elevation": 2458.0, "source": "osm", "_tags": {"ele": "2458", "name": "Sheppard Peak", "natural": "peak", "source": "NRCan-CanVec-10.0"}}, {"name": "Owens Peak", "latitude": 57.7981109, "longitude": -132.6633739, "elevation": 2462.0, "source": "osm", "_tags": {"ele": "2462", "name": "Owens Peak", "natural": "peak", "source": "NRCan-CanVec-10.0"}}, {"name": "Chutine Peak", "latitude": 57.7751306, "longitude": -132.3345038, "elevation": 2902.0, "source": "osm", "_tags": {"ele": "2902", "name": "Chutine Peak", "natural": "peak", "source": "NRCan-CanVec-10.0"}}, {"name": "Bates Peak", "latitude": 58.0338252, "longitude": -133.0124687, "elevation": 2192.0, "source": "osm", "_tags": {"ele": "2192", "name": "Bates Peak", "natural": "peak", "source": "NRCan-CanVec-10.0"}}, {"name": "Tahltan Highland", "latitude": 58.4743116, "longitude": -132.7281886, "elevation": 1659.0, "source": "osm", "_tags": {"ele": "1659", "name": "Tahltan Highland", "natural": "peak", "source": "NRCan-CanVec-10.0"}}, {"name": "Metlatulin Mountain", "latitude": 58.4077926, "longitude": -132.5561085, "elevation": 2203.0, "source": "osm", "_tags": {"ele": "2203", "name": "Metlatulin Mountain", "natural": "peak", "source": "NRCan-CanVec-10.0"}}, {"name": "Tahltan Highland", "latitude": 58.4741438, "longitude": -132.5134677, "elevation": 1445.0, "source": "osm", "_tags": {"ele": "1445", "name": "Tahltan Highland", "natural": "peak", "source": "NRCan-CanVec-10.0"}}, {"name": "Tahltan Highland", "latitude": 58.4727112, "longitude": -132.4254139, "elevation": 889.0, "source": "osm", "_tags": {"ele": "889", "name": "Tahltan Highland", "natural": "peak", "source": "NRCan-CanVec-10.0"}}, {"name": "Tahltan Highland", "latitude": 58.5339941, "longitude": -132.5240636, "elevation": 1300.0, "source": "osm", "_tags": {"ele": "1300", "name": "Tahltan Highland", "natural": "peak", "source": "NRCan-CanVec-10.0"}}, {"name": "Boundary Peak 83", "latitude": 58.2285837, "longitude": -133.2710635, "elevation": 1635.0, "source": "osm", "_tags": {"ele": "1635", "gnis:feature_id": "1399398", "name": "Boundary Peak 83", "natural": "peak"}}]