[{"name": "Cairo Peak", "latitude": 58.2538566, "longitude": -125.194727, "elevation": 2531.0, "source": "osm", "_tags": {"ele": "2531", "name": "Cairo Peak", "natural": "peak", "source": "NRCan-CanVec-10.0"}}, {"name": "Claremont Tower", "latitude": 58.321264, "longitude": -125.0260526, "elevation": 2593.0, "source": "osm", "_tags": {"ele": "2593", "name": "Claremont Tower", "natural": "peak", "source": "NRCan-CanVec-10.0"}}, {"name": "Falaise Mountain", "latitude": 58.3561414, "longitude": -125.2618035, "elevation": 2716.0, "source": "osm", "_tags": {"ele": "2716", "name": "Falaise Mountain", "natural": "peak", "source": "NRCan-CanVec-10.0"}}, {"name": "Normandy Mountain", "latitude": 58.3385714, "longitude": -125.2917821, "elevation": 2827.0, "source": "osm", "_tags": {"ele": "2827", "name": "Normandy Mountain", "natural": "peak", "source": "NRCan-CanVec-10.0", "wikidata": "Q7053058", "wikipedia": "en:Normandy Mountain"}}, {"name": "Tehran Peak", "latitude": 58.2700858, "longitude": -125.2375972, "elevation": 2710.0, "source": "osm", "_tags": {"ele": "2710", "name": "Tehran Peak", "natural": "peak", "source": "NRCan-CanVec-10.0"}}, {"name": "Angel Peak", "latitude": 58.4856674, "longitude": -124.8586952, "elevation": 2093.0, "source": "osm", "_tags": {"ele": "2093", "name": "Angel Peak", "natural": "peak", "source": "NRCan-CanVec-10.0"}}, {"name": "Angle Peak", "latitude": 58.2812511, "longitude": -124.7526092, "elevation": 2716.0, "source": "osm", "_tags": {"ele": "2716", "name": "Angle Peak", "natural": "peak", "source": "NRCan-CanVec-10.0"}}, {"name": "Beauchamp Peak", "latitude": 58.3937986, "longitude": -124.9468837, "elevation": 2725.0, "source": "osm", "_tags": {"ele": "2725", "name": "Beauchamp Peak", "natural": "peak", "source": "NRCan-CanVec-10.0"}}, {"name": "Ben Isla", "latitude": 58.452184, "longitude": -124.8283281, "elevation": 2162.0, "source": "osm", "_tags": {"ele": "2162", "name": "Ben Isla", "natural": "peak", "source": "NRCan-CanVec-10.0"}}, {"name": "Blashford Peak", "latitude": 58.4582492, "longitude": -124.834862, "elevation": 2134.0, "source": "osm", "_tags": {"ele": "2134", "name": "Blashford Peak", "natural": "peak", "source": "NRCan-CanVec-10.0"}}, {"name": "Byward Peak", "latitude": 58.4002161, "longitude": -124.9333893, "elevation": 2651.0, "source": "osm", "_tags": {"ele": "2651", "name": "Byward Peak", "natural": "peak", "source": "NRCan-CanVec-10.0"}}, {"name": "Cadet Mountain", "latitude": 58.4172308, "longitude": -124.7764548, "elevation": 2335.0, "source": "osm", "_tags": {"ele": "2335", "name": "Cadet Mountain", "natural": "peak", "source": "NRCan-CanVec-10.0"}}, {"name": "Chischa Peak", "latitude": 58.3124718, "longitude": -124.5962653, "elevation": 2722.0, "source": "osm", "_tags": {"ele": "2722", "name": "Chischa Peak", "natural": "peak", "source": "NRCan-CanVec-10.0"}}, {"name": "Constable Peak", "latitude": 58.3610757, "longitude": -124.8405117, "elevation": 2818.0, "source": "osm", "_tags": {"ele": "2818", "name": "Constable Peak", "natural": "peak", "source": "NRCan-CanVec-10.0", "wikidata": "Q5163474", "wikipedia": "en:Constable Peak"}}, {"name": "Develin Peak", "latitude": 58.3045687, "longitude": -124.7642209, "elevation": 2748.0, "source": "osm", "_tags": {"ele": "2748", "name": "Develin Peak", "natural": "peak", "source": "NRCan-CanVec-10.0", "wikidata": "Q5266652", "wikipedia": "en:Develin Peak"}}, {"name": "Devereux Peak", "latitude": 58.3324662, "longitude": -124.7395809, "elevation": 2580.0, "source": "osm", "_tags": {"ele": "2580", "name": "Devereux Peak", "natural": "peak", "source": "NRCan-CanVec-10.0"}}, {"name": "Expedition Peak", "latitude": 58.4345846, "longitude": -124.9006646, "elevation": 2162.0, "source": "osm", "_tags": {"ele": "2162", "name": "Expedition Peak", "natural": "peak", "source": "NRCan-CanVec-10.0"}}, {"name": "Fusilier Peak", "latitude": 58.3457572, "longitude": -124.8681688, "elevation": 2721.0, "source": "osm", "_tags": {"ele": "2721", "name": "Fusilier Peak", "natural": "peak", "source": "NRCan-CanVec-10.0", "wikidata": "Q5510049", "wikipedia": "en:Fusilier Peak"}}, {"name": "Hermitage Peak", "latitude": 58.3962579, "longitude": -124.8600967, "elevation": 2307.0, "source": "osm", "_tags": {"ele": "2307", "name": "Hermitage Peak", "natural": "peak", "source": "NRCan-CanVec-10.0"}}, {"name": "Hunter Mountain", "latitude": 58.3841709, "longitude": -124.86125, "elevation": 2458.0, "source": "osm", "_tags": {"ele": "2458", "name": "Hunter Mountain", "natural": "peak", "source": "NRCan-CanVec-10.0"}}, {"name": "Hunter Ridge", "latitude": 58.3880708, "longitude": -124.8526605, "elevation": 2410.0, "source": "osm", "_tags": {"ele": "2410", "name": "Hunter Ridge", "natural": "peak", "source": "NRCan-CanVec-10.0"}}, {"name": "Icecap Peak", "latitude": 58.2561999, "longitude": -124.7280165, "elevation": 2774.0, "source": "osm", "_tags": {"ele": "2774", "name": "Icecap Peak", "natural": "peak", "source": "NRCan-CanVec-10.0"}}, {"name": "Kiwi Mountain", "latitude": 58.4678912, "longitude": -124.8444646, "elevation": 2014.0, "source": "osm", "_tags": {"ele": "2014", "name": "Kiwi Mountain", "natural": "peak", "source": "NRCan-CanVec-10.0"}}, {"name": "Lord Mayor Peak", "latitude": 58.2997234, "longitude": -124.6515086, "elevation": 2667.0, "source": "osm", "_tags": {"ele": "2667", "name": "Lord Mayor Peak", "natural": "peak", "source": "NRCan-CanVec-10.0"}}, {"name": "Martin Peak", "latitude": 58.4041751, "longitude": -124.9696153, "elevation": 2600.0, "source": "osm", "_tags": {"ele": "2600", "name": "Martin Peak", "natural": "peak", "source": "NRCan-CanVec-10.0"}}, {"name": "Mercers Peak", "latitude": 58.2733606, "longitude": -124.6686588, "elevation": 2619.0, "source": "osm", "_tags": {"ele": "2619", "name": "Mercers Peak", "natural": "peak", "source": "NRCan-CanVec-10.0"}}, {"name": "Merchant Taylors Peaks", "latitude": 58.2549582, "longitude": -124.6744863, "elevation": 2365.0, "source": "osm", "_tags": {"ele": "2365", "name": "Merchant Taylors Peaks", "natural": "peak", "source": "NRCan-CanVec-10.0"}}, {"name": "Mount Mary Henry", "latitude": 58.4668109, "longitude": -124.5232419, "elevation": 2613.0, "source": "osm", "_tags": {"ele": "2613", "name": "Mount Mary Henry", "natural": "peak", "source": "NRCan-CanVec-10.0"}}, {"name": "Mount St. Magnus", "latitude": 58.4553648, "longitude": -124.7650094, "elevation": 2636.0, "source": "osm", "_tags": {"ele": "2636", "name": "Mount St. Magnus", "natural": "peak", "source": "NRCan-CanVec-10.0"}}, {"name": "Mount St. Sepulchre", "latitude": 58.4302591, "longitude": -124.7285391, "elevation": 2740.0, "source": "osm", "_tags": {"ele": "2740", "name": "Mount St. Sepulchre", "natural": "peak", "source": "NRCan-CanVec-10.0"}}, {"name": "Mount Wadman", "latitude": 58.4114756, "longitude": -124.5000128, "elevation": 2482.0, "source": "osm", "_tags": {"ele": "2482", "name": "Mount Wadman", "natural": "peak", "source": "NRCan-CanVec-10.0"}}, {"name": "North Bastion Mountain", "latitude": 58.4481644, "longitude": -124.9685251, "elevation": 2666.0, "source": "osm", "_tags": {"ele": "2666", "name": "North Bastion Mountain", "natural": "peak", "source": "NRCan-CanVec-10.0", "wikidata": "Q7054076", "wikipedia": "en:North Bastion Mountain"}}, {"name": "Raleigh Ridge", "latitude": 58.3811286, "longitude": -124.8291403, "elevation": 2425.0, "source": "osm", "_tags": {"ele": "2425", "name": "Raleigh Ridge", "natural": "peak", "source": "NRCan-CanVec-10.0"}}, {"name": "Red Ridge Peak", "latitude": 58.386386, "longitude": -124.7228984, "elevation": 2606.0, "source": "osm", "_tags": {"ele": "2606", "name": "Red Ridge Peak", "natural": "peak", "source": "NRCan-CanVec-10.0"}}, {"name": "Red Ridge", "latitude": 58.4029214, "longitude": -124.754686, "elevation": 2119.0, "source": "osm", "_tags": {"ele": "2119", "name": "Red Ridge", "natural": "peak", "source": "NRCan-CanVec-10.0"}}, {"name": "Saddleback Peak", "latitude": 58.2756408, "longitude": -124.6400987, "elevation": 2734.0, "source": "osm", "_tags": {"ele": "2734", "name": "Saddleback Peak", "natural": "peak", "source": "NRCan-CanVec-10.0"}}, {"name": "Sandhurst Peak", "latitude": 58.4268589, "longitude": -124.908474, "elevation": 2355.0, "source": "osm", "_tags": {"ele": "2355", "name": "Sandhurst Peak", "natural": "peak", "source": "NRCan-CanVec-10.0"}}, {"name": "South Bastion Mountain", "latitude": 58.2960682, "longitude": -124.7622184, "elevation": 2623.0, "source": "osm", "_tags": {"ele": "2623", "name": "South Bastion Mountain", "natural": "peak", "source": "NRCan-CanVec-10.0", "wikidata": "Q7566250", "wikipedia": "en:South Bastion Mountain"}}, {"name": "Spyglass Peak", "latitude": 58.2965482, "longitude": -124.6562518, "elevation": 2594.0, "source": "osm", "_tags": {"ele": "2594", "name": "Spyglass Peak", "natural": "peak", "source": "NRCan-CanVec-10.0"}}, {"name": "Tetsa Peak", "latitude": 58.3515547, "longitude": -124.6354048, "elevation": 2704.0, "source": "osm", "_tags": {"ele": "2704", "name": "Tetsa Peak", "natural": "peak", "source": "NRCan-CanVec-10.0"}}, {"name": "The White Tower", "latitude": 58.4152914, "longitude": -124.9868348, "elevation": 2701.0, "source": "osm", "_tags": {"ele": "2701", "name": "The White Tower", "natural": "peak", "source": "NRCan-CanVec-10.0", "wikidata": "Q7774595", "wikipedia": "en:The White Tower (British Columbia)"}}, {"name": "Tower Mountain", "latitude": 58.4146247, "longitude": -124.8634966, "elevation": 2265.0, "source": "osm", "_tags": {"ele": "2265", "name": "Tower Mountain", "natural": "peak", "source": "NRCan-CanVec-10.0"}}, {"name": "Whitestone Ridge", "latitude": 58.4574535, "longitude": -124.8378579, "elevation": 2054.0, "source": "osm", "_tags": {"ele": "2054", "name": "Whitestone Ridge", "natural": "peak", "source": "NRCan-CanVec-10.0"}}, {"name": "Churchill Peak", "latitude": 58.2425327, "longitude": -125.1990529, "elevation": 2770.0, "source": "osm", "_tags": {"ele": "2770", "name": "Churchill Peak", "natural": "peak", "source": "NRCan-CanVec-10.0"}}, {"name": "Campobasso Mountain", "latitude": 58.1348124, "longitude": -124.8436281, "elevation": 2684.0, "source": "osm", "_tags": {"ele": "2684", "name": "Campobasso Mountain", "natural": "peak", "source": "NRCan-CanVec-10.0"}}, {"name": "King Peak", "latitude": 58.2237359, "longitude": -124.856582, "elevation": 2810.0, "source": "osm", "_tags": {"ele": "2810", "name": "King Peak", "natural": "peak", "prominence": "1073", "source": "NRCan-CanVec-10.0", "wikidata": "Q59320", "wikipedia": "en:King Peak (Yukon)"}}, {"name": "Lindisfarne Peak", "latitude": 58.2357245, "longitude": -124.9771332, "elevation": 2526.0, "source": "osm", "_tags": {"ele": "2526", "name": "Lindisfarne Peak", "natural": "peak", "source": "NRCan-CanVec-10.0"}}, {"name": "Liri Mountain", "latitude": 58.2082255, "longitude": -124.9138495, "elevation": 2764.0, "source": "osm", "_tags": {"ele": "2764", "name": "Liri Mountain", "natural": "peak", "source": "NRCan-CanVec-10.0"}}, {"name": "Mount Aida", "latitude": 58.2139263, "longitude": -124.7081451, "elevation": 2673.0, "source": "osm", "_tags": {"ele": "2673", "name": "Mount Aida", "natural": "peak", "source": "NRCan-CanVec-10.0"}}, {"name": "Ortona Mountain", "latitude": 58.1890224, "longitude": -124.8332598, "elevation": 2781.0, "source": "osm", "_tags": {"ele": "2781", "name": "Ortona Mountain", "natural": "peak", "source": "NRCan-CanVec-10.0"}}, {"name": "Potsdam Peak", "latitude": 58.1911331, "longitude": -124.787749, "elevation": 2766.0, "source": "osm", "_tags": {"ele": "2766", "name": "Potsdam Peak", "natural": "peak", "source": "NRCan-CanVec-10.0"}}, {"name": "Quebec Citadel Peak", "latitude": 58.2283875, "longitude": -124.8866725, "elevation": 2787.0, "source": "osm", "_tags": {"ele": "2787", "name": "Quebec Citadel Peak", "natural": "peak", "source": "NRCan-CanVec-10.0"}}, {"name": "Savio Mountain", "latitude": 58.2139775, "longitude": -124.7866785, "elevation": 2754.0, "source": "osm", "_tags": {"ele": "2754", "name": "Savio Mountain", "natural": "peak", "source": "NRCan-CanVec-10.0"}}, {"name": "Senio Mountain", "latitude": 58.1806245, "longitude": -124.9289998, "elevation": 2804.0, "source": "osm", "_tags": {"ele": "2804", "name": "Senio Mountain", "natural": "peak", "source": "NRCan-CanVec-10.0"}}, {"name": "Sicily Mountain", "latitude": 58.1264141, "longitude": -124.9249377, "elevation": 2732.0, "source": "osm", "_tags": {"ele": "2732", "name": "Sicily Mountain", "natural": "peak", "source": "NRCan-CanVec-10.0"}}, {"name": "Yalta Peak", "latitude": 58.2416372, "longitude": -124.7287183, "elevation": 2723.0, "source": "osm", "_tags": {"ele": "2723", "name": "Yalta Peak", "natural": "peak", "source": "NRCan-CanVec-10.0"}}, {"name": "Mount Sylvia", "latitude": 58.0817629, "longitude": -124.4697656, "elevation": 2926.0, "source": "osm", "_tags": {"ele": "2926", "name": "Mount Sylvia", "natural": "peak", "source": "NRCan-CanVec-10.0"}}, {"name": "Criccieth Mountain", "latitude": 57.901024, "longitude": -124.9718174, "elevation": 2849.0, "source": "osm", "_tags": {"ele": "2849", "name": "Criccieth Mountain", "natural": "peak", "source": "NRCan-CanVec-10.0", "wikidata": "Q22427073"}}, {"name": "Mount Lloyd George (East Summit)", "latitude": 57.8954663, "longitude": -124.9982352, "elevation": 2925.0, "source": "osm", "_tags": {"ele": "2925", "name": "Mount Lloyd George (East Summit)", "natural": "peak", "source": "NRCan-CanVec-10.0", "wikidata": "Q6921860", "wikipedia": "en:Mount Lloyd George"}}, {"name": "Mount Bedaux", "latitude": 57.7945559, "longitude": -124.8614463, "elevation": 2298.0, "source": "osm", "_tags": {"ele": "2298", "name": "Mount Bedaux", "natural": "peak", "source": "NRCan-CanVec-10.0", "wikidata": "Q22415920"}}, {"name": "Mount Sheffield", "latitude": 57.7497768, "longitude": -124.5796208, "elevation": 2277.0, "source": "osm", "_tags": {"ele": "2277", "name": "Mount Sheffield", "natural": "peak", "source": "NRCan-CanVec-10.0"}}, {"name": "Montagnes Rocheuses", "latitude": 57.6048031, "longitude": -124.7665651, "elevation": 1910.0, "source": "osm", "_tags": {"ele": "1910", "name": "Montagnes Rocheuses", "name:en": "Rocky Mountains", "name:fr": "Montagnes Rocheuses", "natural": "peak", "source": "NRCan-CanVec-10.0"}}, {"name": "Lombard Peak", "latitude": 57.7282327, "longitude": -124.8021198, "elevation": 2296.0, "source": "osm", "_tags": {"ele": "2296", "name": "Lombard Peak", "natural": "peak", "source": "NRCan-CanVec-10.0"}}, {"name": "Montagnes Rocheuses", "latitude": 57.6309075, "longitude": -125.2478495, "elevation": 1568.0, "source": "osm", "_tags": {"ele": "1568", "name": "Montagnes Rocheuses", "name:en": "Rocky Mountains", "name:fr": "Montagnes Rocheuses", "natural": "peak", "source": "NRCan-CanVec-10.0"}}, {"name": "Mount Chesterfield", "latitude": 57.7497912, "longitude": -125.1432813, "elevation": 2219.0, "source": "osm", "_tags": {"ele": "2219", "name": "Mount Chesterfield", "natural": "peak", "source": "NRCan-CanVec-10.0"}}, {"name": "Dryas Peak", "latitude": 57.8664815, "longitude": -125.1389515, "elevation": 2407.0, "source": "osm", "_tags": {"ele": "2407", "name": "Dryas Peak", "natural": "peak", "source": "NRCan-CanVec-10.0", "wikidata": "Q22596651"}}, {"name": "Columbine Peak", "latitude": 57.8829146, "longitude": -125.0637005, "elevation": 2473.0, "source": "osm", "_tags": {"ele": "2473", "name": "Columbine Peak", "natural": "peak", "source": "NRCan-CanVec-10.0"}}, {"name": "Mount Chesterfield", "latitude": 57.7537052, "longitude": -125.1390433, "elevation": 2370.0, "source": "osm", "_tags": {"ele": "2370", "name": "Mount Chesterfield", "natural": "peak", "source": "NRCan-CanVec-10.0"}}, {"name": "Lupin Ridge", "latitude": 57.8444851, "longitude": -125.0978566, "elevation": 2064.0, "source": "osm", "_tags": {"ele": "2064", "name": "Lupin Ridge", "natural": "peak", "source": "NRCan-CanVec-10.0"}}, {"name": "Montagnes Rocheuses", "latitude": 57.8871857, "longitude": -125.2548846, "elevation": 1918.0, "source": "osm", "_tags": {"ele": "1918", "name": "Montagnes Rocheuses", "name:en": "Rocky Mountains", "name:fr": "Montagnes Rocheuses", "natural": "peak", "source": "NRCan-CanVec-10.0"}}, {"name": "Little Cloudmaker Mountain", "latitude": 57.7733313, "longitude": -125.0995604, "elevation": 2329.0, "source": "osm", "_tags": {"ele": "2329", "name": "Little Cloudmaker Mountain", "natural": "peak", "source": "NRCan-CanVec-10.0"}}, {"name": "Cloudmaker Mountain", "latitude": 57.7604281, "longitude": -125.0937598, "elevation": 2494.0, "source": "osm", "_tags": {"ele": "2494", "name": "Cloudmaker Mountain", "natural": "peak", "source": "NRCan-CanVec-10.0", "wikidata": "Q22514515"}}, {"name": "Survey Peak", "latitude": 57.836858, "longitude": -125.0004083, "elevation": 2382.0, "source": "osm", "_tags": {"ele": "2382", "name": "Survey Peak", "natural": "peak", "source": "NRCan-CanVec-10.0"}}, {"name": "Mount Lloyd George (West Summit)", "latitude": 57.8947996, "longitude": -125.0010326, "elevation": 2800.0, "source": "osm", "_tags": {"ele": "2800", "name": "Mount Lloyd George (West Summit)", "natural": "peak", "source": "NRCan-CanVec-10.0"}}, {"name": "Mount Glendower", "latitude": 57.8925363, "longitude": -125.0306251, "elevation": 2915.0, "source": "osm", "_tags": {"ele": "2915", "name": "Mount Glendower", "natural": "peak", "source": "NRCan-CanVec-10.0"}}, {"name": "Grey Peak", "latitude": 57.8069304, "longitude": -125.1987018, "elevation": 2330.0, "source": "osm", "_tags": {"ele": "2330", "name": "Grey Peak", "natural": "peak", "source": "NRCan-CanVec-10.0", "wikidata": "Q22442405"}}, {"name": "Bilou Peak", "latitude": 57.8164613, "longitude": -124.6936418, "elevation": 2633.0, "source": "osm", "_tags": {"ele": "2633", "name": "Bilou Peak", "natural": "peak", "source": "NRCan-CanVec-10.0", "wikidata": "Q22441829"}}, {"name": "Survey Peak", "latitude": 57.8362328, "longitude": -124.9982989, "elevation": 2402.0, "source": "osm", "_tags": {"ele": "2402", "name": "Survey Peak", "natural": "peak", "source": "NRCan-CanVec-10.0"}}, {"name": "Bruce Ridge", "latitude": 57.8079632, "longitude": -124.7860345, "elevation": 2146.0, "source": "osm", "_tags": {"ele": "2146", "name": "Bruce Ridge", "natural": "peak", "source": "NRCan-CanVec-10.0"}}, {"name": "Montagnes Rocheuses", "latitude": 57.8815213, "longitude": -124.7104279, "elevation": 2137.0, "source": "osm", "_tags": {"ele": "2137", "name": "Montagnes Rocheuses", "name:en": "Rocky Mountains", "name:fr": "Montagnes Rocheuses", "natural": "peak", "source": "NRCan-CanVec-10.0"}}, {"name": "Mount Crosby", "latitude": 57.7981579, "longitude": -124.9650317, "elevation": 2539.0, "source": "osm", "_tags": {"ele": "2539", "name": "Mount Crosby", "natural": "peak", "source": "NRCan-CanVec-10.0", "wikidata": "Q22424251"}}, {"name": "Bardsey Ridge", "latitude": 57.8841163, "longitude": -124.9308562, "elevation": 2051.0, "source": "osm", "_tags": {"ele": "2051", "name": "Bardsey Ridge", "natural": "peak", "source": "NRCan-CanVec-10.0"}}, {"name": "Mount Sheffield", "latitude": 57.7502584, "longitude": -124.5949465, "elevation": 2255.0, "source": "osm", "_tags": {"ele": "2255", "name": "Mount Sheffield", "natural": "peak", "source": "NRCan-CanVec-10.0"}}, {"name": "Mount Walsh", "latitude": 57.8697113, "longitude": -124.8313947, "elevation": 2652.0, "source": "osm", "_tags": {"ele": "2652", "name": "Mount Walsh", "natural": "peak", "source": "NRCan-CanVec-10.0", "wikidata": "Q22557024"}}, {"name": "Gautier Peak", "latitude": 57.8494184, "longitude": -124.6841847, "elevation": 2687.0, "source": "osm", "_tags": {"ele": "2687", "name": "Gautier Peak", "natural": "peak", "source": "NRCan-CanVec-10.0", "wikidata": "Q22631647"}}, {"name": "Mount Smythe", "latitude": 57.9036875, "longitude": -124.884301, "elevation": 2747.0, "source": "osm", "_tags": {"ele": "2747", "name": "Mount Smythe", "natural": "peak", "source": "NRCan-CanVec-10.0", "wikidata": "Q22554213"}}, {"name": "Vignal Peak", "latitude": 57.7878329, "longitude": -124.6783838, "elevation": 2461.0, "source": "osm", "_tags": {"ele": "2461", "name": "Vignal Peak", "natural": "peak", "source": "NRCan-CanVec-10.0", "wikidata": "Q22422533"}}, {"name": "Bardsey Ridge", "latitude": 57.8666393, "longitude": -124.9091163, "elevation": 1913.0, "source": "osm", "_tags": {"ele": "1913", "name": "Bardsey Ridge", "natural": "peak", "source": "NRCan-CanVec-10.0"}}]