[{"name": "Monument 144", "latitude": 59.4645178, "longitude": -136.305021, "elevation": 1234.0, "source": "osm", "_tags": {"ele": "1234", "historic": "boundary_stone", "man_made": "survey_point", "name": "Monument 144", "name:fr": "Borne frontière 144", "natural": "peak", "operator": "International Boundary Commission", "ref": "MON 144", "source": "CA-US International Boundary Commission", "start_date": "1904"}}, {"name": "Unmarked Boundary Point 150", "latitude": 59.4658242, "longitude": -136.477156, "elevation": 1489.0, "source": "osm", "_tags": {"ele": "1489", "man_made": "survey_point", "name": "Unmarked Boundary Point 150", "name:fr": "Point frontalier non-marqué 150", "natural": "peak", "operator": "International Boundary Commission", "ref": "BP 150", "source": "CA-US International Boundary Commission", "start_date": "1904"}}, {"name": "Mount Harris", "latitude": 59.2597753, "longitude": -136.489702, "elevation": 1612.0, "source": "osm", "_tags": {"alt_name": "Boundary Peak 156", "description": "Monument 156", "ele": "1612", "historic": "boundary_stone", "man_made": "survey_point", "name": "Mount Harris", "name:fr": "Borne frontière 156", "natural": "peak", "operator": "International Boundary Commission", "ref": "MON 156", "source": "CA-US International Boundary Commission", "start_date": "1905"}}, {"name": "Boundary point 157", "latitude": 59.1658544, "longitude": -136.584444, "elevation": 1702.0, "source": "osm", "_tags": {"ele": "1702", "historic": "boundary_stone", "man_made": "survey_point", "name": "Boundary point 157", "name:fr": "Borne frontière 157", "natural": "peak", "operator": "International Boundary Commission", "ref": "BP 157", "source": "CA-US International Boundary Commission", "start_date": "1907"}}, {"name": "Monument 154", "latitude": 59.2840789, "longitude": -136.469246, "elevation": 1613.0, "source": "osm", "_tags": {"ele": "1613", "historic": "boundary_stone", "man_made": "survey_point", "name": "Monument 154", "name:fr": "Borne frontière 154", "natural": "peak", "operator": "International Boundary Commission", "ref": "MON 154", "source": "CA-US International Boundary Commission", "start_date": "1905"}}, {"name": "Monument 155", "latitude": 59.2751325, "longitude": -136.495756, "elevation": 1693.0, "source": "osm", "_tags": {"ele": "1693", "historic": "boundary_stone", "man_made": "survey_point", "name": "Monument 155", "name:fr": "Borne frontière 155", "natural": "peak", "operator": "International Boundary Commission", "ref": "MON 155", "source": "CA-US International Boundary Commission", "start_date": "1905"}}, {"name": "Mount Turner", "latitude": 58.9999978, "longitude": -137.282846, "elevation": 2640.0, "source": "osm", "_tags": {"alt_name": "Boundary Peak 162", "description": "Unmarked Boundary Point 162", "ele": "2640", "man_made": "survey_point", "name": "Mount Turner", "name:fr": "Point frontalier non-marqué 162", "natural": "peak", "operator": "International Boundary Commission", "ref": "BP 162", "source": "CA-US International Boundary Commission", "start_date": "1907"}}, {"name": "Unmarked Boundary Point 159", "latitude": 59.1361544, "longitude": -136.876736, "elevation": 1756.0, "source": "osm", "_tags": {"ele": "1756", "man_made": "survey_point", "name": "Unmarked Boundary Point 159", "name:fr": "Point frontalier non-marqué 159", "natural": "peak", "operator": "International Boundary Commission", "ref": "BP 159", "source": "CA-US International Boundary Commission", "start_date": "1907"}}, {"name": "Unmarked Boundary Point 158", "latitude": 59.1599597, "longitude": -136.828728, "elevation": 1660.0, "source": "osm", "_tags": {"ele": "1660", "man_made": "survey_point", "name": "Unmarked Boundary Point 158", "name:fr": "Point frontalier non-marqué 158", "natural": "peak", "operator": "International Boundary Commission", "ref": "BP 158", "source": "CA-US International Boundary Commission", "start_date": "1907"}}, {"name": "Unmarked Boundary Point 151", "latitude": 59.3762325, "longitude": -136.477379, "elevation": 2041.0, "source": "osm", "_tags": {"ele": "2041", "man_made": "survey_point", "name": "Unmarked Boundary Point 151", "name:fr": "Point frontalier non-marqué 151", "natural": "peak", "operator": "International Boundary Commission", "ref": "BP 151", "source": "CA-US International Boundary Commission", "start_date": "1904"}}, {"name": "Marble Mountain", "latitude": 58.6440455, "longitude": -136.2999647, "elevation": 1025.7, "source": "osm", "_tags": {"ele": "1025.7", "ele:note": "3365'", "name": "Marble Mountain", "natural": "peak"}}, {"name": "Mount Abdullah", "latitude": 58.9887342, "longitude": -136.7707533, "elevation": 1818.0, "source": "osm", "_tags": {"ele": "1818", "ele:note": "5964'", "name": "Mount Abdullah", "natural": "peak"}}, {"name": "Mount Barnard", "latitude": 59.1017609, "longitude": -136.9629853, "elevation": 2504.0, "source": "osm", "_tags": {"ele": "2504", "name": "Mount Barnard", "natural": "peak"}}, {"name": "Mount Crillon", "latitude": 58.6627145, "longitude": -137.1718077, "elevation": 3879.0, "source": "osm", "_tags": {"ele": "3879", "fixme": "position is aproximated", "name": "Mount Crillon", "natural": "peak", "prominence": "2209", "source:prominence": "3879-1670 (Col at the NW of Mt Wilbur)", "wikidata": "Q6920297", "wikipedia": "en:Mount Crillon"}}, {"name": "Mount Wilbur", "latitude": 58.7032069, "longitude": -137.2165241, "elevation": null, "source": "osm", "_tags": {"name": "Mount Wilbur", "natural": "peak"}}, {"name": "Mount Parker", "latitude": 58.863272, "longitude": -136.8866581, "elevation": null, "source": "osm", "_tags": {"gnis:feature_id": "1424145", "name": "Mount Parker", "natural": "peak"}}, {"name": "Mount Orville", "latitude": 58.7365643, "longitude": -137.2724008, "elevation": 3199.0, "source": "osm", "_tags": {"ele": "3199", "gnis:feature_id": "1424098", "name": "Mount Orville", "natural": "peak"}}, {"name": "Gullied Peak", "latitude": 58.7394635, "longitude": -136.614131, "elevation": null, "source": "osm", "_tags": {"gnis:feature_id": "1422369", "name": "Gullied Peak", "natural": "peak"}}, {"name": "Mount Abbe", "latitude": 58.7978502, "longitude": -137.077644, "elevation": null, "source": "osm", "_tags": {"gnis:feature_id": "1419997", "name": "Mount Abbe", "natural": "peak", "wikidata": "Q49051784"}}, {"name": "Mount Klooch", "latitude": 58.6096701, "longitude": -137.2705148, "elevation": null, "source": "osm", "_tags": {"gnis:feature_id": "1895175", "name": "Mount Klooch", "natural": "peak"}}, {"name": "Mount Dagelet", "latitude": 58.5959227, "longitude": -137.1744098, "elevation": null, "source": "osm", "_tags": {"gnis:feature_id": "1421331", "name": "Mount Dagelet", "natural": "peak"}}, {"name": "Mount Cooper", "latitude": 58.86262, "longitude": -136.9829103, "elevation": null, "source": "osm", "_tags": {"gnis:feature_id": "1416005", "name": "Mount Cooper", "natural": "peak"}}, {"name": "Red Bed Peak", "latitude": 58.6685714, "longitude": -136.512636, "elevation": null, "source": "osm", "_tags": {"gnis:feature_id": "1424758", "name": "Red Bed Peak", "natural": "peak"}}, {"name": "Mount Bulky", "latitude": 58.643947, "longitude": -136.5160914, "elevation": null, "source": "osm", "_tags": {"gnis:feature_id": "1420705", "name": "Mount Bulky", "natural": "peak"}}, {"name": "Mount Favorite", "latitude": 58.7109814, "longitude": -136.4944624, "elevation": null, "source": "osm", "_tags": {"gnis:feature_id": "1421886", "name": "Mount Favorite", "natural": "peak"}}, {"name": "Hugh Miller Mountain", "latitude": 58.7140737, "longitude": -136.4324141, "elevation": null, "source": "osm", "_tags": {"gnis:feature_id": "1422682", "name": "Hugh Miller Mountain", "natural": "peak"}}, {"name": "July Fourth Mountain", "latitude": 58.6385037, "longitude": -136.7004379, "elevation": null, "source": "osm", "_tags": {"gnis:feature_id": "1422890", "name": "July Fourth Mountain", "natural": "peak"}}, {"name": "Heather Nunatak", "latitude": 58.7062706, "longitude": -136.7089013, "elevation": null, "source": "osm", "_tags": {"gnis:feature_id": "1422506", "name": "Heather Nunatak", "natural": "peak"}}, {"name": "Fossil Peak", "latitude": 58.6622082, "longitude": -136.620256, "elevation": null, "source": "osm", "_tags": {"gnis:feature_id": "1422020", "name": "Fossil Peak", "natural": "peak"}}, {"name": "Mount Friable", "latitude": 58.6717688, "longitude": -136.6837775, "elevation": null, "source": "osm", "_tags": {"gnis:feature_id": "1422063", "name": "Mount Friable", "natural": "peak"}}, {"name": "Black Cap Mountain", "latitude": 58.8513166, "longitude": -136.413958, "elevation": null, "source": "osm", "_tags": {"gnis:feature_id": "1420469", "name": "Black Cap Mountain", "natural": "peak"}}, {"name": "Sentinel Peak", "latitude": 58.9930737, "longitude": -136.5620191, "elevation": null, "source": "osm", "_tags": {"gnis:feature_id": "1414586", "name": "Sentinel Peak", "natural": "peak"}}, {"name": "Mount Wordie", "latitude": 58.940605, "longitude": -136.4747143, "elevation": null, "source": "osm", "_tags": {"gnis:feature_id": "1415839", "name": "Mount Wordie", "natural": "peak"}}, {"name": "Mount Merriam", "latitude": 58.9008114, "longitude": -136.4364763, "elevation": null, "source": "osm", "_tags": {"gnis:feature_id": "1423655", "name": "Mount Merriam", "natural": "peak"}}, {"name": "Gable Mountain", "latitude": 59.0738251, "longitude": -136.5408641, "elevation": null, "source": "osm", "_tags": {"gnis:feature_id": "1422079", "name": "Gable Mountain", "natural": "peak"}}, {"name": "Contact Nunatak", "latitude": 58.7166362, "longitude": -136.7763468, "elevation": 1186.0, "source": "osm", "_tags": {"ele": "1186", "geological": "nunatak", "gnis:feature_id": "1421177", "name": "Contact Nunatak", "natural": "peak"}}, {"name": "Mount Skarn", "latitude": 58.5864825, "longitude": -136.3810745, "elevation": 756.0, "source": "osm", "_tags": {"ele": "756", "gnis:feature_id": "1414756", "name": "Mount Skarn", "natural": "peak"}}, {"name": "Mount Cadell", "latitude": 58.8971137, "longitude": -136.3271185, "elevation": 1313.0, "source": "osm", "_tags": {"ele": "1313", "gnis:feature_id": "1893772", "name": "Mount Cadell", "natural": "peak"}}, {"name": "Tlingit Peak", "latitude": 58.6166723, "longitude": -136.3409566, "elevation": 966.0, "source": "osm", "_tags": {"ele": "966", "gnis:feature_id": "1415337", "name": "Tlingit Peak", "natural": "peak"}}, {"name": "Mount Divide", "latitude": 58.5983054, "longitude": -136.672858, "elevation": 1273.0, "source": "osm", "_tags": {"ele": "1273", "gnis:feature_id": "1421486", "name": "Mount Divide", "natural": "peak"}}, {"name": "Mount Forde", "latitude": 59.0325937, "longitude": -137.1756283, "elevation": 2069.0, "source": "osm", "_tags": {"ele": "2069", "gnis:feature_id": "1420626", "name": "Mount Forde", "natural": "peak"}}, {"name": "Boundary Peak 155", "latitude": 59.274053, "longitude": -136.4923044, "elevation": null, "source": "osm", "_tags": {"gnis:feature_id": "1420619", "name": "Boundary Peak 155", "natural": "peak"}}, {"name": "Flower Mountain", "latitude": 59.3591168, "longitude": -136.374981, "elevation": 1944.0, "source": "osm", "_tags": {"ele": "1944", "gnis:feature_id": "1421991", "name": "Flower Mountain", "natural": "peak"}}, {"name": "Mount Wood", "latitude": 58.545621, "longitude": -136.4414428, "elevation": 866.0, "source": "osm", "_tags": {"ele": "866", "gnis:feature_id": "1415830", "name": "Mount Wood", "natural": "peak"}}, {"name": "Mount Bertha", "latitude": 58.6866071, "longitude": -137.0273517, "elevation": 3096.0, "source": "osm", "_tags": {"ele": "3096", "gnis:feature_id": "1420392", "name": "Mount Bertha", "natural": "peak"}}, {"name": "Boundary Peak 159", "latitude": 59.1341665, "longitude": -136.875952, "elevation": 1840.0, "source": "osm", "_tags": {"ele": "1840", "gnis:feature_id": "1420623", "name": "Boundary Peak 159", "natural": "peak"}}, {"name": "Contact Peak", "latitude": 58.5638622, "longitude": -136.5583665, "elevation": 1060.0, "source": "osm", "_tags": {"ele": "1060", "gnis:feature_id": "1421178", "name": "Contact Peak", "natural": "peak"}}, {"name": "Mount La Perouse", "latitude": 58.5628958, "longitude": -137.0826092, "elevation": 3265.0, "source": "osm", "_tags": {"ele": "3265", "gnis:feature_id": "1423202", "name": "Mount La Perouse", "natural": "peak"}}, {"name": "Threesome Mountain", "latitude": 58.5389568, "longitude": -136.5937725, "elevation": 1280.0, "source": "osm", "_tags": {"ele": "1280", "gnis:feature_id": "1415304", "name": "Threesome Mountain", "natural": "peak"}}, {"name": "Blackthorn Peak", "latitude": 58.5730091, "longitude": -136.57147, "elevation": 1257.0, "source": "osm", "_tags": {"ele": "1257", "gnis:feature_id": "1420501", "name": "Blackthorn Peak", "natural": "peak"}}, {"name": "Boundary Peak 154", "latitude": 59.2831828, "longitude": -136.4687951, "elevation": 1749.0, "source": "osm", "_tags": {"ele": "1749", "gnis:feature_id": "1420618", "name": "Boundary Peak 154", "natural": "peak"}}, {"name": "", "latitude": 59.3338931, "longitude": -136.3349358, "elevation": 1513.0, "source": "osm", "_tags": {"ele": "1513", "natural": "peak"}}]