[{"name": "Dr. J Express Care", "latitude": 32.4055755, "longitude": -99.7749579, "source": "osm", "_tags": {"amenity": "hospital", "healthcare": "hospital", "name": "Dr. J Express Care"}}, {"name": "Oceans Behavioral Hospital Of Abilene", "latitude": 32.399967, "longitude": -99.739311, "source": "osm", "_tags": {"addr:city": "Abilene", "addr:housenumber": "4225", "addr:postcode": "79602", "addr:state": "TX", "addr:street": "Woods Place", "amenity": "hospital", "beds": "92", "email": "abileneinfo@oceanshealthcare.com", "healthcare": "hospital", "healthcare:speciality": "psychiatry", "name": "Oceans Behavioral Hospital Of Abilene", "phone": "+1-325-691-0030", "website": "https://oceanshealthcare.com/ohc-location/abilene/"}}, {"name": "", "latitude": 31.6685467, "longitude": -98.9776403, "source": "osm", "_tags": {"amenity": "hospital", "healthcare": "hospital"}}, {"name": "Texas Health Harris Methodist Hospital Stephenville", "latitude": 32.2231405, "longitude": -98.2045828, "source": "osm", "_tags": {"addr:city": "Stephenville", "addr:housenumber": "401", "addr:postcode": "76401", "addr:state": "TX", "addr:street": "North Belknap Street", "amenity": "hospital", "beds": "98", "emergency": "yes", "gnis:feature_id": "2015873", "healthcare": "hospital", "name": "Texas Health Harris Methodist Hospital Stephenville", "old_name": "Harris Methodist Erath County", "opening_hours": "24/7", "operator": "Texas Health", "operator:type": "private", "operator:wikidata": "Q7707724", "panoramax": "4be611fd-7721-4b0e-8093-903e58929013", "phone": "+1-254-965-1500", "toilets:wheelchair": "yes", "website": "https://www.texashealth.org/stephenville/", "wheelchair": "yes"}}, {"name": "Abilene State Supported Living Center", "latitude": 32.4183808, "longitude": -99.7167223, "source": "osm", "_tags": {"addr:city": "Abilene", "addr:housenumber": "2501", "addr:postcode": "79602", "addr:state": "TX", "addr:street": "Maple Street", "amenity": "hospital", "beds": "288", "emergency": "no", "healthcare": "hospital", "name": "Abilene State Supported Living Center", "operator": "Texas Department of Aging and Disability Services", "phone": "+1 325 692 4053", "social_facility": "group_home", "social_facility:for": "mental_health", "source": "Bing Imagery Trace", "website": "https://www.absslc.org/"}}, {"name": "Hendrick Medical Center", "latitude": 32.4720559, "longitude": -99.7330238, "source": "osm", "_tags": {"addr:city": "Abilene", "addr:housenumber": "1900", "addr:postcode": "79601", "addr:state": "TX", "addr:street": "Pine Street", "amenity": "hospital", "beds": "564", "emergency": "yes", "healthcare": "hospital", "name": "Hendrick Medical Center", "opening_hours": "24/7", "phone": "+1 325 670 2000", "website": "http://www.ehendrick.org/"}}, {"name": "Hendrick Urgent Care", "latitude": 32.3971366, "longitude": -99.7615285, "source": "osm", "_tags": {"addr:city": "Abilene", "addr:housenumber": "4424", "addr:postcode": "79606", "addr:state": "TX", "addr:street": "Buffalo Gap Road", "amenity": "hospital", "healthcare": "hospital", "name": "Hendrick Urgent Care", "operator": "Hendrick Medical"}}, {"name": "Concho County Hospital", "latitude": 31.2213736, "longitude": -99.8480925, "source": "osm", "_tags": {"addr:city": "Eden", "addr:housenumber": "614", "addr:postcode": "76837", "addr:street": "Eaker Street", "amenity": "hospital", "beds": "16", "emergency": "yes", "healthcare": "hospital", "name": "Concho County Hospital", "opening_hours": "24/7", "phone": "+1 325 869 5911", "website": "http://conchocountyhospital.com/index.php"}}, {"name": "Ballinger Memorial Hospital", "latitude": 31.7502002, "longitude": -99.9628106, "source": "osm", "_tags": {"addr:city": "Ballinger", "addr:housenumber": "608", "addr:postcode": "76821", "addr:state": "TX", "addr:street": "Avenue B", "amenity": "hospital", "emergency": "yes", "gnis:feature_id": "2015752", "healthcare": "hospital", "name": "Ballinger Memorial Hospital", "name:fa": "بیمارستان یادبود بالینگر", "opening_hours": "24/7", "phone": "+1 325 365 2531"}}, {"name": "Coleman County Medical Center", "latitude": 31.8286077, "longitude": -99.4257599, "source": "osm", "_tags": {"addr:city": "Coleman", "addr:housenumber": "310", "addr:postcode": "76834", "addr:street": "South Pecos Street", "amenity": "hospital", "emergency": "yes", "gnis:feature_id": "2015649", "healthcare": "hospital", "name": "Coleman County Medical Center", "opening_hours": "24/7", "phone": "+1 325 625 2135", "website": "https://www.colemancountymc.com/"}}, {"name": "Anson General Hospital", "latitude": 32.7682299, "longitude": -99.8949266, "source": "osm", "_tags": {"addr:city": "Anson", "addr:housenumber": "101", "addr:postcode": "79501", "addr:street": "Avenue J", "amenity": "hospital", "emergency": "yes", "gnis:feature_id": "2015800", "healthcare": "hospital", "name": "Anson General Hospital", "opening_hours": "24/7", "phone": "+1 325 823 3231"}}, {"name": "Hamlin Memorial Hospital", "latitude": 32.8856137, "longitude": -100.1350245, "source": "osm", "_tags": {"addr:city": "Hamlin", "addr:housenumber": "632", "addr:postcode": "79520", "addr:street": "Northwest 2nd Street", "amenity": "hospital", "emergency": "yes", "gnis:feature_id": "2015801", "healthcare": "hospital", "name": "Hamlin Memorial Hospital", "opening_hours": "24/7", "phone": "+1 325 576 3646", "website": "http://www.hamlinhealth.org/"}}, {"name": "Stephens Memorial Hospital", "latitude": 32.753894, "longitude": -98.8871174, "source": "osm", "_tags": {"addr:city": "Breckenridge", "addr:housenumber": "200", "addr:postcode": "76424", "addr:street": "South Geneva Street", "amenity": "hospital", "emergency": "yes", "gnis:feature_id": "1347889", "healthcare": "hospital", "name": "Stephens Memorial Hospital", "opening_hours": "24/7", "phone": "+1-254-559-2241", "website": "https://www.smhtx.com/"}}, {"name": "Eastland Memorial Hospital", "latitude": 32.3998362, "longitude": -98.8211326, "source": "osm", "_tags": {"addr:city": "Eastland", "addr:housenumber": "304", "addr:postcode": "76448", "addr:state": "TX", "addr:street": "South Daugherty Avenue", "amenity": "hospital", "beds": "34", "emergency": "yes", "gnis:feature_id": "2015588", "healthcare": "hospital", "name": "Eastland Memorial Hospital", "opening_hours": "24/7", "phone": "+1 254 629 2601", "website": "https://www.eastlandmemorial.com/"}}, {"name": "Comanche County Medical Center", "latitude": 31.9848919, "longitude": -98.5614865, "source": "osm", "_tags": {"addr:city": "Comanche", "addr:housenumber": "10201", "addr:postcode": "76442", "addr:street": "TX 16", "amenity": "hospital", "emergency": "yes", "healthcare": "hospital", "name": "Comanche County Medical Center", "opening_hours": "24/7", "phone": "+1 254 879 4900", "short_name": "CCMC", "website": "https://www.comanchecmc.org/"}}, {"name": "Stamford Memorial Hospital", "latitude": 32.9275514, "longitude": -99.7830463, "source": "osm", "_tags": {"addr:city": "Stamford", "addr:housenumber": "1601", "addr:postcode": "79553", "addr:street": "Columbia Street", "amenity": "hospital", "emergency": "yes", "healthcare": "hospital", "name": "Stamford Memorial Hospital", "opening_hours": "24/7", "phone": "+1 325 773 2725", "short_name": "SMH", "website": "https://www.stamfordhosp.com/"}}, {"name": "Abilene Regional Medical Center", "latitude": 32.3747401, "longitude": -99.7436473, "source": "osm", "_tags": {"addr:city": "Abilene", "addr:housenumber": "6250", "addr:postcode": "79606", "addr:state": "TX", "addr:street": "South Clack Street", "amenity": "hospital", "beds": "231", "emergency": "yes", "healthcare": "hospital", "name": "Abilene Regional Medical Center", "opening_hours": "24/7", "phone": "+1 325 428 1000", "website": "https://www.abileneregional.com/"}}, {"name": "Brownwood Regional Medical Center", "latitude": 31.6774957, "longitude": -98.993522, "source": "osm", "_tags": {"addr:city": "Brownwood", "addr:housenumber": "1501", "addr:postcode": "76801", "addr:street": "Burnett Road", "amenity": "hospital", "beds": "188", "emergency": "yes", "healthcare": "hospital", "name": "Brownwood Regional Medical Center", "opening_hours": "24/7", "phone": "+1 325 646 8541", "short_name": "BRMC", "website": "https://www.brmc-cares.com/"}}, {"name": "North Runnels Hospital", "latitude": 31.9492594, "longitude": -99.9593036, "source": "osm", "_tags": {"addr:city": "Winters", "addr:housenumber": "7821", "addr:postcode": "79467", "addr:street": "TX 153", "amenity": "hospital", "beds": "25", "emergency": "yes", "healthcare": "hospital", "name": "North Runnels Hospital", "opening_hours": "24/7", "phone": "+1 325 754 4553", "short_name": "NRH"}}, {"name": "Heart Of Texas Memorial Hospital", "latitude": 31.1176187, "longitude": -99.3467554, "source": "osm", "_tags": {"addr:city": "Brady", "addr:housenumber": "2008", "addr:postcode": "76825", "addr:street": "Nine Road", "amenity": "hospital", "beds": "25", "emergency": "yes", "healthcare": "hospital", "name": "Heart Of Texas Memorial Hospital", "opening_hours": "24/7", "phone": "+1 325 597 2901", "website": "https://www.heartoftexashealthcare.org/"}}, {"name": "", "latitude": 32.4325835, "longitude": -99.7832183, "source": "osm", "_tags": {"amenity": "hospital", "healthcare": "hospital", "healthcare:speciality": "rehab"}}]