[{"name": "", "latitude": 31.3212855, "longitude": -109.5492029, "source": "osm", "_tags": {"amenity": "hospital", "healthcare": "hospital", "operator": "Instituto de Seguridad y Servicios Sociales de los Trabajadores del Estado", "operator:short": "ISSSTE", "operator:type": "public", "operator:wikidata": "Q954557"}}, {"name": "Gila Regional Medical Center", "latitude": 32.7970071, "longitude": -108.2613355, "source": "osm", "_tags": {"addr:city": "Silver City", "addr:housenumber": "1313", "addr:postcode": "88061", "addr:state": "NM", "addr:street": "East 32nd Street", "amenity": "hospital", "beds": "68", "emergency": "yes", "gnis:feature_id": "901338", "healthcare": "hospital", "name": "Gila Regional Medical Center", "old_name": "Gila Regional Hospital", "opening_hours": "24/7", "phone": "+1 575 538 4000", "website": "https://www.grmc.org/"}}, {"name": "Southeast Arizona Medical Center", "latitude": 31.3648823, "longitude": -109.5951088, "source": "osm", "_tags": {"addr:city": "Douglas", "addr:housenumber": "2174", "addr:postcode": "85607", "addr:state": "AZ", "addr:street": "West Oak Avenue", "amenity": "hospital", "disused:amenity": "hospital", "gnis:feature_id": "21997", "healthcare": "hospital", "name": "Southeast Arizona Medical Center"}}, {"name": "Copper Queen Community Hospital", "latitude": 31.4179319, "longitude": -109.8832782, "source": "osm", "_tags": {"addr:city": "Bisbee", "addr:housenumber": "101", "addr:postcode": "85603", "addr:state": "AZ", "addr:street": "Cole Avenue", "amenity": "hospital", "emergency": "yes", "healthcare": "hospital", "name": "Copper Queen Community Hospital", "opening_hours": "24/7", "phone": "+1 520 432 5383", "website": "https://cqch.org/"}}, {"name": "Northern Cochise Community Hospital", "latitude": 32.2651762, "longitude": -109.8383636, "source": "osm", "_tags": {"addr:city": "Willcox", "addr:housenumber": "901", "addr:postcode": "85643", "addr:state": "AZ", "addr:street": "West Rex Allen Drive", "amenity": "hospital", "emergency": "yes", "healthcare": "hospital", "name": "Northern Cochise Community Hospital", "opening_hours": "24/7", "phone": "+1 520 384 3541", "website": "http://www.ncch.com/"}}, {"name": "", "latitude": 31.3191675, "longitude": -109.5826575, "source": "osm", "_tags": {"amenity": "hospital", "emergency": "yes", "healthcare": "hospital", "operator": "Instituto Mexicano del Seguro Social", "operator:en": "Mexican Social Security Institute", "operator:es": "Instituto Mexicano del Seguro Social", "operator:short": "IMSS", "operator:type": "government", "operator:wikidata": "Q904999"}}, {"name": "Cruz Roja Mexicana", "latitude": 31.3136532, "longitude": -109.5357645, "source": "osm", "_tags": {"amenity": "hospital", "building": "yes", "healthcare": "hospital", "name": "Cruz Roja Mexicana", "operator": "Cruz Roja", "operator:type": "ngo", "operator:wikidata": "Q7178"}}, {"name": "Hospital Latino", "latitude": 31.3226939, "longitude": -109.5399963, "source": "osm", "_tags": {"amenity": "hospital", "building": "hospital", "healthcare": "hospital", "name": "Hospital Latino"}}, {"name": "HOSPITAL ESPAÑOL", "latitude": 31.3325702, "longitude": -109.5587547, "source": "osm", "_tags": {"amenity": "hospital", "emergency": "yes", "healthcare": "hospital", "healthcare:speciality": "general", "name": "HOSPITAL ESPAÑOL"}}, {"name": "", "latitude": 31.3190005, "longitude": -109.5577014, "source": "osm", "_tags": {"amenity": "hospital", "healthcare": "hospital", "operator": "Cruz Roja", "operator:type": "ngo", "operator:wikidata": "Q7178"}}, {"name": "Mount Graham Regional Medical Center", "latitude": 32.8218124, "longitude": -109.7359137, "source": "osm", "_tags": {"amenity": "hospital", "healthcare": "hospital", "name": "Mount Graham Regional Medical Center"}}, {"name": "Unidad de medicina familiar #19", "latitude": 31.3105591, "longitude": -109.551614, "source": "osm", "_tags": {"amenity": "hospital", "emergency": "no", "healthcare": "hospital", "healthcare:speciality": "general", "name": "Unidad de medicina familiar #19", "operator": "IMSS Bienestar", "operator:type": "government"}}]