[{"name": "Reagan County Hospital & Clinic", "latitude": 31.2035336, "longitude": -101.461417, "source": "osm", "_tags": {"amenity": "hospital", "healthcare": "hospital", "healthcare:speciality": "general", "name": "Reagan County Hospital & Clinic", "operator": "Reagan County", "operator:type": "public"}}, {"name": "Reagan County Care Center", "latitude": 31.204049, "longitude": -101.4610728, "source": "osm", "_tags": {"addr:housenumber": "1300", "addr:street": "North Plaza Avenue", "amenity": "hospital", "healthcare": "hospital", "name": "Reagan County Care Center", "operator": "Reagan County Hospital District"}}, {"name": "Midland Memorial Hospital", "latitude": 31.9971605, "longitude": -102.0996056, "source": "osm", "_tags": {"addr:city": "Midland", "addr:housenumber": "400", "addr:postcode": "79703", "addr:street": "Rosalind Redfern Grover Parkway", "amenity": "hospital", "designation": "Main Campus", "emergency": "yes", "healthcare": "hospital", "name": "Midland Memorial Hospital", "opening_hours": "24/7", "phone": "+1 432 221 1111", "source": "http://www.midland-memorial.com/facilities-and-locations/", "website": "https://www.midland-memorial.com/"}}, {"name": "Rolling Plains Memorial Hospital", "latitude": 32.4530774, "longitude": -100.3974156, "source": "osm", "_tags": {"addr:city": "Sweetwater", "addr:country": "US", "addr:housenumber": "200", "addr:postcode": "79556", "addr:state": "TX", "addr:street": "East Arizona Avenue", "amenity": "hospital", "beds": "39", "emergency": "yes", "gnis:feature_id": "2015730", "healthcare": "hospital", "name": "Rolling Plains Memorial Hospital", "opening_hours": "24/7", "phone": "+1-325 235 1701", "website": "https://www.rpmh.net/"}}, {"name": "Encompass Health Rehabilitation Hospital of Midland Odessa", "latitude": 31.9996799, "longitude": -102.1562111, "source": "osm", "_tags": {"addr:city": "Midland", "addr:housenumber": "1800", "addr:postcode": "79707", "addr:state": "TX", "addr:street": "Heritage Boulevard", "amenity": "hospital", "emergency": "no", "healthcare": "hospital", "name": "Encompass Health Rehabilitation Hospital of Midland Odessa", "operator": "Encompass Health", "operator:wikidata": "Q5690400", "phone": "+1 432 520 1600", "website": "http://www.healthsouthmidland.com/"}}, {"name": "Midland Memorial Hospital West Campus", "latitude": 32.0046299, "longitude": -102.1344431, "source": "osm", "_tags": {"addr:city": "Midland", "addr:housenumber": "4214", "addr:postcode": "79703", "addr:street": "Andrews Highway", "amenity": "hospital", "emergency": "no", "healthcare": "hospital", "name": "Midland Memorial Hospital West Campus", "website": "https://www.midland-memorial.com/"}}, {"name": "Scenic Mountatin Medical Center", "latitude": 32.2373239, "longitude": -101.491574, "source": "osm", "_tags": {"addr:city": "Big Spring", "addr:housenumber": "1601", "addr:postcode": "79720", "addr:state": "TX", "addr:street": "Martin Luther King Boulevard", "amenity": "hospital", "beds": "150", "emergency": "yes", "healthcare": "hospital", "name": "Scenic Mountatin Medical Center", "opening_hours": "24/7", "phone": "+1 432 263 1211", "website": "http://www.smmccares.com/"}}, {"name": "San Angelo State Supported Living Center", "latitude": 31.6111892, "longitude": -100.6498253, "source": "osm", "_tags": {"addr:city": "Carlsbad", "addr:housenumber": "11640", "addr:postcode": "76934", "addr:state": "TX", "addr:street": "US Highway 87 North", "amenity": "hospital", "emergency": "no", "healthcare": "hospital", "name": "San Angelo State Supported Living Center", "operator": "Texas Department of Aging and Disability Services", "phone": "+1 325 465 4391", "social_facility": "group_home", "social_facility:for": "mental_health", "source": "Imagery Trace", "website": "https://www.dads.state.tx.us/services/SSLC/", "wikidata": "Q6070210", "wikipedia": "en:Texas state supported living centers"}}, {"name": "Big Spring State Hospital", "latitude": 32.2704737, "longitude": -101.4978675, "source": "osm", "_tags": {"addr:city": "Big Spring", "addr:housenumber": "1901", "addr:postcode": "79720", "addr:state": "TX", "addr:street": "North US Highway 87", "amenity": "hospital", "emergency": "no", "healthcare": "hospital", "name": "Big Spring State Hospital", "operator": "Texas Department of State Health Services", "social_facility:for": "mental_health", "source": "Bing Imagery Trace", "website": "https://dshs.texas.gov/mhhospitals/default.shtm"}}, {"name": "Medical Arts Hospital", "latitude": 32.749682, "longitude": -101.967962, "source": "osm", "_tags": {"addr:city": "Lamesa", "addr:housenumber": "2200", "addr:postcode": "79331", "addr:state": "TX", "addr:street": "North Bryan Avenue", "amenity": "hospital", "beds": "21", "emergency": "yes", "gnis:feature_id": "2015581", "healthcare": "hospital", "name": "Medical Arts Hospital", "opening_hours": "24/7", "phone": "+1 806 872 2183", "website": "https://www.medicalartshospital.org/"}}, {"name": "Rankin County Hospital District", "latitude": 31.2329999, "longitude": -101.9349548, "source": "osm", "_tags": {"addr:city": "Rankin", "addr:housenumber": "1611", "addr:postcode": "79731", "addr:street": "Spur 576", "amenity": "hospital", "emergency": "yes", "healthcare": "hospital", "name": "Rankin County Hospital District", "opening_hours": "24/7", "phone": "+1 432 693 1200", "website": "https://www.rankinhospital.org/"}}, {"name": "Reagan Hospital District", "latitude": 31.2031227, "longitude": -101.4612186, "source": "osm", "_tags": {"amenity": "hospital", "beds": "14", "emergency": "yes", "healthcare": "hospital", "name": "Reagan Hospital District", "opening_hours": "24/7", "phone": "+1 325 884 2561", "website": "https://www.reaganhealth.com/"}}, {"name": "San Angelo Community Medical Center", "latitude": 31.4177946, "longitude": -100.4699962, "source": "osm", "_tags": {"addr:city": "San Angelo", "addr:housenumber": "3501", "addr:postcode": "76904", "addr:state": "TX", "addr:street": "Knickerbocker Road", "amenity": "hospital", "emergency": "yes", "gnis:feature_id": "2015679", "healthcare": "hospital", "name": "San Angelo Community Medical Center", "opening_hours": "24/7", "phone": "+1 325 949 9511", "website": "https://www.sacmc.com/"}}, {"name": "Shannon Medical Center Saint John's Campus", "latitude": 31.4719645, "longitude": -100.4022584, "source": "osm", "_tags": {"addr:city": "San Angelo", "addr:housenumber": "2018", "addr:postcode": "76903", "addr:state": "TX", "addr:street": "Pulliam Street", "amenity": "hospital", "beds": "108", "emergency": "no", "gnis:feature_id": "1367190", "healthcare": "hospital", "name": "Shannon Medical Center Saint John's Campus", "old_name": "Saint Johns Hospital", "operator": "Shannon Medical Center", "phone": "+1 325 659 7100", "website": "https://www.shannonhealth.com/"}}, {"name": "Shannon Medical Center", "latitude": 31.4649618, "longitude": -100.4340197, "source": "osm", "_tags": {"addr:city": "San Angelo", "addr:housenumber": "120", "addr:postcode": "76903", "addr:street": "East Harris Avenue", "amenity": "hospital", "beds": "400", "emergency": "yes", "gnis:feature_id": "2015680", "healthcare": "hospital", "name": "Shannon Medical Center", "old_name": "Shannon West Texas Memorial Hospital", "opening_hours": "24/7", "phone": "+1 325 653 6741", "website": "https://www.shannonhealth.com/"}}, {"name": "Mitchell County Hospital", "latitude": 32.4065509, "longitude": -100.875953, "source": "osm", "_tags": {"addr:city": "Colorado City", "addr:housenumber": "997", "addr:postcode": "79512", "addr:state": "TX", "addr:street": "West Interstate 20", "amenity": "hospital", "emergency": "yes", "gnis:feature_id": "1923148", "healthcare": "hospital", "name": "Mitchell County Hospital", "opening_hours": "24/7", "phone": "+1 325 728 3431", "website": "https://www.mitchellcountyhospital.com/"}}, {"name": "Cogdell Memorial Hospital", "latitude": 32.6878023, "longitude": -100.9173953, "source": "osm", "_tags": {"addr:city": "Snyder", "addr:housenumber": "1700", "addr:postcode": "79549", "addr:state": "TX", "addr:street": "Cogdell Boulevard", "amenity": "hospital", "emergency": "yes", "gnis:feature_id": "2015756", "healthcare": "hospital", "name": "Cogdell Memorial Hospital", "opening_hours": "24/7", "phone": "+1 325 573 6374", "website": "https://www.cogdellhospital.com/"}}, {"name": "Fisher County Hospital", "latitude": 32.8341122, "longitude": -100.436258, "source": "osm", "_tags": {"addr:city": "Rotan", "addr:housenumber": "774", "addr:postcode": "79546", "addr:state": "TX", "addr:street": "State Highway 70 North", "amenity": "hospital", "beds": "14", "emergency": "yes", "healthcare": "hospital", "name": "Fisher County Hospital", "opening_hours": "24/7", "operator": "Fisher County Hospital District", "phone": "+1 325 735 2256", "website": "https://www.fishercountyhospital.com/"}}, {"name": "Martin County Hospital", "latitude": 32.1398199, "longitude": -101.7874571, "source": "osm", "_tags": {"addr:city": "Stanton", "addr:housenumber": "600", "addr:postcode": "79782", "addr:state": "TX", "addr:street": "East Interstate 20", "amenity": "hospital", "beds": "18", "emergency": "yes", "healthcare": "hospital", "name": "Martin County Hospital", "opening_hours": "24/7", "operator": "Martin County Hospital District", "phone": "+1 432 607 3200", "website": "https://www.martincountyhospital.org/"}}, {"name": "River Crest Hospital", "latitude": 31.4472702, "longitude": -100.510498, "source": "osm", "_tags": {"addr:city": "San Angelo", "addr:housenumber": "1636", "addr:postcode": "76901", "addr:state": "TX", "addr:street": "Hunters Glen Road", "amenity": "hospital", "healthcare": "hospital", "name": "River Crest Hospital"}}, {"name": "West Texas VA Medical Center", "latitude": 32.2307955, "longitude": -101.4735141, "source": "osm", "_tags": {"addr:city": "Big Spring", "addr:housenumber": "300", "addr:postcode": "79720", "addr:state": "TX", "addr:street": "West Veterans Boulevard", "amenity": "hospital", "brand": "VA", "brand:wikidata": "Q6580225", "healthcare": "hospital", "healthcare:for": "veterans", "name": "West Texas VA Medical Center", "operator": "Veterans Health Administration", "operator:short": "VA", "operator:wikidata": "Q6580225", "short_name": "VA", "wikidata": "Q104480613"}}, {"name": "Shannon Rehabilitation Hospital An Affiliate Of Encompass Health", "latitude": 31.4307267, "longitude": -100.5187663, "source": "osm", "_tags": {"addr:city": "San Angelo", "addr:housenumber": "6046", "addr:postcode": "76901", "addr:state": "TX", "addr:street": "Appaloosa Trail", "amenity": "hospital", "beds": "40", "healthcare": "rehabilitation", "name": "Shannon Rehabilitation Hospital An Affiliate Of Encompass Health", "phone": "+1 325 284 4000", "website": "https://encompasshealth.com/locations/sanangelorehab"}}]