[{"name": "Carlsbad Medical Center", "latitude": 32.4422646, "longitude": -104.2575936, "source": "osm", "_tags": {"addr:city": "Carlsbad", "addr:housenumber": "2430", "addr:postcode": "88220", "addr:state": "NM", "addr:street": "West Pierce Street", "amenity": "hospital", "beds": "115", "emergency": "yes", "healthcare": "hospital", "name": "Carlsbad Medical Center", "opening_hours": "24/7", "phone": "+1 575 887 4100", "website": "https://www.carlsbadmedicalcenter.com/"}}, {"name": "Gerald Champion Regional Medical Center", "latitude": 32.92377, "longitude": -105.9340591, "source": "osm", "_tags": {"addr:city": "Alamogordo", "addr:housenumber": "2669", "addr:postcode": "88310", "addr:state": "NM", "addr:street": "North Scenic Drive", "amenity": "hospital", "emergency": "yes", "gnis:feature_id": "901346", "healthcare": "hospital", "name": "Gerald Champion Regional Medical Center", "phone": "+1 575-439-6100", "website": "https://www.gcrmc.org/", "wikidata": "Q5549007"}}, {"name": "Artesia General Hospital", "latitude": 32.8485477, "longitude": -104.4106024, "source": "osm", "_tags": {"addr:city": "Artesia", "addr:housenumber": "702", "addr:postcode": "88210", "addr:state": "NM", "addr:street": "North 13th Street", "amenity": "hospital", "beds": "49", "emergency": "yes", "gnis:feature_id": "933927", "healthcare": "hospital", "healthcare:speciality": "general;emergency", "name": "Artesia General Hospital", "opening_hours": "24/7", "phone": "+1 575 748 3333", "website": "https://artesiageneral.com/"}}, {"name": "Culberson Hospital", "latitude": 31.0492539, "longitude": -104.8271817, "source": "osm", "_tags": {"addr:city": "Van Horn", "addr:postcode": "79855", "addr:state": "TX", "addr:street": "Eisenhower & FM 2185", "amenity": "hospital", "beds": "14", "emergency": "yes", "healthcare": "hospital", "name": "Culberson Hospital", "opening_hours": "24/7", "phone": "+1-432-283-2760", "website": "https://www.culbersonhospital.org/"}}]