[{"name": "", "latitude": 31.7082211, "longitude": -106.4295477, "source": "osm", "_tags": {"amenity": "hospital", "healthcare": "hospital"}}, {"name": "Centro de Salud # 14", "latitude": 31.6853355, "longitude": -106.3708725, "source": "osm", "_tags": {"addr:city": "Juarez", "addr:housenumber": "2210", "addr:postcode": "32540", "addr:street": "Calle Fidel Avila", "amenity": "hospital", "name": "Centro de Salud # 14", "operator": "Secretaria de Salud"}}, {"name": "El Paso Psychiatric Center", "latitude": 31.7719999, "longitude": -106.43622, "source": "osm", "_tags": {"addr:city": "El Paso", "addr:housenumber": "4615", "addr:postcode": "79905", "addr:state": "TX", "addr:street": "Alameda Avenue", "amenity": "hospital", "beds": "74", "emergency": "no", "healthcare": "hospital", "healthcare:speciality": "psychiatry", "name": "El Paso Psychiatric Center", "operator": "Texas Department of State Health Services", "source": "Bing Imagery", "website": "https://dshs.texas.gov/mhhospitals/default.shtm"}}, {"name": "Advanced Care Hospital of Southern New Mexico", "latitude": 32.3263017, "longitude": -106.724957, "source": "osm", "_tags": {"addr:city": "Las Cruces", "addr:housenumber": "4451", "addr:postcode": "88011", "addr:street": "East Lohman Avenue", "amenity": "hospital", "emergency": "no", "gnis:feature_id": "2697020", "name": "Advanced Care Hospital of Southern New Mexico", "phone": "+1-575-521-6600", "website": "https://achsnm.ernesthealth.com/"}}, {"name": "El Paso Children's Hospital", "latitude": 31.771455, "longitude": -106.4339563, "source": "osm", "_tags": {"addr:city": "El Paso", "addr:housenumber": "4845", "addr:postcode": "79905", "addr:state": "TX", "addr:street": "Alameda Avenue", "amenity": "hospital", "beds": "122", "emergency": "yes", "healthcare": "hospital", "healthcare:speciality": "paediatrics", "name": "El Paso Children's Hospital", "opening_hours": "24/7", "phone": "+1-915-298-5444", "website": "https://elpasochildrens.org/"}}, {"name": "Cruz roja mexicana", "latitude": 31.6806664, "longitude": -106.4436019, "source": "osm", "_tags": {"amenity": "hospital", "name": "Cruz roja mexicana"}}, {"name": "Rio Vista Behavioral Health", "latitude": 31.8801014, "longitude": -106.5737217, "source": "osm", "_tags": {"addr:city": "El Paso", "addr:housenumber": "1390", "addr:postcode": "79912", "addr:state": "TX", "addr:street": "Northwestern Drive", "amenity": "hospital", "beds": "80", "healthcare": "hospital", "healthcare:speciality": "psychiatry", "name": "Rio Vista Behavioral Health", "phone": "+1-915-209-4513", "website": "https://www.riovistabehavioral.com"}}, {"name": "The Hospitals Of Providence Northeast Campus", "latitude": 31.9378427, "longitude": -106.406735, "source": "osm", "_tags": {"amenity": "hospital", "beds": "8", "healthcare": "hospital", "name": "The Hospitals Of Providence Northeast Campus", "phone": "+1-281-292-2450", "website": "https://www.thehospitalsofprovidence.com/locations/detail/northeast-campus"}}, {"name": "Las Palmas Rehabilitation Hospital A Campus Of LPDS Healthcare", "latitude": 31.7890532, "longitude": -106.508826, "source": "osm", "_tags": {"addr:city": "El Paso", "addr:housenumber": "300", "addr:postcode": "79902", "addr:state": "TX", "addr:street": "Waymore", "amenity": "hospital", "beds": "31", "healthcare": "rehabilitation", "name": "Las Palmas Rehabilitation Hospital A Campus Of LPDS Healthcare", "website": "https://laspalmasdelsolhealthcare.com"}}, {"name": "Muojicare Foot and Ankle Center", "latitude": 32.3678566, "longitude": -106.7370151, "source": "osm", "_tags": {"addr:city": "Las Cruces", "addr:housenumber": "4500", "addr:postcode": "88011", "addr:state": "NM", "addr:street": "Sonoma Ranch Boulevard", "amenity": "hospital", "emergency": "no", "healthcare": "hospital", "healthcare:speciality": "podiatry", "name": "Muojicare Foot and Ankle Center", "opening_hours": "Mo-Fr 08:00-16:00", "phone": "+1-575-449-9232", "website": "https://muojicare.com/"}}, {"name": "Kanaka Chelliah MD Family Medicine", "latitude": 32.3678978, "longitude": -106.7370314, "source": "osm", "_tags": {"addr:city": "Las Cruces", "addr:housenumber": "4500", "addr:postcode": "88011", "addr:state": "NM", "addr:street": "Sonoma Ranch Boulevard", "amenity": "hospital", "emergency": "no", "healthcare": "hospital", "healthcare:speciality": "family_medicine", "name": "Kanaka Chelliah MD Family Medicine", "opening_hours": "Mo-Fr 08:30-13:00, 13:30-17:00", "phone": "+1-575-652-4048"}}, {"name": "RIME Forensic Medicine", "latitude": 32.3679607, "longitude": -106.7370147, "source": "osm", "_tags": {"addr:city": "Las Cruces", "addr:housenumber": "4500", "addr:postcode": "88011", "addr:state": "NM", "addr:street": "Sonoma Ranch Boulevard", "amenity": "hospital", "email": "trisha@romanellimd.com", "emergency": "no", "healthcare": "hospital", "healthcare:speciality": "forensic_medicine", "name": "RIME Forensic Medicine", "operator": "Daniel Romanelli, M.D.", "operator:type": "private", "phone": "+1-575-652-3528"}}, {"name": "Mountain View Regional Medical Center", "latitude": 32.323603, "longitude": -106.7289405, "source": "osm", "_tags": {"addr:city": "Las Cruces", "addr:housenumber": "4311", "addr:postcode": "88011", "addr:state": "NM", "addr:street": "East Lohman Avenue", "amenity": "hospital", "building": "yes", "building:levels": "4", "emergency": "yes", "gnis:feature_id": "2697025", "healthcare": "hospital", "name": "Mountain View Regional Medical Center", "phone": "+1 575 556 7600", "website": "https://www.mountainviewregional.com/"}}, {"name": "Memorial Medical Center", "latitude": 32.291647, "longitude": -106.7370557, "source": "osm", "_tags": {"addr:city": "Las Cruces", "addr:housenumber": "2450", "addr:postcode": "88011", "addr:state": "NM", "addr:street": "South Telshor Boulevard", "amenity": "hospital", "emergency": "yes", "gnis:feature_id": "901281", "healthcare": "hospital", "name": "Memorial Medical Center", "opening_hours": "24/7", "operator": "LifePoint Health", "phone": "+1 575 522 8641", "website": "https://www.mmclc.org/"}}, {"name": "Rehabilitation Hospital of Southern New Mexico", "latitude": 32.3258194, "longitude": -106.7244958, "source": "osm", "_tags": {"addr:city": "Las Cruces", "addr:housenumber": "4441", "addr:postcode": "88011", "addr:state": "NM", "addr:street": "East Lohman Avenue", "amenity": "hospital", "emergency": "no", "gnis:feature_id": "2697021", "healthcare": "hospital", "name": "Rehabilitation Hospital of Southern New Mexico", "phone": "+1 575 521 6400", "website": "https://rhsnm.ernesthealth.com/"}}, {"name": "Mesilla Valley Hospital", "latitude": 32.3565624, "longitude": -106.7740548, "source": "osm", "_tags": {"addr:housenumber": "3751", "addr:postcode": "88012", "addr:state": "NM", "addr:street": "Del Rey Boulevard", "amenity": "hospital", "building": "yes", "ele": "1250", "emergency": "no", "gnis:feature_id": "901340", "healthcare": "hospital", "name": "Mesilla Valley Hospital", "phone": "(800) 877-3500", "source": "Bing", "website": "https://mesillavalleyhospital.com/"}}, {"name": "Mesilla Valley Hospital", "latitude": 32.3565203, "longitude": -106.7732896, "source": "osm", "_tags": {"amenity": "hospital", "healthcare": "hospital", "name": "Mesilla Valley Hospital"}}, {"name": "Pensiones Civles del Estado", "latitude": 31.7368705, "longitude": -106.4424521, "source": "osm", "_tags": {"amenity": "hospital", "building": "yes", "emergency": "yes", "healthcare": "hospital", "name": "Pensiones Civles del Estado"}}, {"name": "Cruz Roja", "latitude": 31.7411011, "longitude": -106.4472595, "source": "osm", "_tags": {"amenity": "hospital", "building": "yes", "emergency": "yes", "healthcare": "hospital", "name": "Cruz Roja"}}, {"name": "IMSS UMF 46", "latitude": 31.7419765, "longitude": -106.4475439, "source": "osm", "_tags": {"amenity": "hospital", "building": "hospital", "healthcare": "hospital", "name": "IMSS UMF 46"}}, {"name": "Poliplaza Médica", "latitude": 31.7138507, "longitude": -106.4193851, "source": "osm", "_tags": {"amenity": "hospital", "building": "yes", "healthcare": "hospital", "name": "Poliplaza Médica"}}, {"name": "Poliplaza Médica", "latitude": 31.7132516, "longitude": -106.4195288, "source": "osm", "_tags": {"amenity": "hospital", "building": "yes", "emergency": "yes", "healthcare": "hospital", "name": "Poliplaza Médica"}}, {"name": "IMSS Clínica 35 (Seguro Nuevo)", "latitude": 31.7053936, "longitude": -106.4355848, "source": "osm", "_tags": {"amenity": "hospital", "emergency": "yes", "healthcare": "hospital", "name": "IMSS Clínica 35 (Seguro Nuevo)", "operator": "Instituto Mexicano del Seguro Social", "operator:short": "IMSS", "operator:wikidata": "Q904999", "operator:wikipedia": "es:Instituto Mexicano del Seguro Social"}}, {"name": "Hospital Star Medica Ciudad Juárez", "latitude": 31.684014, "longitude": -106.4063927, "source": "osm", "_tags": {"addr:city": "Ciudad Juárez", "addr:housenumber": "4370", "addr:postcode": "32618", "addr:street": "Calle Paseo de la Victoria", "amenity": "hospital", "building": "hospital", "emergency": "yes", "healthcare": "hospital", "healthcare:speciality": "general", "name": "Hospital Star Medica Ciudad Juárez", "operator": "Star Médica", "operator:type": "private"}}, {"name": "Hospital Angeles", "latitude": 31.7140425, "longitude": -106.392729, "source": "osm", "_tags": {"amenity": "hospital", "name": "Hospital Angeles"}}, {"name": "Hospital de la Familia", "latitude": 31.7451138, "longitude": -106.4831588, "source": "osm", "_tags": {"amenity": "hospital", "healthcare": "hospital", "name": "Hospital de la Familia", "name:es": "Hospital de la Familia"}}, {"name": "Centro Medico de Especialidades", "latitude": 31.7389969, "longitude": -106.4590155, "source": "osm", "_tags": {"amenity": "hospital", "name": "Centro Medico de Especialidades"}}, {"name": "Torre Medica de Especialidades", "latitude": 31.7402197, "longitude": -106.4571213, "source": "osm", "_tags": {"amenity": "hospital", "healthcare": "hospital", "name": "Torre Medica de Especialidades"}}, {"name": "Hospital General de Ciudad Juarez", "latitude": 31.7381787, "longitude": -106.4562781, "source": "osm", "_tags": {"amenity": "hospital", "healthcare": "hospital", "name": "Hospital General de Ciudad Juarez"}}, {"name": "El Paso VA Health Care Clinic", "latitude": 31.8206786, "longitude": -106.4622358, "source": "osm", "_tags": {"addr:city": "El Paso", "addr:housenumber": "5001", "addr:postcode": "79930", "addr:state": "TX", "addr:street": "North Piedras Street", "amenity": "hospital", "building": "hospital", "emergency": "no", "healthcare": "hospital", "healthcare:for": "veterans", "name": "El Paso VA Health Care Clinic", "operator": "Veterans Health Administration", "operator:short": "VA", "operator:wikidata": "Q6580225", "operator:wikipedia": "en:Veterans Health Administration", "phone": "+1 915 564 6100", "short_name": "VA", "website": "https://www.elpaso.va.gov/"}}, {"name": "El Paso State Supported Living Center", "latitude": 31.7592776, "longitude": -106.4055427, "source": "osm", "_tags": {"addr:city": "El Paso", "addr:housenumber": "6700", "addr:postcode": "79905", "addr:state": "TX", "addr:street": "Delta Drive", "amenity": "hospital", "beds": "48", "emergency": "no", "healthcare": "hospital", "healthcare:speciality": "long_term", "name": "El Paso State Supported Living Center", "operator": "Texas Department of Aging and Disability Services", "phone": "+1 915 782 6300", "social_facility": "group_home", "social_facility:for": "mental_health", "source": "Imagery Trace", "website": "https://www.dads.state.tx.us/services/sslc/"}}, {"name": "Clinica IMSS 66", "latitude": 31.619654, "longitude": -106.3842688, "source": "osm", "_tags": {"amenity": "hospital", "healthcare": "clinic", "name": "Clinica IMSS 66"}}, {"name": "Mimbres Memorial Hospital", "latitude": 32.2601596, "longitude": -107.7672747, "source": "osm", "_tags": {"addr:city": "Deming", "addr:housenumber": "900", "addr:postcode": "88030", "addr:state": "NM", "addr:street": "West Ash Street", "amenity": "hospital", "beds": "25", "emergency": "yes", "gnis:feature_id": "892081", "healthcare": "hospital", "name": "Mimbres Memorial Hospital", "opening_hours": "24/7", "phone": "+1 575 546 5800", "website": "http://www.mimbresmemorial.com/"}}, {"name": "Del Sol Medical Center", "latitude": 31.7568194, "longitude": -106.3498388, "source": "osm", "_tags": {"addr:city": "El Paso", "addr:housenumber": "10301", "addr:postcode": "79925", "addr:state": "TX", "addr:street": "Gateway Boulevard West", "amenity": "hospital", "beds": "350", "emergency": "yes", "healthcare": "hospital", "name": "Del Sol Medical Center", "opening_hours": "24/7", "operator": "Las Palmas Del Sol Healthcare", "phone": "+1 915 595 9000", "website": "https://laspalmasdelsolhealthcare.com/location/del-sol-medical-center"}}, {"name": "", "latitude": 31.768836, "longitude": -106.3029264, "source": "osm", "_tags": {"amenity": "hospital", "healthcare": "hospital", "operator": "Providence Health & Services", "operator:wikidata": "Q7252430"}}, {"name": "Las Palmas Medical Center", "latitude": 31.7699899, "longitude": -106.4983374, "source": "osm", "_tags": {"addr:city": "El Paso", "addr:housenumber": "1801", "addr:postcode": "79902", "addr:state": "TX", "addr:street": "North Oregon Street", "amenity": "hospital", "beds": "559", "emergency": "yes", "gnis:feature_id": "2015594", "healthcare": "hospital", "name": "Las Palmas Medical Center", "opening_hours": "24/7", "operator": "Las Palmas Del Sol Healthcare", "phone": "+1-915-521-1200", "website": "https://laspalmasdelsolhealthcare.com/location/las-palmas-medical-center"}}, {"name": "Providence Memorial Hospital", "latitude": 31.7701997, "longitude": -106.500872, "source": "osm", "_tags": {"addr:city": "El Paso", "addr:housenumber": "2001", "addr:postcode": "79902", "addr:state": "TX", "addr:street": "North Oregon Street", "amenity": "hospital", "beds": "319", "emergency": "yes", "gnis:feature_id": "1365825", "healthcare": "hospital", "name": "Providence Memorial Hospital", "opening_hours": "24/7", "operator": "The Hospitals of Providence", "phone": "+1 915 577 6011", "website": "https://www.thehospitalsofprovidence.com/our-locations/memorial-campus"}}, {"name": "Kindred Hospital El Paso", "latitude": 31.7788642, "longitude": -106.4772316, "source": "osm", "_tags": {"addr:city": "El Paso", "addr:housenumber": "1740", "addr:postcode": "79902", "addr:street": "Curie Drive", "amenity": "hospital", "beds": "72", "emergency": "no", "gnis:feature_id": "2015596", "healthcare": "hospital", "name": "Kindred Hospital El Paso", "old_name": "Rio Vista Rehabilitation Hospital", "operator": "Kindred Healthcare", "operator:wikidata": "Q921363", "operator:wikipedia": "en:Kindred Healthcare", "phone": "+1 915 351 9044", "website": "https://www.kindredhealthcare.com/locations/transitional-care-hospitals/kindred-hospital-el-paso"}}, {"name": "Sierra Medical Center", "latitude": 31.7784988, "longitude": -106.4808159, "source": "osm", "_tags": {"addr:city": "El Paso", "addr:housenumber": "1625", "addr:postcode": "79902", "addr:state": "TX", "addr:street": "Medical Center Drive", "amenity": "hospital", "beds": "284", "emergency": "yes", "gnis:feature_id": "2015597", "healthcare": "hospital", "name": "Sierra Medical Center", "opening_hours": "24/7", "operator": "The Hospitals of Providence", "phone": "+1 915 747 4000", "website": "https://www.thehospitalsofprovidence.com/our-locations/sierra-campus"}}, {"name": "", "latitude": 31.8213904, "longitude": -106.4620307, "source": "osm", "_tags": {"addr:city": "El Paso", "addr:housenumber": "5005", "addr:postcode": "79930", "addr:state": "TX", "addr:street": "North Piedras Street", "amenity": "hospital", "beds": "135", "building:levels": "7", "emergency": "yes", "fixme": "this is no longer the William Beaumont Army Medical Center since it moved to a new site in 2021, this area should reflect its new use and name if known", "gnis:feature_id": "1351714", "healthcare": "hospital", "healthcare:for": "veterans", "old_name": "William Beaumont Army Medical Center", "opening_hours": "24/7", "operator": "Veterans Health Administration", "operator:short": "VA", "operator:type": "government", "operator:wikidata": "Q6580225", "operator:wikipedia": "en:Veterans Health Administration", "short_name": "VA", "website": "https://www.wbamc.amedd.army.mil/", "wikidata": "Q14711408", "wikipedia": "en:William Beaumont Army Medical Center"}}, {"name": "University Medical Center", "latitude": 31.772187, "longitude": -106.4351375, "source": "osm", "_tags": {"addr:city": "El Paso", "addr:housenumber": "4815", "addr:postcode": "79905", "addr:state": "TX", "addr:street": "Alameda Avenue", "amenity": "hospital", "beds": "395", "emergency": "yes", "gnis:feature_id": "2015595", "healthcare": "hospital", "name": "University Medical Center", "opening_hours": "24/7", "phone": "+1 915 544 1200", "website": "https://www.umcelpaso.org/", "wikidata": "Q7894821", "wikipedia": "en:University Medical Center of El Paso"}}, {"name": "Highlands Rehabilitation Hospital", "latitude": 31.7325477, "longitude": -106.3030163, "source": "osm", "_tags": {"addr:city": "El Paso", "addr:housenumber": "1395", "addr:postcode": "79936", "addr:street": "George Dieter Drive", "amenity": "hospital", "beds": "41", "emergency": "no", "gnis:feature_id": "2015592", "healthcare": "hospital", "healthcare:speciality": "rehab;physical_rehabilitation", "name": "Highlands Rehabilitation Hospital", "phone": "+1 915 298 7222", "website": "http://www.highlandsrehabilitationhospital.com/"}}, {"name": "The Hospitals of Providence - East Campus", "latitude": 31.7903395, "longitude": -106.2645802, "source": "osm", "_tags": {"addr:city": "El Paso", "addr:housenumber": "3280", "addr:postcode": "79998", "addr:street": "Joe Battle Boulevard", "amenity": "hospital", "beds": "182", "check_date": "2025-03-14", "emergency": "yes", "healthcare": "hospital", "name": "The Hospitals of Providence - East Campus", "opening_hours": "24/7", "operator": "The Hospitals of Providence", "phone": "+1 915 832 2000", "website": "https://www.thehospitalsofprovidence.com/our-locations/east-campus"}}, {"name": "Foundation Surgical Hospital of El Paso", "latitude": 31.7343985, "longitude": -106.3001208, "source": "osm", "_tags": {"addr:city": "El Paso", "addr:housenumber": "1416", "addr:postcode": "79936", "addr:state": "TX", "addr:street": "George Dieter Drive", "amenity": "hospital", "beds": "40", "emergency": "yes", "healthcare": "hospital", "healthcare:speciality": "surgery", "name": "Foundation Surgical Hospital of El Paso", "opening_hours": "24/7", "operator": "Foundation HealthCare", "phone": "+1 915 598 4240", "website": "http://www.foundationhospitals.com/elpaso/"}}, {"name": "The Hospitals of Providence Transmountain Campus", "latitude": 31.9046449, "longitude": -106.5647508, "source": "osm", "_tags": {"addr:city": "El Paso", "addr:housenumber": "2000", "addr:postcode": "79911", "addr:state": "TX", "addr:street": "Woodrow Bean Transmountain Drive", "amenity": "hospital", "beds": "106", "emergency": "yes", "healthcare": "hospital", "name": "The Hospitals of Providence Transmountain Campus", "opening_hours": "24/7", "operator": "TH Medical", "phone": "+1 915 877 8457", "website": "https://www.thehospitalsofprovidence.com/our-locations/transmountain-campus"}}, {"name": "Clinica Familiar I.M.S.S No.64", "latitude": 31.6470131, "longitude": -106.3838755, "source": "osm", "_tags": {"amenity": "hospital", "healthcare": "hospital", "name": "Clinica Familiar I.M.S.S No.64"}}, {"name": "Instituto de Seguridad y Servicios Sociales de los Trabajadores del Estado", "latitude": 31.5942482, "longitude": -106.3988363, "source": "osm", "_tags": {"building": "hospital", "healthcare": "hospital", "name": "Instituto de Seguridad y Servicios Sociales de los Trabajadores del Estado"}}, {"name": "Hospital Infantil de Especialidades", "latitude": 31.7343276, "longitude": -106.4061761, "source": "osm", "_tags": {"amenity": "hospital", "healthcare": "hospital", "name": "Hospital Infantil de Especialidades", "name:en": "Children's Hospital Specialties", "name:es": "Hospital Infantil de Especialidades"}}, {"name": "El Paso Behavioral Health System", "latitude": 31.7809164, "longitude": -106.4762549, "source": "osm", "_tags": {"addr:city": "El Paso", "addr:housenumber": "1900", "addr:postcode": "79902", "addr:state": "TX", "addr:street": "Denver Avenue", "amenity": "hospital", "beds": "163", "emergency": "no", "healthcare": "hospital", "healthcare:speciality": "psychiatry", "name": "El Paso Behavioral Health System"}}, {"name": "IMSS Hospital General Regional No. 2", "latitude": 31.7305524, "longitude": -106.4027405, "source": "osm", "_tags": {"amenity": "hospital", "building": "hospital", "name": "IMSS Hospital General Regional No. 2"}}, {"name": "IMSS", "latitude": 31.7246891, "longitude": -106.4798971, "source": "osm", "_tags": {"amenity": "hospital", "building": "yes", "name": "IMSS"}}, {"name": "Instituto de Seguridad y Servicios Sociales de los Trabajadores del Estado", "latitude": 31.5941058, "longitude": -106.398963, "source": "osm", "_tags": {"amenity": "hospital", "healthcare": "hospital", "name": "Instituto de Seguridad y Servicios Sociales de los Trabajadores del Estado"}}, {"name": "Hospital Juarez", "latitude": 31.6770933, "longitude": -106.4385945, "source": "osm", "_tags": {"amenity": "hospital", "name": "Hospital Juarez"}}, {"name": "IMSS Hospital Zona No 6", "latitude": 31.7397438, "longitude": -106.4505117, "source": "osm", "_tags": {"amenity": "hospital", "healthcare": "hospital", "name": "IMSS Hospital Zona No 6"}}, {"name": "Hospital de la Mujer", "latitude": 31.736758, "longitude": -106.4525383, "source": "osm", "_tags": {"amenity": "hospital", "healthcare": "hospital", "name": "Hospital de la Mujer"}}, {"name": "University Medical Center of El Paso - Northeast", "latitude": 31.8940073, "longitude": -106.4343765, "source": "osm", "_tags": {"addr:city": "El Paso", "addr:housenumber": "9839", "addr:postcode": "79924", "addr:state": "TX", "addr:street": "Kenworthy Street", "amenity": "hospital", "healthcare": "hospital", "name": "University Medical Center of El Paso - Northeast"}}, {"name": "Three Crosses Regional Hospital", "latitude": 32.3344799, "longitude": -106.7764055, "source": "osm", "_tags": {"addr:housenumber": "2560", "addr:state": "NM", "addr:street": "Samaritan Drive", "amenity": "hospital", "healthcare": "hospital", "name": "Three Crosses Regional Hospital"}}, {"name": "William Beaumont Army Medical Center", "latitude": 31.832911, "longitude": -106.3252952, "source": "osm", "_tags": {"addr:city": "Fort Bliss", "addr:housenumber": "18511", "addr:postcode": "79918", "addr:state": "TX", "addr:street": "Highlander Medics Street", "alt_name": "William Beaumont Army Medical Center-Fort Bliss", "amenity": "hospital", "beds": "135", "emergency": "yes", "gnis:feature_id": "1351714", "healthcare": "hospital", "healthcare:for": "veterans", "name": "William Beaumont Army Medical Center", "note": "new location opened in 2021", "opening_hours": "24/7", "operator": "Veterans Health Administration", "operator:short": "VA", "operator:type": "government", "operator:wikidata": "Q6580225", "operator:wikipedia": "en:Veterans Health Administration", "phone": "+1 915 742 2121", "short_name": "VA", "website": "https://www.wbamc.amedd.army.mil/", "wikidata": "Q14711408", "wikipedia": "en:William Beaumont Army Medical Center"}}, {"name": "Peak Behavioral Health Services", "latitude": 31.8421353, "longitude": -106.6194333, "source": "osm", "_tags": {"addr:city": "Santa Teresa", "addr:housenumber": "5065", "addr:postcode": "88008", "addr:state": "NM", "addr:street": "Mcnutt Road", "amenity": "hospital", "beds": "88", "healthcare": "hospital", "healthcare:speciality": "psychiatry", "name": "Peak Behavioral Health Services", "phone": "+1 575 589 3000", "website": "https://www.peakbehavioral.com"}}, {"name": "The Hospitals Of Providence Horizon City Campus", "latitude": 31.6820329, "longitude": -106.2078145, "source": "osm", "_tags": {"addr:city": "Horizon City", "addr:housenumber": "13600", "addr:postcode": "79928", "addr:state": "TX", "addr:street": "Horizon Boulevard", "amenity": "hospital", "beds": "8", "healthcare": "hospital", "name": "The Hospitals Of Providence Horizon City Campus", "phone": "+1 915 407 7878", "website": "https://www.thehospitalsofprovidence.com/locations/detail/horizon-city-campus"}}, {"name": "Peak Behavioral Health", "latitude": 31.8422342, "longitude": -106.62257, "source": "osm", "_tags": {"addr:city": "Santa Teresa", "addr:housenumber": "5065", "addr:postcode": "88008", "addr:state": "NM", "addr:street": "McNutt Road", "amenity": "hospital", "beds": "119", "emergency": "no", "gnis:feature_id": "933925", "healthcare": "hospital", "healthcare:speciality": "psychiatry", "name": "Peak Behavioral Health", "phone": "+1 575 589 3000", "website": "https://www.peakbehavioral.com/"}}, {"name": "Ysleta del Sur Pueblo Health Clinic", "latitude": 31.6824359, "longitude": -106.3172422, "source": "osm", "_tags": {"amenity": "hospital", "healthcare": "hospital", "name": "Ysleta del Sur Pueblo Health Clinic"}}, {"name": "Hospital Zaragoza", "latitude": 31.6490392, "longitude": -106.3563938, "source": "osm", "_tags": {"addr:city": "Ciudad Juarez", "addr:housenumber": "169", "addr:neighbourhood": "Zaragoza", "addr:street": "Calle De Las Milpas", "amenity": "hospital", "healthcare": "hospital", "name": "Hospital Zaragoza", "website": "https://www.hospitalzaragoza.com/"}}, {"name": "", "latitude": 32.7892446, "longitude": -108.1576357, "source": "osm", "_tags": {"amenity": "hospital", "healthcare": "hospital"}}, {"name": "", "latitude": 31.5546492, "longitude": -106.3465322, "source": "osm", "_tags": {"addr:city": "Juárez", "addr:neighbourhood": "Cerrada del Parque", "addr:postcode": "32575", "addr:state": "CH", "addr:street": "Calle Monte Blanco", "amenity": "hospital", "healthcare": "hospital"}}, {"name": "", "latitude": 31.7430569, "longitude": -106.448096, "source": "osm", "_tags": {"amenity": "hospital", "building": "hospital", "type": "multipolygon"}}]