[{"name": "Crestwood Behavioral Health San Diego", "latitude": 32.7493389, "longitude": -117.0766646, "source": "osm", "_tags": {"addr:city": "San Diego", "addr:housenumber": "5550", "addr:postcode": "92105", "addr:street": "University Avenue", "amenity": "hospital", "emergency": "no", "gnis:feature_id": "1661641", "healthcare": "hospital", "healthcare:speciality": "psychiatry", "name": "Crestwood Behavioral Health San Diego", "old_name": "Villa View Hospital", "operator": "Crestwood Behavioral Health", "phone": "+1 619 481 6790", "website": "https://crestwoodbehavioralhealth.com/location/san-diego/"}}, {"name": "Palomar Medical Center Poway", "latitude": 32.9968221, "longitude": -117.055952, "source": "osm", "_tags": {"addr:city": "Poway", "addr:country": "US", "addr:housenumber": "15615", "addr:postcode": "92064", "addr:state": "CA", "addr:street": "Pomerado Road", "amenity": "hospital", "ele": "199", "emergency": "yes", "gnis:feature_id": "1869315", "healthcare": "hospital", "name": "Palomar Medical Center Poway", "operator": "Palomar Health", "phone": "+18586134000", "source:addr": "SanGIS Addresses Public Domain (http://www.sangis.org/)", "website": "http://www.pph.org/ContentPage.aspx?nd=420", "wikidata": "Q7227263"}}, {"name": "", "latitude": 32.5333131, "longitude": -116.9524442, "source": "osm", "_tags": {"amenity": "hospital"}}, {"name": "Hospital Guadalajara", "latitude": 32.5344366, "longitude": -117.0466462, "source": "osm", "_tags": {"amenity": "hospital", "name": "Hospital Guadalajara"}}, {"name": "", "latitude": 32.4847788, "longitude": -116.9399805, "source": "osm", "_tags": {"amenity": "hospital"}}, {"name": "Hospital Tecate", "latitude": 32.5572965, "longitude": -116.632074, "source": "osm", "_tags": {"amenity": "hospital", "healthcare": "hospital", "name": "Hospital Tecate"}}, {"name": "Hospital La Piedad", "latitude": 32.5001508, "longitude": -116.8902076, "source": "osm", "_tags": {"amenity": "hospital", "emergency": "yes", "name": "Hospital La Piedad"}}, {"name": "Hospital IMSS", "latitude": 32.4562051, "longitude": -116.9531385, "source": "osm", "_tags": {"amenity": "hospital", "name": "Hospital IMSS"}}, {"name": "Centro de Salud", "latitude": 32.4876592, "longitude": -117.0901646, "source": "osm", "_tags": {"addr:street": "Calle Monte Elías", "amenity": "hospital", "name": "Centro de Salud"}}, {"name": "benavides", "latitude": 32.4629471, "longitude": -116.8296699, "source": "osm", "_tags": {"amenity": "hospital", "name": "benavides"}}, {"name": "IMSS", "latitude": 32.5446606, "longitude": -116.631012, "source": "osm", "_tags": {"amenity": "hospital", "healthcare": "hospital", "name": "IMSS", "operator": "Instituto Mexicano del Seguro Social", "operator:short": "IMSS", "operator:wikidata": "Q904999", "operator:wikipedia": "es:Instituto Mexicano del Seguro Social"}}, {"name": "Hospital", "latitude": 32.5385511, "longitude": -117.028161, "source": "osm", "_tags": {"amenity": "hospital", "emergency": "yes", "healthcare": "hospital", "name": "Hospital"}}, {"name": "Hospital Del Carmen", "latitude": 32.5148863, "longitude": -117.0179946, "source": "osm", "_tags": {"amenity": "hospital", "name": "Hospital Del Carmen", "name:es": "Hospital Del Carmen"}}, {"name": "Hospital Florence", "latitude": 32.5227818, "longitude": -117.0313553, "source": "osm", "_tags": {"amenity": "hospital", "healthcare": "hospital", "name": "Hospital Florence"}}, {"name": "Centro de Salud Cañon Del Sainz", "latitude": 32.422134, "longitude": -116.9601153, "source": "osm", "_tags": {"addr:city": "Tijuana", "amenity": "hospital", "healthcare": "hospital", "name": "Centro de Salud Cañon Del Sainz", "website": "saludbc.gob.mx"}}, {"name": "Insurgentes", "latitude": 32.4866361, "longitude": -116.9253236, "source": "osm", "_tags": {"amenity": "hospital", "healthcare": "hospital", "name": "Insurgentes"}}, {"name": "Farmacia Similares", "latitude": 32.4922685, "longitude": -116.9056221, "source": "osm", "_tags": {"amenity": "hospital", "healthcare": "hospital", "name": "Farmacia Similares"}}, {"name": "IMSS #8", "latitude": 31.857142, "longitude": -116.60557, "source": "osm", "_tags": {"addr:housenumber": "S/N", "addr:postcode": "22880", "addr:street": "Avenida Reforma", "amenity": "hospital", "emergency": "yes", "healthcare": "hospital", "name": "IMSS #8", "operator": "Instituto Mexicano del Seguro Social", "operator:short": "IMSS", "operator:wikidata": "Q904999", "operator:wikipedia": "es:Instituto Mexicano del Seguro Social"}}, {"name": "Dr. Travesí Ginecólogo Especialista en Fertilidad", "latitude": 32.5235778, "longitude": -117.012718, "source": "osm", "_tags": {"addr:city": "Tijuana", "addr:housenumber": "2351", "addr:postcode": "22010", "addr:street": "Calle Diego Rivera", "amenity": "hospital", "healthcare": "hospital", "healthcare:speciality": "fertility;gynaecology;obstetrics", "name": "Dr. Travesí Ginecólogo Especialista en Fertilidad"}}, {"name": "IMSS UMF No. 35", "latitude": 32.5031031, "longitude": -116.9021791, "source": "osm", "_tags": {"addr:city": "Tijuana", "addr:postcode": "22207", "addr:street": "Av. Paseo de los Lobos 6203, Los Lobos", "amenity": "hospital", "healthcare": "hospital", "name": "IMSS UMF No. 35", "operator": "Instituto Mexicano del Seguro Social", "operator:short": "IMSS", "operator:wikidata": "Q904999"}}, {"name": "Medica de la Ciudad Tijuana", "latitude": 32.5310052, "longitude": -116.9523927, "source": "osm", "_tags": {"addr:city": "tijuana", "addr:housenumber": "16000", "addr:postcode": "22425", "addr:street": "Boulevard Lázaro Cárdenas", "healthcare": "hospital", "healthcare:speciality": "paediatrics;general;gynaecology;urology;surgery", "image": "https://tijuana.medicadelaciudad.com/", "name": "Medica de la Ciudad Tijuana", "operator": "Medica de la Ciudad", "phone": "+526646550108", "website": "https://medicadelaciudad.com/", "wheelchair": "yes"}}, {"name": "Casa Palmera Care Center", "latitude": 32.9838858, "longitude": -117.2259511, "source": "osm", "_tags": {"addr:city": "Del Mar", "addr:housenumber": "14750", "addr:postcode": "92014-4204", "addr:street": "El Camino Real", "amenity": "hospital", "beds": "93", "healthcare": "rehabilitation", "name": "Casa Palmera Care Center", "phone": "+1 858 481 4411", "website": "https://casapalmera.com"}}, {"name": "Kaiser Permanente", "latitude": 32.5850238, "longitude": -117.0336752, "source": "osm", "_tags": {"addr:postcode": "92154", "amenity": "hospital", "healthcare": "hospital", "name": "Kaiser Permanente", "name:en": "Kaiser Permanente Otay Mesa Urgent Care", "opening_hours": "Mo-Su 09:00-21:00", "operator": "Kaiser Permanente", "operator:short": "KP", "operator:wikidata": "Q1721601", "phone": "+1 (619) 528-5000", "website": "https://healthy.kaiserpermanente.org/southern-california/facilities/Otay-Mesa-Medical-Offices-100079"}}, {"name": "Marque Urgent Care", "latitude": 32.7983734, "longitude": -117.2464902, "source": "osm", "_tags": {"amenity": "hospital", "name": "Marque Urgent Care"}}, {"name": "", "latitude": 32.7476743, "longitude": -117.1616349, "source": "osm", "_tags": {"amenity": "hospital", "bicycle_parking": "rack", "capacity": "2", "covered": "no", "healthcare": "hospital"}}, {"name": "BrightQuest Treatment Centers - San Diego", "latitude": 32.7800521, "longitude": -117.0332238, "source": "osm", "_tags": {"addr:city": "La Mesa", "addr:housenumber": "5520", "addr:postcode": "91942", "addr:state": "CA", "addr:street": "Wellesley Street West", "addr:unit": "STE 100", "amenity": "hospital", "contact:facebook": "https://www.facebook.com/BrightQuestTreatment/", "healthcare": "hospital", "healthcare:speciality": "mental_health_services;mental_health_clinic", "image": "https://lh5.googleusercontent.com/p/AF1QipOX9ehjyOXEfek6wpSz431Jd_kcngelz_H4FOSm=s483-k-no", "name": "BrightQuest Treatment Centers - San Diego", "phone": "619-466-0547", "website": "https://www.brightquest.com/san-diego/"}}, {"name": "Scripps Memorial Hospital La Jolla", "latitude": 32.8843621, "longitude": -117.2250606, "source": "osm", "_tags": {"addr:city": "La Jolla", "addr:housenumber": "9888", "addr:postcode": "92037", "addr:street": "Genesee Avenue", "amenity": "hospital", "beds": "382", "emergency": "yes", "healthcare": "hospital", "name": "Scripps Memorial Hospital La Jolla", "opening_hours": "24/7", "operator": "Scripps Health", "phone": "+1 858 626 4123", "website": "https://www.scripps.org/locations/hospitals__scripps-memorial-hospital-la-jolla", "wikidata": "Q30280463"}}, {"name": "Naval Medical Center San Diego", "latitude": 32.7258828, "longitude": -117.145111, "source": "osm", "_tags": {"access": "private", "addr:city": "San Diego", "addr:country": "US", "addr:housenumber": "34800", "addr:postcode": "92101", "addr:state": "CA", "addr:street": "Bob Wilson Drive", "amenity": "hospital", "emergency": "yes", "healthcare": "hospital", "landuse": "military", "name": "Naval Medical Center San Diego", "opening_hours": "24/7", "operator": "United States Navy", "phone": "+1 619 532 6400", "short_name": "NMCSD", "website": "https://www.med.navy.mil/sites/nmcsd/", "wikidata": "Q6981860", "wikipedia": "en:Naval Medical Center San Diego"}}, {"name": "UC San Diego Medical Center", "latitude": 32.755465, "longitude": -117.1655466, "source": "osm", "_tags": {"addr:city": "San Diego", "addr:housenumber": "200", "addr:postcode": "92103", "addr:street": "West Arbor Drive", "amenity": "hospital", "emergency": "yes", "healthcare": "hospital", "name": "UC San Diego Medical Center", "opening_hours": "24/7", "phone": "+1 858 657 7000", "website": "https://health.ucsd.edu/", "wikidata": "Q38250506"}}, {"name": "Hospital Tecate", "latitude": 32.5573691, "longitude": -116.6321188, "source": "osm", "_tags": {"amenity": "hospital", "healthcare": "hospital", "name": "Hospital Tecate"}}, {"name": "Paradise Valley Hospital", "latitude": 32.684802, "longitude": -117.081268, "source": "osm", "_tags": {"addr:city": "National City", "addr:housenumber": "2400", "addr:postcode": "91950", "addr:street": "East 4th Street", "amenity": "hospital", "emergency": "yes", "gnis:feature_id": "1870132", "healthcare": "hospital", "name": "Paradise Valley Hospital", "opening_hours": "24/7", "operator": "Prime Healthcare Services", "operator:wikidata": "Q7243267", "phone": "+1 619 470 4321", "source": "Bing", "website": "https://www.paradisevalleyhospital.net/", "wikidata": "Q7134385"}}, {"name": "PBM Photomedicine", "latitude": 32.5125642, "longitude": -116.9992759, "source": "osm", "_tags": {"amenity": "hospital", "building:levels": "2", "description": "Centro Medico de Alta Tecnologia", "healthcare": "hospital", "name": "PBM Photomedicine"}}, {"name": "Enfermería CICESE", "latitude": 31.8695904, "longitude": -116.6676631, "source": "osm", "_tags": {"amenity": "hospital", "healthcare": "yes", "name": "Enfermería CICESE"}}, {"name": "Hospital Infantil de Las Californias", "latitude": 32.5399804, "longitude": -116.9385463, "source": "osm", "_tags": {"alt_name": "Hospital de Las Californias", "amenity": "hospital", "healthcare": "hospital", "name": "Hospital Infantil de Las Californias"}}, {"name": "Red Cross", "latitude": 31.8732993, "longitude": -116.6354005, "source": "osm", "_tags": {"amenity": "hospital", "name": "Red Cross"}}, {"name": "", "latitude": 31.8764379, "longitude": -116.6208247, "source": "osm", "_tags": {"amenity": "hospital"}}, {"name": "Moores Cancer Center", "latitude": 32.8782985, "longitude": -117.2229025, "source": "osm", "_tags": {"addr:city": "La Jolla", "addr:housenumber": "3855", "addr:postcode": "92037", "addr:street": "Medical Center Drive", "amenity": "hospital", "building": "university", "emergency": "no", "healthcare": "hospital", "healthcare:speciality": "oncology", "name": "Moores Cancer Center", "operator": "UC San Diego Health", "phone": "+1 858 822 6100", "website": "https://health.ucsd.edu/locations/Pages/moores.aspx", "wikidata": "Q43401559", "wikipedia": "en:Moores Cancer Center"}}, {"name": "Hospital Angeles Tijuana", "latitude": 32.5179945, "longitude": -117.0078642, "source": "osm", "_tags": {"amenity": "hospital", "healthcare": "hospital", "name": "Hospital Angeles Tijuana"}}, {"name": "CRIT Baja California", "latitude": 32.5186247, "longitude": -116.9617639, "source": "osm", "_tags": {"amenity": "hospital", "name": "CRIT Baja California"}}, {"name": "Clinica 20 IMSS", "latitude": 32.4993214, "longitude": -116.9650152, "source": "osm", "_tags": {"amenity": "hospital", "healthcare": "hospital", "name": "Clinica 20 IMSS"}}, {"name": "Secetraria de Salud BC", "latitude": 32.4631062, "longitude": -116.9091145, "source": "osm", "_tags": {"amenity": "hospital", "name": "Secetraria de Salud BC"}}, {"name": "UC San Diego Health, La Jolla Campus", "latitude": 32.8784311, "longitude": -117.224106, "source": "osm", "_tags": {"amenity": "hospital", "amenity_1": "university", "emergency": "yes", "healthcare": "hospital", "name": "UC San Diego Health, La Jolla Campus", "opening_hours": "24/7", "operator": "UC San Diego Health", "website": "https://health.ucsd.edu/", "wikidata": "Q3547155", "wikipedia": "en:UC San Diego Health"}}, {"name": "Sharp Coronado Hospital", "latitude": 32.6944876, "longitude": -117.1685055, "source": "osm", "_tags": {"addr:city": "Coronado", "addr:housenumber": "230", "addr:postcode": "92118", "addr:street": "Prospect Place", "amenity": "hospital", "emergency": "yes", "healthcare": "hospital", "name": "Sharp Coronado Hospital", "opening_hours": "24/7", "operator": "Sharp Healthcare", "phone": "+1 619 522 3600", "website": "https://www.sharp.com/hospitals/coronado/", "wikidata": "Q7490302", "wikipedia": "en:Sharp Coronado Hospital"}}, {"name": "Hospital Regional No. 1 IMSS", "latitude": 32.4761696, "longitude": -116.9270207, "source": "osm", "_tags": {"amenity": "hospital", "name": "Hospital Regional No. 1 IMSS", "operator": "Instituto Mexicano del Seguro Social"}}, {"name": "", "latitude": 32.5565023, "longitude": -116.6587287, "source": "osm", "_tags": {"amenity": "hospital", "healthcare": "hospital"}}, {"name": "Kaiser Permanente San Diego Medical Center", "latitude": 32.8301367, "longitude": -117.1248715, "source": "osm", "_tags": {"addr:city": "San Diego", "addr:country": "US", "addr:housenumber": "9455", "addr:postcode": "92123", "addr:state": "CA", "addr:street": "Clairemont Mesa Boulevard", "amenity": "hospital", "emergency": "yes", "healthcare": "hospital", "name": "Kaiser Permanente San Diego Medical Center", "opening_hours": "24/7", "operator": "Kaiser Permanente", "operator:short": "KP", "operator:website": "https://healthy.kaiserpermanente.org/", "operator:wikidata": "Q1721601", "operator:wikipedia": "en:Kaiser Permanente", "website": "https://thrive.kaiserpermanente.org/care-near-you/southern-california/san-diego/locations/kaiser-permanente-san-diego-medical-center/"}}, {"name": "", "latitude": 32.4849775, "longitude": -116.9400912, "source": "osm", "_tags": {"amenity": "hospital", "healthcare": "hospital"}}, {"name": "Centro de Salud Cañon Del Sainz", "latitude": 32.4222662, "longitude": -116.9601368, "source": "osm", "_tags": {"addr:city": "Tijuana", "amenity": "hospital", "healthcare": "hospital", "name": "Centro de Salud Cañon Del Sainz", "website": "saludbc.gob.mx"}}, {"name": "Hospital Insurgentes Rio", "latitude": 32.489884, "longitude": -116.9281965, "source": "osm", "_tags": {"amenity": "hospital", "healthcare": "hospital", "name": "Hospital Insurgentes Rio"}}, {"name": "Hospital General Ensenada", "latitude": 31.8245218, "longitude": -116.6002675, "source": "osm", "_tags": {"amenity": "hospital", "barrier": "wall", "emergency": "yes", "healthcare": "hospital", "name": "Hospital General Ensenada"}}, {"name": "Hospital General de Tijuana", "latitude": 32.5256665, "longitude": -117.0097257, "source": "osm", "_tags": {"addr:city": "Tijuana", "addr:street": "Vía Rápida Oriente", "amenity": "hospital", "healthcare": "hospital", "name": "Hospital General de Tijuana"}}, {"name": "Veterans Affairs San Diego Healthcare System", "latitude": 32.8750051, "longitude": -117.2316624, "source": "osm", "_tags": {"access": "private", "addr:city": "San Diego", "addr:housenumber": "3350", "addr:postcode": "92161", "addr:street": "La Jolla Village Drive", "amenity": "hospital", "emergency": "yes", "gnis:feature_id": "2457099", "healthcare": "hospital", "healthcare:for": "veterans", "name": "Veterans Affairs San Diego Healthcare System", "opening_hours": "24/7", "operator": "Veterans Health Administration", "operator:short": "VA", "operator:wikidata": "Q6580225", "operator:wikipedia": "en:Veterans Health Administration", "phone": "+1 858 552 8585", "short_name": "VA", "website": "https://www.sandiego.va.gov/", "wikidata": "Q30253641"}}, {"name": "", "latitude": 32.5036856, "longitude": -116.8656117, "source": "osm", "_tags": {"amenity": "hospital", "healthcare": "hospital"}}, {"name": "Hospital General", "latitude": 32.3637925, "longitude": -117.0556744, "source": "osm", "_tags": {"addr:city": "Rosarito", "addr:street": "Galilea", "amenity": "hospital", "emergency": "yes", "healthcare": "hospital", "name": "Hospital General", "operator": "Gobierno de Baja California"}}, {"name": "", "latitude": 32.3418152, "longitude": -117.0559722, "source": "osm", "_tags": {"amenity": "hospital", "healthcare": "hospital"}}, {"name": "IMSS", "latitude": 32.3415362, "longitude": -117.0559602, "source": "osm", "_tags": {"amenity": "hospital", "healthcare": "hospital", "name": "IMSS"}}, {"name": "IMSS - Clínica 7", "latitude": 32.5143751, "longitude": -117.0091968, "source": "osm", "_tags": {"amenity": "hospital", "healthcare": "hospital", "name": "IMSS - Clínica 7", "operator": "Instituto Mexicano del Seguro Social", "operator:short": "IMSS", "operator:wikidata": "Q904999"}}, {"name": "Sharp Chula Vista Medical Center", "latitude": 32.6188482, "longitude": -117.0231352, "source": "osm", "_tags": {"addr:city": "Chula Vista", "addr:housenumber": "751", "addr:postcode": "91911", "addr:state": "CA", "addr:street": "Medical Center Court", "amenity": "hospital", "check_date": "2024-11-11", "emergency": "yes", "gnis:feature_id": "1870471", "healthcare": "hospital", "name": "Sharp Chula Vista Medical Center", "old_name": "Community Hospital of Chula Vista", "opening_hours": "24/7", "operator": "Sharp Healthcare", "phone": "+1 619 502 5800", "website": "https://www.sharp.com/hospitals/chula-vista/", "wikidata": "Q7490301", "wikipedia": "en:Sharp Chula Vista Medical Center"}}, {"name": "Paradise Valley Hospital Bayview Behavioral Health Campus", "latitude": 32.6178508, "longitude": -117.0715182, "source": "osm", "_tags": {"addr:city": "Chula Vista", "addr:housenumber": "330", "addr:postcode": "91911", "addr:street": "Moss Street", "amenity": "hospital", "emergency": "no", "gnis:feature_id": "2457083", "healthcare": "hospital", "healthcare:speciality": "psychiatry", "name": "Paradise Valley Hospital Bayview Behavioral Health Campus", "old_name": "Bayview Hospital and Mental Health System", "operator": "Prime Healthcare", "phone": "+1 800 585 2767", "website": "https://www.paradisevalleyhospital.net/"}}, {"name": "Scripps Mercy Hospital Chula Vista", "latitude": 32.6336084, "longitude": -117.0837882, "source": "osm", "_tags": {"addr:city": "Chula Vista", "addr:housenumber": "435", "addr:postcode": "91911", "addr:state": "CA", "addr:street": "H Street", "amenity": "hospital", "beds": "183", "emergency": "yes", "gnis:feature_id": "1870157", "healthcare": "hospital", "name": "Scripps Mercy Hospital Chula Vista", "old_name": "Bay General Hospital;Scripps Memorial Hospital Chula Vista", "opening_hours": "24/7", "operator": "Scripps Health", "phone": "+1 619 691 7000", "website": "https://www.scripps.org/locations/hospitals__scripps-mercy-hospital__scripps-mercy-hospital-chula-vista", "wikidata": "Q7439197", "wikipedia": "en:Scripps Mercy Hospital"}}, {"name": "Scripps Mercy Hospital", "latitude": 32.7513298, "longitude": -117.1594312, "source": "osm", "_tags": {"addr:city": "San Diego", "addr:housenumber": "4077", "addr:postcode": "92103", "addr:state": "CA", "addr:street": "5th Avenue", "amenity": "hospital", "beds": "517", "emergency": "yes", "gnis:feature_id": "1661009", "healthcare": "hospital", "name": "Scripps Mercy Hospital", "opening_hours": "24/7", "operator": "Scripps Health", "phone": "+1 619 294 8111", "website": "https://www.scripps.org/locations/hospitals__scripps-mercy-hospital__scripps-mercy-hospital-san-diego", "wikidata": "Q7439197"}}, {"name": "Kindred Hospital - San Diego", "latitude": 32.7561741, "longitude": -117.1443991, "source": "osm", "_tags": {"addr:city": "San Diego", "addr:housenumber": "1940", "addr:postcode": "92104", "addr:street": "El Cajon Boulevard", "amenity": "hospital", "emergency": "no", "healthcare": "hospital", "name": "Kindred Hospital - San Diego", "operator": "Kindred Healthcare", "operator:wikidata": "Q921363", "operator:wikipedia": "en:Kindred Healthcare", "phone": "+1 619 543 4500", "website": "https://www.kindredhealthcare.com/locations/transitional-care-hospitals/kindred-hospital-san-diego"}}, {"name": "Sharp Memorial Hospital", "latitude": 32.7993318, "longitude": -117.1546103, "source": "osm", "_tags": {"addr:city": "San Diego", "addr:housenumber": "7901", "addr:postcode": "92123", "addr:street": "Frost Street", "amenity": "hospital", "beds": "656", "emergency": "yes", "gnis:feature_id": "1869589", "healthcare": "hospital", "name": "Sharp Memorial Hospital", "opening_hours": "24/7", "operator": "Sharp Healthcare", "phone": "+1 858 939 3400", "website": "https://www.sharp.com/hospitals/memorial/"}}, {"name": "Rady Children's Hospital-San Diego", "latitude": 32.7982966, "longitude": -117.1517698, "source": "osm", "_tags": {"addr:city": "San Diego", "addr:housenumber": "3020", "addr:postcode": "92123", "addr:street": "Children's Way", "amenity": "hospital", "check_date": "2023-10-07", "emergency": "yes", "healthcare": "hospital", "healthcare:speciality": "paediatrics", "name": "Rady Children's Hospital-San Diego", "opening_hours": "24/7", "phone": "+1 858 576 1700", "urgent_care": "yes", "website": "https://www.rchsd.org/"}}, {"name": "Sharp Mesa Vista Hospital", "latitude": 32.7957739, "longitude": -117.155301, "source": "osm", "_tags": {"addr:city": "San Diego", "addr:housenumber": "7850", "addr:postcode": "92123", "addr:street": "Vista Hill Avenue", "amenity": "hospital", "beds": "149", "emergency": "no", "gnis:feature_id": "1869621", "healthcare": "hospital", "healthcare:speciality": "psychiatry", "name": "Sharp Mesa Vista Hospital", "operator": "Sharp Healthcare", "phone": "+1 858 836 8434", "website": "https://www.sharp.com/hospitals/mesa-vista/"}}, {"name": "San Diego County Psychiatric Hospital", "latitude": 32.7529907, "longitude": -117.2020814, "source": "osm", "_tags": {"addr:city": "San Diego", "addr:housenumber": "3853", "addr:postcode": "92110", "addr:street": "Rosecrans Street", "amenity": "hospital", "emergency": "no", "gnis:feature_id": "2457085", "healthcare": "hospital", "healthcare:speciality": "psychiatry", "name": "San Diego County Psychiatric Hospital", "phone": "+1 619 692 8200", "website": "https://www.sandiegocounty.gov/content/sdc/hhsa/facilities/north_central/psychiatric_hospital_san_diego_county.html"}}, {"name": "Sharp Grossmont Hospital", "latitude": 32.7805953, "longitude": -117.0068031, "source": "osm", "_tags": {"addr:city": "La Mesa", "addr:housenumber": "5555", "addr:postcode": "91942", "addr:street": "Grossmont Center Drive", "amenity": "hospital", "emergency": "yes", "gnis:feature_id": "1660702", "healthcare": "hospital", "name": "Sharp Grossmont Hospital", "opening_hours": "24/7", "operator": "Sharp Healthcare", "phone": "+1 619 740 6000", "website": "https://www.sharp.com/locations/hospitals/sharp-grossmont"}}, {"name": "UC San Diego Health East Campus Medical Center", "latitude": 32.7764711, "longitude": -117.0573258, "source": "osm", "_tags": {"addr:city": "San Diego", "addr:housenumber": "6655", "addr:postcode": "92120", "addr:street": "Alvarado Road", "amenity": "hospital", "beds": "306", "emergency": "yes", "gnis:feature_id": "1662226", "healthcare": "hospital", "name": "UC San Diego Health East Campus Medical Center", "opening_hours": "24/7", "operator": "UC San Diego Health", "phone": "+1 619 287 3270", "website": "https://www.alvaradohospital.com/", "wikidata": "Q16868949", "wikipedia": "en:UC San Diego Health East Campus Medical Center"}}, {"name": "Alvarado Parkway Institute Behavioral Health System", "latitude": 32.7744009, "longitude": -117.0442106, "source": "osm", "_tags": {"addr:city": "La Mesa", "addr:housenumber": "7050", "addr:postcode": "91942", "addr:street": "Parkway Drive", "amenity": "hospital", "emergency": "no", "gnis:feature_id": "1661066", "healthcare": "hospital", "healthcare:speciality": "psychiatry", "name": "Alvarado Parkway Institute Behavioral Health System", "old_name": "Mount Helix Hospital", "operator": "Alvarado Parkway Institute Behavioral Health System", "phone": "+1 619 667 6125", "website": "https://www.apibhs.com/"}}, {"name": "Kaiser Permanente Zion Medical Center", "latitude": 32.7913918, "longitude": -117.0954609, "source": "osm", "_tags": {"addr:city": "San Diego", "addr:country": "US", "addr:housenumber": "4647", "addr:postcode": "92120", "addr:street": "Zion Avenue", "amenity": "hospital", "emergency": "yes", "gnis:feature_id": "1869482", "healthcare": "hospital", "name": "Kaiser Permanente Zion Medical Center", "opening_hours": "24/7", "operator": "Kaiser Permanente", "operator:short": "KP", "operator:website": "https://healthy.kaiserpermanente.org/", "operator:wikidata": "Q1721601", "operator:wikipedia": "en:Kaiser Permanente", "phone": "+1 619 528 5000", "source": "SanGIS Addresses Public Domain (http://www.sangis.org/)", "website": "https://thrive.kaiserpermanente.org/care-near-you/southern-california/san-diego/locations/kaiser-permanente-zion-medical-center/"}}, {"name": "Scripps Green Hospital", "latitude": 32.896712, "longitude": -117.2424604, "source": "osm", "_tags": {"addr:city": "La Jolla", "addr:housenumber": "10666", "addr:postcode": "92037", "addr:street": "North Torrey Pines Road", "amenity": "hospital", "beds": "173", "emergency": "no", "gnis:feature_id": "1869090", "healthcare": "hospital", "name": "Scripps Green Hospital", "operator": "Scripps Health", "phone": "+1 858 554 9100", "website": "https://www.scripps.org/locations/hospitals__scripps-green-hospital"}}, {"name": "Cruz Roja Mexicana", "latitude": 32.5067449, "longitude": -116.9639573, "source": "osm", "_tags": {"amenity": "hospital", "healthcare": "hospital", "name": "Cruz Roja Mexicana", "operator": "Cruz Roja", "operator:wikidata": "Q7178"}}, {"name": "", "latitude": 32.4848458, "longitude": -116.9402081, "source": "osm", "_tags": {"amenity": "hospital", "building": "yes", "healthcare": "hospital"}}, {"name": "Hospital de Salud Mental", "latitude": 32.551518, "longitude": -116.9098369, "source": "osm", "_tags": {"amenity": "hospital", "healthcare": "hospital", "name": "Hospital de Salud Mental"}}, {"name": "", "latitude": 32.4654252, "longitude": -116.863029, "source": "osm", "_tags": {"amenity": "hospital", "healthcare": "hospital"}}, {"name": "Farmacia La Más Barata", "latitude": 32.4659763, "longitude": -116.8627307, "source": "osm", "_tags": {"amenity": "hospital", "healthcare": "hospital", "name": "Farmacia La Más Barata"}}, {"name": "destista", "latitude": 32.4657125, "longitude": -116.8628153, "source": "osm", "_tags": {"amenity": "hospital", "healthcare": "hospital", "name": "destista"}}, {"name": "centro de estudios de la sangre", "latitude": 32.4656649, "longitude": -116.8626162, "source": "osm", "_tags": {"amenity": "hospital", "healthcare": "hospital", "name": "centro de estudios de la sangre"}}, {"name": "Sharp Allison deRose Rehabilitation Center", "latitude": 32.7974807, "longitude": -117.1550381, "source": "osm", "_tags": {"amenity": "hospital", "healthcare": "hospital", "name": "Sharp Allison deRose Rehabilitation Center"}}, {"name": "Hospital Del Prado", "latitude": 32.5099991, "longitude": -116.9902369, "source": "osm", "_tags": {"addr:city": "Tijuana", "addr:housenumber": "50", "addr:postcode": "22105", "addr:street": "Avenida Bugambilias", "amenity": "hospital", "description": "Telefono Emergencias: +52 664 621 0919", "email": "info@hospitaldelprado.com", "emergency": "yes", "emergency:phone": "+52 664 621 0919", "healthcare": "hospital", "healthcare:speciality": "surgery;neurosurgery;plastic_surgery;neonatology;paediatric_surgery;paediatrics;allergology;anaesthetics;gynaecology;general;intensive;neurology;pulmonology;dental_oral_maxillo_facial_surgery;urology;ophthalmology;otolaryngology;oncology", "name": "Hospital Del Prado", "phone": "+52 664 681 4900"}}, {"name": "IMSS8 Estacionamiento Interno", "latitude": 31.8565001, "longitude": -116.6053637, "source": "osm", "_tags": {"amenity": "hospital", "emergency": "yes", "healthcare": "hospital", "name": "IMSS8 Estacionamiento Interno"}}, {"name": "Hospital de la Salud", "latitude": 32.5140374, "longitude": -117.0310923, "source": "osm", "_tags": {"addr:housenumber": "2992", "addr:street": "Boulevard de los Fundadores", "amenity": "hospital", "building": "yes", "name": "Hospital de la Salud"}}, {"name": "Cruz Roja Mexicana", "latitude": 32.5722006, "longitude": -116.6415577, "source": "osm", "_tags": {"amenity": "hospital", "building": "yes", "healthcare": "hospital", "name": "Cruz Roja Mexicana"}}, {"name": "Centro Medico Excel", "latitude": 32.5206274, "longitude": -117.0118809, "source": "osm", "_tags": {"addr:city": "Tijuana", "addr:housenumber": "2507", "addr:postcode": "22320", "addr:street": "Calle Paseo de los Héroes", "alt_name": "Hospital Excel", "amenity": "hospital", "emergency": "yes", "healthcare": "hospital", "healthcare:speciality": "internal;general;emergency;intensive;anaesthetics;physiatry;clinical_pathology;trauma;psychiatry;paediatrics;dentistry;gynaecology", "name": "Centro Medico Excel", "operator": "Grupo Excel", "operator:type": "private"}}, {"name": "", "latitude": 32.5744818, "longitude": -116.6230092, "source": "osm", "_tags": {"amenity": "hospital", "healthcare": "hospital"}}, {"name": "", "latitude": 32.5446889, "longitude": -116.6310604, "source": "osm", "_tags": {"amenity": "hospital", "healthcare": "hospital"}}, {"name": "", "latitude": 32.5456194, "longitude": -116.6316154, "source": "osm", "_tags": {"amenity": "hospital", "healthcare": "hospital"}}, {"name": "Cruz Roja Natura", "latitude": 32.3756887, "longitude": -116.9328599, "source": "osm", "_tags": {"amenity": "hospital", "building": "yes", "healthcare": "hospital", "name": "Cruz Roja Natura", "operator": "Cruz Roja", "operator:wikidata": "Q7178", "operator:wikipedia": "es:Cruz Roja"}}, {"name": "Cruz Roja", "latitude": 32.4477557, "longitude": -116.8856643, "source": "osm", "_tags": {"amenity": "hospital", "healthcare": "hospital", "name": "Cruz Roja", "operator": "Cruz Roja", "operator:wikidata": "Q7178", "operator:wikipedia": "es:Cruz Roja"}}, {"name": "Hospital ISSSTECALI", "latitude": 31.8557578, "longitude": -116.6166147, "source": "osm", "_tags": {"addr:city": "Ensenada", "addr:housenumber": "254", "addr:postcode": "22880", "addr:street": "Calle De Las Rocas", "amenity": "hospital", "emergency": "yes", "healthcare": "hospital", "healthcare:speciality": "general;intensive;emergency;maternity;internal", "name": "Hospital ISSSTECALI", "operator": "ISSSTECALI", "operator:type": "government", "phone": "+526461763401", "wheelchair": "yes"}}, {"name": "Clinica Hospital \"Ensenada\"", "latitude": 31.8501526, "longitude": -116.6075782, "source": "osm", "_tags": {"amenity": "hospital", "healthcare": "hospital", "name": "Clinica Hospital \"Ensenada\"", "operator": "Instituto de Seguridad y Servicios Sociales de los Trabajadores del Estado", "operator:short": "ISSSTE", "operator:type": "government", "operator:wikidata": "Q954557"}}, {"name": "International Bio Care Hospital and Wellness Center", "latitude": 32.5098554, "longitude": -116.9891291, "source": "osm", "_tags": {"addr:city": "Tijuana", "addr:housenumber": "15", "addr:postcode": "22105", "addr:street": "Avenida Azucenas", "amenity": "hospital", "healthcare": "hospital", "name": "International Bio Care Hospital and Wellness Center"}}, {"name": "Hospital San Roman", "latitude": 32.5193578, "longitude": -117.0210368, "source": "osm", "_tags": {"amenity": "hospital", "area": "yes", "healthcare": "hospital", "name": "Hospital San Roman"}}, {"name": "Sharp Mary Birch Hospital for Women & Newborns", "latitude": 32.7983311, "longitude": -117.1550005, "source": "osm", "_tags": {"addr:city": "San Diego", "addr:country": "US", "addr:housenumber": "3003", "addr:postcode": "92123", "addr:state": "CA", "addr:street": "Health Center Drive", "amenity": "hospital", "emergency": "yes", "healthcare": "hospital", "healthcare:speciality": "gynaecology", "name": "Sharp Mary Birch Hospital for Women & Newborns", "phone": "+18589393400", "type": "building"}}, {"name": "ISSSTE", "latitude": 32.5079483, "longitude": -116.9851723, "source": "osm", "_tags": {"amenity": "hospital", "healthcare": "hospital", "name": "ISSSTE", "operator": "Instituto de Seguridad y Servicios Sociales de los Trabajadores del Estado", "operator:short": "ISSSTE", "operator:wikidata": "Q954557", "type": "multipolygon"}}]