[{"name": "United Community Health Center", "latitude": 32.0782544, "longitude": -111.3075897, "source": "osm", "_tags": {"amenity": "hospital", "emergency": "no", "name": "United Community Health Center"}}, {"name": "Northwest Hospital", "latitude": 32.3200895, "longitude": -111.009761, "source": "osm", "_tags": {"addr:street": "West Orange Grove Road", "amenity": "hospital", "name": "Northwest Hospital"}}, {"name": "Abrams Public Health Center", "latitude": 32.1763174, "longitude": -110.9276925, "source": "osm", "_tags": {"amenity": "hospital", "healthcare": "hospital", "name": "Abrams Public Health Center"}}, {"name": "TMC Geropsychiatric Center At Handmaker", "latitude": 32.2487838, "longitude": -110.8844966, "source": "osm", "_tags": {"addr:city": "Tucson", "addr:housenumber": "2221", "addr:postcode": "85712", "addr:state": "AZ", "addr:street": "North Rosemont Boulevard", "amenity": "hospital", "beds": "16", "healthcare": "hospital", "name": "TMC Geropsychiatric Center At Handmaker", "phone": "+1 520 324 4600", "website": "https://www.tmcaz.com"}}, {"name": "Tucson Emergency Room And Hospital", "latitude": 32.2221731, "longitude": -110.8948742, "source": "osm", "_tags": {"addr:city": "Tucson", "addr:housenumber": "4575", "addr:postcode": "85711", "addr:state": "AZ", "addr:street": "East Broadway Boulevard", "amenity": "hospital", "beds": "4", "healthcare": "hospital", "name": "Tucson Emergency Room And Hospital", "phone": "+1 520 375 9111", "website": "https://tucsonerhospital.com"}}, {"name": "Indian Health Service Tucson Area", "latitude": 32.1075246, "longitude": -110.9811825, "source": "osm", "_tags": {"addr:city": "Sells", "addr:postcode": "85634", "addr:state": "AZ", "amenity": "hospital", "healthcare": "hospital", "name": "Indian Health Service Tucson Area", "phone": "+1 520 383 7200", "website": "https://www.ihs.gov/tucson"}}, {"name": "Sierra Tucson", "latitude": 32.5167752, "longitude": -110.8873002, "source": "osm", "_tags": {"addr:city": "Tucson", "addr:housenumber": "39580", "addr:postcode": "85739", "addr:state": "AZ", "addr:street": "South Lago Del Oro Parkway", "amenity": "hospital", "beds": "139", "healthcare": "hospital", "healthcare:speciality": "psychiatry", "name": "Sierra Tucson", "phone": "+1 520 624 4000", "website": "https://www.sierratucson.com"}}, {"name": "Banner Health", "latitude": 32.2277682, "longitude": -110.8586598, "source": "osm", "_tags": {"addr:city": "Tucson", "addr:housenumber": "535", "addr:state": "AZ", "addr:street": "North Wilmot Road", "amenity": "hospital", "name": "Banner Health"}}, {"name": "Saint Mary's Hospital", "latitude": 32.2274484, "longitude": -111.0001309, "source": "osm", "_tags": {"addr:city": "Tucson", "addr:housenumber": "1601", "addr:postcode": "85745", "addr:state": "AZ", "addr:street": "West Saint Mary's Road", "amenity": "hospital", "emergency": "yes", "gnis:feature_id": "10722", "healthcare": "hospital", "name": "Saint Mary's Hospital", "opening_hours": "24/7", "phone": "+1 520 872 3000", "website": "https://www.carondelet.org/our-locations/st-marys"}}, {"name": "Tucson Medical Center", "latitude": 32.252777, "longitude": -110.8781691, "source": "osm", "_tags": {"addr:city": "Tucson", "addr:housenumber": "5301", "addr:postcode": "85712", "addr:state": "AZ", "addr:street": "East Grant Road", "amenity": "hospital", "emergency": "yes", "gnis:feature_id": "35495", "healthcare": "hospital", "name": "Tucson Medical Center", "opening_hours": "24/7", "phone": "+1 520 327 5461", "website": "https://www.tmcaz.com/", "wikidata": "Q7851163"}}, {"name": "Raymond W Bliss Army Medical Center", "latitude": 31.5490071, "longitude": -110.3524031, "source": "osm", "_tags": {"amenity": "hospital", "ele": "1504", "emergency": "no", "gnis:feature_id": "22188", "name": "Raymond W Bliss Army Medical Center"}}, {"name": "Southern Arizona VA Health Care System", "latitude": 32.1815131, "longitude": -110.964804, "source": "osm", "_tags": {"access": "private", "addr:city": "Tucson", "addr:housenumber": "3601", "addr:postcode": "85723", "addr:state": "AZ", "addr:street": "South 6th Avenue", "amenity": "hospital", "emergency": "yes", "gnis:feature_id": "15647", "healthcare": "hospital", "name": "Southern Arizona VA Health Care System", "old_name": "Tucson Veterans Hospital", "opening_hours": "24/7", "phone": "+1 520 792 1450", "website": "https://www.tucson.va.gov/"}}, {"name": "Canyon Vista Medical Center", "latitude": 31.5529054, "longitude": -110.2299727, "source": "osm", "_tags": {"addr:city": "Sierra Vista", "addr:country": "US", "addr:housenumber": "5700", "addr:postcode": "85635", "addr:state": "AZ", "addr:street": "East Highway 90", "amenity": "hospital", "emergency": "yes", "healthcare": "hospital", "name": "Canyon Vista Medical Center", "old_name": "Sierra Vista Community Hospital", "opening_hours": "24/7", "phone": "+1 520 263 2000", "website": "https://www.canyonvistamedicalcenter.com/"}}, {"name": "Banner University Medical Center Tucson", "latitude": 32.2411772, "longitude": -110.9456344, "source": "osm", "_tags": {"addr:city": "Tucson", "addr:housenumber": "1501", "addr:postcode": "85724", "addr:state": "AZ", "addr:street": "North Campbell Avenue", "amenity": "hospital", "building": "hospital", "emergency": "yes", "gnis:feature_id": "15657", "healthcare": "hospital", "name": "Banner University Medical Center Tucson", "opening_hours": "24/7", "phone": "+1 520 694 0111", "website": "https://www.bannerhealth.com/locations/tucson/banner-university-medical-center-tucson", "wikidata": "Q7894824"}}, {"name": "Sells Indian Hospital", "latitude": 31.9184496, "longitude": -111.8904408, "source": "osm", "_tags": {"addr:city": "Sells", "addr:postcode": "85634", "amenity": "hospital", "beds": "14", "emergency": "yes", "gnis:feature_id": "15403", "healthcare": "hospital", "name": "Sells Indian Hospital", "phone": "+1 520 383 7200", "website": "https://www.ihs.gov/Tucson/healthcarefacilities/sellshospital/"}}, {"name": "Benson Hospital", "latitude": 31.9648949, "longitude": -110.3081263, "source": "osm", "_tags": {"addr:city": "Benson", "addr:housenumber": "450", "addr:postcode": "85602", "addr:state": "AZ", "addr:street": "South Ocotillo Avenue", "amenity": "hospital", "beds": "22", "emergency": "yes", "gnis:feature_id": "21936", "healthcare": "hospital", "name": "Benson Hospital", "opening_hours": "24/7", "phone": "+1 520 586 2261", "website": "http://www.bensonhospital.org/"}}, {"name": "Northwest Medical Center", "latitude": 32.3201709, "longitude": -111.009928, "source": "osm", "_tags": {"addr:city": "Tucson", "addr:housenumber": "6020", "addr:postcode": "85741", "addr:state": "AZ", "addr:street": "North La Cholla Boulevard", "amenity": "hospital", "beds": "300", "emergency": "yes", "healthcare": "hospital", "name": "Northwest Medical Center", "opening_hours": "24/7", "phone": "+1 520 742 9000", "website": "http://www.northwestmedicalcenter.com/"}}, {"name": "Banner - University Medical Center South", "latitude": 32.1756192, "longitude": -110.9303245, "source": "osm", "_tags": {"addr:city": "Tucson", "addr:full": "2800 East Ajo Way", "addr:housenumber": "2800", "addr:postcode": "85713", "addr:state": "AZ", "addr:street": "East Ajo Way", "amenity": "hospital", "emergency": "yes", "healthcare": "hospital", "name": "Banner - University Medical Center South", "old_name": "Kino Community Hospital", "opening_hours": "24/7", "phone": "+1 520 874 2000", "source": "local_knowledge", "website": "https://www.bannerhealth.com/locations/tucson/banner-university-medical-center-south"}}, {"name": "Saint Joseph's Hospital", "latitude": 32.2269812, "longitude": -110.8554447, "source": "osm", "_tags": {"addr:city": "Tucson", "addr:housenumber": "350", "addr:postcode": "85711", "addr:state": "AZ", "addr:street": "North Wilmot Road", "amenity": "hospital", "beds": "471", "emergency": "yes", "gnis:feature_id": "15558", "healthcare": "hospital", "name": "Saint Joseph's Hospital", "opening_hours": "24/7", "phone": "+1 520 873 3000", "website": "https://www.carondelet.org/our-locations/st-josephs", "wikidata": "Q7589199"}}, {"name": "Clinica del IMSS", "latitude": 31.2567622, "longitude": -110.9606573, "source": "osm", "_tags": {"amenity": "hospital", "healthcare": "hospital", "name": "Clinica del IMSS"}}, {"name": "Cornerstone Hospital of Southeastern Arizona", "latitude": 32.2309541, "longitude": -110.8380913, "source": "osm", "_tags": {"addr:city": "Tucson", "addr:housenumber": "7220", "addr:postcode": "85710", "addr:state": "AZ", "addr:street": "East Rosewood Street", "amenity": "hospital", "beds": "34", "emergency": "no", "healthcare": "hospital", "name": "Cornerstone Hospital of Southeastern Arizona", "operator": "Cornerstone Healthcare Group", "phone": "+1 520 546 4595", "website": "https://www.chghospitals.com/tucson"}}, {"name": "Oro Valley Hospital", "latitude": 32.4291701, "longitude": -110.9492138, "source": "osm", "_tags": {"addr:city": "Tucson", "addr:housenumber": "1551", "addr:postcode": "85755", "addr:state": "AZ", "addr:street": "East Tangerine Road", "amenity": "hospital", "beds": "146", "emergency": "yes", "healthcare": "hospital", "name": "Oro Valley Hospital", "opening_hours": "24/7", "operator": "Northwest Healthcare", "phone": "+1 520 901 3500", "short_name": "OVH", "website": "https://www.healthiertucson.com/oro-valley-hospital"}}, {"name": "Green Valley Hospital", "latitude": 31.8067085, "longitude": -111.0096949, "source": "osm", "_tags": {"addr:city": "Green Valley", "addr:housenumber": "4455", "addr:postcode": "85614", "addr:state": "AZ", "addr:street": "South I-19 Frontage Road", "amenity": "hospital", "beds": "49", "emergency": "yes", "healthcare": "hospital", "name": "Green Valley Hospital", "opening_hours": "24/7", "phone": "+1 520 393 4700", "website": "http://www.greenvalleyhospital.com/"}}, {"name": "Holy Cross Hospital", "latitude": 31.3400852, "longitude": -110.9596771, "source": "osm", "_tags": {"addr:city": "Nogales", "addr:housenumber": "1171", "addr:postcode": "85621", "addr:state": "AZ", "addr:street": "West Target Range Road", "amenity": "hospital", "beds": "25", "emergency": "yes", "healthcare": "hospital", "name": "Holy Cross Hospital", "opening_hours": "24/7", "operator": "TH Medical", "phone": "+1 520 285 3000", "website": "https://www.carondelet.org/our-locations/holy-cross"}}, {"name": "IMSS Hospital General de Zona no. 5", "latitude": 31.24085, "longitude": -110.9703179, "source": "osm", "_tags": {"amenity": "hospital", "building": "yes", "healthcare": "hospital", "name": "IMSS Hospital General de Zona no. 5", "operator": "Instituto Mexicano del Seguro Social", "operator:short": "IMSS", "operator:wikidata": "Q904999"}}, {"name": "", "latitude": 31.2920824, "longitude": -110.9437048, "source": "osm", "_tags": {"amenity": "hospital", "healthcare": "hospital"}}, {"name": "", "latitude": 31.3093769, "longitude": -110.9444445, "source": "osm", "_tags": {"amenity": "hospital", "building": "hospital", "healthcare": "hospital"}}, {"name": "", "latitude": 31.2408687, "longitude": -110.9702252, "source": "osm", "_tags": {"amenity": "hospital", "healthcare": "hospital"}}, {"name": "Carondelet Marana Hospital", "latitude": 32.3609005, "longitude": -111.0852856, "source": "osm", "_tags": {"addr:city": "Tucson", "addr:housenumber": "5620", "addr:postcode": "85742", "addr:state": "AZ", "addr:street": "West Cortaro Farms Road", "amenity": "hospital", "building": "hospital", "emergency": "yes", "healthcare": "hospital", "name": "Carondelet Marana Hospital", "opening_hours": "24/7", "operator": "Carondelet Health Network", "phone": "+1-520-872-4000", "website": "https://www.carondelet.org/locations/detail/marana-hospital"}}, {"name": "Cruz Roja", "latitude": 31.3183952, "longitude": -110.9464205, "source": "osm", "_tags": {"addr:city": "Nogales", "addr:street": "Avenida Plutarco El√≠as Calles", "amenity": "hospital", "building": "yes", "healthcare": "hospital", "name": "Cruz Roja"}}, {"name": "", "latitude": 32.1955867, "longitude": -110.7752497, "source": "osm", "_tags": {"amenity": "hospital", "healthcare": "hospital"}}, {"name": "Arizona Cancer Center", "latitude": 32.2761972, "longitude": -110.94209, "source": "osm", "_tags": {"amenity": "hospital", "healthcare": "hospital", "name": "Arizona Cancer Center"}}, {"name": "Palo Verde Behavioral Health", "latitude": 32.2562146, "longitude": -110.8765227, "source": "osm", "_tags": {"amenity": "hospital", "healthcare": "hospital", "name": "Palo Verde Behavioral Health"}}, {"name": "Hospital del Socorro", "latitude": 31.3016461, "longitude": -110.9469103, "source": "osm", "_tags": {"amenity": "hospital", "healthcare": "hospital", "name": "Hospital del Socorro"}}, {"name": "Tucson Medical Center Rincon", "latitude": 32.1470543, "longitude": -110.7699738, "source": "osm", "_tags": {"addr:city": "Tucson", "addr:housenumber": "5755", "addr:postcode": "85747", "addr:state": "AZ", "addr:street": "S Houghton", "amenity": "hospital", "emergency": "yes", "healthcare": "hospital", "healthcare:speciality": "emergency;orthopaedics;gynaecology;radiology;cardiology;surgery", "name": "Tucson Medical Center Rincon", "operator": "Tucson Medical Center", "operator:type": "business", "website": "https://www.tmcaz.com/rincon/"}}, {"name": "Northwest Medical Emergency Center", "latitude": 32.3775568, "longitude": -111.100766, "source": "osm", "_tags": {"amenity": "hospital", "emergency": "yes", "healthcare": "hospital", "healthcare:speciality": "emergency", "name": "Northwest Medical Emergency Center", "operator": "Northwest Medical Center"}}, {"name": "Northwest Sahuarita Hospital", "latitude": 31.9558159, "longitude": -110.9853152, "source": "osm", "_tags": {"amenity": "hospital", "healthcare": "hospital", "name": "Northwest Sahuarita Hospital"}}, {"name": "Banner Casa Grande Medical Center", "latitude": 32.8812523, "longitude": -111.7102979, "source": "osm", "_tags": {"addr:city": "Casa Grande", "addr:housenumber": "1800", "addr:postcode": "85122", "addr:state": "AZ", "addr:street": "East Florence Boulevard", "amenity": "hospital", "emergency": "yes", "healthcare": "hospital", "healthcare:speciality": "emergency;trauma", "name": "Banner Casa Grande Medical Center", "old_name": "Casa Grande Regional Medical Center", "opening_hours": "Mo-Fr 06:00-18:00", "operator": "Banner Health", "operator:type": "private", "operator:wikidata": "Q4856918", "phone": "+1 520 381 6300", "start_date": "1984", "website": "https://www.bannerhealth.com/locations/casa-grande/banner-casa-grande-medical-center", "wheelchair": "yes", "wikidata": "Q124629843"}}, {"name": "", "latitude": 31.3182049, "longitude": -110.9474281, "source": "osm", "_tags": {"amenity": "hospital", "healthcare": "hospital"}}, {"name": "Cottonwood Tucson", "latitude": 32.2822051, "longitude": -111.0521404, "source": "osm", "_tags": {"addr:city": "Tucson", "addr:housenumber": "4110", "addr:postcode": "85745", "addr:state": "AZ", "addr:street": "West Sweetwater Drive", "amenity": "hospital", "healthcare": "rehabilitation", "healthcare:speciality": "addiction", "name": "Cottonwood Tucson"}}, {"name": "", "latitude": 32.3576003, "longitude": -111.1156328, "source": "osm", "_tags": {"amenity": "hospital", "type": "multipolygon"}}]