[{"name": "", "latitude": 31.3085048, "longitude": -113.541806, "source": "osm", "_tags": {"amenity": "hospital", "healthcare": "hospital"}}, {"name": "Hospital General de Subzona 9", "latitude": 31.3161119, "longitude": -113.536683, "source": "osm", "_tags": {"amenity": "hospital", "healthcare": "hospital", "name": "Hospital General de Subzona 9"}}, {"name": "Hospital General Puerto Peñasco", "latitude": 31.3416443, "longitude": -113.5163851, "source": "osm", "_tags": {"addr:street": "Río Suchiate", "amenity": "hospital", "healthcare": "hospital", "name": "Hospital General Puerto Peñasco", "phone": "6381020417"}}, {"name": "", "latitude": 32.3755562, "longitude": -112.8636709, "source": "osm", "_tags": {"amenity": "hospital", "healthcare": "hospital"}}, {"name": "", "latitude": 31.8634284, "longitude": -112.853991, "source": "osm", "_tags": {"amenity": "hospital", "healthcare": "hospital"}}, {"name": "", "latitude": 31.8620056, "longitude": -112.8473507, "source": "osm", "_tags": {"amenity": "hospital", "healthcare": "hospital"}}, {"name": "Rocky Medical Center", "latitude": 31.3564466, "longitude": -113.5135179, "source": "osm", "_tags": {"amenity": "hospital", "healthcare": "hospital", "name": "Rocky Medical Center"}}, {"name": "", "latitude": 31.3416915, "longitude": -113.5153849, "source": "osm", "_tags": {"amenity": "hospital", "healthcare": "hospital"}}, {"name": "IMSS Hospital", "latitude": 31.3169849, "longitude": -113.536716, "source": "osm", "_tags": {"addr:city": "Puerto Peñasco", "amenity": "hospital", "healthcare": "hospital", "name": "IMSS Hospital", "operator": "Instituto Mexicano del Seguro Social", "operator:short": "IMSS", "operator:type": "government", "operator:wikidata": "Q904999"}}, {"name": "New Cornelia Branch Hospital", "latitude": 32.3680677, "longitude": -112.864386, "source": "osm", "_tags": {"amenity": "hospital", "healthcare": "hospital", "name": "New Cornelia Branch Hospital"}}]