[{"name": "Yuma Regional Medical Center", "latitude": 32.682658, "longitude": -114.6351026, "source": "osm", "_tags": {"addr:city": "Yuma", "addr:housenumber": "2400", "addr:postcode": "85364", "addr:state": "AZ", "addr:street": "South Avenue A", "amenity": "hospital", "beds": "406", "ele": "59", "emergency": "yes", "gnis:feature_id": "23639", "healthcare": "hospital", "name": "Yuma Regional Medical Center", "operator": "Yuma Regional Medical Center", "website": "https://www.yumaregional.org/", "wikidata": "Q8061043"}}, {"name": "Baja Medical Center", "latitude": 31.1177684, "longitude": -114.9019159, "source": "osm", "_tags": {"amenity": "hospital", "designation": "Medical Centre, not Hospital", "emergency": "no", "name": "Baja Medical Center"}}, {"name": "IMSS", "latitude": 32.6614824, "longitude": -115.4673943, "source": "osm", "_tags": {"amenity": "hospital", "emergency": "yes", "name": "IMSS"}}, {"name": "IMSS", "latitude": 32.6406088, "longitude": -115.494984, "source": "osm", "_tags": {"amenity": "hospital", "emergency": "yes", "healthcare": "hospital", "name": "IMSS", "operator": "Instituto Mexicano del Seguro Social", "operator:short": "IMSS", "operator:type": "government", "operator:wikidata": "Q904999"}}, {"name": "", "latitude": 31.0160514, "longitude": -114.842327, "source": "osm", "_tags": {"amenity": "hospital", "emergency": "no", "healthcare": "hospital"}}, {"name": "Centro De Salud", "latitude": 32.4698662, "longitude": -114.7778076, "source": "osm", "_tags": {"addr:city": "San Luis Río Colorado", "amenity": "hospital", "emergency": "yes", "healthcare": "hospital", "name": "Centro De Salud"}}, {"name": "Hospital MIGOO", "latitude": 32.4745024, "longitude": -114.7772287, "source": "osm", "_tags": {"amenity": "hospital", "name": "Hospital MIGOO"}}, {"name": "Yuma Rehabilitation Hospital", "latitude": 32.6833488, "longitude": -114.630021, "source": "osm", "_tags": {"amenity": "hospital", "emergency": "no", "healthcare": "hospital", "name": "Yuma Rehabilitation Hospital"}}, {"name": "Imss clinica 31", "latitude": 32.6030897, "longitude": -115.4154911, "source": "osm", "_tags": {"amenity": "hospital", "internet_access": "wlan", "name": "Imss clinica 31", "name:en": "Español", "name:es": "Imss clinica 31"}}, {"name": "urgencias Hospital Almater", "latitude": 32.6652404, "longitude": -115.4763328, "source": "osm", "_tags": {"amenity": "hospital", "name": "urgencias Hospital Almater"}}, {"name": "Almater", "latitude": 32.6329266, "longitude": -115.3861424, "source": "osm", "_tags": {"amenity": "hospital", "emergency": "yes", "healthcare": "hospital", "name": "Almater"}}, {"name": "instituto de Psiquiatria del stado de Baja California", "latitude": 32.5997372, "longitude": -115.3853124, "source": "osm", "_tags": {"addr:street": "Calle Onceava", "amenity": "hospital", "healthcare": "hospital", "name": "instituto de Psiquiatria del stado de Baja California"}}, {"name": "Terreno", "latitude": 32.6537003, "longitude": -115.4183159, "source": "osm", "_tags": {"amenity": "hospital", "healthcare": "hospital", "name": "Terreno"}}, {"name": "Centro de Salud Progreso", "latitude": 32.5826644, "longitude": -115.5835603, "source": "osm", "_tags": {"amenity": "hospital", "healthcare": "hospital", "name": "Centro de Salud Progreso"}}, {"name": "Laboratorio Machado", "latitude": 32.7154009, "longitude": -114.7278659, "source": "osm", "_tags": {"addr:city": "Los Algodones", "addr:housenumber": "284", "addr:postcode": "21970", "addr:street": "Calzada Saratoga", "amenity": "hospital", "healthcare": "hospital", "healthcare:speciality": "laboratory", "name": "Laboratorio Machado"}}, {"name": "PrimeCare urgent care", "latitude": 32.6987871, "longitude": -114.6267232, "source": "osm", "_tags": {"addr:housenumber": "1581", "addr:postcode": "85364", "addr:street": "South 6th Avenue", "amenity": "hospital", "name": "PrimeCare urgent care"}}, {"name": "Pioneers Memorial Hospital", "latitude": 32.9586521, "longitude": -115.5543321, "source": "osm", "_tags": {"addr:city": "Brawley", "addr:housenumber": "207", "addr:postcode": "92227", "addr:street": "West Legion Road", "amenity": "hospital", "emergency": "yes", "healthcare": "hospital", "name": "Pioneers Memorial Hospital", "opening_hours": "24/7", "operator": "Pioneers Memorial Healthcare District", "phone": "+1 760 351 3333", "website": "https://www.pmhd.org/"}}, {"name": "IMSS", "latitude": 32.6614405, "longitude": -115.4671983, "source": "osm", "_tags": {"amenity": "hospital", "building": "public", "name": "IMSS"}}, {"name": "Hospital General de Mexicali", "latitude": 32.6446432, "longitude": -115.4755772, "source": "osm", "_tags": {"addr:city": "Mexicali", "amenity": "hospital", "name": "Hospital General de Mexicali", "website": "www.issste.gob.mx/"}}, {"name": "Instituto Mexicano del Seguro Social", "latitude": 32.4678099, "longitude": -114.7976292, "source": "osm", "_tags": {"addr:city": "San Luis Río Colorado", "addr:street": "Calzada Constitución", "amenity": "hospital", "name": "Instituto Mexicano del Seguro Social"}}, {"name": "Centro Médico del Noroeste", "latitude": 32.4745672, "longitude": -114.7693302, "source": "osm", "_tags": {"addr:city": "San Luis Río Colorado", "addr:street": "Avenida Francisco Eusebio Kino y 12", "amenity": "hospital", "building": "yes", "healthcare": "hospital", "name": "Centro Médico del Noroeste"}}, {"name": "Instituto Mexicano del Seguro Social No. 38 (IMSS)", "latitude": 32.4221745, "longitude": -114.7432913, "source": "osm", "_tags": {"addr:city": "San Luis Río Colorado", "addr:street": "Avenida Tuxpan y 44", "amenity": "hospital", "name": "Instituto Mexicano del Seguro Social No. 38 (IMSS)"}}, {"name": "Clinica Hospital \"El Buen Pastor\"", "latitude": 31.0322496, "longitude": -114.8467584, "source": "osm", "_tags": {"addr:postcode": "21850", "amenity": "hospital", "building": "yes", "healthcare": "hospital", "name": "Clinica Hospital \"El Buen Pastor\""}}, {"name": "Hospital de la Familia", "latitude": 32.6675602, "longitude": -115.3904483, "source": "osm", "_tags": {"amenity": "hospital", "building": "no", "healthcare": "hospital", "name": "Hospital de la Familia"}}, {"name": "IMSS", "latitude": 32.568613, "longitude": -115.0000134, "source": "osm", "_tags": {"addr:city": "Tecolotes", "addr:street": "BC 3", "amenity": "hospital", "name": "IMSS"}}, {"name": "Hospital Mujer y NIño", "latitude": 32.6236573, "longitude": -115.375468, "source": "osm", "_tags": {"addr:city": "Mexicali", "addr:postcode": "21376", "amenity": "hospital", "name": "Hospital Mujer y NIño"}}, {"name": "Asilo Ejido Queretaro", "latitude": 32.5442354, "longitude": -115.1433677, "source": "osm", "_tags": {"addr:city": "Ejido Queretaro", "amenity": "hospital", "name": "Asilo Ejido Queretaro"}}, {"name": "IMSS", "latitude": 32.5111877, "longitude": -114.9222777, "source": "osm", "_tags": {"addr:city": "Ejido Hermosillo", "addr:housenumber": "120", "addr:postcode": "21840", "addr:street": "Avenida Benito Juárez", "amenity": "hospital", "name": "IMSS"}}, {"name": "UNEME", "latitude": 32.6245777, "longitude": -115.3751464, "source": "osm", "_tags": {"addr:city": "Mexicali", "addr:postcode": "21376", "addr:street": "Claridad", "amenity": "hospital", "description": "Unidad Especialidades Medicas en Oncologia", "emergency": "no", "name": "UNEME", "operator": "ISSESALUD"}}, {"name": "Policlínica", "latitude": 32.6430883, "longitude": -115.4741052, "source": "osm", "_tags": {"amenity": "hospital", "name": "Policlínica"}}, {"name": "IMSS Clínica 28", "latitude": 32.6358185, "longitude": -115.4565334, "source": "osm", "_tags": {"amenity": "hospital", "name": "IMSS Clínica 28"}}, {"name": "Clinica IMSS #26", "latitude": 32.623601, "longitude": -115.4184279, "source": "osm", "_tags": {"addr:city": "Mexicali", "addr:postcode": "21297", "addr:street": "Avenida Macristy de Hermosillo", "amenity": "hospital", "emergency": "no", "healthcare": "hospital", "healthcare:speciality": "general", "name": "Clinica IMSS #26"}}, {"name": "El Centro Regional Medical Center", "latitude": 32.7804498, "longitude": -115.5685155, "source": "osm", "_tags": {"addr:city": "El Centro", "addr:housenumber": "1415", "addr:postcode": "92243", "addr:street": "Ross Avenue", "amenity": "hospital", "beds": "161", "emergency": "yes", "healthcare": "hospital", "name": "El Centro Regional Medical Center", "opening_hours": "24/7", "phone": "+1 760 339 7100", "website": "https://www.ecrmc.org/"}}, {"name": "IMSS #31 materno infantil", "latitude": 32.6618129, "longitude": -115.4658622, "source": "osm", "_tags": {"amenity": "hospital", "healthcare": "hospital", "healthcare:speciality": "paediatrics;gynaecology", "name": "IMSS #31 materno infantil"}}, {"name": "El Centro Outpatient Center", "latitude": 32.7925644, "longitude": -115.5520542, "source": "osm", "_tags": {"addr:city": "El Centro", "addr:postcode": "92243", "addr:state": "CA", "amenity": "hospital", "healthcare": "hospital", "name": "El Centro Outpatient Center"}}, {"name": "Prime Care Valley", "latitude": 32.6844076, "longitude": -114.6468928, "source": "osm", "_tags": {"addr:city": "Yuma", "addr:housenumber": "2377", "addr:postcode": "85364", "addr:state": "AZ", "addr:street": "West 22nd Drive", "amenity": "hospital", "emergency": "no", "healthcare": "hospital", "healthcare:speciality": "general", "name": "Prime Care Valley", "operator": "Urgent Care"}}, {"name": "ISSSTECALI", "latitude": 32.6326954, "longitude": -115.4716683, "source": "osm", "_tags": {"amenity": "hospital", "healthcare": "hospital", "healthcare:speciality": "general;urgencias", "name": "ISSSTECALI"}}, {"name": "", "latitude": 32.6345291, "longitude": -115.5609918, "source": "osm", "_tags": {"amenity": "hospital", "healthcare": "hospital"}}, {"name": "Cruz Roja", "latitude": 32.4700746, "longitude": -114.7864663, "source": "osm", "_tags": {"addr:city": "San Luis Rio Colorado", "addr:street": "calzada Constitución", "amenity": "hospital", "emergency": "yes", "name": "Cruz Roja"}}, {"name": "Hospital Santa Margarita", "latitude": 32.4719001, "longitude": -114.7789699, "source": "osm", "_tags": {"addr:city": "San Luis Río Colorado", "addr:street": "Callejón 5 de Mayo y 7", "amenity": "hospital", "building": "yes", "healthcare": "hospital", "name": "Hospital Santa Margarita"}}, {"name": "ISSSTE H.G. 5 de Diciembre", "latitude": 32.6434882, "longitude": -115.4759192, "source": "osm", "_tags": {"amenity": "hospital", "name": "ISSSTE H.G. 5 de Diciembre"}}, {"name": "Onvida Health Foothills Medical Plaza", "latitude": 32.6692651, "longitude": -114.4390229, "source": "osm", "_tags": {"healthcare": "hospital", "name": "Onvida Health Foothills Medical Plaza"}}]