[{"name": "Neighbors Emergency Center - Odessa", "latitude": 31.8772941, "longitude": -102.3484504, "source": "osm", "_tags": {"amenity": "hospital", "name": "Neighbors Emergency Center - Odessa"}}, {"name": "First Physicians Women's Health", "latitude": 31.893432, "longitude": -102.3446567, "source": "osm", "_tags": {"amenity": "hospital", "name": "First Physicians Women's Health"}}, {"name": "Medical Center Hospital", "latitude": 31.8450427, "longitude": -102.3736715, "source": "osm", "_tags": {"addr:city": "Odessa", "addr:housenumber": "500", "addr:postcode": "79761", "addr:street": "West 4th Street", "amenity": "hospital", "beds": "402", "emergency": "yes", "healthcare": "hospital", "name": "Medical Center Hospital", "opening_hours": "24/7", "operator": "Medical Center Health System", "phone": "+1 432 640 6000", "website": "https://mchodessa.com/"}}, {"name": "Odessa Regional Medical Center", "latitude": 31.85186, "longitude": -102.3644968, "source": "osm", "_tags": {"addr:city": "Odessa", "addr:housenumber": "520", "addr:postcode": "79761", "addr:street": "East 6th Street", "amenity": "hospital", "emergency": "yes", "healthcare": "hospital", "name": "Odessa Regional Medical Center", "opening_hours": "24/7", "operator": "Steward Health Care", "phone": "+1 432 582 8000", "website": "https://odessaregionalmedicalcenter.org/"}}, {"name": "Odessa Regional Medical Center South Campus", "latitude": 31.8517007, "longitude": -102.3596697, "source": "osm", "_tags": {"amenity": "hospital", "emergency": "no", "healthcare": "hospital", "name": "Odessa Regional Medical Center South Campus"}}, {"name": "Permian Regional Medical Center", "latitude": 32.3375628, "longitude": -102.5463223, "source": "osm", "_tags": {"addr:city": "Andrews", "addr:housenumber": "720", "addr:postcode": "79714", "addr:state": "TX", "addr:street": "Hospital Drive", "amenity": "hospital", "beds": "30", "emergency": "yes", "healthcare": "hospital", "name": "Permian Regional Medical Center", "old_name": "Permian General Hospital", "opening_hours": "24/7", "phone": "+1 432 523 2200", "website": "http://permianregional.com/"}}, {"name": "Memorial Hospital", "latitude": 32.7218712, "longitude": -102.6548099, "source": "osm", "_tags": {"addr:city": "Seminole", "addr:housenumber": "209", "addr:postcode": "79360", "addr:street": "Northwest 8th Street", "amenity": "hospital", "emergency": "yes", "healthcare": "hospital", "name": "Memorial Hospital", "opening_hours": "24/7", "operator": "Seminole Hospital District", "phone": "+1 432 758 5811", "website": "https://seminolehospitaldistrict.com/"}}, {"name": "Crane Memorial Hospital", "latitude": 31.3897655, "longitude": -102.3493994, "source": "osm", "_tags": {"addr:city": "Crane", "addr:housenumber": "1310", "addr:postcode": "79731", "addr:street": "South Alford Street", "amenity": "hospital", "emergency": "yes", "healthcare": "hospital", "name": "Crane Memorial Hospital", "opening_hours": "24/7", "phone": "+1 432 558 3555", "website": "https://www.cranememorial.org/"}}, {"name": "Ward Memorial Hospital", "latitude": 31.593768, "longitude": -102.8834868, "source": "osm", "_tags": {"addr:city": "Monahans", "addr:housenumber": "406", "addr:postcode": "79756", "addr:street": "South Gary Avenue", "amenity": "hospital", "emergency": "yes", "healthcare": "hospital", "name": "Ward Memorial Hospital", "opening_hours": "24/7", "phone": "+1 432 943 2511", "website": "https://www.wardmemorial.com/"}}, {"name": "Lea Regional Medical Center", "latitude": 32.7620287, "longitude": -103.1855377, "source": "osm", "_tags": {"addr:city": "Hobbs", "addr:housenumber": "5419", "addr:postcode": "88240", "addr:state": "NM", "addr:street": "North Lovington Highway", "amenity": "hospital", "beds": "201", "emergency": "yes", "gnis:feature_id": "901316", "healthcare": "hospital", "name": "Lea Regional Medical Center", "phone": "+1 575 492 5000", "website": "https://www.learegionalmedical.com/"}}, {"name": "Nor Lea General Hospital", "latitude": 32.9651168, "longitude": -103.3471676, "source": "osm", "_tags": {"addr:city": "Lovington", "addr:housenumber": "1600", "addr:postcode": "88260", "addr:state": "NM", "addr:street": "North Main Street", "amenity": "hospital", "beds": "25", "capacity": "25", "emergency": "yes", "gnis:feature_id": "901336", "healthcare": "hospital", "name": "Nor Lea General Hospital", "opening_hours": "24/7", "phone": "+1 575 396 6611", "website": "https://www.nor-lea.org/"}}, {"name": "Reeves County Hospital", "latitude": 31.4011603, "longitude": -103.5138998, "source": "osm", "_tags": {"addr:city": "Pecos", "addr:housenumber": "2323", "addr:postcode": "79772", "addr:street": "Texas Street", "amenity": "hospital", "beds": "25", "emergency": "yes", "gnis:feature_id": "2015749", "healthcare": "hospital", "name": "Reeves County Hospital", "opening_hours": "24/7", "operator": "Reeves County Hospital District", "phone": "+1-432-447-3551", "website": "http://www.reevescountyhospital.com/"}}, {"name": "Yoakum County Hospital", "latitude": 32.9687841, "longitude": -102.8352223, "source": "osm", "_tags": {"addr:city": "Denver City", "addr:housenumber": "412", "addr:postcode": "79323", "addr:state": "TX", "addr:street": "Mustang Drive", "amenity": "hospital", "beds": "24", "emergency": "yes", "gnis:feature_id": "2015659", "healthcare": "hospital", "name": "Yoakum County Hospital", "opening_hours": "24/7", "phone": "+1 806 592 2121", "website": "https://ych.us/"}}, {"name": "Oceans Behavioral Hospital Permian Basin", "latitude": 31.9230112, "longitude": -102.2223934, "source": "osm", "_tags": {"addr:city": "Midland", "addr:housenumber": "3300", "addr:postcode": "79706", "addr:street": "South FM 1788", "amenity": "hospital", "emergency": "no", "gnis:feature_id": "2015718", "healthcare": "hospital", "healthcare:speciality": "psychiatry", "name": "Oceans Behavioral Hospital Permian Basin", "operator": "Oceans Healthcare", "phone": "+1 432 561 5915", "website": "https://oceanshealthcare.com/permian-basin"}}, {"name": "McCamey County Hospital District", "latitude": 31.1141421, "longitude": -102.2108236, "source": "osm", "_tags": {"addr:city": "McCamey", "addr:housenumber": "2500", "addr:postcode": "79752", "addr:street": "South Highway 305", "amenity": "hospital", "beds": "14", "emergency": "yes", "healthcare": "hospital", "name": "McCamey County Hospital District", "opening_hours": "24/7", "operator": "McCamey County Hospital District", "phone": "+1 432 652 8626", "website": "http://www.mccameyhospitaldistrict.org/"}}, {"name": "Winkler County Memorial Hospital", "latitude": 31.8495288, "longitude": -103.0904366, "source": "osm", "_tags": {"addr:city": "Kermit", "addr:housenumber": "821", "addr:postcode": "79745", "addr:state": "TX", "addr:street": "Jeffee Drive", "amenity": "hospital", "beds": "19", "emergency": "yes", "healthcare": "hospital", "name": "Winkler County Memorial Hospital", "opening_hours": "24/7", "phone": "+1 432 586 5864", "short_name": "WCMH", "website": "https://www.wcmh.net/"}}, {"name": "", "latitude": 32.7555732, "longitude": -103.1731553, "source": "osm", "_tags": {"amenity": "hospital", "healthcare": "hospital"}}]