[{"name": "East Entrance", "latitude": 33.6605837, "longitude": -112.3725456, "source": "osm", "_tags": {"door": "automatic", "entrance": "yes", "healthcare": "hospital", "level": "0", "name": "East Entrance"}}, {"name": "Emergency Room", "latitude": 34.5910829, "longitude": -112.3313906, "source": "osm", "_tags": {"amenity": "hospital", "description": "Yavapai Medical Emergency Room\n", "emergency": "yes", "healthcare": "hospital", "name": "Emergency Room"}}, {"name": "56th Medical Group", "latitude": 33.5412922, "longitude": -112.3572473, "source": "osm", "_tags": {"addr:city": "Luke AFB", "addr:housenumber": "7219", "addr:postcode": "85309-1526", "addr:state": "AZ", "addr:street": "North Litchfield Road", "amenity": "hospital", "healthcare": "hospital", "name": "56th Medical Group", "operator": "US Air Force", "operator:type": "military", "phone": "+1 623 856 2273", "website": "https://luke.tricare.mil"}}, {"name": "Medical Behavioral Hospital Of Northern Arizona", "latitude": 34.5564113, "longitude": -112.4714314, "source": "osm", "_tags": {"addr:city": "Prescott", "addr:housenumber": "181", "addr:postcode": "86301", "addr:state": "AZ", "addr:street": "Whipple Street", "amenity": "hospital", "beds": "24", "healthcare": "hospital", "healthcare:speciality": "psychiatry", "name": "Medical Behavioral Hospital Of Northern Arizona", "phone": "+1 928 227 3424"}}, {"name": "Wolf Creek Recovery", "latitude": 34.5422032, "longitude": -112.4613137, "source": "osm", "_tags": {"addr:city": "Prescott", "addr:housenumber": "600", "addr:postcode": "86301", "addr:state": "AZ", "addr:street": "E Gurley St", "addr:unit": "# C", "amenity": "hospital", "contact:facebook": "https://www.facebook.com/wolfcreek2021", "description": "Drug and Alcohol Addiction Treatment Center in Arizona", "healthcare": "hospital", "healthcare:speciality": "addiction_treatment", "image": "https://lh5.googleusercontent.com/p/AF1QipMDEsuKWx-wRHkJytYsoqjTbJbrFNedlNWicz_z=s543-k-no", "name": "Wolf Creek Recovery", "phone": "(833) 732-8202", "website": "https://wolfcreekrecovery.com"}}, {"name": "VA Hospital", "latitude": 34.5540018, "longitude": -112.452604, "source": "osm", "_tags": {"amenity": "hospital", "check_date": "2024-08-27", "healthcare": "hospital", "name": "VA Hospital"}}, {"name": "Banner Boswell Medical Center", "latitude": 33.6030079, "longitude": -112.2832453, "source": "osm", "_tags": {"addr:city": "Sun City", "addr:housenumber": "10401", "addr:postcode": "85351", "addr:state": "AZ", "addr:street": "West Thunderbird Boulevard", "amenity": "hospital", "emergency": "yes", "gnis:feature_id": "14236", "healthcare": "hospital", "healthcare:speciality": "emergency;trauma", "internet_access": "yes", "name": "Banner Boswell Medical Center", "not:name": "Boswell Memorial Hospital", "opening_hours": "24/7", "operator": "Banner Health", "operator:type": "private", "operator:wikidata": "Q4856918", "operator:wikipedia": "en:Banner Health", "phone": "+1 623 832 4000", "smoking": "no", "source": "https://www.bannerhealth.com/-/media/files/project/bh/locations/maps/bannerboswellmedicalcenter", "start_date": "1970", "website": "https://www.bannerhealth.com/locations/sun-city/banner-boswell-medical-center", "wheelchair": "yes", "wikidata": "Q48045885"}}, {"name": "Banner Residence for Alzheimer's Care", "latitude": 33.6012738, "longitude": -112.2606133, "source": "osm", "_tags": {"addr:city": "Peoria", "addr:housenumber": "12750", "addr:postcode": "85381", "addr:state": "AZ", "addr:street": "North Plaza Del Rio Boulevard", "amenity": "hospital", "emergency": "no", "healthcare": "hospital", "name": "Banner Residence for Alzheimer's Care", "operator": "Banner Health", "operator:type": "private", "operator:wikidata": "Q4856918", "smoking": "no", "source": "esri/USA_NAD_Addresses"}}, {"name": "Encompass Health Valley Of The Sun Rehabilitation Hospital", "latitude": 33.6076337, "longitude": -112.2036992, "source": "osm", "_tags": {"addr:city": "Glendale", "addr:housenumber": "13460", "addr:postcode": "85304", "addr:state": "AZ", "addr:street": "North 67th Avenue", "amenity": "hospital", "beds": "75", "ele": "366", "emergency": "no", "healthcare": "hospital", "healthcare:speciality": "physiatry", "name": "Encompass Health Valley Of The Sun Rehabilitation Hospital", "operator": "Encompass Health", "operator:type": "private", "operator:wikidata": "Q5690400", "phone": "+1 623 878 8800", "source": "esri_USDOT_Arizona", "website": "https://encompasshealth.com/locations/valleyofthesunrehab", "wikidata": "Q124733516"}}, {"name": "Northpark Health & Rehabilitation", "latitude": 33.4690003, "longitude": -112.2653724, "source": "osm", "_tags": {"addr:city": "Phoenix", "addr:housenumber": "2020", "addr:postcode": "85037", "addr:state": "AZ", "addr:street": "North 95th Avenue", "amenity": "hospital", "emergency": "no", "healthcare": "hospital", "name": "Northpark Health & Rehabilitation", "source": "esri/USA_NAD_Addresses", "website": "https://www.northparkhealthandrehab.com/"}}, {"name": "Abrazo Arrowhead Campus", "latitude": 33.6546704, "longitude": -112.2010341, "source": "osm", "_tags": {"addr:city": "Glendale", "addr:housenumber": "18701", "addr:postcode": "85308", "addr:state": "AZ", "addr:street": "North 67th Avenue", "amenity": "hospital", "emergency": "yes", "healthcare": "hospital", "name": "Abrazo Arrowhead Campus", "old_name": "Arrowhead Hospital", "opening_hours": "24/7", "operator": "TH Medical", "operator:type": "private", "phone": "+1 623 561 1000", "start_date": "1988", "website": "https://www.abrazohealth.com/our-locations/hospital-abrazo-arrowhead-campus", "wikidata": "Q4796168", "wikipedia": "en:Abrazo Arrowhead Campus"}}, {"name": "Abrazo West Campus", "latitude": 33.4620147, "longitude": -112.3528577, "source": "osm", "_tags": {"addr:city": "Goodyear", "addr:housenumber": "13677", "addr:postcode": "85395", "addr:state": "AZ", "addr:street": "West McDowell Road", "amenity": "hospital", "ele": "303", "emergency": "yes", "healthcare": "hospital", "healthcare:speciality": "trauma;emergency", "internet_access": "yes", "name": "Abrazo West Campus", "not:name": "West Valley Hospital", "not:operator:wikidata": "Q4669507", "old_name": "West Valley Hospital", "operator": "Abrazo Community Health Network", "operator:type": "private", "phone": "+623-882-1500", "source": "esri_USDOT_Arizona", "start_date": "2003", "website": "https://www.abrazohealth.com/our-locations/abrazo-west-campus", "wikidata": "Q16967189", "wikipedia": "en:Abrazo West Campus"}}, {"name": "Banner Del E. Webb Medical Center", "latitude": 33.6598172, "longitude": -112.3729349, "source": "osm", "_tags": {"addr:city": "Sun City West", "addr:housenumber": "14502", "addr:postcode": "85375", "addr:state": "AZ", "addr:street": "West Meeker Boulevard", "amenity": "hospital", "beds": "404", "brand": "Banner Health", "door": "automatic", "emergency": "yes", "entrance": "main", "gnis:feature_id": "2466994", "healthcare": "hospital", "healthcare:speciality": "psychiatry;general;emergency;trauma", "level": "1", "name": "Banner Del E. Webb Medical Center", "opening_hours": "24/7", "operator": "Banner Health", "operator:type": "private", "operator:wikidata": "Q4856918", "operator:wikipedia": "en:Banner Health", "phone": "+1 623 524 4000;+1-623-524-4000", "routing:entrance": "yes", "smoking": "no", "start_date": "1988", "website": "https://www.bannerhealth.com/locations/sun-city-west/banner-del-e-webb-medical-center", "wikidata": "Q119857291"}}, {"name": "Banner Estrella Medical Center", "latitude": 33.4782323, "longitude": -112.2575627, "source": "osm", "_tags": {"addr:city": "Phoenix", "addr:housenumber": "9201", "addr:postcode": "85037", "addr:state": "AZ", "addr:street": "West Thomas Road", "amenity": "hospital", "beds": "317", "emergency": "yes", "gnis:feature_id": "2466990", "healthcare": "hospital", "healthcare:speciality": "emergency;trauma", "internet_access": "wlan", "name": "Banner Estrella Medical Center", "opening_hours": "24/7", "operator": "Banner Health", "operator:type": "private", "operator:wikidata": "Q4856918", "operator:wikipedia": "en:Banner Health", "phone": "+1 623 327 4000", "smoking": "no", "source": "esri_USDOT_Arizona", "start_date": "2005", "website": "https://www.bannerhealth.com/locations/phoenix/banner-estrella-medical-center", "wheelchair": "yes", "wikidata": "Q30279926"}}, {"name": "St. Joseph's Westgate Medical Center", "latitude": 33.5419214, "longitude": -112.2751002, "source": "osm", "_tags": {"addr:city": "Glendale", "addr:housenumber": "7300", "addr:postcode": "85307", "addr:state": "AZ", "addr:street": "North 99th Avenue", "amenity": "hospital", "check_date": "2022-12-19", "emergency": "yes", "healthcare": "hospital", "healthcare:speciality": "emergency;surgery;trauma", "internet_access": "yes", "name": "St. Joseph's Westgate Medical Center", "opening_hours": "24/7", "operator": "Dignity Health", "operator:type": "private", "operator:wikidata": "Q5276334", "operator:wikipedia": "en:Dignity Health", "phone": "602-406-0000", "source": "esri_USDOT_Arizona;https://www.dignityhealth.org/westgate/", "start_date": "2014-05-14", "website": "https://www.dignityhealth.org/westgate/", "wheelchair": "yes", "wikidata": "Q124630926"}}, {"name": "Northern Arizona VA Health Care System", "latitude": 34.5529437, "longitude": -112.452957, "source": "osm", "_tags": {"access": "private", "addr:city": "Prescott", "addr:housenumber": "500", "addr:postcode": "86313", "addr:state": "AZ", "addr:street": "Highway 89 North", "amenity": "hospital", "emergency": "yes", "gnis:feature_id": "38903", "healthcare": "hospital", "name": "Northern Arizona VA Health Care System", "opening_hours": "24/7", "operator": "United States Department of Veterans Affairs", "phone": "+1 928 445 4860", "website": "https://www.prescott.va.gov/"}}, {"name": "Yavapai Regional Medical Center", "latitude": 34.5590082, "longitude": -112.4806936, "source": "osm", "_tags": {"addr:city": "Prescott", "addr:housenumber": "1003", "addr:postcode": "86301", "addr:state": "AZ", "addr:street": "Willow Creek Road", "amenity": "hospital", "emergency": "yes", "gnis:feature_id": "38981", "healthcare": "hospital", "name": "Yavapai Regional Medical Center", "old_name": "Yavapai Community Hospital", "opening_hours": "24/7", "phone": "+1 928 445 2700", "website": "https://www.yrmc.org/"}}, {"name": "Yavapai Regional Medical Center", "latitude": 34.5903402, "longitude": -112.3294598, "source": "osm", "_tags": {"addr:city": "Prescott Valley", "addr:housenumber": "7700", "addr:postcode": "86314", "addr:state": "AZ", "addr:street": "East Florentine Road", "amenity": "hospital", "emergency": "yes", "healthcare": "hospital", "name": "Yavapai Regional Medical Center", "opening_hours": "24/7", "phone": "+1 928 445 2700", "website": "https://www.yrmc.org/"}}, {"name": "Wickenburg Community Hospital", "latitude": 33.978609, "longitude": -112.7398389, "source": "osm", "_tags": {"addr:city": "Wickenburg", "addr:housenumber": "520", "addr:postcode": "85390", "addr:state": "AZ", "addr:street": "Rose Lane", "amenity": "hospital", "emergency": "yes", "gnis:feature_id": "15227", "healthcare": "hospital", "name": "Wickenburg Community Hospital", "opening_hours": "24/7", "phone": "+1 928 684 5421", "website": "https://www.wickhosp.com/", "wheelchair": "yes"}}, {"name": "Cancer Treatment Centers of America at Western Regional Medical Center", "latitude": 33.4539823, "longitude": -112.3644304, "source": "osm", "_tags": {"addr:city": "Goodyear", "addr:housenumber": "14200", "addr:postcode": "85338", "addr:state": "AZ", "addr:street": "West Celebrate Life Way", "amenity": "hospital", "emergency": "no", "healthcare": "hospital", "healthcare:speciality": "oncology", "name": "Cancer Treatment Centers of America at Western Regional Medical Center", "phone": "+1 800 931 9299", "website": "https://www.cancercenter.com/western/"}}, {"name": "HonorHealth", "latitude": 33.639293, "longitude": -112.1930565, "source": "osm", "_tags": {"amenity": "hospital", "healthcare": "hospital", "name": "HonorHealth"}}, {"name": "Phoenix Children’s Hospital – Arrowhead Campus", "latitude": 33.6570759, "longitude": -112.2008237, "source": "osm", "_tags": {"addr:city": "Phoenix", "addr:housenumber": "19007", "addr:postcode": "85308", "addr:state": "AZ", "addr:street": "North 67th Avenue", "amenity": "hospital", "emergency": "yes", "healthcare": "hospital", "name": "Phoenix Children’s Hospital – Arrowhead Campus", "operator": "Phoenix Children’s", "operator:type": "private", "source": "survey;https://www.phoenixchildrens.org/news/2021/05/phoenix-childrens-building-new-hospital-glendale", "website": "https://phoenixchildrens.org/locations/Glendale/19007-N-67th-Ave"}}, {"name": "Abrazo Surprise Hospital", "latitude": 33.6373827, "longitude": -112.420584, "source": "osm", "_tags": {"amenity": "hospital", "healthcare": "hospital", "name": "Abrazo Surprise Hospital", "operator": "Abrazo Health", "operator:type": "corporation"}}, {"name": "ClearSky Rehabilitation Hospital of Avondale", "latitude": 33.4631536, "longitude": -112.2947121, "source": "osm", "_tags": {"addr:city": "Avondale", "addr:housenumber": "10903", "addr:postcode": "85392", "addr:state": "AZ", "addr:street": "West McDowell Road", "amenity": "hospital", "emergency": "no", "healthcare": "hospital", "healthcare:speciality": "physiatry", "name": "ClearSky Rehabilitation Hospital of Avondale", "source": "https://ktar.com/story/3983991/clearsky-health-opening-rehabilitation-hospital-in-avondale/", "start_date": "2022", "website": "https://clearskyhealth.com/avondale/", "wikidata": "Q124726195"}}, {"name": "Avenir Behavioral Health Center at Surprise", "latitude": 33.6344887, "longitude": -112.3811563, "source": "osm", "_tags": {"addr:city": "Surprise", "addr:housenumber": "16561", "addr:postcode": "85374", "addr:state": "AZ", "addr:street": "North Parkview Place", "amenity": "hospital", "beds": "32", "emergency": "no", "healthcare": "hospital", "healthcare:speciality": "psychiatry", "name": "Avenir Behavioral Health Center at Surprise", "phone": "+1 480 229 9894", "website": "https://www.avenirseniorliving.com/senior-living/az/surprise/behavioral-health/"}}, {"name": "Destiny Springs Healthcare", "latitude": 33.6412203, "longitude": -112.3434072, "source": "osm", "_tags": {"addr:city": "Surprise", "addr:housenumber": "17300", "addr:postcode": "85378", "addr:state": "AZ", "addr:street": "North Dysart Road", "amenity": "hospital", "healthcare": "hospital", "healthcare:speciality": "psychiatry", "name": "Destiny Springs Healthcare", "website": "https://www.destinyspringshealthcare.com/"}}, {"name": "Reunion Rehabiitation Hospital Peoria", "latitude": 33.6068778, "longitude": -112.2616919, "source": "osm", "_tags": {"addr:city": "Peoria", "addr:housenumber": "13451", "addr:postcode": "85381", "addr:state": "AZ", "addr:street": "North 94th Drive", "amenity": "hospital", "emergency": "no", "healthcare": "hospital", "healthcare:speciality": "physiatry", "name": "Reunion Rehabiitation Hospital Peoria", "start_date": "2023-04-04", "website": "https://reunionrehabhospital.com/locations/peoria/", "wikidata": "Q124767513"}}, {"name": "Peoria Post Acute & Rehabilitation Center", "latitude": 33.604266, "longitude": -112.2619181, "source": "osm", "_tags": {"addr:city": "Peoria", "addr:housenumber": "13215", "addr:postcode": "85381", "addr:state": "AZ", "addr:street": "North 94th Drive", "amenity": "hospital", "emergency": "no", "healthcare": "hospital", "name": "Peoria Post Acute & Rehabilitation Center", "source": "esri/USA_NAD_Addresses"}}, {"name": "Banner Rehabilitation Hospital West", "latitude": 33.5996357, "longitude": -112.2614763, "source": "osm", "_tags": {"addr:city": "Peoria", "addr:housenumber": "12740", "addr:postcode": "85381", "addr:state": "AZ", "addr:street": "North Plaza Del Rio Boulevard", "amenity": "hospital", "emergency": "no", "healthcare": "hospital", "healthcare:speciality": "physiatry", "name": "Banner Rehabilitation Hospital West", "operator": "Banner Health", "operator:type": "private", "operator:wikidata": "Q4856918", "smoking": "no", "website": "https://www.bannerhealth.com/locations/peoria/banner-rehabilitation-hospital-west", "wikidata": "Q124725066"}}, {"name": "Deep Within Rehab Center", "latitude": 33.5912942, "longitude": -112.2545588, "source": "osm", "_tags": {"addr:city": "Peoria", "addr:housenumber": "11773", "addr:postcode": "85345", "addr:state": "AZ", "addr:street": "North 91st Avenue", "amenity": "hospital", "emergency": "no", "healthcare": "hospital", "healthcare:speciality": "psychiatry", "name": "Deep Within Rehab Center"}}, {"name": "Copper Springs Hospital", "latitude": 33.4654346, "longitude": -112.2876311, "source": "osm", "_tags": {"addr:city": "Avondale", "addr:housenumber": "10550", "addr:postcode": "85392", "addr:state": "AZ", "addr:street": "West McDowell Road", "amenity": "hospital", "emergency": "no", "healthcare": "hospital", "healthcare:speciality": "psychiatry", "name": "Copper Springs Hospital", "opening_hours": "24/7", "website": "https://coppersprings.com/locations/avondale-az/", "wikidata": "Q124733169"}}, {"name": "Dignity Health - Surprise", "latitude": 33.638153, "longitude": -112.3674402, "source": "osm", "_tags": {"addr:city": "Surprise", "addr:housenumber": "14267", "addr:postcode": "85374", "addr:state": "AZ", "addr:street": "West Bell Road", "amenity": "hospital", "emergency": "yes", "healthcare": "hospital", "healthcare:speciality": "emergency", "name": "Dignity Health - Surprise", "opening_hours": "24/7", "operator": "Dignity Health", "operator:type": "private", "operator:wikidata": "Q5276334", "website": "https://locations.dignityhealth.org/surprise-az"}}, {"name": "Recovery Innovations Recovery Response Center", "latitude": 33.5870452, "longitude": -112.271714, "source": "osm", "_tags": {"addr:city": "Peoria", "addr:housenumber": "11361", "addr:postcode": "85345", "addr:state": "AZ", "addr:street": "North 99th Avenue", "addr:unit": "602", "amenity": "hospital", "beds": "16", "emergency": "no", "healthcare": "hospital", "healthcare:speciality": "psychiatry", "name": "Recovery Innovations Recovery Response Center", "operator": "G.R.O.W.T.H. Health Center", "operator:type": "private", "phone": "+1 602 650 1212", "source": "esri/USA_NAD_Addresses", "website": "https://riinternational.com/listing/recovery-response-center-retreat-peoria/"}}, {"name": "PAM Health Rehabilitation Hospital of Surprise", "latitude": 33.6393471, "longitude": -112.3412889, "source": "osm", "_tags": {"amenity": "hospital", "healthcare": "hospital", "healthcare:speciality": "physiatry", "name": "PAM Health Rehabilitation Hospital of Surprise", "operator": "PAM Health Rehabilitation Hospital of Surprise", "operator:type": "corporation"}}, {"name": "Mountain Valley Regional Rehabilitation Hospital", "latitude": 34.5962737, "longitude": -112.328646, "source": "osm", "_tags": {"addr:city": "Prescott Valley", "addr:housenumber": "3700", "addr:postcode": "86314", "addr:state": "AZ", "addr:street": "North Windsong Drive", "amenity": "hospital", "beds": "44", "emergency": "no", "healthcare": "rehabilitation", "name": "Mountain Valley Regional Rehabilitation Hospital", "phone": "+1 928 759 8800"}}]