[{"name": "White Mountain Regional Medical Center", "latitude": 34.131573, "longitude": -109.285348, "source": "osm", "_tags": {"addr:city": "Springerville", "addr:housenumber": "118", "addr:postcode": "85938", "addr:state": "AZ", "addr:street": "South Mountain Avenue", "amenity": "hospital", "beds": "25", "emergency": "yes", "gnis:feature_id": "39184", "healthcare": "hospital", "name": "White Mountain Regional Medical Center", "opening_hours": "24/7", "phone": "+1 928 333 4368", "website": "https://www.wmrmc.com/"}}, {"name": "Pine Hill Health Center", "latitude": 34.8902302, "longitude": -108.4170536, "source": "osm", "_tags": {"addr:city": "Pine Hill", "addr:housenumber": "7", "addr:postcode": "87357", "addr:state": "NM", "addr:street": "Indian Service Rt 140", "amenity": "hospital", "emergency": "yes", "healthcare": "hospital", "healthcare:speciality": "general", "name": "Pine Hill Health Center", "operator": "Ramah Navajo Sch. Brd. Inc."}}, {"name": "Changepoint Psychiatric Hospital", "latitude": 34.1652321, "longitude": -109.975386, "source": "osm", "_tags": {"addr:city": "Lakeside", "addr:housenumber": "1920", "addr:postcode": "85929", "addr:state": "AZ", "addr:street": "West Commerce Drive", "amenity": "hospital", "beds": "16", "healthcare": "hospital", "healthcare:speciality": "psychiatry", "name": "Changepoint Psychiatric Hospital", "phone": "+1 928 368 4110"}}, {"name": "Summit Healthcare Regional Medical Center", "latitude": 34.20379, "longitude": -110.017914, "source": "osm", "_tags": {"addr:city": "Show Low", "addr:housenumber": "2200", "addr:postcode": "85901", "addr:state": "AZ", "addr:street": "East Show Low Lake Road", "amenity": "hospital", "beds": "89", "emergency": "yes", "gnis:feature_id": "40224", "healthcare": "hospital", "name": "Summit Healthcare Regional Medical Center", "old_name": "Navapache Hospital", "opening_hours": "24/7", "phone": "+1 928 537 4375", "source": "esri_USDOT_Arizona", "website": "https://summithealthcare.net/"}}, {"name": "Whiteriver Indian Hospital", "latitude": 33.8765086, "longitude": -109.9598864, "source": "osm", "_tags": {"addr:city": "Whiteriver", "addr:housenumber": "200", "addr:postcode": "85941", "addr:state": "AZ", "addr:street": "West Hospital Drive", "amenity": "hospital", "beds": "40", "emergency": "yes", "healthcare": "hospital", "name": "Whiteriver Indian Hospital", "opening_hours": "24/7", "phone": "+1 928 338 4911", "source": "esri_USDOT_Arizona", "website": "https://www.ihs.gov/Phoenix/healthcarefacilities/whiteriver/"}}]