[{"name": "UMC Southwest Cancer Center", "latitude": 33.587915, "longitude": -101.8920445, "source": "osm", "_tags": {"addr:city": "Lubbock", "addr:housenumber": "602", "addr:postcode": "79415", "addr:state": "TX", "addr:street": "Indiana Avenue", "amenity": "hospital", "healthcare": "hospital", "healthcare:speciality": "oncology", "name": "UMC Southwest Cancer Center", "operator": "University Medical Center"}}, {"name": "East Tower", "latitude": 33.5879083, "longitude": -101.8906256, "source": "osm", "_tags": {"addr:city": "Lubbock", "addr:housenumber": "602", "addr:postcode": "79415", "addr:state": "TX", "addr:street": "Indiana Avenue", "amenity": "hospital", "healthcare": "hospital", "name": "East Tower"}}, {"name": "Universty Medical Center", "latitude": 33.5879955, "longitude": -101.891285, "source": "osm", "_tags": {"addr:city": "Lubbock", "addr:housenumber": "602", "addr:postcode": "79415", "addr:state": "TX", "addr:street": "Indiana Avenue", "amenity": "hospital", "beds": "456", "emergency": "yes", "healthcare": "hospital", "name": "Universty Medical Center", "operator": "UMC Health Systems"}}, {"name": "UMC Emergency Center", "latitude": 33.588639, "longitude": -101.8928857, "source": "osm", "_tags": {"addr:city": "Lubbock", "addr:housenumber": "602", "addr:postcode": "79415", "addr:state": "TX", "addr:street": "Indiana Avenue", "amenity": "hospital", "emergency": "yes", "healthcare": "hospital", "healthcare:speciality": "emergency", "name": "UMC Emergency Center", "operator": "University Medical Center"}}, {"name": "", "latitude": 33.5473501, "longitude": -101.8862771, "source": "osm", "_tags": {"amenity": "hospital", "healthcare": "hospital"}}, {"name": "", "latitude": 33.5476362, "longitude": -101.8842816, "source": "osm", "_tags": {"amenity": "hospital", "healthcare": "hospital"}}, {"name": "", "latitude": 33.5275683, "longitude": -101.8597619, "source": "osm", "_tags": {"amenity": "hospital", "healthcare": "hospital"}}, {"name": "South Plains Rehab Hospital - An Affiliate Of UMC And Encompass", "latitude": 33.6028898, "longitude": -101.9284584, "source": "osm", "_tags": {"addr:city": "Lubbock", "addr:housenumber": "5406", "addr:postcode": "79416", "addr:state": "TX", "addr:street": "Colgate Street", "amenity": "hospital", "beds": "66", "healthcare": "hospital", "name": "South Plains Rehab Hospital - An Affiliate Of UMC And Encompass", "phone": "+1-806-507-3500", "website": "https://encompasshealth.com/locations/southplainsrehab"}}, {"name": "Lubbock State Supported Living Center", "latitude": 33.6326199, "longitude": -101.8752665, "source": "osm", "_tags": {"addr:city": "Lubbock", "addr:housenumber": "3401", "addr:postcode": "79415", "addr:state": "TX", "addr:street": "North University Avenue", "amenity": "hospital", "emergency": "no", "healthcare": "hospital", "name": "Lubbock State Supported Living Center", "operator": "Texas Department of Aging and Disability Services", "phone": "+1 806 763 7041", "social_facility": "group_home", "social_facility:for": "mental_health", "source": "Imagery Trace", "start_date": "1969", "website": "https://www.dads.state.tx.us/services/SSLC"}}, {"name": "Clinica Hispana Rubymed - Lubbock", "latitude": 33.5490795, "longitude": -101.8674477, "source": "osm", "_tags": {"addr:city": "Lubbock", "addr:housenumber": "2314", "addr:postcode": "79412", "addr:state": "TX", "addr:street": "50th Street", "amenity": "hospital", "building": "yes", "email": "lubbock@clinicahispanarubymed.com", "healthcare": "hospital", "name": "Clinica Hispana Rubymed - Lubbock", "opening_hours": "Mo-Sa 09:00-19:00; Su 09:00-13:00", "phone": "+1-806-214-1132", "website": "https://www.clinicahispanarubymed.com/locations/clinica-hispana-lubbock-tx"}}, {"name": "Trustpoint Rehabilitation Hospital of Lubbock", "latitude": 33.6171559, "longitude": -101.9030021, "source": "osm", "_tags": {"addr:city": "Lubbock", "addr:country": "US", "addr:housenumber": "4302", "addr:postcode": "79415", "addr:state": "TX", "addr:street": "Princeton Street", "amenity": "hospital", "contact:phone": "+1 806 749 2222", "contact:tty": "+1 800 735 2989", "contact:website": "http://trhl.ernesthealth.com", "emergency": "no", "healthcare": "hospital", "name": "Trustpoint Rehabilitation Hospital of Lubbock", "old_name": "Texas Specialty Hospital", "operator": "Ernest Health"}}, {"name": "Collingsworth General Hospital", "latitude": 34.8486093, "longitude": -100.2119851, "source": "osm", "_tags": {"addr:city": "Wellington", "addr:housenumber": "1013", "addr:postcode": "79095", "addr:state": "TX", "addr:street": "15th Street", "amenity": "hospital", "beds": "13", "emergency": "yes", "gnis:feature_id": "2015653", "healthcare": "hospital", "name": "Collingsworth General Hospital", "opening_hours": "24/7", "phone": "+1 806 447 2521", "website": "https://collingsworthgeneral.net/"}}, {"name": "Swisher Memorial Hospital", "latitude": 34.5361899, "longitude": -101.7558928, "source": "osm", "_tags": {"addr:city": "Tulia", "addr:housenumber": "539", "addr:postcode": "79088", "addr:state": "TX", "addr:street": "Southeast 2nd Street", "amenity": "hospital", "emergency": "yes", "gnis:feature_id": "2015710", "healthcare": "hospital", "name": "Swisher Memorial Hospital", "opening_hours": "24/7", "phone": "+1 806 995 3581", "website": "https://www.swisherhospital.com/"}}, {"name": "Covenant Health Plainview", "latitude": 34.2066505, "longitude": -101.7324073, "source": "osm", "_tags": {"addr:city": "Plainview", "addr:housenumber": "2601", "addr:postcode": "79072", "addr:state": "TX", "addr:street": "Dimmitt Road", "amenity": "hospital", "beds": "100", "emergency": "yes", "healthcare": "hospital", "name": "Covenant Health Plainview", "opening_hours": "24/7", "operator": "Covenant Health", "phone": "+1 806 296 5531", "website": "https://www.covenanthealth.org/contact-us/locations/covenant-health-plainview/"}}, {"name": "W.J. Mangold Memorial Hospital", "latitude": 34.1269537, "longitude": -101.4409225, "source": "osm", "_tags": {"addr:city": "Lockney", "addr:country": "US", "addr:housenumber": "320", "addr:postcode": "79241", "addr:state": "TX", "addr:street": "North Main Street", "amenity": "hospital", "beds": "25", "emergency": "yes", "gnis:feature_id": "2015823", "healthcare": "hospital", "name": "W.J. Mangold Memorial Hospital", "opening_hours": "24/7", "operator": "Lockney General Hospital District", "phone": "+1 800 687 6079", "website": "https://www.mangoldmemorial.org/"}}, {"name": "Crosbyton Clinic Hospital", "latitude": 33.6607493, "longitude": -101.2461246, "source": "osm", "_tags": {"addr:city": "Crosbyton", "addr:housenumber": "710", "addr:postcode": "79322", "addr:state": "TX", "addr:street": "West Main Street", "amenity": "hospital", "beds": "2", "emergency": "yes", "gnis:feature_id": "2015554", "healthcare": "hospital", "name": "Crosbyton Clinic Hospital", "opening_hours": "24/7", "phone": "+1 806 675 2382", "website": "http://www.crosbytonclinichospital.com/"}}, {"name": "Sunrise Canyon Hospital", "latitude": 33.5734656, "longitude": -101.8075045, "source": "osm", "_tags": {"addr:city": "Lubbock", "addr:housenumber": "1950", "addr:postcode": "79404", "addr:street": "Aspen Avenue", "amenity": "hospital", "beds": "30", "emergency": "no", "gnis:feature_id": "2015816", "healthcare": "hospital", "healthcare:speciality": "psychiatry", "name": "Sunrise Canyon Hospital", "operator": "StarCare Lubbock", "phone": "+1 806 766 0310", "website": "http://www.lubbockmhmr.org/sch/"}}, {"name": "Lubbock Heart & Surgical Hospital", "latitude": 33.6030912, "longitude": -101.9158087, "source": "osm", "_tags": {"addr:city": "Lubbock", "addr:housenumber": "4810", "addr:postcode": "79416", "addr:state": "TX", "addr:street": "North Loop 289", "amenity": "hospital", "emergency": "yes", "healthcare": "hospital", "name": "Lubbock Heart & Surgical Hospital", "opening_hours": "24/7", "operator": "Lubbock Heart Hospital", "phone": "+1 806 687 7777", "website": "https://lubbockheart.com/home/"}}, {"name": "University Medical Center", "latitude": 33.5892755, "longitude": -101.8919991, "source": "osm", "_tags": {"addr:city": "Lubbock", "addr:housenumber": "602", "addr:postcode": "79415", "addr:state": "TX", "addr:street": "Indiana Avenue", "amenity": "hospital", "beds": "495", "emergency": "yes", "gnis:feature_id": "2015762", "healthcare": "hospital", "name": "University Medical Center", "opening_hours": "24/7", "operator": "UMC Health System", "phone": "+1 806 775 8200", "website": "https://www.umchealthsystem.com/", "wikidata": "Q7894822", "wikipedia": "en:University Medical Center (Lubbock, Texas)"}}, {"name": "Covenant Medical Center", "latitude": 33.5764418, "longitude": -101.8921137, "source": "osm", "_tags": {"addr:city": "Lubbock", "addr:housenumber": "3615", "addr:postcode": "79410", "addr:state": "TX", "addr:street": "19th Street", "amenity": "hospital", "emergency": "yes", "healthcare": "hospital", "name": "Covenant Medical Center", "opening_hours": "24/7", "operator": "Covenant Health", "operator:wikidata": "Q5178997", "phone": "+1 806 725 0000", "website": "https://www.covenanthealth.org/contact-us/locations/covenant-medical-center/"}}, {"name": "Covenant Children’s Hospital", "latitude": 33.5736767, "longitude": -101.9015313, "source": "osm", "_tags": {"addr:city": "Lubbock", "addr:housenumber": "4002", "addr:postcode": "79410", "addr:state": "TX", "addr:street": "24th Street", "amenity": "hospital", "emergency": "yes", "healthcare": "hospital", "name": "Covenant Children’s Hospital", "opening_hours": "24/7", "operator": "Covenant Health", "phone": "+1 806 725 0000", "website": "https://www.covenantchildrens.org/"}}, {"name": "Grace Medical Center", "latitude": 33.5495373, "longitude": -101.8692783, "source": "osm", "_tags": {"addr:city": "Lubbock", "addr:housenumber": "2412", "addr:postcode": "79412", "addr:state": "TX", "addr:street": "50th Street", "amenity": "hospital", "emergency": "no", "gnis:feature_id": "2015815", "healthcare": "hospital", "name": "Grace Medical Center", "old_name": "Highland Medical Center", "operator": "Grace Health System", "phone": "+1 806 788 4100", "urgent_care": "yes", "website": "https://gracehealthsystem.com/locations/grace-medical-center/"}}, {"name": "Stonewall Memorial Hospital", "latitude": 33.1506331, "longitude": -100.2291673, "source": "osm", "_tags": {"addr:city": "Aspermont", "addr:housenumber": "821", "addr:postcode": "79502", "addr:street": "North Broadway Street", "amenity": "hospital", "beds": "20", "emergency": "yes", "gnis:feature_id": "1369247", "healthcare": "hospital", "name": "Stonewall Memorial Hospital", "opening_hours": "24/7", "phone": "+1 940 989 3551", "website": "https://www.stonewallhospital.org/"}}, {"name": "Childress Regional Medical Center", "latitude": 34.4394148, "longitude": -100.2273756, "source": "osm", "_tags": {"addr:city": "Childress", "addr:housenumber": "901", "addr:postcode": "79201", "addr:state": "TX", "addr:street": "Highway 83 North", "amenity": "hospital", "beds": "39", "emergency": "yes", "healthcare": "hospital", "name": "Childress Regional Medical Center", "opening_hours": "24/7", "phone": "+1 940 937 6371", "short_name": "CRMC", "website": "http://childresshospital.com/"}}, {"name": "Lynn County Hospital District", "latitude": 33.1674996, "longitude": -101.8161334, "source": "osm", "_tags": {"addr:city": "Tahoka", "addr:housenumber": "2600", "addr:postcode": "79373", "addr:state": "TX", "addr:street": "Lockwood Street", "amenity": "hospital", "beds": "24", "emergency": "yes", "healthcare": "hospital", "name": "Lynn County Hospital District", "opening_hours": "24/7", "operator": "Lynn County Hospital District", "phone": "+1 806 998 4533", "short_name": "LCHD", "website": "http://lchdhealthcare.org/"}}, {"name": "VA Lubbock", "latitude": 33.5378321, "longitude": -101.8470456, "source": "osm", "_tags": {"addr:city": "Lubbock", "addr:housenumber": "6104", "addr:postcode": "79412", "addr:state": "TX", "addr:street": "Avenue Q South Drive", "amenity": "hospital", "healthcare": "hospital", "healthcare:for": "veterans", "name": "VA Lubbock", "operator": "Veterans Health Administration", "operator:short": "VA", "operator:wikidata": "Q6580225", "operator:wikipedia": "en:Veterans Health Administration", "short_name": "VA"}}, {"name": "Lubbock Veterans Affairs Hospital", "latitude": 33.593967, "longitude": -101.8901332, "source": "osm", "_tags": {"addr:city": "Lubbock", "addr:housenumber": "3510", "addr:postcode": "79415", "addr:state": "TX", "addr:street": "4th Street", "amenity": "hospital", "healthcare": "hospital", "name": "Lubbock Veterans Affairs Hospital"}}, {"name": "", "latitude": 33.5823805, "longitude": -101.8588009, "source": "osm", "_tags": {"amenity": "hospital", "healthcare": "hospital"}}, {"name": "Medical Office Plaza II", "latitude": 33.5877596, "longitude": -101.8899727, "source": "osm", "_tags": {"addr:city": "Lubbock", "addr:housenumber": "808", "addr:postcode": "79415", "addr:state": "TX", "addr:street": "Joliet Avenue", "amenity": "hospital", "building": "hospital", "healthcare": "hospital", "name": "Medical Office Plaza II", "operator": "University Medical Center"}}, {"name": "Grace Surgical Hospital", "latitude": 33.5232811, "longitude": -101.9852977, "source": "osm", "_tags": {"addr:city": "Lubbock", "addr:housenumber": "7509", "addr:postcode": "79424", "addr:state": "TX", "addr:street": "Marsha Sharp Freeway", "amenity": "hospital", "healthcare": "hospital", "name": "Grace Surgical Hospital"}}]