[{"name": "Lompoc Valley Medical Center", "latitude": 34.6408243, "longitude": -120.4395756, "source": "osm", "_tags": {"addr:city": "Lompoc", "addr:housenumber": "1515", "addr:postcode": "93463", "addr:street": "East Ocean Avenue", "amenity": "hospital", "emergency": "yes", "healthcare": "hospital", "healthcare:speciality": "general;surgery;emergency;radiology;maternity;internal;paediatrics;laboratory;birthing;bariatic_surgery;critical_care;physical_therapy", "name": "Lompoc Valley Medical Center", "opening_hours": "24/7", "operator": "Lompoc Valley Medical Center", "operator:type": "community", "phone": "+1 805 737 3300", "website": "https://lompocvmc.com/locations/lvmc", "wikidata": "Q21593078"}}, {"name": "Marian Medical Center", "latitude": 34.9509821, "longitude": -120.4117132, "source": "osm", "_tags": {"addr:city": "Santa Maria", "addr:housenumber": "1400", "addr:postcode": "93454", "addr:street": "East Church Street", "amenity": "hospital", "emergency": "yes", "healthcare": "hospital", "name": "Marian Medical Center", "opening_hours": "24/7", "operator": "Dignity Health", "operator:wikidata": "Q5276334", "operator:wikipedia": "en:Dignity Health", "phone": "+1 805 739 3000", "website": "https://www.dignityhealth.org/central-coast/locations/marianregional"}}]