[{"name": "Lincoln County Medical Center", "latitude": 33.3222736, "longitude": -105.6312086, "source": "osm", "_tags": {"addr:city": "Ruidoso", "addr:housenumber": "211", "addr:postcode": "88345", "addr:state": "NM", "addr:street": "Sudderth Drive", "amenity": "hospital", "beds": "25", "emergency": "yes", "gnis:feature_id": "901287", "name": "Lincoln County Medical Center", "opening_hours": "24/7", "phone": "+1 575 257 8200", "website": "https://lincoln-county-medical-center.phs.org/"}}, {"name": "Eastern New Mexico Medical Center", "latitude": 33.4246877, "longitude": -104.5284828, "source": "osm", "_tags": {"addr:city": "Roswell", "addr:housenumber": "405", "addr:postcode": "88201", "addr:state": "NM", "addr:street": "West Country Club Road", "amenity": "hospital", "beds": "162", "capacity": "162", "emergency": "yes", "gnis:feature_id": "901351", "healthcare": "hospital", "healthcare:speciality": "emergency;general", "name": "Eastern New Mexico Medical Center", "opening_hours": "24/7", "operator": "Community Health Systems", "operator:type": "private", "phone": "+1-575-622-8170", "website": "https://www.enmmc.com/"}}, {"name": "New Mexico Rehabilitation Center", "latitude": 33.3180186, "longitude": -104.5215691, "source": "osm", "_tags": {"addr:city": "Roswell", "addr:housenumber": "72", "addr:postcode": "88201", "addr:state": "NM", "addr:street": "Gail Harris Street", "amenity": "hospital", "emergency": "no", "gnis:feature_id": "901282", "healthcare": "hospital", "name": "New Mexico Rehabilitation Center", "phone": "+1 575 347 3400", "website": "https://nmhealth.org/about/ofm/ltcf/nmrc/"}}, {"name": "Guadalupe County Hospital", "latitude": 34.9303454, "longitude": -104.6932368, "source": "osm", "_tags": {"addr:city": "Santa Rosa", "addr:housenumber": "117", "addr:postcode": "88435", "addr:state": "NM", "addr:street": "Camino de Vida", "addr:unit": "Suite 100", "amenity": "hospital", "beds": "10", "emergency": "yes", "gnis:feature_id": "901337", "healthcare": "hospital", "name": "Guadalupe County Hospital", "opening_hours": "24/7", "phone": "+1 575 472 3417", "website": "https://www.gchnm.org/"}}, {"name": "Mescalero Service Unit", "latitude": 33.1588247, "longitude": -105.7726322, "source": "osm", "_tags": {"addr:city": "Mescalero", "addr:housenumber": "318", "addr:postcode": "88340", "addr:state": "NM", "addr:street": "Abalone Loop", "amenity": "hospital", "beds": "13", "emergency": "no", "healthcare": "hospital", "name": "Mescalero Service Unit", "operator": "Indian Health Service", "operator:short": "IHS", "operator:type": "government", "operator:wikidata": "Q6020429", "phone": "+1-575-464-4441", "website": "https://www.ihs.gov/Albuquerque/healthcarefacilities/mescalero/"}}, {"name": "Lovelace Regional Hospital - Roswell", "latitude": 33.4169345, "longitude": -104.5211135, "source": "osm", "_tags": {"addr:city": "Roswell", "addr:housenumber": "117", "addr:postcode": "88201", "addr:state": "NM", "addr:street": "East 19th Street", "amenity": "hospital", "beds": "27", "capacity": "27", "emergency": "yes", "healthcare": "hospital", "healthcare:speciality": "emergency;general", "name": "Lovelace Regional Hospital - Roswell", "opening_hours": "24/7", "operator": "Lovelace Health System", "operator:type": "private", "phone": "+1-575-627-7000", "website": "https://lovelace.com/roswell"}}, {"name": "ENMU-R Health Science Center", "latitude": 33.3105483, "longitude": -104.5233212, "source": "osm", "_tags": {"addr:city": "Roswell", "addr:housenumber": "52", "addr:postcode": "88203", "addr:state": "NM", "addr:street": "University Boulevard", "amenity": "hospital", "healthcare": "hospital", "name": "ENMU-R Health Science Center"}}, {"name": "Mission Arch Care & Rehabilitation Center", "latitude": 33.436271, "longitude": -104.5092944, "source": "osm", "_tags": {"addr:city": "Roswell", "addr:housenumber": "3200", "addr:postcode": "88201", "addr:state": "NM", "addr:street": "Mission Arch Drive", "amenity": "hospital", "building": "apartments", "emergency": "no", "healthcare": "hospital", "name": "Mission Arch Care & Rehabilitation Center", "operator": "Genesis HealthCare", "phone": "575-624-2583", "source": "Bing", "type": "multipolygon", "website": "http://www.genesishcc.com/MissionArch"}}]