[{"name": "Los Angeles Community Hospital", "latitude": 34.0191797, "longitude": -118.1864606, "source": "osm", "_tags": {"addr:city": "Los Angeles", "addr:housenumber": "4081", "addr:postcode": "90023", "addr:street": "East Olympic Boulevard", "amenity": "hospital", "emergency": "yes", "gnis:feature_id": "1732538", "healthcare": "hospital", "name": "Los Angeles Community Hospital", "opening_hours": "24/7", "operator": "Alta Los Angeles Hospitals", "phone": "+1 323 267 0477", "website": "https://www.lach-la.com/"}}, {"name": "Edward G. Hirschman Burn Center", "latitude": 34.0744188, "longitude": -117.3504067, "source": "osm", "_tags": {"amenity": "hospital", "emergency": "no", "gnis:feature_id": "2097343", "healthcare": "hospital", "level": "2", "name": "Edward G. Hirschman Burn Center", "phone": "+1 909 580 2100", "website": "https://www.arrowheadmedcenter.org/srvInBurncenter.aspx"}}, {"name": "Jonathan Jaques Children's Cancer Center", "latitude": 33.8084999, "longitude": -118.1858169, "source": "osm", "_tags": {"amenity": "hospital", "emergency": "no", "gnis:feature_id": "2130122", "healthcare": "hospital", "healthcare:speciality": "paediatric_oncology", "level": "3", "name": "Jonathan Jaques Children's Cancer Center", "phone": "+1 562 933 8500", "website": "https://www.millerchildrenshospitallb.org/cancer"}}, {"name": "Miller Children's & Women's Hospital Long Beach", "latitude": 33.8086158, "longitude": -118.1860441, "source": "osm", "_tags": {"addr:city": "Long Beach", "addr:housenumber": "2801", "addr:postcode": "90806", "addr:street": "Atlantic Avenue", "amenity": "hospital", "emergency": "no", "gnis:feature_id": "2130123", "healthcare": "hospital", "name": "Miller Children's & Women's Hospital Long Beach", "operator": "MemorialCare", "phone": "+1 562 933 5437", "website": "https://www.millerchildrenshospitallb.org/", "wikidata": "Q6859100"}}, {"name": "Kindred Hospital Rancho", "latitude": 34.1036866, "longitude": -117.566315, "source": "osm", "_tags": {"addr:city": "Rancho Cucamonga", "addr:housenumber": "10841", "addr:postcode": "91730", "addr:street": "White Oak Avenue", "amenity": "hospital", "beds": "55", "emergency": "no", "gnis:feature_id": "2455820", "healthcare": "hospital", "name": "Kindred Hospital Rancho", "old_name": "Rancho Specialty Hospital", "operator": "Kindred Healthcare", "operator:wikidata": "Q921363", "phone": "+1 909 581 6400", "website": "https://www.kindredhealthcare.com/locations/transitional-care-hospitals/kindred-hospital-rancho", "wikidata": "Q30270323"}}, {"name": "Riverside University Health System - Arlington Mental Health Facility", "latitude": 33.9190963, "longitude": -117.4597252, "source": "osm", "_tags": {"addr:city": "Riverside", "addr:housenumber": "9990", "addr:postcode": "92503", "addr:street": "County Farm Road", "amenity": "hospital", "emergency": "no", "healthcare": "hospital", "name": "Riverside University Health System - Arlington Mental Health Facility", "old_name": "RCRMC Psychiatric Care Facility", "operator": "Riverside University Health System", "phone": "+1 951 486 4000", "website": "https://www.ruhealth.org/en-us/pages/Behavioral-Health.aspx"}}, {"name": "Naples Medical Group", "latitude": 33.7557648, "longitude": -118.1193286, "source": "osm", "_tags": {"amenity": "hospital", "emergency": "no", "healthcare": "hospital", "name": "Naples Medical Group"}}, {"name": "Hoag Health Center Huntington Beach", "latitude": 33.6783187, "longitude": -117.9874346, "source": "osm", "_tags": {"amenity": "hospital", "emergency": "no", "healthcare": "hospital", "name": "Hoag Health Center Huntington Beach", "operator": "Hoag", "operator:type": "private", "operator:wikidata": "Q130527108"}}, {"name": "Emergency Room", "latitude": 34.127666, "longitude": -117.8652823, "source": "osm", "_tags": {"amenity": "hospital", "healthcare": "hospital", "name": "Emergency Room"}}, {"name": "Riverside County Psychiatric Health Facility", "latitude": 33.7008613, "longitude": -116.2215382, "source": "osm", "_tags": {"addr:city": "Indio", "addr:housenumber": "47915", "addr:postcode": "92201", "addr:street": "Oasis Street", "amenity": "hospital", "beds": "16", "emergency": "no", "healthcare": "hospital", "healthcare:speciality": "psychiatry", "name": "Riverside County Psychiatric Health Facility", "opening_hours": "24/7", "operator": "Telecare", "phone": "+1 760 863 8632", "website": "https://www.telecarecorp.com/riverside-county-phf/"}}, {"name": "Loma Linda University Children's Hospital", "latitude": 34.0491211, "longitude": -117.263821, "source": "osm", "_tags": {"addr:city": "Loma Linda", "addr:housenumber": "11234", "addr:postcode": "92354", "addr:street": "Anderson Street", "addr:unit": "Suite A", "amenity": "hospital", "denomination": "seventh_day_adventist", "emergency": "no", "gnis:feature_id": "1844396", "healthcare": "hospital", "healthcare:speciality": "paediatrics", "name": "Loma Linda University Children's Hospital", "operator": "Loma Linda University Health", "phone": "+1 800 825 5437", "religion": "christian", "website": "https://childrens-hospital.lomalindahealth.org/", "wikidata": "Q30253928"}}, {"name": "Todd Cancer Center", "latitude": 33.8076912, "longitude": -118.1889308, "source": "osm", "_tags": {"amenity": "hospital", "healthcare": "hospital", "name": "Todd Cancer Center"}}, {"name": "Riverside Medical Center (Urgent)", "latitude": 33.9432119, "longitude": -117.396106, "source": "osm", "_tags": {"amenity": "hospital", "healthcare": "hospital", "name": "Riverside Medical Center (Urgent)"}}, {"name": "Beaver Medical Group", "latitude": 34.0549683, "longitude": -117.146568, "source": "osm", "_tags": {"addr:city": "Redlands", "addr:housenumber": "1600", "addr:postcode": "92374", "addr:state": "CA", "addr:street": "East Citrus Avenue", "addr:unit": "A", "amenity": "hospital", "healthcare": "hospital", "name": "Beaver Medical Group"}}, {"name": "Kaiser Permanente Moreno Valley Medical Center", "latitude": 33.896642, "longitude": -117.187726, "source": "osm", "_tags": {"addr:city": "Moreno Valley", "addr:housenumber": "27300", "addr:postcode": "92555", "addr:state": "CA", "addr:street": "Iris Avenue", "addr:unit": "2", "amenity": "hospital", "healthcare": "hospital", "healthcare:speciality": "general;clinic", "name": "Kaiser Permanente Moreno Valley Medical Center", "operator": "Kaiser Permanente", "operator:short": "KP", "operator:website": "https://healthy.kaiserpermanente.org/", "operator:wikidata": "Q1721601", "operator:wikipedia": "en:Kaiser Permanente", "phone": "1-833-574-2273"}}, {"name": "Riverside University Health System Medical Center", "latitude": 33.910788, "longitude": -117.1959602, "source": "osm", "_tags": {"addr:city": "Moreno Valley", "addr:housenumber": "26520", "addr:postcode": "92555", "addr:state": "CA", "addr:street": "Cactus Avenue", "addr:unit": "2", "amenity": "hospital", "emergency": "yes", "healthcare": "hospital", "healthcare:speciality": "radiology;general;paediatrics;clinic;surgery", "name": "Riverside University Health System Medical Center", "phone": "1-951-486-4000"}}, {"name": "Emergency Room Entrance", "latitude": 34.0509016, "longitude": -117.2499686, "source": "osm", "_tags": {"addr:city": "Loma Linda", "addr:housenumber": "11201", "addr:postcode": "92357", "addr:state": "CA", "addr:street": "Benton Street", "amenity": "hospital", "emergency": "yes", "healthcare": "hospital", "name": "Emergency Room Entrance", "operator": "VHA", "operator:type": "government"}}, {"name": "EndoCare Center, Endodontic Office of Dr. John Yu", "latitude": 34.102044, "longitude": -118.1046952, "source": "osm", "_tags": {"addr:city": "San Gabriel", "addr:housenumber": "416", "addr:postcode": "91776", "addr:state": "CA", "addr:street": "W Las Tunas Drive", "addr:unit": "203", "amenity": "hospital", "healthcare": "dentist", "healthcare:speciality": "dentist;endodontics", "name": "EndoCare Center, Endodontic Office of Dr. John Yu", "operator": "Dr. John Yu", "operator:type": "business"}}, {"name": "Riverside University Health System - Arlington Recovery Community", "latitude": 33.9202519, "longitude": -117.4606551, "source": "osm", "_tags": {"addr:city": "Riverside", "addr:housenumber": "10001", "addr:postcode": "92503", "addr:state": "CA", "addr:street": "County Farm Road", "amenity": "hospital", "healthcare": "hospital", "name": "Riverside University Health System - Arlington Recovery Community", "operator": "Riverside University Health System"}}, {"name": "Newport Children's Medical Group", "latitude": 33.6124787, "longitude": -117.8708029, "source": "osm", "_tags": {"addr:city": "Newport Beach", "addr:housenumber": "1401", "addr:postcode": "92660", "addr:state": "CA", "addr:street": "Avocado Avenue", "addr:unit": "#802", "amenity": "hospital", "description": "Newport Children's Medical Group has been serving the greater Orange County area for over 45 years. By providing care and appointments seven days a week, we aim always to be there when our patients need us.", "email": "manager@newportchildren.com", "healthcare": "hospital", "healthcare:speciality": "paediatrics", "image": "https://local-platform.s3.us-east-2.amazonaws.com/location/logo/155140/iIYzV5bCSp7xTkmyPtJ6WBIa0zUTuaOFf4itX7Jg.png", "name": "Newport Children's Medical Group", "phone": "949-644-0970", "website": "https://www.newportchildren.com/"}}, {"name": "Aurora Charter Oak", "latitude": 34.1000019, "longitude": -117.8664316, "source": "osm", "_tags": {"addr:city": "Covina", "addr:housenumber": "1161", "addr:postcode": "91724-1523", "addr:street": "East Covina Boulevard", "amenity": "hospital", "beds": "134", "healthcare": "hospital", "healthcare:speciality": "psychiatry", "name": "Aurora Charter Oak", "phone": "+1 626 966 1632", "website": "https://www.charteroakhospital.com"}}, {"name": "Encompass Health Rehabilitation Hospital Of Murrieta", "latitude": 33.6065809, "longitude": -117.1620204, "source": "osm", "_tags": {"addr:city": "Murrieta", "addr:housenumber": "35470", "addr:postcode": "92563-2415", "addr:street": "Whitewood Road", "amenity": "hospital", "beds": "50", "healthcare": "rehabilitation", "name": "Encompass Health Rehabilitation Hospital Of Murrieta", "phone": "+1 951 246 6521", "website": "https://encompasshealth.com/locations/murrietarehab"}}, {"name": "Bellflower Behavioral Health Hospital", "latitude": 33.8743136, "longitude": -118.1297319, "source": "osm", "_tags": {"amenity": "hospital", "beds": "32", "healthcare": "hospital", "healthcare:speciality": "psychiatry", "name": "Bellflower Behavioral Health Hospital", "phone": "+1 562 925 8355", "website": "https://www.lach-bellflower.com"}}, {"name": "L.A. Downtown Medical Center - Ingleside Campus", "latitude": 34.0695661, "longitude": -118.1056885, "source": "osm", "_tags": {"addr:city": "Rosemead", "addr:housenumber": "7500", "addr:postcode": "91770-2216", "addr:street": "Hellman Avenue", "amenity": "hospital", "beds": "118", "healthcare": "hospital", "healthcare:speciality": "psychiatry", "name": "L.A. Downtown Medical Center - Ingleside Campus", "phone": "+1 626 288 1160", "website": "https://ladowntownmc.com"}}, {"name": "BHC Alhambra Hospital", "latitude": 34.0884364, "longitude": -118.0740196, "source": "osm", "_tags": {"addr:city": "Rosemead", "addr:housenumber": "4619", "addr:postcode": "91770-1478", "addr:street": "Rosemead Boulevard", "amenity": "hospital", "beds": "97", "healthcare": "hospital", "healthcare:speciality": "psychiatry", "name": "BHC Alhambra Hospital", "phone": "+1 626 286 1191", "website": "https://www.bhcalhambra.com"}}, {"name": "Vibra Rehabilitation Hospital Of Rancho Mirage", "latitude": 33.81487, "longitude": -116.43945, "source": "osm", "_tags": {"addr:city": "Rancho Mirage", "addr:housenumber": "70077", "addr:postcode": "92270", "addr:street": "Ramon Road", "amenity": "hospital", "beds": "50", "healthcare": "rehabilitation", "name": "Vibra Rehabilitation Hospital Of Rancho Mirage", "phone": "+1 442 241 7842", "website": "https://vrhranchomirage.com"}}, {"name": "Newport Bay Hospital", "latitude": 33.6222852, "longitude": -117.9075358, "source": "osm", "_tags": {"amenity": "hospital", "beds": "36", "healthcare": "hospital", "healthcare:speciality": "psychiatry", "name": "Newport Bay Hospital", "phone": "+1 949 395 1813", "website": "https://www.newportbayhospitalca.com"}}, {"name": "Kindred Hospital Westminster", "latitude": 33.7635332, "longitude": -117.995256, "source": "osm", "_tags": {"addr:city": "Westminster", "addr:housenumber": "200", "addr:postcode": "92683-3910", "addr:street": "Hospital Circle", "amenity": "hospital", "beds": "109", "healthcare": "hospital", "name": "Kindred Hospital Westminster", "phone": "+1 714 893 4541", "website": "https://www.kindredhospitals.com/locations/ltac/kindred-hospital-westminster"}}, {"name": "SoCal K9 Clinic City of Industry", "latitude": 34.0140749, "longitude": -117.972411, "source": "osm", "_tags": {"amenity": "hospital", "description": "SoCal K9 Clinic City of Industry is a full-service veterinary hospital that provides comprehensive veterinary services for pets with the latest equipment and advanced techniques in City of Industry, CA, and the surrounding area.", "email": "SoCalK9ClinicCOI@gmail.com", "emergency": "yes", "healthcare": "hospital", "healthcare:speciality": "veterinarian", "logo": "https://socalk9cliniccoi.com/wp-content/uploads/2023/01/SoCalK9Industry-263x300.png", "name": "SoCal K9 Clinic City of Industry", "opening_hours": "Mo-Fr 09:00-17:00; Sa-Su 09:00-21:00", "phone": "+1-562-203-1644", "website": "https://socalk9cliniccoi.com"}}, {"name": "Orange County Surgical Specialists - Facial Plastic Surgery", "latitude": 33.6382103, "longitude": -117.610258, "source": "osm", "_tags": {"addr:city": "Rancho Santa Margarita", "addr:housenumber": "29829", "addr:postcode": "92688", "addr:state": "CA", "addr:street": "Santa Margarita Parkway", "addr:unit": "300", "amenity": "hospital", "description": "Orange County Surgical Specialists provides state-of-the-art care for patients seeking facial cosmetic surgery in Mission Viejo, Orange County, and beyond.", "emergency": "yes", "healthcare": "hospital", "healthcare:speciality": "plastic_surgery", "mobile": "949-888-0332", "name": "Orange County Surgical Specialists - Facial Plastic Surgery", "opening_hours": "Mon-Tue,Thu : 08:00AM-05:00PM, Wed : 09:00AM-03:00PM, Fri : 08:00AM-04:00PM", "payment:cash": "yes", "payment:credit_cards": "yes", "payment:debit_cards": "yes", "payment:maestro": "yes", "payment:mastercard": "yes", "payment:visa": "yes", "payment:visa_debit": "yes", "website": "https://www.facialplasticsoc.com"}}, {"name": "Parkview Community Hospital", "latitude": 33.9254916, "longitude": -117.4384422, "source": "osm", "_tags": {"addr:street": "Magnolia", "amenity": "hospital", "name": "Parkview Community Hospital"}}, {"name": "Veterinary Surgical Specialists", "latitude": 33.7081964, "longitude": -117.807211, "source": "osm", "_tags": {"addr:city": "Tustin", "addr:housenumber": "2937", "addr:postcode": "92780", "addr:state": "CA", "addr:street": "Edinger Avenue", "amenity": "hospital", "contact:facebook": "https://www.facebook.com/VSSOC", "description": "Veterinary Surgical Specialists (VSS) is one of Orange County’s most experienced and technically advanced teams of board-certified veterinary surgeons.", "email": "info@vssoc.com", "healthcare": "hospital", "healthcare:speciality": "veterinarian", "name": "Veterinary Surgical Specialists", "opening_hours": "Mon-Fri 7am-6pm; Sat-Sun 8am-6pm", "payment:american_express": "yes", "payment:carecredit": "yes", "payment:cash": "yes", "payment:debit_cards": "yes", "payment:discover_card": "yes", "payment:mastercard": "yes", "payment:scratch": "yes", "payment:visa": "yes", "phone": "949-936-0055", "start_date": "1990-01-01", "website": "https://www.vssoc.com/"}}, {"name": "Wings Recovery", "latitude": 33.162103, "longitude": -117.3466591, "source": "osm", "_tags": {"addr:city": "Carlsbad", "addr:housenumber": "785", "addr:postcode": "92008", "addr:state": "CA", "addr:street": "Grand Ave", "addr:unit": "#101", "amenity": "hospital", "contact:facebook": "https://www.facebook.com/wingsrecovery", "description": "Wings Recovery in Carlsbad, CA, offers comprehensive mental health services for lasting recovery and wellness.", "email": "info@wingsrecovery.org", "healthcare": "hospital", "healthcare:speciality": "mental_health_clinic", "name": "Wings Recovery", "phone": "(888) 790-9377", "website": "https://www.wingsrecovery.org/"}}, {"name": "SoCal Youth Center of Orange County", "latitude": 33.6825009, "longitude": -117.8686677, "source": "osm", "_tags": {"addr:city": "Costa Mesa", "addr:housenumber": "3188", "addr:postcode": "92626", "addr:state": "CA", "addr:street": "Airway Ave Building L", "amenity": "hospital", "contact:facebook": "https://www.facebook.com/SoCalYouthCenter", "description": "Mental health clinic in Costa Mesa, California", "healthcare": "hospital", "healthcare:speciality": "mental_health_clinic", "image": "https://lh5.googleusercontent.com/p/AF1QipNcS7GLRN6q08FXEZtReQoU9B9xaztPpF5yyE0R=s705-k-no", "name": "SoCal Youth Center of Orange County", "phone": "(714) 716-5044", "website": "https://socalyouthcenter.com/"}}, {"name": "TMJ & Sleep Therapy Centre of Temecula and Hemet", "latitude": 33.4845749, "longitude": -117.1024917, "source": "osm", "_tags": {"addr:city": "Temecula", "addr:housenumber": "43950", "addr:postcode": "92592", "addr:state": "CA", "addr:street": "Margarita Road", "addr:unit": "101", "amenity": "hospital", "contact:facebook": "https://www.facebook.com/SoCalTMJandSleep", "email": "info@socaltmj.com", "healthcare": "hospital", "name": "TMJ & Sleep Therapy Centre of Temecula and Hemet", "opening_hours": "Mo-Fr 08:00-16:30", "phone": "+1-951-331-3237", "website": "https://socaltmj.com/"}}, {"name": "Fountain Valley Regional Hospital and Medical Center", "latitude": 33.7144654, "longitude": -117.934843, "source": "osm", "_tags": {"addr:city": "Fountain Valley", "addr:housenumber": "17100", "addr:postcode": "92708", "addr:state": "CA", "addr:street": "Euclid Street", "amenity": "hospital", "emergency": "yes", "healthcare": "hospital", "name": "Fountain Valley Regional Hospital and Medical Center", "opening_hours": "24/7", "operator": "TH Medical", "phone": "+1-714-966-7200", "website": "https://www.fountainvalleyhospital.com/"}}, {"name": "USC Arcadia Hospital", "latitude": 34.1341498, "longitude": -118.0421118, "source": "osm", "_tags": {"addr:city": "Arcadia", "addr:housenumber": "300", "addr:postcode": "91007", "addr:state": "CA", "addr:street": "West Huntington Drive", "amenity": "hospital", "check_date": "2025-08-15", "contact:facebook": "https://www.facebook.com/uscarcadiahospital", "contact:linkedin": "https://www.linkedin.com/company/methodist-hospital-of-southern-california", "contact:twitter": "https://twitter.com/USCArcadia", "contact:youtube": "https://www.youtube.com/c/USCArcadiaHospital", "emergency": "yes", "gnis:feature_id": "1661016", "healthcare": "hospital", "name": "USC Arcadia Hospital", "old_name": "Arcadia Methodist Hospital", "opening_hours": "24/7", "operator": "Keck Medicine of USC", "operator:wikidata": "Q4119822", "phone": "+1 626 898 8000", "website": "https://www.uscarcadiahospital.org/"}}, {"name": "Mission Hospital Laguna Beach", "latitude": 33.5006573, "longitude": -117.7403818, "source": "osm", "_tags": {"addr:city": "Laguna Beach", "addr:housenumber": "31872", "addr:postcode": "92651", "addr:state": "CA", "addr:street": "Coast Highway", "amenity": "hospital", "emergency": "yes", "gnis:feature_id": "1765865", "healthcare": "hospital", "name": "Mission Hospital Laguna Beach", "old_name": "South Coast Medical Center Hospital", "opening_hours": "24/7", "operator": "Saint Joseph Health", "phone": "+1 949 499 1311", "source": "yahoo_imagery;survey;image", "source_ref": "AM909_DSCU2826", "website": "https://www.mission4health.com/"}}, {"name": "Kaiser Permanente Racho Cucamonga Medical Offices", "latitude": 34.1000524, "longitude": -117.5681293, "source": "osm", "_tags": {"amenity": "hospital", "healthcare": "hospital", "name": "Kaiser Permanente Racho Cucamonga Medical Offices", "operator": "Kaiser Permanente", "operator:short": "KP", "operator:website": "https://healthy.kaiserpermanente.org/", "operator:wikidata": "Q1721601", "operator:wikipedia": "en:Kaiser Permanente"}}, {"name": "Kaiser Permanente Orange County-Irvine Medical Center", "latitude": 33.6573191, "longitude": -117.7737925, "source": "osm", "_tags": {"addr:city": "Irvine", "addr:housenumber": "6640", "addr:postcode": "92618", "addr:state": "CA", "addr:street": "Alton Parkway", "amenity": "hospital", "emergency": "yes", "healthcare": "hospital", "name": "Kaiser Permanente Orange County-Irvine Medical Center", "opening_hours": "24/7", "operator": "Kaiser Permanente", "operator:short": "KP", "operator:type": "private", "operator:website": "https://healthy.kaiserpermanente.org/", "operator:wikidata": "Q1721601", "operator:wikipedia": "en:Kaiser Permanente", "phone": "+1 949 932 5000", "website": "https://thrive.kaiserpermanente.org/care-near-you/southern-california/orange-county/locations/orange-county-irvine-medical-center/", "wikidata": "Q50039576"}}, {"name": "Kaiser Permanente Riverside Medical Center", "latitude": 33.9049907, "longitude": -117.4692895, "source": "osm", "_tags": {"addr:city": "Riverside", "addr:housenumber": "10800", "addr:postcode": "92505", "addr:street": "Magnolia Avenue", "amenity": "hospital", "emergency": "yes", "gnis:feature_id": "2455530", "healthcare": "hospital", "name": "Kaiser Permanente Riverside Medical Center", "opening_hours": "24/7", "operator": "Kaiser Permanente", "operator:short": "KP", "operator:website": "https://healthy.kaiserpermanente.org/", "operator:wikidata": "Q1721601", "operator:wikipedia": "en:Kaiser Permanente", "phone": "+1 951 353 2000", "source": "Tiger2009", "website": "https://thrive.kaiserpermanente.org/care-near-you/southern-california/riverside-county/locations/riverside-medical-center/"}}, {"name": "Parkview Community Hospital", "latitude": 33.9269416, "longitude": -117.4391601, "source": "osm", "_tags": {"addr:city": "Riverside", "addr:housenumber": "3865", "addr:postcode": "92503", "addr:street": "Jackson Street", "amenity": "hospital", "emergency": "yes", "healthcare": "hospital", "name": "Parkview Community Hospital", "opening_hours": "24/7", "phone": "+1 951 688 2211", "website": "https://www.pchmc.org/"}}, {"name": "Kaiser Permanente Baldwin Park Medical Center", "latitude": 34.0651278, "longitude": -117.9858474, "source": "osm", "_tags": {"addr:city": "Baldwin Park", "addr:housenumber": "1011", "addr:postcode": "91706", "addr:state": "CA", "addr:street": "Baldwin Park Boulevard", "amenity": "hospital", "email": "kpbaldwinpark@kp.org", "emergency": "yes", "healthcare": "hospital", "name": "Kaiser Permanente Baldwin Park Medical Center", "opening_hours": "24/7", "operator": "Kaiser Permanente", "operator:short": "KP", "operator:website": "https://healthy.kaiserpermanente.org/", "operator:wikidata": "Q1721601", "operator:wikipedia": "en:Kaiser Permanente", "phone": "+1 626 851 1011", "urgent_care": "yes", "website": "https://thrive.kaiserpermanente.org/care-near-you/southern-california/baldwin-park/locations/baldwin-park-medical-center/"}}, {"name": "San Antonio Regional Hospital", "latitude": 34.1016454, "longitude": -117.6373388, "source": "osm", "_tags": {"addr:city": "Upland", "addr:housenumber": "999", "addr:postcode": "91786", "addr:state": "CA", "addr:street": "San Bernardino Road", "amenity": "hospital", "emergency": "yes", "gnis:feature_id": "1661374", "healthcare": "hospital", "name": "San Antonio Regional Hospital", "opening_hours": "24/7", "phone": "+1 909 985 2811", "website": "https://www.sarh.org/", "wikidata": "Q7413314", "wikipedia": "en:San Antonio Regional Hospital"}}, {"name": "Hoag Memorial Hospital Presbyterian", "latitude": 33.6235827, "longitude": -117.9326588, "source": "osm", "_tags": {"addr:city": "Newport Beach", "addr:housenumber": "1", "addr:postcode": "92663", "addr:state": "CA", "addr:street": "Hoag Drive", "alt_name": "Hoag Hospital", "amenity": "hospital", "emergency": "yes", "gnis:feature_id": "1660751", "healthcare": "hospital", "name": "Hoag Memorial Hospital Presbyterian", "opening_hours": "24/7", "operator": "Hoag", "operator:type": "private", "operator:wikidata": "Q130527108", "phone": "+1 949 764 4624", "source": "survey;image;usgs_imagery;web", "source_ref": "AM909_DSCU4373", "website": "http://www.hoaghospital.org/", "wikidata": "Q5874290"}}, {"name": "Kaiser Permanente Orange County – Anaheim Medical Center", "latitude": 33.8525617, "longitude": -117.844489, "source": "osm", "_tags": {"addr:city": "Anaheim", "addr:housenumber": "3440", "addr:postcode": "92806", "addr:state": "CA", "addr:street": "East La Palma Avenue", "amenity": "hospital", "emergency": "yes", "healthcare": "hospital", "name": "Kaiser Permanente Orange County – Anaheim Medical Center", "opening_hours": "24/7", "operator": "Kaiser Permanente", "operator:short": "KP", "operator:type": "private", "operator:website": "https://healthy.kaiserpermanente.org/", "operator:wikidata": "Q1721601", "operator:wikipedia": "en:Kaiser Permanente", "phone": "+1-833-574-2273", "source": "survey;image;usgs_imagery;CDOT", "source_ref": "AM909_DSCU4031", "start_date": "2013", "website": "https://healthy.kaiserpermanente.org/southern-california/facilities/Orange-County-Anaheim-Medical-Center-100173"}}, {"name": "Community Medical Center Long Beach", "latitude": 33.7889068, "longitude": -118.1446744, "source": "osm", "_tags": {"addr:city": "Long Beach", "addr:country": "US", "addr:housenumber": "1720", "addr:postcode": "90804", "addr:state": "CA", "addr:street": "Termino Avenue", "amenity": "hospital", "emergency": "yes", "gnis:feature_id": "1732984", "healthcare": "hospital", "name": "Community Medical Center Long Beach", "opening_hours": "24/7", "operator": "MemorialCare", "phone": "+1 562 933 9000", "source": "usgs_imagery;survey;image", "source_ref": "AM909_DSCU1557", "website": "https://www.memorialcare.org/community-medical-center-long-beach", "wikidata": "Q5154790", "wikipedia": "en:Community Medical Center Long Beach"}}, {"name": "San Gabriel Valley Medical Center", "latitude": 34.1009751, "longitude": -118.1059161, "source": "osm", "_tags": {"addr:city": "San Gabriel", "addr:housenumber": "438", "addr:postcode": "91776", "addr:street": "West Las Tunas Drive", "amenity": "hospital", "beds": "273", "emergency": "yes", "healthcare": "hospital", "name": "San Gabriel Valley Medical Center", "name:zh": "圣盖博", "opening_hours": "24/7", "operator": "AHMC Healthcare", "phone": "+1 626 289 5454", "source": "usgs_imagery;survey;image", "source_ref": "AM909_DSCU3306", "website": "https://www.sgvmc.com/"}}, {"name": "Mission Hospital", "latitude": 33.5615717, "longitude": -117.6653875, "source": "osm", "_tags": {"addr:city": "Mission Viejo", "addr:housenumber": "27700", "addr:postcode": "92691", "addr:street": "Medical Center Road", "amenity": "hospital", "beds": "523", "emergency": "yes", "gnis:feature_id": "1765825", "healthcare": "hospital", "name": "Mission Hospital", "opening_hours": "24/7", "operator": "Saint Joseph Health", "phone": "+1 949 364 1400", "source": "yahoo_imagery;survey;image", "source_ref": "AM909_DSCV0075;AM909_DSCV0079", "website": "https://www.mission4health.com/", "wheelchair": "yes", "wikidata": "Q6878614", "wikipedia": "en:Mission Hospital (Mission Viejo, California)"}}, {"name": "Temecula Valley Hospital", "latitude": 33.481096, "longitude": -117.1066934, "source": "osm", "_tags": {"addr:city": "Temecula", "addr:housenumber": "31700", "addr:postcode": "92592", "addr:street": "Temecula Parkway", "alt_name": "Temecula Medical Center", "amenity": "hospital", "beds": "140", "emergency": "yes", "healthcare": "hospital", "name": "Temecula Valley Hospital", "opening_hours": "24/7", "operator": "Universal Health Services", "operator:short": "UHS", "operator:wikidata": "Q7893967", "phone": "+1 951 331 2200", "source": "survey;bing_imagery", "source_ref": "vvvexp97", "website": "https://www.temeculavalleyhospital.com/"}}, {"name": "Riverside University Health System - Medical Center", "latitude": 33.9118951, "longitude": -117.1965165, "source": "osm", "_tags": {"addr:city": "Moreno Valley", "addr:country": "US", "addr:housenumber": "26520", "addr:postcode": "92555", "addr:state": "CA", "addr:street": "Cactus Avenue", "amenity": "hospital", "beds": "439", "emergency": "yes", "healthcare": "hospital", "healthcare:trauma": "yes", "healthcare:trauma:level": "2", "name": "Riverside University Health System - Medical Center", "old_name": "Riverside County Regional Medical Center", "opening_hours": "24/7", "operator": "Riverside University Health System", "phone": "+1 951 486 4000", "short_name": "RUHS-MC", "website": "https://www.ruhealth.org/", "wikidata": "Q7338469", "wikipedia": "en:Riverside University Health System Medical Center"}}, {"name": "Loma Linda University Medical Center - Murrieta", "latitude": 33.6149871, "longitude": -117.1685755, "source": "osm", "_tags": {"addr:city": "Murrieta", "addr:housenumber": "28062", "addr:postcode": "92563", "addr:street": "Baxter Road", "amenity": "hospital", "emergency": "yes", "healthcare": "hospital", "name": "Loma Linda University Medical Center - Murrieta", "opening_hours": "24/7", "operator": "Loma Linda University Health", "phone": "+1 951 290 4000", "source": "bing_imagery_0.25m_201005;survey;image", "source_ref": "AM909_DSCX9456;AM909_DSCY1288", "website": "https://murrieta.lomalindahealth.org/"}}, {"name": "Riverside Community Hospital", "latitude": 33.9766641, "longitude": -117.3826452, "source": "osm", "_tags": {"addr:city": "Riverside", "addr:housenumber": "4445", "addr:postcode": "92501", "addr:street": "Magnolia Avenue", "amenity": "hospital", "emergency": "yes", "gnis:feature_id": "1848771", "healthcare": "hospital", "healthcare:trauma": "yes", "healthcare:trauma:level": "2", "name": "Riverside Community Hospital", "opening_hours": "24/7", "operator": "HCA", "operator:wikidata": "Q1630431", "phone": "+1 951 788 3000", "website": "https://riversidecommunityhospital.com/", "wikidata": "Q50037008"}}, {"name": "Palomar Medical Center", "latitude": 33.1205084, "longitude": -117.1209585, "source": "osm", "_tags": {"addr:country": "US", "addr:housenumber": "2185", "addr:street": "West Citracado Parkway", "amenity": "hospital", "emergency": "yes", "healthcare": "hospital", "landuse": "industrial", "name": "Palomar Medical Center", "operator": "Palomar Health", "source": "SanGIS Addresses Public Domain (http://www.sangis.org/)", "website": "http://www.palomarhealth.org/ContentPage.aspx?nd=980"}}, {"name": "Rancho Springs Medical Center", "latitude": 33.5585532, "longitude": -117.1831997, "source": "osm", "_tags": {"addr:city": "Murrieta", "addr:housenumber": "25500", "addr:postcode": "92562", "addr:street": "Medical Center Drive", "amenity": "hospital", "emergency": "yes", "healthcare": "hospital", "name": "Rancho Springs Medical Center", "opening_hours": "24/7", "operator": "Universal Health Services", "operator:short": "UHS", "operator:wikidata": "Q7893967", "phone": "+1 951 696 6000", "website": "https://www.ranchospringsmedcenter.com/"}}, {"name": "Chino Valley Medical Center", "latitude": 34.0255222, "longitude": -117.685015, "source": "osm", "_tags": {"addr:city": "Chino", "addr:housenumber": "5451", "addr:postcode": "91710", "addr:street": "Walnut Avenue", "amenity": "hospital", "beds": "112", "emergency": "yes", "gnis:feature_id": "1844477", "healthcare": "hospital", "name": "Chino Valley Medical Center", "old_name": "Chino Community Hospital", "opening_hours": "24/7", "operator": "Prime Healthcare Services", "operator:wikidata": "Q7243267", "phone": "+1 909 464 8600", "source": "bing_imagery_0.06m_200701", "website": "https://www.cvmc.com/", "wikidata": "Q5101220", "wikipedia": "en:Chino Valley Medical Center"}}, {"name": "Saint Mary Medical Center", "latitude": 34.542176, "longitude": -117.2651752, "source": "osm", "_tags": {"addr:city": "Apple Valley", "addr:housenumber": "18300", "addr:postcode": "92307", "addr:street": "Highway 18", "amenity": "hospital", "emergency": "yes", "gnis:feature_id": "1841605", "healthcare": "hospital", "name": "Saint Mary Medical Center", "old_name": "Saint Mary Desert Valley Hospital", "opening_hours": "24/7", "operator": "Saint Joseph Health", "phone": "+1 760 242 2311", "website": "https://www.stmaryapplevalley.com/"}}, {"name": "Inland Valley Medical Center", "latitude": 33.5914336, "longitude": -117.2383454, "source": "osm", "_tags": {"addr:city": "Wildomar", "addr:housenumber": "36485", "addr:postcode": "92595", "addr:street": "Inland Valley Drive", "amenity": "hospital", "beds": "122", "emergency": "yes", "healthcare": "hospital", "name": "Inland Valley Medical Center", "opening_hours": "24/7", "operator": "Universal Health Services", "operator:short": "UHS", "operator:wikidata": "Q7893967", "phone": "+1 951 677 1111", "source": "survey", "website": "https://www.inlandvalleymedcenter.com/"}}, {"name": "Patton State Hospital", "latitude": 34.1394954, "longitude": -117.2196468, "source": "osm", "_tags": {"addr:city": "Patton", "addr:housenumber": "3102", "addr:postcode": "92369", "addr:street": "East Highland Avenue", "amenity": "hospital", "emergency": "no", "gnis:feature_id": "1661201", "healthcare": "hospital", "name": "Patton State Hospital", "operator": "CA Dept of Mental Health", "phone": "+1 909 425 7000", "url": "http://www.dmh.ca.gov/services_and_programs/state_hospitals/patton/default.asp", "website": "https://www.dsh.ca.gov/patton/", "wikidata": "Q7148648", "wikipedia": "en:Patton State Hospital"}}, {"name": "", "latitude": 33.7194348, "longitude": -117.1678442, "source": "osm", "_tags": {"addr:city": "Menifee", "addr:housenumber": "28400", "addr:postcode": "92585", "addr:street": "McCall Boulevard", "amenity": "hospital", "emergency": "yes", "gnis:feature_id": "1849217", "healthcare": "hospital", "opening_hours": "24/7", "phone": "+1 951 679 8888", "website": "https://menifeeglobalmedicalcenter.com/"}}, {"name": "Arrowhead Regional Medical Center", "latitude": 34.0741995, "longitude": -117.3507061, "source": "osm", "_tags": {"addr:city": "Colton", "addr:housenumber": "400", "addr:postcode": "92324", "addr:street": "North Pepper Avenue", "amenity": "hospital", "emergency": "yes", "gnis:feature_id": "2097342", "healthcare": "hospital", "healthcare:trauma": "yes", "healthcare:trauma:level": "2", "name": "Arrowhead Regional Medical Center", "opening_hours": "24/7", "phone": "+1 909 580 1000", "website": "https://www.arrowheadmedcenter.org/", "wikidata": "Q4796185", "wikipedia": "en:Arrowhead Regional Medical Center"}}, {"name": "Community Hospital of San Bernardino", "latitude": 34.13174, "longitude": -117.3203784, "source": "osm", "_tags": {"addr:city": "San Bernardino", "addr:housenumber": "1805", "addr:postcode": "92411", "addr:street": "Medical Center Drive", "amenity": "hospital", "beds": "343", "emergency": "yes", "gnis:feature_id": "1842010", "healthcare": "hospital", "name": "Community Hospital of San Bernardino", "opening_hours": "24/7", "operator": "Dignity Health", "operator:wikidata": "Q5276334", "phone": "+1 909 887 6333", "website": "https://www.dignityhealth.org/socal/locations/san-bernardino", "wikidata": "Q5154793", "wikipedia": "en:Community Hospital of San Bernardino"}}, {"name": "Saint Bernardine Medical Center", "latitude": 34.1349946, "longitude": -117.2756821, "source": "osm", "_tags": {"addr:city": "San Bernardino", "addr:housenumber": "2101", "addr:postcode": "92404", "addr:state": "CA", "addr:street": "North Waterman Avenue", "amenity": "hospital", "beds": "342", "denomination": "roman_catholic", "emergency": "yes", "healthcare": "hospital", "name": "Saint Bernardine Medical Center", "opening_hours": "24/7", "operator": "Dignity Health", "operator:wikidata": "Q5276334", "phone": "+1 909 883 8711", "religion": "christian", "website": "https://www.dignityhealth.org/socal/locations/stbernardinemedical"}}, {"name": "Kindred Hospital", "latitude": 33.9344768, "longitude": -117.8940162, "source": "osm", "_tags": {"amenity": "hospital", "building": "hospital", "emergency": "no", "healthcare": "hospital", "name": "Kindred Hospital"}}, {"name": "Kaiser Permanente Moreno Valley Community Hospital", "latitude": 33.8973496, "longitude": -117.1867386, "source": "osm", "_tags": {"addr:city": "Moreno Valley", "addr:housenumber": "27300", "addr:postcode": "92555", "addr:state": "CA", "addr:street": "Iris Avenue", "alt_name": "Moreno Valley Medical Center", "amenity": "hospital", "emergency": "yes", "gnis:feature_id": "1844804", "healthcare": "hospital", "name": "Kaiser Permanente Moreno Valley Community Hospital", "opening_hours": "24/7", "operator": "Kaiser Permanente", "operator:short": "KP", "operator:website": "https://healthy.kaiserpermanente.org/", "operator:wikidata": "Q1721601", "operator:wikipedia": "en:Kaiser Permanente", "phone": "+1 951 243 0811", "source": "bing_imagery_0.25m_201005;survey;image;GNIS", "source_ref": "AM909_DSCY0056;AM909_DSCY0087", "website": "https://thrive.kaiserpermanente.org/care-near-you/southern-california/riverside-county/locations/moreno-valley-medical-center/"}}, {"name": "UCI Medical Center", "latitude": 33.7873452, "longitude": -117.8876498, "source": "osm", "_tags": {"addr:city": "Orange", "addr:housenumber": "101", "addr:postcode": "92868", "addr:state": "CA", "addr:street": "The City Drive South", "amenity": "hospital", "emergency": "yes", "healthcare": "hospital", "name": "UCI Medical Center", "opening_hours": "24/7", "operator": "UC Irvine Health", "phone": "+1 714 456 7890", "website": "http://www.ucirvinehealth.org/", "wikidata": "Q450401", "wikipedia": "en:University of California, Irvine Medical Center"}}, {"name": "Huntington Hospital", "latitude": 34.1336537, "longitude": -118.1522405, "source": "osm", "_tags": {"addr:city": "Pasadena", "addr:housenumber": "100", "addr:postcode": "91105", "addr:street": "West California Boulevard", "alt_name": "Huntington Memorial Hospital", "amenity": "hospital", "beds": "619", "emergency": "yes", "healthcare": "hospital", "name": "Huntington Hospital", "opening_hours": "24/7", "phone": "+1 626 421 7733", "website": "https://www.huntingtonhospital.org/", "wikidata": "Q5945374"}}, {"name": "Orange Coast Memorial Medical Center", "latitude": 33.7005031, "longitude": -117.9563173, "source": "osm", "_tags": {"addr:city": "Fountain Valley", "addr:housenumber": "18111", "addr:postcode": "92708", "addr:street": "Brookhurst Street", "amenity": "hospital", "emergency": "yes", "healthcare": "hospital", "name": "Orange Coast Memorial Medical Center", "opening_hours": "24/7", "operator": "MemorialCare", "phone": "+1 714 378 7000", "website": "https://www.memorialcare.org/orange-coast-medical-center", "wheelchair": "yes", "wikidata": "Q7099537", "wikipedia": "en:Orange Coast Memorial Medical Center"}}, {"name": "Kindred Hospital - Brea", "latitude": 33.9349363, "longitude": -117.8940529, "source": "osm", "_tags": {"addr:city": "Brea", "addr:housenumber": "875", "addr:postcode": "92821", "addr:street": "North Brea Boulevard", "amenity": "hospital", "emergency": "no", "healthcare": "hospital", "name": "Kindred Hospital - Brea", "operator": "Kindred Healthcare", "operator:type": "private", "operator:wikidata": "Q921363", "phone": "+1 714 529 6842", "website": "https://www.kindredhealthcare.com/locations/transitional-care-hospitals/kindred-hospital-brea"}}, {"name": "Garden Grove Hospital And Medical Center", "latitude": 33.7753826, "longitude": -117.9128741, "source": "osm", "_tags": {"addr:city": "Garden Grove", "addr:housenumber": "12601", "addr:postcode": "92843", "addr:state": "CA", "addr:street": "Garden Grove Boulevard", "amenity": "hospital", "beds": "167", "emergency": "yes", "healthcare": "hospital", "name": "Garden Grove Hospital And Medical Center", "opening_hours": "24/7", "operator": "Prime Healthcare Services", "operator:type": "private", "operator:wikidata": "Q7243267", "operator:wikipedia": "en:Prime Healthcare Services", "phone": "+1 714 537 5160", "website": "https://www.gardengrovehospital.com/"}}, {"name": "Antelope Valley Hospital", "latitude": 34.686645, "longitude": -118.1595487, "source": "osm", "_tags": {"addr:city": "Lancaster", "addr:housenumber": "1600", "addr:postcode": "93534", "addr:street": "West Avenue J", "amenity": "hospital", "beds": "420", "check_date": "2024-05-16", "emergency": "yes", "gnis:feature_id": "1733559", "healthcare": "hospital", "name": "Antelope Valley Hospital", "opening_hours": "24/7", "phone": "+1 661 949 5000", "website": "https://www.avhospital.org/", "wikidata": "Q4771202", "wikipedia": "en:Antelope Valley Hospital"}}, {"name": "Chapman Global Medical Center", "latitude": 33.789025, "longitude": -117.8268069, "source": "osm", "_tags": {"addr:city": "Orange", "addr:housenumber": "2601", "addr:postcode": "92869", "addr:street": "East Chapman Avenue", "amenity": "hospital", "beds": "114", "emergency": "yes", "healthcare": "hospital", "name": "Chapman Global Medical Center", "opening_hours": "24/7", "phone": "+1 714 633 0011", "website": "https://chapman-gmc.com/"}}, {"name": "Anaheim Regional Medical Center", "latitude": 33.8482106, "longitude": -117.9345871, "source": "osm", "_tags": {"addr:city": "Anaheim", "addr:housenumber": "1111", "addr:postcode": "92801", "addr:state": "CA", "addr:street": "West La Palma Avenue", "amenity": "hospital", "beds": "223", "emergency": "yes", "gnis:feature_id": "1765058", "healthcare": "hospital", "name": "Anaheim Regional Medical Center", "opening_hours": "24/7", "operator": "AHMC Healthcare", "phone": "+1 714 774 1450", "short_name": "ARMC", "website": "https://www.anaheimregionalmc.com/", "wikidata": "Q4750890", "wikipedia": "en:Anaheim Regional Medical Center"}}, {"name": "Rancho Los Amigos National Rehabilitation Center", "latitude": 33.9291815, "longitude": -118.1578705, "source": "osm", "_tags": {"addr:city": "Downey", "addr:housenumber": "7801", "addr:postcode": "90242", "addr:street": "East Imperial Highway", "amenity": "hospital", "emergency": "no", "gnis:feature_id": "1661280", "healthcare": "hospital", "name": "Rancho Los Amigos National Rehabilitation Center", "phone": "+1-877-726-2461", "website": "https://dhs.lacounty.gov/rancho/", "wikidata": "Q7291084", "wikipedia": "en:Rancho Los Amigos National Rehabilitation Center"}}, {"name": "Rancho Los Amigos South Campus", "latitude": 33.9222195, "longitude": -118.1614684, "source": "osm", "_tags": {"amenity": "hospital", "emergency": "no", "healthcare": "hospital", "name": "Rancho Los Amigos South Campus", "operator": "Los Angeles County Health Services", "operator:type": "government", "wikidata": "Q7291084", "wikipedia": "en:Rancho Los Amigos National Rehabilitation Center"}}, {"name": "Loma Linda University Behavioral Medicine Center", "latitude": 34.0492336, "longitude": -117.2123075, "source": "osm", "_tags": {"amenity": "hospital", "healthcare": "hospital", "healthcare:speciality": "psychiatry", "name": "Loma Linda University Behavioral Medicine Center", "operator": "Loma Linda University Health"}}, {"name": "Hathaway-Sycamores", "latitude": 34.1962016, "longitude": -118.1659446, "source": "osm", "_tags": {"addr:city": "Altadena", "addr:housenumber": "2933", "addr:postcode": "91001", "addr:street": "El Nido Drive", "amenity": "hospital", "emergency": "no", "healthcare": "hospital", "name": "Hathaway-Sycamores", "website": "http://www.hathaway-sycamores.org"}}, {"name": "Greater El Monte Community Hospital", "latitude": 34.0479864, "longitude": -118.0434166, "source": "osm", "_tags": {"addr:city": "South El Monte", "addr:housenumber": "1701", "addr:postcode": "91733", "addr:street": "Santa Anita Avenue", "amenity": "hospital", "beds": "117", "emergency": "yes", "gnis:feature_id": "1732321", "healthcare": "hospital", "name": "Greater El Monte Community Hospital", "opening_hours": "24/7", "operator": "AHMC", "phone": "+1 626 579 7777", "website": "https://www.greaterelmonte.com/"}}, {"name": "Huntington Beach Hospital And Medical Center", "latitude": 33.7038731, "longitude": -117.9873688, "source": "osm", "_tags": {"addr:city": "Huntington Beach", "addr:housenumber": "17772", "addr:postcode": "92647", "addr:street": "Beach Boulevard", "amenity": "hospital", "beds": "131", "emergency": "yes", "gnis:feature_id": "1765385", "healthcare": "hospital", "name": "Huntington Beach Hospital And Medical Center", "opening_hours": "24/7", "operator": "Prime Healthcare Services", "operator:wikidata": "Q7243267", "operator:wikipedia": "en:Prime Healthcare Services", "phone": "+1 714 843 5000", "source": "Bing", "website": "https://www.hbhospital.org/"}}, {"name": "Beverly Hospital", "latitude": 34.0151355, "longitude": -118.1009082, "source": "osm", "_tags": {"addr:city": "Montebello", "addr:country": "US", "addr:housenumber": "309", "addr:postcode": "90640", "addr:state": "CA", "addr:street": "West Beverly Boulevard", "amenity": "hospital", "beds": "224", "emergency": "yes", "gnis:feature_id": "1656437", "healthcare": "hospital", "name": "Beverly Hospital", "opening_hours": "24/7", "phone": "+1 323 726 1222", "source": "Bing", "website": "https://www.beverly.org/"}}, {"name": "PIH Health Hospital - Downey", "latitude": 33.9350593, "longitude": -118.1306052, "source": "osm", "_tags": {"addr:city": "Downey", "addr:housenumber": "11500", "addr:postcode": "90241", "addr:state": "CA", "addr:street": "Brookshire Avenue", "amenity": "hospital", "beds": "199", "emergency": "yes", "fax": "+1-562-904-5140", "gnis:feature_id": "1732255", "healthcare": "hospital", "name": "PIH Health Hospital - Downey", "opening_hours": "24/7", "operator": "PIH Health", "operator:type": "private_non_profit", "phone": "+1-562-904-5000", "website": "https://www.pihhealth.org/locations/locations-profile/?id=489", "wikidata": "Q5303133", "wikipedia": "en:PIH Health Hospital – Downey"}}, {"name": "Saddleback Medical Center", "latitude": 33.6085697, "longitude": -117.7095321, "source": "osm", "_tags": {"addr:city": "Laguna Hills", "addr:housenumber": "24451", "addr:postcode": "92653", "addr:street": "Health Center Drive", "amenity": "hospital", "emergency": "yes", "gnis:feature_id": "1765849", "healthcare": "hospital", "name": "Saddleback Medical Center", "opening_hours": "24/7", "operator": "MemorialCare", "phone": "+1 949 837 4500", "website": "https://www.memorialcare.org/saddleback-medical-center", "wikidata": "Q30280857"}}, {"name": "Mountains Community Hospital", "latitude": 34.2656656, "longitude": -117.1681454, "source": "osm", "_tags": {"addr:city": "Lake Arrowhead", "addr:housenumber": "29101", "addr:postcode": "92352", "addr:street": "Hospital Road", "amenity": "hospital", "emergency": "yes", "gnis:feature_id": "1661076", "healthcare": "hospital", "name": "Mountains Community Hospital", "opening_hours": "24/7", "phone": "+1 909 336 3651", "website": "https://www.mchcares.com/"}}, {"name": "West Anaheim Medical Center", "latitude": 33.8257213, "longitude": -117.9951367, "source": "osm", "_tags": {"addr:city": "Anaheim", "addr:housenumber": "3033", "addr:postcode": "92804", "addr:street": "West Orange Avenue", "amenity": "hospital", "check_date": "2025-03-14", "emergency": "yes", "gnis:feature_id": "1763536", "healthcare": "hospital", "name": "West Anaheim Medical Center", "opening_hours": "24/7", "operator": "Prime Healthcare Services", "operator:wikidata": "Q7243267", "operator:wikipedia": "en:Prime Healthcare Services", "phone": "+1 714 827 3000", "website": "https://www.westanaheimmedctr.com/"}}, {"name": "Helford Clinical Research Hospital", "latitude": 34.1291697, "longitude": -117.9725543, "source": "osm", "_tags": {"amenity": "hospital", "building": "hospital", "ele": "182.6", "emergency": "no", "healthcare": "hospital", "healthcare:speciality": "oncology", "height": "41.2", "lacounty:ain": "8533005008", "lacounty:bld_id": "570034869373", "name": "Helford Clinical Research Hospital", "operator": "City of Hope", "start_date": "1985"}}, {"name": "Foothill Regional Medical Center", "latitude": 33.7302659, "longitude": -117.8285166, "source": "osm", "_tags": {"addr:city": "Tustin", "addr:housenumber": "14662", "addr:postcode": "92780", "addr:street": "Newport Avenue", "amenity": "hospital", "beds": "177", "emergency": "yes", "gnis:feature_id": "1765430", "healthcare": "hospital", "name": "Foothill Regional Medical Center", "opening_hours": "24/7", "phone": "+1 714 619 7700", "website": "https://www.foothillregionalmedicalcenter.com/"}}, {"name": "", "latitude": 33.8989226, "longitude": -118.1709439, "source": "osm", "_tags": {"amenity": "hospital", "building:units": "4", "ele": "25.8", "healthcare": "hospital", "height": "3.5", "lacounty:ain": "6241024023", "lacounty:bld_id": "509787785631", "start_date": "1939"}}, {"name": "AHMC Healthcare", "latitude": 34.0971761, "longitude": -118.1217053, "source": "osm", "_tags": {"addr:city": "Alhambra", "addr:housenumber": "500", "addr:postcode": "91801", "addr:state": "CA", "addr:street": "East Main Street", "amenity": "hospital", "building": "hospital", "check_date": "2025-08-11", "ele": "168.1", "height": "28.6", "lacounty:ain": "5345016807", "lacounty:bld_id": "524828857770", "name": "AHMC Healthcare", "operator": "AHMC Healthcare", "operator:wikidata": "Q4651769", "phone": "+1 (626) 457-7400", "website": "https://www.ahmchealth.com/"}}, {"name": "VA Loma Linda Healthcare System", "latitude": 34.0503259, "longitude": -117.2500685, "source": "osm", "_tags": {"addr:city": "Loma Linda", "addr:housenumber": "11201", "addr:postcode": "92357", "addr:state": "CA", "addr:street": "Benton Street", "alt_name": "Jerry L Pettis Memorial Hospital", "amenity": "hospital", "emergency": "yes", "healthcare": "hospital", "healthcare:for": "veteran", "name": "VA Loma Linda Healthcare System", "opening_hours": "24/7", "operator": "Veterans Health Administration", "operator:short": "VA", "operator:wikidata": "Q6580225", "phone": "+1 909 825 7084", "short_name": "VA", "website": "https://www.lomalinda.va.gov/"}}, {"name": "Tri-City Medical Center", "latitude": 33.1852997, "longitude": -117.2907979, "source": "osm", "_tags": {"addr:city": "Oceanside", "addr:housenumber": "4002", "addr:postcode": "92056", "addr:state": "CA", "addr:street": "Vista Way", "amenity": "hospital", "beds": "397", "emergency": "yes", "gnis:feature_id": "1661584", "healthcare": "hospital", "name": "Tri-City Medical Center", "opening_hours": "24/7", "phone": "+1 760 724 8411", "website": "https://www.tricitymed.org/", "wikidata": "Q7839678", "wikipedia": "en:Tri-City Medical Center"}}, {"name": "Scripps Memorial Hospital Encinitas", "latitude": 33.0377608, "longitude": -117.284283, "source": "osm", "_tags": {"addr:city": "Encinitas", "addr:housenumber": "324", "addr:postcode": "92024", "addr:street": "Santa Fe Drive", "amenity": "hospital", "emergency": "yes", "gnis:feature_id": "1868907", "healthcare": "hospital", "name": "Scripps Memorial Hospital Encinitas", "opening_hours": "24/7", "operator": "Scripps Health", "phone": "+1 760 633 6501", "website": "https://www.scripps.org/locations/hospitals__scripps-memorial-hospital-encinitas"}}, {"name": "Naval Hospital Camp Pendleton", "latitude": 33.2216159, "longitude": -117.3885647, "source": "osm", "_tags": {"access": "private", "addr:city": "Oceanside", "addr:housenumber": "200", "addr:postcode": "92055", "addr:street": "Mercy Circle", "amenity": "hospital", "check_date": "2024-12-17", "emergency": "yes", "healthcare": "hospital", "name": "Naval Hospital Camp Pendleton", "opening_hours": "24/7", "operator": "United States Navy", "phone": "+1 760 725 4357", "website": "https://www.med.navy.mil/sites/cpen/newsite/Pages/default.aspx"}}, {"name": "Kindred Hospital Riverside", "latitude": 33.8125554, "longitude": -117.2223738, "source": "osm", "_tags": {"addr:city": "Perris", "addr:housenumber": "2224", "addr:postcode": "92571", "addr:street": "Medical Center Drive", "amenity": "hospital", "emergency": "no", "gnis:feature_id": "1849102", "healthcare": "hospital", "name": "Kindred Hospital Riverside", "old_name": "Christian Hospital Medical Center", "operator": "Kindred Healthcare", "operator:wikidata": "Q921363", "operator:wikipedia": "en:Kindred Healthcare", "phone": "+1 951 436 3535", "website": "https://www.kindredhealthcare.com/locations/transitional-care-hospitals/kindred-hospital-riverside"}}, {"name": "San Gorgonio Memorial Hospital", "latitude": 33.9316305, "longitude": -116.944651, "source": "osm", "_tags": {"addr:city": "Banning", "addr:housenumber": "600", "addr:postcode": "92220", "addr:street": "North Highland Springs Avenue", "amenity": "hospital", "beds": "79", "emergency": "yes", "gnis:feature_id": "1661381", "healthcare": "hospital", "name": "San Gorgonio Memorial Hospital", "opening_hours": "24/7", "phone": "+1 951 845 1121", "website": "https://www.sgmh.org/"}}, {"name": "Hemet Valley Medical Center", "latitude": 33.7503251, "longitude": -116.9597867, "source": "osm", "_tags": {"addr:city": "Hemet", "addr:housenumber": "117", "addr:postcode": "92543", "addr:street": "East Devonshire Avenue", "amenity": "hospital", "beds": "327", "emergency": "yes", "gnis:feature_id": "1849363", "healthcare": "hospital", "name": "Hemet Valley Medical Center", "opening_hours": "24/7", "phone": "+1 951 652 2811", "website": "https://www.hemetvalleymedicalcenter.com/"}}, {"name": "John F. Kennedy Memorial Hospital", "latitude": 33.7064476, "longitude": -116.2361254, "source": "osm", "_tags": {"addr:city": "Indio", "addr:housenumber": "47111", "addr:postcode": "92201", "addr:street": "Monroe Street", "amenity": "hospital", "beds": "156", "emergency": "yes", "gnis:feature_id": "1849491", "healthcare": "hospital", "name": "John F. Kennedy Memorial Hospital", "opening_hours": "24/7", "operator": "TH Medical", "phone": "+1 760 347 6191", "website": "https://www.jfkmemorialhosp.com/", "wikidata": "Q6232399", "wikipedia": "en:John F. Kennedy Memorial Hospital"}}, {"name": "Eisenhower Medical Center", "latitude": 33.7632623, "longitude": -116.4060446, "source": "osm", "_tags": {"addr:city": "Rancho Mirage", "addr:country": "US", "addr:housenumber": "39000", "addr:postcode": "92270", "addr:street": "Bob Hope Drive", "amenity": "hospital", "beds": "463", "emergency": "yes", "gnis:feature_id": "1656499", "healthcare": "hospital", "name": "Eisenhower Medical Center", "opening_hours": "24/7", "operator": "Eisenhower Health", "phone": "+1 760 340 3911", "website": "https://www.eisenhowerhealth.org/", "wikidata": "Q3049500", "wikipedia": "en:Eisenhower Medical Center"}}, {"name": "Desert Regional Medical Center", "latitude": 33.8392101, "longitude": -116.5433845, "source": "osm", "_tags": {"addr:city": "Palm Springs", "addr:housenumber": "1150", "addr:postcode": "92262", "addr:street": "North Indian Canyon Drive", "amenity": "hospital", "emergency": "yes", "gnis:feature_id": "1849111", "healthcare": "hospital", "healthcare:trauma": "yes", "healthcare:trauma:level": "2", "name": "Desert Regional Medical Center", "opening_hours": "24/7", "operator": "TH Medical", "phone": "+1 760 323 6511", "website": "https://www.desertregional.com/"}}, {"name": "Hi-Desert Medical Center", "latitude": 34.1317997, "longitude": -116.2750616, "source": "osm", "_tags": {"addr:city": "Joshua Tree", "addr:housenumber": "6601", "addr:postcode": "92252", "addr:street": "White Feather Road", "amenity": "hospital", "emergency": "yes", "gnis:feature_id": "1842205", "healthcare": "hospital", "name": "Hi-Desert Medical Center", "opening_hours": "24/7", "operator": "TH Medical", "phone": "+1 760 366 3711", "website": "https://www.hdmc.org/"}}, {"name": "Bear Valley Community Hospital", "latitude": 34.2466605, "longitude": -116.8886513, "source": "osm", "_tags": {"addr:city": "Big Bear Lake", "addr:housenumber": "41870", "addr:postcode": "92315", "addr:street": "Garstin Drive", "amenity": "hospital", "emergency": "yes", "gnis:feature_id": "1842031", "healthcare": "hospital", "name": "Bear Valley Community Hospital", "opening_hours": "24/7", "operator": "Bear Valley Community Healthcare District", "phone": "+1 909 866 6501", "website": "http://bearvalleycommunityhospital.com/"}}, {"name": "Desert Valley Hospital", "latitude": 34.4723208, "longitude": -117.2970691, "source": "osm", "_tags": {"addr:city": "Hesperia", "addr:country": "US", "addr:housenumber": "16850", "addr:postcode": "92395", "addr:state": "CA", "addr:street": "Bear Valley Road", "amenity": "hospital", "beds": "148", "emergency": "yes", "healthcare": "hospital", "name": "Desert Valley Hospital", "opening_hours": "24/7", "operator": "Prime Healthcare Services", "operator:type": "private", "operator:wikidata": "Q7243267", "operator:wikipedia": "en:Prime Healthcare Services", "phone": "+1 760 241 8000", "website": "https://www.dvmc.com/", "wikidata": "Q14681826", "wikipedia": "en:Desert Valley Hospital"}}, {"name": "Victor Valley Global Medical Center", "latitude": 34.5281651, "longitude": -117.2937177, "source": "osm", "_tags": {"addr:city": "Victorville", "addr:housenumber": "15248", "addr:postcode": "92393", "addr:street": "11th Street", "amenity": "hospital", "emergency": "yes", "gnis:feature_id": "1841618", "healthcare": "hospital", "name": "Victor Valley Global Medical Center", "opening_hours": "24/7", "phone": "+1 760 245 8691", "website": "https://vvgmc.com/"}}, {"name": "Palmdale Regional Medical Center", "latitude": 34.5831063, "longitude": -118.1450257, "source": "osm", "_tags": {"addr:city": "Palmdale", "addr:housenumber": "38600", "addr:postcode": "93551", "addr:street": "Medical Center Drive", "amenity": "hospital", "emergency": "yes", "gnis:feature_id": "1733628", "healthcare": "hospital", "name": "Palmdale Regional Medical Center", "opening_hours": "24/7", "operator": "Universal Health Services", "operator:short": "UHS", "operator:wikidata": "Q7893967", "phone": "+1 661 382 5000", "website": "https://www.palmdaleregional.com/", "wikidata": "Q7128175", "wikipedia": "en:Palmdale Regional Medical Center"}}, {"name": "Ballard Rehabilitation Hospital", "latitude": 34.1292439, "longitude": -117.3254891, "source": "osm", "_tags": {"addr:city": "San Bernardino", "addr:housenumber": "1760", "addr:postcode": "92411", "addr:street": "West 16th Street", "amenity": "hospital", "emergency": "no", "gnis:feature_id": "2097347", "healthcare": "hospital", "healthcare:speciality": "physiatry", "name": "Ballard Rehabilitation Hospital", "operator": "Vibra Healthcare", "phone": "+1 909 787 2644", "website": "https://www.vibrahealthcare.com/ballard/"}}, {"name": "Loma Linda University Behavioral Medicine Center", "latitude": 34.049505, "longitude": -117.214071, "source": "osm", "_tags": {"addr:city": "Redlands", "addr:housenumber": "1710", "addr:postcode": "92373", "addr:street": "Barton Road", "amenity": "hospital", "emergency": "no", "gnis:feature_id": "2455534", "healthcare": "hospital", "healthcare:speciality": "psychiatry", "name": "Loma Linda University Behavioral Medicine Center", "operator": "Loma Linda University Health", "phone": "+1 909 558 9200", "website": "https://behavioral-medicine-center.lomalindahealth.org/"}}, {"name": "Loma Linda University Surgical Hospital", "latitude": 34.0490332, "longitude": -117.2205119, "source": "osm", "_tags": {"addr:city": "Redlands", "addr:housenumber": "26780", "addr:postcode": "92373", "addr:street": "Barton Road", "amenity": "hospital", "emergency": "no", "gnis:feature_id": "2697297", "healthcare": "hospital", "healthcare:speciality": "surgery", "name": "Loma Linda University Surgical Hospital", "operator": "Loma Linda University Health", "phone": "+1 909 651 7047", "website": "https://surgical-hospital.lomalindahealth.org/"}}, {"name": "Redlands Community Hospital", "latitude": 34.0374403, "longitude": -117.2059967, "source": "osm", "_tags": {"addr:city": "Redlands", "addr:housenumber": "350", "addr:postcode": "92373", "addr:street": "Terracina Boulevard", "amenity": "hospital", "beds": "229", "emergency": "yes", "gnis:feature_id": "1839615", "healthcare": "hospital", "name": "Redlands Community Hospital", "opening_hours": "24/7", "phone": "+1 909 335 5500", "website": "https://www.redlandshospital.org/"}}, {"name": "Loma Linda University Medical Center East Campus", "latitude": 34.0469391, "longitude": -117.250215, "source": "osm", "_tags": {"addr:city": "Loma Linda", "addr:housenumber": "25333", "addr:postcode": "92354", "addr:street": "Barton Road", "amenity": "hospital", "emergency": "no", "healthcare": "hospital", "name": "Loma Linda University Medical Center East Campus", "operator": "Loma Linda University Medical Center", "phone": "+1 909 825 8601", "website": "https://east-campus.lomalindahealth.org/"}}, {"name": "Kaiser Permanente Fontana Medical Center", "latitude": 34.0731694, "longitude": -117.4317612, "source": "osm", "_tags": {"addr:city": "Fontana", "addr:housenumber": "9961", "addr:postcode": "92335", "addr:street": "Sierra Avenue", "amenity": "hospital", "beds": "314", "emergency": "yes", "gnis:feature_id": "1656551", "healthcare": "hospital", "name": "Kaiser Permanente Fontana Medical Center", "opening_hours": "24/7", "operator": "Kaiser Permanente", "operator:short": "KP", "operator:type": "private", "operator:website": "https://healthy.kaiserpermanente.org/", "operator:wikidata": "Q1721601", "operator:wikipedia": "en:Kaiser Permanente", "phone": "+1 888 750 0036", "website": "https://thrive.kaiserpermanente.org/care-near-you/southern-california/san-bernardino-county/locations/fontana-medical-center/", "wikidata": "Q6348426", "wikipedia": "en:Kaiser Fontana Medical Center"}}, {"name": "Pacific Grove Hospital", "latitude": 33.9621991, "longitude": -117.3951816, "source": "osm", "_tags": {"addr:city": "Riverside", "addr:housenumber": "5900", "addr:postcode": "92506", "addr:street": "Brockton Avenue", "amenity": "hospital", "emergency": "no", "gnis:feature_id": "1660843", "healthcare": "hospital", "healthcare:speciality": "psychiatry", "name": "Pacific Grove Hospital", "old_name": "Knollwood Hospital", "phone": "+1 800 992 0901", "website": "https://www.pacificgrovehospital.com/"}}, {"name": "Corona Regional Medical Center Rehabilitation Hospital", "latitude": 33.8580049, "longitude": -117.5540717, "source": "osm", "_tags": {"addr:city": "Corona", "addr:housenumber": "730", "addr:postcode": "92879", "addr:street": "Magnolia Avenue", "amenity": "hospital", "emergency": "no", "gnis:feature_id": "1848958", "healthcare": "hospital", "name": "Corona Regional Medical Center Rehabilitation Hospital", "old_name": "Circle City Hospital", "operator": "Universal Health Services", "operator:short": "UHS", "operator:type": "private", "operator:wikidata": "Q7893967", "operator:wikipedia": "en:Universal Health Services", "phone": "+1 951 736 7200", "website": "https://www.coronaregional.com/"}}, {"name": "Corona Regional Medical Center", "latitude": 33.8735223, "longitude": -117.5686662, "source": "osm", "_tags": {"addr:city": "Corona", "addr:housenumber": "800", "addr:postcode": "92879", "addr:street": "South Main Street", "amenity": "hospital", "emergency": "yes", "healthcare": "hospital", "name": "Corona Regional Medical Center", "opening_hours": "24/7", "operator": "Universal Health Services", "operator:short": "UHS", "operator:type": "private", "operator:wikidata": "Q7893967", "operator:wikipedia": "en:Universal Health Services", "phone": "+1 951 737 4343", "website": "https://www.coronaregional.com/", "wikidata": "Q18706225", "wikipedia": "en:Corona Regional Medical Center"}}, {"name": "Canyon Ridge Hospital", "latitude": 34.0091927, "longitude": -117.6880594, "source": "osm", "_tags": {"addr:city": "Chino", "addr:housenumber": "5353", "addr:postcode": "91710", "addr:street": "G Street", "amenity": "hospital", "emergency": "no", "gnis:feature_id": "2455521", "healthcare": "hospital", "healthcare:speciality": "psychiatry", "name": "Canyon Ridge Hospital", "phone": "+1 909 590 3700", "website": "https://canyonridgehospital.com/"}}, {"name": "Kindred-Ontario Hospital", "latitude": 34.0694726, "longitude": -117.642598, "source": "osm", "_tags": {"addr:city": "Ontario", "addr:housenumber": "550", "addr:postcode": "91764", "addr:street": "North Monterey Avenue", "amenity": "hospital", "emergency": "no", "gnis:feature_id": "2455531", "healthcare": "hospital", "name": "Kindred-Ontario Hospital", "old_name": "Ontario Hospital", "operator": "Kindred Healthcare", "operator:wikidata": "Q921363", "operator:wikipedia": "en:Kindred Healthcare", "phone": "+1 909 391 0333", "website": "https://www.kindredhealthcare.com/locations/transitional-care-hospitals/kindred-hospital-ontario"}}, {"name": "Montclair Hospital Medical Center", "latitude": 34.0786272, "longitude": -117.6959029, "source": "osm", "_tags": {"addr:city": "Montclair", "addr:housenumber": "5000", "addr:postcode": "91763", "addr:street": "San Bernardino Street", "amenity": "hospital", "beds": "102", "emergency": "yes", "gnis:feature_id": "1660458", "healthcare": "hospital", "name": "Montclair Hospital Medical Center", "old_name": "Central Memorial Hospital;Doctors Hospital Medical Center of Montclair", "opening_hours": "24/7", "operator": "Prime Healthcare Services", "operator:wikidata": "Q7243267", "phone": "+1 909 625 5411", "website": "https://www.montclair-hospital.org/", "wikidata": "Q6904602", "wikipedia": "en:Montclair Hospital Medical Center"}}, {"name": "Casa Colina", "latitude": 34.0975563, "longitude": -117.7467068, "source": "osm", "_tags": {"addr:city": "Pomona", "addr:housenumber": "255", "addr:postcode": "91767", "addr:street": "East Bonita Avenue", "amenity": "hospital", "emergency": "no", "gnis:feature_id": "240306", "healthcare": "hospital", "name": "Casa Colina", "phone": "+1 866 724 4127", "website": "https://www.casacolina.org/"}}, {"name": "Pomona Valley Hospital Medical Center", "latitude": 34.0776118, "longitude": -117.7505944, "source": "osm", "_tags": {"addr:city": "Pomona", "addr:housenumber": "1798", "addr:postcode": "91767", "addr:state": "CA", "addr:street": "North Garey Avenue", "amenity": "hospital", "beds": "437", "emergency": "yes", "gnis:feature_id": "1661248", "healthcare": "hospital", "name": "Pomona Valley Hospital Medical Center", "opening_hours": "24/7", "phone": "+1 909 865 9500", "website": "https://www.pvhmc.org/"}}, {"name": "Foothill Presbyterian Hospital", "latitude": 34.1330531, "longitude": -117.8714548, "source": "osm", "_tags": {"addr:city": "Glendora", "addr:housenumber": "250", "addr:postcode": "91741", "addr:street": "South Grand Avenue", "amenity": "hospital", "emergency": "yes", "gnis:feature_id": "2084607", "healthcare": "hospital", "name": "Foothill Presbyterian Hospital", "opening_hours": "24/7", "operator": "Citrus Valley Health Partners.", "phone": "+1 626 963 8411", "website": "https://www.cvhp.org/Our_Facilities/Foothill_Presbyterian.aspx"}}, {"name": "San Dimas Community Hospital", "latitude": 34.0974936, "longitude": -117.834389, "source": "osm", "_tags": {"addr:city": "San Dimas", "addr:housenumber": "1350", "addr:postcode": "91773", "addr:street": "West Covina Boulevard", "amenity": "hospital", "emergency": "yes", "gnis:feature_id": "1723744", "healthcare": "hospital", "name": "San Dimas Community Hospital", "opening_hours": "24/7", "operator": "Prime Healthcare", "phone": "+1 909 599 6811", "website": "https://www.sandimashospital.com/"}}, {"name": "Hoag Hospital Irvine", "latitude": 33.660688, "longitude": -117.772569, "source": "osm", "_tags": {"addr:city": "Irvine", "addr:housenumber": "16200", "addr:postcode": "92618", "addr:state": "CA", "addr:street": "Sand Canyon Avenue", "amenity": "hospital", "emergency": "yes", "healthcare": "hospital", "name": "Hoag Hospital Irvine", "opening_hours": "24/7", "operator": "Hoag", "operator:type": "private", "operator:wikidata": "Q130527108", "phone": "+1 949 764 4624", "website": "https://www.hoag.org/locations/hoag-hospital-irvine/"}}, {"name": "College Hospital Costa Mesa", "latitude": 33.6518325, "longitude": -117.9120058, "source": "osm", "_tags": {"addr:city": "Costa Mesa", "addr:housenumber": "301", "addr:postcode": "92627", "addr:street": "Victoria Street", "amenity": "hospital", "beds": "122", "emergency": "no", "gnis:feature_id": "1765329", "healthcare": "hospital", "name": "College Hospital Costa Mesa", "operator": "College Hospitals", "phone": "+1 949 642 2734", "website": "https://www.chc.la/cosHome"}}, {"name": "South Coast Global Medical Center", "latitude": 33.7112045, "longitude": -117.8843724, "source": "osm", "_tags": {"addr:city": "Santa Ana", "addr:housenumber": "2701", "addr:postcode": "92704", "addr:street": "South Bristol Street", "amenity": "hospital", "beds": "178", "emergency": "yes", "gnis:feature_id": "1765370", "healthcare": "hospital", "name": "South Coast Global Medical Center", "old_name": "Coastal Communities Hospital", "opening_hours": "24/7", "phone": "+1 714 754 5454", "website": "https://southcoast-gmc.com/"}}, {"name": "Orange County Global Medical Center", "latitude": 33.7544195, "longitude": -117.8329236, "source": "osm", "_tags": {"addr:city": "Santa Ana", "addr:housenumber": "1001", "addr:postcode": "92705", "addr:state": "CA", "addr:street": "North Tustin Avenue", "amenity": "hospital", "beds": "282", "emergency": "yes", "gnis:feature_id": "1765200", "healthcare": "hospital", "name": "Orange County Global Medical Center", "old_name": "Western Medical Center", "opening_hours": "24/7", "phone": "+1 714 953 3500", "website": "https://orangecounty-gmc.com/"}}, {"name": "Kindred Hospital - Santa Ana", "latitude": 33.7622868, "longitude": -117.891511, "source": "osm", "_tags": {"addr:city": "Santa Ana", "addr:housenumber": "1901", "addr:postcode": "92706", "addr:street": "College Avenue", "amenity": "hospital", "emergency": "no", "gnis:feature_id": "1660555", "healthcare": "hospital", "name": "Kindred Hospital - Santa Ana", "old_name": "Doctors Hospital of Santa Ana", "operator": "Kindred Healthcare", "operator:type": "private", "operator:wikidata": "Q921363", "operator:wikipedia": "en:Kindred Healthcare", "phone": "+1 714 564 7800", "website": "https://www.kindredhealthcare.com/locations/transitional-care-hospitals/kindred-hospital-santa-ana"}}, {"name": "Children's Hospital of Orange County", "latitude": 33.7810367, "longitude": -117.8660904, "source": "osm", "_tags": {"addr:city": "Orange", "addr:housenumber": "1201", "addr:postcode": "92868", "addr:street": "West la Veta Avenue", "amenity": "hospital", "emergency": "yes", "healthcare": "hospital", "healthcare:speciality": "paediatrics", "name": "Children's Hospital of Orange County", "opening_hours": "24/7", "phone": "+1-714-997-3000", "website": "https://www.choc.org/", "wikidata": "Q5098129", "wikipedia": "en:Children's Hospital of Orange County"}}, {"name": "Saint Joseph Hospital", "latitude": 33.7821972, "longitude": -117.8643349, "source": "osm", "_tags": {"addr:city": "Orange", "addr:housenumber": "1100", "addr:postcode": "92868", "addr:state": "CA", "addr:street": "West Stewart Drive", "alt_name": "St. Joseph Hospital", "amenity": "hospital", "emergency": "yes", "gnis:feature_id": "1661363", "healthcare": "hospital", "name": "Saint Joseph Hospital", "opening_hours": "24/7", "operator": "Saint Joseph Health", "phone": "+1-714-633-9111", "website": "https://www.sjo.org/"}}, {"name": "Placentia-Linda Hospital", "latitude": 33.8866614, "longitude": -117.8431092, "source": "osm", "_tags": {"addr:city": "Placentia", "addr:housenumber": "1301", "addr:postcode": "92870", "addr:street": "North Rose Drive", "amenity": "hospital", "check_date": "2025-06-20", "emergency": "yes", "gnis:feature_id": "1763067", "healthcare": "hospital", "name": "Placentia-Linda Hospital", "opening_hours": "24/7", "operator": "TH Medical", "phone": "+1 714 993 2000", "website": "https://www.placentialinda.com/"}}, {"name": "Saint Jude Medical Center", "latitude": 33.8946857, "longitude": -117.9270652, "source": "osm", "_tags": {"addr:city": "Fullerton", "addr:housenumber": "101", "addr:postcode": "92835", "addr:state": "CA", "addr:street": "East Valencia Mesa Drive", "amenity": "hospital", "beds": "320", "emergency": "yes", "gnis:feature_id": "1661364", "healthcare": "hospital", "name": "Saint Jude Medical Center", "opening_hours": "24/7", "operator": "Saint Joseph Health", "phone": "+1 714-871-3280", "website": "https://www.stjudemedicalcenter.org/", "wikidata": "Q7589410", "wikipedia": "en:St. Jude Medical Center"}}, {"name": "Anaheim Global Medical Center", "latitude": 33.8205277, "longitude": -117.9097407, "source": "osm", "_tags": {"addr:city": "Anaheim", "addr:housenumber": "1025", "addr:postcode": "92805", "addr:street": "South Anaheim Boulevard", "amenity": "hospital", "emergency": "yes", "gnis:feature_id": "1765201", "healthcare": "hospital", "name": "Anaheim Global Medical Center", "old_name": "Western Medical Center-Anaheim", "opening_hours": "24/7", "phone": "+1 714 533 6220", "website": "https://www.westernmedanaheim.com/"}}, {"name": "La Palma Intercommunity Hospital", "latitude": 33.8474962, "longitude": -118.0388334, "source": "osm", "_tags": {"addr:city": "La Palma", "addr:housenumber": "7901", "addr:postcode": "90623", "addr:street": "Walker Street", "amenity": "hospital", "emergency": "yes", "gnis:feature_id": "1763373", "healthcare": "hospital", "name": "La Palma Intercommunity Hospital", "opening_hours": "24/7", "operator": "Prime Healthcare Services", "operator:wikidata": "Q7243267", "phone": "+1 714 670 7400", "website": "https://www.lapalmaintercommunityhospital.com/", "wikidata": "Q6464246", "wikipedia": "en:La Palma Intercommunity Hospital"}}, {"name": "Saint Mary Medical Center Long Beach", "latitude": 33.7799789, "longitude": -118.1871833, "source": "osm", "_tags": {"addr:city": "Long Beach", "addr:housenumber": "1050", "addr:postcode": "90813", "addr:street": "Linden Avenue", "amenity": "hospital", "emergency": "yes", "gnis:feature_id": "1661366", "healthcare": "hospital", "name": "Saint Mary Medical Center Long Beach", "opening_hours": "24/7", "operator": "Dignity Health", "operator:wikidata": "Q5276334", "operator:wikipedia": "en:Dignity Health", "phone": "+1 562 491 9000", "website": "https://www.dignityhealth.org/socal/locations/stmarymedical", "wikidata": "Q7590505", "wikipedia": "en:St. Mary Medical Center (Long Beach)"}}, {"name": "Long Beach Memorial Hospital", "latitude": 33.8088915, "longitude": -118.1872206, "source": "osm", "_tags": {"addr:city": "Long Beach", "addr:housenumber": "2801", "addr:postcode": "90806", "addr:street": "Atlantic Avenue", "amenity": "hospital", "emergency": "yes", "healthcare": "hospital", "name": "Long Beach Memorial Hospital", "opening_hours": "24/7", "operator": "MemorialCare", "phone": "+1 562 933 2000", "website": "https://www.memorialcare.org/long-beach-medical-center", "wikidata": "Q6672309", "wikipedia": "en:Long Beach Memorial Medical Center"}}, {"name": "Coast Plaza Hospital", "latitude": 33.9122842, "longitude": -118.0984753, "source": "osm", "_tags": {"addr:city": "Norwalk", "addr:housenumber": "13100", "addr:postcode": "90650", "addr:street": "Studebaker Road", "amenity": "hospital", "beds": "117", "emergency": "yes", "gnis:feature_id": "1661515", "healthcare": "hospital", "name": "Coast Plaza Hospital", "old_name": "Coast Plaza Doctors Hospital", "opening_hours": "24/7", "operator": "Avanti Hospitals", "phone": "+1 562 868 3751", "website": "https://cph.avantihospitals.com/"}}, {"name": "Los Angeles Community Hospital at Norwalk", "latitude": 33.910391, "longitude": -118.0638767, "source": "osm", "_tags": {"addr:city": "Norwalk", "addr:housenumber": "13222", "addr:postcode": "90650", "addr:street": "Bloomfield Avenue", "amenity": "hospital", "beds": "50", "emergency": "yes", "gnis:feature_id": "1724435", "healthcare": "hospital", "name": "Los Angeles Community Hospital at Norwalk", "old_name": "Norwalk Community Hospital", "opening_hours": "24/7", "operator": "Alta Los Angeles Hospitals", "phone": "+1 562 863 4763", "website": "https://www.lach-norwalk.com/"}}, {"name": "Metropolitan State Hospital", "latitude": 33.9244238, "longitude": -118.0683155, "source": "osm", "_tags": {"access": "private", "addr:city": "Norwalk", "addr:housenumber": "11401", "addr:postcode": "90650", "addr:street": "Bloomfield Avenue", "amenity": "hospital", "emergency": "no", "gnis:feature_id": "1661017", "healthcare": "hospital", "healthcare:speciality": "psychiatry", "name": "Metropolitan State Hospital", "operator": "California Department of State Hospitals", "phone": "+1-562-863-7011", "website": "https://www.dsh.ca.gov/Metropolitan/", "wikidata": "Q6825259", "wikipedia": "en:Metropolitan State Hospital (California)"}}, {"name": "PIH Health Whittier Hospital", "latitude": 33.9699172, "longitude": -118.0494583, "source": "osm", "_tags": {"addr:city": "Whittier", "addr:housenumber": "12401", "addr:postcode": "90602", "addr:state": "CA", "addr:street": "Washington Boulevard", "amenity": "hospital", "beds": "722", "emergency": "yes", "healthcare": "hospital", "name": "PIH Health Whittier Hospital", "name:en": "PIH Health Whittier Hospital", "opening_hours": "24/7", "operator": "PIH Health", "phone": "+1 562 698 0811", "website": "https://www.pihhealth.org/", "wikidata": "Q16898798", "wikipedia": "en:PIH Health"}}, {"name": "Kindred Hospital Baldwin Park", "latitude": 34.0628967, "longitude": -117.9677413, "source": "osm", "_tags": {"addr:city": "Baldwin Park", "addr:housenumber": "14148", "addr:postcode": "91706", "addr:street": "Francisquito Avenue", "amenity": "hospital", "beds": "91", "emergency": "no", "gnis:feature_id": "1724358", "healthcare": "hospital", "name": "Kindred Hospital Baldwin Park", "old_name": "Terrace Plaza Medical Center", "operator": "Kindred Healthcare", "operator:wikidata": "Q921363", "phone": "+1 626 388 2700", "website": "https://www.kindredhealthcare.com/locations/transitional-care-hospitals/kindred-hospital-baldwin-park"}}, {"name": "Queen of the Valley Hospital", "latitude": 34.0640007, "longitude": -117.9454551, "source": "osm", "_tags": {"addr:city": "West Covina", "addr:housenumber": "1115", "addr:postcode": "91790", "addr:street": "South Sunset Avenue", "amenity": "hospital", "denomination": "roman_catholic", "emergency": "yes", "gnis:feature_id": "1724351", "healthcare": "hospital", "name": "Queen of the Valley Hospital", "opening_hours": "24/7", "operator": "Citrus Valley Health Partners", "phone": "+1 626 962 4011", "religion": "christian", "website": "https://www.cvhp.org/Our_Facilities/Queen_of_the_Valley.aspx"}}, {"name": "West Covina Medical Center", "latitude": 34.0711997, "longitude": -117.9447948, "source": "osm", "_tags": {"addr:city": "West Covina", "addr:housenumber": "725", "addr:postcode": "91790", "addr:street": "South Orange Avenue", "amenity": "hospital", "emergency": "no", "gnis:feature_id": "1724332", "healthcare": "hospital", "name": "West Covina Medical Center", "old_name": "Doctors Hospital of West Covina", "phone": "+1 626 338 8481"}}, {"name": "Kindred Hospital - San Gabriel Valley", "latitude": 34.0872636, "longitude": -117.9172678, "source": "osm", "_tags": {"addr:city": "West Covina", "addr:housenumber": "845", "addr:postcode": "91791", "addr:street": "North Lark Ellen Avenue", "amenity": "hospital", "beds": "76", "emergency": "no", "gnis:feature_id": "1724329", "healthcare": "hospital", "name": "Kindred Hospital - San Gabriel Valley", "opening_hours": "24/7", "operator": "Kindred Healthcare", "operator:wikidata": "Q921363", "operator:wikipedia": "en:Kindred Healthcare", "phone": "+1 626 339 5451", "website": "kindredsangabriel.com"}}, {"name": "Inter-Community Hospital", "latitude": 34.0887542, "longitude": -117.8934243, "source": "osm", "_tags": {"addr:city": "Covina", "addr:housenumber": "210", "addr:postcode": "91723", "addr:street": "West San Bernardino Road", "amenity": "hospital", "emergency": "yes", "gnis:feature_id": "1724304", "healthcare": "hospital", "name": "Inter-Community Hospital", "opening_hours": "24/7", "operator": "Citrus Valley Health Partners", "phone": "+1 626 331 7331", "website": "https://www.cvhp.org/Our_Facilities/Inter_Community.aspx"}}, {"name": "Monrovia Memorial Hospital", "latitude": 34.1486625, "longitude": -117.9925877, "source": "osm", "_tags": {"addr:city": "Monrovia", "addr:housenumber": "323", "addr:postcode": "91016", "addr:street": "South Heliotrope Avenue", "amenity": "hospital", "emergency": "no", "gnis:feature_id": "1732392", "healthcare": "hospital", "name": "Monrovia Memorial Hospital", "old_name": "Monrovia Community Hospital", "phone": "+1 626 408 9800", "website": "https://monroviamemorial.com/"}}, {"name": "City of Hope", "latitude": 34.1278819, "longitude": -117.9718076, "source": "osm", "_tags": {"addr:city": "Duarte", "addr:housenumber": "1500", "addr:postcode": "91010", "addr:street": "East Duarte Road", "alt_name": "City of Hope National Medical Center", "amenity": "hospital", "emergency": "no", "gnis:feature_id": "1660489", "healthcare": "hospital", "healthcare:speciality": "oncology", "name": "City of Hope", "phone": "+1 626 256 4673", "website": "https://www.cityofhope.org/", "wikidata": "Q5123723", "wikipedia": "en:City of Hope National Medical Center"}}, {"name": "Las Encinas Hospital", "latitude": 34.1408821, "longitude": -118.0912498, "source": "osm", "_tags": {"addr:city": "Pasadena", "addr:housenumber": "2900", "addr:postcode": "91107", "addr:street": "East Del Mar Boulevard", "amenity": "hospital", "emergency": "no", "gnis:feature_id": "1660895", "healthcare": "hospital", "healthcare:speciality": "psychiatry", "name": "Las Encinas Hospital", "phone": "+1 800 792 2345", "website": "https://www.lasencinashospital.com/"}}, {"name": "Alhambra Hospital Medical Center", "latitude": 34.090164, "longitude": -118.1441828, "source": "osm", "_tags": {"addr:city": "Alhambra", "addr:housenumber": "100", "addr:postcode": "91801", "addr:street": "South Raymond Avenue", "amenity": "hospital", "beds": "144", "emergency": "yes", "gnis:feature_id": "1762982", "healthcare": "hospital", "name": "Alhambra Hospital Medical Center", "opening_hours": "24/7", "phone": "+1 626 570 1606", "website": "https://www.alhambrahospital.com/"}}, {"name": "Garfield Medical Center", "latitude": 34.0685331, "longitude": -118.1237291, "source": "osm", "_tags": {"addr:city": "Monterey Park", "addr:housenumber": "525", "addr:postcode": "91754", "addr:street": "North Garfield Avenue", "amenity": "hospital", "beds": "210", "emergency": "yes", "healthcare": "hospital", "name": "Garfield Medical Center", "opening_hours": "24/7", "operator": "AHMC Healthcare", "phone": "+1 626 573 2222", "website": "https://www.garfieldmedicalcenter.com/", "wikidata": "Q5523084", "wikipedia": "en:Garfield Medical Center"}}, {"name": "Monterey Park Hospital", "latitude": 34.0499363, "longitude": -118.1382038, "source": "osm", "_tags": {"addr:city": "Monterey Park", "addr:housenumber": "900", "addr:postcode": "91754", "addr:street": "South Atlantic Boulevard", "amenity": "hospital", "beds": "101", "check_date": "2025-04-02", "emergency": "yes", "gnis:feature_id": "1732541", "healthcare": "hospital", "name": "Monterey Park Hospital", "opening_hours": "24/7", "operator": "AHMC Healthcare", "phone": "+1 626 570 9000", "website": "https://www.montereyparkhosp.com/"}}, {"name": "Los Alamitos Medical Center", "latitude": 33.8040465, "longitude": -118.0671435, "source": "osm", "_tags": {"addr:city": "Los Alamitos", "addr:housenumber": "3751", "addr:postcode": "90720", "addr:street": "Katella Avenue", "amenity": "hospital", "beds": "167", "emergency": "yes", "healthcare": "hospital", "name": "Los Alamitos Medical Center", "opening_hours": "24/7", "operator": "TH Medical", "phone": "+1 562 598 1311", "website": "https://www.losalamitosmedctr.com/"}}, {"name": "Lakewood Regional Medical Center", "latitude": 33.859699, "longitude": -118.1493, "source": "osm", "_tags": {"addr:city": "Lakewood", "addr:housenumber": "3650", "addr:postcode": "90712", "addr:street": "East South Street", "amenity": "hospital", "beds": "172", "emergency": "yes", "healthcare": "hospital", "name": "Lakewood Regional Medical Center", "opening_hours": "24/7", "operator": "TH Medical", "phone": "+1 562 531 2550", "website": "https://www.lakewoodregional.com/"}}, {"name": "Kaiser Permanente Downey Medical Center", "latitude": 33.919245, "longitude": -118.1280685, "source": "osm", "_tags": {"addr:city": "Downey", "addr:housenumber": "9333", "addr:postcode": "90242", "addr:street": "East Imperial Highway", "amenity": "hospital", "beds": "352", "emergency": "yes", "healthcare": "hospital", "name": "Kaiser Permanente Downey Medical Center", "opening_hours": "24/7", "operator": "Kaiser Permanente", "operator:short": "KP", "operator:website": "https://healthy.kaiserpermanente.org/", "operator:wikidata": "Q1721601", "operator:wikipedia": "en:Kaiser Permanente", "phone": "+1-562-657-9000", "website": "https://thrive.kaiserpermanente.org/care-near-you/southern-california/downey/locations/downey-medical-center/"}}, {"name": "Glendora Community Hospital", "latitude": 34.1277134, "longitude": -117.8652697, "source": "osm", "_tags": {"addr:city": "Glendora", "addr:housenumber": "150", "addr:postcode": "91740", "addr:street": "West Route 66", "amenity": "hospital", "beds": "128", "emergency": "yes", "healthcare": "hospital", "name": "Glendora Community Hospital", "opening_hours": "24/7", "operator": "Prime Healthcare", "phone": "+1 626 852 5000", "website": "https://www.glendorahospital.com/"}}, {"name": "Nexus Children's Hospital", "latitude": 33.7830387, "longitude": -117.8349606, "source": "osm", "_tags": {"addr:city": "Orange", "addr:housenumber": "393", "addr:postcode": "92866", "addr:street": "South Tustin Street", "amenity": "hospital", "beds": "27", "emergency": "no", "healthcare": "hospital", "healthcare:speciality": "paediatrics", "name": "Nexus Children's Hospital", "operator": "Nexus Health Systems", "phone": "+1 714 289 2400", "website": "https://www.nhsltd.com/"}}, {"name": "Whitter Hospital Medical Center", "latitude": 33.9501542, "longitude": -118.0039318, "source": "osm", "_tags": {"addr:city": "Whittier", "addr:housenumber": "9080", "addr:postcode": "90605", "addr:street": "Colima Road", "amenity": "hospital", "beds": "178", "emergency": "yes", "healthcare": "hospital", "name": "Whitter Hospital Medical Center", "opening_hours": "24/7", "operator": "AHMC Healthcare", "phone": "+1 562 945 3561", "website": "https://www.whittierhospital.com/"}}, {"name": "East Los Angeles Doctors Hospital", "latitude": 34.0233405, "longitude": -118.1843725, "source": "osm", "_tags": {"addr:city": "Los Angeles", "addr:housenumber": "4060", "addr:postcode": "90023", "addr:street": "Whittier Boulevard", "amenity": "hospital", "beds": "127", "emergency": "yes", "healthcare": "hospital", "name": "East Los Angeles Doctors Hospital", "opening_hours": "24/7", "operator": "Avanti Hospitals", "phone": "+1 323 268 5514", "website": "https://eladh.avantihospitals.com/"}}, {"name": "Loma Linda University Medical Center", "latitude": 34.0494034, "longitude": -117.2634346, "source": "osm", "_tags": {"addr:city": "Loma Linda", "addr:housenumber": "11234", "addr:postcode": "92354", "addr:street": "Anderson Street", "amenity": "hospital", "beds": "371", "denomination": "seventh_day_adventist", "emergency": "yes", "gnis:feature_id": "2697302", "healthcare": "hospital", "healthcare:trauma": "yes", "healthcare:trauma:level": "1", "name": "Loma Linda University Medical Center", "opening_hours": "24/7", "operator": "Loma Linda University Health", "phone": "+1 877 558 6248", "religion": "christian", "short_name": "LLUMC", "website": "https://lluh.org/locations/loma-linda-university-medical-center", "wikidata": "Q2945887", "wikipedia": "en:Loma Linda University Medical Center"}}, {"name": "Tibor Rubin VA Medical Center", "latitude": 33.7784908, "longitude": -118.1188274, "source": "osm", "_tags": {"access": "private", "addr:city": "Long Beach", "addr:housenumber": "5901", "addr:postcode": "90822", "addr:state": "CA", "addr:street": "East 7th Street", "amenity": "hospital", "emergency": "yes", "healthcare": "hospital", "healthcare:for": "veteran", "name": "Tibor Rubin VA Medical Center", "opening_hours": "24/7", "operator": "Veterans Health Administration", "operator:short": "VA", "operator:type": "government", "operator:wikidata": "Q6580225", "operator:wikipedia": "en:Veterans Health Administration", "phone": "+1 562 826 8000", "short_name": "VA", "website": "https://www.longbeach.va.gov/"}}, {"name": "VA Loma Linda Ambulatory Care Center", "latitude": 34.061064, "longitude": -117.2352352, "source": "osm", "_tags": {"amenity": "hospital", "healthcare": "hospital", "healthcare:for": "veteran", "name": "VA Loma Linda Ambulatory Care Center", "operator": "Veterans Health Administration", "operator:short": "VA", "operator:wikidata": "Q6580225", "short_name": "VA"}}, {"name": "Kaiser Permanente", "latitude": 34.6646493, "longitude": -118.155205, "source": "osm", "_tags": {"amenity": "hospital", "healthcare": "hospital", "name": "Kaiser Permanente", "operator": "Kaiser Permanente", "operator:short": "KP", "operator:website": "https://healthy.kaiserpermanente.org/", "operator:wikidata": "Q1721601", "operator:wikipedia": "en:Kaiser Permanente"}}, {"name": "", "latitude": 33.6559467, "longitude": -117.8780192, "source": "osm", "_tags": {"amenity": "hospital", "healthcare": "hospital"}}, {"name": "Kaiser Permanente San Marcos Medical Center", "latitude": 33.1297791, "longitude": -117.1704346, "source": "osm", "_tags": {"amenity": "hospital", "name": "Kaiser Permanente San Marcos Medical Center", "operator": "Kaiser Permanente", "operator:short": "KP", "operator:website": "https://healthy.kaiserpermanente.org/", "operator:wikidata": "Q1721601", "operator:wikipedia": "en:Kaiser Permanente", "wikidata": "Q50039592"}}, {"name": "", "latitude": 34.1345235, "longitude": -117.2547868, "source": "osm", "_tags": {"amenity": "hospital", "building": "commercial", "healthcare": "hospital", "operator": "Arrowhead Regional Medical Center"}}, {"name": "", "latitude": 33.9628348, "longitude": -117.3961617, "source": "osm", "_tags": {"amenity": "hospital", "healthcare": "hospital"}}, {"name": "", "latitude": 33.9432801, "longitude": -117.3959343, "source": "osm", "_tags": {"amenity": "hospital", "healthcare": "hospital"}}, {"name": "", "latitude": 34.094717, "longitude": -117.9622629, "source": "osm", "_tags": {"amenity": "hospital", "healthcare": "hospital"}}, {"name": "Barstow Community Hospital", "latitude": 34.8925258, "longitude": -117.0174022, "source": "osm", "_tags": {"addr:city": "Barstow", "addr:housenumber": "820", "addr:postcode": "92311", "addr:state": "CA", "addr:street": "East Mountain View Street", "amenity": "hospital", "emergency": "yes", "healthcare": "hospital", "name": "Barstow Community Hospital", "website": "https://barstowhospital.com/"}}, {"name": "La Casa Psychiatric Health Facility", "latitude": 33.8651827, "longitude": -118.1577476, "source": "osm", "_tags": {"addr:city": "Long Beach", "addr:housenumber": "6060", "addr:postcode": "90805", "addr:street": "Paramount Blvd.", "amenity": "hospital", "beds": "16", "healthcare": "hospital", "healthcare:speciality": "psychiatry", "name": "La Casa Psychiatric Health Facility", "website": "https://www.telecarecorp.com/la-casa-psychiatric-health-facility"}}, {"name": "", "latitude": 33.91638, "longitude": -118.0133461, "source": "osm", "_tags": {"amenity": "hospital", "emergency": "no", "healthcare": "hospital"}}, {"name": "Mirada Hills Rehabilitation and Convalescent Hospital", "latitude": 33.9197763, "longitude": -118.0103058, "source": "osm", "_tags": {"amenity": "hospital", "emergency": "no", "healthcare": "hospital", "healthcare:speciality": "rehabilitation;convalescent", "name": "Mirada Hills Rehabilitation and Convalescent Hospital", "operator": "Kaiser Permanente", "operator:short": "KP", "operator:website": "https://healthy.kaiserpermanente.org/", "operator:wikidata": "Q1721601", "operator:wikipedia": "en:Kaiser Permanente"}}, {"name": "Regimental Aid Station", "latitude": 33.3480219, "longitude": -117.4094493, "source": "osm", "_tags": {"addr:state": "CA", "amenity": "hospital", "healthcare": "hospital", "healthcare:speciality": "general;stomatology", "name": "Regimental Aid Station", "source": "esri/SanGIS_Buildings"}}, {"name": "", "latitude": 33.8844783, "longitude": -118.1624464, "source": "osm", "_tags": {"amenity": "hospital", "healthcare": "hospital"}}, {"name": "College Hospital Cerritos", "latitude": 33.8845373, "longitude": -118.1024583, "source": "osm", "_tags": {"addr:city": "Cerritos", "addr:housenumber": "10802", "addr:postcode": "90703", "addr:state": "CA", "addr:street": "College Place", "amenity": "hospital", "beds": "187", "healthcare": "hospital", "healthcare:speciality": "psychiatry", "name": "College Hospital Cerritos", "phone": "+1-562-924-9581", "website": "https://chc.la/ch-cerritos"}}, {"name": "Riverwalk Post-Acute", "latitude": 33.9206442, "longitude": -117.4548544, "source": "osm", "_tags": {"amenity": "hospital", "healthcare": "hospital", "name": "Riverwalk Post-Acute"}}, {"name": "Extended Care Hospital of Riverside", "latitude": 33.9350052, "longitude": -117.4223659, "source": "osm", "_tags": {"amenity": "hospital", "healthcare": "hospital", "name": "Extended Care Hospital of Riverside"}}, {"name": "Woodcrest Post Acute & Rehabilitation", "latitude": 33.9352605, "longitude": -117.4218281, "source": "osm", "_tags": {"amenity": "hospital", "healthcare": "hospital", "name": "Woodcrest Post Acute & Rehabilitation"}}, {"name": "Kaiser Permanente Foothill Medical Offices", "latitude": 34.1495965, "longitude": -118.083175, "source": "osm", "_tags": {"addr:city": "Pasadena", "addr:housenumber": "3280", "addr:postcode": "91107", "addr:state": "CA", "addr:street": "E. Foothill Boulevard", "amenity": "hospital", "building": "hospital", "emergency": "no", "healthcare": "hospital", "lacounty:ain": "5752023031", "lacounty:bld_id": "PAS72676", "name": "Kaiser Permanente Foothill Medical Offices", "operator": "Kaiser Permanente", "operator:short": "KP", "operator:website": "https://healthy.kaiserpermanente.org/", "operator:wikidata": "Q1721601", "operator:wikipedia": "en:Kaiser Permanente", "type": "multipolygon"}}, {"name": "UCI Health Medical Campus", "latitude": 33.6626202, "longitude": -117.8553587, "source": "osm", "_tags": {"addr:city": "Irvine", "addr:housenumber": "19262", "addr:postcode": "92612", "addr:state": "CA", "addr:street": "Jamboree Road", "amenity": "hospital", "check_date": "2025-01-05", "description": "UCI Health Medical Campus", "emergency": "yes", "fixme": "All the boundaries around here will need work when medical center is done", "healthcare": "hospital", "name": "UCI Health Medical Campus", "note": "New medical campus under construction", "opening_date": "2025-12-21", "operator": "University of California - Irvine", "operator:type": "public/government", "source": "https://uci.edu/north-campus/health/index.php", "type": "multipolygon"}}]