[{"name": "Palo Verde Hospital", "latitude": 33.6129915, "longitude": -114.5948413, "source": "osm", "_tags": {"addr:city": "Blythe", "addr:housenumber": "250", "addr:postcode": "92225", "addr:state": "CA", "addr:street": "North 1st Street", "amenity": "hospital", "beds": "51", "emergency": "yes", "healthcare": "hospital", "name": "Palo Verde Hospital", "opening_hours": "24/7", "phone": "+1 760 922 4115", "source": "Tiger2009", "website": "https://www.paloverdehospital.org/", "wikidata": "Q7128544", "wikipedia": "en:Palo Verde Hospital"}}, {"name": "Valley View Medical Center", "latitude": 35.0024429, "longitude": -114.5963514, "source": "osm", "_tags": {"addr:city": "Fort Mohave", "addr:housenumber": "5330", "addr:postcode": "86426", "addr:state": "AZ", "addr:street": "South Highway 95", "amenity": "hospital", "beds": "52", "emergency": "yes", "healthcare": "hospital", "name": "Valley View Medical Center", "opening_hours": "24/7", "phone": "+1 928 788 2273", "website": "https://www.valleyviewmedicalcenter.net/"}}, {"name": "Robert E Bush Naval Hospital", "latitude": 34.2270069, "longitude": -116.0489364, "source": "osm", "_tags": {"addr:city": "Twentynine Palms", "addr:housenumber": "1145", "addr:postcode": "92278", "addr:state": "CA", "addr:street": "Sturgis Road", "amenity": "doctors", "building": "hospital", "emergency": "yes", "healthcare": "hospital", "name": "Robert E Bush Naval Hospital"}}, {"name": "Parker Indian Hospital", "latitude": 34.1473444, "longitude": -114.3018972, "source": "osm", "_tags": {"access": "private", "addr:city": "Parker", "addr:housenumber": "12033", "addr:postcode": "85344", "addr:state": "AZ", "addr:street": "West Agency Avenue", "amenity": "hospital", "beds": "17", "emergency": "yes", "gnis:feature_id": "22780", "healthcare": "hospital", "name": "Parker Indian Hospital", "old_name": "Public Health Agency Hospital", "phone": "+1 928 669 2137", "website": "https://www.ihs.gov/Phoenix/healthcarefacilities/coloradoriver/"}}, {"name": "La Paz Regional Hospital", "latitude": 34.1363441, "longitude": -114.2854624, "source": "osm", "_tags": {"addr:city": "Parker", "addr:housenumber": "1200", "addr:postcode": "85344", "addr:state": "AZ", "addr:street": "West Mohave Road", "amenity": "hospital", "emergency": "yes", "gnis:feature_id": "22776", "healthcare": "hospital", "name": "La Paz Regional Hospital", "opening_hours": "24/7", "phone": "+1-928-669-9201", "website": "https://www.lapazhospital.org/"}}, {"name": "Colorado River Medical Center", "latitude": 34.8329097, "longitude": -114.617317, "source": "osm", "_tags": {"addr:city": "Needles", "addr:housenumber": "1401", "addr:postcode": "92363", "addr:street": "Bailey Avenue", "amenity": "hospital", "emergency": "yes", "gnis:feature_id": "1839753", "healthcare": "hospital", "healthcare:speciality": "emergency", "name": "Colorado River Medical Center", "old_name": "Needles-Desert Communities Hospital", "opening_hours": "24/7", "phone": "+1 760 326 7100", "website": "https://crmccares.com/"}}, {"name": "Robert E. Bush Naval Hospital", "latitude": 34.2264314, "longitude": -116.0487933, "source": "osm", "_tags": {"access": "private", "addr:city": "Twentynine Palms", "addr:housenumber": "1145", "addr:postcode": "92278", "addr:street": "Sturgis Road", "amenity": "hospital", "beds": "12", "emergency": "yes", "healthcare": "hospital", "name": "Robert E. Bush Naval Hospital", "opening_hours": "24/7", "operator": "United States Navy", "phone": "+1 760 830 2190", "website": "https://www.med.navy.mil/sites/nhtp/"}}, {"name": "Havasu Regional Medical Center", "latitude": 34.4805671, "longitude": -114.3382385, "source": "osm", "_tags": {"addr:city": "Lake Havasu City", "addr:housenumber": "101", "addr:postcode": "86403", "addr:state": "AZ", "addr:street": "Civic Center Lane", "amenity": "hospital", "beds": "171", "emergency": "yes", "healthcare": "hospital", "healthcare:trauma": "yes", "healthcare:trauma:level": "3", "name": "Havasu Regional Medical Center", "opening_hours": "24/7", "phone": "+1 928 855 8185", "website": "https://www.havasuregional.com/"}}]