[{"name": "Red River Hospital", "latitude": 33.9063162, "longitude": -98.5013346, "source": "osm", "_tags": {"addr:city": "Wichita Falls", "addr:housenumber": "1505", "addr:postcode": "76301", "addr:state": "TX", "addr:street": "8th Street", "amenity": "hospital", "beds": "96", "emergency": "no", "gnis:feature_id": "2015704", "healthcare": "hospital", "healthcare:speciality": "psychiatry", "name": "Red River Hospital", "phone": "+1-940-341-2464", "website": "https://www.redriverhospital.com/"}}, {"name": "Reynolds Army Health Clinic", "latitude": 34.6522258, "longitude": -98.4146754, "source": "osm", "_tags": {"addr:city": "Fort Sill", "addr:housenumber": "4301", "addr:postcode": "73503", "addr:street": "Wilson Street", "amenity": "hospital", "emergency": "no", "gnis:feature_id": "1101030", "healthcare": "hospital", "name": "Reynolds Army Health Clinic", "phone": "+1 580 558 2000", "website": "https://www.rach.sill.amedd.army.mil/"}}, {"name": "Midwestern Healthcare Center Wichita Falls, TX", "latitude": 33.8876535, "longitude": -98.4726079, "source": "osm", "_tags": {"addr:city": "Wichita Falls", "addr:housenumber": "601", "addr:postcode": "76302", "addr:state": "TX", "addr:street": "Midwestern Parkway East", "amenity": "hospital", "email": "midwestern.adm@nexion-health.com", "fax": "+1-940-763-8142", "healthcare": "hospital", "healthcare:speciality": "general;long_term_care;rehab_nursing;skill_nursing", "name": "Midwestern Healthcare Center Wichita Falls, TX", "operator": "Nexion", "operator:type": "private", "phone": "+1-940-723-0885"}}, {"name": "Jim Taliaferro Community Mental Health Center", "latitude": 34.6033043, "longitude": -98.4384691, "source": "osm", "_tags": {"addr:city": "Lawton", "addr:housenumber": "602", "addr:postcode": "73505", "addr:state": "OK", "addr:street": "Southwest 38th Street", "amenity": "hospital", "beds": "30", "healthcare": "hospital", "healthcare:speciality": "psychiatry", "name": "Jim Taliaferro Community Mental Health Center", "phone": "+1 580 248 5780", "website": "https://www.okdrs.gov/guide/jim-taliaferro-community-mental-health-center-0"}}, {"name": "Wilbarger General Hospital", "latitude": 34.1589349, "longitude": -99.3146434, "source": "osm", "_tags": {"addr:city": "Vernon", "addr:housenumber": "920", "addr:postcode": "76384", "addr:state": "TX", "addr:street": "Hillcrest Drive", "amenity": "hospital", "beds": "47", "emergency": "yes", "healthcare": "hospital", "name": "Wilbarger General Hospital", "opening_hours": "24/7", "phone": "+1 940 552 9351", "website": "https://www.wghospital.com/"}}, {"name": "North Texas State Hospital Vernon Campus", "latitude": 34.1548818, "longitude": -99.3272835, "source": "osm", "_tags": {"addr:city": "Vernon", "addr:country": "US", "addr:housenumber": "4730", "addr:postcode": "76384", "addr:state": "TX", "addr:street": "College Drive", "amenity": "hospital", "emergency": "no", "fax": "+1 940 553 2500", "healthcare": "hospital", "name": "North Texas State Hospital Vernon Campus", "operator": "Texas Department of State Health Services", "phone": "+1 940 552 9901", "website": "https://dshs.texas.gov/mhhospitals/default.shtm"}}, {"name": "Graham Regional Medical Center", "latitude": 33.0894472, "longitude": -98.5836321, "source": "osm", "_tags": {"addr:city": "Graham", "addr:housenumber": "1301", "addr:postcode": "76450", "addr:state": "TX", "addr:street": "Montgomery Road", "amenity": "hospital", "beds": "42", "emergency": "yes", "healthcare": "hospital", "name": "Graham Regional Medical Center", "opening_hours": "24/7", "phone": "+1 940 549 3400", "website": "https://grahamrmc.com/"}}, {"name": "Seymour Hospital", "latitude": 33.5899393, "longitude": -99.248725, "source": "osm", "_tags": {"addr:city": "Seymour", "addr:housenumber": "200", "addr:postcode": "76380", "addr:state": "TX", "addr:street": "North Stadium Drive", "amenity": "hospital", "beds": "25", "emergency": "yes", "healthcare": "hospital", "name": "Seymour Hospital", "opening_hours": "24/7", "phone": "+1 940 889 5572", "website": "https://seymourhospital.com/"}}, {"name": "North Texas State Hospital Wichita Falls Campus", "latitude": 33.8442633, "longitude": -98.525851, "source": "osm", "_tags": {"addr:city": "Wichita Falls", "addr:country": "US", "addr:housenumber": "6515", "addr:postcode": "76308", "addr:state": "TX", "addr:street": "Kemp Boulevard", "amenity": "hospital", "beds": "330", "emergency": "no", "healthcare": "hospital", "name": "North Texas State Hospital Wichita Falls Campus", "operator": "Texas Department of State Health Services", "source": "Bing Imagery Trace", "website": "https://dshs.texas.gov/mhhospitals/default.shtm"}}, {"name": "Southwestern Medical Center", "latitude": 34.5928334, "longitude": -98.4631562, "source": "osm", "_tags": {"addr:city": "Lawton", "addr:housenumber": "5602", "addr:postcode": "73505", "addr:street": "Southwest Lee Boulevard", "amenity": "hospital", "beds": "199", "emergency": "yes", "gnis:feature_id": "1101181", "healthcare": "hospital", "healthcare:speciality": "orthopaedics;paediatrics;surgery;general;emergency;gynaecology;radiology;maternity;internal;neurology;geriatrics", "name": "Southwestern Medical Center", "opening_hours": "24/7", "operator": "Southwestern Medical Center", "phone": "+1 580 531 4700", "website": "https://swmconline.com/"}}, {"name": "Comanche County Memorial Hospital", "latitude": 34.6106398, "longitude": -98.4337773, "source": "osm", "_tags": {"addr:city": "Lawton", "addr:housenumber": "3401", "addr:postcode": "73505", "addr:street": "Southwest Gore Boulevard", "amenity": "hospital", "emergency": "yes", "gnis:feature_id": "1101180", "healthcare": "hospital", "name": "Comanche County Memorial Hospital", "opening_hours": "24/7", "phone": "+1 580 355 8620", "website": "https://www.ccmhonline.com/"}}, {"name": "Lawton Indian Hospital", "latitude": 34.6272547, "longitude": -98.3842293, "source": "osm", "_tags": {"access": "private", "addr:city": "Lawton", "addr:housenumber": "1515", "addr:postcode": "73505", "addr:state": "OK", "addr:street": "Northeast Lawrie Tatum Road", "amenity": "hospital", "beds": "26", "emergency": "yes", "gnis:feature_id": "1094406", "healthcare": "hospital", "name": "Lawton Indian Hospital", "old_name": "Kiowa Indian Hospital", "opening_hours": "24/7", "phone": "+1 580 354 5000", "website": "https://www.ihs.gov/oklahomacity/healthcarefacilities/lawton/"}}, {"name": "Southwestern Behavioral Health", "latitude": 34.589892, "longitude": -98.4911321, "source": "osm", "_tags": {"addr:city": "Lawton", "addr:housenumber": "1602", "addr:postcode": "73505", "addr:street": "Southwest 82nd Street", "amenity": "hospital", "emergency": "no", "gnis:feature_id": "1101182", "healthcare": "hospital", "healthcare:speciality": "psychiatry", "name": "Southwestern Behavioral Health", "old_name": "Great Plains Hospital", "phone": "+1 580 536 0077", "website": "http://swmcbehavioralhealth.com/"}}, {"name": "Haskell Memorial Hospital", "latitude": 33.1572765, "longitude": -99.7444331, "source": "osm", "_tags": {"addr:city": "Haskell", "addr:housenumber": "1", "addr:postcode": "79521", "addr:street": "Avenue N", "amenity": "hospital", "beds": "25", "emergency": "yes", "gnis:feature_id": "2015775", "healthcare": "hospital", "name": "Haskell Memorial Hospital", "opening_hours": "24/7", "phone": "+1 940 864 2621", "website": "https://www.haskellmemorialhospital.com/"}}, {"name": "Hardeman County Memorial Hospital", "latitude": 34.2965428, "longitude": -99.7416235, "source": "osm", "_tags": {"addr:city": "Quanah", "addr:housenumber": "402", "addr:postcode": "79252", "addr:street": "Mercer Street", "amenity": "hospital", "emergency": "yes", "healthcare": "hospital", "name": "Hardeman County Memorial Hospital", "opening_hours": "24/7", "phone": "+1 940 663 2795", "website": "http://www.hcmhosp.com/"}}, {"name": "Chillicothe Hospital", "latitude": 34.2549782, "longitude": -99.5157581, "source": "osm", "_tags": {"addr:city": "Chillicothe", "addr:housenumber": "303", "addr:postcode": "79225", "addr:street": "Avenue i", "amenity": "hospital", "emergency": "yes", "gnis:feature_id": "2015840", "healthcare": "hospital", "name": "Chillicothe Hospital", "opening_hours": "24/7", "phone": "+1 940 852 5131", "website": "http://www.chillhd.org/"}}, {"name": "Electra Memorial Hospital", "latitude": 34.0183828, "longitude": -98.9247326, "source": "osm", "_tags": {"addr:city": "Electra", "addr:housenumber": "1207", "addr:postcode": "76360", "addr:state": "TX", "addr:street": "South Bailey Street", "amenity": "hospital", "beds": "19", "emergency": "yes", "gnis:feature_id": "2015702", "healthcare": "hospital", "name": "Electra Memorial Hospital", "opening_hours": "24/7", "phone": "+1 940 495 3981", "website": "https://www.electrahospital.com/"}}, {"name": "Kell West Regional Hospital", "latitude": 33.8732015, "longitude": -98.5806549, "source": "osm", "_tags": {"addr:city": "Wichita Falls", "addr:housenumber": "5420", "addr:postcode": "76310", "addr:state": "TX", "addr:street": "Kell West Boulevard", "amenity": "hospital", "beds": "41", "emergency": "yes", "gnis:feature_id": "2015703", "healthcare": "hospital", "name": "Kell West Regional Hospital", "opening_hours": "24/7", "phone": "+1 940 692 5888", "short_name": "KWRH", "website": "https://www.kellwest.com/"}}, {"name": "Promise Hospital of Wichita Falls", "latitude": 33.9027171, "longitude": -98.4994858, "source": "osm", "_tags": {"addr:city": "Wichita Falls", "addr:housenumber": "1103", "addr:postcode": "76301", "addr:state": "TX", "addr:street": "Grace Street", "amenity": "hospital", "beds": "31", "emergency": "no", "gnis:feature_id": "2025136", "healthcare": "hospital", "name": "Promise Hospital of Wichita Falls", "old_name": "Wichita Falls Integrated Health Services Hospital", "phone": "+1 940 720 6633", "website": "https://www.promise-wichitafalls.com/"}}, {"name": "United Regional Health Care System", "latitude": 33.9028951, "longitude": -98.5011743, "source": "osm", "_tags": {"addr:city": "Wichita Falls", "addr:housenumber": "1600", "addr:postcode": "76301", "addr:state": "TX", "addr:street": "11th Street", "amenity": "hospital", "beds": "565", "emergency": "yes", "gnis:feature_id": "1351933", "healthcare": "hospital", "name": "United Regional Health Care System", "old_name": "Bethania Hospital", "opening_hours": "24/7", "operator": "United Regional Health Care System", "phone": "+1 940 764 7000", "website": "https://www.unitedregional.org/"}}, {"name": "Clay County Memorial Hospital", "latitude": 33.8143471, "longitude": -98.1984589, "source": "osm", "_tags": {"addr:city": "Henrietta", "addr:housenumber": "310", "addr:postcode": "76365", "addr:street": "West South Street", "amenity": "hospital", "beds": "25", "emergency": "yes", "gnis:feature_id": "2015647", "healthcare": "hospital", "name": "Clay County Memorial Hospital", "opening_hours": "24/7", "phone": "+1 940 538 5621", "website": "https://www.ccmhospital.com/"}}, {"name": "Olney Hamilton Hospital", "latitude": 33.3692693, "longitude": -98.7645178, "source": "osm", "_tags": {"addr:city": "Olney", "addr:housenumber": "901", "addr:postcode": "76374", "addr:state": "TX", "addr:street": "West Hamilton Street", "amenity": "hospital", "beds": "25", "emergency": "yes", "gnis:feature_id": "1358699", "healthcare": "hospital", "name": "Olney Hamilton Hospital", "opening_hours": "24/7", "phone": "+1 940 564 5521", "website": "https://olneyhamiltonhospital.com/"}}, {"name": "Throckmorton County Memorial Hospital", "latitude": 33.1899655, "longitude": -99.1761858, "source": "osm", "_tags": {"addr:city": "Throckmorton", "addr:housenumber": "802", "addr:postcode": "76483", "addr:street": "North Minter Avenue", "amenity": "hospital", "beds": "14", "emergency": "yes", "gnis:feature_id": "2015676", "healthcare": "hospital", "name": "Throckmorton County Memorial Hospital", "opening_hours": "24/7", "phone": "+1 940 849 2151"}}, {"name": "Jackson County Memorial Hospital", "latitude": 34.635918, "longitude": -99.3180155, "source": "osm", "_tags": {"addr:city": "Altus", "addr:housenumber": "1200", "addr:postcode": "73521", "addr:street": "East Pecan Street", "amenity": "hospital", "beds": "49", "emergency": "yes", "healthcare": "hospital", "name": "Jackson County Memorial Hospital", "opening_hours": "24/7", "operator": "Jackson County Memorial Hospital", "phone": "+1 580 379 5000", "short_name": "JCMH", "website": "https://www.jcmh.com/"}}, {"name": "Harmon Memorial Hospital", "latitude": 34.6922788, "longitude": -99.9142881, "source": "osm", "_tags": {"addr:city": "Hollis", "addr:housenumber": "400", "addr:postcode": "73550", "addr:street": "East Chestnut Street", "amenity": "hospital", "beds": "25", "emergency": "yes", "healthcare": "hospital", "name": "Harmon Memorial Hospital", "opening_hours": "24/7", "phone": "+1 580 688 3363", "website": "https://harmonmemorial.com/"}}, {"name": "Mangum Regional Medical Center", "latitude": 34.8923432, "longitude": -99.5006928, "source": "osm", "_tags": {"addr:city": "Mangum", "addr:housenumber": "1", "addr:postcode": "73554", "addr:street": "Wickersham Drive", "amenity": "hospital", "beds": "18", "emergency": "yes", "healthcare": "hospital", "name": "Mangum Regional Medical Center", "opening_hours": "24/7", "phone": "+1 580 782 3353", "short_name": "MRMC", "website": "http://www.mangumregional.org/"}}, {"name": "Knox County Hospital", "latitude": 33.4136127, "longitude": -99.811359, "source": "osm", "_tags": {"addr:city": "Knox City", "addr:housenumber": "701", "addr:postcode": "79529", "addr:street": "Southeast 5th Street", "amenity": "hospital", "beds": "28", "emergency": "yes", "healthcare": "hospital", "name": "Knox County Hospital", "opening_hours": "24/7", "phone": "+1 940 657 3535"}}, {"name": "Sheppard Air Force Base Hospital", "latitude": 33.9768336, "longitude": -98.517618, "source": "osm", "_tags": {"addr:city": "Wichita Falls", "addr:housenumber": "149", "addr:postcode": "76311", "addr:state": "TX", "addr:street": "G W Hart Street", "amenity": "hospital", "healthcare": "hospital", "name": "Sheppard Air Force Base Hospital"}}]