[{"name": "Faith Community Hospital", "latitude": 33.2309251, "longitude": -98.1667256, "source": "osm", "_tags": {"addr:city": "Jacksboro", "addr:housenumber": "215", "addr:postcode": "76458", "addr:street": "Chisholm Trail", "amenity": "hospital", "beds": "41", "emergency": "yes", "healthcare": "hospital", "name": "Faith Community Hospital", "opening_hours": "24/7", "phone": "+1 940 567 6633", "website": "https://www.fchtexas.com/"}}, {"name": "Duncan Regional Hospital", "latitude": 34.5204496, "longitude": -97.9763392, "source": "osm", "_tags": {"addr:city": "Duncan", "addr:housenumber": "1407", "addr:postcode": "73533", "addr:street": "North Whisenant Drive", "amenity": "hospital", "building": "hospital", "emergency": "yes", "healthcare": "hospital", "name": "Duncan Regional Hospital", "phone": "580-252-5300", "website": "https://www.duncanregional.com/"}}, {"name": "Jefferson County Hospital", "latitude": 34.1573497, "longitude": -97.9789576, "source": "osm", "_tags": {"addr:city": "Waurika", "addr:postcode": "73573", "addr:street": "US Highway 70 & 81", "amenity": "hospital", "beds": "25", "emergency": "yes", "gnis:feature_id": "1777810", "healthcare": "hospital", "name": "Jefferson County Hospital", "opening_hours": "24/7", "phone": "+1 580 228 2344", "website": "https://www.jeffersoncountyhospital.net/"}}]