[{"name": "Banner Children’s at Desert", "latitude": 33.3902134, "longitude": -111.878137, "source": "osm", "_tags": {"addr:city": "Mesa", "addr:housenumber": "1400", "addr:postcode": "85202", "addr:state": "AZ", "addr:street": "South Dobson Road", "amenity": "hospital", "emergency": "yes", "gnis:feature_id": "2466988", "healthcare": "hospital", "healthcare:speciality": "paediatrics", "name": "Banner Children’s at Desert", "not:name": "Cardon Children’s Medical Center", "phone": "+1 480 412 5437", "start_date": "2009", "website": "https://www.bannerhealth.com/locations/mesa/cardon-children-s-medical-center", "wheelchair": "yes", "wikidata": "Q124527471"}}, {"name": "Saint Joseph's Hospital Huger Mercy Living Center", "latitude": 33.5450922, "longitude": -112.109926, "source": "osm", "_tags": {"amenity": "hospital", "ele": "363", "emergency": "no", "gnis:feature_id": "2467015", "healthcare": "hospital", "name": "Saint Joseph's Hospital Huger Mercy Living Center"}}, {"name": "Select Specialty Hospital - Phoenix", "latitude": 33.4811191, "longitude": -112.079307, "source": "osm", "_tags": {"addr:city": "Phoenix", "addr:housenumber": "350", "addr:postcode": "85013", "addr:state": "AZ", "addr:street": "West Thomas Road", "amenity": "hospital", "emergency": "no", "gnis:feature_id": "2467022", "healthcare": "hospital", "level": "3", "name": "Select Specialty Hospital - Phoenix", "operator": "Select Specialty Hospital", "operator:wikidata": "Q66360902", "phone": "+1-602-406-6810", "website": "https://phoenix.selectspecialtyhospitals.com/"}}, {"name": "Haven Senior Horizons of Phoenix", "latitude": 33.4356459, "longitude": -112.0812143, "source": "osm", "_tags": {"addr:city": "Phoenix", "addr:housenumber": "1201", "addr:postcode": "85007", "addr:state": "AZ", "addr:street": "South 7th Avenue", "addr:unit": "Suite 200", "amenity": "hospital", "emergency": "no", "healthcare": "hospital", "healthcare:speciality": "psychiatry", "name": "Haven Senior Horizons of Phoenix", "operator": "Haven Behavioral Healthcare", "operator:type": "private", "phone": "+1-623-236-2000", "source": "microsoft/BuildingFootprints", "website": "https://www.havenofphoenix.com/"}}, {"name": "Barrow Neurological Institute", "latitude": 33.4807657, "longitude": -112.0788312, "source": "osm", "_tags": {"addr:city": "Phoenix", "addr:housenumber": "350", "addr:postcode": "85013", "addr:state": "AZ", "addr:street": "West Thomas Road", "amenity": "hospital", "emergency": "no", "healthcare": "hospital", "healthcare:speciality": "neurology", "name": "Barrow Neurological Institute", "name:en": "Neurosurgery at Barrow Neurological Institute", "operator": "Dignity Health", "operator:type": "private", "operator:wikidata": "Q5276334", "phone": "+1-602-406-3181", "website": "https://www.barrowneuro.org/wp-content/uploads/Neurosurgery_Flyer_8-2021.pdf", "wikidata": "Q4863895", "wikipedia": "en:Barrow Neurological Institute"}}, {"name": "Just For Kids Therapy", "latitude": 33.5887043, "longitude": -112.108591, "source": "osm", "_tags": {"addr:city": "Phoenix", "addr:housenumber": "11226", "addr:postcode": "85029", "addr:state": "AZ", "addr:street": "North 23rd Avenue", "addr:unit": "101", "amenity": "hospital", "description": "Children's Speech, Occupational, Physical, and Music Therapy center.  Accepting DDD insurance.", "healthcare": "hospital", "healthcare:speciality": "pathology;paediatrics;community;physiatry", "name": "Just For Kids Therapy", "operator": "Just For Kids Therapy", "operator:type": "community", "phone": "602-794-7221", "website": "https://www.justforkidsaz.com"}}, {"name": "Banner Imaging", "latitude": 33.6536018, "longitude": -112.112571, "source": "osm", "_tags": {"addr:city": "Phoenix", "addr:country": "US", "addr:housenumber": "18444", "addr:postcode": "85023", "addr:state": "AZ", "addr:street": "North 25th Avenue", "addr:unit": "140", "amenity": "hospital", "healthcare": "hospital", "name": "Banner Imaging", "operator": "Banner Health", "operator:wikidata": "Q4856918"}}, {"name": "The CORE Institute Specialty Hospital", "latitude": 33.6538081, "longitude": -112.1132416, "source": "osm", "_tags": {"amenity": "hospital", "name": "The CORE Institute Specialty Hospital"}}, {"name": "Recovery Center For The Arts", "latitude": 33.5832096, "longitude": -111.9724201, "source": "osm", "_tags": {"addr:city": "Scottsdale", "addr:housenumber": "5040", "addr:postcode": "85254", "addr:state": "AZ", "addr:street": "E Shea Blvd", "addr:unit": "#154", "amenity": "hospital", "description": "Rediscovering Life Through Art at RCFTAThe Recovery Center for the Arts (RCFTA) offers a distinctive approach to addiction and mental health treatment, blending evidence-based practices with the healing power of creative expression. Situated near Scottsda", "email": "info@rcfta.com", "emergency": "no", "healthcare": "hospital", "healthcare:speciality": "addicton_treatment", "image": "https://lh5.googleusercontent.com/p/AF1QipNUwcfEF6J6tXF7IwGrRDZjT8QW7BOSPg8SWyU=s690-k-no", "name": "Recovery Center For The Arts", "phone": "(602) 579-9023", "website": "https://www.rcfta.com"}}, {"name": "MIND 24-7", "latitude": 33.5768327, "longitude": -112.1259838, "source": "osm", "_tags": {"addr:city": "Phoenix", "addr:housenumber": "10046", "addr:postcode": "85051", "addr:state": "AZ", "addr:street": "N Metro Pkwy W", "amenity": "hospital", "email": "info@mind24-7.com", "healthcare": "hospital", "healthcare:speciality": "psychiatry;child_psychiatry", "image": "https://lh3.googleusercontent.com/p/AF1QipPtcIGHdMAWrZVfvbWiu0EXJaATxM0HpXuhYFXT=w530-h298-k-no", "name": "MIND 24-7", "phone": "(844) 646-3247", "website": "https://www.mind24-7.com/locations/location-az-phoenix-north-central/"}}, {"name": "Crossroads", "latitude": 33.3118256, "longitude": -111.8396812, "source": "osm", "_tags": {"addr:city": "Chandler", "addr:housenumber": "501", "addr:postcode": "85225", "addr:state": "AZ", "addr:street": "N. Washington St", "amenity": "hospital", "contact:facebook": "https://www.facebook.com/CrossroadsIncAZ", "description": "Addiction treatment center", "email": "admissions@thecrossroadsinc.org", "emergency": "yes", "healthcare": "hospital", "healthcare:speciality": "addiction_treatment", "name": "Crossroads", "phone": "480-937-1999"}}, {"name": "Chandler Regional Medical Center", "latitude": 33.2968664, "longitude": -111.8740875, "source": "osm", "_tags": {"addr:city": "Chandler", "addr:housenumber": "1955", "addr:postcode": "85224", "addr:state": "AZ", "addr:street": "West Frye Road", "amenity": "hospital", "emergency": "yes", "healthcare": "hospital", "name": "Chandler Regional Medical Center", "opening_hours": "24/7", "operator": "Dignity Health", "operator:type": "private", "operator:wikidata": "Q5276334", "operator:wikipedia": "en:Dignity Health", "phone": "+1 480 728 3000", "source": "esri_USDOT_Arizona", "start_date": "1961", "website": "https://www.dignityhealth.org/arizona/locations/chandlerregional", "wikidata": "Q60769177", "wikipedia": "en:Chandler Regional Medical Center"}}, {"name": "Verde Valley Medical Center - Sedona Campus", "latitude": 34.856256, "longitude": -111.8233221, "source": "osm", "_tags": {"addr:city": "Sedona", "addr:housenumber": "3700", "addr:postcode": "86336", "addr:state": "AZ", "addr:street": "West State Route 89A", "amenity": "hospital", "emergency": "yes", "healthcare": "hospital", "name": "Verde Valley Medical Center - Sedona Campus", "opening_hours": "24/7", "operator": "Northern Arizona Healthcare", "operator:type": "private", "phone": "+1 928 634 2251", "website": "https://nahealth.com/"}}, {"name": "Phoenix Memorial Center", "latitude": 33.4356281, "longitude": -112.0814908, "source": "osm", "_tags": {"addr:city": "Phoenix", "addr:housenumber": "1201", "addr:postcode": "85007", "addr:state": "AZ", "addr:street": "South 7th Avenue", "amenity": "hospital", "gnis:feature_id": "14914", "healthcare": "hospital", "name": "Phoenix Memorial Center", "old_name": "Phoenix Memorial Hospital", "source": "esri/USA_NAD_Addresses", "start_date": "1934", "website": "https://www.phxmemorialhospital.com/", "wikidata": "Q112304811"}}, {"name": "Dignity Health St Joseph's Hospital and Medical Center", "latitude": 33.4821819, "longitude": -112.0791749, "source": "osm", "_tags": {"addr:city": "Phoenix", "addr:housenumber": "350", "addr:postcode": "85013", "addr:state": "AZ", "addr:street": "West Thomas Road", "amenity": "hospital", "beds": "586", "emergency": "yes", "healthcare": "hospital", "healthcare:speciality": "emergency;trauma", "name": "Dignity Health St Joseph's Hospital and Medical Center", "note": "http://www.dignityhealth.org/stjosephs/patients-and-visitors/for-visitors/documents/campus-map", "operator": "Dignity Health", "operator:type": "private", "operator:wikidata": "Q5276334", "operator:wikipedia": "en:Dignity Health", "source": "http://www.dignityhealth.org/cm/content/pages/arizona.asp", "start_date": "1895", "website": "https://www.dignityhealth.org/stjosephs/", "wheelchair": "yes", "wikidata": "Q7589191", "wikipedia": "en:Dignity Health St. Joseph's Hospital and Medical Center"}}, {"name": "", "latitude": 33.6453131, "longitude": -111.8944018, "source": "osm", "_tags": {"addr:city": "Scottsdale", "addr:country": "US", "addr:housenumber": "8573", "addr:postcode": "85255", "addr:state": "AZ", "addr:street": "East Princess Drive", "building": "yes", "healthcare": "hospital", "website": "https://surgicalrobotix.com/"}}, {"name": "Aurora Behavior Health (East Campus)", "latitude": 33.364481, "longitude": -111.9394576, "source": "osm", "_tags": {"addr:city": "Tempe", "addr:housenumber": "6350", "addr:postcode": "85283", "addr:state": "AZ", "addr:street": "South Maple Avenue", "amenity": "hospital", "emergency": "no", "healthcare": "hospital", "healthcare:speciality": "psychiatry", "name": "Aurora Behavior Health (East Campus)", "operator": "Aurora Behavioral Health System", "operator:type": "private", "phone": "+1 480 345 5400", "website": "https://www.auroraarizona.com/", "wikidata": "Q124653743"}}, {"name": "Greenbaum Surgical Specialty Hospital", "latitude": 33.4901834, "longitude": -111.9255666, "source": "osm", "_tags": {"addr:city": "Scottsdale", "addr:country": "US", "addr:housenumber": "3535", "addr:postcode": "85251", "addr:state": "AZ", "addr:street": "North Scottsdale Road", "amenity": "hospital", "building": "yes", "emergency": "no", "healthcare": "hospital", "healthcare:speciality": "surgery", "name": "Greenbaum Surgical Specialty Hospital", "opening_hours": "24/7", "phone": "+1 480 882 4958", "website": "https://www.honorhealth.com/locations/specialty-care/greenbaum-surgical-specialty-hospital"}}, {"name": "Mayo Clinic Hospital", "latitude": 33.6578544, "longitude": -111.9546501, "source": "osm", "_tags": {"addr:city": "Phoenix", "addr:housenumber": "5777", "addr:postcode": "85054", "addr:state": "AZ", "addr:street": "East Mayo Boulevard", "amenity": "hospital", "beds": "268", "emergency": "yes", "gnis:feature_id": "2467007", "healthcare": "hospital", "name": "Mayo Clinic Hospital", "opening_hours": "24/7", "phone": "+1 480 515 6296", "source": "https://mcforms.mayo.edu/mc1600-mc1699/mc1663-61.pdf", "start_date": "1986-06", "website": "https://www.mayoclinic.org/patient-visitor-guide/arizona/clinic-hospital-buildings/mayo-clinic-hospital", "wikidata": "Q30265230"}}, {"name": "Mayo Clinic Hospital Scottsdale Campus", "latitude": 33.58554, "longitude": -111.7941607, "source": "osm", "_tags": {"addr:city": "Scottsdale", "addr:housenumber": "13400", "addr:postcode": "85259", "addr:state": "AZ", "addr:street": "East Shea Boulevard", "amenity": "hospital", "emergency": "no", "healthcare": "hospital", "name": "Mayo Clinic Hospital Scottsdale Campus", "phone": "+1 480 301 8000", "source": "esri_USDOT_Arizona", "website": "https://www.mayoclinic.org/patient-visitor-guide/arizona/clinic-hospital-buildings"}}, {"name": "Encompass Health Rehabilitation Hospital of Scottsdale", "latitude": 33.5832754, "longitude": -111.8728712, "source": "osm", "_tags": {"addr:city": "Scottsdale", "addr:housenumber": "9630", "addr:postcode": "85260", "addr:state": "AZ", "addr:street": "East Shea Boulevard", "amenity": "hospital", "beds": "60", "emergency": "no", "gnis:feature_id": "2467008", "healthcare": "hospital", "healthcare:speciality": "physiatry", "name": "Encompass Health Rehabilitation Hospital of Scottsdale", "old_name": "Meridian Point Hospital", "operator": "Encompass Health", "operator:type": "private", "operator:wikidata": "Q5690400", "phone": "+1 480 551 5400", "start_date": "2006-02-14", "website": "https://encompasshealth.com/locations/scottsdalerehab", "wikidata": "Q124733413"}}, {"name": "Banner Behavioral Health Hospital", "latitude": 33.483074, "longitude": -111.9186639, "source": "osm", "_tags": {"addr:city": "Scottsdale", "addr:housenumber": "7575", "addr:postcode": "85251", "addr:state": "AZ", "addr:street": "East Earll Drive", "amenity": "hospital", "emergency": "no", "healthcare": "hospital", "healthcare:speciality": "psychiatry", "name": "Banner Behavioral Health Hospital", "phone": "+1 480 941 7500", "website": "https://www.bannerhealth.com/locations/scottsdale/banner-behavioral-health-hospital", "wikidata": "Q124527154"}}, {"name": "Dignity Health Mercy Gilbert Medical Center", "latitude": 33.2876462, "longitude": -111.7520302, "source": "osm", "_tags": {"addr:city": "Gilbert", "addr:country": "US", "addr:housenumber": "3555", "addr:postcode": "85297", "addr:state": "AZ", "addr:street": "South Val Vista Drive", "amenity": "hospital", "beds": "198", "emergency": "yes", "healthcare": "hospital", "name": "Dignity Health Mercy Gilbert Medical Center", "opening_hours": "24/7", "operator": "Dignity Health", "operator:type": "private", "operator:wikidata": "Q5276334", "operator:wikipedia": "en:Dignity Health", "phone": "+1 480 728 8000", "website": "https://www.dignityhealth.org/mercygilbert/", "wikidata": "Q6818734"}}, {"name": "Abrazo Central Campus", "latitude": 33.5250858, "longitude": -112.1024357, "source": "osm", "_tags": {"addr:city": "Phoenix", "addr:housenumber": "2000", "addr:postcode": "85015", "addr:state": "AZ", "addr:street": "West Bethany Home Road", "amenity": "hospital", "emergency": "yes", "gnis:feature_id": "14904", "healthcare": "hospital", "name": "Abrazo Central Campus", "not:name": "Phoenix Baptist Hospital & Medical Center", "not:operator:wikidata": "Q4669507", "operator": "Abrazo Community Health Network", "operator:type": "private", "phone": "+602-249-0212", "start_date": "1963", "website": "https://www.abrazohealth.com/our-locations/abrazo-central-campus", "wheelchair": "yes", "wikidata": "Q7186796", "wikipedia": "en:Abrazo Central Campus"}}, {"name": "Valleywise Behavioral Health Center Maryvale", "latitude": 33.5027969, "longitude": -112.1706155, "source": "osm", "_tags": {"addr:city": "Phoenix", "addr:housenumber": "5102", "addr:postcode": "85031", "addr:state": "AZ", "addr:street": "West Campbell Avenue", "amenity": "hospital", "ele": "343", "emergency": "yes", "gnis:feature_id": "14740", "healthcare": "hospital", "healthcare:speciality": "physiatry", "name": "Valleywise Behavioral Health Center Maryvale", "operator": "Valleywise Health", "operator:type": "public", "phone": "+1 623 848 5000", "source": "https://valleywisehealth.org/locations/behavioral-health-center-maryvale/", "start_date": "1961", "website": "https://valleywisehealth.org/locations/behavioral-health-center-maryvale/", "wheelchair": "yes", "wikidata": "Q6781791", "wikipedia": "en:Valleywise Behavioral Health Center Maryvale"}}, {"name": "Banner Ironwood Medical Center", "latitude": 33.2147593, "longitude": -111.5650458, "source": "osm", "_tags": {"addr:city": "Queen Creek", "addr:housenumber": "37000", "addr:postcode": "85140", "addr:state": "AZ", "addr:street": "North Gantzel Road", "amenity": "hospital", "beds": "53", "emergency": "yes", "gnis:feature_id": "2667645", "healthcare": "hospital", "healthcare:speciality": "emergency;trauma", "name": "Banner Ironwood Medical Center", "opening_hours": "24/7", "operator": "Banner Health", "operator:type": "private", "operator:wikidata": "Q4856918", "operator:wikipedia": "en:Banner Health", "phone": "+1 480 394 4000", "smoking": "no", "start_date": "2010-11-01", "website": "https://www.bannerhealth.com/locations/queen-creek/banner-ironwood-medical-center", "wikidata": "Q124630640"}}, {"name": "HonorHealth John C. Lincoln Medical Center", "latitude": 33.5695945, "longitude": -112.0700822, "source": "osm", "_tags": {"addr:city": "Phoenix", "addr:housenumber": "250", "addr:postcode": "85020", "addr:state": "AZ", "addr:street": "East Dunlap Avenue", "amenity": "hospital", "beds": "266", "emergency": "yes", "healthcare": "hospital", "healthcare:speciality": "emergency;trauma", "name": "HonorHealth John C. Lincoln Medical Center", "opening_hours": "24/7", "operator": "HonorHealth", "operator:type": "private", "phone": "+1 602 943 2381", "website": "https://www.honorhealth.com/locations/hospitals/john-c-lincoln-medical-center", "wikidata": "Q124748386"}}, {"name": "Phoenix Indian Medical Center", "latitude": 33.4965445, "longitude": -112.0490894, "source": "osm", "_tags": {"access": "private", "addr:city": "Phoenix", "addr:housenumber": "4212", "addr:postcode": "85016", "addr:state": "AZ", "addr:street": "North 16th Street", "amenity": "hospital", "emergency": "yes", "healthcare": "hospital", "name": "Phoenix Indian Medical Center", "opening_hours": "24/7", "phone": "+1 602 263 1200", "source": "esri_USDOT_Arizona", "website": "https://www.ihs.gov/Phoenix/healthcarefacilities/phoenix/", "wikidata": "Q30288678"}}, {"name": "College Medical Center Phoenix", "latitude": 33.4527472, "longitude": -112.0428422, "source": "osm", "_tags": {"addr:city": "Phoenix", "addr:housenumber": "1800", "addr:postcode": "85006", "addr:state": "AZ", "addr:street": "East Van Buren Street", "amenity": "hospital", "beds": "124", "emergency": "no", "gnis:feature_id": "2467016", "healthcare": "hospital", "healthcare:speciality": "psychiatry", "name": "College Medical Center Phoenix", "not:operator:wikidata": "Q7615662", "old_name": "St. Luke's Behavioral Health Center", "opening_hours": "24/7", "operator": "College Health Enterprises", "operator:type": "private", "phone": "+1 602-251-8535", "source": "local knowledge;https://www.abc15.com/news/local-news/st-lukes-behavioral-health-center-approved-to-reopen-after-azdhs-order-to-cease-operations", "website": "https://cmcphoenix.com/", "wikidata": "Q124711906"}}, {"name": "Arizona Community Protection & Treatment Center", "latitude": 33.4531167, "longitude": -112.0275449, "source": "osm", "_tags": {"amenity": "hospital", "area": "yes", "emergency": "no", "healthcare": "hospital", "healthcare:speciality": "psychiatry", "name": "Arizona Community Protection & Treatment Center", "operator": "Arizona Department of Health Services", "operator:type": "government", "website": "https://directorsblog.health.azdhs.gov/acptc/"}}, {"name": "Banner Goldfield Medical Center", "latitude": 33.3942701, "longitude": -111.5671828, "source": "osm", "_tags": {"addr:city": "Apache Junction", "addr:housenumber": "2050", "addr:postcode": "85120", "addr:state": "AZ", "addr:street": "West Southern Avenue", "amenity": "hospital", "emergency": "yes", "healthcare": "hospital", "healthcare:speciality": "emergency", "name": "Banner Goldfield Medical Center", "opening_hours": "24/7", "operator": "Banner Health", "operator:type": "private", "operator:wikidata": "Q4856918", "operator:wikipedia": "en:Banner Health", "phone": "+1 480 733 3300", "smoking": "no", "start_date": "2013-06-14", "website": "https://www.bannerhealth.com/locations/apache-junction/banner-goldfield-medical-center", "wikidata": "Q124630570"}}, {"name": "Banner MD Anderson Cancer Center", "latitude": 33.3844309, "longitude": -111.7263527, "source": "osm", "_tags": {"addr:city": "Gilbert", "addr:housenumber": "2946", "addr:postcode": "85234", "addr:state": "AZ", "addr:street": "Banner Gateway Drive", "amenity": "hospital", "emergency": "no", "healthcare": "hospital", "healthcare:speciality": "oncology", "name": "Banner MD Anderson Cancer Center", "operator": "Banner Health", "operator:type": "private", "operator:wikidata": "Q4856918", "phone": "+1 480 256 6444", "start_date": "2011-11-26", "website": "https://www.bannerhealth.com/banner-md-anderson", "wikidata": "Q118175435"}}, {"name": "Banner Gateway Medical Center", "latitude": 33.3842077, "longitude": -111.7222785, "source": "osm", "_tags": {"addr:city": "Gilbert", "addr:housenumber": "1900", "addr:postcode": "85234", "addr:state": "AZ", "addr:street": "North Higley Road", "amenity": "hospital", "beds": "177", "emergency": "yes", "healthcare": "hospital", "healthcare:speciality": "emergency", "name": "Banner Gateway Medical Center", "opening_hours": "24/7", "operator": "Banner Health", "operator:type": "private", "operator:wikidata": "Q4856918", "operator:wikipedia": "en:Banner Health", "phone": "+1 480 543 2000", "smoking": "no", "start_date": "2007", "website": "https://www.bannerhealth.com/locations/gilbert/banner-gateway-medical-center", "wikidata": "Q119857220"}}, {"name": "Banner Thunderbird Medical Center", "latitude": 33.6090405, "longitude": -112.1797384, "source": "osm", "_tags": {"addr:city": "Glendale", "addr:housenumber": "5555", "addr:postcode": "85306", "addr:state": "AZ", "addr:street": "West Thunderbird Road", "amenity": "hospital", "area": "yes", "ele": "373", "emergency": "yes", "healthcare": "hospital", "healthcare:speciality": "emergency;trauma", "name": "Banner Thunderbird Medical Center", "operator": "Banner Health", "operator:type": "private", "operator:wikidata": "Q4856918", "operator:wikipedia": "en:Banner Health", "phone": "+602-865-5555", "smoking": "no", "start_date": "1983", "website": "https://www.bannerhealth.com/", "wheelchair": "yes", "wikidata": "Q50039229"}}, {"name": "Phoenix Children's Hospital", "latitude": 33.4788646, "longitude": -112.0416287, "source": "osm", "_tags": {"addr:city": "Phoenix", "addr:housenumber": "1919", "addr:postcode": "85016", "addr:state": "AZ", "addr:street": "East Thomas Road", "amenity": "hospital", "emergency": "yes", "healthcare": "hospital", "healthcare:speciality": "paediatrics;emergency;trauma", "name": "Phoenix Children's Hospital", "opening_hours": "24/7", "phone": "+1 602 933 1000", "source": "esri_USDOT_Arizona;http://www.phoenixchildrens.org/sites/default/files/assets/maps/campus_map-large.jpg", "start_date": "1983", "website": "https://www.phoenixchildrens.org/locations/phoenix-childrens-hospital-main", "wikidata": "Q18156816", "wikipedia": "en:Phoenix Children's Hospital"}}, {"name": "Abrazo Arizona Heart Hospital", "latitude": 33.4813113, "longitude": -112.0400221, "source": "osm", "_tags": {"addr:city": "Phoenix", "addr:housenumber": "1930", "addr:postcode": "85016", "addr:state": "AZ", "addr:street": "East Thomas Road", "amenity": "hospital", "emergency": "yes", "healthcare": "hospital", "name": "Abrazo Arizona Heart Hospital", "opening_hours": "24/7", "operator": "TH Medical", "operator:type": "private", "phone": "+1 602 532 1000", "source": "esri_USDOT_Arizona", "start_date": "1998", "website": "https://www.abrazohealth.com/our-locations/abrazo-arizona-heart-hospital", "wikidata": "Q4791320", "wikipedia": "en:Abrazo Arizona Heart Hospital"}}, {"name": "Carl T. Hayden Veterans Affairs Medical Center", "latitude": 33.4975758, "longitude": -112.0671717, "source": "osm", "_tags": {"access": "private", "addr:city": "Phoenix", "addr:housenumber": "650", "addr:postcode": "85012", "addr:state": "AZ", "addr:street": "East Indian School Road", "amenity": "hospital", "emergency": "yes", "gnis:feature_id": "2466993", "healthcare": "hospital", "name": "Carl T. Hayden Veterans Affairs Medical Center", "opening_hours": "24/7", "phone": "+1 602 277 5551", "start_date": "1987", "website": "https://www.phoenix.va.gov/", "wikidata": "Q30254306"}}, {"name": "Valley Hospital", "latitude": 33.4828513, "longitude": -112.0055991, "source": "osm", "_tags": {"addr:city": "Phoenix", "addr:housenumber": "3550", "addr:postcode": "85018", "addr:state": "AZ", "addr:street": "East Pinchot Avenue", "amenity": "hospital", "emergency": "no", "healthcare": "hospital", "name": "Valley Hospital", "source": "esri_USDOT_Arizona", "website": "https://valleyhospital-phoenix.com/", "wikidata": "Q124767687"}}, {"name": "Banner University Medical Center Phoenix", "latitude": 33.4646612, "longitude": -112.0585751, "source": "osm", "_tags": {"addr:city": "Phoenix", "addr:housenumber": "1111", "addr:postcode": "85006", "addr:state": "AZ", "addr:street": "East McDowell Road", "amenity": "hospital", "emergency": "yes", "healthcare": "hospital", "healthcare:speciality": "emergency;trauma", "name": "Banner University Medical Center Phoenix", "not:name": "Banner Good Samaritan Medical Center", "opening_hours": "24/7", "operator": "Banner Health", "operator:type": "private", "operator:wikidata": "Q4856918", "operator:wikipedia": "en:Banner Health", "phone": "+1 602 839 2000", "smoking": "no", "source": "esri_USDOT_Arizona", "start_date": "1911", "website": "https://www.bannerhealth.com/locations/phoenix/banner-university-medical-center-phoenix", "wheelchair": "yes", "wikidata": "Q50379822", "wikipedia": "en:Banner - University Medical Center Phoenix"}}, {"name": "Banner Payson Medical Center", "latitude": 34.2302543, "longitude": -111.3210102, "source": "osm", "_tags": {"addr:city": "Payson", "addr:housenumber": "807", "addr:postcode": "85072", "addr:state": "AZ", "addr:street": "South Ponderosa Street", "amenity": "hospital", "emergency": "yes", "gnis:feature_id": "39685", "healthcare": "hospital", "name": "Banner Payson Medical Center", "old_name": "Payson Hospital", "opening_hours": "24/7", "operator": "Banner Health", "operator:type": "private", "operator:wikidata": "Q4856918", "phone": "+1 928 474 3222", "website": "https://www.bannerhealth.com/locations/payson/banner-payson-medical-center"}}, {"name": "Verde Valley Medical Center", "latitude": 34.7353075, "longitude": -112.0295435, "source": "osm", "_tags": {"addr:city": "Cottonwood", "addr:postcode": "86326", "addr:street": "South Candy Lane", "amenity": "hospital", "emergency": "yes", "gnis:feature_id": "38605", "healthcare": "hospital", "name": "Verde Valley Medical Center", "old_name": "Marcus J Lawrence Memorial Hospital", "opening_hours": "24/7", "phone": "+1 928 634 2251", "website": "https://nahealth.com/"}}, {"name": "Cobre Valley Regional Medical Center", "latitude": 33.4062314, "longitude": -110.8267336, "source": "osm", "_tags": {"addr:city": "Globe", "addr:housenumber": "5880", "addr:postcode": "85501", "addr:state": "AZ", "addr:street": "South Hospital Drive", "amenity": "hospital", "emergency": "yes", "gnis:feature_id": "39619", "name": "Cobre Valley Regional Medical Center", "old_name": "Miami-Inspiration Hospital", "opening_hours": "24/7", "phone": "+1 928 425 3261", "website": "https://www.cvrmc.org/"}}, {"name": "San Carlos Apache Healthcare", "latitude": 33.2953453, "longitude": -110.4173969, "source": "osm", "_tags": {"addr:city": "Peridot", "addr:housenumber": "103", "addr:postcode": "85542", "addr:state": "AZ", "addr:street": "Medicine Way Road", "amenity": "hospital", "emergency": "yes", "healthcare": "hospital", "name": "San Carlos Apache Healthcare", "opening_hours": "24/7", "operator": "San Carlos Apache Healthcare Corporation", "phone": "+1 928 475 1400", "website": "https://www.scahealth.org/"}}, {"name": "Hu Hu Kam Memorial Hospital", "latitude": 33.0727118, "longitude": -111.7591349, "source": "osm", "_tags": {"addr:city": "Sacaton", "addr:housenumber": "438", "addr:postcode": "85147", "addr:state": "AZ", "addr:street": "West Seed Farm Road", "amenity": "hospital", "emergency": "yes", "healthcare": "hospital", "name": "Hu Hu Kam Memorial Hospital", "opening_hours": "24/7", "operator": "Gila River Health Care", "phone": "+1 520 562 3321", "website": "http://grhc.org/our-campus/hu-hu-kam-memorial-hospital/"}}, {"name": "HonorHealth Tempe Medical Center", "latitude": 33.4123748, "longitude": -111.9413649, "source": "osm", "_tags": {"addr:city": "Tempe", "addr:housenumber": "1500", "addr:postcode": "85281", "addr:state": "AZ", "addr:street": "South Mill Avenue", "amenity": "hospital", "beds": "87", "emergency": "yes", "healthcare": "hospital", "name": "HonorHealth Tempe Medical Center", "opening_hours": "24/7", "operator": "HonorHealth", "operator:type": "private", "phone": "+1 480 784 5500", "website": "https://www.honorhealth.com/locations/hospitals/tempe-medical-center", "wikidata": "Q124711958"}}, {"name": "Valleywise Health Medical Center", "latitude": 33.4568706, "longitude": -112.02697, "source": "osm", "_tags": {"addr:city": "Phoenix", "addr:housenumber": "2601", "addr:postcode": "85008", "addr:state": "AZ", "addr:street": "East Roosevelt Street", "amenity": "hospital", "emergency": "yes", "healthcare": "hospital", "healthcare:speciality": "emergency;trauma", "name": "Valleywise Health Medical Center", "operator": "Valleywise Health", "operator:type": "public", "phone": "+1 602 344 5011", "website": "https://valleywisehealth.org/locations/valleywise-health-medical-center/", "wikidata": "Q124767694"}}, {"name": "", "latitude": 33.3815034, "longitude": -111.8449021, "source": "osm", "_tags": {"addr:city": "Mesa", "addr:housenumber": "610", "addr:postcode": "85210", "addr:state": "AZ", "addr:street": "West Jerome Avenue", "amenity": "hospital", "emergency": "no", "fixme": "missing name of hospital", "healthcare": "hospital"}}, {"name": "Arizona General Hospital", "latitude": 33.380727, "longitude": -112.1670006, "source": "osm", "_tags": {"addr:city": "Phoenix", "addr:housenumber": "7171", "addr:postcode": "85339", "addr:state": "AZ", "addr:street": "South 51st Avenue", "amenity": "hospital", "beds": "16", "emergency": "yes", "healthcare": "hospital", "name": "Arizona General Hospital", "opening_hours": "24/7", "operator": "Dignity Health", "operator:type": "private", "operator:wikidata": "Q5276334", "operator:wikipedia": "en:Dignity Health", "phone": "+1 623 584 5100", "website": "https://www.dignityhealth.org/arizona/locations/arizonageneral", "wikidata": "Q124630902"}}, {"name": "The CORE Institute Specialty Hospital", "latitude": 33.5319953, "longitude": -112.0988203, "source": "osm", "_tags": {"addr:city": "Phoenix", "addr:country": "US", "addr:housenumber": "6501", "addr:postcode": "85015", "addr:state": "AZ", "addr:street": "North 19th Avenue", "amenity": "hospital", "beds": "33", "emergency": "no", "gnis:feature_id": "14908", "healthcare": "hospital", "healthcare:speciality": "surgery", "name": "The CORE Institute Specialty Hospital", "operator": "Surgical Care Affiliates", "operator:type": "private", "phone": "+1 602 795 6020", "website": "https://www.thecoreinstitutehospital.com/"}}, {"name": "HonorHealth Florence Medical Center", "latitude": 33.0733534, "longitude": -111.4856314, "source": "osm", "_tags": {"addr:city": "Florence", "addr:housenumber": "4545", "addr:postcode": "85132", "addr:state": "AZ", "addr:street": "North Hunt Highway", "amenity": "hospital", "beds": "36", "emergency": "yes", "healthcare": "hospital", "name": "HonorHealth Florence Medical Center", "opening_hours": "24/7", "operator": "HonorHealth", "operator:type": "private", "phone": "+1 520 868 3333", "website": "https://www.honorhealth.com/locations/hospitals/florence-medical-center"}}, {"name": "Hau'pal Health Center", "latitude": 33.2656553, "longitude": -111.8950086, "source": "osm", "_tags": {"amenity": "hospital", "healthcare": "hospital", "name": "Hau'pal Health Center"}}, {"name": "Arizona General Hospital", "latitude": 33.3509059, "longitude": -111.6372667, "source": "osm", "_tags": {"addr:city": "Mesa", "addr:housenumber": "9130", "addr:postcode": "85212", "addr:state": "AZ", "addr:street": "East Elliot Road", "amenity": "hospital", "building": "hospital", "healthcare": "hospital", "layer": "1", "name": "Arizona General Hospital", "operator": "Dignity Health", "operator:type": "private", "operator:wikidata": "Q5276334", "source": "esri/USA_NAD_Addresses", "website": "https://www.dignityhealth.org/arizona/locations/arizonageneral"}}, {"name": "River People Health Center", "latitude": 33.4641002, "longitude": -111.8448248, "source": "osm", "_tags": {"addr:city": "Scottsdale", "addr:housenumber": "10901", "addr:postcode": "85256", "addr:state": "AZ", "addr:street": "East McDowell Road", "amenity": "hospital", "healthcare": "hospital", "name": "River People Health Center", "source": "aerial imagery"}}, {"name": "HonorHealth Sonoran Crossing Medical Center", "latitude": 33.7856541, "longitude": -112.1299973, "source": "osm", "_tags": {"addr:city": "Phoenix", "addr:housenumber": "33400", "addr:postcode": "85085", "addr:state": "AZ", "addr:street": "North 32Nd Avenue", "amenity": "hospital", "beds": "70", "emergency": "yes", "healthcare": "hospital", "name": "HonorHealth Sonoran Crossing Medical Center", "not:name": "John C. Lincoln Sonoran Health)", "operator": "HonorHealth", "operator:type": "private", "phone": "+1 480 882 4327", "start_date": "2020-09", "website": "https://www.honorhealth.com/locations/hospitals/sonoran-crossing-medical-center", "wikidata": "Q124754803"}}, {"name": "Arizona Spine & Joint Hospital", "latitude": 33.3805035, "longitude": -111.7347367, "source": "osm", "_tags": {"addr:city": "Mesa", "addr:housenumber": "4620", "addr:postcode": "85206", "addr:state": "AZ", "addr:street": "East Baseline Road", "amenity": "hospital", "emergency": "yes", "healthcare": "hospital", "name": "Arizona Spine & Joint Hospital", "start_date": "2002", "website": "https://www.azspineandjoint.com/", "wikidata": "Q124653828"}}, {"name": "Dignity Health East Valley Rehabilitation Hospital - Gilbert", "latitude": 33.3159933, "longitude": -111.7440638, "source": "osm", "_tags": {"addr:city": "Gilbert", "addr:housenumber": "1850", "addr:postcode": "85295", "addr:state": "AZ", "addr:street": "South Santan Village Parkway", "amenity": "hospital", "emergency": "no", "healthcare": "hospital", "healthcare:speciality": "physiatry", "name": "Dignity Health East Valley Rehabilitation Hospital - Gilbert", "operator": "Dignity Health", "operator:type": "private", "operator:wikidata": "Q5276334", "website": "https://www.dignityhealthevrehabgilbert.com/", "wikidata": "Q124733679"}}, {"name": "Banner Ocotillo Medical Center", "latitude": 33.2851989, "longitude": -111.8572004, "source": "osm", "_tags": {"addr:city": "Chandler", "addr:housenumber": "1405", "addr:postcode": "85286", "addr:state": "AZ", "addr:street": "South Alma School Road", "amenity": "hospital", "emergency": "yes", "healthcare": "hospital", "healthcare:speciality": "intensive", "name": "Banner Ocotillo Medical Center", "operator": "Banner Health", "operator:type": "private", "operator:wikidata": "Q4856918", "phone": "(480) 256-7000", "smoking": "no", "source": "https://www.bannerhealth.com/locations/chandler/banner-ocotillo-medical-center", "start_date": "2020-11-02", "website": "https://www.bannerhealth.com/locations/chandler/banner-ocotillo-medical-center", "wikidata": "Q124630817"}}, {"name": "Laser Surgery Center", "latitude": 33.3934827, "longitude": -111.9000744, "source": "osm", "_tags": {"amenity": "hospital", "healthcare": "hospital", "name": "Laser Surgery Center"}}, {"name": "Komatke Health Center", "latitude": 33.2879733, "longitude": -112.155922, "source": "osm", "_tags": {"amenity": "hospital", "healthcare": "hospital", "name": "Komatke Health Center"}}, {"name": "", "latitude": 33.2896218, "longitude": -112.1554336, "source": "osm", "_tags": {"addr:city": "Komatke", "addr:housenumber": "4487", "addr:postcode": "85339", "addr:state": "AZ", "addr:street": "West Pecos Road", "amenity": "hospital", "healthcare": "hospital", "source": "esri/USA_NAD_Addresses"}}, {"name": "", "latitude": 33.6273178, "longitude": -111.9440981, "source": "osm", "_tags": {"amenity": "hospital", "healthcare": "hospital"}}, {"name": "", "latitude": 33.4797752, "longitude": -112.0449459, "source": "osm", "_tags": {"amenity": "hospital", "healthcare": "hospital"}}, {"name": "Arizona Specialty Hospital", "latitude": 33.4566745, "longitude": -111.9966027, "source": "osm", "_tags": {"addr:city": "Phoenix", "addr:housenumber": "750", "addr:postcode": "85008", "addr:state": "AZ", "addr:street": "North 40th Street", "amenity": "hospital", "check_date": "2024-11-01", "emergency": "no", "healthcare": "hospital", "healthcare:speciality": "orthopaedics", "name": "Arizona Specialty Hospital", "opening_hours": "24/7", "operator": "Dignity Health", "operator:type": "private", "operator:wikidata": "Q5276334", "operator:wikipedia": "en:Dignity Health", "phone": "602-797-7700", "website": "https://oasishospital.com/"}}, {"name": "HonorHealth Deer Valley Medical Center", "latitude": 33.6662689, "longitude": -112.115821, "source": "osm", "_tags": {"addr:city": "Phoenix", "addr:housenumber": "19829", "addr:postcode": "85027", "addr:state": "AZ", "addr:street": "North 27th Avenue", "amenity": "hospital", "beds": "204", "emergency": "yes", "healthcare": "hospital", "healthcare:speciality": "emergency;trauma", "name": "HonorHealth Deer Valley Medical Center", "not:name": "John C Lincoln Deer Valley Hospital", "opening_hours": "24/7", "operator": "HonorHealth", "operator:type": "private", "phone": "+1 623 879 6100", "website": "https://www.honorhealth.com/locations/hospitals/deer-valley-medical-center", "wikidata": "Q124733786"}}, {"name": "", "latitude": 33.4550087, "longitude": -112.0657602, "source": "osm", "_tags": {"amenity": "hospital", "healthcare": "hospital", "healthcare:speciality": "oncology", "operator": "Dignity Health", "operator:wikidata": "Q5276334"}}, {"name": "Reunion Rehabilitation Hospital Phoenix", "latitude": 33.4543783, "longitude": -112.0461454, "source": "osm", "_tags": {"addr:city": "Phoenix", "addr:housenumber": "1675", "addr:postcode": "85006", "addr:state": "AZ", "addr:street": "East Villa Street", "amenity": "hospital", "emergency": "no", "healthcare": "hospital", "healthcare:speciality": "physiatry", "name": "Reunion Rehabilitation Hospital Phoenix", "source": "aerial imagery", "website": "https://reunionrehabhospital.com/locations/phoenix/", "wikidata": "Q124767632"}}, {"name": "Aurora West Hospital", "latitude": 33.5809375, "longitude": -112.1893578, "source": "osm", "_tags": {"addr:city": "Glendale", "addr:housenumber": "6015", "addr:postcode": "85302", "addr:state": "AZ", "addr:street": "West Peoria Avenue", "amenity": "hospital", "emergency": "no", "healthcare": "hospital", "healthcare:speciality": "psychiatry", "name": "Aurora West Hospital", "operator": "Aurora Behavioral Health System", "operator:type": "private", "source": "esri/USA_NAD_Addresses", "website": "https://www.auroraarizona.com/", "wikidata": "Q124637571"}}, {"name": "Copper Springs East", "latitude": 33.2820516, "longitude": -111.7499045, "source": "osm", "_tags": {"addr:city": "Gilbert", "addr:housenumber": "3755", "addr:postcode": "85297", "addr:state": "AZ", "addr:street": "South Rome Street", "amenity": "hospital", "emergency": "no", "healthcare": "hospital", "healthcare:speciality": "psychiatry", "name": "Copper Springs East", "start_date": "2024-08-24", "website": "https://coppersprings.com/locations/gilbert-az/", "wikidata": "Q124733205"}}, {"name": "Abrazo Scottsdale Campus", "latitude": 33.6393298, "longitude": -111.9983515, "source": "osm", "_tags": {"addr:city": "Phoenix", "addr:housenumber": "3811", "addr:postcode": "85032", "addr:state": "AZ", "addr:street": "East Bell Road", "amenity": "hospital", "ele": "447", "emergency": "yes", "healthcare": "hospital", "name": "Abrazo Scottsdale Campus", "start_date": "1983", "website": "https://www.abrazohealth.com/our-locations/abrazo-scottsdale-campus", "wikidata": "Q17084798", "wikipedia": "en:Abrazo Scottsdale Campus"}}, {"name": "HonorHealth Scottsdale Thompson Peak Medical Center", "latitude": 33.6709161, "longitude": -111.92199, "source": "osm", "_tags": {"addr:city": "Scottsdale", "addr:housenumber": "7400", "addr:postcode": "85255", "addr:state": "AZ", "addr:street": "East Thompson Peak Parkway", "amenity": "hospital", "emergency": "yes", "healthcare": "hospital", "name": "HonorHealth Scottsdale Thompson Peak Medical Center", "not:name": "Scottsdale Healthcare Thompson Peak", "operator": "HonorHealth", "operator:type": "private", "source": "esri/USA_NAD_Addresses", "website": "https://www.honorhealth.com/locations/hospitals/scottsdale-thompson-peak-medical-center", "wheelchair": "yes", "wikidata": "Q124754367"}}, {"name": "Banner Desert Medical Center", "latitude": 33.389787, "longitude": -111.8773302, "source": "osm", "_tags": {"addr:city": "Mesa", "addr:housenumber": "1400", "addr:postcode": "85202", "addr:state": "AZ", "addr:street": "South Dobson Road", "amenity": "hospital", "emergency": "yes", "healthcare": "hospital", "healthcare:speciality": "emergency;trauma", "name": "Banner Desert Medical Center", "not:name": "Desert Samaritan;Desert Sam", "opening_hours": "24/7", "phone": "+1 480 412 3000", "source": "http://www.azsrc.org/downloads/Banner%20Desert%20Campus%20Map.pdf", "website": "https://www.bannerhealth.com/locations/mesa/banner-desert-medical-center", "wheelchair": "yes", "wikidata": "Q30279675", "wikipedia": "en:Banner Desert Medical Center"}}, {"name": "Dignity Health Arizona Specialty Hospital", "latitude": 33.3339728, "longitude": -111.8912135, "source": "osm", "_tags": {"addr:city": "Chandler", "addr:housenumber": "2905", "addr:postcode": "85224", "addr:state": "AZ", "addr:street": "West Warner Road", "amenity": "hospital", "healthcare": "hospital", "name": "Dignity Health Arizona Specialty Hospital", "operator": "Dignity Health", "operator:type": "private", "operator:wikidata": "Q5276334", "operator:wikipedia": "en:Dignity Health", "source": "esri/USA_NAD_Addresses"}}, {"name": "Oasis Behavioral Health", "latitude": 33.3399518, "longitude": -111.8474344, "source": "osm", "_tags": {"addr:city": "Chandler", "addr:housenumber": "2190", "addr:postcode": "85225", "addr:state": "AZ", "addr:street": "North Grace Boulevard", "amenity": "hospital", "emergency": "no", "healthcare": "hospital", "healthcare:speciality": "behavioral_health", "name": "Oasis Behavioral Health", "operator": "Oasis Behavioral Health", "operator:type": "private", "source": "esri/USA_NAD_Addresses", "start_date": "2014", "website": "https://www.obhhospital.com/", "wikidata": "Q124756247"}}, {"name": "Banner Heart Hospital", "latitude": 33.4112911, "longitude": -111.6859211, "source": "osm", "_tags": {"addr:city": "Mesa", "addr:housenumber": "6750", "addr:postcode": "85206", "addr:state": "AZ", "addr:street": "East Baywood Avenue", "amenity": "hospital", "ele": "426", "emergency": "no", "healthcare": "hospital", "healthcare:speciality": "cardiology", "name": "Banner Heart Hospital", "operator": "Banner Health", "operator:type": "private", "operator:wikidata": "Q4856918", "operator:wikipedia": "en:Banner Health", "phone": "+480-854-5000", "smoking": "no", "source": "https://www.bannerhealth.com/NR/rdonlyres/7D273964-1430-4EC5-BED8-BB3240BCFBEA/50947/webpagemine2.pdf", "start_date": "2000-11", "website": "https://www.bannerhealth.com/Locations/Arizona/Banner+Heart+Hospital/_Banner+Heart+Hospital+Home.htm", "wikidata": "Q119857246"}}, {"name": "Banner Baywood Medical Center", "latitude": 33.4112923, "longitude": -111.6890999, "source": "osm", "_tags": {"addr:city": "Mesa", "addr:housenumber": "6644", "addr:postcode": "85206", "addr:state": "AZ", "addr:street": "East Baywood Avenue", "amenity": "hospital", "ele": "426", "emergency": "yes", "healthcare": "hospital", "healthcare:speciality": "emergency;trauma", "name": "Banner Baywood Medical Center", "operator": "Banner Health", "operator:type": "private", "operator:wikidata": "Q4856918", "operator:wikipedia": "en:Banner Health", "phone": "+480-321-2000", "smoking": "no", "source": "https://www.bannerhealth.com/NR/rdonlyres/7D273964-1430-4EC5-BED8-BB3240BCFBEA/50947/webpagemine2.pdf", "start_date": "1984", "website": "https://www.bannerhealth.com/Locations/Arizona/Banner+Baywood+Medical+Center/_Banner+Baywood+Medical+Center+home+page.htm", "wheelchair": "yes", "wikidata": "Q124527006"}}, {"name": "HonorHealth Mountain Vista Medical Center", "latitude": 33.3914889, "longitude": -111.6111921, "source": "osm", "_tags": {"addr:city": "Mesa", "addr:housenumber": "1301", "addr:postcode": "85209", "addr:state": "AZ", "addr:street": "South Crimson Road", "amenity": "hospital", "emergency": "yes", "healthcare": "hospital", "healthcare:speciality": "emergency;trauma", "name": "HonorHealth Mountain Vista Medical Center", "operator": "HonorHealth", "operator:type": "private", "website": "https://www.honorhealth.com/locations/hospitals/mountin-vista-medical-center", "wikidata": "Q116959473"}}, {"name": "Banner Rehabilitation Hospital", "latitude": 33.4631935, "longitude": -112.0631937, "source": "osm", "_tags": {"amenity": "hospital", "healthcare": "hospital", "name": "Banner Rehabilitation Hospital", "operator": "Banner Health", "operator:wikidata": "Q4856918", "smoking": "no"}}, {"name": "Arizona State Hospital", "latitude": 33.4549634, "longitude": -112.0258226, "source": "osm", "_tags": {"addr:city": "Phoenix", "addr:housenumber": "2500", "addr:postcode": "85008", "addr:state": "AZ", "addr:street": "East Van Buren Street", "amenity": "hospital", "emergency": "no", "healthcare": "hospital", "healthcare:speciality": "psychiatry", "name": "Arizona State Hospital", "operator": "Arizona Department of Health Services", "operator:type": "government", "start_date": "1887-01-15", "website": "https://www.azdhs.gov/az-state-hospital/", "wikidata": "Q124653658"}}, {"name": "Agave Ridge Behavioral Hospital", "latitude": 33.3551366, "longitude": -111.6371956, "source": "osm", "_tags": {"addr:city": "Mesa", "addr:housenumber": "3322", "addr:postcode": "85212", "addr:state": "AZ", "addr:street": "South Ellsworth Road", "amenity": "hospital", "emergency": "no", "healthcare": "hospital", "healthcare:speciality": "psychiatry", "name": "Agave Ridge Behavioral Hospital", "website": "https://www.agaveridgebehavioral.com/"}}, {"name": "Dignity Health East Valley Rehabilitation Hospital", "latitude": 33.3053829, "longitude": -111.868542, "source": "osm", "_tags": {"addr:city": "Chandler", "addr:housenumber": "1515", "addr:postcode": "85224", "addr:state": "AZ", "addr:street": "West Chandler Boulevard", "amenity": "hospital", "beds": "50", "emergency": "no", "healthcare": "hospital", "healthcare:speciality": "physiatry", "name": "Dignity Health East Valley Rehabilitation Hospital", "operator": "Dignity Health", "operator:type": "private", "operator:wikidata": "Q5276334", "phone": "+1 602 594 5400", "source": "esri_USDOT_Arizona", "start_date": "2016-10-18", "website": "https://www.dignityhealthevrehabchandler.com/", "wikidata": "Q124733642"}}, {"name": "Encompass Health Rehabilitation Hospital Of East Valley", "latitude": 33.3802831, "longitude": -111.7099219, "source": "osm", "_tags": {"addr:city": "Mesa", "addr:housenumber": "5652", "addr:postcode": "85206", "addr:state": "AZ", "addr:street": "East Baseline Road", "amenity": "hospital", "beds": "60", "emergency": "no", "healthcare": "hospital", "healthcare:speciality": "physiatry", "name": "Encompass Health Rehabilitation Hospital Of East Valley", "operator": "Encompass Health", "operator:type": "private", "operator:wikidata": "Q5690400", "phone": "+1 480 567 0350", "website": "https://encompasshealth.com/locations/eastvalleyrehab", "wikidata": "Q124733389"}}, {"name": "HonorHealth Rehabilitation Hospital", "latitude": 33.5609913, "longitude": -111.8903434, "source": "osm", "_tags": {"addr:city": "Scottsdale", "addr:housenumber": "8850", "addr:postcode": "85258", "addr:state": "AZ", "addr:street": "East Pima Center Parkway", "amenity": "hospital", "emergency": "no", "healthcare": "hospital", "healthcare:speciality": "physiatry", "name": "HonorHealth Rehabilitation Hospital", "operator": "HonorHealth", "operator:type": "private", "website": "https://www.honorhealth-rehab.com/", "wikidata": "Q124748405"}}, {"name": "Quail Run Behavioral Health", "latitude": 33.6775054, "longitude": -112.1137429, "source": "osm", "_tags": {"addr:city": "Phoenix", "addr:housenumber": "2545", "addr:postcode": "85027", "addr:state": "AZ", "addr:street": "West Quail Avenue", "amenity": "hospital", "emergency": "no", "healthcare": "hospital", "healthcare:speciality": "psychiatry", "name": "Quail Run Behavioral Health", "website": "https://quailrunbehavioral.com/", "wikidata": "Q124767429"}}, {"name": "HonorHealth Scottsdale Osborn Medical Center", "latitude": 33.4885136, "longitude": -111.9229498, "source": "osm", "_tags": {"addr:city": "Scottsdale", "addr:housenumber": "7400", "addr:postcode": "85251", "addr:state": "AZ", "addr:street": "East Osborn Road", "amenity": "hospital", "beds": "337", "emergency": "yes", "gnis:feature_id": "15023", "healthcare": "hospital", "healthcare:speciality": "emergency;trauma", "name": "HonorHealth Scottsdale Osborn Medical Center", "opening_hours": "24/7", "phone": "+1 480 882 4000", "start_date": "1962", "website": "https://www.honorhealth.com/locations/hospitals/scottsdale-osborn-medical-center", "wikidata": "Q114243347", "wikipedia": "en:HonorHealth Scottsdale Osborn Medical Center"}}, {"name": "HonorHealth Scottsdale Shea Medical Center", "latitude": 33.5796518, "longitude": -111.8835442, "source": "osm", "_tags": {"addr:city": "Scottsdale", "addr:country": "US", "addr:state": "AZ", "amenity": "hospital", "emergency": "yes", "healthcare": "hospital", "name": "HonorHealth Scottsdale Shea Medical Center", "source": "https://www.honorhealth.com/sites/default/files/2023-10/honorhealth-shea-campus-map.pdf", "website": "https://www.honorhealth.com/locations/hospitals/scottsdale-shea-medical-center"}}, {"name": "KPC Promise Hospital of Phoenix", "latitude": 33.4249374, "longitude": -111.8214957, "source": "osm", "_tags": {"addr:city": "Mesa", "addr:housenumber": "433", "addr:postcode": "85201", "addr:state": "AZ", "addr:street": "East 6th Street", "amenity": "hospital", "emergency": "no", "healthcare": "hospital", "healthcare:speciality": "physiatry", "name": "KPC Promise Hospital of Phoenix", "website": "https://phoenix.kpcph.com/"}}, {"name": "Civil Hospital", "latitude": 33.4550596, "longitude": -112.0284714, "source": "osm", "_tags": {"amenity": "hospital", "emergency": "no", "healthcare": "hospital", "healthcare:speciality": "psychiatry", "name": "Civil Hospital", "operator": "Arizona State Hospital", "operator:type": "government"}}, {"name": "New Forensic Hospital", "latitude": 33.4526532, "longitude": -112.0257289, "source": "osm", "_tags": {"amenity": "hospital", "emergency": "no", "healthcare": "hospital", "healthcare:speciality": "psychiatry", "name": "New Forensic Hospital", "operator": "Arizona State Hospital", "operator:type": "government"}}, {"name": "Banner Rehabilitation Hospital East", "latitude": 33.3852245, "longitude": -111.7295273, "source": "osm", "_tags": {"addr:city": "Mesa", "addr:housenumber": "1702", "addr:postcode": "85206", "addr:state": "AZ", "addr:street": "South Pierpont Drive", "air_conditioning": "yes", "amenity": "hospital", "emergency": "no", "healthcare": "hospital", "healthcare:speciality": "rehabilitation", "name": "Banner Rehabilitation Hospital East", "operator": "Banner Health", "operator:type": "private", "operator:wikidata": "Q4856918", "website": "https://www.bannerhealth.com/locations/mesa/banner-rehabilitation-hospital-east"}}, {"name": "HonorHealth Scottsdale Shea Medical Center", "latitude": 33.5800811, "longitude": -111.8851769, "source": "osm", "_tags": {"addr:city": "Scottsdale", "addr:country": "US", "addr:housenumber": "9003", "addr:postcode": "85260", "addr:state": "AZ", "addr:street": "East Shea Boulevard", "amenity": "hospital", "beds": "433", "building": "hospital", "emergency": "yes", "gnis:feature_id": "2467021", "healthcare": "hospital", "name": "HonorHealth Scottsdale Shea Medical Center", "not:name": "Scottsdale Healthcare Thompson Peak", "opening_hours": "24/7", "operator": "HonorHealth", "operator:type": "private", "phone": "+1 480 323 3000", "type": "multipolygon", "website": "https://www.honorhealth.com/locations/hospitals/scottsdale-shea-medical-center", "wikidata": "Q124754191"}}]