[{"name": "Socorro General Hospital", "latitude": 34.0374256, "longitude": -106.9115128, "source": "osm", "_tags": {"addr:city": "Socorro", "addr:housenumber": "1202", "addr:postcode": "87801", "addr:state": "NM", "addr:street": "US-60", "amenity": "hospital", "beds": "25", "emergency": "yes", "healthcare": "hospital", "healthcare:speciality": "general;emergency", "name": "Socorro General Hospital", "opening_hours": "24/7", "operator": "Presbyterian Healthcare Services", "phone": "+1 575 835 1140", "website": "https://socorro-general-hospital.phs.org/"}}, {"name": "Sierra Vista Hospital", "latitude": 33.1405563, "longitude": -107.2416196, "source": "osm", "_tags": {"addr:city": "Truth or Consequences", "addr:housenumber": "800", "addr:postcode": "87901", "addr:state": "NM", "addr:street": "East 9th Avenue", "amenity": "hospital", "beds": "15", "emergency": "yes", "healthcare": "hospital", "healthcare:speciality": "general;emergency", "name": "Sierra Vista Hospital", "old_name": "St Anne Hospital", "opening_hours": "24/7", "phone": "+1 575 894 2111", "source": "image", "website": "https://www.svhnm.org/"}}, {"name": "Mountainair Family Health Center", "latitude": 34.5238496, "longitude": -106.2402124, "source": "osm", "_tags": {"addr:city": "Mountainair", "addr:housenumber": "105", "addr:postcode": "87036", "addr:state": "NM", "addr:street": "E. Pinon Street", "amenity": "hospital", "building": "yes", "healthcare:speciality": "general", "name": "Mountainair Family Health Center", "operator": "Presbyterian Medical Services", "phone": "5058472271", "website": "pmsnm.comorg", "wheelchair": "yes"}}, {"name": "", "latitude": 34.6561743, "longitude": -106.7935385, "source": "osm", "_tags": {"amenity": "hospital", "healthcare": "hospital"}}, {"name": "", "latitude": 34.9039543, "longitude": -106.7202808, "source": "osm", "_tags": {"amenity": "hospital", "healthcare": "hospital"}}]