[{"name": "Lakeview Terrace Sanitarium", "latitude": 34.274213, "longitude": -118.3365343, "source": "osm", "_tags": {"amenity": "hospital", "ele": "379", "emergency": "no", "gnis:feature_id": "1660882", "name": "Lakeview Terrace Sanitarium"}}, {"name": "Tarzana Treatment Centers Long Beach", "latitude": 33.795573, "longitude": -118.1984023, "source": "osm", "_tags": {"addr:city": "Long Beach", "addr:housenumber": "2101", "addr:postcode": "90806", "addr:street": "Magnolia Avenue", "amenity": "hospital", "emergency": "no", "gnis:feature_id": "1660974", "healthcare": "hospital", "healthcare:speciality": "psychiatry", "name": "Tarzana Treatment Centers Long Beach", "old_name": "Magnolia Hospital", "phone": "+1 562 218 1868", "website": "https://www.tarzanatc.org/location-detail/long-beach/2101-magnolia-avenue/"}}, {"name": "Mattel Children's Hospital", "latitude": 34.0663274, "longitude": -118.4471116, "source": "osm", "_tags": {"addr:city": "Los Angeles", "addr:housenumber": "757", "addr:postcode": "90095", "addr:street": "Westwood Plaza", "amenity": "hospital", "emergency": "no", "healthcare": "hospital", "healthcare:speciality": "paediatrics", "name": "Mattel Children's Hospital", "phone": "+1 310 825 9111", "website": "https://www.uclahealth.org/mattel/", "wikidata": "Q30280929"}}, {"name": "Resnick Neuropsychiatric Hospital", "latitude": 34.0661034, "longitude": -118.4465012, "source": "osm", "_tags": {"addr:housenumber": "150", "addr:postcode": "90024", "addr:street": "UCLA Medical Plaza", "amenity": "hospital", "emergency": "no", "healthcare": "hospital", "name": "Resnick Neuropsychiatric Hospital", "website": "https://www.uclahealth.org/homepage_neuro.cfm"}}, {"name": "Nu Vela Esthetica", "latitude": 34.2751983, "longitude": -118.561841, "source": "osm", "_tags": {"amenity": "hospital", "designation": "Medical Clinics", "emergency": "no", "healthcare": "hospital", "name": "Nu Vela Esthetica"}}, {"name": "Neurological Rehabilitation & Research Unit", "latitude": 34.065767, "longitude": -118.4442777, "source": "osm", "_tags": {"addr:city": "Los Angeles", "addr:housenumber": "760", "addr:postcode": "90095", "addr:street": "Westwood Plaza", "alt_name": "NRRU", "amenity": "hospital", "emergency": "no", "healthcare": "hospital", "name": "Neurological Rehabilitation & Research Unit", "phone": "+1 310 794 6556", "website": "http://rehab.ucla.edu/body.cfm?id=29"}}, {"name": "Kedren Community Health Center", "latitude": 34.0073173, "longitude": -118.2661911, "source": "osm", "_tags": {"addr:city": "Los Angeles", "addr:housenumber": "4211", "addr:postcode": "90011", "addr:street": "South Avalon Boulevard", "amenity": "hospital", "emergency": "no", "healthcare": "hospital", "healthcare:speciality": "psychiatry", "name": "Kedren Community Health Center", "phone": "+1 323 233 0425", "website": "https://kedren.org/"}}, {"name": "", "latitude": 34.1707705, "longitude": -118.5895399, "source": "osm", "_tags": {"amenity": "hospital", "entrance": "emergency", "healthcare": "hospital"}}, {"name": "Santa Barbara Cottage Hospital", "latitude": 34.4298059, "longitude": -119.7235684, "source": "osm", "_tags": {"addr:city": "Santa Barbara", "addr:housenumber": "400", "addr:postcode": "93105", "addr:state": "CA", "addr:street": "West Pueblo Street", "amenity": "hospital", "check_date": "2025-08-07", "healthcare": "hospital", "name": "Santa Barbara Cottage Hospital", "operator": "Cottage Health", "operator:wikidata": "Q30287003", "phone": "+1 (805) 682-7111", "website": "https://www.cottagehealth.org/locations/locations-profile/santa-barbara-cottage-hospital/", "wikidata": "Q7419217"}}, {"name": "Community Memorial Hospital", "latitude": 34.2745015, "longitude": -119.257657, "source": "osm", "_tags": {"amenity": "hospital", "healthcare": "hospital", "name": "Community Memorial Hospital"}}, {"name": "Community Memorial Hospital", "latitude": 34.2736748, "longitude": -119.2578635, "source": "osm", "_tags": {"amenity": "hospital", "healthcare": "hospital", "name": "Community Memorial Hospital"}}, {"name": "Covid Testing (PCR 30 mins)", "latitude": 34.0723695, "longitude": -118.4682968, "source": "osm", "_tags": {"addr:city": "Los Angeles", "addr:housenumber": "11461", "addr:postcode": "90049", "addr:state": "CA", "addr:street": "Sunset Boulevard", "amenity": "hospital", "description": "CLIA Approved COVID Testing with PCR in 30 Mins", "email": "info@911covidtesting.com", "healthcare": "hospital", "healthcare:speciality": "covid19", "image": "https://911covidtesting.com/", "name": "Covid Testing (PCR 30 mins)", "operator": "911 Covid Testing, Inc.", "operator:type": "public", "phone": "310-569-5784", "website": "https://911covidtesting.com/", "wheelchair": "yes"}}, {"name": "California Rehabilitation Institute", "latitude": 34.0591305, "longitude": -118.4117451, "source": "osm", "_tags": {"amenity": "hospital", "check_date": "2024-05-10", "healthcare": "hospital", "name": "California Rehabilitation Institute"}}, {"name": "Joshua House Health Center", "latitude": 34.0421489, "longitude": -118.2485451, "source": "osm", "_tags": {"addr:city": "Los Angeles", "addr:housenumber": "325", "addr:postcode": "90014", "addr:state": "CA", "addr:street": "East 7th Street", "amenity": "hospital", "emergency": "no", "healthcare": "hospital", "healthcare:speciality": "dentist;psychiatry;optometry;social_serv;medical", "name": "Joshua House Health Center", "operator": "Los Angeles Christian Health Center", "operator:type": "community", "phone": "1(213)893-1960"}}, {"name": "Hubert H. Humphrey Comprehensive Health Center", "latitude": 33.9886634, "longitude": -118.273426, "source": "osm", "_tags": {"addr:housenumber": "5850", "addr:postcode": "90003", "addr:street": "South Main Street", "amenity": "hospital", "healthcare": "hospital", "internet_access": "wlan", "name": "Hubert H. Humphrey Comprehensive Health Center", "website": "https://dhs.lacounty.gov/humphrey/"}}, {"name": "Carlson Counseling and Psychotherapy", "latitude": 33.8146996, "longitude": -118.327598, "source": "osm", "_tags": {"addr:city": "Torrance", "addr:country": "US", "addr:housenumber": "23210", "addr:postcode": "90505", "addr:state": "CA", "addr:street": "Crenshaw Boulevard", "addr:unit": "#100", "contact:phone": "+1 310-325-8787", "contact:website": "https://carlsoncounseling.com", "healthcare": "hospital", "healthcare:speciality": "psychiatry", "name": "Carlson Counseling and Psychotherapy", "opening_hours": "Mo-Th 09:00-21:00; Fr 10:00-19:00", "operator": "Peter Carlson", "operator:type": "owner", "payment:american_express": "yes", "payment:cash": "yes", "payment:cheque": "yes", "payment:discover_card": "yes", "payment:invoice": "yes", "payment:mastercard": "yes", "payment:visa": "yes"}}, {"name": "Olive House Crisis Residential", "latitude": 34.3274884, "longitude": -118.4444286, "source": "osm", "_tags": {"addr:city": "Sylmar", "addr:housenumber": "14149", "addr:postcode": "91342", "addr:state": "CA", "addr:street": "Bucher Avenue", "addr:unit": "D", "amenity": "hospital", "emergency": "no", "healthcare": "hospital", "healthcare:speciality": "mental_health", "name": "Olive House Crisis Residential", "operator": "Telecare corporation", "operator:type": "community"}}, {"name": "STARS Crisis Residential", "latitude": 34.3279907, "longitude": -118.4442932, "source": "osm", "_tags": {"addr:city": "Sylmar", "addr:housenumber": "14129", "addr:postcode": "91342", "addr:state": "CA", "addr:street": "Bucher Avenue", "addr:unit": "B", "amenity": "hospital", "healthcare": "hospital", "healthcare:speciality": "mental_health", "name": "STARS Crisis Residential", "operator": "STARS Behavioral", "operator:type": "business"}}, {"name": "Star View Adolescent - PHF", "latitude": 33.8242398, "longitude": -118.3561104, "source": "osm", "_tags": {"addr:city": "Torrance", "addr:housenumber": "4025", "addr:postcode": "90505", "addr:street": "West 226 Street", "amenity": "hospital", "beds": "16", "healthcare": "hospital", "healthcare:speciality": "psychiatry", "name": "Star View Adolescent - PHF", "website": "https://www.starsinc.com/star-view-community-services/star-view-adolescent-center"}}, {"name": "Van Nuys Behavioral Health Hospital", "latitude": 34.1769007, "longitude": -118.4474908, "source": "osm", "_tags": {"addr:city": "Van Nuys", "addr:housenumber": "14433", "addr:postcode": "91401-4213", "addr:street": "Emelita Street", "amenity": "hospital", "beds": "59", "healthcare": "hospital", "healthcare:speciality": "psychiatry", "name": "Van Nuys Behavioral Health Hospital", "phone": "+1 818 787 1511", "website": "https://www.sch-vannuys.com"}}, {"name": "Kindred Hospital - Los Angeles", "latitude": 33.9901306, "longitude": -118.3784511, "source": "osm", "_tags": {"addr:city": "Los Angeles", "addr:housenumber": "5525", "addr:postcode": "90056-1047", "addr:state": "CA", "addr:street": "West Slauson Avenue", "amenity": "hospital", "beds": "81", "healthcare": "hospital", "name": "Kindred Hospital - Los Angeles", "phone": "+1 310 981 0601", "website": "https://www.kindredhospitals.com/locations/ltac/kindred-hospital-los-angeles"}}, {"name": "Kaiser Foundation Hospital Mental Health Center", "latitude": 34.0668973, "longitude": -118.2434019, "source": "osm", "_tags": {"addr:city": "Los Angeles", "addr:housenumber": "765", "addr:postcode": "90012-1181", "addr:street": "West College Street", "amenity": "hospital", "beds": "68", "healthcare": "hospital", "healthcare:speciality": "psychiatry", "name": "Kaiser Foundation Hospital Mental Health Center", "phone": "+1 213 580 7200", "website": "https://healthy.kaiserpermanente.org/southern-california/facilities/mental-health-center-100121"}}, {"name": "Tarzana Treatment Center", "latitude": 34.1794458, "longitude": -118.5398562, "source": "osm", "_tags": {"addr:city": "Tarzana", "addr:housenumber": "18646", "addr:postcode": "91356-1411", "addr:street": "Oxnard Street", "amenity": "hospital", "beds": "60", "healthcare": "hospital", "healthcare:speciality": "psychiatry", "name": "Tarzana Treatment Center", "phone": "+1 818 654 3815", "website": "https://www.tarzanatc.org/location-detail/tarzana/18646-oxnard-street"}}, {"name": "Motion Picture And Television Hospital", "latitude": 34.1579783, "longitude": -118.6366359, "source": "osm", "_tags": {"addr:city": "Woodland Hills", "addr:housenumber": "23388", "addr:postcode": "91364-2733", "addr:street": "Mulholland Drive", "amenity": "hospital", "beds": "12", "healthcare": "hospital", "healthcare:speciality": "psychiatry", "name": "Motion Picture And Television Hospital", "phone": "+1 818 876 1043", "website": "https://mptf.com"}}, {"name": "College Medical Center Hawthorne Campus", "latitude": 33.9117288, "longitude": -118.3520439, "source": "osm", "_tags": {"addr:city": "Hawthorne", "addr:housenumber": "13300", "addr:postcode": "90250-5805", "addr:state": "CA", "addr:street": "Hawthorne Boulevard", "amenity": "hospital", "beds": "64", "healthcare": "hospital", "healthcare:speciality": "psychiatry", "name": "College Medical Center Hawthorne Campus", "phone": "+1 424 365 3000", "website": "https://www.collegemedicalcenter.com"}}, {"name": "Aurora Vista Del Mar Hospital", "latitude": 34.3080446, "longitude": -119.2837011, "source": "osm", "_tags": {"addr:city": "Ventura", "addr:housenumber": "801", "addr:postcode": "93001-1411", "addr:state": "CA", "addr:street": "Seneca Street", "amenity": "hospital", "beds": "87", "healthcare": "hospital", "healthcare:speciality": "psychiatry", "name": "Aurora Vista Del Mar Hospital", "phone": "+1 805 653 6434", "website": "https://www.vistadelmarhospital.com"}}, {"name": "Santa Barbara County Psychiatric Health Facility", "latitude": 34.4441369, "longitude": -119.7806333, "source": "osm", "_tags": {"addr:city": "Santa Barbara", "addr:housenumber": "315", "addr:postcode": "93110-1332", "addr:street": "Camino Del Remedio", "amenity": "hospital", "beds": "16", "healthcare": "hospital", "healthcare:speciality": "psychiatry", "name": "Santa Barbara County Psychiatric Health Facility", "phone": "+1 805 681 5244"}}, {"name": "Cedars Sinai Transplant Center", "latitude": 34.0769655, "longitude": -118.3863064, "source": "osm", "_tags": {"addr:housenumber": "8900", "addr:street": "Beverly Boulevard", "amenity": "hospital", "name": "Cedars Sinai Transplant Center"}}, {"name": "Balance Treatment Center", "latitude": 34.1403458, "longitude": -118.7010718, "source": "osm", "_tags": {"addr:city": "Calabasas", "addr:housenumber": "4505", "addr:postcode": "91302", "addr:state": "CA", "addr:street": "Las Virgenes Road", "addr:unit": "Ste 202", "amenity": "hospital", "contact:facebook": "BalanceTreatmentCenter", "description": "Mental health treatment centers, also known as outpatient therapy centers, psychiatric treatment facilities or rehab centers, are specialized establishments designed to provide comprehensive care for individuals struggling with mental health conditions.", "healthcare": "hospital", "healthcare:speciality": "mental_health", "mobile": "818-650-4357", "name": "Balance Treatment Center", "opening_hours": "Mo, Th 08:00 - 18:00; Fr 08:00 - 17:00", "payment:care_credit": "yes", "payment:cash": "yes", "payment:cashiers_check": "yes", "payment:cheque": "yes", "payment:credit_cards": "yes", "payment:debit_cards": "yes", "phone": "855-908-0883", "start_date": "2012-12-01", "website": "https://www.balancetreatment.com/calabasas-treatment-center-photos/"}}, {"name": "Seeking Integrity", "latitude": 34.15277, "longitude": -118.4583982, "source": "osm", "_tags": {"addr:city": "Sherman Oaks", "addr:housenumber": "14925", "addr:postcode": "91403", "addr:state": "CA", "addr:street": "Ventura Blvd", "addr:unit": "Suite 300", "amenity": "hospital", "contact:facebook": "https://www.facebook.com/SeekIntegrity/", "email": "info@seekingintegrity.com", "emergency": "no", "healthcare": "hospital", "healthcare:speciality": "addiction_treatment", "image": "https://lh5.googleusercontent.com/p/AF1QipMx6JNlbAOBFFIK89UaC-TNFYY37r25lxQZV3C5=w567-h298-k-no", "name": "Seeking Integrity", "phone": "747-234-4325", "website": "https://seekingintegrity.com/"}}, {"name": "Bridges to Recovery", "latitude": 34.0832832, "longitude": -118.4054419, "source": "osm", "_tags": {"addr:city": "Beverly Hills", "addr:housenumber": "725", "addr:postcode": "90210", "addr:state": "CA", "addr:street": "Foothill Rd", "amenity": "hospital", "contact:facebook": "https://www.facebook.com/btrtreatment/", "email": "contact@bridgestorecovery.com", "healthcare": "hospital", "healthcare:speciality": "mental_health_service;mental_health_treatment", "image": "https://lh5.googleusercontent.com/p/AF1QipNokFAy9-FYIAoI00Vx9cS9JTt5reZyUHtDjBbE=w530-h298-k-no", "name": "Bridges to Recovery", "phone": "(855) 340-9716", "website": "https://www.bridgestorecovery.com/"}}, {"name": "New Horizon Hydration", "latitude": 33.9828948, "longitude": -118.2256917, "source": "osm", "_tags": {"addr:city": "Huntington Park", "addr:housenumber": "6316 1/2Pacific Blvdz", "addr:postcode": "90255", "addr:state": "CA", "addr:street": "Pacific Boulevard", "addr:unit": "Suite 206", "amenity": "hospital", "description": "Welcome to New Horizon Hydration! I am Anita Jones, a board-certified Advanced Registered Nurse Practitioner (ARNP) dedicated to helping you achieve your health and wellness goals. At New Horizon Hydration, we specialize in treatments designed to enhance", "emergency": "no", "healthcare": "hospital", "healthcare:speciality": "community;weight_loss", "name": "New Horizon Hydration", "opening_hours": "Monday To Friday 9am–9pm, Saturday 10am–5pm", "operator": "Dignity Health", "operator:type": "public", "operator:wikidata": "Q5276334", "website": "https://newhorizonhydration.com/"}}, {"name": "Mole Removal Camarillo", "latitude": 34.2005111, "longitude": -119.0076803, "source": "osm", "_tags": {"addr:city": "Camarillo", "addr:housenumber": "756", "addr:postcode": "93012", "addr:state": "CA", "addr:street": "Calle Plano, Suite-M", "amenity": "hospital", "description": "At Mole Removal Camarillo we have a team of skilled experienced general surgeons and plastic surgeons who have perfected their skills to offer you the very best healthcare that minimizes tissue damage, leaving little to no scarring. Our surgeons have remo", "emergency": "no", "healthcare": "hospital", "healthcare:speciality": "doctor", "name": "Mole Removal Camarillo", "opening_hours": "Mon-Sat: 8:00AM-6:00PM", "operator": "Joline Mann", "operator:type": "private", "payment": "Cash, Credit Card, Debit Card", "payment:cash": "yes", "payment:credit_cards": "yes", "payment:debit_cards": "yes", "phone": "805-430-6511", "website": "https://moleremovalventuracounty.com/locations/mole-removal-camarillo/"}}, {"name": "", "latitude": 34.1504024, "longitude": -118.3389038, "source": "osm", "_tags": {"amenity": "hospital", "healthcare": "hospital"}}, {"name": "Joyce Eisenberg-Keeper Medical Center", "latitude": 34.2006817, "longitude": -118.5530596, "source": "osm", "_tags": {"amenity": "hospital", "healthcare": "hospital", "name": "Joyce Eisenberg-Keeper Medical Center"}}, {"name": "Marina Del Rey Hospital", "latitude": 33.9820552, "longitude": -118.439447, "source": "osm", "_tags": {"addr:city": "Marina Del Rey", "addr:housenumber": "4650", "addr:postcode": "90292", "addr:street": "Lincoln Boulevard", "amenity": "hospital", "beds": "133", "emergency": "yes", "healthcare": "hospital", "name": "Marina Del Rey Hospital", "opening_hours": "24/7", "phone": "+1 310 823 8911", "website": "https://www.marinahospital.com/", "wikidata": "Q5060155"}}, {"name": "Harbor-UCLA Medical Center", "latitude": 33.8298087, "longitude": -118.2947559, "source": "osm", "_tags": {"addr:city": "Torrance", "addr:housenumber": "1000", "addr:postcode": "90502", "addr:state": "CA", "addr:street": "Carson Street", "addr:street_direction_prefix": "W", "amenity": "hospital", "beds": "453", "emergency": "yes", "gnis:feature_id": "1660949", "healthcare": "hospital", "landuse": "commercial", "name": "Harbor-UCLA Medical Center", "old_name": "Los Angeles Harbor General Hospital", "opening_hours": "24/7", "phone": "+1 310 222 2345", "source": "survey;image;usgs_imagery", "source_ref": "AM909_DSCS3041", "website": "https://www.harbor-ucla.org/", "wikidata": "Q14682100", "wikipedia": "en:Harbor–UCLA Medical Center"}}, {"name": "Saint John's Regional Medical Center", "latitude": 34.216609, "longitude": -119.1565781, "source": "osm", "_tags": {"addr:city": "Oxnard", "addr:housenumber": "1600", "addr:postcode": "93030", "addr:street": "North Rose Avenue", "amenity": "hospital", "beds": "265", "emergency": "yes", "healthcare": "hospital", "name": "Saint John's Regional Medical Center", "opening_hours": "24/7", "operator": "Dignity Health", "operator:wikidata": "Q5276334", "operator:wikipedia": "en:Dignity Health", "phone": "+1 805 988 2500", "source": "usgs_imagery_2007_0.5ft;survey;image", "source_ref": "AM909_DSCS7373", "website": "https://www.dignityhealth.org/central-coast/locations/stjohnsregional", "wikidata": "Q7588823", "wikipedia": "en:St. John's Regional Medical Center (California)"}}, {"name": "Kaiser Permanente Woodland Hills Medical Center", "latitude": 34.1709273, "longitude": -118.5897904, "source": "osm", "_tags": {"addr:city": "Woodland Hills", "addr:country": "US", "addr:housenumber": "5601", "addr:postcode": "91365", "addr:state": "CA", "addr:street": "De Soto Avenue", "amenity": "hospital", "emergency": "yes", "gnis:feature_id": "1733224", "healthcare": "hospital", "name": "Kaiser Permanente Woodland Hills Medical Center", "opening_hours": "24/7", "operator": "Kaiser Permanente", "operator:short": "KP", "operator:type": "private", "operator:website": "https://healthy.kaiserpermanente.org/", "operator:wikidata": "Q1721601", "operator:wikipedia": "en:Kaiser Permanente", "phone": "+1 818 719 2000", "urgent_care": "yes", "website": "https://thrive.kaiserpermanente.org/care-near-you/southern-california/woodland-hills/locations/woodland-hills-medical-center/"}}, {"name": "St. Francis Medical Center", "latitude": 33.9299777, "longitude": -118.2031875, "source": "osm", "_tags": {"addr:city": "Lynwood", "addr:housenumber": "3630", "addr:postcode": "90262", "addr:state": "CA", "addr:street": "East Imperial Highway", "amenity": "hospital", "beds": "384", "emergency": "yes", "healthcare": "hospital", "name": "St. Francis Medical Center", "opening_hours": "24/7", "operator": "Prime Healthcare Services", "operator:wikidata": "Q7243267", "phone": "+1-310-900-8900", "short_name": "SFMC", "website": "https://stfrancismedicalcenter.com/", "wikidata": "Q7587979", "wikipedia": "en:St. Francis Medical Center (Lynwood)"}}, {"name": "Providence Holy Cross Medical Center", "latitude": 34.2804837, "longitude": -118.4595235, "source": "osm", "_tags": {"addr:city": "Mission Hills", "addr:housenumber": "15031", "addr:postcode": "91345", "addr:street": "Rinaldi Street", "amenity": "hospital", "beds": "377", "emergency": "yes", "gnis:feature_id": "1660762", "healthcare": "hospital", "name": "Providence Holy Cross Medical Center", "opening_hours": "24/7", "operator": "Providence Health & Services", "operator:wikidata": "Q7252430", "phone": "+1 818 365 8051", "website": "https://california.providence.org/holy-cross/", "wikidata": "Q7252440", "wikipedia": "en:Providence Holy Cross Medical Center"}}, {"name": "Los Angeles General Medical Center", "latitude": 34.0593762, "longitude": -118.2096671, "source": "osm", "_tags": {"addr:city": "Los Angeles", "addr:housenumber": "2051", "addr:postcode": "90033", "addr:state": "CA", "addr:street": "Marengo Street", "amenity": "hospital", "emergency": "yes", "healthcare": "hospital", "name": "Los Angeles General Medical Center", "opening_hours": "24/7", "operator": "Los Angeles County", "phone": "+1 323 409 1000", "website": "https://dhs.lacounty.gov/lageneral/", "wikipedia": "en:Los Angeles County General Medical Center"}}, {"name": "UCLA Medical Center - Santa Monica", "latitude": 34.0270921, "longitude": -118.4863612, "source": "osm", "_tags": {"addr:city": "Santa Monica", "addr:housenumber": "1250", "addr:postcode": "90404", "addr:state": "CA", "addr:street": "16th Street", "amenity": "hospital", "beds": "265", "emergency": "yes", "gnis:feature_id": "1693183", "healthcare": "hospital", "name": "UCLA Medical Center - Santa Monica", "opening_hours": "24/7", "operator": "UCLA", "phone": "+1 424 259 6000", "source": "Local Knowledge", "website": "https://www.uclahealth.org/santa-monica/", "wikidata": "Q7864040", "wikipedia": "en:UCLA Medical Center, Santa Monica"}}, {"name": "Martin Luther King, Jr. Community Hospital", "latitude": 33.9233235, "longitude": -118.2426945, "source": "osm", "_tags": {"addr:city": "Los Angeles", "addr:housenumber": "1680", "addr:postcode": "90059", "addr:street": "East 120th Street", "amenity": "hospital", "beds": "131", "emergency": "yes", "healthcare": "hospital", "name": "Martin Luther King, Jr. Community Hospital", "name:etymology:wikidata": "Q8027", "opening_hours": "24/7", "phone": "+1 424 338 8000", "website": "https://www.mlkcommunityhospital.org/", "wikidata": "Q14956884", "wikipedia": "en:Martin Luther King Jr. Community Hospital"}}, {"name": "White Memorial Medical Center", "latitude": 34.0496818, "longitude": -118.2172401, "source": "osm", "_tags": {"addr:city": "Los Angeles", "addr:housenumber": "1720", "addr:postcode": "90033", "addr:state": "CA", "addr:street": "East Cesar E Chavez Avenue", "amenity": "hospital", "beds": "353", "emergency": "yes", "healthcare": "hospital", "name": "White Memorial Medical Center", "opening_hours": "24/7", "operator": "Adventist Health", "operator:wikidata": "Q4686452", "phone": "+1 323 268 5000", "short_name": "WMMC", "website": "https://www.adventisthealth.org/white-memorial/", "wikidata": "Q1441868"}}, {"name": "Kaiser Permanente South Bay Medical Center", "latitude": 33.7886602, "longitude": -118.294756, "source": "osm", "_tags": {"addr:city": "Harbor City", "addr:housenumber": "25825", "addr:postcode": "90710", "addr:street": "South Vermont Avenue", "amenity": "hospital", "emergency": "yes", "gnis:feature_id": "1732048", "healthcare": "hospital", "name": "Kaiser Permanente South Bay Medical Center", "opening_hours": "24/7", "operator": "Kaiser Permanente", "operator:short": "KP", "operator:website": "https://healthy.kaiserpermanente.org/", "operator:wikidata": "Q1721601", "operator:wikipedia": "en:Kaiser Permanente", "phone": "+1 310 325 5111", "website": "https://thrive.kaiserpermanente.org/care-near-you/southern-california/south-bay/locations/"}}, {"name": "Providence Little Company of Mary Medical Center Torrance", "latitude": 33.839098, "longitude": -118.3569029, "source": "osm", "_tags": {"addr:city": "Torrance", "addr:housenumber": "4101", "addr:postcode": "90503", "addr:street": "Torrance Boulevard", "amenity": "hospital", "check_date": "2024-08-07", "emergency": "yes", "healthcare": "hospital", "name": "Providence Little Company of Mary Medical Center Torrance", "opening_hours": "24/7", "operator": "Providence Health & Services", "operator:type": "private", "operator:wikidata": "Q7252430", "operator:wikipedia": "en:Providence Health & Services", "phone": "+1 310 540 7676", "website": "https://california.providence.org/torrance/", "wikidata": "Q6649624", "wikipedia": "en:Little Company of Mary Hospital (Torrance)"}}, {"name": "CHA Hollywood Presbyterian Medical Center", "latitude": 34.0963169, "longitude": -118.2900905, "source": "osm", "_tags": {"addr:city": "Los Angeles", "addr:housenumber": "1300", "addr:postcode": "90029", "addr:street": "North Vermont Avenue", "amenity": "hospital", "check_date": "2025-02-02", "emergency": "yes", "healthcare": "hospital", "name": "CHA Hollywood Presbyterian Medical Center", "opening_hours": "24/7", "phone": "+1 213 413 3000", "website": "https://www.hollywoodpresbyterian.com/", "wikidata": "Q5882881", "wikipedia": "en:Hollywood Presbyterian Medical Center"}}, {"name": "Children's Hospital Los Angeles", "latitude": 34.0973659, "longitude": -118.2900813, "source": "osm", "_tags": {"addr:city": "Los Angeles", "addr:housenumber": "4650", "addr:postcode": "90029", "addr:state": "CA", "addr:street": "Sunset Boulevard", "amenity": "hospital", "beds": "401", "check_date": "2025-02-02", "emergency": "yes", "healthcare": "hospital", "healthcare:speciality": "paediatrics", "name": "Children's Hospital Los Angeles", "opening_hours": "24/7", "phone": "+1 323 660 2450", "short_name": "CHLA", "website": "https://www.chla.org/", "wikidata": "Q1072787", "wikipedia": "en:Children's Hospital Los Angeles"}}, {"name": "UCLA West Hills Medical Center", "latitude": 34.2026646, "longitude": -118.6289125, "source": "osm", "_tags": {"addr:city": "West Hills", "addr:housenumber": "7300", "addr:postcode": "91307", "addr:street": "Medical Center Drive", "amenity": "hospital", "emergency": "yes", "gnis:feature_id": "1733478", "healthcare": "hospital", "name": "UCLA West Hills Medical Center", "note": "Formerly known as West Hills Hospital & Medical Center.", "opening_hours": "24/7", "phone": "+1 818 676 4000", "website": "https://www.uclahealth.org/hospitals/west-valley"}}, {"name": "Henry Mayo Newhall Hospital", "latitude": 34.3981375, "longitude": -118.5536497, "source": "osm", "_tags": {"addr:city": "Valencia", "addr:housenumber": "23845", "addr:postcode": "91355", "addr:street": "McBean Parkway", "amenity": "hospital", "beds": "238", "emergency": "yes", "healthcare": "hospital", "name": "Henry Mayo Newhall Hospital", "opening_hours": "24/7", "phone": "+1 661 200 2000", "website": "https://www.henrymayo.com/", "wikidata": "Q5725649", "wikipedia": "en:Henry Mayo Newhall Memorial Hospital"}}, {"name": "Good Samaritan Hospital", "latitude": 34.0541171, "longitude": -118.2653682, "source": "osm", "_tags": {"addr:city": "Los Angeles", "addr:housenumber": "1225", "addr:postcode": "90017", "addr:street": "Wilshire Boulevard", "amenity": "hospital", "beds": "408", "emergency": "yes", "gnis:feature_id": "1732778", "healthcare": "hospital", "name": "Good Samaritan Hospital", "opening_hours": "24/7", "phone": "+1 213 977 2121", "source": "Bing", "website": "https://www.goodsam.org/", "wikidata": "Q5582919", "wikipedia": "en:Good Samaritan Hospital (Los Angeles)"}}, {"name": "Mission Community Hospital", "latitude": 34.2205635, "longitude": -118.4565609, "source": "osm", "_tags": {"addr:city": "Panorama City", "addr:housenumber": "14850", "addr:postcode": "91402", "addr:street": "Roscoe Boulevard", "amenity": "hospital", "beds": "145", "emergency": "yes", "healthcare": "hospital", "name": "Mission Community Hospital", "opening_hours": "24/7", "phone": "+1 818 787 2222", "website": "https://www.mchonline.org/"}}, {"name": "Jules Stein Eye Institute", "latitude": 34.0649633, "longitude": -118.4438518, "source": "osm", "_tags": {"addr:housenumber": "100", "addr:postcode": "90095", "addr:street": "Stein Plaza", "alt_name": "Jules Stein Building", "amenity": "hospital", "building": "yes", "emergency": "no", "gnis:feature_id": "1657720", "healthcare": "hospital", "healthcare:speciality": "ophthalmology", "height": "20.8", "lacounty:ain": "4363001902", "lacounty:bld_id": "2014102491320000", "name": "Jules Stein Eye Institute", "website": "https://www.uclahealth.org/eye/", "wikidata": "Q6306029", "wikipedia": "en:Jules Stein Eye Institute"}}, {"name": "USC-Eisner Family Medicine Center at California Hospital", "latitude": 34.0367369, "longitude": -118.2651082, "source": "osm", "_tags": {"addr:city": "Los Angeles", "addr:housenumber": "1400", "addr:postcode": "90015", "addr:state": "CA", "addr:street": "South Grand Avenue", "amenity": "hospital", "building": "hospital", "ele": "105.6", "healthcare": "hospital", "height": "34.6", "lacounty:ain": "5134020023", "lacounty:bld_id": "481308835886", "name": "USC-Eisner Family Medicine Center at California Hospital", "office": "yes", "start_date": "1989"}}, {"name": "Norris Cancer Center and Hospital", "latitude": 34.061431, "longitude": -118.2051215, "source": "osm", "_tags": {"addr:city": "Los Angeles", "addr:housenumber": "1441", "addr:postcode": "90033", "addr:state": "CA", "addr:street": "Eastlake Avenue", "amenity": "hospital", "building": "yes", "building:units": "1", "ele": "150.0", "emergency": "no", "healthcare": "hospital", "healthcare:speciality": "oncology", "height": "35.8", "lacounty:ain": "5201006024", "lacounty:bld_id": "2014092837190000", "name": "Norris Cancer Center and Hospital", "source": "local knowledge", "start_date": "1968", "website": "https://uscnorriscancer.usc.edu/"}}, {"name": "Catalina Island Medical Center", "latitude": 33.3391704, "longitude": -118.3306717, "source": "osm", "_tags": {"addr:city": "Avalon", "addr:housenumber": "100", "addr:postcode": "90704", "addr:state": "CA", "addr:street": "Falls Canyon Road", "amenity": "hospital", "beds": "12", "healthcare": "hospital", "height": "6.0", "name": "Catalina Island Medical Center", "phone": "(310) 510-0700", "website": "https://cimedicalcenter.org/"}}, {"name": "Kaiser Permanente Los Angeles Medical Center", "latitude": 34.098594, "longitude": -118.2950943, "source": "osm", "_tags": {"addr:city": "Los Angeles", "addr:housenumber": "4867", "addr:postcode": "90027", "addr:street": "Sunset Boulevard", "amenity": "hospital", "emergency": "yes", "gnis:feature_id": "1732786", "healthcare": "hospital", "name": "Kaiser Permanente Los Angeles Medical Center", "opening_hours": "24/7", "operator": "Kaiser Permanente", "operator:short": "KP", "operator:website": "https://healthy.kaiserpermanente.org/", "operator:wikidata": "Q1721601", "operator:wikipedia": "en:Kaiser Permanente", "phone": "+1 323 783 4011", "website": "https://thrive.kaiserpermanente.org/care-near-you/southern-california/los-angeles/locations/los-angeles-medical-center/"}}, {"name": "Community Hospital of Huntington Park", "latitude": 33.989714, "longitude": -118.2238792, "source": "osm", "_tags": {"addr:city": "Huntington Park", "addr:housenumber": "2623", "addr:postcode": "90255", "addr:street": "East Slauson Avenue", "amenity": "hospital", "beds": "81", "emergency": "yes", "gnis:feature_id": "1732238", "healthcare": "hospital", "name": "Community Hospital of Huntington Park", "opening_hours": "24/7", "operator": "Avanti Hospitals", "phone": "+1 323 583 1931", "website": "https://chhp.avantihospitals.com/"}}, {"name": "Ventura County Medical Center", "latitude": 34.2785427, "longitude": -119.2533557, "source": "osm", "_tags": {"addr:city": "Ventura", "addr:housenumber": "300", "addr:postcode": "93003", "addr:street": "Hillmont Avenue", "amenity": "hospital", "emergency": "yes", "gnis:feature_id": "1870726", "healthcare": "hospital", "name": "Ventura County Medical Center", "opening_hours": "24/7", "operator": "County of Ventura", "operator:type": "government", "phone": "+1 805 652 6000", "short_name": "VCMC", "website": "https://hospitals.vchca.org/", "wikidata": "Q7920377", "wikipedia": "en:Ventura County Medical Center"}}, {"name": "Cottage Hospital", "latitude": 34.4297042, "longitude": -119.7231121, "source": "osm", "_tags": {"addr:city": "Santa Barbara", "addr:housenumber": "400", "addr:postcode": "93105", "addr:street": "West Pueblo Street", "amenity": "hospital", "beds": "450", "check_date": "2025-08-17", "emergency": "yes", "healthcare": "hospital", "name": "Cottage Hospital", "opening_hours": "24/7", "operator": "Cottage Health", "phone": "+1 805 682 7111", "website": "https://www.cottagehealth.org/locations/locations-profile/?id=2", "wheelchair": "yes", "wikidata": "Q7419217", "wikipedia": "en:Santa Barbara Cottage Hospital"}}, {"name": "Goleta Valley Cottage Hospital", "latitude": 34.4336929, "longitude": -119.8092963, "source": "osm", "_tags": {"addr:city": "Goleta", "addr:housenumber": "351", "addr:postcode": "93111", "addr:street": "South Patterson Avenue", "amenity": "hospital", "check_date": "2025-07-10", "emergency": "yes", "healthcare": "hospital", "name": "Goleta Valley Cottage Hospital", "opening_hours": "24/7", "operator": "Cottage Health", "phone": "+1 805 967 3411", "website": "https://www.cottagehealth.org/locations/goleta-valley-cottage-hospital/", "wheelchair": "yes"}}, {"name": "Cedars-Sinai Medical Center", "latitude": 34.0752152, "longitude": -118.3806962, "source": "osm", "_tags": {"addr:city": "Los Angeles", "addr:housenumber": "8700", "addr:postcode": "90048", "addr:street": "Beverly Boulevard", "amenity": "hospital", "beds": "886", "emergency": "yes", "gnis:feature_id": "1661070", "healthcare": "hospital", "name": "Cedars-Sinai Medical Center", "opening_hours": "24/7", "operator": "Cedars-Sinai", "phone": "+1 310 423 3277", "source": "Bing", "website": "https://www.cedars-sinai.org/", "wikidata": "Q1052562", "wikipedia": "en:Cedars-Sinai Medical Center"}}, {"name": "Providence Saint Joseph Medical Center", "latitude": 34.1560682, "longitude": -118.3285481, "source": "osm", "_tags": {"addr:city": "Burbank", "addr:housenumber": "501", "addr:postcode": "91505", "addr:street": "South Buena Vista Street", "amenity": "hospital", "emergency": "yes", "gnis:feature_id": "1661362", "healthcare": "hospital", "name": "Providence Saint Joseph Medical Center", "opening_hours": "24/7", "operator": "Providence Health & Services", "operator:wikidata": "Q7252430", "operator:wikipedia": "en:Providence Health & Services", "phone": "+1 818 843 5111", "website": "https://california.providence.org/saint-joseph/", "wikidata": "Q7252477", "wikipedia": "en:Providence Saint Joseph Medical Center"}}, {"name": "West Los Angeles Veterans Affairs Medical Center", "latitude": 34.0570501, "longitude": -118.4585757, "source": "osm", "_tags": {"addr:city": "Los Angeles", "addr:housenumber": "11310", "addr:postcode": "90073", "addr:state": "CA", "addr:street": "Wilshire Boulevard", "amenity": "hospital", "emergency": "yes", "gnis:feature_id": "2129255", "healthcare": "hospital", "healthcare:for": "veteran", "name": "West Los Angeles Veterans Affairs Medical Center", "opening_hours": "24/7", "operator": "Veterans Health Administration", "operator:short": "VA", "operator:type": "government", "operator:wikidata": "Q6580225", "operator:wikipedia": "en:Veterans Health Administration", "phone": "+1 310 478 3711", "short_name": "VA", "website": "https://www.losangeles.va.gov/", "wikidata": "Q25006007", "wikipedia": "en:West Los Angeles VA Medical Center"}}, {"name": "College Medical Center South Campus", "latitude": 33.7885544, "longitude": -118.1944252, "source": "osm", "_tags": {"addr:city": "Long Beach", "addr:housenumber": "1725", "addr:postcode": "90813", "addr:street": "Pacific Avenue", "amenity": "hospital", "emergency": "no", "gnis:feature_id": "1732985", "healthcare": "hospital", "name": "College Medical Center South Campus", "old_name": "Long Beach Doctors Hospital", "opening_hours": "24/7", "operator": "College Medical Center", "phone": "+1 562 256 8400", "website": "https://www.collegemedicalcenter.com/south-campus/"}}, {"name": "College Medical Center", "latitude": 33.8071125, "longitude": -118.1930642, "source": "osm", "_tags": {"addr:city": "Long Beach", "addr:country": "US", "addr:housenumber": "2776", "addr:postcode": "90806", "addr:state": "CA", "addr:street": "Pacific Avenue", "amenity": "hospital", "beds": "221", "emergency": "yes", "gnis:feature_id": "1661168", "healthcare": "hospital", "name": "College Medical Center", "opening_hours": "24/7", "operator": "College Medical Center", "phone": "+1 562 997 2000", "website": "https://www.collegemedicalcenter.com/", "wikidata": "Q7122495", "wikipedia": "en:College Medical Center"}}, {"name": "Providence Little Company of Mary Medical Center San Pedro", "latitude": 33.7393363, "longitude": -118.3054872, "source": "osm", "_tags": {"addr:city": "San Pedro", "addr:housenumber": "1300", "addr:postcode": "90732", "addr:street": "West 7th Street", "amenity": "hospital", "beds": "356", "emergency": "yes", "gnis:feature_id": "1733533", "healthcare": "hospital", "name": "Providence Little Company of Mary Medical Center San Pedro", "old_name": "San Pedro Peninsula Hospital", "opening_hours": "24/7", "phone": "+1 310 832 3311", "website": "https://california.providence.org/san-pedro/", "wikidata": "Q6649621", "wikipedia": "en:Little Company of Mary Hospital (San Pedro)"}}, {"name": "Torrance Memorial", "latitude": 33.8104463, "longitude": -118.3437253, "source": "osm", "_tags": {"addr:city": "Torrance", "addr:housenumber": "3330", "addr:postcode": "90505", "addr:street": "Lomita Boulevard", "amenity": "hospital", "emergency": "yes", "gnis:feature_id": "1733017", "healthcare": "hospital", "name": "Torrance Memorial", "opening_hours": "24/7", "phone": "+1 310 325 9110", "website": "https://www.torrancememorial.org/", "wikidata": "Q7826923"}}, {"name": "Kindred Hospital South Bay", "latitude": 33.890009, "longitude": -118.2974258, "source": "osm", "_tags": {"addr:city": "Gardena", "addr:housenumber": "1246", "addr:postcode": "90247", "addr:street": "West 155th Street", "amenity": "hospital", "emergency": "no", "gnis:feature_id": "1731923", "healthcare": "hospital", "name": "Kindred Hospital South Bay", "old_name": "Community Hospital of Gardena", "operator": "Kindred Healthcare", "operator:wikidata": "Q921363", "phone": "+1 310 323 5330", "website": "https://www.kindredhealthcare.com/locations/transitional-care-hospitals/kindred-hospital-south-bay"}}, {"name": "Memorial Hospital of Gardena", "latitude": 33.8930237, "longitude": -118.295056, "source": "osm", "_tags": {"addr:city": "Gardena", "addr:housenumber": "1145", "addr:postcode": "90247", "addr:street": "West Redondo Beach Boulevard", "amenity": "hospital", "beds": "172", "emergency": "yes", "gnis:feature_id": "1731972", "healthcare": "hospital", "name": "Memorial Hospital of Gardena", "opening_hours": "24/7", "operator": "Avanti Hospitals", "phone": "+1 310 532 4200", "website": "https://mhg.avantihospitals.com/"}}, {"name": "USC Verdugo Hills Hospital", "latitude": 34.2044065, "longitude": -118.2155999, "source": "osm", "_tags": {"addr:city": "Glendale", "addr:housenumber": "1812", "addr:postcode": "91208", "addr:street": "Verdugo Boulevard", "amenity": "hospital", "beds": "158", "emergency": "yes", "gnis:feature_id": "1732634", "healthcare": "hospital", "name": "USC Verdugo Hills Hospital", "opening_hours": "24/7", "operator": "Keck Medicine of USC", "phone": "+1 818 790 7100", "website": "https://uscvhh.org/"}}, {"name": "Centinela Hospital Medical Center", "latitude": 33.9504601, "longitude": -118.3483046, "source": "osm", "_tags": {"addr:city": "Inglewood", "addr:housenumber": "555", "addr:postcode": "90301", "addr:street": "East Hardy Street", "amenity": "hospital", "beds": "369", "emergency": "yes", "gnis:feature_id": "1660457", "healthcare": "hospital", "name": "Centinela Hospital Medical Center", "opening_hours": "24/7", "operator": "Prime Healthcare Services", "operator:wikidata": "Q7243267", "phone": "+1 310 673 4660", "short_name": "CHMC", "website": "https://www.centinelamed.com/", "wikidata": "Q23926524", "wikipedia": "en:Centinela Hospital Medical Center"}}, {"name": "Southern California Hospital Culver City", "latitude": 34.0227443, "longitude": -118.3976512, "source": "osm", "_tags": {"addr:city": "Culver City", "addr:housenumber": "3828", "addr:postcode": "90232", "addr:street": "Delmas Terrace", "amenity": "hospital", "beds": "420", "emergency": "yes", "gnis:feature_id": "1661006", "healthcare": "hospital", "name": "Southern California Hospital Culver City", "old_name": "Brotman Medical Center", "opening_hours": "24/7", "operator": "Prospect Medical Group", "phone": "+1 310 836 7000", "website": "https://sch-culvercity.com/", "wikidata": "Q4975747", "wikipedia": "en:Southern California Hospital at Culver City"}}, {"name": "Providence Saint John's Health Center", "latitude": 34.0305404, "longitude": -118.4795292, "source": "osm", "_tags": {"addr:city": "Santa Monica", "addr:housenumber": "2121", "addr:postcode": "90404", "addr:street": "Santa Monica Boulevard", "amenity": "hospital", "beds": "266", "emergency": "yes", "gnis:feature_id": "1661360", "healthcare": "hospital", "name": "Providence Saint John's Health Center", "opening_hours": "24/7", "operator": "Providence Health & Services", "operator:wikidata": "Q7252430", "operator:wikipedia": "en:Providence Health & Services", "phone": "+1 310 829 5511", "website": "https://california.providence.org/saint-johns/", "wikidata": "Q7401436", "wikipedia": "en:Saint John's Health Center"}}, {"name": "Olympia Medical Center", "latitude": 34.0573535, "longitude": -118.3606191, "source": "osm", "_tags": {"addr:city": "Los Angeles", "addr:housenumber": "5900", "addr:postcode": "90036", "addr:street": "West Olympic Boulevard", "amenity": "hospital", "beds": "204", "emergency": "yes", "gnis:feature_id": "1732803", "healthcare": "hospital", "name": "Olympia Medical Center", "opening_hours": "24/7", "operator": "Alecto Healthcare", "phone": "+1 310 657 5900", "website": "https://www.olympiamc.com/", "wikidata": "Q7088964"}}, {"name": "Southern California Hospital Hollywood", "latitude": 34.0966428, "longitude": -118.3253222, "source": "osm", "_tags": {"addr:city": "Los Angeles", "addr:housenumber": "6245", "addr:postcode": "90028", "addr:street": "De Longpre Avenue", "amenity": "hospital", "emergency": "no", "gnis:feature_id": "1877944", "healthcare": "hospital", "name": "Southern California Hospital Hollywood", "old_name": "Hollywood Community Hospital", "opening_hours": "24/7", "operator": "Prospect Medical Group", "phone": "+1 323 462 2271", "urgent_care": "yes", "website": "https://www.sch-hollywood.com/"}}, {"name": "California Hospital Medical Center", "latitude": 34.0376936, "longitude": -118.2660024, "source": "osm", "_tags": {"addr:city": "Los Angeles", "addr:housenumber": "1401", "addr:postcode": "90007", "addr:street": "South Grand Avenue", "amenity": "hospital", "emergency": "yes", "gnis:feature_id": "1732760", "healthcare": "hospital", "name": "California Hospital Medical Center", "opening_hours": "24/7", "operator": "Dignity Health", "operator:type": "private", "operator:wikidata": "Q5276334", "operator:wikipedia": "en:Dignity Health", "phone": "+1 213 748 2411", "website": "https://www.dignityhealth.org/socal/locations/californiahospital", "wikidata": "Q5020617", "wikipedia": "en:California Hospital Medical Center"}}, {"name": "Saint Vincent Medical Center", "latitude": 34.0640789, "longitude": -118.2734281, "source": "osm", "_tags": {"addr:city": "Los Angeles", "addr:housenumber": "2131", "addr:postcode": "90057", "addr:street": "West 3rd Street", "amenity": "hospital", "emergency": "yes", "healthcare": "hospital", "name": "Saint Vincent Medical Center", "opening_hours": "24/7", "operator": "Verity Health", "phone": "+1 213 484 7111", "website": "https://stvincent.verity.org/", "wikidata": "Q7592097", "wikipedia": "en:St. Vincent Medical Center (Los Angeles)"}}, {"name": "Silver Lake Medical Center", "latitude": 34.0695724, "longitude": -118.2636209, "source": "osm", "_tags": {"addr:city": "Los Angeles", "addr:housenumber": "1711", "addr:postcode": "90026", "addr:street": "West Temple Street", "amenity": "hospital", "emergency": "no", "gnis:feature_id": "1732762", "healthcare": "hospital", "name": "Silver Lake Medical Center", "old_name": "Cigna Hospital of Los Angeles", "opening_hours": "24/7", "operator": "Success Healthcare", "phone": "+1 213 989 6100", "website": "https://www.silverlakemc.com/"}}, {"name": "Gateways Hospital", "latitude": 34.0852797, "longitude": -118.2567741, "source": "osm", "_tags": {"addr:city": "Los Angeles", "addr:housenumber": "1891", "addr:postcode": "90026", "addr:street": "Effie Street", "amenity": "hospital", "emergency": "no", "gnis:feature_id": "1732774", "healthcare": "hospital", "healthcare:speciality": "psychiatry", "name": "Gateways Hospital", "phone": "+1 323 644 2000", "website": "https://www.gatewayshospital.org/"}}, {"name": "Keck Hospital of USC", "latitude": 34.0622206, "longitude": -118.2019552, "source": "osm", "_tags": {"addr:city": "Los Angeles", "addr:housenumber": "1500", "addr:postcode": "90033", "addr:street": "San Pablo Street", "amenity": "hospital", "beds": "401", "emergency": "no", "gnis:feature_id": "1732731", "healthcare": "hospital", "name": "Keck Hospital of USC", "old_name": "University of Southern California University Hospital", "operator": "Keck Medicine of USC", "phone": "+1 800 872 2273", "website": "https://www.keckmedicine.org/about-keck-medicine/keck-hospital-of-usc/", "wikidata": "Q6382471", "wikipedia": "en:Keck Hospital of USC"}}, {"name": "Glendale Adventist Medical Center", "latitude": 34.1512042, "longitude": -118.2303397, "source": "osm", "_tags": {"addr:city": "Glendale", "addr:housenumber": "1509", "addr:postcode": "91206", "addr:street": "Wilson Terrace", "amenity": "hospital", "beds": "515", "denomination": "seventh_day_adventist", "description": "\"Today, we are the largest medical center serving the San Fernando Valley, with 800 physicians, 2,600 associates and 1,100 volunteers.\" (from hospital website, 23 May 2019)", "emergency": "yes", "gnis:feature_id": "1660680", "healthcare": "hospital", "internet_access": "wlan", "name": "Glendale Adventist Medical Center", "opening_hours": "24/7", "operator": "Adventist Health", "operator:wikidata": "Q4686452", "phone": "+1 818 409 8000", "religion": "christian", "short_name": "GAMC", "start_date": "1905", "website": "https://www.adventisthealth.org/glendale/", "wikidata": "Q5568345", "wikipedia": "en:Adventist Health Glendale"}}, {"name": "Glendale Memorial Hospital", "latitude": 34.1276157, "longitude": -118.256659, "source": "osm", "_tags": {"addr:city": "Glendale", "addr:housenumber": "1420", "addr:postcode": "91204", "addr:street": "South Central Avenue", "amenity": "hospital", "emergency": "yes", "gnis:feature_id": "1732309", "healthcare": "hospital", "name": "Glendale Memorial Hospital", "opening_hours": "24/7", "operator": "Dignity Health", "operator:wikidata": "Q5276334", "operator:wikipedia": "en:Dignity Health", "phone": "+1 818 502 1900", "website": "https://www.dignityhealth.org/socal/locations/glendalememorial"}}, {"name": "Sherman Oaks Hospital", "latitude": 34.1603303, "longitude": -118.4494499, "source": "osm", "_tags": {"addr:city": "Sherman Oaks", "addr:housenumber": "4929", "addr:postcode": "91403", "addr:street": "Van Nuys Boulevard", "amenity": "hospital", "beds": "153", "emergency": "yes", "gnis:feature_id": "1732857", "healthcare": "hospital", "name": "Sherman Oaks Hospital", "opening_hours": "24/7", "operator": "Prime Healthcare Services", "operator:wikidata": "Q7243267", "operator:wikipedia": "en:Prime Healthcare Services", "phone": "+1 818 981 7111", "website": "https://www.shermanoakshospital.org/", "wikidata": "Q7495221", "wikipedia": "en:Sherman Oaks Hospital"}}, {"name": "Encino Hospital Medical Center", "latitude": 34.1574993, "longitude": -118.4868745, "source": "osm", "_tags": {"addr:city": "Encino", "addr:housenumber": "16237", "addr:postcode": "91436", "addr:street": "Ventura Boulevard", "amenity": "hospital", "beds": "150", "emergency": "yes", "gnis:feature_id": "1732851", "healthcare": "hospital", "name": "Encino Hospital Medical Center", "opening_hours": "24/7", "operator": "Prime Healthcare Services", "operator:wikidata": "Q7243267", "phone": "+1 818 995 5000", "website": "https://www.encinomed.org/", "wikidata": "Q5375455", "wikipedia": "en:Encino Hospital Medical Center"}}, {"name": "Providence Tarzana Medical Center", "latitude": 34.1708894, "longitude": -118.5328659, "source": "osm", "_tags": {"addr:city": "Tarzana", "addr:housenumber": "18321", "addr:postcode": "91356", "addr:street": "Clark Street", "amenity": "hospital", "emergency": "yes", "gnis:feature_id": "1733213", "healthcare": "hospital", "name": "Providence Tarzana Medical Center", "old_name": "Encino-Tarzana Regional Medical Center", "opening_hours": "24/7", "operator": "Providence Health & Services", "operator:wikidata": "Q7252430", "operator:wikipedia": "en:Providence Health & Services", "phone": "+1 818 881 0800", "website": "https://california.providence.org/tarzana/", "wikidata": "Q7252487", "wikipedia": "en:Providence Tarzana Medical Center"}}, {"name": "Northridge Hospital Medical Center", "latitude": 34.2199668, "longitude": -118.5338775, "source": "osm", "_tags": {"addr:city": "Northridge", "addr:housenumber": "18300", "addr:postcode": "91328", "addr:street": "Roscoe Boulevard", "amenity": "hospital", "beds": "409", "emergency": "yes", "gnis:feature_id": "1733229", "healthcare": "hospital", "name": "Northridge Hospital Medical Center", "opening_hours": "24/7", "operator": "Dignity Health", "operator:wikidata": "Q5276334", "operator:wikipedia": "en:Dignity Health", "phone": "+1 818 885 8500", "website": "https://www.dignityhealth.org/socal/locations/northridgehospital", "wikidata": "Q7059653", "wikipedia": "en:Northridge Hospital Medical Center"}}, {"name": "Valley Presbyterian Hospital", "latitude": 34.194853, "longitude": -118.463974, "source": "osm", "_tags": {"addr:city": "Van Nuys", "addr:housenumber": "15107", "addr:postcode": "91405", "addr:street": "Vanowen Street", "amenity": "hospital", "beds": "350", "emergency": "yes", "gnis:feature_id": "1732899", "healthcare": "hospital", "name": "Valley Presbyterian Hospital", "opening_hours": "24/7", "phone": "+1 818 782 6600", "website": "https://www.valleypres.org/", "wikidata": "Q7912174", "wikipedia": "en:Valley Presbyterian Hospital"}}, {"name": "Kaiser Permanente Panorama City Medical Center", "latitude": 34.2184926, "longitude": -118.4307025, "source": "osm", "_tags": {"amenity": "hospital", "beds": "218", "healthcare": "hospital", "name": "Kaiser Permanente Panorama City Medical Center", "operator": "Kaiser Permanente", "operator:short": "KP", "operator:website": "https://healthy.kaiserpermanente.org/", "operator:wikidata": "Q1721601", "operator:wikipedia": "en:Kaiser Permanente", "phone": "+1 818 375 2000", "website": "https://thrive.kaiserpermanente.org/care-near-you/southern-california/panorama-city/locations/panorama-city-medical-center/"}}, {"name": "Pacifica Hospital of the Valley", "latitude": 34.2401984, "longitude": -118.3964691, "source": "osm", "_tags": {"addr:city": "Sun Valley", "addr:housenumber": "9449", "addr:postcode": "91352", "addr:street": "San Fernando Road", "amenity": "hospital", "beds": "231", "emergency": "yes", "gnis:feature_id": "1661524", "healthcare": "hospital", "name": "Pacifica Hospital of the Valley", "opening_hours": "24/7", "phone": "+1 818 767 3310", "website": "https://pacificahospital.com/"}}, {"name": "Adventist Health Simi Valley", "latitude": 34.288963, "longitude": -118.7461178, "source": "osm", "_tags": {"addr:city": "Simi Valley", "addr:housenumber": "2975", "addr:postcode": "93065", "addr:street": "Sycamore Drive", "amenity": "hospital", "emergency": "yes", "gnis:feature_id": "1871024", "healthcare": "hospital", "hospital": "http://geonames.usgs.gov/pls/gnispublic/f?p=110:3:15276929038632442423::NO::P3_FID:1871024", "name": "Adventist Health Simi Valley", "opening_hours": "24/7", "operator": "Adventist Health", "operator:wikidata": "Q4686452", "operator:wikipedia": "en:Adventist Health", "phone": "+1 805 955 6000", "website": "https://www.adventisthealth.org/Simi-Valley/", "wikidata": "Q7517754"}}, {"name": "Los Robles Hospital & Medical Center", "latitude": 34.2076907, "longitude": -118.8833608, "source": "osm", "_tags": {"addr:city": "Thousand Oaks", "addr:housenumber": "215", "addr:postcode": "91360", "addr:street": "West Janns Road", "amenity": "hospital", "beds": "404", "emergency": "yes", "healthcare": "hospital", "name": "Los Robles Hospital & Medical Center", "opening_hours": "24/7", "operator": "HCA", "operator:type": "private", "operator:wikidata": "Q1630431", "phone": "+1 805 497 2727", "website": "https://losrobleshospital.com/", "wikidata": "Q6683243", "wikipedia": "en:Los Robles Hospital & Medical Center"}}, {"name": "Saint Johns Pleasant Valley Hospital", "latitude": 34.2435992, "longitude": -119.0198774, "source": "osm", "_tags": {"addr:city": "Camarillo", "addr:housenumber": "2309", "addr:postcode": "93010", "addr:street": "Antonio Avenue", "amenity": "hospital", "emergency": "yes", "gnis:feature_id": "1871273", "healthcare": "hospital", "name": "Saint Johns Pleasant Valley Hospital", "opening_hours": "24/7", "operator": "Dignity Health", "operator:wikidata": "Q5276334", "phone": "+1 805 389 5800", "website": "https://www.dignityhealth.org/central-coast/locations/pleasantvalley", "wikidata": "Q7588806", "wikipedia": "en:St. John's Hospital Camarillo"}}, {"name": "", "latitude": 34.3663277, "longitude": -119.0649507, "source": "osm", "_tags": {"addr:city": "Santa Paula", "addr:housenumber": "825", "addr:postcode": "93061", "addr:street": "North 10th Street", "amenity": "hospital", "beds": "49", "emergency": "yes", "gnis:feature_id": "1870882", "healthcare": "hospital", "opening_hours": "24/7", "operator": "HCA", "operator:wikidata": "Q1630431", "operator:wikipedia": "en:HCA Healthcare", "phone": "+1 805 933 8632", "website": "https://hospitals.vchca.org/santa-paula-hospital", "wikidata": "Q7419822", "wikipedia": "en:Santa Paula Hospital"}}, {"name": "Community Memorial Hospital", "latitude": 34.2739497, "longitude": -119.2579031, "source": "osm", "_tags": {"addr:city": "Ventura", "addr:housenumber": "147", "addr:postcode": "93003", "addr:state": "CA", "addr:street": "North Brent Street", "amenity": "hospital", "beds": "242", "emergency": "yes", "healthcare": "hospital", "name": "Community Memorial Hospital", "opening_hours": "24/7", "operator": "Community Memorial Health System", "phone": "+1 805 652 5011", "short_name": "CMH", "website": "http://www.cmhshealth.org/cmh/", "wikidata": "Q5154816", "wikipedia": "en:Community Memorial Hospital of San Buenaventura"}}, {"name": "Ojai Valley Community Hospital", "latitude": 34.4432643, "longitude": -119.2643839, "source": "osm", "_tags": {"addr:city": "Ojai", "addr:housenumber": "1306", "addr:postcode": "93023", "addr:street": "Maricopa Highway", "amenity": "hospital", "beds": "91", "emergency": "yes", "healthcare": "hospital", "name": "Ojai Valley Community Hospital", "opening_hours": "24/7", "operator": "Community Memorial Health System", "phone": "+1 805 646 1401", "website": "http://www.cmhshealth.org/ovch/"}}, {"name": "Santa Ynez Valley Hospital", "latitude": 34.6020802, "longitude": -120.1259058, "source": "osm", "_tags": {"addr:city": "Solvang", "addr:housenumber": "2050", "addr:postcode": "93463", "addr:street": "Viborg Road", "amenity": "hospital", "emergency": "yes", "gnis:feature_id": "1871806", "healthcare": "hospital", "name": "Santa Ynez Valley Hospital", "opening_hours": "24/7", "operator": "Cottage Health", "phone": "+1 805 688 6431", "website": "https://www.cottagehealth.org/santa-ynez-valley-cottage-hospital/", "wikidata": "Q14956762"}}, {"name": "Kaiser Permanente West Los Angeles Medical Center", "latitude": 34.0387124, "longitude": -118.3747968, "source": "osm", "_tags": {"addr:city": "Los Angeles", "addr:housenumber": "6041", "addr:postcode": "90034", "addr:street": "Cadillac Avenue", "amenity": "hospital", "beds": "265", "emergency": "yes", "healthcare": "hospital", "name": "Kaiser Permanente West Los Angeles Medical Center", "opening_hours": "24/7", "operator": "Kaiser Permanente", "operator:short": "KP", "operator:website": "https://healthy.kaiserpermanente.org/", "operator:wikidata": "Q1721601", "operator:wikipedia": "en:Kaiser Permanente", "phone": "+1 800 954 8000", "website": "https://thrive.kaiserpermanente.org/care-near-you/southern-california/west-los-angeles/locations/west-los-angeles-medical-center/"}}, {"name": "", "latitude": 34.023876, "longitude": -118.4896733, "source": "osm", "_tags": {"amenity": "hospital", "healthcare": "hospital"}}, {"name": "", "latitude": 34.0034534, "longitude": -118.3098161, "source": "osm", "_tags": {"amenity": "hospital", "healthcare": "hospital"}}, {"name": "", "latitude": 34.1925696, "longitude": -118.4650798, "source": "osm", "_tags": {"amenity": "hospital", "healthcare": "hospital"}}, {"name": "", "latitude": 34.1905759, "longitude": -118.4653028, "source": "osm", "_tags": {"amenity": "hospital", "healthcare": "hospital"}}, {"name": "Los Palos Convalescent Hospital", "latitude": 33.7400082, "longitude": -118.3081275, "source": "osm", "_tags": {"amenity": "hospital", "healthcare": "hospital", "name": "Los Palos Convalescent Hospital"}}, {"name": "Seacrest Convalescent Hospital", "latitude": 33.739543, "longitude": -118.3081324, "source": "osm", "_tags": {"amenity": "hospital", "healthcare": "hospital", "name": "Seacrest Convalescent Hospital"}}, {"name": "Kaiser Permanente Sylmar Medical Office", "latitude": 34.2995024, "longitude": -118.4742859, "source": "osm", "_tags": {"addr:city": "Sylmar", "addr:housenumber": "12669", "addr:postcode": "91342", "addr:state": "CA", "addr:street": "Encinitas Avenue", "amenity": "hospital", "emergency": "no", "healthcare": "hospital", "healthcare:speciality": "psychiatry;child_psychiatry;addiction_medicine", "name": "Kaiser Permanente Sylmar Medical Office", "operator": "Kaiser Permanente", "operator:short": "KP", "operator:type": "private", "operator:website": "https://healthy.kaiserpermanente.org/", "operator:wikidata": "Q1721601", "operator:wikipedia": "en:Kaiser Permanente"}}, {"name": "Barlow Respiratory Hospital", "latitude": 34.0753467, "longitude": -118.2474945, "source": "osm", "_tags": {"addr:city": "Los Angeles", "addr:housenumber": "2000", "addr:postcode": "90026", "addr:street": "Stadium Way", "amenity": "hospital", "emergency": "no", "gnis:feature_id": "1660311", "healthcare": "hospital", "name": "Barlow Respiratory Hospital", "phone": "+1 213 250 4200", "website": "https://www.barlowhospital.org/", "wikidata": "Q4861223"}}, {"name": "San Fernando Community Health Center", "latitude": 34.2761907, "longitude": -118.4444328, "source": "osm", "_tags": {"addr:city": "San Fernando", "addr:housenumber": "732", "addr:postcode": "91340", "addr:street": "Mott Street", "addr:unit": "Suite 100-110", "amenity": "hospital", "healthcare": "hospital", "name": "San Fernando Community Health Center", "phone": "+1 818 963 5690", "website": "https://www.sfchealthcenter.org/"}}, {"name": "New Breath Recovery", "latitude": 34.2831599, "longitude": -118.7009135, "source": "osm", "_tags": {"addr:city": "Simi Valley", "addr:housenumber": "4767", "addr:postcode": "93063", "addr:state": "CA", "addr:street": "Barnard Street", "amenity": "hospital", "healthcare": "hospital", "healthcare:speciality": "physiatry", "name": "New Breath Recovery", "phone": "805-800-8708", "source": "microsoft/BuildingFootprints", "website": "https://newbreathrecovery.com/"}}, {"name": "Mary Health of the Sick Convalescent and Nursing Hospital", "latitude": 34.1804714, "longitude": -118.9381125, "source": "osm", "_tags": {"amenity": "hospital", "emergency": "no", "healthcare": "hospital", "name": "Mary Health of the Sick Convalescent and Nursing Hospital", "website": "https://maryhealth.com/"}}, {"name": "Cloister Garden", "latitude": 34.4289403, "longitude": -119.724102, "source": "osm", "_tags": {"addr:city": "Santa Barbara", "addr:housenumber": "400", "addr:postcode": "93105-6206", "addr:state": "CA", "addr:street": "West Pueblo Street", "amenity": "hospital", "healthcare": "hospital", "name": "Cloister Garden", "operator": "Santa Barbara Cottage Hospital"}}, {"name": "Ronald Reagan UCLA Medical Center", "latitude": 34.0664553, "longitude": -118.4463435, "source": "osm", "_tags": {"addr:city": "Los Angeles", "addr:housenumber": "757", "addr:postcode": "90095", "addr:street": "Westwood Plaza", "amenity": "hospital", "building": "hospital", "emergency": "yes", "healthcare": "hospital", "height": "43.9", "name": "Ronald Reagan UCLA Medical Center", "opening_hours": "24/7", "phone": "+1 310 825 9111", "sidewalk_distance": "0", "type": "multipolygon", "website": "https://www.uclahealth.org/reagan/", "wheelchair": "yes", "wikidata": "Q2169282", "wikipedia": "en:Ronald Reagan UCLA Medical Center"}}, {"name": "Veterans Affairs Sepulveda Ambulatory Care Center", "latitude": 34.2465035, "longitude": -118.4805894, "source": "osm", "_tags": {"addr:city": "North Hills", "addr:housenumber": "16111", "addr:postcode": "91343", "addr:street": "Plummer Street", "amenity": "hospital", "emergency": "no", "gnis:feature_id": "1661601", "healthcare": "hospital", "healthcare:for": "veteran", "name": "Veterans Affairs Sepulveda Ambulatory Care Center", "operator": "Veterans Health Administration", "operator:short": "VA", "operator:wikidata": "Q6580225", "operator:wikipedia": "en:Veterans Health Administration", "phone": "+1 818 891 7711", "short_name": "VA", "type": "multipolygon", "website": "https://www.losangeles.va.gov/locations/directions-SACC.asp"}}, {"name": "Behavioral Neuroscience Institute", "latitude": 34.1416391, "longitude": -118.738006, "source": "osm", "_tags": {"addr:city": "Agoura Hills", "addr:housenumber": "28038", "addr:postcode": "91301", "addr:state": "CA", "addr:street": "Dorothy Dr", "addr:unit": "Ste#200", "amenity": "hospital", "contact:facebook": "http://www.facebook.com/pages/Behavioral-Neuroscience-Institute/146248475437880", "description": "Mental Health Clinic", "ele": "294.5", "email": "bniclinics@bniclinics.com", "healthcare": "hospital", "healthcare:speciality": "psychiatry;child_psychiatry", "height": "8.8", "image": "https://lh5.googleusercontent.com/p/AF1QipNWpovZser4zQ-R_HRALBvNmkNLz8uS_QNbj0pa=s646-k-no", "lacounty:ain": "2061013021", "lacounty:bld_id": "338339874743", "name": "Behavioral Neuroscience Institute", "phone": "(310) 691-5005", "type": "multipolygon", "website": "https://bniclinics.com"}}, {"name": "Olive View–UCLA Medical Center", "latitude": 34.3265743, "longitude": -118.4485166, "source": "osm", "_tags": {"addr:city": "Sylmar", "addr:housenumber": "14445", "addr:postcode": "91342", "addr:street": "Olive View Drive", "amenity": "hospital", "beds": "377", "emergency": "yes", "gnis:feature_id": "1661146", "healthcare": "hospital", "name": "Olive View–UCLA Medical Center", "opening_hours": "24/7", "operator": "Los Angeles County", "phone": "+1 747 210 3000", "type": "multipolygon", "website": "https://dhs.lacounty.gov/wps/portal/dhs/oliveview", "wikidata": "Q7087214", "wikipedia": "en:Olive View–UCLA Medical Center"}}]