[{"name": "Parmer Medical Center", "latitude": 34.6439987, "longitude": -102.7215623, "source": "osm", "_tags": {"addr:city": "Friona", "addr:housenumber": "1307", "addr:postcode": "79035", "addr:state": "TX", "addr:street": "Cleveland Avenue", "amenity": "hospital", "emergency": "yes", "gnis:feature_id": "2015742", "healthcare": "hospital", "name": "Parmer Medical Center", "opening_hours": "24/7", "phone": "+1 806 250 2754", "website": "http://www.parmermedicalcenter.com/"}}, {"name": "Plains Regional Medical Center", "latitude": 34.4205815, "longitude": -103.2336767, "source": "osm", "_tags": {"addr:city": "Clovis", "addr:housenumber": "2100", "addr:postcode": "88101", "addr:state": "NM", "addr:street": "North Dr Martin Luther King Jr Boulevard", "amenity": "hospital", "beds": "106", "emergency": "yes", "healthcare": "hospital", "healthcare:speciality": "general;emergency;surgery;cardiology;oncology;internal;paediatrics;orthopaedics;gynaecology;radiology;community", "name": "Plains Regional Medical Center", "opening_hours": "24/7", "operator": "Presbyterian Healthcare Services", "operator:type": "religious", "phone": "+1 575 769 2141", "website": "https://plains-regional-medical-center.phs.org/"}}, {"name": "Plains Memorial Hospital", "latitude": 34.5562032, "longitude": -102.3158819, "source": "osm", "_tags": {"addr:city": "Dimmitt", "addr:housenumber": "310", "addr:postcode": "79027", "addr:state": "TX", "addr:street": "West Halsell Street", "amenity": "hospital", "emergency": "yes", "gnis:feature_id": "2015645", "healthcare": "hospital", "name": "Plains Memorial Hospital", "opening_hours": "24/7", "operator": "Castro County Healthcare", "phone": "+1 806 647 2191", "website": "https://www.plainsmemorial.com/"}}, {"name": "Hereford Regional Medical Center", "latitude": 34.8389279, "longitude": -102.4136831, "source": "osm", "_tags": {"addr:city": "Hereford", "addr:housenumber": "540", "addr:postcode": "79045", "addr:state": "TX", "addr:street": "West 15th Street", "amenity": "hospital", "beds": "42", "emergency": "yes", "gnis:feature_id": "2015583", "healthcare": "hospital", "name": "Hereford Regional Medical Center", "opening_hours": "24/7", "operator": "Deaf Smith County Hospital District", "phone": "+1 806 364 2141", "website": "https://dschd.org/"}}, {"name": "Muleshoe Area Medical Center", "latitude": 34.2213001, "longitude": -102.7289811, "source": "osm", "_tags": {"addr:city": "Muleshoe", "addr:housenumber": "708", "addr:postcode": "79347", "addr:state": "TX", "addr:street": "South 1st Street", "amenity": "hospital", "emergency": "yes", "gnis:feature_id": "2015611", "healthcare": "hospital", "name": "Muleshoe Area Medical Center", "opening_hours": "24/7", "phone": "+1 806 272 4524", "website": "https://www.muleshoehospital.com/"}}, {"name": "Cochran Memorial Hospital", "latitude": 33.7198045, "longitude": -102.75753, "source": "osm", "_tags": {"addr:city": "Morton", "addr:housenumber": "201", "addr:postcode": "79346", "addr:state": "TX", "addr:street": "East Grant Avenue", "amenity": "hospital", "emergency": "yes", "gnis:feature_id": "2015648", "healthcare": "hospital", "name": "Cochran Memorial Hospital", "opening_hours": "24/7", "phone": "+1 806 266 5565"}}, {"name": "Covenant Hospital Levelland", "latitude": 33.5731817, "longitude": -102.3689129, "source": "osm", "_tags": {"addr:city": "Levelland", "addr:housenumber": "1900", "addr:postcode": "79336", "addr:state": "TX", "addr:street": "College Avenue", "amenity": "hospital", "beds": "78", "emergency": "yes", "gnis:feature_id": "2015787", "healthcare": "hospital", "name": "Covenant Hospital Levelland", "opening_hours": "24/7", "operator": "Covenant Health", "operator:wikidata": "Q5178997", "phone": "+1 806 894 4963", "website": "https://www.covenanthealth.org/contact-us/locations/covenant-health-levelland/"}}, {"name": "Lamb Healthcare Center", "latitude": 33.9119681, "longitude": -102.3443292, "source": "osm", "_tags": {"addr:city": "Littlefield", "addr:housenumber": "1500", "addr:postcode": "79339", "addr:street": "South Sunset Avenue", "amenity": "hospital", "emergency": "yes", "gnis:feature_id": "2015808", "healthcare": "hospital", "name": "Lamb Healthcare Center", "opening_hours": "24/7", "phone": "+1 806 385 6411", "website": "https://www.lambhc.org/"}}, {"name": "Brownfield Regional Medical Center", "latitude": 33.1879422, "longitude": -102.2675228, "source": "osm", "_tags": {"addr:city": "Brownfield", "addr:housenumber": "705", "addr:postcode": "79316", "addr:street": "East Felt Street", "amenity": "hospital", "emergency": "yes", "gnis:feature_id": "2015675", "healthcare": "hospital", "name": "Brownfield Regional Medical Center", "opening_hours": "24/7", "phone": "+1 806 637 3551", "short_name": "BRMC", "website": "https://www.brownfield-rmc.org/"}}, {"name": "Roosevelt General Hospital", "latitude": 34.1689737, "longitude": -103.3620839, "source": "osm", "_tags": {"addr:city": "Portales", "addr:housenumber": "42121", "addr:postcode": "88130", "addr:state": "NM", "addr:street": "US 70", "amenity": "hospital", "building": "yes", "emergency": "yes", "gnis:feature_id": "901335", "healthcare": "hospital", "name": "Roosevelt General Hospital"}}, {"name": "Heartland Continuing Care Center", "latitude": 34.1720135, "longitude": -103.3531942, "source": "osm", "_tags": {"addr:city": "Portales", "addr:postcode": "88130", "addr:state": "NM", "addr:street": "1604 W 18th St", "amenity": "hospital", "building": "yes", "healthcare": "physiotherapist", "name": "Heartland Continuing Care Center", "opening_hours": "Mo-Fr 09:00-19:00", "payment:cash": "yes", "payment:cheque": "yes", "payment:mastercard": "yes", "payment:visa": "yes", "phone": "+1-575-359-4719", "website": "https://heartlandcontinuingcarecenter.com"}}, {"name": "Roosevelt General Hospital - Women's Clinic", "latitude": 34.1694232, "longitude": -103.3612806, "source": "osm", "_tags": {"amenity": "hospital", "building": "yes", "name": "Roosevelt General Hospital - Women's Clinic"}}, {"name": "", "latitude": 34.1689767, "longitude": -103.3615028, "source": "osm", "_tags": {"amenity": "hospital", "healthcare": "hospital"}}, {"name": "", "latitude": 34.1720239, "longitude": -103.3531174, "source": "osm", "_tags": {"amenity": "hospital", "healthcare": "hospital"}}, {"name": "La Casa Family Health Center", "latitude": 34.1856645, "longitude": -103.3515832, "source": "osm", "_tags": {"amenity": "hospital", "healthcare": "hospital", "name": "La Casa Family Health Center", "phone": "+1 575 356 6695", "website": "https://lacasahealth.com/"}}]