[{"name": "Ridgecrest Regional Hospital", "latitude": 35.6407725, "longitude": -117.6711387, "source": "osm", "_tags": {"addr:city": "Ridgecrest", "addr:housenumber": "1081", "addr:postcode": "93555", "addr:state": "CA", "addr:street": "North China Lake Boulevard", "amenity": "hospital", "emergency": "yes", "gnis:feature_id": "1661311", "healthcare": "hospital", "name": "Ridgecrest Regional Hospital", "opening_hours": "24/7", "phone": "+1 760 446 3551", "tdd": "+1 760 446 7505", "website": "https://rrh.org/", "wikidata": "Q7332729"}}, {"name": "Weed Army Community Hospital", "latitude": 35.272396, "longitude": -116.6810603, "source": "osm", "_tags": {"addr:city": "Fort Irwin", "addr:housenumber": "390", "addr:postcode": "92310", "addr:street": "North Loop Road", "amenity": "hospital", "emergency": "yes", "healthcare": "hospital", "name": "Weed Army Community Hospital", "opening_hours": "24/7", "operator": "United States Army", "phone": "+1 213 452 3921", "website": "http://www.irwin.amedd.army.mil/"}}, {"name": "Southern Inyo Hospital", "latitude": 36.609355, "longitude": -118.0580226, "source": "osm", "_tags": {"addr:city": "Lone Pine", "addr:housenumber": "501", "addr:postcode": "93545", "addr:street": "East Locust Street", "amenity": "hospital", "emergency": "yes", "gnis:feature_id": "1804739", "healthcare": "hospital", "name": "Southern Inyo Hospital", "opening_hours": "24/7", "operator": "Southern Inyo Healthcare District2", "phone": "+1 760 876 5501", "source": "Tiger2009", "website": "http://www.sihd.org/"}}, {"name": "", "latitude": 36.9047051, "longitude": -116.7599148, "source": "osm", "_tags": {"amenity": "hospital", "healthcare": "hospital"}}]