[{"name": "San Juan Regional Rehabilitation Hospital", "latitude": 36.7255151, "longitude": -108.2160069, "source": "osm", "_tags": {"addr:city": "Farmington", "addr:housenumber": "525", "addr:postcode": "87401", "addr:street": "South Schwartz Avenue", "amenity": "hospital", "beds": "16", "emergency": "no", "gnis:feature_id": "901297", "healthcare": "hospital", "name": "San Juan Regional Rehabilitation Hospital", "phone": "+1-505-609-2625", "website": "https://www.sanjuanregional.com/sjrrh"}}, {"name": "Sage Memorial Hospital", "latitude": 35.7107535, "longitude": -109.5436083, "source": "osm", "_tags": {"addr:city": "Ganado", "addr:postcode": "86505", "amenity": "hospital", "emergency": "yes", "gnis:feature_id": "21791", "healthcare": "hospital", "name": "Sage Memorial Hospital", "opening_hours": "24/7", "phone": "+1 928 755 4500", "website": "https://sagememorial.com/"}}, {"name": "Navajo Regional Behavioral Health Center", "latitude": 36.8034266, "longitude": -108.6929807, "source": "osm", "_tags": {"addr:city": "Shiprock", "addr:state": "NM", "amenity": "hospital", "emergency": "no", "healthcare": "hospital", "name": "Navajo Regional Behavioral Health Center", "website": "http://nndbmhs.org/shiprock"}}, {"name": "Gallup Service Unit", "latitude": 35.5295123, "longitude": -108.67971, "source": "osm", "_tags": {"amenity": "hospital", "healthcare": "hospital", "name": "Gallup Service Unit", "operator": "Indian Health Service", "operator:short": "IHS", "operator:wikidata": "Q6020429", "operator:wikipedia": "en:Indian Health Service"}}, {"name": "San Juan Regional Medical Center", "latitude": 36.7238103, "longitude": -108.2168626, "source": "osm", "_tags": {"addr:city": "Farmington", "addr:housenumber": "801", "addr:postcode": "87401", "addr:state": "NM", "addr:street": "West Maple Street", "amenity": "hospital", "emergency": "yes", "healthcare": "hospital", "name": "San Juan Regional Medical Center"}}, {"name": "Tséhootsooí Medical Center", "latitude": 35.7585979, "longitude": -109.0471784, "source": "osm", "_tags": {"addr:city": "Fort Defiance", "addr:postcode": "86504", "addr:street": "Navajo Route 7", "amenity": "hospital", "emergency": "yes", "healthcare": "hospital", "name": "Tséhootsooí Medical Center", "opening_hours": "24/7", "operator": "Fort Defiance Indian Hospital Board", "phone": "+1 928 729 8000", "website": "https://fdihb.org/"}}, {"name": "Rehoboth McKinley Christian Health Care Services", "latitude": 35.5056715, "longitude": -108.7268473, "source": "osm", "_tags": {"addr:city": "Gallup", "addr:housenumber": "1900", "addr:postcode": "87301", "addr:state": "NM", "addr:street": "Red Rock Drive", "amenity": "hospital", "beds": "60", "emergency": "yes", "healthcare": "hospital", "name": "Rehoboth McKinley Christian Health Care Services", "opening_hours": "24/7", "phone": "+1-505-863-7200", "website": "https://www.rmch.org/"}}, {"name": "Gallup Indian Medical Center", "latitude": 35.5075414, "longitude": -108.7300178, "source": "osm", "_tags": {"addr:city": "Gallup", "addr:housenumber": "516", "addr:postcode": "87301", "addr:state": "NM", "addr:street": "Nizhoni Boulevard", "amenity": "hospital", "beds": "99", "building:levels": "4", "emergency": "yes", "gnis:feature_id": "896001", "healthcare": "hospital", "name": "Gallup Indian Medical Center", "old_name": "United States Indian Hospital", "opening_hours": "24/7", "operator": "IHS", "phone": "+1-505-722-1000", "website": "https://www.ihs.gov/navajo/healthcarefacilities/gallup/", "wikidata": "Q30280412"}}, {"name": "Northern Navajo Medical Center", "latitude": 36.804723, "longitude": -108.6921377, "source": "osm", "_tags": {"addr:city": "Shiprock", "addr:postcode": "87420", "addr:state": "NM", "addr:street": "US 491", "amenity": "hospital", "beds": "60", "emergency": "yes", "gnis:feature_id": "901318", "healthcare": "hospital", "name": "Northern Navajo Medical Center", "old_name": "Shiprock Community Health Center", "opening_hours": "24/7", "operator": "IHS", "phone": "+1-505-368-6001", "website": "https://www.ihs.gov/navajo/healthcarefacilities/shiprock/", "wikidata": "Q99295813"}}, {"name": "San Juan Regional Medical Center", "latitude": 36.7233082, "longitude": -108.2165874, "source": "osm", "_tags": {"addr:city": "Farmington", "addr:housenumber": "801", "addr:postcode": "87401", "addr:state": "NM", "addr:street": "West Maple Street", "amenity": "hospital", "beds": "194", "emergency": "yes", "gnis:feature_id": "901293", "healthcare": "hospital", "name": "San Juan Regional Medical Center", "opening_hours": "24/7", "phone": "+1 505 609 2000", "short_name": "SJRMC", "website": "https://www.sanjuanregional.com/", "wikidata": "Q7414607", "wikipedia": "en:San Juan Regional Medical Center"}}, {"name": "Chinle Comprehensive Health Care Facility", "latitude": 36.1576201, "longitude": -109.6083074, "source": "osm", "_tags": {"addr:city": "Chinle", "addr:postcode": "86503", "addr:state": "AZ", "addr:street": "Hatathley Way Road", "amenity": "hospital", "emergency": "yes", "healthcare": "hospital", "name": "Chinle Comprehensive Health Care Facility", "opening_hours": "24/7", "phone": "+1-928-674-7001", "website": "https://www.ihs.gov/navajo/healthcarefacilities/chinle/"}}, {"name": "Zuni Comprehensive Health Center", "latitude": 35.0873295, "longitude": -108.7911621, "source": "osm", "_tags": {"addr:city": "Zuni", "addr:housenumber": "21", "addr:postcode": "87327", "addr:state": "NM", "addr:street": "B Avenue", "amenity": "hospital", "emergency": "yes", "healthcare": "hospital", "name": "Zuni Comprehensive Health Center", "opening_hours": "24/7", "operator": "Indian Health Service", "operator:short": "IHS", "operator:wikidata": "Q6020429", "phone": "+1 505 782 4431", "website": "https://www.ihs.gov/Albuquerque/healthcarefacilities/zuniramah/"}}, {"name": "", "latitude": 36.725701, "longitude": -108.215838, "source": "osm", "_tags": {"amenity": "hospital", "healthcare": "hospital"}}, {"name": "", "latitude": 36.3003161, "longitude": -109.2239795, "source": "osm", "_tags": {"amenity": "hospital", "healthcare": "hospital"}}]