[{"name": "Talas Harbor At Bullhead City", "latitude": 35.1865185, "longitude": -114.5282265, "source": "osm", "_tags": {"addr:city": "Bullhead City", "addr:housenumber": "831", "addr:postcode": "86429", "addr:state": "AZ", "addr:street": "Landon Drive", "amenity": "hospital", "beds": "24", "healthcare": "hospital", "healthcare:speciality": "psychiatry", "name": "Talas Harbor At Bullhead City", "phone": "+1 928 404 6012", "website": "https://www.talasharbor.com"}}, {"name": "Seven Hills Behavioral Institute", "latitude": 35.9963042, "longitude": -115.1203312, "source": "osm", "_tags": {"addr:city": "Henderson", "addr:housenumber": "3021", "addr:postcode": "89052", "addr:state": "NV", "addr:street": "West Horizon Ridge Parkway", "amenity": "hospital", "beds": "134", "healthcare": "hospital", "healthcare:speciality": "psychiatry", "name": "Seven Hills Behavioral Institute", "phone": "+1 702 646 5000", "website": "https://www.sevenhillsbi.com"}}, {"name": "Dignity Health Rehabilitation Hospital", "latitude": 36.0030712, "longitude": -115.1170058, "source": "osm", "_tags": {"addr:city": "Henderson", "addr:housenumber": "2930", "addr:postcode": "89052", "addr:state": "NV", "addr:street": "Siena Heights Drive", "amenity": "hospital", "beds": "60", "healthcare": "rehabilitation", "name": "Dignity Health Rehabilitation Hospital", "phone": "+1 725 726 2000", "website": "https://www.dignityhealthrehab.com"}}, {"name": "AMG Specialty Hospital - Las Vegas", "latitude": 36.1165862, "longitude": -115.110343, "source": "osm", "_tags": {"addr:city": "Las Vegas", "addr:housenumber": "4015", "addr:postcode": "89121", "addr:state": "NV", "addr:street": "South Mcleod Drive", "amenity": "hospital", "beds": "24", "healthcare": "hospital", "name": "AMG Specialty Hospital - Las Vegas", "phone": "+1 702 433 2200", "website": "https://amgihm.com/locations/las-vegas"}}, {"name": "Encompass Health Rehabilitation Hospital Of Henderson", "latitude": 36.0011021, "longitude": -115.1208832, "source": "osm", "_tags": {"addr:city": "Henderson", "addr:housenumber": "10301", "addr:postcode": "89052", "addr:state": "NV", "addr:street": "Jeffreys Street", "amenity": "hospital", "beds": "90", "healthcare": "rehabilitation", "name": "Encompass Health Rehabilitation Hospital Of Henderson", "phone": "+1 702 939 9400", "website": "https://encompasshealth.com/locations/hendersonrehab"}}, {"name": "Encompass Health Rehabilitation Hospital Of Desert Canyon", "latitude": 36.0803498, "longitude": -115.292448, "source": "osm", "_tags": {"addr:city": "Las Vegas", "addr:housenumber": "9175", "addr:postcode": "89148", "addr:state": "NV", "addr:street": "West Oquendo Road", "amenity": "hospital", "beds": "50", "healthcare": "hospital", "name": "Encompass Health Rehabilitation Hospital Of Desert Canyon", "operator": "Encompass Health", "operator:wikidata": "Q5690400", "phone": "+1 702 252 7342", "website": "https://encompasshealth.com/locations/desertcanyonrehab"}}, {"name": "ER at Desert's Edge", "latitude": 36.0198153, "longitude": -115.2905674, "source": "osm", "_tags": {"addr:city": "Las Vegas", "addr:housenumber": "9075", "addr:postcode": "89178", "addr:state": "NV", "addr:street": "Blue Diamond Road", "amenity": "hospital", "emergency": "yes", "fixme": "Merge point with building outline once high quality imagery is available.", "healthcare": "hospital", "name": "ER at Desert's Edge", "opening_hours": "24/7", "operator": "Sunrise Health", "operator:type": "private", "phone": "+1-702-962-0200", "website": "https://www.sunrisehealthinfo.com/locations/er-at-deserts-edge"}}, {"name": "Montevista Hospital", "latitude": 36.1118745, "longitude": -115.2220444, "source": "osm", "_tags": {"addr:city": "Las Vegas", "addr:housenumber": "5900", "addr:postcode": "89103", "addr:state": "NV", "addr:street": "West Rochelle Avenue", "amenity": "hospital", "beds": "162", "emergency": "no", "gnis:feature_id": "2052989", "healthcare": "hospital", "healthcare:speciality": "psychiatry", "name": "Montevista Hospital", "opening_hours": "24/7", "phone": "+1 702 364 1111", "website": "http://www.montevistahospital.com/"}}, {"name": "St. Rose Dominican San Martín Campus", "latitude": 36.0574062, "longitude": -115.2718767, "source": "osm", "_tags": {"addr:city": "Las Vegas", "addr:housenumber": "8280", "addr:postcode": "89113", "addr:state": "NV", "addr:street": "West Warm Springs Road", "amenity": "hospital", "beds": "147", "emergency": "yes", "healthcare": "hospital", "name": "St. Rose Dominican San Martín Campus", "opening_hours": "24/7", "operator": "Dignity Health", "operator:wikidata": "Q5276334", "phone": "+1 702 492 8000", "website": "https://www.dignityhealth.org/las-vegas/san-martin/san-martin-campus", "wikidata": "Q7591626", "wikipedia": "en:St. Rose Dominican Hospital – San Martín Campus"}}, {"name": "Southern Hills Hospital", "latitude": 36.0721565, "longitude": -115.2953499, "source": "osm", "_tags": {"addr:city": "Las Vegas", "addr:housenumber": "9300", "addr:postcode": "89148", "addr:state": "NV", "addr:street": "West Sunset Road", "amenity": "hospital", "emergency": "yes", "gnis:feature_id": "2473517", "healthcare": "hospital", "name": "Southern Hills Hospital", "opening_hours": "24/7", "operator": "Sunrise Health System", "phone": "+1 702 880 2100", "website": "https://southernhillshospital.com/", "wikidata": "Q7569991", "wikipedia": "en:Southern Hills Hospital & Medical Center"}}, {"name": "Desert Springs Hospital", "latitude": 36.1132789, "longitude": -115.1250142, "source": "osm", "_tags": {"addr:city": "Las Vegas", "addr:housenumber": "2075", "addr:postcode": "89119", "addr:state": "NV", "addr:street": "East Flamingo Road", "amenity": "hospital", "emergency": "yes", "gnis:feature_id": "2052990", "healthcare": "hospital", "name": "Desert Springs Hospital", "opening_hours": "24/7", "operator": "Universal Health Services", "operator:short": "UHS", "operator:type": "private", "operator:wikidata": "Q7893967", "operator:wikipedia": "en:Universal Health Services", "phone": "+1 702 733 8800", "website": "https://www.desertspringshospital.com/"}}, {"name": "Centennial Hospital", "latitude": 36.2863731, "longitude": -115.285466, "source": "osm", "_tags": {"addr:city": "Las Vegas", "addr:housenumber": "6900", "addr:postcode": "89149", "addr:state": "NV", "addr:street": "North Durango Drive", "amenity": "hospital", "emergency": "yes", "healthcare": "hospital", "name": "Centennial Hospital", "opening_hours": "24/7", "operator": "Universal Health Services", "operator:short": "UHS", "operator:type": "private", "operator:wikidata": "Q7893967", "phone": "+1 702 835 9700", "website": "https://www.centennialhillshospital.com/", "wikidata": "Q5059168"}}, {"name": "Kindred Hospital Las Vegas - Flamingo", "latitude": 36.115662, "longitude": -115.1214621, "source": "osm", "_tags": {"addr:city": "Las Vegas", "addr:housenumber": "2250", "addr:postcode": "89119", "addr:state": "NV", "addr:street": "East Flamingo Road", "amenity": "hospital", "emergency": "no", "gnis:feature_id": "2473508", "healthcare": "hospital", "name": "Kindred Hospital Las Vegas - Flamingo", "opening_hours": "24/7", "operator": "Kindred Healthcare", "operator:type": "private", "operator:wikidata": "Q921363", "operator:wikipedia": "en:Kindred Healthcare", "phone": "+1 702 784 4300", "website": "http://www.kindredhospitallvf.com/"}}, {"name": "North Vista Hospital", "latitude": 36.1948576, "longitude": -115.1221421, "source": "osm", "_tags": {"addr:city": "North Las Vegas", "addr:housenumber": "1409", "addr:postcode": "89030", "addr:state": "NV", "addr:street": "East Lake Mead Boulevard", "amenity": "hospital", "beds": "177", "emergency": "yes", "gnis:feature_id": "2060070", "healthcare": "hospital", "helipad": "no", "name": "North Vista Hospital", "old_name": "Lake Mead Hospital Medical Center", "opening_hours": "24/7", "operator": "Prime Healthcare Services", "operator:type": "private", "operator:wikidata": "Q7243267", "operator:wikipedia": "en:Prime Healthcare Services", "phone": "+1 702 649 7711", "website": "https://www.northvistahospital.com/", "wikidata": "Q7057133", "wikipedia": "en:North Vista Hospital"}}, {"name": "University Medical Center", "latitude": 36.1602891, "longitude": -115.1677432, "source": "osm", "_tags": {"addr:city": "Las Vegas", "addr:housenumber": "1800", "addr:postcode": "89102", "addr:state": "NV", "addr:street": "West Charleston Boulevard", "amenity": "hospital", "beds": "541", "emergency": "yes", "gnis:feature_id": "843901", "healthcare": "hospital", "name": "University Medical Center", "opening_hours": "24/7", "operator": "University Medical Center of Southern Nevada", "operator:type": "private", "phone": "+1 702 383 2000", "short_name": "UMC", "start_date": "1931", "website": "https://www.umcsn.com/", "wikidata": "Q7894830"}}, {"name": "Sunrise Hospital & Medical Center", "latitude": 36.1337597, "longitude": -115.1353664, "source": "osm", "_tags": {"addr:city": "Las Vegas", "addr:housenumber": "3186", "addr:postcode": "89109", "addr:state": "NV", "addr:street": "South Maryland Parkway", "amenity": "hospital", "emergency": "yes", "gnis:feature_id": "844103", "healthcare": "hospital", "name": "Sunrise Hospital & Medical Center", "opening_hours": "24/7", "operator": "Sunrise Health System", "phone": "+1 702 731 8000", "website": "https://sunrisehospital.com/", "wikidata": "Q7641087", "wikipedia": "en:Sunrise Hospital & Medical Center"}}, {"name": "Spring Valley Hospital", "latitude": 36.0906246, "longitude": -115.2406483, "source": "osm", "_tags": {"addr:city": "Las Vegas", "addr:housenumber": "5400", "addr:postcode": "89118", "addr:state": "NV", "addr:street": "South Rainbow Boulevard", "amenity": "hospital", "beds": "292", "emergency": "yes", "gnis:feature_id": "2473519", "healthcare": "hospital", "name": "Spring Valley Hospital", "opening_hours": "24/7", "operator": "Universal Health Services", "operator:short": "UHS", "operator:type": "private", "operator:wikidata": "Q7893967", "operator:wikipedia": "en:Universal Health Services", "phone": "+1 702 853 3000", "website": "https://www.springvalleyhospital.com/", "wikidata": "Q7580736", "wikipedia": "en:Spring Valley Hospital"}}, {"name": "Boulder City Hospital", "latitude": 35.9674227, "longitude": -114.842703, "source": "osm", "_tags": {"addr:city": "Boulder City", "addr:housenumber": "901", "addr:postcode": "89005", "addr:state": "NV", "addr:street": "Adams Boulevard", "amenity": "hospital", "emergency": "yes", "gnis:feature_id": "2060068", "healthcare": "hospital", "name": "Boulder City Hospital", "opening_hours": "24/7", "phone": "+1 702 293 4111", "website": "https://bchcares.org/", "wikidata": "Q4949542", "wikipedia": "en:Boulder City Hospital"}}, {"name": "Saint Rose Dominican hospitals - Rose-De Lima Campus", "latitude": 36.0387548, "longitude": -114.9850675, "source": "osm", "_tags": {"addr:city": "Henderson", "addr:housenumber": "102", "addr:postcode": "89015", "addr:state": "NV", "addr:street": "East Lake Mead Parkway", "amenity": "hospital", "beds": "110", "check_date": "2024-12-14", "emergency": "yes", "gnis:feature_id": "843363", "healthcare": "hospital", "name": "Saint Rose Dominican hospitals - Rose-De Lima Campus", "opening_hours": "24/7", "operator": "Dignity Health", "operator:type": "private", "operator:wikidata": "Q5276334", "operator:wikipedia": "en:Dignity Health", "phone": "+1 702 564 2622", "website": "https://www.dignityhealth.org/las-vegas/rose-de-lima/rose-de-lima-campus", "wheelchair": "yes", "wikidata": "Q7591625", "wikipedia": "en:St. Rose Dominican Hospital – Rose de Lima Campus"}}, {"name": "Spring Mountain Treatment Center", "latitude": 36.1263487, "longitude": -115.2463355, "source": "osm", "_tags": {"addr:city": "Las Vegas", "addr:full": "7000 W SPRING MOUNTAIN RD", "addr:housenumber": "7000", "addr:postcode": "89117", "addr:state": "NV", "addr:street": "West Spring Mountain Road", "amenity": "hospital", "beds": "110", "ele": "729", "gnis:feature_id": "2088519", "healthcare": "hospital", "healthcare:speciality": "psychiatry", "name": "Spring Mountain Treatment Center", "phone": "+1 702 873 2400"}}, {"name": "MountainView Hospital", "latitude": 36.2154003, "longitude": -115.2489408, "source": "osm", "_tags": {"addr:city": "Las Vegas", "addr:housenumber": "3100", "addr:postcode": "89128", "addr:state": "NV", "addr:street": "North Tenaya Way", "amenity": "hospital", "emergency": "yes", "gnis:feature_id": "2060072", "healthcare": "hospital", "name": "MountainView Hospital", "opening_hours": "24/7", "operator": "Sunrise Health System", "phone": "+1 702 962 5000", "website": "https://mountainview-hospital.com/", "wikidata": "Q6925375"}}, {"name": "Summerlin Hospital", "latitude": 36.1812138, "longitude": -115.3170156, "source": "osm", "_tags": {"addr:city": "Las Vegas", "addr:housenumber": "657", "addr:postcode": "89144", "addr:state": "NV", "addr:street": "North Town Center Drive", "amenity": "hospital", "emergency": "yes", "healthcare": "hospital", "name": "Summerlin Hospital", "opening_hours": "24/7", "operator": "Universal Health Services", "operator:short": "UHS", "operator:type": "private", "operator:wikidata": "Q7893967", "phone": "+1 702 233 7000", "website": "https://www.summerlinhospital.com/", "wikidata": "Q7637626", "wikipedia": "en:Summerlin Hospital"}}, {"name": "UMC Trauma Center", "latitude": 36.1612717, "longitude": -115.168208, "source": "osm", "_tags": {"amenity": "hospital", "building": "yes", "building:levels": "5", "emergency": "yes", "healthcare": "hospital", "name": "UMC Trauma Center", "opening_hours": "24/7", "website": "https://www.umcsn.com/Medical-Services-at-UMCSN/Trauma-Center-Index.aspx?intMenuID=132&intPageID=227"}}, {"name": "North Las Vegas VA Medical Center", "latitude": 36.2856324, "longitude": -115.0940412, "source": "osm", "_tags": {"addr:city": "North Las Vegas", "addr:housenumber": "6900", "addr:postcode": "89086", "addr:state": "NV", "addr:street": "North Pecos Road", "amenity": "hospital", "emergency": "yes", "healthcare": "hospital", "internet_access": "wlan", "name": "North Las Vegas VA Medical Center", "opening_hours": "24/7", "operator": "VA Southern Nevada Healthcare System", "phone": "+1 702 791 9000", "website": "https://www.lasvegas.va.gov", "wheelchair": "yes", "wikidata": "Q6492658", "wikipedia": "en:VA Southern Nevada Healthcare System"}}, {"name": "Mike O'Callaghan Military Medical Center", "latitude": 36.2459807, "longitude": -115.0491152, "source": "osm", "_tags": {"access": "private", "addr:city": "Nellis Air Force Base", "addr:housenumber": "4700", "addr:postcode": "89191", "addr:state": "NV", "addr:street": "Las Vegas Boulevard North", "amenity": "hospital", "emergency": "yes", "gnis:feature_id": "2060071", "healthcare": "hospital", "name": "Mike O'Callaghan Military Medical Center", "opening_hours": "24/7", "phone": "Q6848228", "website": "https://www.nellis.af.mil/Units/NellisMedicalCenter.aspx", "wikidata": "Q6848228", "wikipedia": "en:Mike O'Callaghan Military Medical Center"}}, {"name": "Henderson Hospital", "latitude": 36.0727387, "longitude": -115.0299313, "source": "osm", "_tags": {"addr:city": "Henderson", "addr:housenumber": "1050", "addr:postcode": "89011", "addr:state": "NV", "addr:street": "West Galleria Drive", "amenity": "hospital", "emergency": "yes", "healthcare": "hospital", "name": "Henderson Hospital", "opening_hours": "24/7", "operator": "Universal Health Services", "operator:short": "UHS", "operator:wikidata": "Q7893967", "operator:wikipedia": "en:Universal Health Services", "phone": "+1 702 963 7000", "website": "https://www.hendersonhospital.com/"}}, {"name": "Western Arizona Regional Medical Center", "latitude": 35.1107671, "longitude": -114.5557683, "source": "osm", "_tags": {"addr:city": "Bullhead City", "addr:housenumber": "2735", "addr:postcode": "86442", "addr:state": "AZ", "addr:street": "Silver Creek Road", "amenity": "hospital", "beds": "139", "emergency": "yes", "healthcare": "hospital", "name": "Western Arizona Regional Medical Center", "opening_hours": "24/7", "phone": "+1 928 763 2273", "website": "https://www.warmc.com/"}}, {"name": "Harmon Hospital", "latitude": 36.107898, "longitude": -115.1225392, "source": "osm", "_tags": {"addr:city": "Las Vegas", "addr:housenumber": "2170", "addr:postcode": "89119", "addr:state": "NV", "addr:street": "East Harmon Avenue", "amenity": "hospital", "emergency": "no", "gnis:feature_id": "2076205", "healthcare": "hospital", "name": "Harmon Hospital", "phone": "+1 702 794 0100", "website": "https://www.harmonmedicalrehab.com/"}}, {"name": "Mountain's Edge Hospital", "latitude": 36.0787683, "longitude": -115.2810586, "source": "osm", "_tags": {"addr:city": "Las Vegas", "addr:housenumber": "8656", "addr:postcode": "89148", "addr:state": "NV", "addr:street": "West Patrick Lane", "amenity": "hospital", "beds": "130", "emergency": "no", "healthcare": "hospital", "name": "Mountain's Edge Hospital", "phone": "+1 702 777 7100", "website": "http://mountainsedgehospital.com/"}}, {"name": "Desert View Hospital", "latitude": 36.2146305, "longitude": -116.0249636, "source": "osm", "_tags": {"addr:city": "Pahrump", "addr:housenumber": "360", "addr:postcode": "89048", "addr:state": "NV", "addr:street": "South Lola Lane", "amenity": "hospital", "emergency": "yes", "healthcare": "hospital", "helipad": "yes", "name": "Desert View Hospital", "opening_hours": "24/7", "operator": "Universal Health Services", "operator:short": "UHS", "operator:wikidata": "Q7893967", "phone": "+1 775 751 7500", "website": "https://desertviewhospital.com/"}}, {"name": "Valley Hospital Medical Center", "latitude": 36.1634529, "longitude": -115.1666208, "source": "osm", "_tags": {"amenity": "hospital", "healthcare": "hospital", "name": "Valley Hospital Medical Center", "wikidata": "Q10858356"}}, {"name": "Spring Mountain Sahara", "latitude": 36.146013, "longitude": -115.2157926, "source": "osm", "_tags": {"amenity": "hospital", "healthcare": "hospital", "name": "Spring Mountain Sahara"}}, {"name": "", "latitude": 36.1527729, "longitude": -115.2280587, "source": "osm", "_tags": {"amenity": "hospital", "healthcare": "hospital"}}, {"name": "", "latitude": 36.2403871, "longitude": -115.1627902, "source": "osm", "_tags": {"amenity": "hospital", "healthcare": "hospital"}}, {"name": "West Henderson Hospital", "latitude": 35.9797571, "longitude": -115.1483764, "source": "osm", "_tags": {"addr:city": "Henderson", "addr:housenumber": "1155", "addr:postcode": "89052", "addr:state": "NV", "addr:street": "Raiders Way", "amenity": "hospital", "emergency": "yes", "healthcare": "hospital", "name": "West Henderson Hospital", "note": "Align hospital grounds area when new high-quality imagery is available.", "opening_hours": "24/7", "phone": "+1-725-235-2000", "source": "aerial imagery", "website": "https://westhendersonhospital.com/"}}, {"name": "PAM Rehabilitation Hospital Of Centennial Hills", "latitude": 36.2751235, "longitude": -115.280119, "source": "osm", "_tags": {"addr:city": "Las Vegas", "addr:housenumber": "6166", "addr:postcode": "89149", "addr:state": "NV", "addr:street": "North Durango Drive", "amenity": "hospital", "beds": "44", "healthcare": "rehabilitation", "name": "PAM Rehabilitation Hospital Of Centennial Hills", "phone": "+1 725 223 4100", "website": "https://pamhealth.com/facilities/find-facility/rehabilitation-hospitals/pam-rehabilitation-hospital-centennial-hills"}}, {"name": "Kindred Hospital Las Vegas - Sahara", "latitude": 36.1456328, "longitude": -115.2118061, "source": "osm", "_tags": {"addr:city": "Las Vegas", "addr:housenumber": "5110", "addr:postcode": "89146", "addr:street": "West Sahara Avenue", "amenity": "hospital", "building": "hospital", "emergency": "no", "gnis:feature_id": "2052992", "healthcare": "hospital", "name": "Kindred Hospital Las Vegas - Sahara", "operator": "Kindred Healthcare", "operator:type": "private", "operator:wikidata": "Q921363", "operator:wikipedia": "en:Kindred Healthcare", "phone": "+1 702 871 1418", "source": "microsoft/BuildingFootprints", "website": "http://www.kindredhospitallvs.com/"}}, {"name": "Dignity Health Saint Rose Dominican West Flamingo Campus", "latitude": 36.1158299, "longitude": -115.3075535, "source": "osm", "_tags": {"addr:city": "Las Vegas", "addr:housenumber": "9880", "addr:postcode": "89147", "addr:state": "NV", "addr:street": "West Flamingo Road", "amenity": "hospital", "beds": "8", "building": "yes", "healthcare": "hospital", "name": "Dignity Health Saint Rose Dominican West Flamingo Campus", "operator": "Dignity Health", "operator:type": "private", "operator:wikidata": "Q5276334", "phone": "+1 702 216 7335", "source": "microsoft/BuildingFootprints", "website": "https://www.strosenh.org"}}, {"name": "ER at Blue Diamond", "latitude": 36.0209811, "longitude": -115.2707515, "source": "osm", "_tags": {"addr:city": "Las Vegas", "addr:housenumber": "9217", "addr:postcode": "89178", "addr:state": "NV", "addr:street": "South Cimarron Road", "amenity": "hospital", "building": "hospital", "emergency": "yes", "healthcare": "hospital", "name": "ER at Blue Diamond", "operator": "Spring Valley Hospital", "operator:type": "private", "phone": "+1-702-776-4800", "source": "microsoft/BuildingFootprints", "website": "https://www.springvalleyhospital.com/services/emergency-department/er-at-blue-diamond"}}, {"name": "Golden Valley Medical Center", "latitude": 35.2218881, "longitude": -114.1987674, "source": "osm", "_tags": {"amenity": "hospital", "healthcare": "hospital", "name": "Golden Valley Medical Center"}}, {"name": "", "latitude": 36.2925817, "longitude": -115.2057636, "source": "osm", "_tags": {"amenity": "hospital", "healthcare": "hospital"}}, {"name": "Saint Rose Dominican Hospital Siena Campus", "latitude": 36.0045967, "longitude": -115.1155493, "source": "osm", "_tags": {"addr:city": "Henderson", "addr:housenumber": "3001", "addr:postcode": "89052", "addr:street": "Saint Rose Parkway", "amenity": "hospital", "beds": "326", "emergency": "yes", "gnis:feature_id": "2473515", "healthcare": "hospital", "name": "Saint Rose Dominican Hospital Siena Campus", "opening_hours": "24/7", "operator": "Dignity Health", "operator:wikidata": "Q5276334", "operator:wikipedia": "en:Dignity Health", "phone": "+1 702 616 5000", "type": "multipolygon", "website": "https://www.dignityhealth.org/las-vegas/siena/siena-campus", "wikidata": "Q7591627", "wikipedia": "en:St. Rose Dominican Hospital – Siena Campus"}}]