[{"name": "Rehabilitation Hospital Of Northern Arizona", "latitude": 35.2100866, "longitude": -111.6304195, "source": "osm", "_tags": {"addr:city": "Flagstaff", "addr:housenumber": "1851", "addr:postcode": "86001", "addr:state": "AZ", "addr:street": "North Gemini Drive", "amenity": "hospital", "beds": "40", "healthcare": "rehabilitation", "name": "Rehabilitation Hospital Of Northern Arizona", "phone": "+1 928 774 7070", "website": "https://rhna.ernesthealth.com"}}, {"name": "The Guidance Center", "latitude": 35.2066967, "longitude": -111.6064953, "source": "osm", "_tags": {"addr:city": "Flagstaff", "addr:housenumber": "2187", "addr:postcode": "86004", "addr:state": "AZ", "addr:street": "North Vickey Street", "amenity": "hospital", "beds": "16", "healthcare": "hospital", "healthcare:speciality": "psychiatry", "name": "The Guidance Center", "phone": "+1 928 527 1899", "website": "https://tgcaz.org/index.html"}}, {"name": "Little Colorado Medical Center", "latitude": 35.0354729, "longitude": -110.6924259, "source": "osm", "_tags": {"addr:city": "Winslow", "addr:housenumber": "1501", "addr:postcode": "86047", "addr:state": "AZ", "addr:street": "North Williamson Avenue", "amenity": "hospital", "beds": "25", "emergency": "yes", "healthcare": "hospital", "name": "Little Colorado Medical Center", "old_name": "Winslow Memorial Hospital", "opening_hours": "24/7", "phone": "+1 928 289 4691", "source": "Bing", "website": "https://www.lcmcwmh.com/"}}, {"name": "Page Hospital", "latitude": 36.9177209, "longitude": -111.46317, "source": "osm", "_tags": {"addr:city": "Page", "addr:housenumber": "501", "addr:postcode": "86040", "addr:state": "AZ", "addr:street": "North Navajo Drive", "amenity": "hospital", "emergency": "yes", "healthcare": "hospital", "name": "Page Hospital", "opening_hours": "24/7", "operator": "Banner Health", "operator:type": "private", "operator:wikidata": "Q4856918", "operator:wikipedia": "en:Banner Health", "phone": "+1 928 645 2424", "website": "https://www.bannerhealth.com/locations/page/page-hospital"}}, {"name": "Hopi Health Care Center", "latitude": 35.8018977, "longitude": -110.4266731, "source": "osm", "_tags": {"addr:city": "Polacca", "addr:postcode": "86042", "amenity": "hospital", "emergency": "yes", "healthcare": "hospital", "name": "Hopi Health Care Center", "opening_hours": "24/7", "phone": "+1 928 737 6000", "website": "https://www.ihs.gov/Phoenix/healthcarefacilities/hopi/"}}, {"name": "Tuba City Regional Heath Care", "latitude": 36.1358233, "longitude": -111.2377216, "source": "osm", "_tags": {"addr:city": "Tuba City", "addr:housenumber": "167", "addr:postcode": "86045", "addr:state": "AZ", "addr:street": "North Main Street", "amenity": "hospital", "emergency": "yes", "gnis:feature_id": "21083", "healthcare": "hospital", "name": "Tuba City Regional Heath Care", "opening_hours": "24/7", "phone": "+1 928 283 2501", "website": "https://tchealth.org/"}}, {"name": "Flagstaff Medical Center: Children's Health Center", "latitude": 35.2088427, "longitude": -111.6457529, "source": "osm", "_tags": {"addr:city": "Flagstaff", "addr:housenumber": "1215", "addr:postcode": "86001", "addr:state": "AZ", "addr:street": "North Beaver Street", "amenity": "hospital", "building": "hospital", "contact:phone": "928-779-2054", "contact:website": "nahealth.com", "healthcare": "hospital", "name": "Flagstaff Medical Center: Children's Health Center"}}, {"name": "Winslow Indian Health Care Center", "latitude": 35.0339244, "longitude": -110.714656, "source": "osm", "_tags": {"amenity": "hospital", "name": "Winslow Indian Health Care Center"}}, {"name": "Kayenta Health Center", "latitude": 36.7032596, "longitude": -110.2337026, "source": "osm", "_tags": {"amenity": "hospital", "healthcare": "hospital", "name": "Kayenta Health Center", "operator": "U.S. Department of Health and Human Services"}}, {"name": "Flagstaff Medical Center", "latitude": 35.2087875, "longitude": -111.6440026, "source": "osm", "_tags": {"addr:city": "Flagstaff", "addr:housenumber": "1200", "addr:postcode": "86001", "addr:state": "AZ", "addr:street": "North Beaver Street", "amenity": "hospital", "beds": "264", "building": "hospital", "contact:phone": "928-779-3366", "contact:website": "nahealth.com", "emergency": "yes", "healthcare": "hospital", "name": "Flagstaff Medical Center", "opening_hours": "24/7", "operator": "Northern Arizona Healthcare", "phone": "+1 928 779 3366", "type": "multipolygon", "website": "https://nahealth.com/", "wikidata": "Q5457028", "wikipedia": "en:Flagstaff Medical Center"}}]