[{"name": "Northwest Emergency at Tascosa", "latitude": 35.2211391, "longitude": -101.8847976, "source": "osm", "_tags": {"addr:city": "Amarillo", "addr:housenumber": "4207", "addr:postcode": "79106", "addr:state": "TX", "addr:street": "North Western Street", "amenity": "hospital", "emergency": "yes", "healthcare": "hospital", "name": "Northwest Emergency at Tascosa"}}, {"name": "Memorial Hospital of Texas County", "latitude": 36.6918754, "longitude": -101.4761908, "source": "osm", "_tags": {"addr:city": "Guymon", "addr:housenumber": "520", "addr:postcode": "73942", "addr:street": "Medical Drive", "amenity": "hospital", "beds": "47", "emergency": "yes", "healthcare": "hospital", "name": "Memorial Hospital of Texas County", "opening_hours": "24/7", "phone": "+1 580 338 6515", "website": "https://www.mhtcguymon.org/"}}, {"name": "Quail Creek Surgical Hospital", "latitude": 35.2103232, "longitude": -101.9127242, "source": "osm", "_tags": {"addr:city": "Amarillo", "addr:housenumber": "6819", "addr:postcode": "79106", "addr:state": "TX", "addr:street": "Plum Creek Drive", "amenity": "hospital", "beds": "20", "emergency": "yes", "healthcare": "hospital", "healthcare:speciality": "surgery", "name": "Quail Creek Surgical Hospital", "opening_hours": "24/7", "operator": "Physicians Surgical Hospitals", "phone": "+1 806 354 6100", "website": "https://physurg.com/"}}, {"name": "Plum Creek Speciality Hospital", "latitude": 35.2189012, "longitude": -101.9016173, "source": "osm", "_tags": {"addr:city": "Amarillo", "addr:housenumber": "5601", "addr:postcode": "79124", "addr:state": "TX", "addr:street": "Plum Creek Drive", "amenity": "hospital", "beds": "47", "emergency": "no", "gnis:feature_id": "2025130", "healthcare": "hospital", "name": "Plum Creek Speciality Hospital", "name:ru": "Больница Плам Крик Спешиалти", "old_name": "Amarillo Integrated Health Services Hospital", "operator": "Concord Healthcare Group", "phone": "+1 806 351 1000", "website": "http://specialtyhospitalplumcreek.com/"}}, {"name": "Ochiltree General Hospital", "latitude": 36.3701354, "longitude": -100.798717, "source": "osm", "_tags": {"addr:city": "Perryton", "addr:housenumber": "3101", "addr:postcode": "79070", "addr:state": "TX", "addr:street": "Garrett Drive", "amenity": "hospital", "beds": "25", "emergency": "yes", "gnis:feature_id": "2015737", "healthcare": "hospital", "name": "Ochiltree General Hospital", "opening_hours": "24/7", "phone": "+1 806 435 3606", "website": "https://www.ochiltreehospital.com/"}}, {"name": "Hansford County Hospital", "latitude": 36.1903679, "longitude": -101.1992727, "source": "osm", "_tags": {"addr:city": "Spearman", "addr:housenumber": "707", "addr:postcode": "79081", "addr:state": "TX", "addr:street": "Roland Street", "amenity": "hospital", "beds": "14", "emergency": "yes", "gnis:feature_id": "2015839", "healthcare": "hospital", "name": "Hansford County Hospital", "opening_hours": "24/7", "phone": "+1 806 659 2535", "website": "https://www.hchd.net/"}}, {"name": "Hemphill County Hospital", "latitude": 35.9036502, "longitude": -100.38817, "source": "osm", "_tags": {"addr:city": "Canadian", "addr:housenumber": "1020", "addr:postcode": "79014", "addr:state": "TX", "addr:street": "South 4th Street", "amenity": "hospital", "beds": "26", "emergency": "yes", "gnis:feature_id": "2015777", "healthcare": "hospital", "name": "Hemphill County Hospital", "opening_hours": "24/7", "phone": "+1 806 323 6422", "website": "https://hchdst.org/"}}, {"name": "Parkview Hospital", "latitude": 35.4393363, "longitude": -100.2703104, "source": "osm", "_tags": {"addr:city": "Wheeler", "addr:housenumber": "901", "addr:postcode": "79096", "addr:street": "South Sweetwater Street", "amenity": "hospital", "beds": "16", "emergency": "yes", "gnis:feature_id": "2015700", "healthcare": "hospital", "name": "Parkview Hospital", "opening_hours": "24/7", "phone": "+1 806 826 5581", "website": "http://wheelertexas.org/businesses/parkview/"}}, {"name": "Shamrock General Hospital", "latitude": 35.1986407, "longitude": -100.2482083, "source": "osm", "_tags": {"addr:city": "Shamrock", "addr:housenumber": "1000", "addr:postcode": "79079", "addr:street": "South Main Street", "amenity": "hospital", "beds": "25", "emergency": "yes", "gnis:feature_id": "2015701", "healthcare": "hospital", "name": "Shamrock General Hospital", "opening_hours": "24/7", "phone": "+1 806 256 2114", "website": "https://sghtexas.com/"}}, {"name": "Pampa Regional Medical Center", "latitude": 35.5728282, "longitude": -100.9648758, "source": "osm", "_tags": {"addr:city": "Pampa", "addr:housenumber": "1", "addr:postcode": "79065", "addr:state": "TX", "addr:street": "Medical Plaza", "amenity": "hospital", "beds": "115", "emergency": "yes", "healthcare": "hospital", "healthcare:speciality": "emergency;general", "name": "Pampa Regional Medical Center", "opening_hours": "24/7", "operator": "Prime Healthcare Services", "operator:type": "private", "operator:wikidata": "Q7243267", "phone": "+1-806-665-3721", "website": "https://www.prmctx.com/"}}, {"name": "Golden Plains Community Hospital", "latitude": 35.6549426, "longitude": -101.4089825, "source": "osm", "_tags": {"addr:city": "Borger", "addr:housenumber": "100", "addr:postcode": "79007", "addr:state": "TX", "addr:street": "Medical Drive", "amenity": "hospital", "beds": "25", "emergency": "yes", "gnis:feature_id": "2015793", "healthcare": "hospital", "name": "Golden Plains Community Hospital", "opening_hours": "24/7", "phone": "+1 806 467 5700", "website": "https://www.goldenplains.org/"}}, {"name": "Panhandle Surgical Hospital", "latitude": 35.2067784, "longitude": -101.9186962, "source": "osm", "_tags": {"addr:city": "Amarillo", "addr:housenumber": "7100", "addr:postcode": "79106", "addr:state": "TX", "addr:street": "Southwest 9th Avenue", "amenity": "hospital", "beds": "0", "emergency": "no", "healthcare": "hospital", "healthcare:speciality": "surgery", "name": "Panhandle Surgical Hospital", "operator": "Physicians Surgical Hospitals", "phone": "+1 806 212 0247", "website": "https://physurg.com/"}}, {"name": "Northwest Texas Healthcare System", "latitude": 35.2010308, "longitude": -101.9206152, "source": "osm", "_tags": {"addr:city": "Amarillo", "addr:housenumber": "1501", "addr:postcode": "79106", "addr:state": "TX", "addr:street": "South Coulter Street", "amenity": "hospital", "beds": "495", "emergency": "yes", "healthcare": "hospital", "name": "Northwest Texas Healthcare System", "opening_hours": "24/7", "operator": "Northwest Texas Healthcare System", "phone": "+1 806 354 1000", "website": "https://www.nwths.com/"}}, {"name": "The Pavillion Hospital", "latitude": 35.2011064, "longitude": -101.9184682, "source": "osm", "_tags": {"addr:city": "Amarillo", "addr:housenumber": "1501", "addr:postcode": "79106", "addr:state": "TX", "addr:street": "South Coulter Street", "amenity": "hospital", "beds": "90", "emergency": "no", "healthcare": "hospital", "healthcare:speciality": "psychiatry", "name": "The Pavillion Hospital", "operator": "Northwest Texas Healthcare System", "phone": "+1 806 354 1810", "website": "http://www.pavilionnwtexashealthcare.com/"}}, {"name": "Vibra Hospital of Amarillo", "latitude": 35.1942549, "longitude": -101.9267402, "source": "osm", "_tags": {"addr:city": "Amarillo", "addr:housenumber": "7501", "addr:postcode": "79124", "addr:state": "TX", "addr:street": "Wallace Boulevard", "amenity": "hospital", "beds": "72", "emergency": "no", "healthcare": "hospital", "name": "Vibra Hospital of Amarillo", "old_name": "Kindred Hospital", "operator": "Vibra Healthcare", "phone": "+1 806 429 4127", "website": "https://www.vibrahealthcare.com/amarillo/"}}, {"name": "Thomas E. Creek VA Medical Center", "latitude": 35.203697, "longitude": -101.906586, "source": "osm", "_tags": {"addr:city": "Amarillo", "addr:housenumber": "6010", "addr:postcode": "79106", "addr:state": "TX", "addr:street": "West Amarillo Boulevard", "alt_name": "Amarillo VA Health Care Cystem", "amenity": "hospital", "beds": "175", "emergency": "yes", "healthcare": "hospital", "healthcare:for": "veteran", "name": "Thomas E. Creek VA Medical Center", "opening_hours": "24/7", "operator": "Veterans Health Administration", "operator:short": "VA", "operator:type": "government", "operator:wikidata": "Q6580225", "phone": "+1 806 355 9703", "short_name": "VA", "website": "https://www.amarillo.va.gov/"}}, {"name": "Baptist Saint Anthony's Health System", "latitude": 35.1966423, "longitude": -101.9196209, "source": "osm", "_tags": {"addr:city": "Amarillo", "addr:housenumber": "1600", "addr:postcode": "79106", "addr:state": "TX", "addr:street": "Wallace Boulevard", "alt_name": "Baptist St. Anthony's Health System", "amenity": "hospital", "beds": "445", "emergency": "yes", "gnis:feature_id": "2015745", "healthcare": "hospital", "name": "Baptist Saint Anthony's Health System", "opening_hours": "24/7", "phone": "+1-806-212-2000", "short_name": "BSA", "website": "https://bsahs.org/"}}, {"name": "Vibra Rehabilitation Hospital of Amarillo", "latitude": 35.2067818, "longitude": -101.9207292, "source": "osm", "_tags": {"addr:city": "Amarillo", "addr:housenumber": "7200", "addr:postcode": "79106", "addr:state": "TX", "addr:street": "Southwest 9th Avenue", "amenity": "hospital", "beds": "44", "emergency": "no", "gnis:feature_id": "2015746", "healthcare": "hospital", "name": "Vibra Rehabilitation Hospital of Amarillo", "old_name": "Quest Hospital", "operator": "Vibra Healthcare", "phone": "+1 806 853 5690", "website": "https://www.vibrahealthcare.com/amarillo-rehabilitation/"}}, {"name": "Morton County Hospital", "latitude": 37.0021361, "longitude": -101.9050035, "source": "osm", "_tags": {"addr:city": "Elkhart", "addr:housenumber": "445", "addr:postcode": "67950", "addr:street": "Hilltop Street", "amenity": "hospital", "emergency": "yes", "healthcare": "hospital", "name": "Morton County Hospital", "opening_hours": "24/7", "operator": "Morton County Health Systems", "phone": "+1 620 697 2141", "short_name": "MCHS", "website": "https://www.mchswecare.com/"}}, {"name": "Moore County Memorial Hospital", "latitude": 35.8646137, "longitude": -101.9709028, "source": "osm", "_tags": {"addr:city": "Dumas", "addr:housenumber": "224", "addr:postcode": "79029", "addr:state": "TX", "addr:street": "East 2nd Street", "amenity": "hospital", "beds": "25", "emergency": "yes", "healthcare": "hospital", "name": "Moore County Memorial Hospital", "opening_hours": "24/7", "operator": "Moore County Hospital District", "phone": "+1 806 935 7171", "website": "https://mchd.net/"}}, {"name": "", "latitude": 35.2212027, "longitude": -101.8853663, "source": "osm", "_tags": {"addr:city": "Amarillo", "addr:housenumber": "4207", "addr:postcode": "79106", "addr:state": "TX", "addr:street": "West Amarillo Boulevard", "amenity": "hospital", "healthcare": "hospital"}}, {"name": "Dental Group of Amarillo", "latitude": 35.2208148, "longitude": -101.9108097, "source": "osm", "_tags": {"addr:city": "Amarillo", "addr:housenumber": "6601", "addr:postcode": "79124", "addr:state": "TX", "addr:street": "Ravenwood Court", "amenity": "hospital", "emergency": "no", "healthcare": "hospital", "name": "Dental Group of Amarillo"}}, {"name": "", "latitude": 35.1978948, "longitude": -101.9097323, "source": "osm", "_tags": {"amenity": "hospital", "healthcare": "hospital"}}, {"name": "", "latitude": 35.1986061, "longitude": -101.9093375, "source": "osm", "_tags": {"amenity": "hospital", "healthcare": "hospital", "operator": "BSA"}}, {"name": "", "latitude": 35.195392, "longitude": -101.9153966, "source": "osm", "_tags": {"amenity": "hospital", "healthcare": "hospital"}}, {"name": "Potter-Randall County Medical", "latitude": 35.1956571, "longitude": -101.915851, "source": "osm", "_tags": {"amenity": "hospital", "healthcare": "hospital", "name": "Potter-Randall County Medical"}}, {"name": "J. O. Wyatt Community Health Center", "latitude": 35.2225344, "longitude": -101.8168287, "source": "osm", "_tags": {"addr:city": "Amarillo", "addr:housenumber": "1411", "addr:postcode": "79107", "addr:state": "TX", "addr:street": "East Amarillo Boulevard", "amenity": "hospital", "healthcare": "hospital", "name": "J. O. Wyatt Community Health Center"}}, {"name": "Heal the City Free Clinic", "latitude": 35.2106244, "longitude": -101.8742919, "source": "osm", "_tags": {"addr:city": "Amarillo", "addr:housenumber": "609", "addr:postcode": "79106", "addr:state": "TX", "addr:street": "South Carolina Street", "amenity": "hospital", "healthcare": "hospital", "name": "Heal the City Free Clinic"}}, {"name": "", "latitude": 35.2238348, "longitude": -101.8114953, "source": "osm", "_tags": {"addr:city": "Amarillo", "addr:housenumber": "850", "addr:postcode": "79107", "addr:state": "TX", "addr:street": "Martin Road", "amenity": "hospital", "healthcare": "hospital"}}, {"name": "", "latitude": 35.2027026, "longitude": -101.8666353, "source": "osm", "_tags": {"addr:city": "Amarillo", "addr:housenumber": "1024", "addr:postcode": "79102", "addr:state": "TX", "addr:street": "South Georgia Street", "amenity": "hospital", "emergency": "no", "healthcare": "hospital"}}]