[{"name": "Las Vegas Medical Center - Forensic", "latitude": 35.6084674, "longitude": -105.242261, "source": "osm", "_tags": {"addr:city": "Las Vegas", "addr:state": "NM", "addr:street": "Hot Springs Boulevard", "amenity": "hospital", "ele": "1992", "emergency": "no", "gnis:feature_id": "901283", "name": "Las Vegas Medical Center - Forensic"}}, {"name": "Las Vegas Medical Center", "latitude": 35.6082762, "longitude": -105.242249, "source": "osm", "_tags": {"addr:city": "Las Vegas", "addr:state": "NM", "addr:street": "Hot Springs Boulevard", "amenity": "hospital", "ele": "1992", "emergency": "no", "gnis:feature_id": "901284", "name": "Las Vegas Medical Center"}}, {"name": "New Mexico Behavioral Health Institute", "latitude": 35.6068621, "longitude": -105.242564, "source": "osm", "_tags": {"addr:city": "Las Vegas", "addr:housenumber": "3695", "addr:postcode": "87701", "addr:state": "NM", "addr:street": "Hot Springs Boulevard", "amenity": "hospital", "emergency": "no", "gnis:feature_id": "924739", "healthcare": "hospital", "healthcare:speciality": "psychiatry", "name": "New Mexico Behavioral Health Institute", "old_name": "New Mexico State Hospital", "operator": "NMDOH", "operator:type": "government", "phone": "+1-505-454-2100", "ref": "BHI", "website": "https://nmhealth.org/about/ofm/ltcf/nmbhi/"}}, {"name": "Emergency Room", "latitude": 35.6589835, "longitude": -105.94592, "source": "osm", "_tags": {"amenity": "hospital", "door": "yes", "emergency": "yes", "entrance": "emergency", "healthcare": "hospital", "name": "Emergency Room"}}, {"name": "ER Entrance", "latitude": 35.615737, "longitude": -106.026271, "source": "osm", "_tags": {"amenity": "hospital", "emergency": "emergency_ward_entrance", "healthcare": "hospital", "name": "ER Entrance"}}, {"name": "Alta Vista Regional Hospital", "latitude": 35.6232458, "longitude": -105.2106815, "source": "osm", "_tags": {"addr:city": "Las Vegas", "addr:housenumber": "104", "addr:postcode": "87701", "addr:state": "NM", "addr:street": "Legion Drive", "alt_name": "Alta Vista Hospital", "amenity": "hospital", "beds": "54", "emergency": "yes", "healthcare": "hospital", "healthcare:speciality": "emergency", "name": "Alta Vista Regional Hospital", "opening_hours": "24/7", "phone": "+1-505-426-3500", "website": "http://www.altavistaregionalhospital.com"}}, {"name": "Miners Colfax Medical Center", "latitude": 36.8624085, "longitude": -104.44197, "source": "osm", "_tags": {"addr:city": "Raton", "addr:housenumber": "203", "addr:postcode": "87740", "addr:state": "NM", "addr:street": "Hospital Drive", "amenity": "hospital", "beds": "25", "emergency": "yes", "gnis:feature_id": "901286", "healthcare": "hospital", "name": "Miners Colfax Medical Center", "opening_hours": "24/7", "phone": "+1 575 445 3661", "website": "https://www.minershosp.com/"}}, {"name": "Holy Cross Hospital", "latitude": 36.3683614, "longitude": -105.5769183, "source": "osm", "_tags": {"addr:city": "Taos", "addr:housenumber": "1397", "addr:postcode": "87571", "addr:state": "NM", "addr:street": "Weimer Road", "amenity": "hospital", "beds": "29", "contact:phone": "+1-575-758-8883", "ele": "2112", "emergency": "yes", "gnis:feature_id": "907042", "healthcare": "hospital", "healthcare:speciality": "emergency", "name": "Holy Cross Hospital", "opening_hours": "24/7", "phone": "+1 575 758 8883", "was:amenity": "hospital", "website": "https://taoshospital.org/", "wikidata": "Q65643431"}}, {"name": "Española Hospital", "latitude": 35.9972066, "longitude": -106.0881963, "source": "osm", "_tags": {"addr:city": "Espanola", "addr:housenumber": "1010", "addr:postcode": "87532", "addr:state": "NM", "addr:street": "Spruce Street", "amenity": "hospital", "beds": "52", "emergency": "yes", "full_name": "Presbyterian Espanola Hospital", "gnis:feature_id": "901354", "healthcare": "hospital", "healthcare:speciality": "emergency;orthopaedics", "name": "Española Hospital", "name_1": "Espanola Hospital", "opening_hours": "24/7", "operator": "Presbyterian Health Services", "phone": "+1 505 753 7111", "website": "https://espanola-hospital.phs.org/"}}, {"name": "Christus Saint Vincent Regional Medical Center", "latitude": 35.6596594, "longitude": -105.9462027, "source": "osm", "_tags": {"addr:city": "Santa Fe", "addr:housenumber": "455", "addr:postcode": "87505", "addr:state": "NM", "addr:street": "Saint Michaels Drive", "amenity": "hospital", "beds": "192", "emergency": "yes", "gnis:feature_id": "910539", "healthcare": "hospital", "healthcare:speciality": "intensive;orthopaedics;gynaecology;emergency;surgery;cardiology;radiology;maternity", "name": "Christus Saint Vincent Regional Medical Center", "old_name": "Saint Vincent Hospital", "opening_hours": "24/7", "operator": "Saint Vincent Hospital Foundation", "phone": "+1 505 983 3361", "short_name": "SVRMC", "website": "https://www.stvin.org/", "wheelchair": "yes", "wikidata": "Q5011311", "wikipedia": "en:CHRISTUS St. Vincent Regional Medical Center"}}, {"name": "Presbyterian Santa Fe Medical Center", "latitude": 35.6159686, "longitude": -106.0251439, "source": "osm", "_tags": {"addr:city": "Santa Fe", "addr:housenumber": "4801", "addr:postcode": "87507", "addr:state": "NM", "addr:street": "Beckner Road", "amenity": "hospital", "beds": "36", "building": "hospital", "building:levels": "4", "contact:phone": "+1-505-772-1234", "contact:website": "https://santa-fe-medical-center.phs.org/", "emergency": "yes", "healthcare": "hospital", "healthcare:speciality": "general;surgery;radiology;emergency", "internet_access": "wlan", "internet_access:ssid": "PresFreeWifi", "max_level": "3", "min_level": "0", "name": "Presbyterian Santa Fe Medical Center", "operator": "Presbyterian Healthcare Services", "operator:type": "private", "operator:wikidata": "Q17014380", "phone": "+1-505-772-1234", "roof:levels": "1", "wheelchair": "yes", "wikidata": "Q77788245"}}, {"name": "Presbyterian Santa Fe Medical Center", "latitude": 35.6160324, "longitude": -106.0248621, "source": "osm", "_tags": {"amenity": "hospital", "healthcare": "hospital", "name": "Presbyterian Santa Fe Medical Center"}}, {"name": "Taos-Picuris Indian Health Center", "latitude": 36.4132176, "longitude": -105.5596426, "source": "osm", "_tags": {"amenity": "hospital", "healthcare": "hospital", "name": "Taos-Picuris Indian Health Center", "operator": "Indian Health Service", "operator:short": "IHS", "operator:type": "government", "operator:wikidata": "Q6020429"}}, {"name": "Christus Saint Vincent Entrada Contenta Health Center", "latitude": 35.6170366, "longitude": -106.0323548, "source": "osm", "_tags": {"addr:city": "Santa Fe", "addr:housenumber": "5501", "addr:postcode": "87507", "addr:state": "NM", "addr:street": "Herrera Drive", "amenity": "hospital", "emergency": "no", "healthcare": "hospital", "name": "Christus Saint Vincent Entrada Contenta Health Center", "opening_hours": "Mo-Fr 09:00-20:00; Sa,Su 09:00-18:00; PH 10:00-14:00", "operator": "CHRISTUS Health", "operator:type": "private", "operator:wikidata": "Q5011309", "operator:wikipedia": "en:Christus Health", "phone": "+1 505-913-4180", "urgent_care": "yes", "website": "http://www.stvin.org/entrada-contenta-health-center-urgent-care"}}, {"name": "NMBHI", "latitude": 35.6076535, "longitude": -105.2435747, "source": "osm", "_tags": {"addr:city": "Las Vegas", "addr:housenumber": "3695", "addr:state": "NM", "addr:street": "Hot Springs Boulevard", "amenity": "hospital", "emergency": "no", "healthcare": "hospital", "healthcare:speciality": "psychiatry", "name": "NMBHI", "operator": "SONM"}}, {"name": "Santa Fe Indian Hospital", "latitude": 35.6683983, "longitude": -105.9704921, "source": "osm", "_tags": {"addr:city": "Santa Fe", "addr:housenumber": "1700", "addr:postcode": "87501", "addr:state": "NM", "addr:street": "Cerrillos Road", "amenity": "hospital", "building": "yes", "emergency": "no", "healthcare": "hospital", "healthcare:speciality": "general", "name": "Santa Fe Indian Hospital", "operator": "Indian Health Service", "operator:short": "IHS", "operator:type": "public", "operator:wikidata": "Q6020429", "operator:wikipedia": "en:Indian Health Service", "phone": "+1-505-946-9282", "type": "multipolygon", "urgent_care": "08:00-19:30", "website": "https://www.ihs.gov/Albuquerque/healthcarefacilities/santafe/"}}]