[{"name": "Adventist Health Hanford", "latitude": 36.3238618, "longitude": -119.666954, "source": "osm", "_tags": {"addr:city": "Hanford", "addr:housenumber": "115", "addr:postcode": "93230", "addr:street": "Mall Drive", "amenity": "hospital", "beds": "230", "emergency": "yes", "healthcare": "hospital", "healthcare:speciality": "emergency;obstetrics;surgery", "name": "Adventist Health Hanford", "operator": "Adventist Health", "operator:wikidata": "Q4686452", "operator:wikipedia": "en:Adventist Health", "phone": "559-582-9000", "website": "https://www.adventisthealth.org/hanford"}}, {"name": "Adventist Health Medical Office - Corcoran", "latitude": 36.0999471, "longitude": -119.564506, "source": "osm", "_tags": {"addr:city": "Corcoran", "addr:housenumber": "1212", "addr:postcode": "93212", "addr:street": "Hanna Avenue", "amenity": "hospital", "healthcare": "hospital", "name": "Adventist Health Medical Office - Corcoran", "operator": "Adventist Health", "operator:wikidata": "Q4686452", "phone": "+1 559 992 2800", "website": "https://www.adventisthealth.org/central-valley/pages/oham/orgunitdetails.aspx?OrganizationalUnitId=2939"}}, {"name": "Kaweah Delta Sub Acute", "latitude": 36.3159724, "longitude": -119.2926675, "source": "osm", "_tags": {"addr:city": "Visalia", "addr:housenumber": "1633", "addr:postcode": "93291", "addr:street": "South Court Street", "amenity": "hospital", "emergency": "no", "healthcare": "hospital", "name": "Kaweah Delta Sub Acute", "operator": "Kaweah Delta Health Care District", "phone": "+1 559 624 6024", "website": "https://www.kaweahdelta.org/Locations/Kaweah-Delta-Sub-Acute.aspx"}}, {"name": "Hanford Medical Pavilion", "latitude": 36.324414, "longitude": -119.6667995, "source": "osm", "_tags": {"addr:city": "Hanford", "addr:housenumber": "115", "addr:postcode": "93230", "addr:state": "CA", "addr:street": "Mall Drive", "amenity": "hospital", "beds": "230", "emergency": "no", "healthcare": "hospital", "name": "Hanford Medical Pavilion", "operator": "Adventist Health Hanford", "phone": "(559) 582-9000"}}, {"name": "Adventist Health Hanford - Birth Center", "latitude": 36.3228485, "longitude": -119.667716, "source": "osm", "_tags": {"addr:city": "Hanford", "addr:housenumber": "115", "addr:postcode": "93230", "addr:state": "CA", "addr:street": "Mall Drive", "amenity": "hospital", "beds": "34", "emergency": "no", "healthcare": "hospital", "name": "Adventist Health Hanford - Birth Center", "operator": "Adventist Health", "operator:wikidata": "Q4686452", "operator:wikipedia": "en:Adventist Health"}}, {"name": "Adventist Health Reedley - Birth Center", "latitude": 36.6087303, "longitude": -119.4536527, "source": "osm", "_tags": {"amenity": "hospital", "healthcare": "hospital", "name": "Adventist Health Reedley - Birth Center"}}, {"name": "Fresno Heart & Surgical Hospital", "latitude": 36.8608714, "longitude": -119.7892825, "source": "osm", "_tags": {"addr:city": "Fresno", "addr:housenumber": "15", "addr:postcode": "93720", "addr:street": "East Audubon Drive", "amenity": "hospital", "emergency": "no", "healthcare": "hospital", "name": "Fresno Heart & Surgical Hospital", "operator": "Community Medical Centers", "phone": "+1 559 433 8000", "website": "https://www.communitymedical.org/hospitals-facilities/Fresno-Heart-Surgical-Hospital"}}, {"name": "Crestwood Psychiatric Health Facility - Bakersfield", "latitude": 35.3656781, "longitude": -118.9297762, "source": "osm", "_tags": {"addr:city": "Bakersfield", "addr:housenumber": "6700", "addr:postcode": "93306", "addr:state": "CA", "addr:street": "Eucalyptus Drive", "amenity": "hospital", "beds": "16", "healthcare": "hospital", "healthcare:speciality": "psychiatry", "name": "Crestwood Psychiatric Health Facility - Bakersfield", "phone": "+1 661 363 5947", "website": "https://www.crestwoodbehavioralhealth.com"}}, {"name": "Bakersfield Behavioral Healthcare Hospital", "latitude": 35.3167236, "longitude": -119.0605346, "source": "osm", "_tags": {"addr:city": "Bakersfield", "addr:housenumber": "5201", "addr:postcode": "93309-6200", "addr:street": "White Lane", "amenity": "hospital", "beds": "90", "healthcare": "hospital", "healthcare:speciality": "psychiatry", "name": "Bakersfield Behavioral Healthcare Hospital", "phone": "+1 661 241 5506"}}, {"name": "Encompass Health Rehabilitation Hospital Of Bakersfield", "latitude": 35.3671915, "longitude": -119.0576718, "source": "osm", "_tags": {"addr:city": "Bakersfield", "addr:housenumber": "5001", "addr:postcode": "93309-0648", "addr:street": "Commerce Drive", "amenity": "hospital", "beds": "86", "healthcare": "hospital", "name": "Encompass Health Rehabilitation Hospital Of Bakersfield", "phone": "+1 661 323 5500"}}, {"name": "Adventist Health Tulare", "latitude": 36.2211958, "longitude": -119.3386609, "source": "osm", "_tags": {"addr:city": "Tulare", "addr:housenumber": "869", "addr:postcode": "93274-2207", "addr:street": "North Cherry Street", "amenity": "hospital", "beds": "108", "healthcare": "hospital", "name": "Adventist Health Tulare", "phone": "+1 559 366 1212", "website": "https://www.adventisthealth.org/tulare"}}, {"name": "Fresno Surgical Hospital", "latitude": 36.8249141, "longitude": -119.7821616, "source": "osm", "_tags": {"addr:city": "Fresno", "addr:housenumber": "6125", "addr:postcode": "93710-5207", "addr:street": "North Fresno Street", "amenity": "hospital", "beds": "27", "healthcare": "hospital", "name": "Fresno Surgical Hospital", "phone": "+1 559 431 8000", "website": "https://fresnosurgicalhospital.com"}}, {"name": "", "latitude": 35.6716963, "longitude": -120.1364725, "source": "osm", "_tags": {"amenity": "hospital", "emergency": "no", "healthcare": "hospital", "healthcare:speciality": "general;internal"}}, {"name": "My Time Recovery", "latitude": 36.8078452, "longitude": -119.7884164, "source": "osm", "_tags": {"addr:city": "Fresno", "addr:housenumber": "83", "addr:postcode": "93710", "addr:state": "CA", "addr:street": "East Shaw Avenue", "amenity": "hospital", "contact:facebook": "https://www.facebook.com/mytimerecovery/", "email": "info@mytimerecovery.com", "emergency": "no", "healthcare": "hospital", "healthcare:speciality": "physiatry", "name": "My Time Recovery", "opening_hours": "24/7", "operator": "Scotty Sample", "operator:type": "public", "phone": "+1 (559) 550-2809"}}, {"name": "Kern Valley Hospital", "latitude": 35.6351639, "longitude": -118.4073662, "source": "osm", "_tags": {"addr:city": "Mountain Mesa", "addr:housenumber": "6412", "addr:postcode": "93240", "addr:street": "Laurel Avenue", "amenity": "hospital", "emergency": "yes", "gnis:feature_id": "1835946", "healthcare": "hospital", "name": "Kern Valley Hospital", "opening_hours": "24/7", "operator": "Kern Valley Hospital District", "phone": "+1 760 379 2681", "website": "https://www.kvhd.org/", "wheelchair": "yes"}}, {"name": "Adventist Health Bakersfield", "latitude": 35.383312, "longitude": -119.0200176, "source": "osm", "_tags": {"addr:city": "Bakersfield", "addr:housenumber": "2615", "addr:postcode": "93301", "addr:street": "Chester Avenue", "amenity": "hospital", "beds": "254", "emergency": "yes", "healthcare": "hospital", "name": "Adventist Health Bakersfield", "old_name": "San Joaquin Community Hospital", "opening_hours": "24/7", "operator": "Adventist Health", "operator:wikidata": "Q4686452", "phone": "+1 661 395 3000", "website": "https://www.adventisthealth.org/Bakersfield/", "wikidata": "Q7414384"}}, {"name": "Kern Medical Center", "latitude": 35.3827839, "longitude": -118.9702944, "source": "osm", "_tags": {"addr:city": "Bakersfield", "addr:housenumber": "1700", "addr:postcode": "93306", "addr:street": "Mount Vernon Avenue", "amenity": "hospital", "beds": "222", "emergency": "yes", "gnis:feature_id": "1839107", "healthcare": "hospital", "name": "Kern Medical Center", "opening_hours": "24/7", "operator": "Kern Medical", "phone": "+1 661 326 2000", "website": "https://www.kernmedical.com/", "wikidata": "Q18387815", "wikipedia": "en:Kern Medical Center"}}, {"name": "Bakersfield Heart Hospital", "latitude": 35.3851606, "longitude": -119.0396355, "source": "osm", "_tags": {"addr:city": "Bakersfield", "addr:housenumber": "3001", "addr:postcode": "93308", "addr:street": "Sillect Avenue", "amenity": "hospital", "beds": "47", "emergency": "yes", "healthcare": "hospital", "name": "Bakersfield Heart Hospital", "opening_hours": "24/7", "phone": "+1 661 316 6000", "website": "https://www.bakersfieldhearthospital.com/", "wikidata": "Q4849299", "wikipedia": "en:Bakersfield Heart Hospital"}}, {"name": "Good Samaritan Hospital", "latitude": 35.4115152, "longitude": -119.0400237, "source": "osm", "_tags": {"addr:city": "Bakersfield", "addr:housenumber": "901", "addr:postcode": "93309", "addr:street": "Olive Drive", "amenity": "hospital", "emergency": "no", "gnis:feature_id": "1836070", "healthcare": "hospital", "name": "Good Samaritan Hospital", "old_name": "Alliance Community Hospital", "opening_hours": "08:00-24:00", "phone": "+1 661 215 7500", "reviewed": "no", "urgent_care": "yes", "website": "https://www.goodsamhospital.com/"}}, {"name": "Memorial Hospital", "latitude": 35.3928382, "longitude": -119.0064449, "source": "osm", "_tags": {"addr:city": "Bakersfield", "addr:housenumber": "420", "addr:postcode": "93301", "addr:street": "34th Street", "amenity": "hospital", "attribution": "Bakersfield_GIS", "emergency": "yes", "gnis:feature_id": "1839023", "healthcare": "hospital", "name": "Memorial Hospital", "old_name": "Bakersfield Memorial Hospital", "opening_hours": "24/7", "operator": "Dignity Health", "operator:wikidata": "Q5276334", "phone": "+1 661 327 4647", "source": "http://www.bakersfieldcity.us/gis/downloads/gis_spatial_data.htm", "website": "https://www.dignityhealth.org/central-california/locations/memorial-hospital"}}, {"name": "Adventist Health Reedley", "latitude": 36.6084954, "longitude": -119.4526688, "source": "osm", "_tags": {"addr:city": "Reedley", "addr:housenumber": "327", "addr:postcode": "93654", "addr:street": "West Cypress Avenue", "amenity": "hospital", "beds": "49", "emergency": "yes", "gnis:feature_id": "1659664", "healthcare": "hospital", "name": "Adventist Health Reedley", "old_name": "Sierra Kings Hospital", "opening_hours": "24/7", "operator": "Adventist Health", "operator:wikidata": "Q4686452", "operator:wikipedia": "en:Adventist Health", "phone": "+1 559 638 8155", "website": "https://www.adventisthealth.org/central-valley/"}}, {"name": "Adventist Health Selma", "latitude": 36.5679003, "longitude": -119.5984404, "source": "osm", "_tags": {"addr:city": "Selma", "addr:housenumber": "1141", "addr:postcode": "93662", "addr:street": "Rose Avenue", "amenity": "hospital", "attribution": "Fresno_County_GIS", "beds": "57", "emergency": "yes", "gnis:feature_id": "1811866", "healthcare": "hospital", "name": "Adventist Health Selma", "opening_hours": "24/7", "operator": "Adventist Health", "operator:type": "private", "operator:wikidata": "Q4686452", "phone": "+1 559 891 1000", "website": "https://www.adventisthealth.org/central-valley/pages/hospitals/adventist-health-selma.aspx", "wikidata": "Q7448716", "wikipedia": "en:Selma Community Hospital"}}, {"name": "Kingsburg Healing Center", "latitude": 36.5132727, "longitude": -119.5486342, "source": "osm", "_tags": {"addr:city": "Kingsburg", "addr:housenumber": "1200", "addr:postcode": "93631", "addr:street": "Smith Street", "amenity": "hospital", "emergency": "no", "gnis:feature_id": "1811914", "healthcare": "hospital", "healthcare:speciality": "psychiatry", "name": "Kingsburg Healing Center", "old_name": "Kingsburg Medical Center", "operator": "Crestwood Behavioral Health", "phone": "+1 559 238 6981", "website": "https://crestwoodbehavioralhealth.com/location/kingsburg-healing-center/"}}, {"name": "Fresno Heart & Surgical Hospital", "latitude": 36.8599285, "longitude": -119.7883106, "source": "osm", "_tags": {"addr:city": "Fresno", "addr:housenumber": "15", "addr:postcode": "93720", "addr:street": "East Audubon Drive", "amenity": "hospital", "beds": "57", "emergency": "no", "healthcare": "hospital", "name": "Fresno Heart & Surgical Hospital", "operator": "Community Medical Centers", "phone": "+1 559 433 8000", "website": "https://www.communitymedical.org/hospitals-facilities/Fresno-Heart-Surgical-Hospital"}}, {"name": "San Joaquin Valley Rehabilitation Hospital", "latitude": 36.8399696, "longitude": -119.7602071, "source": "osm", "_tags": {"addr:city": "Fresno", "addr:housenumber": "7173", "addr:postcode": "93720", "addr:street": "North Sharon Avenue", "amenity": "hospital", "attribution": "Fresno_County_GIS", "beds": "62", "emergency": "no", "healthcare": "hospital", "name": "San Joaquin Valley Rehabilitation Hospital", "operator": "Vibra Healthcare", "phone": "+1 717 455 3482", "source": "http://www.co.fresno.ca.us/%5Cdepartmentpage.aspx?id=16313", "website": "https://www.vibrahealthcare.com/san-joaquin-valley/"}}, {"name": "Community Behavioral Health Center", "latitude": 36.8402368, "longitude": -119.757661, "source": "osm", "_tags": {"addr:city": "Fresno", "addr:housenumber": "7171", "addr:postcode": "93720", "addr:street": "North Cedar Avenue", "amenity": "hospital", "attribution": "Fresno_County_GIS", "beds": "0", "emergency": "no", "healthcare": "hospital", "healthcare:speciality": "psychiatry", "name": "Community Behavioral Health Center", "operator": "Community Medical Centers", "phone": "+1 559 449 8000", "source": "http://www.co.fresno.ca.us/%5Cdepartmentpage.aspx?id=16313", "website": "https://www.communitymedical.org/hospitals-facilities/Community-Behavioral-Health-Center"}}, {"name": "Kaiser Permanente Fresno Medical Center", "latitude": 36.8428162, "longitude": -119.7814269, "source": "osm", "_tags": {"addr:city": "Fresno", "addr:housenumber": "7300", "addr:postcode": "93720", "addr:street": "North Fresno Street", "amenity": "hospital", "beds": "169", "emergency": "yes", "healthcare": "hospital", "name": "Kaiser Permanente Fresno Medical Center", "opening_hours": "24/7", "operator": "Kaiser Permanente", "operator:short": "KP", "operator:website": "https://healthy.kaiserpermanente.org/", "operator:wikidata": "Q1721601", "operator:wikipedia": "en:Kaiser Permanente", "phone": "+1 559 448 4500", "website": "https://thrive.kaiserpermanente.org/care-near-you/northern-california/fresno/locations/fresno-medical-center/"}}, {"name": "Saint Agnes Medical Center", "latitude": 36.8354284, "longitude": -119.7654623, "source": "osm", "_tags": {"addr:city": "Fresno", "addr:housenumber": "1303", "addr:postcode": "93720", "addr:street": "East Herndon Avenue", "amenity": "hospital", "beds": "436", "emergency": "yes", "gnis:feature_id": "1811528", "healthcare": "hospital", "name": "Saint Agnes Medical Center", "opening_hours": "24/7", "phone": "+1 559 450 3000", "website": "https://www.samc.com/"}}, {"name": "Community Regional Medical Center", "latitude": 36.7434359, "longitude": -119.7843453, "source": "osm", "_tags": {"addr:city": "Fresno", "addr:housenumber": "2823", "addr:postcode": "93721", "addr:street": "Fresno Street", "amenity": "hospital", "attribution": "Fresno_County_GIS", "beds": "685", "emergency": "yes", "gnis:feature_id": "1811755", "healthcare": "hospital", "name": "Community Regional Medical Center", "opening_hours": "24/7", "operator": "Community Medical Centers", "phone": "+1 559 459 6000", "source": "Tiger2009;http://www.co.fresno.ca.us/%5Cdepartmentpage.aspx?id=16313", "website": "https://www.communitymedical.org/CMC/Community-Regional-Medical-Center/", "wikidata": "Q5154851", "wikipedia": "en:Community Regional Medical Center"}}, {"name": "Fresno VA Medical Center", "latitude": 36.7732083, "longitude": -119.7792877, "source": "osm", "_tags": {"access": "private", "addr:city": "Fresno", "addr:housenumber": "2615", "addr:postcode": "93703", "addr:street": "East Clinton Avenue", "alt_name": "VA Central California Health Care System", "amenity": "hospital", "beds": "114", "emergency": "yes", "gnis:feature_id": "1656387", "healthcare": "hospital", "healthcare:for": "veterans", "name": "Fresno VA Medical Center", "opening_hours": "24/7", "operator": "Veterans Health Administration", "operator:short": "VA", "operator:wikidata": "Q6580225", "phone": "+1 559 225 6100", "short_name": "VA", "website": "https://www.fresno.va.gov/"}}, {"name": "WestCare", "latitude": 36.7003246, "longitude": -119.8007063, "source": "osm", "_tags": {"addr:city": "Fresno", "addr:housenumber": "2772", "addr:postcode": "93706", "addr:street": "Martin Luther King Junior Boulevard", "amenity": "hospital", "attribution": "Fresno_County_GIS", "emergency": "no", "healthcare": "hospital", "healthcare:speciality": "psychiatry", "name": "WestCare", "operator": "WestCare Foundation", "phone": "+1 559 265 4800", "website": "https://www.westcare.com/"}}, {"name": "Clovis Community Medical Center", "latitude": 36.841174, "longitude": -119.6606082, "source": "osm", "_tags": {"addr:city": "Clovis", "addr:housenumber": "2755", "addr:postcode": "93611", "addr:street": "Herndon Avenue", "amenity": "hospital", "beds": "208", "emergency": "yes", "healthcare": "hospital", "name": "Clovis Community Medical Center", "opening_hours": "24/7", "operator": "Community Medical Centers", "phone": "+1 559 324 4000", "website": "https://www.communitymedical.org/CMC/Clovis-Community-Medical-Center"}}, {"name": "Porterville Developmental Center", "latitude": 36.0392341, "longitude": -118.9841706, "source": "osm", "_tags": {"access": "private", "addr:city": "Porterville", "addr:housenumber": "26501", "addr:postcode": "93257", "addr:street": "Avenue 140", "amenity": "hospital", "attribution": "Farmland Mapping and Monitoring Program", "beds": "1226", "emergency": "no", "gnis:feature_id": "1661252", "healthcare": "hospital", "landuse": "residential", "name": "Porterville Developmental Center", "phone": "+1 559 782 2222", "source": "http://www.consrv.ca.gov/dlrp/fmmp/products/Pages/DownloadGISdata.aspx", "website": "https://www.dds.ca.gov/Porterville/"}}, {"name": "Valley Children's Hospital", "latitude": 36.884136, "longitude": -119.8015296, "source": "osm", "_tags": {"addr:city": "Madera", "addr:housenumber": "9300", "addr:postcode": "93636", "addr:street": "Valley Children's Place", "amenity": "hospital", "beds": "358", "emergency": "yes", "gnis:feature_id": "1812815", "healthcare": "hospital", "name": "Valley Children's Hospital", "opening_hours": "24/7", "operator": "Valley Children's Healthcare", "phone": "+1 559 353 3000", "website": "https://www.valleychildrens.org/", "wikidata": "Q14681740", "wikipedia": "en:Valley Children's Hospital"}}, {"name": "Medical Center Park", "latitude": 36.8382518, "longitude": -119.6586961, "source": "osm", "_tags": {"amenity": "hospital", "healthcare": "hospital", "name": "Medical Center Park"}}, {"name": "Delano Regional Medical Center", "latitude": 35.7621404, "longitude": -119.2393134, "source": "osm", "_tags": {"addr:city": "Delano", "addr:housenumber": "1401", "addr:postcode": "93215", "addr:street": "Garces Highway", "amenity": "hospital", "beds": "156", "emergency": "yes", "gnis:feature_id": "1835966", "healthcare": "hospital", "name": "Delano Regional Medical Center", "opening_hours": "24/7", "phone": "+1 661 725 4800", "short_name": "DRMC", "website": "http://www.drmc.com/"}}, {"name": "Sierra View Medical Center", "latitude": 36.0687128, "longitude": -119.0258249, "source": "osm", "_tags": {"addr:city": "Porterville", "addr:housenumber": "465", "addr:postcode": "93257", "addr:street": "West Putnam Avenue", "amenity": "hospital", "emergency": "yes", "gnis:feature_id": "1835492", "healthcare": "hospital", "name": "Sierra View Medical Center", "opening_hours": "24/7", "phone": "+1 559 784 1110", "website": "https://www.sierra-view.com/", "wikidata": "Q7511603", "wikipedia": "en:Sierra View District Hospital"}}, {"name": "Mercy Hospital Southwest", "latitude": 35.3519788, "longitude": -119.1126804, "source": "osm", "_tags": {"addr:city": "Bakersfield", "addr:housenumber": "400", "addr:postcode": "93311", "addr:street": "Old River Road", "amenity": "hospital", "beds": "78", "emergency": "yes", "healthcare": "hospital", "name": "Mercy Hospital Southwest", "opening_hours": "24/7", "operator": "Dignity Health", "operator:type": "private", "operator:wikidata": "Q5276334", "phone": "+1 661 663 6000", "website": "https://www.dignityhealth.org/central-california/locations/mercy-bakersfield", "wheelchair": "yes"}}, {"name": "Mercy Hospital Downtown", "latitude": 35.3725697, "longitude": -119.0287676, "source": "osm", "_tags": {"addr:city": "Bakersfield", "addr:housenumber": "2215", "addr:postcode": "93301", "addr:street": "Truxtun Avenue", "amenity": "hospital", "beds": "144", "emergency": "yes", "healthcare": "hospital", "name": "Mercy Hospital Downtown", "opening_hours": "24/7", "operator": "Dignity Health", "operator:wikidata": "Q5276334", "phone": "+1 661 632 5000", "website": "https://www.dignityhealth.org/central-california/locations/mercy-bakersfield"}}, {"name": "Adventist Health Tehachapi Valley", "latitude": 35.1478323, "longitude": -118.4508965, "source": "osm", "_tags": {"addr:city": "Tehachapi", "addr:housenumber": "1100", "addr:postcode": "93561", "addr:state": "CA", "addr:street": "Magellan Drive", "amenity": "hospital", "emergency": "yes", "healthcare": "hospital", "name": "Adventist Health Tehachapi Valley", "opening_hours": "24/7", "operator": "Adventist Health", "operator:type": "private", "operator:wikidata": "Q4686452", "operator:wikipedia": "en:Adventist Health", "phone": "+1 661 823 3000", "website": "https://www.adventisthealth.org/tehachapivalley/"}}, {"name": "Kaweah Delta Medical Center", "latitude": 36.3285592, "longitude": -119.2950305, "source": "osm", "_tags": {"addr:city": "Visalia", "addr:housenumber": "400", "addr:postcode": "93291", "addr:street": "West Mineral King Avenue", "amenity": "hospital", "beds": "581", "emergency": "yes", "gnis:feature_id": "1835671", "healthcare": "hospital", "name": "Kaweah Delta Medical Center", "opening_hours": "24/7", "operator": "Kaweah Delta Health Care District", "phone": "+1 559 624 2000", "website": "https://www.kaweahdelta.org/", "wikidata": "Q6379947", "wikipedia": "en:Kaweah Delta Medical Center"}}, {"name": "Madera Community Hospital", "latitude": 36.9438544, "longitude": -120.0443816, "source": "osm", "_tags": {"addr:city": "Madera", "addr:housenumber": "1250", "addr:postcode": "93637", "addr:street": "East Almond Avenue", "amenity": "hospital", "beds": "106", "emergency": "yes", "gnis:feature_id": "1812656", "healthcare": "hospital", "name": "Madera Community Hospital", "opening_hours": "24/7", "phone": "+1 559 675 5555", "website": "https://www.maderahospital.org/", "wikidata": "Q14683234", "wikipedia": "en:Madera Community Hospital"}}, {"name": "Adventist Medical Center Hanford", "latitude": 36.3295112, "longitude": -119.6596798, "source": "osm", "_tags": {"addr:city": "Hanford", "addr:state": "CA", "amenity": "hospital", "beds": "230", "emergency": "yes", "healthcare": "hospital", "name": "Adventist Medical Center Hanford", "old_name": "Hanford Community Medical Center"}}, {"name": "Adventist Health Hanford", "latitude": 36.3236921, "longitude": -119.6674114, "source": "osm", "_tags": {"addr:city": "Hanford", "addr:housenumber": "115", "addr:postcode": "93230", "addr:state": "CA", "addr:street": "Mall Drive", "amenity": "hospital", "beds": "230", "emergency": "yes", "healthcare": "hospital", "name": "Adventist Health Hanford", "operator": "Adventist Health", "operator:wikidata": "Q4686452", "operator:wikipedia": "en:Adventist Health", "phone": "559-582-9000", "website": "https://www.adventisthealth.org/hanford"}}, {"name": "", "latitude": 36.7441953, "longitude": -119.7827061, "source": "osm", "_tags": {"amenity": "hospital", "healthcare": "hospital"}}, {"name": "", "latitude": 36.7430972, "longitude": -119.7824915, "source": "osm", "_tags": {"amenity": "hospital", "healthcare": "hospital"}}, {"name": "", "latitude": 36.8394085, "longitude": -119.6569991, "source": "osm", "_tags": {"amenity": "hospital", "healthcare": "hospital"}}, {"name": "Naval Health Clinic Lemoore", "latitude": 36.2641863, "longitude": -119.8935513, "source": "osm", "_tags": {"addr:city": "Lemoore", "addr:housenumber": "937", "addr:postcode": "93246", "addr:state": "CA", "addr:street": "Franklin Avenue", "healthcare": "hospital", "name": "Naval Health Clinic Lemoore", "phone": "559-998-4481", "website": "https://lemoore.tricare.mil/"}}, {"name": "", "latitude": 36.3222431, "longitude": -119.3473678, "source": "osm", "_tags": {"amenity": "hospital", "healthcare": "hospital"}}]