[{"name": "Grady Memorial Hospital", "latitude": 35.0495455, "longitude": -97.9621252, "source": "osm", "_tags": {"addr:city": "Chickasha", "addr:housenumber": "2220", "addr:postcode": "73018", "addr:street": "West Iowa Avenue", "amenity": "hospital", "emergency": "yes", "gnis:feature_id": "1093290", "healthcare": "hospital", "name": "Grady Memorial Hospital", "opening_hours": "24/7", "phone": "+1 405 224 2300", "website": "https://www.gradymem.org/"}}, {"name": "Mercy Hospital El Reno", "latitude": 35.5298818, "longitude": -97.9806471, "source": "osm", "_tags": {"addr:city": "El Reno", "addr:housenumber": "2115", "addr:postcode": "73036", "addr:state": "OK", "addr:street": "Parkview Drive", "amenity": "hospital", "beds": "48", "emergency": "yes", "gnis:feature_id": "1096437", "healthcare": "hospital", "name": "Mercy Hospital El Reno", "opening_hours": "24/7", "operator": "Mercy", "operator:wikidata": "Q19896177", "phone": "+1 405 262 2640", "website": "https://www.mercy.net/practice/mercy-hospital-el-reno/"}}, {"name": "Mercy Hospital Kingfisher", "latitude": 35.8102679, "longitude": -97.9445529, "source": "osm", "_tags": {"addr:city": "Kingfisher", "addr:housenumber": "1000", "addr:postcode": "73750", "addr:street": "Kingfisher Hospital Drive", "amenity": "hospital", "beds": "25", "emergency": "yes", "healthcare": "hospital", "name": "Mercy Hospital Kingfisher", "opening_hours": "24/7", "operator": "Mercy", "operator:wikidata": "Q19896177", "operator:wikipedia": "en:Mercy (healthcare organization)", "phone": "+1 405 375 3141", "website": "https://www.mercy.net/practice/mercy-hospital-kingfisher/"}}]