[{"name": "Lovelace Rehabilitation Hospital", "latitude": 35.087744, "longitude": -106.6380728, "source": "osm", "_tags": {"addr:city": "Albuquerque", "addr:housenumber": "505", "addr:postcode": "87102", "addr:street": "Elm Street Northeast", "amenity": "hospital", "emergency": "no", "gnis:feature_id": "901300", "healthcare": "hospital", "name": "Lovelace Rehabilitation Hospital", "old_name": "Saint Joseph Rehabilitation Hospital", "phone": "+1 505 727 4725", "website": "https://lovelace.com/lovelace-rehabilitation-hospital"}}, {"name": "UNM Carrie Tingley Hospital", "latitude": 35.0936574, "longitude": -106.626969, "source": "osm", "_tags": {"addr:city": "Albuquerque", "addr:housenumber": "1127", "addr:postcode": "87106", "addr:state": "NM", "addr:street": "University Boulevard Northeast", "amenity": "hospital", "emergency": "no", "gnis:feature_id": "901344", "healthcare": "hospital", "healthcare:speciality": "paediatrics;orthopaedics", "name": "UNM Carrie Tingley Hospital", "phone": "+1-505-272-5200", "ref": "270", "website": "http://hospitals.unm.edu/children/cth_description.shtml"}}, {"name": "Kindred Hospital - Albuquerque", "latitude": 35.0890388, "longitude": -106.6380376, "source": "osm", "_tags": {"addr:city": "Albuquerque", "addr:housenumber": "700", "addr:postcode": "87102", "addr:state": "NM", "addr:street": "High Street Northeast", "amenity": "hospital", "emergency": "no", "gnis:feature_id": "934091", "healthcare": "hospital", "healthcare:speciality": "rehabilitation;LTACH", "name": "Kindred Hospital - Albuquerque", "old_name": "Care Unit Hospital of Albuquerque", "phone": "+1 505 242 4444", "website": "http://www.kindredalbuquerque.com/"}}, {"name": "St Joseph's Hospital Complex", "latitude": 35.0880261, "longitude": -106.6375636, "source": "osm", "_tags": {"amenity": "hospital", "healthcare": "hospital", "name": "St Joseph's Hospital Complex"}}, {"name": "Bill & Barbara Richardson Healthcare Pavillion", "latitude": 35.0884841, "longitude": -106.618906, "source": "osm", "_tags": {"addr:housenumber": "2211", "addr:street": "Lomas Boulevard Northeast", "healthcare": "hospital", "name": "Bill & Barbara Richardson Healthcare Pavillion", "operator": "UNMH", "ref": "286", "short_name": "BBRP"}}, {"name": "University Hospital", "latitude": 35.0885452, "longitude": -106.6175138, "source": "osm", "_tags": {"addr:housenumber": "2211", "addr:street": "Lomas Boulevard Northeast", "healthcare": "hospital", "name": "University Hospital", "operator": "UNMH", "ref": "235"}}, {"name": "UNMH Ambulatory Care Center", "latitude": 35.0878655, "longitude": -106.6174148, "source": "osm", "_tags": {"addr:housenumber": "2211", "addr:street": "Lomas Boulevard Northeast", "healthcare": "hospital", "name": "UNMH Ambulatory Care Center", "operator": "UNMH", "ref": "269"}}, {"name": "Central Desert Behavioral Health Hospital", "latitude": 35.138045, "longitude": -106.6075951, "source": "osm", "_tags": {"addr:city": "Albuquerque", "addr:housenumber": "1525", "addr:postcode": "87102", "addr:state": "NM", "addr:street": "North Renaissance Boulevard Northeast", "amenity": "hospital", "beds": "64", "healthcare": "hospital", "healthcare:speciality": "psychiatry", "name": "Central Desert Behavioral Health Hospital", "phone": "+1 505 243 3387", "website": "https://www.centraldesertbh.com/"}}, {"name": "Raymond G. Murphy VA Medical Center", "latitude": 35.0547138, "longitude": -106.5821888, "source": "osm", "_tags": {"access": "private", "addr:city": "Albuquerque", "addr:housenumber": "1501", "addr:postcode": "87108", "addr:state": "NM", "addr:street": "San Pedro Boulevard Southeast", "amenity": "hospital", "beds": "298", "building:levels": "6", "capacity": "298", "emergency": "maybe", "healthcare": "hospital", "healthcare:speciality": "veterans", "name": "Raymond G. Murphy VA Medical Center", "note": "Primarily serves Veteran's. Not sure if honoring EMTALA.", "operator": "Department of Veterans Affairs", "operator:type": "government", "phone": "+1-505-265-1711", "source": "https://www.bizjournals.com/albuquerque/news/2018/11/26/see-new-mexicos-largest-hospitals.html", "website": "https://www.albuquerque.va.gov/"}}, {"name": "Lovelace Westside Hospital", "latitude": 35.2076877, "longitude": -106.6776045, "source": "osm", "_tags": {"addr:city": "Albuquerque", "addr:housenumber": "10501", "addr:postcode": "87114", "addr:state": "NM", "addr:street": "Golf Course Road Northwest", "amenity": "hospital", "beds": "92", "capacity": "92", "capacity:beds": "92", "emergency": "yes", "gnis:feature_id": "901299", "healthcare": "hospital", "healthcare:speciality": "general;emergency", "name": "Lovelace Westside Hospital", "old_name": "St Josephs West Mesa Hospital", "opening_hours": "24/7", "operator": "Lovelace Health", "phone": "+1-505-727-2000", "website": "https://lovelace.com/locations/hospitals/lovelace-westside-hospital"}}, {"name": "Cibola General Hospital", "latitude": 35.1621567, "longitude": -107.827498, "source": "osm", "_tags": {"addr:city": "Grants", "addr:housenumber": "1016", "addr:postcode": "87020", "addr:state": "NM", "addr:street": "East Roosevelt Avenue", "amenity": "hospital", "beds": "25", "emergency": "yes", "gnis:feature_id": "924844", "healthcare": "hospital", "name": "Cibola General Hospital", "opening_hours": "24/7", "phone": "+1 505 287 4446", "website": "https://www.cibolahospital.com/"}}, {"name": "UNM Sandoval Regional Medical Center", "latitude": 35.3087866, "longitude": -106.6796118, "source": "osm", "_tags": {"addr:city": "Rio Rancho", "addr:housenumber": "3001", "addr:postcode": "87144", "addr:state": "NM", "addr:street": "Broadmoor Boulevard Northeast", "amenity": "hospital", "beds": "72", "emergency": "yes", "healthcare": "hospital", "name": "UNM Sandoval Regional Medical Center", "opening_hours": "24/7", "operator": "University of New Mexico", "phone": "+1 505 994 7000", "website": "http://www.unmsrmc.org/"}}, {"name": "Presbyterian Kaseman Hospital", "latitude": 35.0933622, "longitude": -106.5532533, "source": "osm", "_tags": {"addr:city": "Albuquerque", "addr:housenumber": "8300", "addr:postcode": "87110", "addr:state": "NM", "addr:street": "Constitution Avenue Northeast", "amenity": "hospital", "beds": "170", "emergency": "yes", "gnis:feature_id": "901343", "healthcare": "hospital", "name": "Presbyterian Kaseman Hospital", "phone": "+1-505-291-2000", "website": "https://kaseman-hospital.phs.org/", "wikidata": "Q50036965"}}, {"name": "Presbyterian Hospital", "latitude": 35.0807965, "longitude": -106.6341472, "source": "osm", "_tags": {"addr:city": "Albuquerque", "addr:housenumber": "1100", "addr:postcode": "87106", "addr:state": "NM", "addr:street": "Central Avenue Southeast", "amenity": "hospital", "emergency": "yes", "healthcare": "hospital", "name": "Presbyterian Hospital", "phone": "+1 505 841 1234", "website": "https://presbyterian-hospital.phs.org/", "wikidata": "Q30280368"}}, {"name": "Lovelace Medical Center", "latitude": 35.0865526, "longitude": -106.6397594, "source": "osm", "_tags": {"addr:city": "Albuquerque", "addr:housenumber": "601", "addr:postcode": "87102", "addr:state": "NM", "addr:street": "Doctor Martin Luther King Junior Avenue Northeast", "amenity": "hospital", "beds": "263", "emergency": "yes", "gnis:feature_id": "901290", "healthcare": "hospital", "name": "Lovelace Medical Center", "phone": "+1 505 727 8000", "website": "https://lovelace.com/locations/hospitals/lovelace-medical-center"}}, {"name": "Presbyterian Rust Medical Center", "latitude": 35.2196135, "longitude": -106.6927252, "source": "osm", "_tags": {"addr:city": "Rio Rancho", "addr:housenumber": "2400", "addr:postcode": "87124", "addr:state": "NM", "addr:street": "Unser Boulevard Southeast", "amenity": "hospital", "emergency": "yes", "healthcare": "hospital", "name": "Presbyterian Rust Medical Center", "opening_hours": "24/7", "operator": "Presbyterian Healthcare Services", "phone": "+1 505 253 7878", "website": "https://rust-medical-center.phs.org/"}}, {"name": "University of New Mexico Hospital", "latitude": 35.088644, "longitude": -106.6180297, "source": "osm", "_tags": {"addr:city": "Albuquerque", "addr:housenumber": "2211", "addr:postcode": "87106", "addr:state": "NM", "addr:street": "Lomas Boulevard Northeast", "amenity": "hospital", "beds": "618", "capacity": "618", "designation": "Level I", "emergency": "yes", "gnis:feature_id": "901298", "healthcare": "hospital", "healthcare:speciality": "emergency;trauma;stroke", "landing_zone": "yes", "name": "University of New Mexico Hospital", "opening_hours": "24/7", "operator": "The University of New Mexico", "operator:type": "university", "phone": "+1-505-272-2111", "source": "American College of Surgeons", "website": "https://hsc.unm.edu/health/locations/unm-hospital.html", "wikidata": "Q7895915", "wikipedia": "en:University of New Mexico Hospital"}}, {"name": "Crownpoint Service Unit", "latitude": 35.6980226, "longitude": -108.1394657, "source": "osm", "_tags": {"addr:city": "Crownpoint", "addr:postcode": "87313", "addr:street": "Navajo Route 9", "amenity": "hospital", "beds": "20", "emergency": "yes", "healthcare": "hospital", "name": "Crownpoint Service Unit", "opening_hours": "24/7", "operator": "Indian Health Service", "operator:short": "IHS", "operator:wikidata": "Q6020429", "phone": "+1 505 786 5291", "website": "https://www.ihs.gov/crownpoint/"}}, {"name": "Acoma-Canoncito-Laguna Service Unit", "latitude": 35.0685746, "longitude": -107.5706926, "source": "osm", "_tags": {"addr:city": "Acoma", "addr:housenumber": "80", "addr:postcode": "87034", "addr:state": "NM", "addr:street": "Veterans Boulevard", "addr:unit": "B", "amenity": "hospital", "beds": "6", "emergency": "yes", "healthcare": "hospital", "name": "Acoma-Canoncito-Laguna Service Unit", "note": "ED reopened d/t injunction", "opening_hours": "24/7", "operator": "Indian Health Service", "operator:short": "IHS", "operator:type": "government", "operator:wikidata": "Q6020429", "phone": "+1-505-552-5300", "ref": "ACL", "short_name": "ACL Hospital", "website": "https://www.ihs.gov/Albuquerque/healthcarefacilities/acomacanoncitolaguna/"}}, {"name": "Clearsky Rehab Hospital of Rio Rancho", "latitude": 35.2213251, "longitude": -106.6866397, "source": "osm", "_tags": {"addr:city": "Rio Rancho", "addr:housenumber": "2401", "addr:postcode": "87124", "addr:state": "NM", "addr:street": "Westside Boulevard Southeast", "amenity": "hospital", "healthcare": "hospital", "healthcare:speciality": "rehab;rehabilitation;physiatry", "name": "Clearsky Rehab Hospital of Rio Rancho"}}, {"name": "UNM Children's Psychiatric Center", "latitude": 35.0928989, "longitude": -106.621901, "source": "osm", "_tags": {"addr:housenumber": "1001", "addr:state": "NM", "addr:street": "Yale Boulevard Northeast", "amenity": "hospital", "healthcare": "hospital", "healthcare:speciality": "child_psychiatry;psychiatry;paediatrics;neuropsychiatry", "name": "UNM Children's Psychiatric Center", "operator": "UNMH", "ref": "CPC"}}, {"name": "BridgeCare ABA: Therapy For Autism", "latitude": 35.0879718, "longitude": -106.652845, "source": "osm", "_tags": {"addr:city": "Albuquerque", "addr:housenumber": "500", "addr:postcode": "87102", "addr:state": "NM", "addr:street": "Marquette Avenue Northwest", "amenity": "hospital", "description": "BridgeCare ABA compassionately provides ABA therapy services that help children with autism master new skills.\n\nAt BridgeCare ABA, weâ€™re dedicated to seeing every child thrive, regardless of their unique challenges and obstacles.", "healthcare": "hospital", "healthcare:speciality": "mental_health_clinic", "image": "https://uploads-ssl.webflow.com/644a835293a88f3a6e64f9a6/644a858219d140af9d4f4af7_bridgecare-aba-p-500.png", "name": "BridgeCare ABA: Therapy For Autism", "opening_hours": "Mo-Th 09:00-18:00; Fr 09:00-15:30; Sa 09:00-18:00", "phone": "505-209-2585", "website": "https://www.bridgecareaba.com/locations/new-mexico"}}, {"name": "Injections", "latitude": 35.1833447, "longitude": -106.5682639, "source": "osm", "_tags": {"amenity": "hospital", "emergency": "no", "healthcare": "hospital", "name": "Injections", "operator": "Allergy Partners of Albuquerque", "operator:type": "private"}}, {"name": "Jicarilla Apache Health Care Facility", "latitude": 36.9135471, "longitude": -106.968268, "source": "osm", "_tags": {"addr:city": "Dulce", "addr:housenumber": "500", "addr:postcode": "87528", "addr:state": "NM", "addr:street": "North Mundo Road", "alt_name": "Dulce Health Center", "amenity": "hospital", "fax": "+1-575-759-3651", "healthcare": "hospital", "name": "Jicarilla Apache Health Care Facility", "name:apj": "Nzhonachi'idle'ee", "opening_hours": "Mo-Fr 09:00-17:00", "operator": "Jicarilla Service Unit (IHS)", "phone": "+1-575-759-3291"}}, {"name": "PHS PRESNow 24/7 Urgent and Emergency Care", "latitude": 35.0275753, "longitude": -106.679342, "source": "osm", "_tags": {"addr:city": "Albuquerque", "addr:housenumber": "3436", "addr:postcode": "87105", "addr:state": "NM", "addr:street": "Isleta Boulevard Southwest", "amenity": "hospital", "building": "hospital", "healthcare": "hospital", "name": "PHS PRESNow 24/7 Urgent and Emergency Care", "website": "https://www.phs.org/doctors-services/services-centers/urgent-care/urgent-care/Pages/presnow-247-isleta.aspx"}}, {"name": "Lovelace Women's Hopsital", "latitude": 35.1319098, "longitude": -106.5905998, "source": "osm", "_tags": {"addr:city": "Albuquerque", "addr:housenumber": "4701", "addr:postcode": "87109", "addr:state": "NM", "addr:street": "Montgomery Boulevard Northeast", "amenity": "hospital", "beds": "53", "emergency": "yes", "healthcare": "hospital", "name": "Lovelace Women's Hopsital", "opening_hours": "24/7", "phone": "+1-505-727-7800", "toilets:wheelchair": "yes", "website": "https://lovelace.com/find-a-provider/location/entity1622/", "wheelchair": "yes"}}, {"name": "Los Alamos Medical Center", "latitude": 35.8815587, "longitude": -106.3188902, "source": "osm", "_tags": {"addr:city": "Los Alamos", "addr:housenumber": "3917", "addr:postcode": "87544", "addr:state": "NM", "addr:street": "West Road", "amenity": "hospital", "emergency": "yes", "gnis:feature_id": "901358", "healthcare": "hospital", "healthcare:speciality": "emergency", "name": "Los Alamos Medical Center", "opening_hours": "24/7", "phone": "+1 505 662 4201", "short_name": "LAMC", "type": "multipolygon", "website": "https://www.losalamosmedicalcenter.com/", "wikidata": "Q30280762"}}]