[{"name": "Maple Lawn Manor", "latitude": 35.5531411, "longitude": -98.5782023, "source": "osm", "_tags": {"addr:city": "Hydro", "addr:housenumber": "800", "addr:postcode": "73048", "addr:state": "OK", "addr:street": "North Arapaho Avenue", "amenity": "hospital", "emergency": "no", "healthcare": "hospital", "name": "Maple Lawn Manor", "phone": "+1 (405) 663-2455"}}, {"name": "Great Plains Regional Medical Center", "latitude": 35.413216, "longitude": -99.4258006, "source": "osm", "_tags": {"addr:city": "Elk City", "addr:housenumber": "1801", "addr:postcode": "73644", "addr:street": "West 3rd Street", "amenity": "hospital", "emergency": "yes", "name": "Great Plains Regional Medical Center", "opening_hours": "24/7", "phone": "+1 580 225 2511", "website": "https://www.gprmc-ok.com/"}}, {"name": "Roger Mills Memorial Hospital", "latitude": 35.6093189, "longitude": -99.6714404, "source": "osm", "_tags": {"addr:city": "Cheyenne", "addr:housenumber": "501", "addr:postcode": "73628", "addr:street": "South L. L. Males Avenue", "amenity": "hospital", "beds": "15", "emergency": "yes", "healthcare": "hospital", "name": "Roger Mills Memorial Hospital", "opening_hours": "24/7", "phone": "+1 580 497 3336", "website": "http://www.rmmhonline.com/"}}, {"name": "Mercy Hospital Watonga", "latitude": 35.8496902, "longitude": -98.4187788, "source": "osm", "_tags": {"addr:city": "Watonga", "addr:housenumber": "500", "addr:postcode": "73772", "addr:street": "North Clarence Nash Boulevard", "amenity": "hospital", "emergency": "yes", "healthcare": "hospital", "name": "Mercy Hospital Watonga", "opening_hours": "24/7", "phone": "+1 580 623 7211", "website": "https://www.mercy.net/practice/mercy-hospital-watonga"}}, {"name": "Kiowa District Hospital", "latitude": 37.0076184, "longitude": -98.4887356, "source": "osm", "_tags": {"addr:city": "Kiowa", "addr:housenumber": "1002", "addr:postcode": "67070", "addr:street": "South 4th Street", "amenity": "hospital", "beds": "10", "emergency": "yes", "healthcare": "hospital", "name": "Kiowa District Hospital", "opening_hours": "24/7", "operator": "Kiowa District Healthcare", "phone": "+1 620 825 4131", "website": "http://www.k-d-h.com/"}}, {"name": "AllianceHealth Woodward", "latitude": 36.4371767, "longitude": -99.3996888, "source": "osm", "_tags": {"addr:city": "Woodward", "addr:housenumber": "900", "addr:postcode": "73801", "addr:street": "17th Street", "amenity": "hospital", "beds": "87", "emergency": "yes", "healthcare": "hospital", "name": "AllianceHealth Woodward", "opening_hours": "24/7", "operator": "AllianceHealth", "phone": "+1 580 256 5511", "website": "https://www.myalliancehealth.com/alliancehealth-woodward"}}, {"name": "AllianceHealth Clinton", "latitude": 35.5145243, "longitude": -98.9981394, "source": "osm", "_tags": {"addr:city": "Clinton", "addr:housenumber": "100", "addr:postcode": "73601", "addr:street": "North 30th Street", "amenity": "hospital", "beds": "56", "emergency": "yes", "healthcare": "hospital", "name": "AllianceHealth Clinton", "opening_hours": "24/7", "operator": "AllianceHealth", "phone": "+1 580 323 2363", "website": "https://www.myalliancehealth.com/alliancehealth-clinton"}}, {"name": "Elkview General Hospital", "latitude": 35.0377139, "longitude": -99.0986002, "source": "osm", "_tags": {"addr:city": "Hobart", "addr:housenumber": "429", "addr:postcode": "73651", "addr:street": "West Elm Street", "amenity": "hospital", "beds": "38", "emergency": "yes", "healthcare": "hospital", "name": "Elkview General Hospital", "opening_hours": "24/7", "phone": "+1 580 726 1900", "website": "https://elkviewhospital.com/"}}, {"name": "The Physicians' Hospital In Anadarko", "latitude": 35.0710179, "longitude": -98.2282796, "source": "osm", "_tags": {"addr:city": "Anadarko", "addr:housenumber": "1002", "addr:postcode": "73005", "addr:street": "East Central Boulevard", "amenity": "hospital", "beds": "25", "emergency": "yes", "healthcare": "hospital", "name": "The Physicians' Hospital In Anadarko", "opening_hours": "24/7", "phone": "+1 405 247 2551", "website": "http://anadarkohospital.com/"}}, {"name": "Weatherford Regional Hospital", "latitude": 35.5392304, "longitude": -98.6622235, "source": "osm", "_tags": {"addr:city": "Weatherford", "addr:housenumber": "3701", "addr:postcode": "73096", "addr:street": "East Main Street", "amenity": "hospital", "beds": "25", "emergency": "yes", "healthcare": "hospital", "name": "Weatherford Regional Hospital", "opening_hours": "24/7", "phone": "+1 580 772 5551", "website": "https://weatherfordhospital.com/"}}, {"name": "Harper County Community Hospital", "latitude": 36.8446389, "longitude": -99.6286462, "source": "osm", "_tags": {"addr:city": "Buffalo", "addr:housenumber": "1003", "addr:postcode": "73834", "addr:street": "US 64 North", "amenity": "hospital", "beds": "25", "emergency": "yes", "healthcare": "hospital", "name": "Harper County Community Hospital", "opening_hours": "24/7", "phone": "+1 580 735 2555", "website": "https://www.hcchospital.com/"}}, {"name": "Cordell Memorial Hospital", "latitude": 35.3027442, "longitude": -98.9883131, "source": "osm", "_tags": {"addr:city": "Cordell", "addr:housenumber": "1220", "addr:postcode": "73632", "addr:street": "North Glenn L English Street", "amenity": "hospital", "beds": "14", "emergency": "yes", "healthcare": "hospital", "name": "Cordell Memorial Hospital", "opening_hours": "24/7", "phone": "+1 580 832 3339", "short_name": "CMH", "website": "https://cordellmemorialhospital.com/", "wheelchair": "limited"}}, {"name": "Okeene Municipal Hospital", "latitude": 36.1165246, "longitude": -98.3151874, "source": "osm", "_tags": {"addr:city": "Okeene", "addr:housenumber": "207", "addr:postcode": "73763", "addr:street": "East F Street", "amenity": "hospital", "beds": "17", "emergency": "yes", "healthcare": "hospital", "name": "Okeene Municipal Hospital", "opening_hours": "24/7", "phone": "+1 580 822 4417", "website": "http://okeenehospital.wixsite.com/okeenehospital"}}, {"name": "Fairview Regional Medical Center", "latitude": 36.2760767, "longitude": -98.474611, "source": "osm", "_tags": {"addr:city": "Fairview", "addr:housenumber": "523", "addr:postcode": "73737", "addr:street": "East State Road", "amenity": "hospital", "beds": "25", "emergency": "yes", "healthcare": "hospital", "name": "Fairview Regional Medical Center", "opening_hours": "24/7", "phone": "+1 580 227 3721", "website": "https://www.fairviewregionalmedicalcenter.com/"}}, {"name": "Newman Memorial Hospital", "latitude": 36.2678226, "longitude": -99.8821767, "source": "osm", "_tags": {"addr:city": "Shattuck", "addr:housenumber": "905", "addr:postcode": "73858", "addr:street": "South Main Street", "amenity": "hospital", "beds": "25", "emergency": "yes", "healthcare": "hospital", "name": "Newman Memorial Hospital", "opening_hours": "24/7", "phone": "+1 580 938 2551", "website": "https://newmanmemorialhospital.org/"}}, {"name": "Seiling Regional Medical Center", "latitude": 36.1547256, "longitude": -98.9229986, "source": "osm", "_tags": {"addr:city": "Seiling", "addr:housenumber": "809", "addr:postcode": "73663", "addr:street": "US 60", "amenity": "hospital", "beds": "18", "emergency": "yes", "healthcare": "hospital", "name": "Seiling Regional Medical Center", "opening_hours": "24/7", "phone": "+1 580 377 1005", "website": "https://www.seilingmunicipalhospital.org/"}}, {"name": "Carnegie Tri-County Municipal Hospital", "latitude": 35.1075795, "longitude": -98.6052112, "source": "osm", "_tags": {"addr:city": "Carnegie", "addr:housenumber": "102", "addr:postcode": "73015", "addr:street": "North Broadway", "amenity": "hospital", "beds": "17", "emergency": "yes", "healthcare": "hospital", "name": "Carnegie Tri-County Municipal Hospital", "opening_hours": "24/7", "phone": "+1 580 654 1050", "short_name": "CTCMH", "website": "http://carnegiehospital.org/"}}, {"name": "Great Salt Plains Health Center - Canton", "latitude": 36.0547252, "longitude": -98.5849867, "source": "osm", "_tags": {"addr:city": "Canton", "addr:housenumber": "310", "addr:postcode": "73724", "addr:state": "OK", "addr:street": "Walnut Street", "amenity": "hospital", "emergency": "no", "healthcare": "hospital", "name": "Great Salt Plains Health Center - Canton", "phone": "+1-580-886-2200", "website": "https://www.gsphealth.org/"}}, {"name": "Share Medical Center", "latitude": 36.7869664, "longitude": -98.6702548, "source": "osm", "_tags": {"amenity": "hospital", "beds": "25", "emergency": "yes", "healthcare": "hospital", "leisure": "park", "name": "Share Medical Center", "opening_hours": "24/7", "operator": "City of Alva", "urgent_care": "Mo-Fr 8:00-20:00;Sa,Su 10:00-16:00", "website": "https://www.smcok.com/"}}]