[{"name": "Santa Cruz Post Acute Rehab", "latitude": 36.9779863, "longitude": -121.9879106, "source": "osm", "_tags": {"amenity": "hospital", "name": "Santa Cruz Post Acute Rehab"}}, {"name": "Mee Memorial Hospital: Emergency Department", "latitude": 36.2057408, "longitude": -121.1327364, "source": "osm", "_tags": {"amenity": "hospital", "healthcare": "hospital", "name": "Mee Memorial Hospital: Emergency Department"}}, {"name": "Hazel Hawkins Memorial Hospital", "latitude": 36.8339484, "longitude": -121.3865176, "source": "osm", "_tags": {"addr:city": "Hollister", "addr:housenumber": "911", "addr:postcode": "95023", "addr:street": "Sunset Drive", "amenity": "hospital", "beds": "62", "emergency": "yes", "gnis:feature_id": "1817274", "healthcare": "hospital", "name": "Hazel Hawkins Memorial Hospital", "opening_hours": "24/7", "phone": "+1 831 637 5711", "website": "https://hazelhawkins.com/"}}, {"name": "Natividad Medical Center", "latitude": 36.6973679, "longitude": -121.6339804, "source": "osm", "_tags": {"addr:city": "Salinas", "addr:housenumber": "1441", "addr:postcode": "93906", "addr:street": "Constitution Boulevard", "amenity": "hospital", "beds": "172", "emergency": "yes", "healthcare": "hospital", "name": "Natividad Medical Center", "opening_hours": "24/7", "phone": "+1 831 755 4111", "source": "Tiger2009", "website": "https://www.natividad.com/", "wikidata": "Q19605661", "wikipedia": "en:Natividad Hospital"}}, {"name": "Salinas Valley Health Medical Center", "latitude": 36.6591017, "longitude": -121.6463443, "source": "osm", "_tags": {"addr:city": "Salinas", "addr:housenumber": "450", "addr:postcode": "93901", "addr:street": "East Romie Lane", "amenity": "hospital", "beds": "266", "emergency": "yes", "gnis:feature_id": "1873259", "healthcare": "hospital", "name": "Salinas Valley Health Medical Center", "opening_hours": "24/7", "phone": "+1 831 757 4333", "website": "https://www.salinasvalleyhealth.com/", "wikidata": "Q7404665"}}, {"name": "Dominican Hospital", "latitude": 36.9900559, "longitude": -121.9836077, "source": "osm", "_tags": {"addr:city": "Santa Cruz", "addr:housenumber": "1555", "addr:postcode": "95065", "addr:state": "CA", "addr:street": "Soquel Drive", "amenity": "hospital", "beds": "222", "emergency": "yes", "healthcare": "hospital", "name": "Dominican Hospital", "opening_hours": "24/7", "operator": "Dignity Health", "phone": "+1 831 462 7700", "website": "https://www.dignityhealth.org/bayarea/locations/dominican", "wikidata": "Q30279859"}}, {"name": "Arroyo Grande Community Hospital", "latitude": 35.1136235, "longitude": -120.5904363, "source": "osm", "_tags": {"addr:city": "Arroyo Grande", "addr:housenumber": "345", "addr:postcode": "93420", "addr:street": "South Halcyon Road", "amenity": "hospital", "emergency": "yes", "healthcare": "hospital", "name": "Arroyo Grande Community Hospital", "opening_hours": "24/7", "operator": "Dignity Health", "operator:wikidata": "Q5276334", "phone": "+1 805 489 4261", "source": "Tiger2009", "website": "https://www.dignityhealth.org/central-coast/locations/arroyo-grande", "wikidata": "Q4796234", "wikipedia": "en:Arroyo Grande Community Hospital"}}, {"name": "Coalinga Regional Medical Center", "latitude": 36.1526139, "longitude": -120.3411726, "source": "osm", "_tags": {"addr:city": "Coalinga", "addr:housenumber": "1191", "addr:postcode": "93210", "addr:street": "West Phelps Avenue", "amenity": "hospital", "emergency": "yes", "healthcare": "hospital", "name": "Coalinga Regional Medical Center", "opening_hours": "24/7", "phone": "+1 559 935 6400", "website": "https://coalingamedicalcenter.com/"}}, {"name": "Doctors on Duty", "latitude": 36.9869751, "longitude": -121.9211056, "source": "osm", "_tags": {"addr:housenumber": "6800", "addr:postcode": "95003", "addr:street": "Soquel Drive", "amenity": "hospital", "building": "yes", "designation": "Health Clinic", "emergency": "no", "name": "Doctors on Duty", "note": "Non-emergency urgent care clinic"}}, {"name": "Mee Memorial Healthcare System", "latitude": 36.2065543, "longitude": -121.132928, "source": "osm", "_tags": {"addr:city": "King City", "addr:housenumber": "300", "addr:postcode": "93930", "addr:state": "CA", "addr:street": "Canal Street", "alt_name": "George L. Lee Memorial Hospital", "amenity": "hospital", "beds": "94", "emergency": "yes", "gnis:feature_id": "1873485", "healthcare": "hospital", "name": "Mee Memorial Healthcare System", "opening_hours": "24/7", "phone": "+1 831 385 6000", "source": "Tiger2009", "website": "https://meememorial.com/"}}, {"name": "Coalinga State Hospital", "latitude": 36.1331548, "longitude": -120.2404399, "source": "osm", "_tags": {"addr:city": "Coalinga", "addr:country": "US", "addr:housenumber": "24511", "addr:postcode": "93210", "addr:state": "CA", "addr:street": "West Jayne Avenue", "amenity": "hospital", "barrier": "fence", "emergency": "no", "fax": "+1 559 935 7118", "healthcare": "hospital", "name": "Coalinga State Hospital", "operator": "California Department of State Hospitals", "phone": "+1 559 935 4300", "short_name": "CSH", "website": "https://www.dsh.ca.gov/Coalinga/", "wikidata": "Q5137885", "wikipedia": "en:Coalinga State Hospital"}}, {"name": "French Hospital", "latitude": 35.2777114, "longitude": -120.6514825, "source": "osm", "_tags": {"addr:city": "San Luis Obispo", "addr:housenumber": "1911", "addr:postcode": "93401", "addr:street": "Johnson Avenue", "amenity": "hospital", "emergency": "yes", "gnis:feature_id": "1872421", "healthcare": "hospital", "name": "French Hospital", "opening_hours": "24/7", "operator": "Dignity Health", "operator:wikidata": "Q5276334", "operator:wikipedia": "en:Dignity Health", "phone": "+1 805 543 5353", "website": "https://www.dignityhealth.org/central-coast/locations/frenchhospital", "wheelchair": "yes"}}, {"name": "Sierra Vista Regional Medical Center", "latitude": 35.2925581, "longitude": -120.665911, "source": "osm", "_tags": {"addr:city": "San Luis Obispo", "addr:housenumber": "1010", "addr:postcode": "93405", "addr:street": "Murray Avenue", "amenity": "hospital", "beds": "164", "emergency": "yes", "healthcare": "hospital", "name": "Sierra Vista Regional Medical Center", "opening_hours": "24/7", "operator": "TH Medical", "phone": "+1 805 546 7600", "website": "https://www.sierravistaregional.com/", "wikidata": "Q7511621", "wikipedia": "en:Sierra Vista Regional Medical Center"}}, {"name": "Twin Cities Community Hospital", "latitude": 35.5553459, "longitude": -120.7200541, "source": "osm", "_tags": {"addr:city": "Templeton", "addr:housenumber": "1100", "addr:postcode": "93465", "addr:street": "Las Tablas Road", "amenity": "hospital", "beds": "122", "emergency": "yes", "gnis:feature_id": "1872246", "healthcare": "hospital", "name": "Twin Cities Community Hospital", "opening_hours": "24/7", "operator": "Adventist Health", "operator:type": "private", "operator:wikidata": "Q4686452", "phone": "+1 805 434 3500", "website": "https://www.adventisthealth.org/locations/twin-cities-community-hospital/"}}, {"name": "Community Hospital of the Monterey Peninsula", "latitude": 36.5793032, "longitude": -121.9139242, "source": "osm", "_tags": {"addr:city": "Monterey", "addr:housenumber": "23625", "addr:postcode": "93940", "addr:state": "CA", "addr:street": "Pacific Grove-Carmel Highway", "amenity": "hospital", "emergency": "yes", "gnis:feature_id": "1873557", "healthcare": "hospital", "name": "Community Hospital of the Monterey Peninsula", "opening_hours": "24/7", "operator": "Montage Health", "phone": "+1 831 624 5311", "website": "https://www.chomp.org/", "wikidata": "Q5154791"}}, {"name": "Watsonville Community Hospital", "latitude": 36.9264681, "longitude": -121.7935449, "source": "osm", "_tags": {"addr:city": "Watsonville", "addr:housenumber": "75", "addr:postcode": "95076", "addr:street": "Neilson Street", "amenity": "hospital", "beds": "106", "emergency": "yes", "healthcare": "hospital", "name": "Watsonville Community Hospital", "opening_hours": "24/7", "phone": "+1 831 724 4741", "website": "http://www.watsonvillehospital.com/", "wikidata": "Q61932002"}}, {"name": "Sutter Maternity & Surgery Center", "latitude": 36.9878028, "longitude": -121.9775199, "source": "osm", "_tags": {"addr:city": "Santa Cruz", "addr:housenumber": "2900", "addr:postcode": "95065", "addr:street": "Chanticleer Avenue", "amenity": "hospital", "beds": "28", "emergency": "no", "healthcare": "hospital", "name": "Sutter Maternity & Surgery Center", "opening_hours": "24/7", "operator": "Sutter Health", "operator:website": "https://www.sutterhealth.org/", "operator:wikidata": "Q7650154", "operator:wikipedia": "en:Sutter Health", "phone": "+1 831 477 2200", "upload_version": "5", "website": "https://www.sutterhealth.org/find-location/facility/sutter-maternity-surgery-center"}}, {"name": "Atascadero State Hospital", "latitude": 35.4639437, "longitude": -120.6342145, "source": "osm", "_tags": {"addr:city": "Atascadero", "addr:country": "US", "addr:housenumber": "10333", "addr:state": "CA", "addr:street": "El Camino Real", "amenity": "hospital", "beds": "1239", "building": "hospital", "emergency": "no", "gnis:feature_id": "1660278", "healthcare": "hospital", "healthcare:speciality": "psychiatry", "name": "Atascadero State Hospital", "operator": "California Department of State Hospitals", "short_name": "ASH", "type": "multipolygon", "website": "https://dsh.ca.gov/Atascadero/", "wikidata": "Q4812857", "wikipedia": "en:Atascadero State Hospital"}}]