[{"name": "San Juan Hospital", "latitude": 37.8744286, "longitude": -109.349495, "source": "osm", "_tags": {"addr:city": "Monticello", "addr:housenumber": "380", "addr:postcode": "84535", "addr:state": "UT", "addr:street": "West 100 North", "amenity": "hospital", "beds": "25", "emergency": "yes", "gnis:feature_id": "1448965", "healthcare": "hospital", "name": "San Juan Hospital", "opening_hours": "24/7", "phone": "+1 435 587 2116", "website": "https://sjhsd.org/contact-us-san-juan-hospital/"}}, {"name": "Blue Mountain Hospital", "latitude": 37.612829, "longitude": -109.4825518, "source": "osm", "_tags": {"addr:city": "Blanding", "addr:housenumber": "802", "addr:postcode": "84511", "addr:state": "UT", "addr:street": "South 200 West", "amenity": "hospital", "beds": "11", "emergency": "yes", "healthcare": "hospital", "name": "Blue Mountain Hospital", "opening_hours": "24/7", "phone": "+1 435 678 3993", "website": "https://www.bmhutah.org/"}}, {"name": "Moab Regional Hospital", "latitude": 38.5751085, "longitude": -109.5594011, "source": "osm", "_tags": {"addr:city": "Moab", "addr:housenumber": "450", "addr:postcode": "84532", "addr:state": "UT", "addr:street": "West Williams Way", "amenity": "hospital", "beds": "17", "emergency": "yes", "healthcare": "hospital", "name": "Moab Regional Hospital", "opening_hours": "24/7", "phone": "+1 435 719 3500", "website": "https://mrhmoab.org/", "wheelchair": "yes", "wikidata": "Q6886325"}}, {"name": "Southwest Memorial Hospital", "latitude": 37.3620981, "longitude": -108.5743547, "source": "osm", "_tags": {"addr:city": "Cortez", "addr:housenumber": "1311", "addr:state": "CO", "addr:street": "North Mildred Road", "amenity": "hospital", "emergency": "yes", "gnis:feature_id": "1795379", "healthcare": "hospital", "name": "Southwest Memorial Hospital", "opening_hours": "24/7", "operator": "Southwest Health System", "phone": "+1 970 565 6666", "postal_code": "81321", "website": "https://swhealth.org/southwestmemorialhospital/", "wheelchair": "yes"}}, {"name": "Uncompahgre Medical Center", "latitude": 38.1292957, "longitude": -108.2982775, "source": "osm", "_tags": {"amenity": "hospital", "landuse": "religious", "name": "Uncompahgre Medical Center"}}]