[{"name": "UCSF Benioff Children's Hospital San Francisco", "latitude": 37.7647716, "longitude": -122.3896641, "source": "osm", "_tags": {"addr:city": "San Francisco", "addr:housenumber": "1975", "addr:postcode": "94158", "addr:street": "4th Street", "amenity": "hospital", "emergency": "yes", "healthcare": "hospital", "healthcare:speciality": "paediatrics", "name": "UCSF Benioff Children's Hospital San Francisco", "opening_hours": "24/7", "phone": "+1 415 353 1664", "website": "https://www.ucsfbenioffchildrens.org/", "wikidata": "Q17031376"}}, {"name": "Sequoia Hospital", "latitude": 37.4795113, "longitude": -122.255023, "source": "osm", "_tags": {"addr:city": "Redwood City", "addr:housenumber": "170", "addr:postcode": "94062", "addr:state": "CA", "addr:street": "Alameda de las Pulgas", "amenity": "hospital", "beds": "208", "emergency": "yes", "healthcare": "hospital", "name": "Sequoia Hospital", "opening_hours": "24/7", "operator": "Dignity Health", "phone": "+1 650 369 5811", "website": "https://www.dignityhealth.org/bayarea/locations/sequoia", "wikidata": "Q7452546", "wikipedia": "en:Sequoia Hospital"}}, {"name": "Aurora Behavioral Healthcare - Santa Rosa", "latitude": 38.4503989, "longitude": -122.7716276, "source": "osm", "_tags": {"addr:city": "Santa Rosa", "addr:housenumber": "1287", "addr:postcode": "95401-4923", "addr:street": "Fulton Road", "amenity": "hospital", "beds": "95", "healthcare": "hospital", "healthcare:speciality": "psychiatry", "name": "Aurora Behavioral Healthcare - Santa Rosa", "phone": "+1 707 800 7700"}}, {"name": "", "latitude": 37.7630641, "longitude": -122.4570483, "source": "osm", "_tags": {"amenity": "hospital"}}, {"name": "Kentfield Hospital", "latitude": 37.9587062, "longitude": -122.5524959, "source": "osm", "_tags": {"addr:city": "Kentfield", "addr:housenumber": "1125", "addr:postcode": "94904-0338", "addr:street": "Sir Francis Drake Boulevard", "amenity": "hospital", "beds": "60", "healthcare": "hospital", "name": "Kentfield Hospital", "phone": "+1 415 485 3521", "website": "https://kentfieldhospital.com"}}, {"name": "The Avenues Transitional Care Center", "latitude": 37.7496669, "longitude": -122.476299, "source": "osm", "_tags": {"addr:city": "San Francisco", "addr:housenumber": "2043", "addr:postcode": "94116", "addr:state": "CA", "addr:street": "19th Avenue", "amenity": "hospital", "emergency": "yes", "healthcare": "hospital", "healthcare:speciality": "geriatrics", "name": "The Avenues Transitional Care Center"}}, {"name": "Double Happiness Health - Acupuncture San Francisco", "latitude": 37.7590075, "longitude": -122.416707, "source": "osm", "_tags": {"addr:city": "San Francisco", "addr:housenumber": "3380", "addr:postcode": "94110", "addr:state": "CA", "addr:street": "20th Street", "addr:unit": "#102", "amenity": "hospital", "description": "Double Happiness Health is a San Francisco acupuncture clinic with a focus on fertility, pain, mood, fatigue, infertility, digestive issues, immunity issues, menstrual disorders and other conditions using TCM (Traditional Chinese Medicine). We take a holi", "healthcare": "hospital", "healthcare:speciality": "acupuncture;fertility", "name": "Double Happiness Health - Acupuncture San Francisco", "phone": "+1 415-255-2252", "website": "https://www.doublehappinesshealth.com/"}}, {"name": "Aesthetx", "latitude": 37.9430248, "longitude": -122.5186078, "source": "osm", "_tags": {"addr:city": "Greenbrae", "addr:housenumber": "300", "addr:postcode": "94904", "addr:state": "CA", "addr:street": "Drakes Landing Road", "addr:unit": "Ste 100", "amenity": "hospital", "contact:facebook": "https://www.facebook.com/AesthetxPlasticSurgery/", "healthcare": "hospital", "healthcare:speciality": "plastic_surgery_clinic", "name": "Aesthetx", "phone": "415-980-6414", "website": "https://www.aesthetx.com/marin-county/"}}, {"name": "Children's Hospital & Research Center Oakland", "latitude": 37.8370683, "longitude": -122.2676417, "source": "osm", "_tags": {"addr:city": "Oakland", "addr:country": "US", "addr:housenumber": "747", "addr:postcode": "94609", "addr:state": "CA", "addr:street": "52nd Street", "alt_name1": "UCSF Benioff Children’s Hospital Oakland", "alt_name2": "Children's Hospital Oakland", "amenity": "hospital", "beds": "190", "emergency": "yes", "gnis:feature_id": "1676003", "healthcare": "hospital", "healthcare:speciality": "paediatrics", "name": "Children's Hospital & Research Center Oakland", "opening_hours": "24/7", "phone": "+1 510 428 3000", "website": "https://www.childrenshospitaloakland.org/", "wikidata": "Q5098123", "wikipedia": "en:Children's Hospital Oakland"}}, {"name": "San Francisco General Hospital", "latitude": 37.7567781, "longitude": -122.4052172, "source": "osm", "_tags": {"addr:city": "San Francisco", "addr:country": "US", "addr:housenumber": "1001", "addr:postcode": "94158", "addr:state": "CA", "addr:street": "Potrero Avenue", "amenity": "hospital", "beds": "397", "emergency": "yes", "healthcare": "hospital", "name": "San Francisco General Hospital", "official_name": "Zuckerberg San Francisco General Hospital", "opening_hours": "24/7", "phone": "+1 415 206 8000", "website": "https://zuckerbergsanfranciscogeneral.org/", "wikidata": "Q7414040", "wikipedia": "en:San Francisco General Hospital"}}, {"name": "Kaiser Permanente South San Francisco Medical Center", "latitude": 37.6595195, "longitude": -122.4394713, "source": "osm", "_tags": {"addr:city": "South San Francisco", "addr:housenumber": "1200", "addr:postcode": "94080", "addr:street": "El Camino Real", "amenity": "hospital", "beds": "120", "emergency": "yes", "gnis:feature_id": "1785809", "healthcare": "hospital", "name": "Kaiser Permanente South San Francisco Medical Center", "opening_hours": "24/7", "operator": "Kaiser Permanente", "operator:short": "KP", "operator:website": "https://healthy.kaiserpermanente.org/", "operator:wikidata": "Q1721601", "operator:wikipedia": "en:Kaiser Permanente", "phone": "+1 650 742 2000", "website": "https://thrive.kaiserpermanente.org/care-near-you/northern-california/southsanfrancisco/locations/kaiser-permanente-south-san-francisco-medical-center/"}}, {"name": "Highland Hospital", "latitude": 37.7981756, "longitude": -122.231433, "source": "osm", "_tags": {"addr:city": "Oakland", "addr:housenumber": "1411", "addr:postcode": "94602", "addr:street": "East 31st Street", "alt_name": "Highland Hospital Alameda County Medical Center", "amenity": "hospital", "beds": "236", "emergency": "yes", "healthcare": "hospital", "name": "Highland Hospital", "opening_hours": "24/7", "operator": "Alameda Health System", "phone": "+1 510 437 4800", "website": "https://www.alamedahealthsystem.org/", "wikidata": "Q5758843", "wikipedia": "en:Highland Hospital (Oakland, California)"}}, {"name": "Alta Bates Summit Medical Center - Summit Campus", "latitude": 37.8207593, "longitude": -122.2643458, "source": "osm", "_tags": {"addr:city": "Oakland", "addr:housenumber": "350", "addr:postcode": "94609", "addr:street": "Hawthorne Avenue", "amenity": "hospital", "beds": "354", "emergency": "yes", "healthcare": "hospital", "name": "Alta Bates Summit Medical Center - Summit Campus", "old_name": "Summit Medical Center", "opening_hours": "24/7", "operator": "Sutter Health", "operator:type": "private", "operator:website": "https://www.sutterhealth.org/", "operator:wikidata": "Q7650154", "operator:wikipedia": "en:Sutter Health", "phone": "+1 510 655 4000", "website": "http://www.altabatessummit.org/"}}, {"name": "IQ Laser Vision & ScottHyver Visioncare", "latitude": 37.7012726, "longitude": -122.4701474, "source": "osm", "_tags": {"addr:city": "Daly City", "addr:full": "2001 Junipero Serra Blvd #161, Daly City, CA 94014, United States", "addr:housenumber": "2001", "addr:postcode": "94014", "addr:state": "CA", "addr:street": "Junipero Serra Boulevard", "addr:unit": "#161", "amenity": "hospital", "building": "yes", "building:levels": "9", "healthcare": "hospital", "healthcare:speciality": "ophthalmology", "name": "IQ Laser Vision & ScottHyver Visioncare", "operator": "Scott Hyver", "operator:type": "public", "phone": "800-454-2747", "website": "https://www.scotthyver.com/daly-city/"}}, {"name": "Cordilleras Mental Health Center", "latitude": 37.4735507, "longitude": -122.286096, "source": "osm", "_tags": {"addr:city": "Redwood City", "addr:housenumber": "200", "addr:postcode": "94062", "addr:street": "Edmonds Road", "amenity": "hospital", "emergency": "no", "gnis:feature_id": "1658211", "healthcare": "hospital", "healthcare:speciality": "psychiatry", "name": "Cordilleras Mental Health Center", "opening_hours": "24/7", "phone": "+1 650 367 1890", "website": "https://www.telecarecorp.com/cordilleras-mental-health-services/"}}, {"name": "Oakland Medical Center", "latitude": 37.8244811, "longitude": -122.2579905, "source": "osm", "_tags": {"addr:city": "Oakland", "addr:housenumber": "3600", "addr:postcode": "94611", "addr:street": "Broadway", "alt_name": "Kaiser Oakland", "amenity": "hospital", "beds": "365", "emergency": "yes", "healthcare": "hospital", "name": "Oakland Medical Center", "opening_hours": "24/7", "operator": "Kaiser Permanente", "operator:short": "KP", "operator:website": "https://healthy.kaiserpermanente.org/", "operator:wikidata": "Q1721601", "operator:wikipedia": "en:Kaiser Permanente", "phone": "+1 510 752 1000", "source": "bing & medical center map", "website": "https://mydoctor.kaiserpermanente.org/ncal/facilities/region/eastbay/area_master/about_us/oakland/", "wikidata": "Q7074025", "wikipedia": "en:Kaiser Oakland Medical Center"}}, {"name": "CPMC Davies Campus", "latitude": 37.7682569, "longitude": -122.4346212, "source": "osm", "_tags": {"addr:city": "San Francisco", "addr:country": "US", "addr:housenumber": "45", "addr:postcode": "94114", "addr:state": "CA", "addr:street": "Castro Street", "amenity": "hospital", "check_date": "2024-12-26", "emergency": "yes", "gnis:feature_id": "1656833", "healthcare": "hospital", "name": "CPMC Davies Campus", "opening_hours": "24/7", "operator": "California Pacific Medical Center", "phone": "+1 415 600 6000", "website": "http://www.cpmc.org/"}}, {"name": "Saint Mary's Medical Center", "latitude": 37.7739399, "longitude": -122.4536158, "source": "osm", "_tags": {"addr:city": "San Francisco", "addr:country": "US", "addr:housenumber": "450", "addr:postcode": "94117", "addr:state": "CA", "addr:street": "Stanyan Street", "amenity": "hospital", "beds": "159", "check_date": "2024-10-20", "emergency": "yes", "gnis:feature_id": "1656868", "healthcare": "hospital", "name": "Saint Mary's Medical Center", "opening_hours": "24/7", "operator": "Dignity Health", "operator:wikidata": "Q5276334", "phone": "+1 877 507 1759", "website": "https://www.dignityhealth.org/bayarea/locations/stmarys", "wheelchair": "yes", "wikidata": "Q7590353", "wikipedia": "en:St. Mary's Medical Center (San Francisco)"}}, {"name": "Chinese Hospital", "latitude": 37.7954771, "longitude": -122.4090035, "source": "osm", "_tags": {"addr:city": "San Francisco", "addr:country": "US", "addr:housenumber": "845", "addr:postcode": "94133", "addr:state": "CA", "addr:street": "Jackson Street", "amenity": "hospital", "beds": "65", "emergency": "yes", "fax": "+1 415 217 4188", "gnis:feature_id": "1655354", "healthcare": "hospital", "name": "Chinese Hospital", "opening_hours": "24/7", "phone": "+1 415 982 2400", "url": "http://www.chinesehospital-sf.org/", "website": "http://www.chinesehospital-sf.org/", "wikidata": "Q7413971"}}, {"name": "California Pacific Medical Center", "latitude": 37.7906634, "longitude": -122.4322447, "source": "osm", "_tags": {"addr:city": "San Francisco", "addr:country": "US", "addr:housenumber": "2333", "addr:postcode": "94115", "addr:state": "CA", "addr:street": "Buchanan Street", "amenity": "hospital", "emergency": "yes", "healthcare": "hospital", "name": "California Pacific Medical Center", "opening_hours": "24/7", "operator": "Sutter Health", "operator:website": "https://www.sutterhealth.org/", "operator:wikidata": "Q7650154", "operator:wikipedia": "en:Sutter Health", "phone": "+1 415 600 6000", "website": "http://www.cpmc.org/", "wikidata": "Q5020739", "wikipedia": "en:California Pacific Medical Center"}}, {"name": "CPMC Saint Luke's Campus", "latitude": 37.7472485, "longitude": -122.4210918, "source": "osm", "_tags": {"addr:city": "San Francisco", "addr:country": "US", "addr:housenumber": "3555", "addr:postcode": "94110", "addr:state": "CA", "addr:street": "Cesar Chavez Street", "amenity": "hospital", "beds": "120", "emergency": "yes", "gnis:feature_id": "1656867", "healthcare": "hospital", "name": "CPMC Saint Luke's Campus", "opening_hours": "24/7", "operator": "California Pacific Medical Center", "phone": "+1 415 647 8600", "website": "http://www.cpmc.org/about/stluke.html"}}, {"name": "Saint Francis Memorial Hospital", "latitude": 37.7896083, "longitude": -122.4168672, "source": "osm", "_tags": {"addr:city": "San Francisco", "addr:country": "US", "addr:housenumber": "900", "addr:postcode": "94109", "addr:state": "CA", "addr:street": "Hyde Street", "amenity": "hospital", "beds": "211", "emergency": "yes", "gnis:feature_id": "1656855", "healthcare": "hospital", "name": "Saint Francis Memorial Hospital", "opening_hours": "24/7", "operator": "Dignity Health", "operator:type": "private", "operator:wikidata": "Q5276334", "operator:wikipedia": "en:Dignity Health", "phone": "+1 415 353 6000", "website": "https://www.dignityhealth.org/bayarea/locations/saintfrancis", "wikidata": "Q7401259", "wikipedia": "en:Saint Francis Memorial Hospital"}}, {"name": "CPMC California Campus", "latitude": 37.7865654, "longitude": -122.4559321, "source": "osm", "_tags": {"addr:city": "San Francisco", "addr:country": "US", "addr:postcode": "94118", "addr:state": "CA", "amenity": "hospital", "emergency": "yes", "healthcare": "hospital", "name": "CPMC California Campus", "opening_hours": "24/7", "operator": "Sutter Health", "operator:website": "https://www.sutterhealth.org/", "operator:wikidata": "Q7650154", "operator:wikipedia": "en:Sutter Health", "phone": "+1 415 600 6000", "website": "http://www.cpmc.org/", "wheelchair": "yes"}}, {"name": "Kaiser Permanente Medical Center Geary Campus", "latitude": 37.7828588, "longitude": -122.4418781, "source": "osm", "_tags": {"addr:city": "San Francisco", "addr:country": "US", "addr:housenumber": "2425", "addr:postcode": "94115", "addr:state": "CA", "addr:street": "Geary Boulevard", "amenity": "hospital", "beds": "239", "emergency": "yes", "gnis:feature_id": "1655671", "healthcare": "hospital", "healthcare:speciality": "emergency;anesthesiology;labor_and_delivery;nuclear;radiology", "name": "Kaiser Permanente Medical Center Geary Campus", "opening_hours": "24/7", "operator": "Kaiser Permanente", "operator:short": "KP", "operator:type": "private_non_profit", "operator:website": "https://healthy.kaiserpermanente.org/", "operator:wikidata": "Q1721601", "operator:wikipedia": "en:Kaiser Permanente", "phone": "+1 415 833 2000", "website": "https://thrive.kaiserpermanente.org/care-near-you/northern-california/sanfrancisco/locations/hospital-2/", "wheelchair": "yes"}}, {"name": "UCSF Mount Zion Campus", "latitude": 37.7848676, "longitude": -122.4393802, "source": "osm", "_tags": {"addr:city": "San Francisco", "addr:housenumber": "1600", "addr:postcode": "94115", "addr:street": "Divisadero Street", "alt_name": "UCSF Medical Center at Mount Zion", "amenity": "hospital", "check_date": "2025-09-05", "emergency": "no", "healthcare": "hospital", "name": "UCSF Mount Zion Campus", "operator": "University of California, San Francisco", "phone": "+1 415 567 6600", "website": "https://mountzion.ucsfmedicalcenter.org/", "wheelchair": "yes"}}, {"name": "Laguna Honda Hospital And Rehabilitation Center", "latitude": 37.7492051, "longitude": -122.4573186, "source": "osm", "_tags": {"addr:city": "San Francisco", "addr:country": "US", "addr:housenumber": "375", "addr:postcode": "94116", "addr:state": "CA", "addr:street": "Laguna Honda Boulevard", "amenity": "hospital", "beds": "780", "ele": "152", "emergency": "no", "healthcare": "hospital", "name": "Laguna Honda Hospital And Rehabilitation Center", "phone": "415-759-2300", "url": "http://lagunahonda.org", "wikidata": "Q124134532", "wikimedia_commons": "Category:Laguna Honda Hospital and Rehabilitation Center", "wikipedia": "en:Laguna Honda Hospital"}}, {"name": "Sutter Solano Medical Center", "latitude": 38.1311841, "longitude": -122.2383367, "source": "osm", "_tags": {"addr:city": "Vallejo", "addr:housenumber": "300", "addr:postcode": "94589", "addr:state": "CA", "addr:street": "Hospital Drive", "amenity": "hospital", "beds": "102", "emergency": "yes", "gnis:feature_id": "1800105", "healthcare": "hospital", "name": "Sutter Solano Medical Center", "opening_hours": "24/7", "operator": "Sutter Health", "operator:type": "private", "operator:website": "https://www.sutterhealth.org/", "operator:wikidata": "Q7650154", "operator:wikipedia": "en:Sutter Health", "phone": "+1 707 554 4444", "website": "https://www.sutterhealth.org/ssmc"}}, {"name": "Kaiser Permanente Vallejo Hospital & Medical Offices", "latitude": 38.1266763, "longitude": -122.2473943, "source": "osm", "_tags": {"addr:city": "Vallejo", "addr:housenumber": "975", "addr:postcode": "94589", "addr:state": "CA", "addr:street": "Sereno Drive", "amenity": "hospital", "beds": "248", "emergency": "yes", "healthcare": "hospital", "name": "Kaiser Permanente Vallejo Hospital & Medical Offices", "opening_hours": "24/7", "operator": "Kaiser Permanente", "operator:short": "KP", "operator:type": "private", "operator:website": "https://healthy.kaiserpermanente.org/", "operator:wikidata": "Q1721601", "operator:wikipedia": "en:Kaiser Permanente", "phone": "+1 707 651 1000", "website": "https://thrive.kaiserpermanente.org/care-near-you/northern-california/napasolano/locations/vallejo-hospital-medical-offices/"}}, {"name": "Alta Bates Summit Medical Center - Alta Bates Campus", "latitude": 37.8554582, "longitude": -122.2576518, "source": "osm", "_tags": {"addr:city": "Berkeley", "addr:housenumber": "2450", "addr:postcode": "94705", "addr:street": "Ashby Avenue", "alt_name": "Alta Bates Hospital;Alta Bates Medical Center", "amenity": "hospital", "beds": "401", "emergency": "yes", "gnis:feature_id": "1675994", "healthcare": "hospital", "name": "Alta Bates Summit Medical Center - Alta Bates Campus", "opening_hours": "24/7", "operator": "Sutter Health", "operator:website": "https://www.sutterhealth.org/", "operator:wikidata": "Q7650154", "operator:wikipedia": "en:Sutter Health", "phone": "+1 510 204 4444", "website": "https://www.sutterhealth.org/find-location/facility/alta-bates-summit-medical-center-alta-bates-campus", "wheelchair": "yes"}}, {"name": "Kaiser Permanente Richmond Medical Center", "latitude": 37.9370449, "longitude": -122.3609568, "source": "osm", "_tags": {"addr:city": "Richmond", "addr:country": "US", "addr:housenumber": "901", "addr:postcode": "94801", "addr:state": "CA", "addr:street": "Nevin Avenue", "amenity": "hospital", "emergency": "yes", "healthcare": "hospital", "name": "Kaiser Permanente Richmond Medical Center", "opening_hours": "24/7", "operator": "Kaiser Permanente", "operator:short": "KP", "operator:type": "private", "operator:website": "https://healthy.kaiserpermanente.org/", "operator:wikidata": "Q1721601", "operator:wikipedia": "en:Kaiser Permanente", "phone": "+1 510 307 1555", "website": "https://thrive.kaiserpermanente.org/care-near-you/northern-california/eastbay/locations/richmond-medical-center/", "wikidata": "Q7330915"}}, {"name": "Alameda Hospital", "latitude": 37.7625985, "longitude": -122.2539513, "source": "osm", "_tags": {"addr:city": "Alameda", "addr:housenumber": "2070", "addr:postcode": "94501", "addr:street": "Clinton Avenue", "amenity": "hospital", "beds": "215", "emergency": "yes", "gnis:feature_id": "1670844", "healthcare": "hospital", "name": "Alameda Hospital", "opening_hours": "24/7", "operator": "Alameda Health System", "phone": "+1 510 522 3700", "website": "https://www.alamedahealthsystem.org/", "wikidata": "Q4705871", "wikipedia": "en:Alameda Hospital"}}, {"name": "San Mateo Medical Center", "latitude": 37.530899, "longitude": -122.3002084, "source": "osm", "_tags": {"addr:city": "San Mateo", "addr:housenumber": "222", "addr:postcode": "94403", "addr:street": "West 39th Avenue", "amenity": "hospital", "beds": "509", "emergency": "yes", "healthcare": "hospital", "name": "San Mateo Medical Center", "opening_hours": "24/7", "operator": "San Mateo County", "phone": "+1 650 573 2222", "source": "Tiger2009", "website": "https://www.smchealth.org/san-mateo-medical-center"}}, {"name": "CPMC Van Ness Campus", "latitude": 37.7860517, "longitude": -122.4223676, "source": "osm", "_tags": {"addr:city": "San Francisco", "addr:housenumber": "1101", "addr:postcode": "94109", "addr:state": "CA", "addr:street": "Van Ness Avenue", "amenity": "hospital", "building": "yes", "check_date": "2022-06-06", "contact:facebook": "SutterHealth", "contact:instagram": "sutterhealth", "contact:twitter": "SutterHealth", "emergency": "yes", "healthcare": "hospital", "name": "CPMC Van Ness Campus", "opening_hours": "24/7", "operator": "Sutter Health", "operator:type": "private", "operator:website": "https://www.sutterhealth.org/", "operator:wikidata": "Q7650154", "operator:wikipedia": "en:Sutter Health", "phone": "+1 415 6006000", "website": "https://www.sutterhealth.org/find-location/facility/cpmc-van-ness-campus", "wheelchair": "yes"}}, {"name": "Santa Rosa Memorial Hospital", "latitude": 38.4437331, "longitude": -122.7009092, "source": "osm", "_tags": {"addr:city": "Santa Rosa", "addr:housenumber": "1165", "addr:postcode": "95405", "addr:state": "CA", "addr:street": "Montgomery Drive", "amenity": "hospital", "beds": "338", "emergency": "yes", "gnis:feature_id": "1799489", "healthcare": "hospital", "name": "Santa Rosa Memorial Hospital", "opening_hours": "24/7", "operator": "Saint Joseph Health", "phone": "+1 707 525 5300", "website": "https://www.stjoesonoma.org/", "wikidata": "Q7419902", "wikipedia": "en:Santa Rosa Memorial Hospital"}}, {"name": "Kaiser Permanente Santa Rosa Medical Center", "latitude": 38.4717507, "longitude": -122.7264787, "source": "osm", "_tags": {"addr:city": "Santa Rosa", "addr:housenumber": "401", "addr:postcode": "95403", "addr:state": "CA", "addr:street": "Bicentennial Way", "amenity": "hospital", "beds": "173", "emergency": "yes", "gnis:feature_id": "1799509", "healthcare": "hospital", "name": "Kaiser Permanente Santa Rosa Medical Center", "opening_hours": "24/7", "operator": "Kaiser Permanente", "operator:short": "KP", "operator:type": "private", "operator:website": "https://healthy.kaiserpermanente.org/", "operator:wikidata": "Q1721601", "operator:wikipedia": "en:Kaiser Permanente", "website": "https://thrive.kaiserpermanente.org/care-near-you/northern-california/santarosa/locations/santa-rosa/"}}, {"name": "", "latitude": 38.2548092, "longitude": -122.6318357, "source": "osm", "_tags": {"amenity": "hospital", "building": "hospital", "healthcare": "hospital", "layer": "1"}}, {"name": "Mills Health Center", "latitude": 37.5651332, "longitude": -122.3262487, "source": "osm", "_tags": {"addr:city": "San Mateo", "addr:housenumber": "100", "addr:postcode": "94401", "addr:state": "CA", "addr:street": "South San Mateo Drive", "amenity": "hospital", "emergency": "no", "gnis:feature_id": "1659134", "healthcare": "hospital", "name": "Mills Health Center", "phone": "650 696-5400"}}, {"name": "Marin Health Medical Center", "latitude": 37.9475822, "longitude": -122.5357287, "source": "osm", "_tags": {"addr:city": "Greenbrae", "addr:housenumber": "250", "addr:postcode": "94904", "addr:street": "Bon Air Road", "amenity": "hospital", "beds": "235", "emergency": "yes", "healthcare": "hospital", "name": "Marin Health Medical Center", "opening_hours": "24/7", "phone": "+1 415 925 7000", "website": "https://www.maringeneral.org/"}}, {"name": "Mills-Peninsula Medical Center", "latitude": 37.5920659, "longitude": -122.3837085, "source": "osm", "_tags": {"addr:city": "Burlingame", "addr:housenumber": "1501", "addr:postcode": "94010", "addr:state": "CA", "addr:street": "Trousdale Drive", "amenity": "hospital", "beds": "241", "emergency": "yes", "healthcare": "hospital", "name": "Mills-Peninsula Medical Center", "opening_hours": "24/7", "operator": "Sutter Health", "operator:type": "private", "operator:website": "https://www.sutterhealth.org/", "operator:wikidata": "Q7650154", "operator:wikipedia": "en:Sutter Health", "phone": "+1 650 696 5400", "website": "http://www.mills-peninsula.org/"}}, {"name": "Adventist Health Clear Lake Medical Office - Clearlake, Live Well Program", "latitude": 38.9504831, "longitude": -122.6287423, "source": "osm", "_tags": {"addr:city": "Clearlake", "addr:housenumber": "15230", "addr:postcode": "95422", "addr:state": "CA", "addr:street": "Lakeshore Drive", "addr:unit": "102", "amenity": "hospital", "building": "yes", "fax": "+17079954546", "healthcare": "hospital", "healthcare:speciality": "psychiatry;dentistry;vaccination;chiropractic", "image": "https://www.adventisthealth.org/cms/thumbnails/00/1100x506/images/locations/new%20clinic%20photos/AH-Clearlake-RHC-15230-Lakeshore-Dr.jpg", "name": "Adventist Health Clear Lake Medical Office - Clearlake, Live Well Program", "opening_hours": "Mo-Fr 08:00-18:00; PH off", "operator": "Adventist Health", "operator:wikidata": "Q4686452", "operator:wikipedia": "en:Adventist Health", "phone": "+17079954545", "website": "https://www.adventisthealth.org/locations/adventist-health-clear-lake-medical-office-clear2/"}}, {"name": "Queen of the Valley Medical Center", "latitude": 38.3252983, "longitude": -122.2965806, "source": "osm", "_tags": {"addr:city": "Napa", "addr:housenumber": "1000", "addr:postcode": "95678", "addr:state": "CA", "addr:street": "Trancas Street", "amenity": "hospital", "beds": "208", "denomination": "roman_catholic", "emergency": "yes", "gnis:feature_id": "1800229", "healthcare": "hospital", "name": "Queen of the Valley Medical Center", "opening_hours": "24/7", "operator": "Saint Joseph Health", "phone": "+1 707 252 4411", "religion": "christian", "website": "https://www.thequeen.org/", "wikidata": "Q7270683", "wikipedia": "en:Queen of the Valley Medical Center"}}, {"name": "Kaiser Permanente Redwood City Medical Center", "latitude": 37.4892388, "longitude": -122.224299, "source": "osm", "_tags": {"addr:city": "Redwood City", "addr:housenumber": "1100", "addr:postcode": "94063", "addr:state": "CA", "addr:street": "Veterans Blvd", "amenity": "hospital", "building": "hospital", "building:levels": "7", "emergency": "yes", "healthcare": "hospital", "name": "Kaiser Permanente Redwood City Medical Center", "operator": "Kaiser Permanente", "operator:short": "KP", "operator:type": "private", "operator:website": "https://healthy.kaiserpermanente.org/", "operator:wikidata": "Q1721601", "operator:wikipedia": "en:Kaiser Permanente", "phone": "+1 650 299 2000"}}, {"name": "Adventist Health Clear Lake", "latitude": 38.9351312, "longitude": -122.6199421, "source": "osm", "_tags": {"addr:city": "Clearlake", "addr:housenumber": "15630", "addr:postcode": "95422", "addr:state": "CA", "addr:street": "18th Avenue", "amenity": "hospital", "beds": "25", "emergency": "yes", "gnis:feature_id": "1766144", "healthcare": "hospital", "name": "Adventist Health Clear Lake", "old_name": "Saint Helena Hospital Clearlake", "opening_hours": "24/7", "operator": "Adventist Health", "operator:wikidata": "Q4686452", "phone": "+1 707 994 6486", "website": "https://www.adventisthealth.org/clear-lake/", "wikidata": "Q3145236", "wikipedia": "en:St. Helena Hospital Clearlake"}}, {"name": "Healdsburg District Hospital", "latitude": 38.6270611, "longitude": -122.8652626, "source": "osm", "_tags": {"addr:city": "Healdsburg", "addr:housenumber": "1375", "addr:postcode": "95448", "addr:state": "CA", "addr:street": "University Avenue", "amenity": "hospital", "beds": "43", "emergency": "yes", "gnis:feature_id": "1799156", "healthcare": "hospital", "name": "Healdsburg District Hospital", "opening_hours": "24/7", "operator": "North Sonoma County Healthcare District", "phone": "+1 707 431 6500", "short_name": "HDH", "website": "https://healdsburgdistricthospital.org/"}}, {"name": "Adventist Health Saint Helena", "latitude": 38.5419852, "longitude": -122.4745104, "source": "osm", "_tags": {"addr:city": "Saint Helena", "addr:housenumber": "10", "addr:postcode": "94574", "addr:street": "Woodland Road", "amenity": "hospital", "beds": "151", "emergency": "yes", "gnis:feature_id": "1659569", "healthcare": "hospital", "name": "Adventist Health Saint Helena", "old_name": "Saint Helena Hospital and Health Center", "opening_hours": "24/7", "operator": "Adventist Health", "phone": "+1 707 963 3611", "website": "https://www.adventisthealth.org/sthelena", "wikidata": "Q3145294", "wikipedia": "fr:Hôpital de St. Helena"}}, {"name": "Sutter Santa Rosa Regional Hospital", "latitude": 38.4946257, "longitude": -122.7520027, "source": "osm", "_tags": {"addr:city": "Santa Rosa", "addr:housenumber": "30", "addr:postcode": "95403", "addr:state": "CA", "addr:street": "Mark West Springs Road", "amenity": "hospital", "beds": "84", "emergency": "yes", "healthcare": "hospital", "name": "Sutter Santa Rosa Regional Hospital", "opening_hours": "24/7", "operator": "Sutter Health", "operator:website": "https://www.sutterhealth.org/", "operator:wikidata": "Q7650154", "operator:wikipedia": "en:Sutter Health", "phone": "+1 707 576 4000", "website": "https://www.sutterhealth.org/ssrrh"}}, {"name": "Sonoma West Medical Center", "latitude": 38.3972399, "longitude": -122.8193474, "source": "osm", "_tags": {"addr:city": "Sebastopol", "addr:housenumber": "501", "addr:postcode": "95472", "addr:state": "CA", "addr:street": "Petaluma Avenue", "amenity": "hospital", "beds": "37", "emergency": "yes", "gnis:feature_id": "1799384", "healthcare": "hospital", "name": "Sonoma West Medical Center", "opening_hours": "24/7", "phone": "+1 707 823 8511", "website": "http://sonomawestmedicalcenter.com/"}}, {"name": "Petaluma Valley Hospital", "latitude": 38.2545664, "longitude": -122.6318574, "source": "osm", "_tags": {"addr:city": "Petaluma", "addr:housenumber": "400", "addr:postcode": "94954", "addr:state": "CA", "addr:street": "North McDowell Boulevard", "amenity": "hospital", "beds": "80", "emergency": "yes", "gnis:feature_id": "1799693", "healthcare": "hospital", "name": "Petaluma Valley Hospital", "opening_hours": "24/7", "operator": "Saint Joseph Health", "phone": "+1 707 778 1111", "website": "https://www.stjoesonoma.org/contact-us/locations-and-directions/petaluma-valley-hospital/"}}, {"name": "Sonoma Valley Hospital", "latitude": 38.2881077, "longitude": -122.4653592, "source": "osm", "_tags": {"addr:city": "Sonoma", "addr:housenumber": "347", "addr:postcode": "95476", "addr:state": "CA", "addr:street": "Andrieux Street", "amenity": "hospital", "beds": "51", "emergency": "yes", "gnis:feature_id": "1799707", "healthcare": "hospital", "name": "Sonoma Valley Hospital", "opening_hours": "24/7", "operator": "Sonoma Valley Health Care District", "phone": "+1 707 935 5000", "short_name": "SVH", "website": "https://www.svh.com/", "wikidata": "Q41471", "wikipedia": "en:Sonoma Valley Hospital"}}, {"name": "Novato Community Hospital", "latitude": 38.0987785, "longitude": -122.5603002, "source": "osm", "_tags": {"addr:city": "Novato", "addr:housenumber": "4", "addr:postcode": "94945", "addr:state": "CA", "addr:street": "Rowland Way", "amenity": "hospital", "emergency": "yes", "healthcare": "hospital", "name": "Novato Community Hospital", "opening_hours": "24/7", "operator": "Sutter Health", "operator:website": "https://www.sutterhealth.org/", "operator:wikidata": "Q7650154", "operator:wikipedia": "en:Sutter Health", "phone": "+1 415 897 3111", "website": "https://www.sutterhealth.org/find-location/facility/novato-community-hospital"}}, {"name": "Kaiser Permanente San Rafael Medical Center", "latitude": 38.004505, "longitude": -122.5544845, "source": "osm", "_tags": {"addr:city": "San Rafael", "addr:housenumber": "99", "addr:postcode": "94903", "addr:state": "CA", "addr:street": "Montecillo Road", "amenity": "hospital", "beds": "116", "emergency": "yes", "gnis:feature_id": "1800749", "healthcare": "hospital", "name": "Kaiser Permanente San Rafael Medical Center", "opening_hours": "24/7", "operator": "Kaiser Permanente", "operator:short": "KP", "operator:type": "private", "operator:website": "https://healthy.kaiserpermanente.org/", "operator:wikidata": "Q1721601", "operator:wikipedia": "en:Kaiser Permanente", "phone": "+1 415 444 2000", "website": "https://thrive.kaiserpermanente.org/care-near-you/northern-california/sanrafael/locations/san-rafael-medical-offices/"}}, {"name": "Seton Coastside Hospital", "latitude": 37.526393, "longitude": -122.5075423, "source": "osm", "_tags": {"addr:city": "Moss Beach", "addr:housenumber": "600", "addr:postcode": "94038", "addr:street": "Marine Boulevard", "amenity": "hospital", "beds": "116", "emergency": "yes", "gnis:feature_id": "1785830", "healthcare": "hospital", "name": "Seton Coastside Hospital", "opening_hours": "24/7", "operator": "Verity Health", "phone": "+1 650 563 7100", "website": "https://setoncoastside.verity.org/"}}, {"name": "Seton Medical Center", "latitude": 37.67939, "longitude": -122.4742787, "source": "osm", "_tags": {"addr:city": "Daly City", "addr:housenumber": "1900", "addr:postcode": "94015", "addr:street": "Sullivan Avenue", "amenity": "hospital", "beds": "434", "emergency": "yes", "gnis:feature_id": "1785729", "healthcare": "hospital", "name": "Seton Medical Center", "official_name": "AHMC Seton Medical Center", "opening_hours": "24/7", "operator": "AHMC Healthcare", "operator:type": "private", "phone": "+1 650-992-4000", "website": "https://www.ahmchealth.com/smc/", "wikidata": "Q7456803", "wikipedia": "en:Seton Medical Center"}}, {"name": "UCSF Medical Center at Mission Bay", "latitude": 37.7655773, "longitude": -122.3907516, "source": "osm", "_tags": {"addr:city": "San Francisco", "addr:housenumber": "1975", "addr:postcode": "94158", "addr:street": "4th Street", "amenity": "hospital", "emergency": "no", "healthcare": "hospital", "name": "UCSF Medical Center at Mission Bay", "operator": "University of California San Francisco", "website": "https://www.ucsfhealth.org/"}}, {"name": "Kaiser Mercury Way", "latitude": 38.4210761, "longitude": -122.7519976, "source": "osm", "_tags": {"addr:housenumber": "2240", "addr:state": "CA", "addr:street": "Mercury Way", "amenity": "hospital", "building": "yes", "healthcare": "hospital", "name": "Kaiser Mercury Way"}}, {"name": "Chinese Hospital Outpatient Center", "latitude": 37.6653587, "longitude": -122.4693682, "source": "osm", "_tags": {"addr:city": "Daly City", "addr:housenumber": "386", "addr:postcode": "94015", "addr:state": "CA", "addr:street": "Gellert Boulevard", "amenity": "hospital", "building": "yes", "healthcare": "hospital", "name": "Chinese Hospital Outpatient Center", "phone": "1-650-761-3500"}}, {"name": "Sonoma County Indian Health Project", "latitude": 38.4401502, "longitude": -122.7436644, "source": "osm", "_tags": {"amenity": "hospital", "healthcare": "hospital", "name": "Sonoma County Indian Health Project"}}, {"name": "Sonoma County Indian Health Project", "latitude": 38.4405352, "longitude": -122.7436513, "source": "osm", "_tags": {"amenity": "hospital", "building": "hospital", "healthcare": "hospital", "name": "Sonoma County Indian Health Project"}}, {"name": "Adventist Health Vallejo", "latitude": 38.1175678, "longitude": -122.249123, "source": "osm", "_tags": {"addr:city": "Vallejo", "addr:state": "CA", "amenity": "hospital", "beds": "61", "emergency": "no", "healthcare": "hospital", "healthcare:speciality": "psychiatry", "name": "Adventist Health Vallejo", "operator": "Adventist Health", "operator:wikidata": "Q4686452", "operator:wikipedia": "en:Adventist Health"}}, {"name": "Napa State Hospital", "latitude": 38.2668694, "longitude": -122.2393818, "source": "osm", "_tags": {"amenity": "hospital", "healthcare": "hospital", "name": "Napa State Hospital"}}, {"name": "Holderman Memorial Hospital", "latitude": 38.3897914, "longitude": -122.363425, "source": "osm", "_tags": {"amenity": "hospital", "healthcare": "hospital", "name": "Holderman Memorial Hospital", "website": "https://www.calvet.ca.gov/VetHomes/Pages/Yountville.aspx"}}, {"name": "U.S. Department of Veterans Affairs", "latitude": 38.1004298, "longitude": -122.2734132, "source": "osm", "_tags": {"addr:city": "Vallejo", "addr:housenumber": "900", "addr:state": "CA", "addr:street": "Walnut Avenue", "amenity": "hospital", "healthcare": "hospital", "healthcare:for": "veteran", "name": "U.S. Department of Veterans Affairs", "operator": "Veterans Health Administration", "operator:short": "VA", "operator:type": "government", "operator:wikidata": "Q6580225", "short_name": "VA", "website": "https://www.va.gov/northern-california-health-care/locations/mare-island-va-clinic/"}}, {"name": "Lake County Tribal Health Southshore Clinic", "latitude": 38.9624019, "longitude": -122.6408052, "source": "osm", "_tags": {"addr:city": "Clearlake", "addr:housenumber": "14440", "addr:postcode": "95422", "addr:state": "CA", "addr:street": "Olympic Drive", "amenity": "hospital", "healthcare": "hospital", "name": "Lake County Tribal Health Southshore Clinic"}}, {"name": "Jeannette Prandi Children's Center", "latitude": 38.0263133, "longitude": -122.5678909, "source": "osm", "_tags": {"amenity": "hospital", "healthcare": "hospital", "healthcare:speciality": "child_psychiatry", "name": "Jeannette Prandi Children's Center"}}, {"name": "Napa State Hospital", "latitude": 38.2780195, "longitude": -122.2670044, "source": "osm", "_tags": {"amenity": "hospital", "ele": "21", "emergency": "no", "gnis:feature_id": "1659203", "healthcare": "hospital", "name": "Napa State Hospital", "wikidata": "Q14683459"}}, {"name": "San Francisco VA Medical Center", "latitude": 37.7824568, "longitude": -122.505399, "source": "osm", "_tags": {"addr:city": "San Francisco", "addr:country": "US", "addr:housenumber": "4150", "addr:postcode": "94121-1545", "addr:state": "CA", "addr:street": "Clement Street", "amenity": "hospital", "emergency": "yes", "healthcare": "hospital", "healthcare:for": "veterans", "name": "San Francisco VA Medical Center", "opening_hours": "24/7", "operator": "Veterans Health Administration", "operator:short": "VA", "operator:wikidata": "Q6580225", "operator:wikipedia": "en:Veterans Health Administration", "phone": "+1 415 221 4810", "short_name": "VA", "type": "multipolygon", "website": "https://www.sanfrancisco.va.gov/", "wikidata": "Q7414132", "wikipedia": "en:San Francisco VA Medical Center"}}, {"name": "Alta Bates Summit Medical Center - Herrick Campus", "latitude": 37.8636401, "longitude": -122.270026, "source": "osm", "_tags": {"addr:city": "Berkeley", "addr:housenumber": "2001", "addr:postcode": "94704", "addr:state": "CA", "addr:street": "Dwight Way", "alt_name": "Herrick Hospital", "amenity": "hospital", "ele": "48", "emergency": "no", "gnis:feature_id": "1676016", "healthcare": "hospital", "name": "Alta Bates Summit Medical Center - Herrick Campus", "old_name": "Herrick Memorial Hospital", "operator": "Sutter Health", "operator:website": "https://www.sutterhealth.org/", "operator:wikidata": "Q7650154", "operator:wikipedia": "en:Sutter Health", "type": "multipolygon", "website": "https://www.sutterhealth.org/find-location/facility/alta-bates-summit-medical-center-herrick-campus", "wheelchair": "yes"}}]