[{"name": "Advanced Hearing & Balance", "latitude": 37.0876604, "longitude": -113.5703251, "source": "osm", "_tags": {"addr:city": "St. George", "addr:housenumber": "617", "addr:postcode": "84790", "addr:state": "UT", "addr:street": "Riverside Drive", "addr:unit": "102", "amenity": "hospital", "healthcare": "hospital", "healthcare:speciality": "otolaryngology;audiologist", "name": "Advanced Hearing & Balance", "operator": "Advanced Hearing & Balance"}}, {"name": "Intermountain St. George Regional Hospital - 400 East Campus", "latitude": 37.0988371, "longitude": -113.5759273, "source": "osm", "_tags": {"addr:city": "St. George", "addr:housenumber": "554", "addr:postcode": "84770", "addr:state": "UT", "addr:street": "South 400 East", "amenity": "hospital", "emergency": "no", "gnis:feature_id": "1435433", "healthcare": "hospital", "name": "Intermountain St. George Regional Hospital - 400 East Campus", "opening_hours": "24/7", "phone": "+1 435 688 4000", "website": "https://intermountainhealthcare.org/locations/dixie-regional-medical-center/"}}, {"name": "Beaver Valley Hospital", "latitude": 38.2891728, "longitude": -112.6440736, "source": "osm", "_tags": {"addr:city": "Beaver", "addr:housenumber": "1109", "addr:postcode": "84713", "addr:state": "UT", "addr:street": "North 100 West Street", "amenity": "hospital", "emergency": "yes", "healthcare": "hospital", "name": "Beaver Valley Hospital", "phone": "+1 435-438-7100", "website": "http://www.bvhospital.com/"}}, {"name": "Garfield Memorial Hospital", "latitude": 37.8264121, "longitude": -112.4269126, "source": "osm", "_tags": {"addr:city": "Panguitch", "addr:housenumber": "200", "addr:postcode": "84759", "addr:state": "UT", "addr:street": "North 400 East Street", "amenity": "hospital", "emergency": "yes", "gnis:feature_id": "1448426", "healthcare": "hospital", "name": "Garfield Memorial Hospital", "opening_hours": "24/7", "phone": "+1 435 676 8811", "website": "https://intermountainhealthcare.org/locations/garfield-memorial-hospital/", "wikidata": "Q5523086"}}, {"name": "Kane County Hospital", "latitude": 37.0544311, "longitude": -112.5295832, "source": "osm", "_tags": {"addr:city": "Kanab", "addr:housenumber": "355", "addr:postcode": "84741", "addr:state": "UT", "addr:street": "North Main Street", "amenity": "hospital", "emergency": "yes", "gnis:feature_id": "1435805", "healthcare": "hospital", "name": "Kane County Hospital", "opening_hours": "24/7", "phone": "+1 435 644 5811", "website": "https://kchosp.net/"}}, {"name": "Intermountain St. George Regional Hospital", "latitude": 37.098136, "longitude": -113.554623, "source": "osm", "_tags": {"addr:city": "Saint George", "addr:housenumber": "1380", "addr:postcode": "84790", "addr:state": "UT", "addr:street": "Medical Center Drive", "amenity": "hospital", "beds": "132", "emergency": "yes", "healthcare": "hospital", "name": "Intermountain St. George Regional Hospital", "opening_hours": "24/7", "operator": "Intermountain Healthcare", "operator:wikidata": "Q6047563", "operator:wikipedia": "en:Intermountain Healthcare", "phone": "+1 435 251 1000", "website": "https://intermountainhealthcare.org/locations/dixie-regional-medical-center/"}}, {"name": "Cedar City Hospital", "latitude": 37.6997396, "longitude": -113.0661539, "source": "osm", "_tags": {"addr:city": "Cedar City", "addr:housenumber": "1303", "addr:postcode": "84721", "addr:state": "UT", "addr:street": "North Main Street", "amenity": "hospital", "beds": "48", "emergency": "yes", "healthcare": "hospital", "name": "Cedar City Hospital", "old_name": "Valley View Medical Center", "opening_hours": "24/7", "phone": "+1 435 868 5000", "website": "https://intermountainhealthcare.org/locations/cedar-city-hospital/"}}, {"name": "Milford Valley Memorial Hospital", "latitude": 38.4070652, "longitude": -113.0090097, "source": "osm", "_tags": {"addr:city": "Milford", "addr:housenumber": "850", "addr:postcode": "84751", "addr:state": "UT", "addr:street": "North Main Street", "amenity": "hospital", "emergency": "no", "name": "Milford Valley Memorial Hospital", "phone": "+1 435 387 2411"}}, {"name": "Fillmore Community Hospital", "latitude": 38.9545523, "longitude": -112.3399756, "source": "osm", "_tags": {"addr:city": "Fillmore", "addr:housenumber": "647", "addr:postcode": "84631", "addr:state": "UT", "addr:street": "South Highway 99", "amenity": "hospital", "emergency": "yes", "gnis:feature_id": "1455274", "healthcare": "hospital", "name": "Fillmore Community Hospital", "old_name": "Fillmore Community Medical Center", "opening_hours": "24/7", "phone": "+1 435 743 5591", "website": "https://intermountainhealthcare.org/locations/fillmore-community-hospital/"}}, {"name": "", "latitude": 38.2750824, "longitude": -112.6347587, "source": "osm", "_tags": {"amenity": "hospital", "building": "hospital", "gnis:feature_id": "1435096", "old_name": "Beaver Valley Hospital"}}]