[{"name": "Keefe Memorial Hospital", "latitude": 38.8261823, "longitude": -102.3549996, "source": "osm", "_tags": {"addr:city": "Cheyenne Wells", "addr:housenumber": "602", "addr:postcode": "80810", "addr:state": "CO", "addr:street": "North 6th Street West", "amenity": "hospital", "beds": "25", "emergency": "yes", "healthcare": "hospital", "name": "Keefe Memorial Hospital", "opening_hours": "24/7", "phone": "+1-719-767-5661", "source": "Bing", "website": "https://keefememorial.com/"}}, {"name": "Arkansas Valley Regional Medical Center", "latitude": 37.9777708, "longitude": -103.5495826, "source": "osm", "_tags": {"addr:city": "La Junta", "addr:housenumber": "1100", "addr:postcode": "81050", "addr:state": "CO", "addr:street": "Carson Avenue", "amenity": "hospital", "emergency": "yes", "gnis:feature_id": "2109769", "healthcare": "hospital", "name": "Arkansas Valley Regional Medical Center", "opening_hours": "24/7", "operator": "Community Hospital Corp", "phone": "+1 719 384 5412", "website": "https://www.avrmc.org/", "wikidata": "Q30625583"}}, {"name": "Prowers Medical Center", "latitude": 38.0700258, "longitude": -102.6109425, "source": "osm", "_tags": {"addr:city": "Lamar", "addr:housenumber": "401", "addr:postcode": "81052", "addr:state": "CO", "addr:street": "Kendall Drive", "amenity": "hospital", "beds": "25", "emergency": "yes", "healthcare": "hospital", "name": "Prowers Medical Center", "opening_hours": "24/7", "phone": "+1 719 336 4343", "website": "https://prowersmedical.com/"}}, {"name": "Weisbrod Memorial County Hospital", "latitude": 38.4804084, "longitude": -102.7848403, "source": "osm", "_tags": {"addr:city": "Eads", "addr:housenumber": "1208", "addr:postcode": "81036", "addr:state": "CO", "addr:street": "Luther Street", "amenity": "hospital", "beds": "25", "emergency": "yes", "healthcare": "hospital", "name": "Weisbrod Memorial County Hospital", "opening_hours": "24/7", "operator": "Kiowa County Hospital District", "phone": "+1 719 438 5401", "website": "https://www.kchd.org/"}}, {"name": "Southeast Colorado Hospital", "latitude": 37.4046657, "longitude": -102.6123101, "source": "osm", "_tags": {"addr:city": "Springfield", "addr:housenumber": "373", "addr:postcode": "81073", "addr:state": "CO", "addr:street": "East 10th Avenue", "amenity": "hospital", "beds": "23", "emergency": "yes", "healthcare": "hospital", "name": "Southeast Colorado Hospital", "opening_hours": "24/7", "operator": "Southeast Colorado Hospital District", "phone": "+1 719 523 4501", "website": "https://www.sechosp.org/", "wikidata": "Q65082806"}}]