[{"name": "Larned State Hospital", "latitude": 38.1737283, "longitude": -99.1482343, "source": "osm", "_tags": {"addr:city": "Larned", "addr:housenumber": "1301", "addr:postcode": "67550", "addr:state": "KS", "addr:street": "Highway 264", "amenity": "hospital", "emergency": "no", "gnis:feature_id": "475848", "healthcare": "hospital", "healthcare:speciality": "psychiatry", "name": "Larned State Hospital", "phone": "+1-620-285-2131", "short_name": "LSH", "website": "https://www.kdads.ks.gov/state-hospitals-and-institutions/larned-state-hospital"}}, {"name": "Hodgeman County Health Center", "latitude": 38.0833636, "longitude": -99.9034207, "source": "osm", "_tags": {"addr:city": "Jetmore", "addr:housenumber": "809", "addr:postcode": "67854", "addr:state": "KS", "addr:street": "West Bramley Street", "amenity": "hospital", "email": "hchcinfo@hchonline.org", "emergency": "yes", "fax": "+1 620 357 6120", "name": "Hodgeman County Health Center", "phone": "+1-620-357-8361", "website": "https://hchconline.org/"}}, {"name": "Ellsworth County Medical Center", "latitude": 38.7426893, "longitude": -98.219668, "source": "osm", "_tags": {"addr:city": "Ellsworth", "addr:housenumber": "1604", "addr:postcode": "67439", "addr:street": "Aylward Avenue", "amenity": "hospital", "emergency": "yes", "healthcare": "hospital", "name": "Ellsworth County Medical Center", "phone": "+1-785-472-3111", "website": "https://www.ewmed.com/"}}, {"name": "Camber Hays - Children's Mental Health Hospital", "latitude": 38.8423619, "longitude": -99.2794923, "source": "osm", "_tags": {"addr:housenumber": "3000", "addr:postcode": "67601", "addr:street": "New Way Blvd.", "amenity": "hospital", "name": "Camber Hays - Children's Mental Health Hospital", "opening_hours": "24/7", "phone": "(913)-890-7468", "website": "https://www.cambermentalhealth.org/locations/hays/"}}, {"name": "Kiowa County Memorial Hospital", "latitude": 37.6056412, "longitude": -99.3016314, "source": "osm", "_tags": {"addr:city": "Greensburg", "addr:housenumber": "721", "addr:postcode": "67054", "addr:street": "West Kansas Avenue", "amenity": "hospital", "beds": "15", "emergency": "yes", "healthcare": "hospital", "name": "Kiowa County Memorial Hospital", "opening_hours": "24/7", "phone": "+1 620 723 3341", "website": "https://kcmh.net/"}}, {"name": "Western Plains Medical Complex", "latitude": 37.7863455, "longitude": -100.0171262, "source": "osm", "_tags": {"addr:city": "Dodge City", "addr:housenumber": "3001", "addr:postcode": "67801", "addr:street": "Avenue A", "amenity": "hospital", "emergency": "yes", "healthcare": "hospital", "name": "Western Plains Medical Complex", "opening_hours": "24/7", "phone": "+1 620 225 8400", "website": "https://www.westernplainsmc.com/"}}, {"name": "Hays Medical Center", "latitude": 38.8805471, "longitude": -99.2956126, "source": "osm", "_tags": {"addr:city": "Hays", "addr:housenumber": "2220", "addr:postcode": "67601", "addr:street": "Canterbury Drive", "amenity": "hospital", "emergency": "yes", "healthcare": "hospital", "name": "Hays Medical Center", "opening_hours": "24/7", "phone": "+1 855 429 7633", "website": "https://www.haysmed.com/"}}, {"name": "Great Bend Regional Hospital", "latitude": 38.3560091, "longitude": -98.7906364, "source": "osm", "_tags": {"addr:city": "Great Bend", "addr:housenumber": "514", "addr:postcode": "67530", "addr:street": "Cleveland Street", "amenity": "hospital", "emergency": "yes", "healthcare": "hospital", "name": "Great Bend Regional Hospital", "phone": "+1 620 792 8833", "website": "https://www.gbregional.com/"}}, {"name": "Pratt Regional Medical Center", "latitude": 37.6446772, "longitude": -98.7290696, "source": "osm", "_tags": {"addr:city": "Pratt", "addr:housenumber": "200", "addr:postcode": "67124", "addr:street": "Commodore Street", "amenity": "hospital", "beds": "69", "emergency": "yes", "healthcare": "hospital", "name": "Pratt Regional Medical Center", "opening_hours": "24/7", "phone": "+1 620 672 7451", "website": "https://www.prmc.org/"}}, {"name": "Stafford County Hospital", "latitude": 37.9565536, "longitude": -98.5954808, "source": "osm", "_tags": {"addr:city": "Stafford", "addr:housenumber": "501", "addr:postcode": "67578", "addr:state": "KS", "addr:street": "South Buckeye Street", "amenity": "hospital", "emergency": "yes", "healthcare": "hospital", "name": "Stafford County Hospital", "opening_hours": "24/7", "phone": "+1 620 234 5221"}}, {"name": "Grisell Memorial Hospital", "latitude": 38.6358582, "longitude": -99.9309017, "source": "osm", "_tags": {"addr:city": "Ransom", "addr:housenumber": "210", "addr:postcode": "67572", "addr:street": "South Vermont Avenue", "amenity": "hospital", "beds": "12", "emergency": "yes", "healthcare": "hospital", "name": "Grisell Memorial Hospital", "opening_hours": "24/7", "phone": "+1 785 731 2231", "website": "https://www.grisellmemorialhospital.org/"}}, {"name": "Ellinwood Hospital", "latitude": 38.3605347, "longitude": -98.580557, "source": "osm", "_tags": {"addr:city": "Ellinwood", "addr:housenumber": "605", "addr:postcode": "67526", "addr:street": "North Main Street", "amenity": "hospital", "beds": "25", "emergency": "yes", "healthcare": "hospital", "name": "Ellinwood Hospital", "opening_hours": "24/7", "phone": "+1 620 564 2548", "website": "https://www.ellinwooddistricthospital.org/"}}, {"name": "Ashland Health Center", "latitude": 37.1901504, "longitude": -99.7799701, "source": "osm", "_tags": {"addr:city": "Ashland", "addr:housenumber": "625", "addr:postcode": "67831", "addr:street": "Kentucky Street", "amenity": "hospital", "beds": "25", "emergency": "yes", "healthcare": "hospital", "name": "Ashland Health Center", "opening_hours": "24/7", "phone": "+1 620 635 2241", "website": "https://ashlandhealthcenter.com/"}}, {"name": "Comanche County Memorial Hospital", "latitude": 37.2681113, "longitude": -99.3327781, "source": "osm", "_tags": {"addr:city": "Coldwater", "addr:housenumber": "202", "addr:postcode": "67029", "addr:state": "KS", "addr:street": "South Frisco Avenue", "amenity": "hospital", "beds": "12", "emergency": "yes", "healthcare": "hospital", "name": "Comanche County Memorial Hospital", "opening_hours": "24/7", "phone": "+1 620 582 2144", "source": "esri_USDOT_Kansas", "website": "https://www.comanchecountyhospital.com"}}, {"name": "Edwards County Medical Center", "latitude": 37.9215528, "longitude": -99.4204304, "source": "osm", "_tags": {"addr:city": "Kinsley", "addr:housenumber": "620", "addr:postcode": "67547", "addr:street": "West 8th Street", "amenity": "hospital", "beds": "12", "emergency": "yes", "healthcare": "hospital", "name": "Edwards County Medical Center", "opening_hours": "24/7", "phone": "+1 620 659 3621", "website": "http://edcomed.com/"}}, {"name": "Rice County District Hospital", "latitude": 38.3412345, "longitude": -98.2167428, "source": "osm", "_tags": {"addr:city": "Lyons", "addr:housenumber": "619", "addr:postcode": "67554", "addr:street": "South Clark Avenue", "amenity": "hospital", "beds": "25", "emergency": "yes", "healthcare": "hospital", "name": "Rice County District Hospital", "opening_hours": "24/7", "phone": "+1 620 257 5173", "website": "http://ricecountyhospital.com/"}}, {"name": "Kiowa District Hospital", "latitude": 37.0076184, "longitude": -98.4887356, "source": "osm", "_tags": {"addr:city": "Kiowa", "addr:housenumber": "1002", "addr:postcode": "67070", "addr:street": "South 4th Street", "amenity": "hospital", "beds": "10", "emergency": "yes", "healthcare": "hospital", "name": "Kiowa District Hospital", "opening_hours": "24/7", "operator": "Kiowa District Healthcare", "phone": "+1 620 825 4131", "website": "http://www.k-d-h.com/"}}, {"name": "Medicine Lodge Memorial Hospital", "latitude": 37.2891327, "longitude": -98.5771572, "source": "osm", "_tags": {"addr:city": "Medicine Lodge", "addr:housenumber": "710", "addr:postcode": "67104", "addr:street": "North Walnut Street", "amenity": "hospital", "beds": "25", "emergency": "yes", "healthcare": "hospital", "name": "Medicine Lodge Memorial Hospital", "opening_hours": "24/7", "phone": "+1 620 886 3771", "short_name": "MLMH", "website": "https://www.mlmh.net/"}}, {"name": "Clara Barton Hospital", "latitude": 38.5223863, "longitude": -98.7784741, "source": "osm", "_tags": {"addr:city": "Hoisington", "addr:housenumber": "250", "addr:postcode": "67544", "addr:street": "West 9th Street", "amenity": "hospital", "beds": "23", "emergency": "yes", "healthcare": "hospital", "name": "Clara Barton Hospital", "opening_hours": "24/7", "phone": "+1 620 653 2114", "website": "https://clarabartonhospital.com/"}}, {"name": "Ness County Hospital", "latitude": 38.4580888, "longitude": -99.9016254, "source": "osm", "_tags": {"addr:city": "Ness City", "addr:housenumber": "312", "addr:postcode": "67560", "addr:street": "Custer Street", "amenity": "hospital", "beds": "25", "emergency": "yes", "healthcare": "hospital", "name": "Ness County Hospital", "opening_hours": "24/7", "phone": "+1 785 798 2291", "short_name": "NCH", "website": "https://www.nchospital.org/"}}, {"name": "Rush County Memorial Hospital", "latitude": 38.5306421, "longitude": -99.3172431, "source": "osm", "_tags": {"addr:city": "La Crosse", "addr:country": "US", "addr:housenumber": "801", "addr:postcode": "67548", "addr:street": "Locust Street", "amenity": "hospital", "beds": "25", "contact:phone": "+1 785 222 2545", "contact:website": "http://www.rushcountymemorialhospital.com/", "emergency": "yes", "healthcare": "hospital", "name": "Rush County Memorial Hospital", "opening_hours": "24/7"}}, {"name": "Pawnee Valley Hospital", "latitude": 38.1840287, "longitude": -99.1075507, "source": "osm", "_tags": {"addr:city": "Larned", "addr:housenumber": "923", "addr:postcode": "67550", "addr:state": "KS", "addr:street": "Carroll Avenue", "amenity": "hospital", "beds": "25", "emergency": "yes", "healthcare": "hospital", "name": "Pawnee Valley Hospital", "opening_hours": "24/7", "phone": "+1 785 285 3161", "website": "https://www.pawneevalleyhospital.com/"}}, {"name": "Russell Regional Hospital", "latitude": 38.8825751, "longitude": -98.8598406, "source": "osm", "_tags": {"addr:city": "Russell", "addr:housenumber": "200", "addr:postcode": "67665", "addr:street": "South Main Street", "amenity": "hospital", "beds": "25", "emergency": "yes", "healthcare": "hospital", "name": "Russell Regional Hospital", "opening_hours": "24/7", "phone": "+1 785 483 3131", "website": "https://www.russellhospital.org/"}}, {"name": "Minneola District Hospital", "latitude": 37.4415532, "longitude": -100.0134222, "source": "osm", "_tags": {"addr:city": "Minneola", "addr:housenumber": "212", "addr:postcode": "67865", "addr:street": "South Main Street", "amenity": "hospital", "beds": "19", "emergency": "yes", "healthcare": "hospital", "name": "Minneola District Hospital", "opening_hours": "24/7", "operator": "Minneola Health Care", "phone": "+1 620 885 4264", "website": "https://minneolahealth.com/"}}]