[{"name": "Saint Joseph's Behavioral Health Center", "latitude": 37.9767296, "longitude": -121.290909, "source": "osm", "_tags": {"addr:city": "Stockton", "addr:housenumber": "2510", "addr:postcode": "95204", "addr:street": "North California Street", "amenity": "hospital", "beds": "35", "emergency": "no", "gnis:feature_id": "1659272", "healthcare": "hospital", "healthcare:speciality": "psychiatry", "name": "Saint Joseph's Behavioral Health Center", "old_name": "Oak Park Community Hospital", "opening_hours": "24/7", "operator": "Dignity Health", "operator:wikidata": "Q5276334", "phone": "+1 209 948 2100", "website": "https://www.dignityhealth.org/central-california/locations/stjosephsbehavioral"}}, {"name": "Church of the Nazarene;Central Valley Specialty Hospital", "latitude": 37.6446526, "longitude": -120.9902115, "source": "osm", "_tags": {"addr:housenumber": "730", "addr:street": "17th Street", "amenity": "place_of_worship;hospital", "beds": "100", "ele": "28", "emergency": "no", "gnis:feature_id": "1816884;1816908", "healthcare": "hospital", "name": "Church of the Nazarene;Central Valley Specialty Hospital", "phone": "+1-209-248-7700", "religion": "christian", "website": "https://centralvalleyspecialty.org/"}}, {"name": "Health Services Agency of Stanislaus County", "latitude": 37.6461586, "longitude": -120.982332, "source": "osm", "_tags": {"amenity": "hospital", "ele": "24", "emergency": "no", "gnis:feature_id": "1816922", "healthcare": "hospital", "name": "Health Services Agency of Stanislaus County", "operator": "Stanislaus County"}}, {"name": "Shriners Hospitals for Children — Northern California", "latitude": 38.5529616, "longitude": -121.455231, "source": "osm", "_tags": {"addr:city": "Sacramento", "addr:housenumber": "2425", "addr:postcode": "95817", "addr:street": "Stockton Boulevard", "amenity": "hospital", "emergency": "no", "gnis:feature_id": "2061530", "healthcare": "hospital", "healthcare:speciality": "paediatrics", "name": "Shriners Hospitals for Children — Northern California", "operator": "Shriners Hospitals for Children", "operator:type": "ngo", "operator:wikidata": "Q7504109", "operator:wikipedia": "en:Shriners Hospitals for Children", "phone": "+1 916 453 2000", "website": "https://www.shrinershospitalsforchildren.org/sacramento", "wikidata": "Q50575530"}}, {"name": "Menlo Park Surgical Hospital", "latitude": 37.4615473, "longitude": -122.1590573, "source": "osm", "_tags": {"addr:city": "Menlo Park", "addr:housenumber": "570", "addr:postcode": "94025", "addr:street": "Willow Road", "amenity": "hospital", "beds": "16", "emergency": "no", "healthcare": "hospital", "healthcare:speciality": "surgery", "name": "Menlo Park Surgical Hospital", "opening_hours": "24/7", "operator": "Sutter Health", "operator:website": "https://www.sutterhealth.org/", "operator:wikidata": "Q7650154", "operator:wikipedia": "en:Sutter Health", "phone": "+1 650 324 8500", "website": "https://www.sutterhealth.org/find-location/facility/menlo-park-surgical-hospital"}}, {"name": "Kaiser Permanente", "latitude": 38.6442224, "longitude": -121.13514, "source": "osm", "_tags": {"amenity": "hospital", "emergency": "no", "healthcare": "hospital", "name": "Kaiser Permanente"}}, {"name": "UC Davis Comprehensive Cancer Center", "latitude": 38.5539253, "longitude": -121.452636, "source": "osm", "_tags": {"addr:city": "Sacramento", "addr:housenumber": "2279", "addr:postcode": "95817", "addr:street": "45th Street", "amenity": "hospital", "healthcare": "hospital", "healthcare:speciality": "oncology", "name": "UC Davis Comprehensive Cancer Center", "phone": "+1 916 734 5959", "website": "http://www.ucdmc.ucdavis.edu/cancer/"}}, {"name": "Valley Recovery Center of California", "latitude": 38.5751753, "longitude": -121.4143325, "source": "osm", "_tags": {"addr:city": "Sacramento", "addr:housenumber": "2221", "addr:postcode": "95825", "addr:state": "CA", "addr:street": "Fair Oaks Boulevard", "amenity": "hospital", "emergency": "no", "healthcare": "hospital", "name": "Valley Recovery Center of California", "operator": "Summit Behavioral Healthcare", "website": "https://valleyrecovery.com/"}}, {"name": "Kaiser Ambulatory Surgery Center", "latitude": 38.4692333, "longitude": -121.4237154, "source": "osm", "_tags": {"addr:city": "Sacramento", "addr:housenumber": "6600", "addr:postcode": "95823", "addr:state": "CA", "addr:street": "Bruceville Road", "amenity": "hospital", "emergency": "no", "healthcare": "hospital", "healthcare:speciality": "surgery", "name": "Kaiser Ambulatory Surgery Center", "operator": "Kaiser Permanente", "operator:short": "KP", "operator:website": "https://healthy.kaiserpermanente.org/", "operator:wikidata": "Q1721601", "operator:wikipedia": "en:Kaiser Permanente"}}, {"name": "", "latitude": 38.669576, "longitude": -121.3141295, "source": "osm", "_tags": {"amenity": "hospital", "healthcare": "hospital"}}, {"name": "Dublin Medical Offices and Cancer Center", "latitude": 37.7033003, "longitude": -121.858653, "source": "osm", "_tags": {"addr:city": "Dublin", "addr:housenumber": "3100", "addr:postcode": "94568", "addr:state": "CA", "addr:street": "Dublin Boulevard", "amenity": "hospital", "emergency": "no", "healthcare": "hospital", "healthcare:speciality": "urgent_care;surgery;pharmacy", "name": "Dublin Medical Offices and Cancer Center", "operator": "Kaiser Permanente", "operator:short": "KP", "operator:website": "https://healthy.kaiserpermanente.org/", "operator:wikidata": "Q1721601", "operator:wikipedia": "en:Kaiser Permanente", "phone": "+1-925-556-4200", "website": "https://thrive.kaiserpermanente.org/care-near-you/northern-california/diablo/locations/dublin-medical-offices/"}}, {"name": "San Jose Behavioral Health", "latitude": 37.2490347, "longitude": -121.774449, "source": "osm", "_tags": {"addr:city": "San Jose", "addr:housenumber": "455", "addr:postcode": "95138", "addr:state": "CA", "addr:street": "Silicon Valley Boulevard", "healthcare": "hospital", "healthcare:speciality": "psychiatry", "name": "San Jose Behavioral Health", "phone": "888 967-6562", "website": "https://www.sanjosebh.com/"}}, {"name": "Crestwood Psychiatric Health Facility - Carmichael", "latitude": 38.6334945, "longitude": -121.3545544, "source": "osm", "_tags": {"addr:city": "Carmichael", "addr:housenumber": "4741", "addr:postcode": "95608", "addr:state": "CA", "addr:street": "Engle Road", "amenity": "hospital", "beds": "16", "healthcare": "hospital", "healthcare:speciality": "psychiatry", "name": "Crestwood Psychiatric Health Facility - Carmichael", "website": "https://www.crestwoodbehavioralhealth.com"}}, {"name": "Telecare El Dorado County PHF", "latitude": 38.7328089, "longitude": -120.8020629, "source": "osm", "_tags": {"addr:city": "Placerville", "addr:housenumber": "935-B", "addr:postcode": "95667", "addr:street": "Spring Street", "amenity": "hospital", "beds": "16", "healthcare": "hospital", "healthcare:speciality": "psychiatry", "name": "Telecare El Dorado County PHF", "website": "https://www.telecarecorp.com/el-dorado-county-psychiatric-health-facility"}}, {"name": "Doctors Medical Center - Behavioral Health Department", "latitude": 37.665824, "longitude": -120.9222319, "source": "osm", "_tags": {"addr:city": "Modesto", "addr:housenumber": "1501", "addr:postcode": "95355-9711", "addr:street": "Claus Road", "amenity": "hospital", "beds": "67", "healthcare": "hospital", "healthcare:speciality": "psychiatry", "name": "Doctors Medical Center - Behavioral Health Department", "phone": "+1 209 557 6360", "website": "https://www.dmc-modesto.com/locations/detail/doctors-behavioral-health-center"}}, {"name": "Encompass Health Rehabilitation Hospital Of Modesto", "latitude": 37.6970277, "longitude": -120.9757853, "source": "osm", "_tags": {"addr:city": "Modesto", "addr:housenumber": "1303", "addr:postcode": "95355", "addr:street": "Mable Avenue", "amenity": "hospital", "beds": "50", "healthcare": "rehabilitation", "name": "Encompass Health Rehabilitation Hospital Of Modesto", "phone": "+1 209 857 3421"}}, {"name": "Sutter Center For Psychiatry", "latitude": 38.5499259, "longitude": -121.4146168, "source": "osm", "_tags": {"addr:city": "Sacramento", "addr:housenumber": "7700", "addr:postcode": "95826-2608", "addr:state": "CA", "addr:street": "Folsom Boulevard", "amenity": "hospital", "beds": "73", "healthcare": "hospital", "healthcare:speciality": "psychiatry", "name": "Sutter Center For Psychiatry", "phone": "+1 916 386 3000", "website": "https://www.sutterhealth.org/find-location/facility/sutter-center-for-psychiatry"}}, {"name": "Adventist Health Sonora", "latitude": 37.9796874, "longitude": -120.3908013, "source": "osm", "_tags": {"addr:city": "Sonora", "addr:housenumber": "179", "addr:postcode": "95370-4809", "addr:state": "CA", "addr:street": "Fairview Lane", "amenity": "hospital", "beds": "12", "healthcare": "hospital", "name": "Adventist Health Sonora", "phone": "+1 209 532 3161", "website": "https://www.adventisthealth.org/locations/sierra-care-center-unit-6"}}, {"name": "Modern Urgent Care", "latitude": 37.595081, "longitude": -120.9491311, "source": "osm", "_tags": {"addr:city": "Ceres", "addr:housenumber": "2519", "addr:postcode": "95307", "addr:state": "CA", "addr:street": "E Whitmore Avenue", "amenity": "hospital", "healthcare": "hospital", "name": "Modern Urgent Care"}}, {"name": "Total Vision Care Optometry", "latitude": 37.1233205, "longitude": -120.2610002, "source": "osm", "_tags": {"addr:city": "Chowchilla", "addr:housenumber": "145", "addr:postcode": "93610", "addr:state": "CA", "addr:street": "N 2nd St", "addr:unit": "101", "amenity": "Optom", "healthcare": "hospital", "healthcare:speciality": "optometry", "name": "Total Vision Care Optometry"}}, {"name": "Valley Specialty Center", "latitude": 37.3151936, "longitude": -121.9332862, "source": "osm", "_tags": {"addr:city": "San Jose", "addr:housenumber": "751", "addr:postcode": "95128", "addr:state": "CA", "addr:street": "South Bascom Avenue", "amenity": "hospital", "healthcare": "hospital", "name": "Valley Specialty Center", "operator": "Santa Clara Valley Healthcare"}}, {"name": "Walnut Creek Main Pharmacy Medical Office Building", "latitude": 37.8915338, "longitude": -122.0587352, "source": "osm", "_tags": {"addr:housenumber": "1425", "addr:postcode": "94596", "addr:street": "South Main Street", "amenity": "hospital", "name": "Walnut Creek Main Pharmacy Medical Office Building"}}, {"name": "", "latitude": 37.7147698, "longitude": -121.7032021, "source": "osm", "_tags": {"amenity": "hospital", "healthcare": "hospital", "operator": "Sutter Health", "operator:type": "private", "operator:wikidata": "Q7650154"}}, {"name": "", "latitude": 38.5745002, "longitude": -121.3277745, "source": "osm", "_tags": {"amenity": "hospital", "healthcare": "hospital"}}, {"name": "Saint Louise Regional Hospital", "latitude": 37.0366437, "longitude": -121.5717801, "source": "osm", "_tags": {"addr:city": "Gilroy", "addr:housenumber": "9400", "addr:postcode": "95020", "addr:state": "CA", "addr:street": "No Name Uno", "amenity": "hospital", "beds": "93", "emergency": "yes", "healthcare": "hospital", "name": "Saint Louise Regional Hospital", "old_name": "South Valley Hospital", "opening_hours": "24/7", "operator": "Santa Clara Valley Healthcare", "operator:type": "public", "operator:wikidata": "Q130270667", "phone": "+1 408 848 2000", "website": "https://slrh.scvh.org/", "wikidata": "Q130270680"}}, {"name": "PAMF Mountain View Center", "latitude": 37.376164, "longitude": -122.0655721, "source": "osm", "_tags": {"addr:city": "Mountain View", "addr:housenumber": "701", "addr:postcode": "94040", "addr:street": "East El Camino Real", "alt_name": "Palo Alto Medical Foundation Mountain View Center", "amenity": "hospital", "brand": "Sutter Health", "brand:wikidata": "Q7650154", "emergency": "no", "healthcare": "hospital", "name": "PAMF Mountain View Center", "old_name": "Camino Medical Group", "operator": "Sutter Health", "operator:type": "private", "operator:wikidata": "Q7650154", "phone": "+1 650 934 7000", "website": "http://www.pamf.org/mountainview/"}}, {"name": "Contra Costa Regional Medical Center", "latitude": 38.006747, "longitude": -122.132542, "source": "osm", "_tags": {"addr:city": "Martinez", "addr:housenumber": "2500", "addr:postcode": "94553", "addr:state": "CA", "addr:street": "Alhambra Avenue", "amenity": "hospital", "beds": "176", "emergency": "yes", "healthcare": "hospital", "name": "Contra Costa Regional Medical Center", "opening_hours": "24/7", "operator": "Contra Costa Health Services", "phone": "+1 925 370 5000", "short_name": "CCRMC", "website": "https://cchealth.org/medicalcenter/"}}, {"name": "Sutter Delta Medical Center", "latitude": 37.9826454, "longitude": -121.803181, "source": "osm", "_tags": {"addr:city": "Antioch", "addr:housenumber": "3901", "addr:postcode": "94509", "addr:street": "Lone Tree Way", "amenity": "hospital", "emergency": "yes", "gnis:feature_id": "1701759", "healthcare": "hospital", "name": "Sutter Delta Medical Center", "opening_hours": "24/7", "operator": "Sutter Health", "operator:type": "private", "operator:website": "https://www.sutterhealth.org/", "operator:wikidata": "Q7650154", "operator:wikipedia": "en:Sutter Health", "phone": "+1 925 779 7200", "website": "https://www.sutterhealth.org/delta", "wikidata": "Q7650150", "wikipedia": "en:Sutter Delta Medical Center"}}, {"name": "John Muir Medical Center", "latitude": 37.9123991, "longitude": -122.0403934, "source": "osm", "_tags": {"addr:city": "Walnut Creek", "addr:housenumber": "1601", "addr:postcode": "94598", "addr:street": "Ygnacio Canal Trail", "alt_name": "Walnut Creek Medical Center.", "amenity": "hospital", "beds": "554", "emergency": "yes", "gnis:feature_id": "1702422", "healthcare": "hospital", "name": "John Muir Medical Center", "opening_hours": "24/7", "operator": "John Muir Health", "phone": "+1 925 939 3000", "website": "https://www.johnmuirhealth.com/locations/john-muir-medical-center-walnut-creek.html"}}, {"name": "Kaiser Permanente", "latitude": 38.5408529, "longitude": -121.7283438, "source": "osm", "_tags": {"addr:city": "Davis", "addr:housenumber": "1955", "addr:postcode": "95618", "addr:street": "Cowell Boulevard", "amenity": "hospital", "building": "hospital", "emergency": "no", "healthcare": "hospital", "name": "Kaiser Permanente", "operator": "Kaiser Permanente", "operator:short": "KP", "operator:website": "https://healthy.kaiserpermanente.org/", "operator:wikidata": "Q1721601", "operator:wikipedia": "en:Kaiser Permanente"}}, {"name": "Mission Oaks Hospital", "latitude": 37.2444031, "longitude": -121.9482986, "source": "osm", "_tags": {"addr:city": "Los Gatos", "addr:housenumber": "15891", "addr:postcode": "95032", "addr:street": "Los Gatos Almaden Road", "amenity": "hospital", "beds": "70", "emergency": "no", "gnis:feature_id": "2107754", "healthcare": "hospital", "name": "Mission Oaks Hospital", "operator": "HCA", "operator:wikidata": "Q1630431", "operator:wikipedia": "en:HCA Healthcare", "phone": "+1 408 559 2011"}}, {"name": "Sutter Roseville Medical Center", "latitude": 38.7662117, "longitude": -121.2496604, "source": "osm", "_tags": {"addr:housenumber": "1", "addr:postcode": "95661", "addr:state": "CA", "addr:street": "Medical Plaza Drive", "amenity": "hospital", "building": "hospital", "emergency": "yes", "healthcare": "hospital", "name": "Sutter Roseville Medical Center", "old_name": "Roseville Hospital", "opening_hours": "24/7", "operator": "Sutter Health", "operator:website": "https://www.sutterhealth.org/", "operator:wikidata": "Q7650154", "operator:wikipedia": "en:Sutter Health", "phone": "+1 916 781 1000", "website": "http://www.sutterroseville.org/"}}, {"name": "Kaiser Permanente Fremont Medical Center", "latitude": 37.5523445, "longitude": -121.9747427, "source": "osm", "_tags": {"addr:city": "Fremont", "addr:housenumber": "39400", "addr:postcode": "94538", "addr:street": "Paseo Padre Parkway", "amenity": "hospital", "emergency": "yes", "gnis:feature_id": "1692866", "healthcare": "hospital", "name": "Kaiser Permanente Fremont Medical Center", "opening_hours": "24/7", "operator": "Kaiser Permanente", "operator:short": "KP", "operator:type": "private", "operator:website": "https://healthy.kaiserpermanente.org/", "operator:wikidata": "Q1721601", "operator:wikipedia": "en:Kaiser Permanente", "phone": "+1 510 248 3000", "source:outline": "USGS/Terraserver Urban", "website": "https://thrive.kaiserpermanente.org/care-near-you/northern-california/gsaa/locations/60/"}}, {"name": "Kaiser Permanente San Jose", "latitude": 37.2400148, "longitude": -121.8008829, "source": "osm", "_tags": {"addr:city": "San Jose", "addr:housenumber": "250", "addr:postcode": "95119", "addr:street": "Hospital Parkway", "amenity": "hospital", "beds": "235", "emergency": "yes", "healthcare": "hospital", "name": "Kaiser Permanente San Jose", "opening_hours": "24/7", "operator": "Kaiser Permanente", "operator:short": "KP", "operator:type": "private", "operator:website": "https://healthy.kaiserpermanente.org/", "operator:wikidata": "Q1721601", "operator:wikipedia": "en:Kaiser Permanente", "phone": "+1 408 972 3000", "website": "https://thrive.kaiserpermanente.org/care-near-you/northern-california/sanjose/locations/san-jose-main-campus-2/", "wikidata": "Q50039598"}}, {"name": "Good Samaritan Hospital", "latitude": 37.2523269, "longitude": -121.9456645, "source": "osm", "_tags": {"addr:city": "San Jose", "addr:housenumber": "2425", "addr:postcode": "95124", "addr:street": "Samaritan Drive", "amenity": "hospital", "beds": "342", "emergency": "yes", "gnis:feature_id": "1658635", "healthcare": "hospital", "name": "Good Samaritan Hospital", "opening_hours": "24/7", "operator": "HCA", "phone": "+1 408 559 2011", "website": "https://goodsamsanjose.com/", "wikidata": "Q5582914", "wikipedia": "en:Good Samaritan Hospital (San Jose)"}}, {"name": "Crestwood San Jose Psychiatric Health Facility", "latitude": 37.3114795, "longitude": -121.9150893, "source": "osm", "_tags": {"addr:city": "San Jose", "addr:housenumber": "1425", "addr:postcode": "95128", "addr:street": "Fruitdale Avenue", "amenity": "hospital", "beds": "16", "healthcare": "hospital", "healthcare:speciality": "psychiatry", "name": "Crestwood San Jose Psychiatric Health Facility", "website": "https://www.crestwoodbehavioralhealth.com"}}, {"name": "Kaiser Permanente Santa Clara Medical Center", "latitude": 37.3358468, "longitude": -121.9991897, "source": "osm", "_tags": {"addr:city": "Santa Clara", "addr:housenumber": "710", "addr:postcode": "95051", "addr:state": "CA", "addr:street": "Lawrence Expressway", "amenity": "hospital", "beds": "327", "emergency": "yes", "healthcare": "hospital", "name": "Kaiser Permanente Santa Clara Medical Center", "opening_hours": "24/7", "operator": "Kaiser Permanente", "operator:short": "KP", "operator:website": "https://healthy.kaiserpermanente.org/", "operator:wikidata": "Q1721601", "operator:wikipedia": "en:Kaiser Permanente", "phone": "+1 408 851 1000", "source": "Indoor Mapping: https://mydoctor.kaiserpermanente.org/ncal/Images/CampusMap2012_tcm75-140535.pdf", "website": "https://thrive.kaiserpermanente.org/care-near-you/northern-california/santaclara/locations/santa-clara-medical-center-2/", "wheelchair": "yes", "wikidata": "Q30280234"}}, {"name": "O’Connor Hospital", "latitude": 37.3281384, "longitude": -121.9382598, "source": "osm", "_tags": {"addr:city": "San Jose", "addr:housenumber": "2105", "addr:postcode": "95128", "addr:street": "Forest Avenue", "amenity": "hospital", "beds": "358", "emergency": "yes", "healthcare": "hospital", "name": "O’Connor Hospital", "opening_hours": "24/7", "operator": "Verity Health", "phone": "+1 408 947 2500", "website": "https://oconnor.verity.org/", "wikidata": "Q7071731", "wikipedia": "en:O'Connor Hospital"}}, {"name": "VacaValley Hospital", "latitude": 38.3551254, "longitude": -121.9513321, "source": "osm", "_tags": {"addr:city": "Vacaville", "addr:housenumber": "1000", "addr:postcode": "95678", "addr:state": "CA", "addr:street": "Nut Tree Road", "amenity": "hospital", "beds": "50", "emergency": "yes", "gnis:feature_id": "1800093", "healthcare": "hospital", "name": "VacaValley Hospital", "opening_hours": "24/7", "operator": "NorthBay Healthcare", "phone": "+1 707 624 7000", "website": "https://www.northbay.org/"}}, {"name": "El Camino Hospital", "latitude": 37.3688517, "longitude": -122.0798626, "source": "osm", "_tags": {"addr:city": "Mountain View", "addr:housenumber": "2500", "addr:postcode": "94040", "addr:street": "Grant Road", "amenity": "hospital", "beds": "443", "emergency": "yes", "gnis:feature_id": "1828699", "healthcare": "hospital", "name": "El Camino Hospital", "opening_hours": "24/7", "operator": "El Camino Health", "phone": "+1 650 940 7000", "website": "https://www.elcaminohospital.org/", "wikidata": "Q5350885", "wikipedia": "en:El Camino Hospital"}}, {"name": "Sutter Merced Medical Center", "latitude": 37.2935729, "longitude": -120.4729555, "source": "osm", "_tags": {"ALAND": "40683", "AREAID": "110414522423", "AWATER": "0", "COUNTYFP": "047", "MTFCC": "K1231", "STATEFP": "06", "Tiger:MTFCC": "K1231", "amenity": "hospital", "beds": "186", "emergency": "no", "healthcare": "hospital", "name": "Sutter Merced Medical Center", "source": "Tiger2009"}}, {"name": "VA Palo Alto Health Care System - Livermore Division", "latitude": 37.6255298, "longitude": -121.7633724, "source": "osm", "_tags": {"addr:city": "Livermore", "addr:housenumber": "4951", "addr:postcode": "94550", "addr:street": "Arroyo Road", "amenity": "hospital", "emergency": "no", "healthcare": "hospital", "healthcare:for": "veteran", "name": "VA Palo Alto Health Care System - Livermore Division", "opening_hours": "Mo-Fr 08:00-16:30", "operator": "Veterans Health Administration", "operator:short": "VA", "operator:wikidata": "Q6580225", "phone": "+1 925 373 4700", "short_name": "VA", "source": "Tiger2009", "website": "https://www.paloalto.va.gov/locations/livermore.asp"}}, {"name": "VA Medical Center Menlo Park", "latitude": 37.4662628, "longitude": -122.1606326, "source": "osm", "_tags": {"addr:city": "Palo Alto", "addr:housenumber": "795", "addr:postcode": "94025", "addr:street": "Willow Road", "amenity": "hospital", "emergency": "no", "healthcare": "hospital", "healthcare:for": "veterans", "name": "VA Medical Center Menlo Park", "opening_hours": "Mo-Fr 08:00-16:30", "operator": "Veterans Health Administration", "operator:short": "VA", "operator:wikidata": "Q6580225", "phone": "+1 650 614 9997", "short_name": "VA", "website": "https://www.paloalto.va.gov/locations/menlopark.asp"}}, {"name": "Doctors Medical Center", "latitude": 37.6655543, "longitude": -120.9973655, "source": "osm", "_tags": {"addr:city": "Modesto", "addr:housenumber": "1441", "addr:postcode": "95350", "addr:street": "Florida Avenue", "amenity": "hospital", "beds": "447", "emergency": "yes", "gnis:feature_id": "1658425", "healthcare": "hospital", "name": "Doctors Medical Center", "opening_hours": "24/7", "operator": "TH Medical", "phone": "+1 209 578 1211", "website": "https://www.dmc-modesto.com/"}}, {"name": "Sutter Amador Hospital", "latitude": 38.3505839, "longitude": -120.7645567, "source": "osm", "_tags": {"addr:city": "Jackson", "addr:housenumber": "200", "addr:postcode": "95642", "addr:state": "CA", "addr:street": "Mission Boulevard", "amenity": "hospital", "beds": "52", "emergency": "yes", "gnis:feature_id": "1733378", "healthcare": "hospital", "name": "Sutter Amador Hospital", "opening_hours": "24/7", "operator": "Sutter Health", "operator:website": "https://www.sutterhealth.org/", "operator:wikidata": "Q7650154", "operator:wikipedia": "en:Sutter Health", "phone": "+1 209 223 7500", "source": "Bing", "website": "https://www.sutterhealth.org/mhlb/find-location/facility/sutter-amador-hospital"}}, {"name": "Kaiser Permanente Roseville Medical Center", "latitude": 38.7463051, "longitude": -121.2500598, "source": "osm", "_tags": {"addr:city": "Roseville", "addr:housenumber": "1600", "addr:postcode": "95661", "addr:state": "CA", "addr:street": "Eureka Road", "amenity": "hospital", "attribution": "City of Roseville GIS", "emergency": "yes", "healthcare": "hospital", "name": "Kaiser Permanente Roseville Medical Center", "opening_hours": "24/7", "operator": "Kaiser Permanente", "operator:short": "KP", "operator:website": "https://healthy.kaiserpermanente.org/", "operator:wikidata": "Q1721601", "operator:wikipedia": "en:Kaiser Permanente", "phone": "+1 916 784 4000", "source": "http://www.roseville.ca.us/services/maps_n_data/data_clearinghouse.asp", "website": "https://thrive.kaiserpermanente.org/care-near-you/northern-california/northvalley/locations/roseville-medical-center/"}}, {"name": "", "latitude": 38.7654433, "longitude": -121.2481887, "source": "osm", "_tags": {"amenity": "hospital", "attribution": "City of Roseville GIS", "healthcare": "hospital", "landuse": "civic", "source": "http://www.roseville.ca.us/services/maps_n_data/data_clearinghouse.asp"}}, {"name": "Kaiser Permanente Antioch Medical Center", "latitude": 37.9508127, "longitude": -121.7748562, "source": "osm", "_tags": {"addr:city": "Antioch", "addr:housenumber": "4501", "addr:postcode": "94531", "addr:street": "Sand Creek Road", "amenity": "hospital", "emergency": "yes", "healthcare": "hospital", "name": "Kaiser Permanente Antioch Medical Center", "opening_hours": "24/7", "operator": "Kaiser Permanente", "operator:short": "KP", "operator:type": "private", "operator:website": "https://healthy.kaiserpermanente.org/", "operator:wikidata": "Q1721601", "operator:wikipedia": "en:Kaiser Permanente", "phone": "+1 925 813 6500", "website": "https://thrive.kaiserpermanente.org/care-near-you/northern-california/diablo/locations/antioch-medical-center/"}}, {"name": "ValleyCare Medical Center", "latitude": 37.6936709, "longitude": -121.8808269, "source": "osm", "_tags": {"addr:city": "Pleasanton", "addr:housenumber": "5555", "addr:postcode": "94588", "addr:street": "West Las Positas Boulevard", "amenity": "hospital", "beds": "242", "emergency": "yes", "healthcare": "hospital", "name": "ValleyCare Medical Center", "opening_hours": "24/7", "operator": "Stanford Health Care", "phone": "+1 925 847 3000", "website": "https://www.valleycare.com/"}}, {"name": "Kaiser Permanente Modesto Medical Center and Medical Offices", "latitude": 37.7062152, "longitude": -121.0524204, "source": "osm", "_tags": {"addr:city": "Modesto", "addr:housenumber": "4601", "addr:postcode": "95356", "addr:street": "Dale Road", "amenity": "hospital", "emergency": "yes", "healthcare": "hospital", "name": "Kaiser Permanente Modesto Medical Center and Medical Offices", "opening_hours": "24/7", "operator": "Kaiser Permanente", "operator:short": "KP", "operator:type": "private", "operator:website": "https://healthy.kaiserpermanente.org/", "operator:wikidata": "Q1721601", "operator:wikipedia": "en:Kaiser Permanente", "phone": "+1 209 735 5000", "website": "https://thrive.kaiserpermanente.org/care-near-you/northern-california/centralvalley/locations/modesto-medical-center-and-offices/"}}, {"name": "Mercy Medical Plaza", "latitude": 38.4068953, "longitude": -121.409918, "source": "osm", "_tags": {"amenity": "hospital", "emergency": "no", "name": "Mercy Medical Plaza"}}, {"name": "Mercy Medical Center Merced Dominican Campus", "latitude": 37.3116821, "longitude": -120.4783547, "source": "osm", "_tags": {"amenity": "hospital", "designation": "Outpatient Center", "emergency": "no", "healthcare": "hospital", "name": "Mercy Medical Center Merced Dominican Campus", "wheelchair": "yes"}}, {"name": "Golden Valley Heath Centers", "latitude": 37.3621961, "longitude": -120.5740268, "source": "osm", "_tags": {"addr:city": "Atwater", "addr:housenumber": "1910", "addr:postcode": "95301", "addr:street": "West Customer Care Way", "amenity": "hospital", "building": "commercial", "emergency": "no", "name": "Golden Valley Heath Centers", "shop": "mobile_phone"}}, {"name": "Vibra Hospital", "latitude": 38.6813731, "longitude": -121.158396, "source": "osm", "_tags": {"addr:city": "Folsom", "addr:housenumber": "330", "addr:postcode": "95630", "addr:state": "CA", "addr:street": "Montrose Drive", "amenity": "hospital", "beds": "58", "building": "yes", "emergency": "no", "healthcare": "hospital", "name": "Vibra Hospital"}}, {"name": "Herbert Bauer M.D. Health and Alcohol, Drug & Mental Health Building", "latitude": 38.6875615, "longitude": -121.7949833, "source": "osm", "_tags": {"addr:city": "Woodland", "addr:housenumber": "137", "addr:postcode": "95695", "addr:state": "CA", "addr:street": "North Cottonwood Street", "amenity": "hospital", "building": "yes", "emergency": "no", "healthcare": "hospital", "name": "Herbert Bauer M.D. Health and Alcohol, Drug & Mental Health Building", "phone": "5306668516", "source": "http://www.yolocounty.org/Index.aspx?page=56", "website": "https://www.yolocounty.org/Index.aspx?page=59"}}, {"name": "Kaiser Permanente Medical Offices", "latitude": 37.9279872, "longitude": -122.029279, "source": "osm", "_tags": {"amenity": "hospital", "healthcare": "hospital", "name": "Kaiser Permanente Medical Offices", "operator": "Kaiser Permanente", "operator:short": "KP", "operator:type": "private", "operator:website": "https://healthy.kaiserpermanente.org/", "operator:wikidata": "Q1721601", "operator:wikipedia": "en:Kaiser Permanente"}}, {"name": "Saint Josephs Hospital", "latitude": 37.9711841, "longitude": -121.28857, "source": "osm", "_tags": {"addr:city": "Stockton", "addr:housenumber": "1801", "addr:postcode": "95204", "addr:state": "CA", "addr:street": "Cemetery Lane", "amenity": "hospital", "beds": "355", "emergency": "yes", "gnis:feature_id": "1659570", "healthcare": "hospital", "name": "Saint Josephs Hospital", "opening_hours": "24/7", "operator": "Dignity Health", "operator:wikidata": "Q5276334", "operator:wikipedia": "en:Dignity Health", "phone": "+1 209 943 2000", "website": "https://www.dignityhealth.org/central-california/locations/stjosephs-stockton", "wikidata": "Q108828229"}}, {"name": "Dameron Hospital", "latitude": 37.9615447, "longitude": -121.3017327, "source": "osm", "_tags": {"addr:city": "Stockton", "addr:housenumber": "525", "addr:postcode": "95203", "addr:street": "West Acacia Street", "amenity": "hospital", "beds": "170", "emergency": "yes", "gnis:feature_id": "1658370", "healthcare": "hospital", "name": "Dameron Hospital", "opening_hours": "24/7", "operator": "Dameron Hospital Association", "phone": "+1 209 944 5550", "website": "https://www.dameronhospital.org/"}}, {"name": "Kaiser Permanente Vacaville Medical Center", "latitude": 38.3881575, "longitude": -121.938125, "source": "osm", "_tags": {"addr:city": "Vacaville", "addr:housenumber": "1", "addr:postcode": "95678", "addr:state": "CA", "addr:street": "Quality Drive", "amenity": "hospital", "emergency": "yes", "healthcare": "hospital", "name": "Kaiser Permanente Vacaville Medical Center", "opening_hours": "24/7", "operator": "Kaiser Permanente", "operator:short": "KP", "operator:website": "https://healthy.kaiserpermanente.org/", "operator:wikidata": "Q1721601", "operator:wikipedia": "en:Kaiser Permanente", "phone": "+1 707 624 4000", "website": "https://thrive.kaiserpermanente.org/care-near-you/northern-california/napasolano/locations/vacaville-hospital-trauma-center-medical-offices/", "wikidata": "Q39049052", "wikipedia": "en:Vacaville Medical Center"}}, {"name": "", "latitude": 38.0175877, "longitude": -121.2978791, "source": "osm", "_tags": {"addr:city": "Stockton", "addr:housenumber": "7373", "addr:state": "CA", "addr:street": "West Lane", "amenity": "hospital", "healthcare": "hospital", "operator": "Kaiser Permanente", "operator:short": "KP", "operator:type": "private", "operator:website": "https://healthy.kaiserpermanente.org/", "operator:wikidata": "Q1721601", "operator:wikipedia": "en:Kaiser Permanente"}}, {"name": "NorthBay Medical Center", "latitude": 38.2622081, "longitude": -122.0475872, "source": "osm", "_tags": {"addr:city": "Fairfield", "addr:housenumber": "1200", "addr:postcode": "94533", "addr:state": "CA", "addr:street": "B Gale Wilson Boulevard", "amenity": "hospital", "emergency": "yes", "gnis:feature_id": "1800042", "healthcare": "hospital", "name": "NorthBay Medical Center", "opening_hours": "24/7", "operator": "NorthBay Healthcare", "phone": "+1 707 646 5000", "website": "https://www.northbay.org/"}}, {"name": "San Joaquin General Hospital", "latitude": 37.8863116, "longitude": -121.2830338, "source": "osm", "_tags": {"addr:city": "French Camp", "addr:housenumber": "500", "addr:postcode": "95231", "addr:state": "CA", "addr:street": "West Hospital Road", "amenity": "hospital", "beds": "196", "emergency": "yes", "gnis:feature_id": "1662189", "healthcare": "hospital", "name": "San Joaquin General Hospital", "opening_hours": "24/7", "phone": "+1 209 468 6000", "website": "http://www.sjgeneral.org/", "wikidata": "Q7414393", "wikipedia": "en:San Joaquin General Hospital"}}, {"name": "Memorial Hospital Los Banos", "latitude": 37.0640235, "longitude": -120.859267, "source": "osm", "_tags": {"addr:city": "Los Banos", "addr:housenumber": "520", "addr:postcode": "93635", "addr:street": "West I Street", "amenity": "hospital", "emergency": "yes", "gnis:feature_id": "1816747", "healthcare": "hospital", "name": "Memorial Hospital Los Banos", "opening_hours": "24/7", "operator": "Sutter Health", "operator:website": "https://www.sutterhealth.org/", "operator:wikidata": "Q7650154", "operator:wikipedia": "en:Sutter Health", "phone": "+1 209 826 0591", "website": "https://www.sutterhealth.org/find-location/facility/memorial-hospital-los-banos"}}, {"name": "San Leandro Medical Center", "latitude": 37.7060235, "longitude": -122.165165, "source": "osm", "_tags": {"addr:city": "San Leandro", "addr:housenumber": "2500", "addr:postcode": "94577", "addr:street": "Merced Street", "amenity": "hospital", "beds": "206", "emergency": "yes", "healthcare": "hospital", "name": "San Leandro Medical Center", "opening_hours": "24/7", "operator": "Kaiser Permanente", "operator:short": "KP", "operator:website": "https://healthy.kaiserpermanente.org/", "operator:wikidata": "Q1721601", "operator:wikipedia": "en:Kaiser Permanente", "phone": "+1 510 454 1000", "website": "https://thrive.kaiserpermanente.org/care-near-you/northern-california/gsaa/locations/san-leandro-medical-center/", "wikidata": "Q30293436"}}, {"name": "Doctors Hospital of Manteca", "latitude": 37.8010132, "longitude": -121.1973121, "source": "osm", "_tags": {"addr:city": "Manteca", "addr:housenumber": "1205", "addr:postcode": "95336", "addr:street": "East North Street", "amenity": "hospital", "beds": "73", "emergency": "yes", "gnis:feature_id": "1827392", "healthcare": "hospital", "name": "Doctors Hospital of Manteca", "opening_hours": "24/7", "operator": "TH Medical", "phone": "+1 209 823 3111", "website": "https://www.doctorsmanteca.com/"}}, {"name": "Kaiser Permanente Manteca Medical Center", "latitude": 37.7988096, "longitude": -121.245621, "source": "osm", "_tags": {"addr:city": "Manteca", "addr:housenumber": "1777", "addr:postcode": "95337", "addr:street": "West Yosemite Avenue", "amenity": "hospital", "beds": "251", "emergency": "yes", "healthcare": "hospital", "name": "Kaiser Permanente Manteca Medical Center", "opening_hours": "24/7", "operator": "Kaiser Permanente", "operator:short": "KP", "operator:website": "https://healthy.kaiserpermanente.org/", "operator:wikidata": "Q1721601", "operator:wikipedia": "en:Kaiser Permanente", "phone": "+1 209 825 3700", "website": "https://healthy.kaiserpermanente.org/northern-california/facilities/Manteca-Medical-Center-100356"}}, {"name": "San Ramon Regional Medical Center", "latitude": 37.7764219, "longitude": -121.9581364, "source": "osm", "_tags": {"addr:city": "San Ramon", "addr:housenumber": "6001", "addr:postcode": "94583", "addr:street": "Norris Canyon Road", "amenity": "hospital", "emergency": "yes", "gnis:feature_id": "1670409", "healthcare": "hospital", "name": "San Ramon Regional Medical Center", "opening_hours": "24/7", "operator": "TH Medical", "phone": "+1 925 275 9200", "website": "https://www.sanramonmedctr.com/"}}, {"name": "VA Palo Alto Health Care System", "latitude": 37.4046252, "longitude": -122.1405628, "source": "osm", "_tags": {"addr:city": "Palo Alto", "addr:housenumber": "3801", "addr:postcode": "94304", "addr:street": "Miranda Avenue", "amenity": "hospital", "emergency": "yes", "healthcare": "hospital", "healthcare:for": "veteran", "name": "VA Palo Alto Health Care System", "opening_hours": "24/7", "operator": "Veterans Health Administration", "operator:short": "VA", "operator:type": "government", "operator:wikidata": "Q6580225", "operator:wikipedia": "en:Veterans Health Administration", "phone": "+1 650 493 5000", "short_name": "VA", "website": "https://www.paloalto.va.gov/", "wikidata": "Q7906572", "wikipedia": "en:VA Palo Alto Health Care System"}}, {"name": "Fairmont Rehabilitation and Wellness", "latitude": 37.7085337, "longitude": -122.1184135, "source": "osm", "_tags": {"addr:city": "San Leandro", "addr:housenumber": "15400", "addr:postcode": "94578", "addr:street": "Foothill Boulevard", "amenity": "hospital", "emergency": "no", "healthcare": "hospital", "name": "Fairmont Rehabilitation and Wellness", "operator": "Alameda Health System", "phone": "+1 510 895 4200", "website": "https://www.alamedahealthsystem.org/"}}, {"name": "Sutter Davis Hospital", "latitude": 38.5628328, "longitude": -121.7710453, "source": "osm", "_tags": {"addr:city": "Davis", "addr:country": "US", "addr:housenumber": "2000", "addr:postcode": "95616", "addr:state": "CA", "addr:street": "Sutter Place", "amenity": "hospital", "beds": "48", "contact:phone": "+1 530 756 6440", "contact:website": "http://www.sutterdavis.org/", "emergency": "yes", "healthcare": "hospital", "name": "Sutter Davis Hospital", "phone": "+1-530-756-6440", "website": "http://www.sutterdavis.org/", "wheelchair": "yes", "wikidata": "Q50037038"}}, {"name": "Woodland Healthcare", "latitude": 38.6649293, "longitude": -121.7922063, "source": "osm", "_tags": {"addr:city": "Woodland", "addr:housenumber": "1325", "addr:postcode": "95695", "addr:state": "CA", "addr:street": "Cottonwood Street", "amenity": "hospital", "emergency": "yes", "healthcare": "hospital", "name": "Woodland Healthcare", "opening_hours": "24/7", "operator": "Diginity Health", "phone": "+1 530 662 3961", "website": "https://www.dignityhealth.org/sacramento/locations/woodland-memorial-hospital"}}, {"name": "Emanuel Medical Center", "latitude": 37.5119478, "longitude": -120.8380871, "source": "osm", "_tags": {"addr:city": "Turlock", "addr:housenumber": "825", "addr:postcode": "95382", "addr:state": "CA", "addr:street": "Delbon Avenue", "amenity": "hospital", "beds": "209", "emergency": "yes", "gnis:feature_id": "1655996", "healthcare": "hospital", "name": "Emanuel Medical Center", "opening_hours": "24/7", "operator": "TH Medical", "phone": "+1 209 667 4200", "website": "https://www.emanuelmedicalcenter.org/", "wikidata": "Q5369103", "wikipedia": "en:Emanuel Medical Center"}}, {"name": "San Leandro Hospital", "latitude": 37.7132086, "longitude": -122.14283, "source": "osm", "_tags": {"addr:city": "San Leandro", "addr:housenumber": "13855", "addr:postcode": "94578", "addr:street": "East 14th Street", "amenity": "hospital", "beds": "94", "emergency": "yes", "healthcare": "hospital", "name": "San Leandro Hospital", "opening_hours": "24/7", "operator": "Alameda Health System", "phone": "+1 510 357 6500", "website": "https://www.alamedahealthsystem.org/"}}, {"name": "Regional Medical Center of San Jose", "latitude": 37.3620815, "longitude": -121.8493737, "source": "osm", "_tags": {"addr:city": "San Jose", "addr:housenumber": "225", "addr:postcode": "95116", "addr:state": "CA", "addr:street": "North Jackson Avenue", "amenity": "hospital", "beds": "258", "emergency": "yes", "healthcare": "hospital", "name": "Regional Medical Center of San Jose", "opening_hours": "24/7", "operator": "HCA", "operator:wikidata": "Q1630431", "operator:wikipedia": "en:HCA Healthcare", "phone": "+1 408 259 5000", "website": "https://regionalmedicalsanjose.com/"}}, {"name": "Kindred Hospital - San Francisco Bay Area", "latitude": 37.7165424, "longitude": -122.1305936, "source": "osm", "_tags": {"addr:city": "San Leandro", "addr:housenumber": "2800", "addr:postcode": "94578", "addr:street": "Benedict Drive", "amenity": "hospital", "beds": "99", "emergency": "no", "gnis:feature_id": "1692917", "healthcare": "hospital", "hist_name": "Physicians Community Hospital", "name": "Kindred Hospital - San Francisco Bay Area", "operator": "Kindred Healthcare", "operator:wikidata": "Q921363", "phone": "+1 510 357 8300", "website": "https://www.kindredhealthcare.com/locations/transitional-care-hospitals/kindred-hospital-san-francisco-bay-area", "wikidata": "Q28222814", "wikipedia": "en:Kindred Hospital - San Francisco Bay Area"}}, {"name": "University of California, Davis Medical Center", "latitude": 38.552257, "longitude": -121.4520941, "source": "osm", "_tags": {"addr:city": "Sacramento", "addr:housenumber": "2315", "addr:postcode": "95817", "addr:street": "Stockton Boulevard", "amenity": "hospital", "beds": "627", "emergency": "yes", "healthcare": "hospital", "name": "University of California, Davis Medical Center", "opening_hours": "24/7", "phone": "+1 916 734 2011", "website": "http://www.ucdmc.ucdavis.edu/medicalcenter/", "wikidata": "Q7864160", "wikipedia": "en:UC Davis Medical Center"}}, {"name": "", "latitude": 37.2506634, "longitude": -121.9503035, "source": "osm", "_tags": {"amenity": "hospital", "healthcare": "hospital"}}, {"name": "Martinez Outpatient Clinic", "latitude": 37.9938938, "longitude": -122.1153154, "source": "osm", "_tags": {"addr:city": "Martinez", "addr:housenumber": "150", "addr:postcode": "94553", "addr:state": "CA", "addr:street": "Muir Road", "amenity": "hospital", "beds": "120", "description": "120 long term beds in CREC on campus", "emergency": "no", "healthcare": "hospital", "healthcare:for": "veteran", "healthcare:speciality": "outpatient;veterans;rehab;physical_rehabilitation;LTACH", "name": "Martinez Outpatient Clinic", "opening_hours": "08:00-16:30", "operator": "Veterans Health Administration", "operator:short": "VA", "operator:wikidata": "Q6580225", "phone": "+1 925 372 2000", "short_name": "VA", "website": "https://www.northerncalifornia.va.gov/locations/Martinez_OPC.asp", "wikidata": "Q33122143"}}, {"name": "Sutter Medical Center, Sacramento", "latitude": 38.5715937, "longitude": -121.4688199, "source": "osm", "_tags": {"addr:city": "Sacramento", "addr:housenumber": "2825", "addr:postcode": "95816", "addr:state": "CA", "addr:street": "Capitol Avenue", "amenity": "hospital", "emergency": "yes", "gnis:feature_id": "1659930", "healthcare": "hospital", "name": "Sutter Medical Center, Sacramento", "opening_hours": "24/7", "operator": "Sutter Health", "operator:website": "https://www.sutterhealth.org/", "operator:wikidata": "Q7650154", "operator:wikipedia": "en:Sutter Health", "phone": "+1 916 887 0000", "website": "http://www.suttermedicalcenter.org/", "wikidata": "Q7650153", "wikipedia": "en:Sutter General Hospital"}}, {"name": "Mercy San Juan Medical Center", "latitude": 38.6694634, "longitude": -121.3131281, "source": "osm", "_tags": {"addr:city": "Carmichael", "addr:housenumber": "6501", "addr:postcode": "95608", "addr:state": "CA", "addr:street": "Coyle Avenue", "amenity": "hospital", "emergency": "yes", "healthcare": "hospital", "name": "Mercy San Juan Medical Center", "opening_hours": "24/7", "operator": "Dignity Health", "operator:wikidata": "Q5276334", "operator:wikipedia": "en:Dignity Health", "phone": "+1 916 537 5000", "website": "https://www.dignityhealth.org/sacramento/locations/mercy-san-juan-medical-center", "wikidata": "Q6818797", "wikipedia": "en:Mercy San Juan Medical Center"}}, {"name": "", "latitude": 37.9857071, "longitude": -122.0372715, "source": "osm", "_tags": {"amenity": "hospital", "gnis:feature_id": "237859", "healthcare": "hospital", "old_name": "Williams School"}}, {"name": "Mercy Hospital of Folsom", "latitude": 38.6701261, "longitude": -121.1459977, "source": "osm", "_tags": {"addr:city": "Folsom", "addr:housenumber": "1650", "addr:postcode": "95630", "addr:state": "CA", "addr:street": "Creekside Drive", "amenity": "hospital", "beds": "106", "building": "hospital", "ele": "95", "emergency": "yes", "gnis:feature_id": "1819955", "healthcare": "hospital", "name": "Mercy Hospital of Folsom", "opening_hours": "24/7", "operator": "Dignity Health", "operator:wikidata": "Q5276334", "phone": "+1-855-479-6006", "website": "https://www.dignityhealth.org/sacramento/locations/mercy-hospital-of-folsom"}}, {"name": "Sutter Auburn Faith Hospital", "latitude": 38.9451556, "longitude": -121.1008692, "source": "osm", "_tags": {"addr:city": "Auburn", "addr:housenumber": "11815", "addr:postcode": "95602", "addr:state": "CA", "addr:street": "Education Street", "amenity": "hospital", "emergency": "yes", "gnis:feature_id": "1723407", "healthcare": "hospital", "name": "Sutter Auburn Faith Hospital", "old_name": "Auburn Faith Community Hospital", "opening_hours": "24/7", "operator": "Sutter Health", "operator:website": "https://www.sutterhealth.org/", "operator:wikidata": "Q7650154", "operator:wikipedia": "en:Sutter Health", "phone": "+1 530 888 4500", "website": "https://www.sutterhealth.org/find-location/facility/sutter-auburn-faith-hospital", "wikidata": "Q50037030"}}, {"name": "Adventist Health Sonora", "latitude": 37.9766124, "longitude": -120.3711731, "source": "osm", "_tags": {"addr:city": "Sonora", "addr:housenumber": "900", "addr:postcode": "95370", "addr:state": "CA", "addr:street": "Greenley Road", "amenity": "hospital", "beds": "152", "emergency": "yes", "healthcare": "hospital", "name": "Adventist Health Sonora", "old_name": "Sonora Regional Medical Center", "opening_hours": "24/7", "operator": "Adventist Health", "operator:wikidata": "Q4686452", "operator:wikipedia": "en:Adventist Health", "phone": "+1 209 536 5000", "website": "https://www.adventisthealth.org/sonora/", "wikidata": "Q7562225", "wikipedia": "en:Adventist Health Sonora"}}, {"name": "Mark Twain Medical Center", "latitude": 38.1902364, "longitude": -120.6700457, "source": "osm", "_tags": {"addr:city": "San Andreas", "addr:housenumber": "768", "addr:postcode": "95249", "addr:state": "CA", "addr:street": "Mountain Ranch Road", "amenity": "hospital", "beds": "25", "emergency": "yes", "gnis:feature_id": "1659064", "healthcare": "hospital", "name": "Mark Twain Medical Center", "opening_hours": "24/7", "operator": "CommonSpirit Health", "operator:wikidata": "Q85753582", "phone": "+1 209 754 3521", "website": "https://www.dignityhealth.org/central-california/locations/marktwainmedical"}}, {"name": "Marshall Medical Center", "latitude": 38.7248164, "longitude": -120.7916257, "source": "osm", "_tags": {"addr:city": "Placerville", "addr:housenumber": "1100", "addr:postcode": "95667", "addr:state": "CA", "addr:street": "Marshall Way", "amenity": "hospital", "beds": "125", "emergency": "yes", "gnis:feature_id": "1744737", "healthcare": "hospital", "name": "Marshall Medical Center", "opening_hours": "24/7", "phone": "+1 530 622 1441", "website": "https://www.marshallmedical.org/"}}, {"name": "Sacramento VA Medical Center", "latitude": 38.5726584, "longitude": -121.2949177, "source": "osm", "_tags": {"addr:city": "Mather", "addr:housenumber": "10535", "addr:postcode": "95655", "addr:state": "CA", "addr:street": "Hospital Way", "amenity": "hospital", "beds": "60", "emergency": "yes", "healthcare": "hospital", "healthcare:for": "veterans", "name": "Sacramento VA Medical Center", "opening_hours": "24/7", "operator": "Veterans Health Administration", "operator:short": "VA", "operator:wikidata": "Q6580225", "operator:wikipedia": "en:Veterans Health Administration", "phone": "+1 916 843 7000", "short_name": "VA", "website": "https://www.northerncalifornia.va.gov/"}}, {"name": "Heritage Oaks Hospital", "latitude": 38.6432338, "longitude": -121.3650348, "source": "osm", "_tags": {"addr:city": "Sacramento", "addr:housenumber": "4250", "addr:postcode": "95841", "addr:state": "CA", "addr:street": "Auburn Boulevard", "amenity": "hospital", "beds": "125", "emergency": "no", "healthcare": "hospital", "healthcare:speciality": "psychiatry", "name": "Heritage Oaks Hospital", "phone": "+1 916 489 3336", "website": "https://heritageoakshospital.com/"}}, {"name": "Kaiser Permanente Sacramento Medical Center", "latitude": 38.601612, "longitude": -121.3946397, "source": "osm", "_tags": {"addr:city": "Sacramento", "addr:housenumber": "2025", "addr:postcode": "95825", "addr:state": "CA", "addr:street": "Morse Avenue", "amenity": "hospital", "emergency": "yes", "gnis:feature_id": "1658880", "healthcare": "hospital", "name": "Kaiser Permanente Sacramento Medical Center", "opening_hours": "24/7", "operator": "Kaiser Permanente", "operator:short": "KP", "operator:website": "https://healthy.kaiserpermanente.org/", "operator:wikidata": "Q1721601", "operator:wikipedia": "en:Kaiser Permanente", "phone": "+1 916 973 5000", "website": "https://thrive.kaiserpermanente.org/care-near-you/northern-california/northvalley/locations/sacramento-medical-center/"}}, {"name": "Mercy General Hospital", "latitude": 38.5706169, "longitude": -121.452869, "source": "osm", "_tags": {"addr:city": "Sacramento", "addr:housenumber": "4001", "addr:postcode": "95819", "addr:street": "J Street", "amenity": "hospital", "emergency": "yes", "gnis:feature_id": "1659111", "healthcare": "hospital", "name": "Mercy General Hospital", "opening_hours": "24/7", "operator": "Dignity Health", "operator:wikidata": "Q5276334", "operator:wikipedia": "en:Dignity Health", "phone": "+1 916 453 4545", "website": "https://www.dignityhealth.org/sacramento/locations/mercy-general-hospital", "wikidata": "Q6818732", "wikipedia": "en:Mercy General Hospital"}}, {"name": "Kaiser Permanente South Sacramento Medical Center", "latitude": 38.4694707, "longitude": -121.4225856, "source": "osm", "_tags": {"addr:city": "Sacramento", "addr:housenumber": "6600", "addr:postcode": "95823", "addr:state": "CA", "addr:street": "Bruceville Road", "amenity": "hospital", "beds": "209", "emergency": "yes", "gnis:feature_id": "1827095", "healthcare": "hospital", "name": "Kaiser Permanente South Sacramento Medical Center", "opening_hours": "24/7", "operator": "Kaiser Permanente", "operator:short": "KP", "operator:type": "private", "operator:website": "https://healthy.kaiserpermanente.org/", "operator:wikidata": "Q1721601", "operator:wikipedia": "en:Kaiser Permanente", "phone": "+1 916 688 2000", "website": "https://thrive.kaiserpermanente.org/care-near-you/northern-california/southsacramento/locations/south-sacramento-medical-center/"}}, {"name": "Methodist Hospital of Sacramento", "latitude": 38.4628879, "longitude": -121.4163698, "source": "osm", "_tags": {"addr:city": "Sacramento", "addr:housenumber": "7500", "addr:postcode": "95823", "addr:state": "CA", "addr:street": "Hospital Drive", "amenity": "hospital", "beds": "329", "emergency": "yes", "gnis:feature_id": "1827100", "healthcare": "hospital", "name": "Methodist Hospital of Sacramento", "opening_hours": "24/7", "operator": "Dignity Health", "operator:type": "private", "operator:wikidata": "Q5276334", "operator:wikipedia": "en:Dignity Health", "phone": "+1 916 423 3000", "website": "https://www.dignityhealth.org/sacramento/locations/methodist-hospital-of-sacramento", "wikidata": "Q6823834", "wikipedia": "en:Methodist Hospital of Sacramento"}}, {"name": "Adventist Health Lodi Memorial", "latitude": 38.1212282, "longitude": -121.286965, "source": "osm", "_tags": {"addr:city": "Lodi", "addr:housenumber": "975", "addr:postcode": "95240", "addr:street": "South Fairmont Avenue", "amenity": "hospital", "emergency": "yes", "gnis:feature_id": "1827310", "healthcare": "hospital", "name": "Adventist Health Lodi Memorial", "old_name": "Lodi Memorial Hospital", "opening_hours": "24/7", "operator": "Adventist Health", "phone": "+1 209 334 3411", "website": "https://www.adventisthealth.org/lodimemorial/"}}, {"name": "Sutter Tracy Community Hospital", "latitude": 37.7444966, "longitude": -121.4340372, "source": "osm", "_tags": {"addr:city": "Tracy", "addr:housenumber": "1420", "addr:postcode": "95376", "addr:street": "North Tracy Boulevard", "amenity": "hospital", "beds": "77", "emergency": "yes", "gnis:feature_id": "1827518", "healthcare": "hospital", "name": "Sutter Tracy Community Hospital", "opening_hours": "24/7", "operator": "Sutter Health", "operator:website": "https://www.sutterhealth.org/", "operator:wikidata": "Q7650154", "operator:wikipedia": "en:Sutter Health", "phone": "+1 209 835 1500", "website": "https://www.sutterhealth.org/find-location/facility/sutter-tracy-community-hospital"}}, {"name": "Oak Valley Hospital", "latitude": 37.7574666, "longitude": -120.8614782, "source": "osm", "_tags": {"addr:city": "Oakdale", "addr:housenumber": "350", "addr:postcode": "95361", "addr:street": "South Oak Avenue", "amenity": "hospital", "beds": "150", "emergency": "yes", "gnis:feature_id": "1817226", "healthcare": "hospital", "name": "Oak Valley Hospital", "opening_hours": "24/7", "phone": "+1 209 847 3011", "website": "http://www.oakvalleycares.org/"}}, {"name": "Mercy Medical Center Merced", "latitude": 37.3399309, "longitude": -120.4669897, "source": "osm", "_tags": {"addr:city": "Merced", "addr:housenumber": "333", "addr:postcode": "95340", "addr:street": "Mercy Avenue", "amenity": "hospital", "beds": "186", "emergency": "yes", "healthcare": "hospital", "name": "Mercy Medical Center Merced", "opening_hours": "24/7", "operator": "Dignity Health", "operator:wikidata": "Q5276334", "operator:wikipedia": "en:Dignity Health", "phone": "+1 209 564 5000", "website": "https://www.dignityhealth.org/central-california/locations/mercymedical-merced", "wheelchair": "yes", "wikidata": "Q6818786", "wikipedia": "en:Mercy Medical Center Merced"}}, {"name": "El Camino Hospital Los Gatos", "latitude": 37.2628657, "longitude": -121.9692126, "source": "osm", "_tags": {"addr:city": "Los Gatos", "addr:housenumber": "815", "addr:postcode": "95032", "addr:street": "Pollard Road", "amenity": "hospital", "beds": "143", "emergency": "yes", "gnis:feature_id": "1830302", "healthcare": "hospital", "name": "El Camino Hospital Los Gatos", "opening_hours": "24/7", "operator": "El Camino Hospital", "phone": "+1 408 378 6131", "website": "https://www.elcaminohospital.org/locations/los-gatos-campus"}}, {"name": "Washington Hospital", "latitude": 37.5572513, "longitude": -121.9793278, "source": "osm", "_tags": {"addr:city": "Fremont", "addr:housenumber": "2000", "addr:postcode": "94538", "addr:street": "Mowry Avenue", "amenity": "hospital", "beds": "341", "emergency": "yes", "gnis:feature_id": "1660132", "healthcare": "hospital", "name": "Washington Hospital", "opening_hours": "24/7", "operator": "Washington Hospital Healthcare System", "phone": "+1 510 797 1111", "website": "https://www.whhs.com/", "wheelchair": "yes"}}, {"name": "Saint Rose Hospital", "latitude": 37.6330866, "longitude": -122.0878995, "source": "osm", "_tags": {"addr:city": "Hayward", "addr:housenumber": "27200", "addr:postcode": "94545", "addr:street": "Calaroga Avenue", "amenity": "hospital", "beds": "195", "emergency": "yes", "gnis:feature_id": "1659572", "healthcare": "hospital", "name": "Saint Rose Hospital", "opening_hours": "24/7", "phone": "+1 510 264 4000", "website": "https://www.strosehospital.org/", "wikidata": "Q7591630", "wikipedia": "en:St. Rose Hospital"}}, {"name": "John George Psychiatric Hospital", "latitude": 37.710422, "longitude": -122.1193133, "source": "osm", "_tags": {"addr:city": "San Leandro", "addr:housenumber": "2060", "addr:postcode": "94578", "addr:street": "Fairmont Drive", "amenity": "hospital", "emergency": "no", "healthcare": "hospital", "healthcare:speciality": "psychiatry", "name": "John George Psychiatric Hospital", "operator": "Alameda Health System", "phone": "+1 510 346 1300", "website": "https://www.alamedahealthsystem.org/", "wikidata": "Q6235157", "wikipedia": "en:John George Psychiatric Hospital"}}, {"name": "Eden Medical Center", "latitude": 37.6981684, "longitude": -122.089207, "source": "osm", "_tags": {"addr:city": "Castro Valley", "addr:housenumber": "20103", "addr:postcode": "94546", "addr:street": "Lake Chabot Road", "amenity": "hospital", "beds": "130", "emergency": "yes", "healthcare": "hospital", "name": "Eden Medical Center", "opening_hours": "24/7", "operator": "Sutter Health", "operator:website": "https://www.sutterhealth.org/", "operator:wikidata": "Q7650154", "operator:wikipedia": "en:Sutter Health", "phone": "+1 510 537 1234", "website": "https://www.sutterhealth.org/find-location/facility/eden-medical-center"}}, {"name": "Stanislaus Surgical Hospital", "latitude": 37.664461, "longitude": -120.9584011, "source": "osm", "_tags": {"addr:city": "Modesto", "addr:housenumber": "1421", "addr:postcode": "95355", "addr:state": "CA", "addr:street": "Oakdale Road", "amenity": "hospital", "beds": "23", "emergency": "no", "healthcare": "hospital", "healthcare:speciality": "surgery", "name": "Stanislaus Surgical Hospital", "phone": "+1 209 572 2700", "website": "https://stanislaussurgical.com/"}}, {"name": "Memorial Medical Center", "latitude": 37.6691108, "longitude": -120.9733772, "source": "osm", "_tags": {"addr:city": "Modesto", "addr:housenumber": "1700", "addr:postcode": "95355", "addr:state": "CA", "addr:street": "Coffee Road", "amenity": "hospital", "beds": "388", "emergency": "yes", "healthcare": "hospital", "name": "Memorial Medical Center", "opening_hours": "24/7", "operator": "Sutter Health", "operator:website": "https://www.sutterhealth.org/", "operator:wikidata": "Q7650154", "operator:wikipedia": "en:Sutter Health", "phone": "+1 209 526 4500", "website": "https://www.sutterhealth.org/mmc", "wikidata": "Q6815474", "wikipedia": "en:Memorial Medical Center (Modesto, California)"}}, {"name": "Walnut Creek Outpatient Center", "latitude": 37.9258199, "longitude": -122.0528186, "source": "osm", "_tags": {"addr:city": "Walnut Creek", "addr:housenumber": "1450", "addr:postcode": "94597", "addr:state": "CA", "addr:street": "Treat Boulevard", "amenity": "hospital", "healthcare": "hospital", "name": "Walnut Creek Outpatient Center", "operator": "John Muir Health", "phone": "(925) 296-9700", "website": "https://www.johnmuirhealth.com/locations/outpatient-center-walnut-creek.html?cid=orgloc:landingURL:yext"}}, {"name": "Santa Clara Valley Medical Center", "latitude": 37.3135065, "longitude": -121.9353094, "source": "osm", "_tags": {"addr:city": "Santa Clara", "addr:housenumber": "751", "addr:postcode": "95128", "addr:street": "South Bascom Avenue", "amenity": "hospital", "beds": "574", "emergency": "yes", "healthcare": "hospital", "name": "Santa Clara Valley Medical Center", "opening_hours": "24/7", "operator": "County of Santa Clara", "phone": "+1 408 885 5000", "short_name": "SCVMC", "website": "https://scvmc.scvh.org/", "wikidata": "Q7419341", "wikipedia": "en:Santa Clara Valley Medical Center"}}, {"name": "", "latitude": 37.9295984, "longitude": -122.0296781, "source": "osm", "_tags": {"amenity": "hospital", "healthcare": "hospital"}}, {"name": "", "latitude": 37.9251641, "longitude": -122.0262972, "source": "osm", "_tags": {"amenity": "hospital", "healthcare": "hospital"}}, {"name": "", "latitude": 37.9252758, "longitude": -122.0232425, "source": "osm", "_tags": {"amenity": "hospital", "healthcare": "hospital"}}, {"name": "Fremont Hospital", "latitude": 37.5463831, "longitude": -121.9797455, "source": "osm", "_tags": {"addr:city": "Fremont", "addr:housenumber": "39001", "addr:postcode": "94538", "addr:state": "CA", "addr:street": "Sundale Drive", "amenity": "hospital", "beds": "148", "emergency": "no", "healthcare": "hospital", "healthcare:speciality": "psychiatry", "name": "Fremont Hospital", "phone": "+1 510 796 1100", "website": "https://fremonthospital.com/"}}, {"name": "Folsom Surgery Center", "latitude": 38.6679367, "longitude": -121.1502235, "source": "osm", "_tags": {"amenity": "hospital", "healthcare": "hospital", "name": "Folsom Surgery Center"}}, {"name": "Endoscopy Center of South Sacramento", "latitude": 38.4620675, "longitude": -121.4141568, "source": "osm", "_tags": {"amenity": "hospital", "healthcare": "hospital", "name": "Endoscopy Center of South Sacramento"}}, {"name": "Orinda Rehabilitation", "latitude": 37.8831591, "longitude": -122.1842244, "source": "osm", "_tags": {"addr:city": "Orinda", "addr:housenumber": "11", "addr:postcode": "94563", "addr:state": "CA", "addr:street": "Altarinda Drive", "amenity": "hospital", "healthcare": "hospital", "name": "Orinda Rehabilitation", "phone": "(925) 254-6500"}}, {"name": "Sutter Roseville Medical Center Emergency Department", "latitude": 38.7659333, "longitude": -121.2486944, "source": "osm", "_tags": {"amenity": "hospital", "building": "hospital", "healthcare": "hospital", "name": "Sutter Roseville Medical Center Emergency Department", "start_date": "2020"}}, {"name": "Kaiser Permanente Medical Offices", "latitude": 38.3845506, "longitude": -121.3713364, "source": "osm", "_tags": {"addr:city": "Elk Grove", "addr:housenumber": "10305", "addr:postcode": "95757", "addr:state": "CA", "addr:street": "Promenade Parkway", "amenity": "hospital", "building": "yes", "emergency": "no", "healthcare": "hospital", "name": "Kaiser Permanente Medical Offices", "operator": "Kaiser Permanente", "operator:short": "KP", "operator:type": "private", "operator:website": "https://healthy.kaiserpermanente.org/", "operator:wikidata": "Q1721601", "operator:wikipedia": "en:Kaiser Permanente"}}, {"name": "Palo Alto Medical Foundation", "latitude": 37.3015893, "longitude": -122.031305, "source": "osm", "_tags": {"addr:city": "San Jose", "addr:housenumber": "7225", "addr:postcode": "95129", "addr:street": "Rainbow Drive", "amenity": "hospital", "emergency": "no", "healthcare": "hospital", "name": "Palo Alto Medical Foundation", "short_name": "PAMF"}}, {"name": "Sierra Vista Hospital", "latitude": 38.4671577, "longitude": -121.4170711, "source": "osm", "_tags": {"addr:city": "Sacramento", "addr:housenumber": "8001", "addr:postcode": "95823", "addr:state": "CA", "addr:street": "BRUCEVILLE ROAD", "amenity": "hospital", "healthcare": "hospital", "healthcare:speciality": "psychiatry", "name": "Sierra Vista Hospital", "phone": "+1-916-288-0300", "website": "https://sierravistahospital.com/about-us/licensing-and-accreditation/"}}, {"name": "Sutter Gould Medical Foundation", "latitude": 37.7437529, "longitude": -121.4321769, "source": "osm", "_tags": {"addr:city": "Tracy", "addr:housenumber": "445", "addr:postcode": "95376", "addr:state": "CA", "addr:street": "Eaton Avenue", "amenity": "hospital", "building": "hospital", "healthcare": "hospital", "name": "Sutter Gould Medical Foundation", "operator": "Sutter Health", "operator:website": "https://www.sutterhealth.org/", "operator:wikidata": "Q7650154", "operator:wikipedia": "en:Sutter Health"}}, {"name": "UC Davis Comprehensive Cancer Center", "latitude": 38.5540559, "longitude": -121.4526658, "source": "osm", "_tags": {"addr:city": "Sacramento", "addr:housenumber": "2279", "addr:postcode": "95817", "addr:state": "CA", "addr:street": "45th Street", "amenity": "hospital", "emergency": "no", "healthcare": "hospital", "healthcare:speciality": "oncology", "name": "UC Davis Comprehensive Cancer Center", "operator": "UC Davis Health", "operator:type": "university"}}, {"name": "John Muir Medical Center, Concord", "latitude": 37.9834871, "longitude": -122.0347187, "source": "osm", "_tags": {"addr:city": "Concord", "addr:housenumber": "2540", "addr:postcode": "94520", "addr:street": "East Street", "amenity": "hospital", "beds": "245", "emergency": "yes", "gnis:feature_id": "1702205", "healthcare": "hospital", "name": "John Muir Medical Center, Concord", "old_name": "Mount Diablo Hospital Medical Center", "opening_hours": "24/7", "operator": "John Muir Health", "phone": "+1 925 682 8200", "website": "https://www.johnmuirhealth.com/locations/john-muir-medical-center-concord.html"}}, {"name": "", "latitude": 37.9763922, "longitude": -120.3682253, "source": "osm", "_tags": {"amenity": "hospital", "healthcare": "hospital"}}, {"name": "Children's Healthcare Organization Of Northern California - Pediatric Hospital", "latitude": 37.2598531, "longitude": -121.9476371, "source": "osm", "_tags": {"addr:city": "Campbell", "addr:housenumber": "3777", "addr:postcode": "95008-7320", "addr:street": "South Bascom Avenue", "amenity": "hospital", "beds": "4", "building": "hospital", "healthcare": "hospital", "name": "Children's Healthcare Organization Of Northern California - Pediatric Hospital", "phone": "+1 408 558 3640", "website": "https://www.chonc.org"}}, {"name": "Stanislaus County Psychiatric Health Facility", "latitude": 37.6003629, "longitude": -120.9635931, "source": "osm", "_tags": {"addr:city": "Ceres", "addr:housenumber": "1904", "addr:postcode": "95307", "addr:street": "Richland Avenue", "amenity": "hospital", "area": "yes", "beds": "16", "emergency": "no", "healthcare": "hospital", "healthcare:speciality": "psychiatry", "name": "Stanislaus County Psychiatric Health Facility", "opening_hours": "24/7", "phone": "+1 209 300 8800", "website": "https://www.telecarecorp.com/stanislaus-county-psychiatric-health-facility/"}}, {"name": "", "latitude": 37.981493, "longitude": -121.8048022, "source": "osm", "_tags": {"amenity": "hospital", "healthcare": "hospital", "operator": "Sutter Health", "operator:type": "private", "operator:wikidata": "Q7650154"}}, {"name": "Tracy Medical Offices", "latitude": 37.7558693, "longitude": -121.4565382, "source": "osm", "_tags": {"addr:city": "Tracy", "addr:housenumber": "2185", "addr:postcode": "95377", "addr:state": "CA", "addr:street": "West Grant Line Road", "amenity": "hospital", "healthcare": "hospital", "name": "Tracy Medical Offices", "operator": "Kaiser Permanente", "operator:short": "KP", "operator:type": "private", "operator:website": "https://healthy.kaiserpermanente.org/", "operator:wikidata": "Q1721601", "operator:wikipedia": "en:Kaiser Permanente", "phone": "+1 209-839-3200", "website": "https://healthy.kaiserpermanente.org/northern-california/facilities/Tracy-Medical-Offices-100317"}}, {"name": "David Grant USAF Medical Center", "latitude": 38.2698709, "longitude": -121.9644997, "source": "osm", "_tags": {"amenity": "hospital", "building": "hospital", "healthcare": "hospital", "name": "David Grant USAF Medical Center", "type": "multipolygon", "wikidata": "Q5234323", "wikipedia": "en:David Grant USAF Medical Center"}}, {"name": "Walnut Creek Medical Center", "latitude": 37.891112, "longitude": -122.0598684, "source": "osm", "_tags": {"addr:city": "Walnut Creek", "addr:housenumber": "1425", "addr:postcode": "94596", "addr:street": "South Main Street", "amenity": "hospital", "beds": "233", "emergency": "yes", "gnis:feature_id": "1723572", "healthcare": "hospital", "name": "Walnut Creek Medical Center", "opening_hours": "24/7", "operator": "Kaiser Permanente", "operator:short": "KP", "operator:type": "private", "operator:website": "https://healthy.kaiserpermanente.org/", "operator:wikidata": "Q1721601", "operator:wikipedia": "en:Kaiser Permanente", "phone": "+1 925 295 4000", "type": "multipolygon", "website": "https://thrive.kaiserpermanente.org/care-near-you/northern-california/diablo/locations/walnut-creek-medical-center/"}}, {"name": "Stanford Hospital", "latitude": 37.4343774, "longitude": -122.1776047, "source": "osm", "_tags": {"addr:city": "Stanford", "addr:postcode": "94305", "addr:street": "Pasteur Drive", "amenity": "hospital", "emergency": "yes", "healthcare": "hospital", "name": "Stanford Hospital", "phone": "+1 650 498 3333", "type": "site", "website": "https://stanfordhealthcare.org/", "wikidata": "Q7598810"}}, {"name": "Lucile Packard Children's Hospital", "latitude": 37.436136, "longitude": -122.1744513, "source": "osm", "_tags": {"addr:city": "Stanford", "addr:housenumber": "725", "addr:postcode": "94304", "addr:street": "Welch Road", "amenity": "hospital", "healthcare": "hospital", "name": "Lucile Packard Children's Hospital", "type": "multipolygon", "wikidata": "Q6697222"}}]