[{"name": "Greeley County Hospital", "latitude": 38.4703149, "longitude": -101.7491521, "source": "osm", "_tags": {"addr:city": "Tribune", "addr:housenumber": "506", "addr:postcode": "67879", "addr:state": "KS", "addr:street": "3rd Street", "amenity": "hospital", "beds": "18", "emergency": "yes", "healthcare": "hospital", "name": "Greeley County Hospital", "phone": "+1-620-376-4221", "website": "http://mygchs.com/"}}, {"name": "SouthWest Medical Center", "latitude": 37.0563625, "longitude": -100.9264782, "source": "osm", "_tags": {"addr:city": "Liberal", "addr:housenumber": "315", "addr:postcode": "67901", "addr:street": "West 15th Street", "amenity": "hospital", "emergency": "yes", "healthcare": "hospital", "name": "SouthWest Medical Center", "phone": "+1 620 624 1651", "website": "https://www.swmedcenter.com/"}}, {"name": "Stevens County Hospital and Medical Clinic", "latitude": 37.1711516, "longitude": -101.3497927, "source": "osm", "_tags": {"addr:city": "Hugoton", "addr:housenumber": "1006", "addr:postcode": "67951", "addr:street": "South Jackson Street", "amenity": "hospital", "emergency": "yes", "healthcare": "hospital", "name": "Stevens County Hospital and Medical Clinic", "phone": "+1 620 544 8511", "website": "https://www.stevenscountyhospital.com/"}}, {"name": "Bob Wilson Memorial Grant County Hospital", "latitude": 37.5847002, "longitude": -101.3587252, "source": "osm", "_tags": {"addr:city": "Ulysses", "addr:housenumber": "415", "addr:postcode": "67880", "addr:street": "North Main Street", "amenity": "hospital", "beds": "26", "emergency": "yes", "healthcare": "hospital", "name": "Bob Wilson Memorial Grant County Hospital", "opening_hours": "24/7", "operator": "Centura Health", "phone": "+1 620 356 1266", "website": "https://www.centura.org/locations/bob-wilson-memorial-grant-county-hospital"}}, {"name": "Lane County Hospital", "latitude": 38.4804788, "longitude": -100.4688319, "source": "osm", "_tags": {"addr:city": "Dighton", "addr:housenumber": "235", "addr:postcode": "67839", "addr:street": "West Vine Street", "amenity": "hospital", "beds": "25", "emergency": "yes", "healthcare": "hospital", "name": "Lane County Hospital", "opening_hours": "24/7", "phone": "+1 620 397 5321", "website": "https://www.lanecountyhospital.com/"}}, {"name": "Wichita County Health Center", "latitude": 38.4755113, "longitude": -101.3550817, "source": "osm", "_tags": {"addr:city": "Leoti", "addr:housenumber": "211", "addr:postcode": "67861", "addr:street": "East Earl Street", "amenity": "hospital", "beds": "25", "emergency": "yes", "healthcare": "hospital", "name": "Wichita County Health Center", "opening_hours": "24/7", "phone": "+1 620 375 2233", "website": "https://www.wichitacountyhealthcenter.com/"}}, {"name": "Kearny County Hospital", "latitude": 37.9469012, "longitude": -101.251385, "source": "osm", "_tags": {"addr:city": "Lakin", "addr:housenumber": "500", "addr:postcode": "67860", "addr:street": "Thorpe Street", "amenity": "hospital", "beds": "25", "emergency": "yes", "healthcare": "hospital", "name": "Kearny County Hospital", "opening_hours": "24/7", "phone": "+1 620 355 7111", "short_name": "KCH", "website": "https://www.kearnycountyhospital.com/"}}, {"name": "Meade District Hospital", "latitude": 37.2863261, "longitude": -100.3337691, "source": "osm", "_tags": {"addr:city": "Meade", "addr:housenumber": "510", "addr:postcode": "67864", "addr:street": "East Carthage Street", "amenity": "hospital", "beds": "20", "emergency": "yes", "healthcare": "hospital", "name": "Meade District Hospital", "opening_hours": "24/7", "operator": "Artesian Valley Health System", "phone": "+1 620 873 2141", "website": "https://avhealthsystem.com/"}}, {"name": "Hamilton County Hospital", "latitude": 37.9849237, "longitude": -101.7424003, "source": "osm", "_tags": {"addr:city": "Syracuse", "addr:housenumber": "700", "addr:postcode": "67878", "addr:street": "North Huser Street", "amenity": "hospital", "beds": "25", "emergency": "yes", "healthcare": "hospital", "name": "Hamilton County Hospital", "opening_hours": "24/7", "operator": "Hamilton County Health", "phone": "+1 620 384 7461", "website": "https://hamiltoncountyhospital.net/"}}, {"name": "Satanta District Hospital", "latitude": 37.4371756, "longitude": -100.9863979, "source": "osm", "_tags": {"addr:city": "Satanta", "addr:housenumber": "401", "addr:postcode": "67870", "addr:street": "South Cheyenne Avenue", "amenity": "hospital", "beds": "13", "emergency": "yes", "healthcare": "hospital", "name": "Satanta District Hospital", "opening_hours": "24/7", "phone": "+1 620 649 2761", "website": "https://www.satantahospital.net/"}}, {"name": "", "latitude": 37.5739689, "longitude": -101.7500697, "source": "osm", "_tags": {"addr:city": "Johnson", "addr:housenumber": "404", "addr:postcode": "67855", "addr:street": "North Chestnut Street", "amenity": "hospital", "beds": "18", "emergency": "yes", "healthcare": "hospital", "opening_hours": "24/7", "phone": "+1 620 492 6250", "website": "http://www.stantoncountyhospital.com/"}}, {"name": "Scott County Hospital", "latitude": 38.4667774, "longitude": -100.9038394, "source": "osm", "_tags": {"addr:city": "Scott City", "addr:housenumber": "201", "addr:postcode": "67871", "addr:street": "Albert Avenue", "amenity": "hospital", "beds": "25", "emergency": "yes", "healthcare": "hospital", "name": "Scott County Hospital", "opening_hours": "24/7", "phone": "+1 620 872 5811", "website": "https://www.scotthospital.net/"}}, {"name": "St. Catherine's Hospital", "latitude": 37.9696429, "longitude": -100.8692748, "source": "osm", "_tags": {"addr:city": "Garden City", "addr:housenumber": "401", "addr:postcode": "67846", "addr:street": "East Spruce Street", "amenity": "hospital", "beds": "113", "emergency": "yes", "healthcare": "hospital", "name": "St. Catherine's Hospital", "opening_hours": "24/7", "phone": "+1 620 272 2222", "website": "https://www.stcatherinehosp.org/", "wikidata": "Q50036960"}}]