[{"name": "Telluride Regional Medical Center", "latitude": 37.9374433, "longitude": -107.8163489, "source": "osm", "_tags": {"addr:city": "Telluride", "addr:housenumber": "500", "addr:postcode": "81435", "addr:state": "CO", "addr:street": "West Pacific Avenue", "amenity": "hospital", "building": "hospital", "emergency": "yes", "gnis:feature_id": "1795013", "healthcare": "hospital", "name": "Telluride Regional Medical Center", "opening_hours": "24/7", "phone": "+1 970 728 3848", "source": "Bing", "website": "https://tellmed.org/"}}, {"name": "Pagosa Springs Medical Center", "latitude": 37.2523095, "longitude": -107.0783295, "source": "osm", "_tags": {"addr:city": "Pagosa Springs", "addr:housenumber": "95", "addr:postcode": "81147", "addr:state": "CO", "addr:street": "South Pagosa Boulevard", "amenity": "hospital", "beds": "11", "emergency": "yes", "healthcare": "hospital", "name": "Pagosa Springs Medical Center", "old_name": "Pagosa Mountain Hospital", "opening_hours": "24/7", "phone": "+1 970 731 3700", "website": "https://www.pagosaspringsmedicalcenter.org/"}}, {"name": "Gunnison Valley Hospital", "latitude": 38.5519462, "longitude": -106.9247223, "source": "osm", "_tags": {"addr:city": "Gunnison", "addr:housenumber": "711", "addr:postcode": "81230", "addr:state": "CO", "addr:street": "North Taylor Street", "amenity": "hospital", "beds": "24", "emergency": "yes", "gnis:feature_id": "1795082", "healthcare": "hospital", "name": "Gunnison Valley Hospital", "opening_hours": "24/7", "phone": "+1 970 641 1456", "website": "https://www.gunnisonvalleyhealth.org/"}}, {"name": "Montrose Memorial Hospital", "latitude": 38.480772, "longitude": -107.8685613, "source": "osm", "_tags": {"addr:city": "Montrose", "addr:housenumber": "800", "addr:postcode": "81401", "addr:state": "CO", "addr:street": "South 3rd Street", "amenity": "hospital", "beds": "75", "emergency": "yes", "gnis:feature_id": "1795098", "healthcare": "hospital", "name": "Montrose Memorial Hospital", "opening_hours": "24/7", "phone": "+1 970 249 2211", "website": "http://www.montrosehospital.com/"}}, {"name": "Rio Grande Hospital", "latitude": 37.6743038, "longitude": -106.3641215, "source": "osm", "_tags": {"addr:city": "Del Norte", "addr:housenumber": "310", "addr:postcode": "81132", "addr:state": "CO", "addr:street": "County Road 14", "amenity": "hospital", "beds": "17", "emergency": "yes", "healthcare": "hospital", "name": "Rio Grande Hospital", "opening_hours": "24/7", "phone": "+1 719 657 2510", "website": "https://rio-grande-hospital.org/"}}, {"name": "Delta Memorial Hospital", "latitude": 38.7449974, "longitude": -108.047128, "source": "osm", "_tags": {"addr:city": "Delta", "addr:housenumber": "1501", "addr:postcode": "81416", "addr:state": "CO", "addr:street": "East 3rd Street", "building": "hospital", "emergency": "yes", "healthcare": "hospital", "name": "Delta Memorial Hospital", "phone": "+1 970-874-7681", "website": "deltahospital.org"}}, {"name": "Mercy Regional Medical Center", "latitude": 37.2359426, "longitude": -107.8258869, "source": "osm", "_tags": {"addr:city": "Durango", "addr:housename": "Mercy Regional Medical Center", "addr:housenumber": "1010", "addr:postcode": "81301", "addr:state": "CO", "addr:street": "Three Springs Boulevard", "amenity": "hospital", "emergency": "yes", "name": "Mercy Regional Medical Center", "opening_hours": "24/7", "operator": "Centura Health", "phone": "+1 970 247 4311", "website": "https://www.mercydurango.org/"}}, {"name": "", "latitude": 37.2481243, "longitude": -107.8708117, "source": "osm", "_tags": {"amenity": "hospital"}}, {"name": "Animas Surgical Hospital", "latitude": 37.2481043, "longitude": -107.8709281, "source": "osm", "_tags": {"addr:city": "Durango", "addr:housenumber": "575", "addr:postcode": "81301", "addr:state": "CO", "addr:street": "Rivergate Lane", "amenity": "hospital", "beds": "12", "building": "hospital", "emergency": "yes", "healthcare": "hospital", "name": "Animas Surgical Hospital", "opening_hours": "24/7", "phone": "+1 970 247 3537", "website": "https://www.animassurgical.com/"}}]