[{"name": "Northern Inyo Hospital", "latitude": 37.3622147, "longitude": -118.4060256, "source": "osm", "_tags": {"addr:city": "Bishop", "addr:housenumber": "150", "addr:postcode": "93514", "addr:street": "Pioneer Lane", "amenity": "hospital", "beds": "25", "emergency": "yes", "gnis:feature_id": "1804592", "healthcare": "hospital", "name": "Northern Inyo Hospital", "opening_hours": "24/7", "phone": "+1 760 873 5811", "source": "Tiger2009", "website": "https://www.nih.org/"}}, {"name": "South Lyon Medical Center", "latitude": 38.9840102, "longitude": -119.1673675, "source": "osm", "_tags": {"addr:city": "Yerington", "addr:housenumber": "213", "addr:postcode": "89447", "addr:state": "NV", "addr:street": "South Whitacre Street", "amenity": "hospital", "emergency": "yes", "gnis:feature_id": "2060074", "name": "South Lyon Medical Center", "opening_hours": "24/7", "phone": "+1 775 463 2301", "website": "https://www.southlyonmedicalcenter.org/"}}, {"name": "Barton Memorial Hospital", "latitude": 38.9116326, "longitude": -119.9966537, "source": "osm", "_tags": {"addr:city": "South Lake Tahoe", "addr:housenumber": "2170", "addr:postcode": "96150", "addr:street": "South Avenue", "amenity": "hospital", "beds": "63", "emergency": "yes", "gnis:feature_id": "1658001", "healthcare": "hospital", "helipad": "yes", "name": "Barton Memorial Hospital", "opening_hours": "24/7", "operator": "Barton Health", "phone": "+1 530 541 3420", "website": "https://www.bartonhealth.org/tahoe/"}}, {"name": "Mammoth Hospital", "latitude": 37.6436864, "longitude": -118.9627291, "source": "osm", "_tags": {"addr:city": "Mammoth Lakes", "addr:housenumber": "85", "addr:postcode": "93546", "addr:state": "CA", "addr:street": "Sierra Park Road", "amenity": "hospital", "beds": "17", "emergency": "yes", "gnis:feature_id": "1812904", "healthcare": "hospital", "name": "Mammoth Hospital", "opening_hours": "24/7", "phone": "+1 760 934 3311", "website": "https://mammothhospital.org/", "wikidata": "Q30280846"}}, {"name": "John C Fremont Healthcare District", "latitude": 37.5003423, "longitude": -119.9775615, "source": "osm", "_tags": {"addr:city": "Mariposa", "addr:housenumber": "5189", "addr:postcode": "95338", "addr:state": "CA", "addr:street": "Hospital Road", "amenity": "hospital", "beds": "34", "emergency": "yes", "gnis:feature_id": "1809313", "healthcare": "hospital", "name": "John C Fremont Healthcare District", "opening_hours": "24/7", "phone": "+1 209 966 3631", "website": "https://www.jcf-hospital.com/"}}, {"name": "Carson Valley Medical Center", "latitude": 38.9193037, "longitude": -119.7186949, "source": "osm", "_tags": {"addr:city": "Gardnerville", "addr:housenumber": "1107", "addr:postcode": "89410", "addr:state": "NV", "addr:street": "US 395", "amenity": "hospital", "beds": "23", "emergency": "yes", "healthcare": "hospital", "helipad": "yes", "name": "Carson Valley Medical Center", "opening_hours": "24/7", "phone": "+1 775 782 1500", "short_name": "CVMC", "website": "https://cvmchospital.org/"}}, {"name": "Carson Tahoe Health - Minden Medical Center", "latitude": 38.9630228, "longitude": -119.7779256, "source": "osm", "_tags": {"amenity": "hospital", "name": "Carson Tahoe Health - Minden Medical Center"}}, {"name": "Mount Grant General Hospital", "latitude": 38.5171593, "longitude": -118.6269808, "source": "osm", "_tags": {"addr:city": "Hawthorne", "addr:housenumber": "200", "addr:postcode": "89415", "addr:state": "NV", "addr:street": "South A Street", "amenity": "hospital", "beds": "11", "emergency": "yes", "gnis:feature_id": "848131", "healthcare": "hospital", "helipad": "yes", "name": "Mount Grant General Hospital", "opening_hours": "24/7", "phone": "+1 775 945 2461", "type": "multipolygon", "website": "https://mtgrantgenhospital.org/"}}]