[{"name": "Jerold Phelps Community Hospital", "latitude": 40.101622, "longitude": -123.792503, "source": "osm", "_tags": {"addr:city": "Garberville", "addr:housenumber": "733", "addr:postcode": "95542", "addr:state": "CA", "addr:street": "Cedar Street", "amenity": "hospital", "ele": "168", "emergency": "yes", "gnis:feature_id": "1682026", "healthcare": "hospital", "name": "Jerold Phelps Community Hospital", "operator": "Southern Humboldt Community Healthcare District", "phone": "+1 707-923-3921", "website": "https://shchd.org/jerold-phelps-community-hospital/"}}, {"name": "Anderson Medical Associates", "latitude": 40.4505695, "longitude": -122.2967393, "source": "osm", "_tags": {"amenity": "hospital", "emergency": "no", "healthcare": "hospital", "name": "Anderson Medical Associates", "source": "GPS Survey"}}, {"name": "", "latitude": 40.5804711, "longitude": -122.3943013, "source": "osm", "_tags": {"amenity": "hospital", "healthcare": "hospital", "operator": "Dignity Health", "operator:wikidata": "Q5276334"}}, {"name": "Restpadd Red Bluff Psychiatric Health Facility", "latitude": 40.1747476, "longitude": -122.2424489, "source": "osm", "_tags": {"addr:city": "Red Bluff", "addr:housenumber": "925", "addr:postcode": "96080", "addr:street": "Walnut Street", "amenity": "hospital", "beds": "16", "healthcare": "hospital", "healthcare:speciality": "psychiatry", "name": "Restpadd Red Bluff Psychiatric Health Facility", "phone": "+1 530 567 7300", "website": "https://www.restpaddhealth.com"}}, {"name": "Sempervirens Psychiatric Health Facility", "latitude": 40.7807166, "longitude": -124.1606002, "source": "osm", "_tags": {"addr:city": "Eureka", "addr:housenumber": "720", "addr:postcode": "95501-4413", "addr:street": "Wood Street", "amenity": "hospital", "beds": "16", "healthcare": "hospital", "healthcare:speciality": "psychiatry", "name": "Sempervirens Psychiatric Health Facility", "phone": "+1 707 445 7710", "website": "https://humboldtgov.org/437/Sempervirens-Psychiatric-Health-Facility"}}, {"name": "Providence St. Joseph Hospital Eureka", "latitude": 40.7840724, "longitude": -124.1422189, "source": "osm", "_tags": {"addr:city": "Eureka", "addr:housenumber": "2700", "addr:postcode": "95501", "addr:state": "CA", "addr:street": "Dolbeer Street", "amenity": "hospital", "healthcare": "hospital", "name": "Providence St. Joseph Hospital Eureka"}}, {"name": "General Hospital Campus", "latitude": 40.7885875, "longitude": -124.1409684, "source": "osm", "_tags": {"addr:city": "Eureka", "addr:postcode": "95501", "amenity": "hospital", "emergency": "no", "gnis:feature_id": "1681986", "healthcare": "hospital", "name": "General Hospital Campus", "operator": "Saint Joseph Health", "website": "https://www.stjoehumboldt.org/", "wheelchair": "yes"}}, {"name": "Saint Josephs Hospital", "latitude": 40.7839429, "longitude": -124.1422045, "source": "osm", "_tags": {"addr:city": "Eureka", "addr:housenumber": "2700", "addr:postcode": "95501", "addr:state": "CA", "addr:street": "Dolbeer Street", "amenity": "hospital", "emergency": "yes", "gnis:feature_id": "1682023", "healthcare": "hospital", "name": "Saint Josephs Hospital", "opening_hours": "24/7", "operator": "Saint Joseph Health", "operator:type": "religious", "phone": "+1 707 445 8121", "website": "https://www.stjoehumboldt.org/", "wheelchair": "yes", "wikidata": "Q50039309"}}, {"name": "Mad River Community Hospital", "latitude": 40.8960998, "longitude": -124.0913378, "source": "osm", "_tags": {"addr:city": "Arcata", "addr:housenumber": "3800", "addr:postcode": "95521", "addr:state": "CA", "addr:street": "Janes Road", "amenity": "hospital", "beds": "78", "emergency": "yes", "gnis:feature_id": "1681913", "healthcare": "hospital", "name": "Mad River Community Hospital", "opening_hours": "24/7", "phone": "+1 707 822 3621", "website": "https://madriverhospital.com/"}}, {"name": "Mercy Medical Center Redding", "latitude": 40.5717552, "longitude": -122.3958995, "source": "osm", "_tags": {"addr:city": "Redding", "addr:housenumber": "2175", "addr:postcode": "96001", "addr:state": "CA", "addr:street": "Rosaline Avenue", "amenity": "hospital", "beds": "267", "emergency": "yes", "gnis:feature_id": "1659112", "healthcare": "hospital", "name": "Mercy Medical Center Redding", "opening_hours": "24/7", "operator": "Dignity Health", "operator:wikidata": "Q5276334", "phone": "+1 530 225 6000", "website": "https://www.dignityhealth.org/north-state/locations/mercy-redding"}}, {"name": "Shasta Regional Medical Center", "latitude": 40.5851965, "longitude": -122.3876243, "source": "osm", "_tags": {"addr:city": "Redding", "addr:housenumber": "1100", "addr:postcode": "96001", "addr:state": "CA", "addr:street": "Butte Street", "amenity": "hospital", "beds": "226", "emergency": "yes", "healthcare": "hospital", "name": "Shasta Regional Medical Center", "old_name": "Redding Medical Center", "opening_hours": "24/7", "operator": "Prime Healthcare Services", "operator:wikidata": "Q7243267", "phone": "+1 530 244 5400", "short_name": "SRMC", "website": "https://www.shastaregional.com/", "wikidata": "Q14683958", "wikipedia": "en:Shasta Regional Medical Center"}}, {"name": "", "latitude": 40.5850761, "longitude": -122.4140001, "source": "osm", "_tags": {"amenity": "hospital", "healthcare": "hospital"}}, {"name": "Redwood Memorial Hospital", "latitude": 40.5820697, "longitude": -124.1363079, "source": "osm", "_tags": {"addr:city": "Fortuna", "addr:housenumber": "3300", "addr:postcode": "95540", "addr:state": "CA", "addr:street": "Renner Drive", "amenity": "hospital", "beds": "25", "emergency": "yes", "gnis:feature_id": "1656251", "healthcare": "hospital", "name": "Redwood Memorial Hospital", "opening_hours": "24/7", "operator": "Saint Joseph Health", "phone": "+1 707 725 3361", "website": "https://www.stjoehumboldt.org/"}}, {"name": "Trinity Hospital", "latitude": 40.7384272, "longitude": -122.9397999, "source": "osm", "_tags": {"addr:city": "Weaverville", "addr:housenumber": "60", "addr:postcode": "96093", "addr:state": "CA", "addr:street": "Easter Avenue", "amenity": "hospital", "beds": "25", "emergency": "yes", "gnis:feature_id": "1683068", "healthcare": "hospital", "name": "Trinity Hospital", "opening_hours": "24/7", "operator": "Mountain Communities Healthcare District", "phone": "+1 530 623 5541", "website": "http://www.mcmedical.org/trinity-hospital/", "wheelchair": "yes"}}, {"name": "Saint Elizabeth Community Hospital", "latitude": 40.1482632, "longitude": -122.2195339, "source": "osm", "_tags": {"addr:city": "Red Bluff", "addr:housenumber": "2550", "addr:postcode": "96080", "addr:state": "CA", "addr:street": "Sister Mary Columba Drive", "amenity": "hospital", "emergency": "yes", "healthcare": "hospital", "name": "Saint Elizabeth Community Hospital", "opening_hours": "24/7", "operator": "Dignity Health", "operator:wikidata": "Q5276334", "phone": "+1 530 529 8000", "website": "https://www.dignityhealth.org/north-state/locations/stelizabethhospital", "wikidata": "Q43303026"}}, {"name": "Mendocino Coast District Hospital", "latitude": 39.43171, "longitude": -123.8005006, "source": "osm", "_tags": {"addr:city": "Fort Bragg", "addr:housenumber": "700", "addr:postcode": "95437", "addr:state": "CA", "addr:street": "River Drive", "amenity": "hospital", "beds": "25", "emergency": "yes", "gnis:feature_id": "1724112", "healthcare": "hospital", "name": "Mendocino Coast District Hospital", "opening_hours": "24/7", "phone": "+1 707 961 1234", "short_name": "MCDH", "website": "http://www.mcdh.org/", "wikidata": "Q43895413"}}, {"name": "Adventist Health Howard Memorial", "latitude": 39.3900669, "longitude": -123.3388334, "source": "osm", "_tags": {"addr:city": "Willits", "addr:housenumber": "1", "addr:postcode": "95437", "addr:state": "CA", "addr:street": "Marcela Drive", "amenity": "hospital", "emergency": "yes", "healthcare": "hospital", "name": "Adventist Health Howard Memorial", "opening_hours": "24/7", "operator": "Adventist Health", "operator:wikidata": "Q4686452", "operator:wikipedia": "en:Adventist Health", "phone": "+1 707 459 6801", "website": "https://www.adventisthealth.org/howard-memorial/", "wikidata": "Q5489125", "wikipedia": "en:Frank R. Howard Memorial Hospital"}}, {"name": "Adventist Health Ukiah Valley", "latitude": 39.152879, "longitude": -123.2026175, "source": "osm", "_tags": {"addr:city": "Ukiah", "addr:housenumber": "275", "addr:postcode": "95482", "addr:state": "CA", "addr:street": "Hospital Drive", "amenity": "hospital", "beds": "78", "emergency": "yes", "gnis:feature_id": "1724271", "healthcare": "hospital", "name": "Adventist Health Ukiah Valley", "name_1": "Ukiah Valley Medical Center", "old_name": "Ukiah Valley Medical Center", "opening_hours": "24/7", "operator": "Adventist Health", "operator:wikidata": "Q4686452", "operator:wikipedia": "en:Adventist Health", "phone": "+1 707 462 3111", "website": "https://www.adventisthealth.org/ukiah-valley/", "wikidata": "Q7878306", "wikipedia": "en:Ukiah Valley Medical Center"}}, {"name": "Sutter Lakeside Hospital", "latitude": 39.1050193, "longitude": -122.906456, "source": "osm", "_tags": {"addr:city": "Lakeport", "addr:housenumber": "5176", "addr:postcode": "95453", "addr:state": "CA", "addr:street": "Hill Road East", "amenity": "hospital", "beds": "25", "emergency": "yes", "gnis:feature_id": "1658933", "healthcare": "hospital", "name": "Sutter Lakeside Hospital", "opening_hours": "24/7", "operator": "Sutter Health", "operator:website": "https://www.sutterhealth.org/", "operator:wikidata": "Q7650154", "operator:wikipedia": "en:Sutter Health", "phone": "+1 707 262 5000", "website": "https://www.sutterhealth.org/find-location/facility/sutter-lakeside-hospital", "wheelchair": "yes"}}, {"name": "Glenn Medical Center", "latitude": 39.5217045, "longitude": -122.2081428, "source": "osm", "_tags": {"addr:city": "Willows", "addr:housenumber": "1133", "addr:postcode": "95988", "addr:state": "CA", "addr:street": "West Sycamore Street", "amenity": "hospital", "emergency": "yes", "gnis:feature_id": "1702587", "healthcare": "hospital", "name": "Glenn Medical Center", "opening_hours": "24/7", "phone": "+1 530 934 1800", "website": "https://glennmed.org/"}}, {"name": "Frank R. Howard Memorial Hospital", "latitude": 39.4003881, "longitude": -123.3509836, "source": "osm", "_tags": {"addr:city": "Willits", "addr:street": "Madrone Street", "amenity": "hospital", "healthcare": "hospital", "name": "Frank R. Howard Memorial Hospital", "wikidata": "Q5489125", "wikipedia": "en:Adventist Health Howard Memorial Hospital"}}, {"name": "Patients' Hospital of Redding", "latitude": 40.5859234, "longitude": -122.4167716, "source": "osm", "_tags": {"addr:city": "Redding", "addr:housenumber": "2900", "addr:postcode": "90301", "addr:street": "Eureka Way", "amenity": "hospital", "beds": "10", "building": "hospital", "emergency": "no", "healthcare": "hospital", "healthcare:speciality": "surgery", "name": "Patients' Hospital of Redding", "phone": "+1 530 225 8700", "type": "multipolygon", "website": "https://www.patientshospital.com/"}}]