[{"name": "Tennyson Center for Children at Colorado Christian Home", "latitude": 39.7594523, "longitude": -105.0434853, "source": "osm", "_tags": {"addr:city": "Denver", "addr:housenumber": "2950", "addr:postcode": "80212", "addr:state": "CO", "addr:street": "Tennyson Street", "amenity": "hospital", "emergency": "no", "gnis:feature_id": "181681", "healthcare": "hospital", "name": "Tennyson Center for Children at Colorado Christian Home", "phone": "+1-303-433-2541", "website": "https://www.tennysoncenter.org/"}}, {"name": "Colorado Mental Health Institute-Fort Logan", "latitude": 39.641285, "longitude": -105.034208, "source": "osm", "_tags": {"amenity": "hospital", "ele": "1652", "emergency": "no", "gnis:feature_id": "182220", "healthcare": "hospital", "name": "Colorado Mental Health Institute-Fort Logan"}}, {"name": "University of Colorado Hospital", "latitude": 39.7425435, "longitude": -104.841661, "source": "osm", "_tags": {"addr:housenumber": "12605", "addr:postcode": "80045", "addr:state": "CO", "addr:street": "East 16th Avenue", "amenity": "hospital", "emergency": "yes", "gnis:feature_id": "2108151", "healthcare": "hospital", "name": "University of Colorado Hospital", "phone": "+1-720-848-0000", "website": "https://www.uchealth.org/metrodenver/Pages/default.aspx", "wikidata": "Q7895285"}}, {"name": "Kindred Hospital Denver", "latitude": 39.74628, "longitude": -104.9644468, "source": "osm", "_tags": {"addr:city": "Denver", "addr:housenumber": "1920", "addr:postcode": "80218", "addr:state": "CO", "addr:street": "High Street", "amenity": "hospital", "emergency": "no", "gnis:feature_id": "2369955", "healthcare": "hospital", "name": "Kindred Hospital Denver", "phone": "+1-303-320-5871"}}, {"name": "Denver West Surgery Center", "latitude": 39.7464202, "longitude": -105.1529788, "source": "osm", "_tags": {"amenity": "hospital", "ele": "1729", "emergency": "no", "gnis:feature_id": "2369966", "healthcare": "hospital", "name": "Denver West Surgery Center"}}, {"name": "Child First Pediatrics", "latitude": 39.5840004, "longitude": -104.8848628, "source": "osm", "_tags": {"amenity": "hospital", "emergency": "no", "healthcare": "hospital", "name": "Child First Pediatrics"}}, {"name": "The Denver Hospice", "latitude": 39.7199008, "longitude": -104.8919851, "source": "osm", "_tags": {"addr:city": "Denver", "addr:housenumber": "8299", "addr:postcode": "80230", "addr:state": "CO", "addr:street": "East Lowry Boulevard", "amenity": "hospital", "emergency": "no", "healthcare": "hospital", "name": "The Denver Hospice", "phone": "+1-303-418-3000", "source": "Bing", "website": "https://thedenverhospice.org/"}}, {"name": "Kindred Hospital Aurora", "latitude": 39.7281498, "longitude": -104.826609, "source": "osm", "_tags": {"addr:city": "Aurora", "addr:housenumber": "700", "addr:postcode": "80011", "addr:street": "Potomac Street", "amenity": "hospital", "beds": "37", "emergency": "no", "healthcare": "hospital", "level": "2", "name": "Kindred Hospital Aurora", "note": "transitional care hospital", "old_name": "Triumph Healthcare", "operator": "Kindred Healthcare", "operator:wikidata": "Q921363", "operator:wikipedia": "en:Kindred Healthcare", "phone": "+1-303-857-8333", "website": "http://www.khaurora.com/"}}, {"name": "Denver Health Medical Center Emergency Department Trauma Center", "latitude": 39.7284644, "longitude": -104.990709, "source": "osm", "_tags": {"addr:city": "Denver", "addr:housenumber": "777", "addr:postcode": "80204", "addr:state": "CO", "addr:street": "Bannock Street", "amenity": "hospital", "emergency": "yes", "healthcare": "hospital", "name": "Denver Health Medical Center Emergency Department Trauma Center", "opening_hours": "24/7", "phone": "+1-303-602-8100", "website": "https://www.denverhealth.org/services/emergency-medicine"}}, {"name": "Denver Health Medical Emergency Center for Children", "latitude": 39.7276243, "longitude": -104.9908679, "source": "osm", "_tags": {"addr:city": "Denver", "addr:housenumber": "777", "addr:postcode": "80204", "addr:state": "CO", "addr:street": "Bannock Street", "amenity": "hospital", "emergency": "yes", "healthcare": "hospital", "healthcare:speciality": "paediatrics", "name": "Denver Health Medical Emergency Center for Children", "opening_hours": "24/7", "phone": "+1-303-436-6000", "website": "https://www.denverhealth.org/services/emergency-medicine/pediatric-emergency-urgent-care"}}, {"name": "Hearing Rehab Center", "latitude": 40.5558611, "longitude": -105.0953676, "source": "osm", "_tags": {"addr:city": "Fort Collins", "addr:housenumber": "1030", "addr:postcode": "80526", "addr:state": "CO", "addr:street": "Centre Avenue", "amenity": "hospital", "emergency": "no", "healthcare": "hospital", "name": "Hearing Rehab Center"}}, {"name": "Health Unit", "latitude": 39.7173623, "longitude": -105.116451, "source": "osm", "_tags": {"addr:city": "Lakewood", "addr:housename": "Building 40", "addr:housenumber": "40", "addr:state": "CO", "addr:street": "Fifth Street", "amenity": "hospital", "emergency": "no", "healthcare": "hospital", "name": "Health Unit", "phone": "+1-303-236-3333"}}, {"name": "SCL Health Saint Joseph Hospital", "latitude": 39.7461762, "longitude": -104.9710857, "source": "osm", "_tags": {"addr:city": "Denver", "addr:housenumber": "1375", "addr:postcode": "80218", "addr:state": "CO", "addr:street": "East 19th Avenue", "alt_name": "Saint Joseph Hospital", "amenity": "hospital", "emergency": "yes", "healthcare": "hospital", "name": "SCL Health Saint Joseph Hospital", "old_name": "Exempla Saint Joseph Hospital", "phone": "+1-303-812-2000", "source": "DigitalGlobe-Standard", "website": "https://www.sclhealth.org/locations/saint-joseph-hospital/", "wikidata": "Q5419994"}}, {"name": "UCHealth Highlands Ranch Hospital", "latitude": 39.5522109, "longitude": -105.005541, "source": "osm", "_tags": {"addr:city": "Highlands Ranch", "addr:housenumber": "1500", "addr:postcode": "80129", "addr:state": "CO", "addr:street": "Park Central Drive", "amenity": "hospital", "healthcare": "hospital", "healthcare:speciality": "general;surgery;emergency;cancer", "name": "UCHealth Highlands Ranch Hospital", "operator": "UCHealth", "source": "DigitalGlobe Standard"}}, {"name": "UCHealth Sterling Ranch Medical Center", "latitude": 39.5068577, "longitude": -105.0374595, "source": "osm", "_tags": {"addr:city": "Littleton", "addr:housenumber": "8155", "addr:postcode": "80125", "addr:state": "CO", "addr:street": "Piney River Avenue", "amenity": "hospital", "healthcare": "hospital", "name": "UCHealth Sterling Ranch Medical Center"}}, {"name": "Cherry Hills Assisted Living & Memory Care", "latitude": 39.6020058, "longitude": -104.960809, "source": "osm", "_tags": {"addr:city": "Centennial", "addr:postcode": "80121", "addr:state": "CO", "addr:street": "South University Boulevard", "amenity": "hospital", "emergency": "no", "healthcare": "hospital", "name": "Cherry Hills Assisted Living & Memory Care"}}, {"name": "Action Behavior Centers - ABA Therapy for Autism", "latitude": 40.1362681, "longitude": -105.1237378, "source": "osm", "_tags": {"addr:city": "Longmont", "addr:housenumber": "1921", "addr:postcode": "80501", "addr:state": "CO", "addr:street": "Corporate Center Circle", "addr:unit": "Suite 3G", "amenity": "hospital", "description": "Our Longmont ABA Therapy center provides services for early learners, school-age children, and teens on the Autism Spectrum. Applied Behavior Analysis (ABA) therapy is the leading treatment method to improve the signs and symptoms associated with ASD.", "healthcare": "hospital", "healthcare:speciality": "mental_health", "name": "Action Behavior Centers - ABA Therapy for Autism", "phone": "+1 720-405-6201", "source": "esri_USDOT_ColoradoOITGIS", "website": "https://www.actionbehavior.com/locations/aba-therapy-longmont-co/"}}, {"name": "The Root Acupuncture", "latitude": 39.6828034, "longitude": -105.1560498, "source": "osm", "_tags": {"addr:city": "Lakewood", "addr:housenumber": "13701", "addr:postcode": "80228", "addr:state": "CO", "addr:street": "West Jewell Avenue", "addr:unit": "Suite #204", "amenity": "hospital", "description": "The Root Acupuncture has successfully used acupuncture and Chinese Medicine to treat a wide range of conditions, but specializes in musculo-skeletal pain, digestive disorders, auto-immune conditions, sleep disorders, and stress management. We use a wide r", "healthcare": "hospital", "name": "The Root Acupuncture", "operator": "Erik Johnson", "operator:type": "private", "phone": "+1-303-500-5075", "website": "https://therootacupuncture.com/"}}, {"name": "Middle Park Medical Center - Granby Campus", "latitude": 40.075728, "longitude": -105.925792, "source": "osm", "_tags": {"addr:city": "Granby", "addr:housenumber": "1000", "addr:postcode": "80446", "addr:state": "CO", "addr:street": "Granby Park Drive", "amenity": "hospital", "beds": "7", "healthcare": "hospital", "name": "Middle Park Medical Center - Granby Campus", "operator": "Middle Park Health", "phone": "+1-970-887-5800", "website": "https://middleparkhealth.org/locations/granby/"}}, {"name": "Reunion Rehabilitation Hospital Denver", "latitude": 39.7814708, "longitude": -104.8822514, "source": "osm", "_tags": {"addr:city": "Denver", "addr:housenumber": "4650", "addr:postcode": "80238", "addr:street": "Central Park Boulevard", "amenity": "hospital", "beds": "40", "healthcare": "rehabilitation", "name": "Reunion Rehabilitation Hospital Denver", "phone": "+1-720-734-3500", "website": "https://reunionrehabhospital.com/locations/denver"}}, {"name": "Encompass Health Rehab Hospital Of Littleton", "latitude": 39.5745418, "longitude": -105.0000982, "source": "osm", "_tags": {"addr:city": "Littleton", "addr:housenumber": "1001", "addr:postcode": "80120", "addr:street": "West Mineral Avenue", "amenity": "hospital", "beds": "60", "healthcare": "rehabilitation", "name": "Encompass Health Rehab Hospital Of Littleton", "phone": "+1-303-334-1100", "website": "https://encompasshealth.com/locations/littletonrehab"}}, {"name": "PAM Health Rehabilitation Hospital of Westminster", "latitude": 39.8874695, "longitude": -105.0683388, "source": "osm", "_tags": {"amenity": "hospital", "beds": "36", "healthcare": "rehabilitation", "name": "PAM Health Rehabilitation Hospital of Westminster", "old_name": "SCL Health Community Hospital - Westminster", "phone": "+1-817-994-9575", "website": "https://pamhealth.com/facilities/find-facility/rehabilitation-hospitals/pam-health-rehabilitation-hospital-westminster"}}, {"name": "Longs Peak Hospital", "latitude": 40.1620559, "longitude": -105.0585095, "source": "osm", "_tags": {"addr:city": "Longmont", "addr:housenumber": "1750", "addr:postcode": "80504", "addr:state": "CO", "addr:street": "East Ken Pratt Boulevard", "amenity": "hospital", "beds": "57", "healthcare": "hospital", "name": "Longs Peak Hospital", "phone": "+1-720-718-3005", "website": "https://www.uchealth.org/locations/uchealth-longs-peak-hospital"}}, {"name": "Emergency Room", "latitude": 39.6708975, "longitude": -104.9750283, "source": "osm", "_tags": {"amenity": "hospital", "healthcare": "hospital", "name": "Emergency Room"}}, {"name": "", "latitude": 40.0026041, "longitude": -105.1020576, "source": "osm", "_tags": {"amenity": "hospital", "healthcare": "hospital", "operator": "AdventHealth", "operator:wikidata": "Q3509447"}}, {"name": "Injecting Confidence Aesthetic Medicine", "latitude": 39.5651977, "longitude": -104.8695981, "source": "osm", "_tags": {"addr:city": "Centennial", "addr:housenumber": "8200", "addr:postcode": "80112", "addr:state": "CO", "addr:street": "South Quebec Street", "addr:unit": "A-14", "healthcare": "hospital", "name": "Injecting Confidence Aesthetic Medicine", "note": "check position, could be SPAM", "opening_hours": "Mo-Fr 10:00-18:00", "operator": "Katie Guest", "phone": "+1-720-309-6010", "website": "https://injectingconfidence.com/"}}, {"name": "UCHealth Emergency Room & Primary Care", "latitude": 39.5442116, "longitude": -104.9446386, "source": "osm", "_tags": {"addr:city": "Highlands Ranch", "addr:housenumber": "9475", "addr:postcode": "80126", "addr:state": "CO", "addr:street": "South University Boulevard", "amenity": "hospital", "building": "hospital", "check_date": "2024-08-13", "emergency": "yes", "healthcare": "hospital", "name": "UCHealth Emergency Room & Primary Care", "opening_hours": "Mo-Fr 07:00-18:00", "phone": "+1-303-470-4071", "website": "https://www.uchealth.org/locations/uchealth-primary-care-highlands-ranch/"}}, {"name": "Devereux Cleo Wallace", "latitude": 39.8825595, "longitude": -105.0913355, "source": "osm", "_tags": {"addr:city": "Westminster", "addr:housenumber": "8405", "addr:postcode": "80021", "addr:state": "CO", "addr:street": "Church Ranch Boulevard", "amenity": "hospital", "contact:phone": "+1 303 466 7391", "contact:website": "http://www.devereux.org/site/PageServer?pagename=co_contact", "emergency": "no", "healthcare": "hospital", "healthcare:speciality": "psychiatry", "name": "Devereux Cleo Wallace"}}, {"name": "Sky Ridge Medical Center", "latitude": 39.5289523, "longitude": -104.8712604, "source": "osm", "_tags": {"addr:city": "Lone Tree", "addr:housenumber": "10101", "addr:postcode": "80124", "addr:state": "CO", "addr:street": "RidgeGate Parkway", "amenity": "hospital", "emergency": "yes", "gnis:feature_id": "2369964", "healthcare": "hospital", "name": "Sky Ridge Medical Center", "opening_hours": "24/7", "phone": "+1 720 225 1000", "website": "https://skyridgemedcenter.com/", "wheelchair": "yes"}}, {"name": "Saint Anthony Summit Medical Center", "latitude": 39.5698533, "longitude": -106.076606, "source": "osm", "_tags": {"addr:city": "Frisco", "addr:housenumber": "340", "addr:postcode": "80443", "addr:state": "CO", "addr:street": "Peak One Drive", "amenity": "hospital", "emergency": "yes", "healthcare": "hospital", "name": "Saint Anthony Summit Medical Center", "opening_hours": "24/7", "operator": "Centura Health", "phone": "+1 970 668 3300", "website": "https://www.centura.org/locations/st-anthony-summit-medical-center"}}, {"name": "AdventHealth Parker Hospital", "latitude": 39.5485744, "longitude": -104.7693087, "source": "osm", "_tags": {"addr:city": "Parker", "addr:housenumber": "9395", "addr:postcode": "80138", "addr:state": "CO", "addr:street": "Crown Crest Boulevard", "amenity": "hospital", "emergency": "yes", "healthcare": "hospital", "name": "AdventHealth Parker Hospital", "opening_hours": "24/7", "operator": "AdventHealth", "operator:type": "private", "operator:wikidata": "Q3509447", "phone": "+1 303 269 4000", "website": "https://www.adventhealth.com/hospital/adventhealth-parker", "wikidata": "Q97185262", "wikipedia": "en:List of AdventHealth hospitals"}}, {"name": "Platte Valley Medical Center", "latitude": 39.964656, "longitude": -104.7688915, "source": "osm", "_tags": {"addr:city": "Brighton", "addr:housenumber": "1600", "addr:postcode": "80601", "addr:state": "CO", "addr:street": "Prairie Center Parkway", "amenity": "hospital", "building": "yes", "emergency": "yes", "healthcare": "hospital", "name": "Platte Valley Medical Center", "phone": "+1 303-659-5800", "website": "http://pvmc.org", "wheelchair": "yes"}}, {"name": "Centennial Peaks Hospital", "latitude": 39.9520487, "longitude": -105.1483597, "source": "osm", "_tags": {"addr:city": "Louisville", "addr:housenumber": "2255", "addr:postcode": "80027", "addr:state": "CO", "addr:street": "South 88th Street", "amenity": "hospital", "building": "hospital", "ele": "1672", "emergency": "no", "healthcare": "hospital", "healthcare:speciality": "psychiatry", "name": "Centennial Peaks Hospital"}}, {"name": "Highlands Behavioral Health", "latitude": 39.5628045, "longitude": -104.9077047, "source": "osm", "_tags": {"addr:city": "Littleton", "addr:housenumber": "8565", "addr:postcode": "80130", "addr:state": "CO", "addr:street": "South Poplar Way", "amenity": "hospital", "beds": "86", "building": "hospital", "contact:phone": "+1 720 348 2800", "contact:website": "http://www.highlandsbhs.com/", "emergency": "no", "gnis:feature_id": "2085570", "healthcare": "hospital", "healthcare:speciality": "psychiatry", "name": "Highlands Behavioral Health", "old_name": "Columbine Hospital", "source": "Bing"}}, {"name": "Northeast Emergency Room", "latitude": 39.9279085, "longitude": -104.9231693, "source": "osm", "_tags": {"addr:city": "Thornton", "addr:housenumber": "12793", "addr:postcode": "80602", "addr:state": "CO", "addr:street": "Holly Street", "amenity": "hospital", "building": "yes", "emergency": "yes", "healthcare": "hospital", "name": "Northeast Emergency Room", "phone": "+1 303 280 6640", "website": "https://www.northsuburban.com/er"}}, {"name": "Platte Valley Medical Center", "latitude": 39.9639606, "longitude": -104.7686877, "source": "osm", "_tags": {"addr:city": "Brighton", "addr:housenumber": "1600", "addr:postcode": "80601", "addr:state": "CO", "addr:street": "Prairie Center Parkway", "amenity": "hospital", "emergency": "yes", "healthcare": "hospital", "name": "Platte Valley Medical Center", "opening_hours": "24/7", "operator": "SCL Health", "phone": "+1 303 498 1600", "website": "https://www.sclhealth.org/locations/platte-valley-medical-center/"}}, {"name": "Salud Family Health Center", "latitude": 39.8102897, "longitude": -104.9041024, "source": "osm", "_tags": {"addr:city": "Commerce City", "addr:housenumber": "6255", "addr:postcode": "80022", "addr:state": "CO", "addr:street": "Quebec Parkway", "amenity": "hospital", "building": "yes", "emergency": "no", "healthcare": "hospital", "name": "Salud Family Health Center", "phone": "+1 303 286 8900", "website": "http://www.saludclinic.org/#!commerce-city/c1sjf"}}, {"name": "The Medical Center Of Aurora", "latitude": 39.6901481, "longitude": -104.8328339, "source": "osm", "_tags": {"addr:city": "Aurora", "addr:housenumber": "1501", "addr:postcode": "80012", "addr:state": "CO", "addr:street": "South Potomac Street", "amenity": "hospital", "beds": "346", "emergency": "yes", "gnis:feature_id": "2088750", "healthcare": "hospital", "name": "The Medical Center Of Aurora", "old_name": "Aurora Regional Medical Center", "opening_hours": "24/7", "operator": "HCA", "operator:wikidata": "Q1630431", "operator:wikipedia": "en:HCA Healthcare", "phone": "+1 303 695 2600", "source": "Bing", "website": "https://auroramed.com/", "wikidata": "Q7750861"}}, {"name": "AdventHealth Porter Hospital", "latitude": 39.6699454, "longitude": -104.9758624, "source": "osm", "_tags": {"addr:city": "Denver", "addr:housenumber": "2525", "addr:postcode": "80210", "addr:state": "CO", "addr:street": "South Downing Street", "amenity": "hospital", "beds": "368", "emergency": "yes", "gnis:feature_id": "184879", "healthcare": "hospital", "healthcare:speciality": "orthopaedics;cardiology;transplant;oncology;psychiatry", "name": "AdventHealth Porter Hospital", "opening_hours": "24/7", "operator": "AdventHealth", "operator:type": "private", "operator:wikidata": "Q3509447", "phone": "+1-303-778-1955", "source": "Bing", "website": "https://www.centura.org/locations/porter-adventist-hospital"}}, {"name": "Swedish Medical Center", "latitude": 39.6540609, "longitude": -104.9802372, "source": "osm", "_tags": {"addr:city": "Englewood", "addr:housenumber": "501", "addr:postcode": "80113", "addr:state": "CO", "addr:street": "East Hampden Avenue", "amenity": "hospital", "beds": "408", "emergency": "yes", "gnis:feature_id": "184797", "healthcare": "hospital", "name": "Swedish Medical Center", "opening_hours": "24/7", "operator": "HCA", "operator:wikidata": "Q1630431", "operator:wikipedia": "en:HCA Healthcare", "phone": "+1 303 788 5000", "website": "https://swedishhospital.com/", "wikidata": "Q7654751", "wikipedia": "en:Swedish Medical Center (Colorado)"}}, {"name": "Metro Community Providers North Aurora Family Health Services", "latitude": 39.76368, "longitude": -104.8453958, "source": "osm", "_tags": {"addr:city": "Aurora", "addr:housenumber": "3292", "addr:postcode": "80010", "addr:state": "CO", "addr:street": "Peoria Street", "amenity": "hospital", "building": "office", "emergency": "no", "fax": "+1-303-695-9424", "healthcare": "hospital", "name": "Metro Community Providers North Aurora Family Health Services", "phone": "+1-303-360-6276", "source": "Bing", "website": "https://mcpn.org/north-aurora-family-health-services-nafhs/"}}, {"name": "Children's Hospital Colorado Emergency Department (ED)", "latitude": 39.7423379, "longitude": -104.836152, "source": "osm", "_tags": {"addr:housenumber": "13123", "addr:postcode": "80045", "addr:state": "CO", "addr:street": "East 16th Avenue", "amenity": "hospital", "building": "office", "emergency": "yes", "healthcare": "hospital", "name": "Children's Hospital Colorado Emergency Department (ED)", "phone": "+1 720 777 1234", "source": "bing", "website": "https://www.childrenscolorado.org/about/locations/aurora"}}, {"name": "Children's Hospital Colorado Anschutz Medical Campus, Aurora", "latitude": 39.7421317, "longitude": -104.8347914, "source": "osm", "_tags": {"addr:city": "Aurora", "addr:housenumber": "13123", "addr:postcode": "80045", "addr:state": "CO", "addr:street": "East 16th Avenue", "addr:unit": "Bld A", "amenity": "hospital", "building": "yes", "description": "Level 1 pediatric trauma center equipped to handle any pediatric emergency for kids from birth through young adulthood.", "emergency": "yes", "healthcare": "hospital", "name": "Children's Hospital Colorado Anschutz Medical Campus, Aurora", "opening_hours": "24/7", "phone": "+1 720 777 1234", "website": "https://www.childrenscolorado.org/about/locations/aurora"}}, {"name": "Anschutz Inpatient Pavilion 2 & Emergency Department (University Hospital)", "latitude": 39.742439, "longitude": -104.8426795, "source": "osm", "_tags": {"addr:city": "Aurora", "addr:housename": "(AIP2)", "addr:housenumber": "12505", "addr:postcode": "80045", "addr:state": "CO", "addr:street": "East 16th Avenue", "amenity": "hospital", "building": "office", "emergency": "yes", "healthcare": "hospital", "name": "Anschutz Inpatient Pavilion 2 & Emergency Department (University Hospital)", "phone": "+1-720-848-0000", "source": "Bing", "website": "https://www.uchealth.org/Pages/OHAM/OrgUnitDetails.aspx?OrganizationalUnitId=23"}}, {"name": "UCH Center for Dependency Addiction & Rehabilitation (CeDAR)", "latitude": 39.7428226, "longitude": -104.8458108, "source": "osm", "_tags": {"addr:housenumber": "1693", "addr:postcode": "80045", "addr:state": "CO", "addr:street": "Quentin Street", "amenity": "hospital", "emergency": "no", "healthcare": "hospital", "name": "UCH Center for Dependency Addiction & Rehabilitation (CeDAR)", "phone": "+1-877-999-0538", "source": "UCH", "website": "https://www.uchealth.org/cedar/Pages/default.aspx"}}, {"name": "Marion Downs Hearing Center", "latitude": 39.7444131, "longitude": -104.8451052, "source": "osm", "_tags": {"addr:housenumber": "1793", "addr:postcode": "80045", "addr:state": "CO", "addr:street": "Quentin Street", "amenity": "hospital", "emergency": "no", "healthcare": "hospital", "name": "Marion Downs Hearing Center", "phone": "+1-720-848-3042", "source": "bing", "website": "https://www.mariondowns.com/"}}, {"name": "Denver Health Montbello Family Health Center", "latitude": 39.7812652, "longitude": -104.8438302, "source": "osm", "_tags": {"addr:city": "Denver", "addr:housenumber": "12600", "addr:postcode": "80239", "addr:state": "CO", "addr:street": "Albrook Drive", "amenity": "clinic", "building": "hospital", "emergency": "no", "healthcare": "hospital", "name": "Denver Health Montbello Family Health Center", "phone": "+1-303-602-4000", "source": "Bing", "website": "https://www.denverhealth.org/for-patients-and-visitors/our-locations/montbello-community-health-center"}}, {"name": "North Colorado Medical Center", "latitude": 40.414847, "longitude": -104.7088849, "source": "osm", "_tags": {"addr:city": "Greeley", "addr:housenumber": "1801", "addr:postcode": "80631", "addr:state": "CO", "addr:street": "16th Street", "amenity": "hospital", "emergency": "yes", "gnis:feature_id": "180631", "healthcare": "hospital", "name": "North Colorado Medical Center", "old_name": "Weld County Public Hospital", "opening_hours": "24/7", "phone": "+1 970 810 4121", "website": "https://www.bannerhealth.com/locations/greeley/north-colorado-medical-center", "wikidata": "Q30259619"}}, {"name": "Children's Hospital Colorado Uptown Denver", "latitude": 39.7452813, "longitude": -104.9678241, "source": "osm", "_tags": {"addr:city": "Denver", "addr:housenumber": "1830", "addr:postcode": "80218", "addr:state": "CO", "addr:street": "Franklin Street", "amenity": "hospital", "building": "hospital", "building:colour": "#f5deb3", "building:levels": "5", "emergency": "yes", "healthcare": "hospital", "healthcare:speciality": "paediatrics", "name": "Children's Hospital Colorado Uptown Denver", "opening_hours": "Mo-Fr 08:00-17:00 \"Specialty Clinic\"; 07:00-00:00 \"Urgent Care\"; 24/7 \"Emergency\"", "operator": "Children's Hospital Colorado", "phone": "+1 720 777 1360", "roof:colour": "#4c4c4c", "urgent_care": "07:00-24:00", "website": "https://www.childrenscolorado.org/your-visit/locations/uptown-denver/"}}, {"name": "Good Samaritan Medical Center", "latitude": 39.9698604, "longitude": -105.0865563, "source": "osm", "_tags": {"addr:city": "Lafayette", "addr:housenumber": "200", "addr:postcode": "80026", "addr:state": "CO", "addr:street": "Exempla Circle", "amenity": "hospital", "emergency": "yes", "healthcare": "hospital", "name": "Good Samaritan Medical Center", "opening_hours": "24/7", "operator": "SCL Health", "phone": "+1 303 689 4000", "website": "https://www.sclhealth.org/locations/good-samaritan-medical-center/"}}, {"name": "AdventHealth Avista Hospital", "latitude": 39.9516225, "longitude": -105.1515263, "source": "osm", "_tags": {"addr:city": "Louisville", "addr:housenumber": "100", "addr:postcode": "80027", "addr:state": "CO", "addr:street": "Health Park Drive", "amenity": "hospital", "beds": "114", "emergency": "yes", "healthcare": "hospital", "name": "AdventHealth Avista Hospital", "opening_hours": "24/7", "operator": "AdventHealth", "operator:type": "private_non_profit", "operator:wikidata": "Q3509447", "phone": "+1 303 673 1000", "website": "https://www.adventhealth.com/hospital/adventhealth-avista"}}, {"name": "Saint Anthony North Health Campus", "latitude": 39.9557408, "longitude": -104.9913181, "source": "osm", "_tags": {"addr:city": "Westminster", "addr:housenumber": "14300", "addr:postcode": "80023", "addr:state": "CO", "addr:street": "Orchard Parkway", "amenity": "hospital", "beds": "92", "emergency": "yes", "healthcare": "hospital", "name": "Saint Anthony North Health Campus", "opening_hours": "24/7", "operator": "Centura Health", "phone": "+1 720 627 0000", "website": "https://www.centura.org/locations/st-anthony-north-health-campus"}}, {"name": "Northeast Emergency Room Campus", "latitude": 39.9276056, "longitude": -104.9232282, "source": "osm", "_tags": {"amenity": "hospital", "healthcare": "hospital", "name": "Northeast Emergency Room Campus"}}, {"name": "Foothills Hospital", "latitude": 40.0163519, "longitude": -105.2368921, "source": "osm", "_tags": {"amenity": "hospital", "emergency": "yes", "gnis:feature_id": "2036554", "healthcare": "hospital", "name": "Foothills Hospital", "opening_hours": "24/7", "operator": "Boulder Community Health", "phone": "+1 303 415 7000", "website": "https://www.bch.org/Locations/Foothills-Hospital.aspx"}}, {"name": "UC Health Emergency Room", "latitude": 40.5225982, "longitude": -105.0311823, "source": "osm", "_tags": {"addr:city": "Fort Collins", "addr:housenumber": "4630", "addr:postcode": "80528", "addr:state": "CO", "addr:street": "Snow Mesa Drive", "amenity": "hospital", "building": "hospital", "emergency": "yes", "healthcare": "hospital", "healthcare:speciality": "emergency", "name": "UC Health Emergency Room"}}, {"name": "SCL Health Community Hospital - Northglenn", "latitude": 39.9124362, "longitude": -104.9841534, "source": "osm", "_tags": {"addr:city": "Northglenn", "addr:housenumber": "11900", "addr:postcode": "80233", "addr:state": "CO", "addr:street": "Grant Street", "amenity": "hospital", "emergency": "yes", "healthcare": "hospital", "name": "SCL Health Community Hospital - Northglenn", "opening_hours": "24/7", "operator": "SCL", "phone": "+1 720 573 5020", "website": "http://www.sclhealthcommunity.org/northglenn/"}}, {"name": "", "latitude": 39.7627237, "longitude": -105.0902932, "source": "osm", "_tags": {"amenity": "hospital", "healthcare": "hospital"}}, {"name": "Estes Park Medical Center", "latitude": 40.3715138, "longitude": -105.5152389, "source": "osm", "_tags": {"addr:city": "Estes Park", "addr:housenumber": "555", "addr:postcode": "80517", "addr:state": "CO", "addr:street": "Prospect Avenue", "amenity": "hospital", "beds": "25", "emergency": "yes", "healthcare": "hospital", "name": "Estes Park Medical Center", "opening_hours": "24/7", "phone": "+1 970 586 2317", "website": "https://www.epmedcenter.com/", "wikidata": "Q49410808"}}, {"name": "Poudre Valley Hospital", "latitude": 40.5720096, "longitude": -105.0564428, "source": "osm", "_tags": {"addr:city": "Fort Collins", "addr:housenumber": "1024", "addr:postcode": "80524", "addr:state": "CO", "addr:street": "South Lemay Avenue", "amenity": "hospital", "beds": "270", "emergency": "yes", "healthcare": "hospital", "name": "Poudre Valley Hospital", "opening_hours": "24/7", "phone": "+1 970 495 7000", "website": "https://www.uchealth.org/pages/oham/orgunitdetails.aspx?OrganizationalUnitId=8", "wikidata": "Q7235470", "wikipedia": "en:Poudre Valley Hospital"}}, {"name": "Banner Fort Collins Medical Center", "latitude": 40.5211902, "longitude": -105.0091156, "source": "osm", "_tags": {"addr:city": "Fort Collins", "addr:housenumber": "4700", "addr:postcode": "80528", "addr:state": "CO", "addr:street": "Lady Moon Drive", "amenity": "hospital", "emergency": "yes", "healthcare": "hospital", "name": "Banner Fort Collins Medical Center", "opening_hours": "24/7", "operator": "Banner Health", "operator:type": "private", "operator:wikidata": "Q4856918", "operator:wikipedia": "en:Banner Health", "phone": "+1 970 821 4000", "website": "https://www.bannerhealth.com/locations/fort-collins/banner-fort-collins-medical-center"}}, {"name": "Longmont United Hospital", "latitude": 40.1822511, "longitude": -105.1261704, "source": "osm", "_tags": {"addr:city": "Longmont", "addr:housenumber": "1950", "addr:postcode": "80501", "addr:state": "CO", "addr:street": "Mountain View Avenue", "amenity": "hospital", "emergency": "yes", "healthcare": "hospital", "name": "Longmont United Hospital", "opening_hours": "24/7", "phone": "+1 303-651-5111", "source": "esri_USDOT_ColoradoOITGIS", "website": "http://www.luhcares.org/", "wikidata": "Q16894313", "wikipedia": "en:Longmont United Hospital"}}, {"name": "Children's Hospital Colorado North Campus, Broomfield", "latitude": 40.0023939, "longitude": -104.993217, "source": "osm", "_tags": {"addr:city": "Broomfield", "addr:housenumber": "469", "addr:postcode": "80023", "addr:state": "CO", "addr:street": "West State Highway 7", "amenity": "hospital", "description": "24/7 urgent and inpatient care center located between Boulder and North Denver.", "emergency": "no", "healthcare": "hospital", "name": "Children's Hospital Colorado North Campus, Broomfield", "note": "24/7 Urgent Care Specialist Care Observation and Inpatient Care up to 72 hours Rehabilitation and Sports Physical Therapy Diagnostics and Imaging", "opening_hours": "24/7", "operator": "Children's Hospital Colorado", "phone": "+1 720 777 1340", "website": "https://www.childrenscolorado.org/your-visit/locations/north-campus/"}}, {"name": "Vibra Hospital of Denver", "latitude": 39.8508032, "longitude": -104.9804031, "source": "osm", "_tags": {"addr:city": "Thornton", "addr:housenumber": "8451", "addr:postcode": "80229", "addr:state": "CO", "addr:street": "Pearl Street", "amenity": "hospital", "emergency": "no", "gnis:feature_id": "2369950", "healthcare": "hospital", "name": "Vibra Hospital of Denver", "old_name": "North Valley Hospital", "phone": "+1 303 288 3000", "website": "https://www.vhdenver.com/"}}, {"name": "North Suburban Medical Center", "latitude": 39.8646015, "longitude": -104.9850275, "source": "osm", "_tags": {"addr:city": "Thornton", "addr:housenumber": "9191", "addr:postcode": "80229", "addr:state": "CO", "addr:street": "Grant Street", "amenity": "hospital", "check_date": "2025-03-28", "emergency": "yes", "gnis:feature_id": "2088082", "healthcare": "hospital", "name": "North Suburban Medical Center", "opening_hours": "24/7", "phone": "+1 303 451 7800", "website": "https://northsuburban.com/locations/"}}, {"name": "84th Avenue Neighborhood Health Center", "latitude": 39.8507829, "longitude": -105.0184473, "source": "osm", "_tags": {"addr:city": "Westminster", "addr:housenumber": "2551", "addr:postcode": "80031", "addr:state": "CO", "addr:street": "West 84th Avenue", "amenity": "hospital", "emergency": "yes", "gnis:feature_id": "181798", "healthcare": "hospital", "name": "84th Avenue Neighborhood Health Center", "old_name": "Saint Anthony North Hospital", "opening_hours": "24/7", "operator": "Centura Health", "phone": "+1 303 426 2151", "source": "esri_USDOT_ColoradoOITGIS", "website": "https://www.myneighborhoodhealthcenter.org/nhc/locations/84th-avenue/"}}, {"name": "AdventHealth Littleton Hospital", "latitude": 39.5758126, "longitude": -104.9860355, "source": "osm", "_tags": {"addr:city": "Littleton", "addr:housenumber": "7700", "addr:postcode": "80122", "addr:state": "CO", "addr:street": "South Broadway", "amenity": "hospital", "emergency": "yes", "healthcare": "hospital", "healthcare:speciality": "orthopaedics;cardiology;trauma", "name": "AdventHealth Littleton Hospital", "opening_hours": "24/7", "operator": "AdventHealth", "operator:type": "private_non_profit", "operator:wikidata": "Q3509447", "phone": "+1 303 730 8900", "website": "https://www.adventhealth.com/hospital/adventhealth-littleton/"}}, {"name": "Centennial Hospital", "latitude": 39.5934737, "longitude": -104.8229718, "source": "osm", "_tags": {"addr:city": "Centennial", "addr:housenumber": "14200", "addr:postcode": "80112", "addr:state": "CO", "addr:street": "East Arapahoe Road", "amenity": "hospital", "emergency": "yes", "gnis:feature_id": "2369962", "healthcare": "hospital", "name": "Centennial Hospital", "opening_hours": "24/7", "operator": "Medical Center of Aurora", "operator:type": "private", "phone": "+1-303-699-3000", "website": "https://auroramed.com/about/hospital-campuses/centennial-medical-plaza.dot"}}, {"name": "National Jewish Health", "latitude": 39.7392248, "longitude": -104.9423673, "source": "osm", "_tags": {"addr:city": "Denver", "addr:housenumber": "1400", "addr:postcode": "80206", "addr:state": "CO", "addr:street": "Jackson Street", "amenity": "hospital", "emergency": "no", "gnis:feature_id": "184937", "healthcare": "hospital", "name": "National Jewish Health", "old_name": "National Jewish Medical and Research Center", "phone": "+1 877 225 5654", "website": "https://www.nationaljewish.org/", "wheelchair": "yes", "wikidata": "Q6973875", "wikipedia": "en:National Jewish Health"}}, {"name": "Denver Health Medical Center", "latitude": 39.7272908, "longitude": -104.991165, "source": "osm", "_tags": {"addr:city": "Denver", "addr:housenumber": "777", "addr:postcode": "80204", "addr:state": "CO", "addr:street": "Bannock Street", "amenity": "hospital", "emergency": "yes", "gnis:feature_id": "184894", "healthcare": "hospital", "name": "Denver Health Medical Center", "opening_hours": "24/7", "phone": "+1 303 436 6000", "website": "https://www.denverhealth.org/", "wikidata": "Q3023367", "wikipedia": "en:Denver Health (hospital)"}}, {"name": "Colorado Acute Long Term Hospital", "latitude": 39.7433317, "longitude": -105.0358112, "source": "osm", "_tags": {"addr:city": "Denver", "addr:housenumber": "1690", "addr:postcode": "80204", "addr:state": "CO", "addr:street": "Meade Street", "amenity": "hospital", "beds": "63", "emergency": "no", "gnis:feature_id": "2369949", "healthcare": "hospital", "name": "Colorado Acute Long Term Hospital", "phone": "+1 303 264 6900", "website": "https://www.lifecarehealthpartners.com/region/colorado"}}, {"name": "Saint Anthony Medical Campus", "latitude": 39.7144579, "longitude": -105.1292145, "source": "osm", "_tags": {"addr:city": "Lakewood", "addr:housenumber": "11600", "addr:postcode": "80228", "addr:state": "CO", "addr:street": "West 2nd Place", "alt_name": "Centura Health Saint Anthony Medical Campus", "amenity": "hospital", "emergency": "yes", "healthcare": "hospital", "name": "Saint Anthony Medical Campus", "operator": "CommonSpirit Health", "phone": "+1-720-321-0000", "source": "Bing", "website": "https://www.centura.org/location/st-anthony-hospital"}}, {"name": "Children's Hospital Colorado South Campus, Highlands Ranch", "latitude": 39.5571396, "longitude": -105.0108748, "source": "osm", "_tags": {"addr:city": "Highlands Ranch", "addr:housenumber": "1811", "addr:postcode": "80129", "addr:state": "CO", "addr:street": "Plaza Drive", "amenity": "hospital", "emergency": "yes", "healthcare": "hospital", "healthcare:speciality": "paediatrics", "name": "Children's Hospital Colorado South Campus, Highlands Ranch", "opening_hours": "24/7", "operator": "Childrenâ€™s Hospital Colorado", "phone": "+1 720 478 1234", "urgent_care": "07:00-24:00", "website": "https://www.childrenscolorado.org/your-visit/locations/south-campus/"}}, {"name": "Century Cancer Centers - Denver", "latitude": 39.6210284, "longitude": -104.8982248, "source": "osm", "_tags": {"addr:city": "Greenwood Village", "addr:housenumber": "5275", "addr:postcode": "80111", "addr:state": "CO", "addr:street": "DTC Parkway", "amenity": "hospital", "building": "yes", "emergency": "no", "fax": "+1-303-770-0792", "healthcare": "hospital", "name": "Century Cancer Centers - Denver", "operator": "SightLine Health", "phone": "+1-720-214-6500", "source": "Bing", "website": "https://www.centurycancercenters.com/"}}, {"name": "Colorado Prostate Cancer Center", "latitude": 39.6209779, "longitude": -104.8984586, "source": "osm", "_tags": {"amenity": "hospital", "emergency": "no", "healthcare": "hospital", "name": "Colorado Prostate Cancer Center", "source": "Bing"}}, {"name": "Memory Care at The Gardens", "latitude": 39.6719794, "longitude": -104.8682022, "source": "osm", "_tags": {"addr:city": "Denver", "addr:housenumber": "10200", "addr:postcode": "80231", "addr:state": "CO", "addr:street": "East Harvard Avenue", "alt_name": "Harvard Square Memory Care", "amenity": "hospital", "building": "residential", "building:levels": "2", "emergency": "no", "healthcare": "hospital", "name": "Memory Care at The Gardens", "phone": "+1-303-214-7213", "source": "DigitalGlobe-Standard", "website": "https://harvardsquare.watermarkcommunities.com/living-choices/villa-memory-care/"}}, {"name": "McKee Medical Center", "latitude": 40.4132902, "longitude": -105.0515167, "source": "osm", "_tags": {"addr:city": "Loveland", "addr:housenumber": "2000", "addr:postcode": "80538", "addr:state": "CO", "addr:street": "Boise Avenue", "amenity": "hospital", "emergency": "yes", "healthcare": "hospital", "name": "McKee Medical Center", "opening_hours": "24/7", "operator": "Banner Health", "operator:wikidata": "Q4856918", "operator:wikipedia": "en:Banner Health", "phone": "+1 970 820 4640", "website": "https://www.bannerhealth.com/locations/loveland/mckee-medical-center"}}, {"name": "Medical Center of the Rockies", "latitude": 40.4155035, "longitude": -104.997797, "source": "osm", "_tags": {"addr:city": "Loveland", "addr:housenumber": "2500", "addr:postcode": "80538", "addr:state": "CO", "addr:street": "Rocky Mountain Avenue", "amenity": "hospital", "beds": "166", "emergency": "yes", "healthcare": "hospital", "name": "Medical Center of the Rockies", "opening_hours": "24/7", "operator": "UCHealth", "phone": "+1 970 624 2500", "website": "https://www.uchealth.org/locations/uchealth-medical-center-of-the-rockies/", "wikidata": "Q6806291", "wikipedia": "en:Medical Center of the Rockies"}}, {"name": "AdventHealth Castle Rock Hospital", "latitude": 39.4047712, "longitude": -104.8847722, "source": "osm", "_tags": {"addr:city": "Castle Rock", "addr:housenumber": "2350", "addr:postcode": "80109", "addr:state": "CO", "addr:street": "Meadows Parkway", "amenity": "hospital", "beds": "50", "emergency": "yes", "healthcare": "hospital", "level": "-1", "name": "AdventHealth Castle Rock Hospital", "opening_hours": "24/7", "operator": "AdventHealth", "operator:type": "private", "operator:wikidata": "Q3509447", "phone": "+1-720-455-5000", "website": "https://www.adventhealth.com/hospital/adventhealth-castle-rock"}}, {"name": "Craig Hospital", "latitude": 39.6540587, "longitude": -104.9783557, "source": "osm", "_tags": {"addr:city": "Englewood", "addr:housenumber": "3425", "addr:postcode": "80113", "addr:state": "CO", "addr:street": "South Clarkson Street", "amenity": "hospital", "beds": "93", "emergency": "no", "gnis:feature_id": "182324", "healthcare": "hospital", "name": "Craig Hospital", "phone": "+1 303 789 8000", "website": "https://www.craighospital.org/", "wikidata": "Q5181056", "wikipedia": "en:Craig Hospital"}}, {"name": "HealthOne Rose Medical Center", "latitude": 39.7319764, "longitude": -104.9334207, "source": "osm", "_tags": {"addr:city": "Denver", "addr:housenumber": "4567", "addr:postcode": "80220", "addr:state": "CO", "addr:street": "East 9th Avenue", "alt_name": "Rose Medical Center", "amenity": "hospital", "emergency": "yes", "gnis:feature_id": "2369953", "healthcare": "hospital", "name": "HealthOne Rose Medical Center", "old_name": "Rose Medical Center", "opening_hours": "24/7", "operator": "HCA", "operator:wikidata": "Q1630431", "operator:wikipedia": "en:HCA Healthcare", "phone": "+1 303 320 2121", "website": "https://rosemed.com/", "wikidata": "Q7367861", "wikipedia": "en:Rose Medical Center"}}, {"name": "Saint Paul Health Center", "latitude": 39.7430595, "longitude": -104.951599, "source": "osm", "_tags": {"addr:city": "Denver", "addr:housenumber": "1667", "addr:postcode": "80206", "addr:state": "CO", "addr:street": "Saint Paul Street", "amenity": "hospital", "building": "office", "emergency": "no", "healthcare": "hospital", "name": "Saint Paul Health Center", "phone": "+1-303-399-2040", "source": "Bing", "website": "http://saintpaulhealthcenter.com"}}, {"name": "HealthOne Spalding Rehabilitation Hospital", "latitude": 39.7311127, "longitude": -104.827415, "source": "osm", "_tags": {"addr:city": "Aurora", "addr:housenumber": "900", "addr:postcode": "80011", "addr:state": "CO", "addr:street": "Potomac Street", "alt_name": "Spalding Rehabilitation Hospital", "amenity": "hospital", "beds": "78", "emergency": "no", "gnis:feature_id": "2369954", "healthcare": "hospital", "name": "HealthOne Spalding Rehabilitation Hospital", "operator": "HCA", "operator:wikidata": "Q1630431", "operator:wikipedia": "en:HCA Healthcare", "phone": "+1 303 367 1166", "website": "https://www.spaldingrehab.com/"}}, {"name": "The Medical Center of Aurora-North Campus", "latitude": 39.727709, "longitude": -104.8268538, "source": "osm", "_tags": {"addr:city": "Aurora", "addr:housenumber": "700", "addr:postcode": "80011", "addr:state": "CO", "addr:street": "Potomac Street", "amenity": "hospital", "emergency": "no", "gnis:feature_id": "2088751", "healthcare": "hospital", "name": "The Medical Center of Aurora-North Campus", "note": "short stay and outpatient surgery", "operator": "HCA", "operator:wikidata": "Q1630431", "operator:wikipedia": "en:HCA Healthcare", "phone": "+1 303 695 2600", "website": "https://www.auroramed.com/about_us/hospital-campuses/north_campus.htm"}}, {"name": "UCHealth Broomfield Hospital", "latitude": 39.910515, "longitude": -105.09145, "source": "osm", "_tags": {"addr:city": "Broomfield", "addr:housenumber": "11820", "addr:postcode": "80021", "addr:state": "CO", "addr:street": "Destination Drive", "amenity": "hospital", "check_date": "2024-09-24", "emergency": "yes", "healthcare": "hospital", "name": "UCHealth Broomfield Hospital", "opening_hours": "24/7", "operator": "UCHealth", "phone": "+1-303-460-6000"}}, {"name": "Rocky Mountain Regional VA Medical Center (RMR VAMC)", "latitude": 39.7434248, "longitude": -104.8298733, "source": "osm", "_tags": {"addr:city": "Aurora", "addr:housenumber": "1700", "addr:postcode": "80045", "addr:state": "CO", "addr:street": "Wheeling Street", "amenity": "hospital", "healthcare": "hospital", "name": "Rocky Mountain Regional VA Medical Center (RMR VAMC)", "operator": "US Department of Veterans Affairs", "phone": "+1-303-399-8020", "source": "VA", "website": "https://www.denver.va.gov/locations/directions.asp"}}, {"name": "UCHealth Highlands Ranch Hospital", "latitude": 39.5523313, "longitude": -105.0058514, "source": "osm", "_tags": {"addr:city": "Highlands Ranch", "addr:housenumber": "1500", "addr:postcode": "80129", "addr:state": "CO", "addr:street": "Park Central Drive", "amenity": "hospital", "healthcare": "hospital", "name": "UCHealth Highlands Ranch Hospital", "operator": "UCHealth"}}, {"name": "HCA HealthONE Southwest ER", "latitude": 39.6029679, "longitude": -105.0901176, "source": "osm", "_tags": {"addr:city": "Littleton", "addr:housenumber": "6196", "addr:postcode": "80123", "addr:state": "CO", "addr:street": "South Ammons Way", "amenity": "hospital", "building": "yes", "emergency": "yes", "healthcare": "hospital", "healthcare:speciality": "emergency", "layer": "1", "name": "HCA HealthONE Southwest ER", "opening_hours": "24/7", "operator": "HCA", "operator:type": "private", "operator:wikidata": "Q1630431", "phone": "(303) 932 - 6911", "website": "https://www.healthonecares.com/locations/southwest-er"}}, {"name": "Denver Springs", "latitude": 39.5565522, "longitude": -104.8276312, "source": "osm", "_tags": {"addr:city": "Englewood", "addr:housenumber": "8835", "addr:postcode": "80112", "addr:state": "CO", "addr:street": "American Way", "amenity": "hospital", "beds": "96", "emergency": "no", "healthcare": "hospital", "healthcare:speciality": "psychiatry", "name": "Denver Springs", "phone": "+1 720 744 3813", "website": "https://denversprings.com/"}}, {"name": "Highlands Behavioral Health", "latitude": 39.562799, "longitude": -104.9079215, "source": "osm", "_tags": {"addr:city": "Littleton", "addr:housenumber": "8565", "addr:postcode": "80130", "addr:state": "CO", "addr:street": "South Poplar Way", "amenity": "hospital", "beds": "86", "contact:phone": "+1 720 348 2800", "contact:website": "http://www.highlandsbhs.com/", "emergency": "no", "gnis:feature_id": "2085570", "healthcare": "hospital", "healthcare:speciality": "psychiatry", "name": "Highlands Behavioral Health", "old_name": "Columbine Hospital"}}, {"name": "UCHealth Greeley Hospital", "latitude": 40.3910085, "longitude": -104.7901327, "source": "osm", "_tags": {"addr:city": "Greeley", "addr:housenumber": "6767", "addr:postcode": "80634", "addr:state": "CO", "addr:street": "West 29th Street", "amenity": "hospital", "building": "yes", "healthcare": "hospital", "name": "UCHealth Greeley Hospital"}}, {"name": "Reunion Rehabilitational Hospital Inverness", "latitude": 39.5602848, "longitude": -104.8644576, "source": "osm", "_tags": {"amenity": "hospital", "healthcare": "hospital", "name": "Reunion Rehabilitational Hospital Inverness"}}, {"name": "", "latitude": 40.4496704, "longitude": -104.6986148, "source": "osm", "_tags": {"amenity": "hospital", "healthcare": "hospital"}}, {"name": "", "latitude": 40.4486208, "longitude": -104.6979627, "source": "osm", "_tags": {"amenity": "hospital", "healthcare": "hospital"}}, {"name": "", "latitude": 40.3905718, "longitude": -104.7907745, "source": "osm", "_tags": {"amenity": "hospital", "healthcare": "hospital"}}, {"name": "Centura ER", "latitude": 40.0448592, "longitude": -104.9749275, "source": "osm", "_tags": {"addr:city": "Dacono", "addr:housenumber": "3101", "addr:postcode": "80514", "addr:state": "CO", "addr:street": "Summit View Drive", "amenity": "hospital", "building": "hospital", "emergency": "yes", "healthcare": "hospital", "name": "Centura ER"}}, {"name": "Banner North Colorado Medical Center", "latitude": 40.4148687, "longitude": -104.7098492, "source": "osm", "_tags": {"addr:city": "Greeley", "addr:housenumber": "1801", "addr:postcode": "80631", "addr:state": "CO", "addr:street": "16th Street", "amenity": "hospital", "building": "hospital", "emergency": "yes", "healthcare": "hospital", "name": "Banner North Colorado Medical Center", "operator": "Banner Health", "operator:wikidata": "Q4856918", "phone": "+1-970-810-6577"}}, {"name": "Middle Park Health - Fraser Campus", "latitude": 39.9270564, "longitude": -105.7899701, "source": "osm", "_tags": {"addr:city": "Fraser", "addr:housenumber": "31", "addr:state": "CO", "addr:street": "Telemark Drive", "amenity": "hospital", "emergency": "yes", "healthcare": "hospital", "name": "Middle Park Health - Fraser Campus", "operator": "Middle Park Health", "website": "https://middleparkhealth.org/locations/fraser-hospital/"}}, {"name": "Lutheran Medical Center", "latitude": 39.770889, "longitude": -105.1460967, "source": "osm", "_tags": {"addr:city": "Wheat Ridge", "addr:housenumber": "12911", "addr:postcode": "80401", "addr:state": "CO", "addr:street": "West 40th Avenue", "alt_name": "Intermountain Health Lutheran Medical Center", "amenity": "hospital", "emergency": "yes", "healthcare": "hospital", "name": "Lutheran Medical Center", "opening_hours": "24/7", "operator": "Intermountain Health", "phone": "+1-303-425-4500", "website": "https://intermountainhealthcare.org/locations/intermountain-health-lutheran-hospital", "wikidata": "Q5419993", "wikipedia": "en:Lutheran Medical Center (Colorado)"}}, {"name": "AdventHealth Castle Rock Emergency Department", "latitude": 39.4053575, "longitude": -104.8838032, "source": "osm", "_tags": {"access": "permissive", "amenity": "hospital", "healthcare": "hospital", "indoor": "area", "level": "0", "name": "AdventHealth Castle Rock Emergency Department", "operator": "AdventHealth", "operator:type": "private", "operator:wikidata": "Q3509447"}}, {"name": "Presbyterian / Saint Luke's Medical Center", "latitude": 39.7471526, "longitude": -104.9665996, "source": "osm", "_tags": {"addr:city": "Denver", "addr:housenumber": "1719", "addr:postcode": "80218", "addr:state": "CO", "addr:street": "East 19th Avenue", "amenity": "hospital", "building": "hospital", "building:colour": "#f5deb3", "building:levels": "5", "emergency": "yes", "gnis:feature_id": "184907", "healthcare": "hospital", "name": "Presbyterian / Saint Luke's Medical Center", "opening_hours": "24/7", "phone": "+1-303-839-6000", "roof:colour": "#8B7D6B", "type": "multipolygon", "website": "https://pslmc.com/", "wikidata": "Q7240717", "wikipedia": "en:St. Luke's Medical Center (Denver)"}}, {"name": "UC Health Harmony Campus", "latitude": 40.5216029, "longitude": -105.0343594, "source": "osm", "_tags": {"amenity": "hospital", "emergency": "yes", "healthcare": "hospital", "name": "UC Health Harmony Campus", "operator": "UC Health", "operator:type": "private", "type": "multipolygon"}}, {"name": "", "latitude": 40.4142377, "longitude": -104.7088849, "source": "osm", "_tags": {"amenity": "hospital", "healthcare": "hospital", "type": "multipolygon", "wikidata": "Q30259619"}}]