[{"name": "Grand Junction VA Medical Center", "latitude": 39.0760897, "longitude": -108.5408162, "source": "osm", "_tags": {"access": "private", "addr:city": "Grand Junction", "addr:housenumber": "2121", "addr:postcode": "81501", "addr:state": "CO", "addr:street": "North Avenue", "alt_name": "Grand Junction Veterans Health Care System", "amenity": "hospital", "check_date": "2024-06-20", "emergency": "yes", "healthcare": "hospital", "healthcare:for": "veteran", "name": "Grand Junction VA Medical Center", "operator": "Veterans Health Administration", "operator:short": "VA", "operator:type": "government", "operator:wikidata": "Q6580225", "phone": "+1 970 242 0731", "short_name": "VA", "website": "https://www.va.gov/western-colorado-health-care/locations/grand-junction-va-medical-center/"}}, {"name": "Saint Mary's Regional Hospital", "latitude": 39.0903452, "longitude": -108.5630308, "source": "osm", "_tags": {"addr:city": "Grand Junction", "addr:housenumber": "2635", "addr:postcode": "81501", "addr:state": "CO", "addr:street": "North 7th Street", "amenity": "hospital", "beds": "346", "emergency": "yes", "gnis:feature_id": "174568", "healthcare": "hospital", "name": "Saint Mary's Regional Hospital", "old_name": "Saint Mary's Medical Center", "opening_hours": "24/7", "operator": "Intermountain Health", "phone": "+1 970 298 2273", "source": "KG Ground Survey 2016", "website": "https://intermountainhealthcare.org/locations/intermountain-health-st-marys-regional-hospital", "wikidata": "Q96406344", "wikipedia": "en:St. Mary's Medical Center (Grand Junction, Colorado)"}}, {"name": "Ashley Valley Medical Center", "latitude": 40.4578152, "longitude": -109.531729, "source": "osm", "_tags": {"addr:city": "Vernal", "addr:housenumber": "150", "addr:postcode": "84078", "addr:state": "UT", "addr:street": "West 100 North", "amenity": "hospital", "emergency": "yes", "gnis:feature_id": "1435070", "healthcare": "hospital", "name": "Ashley Valley Medical Center", "opening_hours": "24/7", "phone": "+1 435 789 3342", "website": "http://avmc-hospital.org/"}}, {"name": "Uintah Basin Medical Center", "latitude": 40.304539, "longitude": -109.9961263, "source": "osm", "_tags": {"addr:city": "Roosevelt", "addr:housenumber": "250", "addr:postcode": "84066", "addr:state": "UT", "addr:street": "West 300 North", "amenity": "hospital", "emergency": "yes", "gnis:feature_id": "1435459", "healthcare": "hospital", "name": "Uintah Basin Medical Center", "opening_hours": "24/7", "phone": "+1 435 722 4691", "website": "http://www.ubmc.org/", "wikidata": "Q7878108"}}, {"name": "Community Hospital", "latitude": 39.1051147, "longitude": -108.6149976, "source": "osm", "_tags": {"addr:city": "Grand Junction", "addr:housenumber": "2351", "addr:postcode": "81505", "addr:state": "CO", "addr:street": "G Road", "amenity": "hospital", "building": "hospital", "emergency": "yes", "healthcare": "hospital", "name": "Community Hospital", "opening_hours": "24/7", "phone": "+1 970 242 0920", "website": "https://yourcommunityhospital.com/", "wikidata": "Q50039593"}}, {"name": "Family Health West Hospital", "latitude": 39.1636821, "longitude": -108.7371509, "source": "osm", "_tags": {"addr:city": "Fruita", "addr:housenumber": "300", "addr:postcode": "81521", "addr:state": "CO", "addr:street": "West Ottley Avenue", "amenity": "hospital", "beds": "16", "emergency": "yes", "healthcare": "hospital", "name": "Family Health West Hospital", "opening_hours": "24/7", "operator": "Family Health West", "phone": "+1 970 858 3900", "website": "https://fhw.org/"}}, {"name": "Rangely District Hospital", "latitude": 40.0790668, "longitude": -108.8069442, "source": "osm", "_tags": {"addr:city": "Rangely", "addr:housenumber": "225", "addr:postcode": "81648", "addr:state": "CO", "addr:street": "East Crest Drive", "amenity": "hospital", "beds": "25", "emergency": "yes", "healthcare": "hospital", "name": "Rangely District Hospital", "opening_hours": "24/7", "phone": "+1 970 675 5011", "website": "https://www.rangelyhospital.com/"}}, {"name": "Mind Springs Health", "latitude": 39.0790675, "longitude": -108.5210222, "source": "osm", "_tags": {"addr:city": "Grand Junction", "addr:housenumber": "515", "addr:postcode": "81501", "addr:state": "CO", "addr:street": "28 3/4 Road", "amenity": "hospital", "contact:facebook": "https://www.facebook.com/mindspringshealth", "emergency": "yes", "healthcare": "hospital", "healthcare:speciality": "psychiatry", "name": "Mind Springs Health", "website": "https://www.mindspringshealth.org/"}}, {"name": "Community Hospital", "latitude": 39.1051344, "longitude": -108.6150357, "source": "osm", "_tags": {"amenity": "hospital", "healthcare": "hospital", "name": "Community Hospital"}}, {"name": "West Springs Hospital", "latitude": 39.0784767, "longitude": -108.5215557, "source": "osm", "_tags": {"addr:city": "Grand Junction", "addr:housenumber": "515", "addr:postcode": "81501", "addr:state": "CO", "addr:street": "28 3/4 Road", "amenity": "hospital", "building": "hospital", "check_date": "2024-07-07", "emergency": "yes", "healthcare": "hospital", "healthcare:speciality": "psychiatry", "name": "West Springs Hospital", "operator": "Mind Springs Health", "operator:type": "charitable", "phone": "+1-970-683-7200;+1-970-263-4918", "smoking": "no", "start_date": "2018-12", "type": "multipolygon", "website": "https://www.westspringshospital.org/"}}]