[{"name": "Richard Young Behavioral Health", "latitude": 40.7204184, "longitude": -99.1068048, "source": "osm", "_tags": {"addr:city": "Kearney", "addr:housenumber": "1755", "addr:postcode": "68845", "addr:street": "Prairie View Place", "amenity": "hospital", "beds": "61", "emergency": "no", "gnis:feature_id": "1875183", "healthcare": "hospital", "healthcare:speciality": "psychiatry", "name": "Richard Young Behavioral Health", "opening_hours": "24/7", "operator": "Catholic Health Initiatives", "operator:short": "CHI", "operator:wikidata": "Q5053168", "operator:wikipedia": "en:Catholic Health Initiatives", "phone": "+1 308 865 2000", "website": "https://www.chihealth.com/en/services/behavioral-care/richard-young.html"}}, {"name": "Smith County Memorial Hospital", "latitude": 39.7710926, "longitude": -98.7852223, "source": "osm", "_tags": {"addr:city": "Smith Center", "addr:housenumber": "614", "addr:postcode": "66967", "addr:street": "South Main Street", "amenity": "hospital", "beds": "25", "emergency": "yes", "name": "Smith County Memorial Hospital", "website": "http://www.smithcohosp.org/"}}, {"name": "Central Nebraska Veterans Home", "latitude": 40.7295181, "longitude": -99.0222369, "source": "osm", "_tags": {"addr:city": "Kearney", "addr:housenumber": "4510", "addr:postcode": "68847", "addr:state": "NE", "addr:street": "East 56th Street", "amenity": "hospital", "emergency": "no", "healthcare": "hospital", "name": "Central Nebraska Veterans Home", "phone": "(308) 865-6000", "website": "https://veterans.nebraska.gov/cnvh"}}, {"name": "Grand Island Regional Medical Center", "latitude": 40.8864294, "longitude": -98.3809837, "source": "osm", "_tags": {"addr:city": "Grand Island", "addr:housenumber": "3533", "addr:postcode": "68803", "addr:state": "NE", "addr:street": "Prairieview Street", "amenity": "hospital", "beds": "67", "healthcare": "hospital", "name": "Grand Island Regional Medical Center", "phone": "+1 308 675 5000", "website": "https://www.bryanhealth.com/locations/hospitals/profile/grand-island-regional-medical-center/"}}, {"name": "Hastings Regional Center", "latitude": 40.5861965, "longitude": -98.442208, "source": "osm", "_tags": {"addr:city": "Hastings", "addr:housenumber": "4200", "addr:postcode": "68902", "addr:street": "West 2nd Street", "amenity": "hospital", "emergency": "no", "gnis:feature_id": "829850", "name": "Hastings Regional Center", "phone": "+1 402 462 1971", "website": "https://dhhs.ne.gov/behavioral_health/Pages/beh_rc_hrcserv.aspx"}}, {"name": "Grand Island VA Medical Center", "latitude": 40.9432311, "longitude": -98.3561562, "source": "osm", "_tags": {"addr:city": "Grand Island", "addr:housenumber": "2201", "addr:postcode": "68803", "addr:street": "North Broadwell Avenue", "amenity": "hospital", "emergency": "no", "gnis:feature_id": "1874196", "healthcare": "hospital", "name": "Grand Island VA Medical Center", "phone": "+1 308 382 3660", "website": "https://www.nebraska.va.gov/locations/Grand_Island.asp"}}, {"name": "CHI Health Saint Francis", "latitude": 40.9260239, "longitude": -98.3716057, "source": "osm", "_tags": {"addr:city": "Grand Island", "addr:housenumber": "2620", "addr:postcode": "68803", "addr:street": "West Faidley Avenue", "amenity": "hospital", "emergency": "yes", "gnis:feature_id": "832863", "healthcare": "hospital", "name": "CHI Health Saint Francis", "old_name": "Saint Francis Medical Center", "operator": "Catholic Health Initiatives", "operator:short": "CHI", "operator:wikidata": "Q5053168", "operator:wikipedia": "en:Catholic Health Initiatives", "phone": "+1 308 384 4600", "website": "http://chihealthstfrancis.org/"}}, {"name": "CHI Health Good Samaritan", "latitude": 40.7083626, "longitude": -99.0814427, "source": "osm", "_tags": {"addr:city": "Kearney", "addr:housenumber": "10", "addr:postcode": "68847", "addr:street": "East 31st Street", "amenity": "hospital", "emergency": "yes", "gnis:feature_id": "1875166", "healthcare": "hospital", "name": "CHI Health Good Samaritan", "old_name": "Good Samaritan Hospital", "operator": "Catholic Health Initiatives", "operator:short": "CHI", "operator:wikidata": "Q5053168", "operator:wikipedia": "en:Catholic Health Initiatives", "phone": "+1 308 865 7100", "website": "http://chihealthgoodsamaritan.org/"}}, {"name": "Mary Lanning Healthcare", "latitude": 40.5912334, "longitude": -98.387985, "source": "osm", "_tags": {"addr:city": "Hastings", "addr:housenumber": "715", "addr:postcode": "68901", "addr:street": "North Saint Joseph Avenue", "amenity": "hospital", "emergency": "yes", "gnis:feature_id": "830618", "healthcare": "hospital", "name": "Mary Lanning Healthcare", "phone": "+1 402 463 4521", "website": "https://marylanning.org/"}}, {"name": "Cambridge Memorial Hospital", "latitude": 40.280305, "longitude": -100.1798764, "source": "osm", "_tags": {"addr:city": "Cambridge", "addr:housenumber": "1305", "addr:postcode": "69022", "addr:street": "Highway 6/34", "amenity": "hospital", "beds": "20", "emergency": "yes", "healthcare": "hospital", "name": "Cambridge Memorial Hospital", "opening_hours": "24/7", "operator": "Tri Valley Health System", "phone": "+1 308 697 3329", "website": "http://trivalleyhealth.com/"}}, {"name": "Webster County Community Hospital", "latitude": 40.0914207, "longitude": -98.5281518, "source": "osm", "_tags": {"addr:city": "Red Cloud", "addr:housenumber": "621", "addr:postcode": "68970", "addr:street": "North Franklin Street", "amenity": "hospital", "beds": "13", "emergency": "yes", "gnis:feature_id": "1884669", "healthcare": "hospital", "name": "Webster County Community Hospital", "opening_hours": "24/7", "phone": "+1 402 746 5600", "website": "https://www.websterhospital.org/"}}, {"name": "Franklin County Memorial Hospital", "latitude": 40.102174, "longitude": -98.9542417, "source": "osm", "_tags": {"addr:city": "Franklin", "addr:housenumber": "1406", "addr:postcode": "68939", "addr:street": "Q Street", "amenity": "hospital", "emergency": "yes", "gnis:feature_id": "1875454", "healthcare": "hospital", "name": "Franklin County Memorial Hospital", "phone": "+1 308 425 6221", "website": "https://www.fcmh.com/"}}, {"name": "Harlan County Health System", "latitude": 40.1049171, "longitude": -99.3651772, "source": "osm", "_tags": {"addr:city": "Alma", "addr:housenumber": "717", "addr:postcode": "68920", "addr:street": "North Brown Avenue", "amenity": "hospital", "beds": "19", "emergency": "yes", "gnis:feature_id": "1875586", "healthcare": "hospital", "name": "Harlan County Health System", "opening_hours": "24/7", "phone": "+1 308 928 2151", "website": "https://harlancountyhealth.com/"}}, {"name": "Cozad Community Hospital", "latitude": 40.8636298, "longitude": -99.9824586, "source": "osm", "_tags": {"addr:city": "Cozad", "addr:housenumber": "300", "addr:postcode": "69130", "addr:street": "East 12th Street", "amenity": "hospital", "emergency": "yes", "gnis:feature_id": "1875031", "healthcare": "hospital", "name": "Cozad Community Hospital", "phone": "+1 308 784 2261", "website": "https://www.cozadhealthcare.com/"}}, {"name": "Phelps Memorial Health Center", "latitude": 40.4478697, "longitude": -99.3831356, "source": "osm", "_tags": {"addr:city": "Holdrege", "addr:housenumber": "1215", "addr:postcode": "68949", "addr:street": "Tibbals Street", "amenity": "hospital", "emergency": "yes", "gnis:feature_id": "1873936", "healthcare": "hospital", "name": "Phelps Memorial Health Center", "phone": "+1 308 995 2211", "website": "https://www.phelpsmemorial.com/"}}, {"name": "Lexington Regional Health Center", "latitude": 40.785342, "longitude": -99.7595502, "source": "osm", "_tags": {"addr:city": "Lexington", "addr:housenumber": "1201", "addr:postcode": "68850", "addr:street": "North Erie Street", "amenity": "hospital", "emergency": "yes", "gnis:feature_id": "1874947", "healthcare": "hospital", "name": "Lexington Regional Health Center", "old_name": "Tri-County Hospital", "phone": "+1 308 324 5651", "website": "http://www.lexingtonregional.org/"}}, {"name": "Kearney County Community Hospital", "latitude": 40.4952306, "longitude": -98.9424787, "source": "osm", "_tags": {"addr:city": "Minden", "addr:housenumber": "727", "addr:postcode": "68959", "addr:street": "East 1st Street", "amenity": "hospital", "emergency": "yes", "gnis:feature_id": "1873843", "healthcare": "hospital", "name": "Kearney County Community Hospital", "phone": "+1 308 832 3400", "website": "https://kchs.org/Facilities/KearneyCountyHospital.aspx"}}, {"name": "Phillips County Hospital", "latitude": 39.7551923, "longitude": -99.3132904, "source": "osm", "_tags": {"addr:city": "Phillipsburg", "addr:housenumber": "1150", "addr:postcode": "67661", "addr:street": "State Street", "amenity": "hospital", "emergency": "yes", "healthcare": "hospital", "name": "Phillips County Hospital", "opening_hours": "24/7", "phone": "+1 785 543 5226", "website": "https://www.phillipshospital.org/"}}, {"name": "Osborne County Memorial Hospital", "latitude": 39.4371188, "longitude": -98.7013747, "source": "osm", "_tags": {"addr:city": "Osborne", "addr:housenumber": "424", "addr:postcode": "67473", "addr:street": "West New Hampshire Street", "amenity": "hospital", "emergency": "yes", "healthcare": "hospital", "name": "Osborne County Memorial Hospital", "phone": "+1 785 346 2121", "website": "https://www.ocmh.org/"}}, {"name": "Jewell County Hospital", "latitude": 39.786382, "longitude": -98.2001586, "source": "osm", "_tags": {"addr:city": "Mankato", "addr:housenumber": "100", "addr:postcode": "66956", "addr:street": "Crestvue Avenue", "amenity": "hospital", "beds": "25", "emergency": "yes", "healthcare": "hospital", "name": "Jewell County Hospital", "opening_hours": "24/7", "phone": "+1 785 378 3137", "website": "https://www.jewellcohospital.org/"}}, {"name": "Norton County Hospital", "latitude": 39.8377046, "longitude": -99.888099, "source": "osm", "_tags": {"addr:city": "Norton", "addr:housenumber": "102", "addr:postcode": "67654", "addr:street": "East Holme Street", "amenity": "hospital", "beds": "25", "emergency": "yes", "healthcare": "hospital", "name": "Norton County Hospital", "opening_hours": "24/7", "phone": "+1 785 877 3351", "website": "http://www.ntcohosp.com/"}}, {"name": "Gothenburg Memorial Hospital", "latitude": 40.9390877, "longitude": -100.1533238, "source": "osm", "_tags": {"addr:city": "Gothenburg", "addr:housenumber": "918", "addr:postcode": "69138", "addr:street": "20th Street", "amenity": "hospital", "beds": "12", "emergency": "yes", "gnis:feature_id": "1875018", "healthcare": "hospital", "name": "Gothenburg Memorial Hospital", "opening_hours": "24/7", "operator": "Gothenburg Health", "phone": "+1 308 537 3661", "website": "https://www.gothenburghealth.org/"}}, {"name": "Rooks County Health Center", "latitude": 39.2476465, "longitude": -99.2965798, "source": "osm", "_tags": {"addr:city": "Plainville", "addr:housenumber": "1210", "addr:postcode": "67663", "addr:street": "North Washington Street", "amenity": "hospital", "beds": "25", "emergency": "yes", "healthcare": "hospital", "name": "Rooks County Health Center", "opening_hours": "24/7", "phone": "+1 785 434 4553", "website": "https://rookscountyhealthcenter.com/"}}, {"name": "Graham County Hospital", "latitude": 39.372279, "longitude": -99.8447411, "source": "osm", "_tags": {"addr:city": "Hill City", "addr:housenumber": "304", "addr:postcode": "67642", "addr:street": "West Prout Street", "amenity": "hospital", "beds": "20", "emergency": "yes", "healthcare": "hospital", "name": "Graham County Hospital", "opening_hours": "24/7", "phone": "+1 785 421 2121", "website": "https://www.grahamcountyhospital.org/"}}, {"name": "Trego County-Lemke Memorial Hospital", "latitude": 39.0275897, "longitude": -99.8706579, "source": "osm", "_tags": {"addr:city": "WaKeeney", "addr:housenumber": "320", "addr:postcode": "67672", "addr:street": "North 13th Street", "amenity": "hospital", "beds": "25", "emergency": "yes", "healthcare": "hospital", "name": "Trego County-Lemke Memorial Hospital", "opening_hours": "24/7", "phone": "+1 785 743 2182", "website": "http://www.tclmh.org/"}}, {"name": "Kearney Regional Medical Center", "latitude": 40.6823242, "longitude": -99.1125101, "source": "osm", "_tags": {"addr:city": "Kearney", "addr:housenumber": "804", "addr:postcode": "68845", "addr:street": "22nd Avenue", "amenity": "hospital", "beds": "93", "emergency": "yes", "healthcare": "hospital", "name": "Kearney Regional Medical Center", "opening_hours": "24/7", "phone": "+1 308 455 3600", "short_name": "KRMC", "website": "https://www.kearneyregional.com/"}}, {"name": "Osborne County Memorial Hospital", "latitude": 39.4503849, "longitude": -98.6998161, "source": "osm", "_tags": {"amenity": "hospital", "name": "Osborne County Memorial Hospital"}}]