[{"name": "Salt Lake Surgical Center", "latitude": 40.6878705, "longitude": -111.873578, "source": "osm", "_tags": {"addr:city": "Salt Lake City", "addr:housenumber": "617", "addr:postcode": "84107", "addr:street": "East 3900 South", "amenity": "hospital", "emergency": "no", "gnis:feature_id": "2432257", "healthcare": "hospital", "name": "Salt Lake Surgical Center"}}, {"name": "Encompass Health", "latitude": 40.5074059, "longitude": -111.4137307, "source": "osm", "_tags": {"amenity": "hospital", "healthcare": "hospital", "healthcare:speciality": "hospice;home_health", "name": "Encompass Health", "operator": "Encompass Health", "operator:wikidata": "Q5690400", "operator:wikipedia": "en:Encompass Health", "strapline": "Home Health and Hospice"}}, {"name": "Utah Youth Village", "latitude": 40.6458486, "longitude": -111.8358369, "source": "osm", "_tags": {"addr:city": "Holladay", "addr:housenumber": "5800", "addr:postcode": "84121", "addr:state": "UT", "addr:street": "Highland Drive", "amenity": "hospital", "description": "Since 1969, Utah Youth Village have been working to help provide young Utahns with the adult relationships and learning opportunities they need to thrive.", "healthcare": "hospital", "healthcare:speciality": "foster_care", "image": "https://s35598.pcdn.co/wp-content/uploads/2020/04/UYVillage_Logo.png", "name": "Utah Youth Village", "phone": "+1 801-272-9980", "website": "https://youthvillage.org"}}, {"name": "Utah Valley Specialty Hospital", "latitude": 40.305434, "longitude": -111.6625831, "source": "osm", "_tags": {"addr:city": "Provo", "addr:housenumber": "306", "addr:postcode": "84604", "addr:state": "UT", "addr:street": "West River Bend Lane", "amenity": "hospital", "beds": "40", "contact:phone": "+1 888-346-5822 \"sts\"; +1 800-346-4128 \"tty\"; +1 800-346-7141 \"vco\"", "emergency": "no", "fax": "+1 801-226-8890", "healthcare": "hospital", "name": "Utah Valley Specialty Hospital", "operator": "Ernest Health", "operator:type": "private", "phone": "+1 801-226-8880", "website": "https://uvsh.ernesthealth.com", "wheelchair": "yes"}}, {"name": "KPC Promise Hospital of Salt Lake", "latitude": 40.6795415, "longitude": -111.893282, "source": "osm", "_tags": {"addr:city": "Murray", "addr:housenumber": "4252 S", "addr:postcode": "84107", "addr:state": "UT", "addr:street": "Birkhill Boulevard", "amenity": "hospital", "beds": "38", "healthcare": "hospital", "name": "KPC Promise Hospital of Salt Lake", "phone": "+1 385 425 0050", "website": "https://saltlake.kpcph.com"}}, {"name": "Huntsman Cancer Hospital", "latitude": 40.7733604, "longitude": -111.8351206, "source": "osm", "_tags": {"amenity": "hospital", "emergency": "no", "healthcare": "hospital", "name": "Huntsman Cancer Hospital", "phone": "+1 801 587 7000", "website": "https://huntsmancancer.org/", "wikidata": "Q5945809"}}, {"name": "Wasatch Endoscopy Center", "latitude": 40.6862479, "longitude": -111.8560776, "source": "osm", "_tags": {"addr:housenumber": "1220 E", "addr:postcode": "84124", "addr:street": "3900 South", "amenity": "hospital", "name": "Wasatch Endoscopy Center", "opening_hours": "Mo-Fr 08:00-17:00", "phone": "8012813657", "website": "https://wasatchendoscopycenter.com/"}}, {"name": "Timpanogos Regional Hospital", "latitude": 40.3137616, "longitude": -111.7134137, "source": "osm", "_tags": {"addr:city": "Orem", "addr:housenumber": "700", "addr:postcode": "84057", "addr:state": "UT", "addr:street": "West 800 North", "amenity": "hospital", "emergency": "yes", "healthcare": "hospital", "name": "Timpanogos Regional Hospital", "opening_hours": "24/7", "phone": "+1 801 714 6000", "website": "https://timphospital.com/", "wikidata": "Q7807642"}}, {"name": "Primary Children's Hospital", "latitude": 40.7713039, "longitude": -111.8388623, "source": "osm", "_tags": {"addr:city": "Salt Lake City", "addr:housenumber": "100", "addr:postcode": "84113", "addr:state": "UT", "addr:street": "North Mario Capecchi Drive", "amenity": "hospital", "building": "hospital", "ele": "1490", "emergency": "yes", "healthcare": "hospital", "height": "21", "layer": "1", "name": "Primary Children's Hospital", "opening_hours": "24/7", "operator": "Intermountain Healthcare", "operator:wikidata": "Q6047563", "operator:wikipedia": "en:Intermountain Healthcare", "phone": "+1 801 662 1000", "ref": "374", "short_name": "PCH", "website": "https://intermountainhealthcare.org/locations/primary-childrens-hospital/", "wikidata": "Q7243062"}}, {"name": "Shriners Hospitals for Children", "latitude": 40.7773923, "longitude": -111.8504258, "source": "osm", "_tags": {"addr:city": "Salt Lake City", "addr:housenumber": "1275", "addr:postcode": "84103", "addr:state": "UT", "addr:street": "East Fairfax Road", "amenity": "hospital", "brand": "Shriners Hospitals for Children", "brand:wikidata": "Q7504109", "building": "yes", "emergency": "no", "healthcare": "hospital", "healthcare:speciality": "paediatrics", "name": "Shriners Hospitals for Children", "phone": "+1 801 536 3500", "website": "http://www.shrinershospitalsforchildren.org/locations/saltlakecity"}}, {"name": "Intermountian Healthcare South Sandy Clinic", "latitude": 40.5447532, "longitude": -111.8635654, "source": "osm", "_tags": {"addr:city": "Sandy City", "addr:housenumber": "955", "addr:postcode": "84094", "addr:state": "UT", "addr:street": "East 11400 South", "amenity": "hospital", "building": "yes", "emergency": "no", "healthcare": "hospital", "name": "Intermountian Healthcare South Sandy Clinic", "source": "esri/USA_NAD_Addresses"}}, {"name": "Holy Cross Hospital - Jordan Valley West", "latitude": 40.6984674, "longitude": -111.9899315, "source": "osm", "_tags": {"addr:city": "West Valley City", "addr:housenumber": "3460 S", "addr:postcode": "84120", "addr:state": "UT", "addr:street": "Pioneer Parkway", "amenity": "hospital", "emergency": "yes", "healthcare": "hospital", "name": "Holy Cross Hospital - Jordan Valley West", "old_name": "Pioneer Valley Hospital", "opening_hours": "24/7", "operator": "Centura Health", "operator:wikidata": "Q110940557", "operator:wikipedia": "en:Centura Health", "phone": "+1 801 964 3100", "website": "https://www.centura.org/location/holy-cross-hospital-jordan-valley-west/hc"}}, {"name": "American Fork Hospital", "latitude": 40.3802971, "longitude": -111.7666815, "source": "osm", "_tags": {"addr:city": "American Fork", "addr:housenumber": "170", "addr:postcode": "84003", "addr:state": "UT", "addr:street": "North 1100 East", "amenity": "hospital", "beds": "90", "emergency": "yes", "healthcare": "hospital", "name": "American Fork Hospital", "opening_hours": "24/7", "operator": "Intermountain Healthcare", "operator:wikidata": "Q6047563", "operator:wikipedia": "en:Intermountain Healthcare", "phone": "+1 801 855 3300", "website": "https://intermountainhealthcare.org/locations/american-fork-hospital/", "wikidata": "Q4743841"}}, {"name": "Riverton Hospital", "latitude": 40.5203843, "longitude": -111.9802742, "source": "osm", "_tags": {"addr:city": "Riverton", "addr:housenumber": "3741", "addr:postcode": "84065", "addr:state": "UT", "addr:street": "West 12600 South", "amenity": "hospital", "beds": "97", "emergency": "yes", "healthcare": "hospital", "name": "Riverton Hospital", "opening_hours": "24/7", "operator": "Intermountain Healthcare", "operator:type": "private", "operator:wikidata": "Q6047563", "operator:wikipedia": "en:Intermountain Healthcare", "phone": "+1-801-285-4000", "website": "https://intermountainhealthcare.org/locations/riverton-hospital/"}}, {"name": "Utah State Hospital", "latitude": 40.2326967, "longitude": -111.6354349, "source": "osm", "_tags": {"amenity": "hospital", "emergency": "no", "healthcare": "hospital", "name": "Utah State Hospital", "social_facility:for": "mental_health", "wikidata": "Q7902415"}}, {"name": "The Orthopedic Specialty Hospital", "latitude": 40.6442727, "longitude": -111.8851316, "source": "osm", "_tags": {"addr:city": "Murray", "addr:housenumber": "5848", "addr:postcode": "84107", "addr:state": "UT", "addr:street": "Fashion Boulevard", "amenity": "hospital", "emergency": "no", "healthcare": "hospital", "name": "The Orthopedic Specialty Hospital", "old_name": "Cottonwood Hospital", "operator": "Intermountain Healthcare", "operator:type": "private", "operator:wikidata": "Q6047563", "operator:wikipedia": "en:Intermountain Healthcare", "phone": "+1 801 314 4100", "short_name": "TOSH", "website": "https://intermountainhealthcare.org/locations/the-orthopedic-specialty-hospital/", "wikidata": "Q7755434"}}, {"name": "Highland Ridge Hospital", "latitude": 40.617874, "longitude": -111.8964623, "source": "osm", "_tags": {"addr:city": "Midvale", "addr:housenumber": "7309", "addr:postcode": "84047", "addr:state": "UT", "addr:street": "South 180 West", "amenity": "hospital", "emergency": "no", "healthcare": "hospital", "healthcare:speciality": "psychiatry", "name": "Highland Ridge Hospital", "phone": "+1 801 845 9544", "website": "https://www.highlandridgehospital.com/"}}, {"name": "Encompass Health Rehabilitation Hospital of Utah", "latitude": 40.6047922, "longitude": -111.8547048, "source": "osm", "_tags": {"addr:city": "Sandy", "addr:housenumber": "8074", "addr:postcode": "84094", "addr:state": "UT", "addr:street": "South 1300 East", "amenity": "hospital", "beds": "84", "emergency": "no", "gnis:feature_id": "2432256", "healthcare": "hospital", "name": "Encompass Health Rehabilitation Hospital of Utah", "phone": "+1 801 561 3400", "website": "https://www.healthsouthutah.com/"}}, {"name": "Saratoga Springs Instacare", "latitude": 40.3881089, "longitude": -111.9249817, "source": "osm", "_tags": {"amenity": "hospital", "building": "yes", "healthcare": "hospital", "name": "Saratoga Springs Instacare", "operator": "Intermountain Healthcare", "operator:wikidata": "Q6047563", "operator:wikipedia": "en:Intermountain Healthcare"}}, {"name": "University of Utah Hospital", "latitude": 40.7715653, "longitude": -111.8365318, "source": "osm", "_tags": {"addr:city": "Salt Lake City", "addr:housenumber": "50", "addr:postcode": "84132", "addr:state": "UT", "addr:street": "North Medical Drive North", "amenity": "hospital", "building": "hospital", "emergency": "yes", "healthcare": "hospital", "name": "University of Utah Hospital", "opening_hours": "24/7", "phone": "+1 801 581 2121", "ref": "525", "short_name": "U HOSP", "website": "https://healthcare.utah.edu/hospital/", "wikidata": "Q7896515", "wikipedia": "en:University of Utah Hospital"}}, {"name": "Central Valley Medical Center", "latitude": 39.7315387, "longitude": -111.8380435, "source": "osm", "_tags": {"addr:city": "Nephi", "addr:housenumber": "48", "addr:postcode": "84648", "addr:state": "UT", "addr:street": "West 1500 North", "amenity": "hospital", "emergency": "yes", "healthcare": "hospital", "name": "Central Valley Medical Center", "opening_hours": "24/7", "phone": "+1 435 623 3000", "website": "https://www.centralvalleymedicalcenter.com/"}}, {"name": "Intermountain Medical Center", "latitude": 40.6595356, "longitude": -111.8916809, "source": "osm", "_tags": {"addr:city": "Murray", "addr:housenumber": "5121", "addr:postcode": "84107", "addr:state": "UT", "addr:street": "South Cottonwood Street", "amenity": "hospital", "beds": "454", "emergency": "yes", "healthcare": "hospital", "name": "Intermountain Medical Center", "opening_hours": "24/7", "phone": "+1 801 507 7000", "website": "https://intermountainhealthcare.org/locations/intermountain-medical-center/", "wikidata": "Q6047575"}}, {"name": "Holy Cross Hospital - Jordan Valley", "latitude": 40.5897669, "longitude": -111.974533, "source": "osm", "_tags": {"addr:city": "West Jordan", "addr:housenumber": "3580", "addr:postcode": "84088", "addr:state": "UT", "addr:street": "West 9000 South", "amenity": "hospital", "emergency": "yes", "healthcare": "hospital", "name": "Holy Cross Hospital - Jordan Valley", "opening_hours": "24/7", "operator:wikidata": "Q110940557", "operator:wikipedia": "en:Centura Health", "phone": "+1 801 561 8888", "website": "https://www.centura.org/location/holy-cross-hospital-jordan-valley/hc"}}, {"name": "LDS Hospital", "latitude": 40.7790799, "longitude": -111.8800279, "source": "osm", "_tags": {"addr:city": "Salt Lake City", "addr:postcode": "84143", "addr:state": "UT", "addr:street": "8th Avenue C Street", "amenity": "hospital", "beds": "220", "emergency": "yes", "healthcare": "hospital", "name": "LDS Hospital", "nohousenumber": "yes", "opening_hours": "24/7", "operator": "Intermountain Healthcare", "operator:wikidata": "Q6047563", "operator:wikipedia": "en:Intermountain Healthcare", "phone": "+1 801 408 1100", "website": "https://intermountainhealthcare.org/locations/lds-hospital/", "wikidata": "Q6457522"}}, {"name": "Redwood Health Center", "latitude": 40.7253877, "longitude": -111.9331172, "source": "osm", "_tags": {"addr:city": "Salt Lake City", "addr:state": "UT", "addr:street": "2100 South", "amenity": "hospital", "building": "yes", "emergency": "yes", "healthcare": "hospital", "name": "Redwood Health Center"}}, {"name": "Castleview Hospital", "latitude": 39.6048122, "longitude": -110.8325205, "source": "osm", "_tags": {"addr:city": "Price", "addr:housenumber": "300", "addr:postcode": "84501", "addr:state": "UT", "addr:street": "North Hospital Drive", "amenity": "hospital", "emergency": "yes", "gnis:feature_id": "1435265", "healthcare": "hospital", "name": "Castleview Hospital", "opening_hours": "24/7", "phone": "+1 435 637 4800", "website": "https://www.castleviewhospital.net/"}}, {"name": "St. Mark's Hospital", "latitude": 40.685896, "longitude": -111.8569842, "source": "osm", "_tags": {"addr:city": "Salt Lake City", "addr:housenumber": "1200 E", "addr:postcode": "84124", "addr:state": "UT", "addr:street": "3900 South", "amenity": "hospital", "beds": "317", "emergency": "yes", "gnis:feature_id": "1449060", "healthcare": "hospital", "name": "St. Mark's Hospital", "operator": "HCA", "operator:wikidata": "Q1630431", "operator:wikipedia": "en:HCA Healthcare", "phone": "+1 801 268 7111", "website": "https://stmarkshospital.com/", "wikidata": "Q30281054", "wikipedia": "en:St. Mark's Hospital (Utah)"}}, {"name": "Utah Valley Hospital", "latitude": 40.2479566, "longitude": -111.665683, "source": "osm", "_tags": {"addr:city": "Provo", "addr:housenumber": "1034", "addr:postcode": "84604", "addr:state": "UT", "addr:street": "North 500 West", "amenity": "hospital", "beds": "395", "emergency": "yes", "gnis:feature_id": "1449135", "healthcare": "hospital", "name": "Utah Valley Hospital", "old_name": "Utah Valley Regional Medical Center", "opening_hours": "24/7", "operator": "Intermountain Healthcare", "operator:type": "private", "operator:wikidata": "Q6047563", "operator:wikipedia": "en:Intermountain Healthcare", "phone": "+1 801 357 7850", "website": "https://intermountainhealthcare.org/locations/utah-valley-hospital/", "wikidata": "Q7902518"}}, {"name": "Revere Health", "latitude": 40.2488692, "longitude": -111.668823, "source": "osm", "_tags": {"addr:city": "Provo", "addr:housenumber": "1055", "addr:postcode": "84604", "addr:state": "UT", "addr:street": "North 500 West", "amenity": "hospital", "emergency": "no", "gnis:feature_id": "1448929", "healthcare": "hospital", "name": "Revere Health", "old_name": "Riverwood Hospital", "phone": "+1 801 429 8000", "website": "https://reverehealth.com/"}}, {"name": "Gunnison Valley Hospital", "latitude": 39.1560727, "longitude": -111.8164297, "source": "osm", "_tags": {"addr:city": "Gunnison", "addr:country": "US", "addr:housenumber": "64 E", "addr:postcode": "84634", "addr:state": "UT", "addr:street": "100 North", "amenity": "hospital", "emergency": "yes", "gnis:feature_id": "1435637", "healthcare": "hospital", "name": "Gunnison Valley Hospital", "opening_hours": "24/7", "phone": "+1 435 528 7246", "website": "https://gvhospital.org/", "wheelchair": "yes", "wikidata": "Q5619274"}}, {"name": "Sanpete Valley Hospital", "latitude": 39.5313421, "longitude": -111.4610084, "source": "osm", "_tags": {"addr:city": "Mount Pleasant", "addr:housenumber": "1100", "addr:postcode": "84647", "addr:state": "UT", "addr:street": "South Medical Drive", "amenity": "hospital", "emergency": "yes", "gnis:feature_id": "1436315", "healthcare": "hospital", "healthcare:speciality": "general", "name": "Sanpete Valley Hospital", "opening_hours": "24/7", "operator": "Intermountain Healthcare", "operator:type": "private", "operator:wikidata": "Q6047563", "phone": "+1 435 462 2441", "website": "https://intermountainhealthcare.org/locations/sanpete-valley-hospital/", "wikidata": "Q14711872"}}, {"name": "Mountain View Hospital", "latitude": 40.0439181, "longitude": -111.7141047, "source": "osm", "_tags": {"addr:city": "Payson", "addr:housenumber": "1000 E", "addr:postcode": "84651", "addr:state": "UT", "addr:street": "100 North", "amenity": "hospital", "emergency": "yes", "healthcare": "hospital", "name": "Mountain View Hospital", "opening_hours": "24/7", "phone": "+1 801 465 7000", "website": "https://mvhpayson.com/", "wikidata": "Q6925376"}}, {"name": "Provo Canyon Behavioral Hospital", "latitude": 40.3106413, "longitude": -111.6636549, "source": "osm", "_tags": {"addr:city": "Orem", "addr:housenumber": "1350", "addr:postcode": "84097", "addr:state": "UT", "addr:street": "East 750 North", "amenity": "hospital", "emergency": "no", "gnis:feature_id": "1448261", "healthcare": "hospital", "healthcare:speciality": "psychiatry", "name": "Provo Canyon Behavioral Hospital", "old_name": "Charter Canyon Hospital", "phone": "+1 801 852 2273", "website": "https://www.pcbh.com/"}}, {"name": "Park City Hospital", "latitude": 40.6879522, "longitude": -111.4690581, "source": "osm", "_tags": {"addr:city": "Park City", "addr:housenumber": "900", "addr:postcode": "84060", "addr:state": "UT", "addr:street": "Round Valley Drive", "amenity": "hospital", "emergency": "yes", "healthcare": "hospital", "name": "Park City Hospital", "old_name": "Park City Medical Center", "opening_hours": "24/7", "operator": "Intermountain Healthcare", "phone": "+1 435 658 7000", "website": "https://intermountainhealthcare.org/locations/park-city-hospital/", "wikidata": "Q7137699"}}, {"name": "South Davis Community Hospital", "latitude": 40.8852868, "longitude": -111.8712565, "source": "osm", "_tags": {"addr:city": "Bountiful", "addr:housenumber": "401", "addr:postcode": "84010", "addr:state": "UT", "addr:street": "South 400 East", "amenity": "hospital", "emergency": "no", "gnis:feature_id": "1449027", "healthcare": "hospital", "name": "South Davis Community Hospital", "phone": "+1 801 295 2361", "website": "https://www.sdch.com/"}}, {"name": "Lakeview Hospital", "latitude": 40.8861125, "longitude": -111.8694441, "source": "osm", "_tags": {"addr:city": "Bountiful", "addr:housenumber": "630", "addr:postcode": "84010", "addr:state": "UT", "addr:street": "East Medical Drive", "amenity": "hospital", "emergency": "yes", "healthcare": "hospital", "name": "Lakeview Hospital", "opening_hours": "24/7", "phone": "+1 801 299 2200", "website": "https://lakeviewhospital.com"}}, {"name": "Benchmark Behavioral Health Systems", "latitude": 40.8777574, "longitude": -111.8955453, "source": "osm", "_tags": {"addr:city": "Woods Cross", "addr:housenumber": "592", "addr:postcode": "84087", "addr:state": "UT", "addr:street": "West 1350 South", "amenity": "hospital", "emergency": "no", "gnis:feature_id": "2432248", "healthcare": "hospital", "healthcare:speciality": "psychiatry", "name": "Benchmark Behavioral Health Systems", "phone": "+1 801 299 5319", "website": "https://www.bbhsnet.com/"}}, {"name": "Holy Cross Hospital - Salt Lake", "latitude": 40.7682229, "longitude": -111.8610824, "source": "osm", "_tags": {"addr:city": "Salt Lake City", "addr:housenumber": "1050", "addr:postcode": "84102", "addr:state": "UT", "addr:street": "South Temple Street", "amenity": "hospital", "beds": "158", "emergency": "yes", "healthcare": "hospital", "name": "Holy Cross Hospital - Salt Lake", "old_name": "Salt Lake Regional Medical Center", "opening_hours": "24/7", "operator": "Centura Health", "operator:type": "private", "operator:wikidata": "Q110940557", "operator:wikipedia": "en:Centura Health", "phone": "+1 801 350 4111", "utahagrc:parcelid": "16052010052000", "website": "https://www.centura.org/location/holy-cross-hospital-salt-lake/hc", "wikidata": "Q7405892"}}, {"name": "George E. Wahlen Department of Veterans Affairs Medical Center", "latitude": 40.7557399, "longitude": -111.8385458, "source": "osm", "_tags": {"addr:city": "Salt Lake City", "addr:housenumber": "500", "addr:postcode": "84148", "addr:state": "UT", "addr:street": "Foothill Drive", "amenity": "hospital", "emergency": "yes", "healthcare": "hospital", "name": "George E. Wahlen Department of Veterans Affairs Medical Center", "opening_hours": "24/7", "phone": "+1 801 582 1565", "website": "https://www.saltlakecity.va.gov/"}}, {"name": "University of Utah Healthcare - South Jordan Health Center", "latitude": 40.5419783, "longitude": -112.0142417, "source": "osm", "_tags": {"addr:city": "South Jordan", "addr:housenumber": "5126", "addr:postcode": "84009", "addr:state": "UT", "addr:street": "West Daybreak Parkway", "amenity": "hospital", "emergency": "yes", "healthcare": "hospital", "name": "University of Utah Healthcare - South Jordan Health Center", "opening_hours": "24/7", "phone": "+1 801 213 4500", "website": "https://healthcare.utah.edu/locations/south-jordan"}}, {"name": "Orem Community Hospital", "latitude": 40.3026569, "longitude": -111.7080222, "source": "osm", "_tags": {"addr:city": "Orem", "addr:housenumber": "331", "addr:postcode": "84057", "addr:state": "UT", "addr:street": "North 400 West", "amenity": "hospital", "emergency": "yes", "gnis:feature_id": "1448783", "healthcare": "hospital", "name": "Orem Community Hospital", "opening_hours": "24/7", "operator": "Intermountain Healthcare", "operator:wikidata": "Q6047563", "operator:wikipedia": "en:Intermountain Healthcare", "phone": "+1 801 224 4080", "website": "https://intermountainhealthcare.org/locations/orem-community-hospital/", "wikidata": "Q7101531", "wikipedia": "en:Orem Community Hospital"}}, {"name": "Lone Peak Hospital", "latitude": 40.5351846, "longitude": -111.8890193, "source": "osm", "_tags": {"addr:city": "Draper", "addr:housenumber": "11925 S", "addr:postcode": "84020", "addr:state": "UT", "addr:street": "State Street", "amenity": "hospital", "beds": "30", "emergency": "yes", "healthcare": "hospital", "name": "Lone Peak Hospital", "opening_hours": "24/7", "operator": "HCA", "operator:type": "private", "operator:wikidata": "Q1630431", "operator:wikipedia": "en:HCA Healthcare", "phone": "+1-801-545-8000", "website": "https://lonepeakhospital.com/"}}, {"name": "Rock Canyon Periodontist", "latitude": 40.2385177, "longitude": -111.6678615, "source": "osm", "_tags": {"addr:city": "Provo", "addr:housenumber": "524", "addr:postcode": "84601", "addr:state": "UT", "addr:street": "W 300 N Stree", "amenity": "hospital", "healthcare": "hospital", "name": "Rock Canyon Periodontist"}}, {"name": "Holy Cross Hospital - Mountain Point", "latitude": 40.425394, "longitude": -111.8786, "source": "osm", "_tags": {"addr:city": "Lehi", "addr:housenumber": "3000", "addr:postcode": "84043", "addr:state": "UT", "addr:street": "Triumph Boulevard", "amenity": "hospital", "contact:phone": "+1 385 345 3000", "contact:website": "https://www.centura.org/location/holy-cross-hospital-mountain-point/hc", "emergency": "yes", "healthcare": "hospital", "healthcare:speciality": "general", "name": "Holy Cross Hospital - Mountain Point", "operator": "Centura Health", "operator:wikidata": "Q110940557", "operator:wikipedia": "en:Centura Health"}}, {"name": "Sugar House Health Center", "latitude": 40.7206979, "longitude": -111.8547553, "source": "osm", "_tags": {"addr:city": "Salt Lake City", "addr:housenumber": "1280", "addr:postcode": "84106", "addr:state": "UT", "addr:street": "Stringham Avenue", "amenity": "hospital", "building": "yes", "healthcare": "hospital", "name": "Sugar House Health Center", "opening_hours": "Mo-Fr 07:00-20:30; Sa-Su 08:00-20:30; ", "operator": "University of Utah Health", "operator:type": "university", "phone": "+1-801-581-2000", "website": "https://healthcare.utah.edu/locations/sugar-house"}}, {"name": "Copper Hills Youth Center", "latitude": 40.5892089, "longitude": -112.0327075, "source": "osm", "_tags": {"amenity": "hospital", "healthcare": "hospital", "name": "Copper Hills Youth Center"}}, {"name": "Center for Change", "latitude": 40.3300501, "longitude": -111.7086548, "source": "osm", "_tags": {"amenity": "hospital", "healthcare": "hospital", "name": "Center for Change"}}, {"name": "Intermountain Health Spanish Fork", "latitude": 40.1304947, "longitude": -111.6409189, "source": "osm", "_tags": {"addr:city": "Spanish Fork", "addr:housenumber": "765", "addr:postcode": "84660", "addr:state": "UT", "addr:street": "East Marketplace Drive", "amenity": "hospital", "emergency": "yes", "healthcare": "hospital", "name": "Intermountain Health Spanish Fork", "operator": "Intermountain Healthcare", "operator:type": "private", "operator:wikidata": "Q6047563", "operator:wikipedia": "en:Intermountain Healthcare"}}, {"name": "", "latitude": 39.6062729, "longitude": -110.8352648, "source": "osm", "_tags": {"amenity": "hospital", "healthcare": "hospital", "healthcare:speciality": "family_medicine"}}, {"name": "Primary Children's Hospital - Larry H. & Gail Miller Family Campus", "latitude": 40.4146778, "longitude": -111.8994406, "source": "osm", "_tags": {"amenity": "hospital", "healthcare": "hospital", "name": "Primary Children's Hospital - Larry H. & Gail Miller Family Campus", "operator": "Intermoundain Healthcare", "operator:wikipedia": "en:Intermountain Healthcare"}}, {"name": "Alta View Hospital", "latitude": 40.5769373, "longitude": -111.8547186, "source": "osm", "_tags": {"addr:city": "Sandy", "addr:housenumber": "9660", "addr:postcode": "84094", "addr:state": "UT", "addr:street": "South 1300 East", "amenity": "hospital", "emergency": "yes", "gnis:feature_id": "2432246", "healthcare": "hospital", "name": "Alta View Hospital", "opening_hours": "24/7", "phone": "+1 801 501 2600", "website": "https://intermountainhealthcare.org/locations/alta-view-hospital/", "wikidata": "Q4736003"}}, {"name": "Heber Valley Hospital", "latitude": 40.4902686, "longitude": -111.40581, "source": "osm", "_tags": {"addr:city": "Heber City", "addr:housenumber": "1485", "addr:postcode": "84032", "addr:state": "UT", "addr:street": "South Highway 40", "amenity": "hospital", "beds": "19", "emergency": "yes", "healthcare": "hospital", "name": "Heber Valley Hospital", "old_name": "Wasatch County Hospital", "opening_hours": "24/7", "operator": "Intermountain Healthcare", "operator:wikidata": "Q6047563", "operator:wikipedia": "en:Intermountain Healthcare", "phone": "+1 435 654 2500", "website": "https://intermountainhealthcare.org/locations/heber-valley-hospital/"}}, {"name": "Saratoga Springs Emergency", "latitude": 40.3823578, "longitude": -111.9269142, "source": "osm", "_tags": {"amenity": "hospital", "name": "Saratoga Springs Emergency", "operator": "Intermountain Healthcare"}}, {"name": "Wasatch Canyons Hospital", "latitude": 40.6465734, "longitude": -111.9348945, "source": "osm", "_tags": {"addr:city": "Salt Lake City", "addr:housenumber": "5770", "addr:postcode": "84123", "addr:street": "South 1500 West", "amenity": "hospital", "emergency": "no", "gnis:feature_id": "1436587", "healthcare": "hospital", "healthcare:speciality": "psychiatry", "name": "Wasatch Canyons Hospital", "operator": "Intermountain Healthcare", "phone": "+1 801 313 7770", "website": "https://intermountainhealthcare.org/locations/primary-childrens-hospital/hospital-information/contact-maps-directions/wasatch-canyons-behavioral-health/"}}, {"name": "Westlake Emergency Center", "latitude": 40.3959746, "longitude": -111.917038, "source": "osm", "_tags": {"amenity": "hospital", "name": "Westlake Emergency Center", "operator": "Mountainstar Healthcare"}}, {"name": "Intermountain West Valley Clinic", "latitude": 40.7117114, "longitude": -112.0196931, "source": "osm", "_tags": {"amenity": "hospital", "name": "Intermountain West Valley Clinic", "operator": "Intermountain Healthcare"}}, {"name": "Kem and Carolyn Gardner Mental Health Crisis Care Center", "latitude": 40.6985696, "longitude": -111.9184001, "source": "osm", "_tags": {"addr:city": "South Salt Lake", "addr:housenumber": "955", "addr:postcode": "84119", "addr:state": "UT", "addr:street": "West 3300 South", "amenity": "hospital", "emergency": "yes", "healthcare": "hospital", "healthcare:speciality": "psychiatry", "min_age": "18", "name": "Kem and Carolyn Gardner Mental Health Crisis Care Center", "opening_hours": "24/7", "operator": "University of Utah Health", "operator:type": "public", "short_name": "Mental Health Crisis Care Center", "website": "https://healthcare.utah.edu/hmhi/programs/crisis-diversion/crisis-care-center"}}, {"name": "Huntsman Mental Health Institute", "latitude": 40.7586378, "longitude": -111.8226111, "source": "osm", "_tags": {"addr:city": "Salt Lake City", "addr:housenumber": "501", "addr:postcode": "84108", "addr:state": "UT", "addr:street": "South Chipeta Way", "amenity": "hospital", "beds": "94", "emergency": "yes", "healthcare": "hospital", "healthcare:speciality": "psychiatry;neuropsychiatry", "name": "Huntsman Mental Health Institute", "old_name": "University Of Utah Neuropsychiatric Institute", "opening_hours": "24/7", "operator": "University of Utah Heath", "website": "https://healthcare.utah.edu/hmhi", "wikidata": "Q7894841"}}]