[{"name": "Eben-Ezer Lutheran Care Center", "latitude": 40.2546936, "longitude": -103.6429792, "source": "osm", "_tags": {"amenity": "hospital", "ele": "1293", "emergency": "no", "gnis:feature_id": "182920", "is_in:city": "Brush", "is_in:state": "Colorado", "is_in:state_code": "CO", "name": "Eben-Ezer Lutheran Care Center"}}, {"name": "Kit Carson County Memorial Hospital", "latitude": 39.3029706, "longitude": -102.270406, "source": "osm", "_tags": {"addr:city": "Burlington", "addr:housenumber": "286", "addr:postcode": "80807", "addr:street": "16th Street", "amenity": "hospital", "emergency": "yes", "gnis:feature_id": "2127711", "healthcare": "hospital", "name": "Kit Carson County Memorial Hospital", "note": "Kit Carson County Health Service District", "website": "https://www.kcchsd.org/", "wheelchair": "yes"}}, {"name": "CommonSpirit", "latitude": 40.2602608, "longitude": -103.7954881, "source": "osm", "_tags": {"amenity": "hospital", "beds": "50", "branch": "Saint Elizabeth", "emergency": "yes", "healthcare": "hospital", "name": "CommonSpirit", "opening_hours": "24/7", "phone": "+1 970-867-3391", "website": "https://mountain.commonspirit.org"}}, {"name": "", "latitude": 40.2601516, "longitude": -103.7955494, "source": "osm", "_tags": {"addr:city": "Fort Morgan", "addr:housenumber": "1000", "addr:postcode": "80701", "addr:state": "CO", "addr:street": "Lincoln Street", "beds": "50", "building": "hospital", "emergency": "yes", "healthcare": "hospital", "opening_hours": "24/7", "phone": "+1 970 867 3391", "website": "https://coloradoplainsmedicalcenter.com"}}, {"name": "Sterling Regional MedCenter", "latitude": 40.6124341, "longitude": -103.2206412, "source": "osm", "_tags": {"addr:city": "Sterling", "addr:housenumber": "615", "addr:postcode": "80751", "addr:state": "CO", "addr:street": "Fairhurst Street", "amenity": "hospital", "beds": "25", "emergency": "yes", "healthcare": "hospital", "name": "Sterling Regional MedCenter", "opening_hours": "24/7", "operator": "Banner Health", "operator:wikidata": "Q4856918", "phone": "+1 970 522 0122", "website": "https://www.bannerhealth.com/locations/sterling/sterling-regional-medcenter"}}, {"name": "Sedgwick County Memorial Hospital", "latitude": 40.9940109, "longitude": -102.2686398, "source": "osm", "_tags": {"addr:city": "Julesburg", "addr:housenumber": "900", "addr:postcode": "80737", "addr:state": "CO", "addr:street": "Cedar Street", "amenity": "hospital", "beds": "15", "emergency": "yes", "healthcare": "hospital", "name": "Sedgwick County Memorial Hospital", "opening_hours": "24/7", "operator": "Sedgwick County Health Center", "phone": "+1 970 474 3323", "website": "https://www.schealth.org/"}}, {"name": "Yuma District Hospital", "latitude": 40.1200377, "longitude": -102.7370191, "source": "osm", "_tags": {"addr:city": "Yuma", "addr:housenumber": "1000", "addr:postcode": "80759", "addr:state": "CO", "addr:street": "West 8th Avenue", "amenity": "hospital", "emergency": "yes", "healthcare": "hospital", "name": "Yuma District Hospital", "opening_hours": "24/7", "phone": "+1 970 848 5405", "website": "https://yumahospital.org/"}}, {"name": "Wray Community District Hospital", "latitude": 40.0761539, "longitude": -102.2345379, "source": "osm", "_tags": {"addr:city": "Wray", "addr:housenumber": "1017", "addr:postcode": "80758", "addr:state": "CO", "addr:street": "West 7th Street", "amenity": "hospital", "emergency": "yes", "healthcare": "hospital", "name": "Wray Community District Hospital", "opening_hours": "24/7", "phone": "+1 970 332 4811", "website": "https://wrayhospital.org/", "wikidata": "Q29641891"}}, {"name": "Haxtun Hospital District", "latitude": 40.641885, "longitude": -102.6313363, "source": "osm", "_tags": {"addr:city": "Haxtun", "addr:housenumber": "235", "addr:postcode": "80731", "addr:state": "CO", "addr:street": "West Fletcher Street", "amenity": "hospital", "emergency": "yes", "name": "Haxtun Hospital District", "opening_hours": "24/7", "phone": "+1 970 774 6123", "website": "https://haxtunhealth.org/"}}, {"name": "East Morgan County Hospital", "latitude": 40.2557369, "longitude": -103.6491006, "source": "osm", "_tags": {"addr:city": "Brush", "addr:housenumber": "2400", "addr:postcode": "80723", "addr:state": "CO", "addr:street": "Edison Street", "amenity": "hospital", "beds": "25", "emergency": "yes", "healthcare": "hospital", "name": "East Morgan County Hospital", "opening_hours": "24/7", "operator": "Banner Health", "phone": "+1 970 842 6200", "website": "https://www.bannerhealth.com/locations/brush/east-morgan-county-hospital"}}, {"name": "Melissa Memorial Hospital", "latitude": 40.5793044, "longitude": -102.2900983, "source": "osm", "_tags": {"addr:city": "Holyoke", "addr:housenumber": "1001", "addr:postcode": "80734", "addr:state": "CO", "addr:street": "East Johnson Street", "amenity": "hospital", "beds": "15", "emergency": "yes", "healthcare": "hospital", "name": "Melissa Memorial Hospital", "opening_hours": "24/7", "phone": "+1 970 854 2241", "website": "http://melissamemorial.org/"}}, {"name": "Lincoln Community Hospital", "latitude": 39.1382574, "longitude": -103.473377, "source": "osm", "_tags": {"addr:city": "Hugo", "addr:housenumber": "111", "addr:postcode": "80821", "addr:state": "CO", "addr:street": "6th Street", "amenity": "hospital", "beds": "15", "emergency": "yes", "healthcare": "hospital", "name": "Lincoln Community Hospital", "opening_hours": "24/7", "phone": "+1 719 743 2421", "website": "https://www.hugohospital.com/"}}, {"name": "East Morgan County Hospital", "latitude": 40.2556413, "longitude": -103.6493223, "source": "osm", "_tags": {"addr:city": "Brush", "addr:housenumber": "2400", "addr:postcode": "80723", "addr:state": "CO", "addr:street": "Edison Street", "amenity": "hospital", "beds": "25", "building": "hospital", "emergency": "yes", "healthcare": "hospital", "name": "East Morgan County Hospital", "opening_hours": "24/7", "operator": "Banner Health", "phone": "+1 970 842 6200", "website": "https://www.bannerhealth.com/locations/brush/east-morgan-county-hospital"}}]