[{"name": "Sutter Surgical Hospital North Valley", "latitude": 39.1320368, "longitude": -121.613306, "source": "osm", "_tags": {"addr:city": "Yuba City", "addr:housenumber": "455", "addr:postcode": "95991", "addr:street": "Plumas Boulevard", "amenity": "hospital", "beds": "14", "emergency": "no", "healthcare": "hospital", "healthcare:speciality": "surgery", "name": "Sutter Surgical Hospital North Valley", "operator": "Sutter Health", "operator:website": "https://www.sutterhealth.org/", "operator:wikidata": "Q7650154", "operator:wikipedia": "en:Sutter Health", "phone": "+1 530 749 5700", "website": "https://www.sutterhealth.org/find-location/facility/sutter-surgical-hospital-north-valley"}}, {"name": "Emergency Room", "latitude": 39.5069742, "longitude": -121.5409811, "source": "osm", "_tags": {"amenity": "hospital", "healthcare": "hospital", "name": "Emergency Room"}}, {"name": "North Valley Behavioral Health", "latitude": 39.1536036, "longitude": -121.6175496, "source": "osm", "_tags": {"addr:city": "Yuba City", "addr:housenumber": "1535", "addr:postcode": "95993", "addr:state": "CA", "addr:street": "Plumas Court", "amenity": "hospital", "beds": "16", "healthcare": "hospital", "healthcare:speciality": "psychiatry", "name": "North Valley Behavioral Health", "website": "http://www.nvbh.com"}}, {"name": "Enloe Rehabilitation Center", "latitude": 39.7541866, "longitude": -121.8675319, "source": "osm", "_tags": {"addr:city": "Chico", "addr:housenumber": "340", "addr:postcode": "95926-7238", "addr:street": "West East Avenue", "amenity": "hospital", "beds": "40", "healthcare": "hospital", "name": "Enloe Rehabilitation Center", "phone": "+1 530 332 7300", "website": "https://www.enloe.org/care-treatment/rehabilitation"}}, {"name": "Sutter-Yuba Psychiatric Health Facility", "latitude": 39.1555956, "longitude": -121.6184357, "source": "osm", "_tags": {"addr:city": "Yuba City", "addr:housenumber": "1965", "addr:postcode": "95991", "addr:street": "Live Oak Boulevard", "amenity": "hospital", "beds": "16", "healthcare": "hospital", "healthcare:speciality": "psychiatry", "name": "Sutter-Yuba Psychiatric Health Facility", "phone": "+1 530 822 7200", "website": "https://www.suttercounty.org/government/county-departments/health-and-human-services/sutter-yuba-behavioral-health"}}, {"name": "Beale AFB Clinic", "latitude": 39.1154175, "longitude": -121.341935, "source": "osm", "_tags": {"FMMP_modified": "no", "FMMP_reviewed": "no", "acres": "20.2384943817", "addr:county": "Yuba", "amenity": "hospital", "attribution": "Farmland Mapping and Monitoring Program", "description": "No Emergency Services Wellness Clinic Military families/ Dependents only", "emergency": "no", "healthcare": "hospital", "name": "Beale AFB Clinic", "operator": "9th Medical Group", "source": "http://www.consrv.ca.gov/dlrp/fmmp/products/Pages/DownloadGISdata.aspx"}}, {"name": "Urgent Care - Olympic Valley", "latitude": 39.1963652, "longitude": -120.2346947, "source": "osm", "_tags": {"addr:city": "Olympic Valley", "addr:housenumber": "1885", "addr:state": "CA", "addr:street": "Village South Rd", "amenity": "hospital", "emergency": "yes", "healthcare": "hospital", "healthcare:speciality": "emergency", "name": "Urgent Care - Olympic Valley", "source": "Bing;local knowledge", "url": "https://www.tfhd.com/location/urgent-care-olympic-valley"}}, {"name": "Rideout Regional Medical Center", "latitude": 39.1388549, "longitude": -121.5934151, "source": "osm", "_tags": {"addr:city": "Marysville", "addr:housenumber": "726", "addr:state": "CA", "addr:street": "4th Street", "amenity": "hospital", "emergency": "yes", "gnis:feature_id": "1703577", "healthcare": "hospital", "name": "Rideout Regional Medical Center", "opening_hours": "24/7", "operator": "Rideout Heallth", "phone": "+1 530 749 4300", "website": "http://www.frhg.org/", "wikidata": "Q7332593", "wikipedia": "en:Rideout Memorial Hospital"}}, {"name": "Sierra Nevada Memorial Hospital", "latitude": 39.2280876, "longitude": -121.0470841, "source": "osm", "_tags": {"addr:city": "Grass Valley", "addr:housenumber": "155", "addr:postcode": "95945", "addr:state": "CA", "addr:street": "Glasson Way", "amenity": "hospital", "emergency": "yes", "gnis:feature_id": "1682969", "healthcare": "hospital", "name": "Sierra Nevada Memorial Hospital", "opening_hours": "24/7", "operator": "Dignity Health", "operator:wikidata": "Q5276334", "operator:wikipedia": "en:Dignity Health", "phone": "+1 530 274 6000", "website": "https://www.dignityhealth.org/sacramento/locations/sierra-nevada-memorial-hospital"}}, {"name": "Oroville Hospital", "latitude": 39.5055915, "longitude": -121.5412036, "source": "osm", "_tags": {"addr:city": "Oroville", "addr:housenumber": "2767", "addr:postcode": "95966", "addr:state": "CA", "addr:street": "Olive Highway", "amenity": "hospital", "emergency": "yes", "gnis:feature_id": "1723984", "healthcare": "hospital", "name": "Oroville Hospital", "note": "approximate boundaries", "opening_hours": "24/7", "phone": "+1 530 533 8500", "website": "https://www.orovillehospital.com/", "wikidata": "Q7103900", "wikipedia": "en:Oroville Hospital"}}, {"name": "Enloe Medical Center", "latitude": 39.7423938, "longitude": -121.8504052, "source": "osm", "_tags": {"addr:city": "Chico", "addr:housenumber": "1531", "addr:postcode": "95926", "addr:state": "CA", "addr:street": "Esplanade", "amenity": "hospital", "emergency": "yes", "healthcare": "hospital", "name": "Enloe Medical Center", "opening_hours": "24/7", "phone": "+1 530 332 7300", "website": "https://www.enloe.org/"}}, {"name": "Eastern Plumas District Hospital", "latitude": 39.8054721, "longitude": -120.4628536, "source": "osm", "_tags": {"gnis:feature_id": "1701353", "healthcare": "hospital", "name": "Eastern Plumas District Hospital"}}, {"name": "Plumas District Hospital", "latitude": 39.9398205, "longitude": -120.9615327, "source": "osm", "_tags": {"addr:city": "Quincy", "addr:housenumber": "1065", "addr:postcode": "95971", "addr:state": "CA", "addr:street": "Bucks Lake Road", "amenity": "hospital", "emergency": "yes", "gnis:feature_id": "1701393", "healthcare": "hospital", "name": "Plumas District Hospital", "opening_hours": "24/7", "phone": "+1 530 283 2121", "urgent_care": "yes", "website": "http://www.pdh.org/"}}, {"name": "Adventist Health Feather River", "latitude": 39.757417, "longitude": -121.570327, "source": "osm", "_tags": {"addr:city": "Paradise", "addr:housenumber": "5974", "addr:postcode": "95969", "addr:state": "CA", "addr:street": "Pentz Road", "amenity": "hospital", "beds": "100", "gnis:feature_id": "1723854", "healthcare": "hospital", "name": "Adventist Health Feather River", "old_name": "Feather River Hospital", "opening_hours": "24/7", "operator": "Adventist Health", "operator:type": "private", "operator:wikidata": "Q4686452", "phone": "+1 530 877 9361", "short_name": "AHFR", "website": "https://www.adventisthealth.org/feather-river/", "wikidata": "Q5439589", "wikipedia": "en:Adventist Health Feather River"}}, {"name": "Orchard Hospital", "latitude": 39.3676714, "longitude": -121.689576, "source": "osm", "_tags": {"addr:city": "Gridley", "addr:housenumber": "240", "addr:postcode": "95948", "addr:state": "CA", "addr:street": "Spruce Street", "amenity": "hospital", "beds": "45", "emergency": "yes", "gnis:feature_id": "1658058", "healthcare": "hospital", "name": "Orchard Hospital", "old_name": "Biggs Gridley Memorial Hospital", "opening_hours": "24/7", "phone": "+1 530 846 9000", "website": "https://www.orchardhospital.com/"}}, {"name": "", "latitude": 39.805464, "longitude": -120.4630178, "source": "osm", "_tags": {"addr:city": "Portola", "addr:housenumber": "500", "addr:postcode": "96122", "addr:state": "CA", "addr:street": "1st Avenue", "amenity": "hospital", "beds": "9", "building": "hospital", "emergency": "yes", "opening_hours": "24/7", "operator": "Eastern Plumas Health Care", "phone": "+1 530 832 6500", "website": "https://www.ephc.org/"}}, {"name": "", "latitude": 39.2063378, "longitude": -122.0008825, "source": "osm", "_tags": {"addr:housenumber": "199", "addr:street": "East Webster Street", "amenity": "hospital", "building": "hospital"}}, {"name": "Sierra Nevada Memorial Hospital", "latitude": 39.2277105, "longitude": -121.0473717, "source": "osm", "_tags": {"addr:city": "Grass Valley", "addr:housenumber": "155", "addr:postcode": "95945", "addr:state": "CA", "addr:street": "Glasson Way", "amenity": "hospital", "building": "hospital", "building:levels": "10", "emergency": "yes", "healthcare": "hospital", "healthcare:speciality": "general;intensive;emergency;surgery;maternity", "name": "Sierra Nevada Memorial Hospital", "opening_hours": "24/7", "operator": "Dignity Health", "operator:type": "private", "operator:wikidata": "Q5276334", "operator:wikipedia": "en:Dignity Health", "phone": "(530) 274-6000", "website": "https://locations.dignityhealth.org/sierra-nevada-memorial-hospital"}}, {"name": "Seneca Hospital", "latitude": 40.3059842, "longitude": -121.2349043, "source": "osm", "_tags": {"addr:city": "Chester", "addr:housenumber": "130", "addr:postcode": "96020", "addr:street": "Brentwood Drive", "amenity": "hospital", "beds": "10", "emergency": "yes", "gnis:feature_id": "1701409", "healthcare": "hospital", "name": "Seneca Hospital", "opening_hours": "24/7", "operator": "Seneca Healthcare District", "phone": "+1 530 258 2151", "website": "https://www.senecahospital.org/"}}, {"name": "Banner Lassen Medical Center", "latitude": 40.4363405, "longitude": -120.6272705, "source": "osm", "_tags": {"addr:city": "Susanville", "addr:housenumber": "1800", "addr:postcode": "96130", "addr:state": "CA", "addr:street": "Spring Ridge Drive", "amenity": "hospital", "beds": "25", "emergency": "yes", "healthcare": "hospital", "name": "Banner Lassen Medical Center", "opening_hours": "24/7", "operator": "Banner Health", "phone": "+15302522000", "website": "https://www.bannerhealth.com/locations/susanville/banner-lassen-medical-center"}}, {"name": "Tahoe Forest Hospital", "latitude": 39.3253416, "longitude": -120.1997552, "source": "osm", "_tags": {"addr:city": "Truckee", "addr:housenumber": "10121", "addr:postcode": "96161", "addr:street": "Pine Avenue", "amenity": "hospital", "beds": "25", "emergency": "yes", "healthcare": "hospital", "name": "Tahoe Forest Hospital", "opening_hours": "24/7", "operator": "Tahoe Forest Hospital District", "phone": "+1 530 587 6011", "type": "multipolygon", "website": "https://www.tfhd.com/"}}]