[{"name": "Cheyenne County Hospital", "latitude": 39.7713568, "longitude": -101.8033719, "source": "osm", "_tags": {"addr:city": "Saint Francis", "addr:housenumber": "201", "addr:postcode": "67756", "addr:street": "West 1st Street", "amenity": "hospital", "beds": "16", "emergency": "yes", "healthcare": "hospital", "name": "Cheyenne County Hospital", "opening_hours": "24/7", "phone": "+1 785 332 2104", "website": "https://www.cheyennecountyhospital.com/"}}, {"name": "Chase County Community Hospital", "latitude": 40.5244426, "longitude": -101.6504621, "source": "osm", "_tags": {"addr:city": "Imperial", "addr:housenumber": "600", "addr:postcode": "69033", "addr:street": "West 12th Street", "amenity": "hospital", "emergency": "yes", "gnis:feature_id": "1838848", "healthcare": "hospital", "name": "Chase County Community Hospital", "phone": "+1 308 882 7111", "website": "https://www.chasecountyhospital.com/"}}, {"name": "Community Hospital - McCook", "latitude": 40.2052781, "longitude": -100.6084325, "source": "osm", "_tags": {"addr:city": "McCook", "addr:housenumber": "1301", "addr:postcode": "69001", "addr:street": "East H Street", "amenity": "hospital", "emergency": "yes", "gnis:feature_id": "1841197", "healthcare": "hospital", "name": "Community Hospital - McCook", "phone": "+1 308 344 2650", "source": "Mapbox", "website": "https://chmccook.org/"}}, {"name": "Citizens Medical Center, Inc.", "latitude": 39.3788474, "longitude": -101.0443993, "source": "osm", "_tags": {"addr:city": "Colby", "addr:housenumber": "100", "addr:postcode": "67701", "addr:street": "East College Drive", "amenity": "hospital", "contact:website": "https://www.cmciks.com/", "emergency": "yes", "healthcare": "hospital", "name": "Citizens Medical Center, Inc.", "opening_hours": "24/7", "phone": "+1 785 462 7511", "website": "https://www.cmciks.com/"}}, {"name": "Rawlins County Health Center", "latitude": 39.8139225, "longitude": -101.0382741, "source": "osm", "_tags": {"addr:city": "Atwood", "addr:housenumber": "707", "addr:postcode": "67730", "addr:street": "Grant Street", "amenity": "hospital", "beds": "24", "emergency": "yes", "healthcare": "hospital", "name": "Rawlins County Health Center", "opening_hours": "24/7", "phone": "+1 785 626 3211", "website": "https://www.rchc.us/"}}, {"name": "Sheridan County Hospital", "latitude": 39.3545197, "longitude": -100.4317238, "source": "osm", "_tags": {"addr:city": "Hoxie", "addr:housenumber": "826", "addr:postcode": "67740", "addr:street": "18th Street", "amenity": "hospital", "beds": "18", "emergency": "yes", "healthcare": "hospital", "name": "Sheridan County Hospital", "opening_hours": "24/7", "phone": "+1 785 675 3281", "website": "http://www.sheridancountyhospital.com/"}}, {"name": "Decatur County Hospital", "latitude": 39.8157673, "longitude": -100.5387197, "source": "osm", "_tags": {"addr:city": "Oberlin", "addr:housenumber": "810", "addr:postcode": "67749", "addr:street": "West Columbia Street", "amenity": "hospital", "beds": "25", "emergency": "yes", "healthcare": "hospital", "name": "Decatur County Hospital", "opening_hours": "24/7", "operator": "Decatur Health Systems", "phone": "+1 785 475 2208", "website": "https://www.decaturhealthsystems.org/"}}, {"name": "Gove County Medical Center", "latitude": 39.0673783, "longitude": -100.2408108, "source": "osm", "_tags": {"addr:city": "Quinter", "addr:housenumber": "520", "addr:postcode": "67752", "addr:street": "West 5th Street", "amenity": "hospital", "beds": "21", "emergency": "yes", "healthcare": "hospital", "name": "Gove County Medical Center", "opening_hours": "24/7", "phone": "+1 785 754 3341", "website": "http://www.govecountymedical.org/"}}, {"name": "Goodland Regional Medical Center", "latitude": 39.3585348, "longitude": -101.7145278, "source": "osm", "_tags": {"addr:city": "Goodland", "addr:housenumber": "220", "addr:postcode": "67735", "addr:street": "West 2nd Street", "amenity": "hospital", "beds": "25", "emergency": "yes", "healthcare": "hospital", "name": "Goodland Regional Medical Center", "opening_hours": "24/7", "phone": "+1 785 890 3625", "website": "https://goodlandregional.com/"}}, {"name": "Perkins County Health Services", "latitude": 40.8486456, "longitude": -101.7268681, "source": "osm", "_tags": {"addr:city": "Grant", "addr:housenumber": "900", "addr:postcode": "69140", "addr:street": "Lincoln Avenue", "amenity": "hospital", "beds": "20", "emergency": "yes", "healthcare": "hospital", "name": "Perkins County Health Services", "opening_hours": "24/7", "phone": "+1 308 352 7200", "website": "https://www.pchsgrant.com/"}}, {"name": "Dundy County Hospital", "latitude": 40.0557429, "longitude": -101.5379062, "source": "osm", "_tags": {"amenity": "hospital", "healthcare": "hospital", "name": "Dundy County Hospital"}}, {"name": "", "latitude": 39.1271363, "longitude": -100.8635881, "source": "osm", "_tags": {"amenity": "hospital", "healthcare": "hospital"}}]