[{"name": "Buck Creek Medical Center", "latitude": 39.6396839, "longitude": -106.5223865, "source": "osm", "_tags": {"addr:city": "Avon", "addr:housenumber": "50", "addr:postcode": "81620", "addr:state": "CO", "addr:street": "Buck Creek Road", "amenity": "hospital", "healthcare": "hospital", "name": "Buck Creek Medical Center"}}, {"name": "Shaw Cancer Center", "latitude": 39.6519134, "longitude": -106.5925266, "source": "osm", "_tags": {"amenity": "hospital", "healthcare": "hospital", "name": "Shaw Cancer Center", "operator": "Vail Health"}}, {"name": "The Memorial Hospital", "latitude": 40.5183665, "longitude": -107.5797687, "source": "osm", "_tags": {"addr:city": "Craig", "addr:housenumber": "750", "addr:postcode": "81625", "addr:state": "CO", "addr:street": "Hospital Loop", "amenity": "hospital", "emergency": "yes", "healthcare": "hospital", "name": "The Memorial Hospital", "phone": "+1 970 824 9411", "website": "http://www.thememorialhospital.com/"}}, {"name": "Valley View Hospital", "latitude": 39.5329746, "longitude": -107.3213895, "source": "osm", "_tags": {"addr:city": "Glenwood Springs", "addr:housenumber": "1906", "addr:postcode": "81601", "addr:state": "CO", "addr:street": "Blake Avenue", "amenity": "hospital", "emergency": "yes", "gnis:feature_id": "174087", "healthcare": "hospital", "name": "Valley View Hospital", "opening_hours": "24/7", "phone": "+1 970 945 6535", "website": "https://www.vvh.org/"}}, {"name": "Saint Vincent General Hospital", "latitude": 39.2452157, "longitude": -106.302976, "source": "osm", "_tags": {"addr:city": "Leadville", "addr:housenumber": "822", "addr:postcode": "80461", "addr:state": "CO", "addr:street": "West 4th Street", "amenity": "hospital", "emergency": "yes", "healthcare": "hospital", "name": "Saint Vincent General Hospital", "opening_hours": "24/7", "operator": "St. Vincent Health", "phone": "+1 719 486 0230", "website": "https://www.stvincent.health/"}}, {"name": "Yampa Valley Medical Center", "latitude": 40.4632255, "longitude": -106.8148729, "source": "osm", "_tags": {"addr:city": "Steamboat Springs", "addr:housenumber": "1024", "addr:postcode": "80487", "addr:state": "CO", "addr:street": "Central Park Drive", "amenity": "hospital", "beds": "39", "emergency": "yes", "healthcare": "hospital", "name": "Yampa Valley Medical Center", "opening_hours": "24/7", "operator": "UCHealth", "phone": "+1 970 879 1322", "website": "https://www.uchealth.org/locations/uchealth-yampa-valley-medical-center/"}}, {"name": "Vail Health Vail Campus", "latitude": 39.6434072, "longitude": -106.382329, "source": "osm", "_tags": {"addr:city": "Vail", "addr:housenumber": "181", "addr:postcode": "81657", "addr:state": "CO", "addr:street": "West Meadow Drive", "amenity": "hospital", "beds": "56", "emergency": "yes", "healthcare": "hospital", "name": "Vail Health Vail Campus", "old_name": "Vail Valley Medical Center", "opening_hours": "24/7", "phone": "+1-970-476-2451", "url": "https://www.vailhealth.org/", "website": "https://www.vailhealth.org/locations/vail"}}, {"name": "Grand River Medical Center", "latitude": 39.5211102, "longitude": -107.7705011, "source": "osm", "_tags": {"addr:city": "Rifle", "addr:housenumber": "501", "addr:postcode": "81650", "addr:state": "CO", "addr:street": "Airport Road", "amenity": "hospital", "beds": "25", "emergency": "yes", "healthcare": "hospital", "name": "Grand River Medical Center", "opening_hours": "24/7", "operator": "Grand River Health", "phone": "+1 970 625 1510", "website": "https://grandriverhealth.org/"}}, {"name": "Aspen Valley Hospital", "latitude": 39.1905889, "longitude": -106.839214, "source": "osm", "_tags": {"addr:city": "Aspen", "addr:housenumber": "401", "addr:postcode": "81611", "addr:state": "CO", "addr:street": "Castle Creek Road", "amenity": "hospital", "beds": "25", "emergency": "yes", "healthcare": "hospital", "name": "Aspen Valley Hospital", "opening_hours": "24/7", "phone": "+1 970 544 1261", "short_name": "AVH", "website": "https://www.aspenvalleyhospital.org/"}}, {"name": "Pioneers Medical Center", "latitude": 40.0463826, "longitude": -107.8812531, "source": "osm", "_tags": {"addr:city": "Meeker", "addr:housenumber": "100", "addr:postcode": "81641", "addr:state": "CO", "addr:street": "Pioneers Medical Center Drive", "amenity": "hospital", "beds": "10", "emergency": "yes", "healthcare": "hospital", "name": "Pioneers Medical Center", "opening_hours": "24/7", "phone": "+1 970 878 5047", "website": "https://www.pioneershospital.org/"}}, {"name": "Middle Park Medical Center", "latitude": 40.0570711, "longitude": -106.3905877, "source": "osm", "_tags": {"addr:city": "Kremmling", "addr:housenumber": "214", "addr:postcode": "80459", "addr:state": "CO", "addr:street": "4th Street", "amenity": "hospital", "emergency": "yes", "fixme": "facility needs to be updated with recent imagery", "gnis:feature_id": "2043326", "healthcare": "hospital", "name": "Middle Park Medical Center", "old_name": "Kremmling Memorial Hospital", "opening_hours": "24/7", "phone": "+1 970 724 3442", "website": "https://mpmc.org/"}}]