[{"name": "Brodstone Memorial Hospital", "latitude": 40.0270218, "longitude": -98.0657702, "source": "osm", "_tags": {"addr:city": "Superior", "addr:housenumber": "510", "addr:postcode": "68978", "addr:street": "East 10th Street", "amenity": "hospital", "emergency": "yes", "gnis:feature_id": "1882674", "healthcare": "hospital", "name": "Brodstone Memorial Hospital", "phone": "+1 402 879 3281", "website": "https://www.brodstonehospital.org/"}}, {"name": "Memorial Community Health", "latitude": 40.8711599, "longitude": -98.0109737, "source": "osm", "_tags": {"addr:city": "Aurora", "addr:housenumber": "1423", "addr:postcode": "68818", "addr:state": "NE", "addr:street": "7th Street", "amenity": "hospital", "emergency": "yes", "gnis:feature_id": "1881669", "healthcare": "hospital", "name": "Memorial Community Health", "phone": "+1 402 694 3171", "website": "https://www.memorialcommunityhealth.org/"}}, {"name": "Lincoln County Hospital", "latitude": 39.0454476, "longitude": -98.143558, "source": "osm", "_tags": {"addr:city": "Lincoln", "addr:housenumber": "624", "addr:postcode": "67455", "addr:street": "North 2nd Street", "amenity": "hospital", "beds": "14", "emergency": "yes", "healthcare": "hospital", "name": "Lincoln County Hospital", "opening_hours": "24/7", "phone": "+1 785 524 4403", "website": "https://www.lincolncountyhospital.net/"}}, {"name": "Mitchell County Hospital Health Systems", "latitude": 39.4675058, "longitude": -98.1144062, "source": "osm", "_tags": {"addr:city": "Beloit", "addr:housenumber": "400", "addr:postcode": "67420", "addr:street": "West 8th Street", "amenity": "hospital", "beds": "25", "emergency": "yes", "healthcare": "hospital", "name": "Mitchell County Hospital Health Systems", "opening_hours": "24/7", "phone": "+1 785 738 2266", "short_name": "MCHHS", "website": "https://www.mchks.com/"}}]