[{"name": "Regional West Medical Center", "latitude": 41.8864556, "longitude": -103.6634117, "source": "osm", "_tags": {"addr:city": "Scottsbluff", "addr:housenumber": "4021", "addr:postcode": "69361", "addr:street": "Avenue B", "amenity": "hospital", "beds": "188", "emergency": "yes", "healthcare": "hospital", "name": "Regional West Medical Center", "opening_hours": "24/7", "operator": "Regional West Health Services", "phone": "+1 308 635 3711", "website": "https://www.rwhs.org/"}}, {"name": "Box Butte General Hospital", "latitude": 42.1167617, "longitude": -102.8699192, "source": "osm", "_tags": {"addr:city": "Alliance", "addr:housenumber": "2101", "addr:postcode": "69301", "addr:street": "Box Butte Avenue", "amenity": "hospital", "emergency": "yes", "gnis:feature_id": "1827791", "healthcare": "hospital", "name": "Box Butte General Hospital", "phone": "+1 308 762 6660", "website": "https://www.bbgh.org/"}}, {"name": "Gordon Memorial Hospital", "latitude": 42.8123356, "longitude": -102.1997284, "source": "osm", "_tags": {"addr:city": "Gordon", "addr:housenumber": "300", "addr:postcode": "69343", "addr:street": "East 8th Street", "amenity": "hospital", "beds": "25", "emergency": "yes", "gnis:feature_id": "1832204", "healthcare": "hospital", "name": "Gordon Memorial Hospital", "opening_hours": "24/7", "phone": "+1 308 282 0401", "website": "https://www.gordonmemorial.org/"}}, {"name": "Morrill County Community Hospital", "latitude": 41.6617695, "longitude": -103.0924345, "source": "osm", "_tags": {"addr:city": "Bridgeport", "addr:housenumber": "1313", "addr:postcode": "69336", "addr:street": "S Street", "amenity": "hospital", "emergency": "yes", "gnis:feature_id": "1829976", "healthcare": "hospital", "name": "Morrill County Community Hospital", "phone": "+1 308 262 1616", "website": "https://www.morrillcountyhospital.com/"}}, {"name": "Kimball Health Services", "latitude": 41.2325393, "longitude": -103.6665247, "source": "osm", "_tags": {"addr:city": "Kimball", "addr:housenumber": "505", "addr:postcode": "69145", "addr:street": "South Burg Street", "amenity": "hospital", "emergency": "yes", "gnis:feature_id": "1830194", "healthcare": "hospital", "name": "Kimball Health Services", "old_name": "Kimball County Hospital", "phone": "308-235-1951", "website": "https://www.kimballhealth.org/"}}, {"name": "Sidney Regional Medical Center", "latitude": 41.1358446, "longitude": -102.9523858, "source": "osm", "_tags": {"addr:city": "Sidney", "addr:housenumber": "1000", "addr:postcode": "69162", "addr:state": "NE", "addr:street": "Pole Creek Crossing", "amenity": "hospital", "emergency": "yes", "healthcare": "hospital", "name": "Sidney Regional Medical Center", "phone": "+1 308 254 5825", "website": "https://www.sidneyrmc.com/"}}, {"name": "Regional West Garden County", "latitude": 41.4125456, "longitude": -102.348556, "source": "osm", "_tags": {"addr:city": "Oshkosh", "addr:housenumber": "1100", "addr:postcode": "69154", "addr:street": "West 2nd Street", "amenity": "hospital", "emergency": "yes", "gnis:feature_id": "1832285", "healthcare": "hospital", "name": "Regional West Garden County", "old_name": "Garden County Hospital", "phone": "+1 308 772 3283", "website": "http://gchealth.org/"}}, {"name": "Kimball Health Services", "latitude": 41.2349923, "longitude": -103.6650849, "source": "osm", "_tags": {"amenity": "hospital", "healthcare": "hospital", "name": "Kimball Health Services"}}, {"name": "Chadron Community Hospital", "latitude": 42.8225918, "longitude": -103.0132002, "source": "osm", "_tags": {"addr:city": "Chadron", "addr:housenumber": "825", "addr:postcode": "69337", "addr:street": "Centennial Drive", "amenity": "hospital", "healthcare": "hospital", "name": "Chadron Community Hospital", "phone": "+1-308-432-5586", "type": "multipolygon", "website": "https://www.chadronhospital.com/"}}]