[{"name": "St. Luke’s Canyon View Behavioral Health Services", "latitude": 42.5661081, "longitude": -114.483156, "source": "osm", "_tags": {"addr:city": "Twin Falls", "addr:housenumber": "228", "addr:postcode": "83301", "addr:state": "ID", "addr:street": "Shoup Avenue West", "amenity": "hospital", "emergency": "no", "gnis:feature_id": "401260", "healthcare": "hospital", "healthcare:speciality": "psychiatry", "name": "St. Luke’s Canyon View Behavioral Health Services", "old_name": "Canyon View Hospital", "phone": "+1-208-814-7900", "website": "https://www.stlukesonline.org/communities-and-locations/facilities/hospitals-and-medical-centers/st-lukes-canyon-view-behavioral-health-services"}}, {"name": "St. Luke's Magic Valley Regional Medical Center", "latitude": 42.5903241, "longitude": -114.4956412, "source": "osm", "_tags": {"addr:city": "Twin Falls", "addr:housenumber": "801", "addr:postcode": "83301", "addr:state": "ID", "addr:street": "Pole Line Road West", "amenity": "hospital", "emergency": "yes", "healthcare": "hospital", "name": "St. Luke's Magic Valley Regional Medical Center", "opening_hours": "24/7", "operator": "St. Luke's", "phone": "+1 208 814 1000", "website": "https://www.stlukesonline.org/communities-and-locations/facilities/hospitals-and-medical-centers/st-lukes-magic-valley-medical-center"}}, {"name": "Saint Luke's Jerome Medical Center", "latitude": 42.7298978, "longitude": -114.5196519, "source": "osm", "_tags": {"addr:city": "Jerome", "addr:housenumber": "709", "addr:postcode": "83338", "addr:state": "ID", "addr:street": "North Lincoln Avenue", "amenity": "hospital", "beds": "25", "emergency": "yes", "gnis:feature_id": "395798", "healthcare": "hospital", "name": "Saint Luke's Jerome Medical Center", "opening_hours": "24/7", "phone": "+1 208 814 9500", "website": "https://www.stlukesonline.org/communities-and-locations/facilities/hospitals-and-medical-centers/st-lukes-jerome-medical-center"}}, {"name": "North Canyon Medical Center", "latitude": 42.9209077, "longitude": -114.7102451, "source": "osm", "_tags": {"addr:city": "Gooding", "addr:housenumber": "267", "addr:postcode": "83330", "addr:state": "ID", "addr:street": "North Canyon Drive", "amenity": "hospital", "beds": "18", "emergency": "yes", "healthcare": "hospital", "name": "North Canyon Medical Center", "opening_hours": "24/7", "phone": "+1 208 934 4433", "website": "https://www.ncm-c.org/"}}, {"name": "Owyhee Community Health Facility", "latitude": 41.9504239, "longitude": -116.0982056, "source": "osm", "_tags": {"addr:city": "Owyhee", "addr:postcode": "89832", "addr:state": "NV", "amenity": "hospital", "emergency": "yes", "gnis:feature_id": "2060073", "healthcare": "hospital", "helipad": "yes", "name": "Owyhee Community Health Facility", "opening_hours": "24/7", "phone": "+1 775 757 2415", "website": "https://shopaitribes.org/spochf/"}}]