[{"name": "Avera Medical Group O'Neill", "latitude": 42.4607361, "longitude": -98.6506252, "source": "osm", "_tags": {"addr:city": "O'Neill", "addr:housenumber": "302", "addr:postcode": "68763", "addr:street": "North 2nd Street", "addr:unit": "Suite 100", "amenity": "hospital", "healthcare": "hospital", "name": "Avera Medical Group O'Neill", "operator": "Avera Health", "operator:wikidata": "Q4828238", "phone": "+1 402 336 2900", "website": "https://www.avera.org/locations/profile/?id=90"}}, {"name": "Valley County Health System Medical Clinic", "latitude": 41.6022058, "longitude": -98.942803, "source": "osm", "_tags": {"addr:city": "Ord", "addr:housenumber": "2707", "addr:postcode": "68862", "addr:street": "L Street", "amenity": "hospital", "healthcare": "hospital", "name": "Valley County Health System Medical Clinic", "opening_hours": "Mo-Fr 07:00-18:00; Sa 09:00-12:00", "phone": "+1-308-728-4202", "website": "https://www.valleycountyhealthsystem.org/medical-services/medical-clinics/ord-family-health-center"}}, {"name": "North Central District Health Department", "latitude": 42.4579242, "longitude": -98.6482991, "source": "osm", "_tags": {"addr:city": "O'Neill", "addr:housenumber": "422", "addr:postcode": "68763", "addr:state": "NE", "addr:street": "East Douglas Street", "amenity": "hospital", "emergency": "no", "healthcare": "hospital", "healthcare:speciality": "Public_Health", "name": "North Central District Health Department", "phone": "402-366-2406"}}, {"name": "Brown County Hospital", "latitude": 42.5444321, "longitude": -99.8494332, "source": "osm", "_tags": {"addr:city": "Ainsworth", "addr:housenumber": "945", "addr:postcode": "69210", "addr:street": "East Zero Street", "amenity": "hospital", "emergency": "yes", "gnis:feature_id": "1844956", "healthcare": "hospital", "name": "Brown County Hospital", "phone": "+1 402 387 2800", "website": "http://www.browncountyhospital.org/"}}, {"name": "Rock County Hospital", "latitude": 42.5752794, "longitude": -99.5375608, "source": "osm", "_tags": {"addr:city": "Bassett", "addr:housenumber": "102", "addr:postcode": "68714", "addr:street": "East South Street", "amenity": "hospital", "emergency": "yes", "gnis:feature_id": "1845041", "name": "Rock County Hospital", "phone": "+1 402 684 3366", "website": "https://rockcountyhospital.com/"}}, {"name": "Avera Saint Anthony's Hospital", "latitude": 42.4606117, "longitude": -98.6507472, "source": "osm", "_tags": {"addr:city": "O'Neill", "addr:housenumber": "300", "addr:postcode": "68763", "addr:state": "NE", "addr:street": "North 2nd Street", "amenity": "hospital", "emergency": "yes", "gnis:feature_id": "1847658", "healthcare": "hospital", "name": "Avera Saint Anthony's Hospital", "old_name": "Saint Anthonys Hospital", "operator": "Avera Health", "operator:type": "private", "operator:wikidata": "Q4828238", "operator:wikipedia": "en:Avera Health", "phone": "+1 402 336 2611", "website": "https://www.avera.org/locations/profile/?id=120"}}, {"name": "Callaway District Hospital", "latitude": 41.2913447, "longitude": -99.9232841, "source": "osm", "_tags": {"addr:city": "Callaway", "addr:housenumber": "211", "addr:postcode": "68825", "addr:street": "East Kimball Street", "amenity": "hospital", "emergency": "yes", "gnis:feature_id": "1847979", "healthcare": "hospital", "name": "Callaway District Hospital", "phone": "+1 308 836 2228", "website": "https://www.callawayhospital.org/"}}, {"name": "Jennie M. Melham Memorial Medical Center", "latitude": 41.4105172, "longitude": -99.6320999, "source": "osm", "_tags": {"addr:city": "Broken Bow", "addr:housenumber": "145", "addr:postcode": "68822", "addr:street": "Memorial Drive", "amenity": "hospital", "emergency": "yes", "gnis:feature_id": "1847901", "healthcare": "hospital", "name": "Jennie M. Melham Memorial Medical Center", "phone": "+1 308 872 4100", "website": "https://www.melham.org/"}}, {"name": "West Holt Memorial Hospital", "latitude": 42.5285444, "longitude": -98.9822143, "source": "osm", "_tags": {"addr:city": "Atkinson", "addr:housenumber": "406", "addr:postcode": "68713", "addr:street": "West Neely Street", "amenity": "hospital", "emergency": "yes", "gnis:feature_id": "1847695", "healthcare": "hospital", "name": "West Holt Memorial Hospital", "phone": "+1 402 925 2811", "website": "https://www.westholtmed.org/"}}, {"name": "Valley County Health System", "latitude": 41.6017822, "longitude": -98.9429118, "source": "osm", "_tags": {"addr:city": "Ord", "addr:housenumber": "2707", "addr:postcode": "68862", "addr:street": "L Street", "amenity": "hospital", "emergency": "yes", "healthcare": "hospital", "name": "Valley County Health System", "phone": "+1-308-728-4200", "website": "https://www.valleycountyhealthsystem.org/"}}, {"name": "Howard County Medical Center", "latitude": 41.2171984, "longitude": -98.4635713, "source": "osm", "_tags": {"addr:city": "Saint Paul", "addr:housenumber": "1113", "addr:postcode": "68873", "addr:street": "Sherman Street", "amenity": "hospital", "beds": "16", "emergency": "yes", "gnis:feature_id": "1874799", "healthcare": "hospital", "name": "Howard County Medical Center", "opening_hours": "24/7", "phone": "+1 308 754 4421", "website": "https://hcmc.us.com/"}}, {"name": "Niobrara Valley Hospital", "latitude": 42.8246859, "longitude": -98.4686981, "source": "osm", "_tags": {"addr:city": "Lynch", "addr:housenumber": "401", "addr:postcode": "68746", "addr:street": "South 5th Street", "amenity": "hospital", "emergency": "yes", "gnis:feature_id": "1845122", "healthcare": "hospital", "name": "Niobrara Valley Hospital", "phone": "+1 402 569 2451", "source": "Esri 20183", "website": "http://www.nvhcares.org/"}}]