[{"name": "Sutter Coast Hospital", "latitude": 41.7742341, "longitude": -124.1941678, "source": "osm", "_tags": {"addr:city": "Crescent City", "addr:housenumber": "800", "addr:postcode": "95531", "addr:state": "CA", "addr:street": "East Washington Boulevard", "amenity": "hospital", "beds": "49", "emergency": "yes", "healthcare": "hospital", "name": "Sutter Coast Hospital", "opening_hours": "24/7", "operator": "Sutter Health", "operator:website": "https://www.sutterhealth.org/", "operator:wikidata": "Q7650154", "operator:wikipedia": "en:Sutter Health", "phone": "+1-707-464-8511", "website": "https://www.sutterhealth.org/"}}, {"name": "Curry General Hospital", "latitude": 42.4112995, "longitude": -124.4185293, "source": "osm", "_tags": {"addr:city": "Gold Beach", "addr:housenumber": "94220", "addr:postcode": "97444", "addr:state": "OR", "addr:street": "4th Street", "amenity": "hospital", "beds": "24", "emergency": "yes", "healthcare": "hospital", "name": "Curry General Hospital", "opening_hours": "24/7", "operator": "Curry Health Network", "phone": "+1-541-247-3000", "website": "https://www.curryhealthnetwork.com/"}}]