[{"name": "SageWest Health Care – Lander", "latitude": 42.8205721, "longitude": -108.7267577, "source": "osm", "_tags": {"addr:city": "Lander", "addr:housenumber": "1320", "addr:postcode": "82520", "addr:state": "WY", "addr:street": "Bishop Randall Drive", "amenity": "hospital", "emergency": "yes", "healthcare": "hospital", "name": "SageWest Health Care – Lander", "phone": "+1 307 332 4420", "website": "https://www.sagewesthealthcare.com/"}}, {"name": "Memorial Hospital of Sweetwater County", "latitude": 41.5846344, "longitude": -109.2354437, "source": "osm", "_tags": {"addr:city": "Rock Springs", "addr:housenumber": "1200", "addr:postcode": "82901", "addr:state": "WY", "addr:street": "College Drive", "amenity": "hospital", "beds": "99", "emergency": "yes", "healthcare": "hospital", "name": "Memorial Hospital of Sweetwater County", "opening_hours": "24/7", "phone": "+1 307 362 3711", "website": "https://www.sweetwatermemorial.com/"}}, {"name": "Aspen Mountain Medical Center", "latitude": 41.6025061, "longitude": -109.2464556, "source": "osm", "_tags": {"addr:city": "Rock Springs", "addr:housenumber": "4401", "addr:postcode": "82901", "addr:state": "WY", "addr:street": "College Drive", "amenity": "hospital", "beds": "16", "emergency": "no", "healthcare": "hospital", "name": "Aspen Mountain Medical Center", "phone": "+1 307 352 8900", "website": "https://aspenmountainmc.com/"}}, {"name": "Fort Washakie Health Center", "latitude": 43.0048641, "longitude": -108.8826783, "source": "osm", "_tags": {"addr:city": "Fort Washakie", "addr:housenumber": "29", "addr:postcode": "82514", "addr:state": "WY", "addr:street": "Black Coal Drive", "amenity": "hospital", "building": "yes", "healthcare": "hospital", "name": "Fort Washakie Health Center", "opening_hours": "Mo-Fr 08:00-18:00", "operator": "Indian Health Service", "operator:short": "IHS", "operator:type": "public", "operator:wikidata": "Q6020429", "phone": "+1-307-332-7300", "website": "https://www.ihs.gov"}}]