[{"name": "Star Valley Health Hospital", "latitude": 42.7175006, "longitude": -110.9304477, "source": "osm", "_tags": {"addr:city": "Afton", "addr:housenumber": "901", "addr:postcode": "83110", "addr:state": "WY", "addr:street": "Adams Street", "amenity": "hospital", "healthcare": "hospital", "healthcare:speciality": "general", "name": "Star Valley Health Hospital", "phone": "+1-307-885-5800"}}, {"name": "Premier Home Health, Inc", "latitude": 42.9225727, "longitude": -111.0028984, "source": "osm", "_tags": {"addr:city": "Thayne", "addr:housenumber": "387", "addr:postcode": "83127", "addr:state": "WY", "addr:street": "North Main Street", "amenity": "hospital", "healthcare": "hospital", "name": "Premier Home Health, Inc", "operator": "Prime Healthcare Services", "operator:wikidata": "Q7243267", "operator:wikipedia": "en:Prime Healthcare Services", "phone": "+1-307-883-5500", "website": "https://www.premierhomehealthcare.com/"}}, {"name": "Wyoming State Hospital", "latitude": 41.2638287, "longitude": -110.9470982, "source": "osm", "_tags": {"addr:city": "Evanston", "addr:housenumber": "831", "addr:postcode": "82931", "addr:state": "WY", "addr:street": "Highway 150 South", "amenity": "hospital", "beds": "238", "healthcare": "hospital", "healthcare:speciality": "psychiatry", "name": "Wyoming State Hospital", "phone": "+1-307-789-3464", "website": "https://health.wyo.gov/behavioralhealth/statehospital/"}}, {"name": "Viewpoint Center", "latitude": 41.0754081, "longitude": -112.0792064, "source": "osm", "_tags": {"addr:city": "Syracuse", "addr:housenumber": "2732", "addr:postcode": "84075", "addr:state": "UT", "addr:street": "West 2700 South", "amenity": "hospital", "beds": "26", "healthcare": "hospital", "healthcare:speciality": "psychiatry", "name": "Viewpoint Center", "website": "https://www.viewpointcenter.com"}}, {"name": "McKay-Dee Hospital", "latitude": 41.1847815, "longitude": -111.9532813, "source": "osm", "_tags": {"addr:city": "Ogden", "addr:housenumber": "4401", "addr:postcode": "84403", "addr:state": "UT", "addr:street": "Harrison Boulevard", "amenity": "hospital", "ele": "4600 ft", "emergency": "yes", "healthcare": "hospital", "healthcare:speciality": "allergy_&_immunology;behavior_health;brain_&_spine;dermatology;destination_medicine;otolaryngology;emergency_department_&_trauma_services;endocrinology;eye_care;gastroenterology;genomics;geriatrics;hearing_&_balance;heart_&_vescular;hli_faculty;homecare", "name": "McKay-Dee Hospital", "name_1": "Intermountain Heath Care", "note": "Area is approximate", "operator": "Intermountain Healthcare", "operator:type": "private", "operator:wikidata": "Q6047563", "operator:wikipedia": "en:Intermountain Healthcare", "phone": "+1-801-387-2800", "website": "https://intermountainhealthcare.org/locations/mckay-dee-hospital", "wheelchair": "yes", "wikidata": "Q14711818", "wikipedia": "en:McKay-Dee Hospital"}}, {"name": "Logan Regional Hospital", "latitude": 41.7555498, "longitude": -111.8216371, "source": "osm", "_tags": {"addr:city": "Logan", "addr:housenumber": "1400", "addr:postcode": "84341", "addr:state": "UT", "addr:street": "North 500 East", "amenity": "hospital", "emergency": "yes", "gnis:feature_id": "1448619", "healthcare": "hospital", "name": "Logan Regional Hospital", "opening_hours": "24/7", "operator": "Intermountain Healthcare", "operator:type": "private", "operator:wikidata": "Q6047563", "operator:wikipedia": "en:Intermountain Healthcare", "phone": "+1 435 716 1000", "website": "https://intermountainhealthcare.org/locations/logan-regional-hospital/", "wheelchair": "yes", "wikidata": "Q6667136"}}, {"name": "Cache Valley Hospital", "latitude": 41.7750188, "longitude": -111.8215389, "source": "osm", "_tags": {"addr:city": "North Logan", "addr:housenumber": "2380", "addr:postcode": "84341", "addr:state": "UT", "addr:street": "North 400 East", "amenity": "hospital", "emergency": "yes", "healthcare": "hospital", "name": "Cache Valley Hospital", "opening_hours": "24/7", "phone": "+1 435 713 9700", "website": "https://cachevalleyhospital.com/"}}, {"name": "Intermountain Bear River Valley Hospital", "latitude": 41.7245374, "longitude": -112.1828171, "source": "osm", "_tags": {"addr:city": "Tremonton", "addr:housenumber": "905", "addr:postcode": "84337", "addr:state": "UT", "addr:street": "North 1000 West", "amenity": "hospital", "beds": "16", "emergency": "yes", "gnis:feature_id": "1448118", "healthcare": "hospital", "name": "Intermountain Bear River Valley Hospital", "operator": "Intermountain Healthcare", "phone": "+1 435 207 4500", "website": "http://www.intermountainhealthcare.org/hospitals/bearriver/Pages/home.aspx"}}, {"name": "Brigham City Community Hospital", "latitude": 41.4909382, "longitude": -112.0263071, "source": "osm", "_tags": {"addr:city": "Brigham City", "addr:housenumber": "950 South", "addr:postcode": "84302", "addr:state": "UT", "addr:street": "Medical Drive", "amenity": "hospital", "emergency": "yes", "healthcare": "hospital", "name": "Brigham City Community Hospital", "phone": "+1 435 734 9471", "website": "https://brighamcityhospital.com/", "wheelchair": "yes"}}, {"name": "McKay-Dee North Campus", "latitude": 41.1916181, "longitude": -111.9513812, "source": "osm", "_tags": {"addr:city": "Ogden", "addr:housenumber": "3903", "addr:postcode": "84403", "addr:state": "UT", "addr:street": "Harrison Boulevard", "amenity": "hospital", "ele": "4600 ft", "emergency": "no", "healthcare": "hospital", "name": "McKay-Dee North Campus", "operator": "Intermountain Healthcare", "operator:type": "private", "operator:wikidata": "Q6047563", "phone": "+1-801-387-3600", "website": "https://intermountainhealthcare.org/"}}, {"name": "South Lincoln Medical Center", "latitude": 41.7898574, "longitude": -110.5413837, "source": "osm", "_tags": {"addr:city": "Kemmerer", "addr:housenumber": "711", "addr:postcode": "83101", "addr:state": "WY", "addr:street": "Onyx Street", "amenity": "hospital", "emergency": "yes", "gnis:feature_id": "1794886", "healthcare": "hospital", "name": "South Lincoln Medical Center", "phone": "+1 307 877 4401", "website": "https://www.southlincolnmedical.com/"}}, {"name": "Star Valley Health", "latitude": 42.7171161, "longitude": -110.9305236, "source": "osm", "_tags": {"addr:city": "Afton", "addr:housenumber": "901", "addr:postcode": "83110", "addr:state": "WY", "addr:street": "Adams Street", "amenity": "hospital", "emergency": "yes", "gnis:feature_id": "1603341", "healthcare": "hospital", "name": "Star Valley Health", "old_name": "Star Valley Latter Day Saints Hospital", "phone": "+1 307 885 5800", "website": "https://www.starvalleyhealth.org/", "wikidata": "Q17063054", "wikipedia": "en:Star Valley Medical Center"}}, {"name": "Holy Cross Hospital - Davis", "latitude": 41.0910328, "longitude": -111.9952203, "source": "osm", "_tags": {"addr:city": "Layton", "addr:housenumber": "1600", "addr:postcode": "84041", "addr:state": "UT", "addr:street": "West Antelope Drive", "amenity": "hospital", "beds": "220", "emergency": "yes", "healthcare": "hospital", "name": "Holy Cross Hospital - Davis", "old_name": "Davis Hospital and Medical Center", "opening_hours": "24/7", "operator": "Centura Health", "operator:wikidata": "Q110940557", "operator:wikipedia": "en:Centura Health", "phone": "+1 801 807 1000", "website": "https://www.centura.org/location/holy-cross-hospital-davis/hc"}}, {"name": "Ogden Regional Medical Center", "latitude": 41.1640458, "longitude": -111.9705984, "source": "osm", "_tags": {"addr:city": "Washington Terrace", "addr:housenumber": "5475", "addr:postcode": "84405", "addr:state": "UT", "addr:street": "South 500 East", "amenity": "hospital", "emergency": "yes", "gnis:feature_id": "1449059", "healthcare": "hospital", "name": "Ogden Regional Medical Center", "name_1": "Saint Benedicts Hospital", "opening_hours": "24/7", "phone": "+1 801 479 2111", "website": "https://ogdenregional.com", "wikidata": "Q7079943"}}, {"name": "Northern Utah Rehabilitation Hospital", "latitude": 41.1571014, "longitude": -111.9412688, "source": "osm", "_tags": {"addr:city": "South Ogden", "addr:housenumber": "5825", "addr:postcode": "84403", "addr:state": "UT", "addr:street": "Harrison Boulevard", "amenity": "hospital", "emergency": "no", "healthcare": "hospital", "name": "Northern Utah Rehabilitation Hospital", "operator": "Ernest Health", "phone": "+1 801 475 5254", "website": "https://nurh.ernesthealth.com/"}}, {"name": "Franklin County Medical Center", "latitude": 42.0976361, "longitude": -111.8729645, "source": "osm", "_tags": {"addr:city": "Preston", "addr:housenumber": "44", "addr:postcode": "83263", "addr:state": "ID", "addr:street": "East 1st North", "amenity": "hospital", "beds": "20", "emergency": "yes", "gnis:feature_id": "399023", "healthcare": "hospital", "name": "Franklin County Medical Center", "opening_hours": "24/7", "phone": "+1 208 852 0137", "website": "https://www.fcmc.org/"}}, {"name": "Intermountain Healthcare Layton Hospital", "latitude": 41.0520866, "longitude": -111.9686464, "source": "osm", "_tags": {"addr:city": "Layton", "addr:housenumber": "201", "addr:postcode": "84041", "addr:state": "UT", "addr:street": "West Layton Parkway", "amenity": "hospital", "healthcare": "hospital", "name": "Intermountain Healthcare Layton Hospital", "operator": "Intermountain Healthcare", "operator:wikidata": "Q6047563", "operator:wikipedia": "en:Intermountain Healthcare", "phone": "+1 801 543 6000", "website": "https://intermountainhealthcare.org/locations/layton-hospital/"}}, {"name": "Caribou Memorial Hospital", "latitude": 42.6522904, "longitude": -111.6146539, "source": "osm", "_tags": {"addr:city": "Soda Springs", "addr:housenumber": "300", "addr:postcode": "83276", "addr:state": "ID", "addr:street": "South 3rd West Street", "amenity": "hospital", "beds": "25", "emergency": "yes", "healthcare": "hospital", "name": "Caribou Memorial Hospital", "opening_hours": "24/7", "phone": "+1 208 547 3341", "website": "https://cmhlc.org/"}}, {"name": "Bear Lake Memorial Hospital", "latitude": 42.3165879, "longitude": -111.2997027, "source": "osm", "_tags": {"addr:city": "Montpelier", "addr:housenumber": "164", "addr:postcode": "83254", "addr:state": "ID", "addr:street": "South 5th Street", "amenity": "hospital", "beds": "21", "emergency": "yes", "healthcare": "hospital", "name": "Bear Lake Memorial Hospital", "opening_hours": "24/7", "phone": "+1 208 847 1630", "website": "https://www.blmhospital.com/"}}, {"name": "Evanston Regional Hospital", "latitude": 41.2432038, "longitude": -110.9906602, "source": "osm", "_tags": {"addr:city": "Evanston", "addr:housenumber": "190", "addr:postcode": "82930", "addr:state": "WY", "addr:street": "Arrowhead Drive", "amenity": "hospital", "beds": "42", "emergency": "yes", "healthcare": "hospital", "name": "Evanston Regional Hospital", "opening_hours": "24/7", "phone": "+1 307 789 3636", "website": "http://www.evanstonregionalhospital.com/"}}]