[{"name": "Modoc Medical Center", "latitude": 41.4801377, "longitude": -120.5453854, "source": "osm", "_tags": {"addr:city": "Alturas", "addr:housenumber": "228", "addr:postcode": "96101", "addr:street": "West McDowell Avenue", "amenity": "hospital", "beds": "16", "emergency": "yes", "gnis:feature_id": "1702406", "healthcare": "hospital", "name": "Modoc Medical Center", "opening_hours": "24/7", "phone": "+1 530 233 5131", "website": "https://modocmedicalcenter.org/"}}, {"name": "Sky Lakes Medical Center", "latitude": 42.2529528, "longitude": -121.7846892, "source": "osm", "_tags": {"addr:city": "Klamath Falls", "addr:housenumber": "2865", "addr:postcode": "97601", "addr:street": "Daggett Avenue", "amenity": "hospital", "beds": "176", "emergency": "yes", "healthcare": "hospital", "name": "Sky Lakes Medical Center", "opening_hours": "24/7", "phone": "+1 541 882 6311", "website": "https://www.skylakes.org/", "wikidata": "Q7537377"}}, {"name": "Lake District Hospital", "latitude": 42.1812517, "longitude": -120.3520977, "source": "osm", "_tags": {"addr:city": "Lakeview", "addr:housenumber": "700", "addr:postcode": "97630", "addr:street": "South J Street", "amenity": "hospital", "emergency": "yes", "name": "Lake District Hospital", "opening_hours": "24/7", "phone": "+1 541 947 2114", "website": "http://www.lakehealthdistrict.org/", "wikidata": "Q6475625"}}, {"name": "Mayers Memorial Hospital", "latitude": 41.0232214, "longitude": -121.4243594, "source": "osm", "_tags": {"addr:city": "Fall River Mills", "addr:housenumber": "43563", "addr:postcode": "96028", "addr:state": "CA", "addr:street": "Highway 299 East", "amenity": "hospital", "emergency": "yes", "gnis:feature_id": "1682501", "healthcare": "hospital", "name": "Mayers Memorial Hospital", "opening_hours": "24/7", "phone": "+1 530 336 5511", "website": "https://www.mayersmemorial.com/"}}]