[{"name": "Minidoka Memorial Hospital", "latitude": 42.6205745, "longitude": -113.6862373, "source": "osm", "_tags": {"addr:city": "Rupert", "addr:housenumber": "1224", "addr:postcode": "83350", "addr:state": "ID", "addr:street": "8th Street", "amenity": "hospital", "emergency": "yes", "gnis:feature_id": "373971", "healthcare": "hospital", "name": "Minidoka Memorial Hospital", "phone": "+1 208 436 0481", "website": "http://www.minidokamemorial.com/"}}, {"name": "Cassia Regional Hospital", "latitude": 42.5344554, "longitude": -113.7814434, "source": "osm", "_tags": {"addr:city": "Burley", "addr:housenumber": "1501", "addr:postcode": "83318", "addr:state": "ID", "addr:street": "Hiland Avenue", "amenity": "hospital", "emergency": "yes", "name": "Cassia Regional Hospital", "old_name": "Cassia Regional Medical Center", "opening_hours": "24/7", "operator": "Intermountain Healthcare", "phone": "+1 208 678 4444", "website": "https://intermountainhealthcare.org/locations/cassia-regional-hospital/"}}, {"name": "Nell J. Redfield Memorial Hospital", "latitude": 42.1892244, "longitude": -112.2500323, "source": "osm", "_tags": {"addr:city": "Malad City", "addr:housenumber": "150", "addr:postcode": "83252", "addr:state": "ID", "addr:street": "North 200 West", "amenity": "hospital", "emergency": "yes", "healthcare": "hospital", "name": "Nell J. Redfield Memorial Hospital", "old_name": "Oneida County Hospital", "opening_hours": "24/7", "phone": "+1 208 766 2231", "website": "https://www.oneidacountyhospital.com/"}}, {"name": "Power County Hospital District", "latitude": 42.7815842, "longitude": -112.8485502, "source": "osm", "_tags": {"addr:city": "American Falls", "addr:housenumber": "510", "addr:postcode": "83211", "addr:state": "ID", "addr:street": "Roosevelt Street", "amenity": "hospital", "emergency": "yes", "gnis:feature_id": "399056", "healthcare": "hospital", "name": "Power County Hospital District", "phone": "+1 208 226 3200", "website": "https://www.pchd.net/"}}, {"name": "Portneuf Medical Center", "latitude": 42.8727506, "longitude": -112.4203777, "source": "osm", "_tags": {"addr:city": "Pocatello", "addr:housenumber": "777", "addr:postcode": "83201", "addr:state": "ID", "addr:street": "Hospital Way", "amenity": "hospital", "beds": "187", "emergency": "yes", "healthcare": "hospital", "name": "Portneuf Medical Center", "opening_hours": "24/7", "operator": "Portneuf Health Partners", "phone": "+1 208 239 1000", "toilets:wheelchair": "yes", "website": "https://www.portneuf.org/", "wheelchair": "yes"}}]