[{"name": "Elkhorn Valley Rehabilitation Hospital", "latitude": 42.8442255, "longitude": -106.2423701, "source": "osm", "_tags": {"addr:city": "Casper", "addr:housenumber": "5715", "addr:postcode": "82609", "addr:state": "WY", "addr:street": "East 2nd Street", "amenity": "hospital", "beds": "41", "healthcare": "rehabilitation", "name": "Elkhorn Valley Rehabilitation Hospital", "phone": "+1-307-265-0005", "website": "https://evrh.ernesthealth.com"}}, {"name": "Banner Wyoming Medical Center", "latitude": 42.8480342, "longitude": -106.3092555, "source": "osm", "_tags": {"addr:city": "Casper", "addr:housenumber": "1233", "addr:postcode": "82601", "addr:state": "WY", "addr:street": "East 2nd Street", "amenity": "hospital", "emergency": "yes", "healthcare": "hospital", "name": "Banner Wyoming Medical Center", "operator": "Banner Health", "operator:wikidata": "Q4856918", "phone": "+1 800 822 7201", "website": "https://wyomingmedicalcenter.org/", "wikidata": "Q8040358", "wikipedia": "en:Wyoming Medical Center"}}, {"name": "Wyoming Behavioral Institute", "latitude": 42.8347694, "longitude": -106.2943296, "source": "osm", "_tags": {"addr:city": "Casper", "addr:housenumber": "2521", "addr:postcode": "82609", "addr:state": "WY", "addr:street": "East 15th Street", "amenity": "hospital", "emergency": "no", "healthcare": "hospital", "name": "Wyoming Behavioral Institute", "phone": "+1 307 237 7444", "website": "https://www.wbihelp.com/"}}, {"name": "Memorial Hospital of Carbon County", "latitude": 41.7869412, "longitude": -107.2616852, "source": "osm", "_tags": {"addr:city": "Rawlins", "addr:housenumber": "2221", "addr:postcode": "82301", "addr:state": "WY", "addr:street": "West Elm Street", "amenity": "hospital", "emergency": "yes", "gnis:feature_id": "1794891", "healthcare": "hospital", "name": "Memorial Hospital of Carbon County", "phone": "+1 307 324 2221", "website": "https://www.imhcc.com/"}}, {"name": "Wyoming Medical Center East Campus", "latitude": 42.8407659, "longitude": -106.2257847, "source": "osm", "_tags": {"addr:city": "Casper", "addr:housenumber": "6550", "addr:postcode": "82609", "addr:state": "WY", "addr:street": "East 2nd Street", "amenity": "hospital", "emergency": "no", "healthcare": "hospital", "name": "Wyoming Medical Center East Campus", "old_name": "Mountain View Regional Hospital", "operator": "Wyoming Medical Center", "phone": "+1 307 995 8100", "website": "https://wyomingmedicalcenter.org/"}}, {"name": "Summit Medical Center", "latitude": 42.841649, "longitude": -106.2309695, "source": "osm", "_tags": {"addr:city": "Casper", "addr:housenumber": "6350", "addr:postcode": "82609", "addr:state": "WY", "addr:street": "East 2nd Street", "amenity": "hospital", "beds": "16", "emergency": "yes", "healthcare": "hospital", "name": "Summit Medical Center", "note": "Helipad at Wyoming Medical Center East Campus 600m east", "opening_hours": "24/7", "phone": "+1 307 232 6600", "website": "https://summitmedicalcasper.com/"}}]