[{"name": "366th Medical Group - Mountain Home Airforce Base Medical Facility", "latitude": 43.065168, "longitude": -115.850283, "source": "osm", "_tags": {"addr:city": "Mountain Home", "addr:housenumber": "90", "addr:postcode": "83648-1000", "addr:state": "ID", "addr:street": "Hope Drive", "amenity": "hospital", "healthcare": "hospital", "name": "366th Medical Group - Mountain Home Airforce Base Medical Facility", "phone": "+1 208 828 7900", "website": "https://mountainhome.tricare.mil"}}, {"name": "St. Luke's Boise Medical Center", "latitude": 43.6130642, "longitude": -116.1927046, "source": "osm", "_tags": {"addr:city": "Boise", "addr:housenumber": "190", "addr:postcode": "83712", "addr:state": "ID", "addr:street": "East Bannock Street", "amenity": "hospital", "emergency": "yes", "gnis:feature_id": "399564", "healthcare": "hospital", "name": "St. Luke's Boise Medical Center", "old_name": "Saint Lukes Hospital", "opening_hours": "24/7", "phone": "+1 208 381 2222", "website": "https://www.stlukesonline.org/communities-and-locations/facilities/hospitals-and-medical-centers/st-lukes-boise-medical-center", "wheelchair": "yes", "wikidata": "Q65076661"}}, {"name": "St. Luke’s Rehabilitation Hospital", "latitude": 43.6159473, "longitude": -116.1916928, "source": "osm", "_tags": {"addr:city": "Boise", "addr:housenumber": "600", "addr:postcode": "83702", "addr:state": "ID", "addr:street": "North Robbins Road", "amenity": "hospital", "emergency": "no", "gnis:feature_id": "399541", "healthcare": "hospital", "name": "St. Luke’s Rehabilitation Hospital", "old_name": "Elks Hospital", "phone": "+1 208 489 4444", "website": "https://www.stlukesonline.org/communities-and-locations/facilities/hospitals-and-medical-centers/st-lukes-rehabilitation-hospital"}}, {"name": "St. Luke's Elmore Medical Center", "latitude": 43.1386221, "longitude": -115.6934392, "source": "osm", "_tags": {"addr:city": "Mountain Home", "addr:housenumber": "895", "addr:postcode": "83647", "addr:state": "ID", "addr:street": "North 6th East Street", "amenity": "hospital", "emergency": "yes", "gnis:feature_id": "372612", "healthcare": "hospital", "name": "St. Luke's Elmore Medical Center", "old_name": "Elmore Medical Center", "opening_hours": "24/7", "phone": "+1 208 587 8401", "website": "https://www.stlukesonline.org/communities-and-locations/facilities/hospitals-and-medical-centers/st-lukes-elmore-medical-center"}}, {"name": "St Luke's Wood River Medical Center", "latitude": 43.649257, "longitude": -114.3497555, "source": "osm", "_tags": {"addr:city": "Ketchum", "addr:housenumber": "100", "addr:postcode": "83340", "addr:state": "ID", "addr:street": "Hospital Drive", "amenity": "hospital", "emergency": "yes", "gnis:feature_id": "399537", "healthcare": "hospital", "name": "St Luke's Wood River Medical Center", "opening_hours": "24/7", "phone": "+1 208 727 8800", "website": "https://www.stlukesonline.org/communities-and-locations/facilities/hospitals-and-medical-centers/st-lukes-wood-river-medical-center"}}, {"name": "Boise VA Medical Center", "latitude": 43.6205637, "longitude": -116.1901842, "source": "osm", "_tags": {"access": "private", "addr:city": "Boise", "addr:housenumber": "500", "addr:postcode": "83702", "addr:state": "ID", "addr:street": "West Fort Street", "amenity": "hospital", "emergency": "yes", "gnis:feature_id": "399542", "healthcare": "hospital", "healthcare:for": "veteran", "name": "Boise VA Medical Center", "opening_hours": "24/7", "operator": "Veterans Health Administration", "operator:short": "VA", "operator:type": "government", "operator:wikidata": "Q6580225", "operator:wikipedia": "en:Veterans Health Administration", "phone": "+1 208 422 1000", "short_name": "VA", "website": "https://www.boise.va.gov/"}}, {"name": "Cascade Medical Center", "latitude": 44.5182693, "longitude": -116.0490287, "source": "osm", "_tags": {"addr:city": "Cascade", "addr:housenumber": "402", "addr:postcode": "83611", "addr:state": "ID", "addr:street": "Lake Cascade Parkway", "amenity": "hospital", "beds": "10", "emergency": "yes", "healthcare": "hospital", "name": "Cascade Medical Center", "old_name": "Valley County Hospital", "opening_hours": "24/7", "phone": "+1 208 382 4242", "website": "http://www.cascademedicalcenter.net/"}}, {"name": "Saint Luke's McCall Medical Center", "latitude": 44.9094018, "longitude": -116.1108783, "source": "osm", "_tags": {"addr:city": "McCall", "addr:housenumber": "1000", "addr:postcode": "83638", "addr:state": "ID", "addr:street": "State Street", "amenity": "hospital", "beds": "15", "emergency": "yes", "healthcare": "hospital", "name": "Saint Luke's McCall Medical Center", "opening_hours": "24/7", "operator": "Saint Luke's Health System", "phone": "+1 208 634 2221", "website": "https://www.stlukesonline.org/communities-and-locations/facilities/hospitals-and-medical-centers/st-lukes-mccall-medical-center"}}, {"name": "Saint Alphonsus Health Plaza Bown Crossing", "latitude": 43.5750144, "longitude": -116.155624, "source": "osm", "_tags": {"addr:city": "Boise", "addr:housenumber": "2141", "addr:postcode": "83706", "addr:state": "ID", "addr:street": "East Parkcenter Boulevard", "amenity": "hospital", "healthcare": "hospital", "name": "Saint Alphonsus Health Plaza Bown Crossing", "operator": "Saint Alphonsus Medical Group"}}, {"name": "", "latitude": 43.6030068, "longitude": -116.1871671, "source": "osm", "_tags": {"amenity": "hospital", "healthcare": "hospital"}}, {"name": "", "latitude": 44.5113228, "longitude": -114.2246842, "source": "osm", "_tags": {"amenity": "hospital", "healthcare": "hospital"}}, {"name": "", "latitude": 43.58946, "longitude": -116.1753638, "source": "osm", "_tags": {"amenity": "hospital", "healthcare": "hospital"}}]