[{"name": "Roseburg VA Medical Center", "latitude": 43.2247983, "longitude": -123.3675632, "source": "osm", "_tags": {"access": "private", "addr:city": "Roseburg", "addr:housenumber": "913", "addr:postcode": "97471", "addr:street": "Northwest Garden Valley Boulevard", "amenity": "hospital", "check_date": "2025-01-01", "emergency": "yes", "gnis:feature_id": "1639176", "healthcare": "hospital", "name": "Roseburg VA Medical Center", "phone": "+1 541 440 1000", "website": "https://www.roseburg.va.gov/"}}, {"name": "Oregon State Hospital", "latitude": 44.9381604, "longitude": -123.0028433, "source": "osm", "_tags": {"addr:city": "Salem", "addr:housenumber": "2600", "addr:postcode": "97301", "addr:street": "Center Street Northeast", "amenity": "hospital", "emergency": "no", "healthcare": "hospital", "healthcare:speciality": "psychiatry", "name": "Oregon State Hospital", "phone": "+1 503-945-2800", "website": "https://www.oregon.gov/oha/osh/", "wikidata": "Q7101361"}}, {"name": "Good Samaritan Regional Medical Center", "latitude": 44.6026075, "longitude": -123.2525026, "source": "osm", "_tags": {"addr:city": "Corvallis", "addr:housenumber": "3600", "addr:postcode": "97330", "addr:street": "Northwest Samaritan Drive", "amenity": "hospital", "check_date": "2025-07-08", "emergency": "yes", "healthcare": "hospital", "name": "Good Samaritan Regional Medical Center", "opening_hours": "24/7", "phone": "+1 541 768 5111", "website": "https://www.samhealth.org/find-a-location/g/good-samaritan-regional-medical-center", "wheelchair": "yes", "wikidata": "Q5582923"}}, {"name": "McKenzie-Willamette Medical Center", "latitude": 44.0532522, "longitude": -123.0034879, "source": "osm", "_tags": {"addr:city": "Springfield", "addr:housenumber": "1460", "addr:postcode": "97477", "addr:street": "G Street", "amenity": "hospital", "beds": "113", "check_date": "2025-02-28", "emergency": "yes", "gnis:feature_id": "1638159", "healthcare": "hospital", "name": "McKenzie-Willamette Medical Center", "opening_hours": "24/7", "phone": "+1 541 726 4400", "website": "https://www.mckweb.com/", "wikidata": "Q6801815"}}, {"name": "Samaritan Lebanon Community Hospital", "latitude": 44.5502757, "longitude": -122.906537, "source": "osm", "_tags": {"addr:city": "Lebanon", "addr:housenumber": "525", "addr:postcode": "97355", "addr:street": "North Santiam Highway", "amenity": "hospital", "beds": "25", "emergency": "yes", "gnis:feature_id": "1638857", "healthcare": "hospital", "name": "Samaritan Lebanon Community Hospital", "old_name": "Lebanon Hospital", "opening_hours": "24/7", "phone": "+1 541 258 2101", "website": "https://www.samhealth.org/find-a-location/s/samaritan-lebanon-community-hospital", "wikidata": "Q7408843"}}, {"name": "CHI Mercy Health Mercy Medical Center", "latitude": 43.2415984, "longitude": -123.3669486, "source": "osm", "_tags": {"addr:city": "Roseburg", "addr:housenumber": "2700", "addr:postcode": "97471", "addr:street": "Northwest Stewart Parkway", "amenity": "hospital", "emergency": "yes", "gnis:feature_id": "1639175", "healthcare": "hospital", "name": "CHI Mercy Health Mercy Medical Center", "old_name": "Mercy Medical Center", "opening_hours": "24/7", "operator": "Catholic Health Initiatives", "operator:short": "CHI", "operator:wikidata": "Q5053168", "phone": "+1 541 673 0611", "website": "http://www.mercyrose.org/", "wikidata": "Q14709068"}}, {"name": "Samaritan North Lincoln Hospital", "latitude": 44.9857699, "longitude": -123.9947461, "source": "osm", "_tags": {"addr:city": "Lincoln City", "addr:housenumber": "3043", "addr:postcode": "97367", "addr:state": "OR", "addr:street": "Northeast 28th Street", "amenity": "hospital", "beds": "25", "emergency": "yes", "healthcare": "hospital", "name": "Samaritan North Lincoln Hospital", "opening_hours": "24/7", "phone": "+1 541 994 3661", "website": "https://www.samhealth.org/find-a-location/s/samaritan-north-lincoln-hospital", "wikidata": "Q7408844", "wikipedia": "en:Samaritan North Lincoln Hospital"}}, {"name": "Coquille Valley Hospital", "latitude": 43.1796036, "longitude": -124.1796661, "source": "osm", "_tags": {"addr:city": "Coquille", "addr:housenumber": "940", "addr:postcode": "97423", "addr:state": "OR", "addr:street": "East 5th Street", "amenity": "hospital", "beds": "17", "emergency": "yes", "gnis:feature_id": "1119279", "healthcare": "hospital", "name": "Coquille Valley Hospital", "opening_hours": "24/7", "phone": "+1 541 396 3101", "website": "https://www.cvhospital.org/"}}, {"name": "Peace Health Medical Center University District", "latitude": 44.0466189, "longitude": -123.0819121, "source": "osm", "_tags": {"addr:city": "Eugene", "addr:housenumber": "1255", "addr:postcode": "97401", "addr:street": "Hilyard Street", "amenity": "hospital", "emergency": "yes", "healthcare": "hospital", "name": "Peace Health Medical Center University District", "opening_hours": "24/7", "operator": "PeaceHealth", "operator:type": "private", "operator:wikidata": "Q16966652", "operator:wikipedia": "en:PeaceHealth", "phone": "+1 541 686 7300", "website": "https://www.peacehealth.org/sacred-heart-university-district", "wikidata": "Q7397235"}}, {"name": "Santiam Hospital", "latitude": 44.8050844, "longitude": -122.785111, "source": "osm", "_tags": {"addr:city": "Stayton", "addr:housenumber": "1401", "addr:postcode": "97383", "addr:street": "North 10th Avenue", "amenity": "hospital", "beds": "40", "emergency": "yes", "healthcare": "hospital", "name": "Santiam Hospital", "opening_hours": "24/7", "phone": "+1 503 769 2175", "website": "https://santiamhospital.org/", "wikidata": "Q18157763"}}, {"name": "Salem Health West Valley", "latitude": 44.9188722, "longitude": -123.3101743, "source": "osm", "_tags": {"addr:city": "Dallas", "addr:housenumber": "525", "addr:postcode": "97338", "addr:street": "Southeast Washington Street", "amenity": "hospital", "emergency": "yes", "healthcare": "hospital", "name": "Salem Health West Valley", "old_name": "West Valley Hospital", "opening_hours": "24/7", "phone": "+1 503 623 8301", "website": "https://www.salemhealth.org/locations/west-valley-hospital", "wikidata": "Q20712671"}}, {"name": "Samaritan Pacific Communities Hospital", "latitude": 44.6287918, "longitude": -124.0594538, "source": "osm", "_tags": {"addr:city": "Newport", "addr:housenumber": "930", "addr:postcode": "97365", "addr:state": "OR", "addr:street": "Southwest Abbey Street", "amenity": "hospital", "beds": "25", "emergency": "yes", "healthcare": "hospital", "name": "Samaritan Pacific Communities Hospital", "opening_hours": "24/7", "operator": "Samaritan Health Services", "phone": "+1 541 265 2244", "website": "https://www.samhealth.org/find-a-location/s/samaritan-pacific-communities-hospital", "wikidata": "Q7408845", "wikipedia": "en:Samaritan Pacific Communities Hospital"}}, {"name": "PeaceHealth Peace Harbor Medical Center", "latitude": 43.9729454, "longitude": -124.1177383, "source": "osm", "_tags": {"addr:city": "Florence", "addr:housenumber": "400", "addr:postcode": "97439", "addr:state": "OR", "addr:street": "9th Street", "amenity": "hospital", "beds": "21", "check_date": "2025-07-17", "emergency": "yes", "healthcare": "hospital", "name": "PeaceHealth Peace Harbor Medical Center", "opening_hours": "24/7", "operator": "PeaceHealth", "operator:wikidata": "Q16966652", "phone": "+1 541 997 8412", "website": "https://www.peacehealth.org/peace-harbor-medical-center", "wikidata": "Q7157372", "wikipedia": "en:Peace Harbor Hospital"}}, {"name": "Lower Umpqua Hospital", "latitude": 43.6945441, "longitude": -124.1366006, "source": "osm", "_tags": {"addr:city": "Reedsport", "addr:housenumber": "600", "addr:postcode": "97467", "addr:state": "OR", "addr:street": "Ranch Road", "amenity": "hospital", "beds": "20", "check_date": "2025-07-17", "emergency": "yes", "healthcare": "hospital", "name": "Lower Umpqua Hospital", "old_name": "Cruse Memorial Hospital", "opening_hours": "24/7", "phone": "+1 541 271 2171", "website": "https://www.lowerumpquahospital.org/"}}, {"name": "Salem Hospital", "latitude": 44.9326957, "longitude": -123.0340831, "source": "osm", "_tags": {"addr:city": "Salem", "addr:housenumber": "890", "addr:postcode": "97301", "addr:street": "Oak Street Southeast", "amenity": "hospital", "beds": "454", "emergency": "yes", "healthcare": "hospital", "name": "Salem Hospital", "opening_hours": "24/7", "operator": "Salem Health", "phone": "+1-503-561-5200", "website": "https://www.salemhealth.org/", "wikidata": "Q7404125", "wikipedia": "en:Salem Hospital (Oregon)"}}, {"name": "Serenity Lane", "latitude": 44.1398365, "longitude": -123.0588169, "source": "osm", "_tags": {"addr:city": "Coburg", "addr:housenumber": "1", "addr:postcode": "97408", "addr:state": "OR", "addr:street": "Serenity Lane", "amenity": "hospital", "emergency": "no", "healthcare": "hospital", "healthcare:speciality": "addiction", "name": "Serenity Lane", "phone": "+1-541-687-1110", "website": "https://serenitylane.org/inpatient.html"}}, {"name": "Legacy Silverton Medical Center", "latitude": 45.0042613, "longitude": -122.790431, "source": "osm", "_tags": {"addr:city": "Silverton", "addr:housenumber": "342", "addr:postcode": "97381", "addr:street": "Fairview Street", "amenity": "hospital", "beds": "49", "emergency": "yes", "healthcare": "hospital", "name": "Legacy Silverton Medical Center", "opening_hours": "24/7", "operator": "Legacy Health", "operator:type": "private", "operator:wikidata": "Q6517244", "operator:wikipedia": "en:Legacy Health", "phone": "+1 503 873 1500", "website": "https://www.legacyhealth.org/locations/hospitals/legacy-silverton-medical-center.aspx", "wikidata": "Q7516846", "wikipedia": "en:Legacy Silverton Medical Center"}}, {"name": "Samaritan Albany General Hospital", "latitude": 44.6321535, "longitude": -123.1165049, "source": "osm", "_tags": {"addr:city": "Albany", "addr:housenumber": "1046", "addr:postcode": "97321", "addr:street": "6th Avenue Southwest", "amenity": "hospital", "beds": "70", "check_date": "2025-04-12", "emergency": "yes", "healthcare": "hospital", "name": "Samaritan Albany General Hospital", "opening_hours": "24/7", "operator": "Samaritan Health Services", "phone": "+1 541 812 4000", "website": "https://www.samhealth.org/find-a-location/s/samaritan-albany-general-hospital", "wikidata": "Q7408838", "wikipedia": "en:Samaritan Albany General Hospital"}}, {"name": "Cottage Grove Community Medical Center", "latitude": 43.8041177, "longitude": -123.0396719, "source": "osm", "_tags": {"addr:city": "Cottage Grove", "addr:housenumber": "1515", "addr:postcode": "97424", "addr:state": "OR", "addr:street": "Village Drive", "amenity": "hospital", "beds": "14", "emergency": "yes", "healthcare": "hospital", "healthcare:speciality": "general;vaccination;radiology", "name": "Cottage Grove Community Medical Center", "opening_hours": "24/7; Mo-Sa 08:00-18:00 \"Clinic\"", "operator": "PeaceHealth", "operator:wikidata": "Q16966652", "phone": "+1 541 767 5500", "website": "https://www.peacehealth.org/cottage-grove-medical-center", "wikidata": "Q5175513", "wikipedia": "en:Cottage Grove Community Hospital"}}, {"name": "Sacred Heart Medical Center at Riverbend", "latitude": 44.0808127, "longitude": -123.0271212, "source": "osm", "_tags": {"addr:city": "Springfield", "addr:housenumber": "3333", "addr:postcode": "97477", "addr:street": "Riverbend Drive", "amenity": "hospital", "beds": "347", "emergency": "yes", "healthcare": "hospital", "name": "Sacred Heart Medical Center at Riverbend", "opening_hours": "24/7", "operator": "PeaceHealth", "operator:type": "private", "operator:wikidata": "Q16966652", "phone": "+1-541-222-7300", "website": "https://www.peacehealth.org/sacred-heart-riverbend", "wikidata": "Q7397238", "wikipedia": "en:PeaceHealth Sacred Heart Medical Center at RiverBend"}}, {"name": "Junction City Oregon State Hospital", "latitude": 44.1653315, "longitude": -123.1945742, "source": "osm", "_tags": {"amenity": "hospital", "healthcare": "hospital", "name": "Junction City Oregon State Hospital", "note": "Mental health hospital & correctional facility"}}, {"name": "Elizabeth McCorkle, MD", "latitude": 44.038275, "longitude": -123.0693629, "source": "osm", "_tags": {"addr:city": "Eugene", "addr:housenumber": "1961", "addr:postcode": "97403", "addr:state": "OR", "addr:street": "Agate Street", "amenity": "hospital", "healthcare": "hospital", "healthcare:speciality": "plastics;botox", "name": "Elizabeth McCorkle, MD"}}, {"name": "Peacehealth Barger Clinic", "latitude": 44.0849003, "longitude": -123.1636458, "source": "osm", "_tags": {"addr:city": "Eugene", "addr:housenumber": "4010", "addr:postcode": "97402", "addr:state": "OR", "addr:street": "Aerial Way", "amenity": "hospital", "building": "yes", "healthcare": "hospital", "name": "Peacehealth Barger Clinic", "operator": "PeaceHealth", "operator:type": "private", "operator:wikidata": "Q16966652"}}, {"name": "", "latitude": 43.2452766, "longitude": -123.351856, "source": "osm", "_tags": {"amenity": "hospital", "healthcare": "hospital"}}, {"name": "VA Healthcare Center", "latitude": 44.0882858, "longitude": -123.0519784, "source": "osm", "_tags": {"amenity": "hospital", "check_date": "2025-05-07", "healthcare": "hospital", "name": "VA Healthcare Center", "operator": "U.S. Department of Veteran Affairs", "operator:type": "government"}}, {"name": "Green Valley Health Center", "latitude": 44.0844381, "longitude": -123.0652038, "source": "osm", "_tags": {"amenity": "hospital", "emergency": "no", "healthcare": "hospital", "healthcare:speciality": "community", "name": "Green Valley Health Center"}}]