[{"name": "Sanford Health Chamberlain Medical Center", "latitude": 43.785974, "longitude": -99.3254199, "source": "osm", "_tags": {"addr:city": "Chamberlain", "addr:housenumber": "300", "addr:postcode": "57325", "addr:state": "SD", "addr:street": "South Byron Boulevard", "amenity": "hospital", "emergency": "yes", "healthcare": "hospital", "name": "Sanford Health Chamberlain Medical Center", "old_name": "Mid Dakota Hospital", "operator": "Sanford Health", "operator:type": "private", "operator:wikidata": "Q7417625", "source": "Bing", "website": "https://www.sanfordhealth.org/Locations/13691408"}}, {"name": "Huron Regional Medical Center", "latitude": 44.3620181, "longitude": -98.2108386, "source": "osm", "_tags": {"addr:city": "Huron", "addr:housenumber": "172", "addr:postcode": "57350", "addr:state": "SD", "addr:street": "4th Street Southeast", "amenity": "hospital", "beds": "25", "emergency": "yes", "gnis:feature_id": "1257633", "healthcare": "hospital", "name": "Huron Regional Medical Center", "opening_hours": "24/7", "phone": "+1 605 353 6200", "short_name": "HRMC", "website": "https://www.huronregional.org/"}}, {"name": "Douglas County Memorial Hospital", "latitude": 43.3255006, "longitude": -98.3452776, "source": "osm", "_tags": {"addr:city": "Armour", "addr:housenumber": "708", "addr:postcode": "57313", "addr:street": "8th Street", "amenity": "hospital", "beds": "11", "emergency": "yes", "healthcare": "hospital", "name": "Douglas County Memorial Hospital", "opening_hours": "24/7", "phone": "+1 605 724 2159", "website": "http://dcmhsd.org/"}}, {"name": "Platte Health Center Avera", "latitude": 43.3843443, "longitude": -98.8360105, "source": "osm", "_tags": {"addr:city": "Platte", "addr:housenumber": "601", "addr:postcode": "57369", "addr:street": "East 7th Street", "amenity": "hospital", "beds": "17", "emergency": "yes", "healthcare": "hospital", "name": "Platte Health Center Avera", "old_name": "Platte Community Memorial Hospital", "opening_hours": "24/7", "operator": "Avera Health", "operator:wikidata": "Q4828238", "phone": "+1 605 337 3364", "website": "https://www.avera.org/locations/profile/platte-health-center-avera/"}}, {"name": "Community Memorial Hospital", "latitude": 43.1819695, "longitude": -99.2941063, "source": "osm", "_tags": {"addr:city": "Burke", "addr:housenumber": "809", "addr:postcode": "57523", "addr:street": "Jackson Street", "amenity": "hospital", "beds": "16", "emergency": "yes", "healthcare": "hospital", "name": "Community Memorial Hospital", "opening_hours": "24/7", "operator": "Sanford Health", "operator:wikidata": "Q7417625", "phone": "+1 605 775 2621", "website": "https://www.sanfordhealth.org/locations/community-memorial-hospital"}}, {"name": "Wagner Community Memorial Hospital Avera", "latitude": 43.0782453, "longitude": -98.3018566, "source": "osm", "_tags": {"addr:city": "Wagner", "addr:housenumber": "513", "addr:postcode": "57380", "addr:street": "3rd Street Southwest", "amenity": "hospital", "beds": "20", "emergency": "yes", "healthcare": "hospital", "name": "Wagner Community Memorial Hospital Avera", "opening_hours": "24/7", "operator": "Avera Health", "operator:type": "private", "operator:wikidata": "Q4828238", "phone": "+1 605 384 3611", "website": "https://www.avera.org/locations/wagner-community-memorial-hospital-avera/"}}, {"name": "Community Memorial Hospital", "latitude": 44.8714656, "longitude": -98.5210267, "source": "osm", "_tags": {"addr:city": "Redfield", "addr:housenumber": "111", "addr:postcode": "57469", "addr:street": "West 10th Avenue", "amenity": "hospital", "beds": "25", "emergency": "yes", "healthcare": "hospital", "name": "Community Memorial Hospital", "opening_hours": "24/7", "phone": "+1 605 472 1110", "website": "http://www.redfield-sd.com/redfield/hospital"}}, {"name": "Winner Regional Healthcare Center", "latitude": 43.37021, "longitude": -99.8471229, "source": "osm", "_tags": {"addr:city": "Winner", "addr:housenumber": "745", "addr:postcode": "57580", "addr:street": "East 8th Street", "amenity": "hospital", "beds": "25", "emergency": "yes", "healthcare": "hospital", "name": "Winner Regional Healthcare Center", "opening_hours": "24/7", "phone": "+1 605 842 7100", "website": "https://winnerregional.org/"}}, {"name": "Avera Hand County Memorial Hospital", "latitude": 44.5200467, "longitude": -98.9916638, "source": "osm", "_tags": {"addr:city": "Miller", "addr:housenumber": "300", "addr:postcode": "57362", "addr:street": "West 5th Street", "amenity": "hospital", "beds": "11", "emergency": "yes", "healthcare": "hospital", "name": "Avera Hand County Memorial Hospital", "opening_hours": "24/7", "operator": "Avera", "phone": "+1 605 853 2421", "website": "https://www.avera.org/locations/profile/avera-hand-county-memorial-hospital/"}}, {"name": "Avera Gregory Hospital", "latitude": 43.2256407, "longitude": -99.4243251, "source": "osm", "_tags": {"addr:city": "Gregory", "addr:housenumber": "110", "addr:postcode": "57533", "addr:state": "SD", "addr:street": "South Logan Avenue", "amenity": "hospital", "beds": "25", "emergency": "yes", "healthcare": "hospital", "name": "Avera Gregory Hospital", "opening_hours": "24/7", "operator": "Avera Health", "operator:wikidata": "Q4828238", "phone": "+1 605 835 8394", "religion": "christian", "website": "https://www.avera.org/locations/profile/avera-gregory-hospital/"}}, {"name": "Huron Regional Medical Center", "latitude": 44.3614877, "longitude": -98.2108855, "source": "osm", "_tags": {"amenity": "hospital", "building": "yes", "healthcare": "hospital", "healthcare:speciality": "emergency;general;surgery", "name": "Huron Regional Medical Center"}}, {"name": "Fort Thompson Indian Health Center", "latitude": 44.0656471, "longitude": -99.4391365, "source": "osm", "_tags": {"amenity": "hospital", "healthcare": "hospital", "name": "Fort Thompson Indian Health Center"}}, {"name": "Avera Weskota Memorial Medical Center", "latitude": 44.0811188, "longitude": -98.5637252, "source": "osm", "_tags": {"addr:city": "Wessington Springs", "addr:housenumber": "604", "addr:postcode": "57382", "addr:state": "SD", "addr:street": "1st Street Northeast", "amenity": "hospital", "emergency": "yes", "gnis:feature_id": "2061793", "healthcare": "hospital", "name": "Avera Weskota Memorial Medical Center", "operator": "Avera Health", "operator:wikidata": "Q4828238", "phone": "+1 605 539 1201", "type": "multipolygon", "website": "https://www.avera.org/locations/profile/?id=131"}}]