[{"name": "Canyon Hills Center", "latitude": 44.4844536, "longitude": -103.8178055, "source": "osm", "_tags": {"addr:city": "Spearfish", "addr:housenumber": "2519", "addr:postcode": "57783", "addr:state": "SD", "addr:street": "Windmill Drive", "amenity": "hospital", "beds": "30", "healthcare": "hospital", "healthcare:speciality": "psychiatry", "name": "Canyon Hills Center", "phone": "+1 605 559 3500", "website": "https://lsssd.org/what-we-do/residential-services-for-children-youth/canyon-hills-spearfish.html"}}, {"name": "Same Day Surgery Center", "latitude": 44.0586445, "longitude": -103.2289247, "source": "osm", "_tags": {"addr:city": "Rapid City", "addr:housenumber": "651", "addr:postcode": "57701", "addr:street": "Cathedral Drive", "amenity": "hospital", "beds": "6", "building": "hospital", "emergency": "no", "healthcare": "hospital", "healthcare:speciality": "surgery", "name": "Same Day Surgery Center", "phone": "+1 605 755 9900", "website": "http://www.samedaysurgerycenter.org/"}}, {"name": "Weston County Health Services", "latitude": 43.848028, "longitude": -104.1887502, "source": "osm", "_tags": {"addr:city": "Newcastle", "addr:housenumber": "1124", "addr:postcode": "82701", "addr:state": "WY", "addr:street": "Washington Boulevard", "amenity": "hospital", "emergency": "yes", "healthcare": "hospital", "name": "Weston County Health Services", "phone": "+1 307 746 4491", "website": "https://wchs-wy.org/"}}, {"name": "Monument Health Rapid City Hospital", "latitude": 44.0564569, "longitude": -103.2245833, "source": "osm", "_tags": {"addr:city": "Rapid City", "addr:housenumber": "353", "addr:postcode": "57701", "addr:state": "SD", "addr:street": "Fairmont Boulevard", "amenity": "hospital", "beds": "417", "emergency": "yes", "healthcare": "hospital", "name": "Monument Health Rapid City Hospital", "opening_hours": "24/7", "operator": "Monument Health", "operator:type": "private_non_profit", "phone": "+1 605 719 1000", "website": "https://directory.monument.health/facility/sd/rapid-city/353-fairmont-boulevard-6671503", "wheelchair": "yes"}}, {"name": "Black Hills Surgical Hospital", "latitude": 44.0462148, "longitude": -103.2235422, "source": "osm", "_tags": {"addr:city": "Rapid City", "addr:housenumber": "216", "addr:postcode": "57105", "addr:state": "SD", "addr:street": "Anamaria Drive", "amenity": "hospital", "beds": "26", "emergency": "no", "healthcare": "hospital", "healthcare:speciality": "surgery", "name": "Black Hills Surgical Hospital", "phone": "+1 605 721 4700", "website": "https://bhsh.com/"}}, {"name": "Regional Health Lead-Deadwood Hospital", "latitude": 44.3696477, "longitude": -103.7285891, "source": "osm", "_tags": {"addr:city": "Deadwood", "addr:housenumber": "61", "addr:postcode": "57732", "addr:street": "Charles Street", "amenity": "hospital", "beds": "18", "emergency": "yes", "healthcare": "hospital", "name": "Regional Health Lead-Deadwood Hospital", "opening_hours": "24/7", "operator": "Regional Health", "phone": "+1 605 717 6000", "website": "https://regionalhealth.com/location/regional-health-lead-deadwood-hospital"}}, {"name": "Monument Health Sturgis Hospital", "latitude": 44.4025317, "longitude": -103.5077052, "source": "osm", "_tags": {"addr:city": "Sturgis", "addr:housenumber": "2140", "addr:postcode": "57785", "addr:street": "Junction Avenue", "amenity": "hospital", "beds": "25", "emergency": "yes", "healthcare": "hospital", "name": "Monument Health Sturgis Hospital", "opening_hours": "24/7", "operator": "Monument Health", "phone": "+1 605 720 2400", "website": "https://regionalhealth.com/location/regional-health-sturgis-hospital"}}, {"name": "Pine Ridge Hospital", "latitude": 43.0239883, "longitude": -102.5412905, "source": "osm", "_tags": {"addr:city": "Pine Ridge", "addr:postcode": "57770", "addr:street": "East Highway 18", "amenity": "hospital", "beds": "45", "emergency": "yes", "healthcare": "hospital", "name": "Pine Ridge Hospital", "opening_hours": "24/7", "operator": "Indian Health Service", "operator:short": "IHS", "operator:wikidata": "Q6020429", "operator:wikipedia": "en:Indian Health Service", "phone": "+1 605 867 5131", "website": "https://www.ihs.gov/greatplains/healthcarefacilities/pineridge/"}}, {"name": "Monument Health Custer Hospital", "latitude": 43.7722326, "longitude": -103.5899825, "source": "osm", "_tags": {"addr:city": "Custer", "addr:housenumber": "1220", "addr:postcode": "57730", "addr:state": "SD", "addr:street": "Montgomery Street", "amenity": "hospital", "emergency": "yes", "healthcare": "hospital", "name": "Monument Health Custer Hospital", "opening_hours": "24/7", "operator": "Monument Health", "phone": "(605) 673-9400", "website": "https://directory.monument.health/facility/sd/custer/1220-montgomery-street-6671501"}}, {"name": "VA Black Hills Health Care System", "latitude": 44.4122907, "longitude": -103.4712172, "source": "osm", "_tags": {"addr:city": "Fort Meade", "addr:housenumber": "113", "addr:postcode": "57741", "addr:street": "Comanche Road", "amenity": "hospital", "emergency": "no", "gnis:feature_id": "1265099", "healthcare": "hospital", "healthcare:for": "veteran", "name": "VA Black Hills Health Care System", "old_name": "Fort Meade Veterans Hospital", "operator": "Veterans Health Administration", "operator:short": "VA", "operator:wikidata": "Q6580225", "phone": "+1 605 347 2511", "short_name": "VA", "website": "https://www.blackhills.va.gov/"}}, {"name": "Spearfish Regional Hospital", "latitude": 44.4985875, "longitude": -103.8606011, "source": "osm", "_tags": {"addr:city": "Spearfish", "addr:housenumber": "1440", "addr:postcode": "57783", "addr:street": "North Main Street", "alt_name": "Regional Health Spearfish Hospital", "amenity": "hospital", "beds": "40", "emergency": "yes", "healthcare": "hospital", "name": "Spearfish Regional Hospital", "opening_hours": "24/7", "operator": "Regional Health", "phone": "+1 605 644 4000", "type": "multipolygon", "website": "https://www.regionalhealth.com/location/regional-health-spearfish-hospital"}}, {"name": "VA Black Hills Health Care System", "latitude": 43.4366538, "longitude": -103.4767157, "source": "osm", "_tags": {"addr:city": "Hot Springs", "addr:housenumber": "500", "addr:postcode": "57747", "addr:state": "SD", "addr:street": "North 5th Street", "amenity": "hospital", "emergency": "no", "healthcare": "hospital", "healthcare:for": "veteran", "name": "VA Black Hills Health Care System", "operator": "Veterans Health Administration", "operator:short": "VA", "operator:type": "government", "operator:wikidata": "Q6580225", "phone": "+1 605 745 2000", "short_name": "VA", "type": "multipolygon", "website": "https://www.blackhills.va.gov/"}}, {"name": "Fall River Hospital", "latitude": 43.4173596, "longitude": -103.479628, "source": "osm", "_tags": {"addr:city": "Hot Springs", "addr:housenumber": "1201", "addr:postcode": "57747", "addr:street": "Highway 71 South", "amenity": "hospital", "beds": "25", "emergency": "yes", "healthcare": "hospital", "name": "Fall River Hospital", "opening_hours": "24/7", "operator": "Fall River Health Services", "phone": "+1 605 745 8910", "type": "multipolygon", "website": "https://www.frhssd.org/"}}, {"name": "Black Hills Children's Home", "latitude": 43.9081556, "longitude": -103.3776132, "source": "osm", "_tags": {"addr:city": "Rapid City", "addr:housenumber": "24100", "addr:postcode": "57702-7422", "addr:state": "SD", "addr:street": "South Rockerville Road", "amenity": "hospital", "area": "yes", "beds": "52", "healthcare": "hospital", "healthcare:speciality": "psychiatry", "name": "Black Hills Children's Home", "phone": "+1 605 343 5422", "type": "multipolygon", "website": "https://chssd.org/residential-treatment-and-education"}}]