[{"name": "", "latitude": 43.8784927, "longitude": -110.5738423, "source": "osm", "_tags": {"addr:city": "Moran", "addr:housenumber": "550", "addr:postcode": "83013", "addr:state": "WY", "addr:street": "Pronghorn Place", "amenity": "hospital", "emergency": "no"}}, {"name": "", "latitude": 43.6188623, "longitude": -110.6286158, "source": "osm", "_tags": {"amenity": "hospital", "healthcare": "hospital"}}, {"name": "Wright Physical Therapy", "latitude": 43.4777736, "longitude": -112.0618067, "source": "osm", "_tags": {"addr:housenumber": "2194", "addr:postcode": "83402", "addr:street": "Snake River Parkway", "amenity": "hospital", "name": "Wright Physical Therapy", "phone": "(208) 973-4144", "website": "https://wrightpt.com/"}}, {"name": "Wright Physical Therapy", "latitude": 43.4777736, "longitude": -112.0618067, "source": "osm", "_tags": {"addr:housenumber": "2194", "addr:postcode": "83402", "addr:street": "Snake River Parkway", "amenity": "hospital", "name": "Wright Physical Therapy", "phone": "(208) 973-4144", "website": "https://wrightpt.com/"}}, {"name": "Saint John's Medical Center", "latitude": 43.4807798, "longitude": -110.7506216, "source": "osm", "_tags": {"addr:city": "Jackson", "addr:housenumber": "625", "addr:postcode": "83001", "addr:state": "WY", "addr:street": "Broadway", "amenity": "hospital", "emergency": "yes", "gnis:feature_id": "1794885", "healthcare": "hospital", "name": "Saint John's Medical Center", "phone": "+1 307 733 3636", "website": "https://www.tetonhospital.org/"}}, {"name": "Madison Memorial Hospital", "latitude": 43.8260977, "longitude": -111.7707937, "source": "osm", "_tags": {"addr:city": "Rexburg", "addr:housenumber": "450", "addr:postcode": "83440", "addr:state": "ID", "addr:street": "East Main Street", "amenity": "hospital", "emergency": "yes", "healthcare": "hospital", "name": "Madison Memorial Hospital", "opening_hours": "24/7", "phone": "+1 208 359 6900", "website": "https://madisonmemorial.org/"}}, {"name": "Teton Valley Hospital", "latitude": 43.72662, "longitude": -111.1079646, "source": "osm", "_tags": {"addr:city": "Driggs", "addr:housenumber": "120", "addr:postcode": "83422", "addr:state": "ID", "addr:street": "East Howard Avenue", "amenity": "hospital", "beds": "13", "emergency": "yes", "healthcare": "hospital", "name": "Teton Valley Hospital", "opening_hours": "24/7", "operator": "Teton Valley Health Care", "phone": "+1 208 354 2383", "website": "https://tvhcare.org/"}}, {"name": "Mountain View Hospital & Idaho Falls Community Hospital", "latitude": 43.4742313, "longitude": -111.9878973, "source": "osm", "_tags": {"addr:city": "Idaho Falls", "addr:housenumber": "2325", "addr:postcode": "83404", "addr:state": "ID", "addr:street": "Coronado Street", "amenity": "hospital", "healthcare": "hospital", "name": "Mountain View Hospital & Idaho Falls Community Hospital"}}, {"name": "Eastern Idaho Regional Medical Center (EIRMC)", "latitude": 43.4702812, "longitude": -111.9921111, "source": "osm", "_tags": {"addr:city": "Idaho Falls", "addr:housenumber": "3100", "addr:postcode": "83404", "addr:state": "ID", "addr:street": "Channing Way", "amenity": "hospital", "emergency": "yes", "healthcare": "hospital", "name": "Eastern Idaho Regional Medical Center (EIRMC)"}}]