[{"name": "Sheridan VA Medical Center", "latitude": 44.828276, "longitude": -106.9837605, "source": "osm", "_tags": {"addr:city": "Sheridan", "addr:housenumber": "1898", "addr:postcode": "82801", "addr:state": "WY", "addr:street": "Fort Road", "amenity": "hospital", "emergency": "no", "healthcare": "hospital", "healthcare:for": "veteran", "name": "Sheridan VA Medical Center", "operator": "Veterans Health Administration", "operator:short": "VA", "operator:wikidata": "Q6580225", "phone": "+1 307 672 3473", "short_name": "VA", "website": "https://www.sheridan.va.gov/", "wikidata": "Q28153614"}}, {"name": "Johnson County Memorial Hospital", "latitude": 44.3507912, "longitude": -106.7072545, "source": "osm", "_tags": {"addr:city": "Buffalo", "addr:housenumber": "497", "addr:postcode": "82834", "addr:state": "WY", "addr:street": "West Lott Street", "amenity": "hospital", "emergency": "yes", "gnis:feature_id": "1794880", "healthcare": "hospital", "name": "Johnson County Memorial Hospital", "phone": "+1 307 684 5521", "website": "https://www.jchealthcare.com/"}}, {"name": "Sheridan Memorial Hospital", "latitude": 44.8086414, "longitude": -106.976096, "source": "osm", "_tags": {"addr:city": "Sheridan", "addr:housenumber": "1401", "addr:postcode": "82801", "addr:state": "WY", "addr:street": "West 5th Street", "amenity": "hospital", "emergency": "yes", "healthcare": "hospital", "name": "Sheridan Memorial Hospital", "phone": "+1 307 672 1000", "website": "https://www.sheridanhospital.org/", "wikidata": "Q50037220"}}, {"name": "Washakie Medical Center", "latitude": 44.012643, "longitude": -107.9496375, "source": "osm", "_tags": {"addr:city": "Worland", "addr:housenumber": "400", "addr:postcode": "82401", "addr:state": "WY", "addr:street": "South 15th Street", "amenity": "hospital", "emergency": "yes", "gnis:feature_id": "1596054", "healthcare": "hospital", "healthcare:speciality": "community", "name": "Washakie Medical Center", "old_name": "Washakie Memorial Hospital", "operator": "Banner Health", "operator:type": "private_non_profit", "operator:wikidata": "Q4856918", "phone": "+1 307 347 3221", "website": "https://www.bannerhealth.com/locations/worland/washakie-medical-center#"}}, {"name": "South Big Horn County Hospital", "latitude": 44.4339461, "longitude": -108.0507627, "source": "osm", "_tags": {"addr:city": "Basin", "addr:housenumber": "388", "addr:postcode": "82410", "addr:state": "WY", "addr:street": "US 20 South", "amenity": "hospital", "emergency": "yes", "gnis:feature_id": "1594594", "healthcare": "hospital", "name": "South Big Horn County Hospital", "phone": "+1 307 568 3311", "website": "https://midwayclinic.sharepoint.com/"}}]