[{"name": "Blue Mountain Hospital", "latitude": 44.4171178, "longitude": -118.9597902, "source": "osm", "_tags": {"addr:city": "John Day", "addr:housenumber": "170", "addr:postcode": "97845", "addr:street": "Ford Road", "amenity": "hospital", "beds": "25", "emergency": "yes", "healthcare": "hospital", "name": "Blue Mountain Hospital", "opening_hours": "24/7", "phone": "+1 541 575 1311", "website": "https://www.bluemountainhospital.org/", "wikidata": "Q4929519"}}, {"name": "Harney District Hospital", "latitude": 43.5883587, "longitude": -119.0608925, "source": "osm", "_tags": {"addr:city": "Burns", "addr:housenumber": "557", "addr:postcode": "97720", "addr:street": "West Washington Street", "amenity": "hospital", "beds": "25", "emergency": "yes", "healthcare": "hospital", "name": "Harney District Hospital", "opening_hours": "24/7", "phone": "+1-541-573-7281", "short_name": "HDH", "website": "https://www.harneydh.com/"}}, {"name": "Blue Mountain Hospital", "latitude": 44.4171825, "longitude": -118.9597414, "source": "osm", "_tags": {"addr:city": "John Day", "addr:housenumber": "170", "addr:postcode": "97845", "addr:state": "OR", "addr:street": "Ford Road", "amenity": "hospital", "building": "hospital", "healthcare": "hospital", "name": "Blue Mountain Hospital", "website": "https://bluemountainhospital.org/"}}]