[{"name": "Bennett County Hospital", "latitude": 43.1696585, "longitude": -101.7308417, "source": "osm", "_tags": {"addr:city": "Martin", "addr:housenumber": "102", "addr:postcode": "57551", "addr:street": "Major Allen Street", "amenity": "hospital", "emergency": "yes", "healthcare": "hospital", "name": "Bennett County Hospital", "phone": "+1 605 685 6622", "website": "https://www.bennettcountyhospital.com/"}}, {"name": "Avera Saint Mary's Hospital", "latitude": 44.3607802, "longitude": -100.3429869, "source": "osm", "_tags": {"addr:city": "Pierre", "addr:housenumber": "801", "addr:postcode": "57501", "addr:street": "East Sioux Avenue", "amenity": "hospital", "beds": "50", "emergency": "yes", "healthcare": "hospital", "name": "Avera Saint Mary's Hospital", "opening_hours": "24/7", "operator": "Avera Health", "operator:type": "private", "operator:wikidata": "Q4828238", "phone": "+1 605 224 3100", "website": "https://www.avera.org/locations/st-marys/"}}, {"name": "Cheyenne River Health Center", "latitude": 44.9917892, "longitude": -101.2438738, "source": "osm", "_tags": {"addr:city": "Eagle Butte", "addr:housenumber": "24276", "addr:postcode": "57625", "addr:state": "SD", "addr:street": "166th Street, Airport Road", "amenity": "hospital", "beds": "8", "emergency": "yes", "healthcare": "hospital", "name": "Cheyenne River Health Center", "opening_hours": "24/7", "operator": "Indian Health Service", "phone": "+1 605 964 7724", "website": "https://www.ihs.gov/greatplains/healthcarefacilities/cheyenneriver/"}}, {"name": "Rosebud Hospital", "latitude": 43.2564458, "longitude": -100.8503723, "source": "osm", "_tags": {"addr:city": "Rosebud", "addr:postcode": "57570", "addr:state": "SD", "amenity": "hospital", "beds": "35", "emergency": "yes", "healthcare": "hospital", "name": "Rosebud Hospital", "opening_hours": "24/7", "operator": "Indian Health Service", "operator:type": "government", "phone": "+1 605 747 2231", "website": "https://www.ihs.gov/greatplains/healthcarefacilities/rosebud/"}}, {"name": "Hans P. Peterson Memorial Hospital", "latitude": 44.0398621, "longitude": -101.6716051, "source": "osm", "_tags": {"addr:city": "Philip", "addr:housenumber": "503", "addr:postcode": "57567", "addr:street": "West Pine Street", "amenity": "hospital", "beds": "18", "emergency": "yes", "healthcare": "hospital", "name": "Hans P. Peterson Memorial Hospital", "opening_hours": "24/7", "operator": "Philip Health Services", "phone": "+1 605 859 2511", "website": "https://www.philiphealthservices.com/"}}, {"name": "Wanblee Public Health Center", "latitude": 43.563896, "longitude": -101.6597698, "source": "osm", "_tags": {"amenity": "hospital", "healthcare": "hospital", "name": "Wanblee Public Health Center"}}]