[{"name": "Saint Alphonsus Medical Center - Nampa", "latitude": 43.5974945, "longitude": -116.5171771, "source": "osm", "_tags": {"addr:city": "Nampa", "addr:housenumber": "4300", "addr:postcode": "83687", "addr:state": "ID", "addr:street": "East Flamingo Avenue", "amenity": "hospital", "check_date": "2024-12-09", "emergency": "yes", "healthcare": "hospital", "name": "Saint Alphonsus Medical Center - Nampa"}}, {"name": "St. Luke's Fruitland Medical Plaza", "latitude": 44.0240434, "longitude": -116.929504, "source": "osm", "_tags": {"addr:city": "Fruitland", "addr:housenumber": "1210", "addr:postcode": "83619", "addr:state": "ID", "addr:street": "Northwest 16th Street", "amenity": "hospital", "contact:phone": "+1-208-381-2222", "contact:website": "https://www.stlukesonline.org/communities-and-locations/facilities/hospitals-and-medical-centers/st-lukes-fruitland-medical-plaza", "emergency": "yes", "healthcare": "hospital", "healthcare:speciality": "general;emergency;laboratory;clinical_laboratory;surgery;family_medicine;internal;outpatient;multi_speciality", "name": "St. Luke's Fruitland Medical Plaza", "opening_hours": "Mo-Fr 09:00-17:00", "operator": "St. Luke's Health System"}}, {"name": "State Hospital West", "latitude": 43.6003745, "longitude": -116.5312612, "source": "osm", "_tags": {"addr:city": "Nampa", "addr:housenumber": "1652", "addr:postcode": "83687", "addr:state": "ID", "addr:street": "11th Avenue North", "amenity": "hospital", "beds": "16", "healthcare": "hospital", "healthcare:speciality": "psychiatry", "name": "State Hospital West", "phone": "+1 208 606 7777", "website": "https://healthandwelfare.idaho.gov/dhw/state-hospital-west"}}, {"name": "Cottonwood Creek Behavioral Hospital", "latitude": 43.5861268, "longitude": -116.3588419, "source": "osm", "_tags": {"amenity": "hospital", "beds": "92", "healthcare": "hospital", "healthcare:speciality": "psychiatry", "name": "Cottonwood Creek Behavioral Hospital", "phone": "+1 208 996 8449", "website": "https://www.cottonwoodcreekboise.com"}}, {"name": "Safe Haven Hospital of Treasure Valley", "latitude": 43.6271516, "longitude": -116.2823141, "source": "osm", "_tags": {"addr:city": "Boise", "addr:housenumber": "8050", "addr:postcode": "83704", "addr:state": "ID", "addr:street": "West Northview Street", "amenity": "hospital", "emergency": "no", "healthcare": "hospital", "healthcare:speciality": "psychiatry", "name": "Safe Haven Hospital of Treasure Valley", "old_name": "Boise Behavioral Health Hospital", "phone": "+1 208 327 0504", "website": "https://www.safehavenhealthcare.org/services/psychiatric-hospital/"}}, {"name": "West Valley Medical Center", "latitude": 43.6534014, "longitude": -116.6949839, "source": "osm", "_tags": {"addr:city": "Caldwell", "addr:housenumber": "1717", "addr:postcode": "83605-5407", "addr:state": "ID", "addr:street": "Arlington Avenue", "amenity": "hospital", "emergency": "yes", "healthcare": "hospital", "name": "West Valley Medical Center", "opening_hours": "24/7", "phone": "+1-208-459-4641", "website": "https://westvalleymedctr.com/", "wheelchair": "yes", "wikidata": "Q125559895"}}, {"name": "Saint Alphonsus Medical Center", "latitude": 44.0253383, "longitude": -116.9772991, "source": "osm", "_tags": {"addr:city": "Ontario", "addr:housenumber": "351", "addr:postcode": "97914", "addr:street": "Southwest 9th Street", "amenity": "hospital", "beds": "49", "emergency": "yes", "gnis:feature_id": "1638992", "healthcare": "hospital", "name": "Saint Alphonsus Medical Center", "opening_hours": "24/7", "phone": "+1 541 881 7000", "website": "https://www.saintalphonsus.org/ontario"}}, {"name": "Weiser Memorial Hospital", "latitude": 44.248519, "longitude": -116.9624295, "source": "osm", "_tags": {"addr:city": "Weiser", "addr:housenumber": "645", "addr:postcode": "83672", "addr:state": "ID", "addr:street": "East 5th Street", "amenity": "hospital", "beds": "25", "emergency": "yes", "healthcare": "hospital", "name": "Weiser Memorial Hospital", "opening_hours": "24/7", "phone": "+1 208 549 0370", "website": "http://www.weisermemorialhospital.org/"}}, {"name": "Saint Alphonsus Medical Center", "latitude": 43.5540006, "longitude": -116.57002, "source": "osm", "_tags": {"addr:city": "Nampa", "addr:housenumber": "1512", "addr:postcode": "83686", "addr:state": "ID", "addr:street": "12th Avenue Road", "amenity": "hospital", "emergency": "yes", "gnis:feature_id": "399536", "healthcare": "hospital", "name": "Saint Alphonsus Medical Center", "opening_hours": "24/7", "phone": "+1 208 463 5000", "website": "https://www.saintalphonsus.org/"}}, {"name": "Saint Lukes Meridian Medical Center", "latitude": 43.5994568, "longitude": -116.352288, "source": "osm", "_tags": {"addr:city": "Meridian", "addr:housenumber": "520", "addr:postcode": "83642", "addr:state": "ID", "addr:street": "South Eagle Road", "amenity": "hospital", "emergency": "yes", "healthcare": "hospital", "name": "Saint Lukes Meridian Medical Center", "opening_hours": "24/7", "phone": "+1-208-706-5000", "website": "https://www.stlukesonline.org/communities-and-locations/facilities/hospitals-and-medical-centers/st-lukes-meridian-medical-center"}}, {"name": "Saint Alphonsus Eagle Health Plaza", "latitude": 43.6888689, "longitude": -116.3503669, "source": "osm", "_tags": {"addr:city": "Eagle", "addr:housenumber": "323", "addr:postcode": "83616", "addr:state": "ID", "addr:street": "East Riverside Drive", "amenity": "hospital", "emergency": "yes", "healthcare": "hospital", "name": "Saint Alphonsus Eagle Health Plaza", "opening_hours": "24/7", "phone": "+1 208 367 5300", "website": "https://www.saintalphonsus.org/eagle-health-plaza"}}, {"name": "Saint Alphonsus Regional Medical Center", "latitude": 43.6125485, "longitude": -116.2586544, "source": "osm", "_tags": {"addr:city": "Boise", "addr:housenumber": "1055", "addr:postcode": "83706", "addr:state": "ID", "addr:street": "North Curtis Road", "amenity": "hospital", "emergency": "yes", "gnis:feature_id": "395020", "healthcare": "hospital", "name": "Saint Alphonsus Regional Medical Center", "opening_hours": "24/7", "phone": "+1 208 367 2121", "website": "https://www.saintalphonsus.org/"}}, {"name": "St. Luke's Boise Medical Center", "latitude": 43.6130642, "longitude": -116.1927046, "source": "osm", "_tags": {"addr:city": "Boise", "addr:housenumber": "190", "addr:postcode": "83712", "addr:state": "ID", "addr:street": "East Bannock Street", "amenity": "hospital", "emergency": "yes", "gnis:feature_id": "399564", "healthcare": "hospital", "name": "St. Luke's Boise Medical Center", "old_name": "Saint Lukes Hospital", "opening_hours": "24/7", "phone": "+1 208 381 2222", "website": "https://www.stlukesonline.org/communities-and-locations/facilities/hospitals-and-medical-centers/st-lukes-boise-medical-center", "wheelchair": "yes", "wikidata": "Q65076661"}}, {"name": "St. Luke’s Rehabilitation Hospital", "latitude": 43.6159473, "longitude": -116.1916928, "source": "osm", "_tags": {"addr:city": "Boise", "addr:housenumber": "600", "addr:postcode": "83702", "addr:state": "ID", "addr:street": "North Robbins Road", "amenity": "hospital", "emergency": "no", "gnis:feature_id": "399541", "healthcare": "hospital", "name": "St. Luke’s Rehabilitation Hospital", "old_name": "Elks Hospital", "phone": "+1 208 489 4444", "website": "https://www.stlukesonline.org/communities-and-locations/facilities/hospitals-and-medical-centers/st-lukes-rehabilitation-hospital"}}, {"name": "Saint Alphonsus Medical Center - Baker City", "latitude": 44.7948418, "longitude": -117.847062, "source": "osm", "_tags": {"addr:city": "Baker City", "addr:housenumber": "3325", "addr:postcode": "97814", "addr:street": "Pocahontas Road", "amenity": "hospital", "emergency": "yes", "healthcare": "hospital", "name": "Saint Alphonsus Medical Center - Baker City", "old_name": "Saint Elizabeth Hospital", "opening_hours": "24/7", "phone": "+1 541 523 6461", "website": "https://www.saintalphonsus.org/bakercity"}}, {"name": "Valor Health Hospital", "latitude": 43.8800337, "longitude": -116.4845661, "source": "osm", "_tags": {"addr:city": "Emmett", "addr:housenumber": "1202", "addr:postcode": "83617", "addr:state": "ID", "addr:street": "East Locust Street", "amenity": "hospital", "emergency": "yes", "healthcare": "hospital", "name": "Valor Health Hospital", "opening_hours": "24/7", "operator": "Valor Health", "phone": "+1 208 365 3561", "urgent_care": "08:00-20:00", "website": "https://www.valorhealth.org/"}}, {"name": "St. Luke’s Nampa Medical Center", "latitude": 43.617665, "longitude": -116.5906648, "source": "osm", "_tags": {"addr:city": "Nampa", "addr:housenumber": "9850", "addr:postcode": "83687", "addr:state": "ID", "addr:street": "West Saint Luke's Drive", "amenity": "hospital", "emergency": "yes", "healthcare": "hospital", "name": "St. Luke’s Nampa Medical Center", "opening_hours": "24/7", "operator": "St. Luke's", "phone": "+1 208 505 2000", "website": "https://www.stlukesonline.org/communities-and-locations/facilities/hospitals-and-medical-centers/st-lukes-nampa-medical-center", "wheelchair": "yes"}}, {"name": "Boise VA Medical Center", "latitude": 43.6205637, "longitude": -116.1901842, "source": "osm", "_tags": {"access": "private", "addr:city": "Boise", "addr:housenumber": "500", "addr:postcode": "83702", "addr:state": "ID", "addr:street": "West Fort Street", "amenity": "hospital", "emergency": "yes", "gnis:feature_id": "399542", "healthcare": "hospital", "healthcare:for": "veteran", "name": "Boise VA Medical Center", "opening_hours": "24/7", "operator": "Veterans Health Administration", "operator:short": "VA", "operator:type": "government", "operator:wikidata": "Q6580225", "operator:wikipedia": "en:Veterans Health Administration", "phone": "+1 208 422 1000", "short_name": "VA", "website": "https://www.boise.va.gov/"}}, {"name": "Intermountain Hospital", "latitude": 43.6069522, "longitude": -116.2669958, "source": "osm", "_tags": {"addr:state": "ID", "amenity": "hospital", "ele": "825", "gnis:feature_id": "401501", "healthcare": "hospital", "name": "Intermountain Hospital"}}, {"name": "", "latitude": 43.6033078, "longitude": -116.264895, "source": "osm", "_tags": {"amenity": "hospital", "healthcare": "hospital"}}, {"name": "", "latitude": 43.6596317, "longitude": -116.2640819, "source": "osm", "_tags": {"amenity": "hospital", "healthcare": "hospital"}}, {"name": "", "latitude": 43.5556782, "longitude": -116.5701047, "source": "osm", "_tags": {"amenity": "hospital", "healthcare": "hospital"}}, {"name": "", "latitude": 43.6184419, "longitude": -116.4305475, "source": "osm", "_tags": {"amenity": "hospital", "healthcare": "hospital"}}, {"name": "", "latitude": 43.6823069, "longitude": -116.3159584, "source": "osm", "_tags": {"amenity": "hospital", "healthcare": "hospital"}}, {"name": "", "latitude": 43.5961028, "longitude": -116.5177868, "source": "osm", "_tags": {"amenity": "hospital", "healthcare": "hospital"}}, {"name": "Treasure Valley Hospital", "latitude": 43.612359, "longitude": -116.2910525, "source": "osm", "_tags": {"addr:city": "Boise", "addr:housenumber": "8800", "addr:postcode": "83704", "addr:state": "ID", "addr:street": "West Emerald Street", "amenity": "hospital", "beds": "10", "emergency": "no", "healthcare": "hospital", "healthcare:speciality": "surgery", "name": "Treasure Valley Hospital", "phone": "+1 208 373 5000", "website": "https://treasurevalleyhospital.com/"}}]