[{"name": "Powell Hospital", "latitude": 44.7566706, "longitude": -108.7709244, "source": "osm", "_tags": {"addr:city": "Powell", "addr:housenumber": "777", "addr:postcode": "82435", "addr:state": "WY", "addr:street": "Avenue H", "amenity": "hospital", "emergency": "yes", "gnis:feature_id": "1794900", "healthcare": "hospital", "name": "Powell Hospital", "phone": "+1 307 754 2267", "source": "bing", "website": "https://www.pvhc.org/"}}, {"name": "West Park Hospital", "latitude": 44.5268524, "longitude": -109.0735979, "source": "osm", "_tags": {"addr:city": "Cody", "addr:housenumber": "707", "addr:postcode": "82414", "addr:state": "WY", "addr:street": "Sheridan Avenue", "amenity": "hospital", "emergency": "yes", "healthcare": "hospital", "name": "West Park Hospital", "phone": "+1 307 527 7501", "website": "http://www.westparkhospital.org/"}}, {"name": "Hot Springs County Memorial Hospital", "latitude": 43.6479587, "longitude": -108.1997576, "source": "osm", "_tags": {"addr:city": "Thermopolis", "addr:housenumber": "150", "addr:postcode": "82443", "addr:state": "WY", "addr:street": "East Arapahoe Street", "amenity": "hospital", "emergency": "yes", "gnis:feature_id": "1794895", "healthcare": "hospital", "name": "Hot Springs County Memorial Hospital", "phone": "+1 307 864 3121", "website": "http://www.hscmh.org/"}}, {"name": "SageWest Health Care", "latitude": 43.0348647, "longitude": -108.4188661, "source": "osm", "_tags": {"addr:city": "Riverton", "addr:country": "US", "addr:housenumber": "2100", "addr:postcode": "82501", "addr:state": "WY", "addr:street": "West Sunset Drive", "amenity": "hospital", "beds": "159", "emergency": "yes", "gnis:feature_id": "1794892", "healthcare": "hospital", "name": "SageWest Health Care", "old_name": "Riverton Memorial Hospital", "opening_hours": "24/7", "operator": "SageWest Health Care", "phone": "+1 307 856 4161", "website": "https://www.sagewesthealthcare.com/"}}, {"name": "North Big Horn Hospital", "latitude": 44.8265661, "longitude": -108.3901158, "source": "osm", "_tags": {"addr:city": "Lovell", "addr:housenumber": "1115", "addr:postcode": "82431", "addr:state": "WY", "addr:street": "Lane 12", "amenity": "hospital", "emergency": "yes", "gnis:feature_id": "1794888", "healthcare": "hospital", "name": "North Big Horn Hospital", "phone": "+1 307 548 5200", "website": "https://www.nbhh.com/"}}]