[{"name": "Crook County Medical Services District", "latitude": 44.4089452, "longitude": -104.3741751, "source": "osm", "_tags": {"addr:city": "Sundance", "addr:housenumber": "713", "addr:postcode": "82729", "addr:state": "WY", "addr:street": "East Oak Street", "amenity": "hospital", "beds": "16", "emergency": "yes", "gnis:feature_id": "1794894", "healthcare": "hospital", "name": "Crook County Medical Services District", "opening_hours": "24/7", "operator": "Crook County Medical Services District", "phone": "+1 307 283 3501", "website": "https://www.ccmsd.org/"}}, {"name": "Campbell County Health", "latitude": 44.290672, "longitude": -105.5177748, "source": "osm", "_tags": {"addr:city": "Gillette", "addr:housenumber": "501", "addr:postcode": "82716", "addr:state": "WY", "addr:street": "South Burma Avenue", "amenity": "hospital", "beds": "90", "emergency": "yes", "healthcare": "hospital", "healthcare:speciality": "general;radiology;emergency;psychiatry;oncology;internal;intensive;cardiology;anaesthetics;child_psychiatry;pulmonology;maternity;neurology;surgery;behavior;urology;otolaryngology", "name": "Campbell County Health", "opening_hours": "24/7", "phone": "+1-307-688-1000", "source": "survey;local knowledge", "website": "https://www.cchwyo.org/"}}]