[{"name": "Sanford Aberdeen Medical Center", "latitude": 45.4629555, "longitude": -98.445834, "source": "osm", "_tags": {"addr:city": "Aberdeen", "addr:housenumber": "2905", "addr:postcode": "57401", "addr:street": "3rd Avenue Southeast", "amenity": "hospital", "beds": "48", "emergency": "yes", "healthcare": "hospital", "name": "Sanford Aberdeen Medical Center", "opening_hours": "24/7", "phone": "+1 605 626 4200", "source": "Bing", "website": "https://www.sanfordhealth.org/community/sanford-aberdeen"}}, {"name": "Dakota Plains Surgical Center", "latitude": 45.4730978, "longitude": -98.5002563, "source": "osm", "_tags": {"addr:city": "Aberdeen", "addr:housenumber": "701", "addr:postcode": "57401", "addr:state": "SD", "addr:street": "8th Avenue Northwest", "amenity": "hospital", "beds": "15", "healthcare": "hospital", "name": "Dakota Plains Surgical Center", "phone": "+1 605 225 3300", "website": "https://www.avera.org/locations/profile/avera-dakota-plains-surgical-center-aberdeen/"}}, {"name": "", "latitude": 46.8903376, "longitude": -98.7481756, "source": "osm", "_tags": {"amenity": "hospital", "fixme": "Location aproximate", "healthcare": "hospital", "operator": "Essentia Health", "operator:wikidata": "Q16975060"}}, {"name": "Avera Eureka Health Care Center", "latitude": 45.767864, "longitude": -99.6130307, "source": "osm", "_tags": {"amenity": "hospital", "healthcare": "hospital", "name": "Avera Eureka Health Care Center", "operator": "Avera Health", "operator:type": "private", "operator:wikidata": "Q4828238"}}, {"name": "Sanford Aberdeen Medical Center", "latitude": 45.4630392, "longitude": -98.4457658, "source": "osm", "_tags": {"addr:city": "Aberdeen", "addr:housenumber": "2905-3015", "addr:postcode": "57401", "addr:state": "SD", "addr:street": "3rd Avenue SE", "amenity": "hospital", "healthcare": "hospital", "name": "Sanford Aberdeen Medical Center", "website": "https://sanfordaberdeen.org"}}, {"name": "Jamestown Regional Medical Center", "latitude": 46.8897631, "longitude": -98.746981, "source": "osm", "_tags": {"addr:city": "Jamestown", "addr:housenumber": "2422", "addr:postcode": "58401", "addr:street": "20th Street Southwest", "amenity": "hospital", "emergency": "yes", "healthcare": "hospital", "name": "Jamestown Regional Medical Center", "phone": "+1 701 952 1050", "website": "https://www.jrmcnd.com/"}}, {"name": "North Dakota State Hospital", "latitude": 46.8825243, "longitude": -98.6868405, "source": "osm", "_tags": {"addr:city": "Jamestown", "addr:housenumber": "2605", "addr:postcode": "58401", "addr:street": "Circle Drive", "amenity": "hospital", "emergency": "no", "healthcare": "hospital", "name": "North Dakota State Hospital", "operator": "North Dakota Department of Human Services", "phone": "+1 701 253 3650", "website": "https://www.nd.gov/dhs/locations/statehospital/", "wikidata": "Q7055061", "wikipedia": "en:North Dakota State Hospital"}}, {"name": "Avera Saint Lukes Hospital", "latitude": 45.4616327, "longitude": -98.4786587, "source": "osm", "_tags": {"addr:city": "Aberdeen", "addr:housenumber": "305", "addr:postcode": "57401", "addr:street": "South State Street", "amenity": "hospital", "beds": "109", "emergency": "yes", "gnis:feature_id": "1257661", "healthcare": "hospital", "name": "Avera Saint Lukes Hospital", "opening_hours": "24/7", "operator": "Avera Health", "operator:wikidata": "Q4828238", "operator:wikipedia": "en:Avera Health", "phone": "+1 605 622 5000", "website": "https://www.avera.org/locations/st-lukes-hospital/", "wheelchair": "yes"}}, {"name": "Wishek Hospital", "latitude": 46.2556094, "longitude": -99.5513208, "source": "osm", "_tags": {"addr:city": "Wishek", "addr:housenumber": "1007", "addr:postcode": "58495", "addr:street": "4th Avenue South", "amenity": "hospital", "beds": "24", "emergency": "yes", "healthcare": "hospital", "name": "Wishek Hospital", "opening_hours": "24/7", "phone": "+1 701 452 2326", "website": "http://wishekhospital.com/"}}, {"name": "Ashley Medical Center", "latitude": 46.0400548, "longitude": -99.3727722, "source": "osm", "_tags": {"addr:city": "Ashley", "addr:housenumber": "612", "addr:postcode": "58413", "addr:street": "Center Avenue North", "amenity": "hospital", "beds": "20", "emergency": "yes", "healthcare": "hospital", "name": "Ashley Medical Center", "opening_hours": "24/7", "phone": "+1 701 288 3433", "short_name": "AMC", "website": "http://www.amctoday.org/"}}, {"name": "Faulkton Area Medical Center", "latitude": 45.0303446, "longitude": -99.1330102, "source": "osm", "_tags": {"addr:city": "Faulkton", "addr:housenumber": "1300", "addr:postcode": "57438", "addr:state": "SD", "addr:street": "Oak Street", "amenity": "hospital", "beds": "12", "emergency": "yes", "healthcare": "hospital", "name": "Faulkton Area Medical Center", "opening_hours": "24/7", "phone": "+1 605 598 6262", "website": "https://faulktonmedical.org/"}}, {"name": "Avera Gettysburg Hospital", "latitude": 45.0129278, "longitude": -99.9461256, "source": "osm", "_tags": {"addr:city": "Gettysburg", "addr:housenumber": "606", "addr:postcode": "57442", "addr:street": "East Garfield Avenue", "amenity": "hospital", "beds": "10", "emergency": "yes", "healthcare": "hospital", "name": "Avera Gettysburg Hospital", "opening_hours": "24/7", "operator": "Avera Health", "operator:wikidata": "Q4828238", "phone": "+1 605 765 2461", "website": "https://www.avera.org/locations/profile/avera-gettysburg-hospital/"}}, {"name": "Eureka Community Health Services Avera", "latitude": 45.7720348, "longitude": -99.6231195, "source": "osm", "_tags": {"addr:city": "Eureka", "addr:housenumber": "410", "addr:postcode": "57437", "addr:street": "9th Street", "amenity": "hospital", "beds": "6", "emergency": "yes", "healthcare": "hospital", "name": "Eureka Community Health Services Avera", "opening_hours": "24/7", "operator": "Avera", "phone": "+1 605 284 2661", "website": "https://www.avera.org/locations/profile/eureka-community-health-services-avera/"}}, {"name": "Bowdle Hospital", "latitude": 45.4479741, "longitude": -99.6609118, "source": "osm", "_tags": {"addr:city": "Bowdle", "addr:housenumber": "8001", "addr:postcode": "57428", "addr:street": "West 5th Street", "amenity": "hospital", "beds": "12", "emergency": "yes", "healthcare": "hospital", "name": "Bowdle Hospital", "opening_hours": "24/7", "operator": "Bowdle Healthcare Center", "phone": "+1 605 285 6146", "website": "https://www.bowdlehc.com/"}}]