[{"name": "CHI St. Alexius Health Dickinson", "latitude": 46.8888998, "longitude": -102.8208712, "source": "osm", "_tags": {"addr:city": "Dickinson", "addr:housenumber": "2500", "addr:postcode": "58601", "addr:street": "Fairway Street", "amenity": "hospital", "emergency": "yes", "healthcare": "hospital", "name": "CHI St. Alexius Health Dickinson", "old_name": "CHI St. Josephâ€™s Health", "operator": "Catholic Health Initiatives", "operator:short": "CHI", "operator:wikidata": "Q5053168", "phone": "+1 701 456 4000", "website": "https://chistjosephshealth.org/"}}, {"name": "West River Regional Medical Center", "latitude": 46.0020511, "longitude": -102.6281391, "source": "osm", "_tags": {"addr:city": "Hettinger", "addr:housenumber": "1000", "addr:postcode": "58639", "addr:street": "Highway 12", "amenity": "hospital", "beds": "25", "emergency": "yes", "healthcare": "hospital", "name": "West River Regional Medical Center", "opening_hours": "24/7", "operator": "West River Health Services", "phone": "+1 701 567 4561", "website": "https://www.wrhs.com/"}}, {"name": "Southwest Healthcare Services", "latitude": 46.185088, "longitude": -103.4069189, "source": "osm", "_tags": {"addr:city": "Bowman", "addr:housenumber": "802", "addr:postcode": "58623", "addr:street": "2nd Street Northwest", "amenity": "hospital", "beds": "23", "emergency": "yes", "healthcare": "hospital", "name": "Southwest Healthcare Services", "opening_hours": "24/7", "phone": "+1 701 523 3226", "website": "https://swhealthcare.net/"}}, {"name": "", "latitude": 46.8787063, "longitude": -102.8096408, "source": "osm", "_tags": {"amenity": "hospital", "building": "yes", "healthcare": "hospital", "operator": "Sanford Health", "operator:wikidata": "Q7417625"}}]