[{"name": "Whitman Hospital & Medical Clinics", "latitude": 46.8691775, "longitude": -117.3767356, "source": "osm", "_tags": {"addr:city": "Colfax", "addr:housenumber": "1200", "addr:postcode": "99111", "addr:state": "WA", "addr:street": "West Fairview Street", "amenity": "hospital", "emergency": "yes", "gnis:feature_id": "1514561", "healthcare": "hospital", "name": "Whitman Hospital & Medical Clinics", "opening_hours": "24/7", "phone": "+1-509-397-3435", "website": "https://www.whmc.org/"}}, {"name": "Saint Joseph's Regional Medical Center", "latitude": 46.4167674, "longitude": -117.0242643, "source": "osm", "_tags": {"addr:city": "Lewiston", "addr:housenumber": "415", "addr:postcode": "83501", "addr:state": "ID", "addr:street": "6th Street", "amenity": "hospital", "emergency": "yes", "healthcare": "hospital", "name": "Saint Joseph's Regional Medical Center", "opening_hours": "24/7", "phone": "+1 208 743 2511", "website": "https://www.sjrmc.org/"}}, {"name": "Valley Medical Center", "latitude": 46.3959335, "longitude": -117.0209707, "source": "osm", "_tags": {"addr:city": "Lewiston", "addr:housenumber": "2315", "addr:postcode": "83501", "addr:state": "ID", "addr:street": "8th Street", "amenity": "hospital", "emergency": "no", "name": "Valley Medical Center", "opening_hours": "Mo-Sa 07:30-19:00; Su 12:00-17:00", "phone": "+1 208 746 1383", "website": "http://www.valleymedicalcenter.com/"}}, {"name": "Wallowa Memorial Hospital", "latitude": 45.4326616, "longitude": -117.2846596, "source": "osm", "_tags": {"addr:city": "Enterprise", "addr:housenumber": "601", "addr:postcode": "97828", "addr:street": "Medical Parkway", "amenity": "hospital", "emergency": "yes", "healthcare": "hospital", "name": "Wallowa Memorial Hospital", "opening_hours": "24/7", "phone": "+1 541 426 3111", "website": "https://www.wchcd.org/"}}, {"name": "Grande Ronde Hospital", "latitude": 45.319334, "longitude": -118.1056318, "source": "osm", "_tags": {"addr:city": "La Grande", "addr:housenumber": "900", "addr:postcode": "97850", "addr:street": "Sunset Drive", "amenity": "hospital", "beds": "25", "emergency": "yes", "fixme": "facility needs be updated with recently available imagery", "gnis:feature_id": "1164097", "healthcare": "hospital", "name": "Grande Ronde Hospital", "opening_hours": "24/7", "phone": "+1 541 963 8421", "website": "https://www.grh.org/", "wikidata": "Q5595360"}}, {"name": "Dayton General Hospital", "latitude": 46.3120148, "longitude": -117.970312, "source": "osm", "_tags": {"addr:city": "Dayton", "addr:housenumber": "1012", "addr:postcode": "99328", "addr:street": "South 3rd Street", "amenity": "hospital", "emergency": "yes", "gnis:feature_id": "1514532", "healthcare": "hospital", "name": "Dayton General Hospital", "opening_hours": "24/7", "operator": "Columbia County Health System", "phone": "+1-509-382-2531", "website": "https://www.cchd-wa.org/"}}, {"name": "Tri-State Memorial Hospital", "latitude": 46.402442, "longitude": -117.0541029, "source": "osm", "_tags": {"addr:city": "Clarkston", "addr:housenumber": "1221", "addr:postcode": "99403", "addr:state": "WA", "addr:street": "Highland Avenue", "amenity": "hospital", "emergency": "yes", "gnis:feature_id": "1514496", "healthcare": "hospital", "name": "Tri-State Memorial Hospital", "opening_hours": "24/7", "phone": "+1-509-758-5511", "website": "https://tristatehospital.org/"}}, {"name": "Gritman Medical Center", "latitude": 46.7284413, "longitude": -117.0006884, "source": "osm", "_tags": {"addr:city": "Moscow", "addr:housenumber": "700", "addr:postcode": "83843", "addr:state": "ID", "addr:street": "South Main Street", "amenity": "hospital", "emergency": "yes", "gnis:feature_id": "399539", "healthcare": "hospital", "name": "Gritman Medical Center", "opening_hours": "24/7", "phone": "+1 208 882 4511", "website": "https://www.gritman.org/", "wheelchair": "yes", "wikidata": "Q5609713"}}, {"name": "Clearwater Valley Hospital", "latitude": 46.4869577, "longitude": -116.2599076, "source": "osm", "_tags": {"addr:city": "Orofino", "addr:housenumber": "301", "addr:postcode": "83544", "addr:state": "ID", "addr:street": "Cedar Street", "amenity": "hospital", "emergency": "yes", "healthcare": "hospital", "name": "Clearwater Valley Hospital", "opening_hours": "24/7", "phone": "+1 208 476 4555", "website": "http://www.smh-cvhc.org/", "wikidata": "Q50039189"}}, {"name": "Saint Mary's Hospital", "latitude": 46.0502853, "longitude": -116.3531526, "source": "osm", "_tags": {"addr:city": "Cottonwood", "addr:housenumber": "701", "addr:postcode": "83522", "addr:state": "ID", "addr:street": "Lewiston Street", "amenity": "hospital", "emergency": "yes", "healthcare": "hospital", "name": "Saint Mary's Hospital", "opening_hours": "24/7", "phone": "+1 208 962 3251", "website": "http://www.smh-cvhc.org/"}}, {"name": "Pullman Regional Hospital", "latitude": 46.7126948, "longitude": -117.1690523, "source": "osm", "_tags": {"addr:city": "Pullman", "addr:housenumber": "835", "addr:postcode": "99163", "addr:state": "WA", "addr:street": "Southeast Bishop Boulevard", "amenity": "hospital", "beds": "25", "emergency": "yes", "healthcare": "hospital", "name": "Pullman Regional Hospital", "opening_hours": "24/7", "phone": "+1-509-332-2541", "website": "https://pullmanregional.org/"}}, {"name": "Garfield County Public Hospital", "latitude": 46.4753888, "longitude": -117.6027129, "source": "osm", "_tags": {"addr:city": "Pomeroy", "addr:housenumber": "66", "addr:postcode": "99347", "addr:state": "WA", "addr:street": "North 6th Street", "amenity": "hospital", "beds": "25", "emergency": "yes", "healthcare": "hospital", "name": "Garfield County Public Hospital", "opening_hours": "24/7", "operator": "Garfield County Hospital District", "phone": "+1-509-843-1591", "website": "https://www.pomeroymd.com/"}}, {"name": "State Hospital North", "latitude": 46.4897534, "longitude": -116.26039, "source": "osm", "_tags": {"addr:city": "Orofino", "addr:housenumber": "300", "addr:postcode": "83544", "addr:state": "ID", "addr:street": "Hospital Drive", "amenity": "hospital", "beds": "55", "building": "hospital", "emergency": "no", "healthcare": "hospital", "healthcare:speciality": "psychiatry", "name": "State Hospital North", "phone": "+1 208 476 4511", "type": "multipolygon", "website": "http://healthandwelfare.idaho.gov/Medical/MentalHealth/StateHospitals/tabid/495/Default.aspx"}}]