[{"name": "Montana State Hospital", "latitude": 46.1806046, "longitude": -112.793195, "source": "osm", "_tags": {"addr:city": "Warm Springs", "addr:postcode": "59425", "amenity": "hospital", "emergency": "no", "gnis:feature_id": "792839", "healthcare:speciality": "psychiatry", "name": "Montana State Hospital", "phone": "+1 406 693 7000", "website": "https://dphhs.mt.gov/amdd/MSH.aspx", "wikidata": "Q14704737", "wikipedia": "en:Montana State Hospital"}}, {"name": "St. James Hospital", "latitude": 46.0102586, "longitude": -112.5407819, "source": "osm", "_tags": {"amenity": "hospital", "healthcare": "hospital", "name": "St. James Hospital"}}, {"name": "Saint Patrick Hospital", "latitude": 46.8751383, "longitude": -114.0002698, "source": "osm", "_tags": {"addr:city": "Missoula", "addr:housenumber": "500", "addr:postcode": "59802", "addr:state": "MT", "addr:street": "West Broadway Street", "amenity": "hospital", "emergency": "yes", "gnis:feature_id": "1781158", "healthcare": "hospital", "name": "Saint Patrick Hospital", "opening_hours": "24/7", "operator": "Providence Health & Services", "operator:wikidata": "Q7252430", "operator:wikipedia": "en:Providence Health & Services", "phone": "+1 406 543 7271", "website": "https://montana.providence.org/hospitals/st-patrick/", "wheelchair": "yes", "wikidata": "Q14704774", "wikipedia": "en:St. Patrick Hospital and Health Sciences Center"}}, {"name": "Saint James Healthcare", "latitude": 46.0086463, "longitude": -112.544925, "source": "osm", "_tags": {"addr:city": "Butte", "addr:housenumber": "400", "addr:postcode": "59701", "addr:state": "MT", "addr:street": "South Clark Street", "amenity": "hospital", "emergency": "yes", "gnis:feature_id": "793814", "healthcare": "hospital", "helipad": "yes", "name": "Saint James Healthcare", "old_name": "Saint James Hospital", "opening_hours": "24/7", "phone": "+1 406 723 2500", "website": "https://www.sclhealth.org/locations/st-james-healthcare/"}}, {"name": "Deer Lodge Medical Center", "latitude": 46.4134638, "longitude": -112.7267138, "source": "osm", "_tags": {"addr:city": "Deer Lodge", "addr:housenumber": "1100", "addr:postcode": "59722", "addr:state": "MT", "addr:street": "Hollenbeck Lane", "amenity": "hospital", "emergency": "yes", "name": "Deer Lodge Medical Center", "opening_hours": "24/7", "phone": "+1 406 846 2212", "website": "https://www.dlmed.org/"}}, {"name": "Community Medical Center", "latitude": 46.8467018, "longitude": -114.0481751, "source": "osm", "_tags": {"addr:city": "Missoula", "addr:housenumber": "2827", "addr:postcode": "59804", "addr:state": "MT", "addr:street": "Fort Missoula Road", "amenity": "hospital", "emergency": "yes", "gnis:feature_id": "1781167", "healthcare": "hospital", "name": "Community Medical Center", "opening_hours": "24/7", "phone": "+1 406 728 4100", "website": "https://communitymed.org/", "wikidata": "Q5154815", "wikipedia": "en:Community Medical Center (Montana)"}}, {"name": "Barrett Hospital & Healthcare", "latitude": 45.2013876, "longitude": -112.6472792, "source": "osm", "_tags": {"addr:city": "Dillon", "addr:housenumber": "600", "addr:postcode": "59725", "addr:state": "MT", "addr:street": "State Highway 91 South", "amenity": "hospital", "beds": "18", "emergency": "yes", "healthcare": "hospital", "name": "Barrett Hospital & Healthcare", "opening_hours": "24/7", "phone": "+1 406 683 3000", "website": "https://www.barretthospital.org/"}}, {"name": "Ruby Valley Hospital", "latitude": 45.4528456, "longitude": -112.1921346, "source": "osm", "_tags": {"addr:city": "Sheridan", "addr:housenumber": "220", "addr:postcode": "59759", "addr:state": "MT", "addr:street": "East Crofoot Street", "amenity": "hospital", "emergency": "yes", "gnis:feature_id": "1797549", "healthcare": "hospital", "name": "Ruby Valley Hospital", "opening_hours": "24/7", "phone": "+1 406 842 5453", "website": "https://www.rubyvalleyhospital.com/"}}, {"name": "Community Hospital of Anaconda", "latitude": 46.1324575, "longitude": -112.9565199, "source": "osm", "_tags": {"addr:city": "Anaconda", "addr:housenumber": "401", "addr:postcode": "59711", "addr:state": "MT", "addr:street": "West Pennsylvania Street", "amenity": "hospital", "emergency": "yes", "gnis:feature_id": "793763", "healthcare": "hospital", "name": "Community Hospital of Anaconda", "opening_hours": "24/7", "phone": "+1 406 563 8500", "website": "https://www.communityhospitalofanaconda.org/", "wikidata": "Q50036461"}}, {"name": "Granite County Medical Center", "latitude": 46.330218, "longitude": -113.2942847, "source": "osm", "_tags": {"addr:city": "Philipsburg", "addr:housenumber": "310", "addr:postcode": "59858", "addr:state": "MT", "addr:street": "South Sansome Street", "amenity": "hospital", "emergency": "yes", "healthcare": "hospital", "name": "Granite County Medical Center", "opening_hours": "24/7", "phone": "+1 406 859 3271", "website": "https://www.gcmedcenter.org/"}}, {"name": "Bitterroot Health - Daly Hospital", "latitude": 46.2481967, "longitude": -114.1717082, "source": "osm", "_tags": {"addr:city": "Hamilton", "addr:housenumber": "1200", "addr:postcode": "59840", "addr:state": "MT", "addr:street": "Westwood Drive", "amenity": "hospital", "emergency": "yes", "healthcare": "hospital", "name": "Bitterroot Health - Daly Hospital", "opening_hours": "24/7", "phone": "+1 406 363 2211", "website": "https://www.mdmh.org/"}}, {"name": "Steele Memorial Medical Center", "latitude": 45.1737252, "longitude": -113.8918037, "source": "osm", "_tags": {"addr:city": "Salmon", "addr:housenumber": "203", "addr:postcode": "83467", "addr:state": "ID", "addr:street": "South Daisy Street", "amenity": "hospital", "beds": "18", "emergency": "yes", "healthcare": "hospital", "name": "Steele Memorial Medical Center", "opening_hours": "24/7", "phone": "+1 208 756 5600", "website": "https://www.steelemh.org/"}}, {"name": "", "latitude": 46.8761537, "longitude": -114.001627, "source": "osm", "_tags": {"amenity": "hospital", "healthcare": "hospital"}}, {"name": "Providence Health Center", "latitude": 46.8784746, "longitude": -113.9928117, "source": "osm", "_tags": {"amenity": "hospital", "healthcare": "hospital", "name": "Providence Health Center"}}, {"name": "", "latitude": 46.8492068, "longitude": -114.0468051, "source": "osm", "_tags": {"amenity": "hospital", "healthcare": "hospital"}}, {"name": "Bitterroot Health - Stevensville", "latitude": 46.5292278, "longitude": -114.1127438, "source": "osm", "_tags": {"amenity": "hospital", "healthcare": "hospital", "name": "Bitterroot Health - Stevensville", "operator": "Bitterroot Health"}}, {"name": "", "latitude": 46.906337, "longitude": -114.0554065, "source": "osm", "_tags": {"amenity": "hospital", "healthcare": "hospital"}}]