[{"name": "Capital Oncology", "latitude": 46.6406101, "longitude": -122.9413845, "source": "osm", "_tags": {"addr:city": "Chehalis", "addr:housenumber": "1201", "addr:postcode": "98532", "addr:state": "WA", "addr:street": "Bishop Road", "amenity": "hospital", "emergency": "yes", "healthcare": "hospital", "healthcare:speciality": "oncology", "name": "Capital Oncology"}}, {"name": "VA Medical Center", "latitude": 46.6873697, "longitude": -122.9580516, "source": "osm", "_tags": {"amenity": "hospital", "healthcare": "hospital", "healthcare:for": "veterans", "name": "VA Medical Center", "operator": "Veterans Health Administration", "operator:short": "VA", "operator:wikidata": "Q6580225", "operator:wikipedia": "en:Veterans Health Administration", "short_name": "VA"}}, {"name": "Harbor Crest Behavioral Health", "latitude": 46.9811017, "longitude": -123.820699, "source": "osm", "_tags": {"addr:city": "Aberdeen", "addr:housenumber": "1006", "addr:postcode": "98520", "addr:state": "WA", "addr:street": "North H Street", "amenity": "hospital", "emergency": "no", "healthcare": "psychotherapist", "healthcare:speciality": "behavior", "name": "Harbor Crest Behavioral Health", "operator": "Harbor Regional Health", "operator:type": "public"}}, {"name": "Kaiser Permanente Westside Medical Center", "latitude": 45.5396013, "longitude": -122.8767098, "source": "osm", "_tags": {"addr:city": "Hillsboro", "addr:housenumber": "2875", "addr:postcode": "97124", "addr:state": "OR", "addr:street": "Northeast Stucki Avenue", "amenity": "hospital", "emergency": "yes", "healthcare": "hospital", "name": "Kaiser Permanente Westside Medical Center", "opening_hours": "24/7", "operator": "Kaiser Permanente", "operator:short": "KP", "operator:type": "private", "operator:website": "https://healthy.kaiserpermanente.org/", "operator:wikidata": "Q1721601", "operator:wikipedia": "en:Kaiser Permanente", "phone": "+1-971-310-1000", "website": "https://www.kaiserpermanente.org/", "wikidata": "Q12060932", "wikipedia": "en:Kaiser Westside Medical Center"}}, {"name": "Doernbecher Children's Hospital", "latitude": 45.4977189, "longitude": -122.6859547, "source": "osm", "_tags": {"addr:city": "Portland", "addr:housenumber": "700", "addr:postcode": "97239", "addr:state": "OR", "addr:street": "Southwest Campus Drive", "amenity": "hospital", "building": "yes", "building:levels": "11", "building:min_level": "7", "emergency": "no", "healthcare": "hospital", "healthcare:speciality": "paediatrics", "layer": "1", "name": "Doernbecher Children's Hospital", "opening_hours": "24/7", "phone": "+1-503-346-0640", "website": "https://www.ohsu.edu/", "wikidata": "Q5288081", "wikipedia": "en:Doernbecher Children's Hospital"}}, {"name": "Oregon Health & Science University Hospital", "latitude": 45.4989989, "longitude": -122.6855618, "source": "osm", "_tags": {"addr:city": "Portland", "addr:housenumber": "3251", "addr:postcode": "97239", "addr:state": "OR", "addr:street": "Southwest Sam Jackson Park Road", "alt_name": "OHSU Hospital", "amenity": "hospital", "building": "yes", "emergency": "no", "healthcare": "hospital", "name": "Oregon Health & Science University Hospital", "operator": "Oregon Health & Science University", "ref": "OHS", "short_name": "OHSU Hospital", "wikidata": "Q7101213", "wikipedia": "en:Oregon Health & Science University Hospital"}}, {"name": "Kohler Pavilion", "latitude": 45.4996495, "longitude": -122.6844186, "source": "osm", "_tags": {"addr:city": "Portland", "addr:housenumber": "808", "addr:postcode": "97239", "addr:state": "OR", "addr:street": "Southwest Campus Drive", "amenity": "hospital", "building": "hospital", "emergency": "no", "healthcare": "hospital", "layer": "1", "name": "Kohler Pavilion", "official_name": "Peter O. Kohler Pavillion", "operator": "Oregon Health & Science University", "ref": "KPV", "website": "https://www.ohsu.edu/xd/", "wheelchair": "yes"}}, {"name": "Legacy Salmon Creek Medical Center", "latitude": 45.7204998, "longitude": -122.6483474, "source": "osm", "_tags": {"addr:city": "Vancouver", "addr:housenumber": "2211", "addr:postcode": "98686", "addr:state": "WA", "addr:street": "Northeast 139th Street", "amenity": "hospital", "emergency": "yes", "healthcare": "hospital", "healthcare:speciality": "general;emergency", "name": "Legacy Salmon Creek Medical Center", "opening_hours": "24/7", "operator": "Legacy Health", "operator:type": "private_non_profit", "operator:wikidata": "Q6517244", "operator:wikipedia": "en:Legacy Health", "phone": "+1-360-487-1000", "website": "https://www.legacyhealth.org/locations/hospitals/legacy-salmon-creek-medical-center.aspx"}}, {"name": "Columbia Memorial Hospital", "latitude": 46.1878017, "longitude": -123.8188632, "source": "osm", "_tags": {"addr:city": "Astoria", "addr:country": "US", "addr:housenumber": "2111", "addr:postcode": "97103", "addr:state": "OR", "addr:street": "Exchange Street", "amenity": "hospital", "beds": "25", "emergency": "yes", "gnis:feature_id": "1638916", "healthcare": "hospital", "name": "Columbia Memorial Hospital", "opening_hours": "24/7", "phone": "+1 503 325 4321", "website": "https://www.columbiamemorial.org/", "wikidata": "Q20064928", "wikipedia": "en:Columbia Memorial Hospital (Oregon)"}}, {"name": "Providence Portland Medical Center", "latitude": 45.5283211, "longitude": -122.6124141, "source": "osm", "_tags": {"addr:city": "Portland", "addr:housenumber": "4805", "addr:postcode": "97213", "addr:street": "Northeast Glisan Street", "amenity": "hospital", "beds": "483", "check_date": "2024-12-11", "emergency": "yes", "healthcare": "hospital", "name": "Providence Portland Medical Center", "opening_hours": "24/7", "operator": "Providence Health & Services", "operator:wikidata": "Q7252430", "operator:wikipedia": "en:Providence Health & Services", "phone": "+1-503-215-1111", "website": "https://oregon.providence.org/location-directory/p/providence-portland-medical-center/", "wikidata": "Q7252461", "wikipedia": "en:Providence Portland Medical Center"}}, {"name": "OHSU - Doernbecher Emergency", "latitude": 45.4989741, "longitude": -122.6866485, "source": "osm", "_tags": {"addr:city": "Portland", "addr:housenumber": "3251", "addr:postcode": "97239", "addr:state": "OR", "addr:street": "Southwest Sam Jackson Park Road", "amenity": "hospital", "building": "yes", "emergency": "yes", "healthcare": "hospital", "name": "OHSU - Doernbecher Emergency", "opening_hours": "24/7", "phone": "+1 503 494 7551", "ref": "ERC", "website": "https://www.ohsu.edu/xd/health/services/doernbecher/programs-services/emergency/index.cfm"}}, {"name": "Portland VA Medical Center", "latitude": 45.49641, "longitude": -122.6829977, "source": "osm", "_tags": {"access": "private", "amenity": "hospital", "emergency": "yes", "healthcare": "hospital", "name": "Portland VA Medical Center", "official_name": "Department of Vereran Affairs Medical Center Portland, Oregon", "old_name": "Sam Jackson Park", "website": "https://www.portland.va.gov/", "wikidata": "Q16902632"}}, {"name": "Shriners Hospitals for Children", "latitude": 45.5011692, "longitude": -122.6844818, "source": "osm", "_tags": {"addr:city": "Portland", "addr:housenumber": "3101", "addr:postcode": "97239", "addr:state": "OR", "addr:street": "Southwest Sam Jackson Park Road", "amenity": "hospital", "beds": "29", "brand": "Shriners Hospitals for Children", "brand:wikidata": "Q7504109", "emergency": "no", "healthcare": "hospital", "healthcare:speciality": "paediatrics", "name": "Shriners Hospitals for Children", "operator": "Shriners Hospitals for Children", "operator:wikidata": "Q7504109", "operator:wikipedia": "en:Shriners Hospitals for Children", "phone": "+1-503-241-5090", "website": "https://www.shrinershospitalsforchildren.org/portland", "wikidata": "Q7504106", "wikipedia": "en:Shriners Hospital for Children (Portland)"}}, {"name": "Tillamook Regional Medical Center", "latitude": 45.4570751, "longitude": -123.853838, "source": "osm", "_tags": {"addr:city": "Tillamook", "addr:housenumber": "1000", "addr:postcode": "97141", "addr:state": "OR", "addr:street": "3rd Street", "amenity": "hospital", "beds": "25", "emergency": "yes", "healthcare": "hospital", "name": "Tillamook Regional Medical Center", "old_name": "Tillamook County General Hospital", "opening_hours": "24/7", "operator": "Adventist Health", "operator:wikidata": "Q4686452", "operator:wikipedia": "en:Adventist Health", "phone": "+1-503-842-4444", "website": "https://www.adventisthealth.org/trmc/", "wikidata": "Q7802243", "wikipedia": "en:Tillamook Regional Medical Center"}}, {"name": "PeaceHealth Southwest Memorial Health Center", "latitude": 45.6461948, "longitude": -122.6703031, "source": "osm", "_tags": {"addr:city": "Vancouver", "addr:housenumber": "3400", "addr:postcode": "98663", "addr:street": "Main Street", "amenity": "hospital", "emergency": "no", "gnis:feature_id": "2474337", "healthcare": "hospital", "name": "PeaceHealth Southwest Memorial Health Center", "operator": "PeaceHealth", "operator:wikidata": "Q16966652", "operator:wikipedia": "en:PeaceHealth", "phone": "+1-360-696-5232", "website": "https://www.peacehealth.org/southwest-medical-center"}}, {"name": "Portland VA Medical Center - Vancouver Division", "latitude": 45.6374391, "longitude": -122.6566683, "source": "osm", "_tags": {"addr:city": "Vancouver", "addr:housenumber": "1601", "addr:postcode": "98661", "addr:street": "East Fourth Plain Boulevard", "amenity": "hospital", "emergency": "no", "gnis:feature_id": "1503178", "healthcare": "hospital", "name": "Portland VA Medical Center - Vancouver Division", "operator": "Department of Veterans Affairs", "phone": "+1-360-759-1901", "website": "https://www.portland.va.gov/vancouver.asp"}}, {"name": "PeaceHealth Southwest Medical Center", "latitude": 45.6250195, "longitude": -122.5810503, "source": "osm", "_tags": {"addr:city": "Vancouver", "addr:housenumber": "400", "addr:postcode": "98664", "addr:street": "Northeast Mother Joseph Place", "amenity": "hospital", "emergency": "yes", "gnis:feature_id": "2474336", "healthcare": "hospital", "name": "PeaceHealth Southwest Medical Center", "opening_hours": "24/7", "operator": "PeaceHealth", "operator:wikidata": "Q16966652", "phone": "+1-360-514-2000", "website": "https://www.peacehealth.org/southwest-medical-center", "wikidata": "Q7157279"}}, {"name": "PeaceHealth St. John Medical Center", "latitude": 46.1301462, "longitude": -122.9420818, "source": "osm", "_tags": {"addr:city": "Longview", "addr:housenumber": "1615", "addr:postcode": "98632", "addr:state": "WA", "addr:street": "Delaware Street", "amenity": "hospital", "emergency": "yes", "gnis:feature_id": "1508018", "healthcare": "hospital", "name": "PeaceHealth St. John Medical Center", "old_name": "Saint John's Hospital", "opening_hours": "24/7", "operator": "PeaceHealth", "operator:type": "private", "operator:wikidata": "Q16966652", "phone": "+1-360-414-2000", "website": "https://www.peacehealth.org/st-john-medical-center", "wikidata": "Q29096836", "wikipedia": "en:PeaceHealth St. John Medical Center"}}, {"name": "", "latitude": 45.3083943, "longitude": -122.9352881, "source": "osm", "_tags": {"amenity": "hospital", "healthcare": "hospital", "wikidata": "Q7252456"}}, {"name": "Legacy Meridian Park Medical Center", "latitude": 45.3788268, "longitude": -122.7414622, "source": "osm", "_tags": {"addr:city": "Tualatin", "addr:housenumber": "19300", "addr:postcode": "97062", "addr:state": "OR", "addr:street": "Southwest 65th Avenue", "amenity": "hospital", "emergency": "yes", "healthcare": "hospital", "name": "Legacy Meridian Park Medical Center", "opening_hours": "24/7", "operator": "Legacy Health", "operator:wikidata": "Q6517244", "operator:wikipedia": "en:Legacy Health", "phone": "+1 503 692 1212", "toilets:wheelchair": "yes", "website": "https://www.legacyhealth.org/locations/hospitals/legacy-meridian-park-medical-center.aspx", "wheelchair": "yes", "wikidata": "Q6517255", "wikipedia": "en:Legacy Meridian Park Medical Center"}}, {"name": "Vibra Specialty Hospital of Portland", "latitude": 45.5357849, "longitude": -122.5567209, "source": "osm", "_tags": {"addr:city": "Portland", "addr:housenumber": "10300", "addr:postcode": "97220", "addr:state": "OR", "addr:street": "Northeast Hancock Street", "amenity": "hospital", "emergency": "no", "fax": "+1-503-257-5673", "healthcare": "hospital", "name": "Vibra Specialty Hospital of Portland", "phone": "+1-503-257-5500", "website": "https://vshportland.com/"}}, {"name": "Providence Seaside Hospital", "latitude": 45.9887495, "longitude": -123.9124398, "source": "osm", "_tags": {"addr:city": "Seaside", "addr:housenumber": "725", "addr:postcode": "97138", "addr:state": "OR", "addr:street": "South Wahanna Road", "amenity": "hospital", "beds": "25", "emergency": "yes", "gnis:feature_id": "2508321", "healthcare": "hospital", "name": "Providence Seaside Hospital", "operator": "Providence Health & Services", "operator:wikidata": "Q7252430", "operator:wikipedia": "en:Providence Health & Services", "phone": "+1 503 717 7000", "website": "https://oregon.providence.org/location-directory/p/providence-seaside-hospital/", "wikidata": "Q22072921", "wikipedia": "en:Providence Seaside Hospital"}}, {"name": "Adventist Health Portland", "latitude": 45.5125412, "longitude": -122.5575537, "source": "osm", "_tags": {"addr:city": "Portland", "addr:housenumber": "10123", "addr:postcode": "97216", "addr:state": "OR", "addr:street": "Southeast Market Street", "alt_name": "OHSU Adventist Health Portland", "amenity": "hospital", "emergency": "yes", "healthcare": "hospital", "name": "Adventist Health Portland", "old_name": "Portland Adventist Medical Center", "opening_hours": "24/7", "operator": "Adventist Health", "operator:type": "private_non_profit", "operator:wikidata": "Q4686452", "phone": "+1-503-257-2500", "website": "https://www.adventisthealth.org/portland/", "wheelchair": "yes", "wikidata": "Q2945876", "wikipedia": "en:Adventist Health Portland"}}, {"name": "Willamette Valley Medical Center", "latitude": 45.1990422, "longitude": -123.1651653, "source": "osm", "_tags": {"addr:city": "McMinnville", "addr:housenumber": "2700", "addr:postcode": "97128", "addr:state": "OR", "addr:street": "Southeast Stratus Avenue", "amenity": "hospital", "check_date": "2025-06-15", "emergency": "yes", "healthcare": "hospital", "name": "Willamette Valley Medical Center", "opening_hours": "24/7", "phone": "+1-503-472-6131", "website": "https://willamettevalleymedical.com/", "wikidata": "Q8003322"}}, {"name": "Tuality Forest Grove Hospital", "latitude": 45.5172032, "longitude": -123.090392, "source": "osm", "_tags": {"addr:city": "Forest Grove", "addr:housenumber": "1809", "addr:postcode": "97116", "addr:state": "OR", "addr:street": "Maple Street", "amenity": "hospital", "contact:phone": "+1 503 359 6180", "contact:website": "https://tuality.org/hospital-services/immediate-care/", "emergency": "yes", "healthcare": "hospital", "name": "Tuality Forest Grove Hospital", "opening_hours": "24/7", "wheelchair": "yes", "wikidata": "Q7850607", "wikipedia": "en:Tuality Forest Grove Hospital"}}, {"name": "Providence Saint Vincent Hospital", "latitude": 45.5104142, "longitude": -122.7721234, "source": "osm", "_tags": {"addr:city": "Portland", "addr:housenumber": "9205", "addr:postcode": "97225", "addr:state": "OR", "addr:street": "Southwest Barnes Road", "amenity": "hospital", "emergency": "yes", "healthcare": "hospital", "name": "Providence Saint Vincent Hospital", "opening_hours": "24/7", "phone": "+1-503-216-1234", "website": "https://oregon.providence.org/", "wikidata": "Q7252480"}}, {"name": "Providence Willamette Falls Medical Center", "latitude": 45.3561769, "longitude": -122.5864454, "source": "osm", "_tags": {"addr:city": "Oregon City", "addr:housenumber": "1500", "addr:postcode": "97045", "addr:state": "OR", "addr:street": "Division Street", "amenity": "hospital", "beds": "143", "emergency": "yes", "healthcare": "hospital", "name": "Providence Willamette Falls Medical Center", "opening_hours": "24/7", "phone": "+1-503-656-1631", "website": "https://oregon.providence.org/", "wikidata": "Q7252504"}}, {"name": "Kaiser Sunnyside Medical Center", "latitude": 45.4315662, "longitude": -122.5597776, "source": "osm", "_tags": {"addr:city": "Clackamas", "addr:housenumber": "10180", "addr:postcode": "97015", "addr:state": "OR", "addr:street": "Southeast Sunnyside Road", "amenity": "hospital", "contact:phone": "+1 503 652 2880", "contact:website": "https://healthy.kaiserpermanente.org/oregon-washington/facilities/Sunnyside-Medical-Center-100249", "emergency": "yes", "healthcare": "hospital", "name": "Kaiser Sunnyside Medical Center", "opening_hours": "24/7", "operator": "Kaiser Permanente", "operator:short": "KP", "operator:website": "https://healthy.kaiserpermanente.org/", "operator:wikidata": "Q1721601", "operator:wikipedia": "en:Kaiser Permanente", "wikidata": "Q6348463"}}, {"name": "Arbor Health Morton Hospital", "latitude": 46.5553381, "longitude": -122.280107, "source": "osm", "_tags": {"addr:city": "Morton", "addr:housenumber": "521", "addr:postcode": "98356", "addr:street": "Adams Avenue", "amenity": "hospital", "emergency": "yes", "healthcare": "hospital", "name": "Arbor Health Morton Hospital", "opening_hours": "24/7", "phone": "+1-360-496-5112", "website": "http://www.mortongeneral.org/"}}, {"name": "Providence Centralia Hospital", "latitude": 46.7124886, "longitude": -122.9855669, "source": "osm", "_tags": {"addr:city": "Centralia", "addr:housenumber": "914", "addr:postcode": "98331", "addr:street": "South Scheuber Road", "amenity": "hospital", "beds": "127", "emergency": "yes", "gnis:feature_id": "1514368", "healthcare": "hospital", "name": "Providence Centralia Hospital", "old_name": "Centralia General Hospital", "opening_hours": "24/7", "operator": "Providence Health & Services", "operator:wikidata": "Q7252430", "phone": "+1-360-736-2803", "website": "https://washington.providence.org/hospitals/centralia-hospital/"}}, {"name": "Ocean Beach Hospital", "latitude": 46.311747, "longitude": -124.0423694, "source": "osm", "_tags": {"addr:city": "Ilwaco", "addr:country": "US", "addr:housenumber": "174", "addr:postcode": "98624", "addr:state": "WA", "addr:street": "1st Avenue North", "amenity": "hospital", "beds": "25", "emergency": "yes", "healthcare": "hospital", "name": "Ocean Beach Hospital", "opening_hours": "24/7", "phone": "+1-360-642-3747", "website": "https://www.oceanbeachhospital.com/"}}, {"name": "Willapa Harbor Hospital", "latitude": 46.6627375, "longitude": -123.8124899, "source": "osm", "_tags": {"addr:city": "South Bend", "addr:housenumber": "800", "addr:postcode": "98586", "addr:state": "WA", "addr:street": "Alder Street", "amenity": "hospital", "beds": "10", "emergency": "yes", "healthcare": "hospital", "healthcare:speciality": "emergency;cardiology;diabetology;radiology", "name": "Willapa Harbor Hospital", "opening_hours": "24/7", "operator": "Pacific County Hospital District #2", "operator:type": "public", "phone": "+1-360-875-5526", "website": "https://www.willapaharborhospital.com/"}}, {"name": "Harbor Regional Health Community Hospital", "latitude": 46.979421, "longitude": -123.8463296, "source": "osm", "_tags": {"addr:city": "Aberdeen", "addr:housenumber": "915", "addr:postcode": "98520", "addr:street": "Anderson Drive", "amenity": "hospital", "emergency": "yes", "gnis:feature_id": "1514191", "healthcare": "hospital", "healthcare:speciality": "gynaecology;emergency;intensive;surgery", "name": "Harbor Regional Health Community Hospital", "opening_hours": "24/7", "phone": "+1-360-532-8330", "website": "https://www.ghcares.org/", "wikidata": "Q98609845"}}, {"name": "Summit Pacific Medical Center", "latitude": 47.0074072, "longitude": -123.3921771, "source": "osm", "_tags": {"addr:city": "Elma", "addr:housenumber": "600", "addr:postcode": "98541", "addr:street": "East Main Street", "amenity": "hospital", "beds": "11", "contact:facebook": "https://www.facebook.com/141562612709914", "email": "info@sp-mc.org", "emergency": "yes", "healthcare": "hospital", "name": "Summit Pacific Medical Center", "opening_hours": "24/7", "phone": "+1-360-346-2222", "website": "https://summitpacificmedicalcenter.org/"}}, {"name": "Legacy Mount Hood Medical Center", "latitude": 45.5173246, "longitude": -122.4064587, "source": "osm", "_tags": {"addr:city": "Gresham", "addr:housenumber": "24800", "addr:postcode": "97030", "addr:street": "Southeast Stark Street", "amenity": "hospital", "emergency": "yes", "healthcare": "hospital", "name": "Legacy Mount Hood Medical Center", "opening_hours": "24/7", "operator": "Legacy Health", "operator:wikidata": "Q6517244", "operator:wikipedia": "en:Legacy Health", "phone": "+1 503 674 1122", "website": "https://www.legacyhealth.org/locations/hospitals/legacy-mount-hood-medical-center.aspx", "wikidata": "Q17508439", "wikipedia": "en:Legacy Mount Hood Medical Center"}}, {"name": "Cedar Hills Hospital", "latitude": 45.5058259, "longitude": -122.7830946, "source": "osm", "_tags": {"amenity": "hospital", "emergency": "no", "healthcare": "hospital", "name": "Cedar Hills Hospital"}}, {"name": "Providence Milwaukie Hospital", "latitude": 45.4496943, "longitude": -122.6281091, "source": "osm", "_tags": {"addr:city": "Milwaukie", "addr:housenumber": "10150", "addr:postcode": "97222", "addr:street": "Southeast 32nd Avenue", "amenity": "hospital", "beds": "77", "emergency": "yes", "healthcare": "hospital", "name": "Providence Milwaukie Hospital", "opening_hours": "24/7", "operator": "Providence Health & Services", "operator:type": "private", "operator:wikidata": "Q7252430", "operator:wikipedia": "en:Providence Health & Services", "phone": "+1-503-513-8300", "website": "https://oregon.providence.org/location-directory/p/providence-milwaukie-hospital/", "wikidata": "Q16898822"}}, {"name": "Woodburn Diagnostic Imaging", "latitude": 45.1515134, "longitude": -122.8567183, "source": "osm", "_tags": {"amenity": "hospital", "healthcare": "hospital", "name": "Woodburn Diagnostic Imaging"}}, {"name": "", "latitude": 45.3665982, "longitude": -122.8496722, "source": "osm", "_tags": {"amenity": "hospital", "healthcare": "hospital"}}, {"name": "Providence Lacey Immediate Care", "latitude": 47.0042551, "longitude": -122.8219261, "source": "osm", "_tags": {"addr:city": "Lacey", "addr:housenumber": "4800", "addr:postcode": "98503", "addr:state": "WA", "addr:street": "College Street Southeast", "amenity": "hospital", "building": "yes", "healthcare": "hospital", "healthcare:speciality": "community", "name": "Providence Lacey Immediate Care", "source": "esri_USDOT_ThurstonWA"}}, {"name": "Harbor Regional Health East Campus", "latitude": 46.9812979, "longitude": -123.8203568, "source": "osm", "_tags": {"amenity": "hospital", "healthcare": "hospital", "name": "Harbor Regional Health East Campus", "operator": "Grays Harbor Hospital District #2"}}, {"name": "", "latitude": 46.3647279, "longitude": -123.8122811, "source": "osm", "_tags": {"amenity": "hospital", "healthcare": "hospital"}}, {"name": "Legacy Good Samaritan Medical Center", "latitude": 45.5301941, "longitude": -122.6965911, "source": "osm", "_tags": {"addr:city": "Portland", "addr:housenumber": "1015", "addr:postcode": "97210", "addr:state": "OR", "addr:street": "Northwest 22nd Avenue", "amenity": "hospital", "contact:phone": "+1 503 413 7711", "contact:website": "https://www.legacyhealth.org/doctors-and-locations/hospitals/legacy-good-samaritan-medical-center", "emergency": "yes", "healthcare": "hospital", "name": "Legacy Good Samaritan Medical Center", "opening_hours": "24/7", "operator": "Legacy Health", "operator:wikidata": "Q6517244", "operator:wikipedia": "en:Legacy Health", "type": "multipolygon", "wikidata": "Q6517242"}}, {"name": "", "latitude": 45.8544002, "longitude": -122.827304, "source": "osm", "_tags": {"addr:city": "Saint Helens", "addr:housenumber": "475", "addr:postcode": "97051", "addr:state": "OR", "addr:street": "South Columbia River Highway", "amenity": "hospital", "emergency": "no", "healthcare": "hospital", "type": "multipolygon", "wheelchair": "yes"}}, {"name": "Hillsboro Medical Center", "latitude": 45.5200019, "longitude": -122.9781936, "source": "osm", "_tags": {"addr:city": "Hillsboro", "addr:housenumber": "335", "addr:postcode": "97123", "addr:state": "OR", "addr:street": "Southeast 8th Avenue", "amenity": "hospital", "emergency": "yes", "healthcare": "hospital", "name": "Hillsboro Medical Center", "official_name": "OHSU Health Hillsboro Medical Center", "old_name": "Tuality Community Hospital", "opening_hours": "24/7", "operator": "Tuality Healthcare", "operator:type": "private_non_profit", "phone": "+1-503-681-1860", "type": "multipolygon", "website": "http://www.tuality.org/", "wikidata": "Q7850605", "wikipedia": "en:Hillsboro Medical Center"}}, {"name": "Kaiser Permanente", "latitude": 45.5483977, "longitude": -122.6806247, "source": "osm", "_tags": {"amenity": "hospital", "emergency": "no", "healthcare": "hospital", "name": "Kaiser Permanente", "operator": "Kaiser Permanente", "operator:short": "KP", "operator:website": "https://healthy.kaiserpermanente.org/", "operator:wikidata": "Q1721601", "type": "multipolygon"}}, {"name": "Legacy Emanuel Medical Center", "latitude": 45.5438879, "longitude": -122.6692966, "source": "osm", "_tags": {"addr:city": "Portland", "addr:housenumber": "2801", "addr:postcode": "97227", "addr:street": "North Gantenbein Avenue", "amenity": "hospital", "emergency": "yes", "healthcare": "hospital", "name": "Legacy Emanuel Medical Center", "opening_hours": "24/7", "operator": "Legacy Health", "operator:wikidata": "Q6517244", "operator:wikipedia": "en:Legacy Health", "phone": "+1-503-413-2200", "type": "multipolygon", "website": "https://www.legacyhealth.org/", "wikidata": "Q6517238", "wikipedia": "en:Legacy Emanuel Medical Center"}}]