[{"name": "Rosebud Health Care Center", "latitude": 46.2716188, "longitude": -106.6701438, "source": "osm", "_tags": {"addr:city": "Forsyth", "addr:housenumber": "383", "addr:postcode": "59327", "addr:state": "MT", "addr:street": "North 17th Avenue", "amenity": "hospital", "emergency": "yes", "gnis:feature_id": "1716670", "healthcare": "hospital", "name": "Rosebud Health Care Center", "opening_hours": "24/7", "phone": "+1 406 346 2161", "website": "https://www.rosebudhcc.org/"}}, {"name": "Crow/Northern Cheyenne Hospital", "latitude": 45.5821296, "longitude": -107.4489605, "source": "osm", "_tags": {"addr:city": "Crow Agency", "addr:housenumber": "237", "addr:postcode": "59022", "addr:state": "MT", "addr:street": "Hospital Loop", "amenity": "hospital", "emergency": "yes", "gnis:feature_id": "1716382", "healthcare": "hospital", "name": "Crow/Northern Cheyenne Hospital", "opening_hours": "24/7", "phone": "+1 406 638 3500", "website": "https://www.ihs.gov/billings/healthcarefacilities/crow/"}}, {"name": "Big Horn County Memorial Hospital", "latitude": 45.7286007, "longitude": -107.6162379, "source": "osm", "_tags": {"addr:city": "Hardin", "addr:housenumber": "17", "addr:postcode": "59034", "addr:state": "MT", "addr:street": "North Miles Avenue", "amenity": "hospital", "emergency": "yes", "gnis:feature_id": "1716366", "healthcare": "hospital", "name": "Big Horn County Memorial Hospital", "opening_hours": "24/7", "phone": "+1 406 665 2310", "website": "https://www.bighornhospital.org/"}}]