[{"name": "Trios Women's and Children's Hospital", "latitude": 46.199171, "longitude": -119.1207655, "source": "osm", "_tags": {"addr:city": "Kennewick", "addr:housenumber": "900", "addr:postcode": "99336", "addr:state": "WA", "addr:street": "South Auburn Street", "amenity": "hospital", "emergency": "no", "healthcare": "hospital", "name": "Trios Women's and Children's Hospital", "old_name": "Kennewick General Hospital", "operator": "Trios Health", "phone": "+1-509-221-7000", "website": "https://www.trioshealth.org/"}}, {"name": "Jonathan M. Wainwright Memorial VA Medical Center", "latitude": 46.0535294, "longitude": -118.3556147, "source": "osm", "_tags": {"addr:city": "Walla Walla", "addr:housenumber": "77", "addr:postcode": "99362", "addr:state": "WA", "addr:street": "Wainwright Drive", "amenity": "hospital", "emergency": "no", "gnis:feature_id": "1531330", "healthcare": "hospital", "name": "Jonathan M. Wainwright Memorial VA Medical Center", "phone": "+1-509-525-5200", "website": "https://www.wallawalla.va.gov/"}}, {"name": "Providence Saint Mary Medical Center", "latitude": 46.0616381, "longitude": -118.3430467, "source": "osm", "_tags": {"addr:city": "Walla Walla", "addr:housenumber": "401", "addr:postcode": "99362", "addr:street": "West Poplar Street", "amenity": "hospital", "emergency": "yes", "healthcare": "hospital", "name": "Providence Saint Mary Medical Center", "old_name": "Saint Marys Hospital", "opening_hours": "24/7", "operator": "Providence Health & Services", "operator:wikidata": "Q7252430", "phone": "+1-509-897-3320", "website": "https://washington.providence.org/hospitals/st-mary/", "wikidata": "Q81654898"}}, {"name": "Lourdes Medical Center", "latitude": 46.2349121, "longitude": -119.09564, "source": "osm", "_tags": {"addr:city": "Pasco", "addr:housenumber": "420", "addr:postcode": "99301", "addr:state": "WA", "addr:street": "North 4th Avenue", "amenity": "hospital", "emergency": "yes", "healthcare": "hospital", "name": "Lourdes Medical Center", "opening_hours": "24/7", "operator": "Lourdes Health", "phone": "+1-509-547-7704", "website": "https://www.yourlourdes.com/"}}, {"name": "Trios Southridge Hospital", "latitude": 46.1780635, "longitude": -119.1916102, "source": "osm", "_tags": {"addr:city": "Kennewick", "addr:housenumber": "3810", "addr:postcode": "99336", "addr:state": "WA", "addr:street": "Plaza Way", "amenity": "hospital", "emergency": "yes", "healthcare": "hospital", "name": "Trios Southridge Hospital", "opening_hours": "24/7", "operator": "Trios Health", "phone": "+1-509-221-7000", "website": "https://www.trioshealth.org/"}}, {"name": "CHI Saint Anthony Hospital", "latitude": 45.6487847, "longitude": -118.8125467, "source": "osm", "_tags": {"addr:city": "Pendelton", "addr:housenumber": "2801", "addr:postcode": "97801", "addr:street": "Saint Anthony Way", "amenity": "hospital", "emergency": "yes", "healthcare": "hospital", "name": "CHI Saint Anthony Hospital", "opening_hours": "24/7", "operator": "Catholic Health Initiatives", "operator:short": "CHI", "operator:wikidata": "Q5053168", "phone": "+1-541-276-5121", "website": "https://www.sahpendleton.org/", "wikidata": "Q15352957", "wikipedia": "en:St. Anthony Hospital (Pendleton, Oregon)"}}, {"name": "Good Shepherd Medical Center", "latitude": 45.847779, "longitude": -119.3082964, "source": "osm", "_tags": {"addr:city": "Hermiston", "addr:housenumber": "610", "addr:postcode": "97838", "addr:street": "Northwest 11th Street", "amenity": "hospital", "emergency": "yes", "gnis:feature_id": "1167887", "healthcare": "hospital", "name": "Good Shepherd Medical Center", "opening_hours": "24/7", "phone": "+1 541 667 3400", "website": "https://www.gshealth.org/"}}, {"name": "Pioneer Memorial Hospital", "latitude": 45.3558685, "longitude": -119.5486569, "source": "osm", "_tags": {"addr:city": "Heppner", "addr:housenumber": "564", "addr:postcode": "97836", "addr:street": "East Pioneer Drive", "amenity": "hospital", "beds": "21", "building": "yes", "emergency": "yes", "gnis:feature_id": "1125432", "healthcare": "hospital", "name": "Pioneer Memorial Hospital", "opening_hours": "24/7", "phone": "+1 541 676 9133", "website": "https://morrowcountyhealthdistrict.org/pioneer-memorial-hospital-nursing-facility-2/"}}, {"name": "Astria Sunnyside Hospital", "latitude": 46.3228011, "longitude": -120.0072897, "source": "osm", "_tags": {"addr:city": "Sunnyside", "addr:housenumber": "1016", "addr:postcode": "98944", "addr:street": "Tacoma Avenue", "amenity": "hospital", "emergency": "yes", "healthcare": "hospital", "name": "Astria Sunnyside Hospital", "opening_hours": "24/7", "phone": "+1-509-837-1500", "website": "https://www.astria.health/locations/astria-sunnyside-hospital/"}}, {"name": "Kadlec Regional Medical Center", "latitude": 46.2816428, "longitude": -119.2819115, "source": "osm", "_tags": {"addr:city": "Richland", "addr:housenumber": "888", "addr:postcode": "99352", "addr:state": "WA", "addr:street": "Swift Boulevard", "amenity": "hospital", "emergency": "yes", "gnis:feature_id": "1513451", "healthcare": "hospital", "name": "Kadlec Regional Medical Center", "opening_hours": "24/7", "phone": "+1-509-946-4611", "website": "https://www.kadlec.org/"}}, {"name": "Othello Community Hospital", "latitude": 46.8300866, "longitude": -119.1552646, "source": "osm", "_tags": {"addr:city": "Othello", "addr:housenumber": "315", "addr:postcode": "99344", "addr:street": "North 14th Avenue", "amenity": "hospital", "emergency": "yes", "healthcare": "hospital", "name": "Othello Community Hospital", "opening_hours": "24/7", "phone": "+1-509-488-2636", "website": "https://www.othellocommunityhospital.org/"}}, {"name": "Kadlec Clinic", "latitude": 46.227486, "longitude": -119.2642466, "source": "osm", "_tags": {"addr:city": "Richland", "addr:housenumber": "560", "addr:postcode": "99352", "addr:state": "WA", "addr:street": "Gage Boulevard", "amenity": "hospital", "healthcare": "hospital", "name": "Kadlec Clinic"}}, {"name": "Columbia Basin Health Association", "latitude": 46.7382964, "longitude": -119.8988553, "source": "osm", "_tags": {"addr:city": "Mattawa", "addr:housenumber": "611", "addr:postcode": "99349", "addr:state": "WA", "addr:street": "Government Road", "amenity": "clinic", "healthcare": "hospital", "healthcare:speciality": "dentistry;maternity;general", "name": "Columbia Basin Health Association"}}, {"name": "Lourdes Pediatrics", "latitude": 46.2796287, "longitude": -119.2209407, "source": "osm", "_tags": {"addr:city": "Pasco", "addr:housenumber": "9915", "addr:postcode": "99301", "addr:state": "WA", "addr:street": "Sandifur Parkway", "amenity": "hospital", "building": "hospital", "healthcare": "hospital", "name": "Lourdes Pediatrics"}}, {"name": "Northwest Stem Cell", "latitude": 46.2809724, "longitude": -119.2181829, "source": "osm", "_tags": {"addr:city": "Pasco", "addr:housenumber": "5908", "addr:postcode": "99301", "addr:state": "WA", "addr:street": "Bedford Street Suite A", "amenity": "hospital", "building": "hospital", "healthcare": "hospital", "healthcare:speciality": "stem_cell_therapy", "name": "Northwest Stem Cell"}}, {"name": "", "latitude": 46.2279833, "longitude": -119.263659, "source": "osm", "_tags": {"amenity": "hospital", "healthcare": "hospital"}}, {"name": "", "latitude": 46.2627643, "longitude": -119.3403976, "source": "osm", "_tags": {"amenity": "hospital", "healthcare": "hospital"}}, {"name": "Prosser Memorial Hospital", "latitude": 46.2080797, "longitude": -119.7637452, "source": "osm", "_tags": {"addr:city": "Prosser", "addr:housenumber": "723", "addr:postcode": "99350", "addr:state": "WA", "addr:street": "Memorial Street", "amenity": "hospital", "beds": "25", "emergency": "yes", "healthcare": "hospital", "name": "Prosser Memorial Hospital", "opening_hours": "24/7", "operator": "Prosser Memorial Health", "phone": "+1-509-786-2222", "type": "multipolygon", "website": "https://prosserhealth.org/"}}]