[{"name": "Vibra Hospital Of Central Dakotas", "latitude": 46.8418693, "longitude": -100.9076977, "source": "osm", "_tags": {"addr:city": "Mandan", "addr:housenumber": "1000", "addr:postcode": "58554", "addr:state": "ND", "addr:street": "18th Street Northwest", "amenity": "hospital", "beds": "41", "healthcare": "hospital", "name": "Vibra Hospital Of Central Dakotas", "phone": "+1 701 667 2000", "website": "https://vhcentraldakotas.com"}}, {"name": "Mclaughlin Public Health Service Indian Health Center", "latitude": 45.8092599, "longitude": -100.8083509, "source": "osm", "_tags": {"addr:city": "Mclaughlin", "addr:housenumber": "701", "addr:postcode": "57642", "addr:state": "SD", "addr:street": "6th Street East", "amenity": "hospital", "beds": "12", "healthcare": "hospital", "name": "Mclaughlin Public Health Service Indian Health Center", "phone": "+1 605 823 4459", "website": "https://www.ihs.gov"}}, {"name": "Sanford Medical Center", "latitude": 46.8074843, "longitude": -100.7823221, "source": "osm", "_tags": {"addr:city": "Bismarck", "addr:housenumber": "300", "addr:postcode": "58501", "addr:street": "North 7th Street", "amenity": "hospital", "emergency": "yes", "healthcare": "hospital", "name": "Sanford Medical Center", "old_name": "Medcenter One", "operator": "Sanford Health", "operator:wikidata": "Q7417625", "operator:wikipedia": "en:Sanford Health", "phone": "+1 701 323 6000", "website": "https://www.sanfordhealth.org/bismarck/"}}, {"name": "CHI St. Alexius Health", "latitude": 46.8079596, "longitude": -100.7762904, "source": "osm", "_tags": {"addr:city": "Bismarck", "addr:housenumber": "900", "addr:postcode": "58501", "addr:street": "East Broadway Avenue", "amenity": "hospital", "emergency": "yes", "gnis:feature_id": "1031076", "healthcare": "hospital", "name": "CHI St. Alexius Health", "old_name": "Saint Alexius Medical Center", "operator": "Catholic Health Initiatives", "operator:short": "CHI", "operator:wikidata": "Q5053168", "operator:wikipedia": "en:Catholic Health Initiatives", "phone": "+1 701 530 7000", "website": "https://www.st.alexius.org/", "wikidata": "Q7586777", "wikipedia": "en:CHI St. Alexius Health Bismarck"}}, {"name": "Mobridge Regional Hospital", "latitude": 45.5463625, "longitude": -100.4496583, "source": "osm", "_tags": {"addr:city": "Mobridge", "addr:housenumber": "1401", "addr:postcode": "57601", "addr:street": "10th Avenue West", "amenity": "hospital", "beds": "25", "emergency": "yes", "healthcare": "hospital", "name": "Mobridge Regional Hospital", "opening_hours": "24/7", "operator": "Mobridge Regional Hospital and Clinics", "phone": "+1 605 845 3692", "website": "https://www.mobridgehospital.org/"}}, {"name": "Fort Yates Hospital", "latitude": 46.0952092, "longitude": -100.6282237, "source": "osm", "_tags": {"addr:city": "Fort Yates", "addr:postcode": "58538", "amenity": "hospital", "emergency": "yes", "healthcare": "hospital", "name": "Fort Yates Hospital", "opening_hours": "24/7", "operator": "Indian Health Service", "operator:short": "IHS", "operator:type": "public", "operator:wikidata": "Q6020429", "phone": "+1 701 854 3831", "website": "https://www.ihs.gov/greatplains/healthcarefacilities/standingrock/"}}, {"name": "Linton Hospital", "latitude": 46.2713793, "longitude": -100.2336662, "source": "osm", "_tags": {"addr:city": "Linton", "addr:housenumber": "518", "addr:postcode": "58552", "addr:street": "North Broadway", "amenity": "hospital", "beds": "14", "emergency": "yes", "healthcare": "hospital", "name": "Linton Hospital", "opening_hours": "24/7", "phone": "+1 701 254 4511", "website": "https://www.lintonhospital.org/"}}, {"name": "Jacobson Memorial Hospital Care Center", "latitude": 46.4072548, "longitude": -101.8412898, "source": "osm", "_tags": {"addr:city": "Elgin", "addr:housenumber": "601", "addr:postcode": "58533", "addr:street": "East Street North", "amenity": "hospital", "beds": "30", "emergency": "yes", "healthcare": "hospital", "name": "Jacobson Memorial Hospital Care Center", "opening_hours": "24/7", "phone": "+1 701 584 2792", "short_name": "JMHCC", "website": "http://www.jacobsonhospital.org/"}}]