[{"name": "Fallon Medical Complex", "latitude": 46.3656014, "longitude": -104.2806671, "source": "osm", "_tags": {"addr:city": "Baker", "addr:housenumber": "202", "addr:postcode": "59313", "addr:state": "MT", "addr:street": "South 4th Street West", "amenity": "hospital", "emergency": "yes", "gnis:feature_id": "1688756", "healthcare": "hospital", "name": "Fallon Medical Complex", "opening_hours": "24/7", "phone": "+1 406 778 3331", "website": "http://www.fallonmedical.org/"}}, {"name": "Dahl Memorial Healthcare", "latitude": 45.8883376, "longitude": -104.549784, "source": "osm", "_tags": {"addr:city": "Ekalaka", "addr:housenumber": "215", "addr:postcode": "59324", "addr:state": "MT", "addr:street": "Sandy Street", "amenity": "hospital", "emergency": "yes", "healthcare": "hospital", "name": "Dahl Memorial Healthcare", "opening_hours": "24/7", "phone": "+1 406 775 8739", "website": "http://www.dahlmemorial.com/cah.html"}}, {"name": "Holy Rosary Health Center", "latitude": 46.3951932, "longitude": -105.8284914, "source": "osm", "_tags": {"addr:city": "Miles City", "addr:housenumber": "2600", "addr:postcode": "59301", "addr:state": "MT", "addr:street": "Wilson Street", "amenity": "hospital", "emergency": "yes", "gnis:feature_id": "1716934", "healthcare": "hospital", "name": "Holy Rosary Health Center", "opening_hours": "24/7", "operator": "SCL Health", "phone": "+1 406 233 2600", "website": "https://www.sclhealth.org/locations/holy-rosary-healthcare/", "wikidata": "Q14704560", "wikipedia": "en:Holy Rosary Hospital"}}, {"name": "Prairie Community Hospital", "latitude": 46.7911059, "longitude": -105.3155315, "source": "osm", "_tags": {"addr:city": "Terry", "addr:housenumber": "312", "addr:postcode": "59349", "addr:state": "MT", "addr:street": "Adams Avenue", "amenity": "hospital", "emergency": "yes", "gnis:feature_id": "1715784", "healthcare": "hospital", "name": "Prairie Community Hospital", "opening_hours": "24/7", "phone": "+1 406 635 5511"}}, {"name": "", "latitude": 46.4059765, "longitude": -105.8290645, "source": "osm", "_tags": {"amenity": "hospital", "healthcare": "hospital"}}]