[{"name": "Virginia Mason Memorial", "latitude": 46.5936064, "longitude": -120.5467663, "source": "osm", "_tags": {"addr:city": "Yakima", "addr:housenumber": "2811", "addr:postcode": "98902", "addr:state": "WA", "addr:street": "Tieton Drive", "amenity": "hospital", "emergency": "yes", "healthcare": "hospital", "name": "Virginia Mason Memorial", "old_name": "Yakima Valley Memorial Hospital", "opening_hours": "24/7", "operator": "Virginia Mason", "phone": "+1-509-575-8000", "website": "https://www.yakimamemorial.org/", "wikidata": "Q8047104", "wikipedia": "en:Yakima Valley Memorial Hospital"}}, {"name": "Providence Hood River Memorial Hospital", "latitude": 45.7048436, "longitude": -121.5234505, "source": "osm", "_tags": {"addr:city": "Hood River", "addr:housenumber": "810", "addr:postcode": "97031", "addr:street": "12th Street", "amenity": "hospital", "emergency": "yes", "gnis:feature_id": "1166983", "healthcare": "hospital", "name": "Providence Hood River Memorial Hospital", "opening_hours": "24/7", "operator": "Providence Health & Services", "operator:wikidata": "Q7252430", "operator:wikipedia": "en:Providence Health & Services", "phone": "+1 541 386 3911", "website": "https://oregon.providence.org/location-directory/p/providence-hood-river-memorial-hospital/"}}, {"name": "Mid Columbia Medical Center", "latitude": 45.5873483, "longitude": -121.1637717, "source": "osm", "_tags": {"addr:city": "The Dalles", "addr:housenumber": "1700", "addr:postcode": "97058", "addr:state": "OR", "addr:street": "East 19th Street", "amenity": "hospital", "emergency": "yes", "gnis:feature_id": "1162071", "healthcare": "hospital", "name": "Mid Columbia Medical Center", "opening_hours": "24/7", "phone": "+1 541 296 1111", "website": "https://www.mcmc.net/", "wikidata": "Q6840680"}}, {"name": "Skyline Hospital", "latitude": 45.7223712, "longitude": -121.4712225, "source": "osm", "_tags": {"addr:city": "White Salmon", "addr:housenumber": "211", "addr:postcode": "98672", "addr:street": "Skyline Drive", "amenity": "hospital", "emergency": "yes", "healthcare": "hospital", "name": "Skyline Hospital", "opening_hours": "24/7", "phone": "+1-509-493-1101", "website": "http://www.skylinehospital.com/"}}, {"name": "Klickitat Valley Hospital", "latitude": 45.8199787, "longitude": -120.8110097, "source": "osm", "_tags": {"addr:city": "Goldendale", "addr:housenumber": "310", "addr:postcode": "98620", "addr:street": "South Roosevelt Avenue", "amenity": "hospital", "emergency": "yes", "gnis:feature_id": "1514236", "healthcare": "hospital", "name": "Klickitat Valley Hospital", "opening_hours": "24/7", "operator": "Klickitat Valley Health", "phone": "+1-509-773-4022", "website": "https://kvhealth.net/hospital.html"}}, {"name": "Kittitas Valley Community Hospital", "latitude": 46.9873738, "longitude": -120.5380557, "source": "osm", "_tags": {"addr:city": "Ellensburg", "addr:housenumber": "603", "addr:postcode": "98926", "addr:street": "South Chestnut Street", "amenity": "hospital", "emergency": "yes", "healthcare": "hospital", "name": "Kittitas Valley Community Hospital", "opening_hours": "24/7", "operator": "Kittitas Valley Healthcare", "phone": "+1-509-962-9841", "website": "https://www.kvhealthcare.org/"}}, {"name": "Yakima Regional Medical & Cardiac Center", "latitude": 46.5967003, "longitude": -120.5214584, "source": "osm", "_tags": {"addr:city": "Yakima", "addr:housenumber": "110", "addr:postcode": "98902", "addr:street": "South 9th Avenue", "amenity": "hospital", "beds": "214", "emergency": "yes", "healthcare": "hospital", "name": "Yakima Regional Medical & Cardiac Center", "old_name": "St. Elizabeth Medical Center", "opening_hours": "24/7", "phone": "+1-509-575-5000", "website": "http://www.yakimaregional.com/", "wikidata": "Q20047292", "wikipedia": "en:Yakima Regional Medical & Cardiac Center"}}, {"name": "Toppenish Community Hospital", "latitude": 46.3707616, "longitude": -120.3168594, "source": "osm", "_tags": {"addr:city": "Toppenish", "addr:housenumber": "502", "addr:postcode": "98948", "addr:street": "West 4th Avenue", "amenity": "hospital", "emergency": "yes", "healthcare": "hospital", "name": "Toppenish Community Hospital", "opening_hours": "24/7", "phone": "+1-509-865-3105", "website": "http://www.toppenishhospital.com/"}}, {"name": "Adventist Health Medical Group - Hoodland", "latitude": 45.3464642, "longitude": -121.9639218, "source": "osm", "_tags": {"addr:city": "Welches", "addr:housenumber": "24461", "addr:postcode": "97067", "addr:state": "OR", "addr:street": "East Welches Road", "amenity": "hospital", "building": "yes", "building:levels": "1", "healthcare": "hospital", "name": "Adventist Health Medical Group - Hoodland", "operator": "Adventist Health", "operator:wikidata": "Q4686452", "phone": "(503) 622-3126", "website": "https://adventisthealth.org"}}, {"name": "DaVita Dialysis", "latitude": 46.4051458, "longitude": -120.2752031, "source": "osm", "_tags": {"addr:city": "Zillah", "addr:housenumber": "823", "addr:postcode": "98953", "addr:state": "WA", "addr:street": "Zillah West Road", "amenity": "hospital", "building": "yes", "healthcare": "hospital", "healthcare:speciality": "dialysis", "name": "DaVita Dialysis"}}]