[{"name": "Bozeman Health", "latitude": 45.2603805, "longitude": -111.3010582, "source": "osm", "_tags": {"amenity": "hospital", "emergency": "yes", "healthcare": "hospital", "name": "Bozeman Health"}}, {"name": "Bozeman Deaconess Hospital", "latitude": 45.6695958, "longitude": -111.0209494, "source": "osm", "_tags": {"addr:city": "Bozeman", "addr:housenumber": "915", "addr:postcode": "59715", "addr:state": "MT", "addr:street": "Highland Boulevard", "amenity": "hospital", "check_date": "2024-06-19", "emergency": "yes", "gnis:feature_id": "1737987", "healthcare": "hospital", "name": "Bozeman Deaconess Hospital", "note": "Define non-offset Hospital land use for MapBox base map.", "opening_hours": "24/7", "operator": "Bozeman Health", "phone": "+1 406 414 5000", "website": "https://www.bozemanhealth.org/"}}, {"name": "Big Sky Medical Center", "latitude": 45.2604248, "longitude": -111.3005267, "source": "osm", "_tags": {"addr:city": "Big Sky", "addr:housenumber": "334", "addr:postcode": "59716", "addr:state": "MT", "addr:street": "Town Center Avenue", "amenity": "hospital", "emergency": "yes", "healthcare": "hospital", "name": "Big Sky Medical Center", "opening_hours": "24/7", "operator": "Bozeman Health", "phone": "+1 406 995 6995", "website": "https://www.bigskymedicalcenter.org/"}}, {"name": "Shodair Children's Hospital", "latitude": 46.5817842, "longitude": -111.9894329, "source": "osm", "_tags": {"addr:city": "Helena", "addr:housenumber": "2755", "addr:postcode": "59604", "addr:state": "MT", "addr:street": "Colonial Drive", "amenity": "hospital", "emergency": "no", "healthcare": "hospital", "healthcare:speciality": "psychiatry", "name": "Shodair Children's Hospital", "phone": "+1 406 444 7500", "website": "https://shodair.org/", "wikidata": "Q30280653"}}, {"name": "Saint Peter's Health", "latitude": 46.5828294, "longitude": -111.9966817, "source": "osm", "_tags": {"addr:city": "Helena", "addr:housenumber": "2475", "addr:postcode": "59601", "addr:state": "MT", "addr:street": "East Broadway Street", "amenity": "hospital", "contact:phone": "+1-406-457-4180", "emergency": "yes", "gnis:feature_id": "1789572", "healthcare": "hospital", "name": "Saint Peter's Health", "opening_hours": "24/7", "url": "https://www.stpetes.org/", "website": "https://www.stpetes.org/", "wikidata": "Q50037076"}}, {"name": "Livingston HealthCare", "latitude": 45.6751396, "longitude": -110.5261414, "source": "osm", "_tags": {"addr:city": "Livingston", "addr:housenumber": "320", "addr:postcode": "59047", "addr:state": "MT", "addr:street": "Alpenglow Lane", "amenity": "hospital", "emergency": "yes", "name": "Livingston HealthCare", "opening_hours": "24/7", "phone": "+1 406 222 3541", "website": "https://www.livingstonhealthcare.org/"}}, {"name": "Madison Valley Medical Center", "latitude": 45.3516773, "longitude": -111.7320146, "source": "osm", "_tags": {"addr:city": "Ennis", "addr:housenumber": "305", "addr:postcode": "59729", "addr:state": "MT", "addr:street": "North Main Street", "amenity": "hospital", "emergency": "yes", "gnis:feature_id": "793709", "healthcare": "hospital", "name": "Madison Valley Medical Center", "opening_hours": "24/7", "phone": "+1 406 682 6862", "website": "https://www.mvmedcenter.org/"}}, {"name": "Broadwater Health Center", "latitude": 46.3218215, "longitude": -111.5163079, "source": "osm", "_tags": {"addr:city": "Townsend", "addr:housenumber": "110", "addr:postcode": "59644", "addr:state": "MT", "addr:street": "North Oak Street", "amenity": "hospital", "emergency": "yes", "gnis:feature_id": "1762250", "healthcare": "hospital", "name": "Broadwater Health Center", "opening_hours": "24/7", "phone": "+1 406 266 3186", "website": "https://www.broadwaterhealthcenter.com/"}}, {"name": "Mountainview Medical Center", "latitude": 46.5474429, "longitude": -110.9044284, "source": "osm", "_tags": {"addr:city": "White Sulphur Springs", "addr:housenumber": "16", "addr:postcode": "59644", "addr:state": "MT", "addr:street": "West Main Street", "amenity": "hospital", "emergency": "yes", "gnis:feature_id": "1762852", "healthcare": "hospital", "name": "Mountainview Medical Center", "opening_hours": "24/7", "phone": "+1 406 547 3321", "website": "https://www.mvmc.org/"}}, {"name": "Veterans Administration Medical Center", "latitude": 46.618223, "longitude": -112.1019258, "source": "osm", "_tags": {"amenity": "hospital", "healthcare": "hospital", "healthcare:for": "veterans", "name": "Veterans Administration Medical Center", "operator": "Veterans Health Administration", "operator:short": "VA", "operator:wikidata": "Q6580225", "operator:wikipedia": "en:Veterans Health Administration", "short_name": "VA"}}, {"name": "Billings Clinic - Bozeman", "latitude": 45.7210883, "longitude": -111.0779969, "source": "osm", "_tags": {"amenity": "hospital", "healthcare": "hospital", "name": "Billings Clinic - Bozeman"}}, {"name": "", "latitude": 45.7651185, "longitude": -111.1815433, "source": "osm", "_tags": {"amenity": "hospital", "healthcare": "hospital"}}]