[{"name": "shiplu factory", "latitude": 47.0343645, "longitude": -115.1523595, "source": "osm", "_tags": {"amenity": "hospital", "ele": "1550", "gnis:feature_id": "399349", "healthcare": "hospital", "name": "shiplu factory", "note": "This is not a restaurant! It is a ghost town with few traces of its existence left."}}, {"name": "Logan Health Medical Center", "latitude": 48.2146042, "longitude": -114.3233174, "source": "osm", "_tags": {"amenity": "hospital", "emergency": "yes", "healthcare": "hospital", "name": "Logan Health Medical Center", "old_name": "Kalispell Regional Medical Center", "opening_hours": "24/7", "operator": "Logan Healthcare", "phone": "+1 406 752 5111", "website": "https://www.logan.org/health/locations/logan-health-medical-center", "wikidata": "Q14704640", "wikipedia": "en:Logan Health"}}, {"name": "Shoshone Medical Center", "latitude": 47.5469964, "longitude": -116.1306978, "source": "osm", "_tags": {"addr:city": "Kellogg", "addr:housenumber": "25", "addr:postcode": "83837", "addr:state": "ID", "addr:street": "Jacobs Gulch Road", "amenity": "hospital", "emergency": "yes", "healthcare": "hospital", "name": "Shoshone Medical Center", "opening_hours": "24/7", "phone": "+1 208 784 1221", "website": "https://www.shoshonehealth.com/"}}, {"name": "Mineral Community Hospital", "latitude": 47.1852519, "longitude": -114.8762245, "source": "osm", "_tags": {"addr:city": "Superior", "addr:housenumber": "1208", "addr:postcode": "59872", "addr:state": "MT", "addr:street": "6th Avenue East", "amenity": "hospital", "emergency": "yes", "gnis:feature_id": "1781676", "healthcare": "hospital", "name": "Mineral Community Hospital", "opening_hours": "24/7", "phone": "+1 406 822 4841", "website": "https://mineralcommunityhospital.com/"}}, {"name": "Clark Fork Valley Hospital", "latitude": 47.4682376, "longitude": -114.8886055, "source": "osm", "_tags": {"addr:city": "Plains", "addr:housenumber": "10", "addr:postcode": "59859", "addr:state": "MT", "addr:street": "Kruger Road", "amenity": "hospital", "beds": "16", "emergency": "yes", "gnis:feature_id": "1780888", "healthcare": "hospital", "name": "Clark Fork Valley Hospital", "opening_hours": "24/7", "phone": "+1 406 826 4800", "website": "https://www.cfvh.org/", "wikidata": "Q5127227"}}, {"name": "North Valley Hospital", "latitude": 48.3805984, "longitude": -114.3317168, "source": "osm", "_tags": {"addr:city": "Whitefish", "addr:housenumber": "1600", "addr:postcode": "59937", "addr:state": "MT", "addr:street": "Hospital Way", "amenity": "hospital", "emergency": "yes", "gnis:feature_id": "1795877", "healthcare": "hospital", "name": "North Valley Hospital", "opening_hours": "24/7", "operator": "Kalispell Regional Healthcare", "phone": "+1 406-863-3500", "website": "https://www.krh.org/nvh/", "wikidata": "Q17039973"}}, {"name": "Cabinet Peaks Medical Center", "latitude": 48.392362, "longitude": -115.5472866, "source": "osm", "_tags": {"addr:city": "Libby", "addr:housenumber": "209", "addr:postcode": "59923", "addr:street": "Health Park Drive", "amenity": "hospital", "emergency": "yes", "healthcare": "hospital", "name": "Cabinet Peaks Medical Center", "opening_hours": "24/7", "phone": "+1 406 283 7000", "type": "multipolygon", "website": "https://www.cabinetpeaks.org/"}}]