[{"name": "Chi Saint Alexius Health Devils Lake", "latitude": 48.116252, "longitude": -98.8497287, "source": "osm", "_tags": {"addr:city": "Devils Lake", "addr:housenumber": "1031", "addr:postcode": "58301", "addr:street": "7th Street Northeast", "amenity": "hospital", "beds": "25", "emergency": "yes", "healthcare": "hospital", "name": "Chi Saint Alexius Health Devils Lake", "opening_hours": "24/7", "operator": "Catholic Health Initiatives", "phone": "+1 701 662 2131", "website": "https://www.chistalexiushealth.org/devilslake"}}, {"name": "Heart of America Medical Center", "latitude": 48.3637214, "longitude": -99.9977655, "source": "osm", "_tags": {"addr:city": "Rugby", "addr:housenumber": "800", "addr:postcode": "58368", "addr:street": "South Main Avenue", "amenity": "hospital", "emergency": "yes", "healthcare": "hospital", "name": "Heart of America Medical Center", "phone": "+1 701 776 5043", "website": "https://www.hamc.com/"}}, {"name": "Quentin N. Burdick Memorial Health Care Facility", "latitude": 48.8433134, "longitude": -99.7486523, "source": "osm", "_tags": {"addr:city": "Belcourt", "addr:postcode": "58316", "amenity": "hospital", "emergency": "yes", "healthcare": "hospital", "name": "Quentin N. Burdick Memorial Health Care Facility", "opening_hours": "24/7", "operator": "Indian Health Service", "phone": "+1 701 477 6111", "website": "https://www.ihs.gov/greatplains/healthcarefacilities/turtlemountain/"}}, {"name": "Towner County Medical Center", "latitude": 48.4930825, "longitude": -99.2112704, "source": "osm", "_tags": {"addr:city": "Cando", "addr:postcode": "58324", "addr:street": "US 281", "amenity": "hospital", "beds": "20", "emergency": "yes", "healthcare": "hospital", "name": "Towner County Medical Center", "opening_hours": "24/7", "phone": "+1 701 968 2500", "website": "https://tcmedcenter.org/"}}, {"name": "Saint Aloisius Medical Center", "latitude": 47.7665405, "longitude": -99.9318338, "source": "osm", "_tags": {"addr:city": "Harvey", "addr:housenumber": "325", "addr:postcode": "58341", "addr:street": "East Brewster Street", "amenity": "hospital", "beds": "25", "emergency": "yes", "healthcare": "hospital", "name": "Saint Aloisius Medical Center", "opening_hours": "24/7", "operator": "SMP Health System", "phone": "+1 701 324 4651", "website": "https://www.staloisius.com/"}}, {"name": "Presentation Medical Center", "latitude": 48.8625114, "longitude": -99.6155213, "source": "osm", "_tags": {"addr:city": "Rolla", "addr:housenumber": "213", "addr:postcode": "58367", "addr:street": "2nd Avenue Northeast", "amenity": "hospital", "beds": "25", "emergency": "yes", "healthcare": "hospital", "name": "Presentation Medical Center", "opening_hours": "24/7", "operator": "SMP Health System", "phone": "+1 701 477 3161", "website": "https://pmc-rolla.com/"}}, {"name": "CHI St. Alexius Health Carrington", "latitude": 47.4540906, "longitude": -99.123361, "source": "osm", "_tags": {"addr:city": "Carrington", "addr:housenumber": "800", "addr:postcode": "58421", "addr:street": "4th Street North", "amenity": "hospital", "beds": "25", "emergency": "yes", "healthcare": "hospital", "name": "CHI St. Alexius Health Carrington", "old_name": "Carrington Health Center", "opening_hours": "24/7", "operator": "Catholic Health Initiatives", "operator:short": "CHI", "operator:wikidata": "Q5053168", "phone": "+1 701 652 2515", "website": "https://www.chistalexiushealth.org/locations/carrington"}}, {"name": "Cavalier County Memorial Hospital", "latitude": 48.7617554, "longitude": -98.3659266, "source": "osm", "_tags": {"addr:city": "Langdon", "addr:housenumber": "909", "addr:postcode": "58249", "addr:street": "2nd Street", "amenity": "hospital", "beds": "20", "emergency": "yes", "healthcare": "hospital", "name": "Cavalier County Memorial Hospital", "opening_hours": "24/7", "phone": "+1 701 256 6100", "short_name": "CCMH", "website": "https://www.cavaliercountyhospital.com/"}}]