[{"name": "Benefis Missouri River Medical Center", "latitude": 47.8204671, "longitude": -110.6722513, "source": "osm", "_tags": {"addr:city": "Fort Benton", "addr:country": "US", "addr:housenumber": "1501", "addr:postcode": "59442", "addr:state": "MT", "addr:street": "Saint Charles Street", "amenity": "hospital", "building": "hospital", "emergency": "yes", "layer": "2", "name": "Benefis Missouri River Medical Center", "operator": "Benefis Health System", "website": "https://www.benefis.org/missouri-river-medical-center/benefis-missouri-river-medical-center"}}, {"name": "Benefis East", "latitude": 47.4907324, "longitude": -111.261775, "source": "osm", "_tags": {"addr:city": "Great Falls", "addr:housenumber": "1101", "addr:postcode": "59405", "addr:state": "MT", "addr:street": "26th Street South", "amenity": "hospital", "emergency": "yes", "gnis:feature_id": "770500", "healthcare": "hospital", "name": "Benefis East", "opening_hours": "24/7", "operator": "Benefis Health System", "phone": "+1 406 455 5000", "website": "https://www.benefis.org/"}}, {"name": "Benefis West", "latitude": 47.4890075, "longitude": -111.2982213, "source": "osm", "_tags": {"addr:city": "Great Falls", "addr:housenumber": "500", "addr:postcode": "59405", "addr:state": "MT", "addr:street": "15th Avenue South", "amenity": "hospital", "emergency": "no", "gnis:feature_id": "1761717", "healthcare": "hospital", "name": "Benefis West", "operator": "Benefis Health System", "phone": "+1 406 455 5000", "website": "https://www.benefis.org/"}}, {"name": "Liberty Medical Center", "latitude": 48.5100138, "longitude": -110.9718045, "source": "osm", "_tags": {"addr:city": "Chester", "addr:housenumber": "315", "addr:postcode": "59522", "addr:state": "MT", "addr:street": "West Madison Avenue", "amenity": "hospital", "emergency": "yes", "gnis:feature_id": "1748575", "healthcare": "hospital", "name": "Liberty Medical Center", "opening_hours": "24/7", "phone": "+1 406 759 5181", "website": "https://www.libertymedicalcenter.org/"}}, {"name": "Marias Medical Center", "latitude": 48.5096587, "longitude": -111.8495868, "source": "osm", "_tags": {"addr:city": "Shelby", "addr:housenumber": "640", "addr:postcode": "59474", "addr:state": "MT", "addr:street": "Park Avenue", "amenity": "hospital", "emergency": "yes", "gnis:feature_id": "1750050", "healthcare": "hospital", "name": "Marias Medical Center", "old_name": "Toole County Hospital", "opening_hours": "24/7", "phone": "+1 406 434 3200", "website": "http://mmcmt.org/"}}, {"name": "Pondera Medical Center", "latitude": 48.1748286, "longitude": -111.9583803, "source": "osm", "_tags": {"addr:city": "Conrad", "addr:housenumber": "805", "addr:postcode": "59425", "addr:state": "MT", "addr:street": "Sunset Boulevard", "amenity": "hospital", "emergency": "yes", "gnis:feature_id": "1748765", "name": "Pondera Medical Center", "opening_hours": "24/7", "phone": "+1 406 271 3211", "website": "https://www.ponderamedical.org/"}}, {"name": "Great Falls Clinic Hospital", "latitude": 47.4882987, "longitude": -111.2545851, "source": "osm", "_tags": {"addr:city": "Great Falls", "addr:housenumber": "3000", "addr:postcode": "59405", "addr:state": "MT", "addr:street": "15th Avenue South", "amenity": "hospital", "beds": "19", "emergency": "yes", "healthcare": "hospital", "name": "Great Falls Clinic Hospital", "opening_hours": "24/7", "operator": "Great Falls Clinic", "phone": "+1 406 216 8000", "website": "http://www.gfclinic.com/location/great-falls-clinic-hospital/"}}, {"name": "Columbus Center", "latitude": 47.5079482, "longitude": -111.2790082, "source": "osm", "_tags": {"amenity": "hospital", "check_date": "2025-04-08", "healthcare": "hospital", "name": "Columbus Center"}}, {"name": "Benefis Missouri River Medical Center", "latitude": 47.8204049, "longitude": -110.671977, "source": "osm", "_tags": {"amenity": "hospital", "name": "Benefis Missouri River Medical Center", "operator": "Benefis Health Group"}}]