[{"name": "Ferry County Memorial Hospital", "latitude": 48.6530505, "longitude": -118.7313828, "source": "osm", "_tags": {"addr:city": "Republic", "addr:housenumber": "36", "addr:postcode": "99166", "addr:street": "North Klondike Road", "amenity": "hospital", "beds": "25", "emergency": "yes", "healthcare": "hospital", "name": "Ferry County Memorial Hospital", "opening_hours": "24/7", "phone": "+1-509-775-3333", "website": "http://www.fcphd.org/", "wikidata": "Q50039175"}}, {"name": "North Valley Hospital", "latitude": 48.7068483, "longitude": -119.4387247, "source": "osm", "_tags": {"addr:city": "Tonasket", "addr:housenumber": "203", "addr:postcode": "98855", "addr:state": "WA", "addr:street": "South Western Avenue", "amenity": "hospital", "emergency": "yes", "healthcare": "hospital", "name": "North Valley Hospital", "opening_hours": "24/7", "phone": "+1-509-486-2151", "website": "https://www.nvhospital.org/", "wikidata": "Q7057100"}}, {"name": "Mid Valley Hospital", "latitude": 48.3965876, "longitude": -119.5467103, "source": "osm", "_tags": {"addr:city": "Omak", "addr:housenumber": "810", "addr:postcode": "98841", "addr:street": "Jasmine Street", "amenity": "hospital", "emergency": "yes", "gnis:feature_id": "1529140", "healthcare": "hospital", "name": "Mid Valley Hospital", "opening_hours": "24/7", "phone": "+1-509-826-1760", "website": "https://www.mvhealth.org/", "wikidata": "Q6840830", "wikipedia": "en:Mid-Valley Hospital"}}, {"name": "Three Rivers Hospital", "latitude": 48.1062296, "longitude": -119.7825396, "source": "osm", "_tags": {"addr:city": "Brewster", "addr:housenumber": "507", "addr:postcode": "98812", "addr:street": "Hospital Way", "amenity": "hospital", "emergency": "yes", "gnis:feature_id": "1530205", "name": "Three Rivers Hospital", "old_name": "Okanogan Douglas County Hospital", "opening_hours": "24/7", "phone": "+1-509-689-2517", "website": "https://threerivershospital.net/"}}, {"name": "Quincy Valley Medical Center", "latitude": 47.2312462, "longitude": -119.8681, "source": "osm", "_tags": {"addr:city": "Quincy", "addr:housenumber": "908", "addr:postcode": "98848", "addr:street": "10th Avenue Southwest", "amenity": "hospital", "emergency": "yes", "gnis:feature_id": "1507680", "healthcare": "hospital", "name": "Quincy Valley Medical Center", "opening_hours": "24/7", "phone": "+1-509-787-3531", "website": "https://www.quincyhospital.org/"}}, {"name": "Columbia Basin Hospital", "latitude": 47.3144202, "longitude": -119.54616, "source": "osm", "_tags": {"addr:city": "Ephrata", "addr:housenumber": "200", "addr:postcode": "98823", "addr:street": "Nat Washington Way", "amenity": "hospital", "emergency": "yes", "gnis:feature_id": "1514524", "healthcare": "hospital", "name": "Columbia Basin Hospital", "opening_hours": "24/7", "phone": "+1-509-754-4631", "website": "https://www.columbiabasinhospital.org/"}}, {"name": "Coulee Medical Center", "latitude": 47.9422824, "longitude": -119.0077311, "source": "osm", "_tags": {"addr:city": "Grand Coulee", "addr:housenumber": "411", "addr:postcode": "99133", "addr:street": "Fortuyn Boulevard", "amenity": "hospital", "emergency": "yes", "healthcare": "hospital", "name": "Coulee Medical Center", "opening_hours": "24/7", "phone": "+1-509-633-1753", "website": "https://cmccares.org/"}}, {"name": "East Adams Rural Healthcare", "latitude": 47.1212611, "longitude": -118.3718336, "source": "osm", "_tags": {"addr:city": "Ritzville", "addr:housenumber": "903", "addr:postcode": "99169", "addr:street": "South Adams Street", "amenity": "hospital", "beds": "20", "emergency": "yes", "healthcare": "hospital", "name": "East Adams Rural Healthcare", "old_name": "Memorial Hospital", "opening_hours": "24/7", "phone": "+1-509-659-1200", "website": "https://www.earh.org/", "wikidata": "Q5327633"}}, {"name": "Odessa Memorial Healthcare Center", "latitude": 47.3311445, "longitude": -118.6820707, "source": "osm", "_tags": {"addr:city": "Odessa", "addr:housenumber": "502", "addr:postcode": "99159", "addr:street": "East Amende Street", "amenity": "hospital", "beds": "25", "emergency": "yes", "name": "Odessa Memorial Healthcare Center", "opening_hours": "24/7", "phone": "+1-509-982-2611", "website": "https://www.omhc.org/", "wikidata": "Q50039306"}}, {"name": "Samaritan Hospital", "latitude": 47.1285321, "longitude": -119.2649059, "source": "osm", "_tags": {"addr:city": "Moses Lake", "addr:housenumber": "801", "addr:postcode": "98837", "addr:street": "East Wheeler Road", "amenity": "hospital", "beds": "50", "emergency": "yes", "healthcare": "hospital", "name": "Samaritan Hospital", "opening_hours": "24/7", "operator": "Samaritan Healthcare", "phone": "+1-509-765-5606", "website": "https://www.samaritanhealthcare.com/"}}, {"name": "", "latitude": 47.1120246, "longitude": -119.2606206, "source": "osm", "_tags": {"amenity": "hospital", "healthcare": "hospital"}}, {"name": "Lake Chelan Health Hospital", "latitude": 47.838155, "longitude": -119.9889893, "source": "osm", "_tags": {"addr:city": "Chelan", "addr:housenumber": "110", "addr:postcode": "98816", "addr:state": "WA", "addr:street": "South Apple Blossom Drive", "amenity": "hospital", "name": "Lake Chelan Health Hospital", "website": "https://lakechelanhealth.org/hospital/"}}]