[{"name": "Poplar Community Hospital", "latitude": 48.1153669, "longitude": -105.1924801, "source": "osm", "_tags": {"addr:city": "Poplar", "addr:housenumber": "211", "addr:postcode": "59255", "addr:state": "MT", "addr:street": "H Street", "amenity": "hospital", "beds": "22", "emergency": "yes", "healthcare": "hospital", "name": "Poplar Community Hospital", "opening_hours": "24/7", "operator": "Northeast Montana Health Services", "phone": "+1 406 768 6100", "website": "https://www.nemhs.net/"}}, {"name": "Glendive Medical Center", "latitude": 47.1175992, "longitude": -104.7040612, "source": "osm", "_tags": {"addr:city": "Glendive", "addr:housenumber": "202", "addr:postcode": "59330", "addr:state": "MT", "addr:street": "Prospect Drive", "amenity": "hospital", "beds": "25", "emergency": "yes", "healthcare": "hospital", "name": "Glendive Medical Center", "opening_hours": "24/7", "phone": "+1 406 345 3306", "website": "https://www.gmc.org/"}}, {"name": "Daniels Memorial Healthcare Center", "latitude": 48.7879542, "longitude": -105.4182803, "source": "osm", "_tags": {"addr:city": "Scobey", "addr:housenumber": "105", "addr:postcode": "59263", "addr:state": "MT", "addr:street": "5th Avenue East", "amenity": "hospital", "beds": "24", "emergency": "yes", "gnis:feature_id": "1637541", "healthcare": "hospital", "name": "Daniels Memorial Healthcare Center", "opening_hours": "24/7", "phone": "+1 406 487 2296", "website": "https://www.danielsmemorialhealthcare.org/"}}, {"name": "Sheridan Memorial Hospital", "latitude": 48.7790085, "longitude": -104.5631867, "source": "osm", "_tags": {"addr:city": "Plentywood", "addr:housenumber": "440", "addr:postcode": "59254", "addr:state": "MT", "addr:street": "West Laurel Avenue", "amenity": "hospital", "emergency": "yes", "gnis:feature_id": "1677416", "healthcare": "hospital", "name": "Sheridan Memorial Hospital", "opening_hours": "24/7", "phone": "+1 406 765 3700", "website": "https://www.sheridanmemorial.net/"}}, {"name": "Trinity Hospital", "latitude": 48.1014426, "longitude": -105.6418477, "source": "osm", "_tags": {"addr:city": "Wolf Point", "addr:housenumber": "315", "addr:postcode": "59201", "addr:state": "MT", "addr:street": "Knapp Street", "amenity": "hospital", "emergency": "yes", "gnis:feature_id": "1669222", "healthcare": "hospital", "name": "Trinity Hospital", "opening_hours": "24/7", "operator": "Northeast Montana Health Services", "phone": "+1 406 653 6500", "website": "https://www.nemhs.net/"}}, {"name": "Roosevelt Medical Center", "latitude": 48.1514622, "longitude": -104.5146435, "source": "osm", "_tags": {"addr:city": "Culbertson", "addr:housenumber": "818", "addr:postcode": "59218", "addr:state": "MT", "addr:street": "2nd Avenue East", "amenity": "hospital", "emergency": "yes", "gnis:feature_id": "1669225", "healthcare": "hospital", "name": "Roosevelt Medical Center", "opening_hours": "24/7", "phone": "+1 406 787 6401", "website": "http://www.rooseveltmedical.org/"}}, {"name": "McCone County Health Center", "latitude": 47.4186648, "longitude": -105.5807904, "source": "osm", "_tags": {"addr:city": "Circle", "addr:housenumber": "605", "addr:postcode": "59215", "addr:state": "MT", "addr:street": "Sullivan Avenue", "amenity": "hospital", "emergency": "yes", "healthcare": "hospital", "name": "McCone County Health Center", "opening_hours": "24/7", "phone": "+1 406 485 3381", "website": "https://www.mcconehealth.org/"}}]