[{"name": "Saint Luke Community Hospital", "latitude": 47.5284651, "longitude": -114.1062628, "source": "osm", "_tags": {"addr:city": "Ronan", "addr:housenumber": "107", "addr:postcode": "59864", "addr:state": "MT", "addr:street": "6th Avenue Southwest", "amenity": "hospital", "emergency": "yes", "gnis:feature_id": "1796996", "healthcare": "hospital", "name": "Saint Luke Community Hospital", "opening_hours": "24/7", "operator": "Saint Luke Community Healthcare", "phone": "+1 406 676 4441", "website": "https://www.stlukehealthcare.org/"}}, {"name": "Providence Saint Joseph Medical Center", "latitude": 47.6823959, "longitude": -114.1630422, "source": "osm", "_tags": {"addr:city": "Polson", "addr:housenumber": "6", "addr:postcode": "59860", "addr:state": "MT", "addr:street": "13th Avenue East", "amenity": "hospital", "emergency": "yes", "gnis:feature_id": "1796991", "healthcare": "hospital", "name": "Providence Saint Joseph Medical Center", "opening_hours": "24/7", "operator": "Providence Health & Services", "operator:wikidata": "Q7252430", "operator:wikipedia": "en:Providence Health & Services", "phone": "+1 406 883 5680", "website": "https://montana.providence.org/hospitals/st-joseph/"}}, {"name": "Benefis Teton Medical Center", "latitude": 47.8143255, "longitude": -112.1927634, "source": "osm", "_tags": {"addr:city": "Choteau", "addr:housenumber": "915", "addr:postcode": "59422", "addr:state": "MT", "addr:street": "4th Street Northwest", "amenity": "hospital", "emergency": "yes", "gnis:feature_id": "1762011", "healthcare": "hospital", "name": "Benefis Teton Medical Center", "opening_hours": "24/7", "operator": "Benefis Health System", "phone": "+1 406 466 5763", "website": "http://tetonmedicalcenter.net/"}}, {"name": "Northern Rockies Medical Center", "latitude": 48.6282045, "longitude": -112.3268082, "source": "osm", "_tags": {"addr:city": "Cut Bank", "addr:housenumber": "802", "addr:postcode": "59427", "addr:state": "MT", "addr:street": "2nd Street Southeast", "amenity": "hospital", "emergency": "yes", "gnis:feature_id": "1750554", "healthcare": "hospital", "name": "Northern Rockies Medical Center", "opening_hours": "24/7", "phone": "+1 406 873 2251", "website": "http://nrmcinc.org/"}}, {"name": "Blackfeet Community Hospital", "latitude": 48.5654815, "longitude": -113.0192477, "source": "osm", "_tags": {"addr:city": "Browning", "addr:postcode": "59417", "addr:state": "MT", "amenity": "hospital", "emergency": "yes", "gnis:feature_id": "1750548", "healthcare": "hospital", "name": "Blackfeet Community Hospital", "opening_hours": "24/7", "operator": "Indian Health Service", "phone": "+1 406 338 6100", "website": "https://www.ihs.gov/billings/healthcarefacilities/blackfeet/"}}]