[{"name": "Sidney Health Center", "latitude": 47.7162236, "longitude": -104.1729088, "source": "osm", "_tags": {"addr:city": "Sidney", "addr:housenumber": "216", "addr:postcode": "59270", "addr:state": "MT", "addr:street": "14th Avenue Southwest", "amenity": "hospital", "emergency": "yes", "healthcare": "hospital", "name": "Sidney Health Center", "opening_hours": "24/7", "operator": "Sidney Health Center", "phone": "+1 406 488 2100", "website": "https://www.sidneyhealth.org/", "wheelchair": "yes"}}, {"name": "CHI St. Alexius Health - Williston Medical Center", "latitude": 48.1560566, "longitude": -103.6460125, "source": "osm", "_tags": {"addr:city": "Williston", "addr:housenumber": "1301", "addr:postcode": "58801", "addr:street": "15th Avenue West", "amenity": "hospital", "emergency": "yes", "healthcare": "hospital", "name": "CHI St. Alexius Health - Williston Medical Center", "old_name": "Mercy Medical Center", "phone": "+1 701 774 7400", "website": "http://www.mercy-williston.org/"}}, {"name": "Mountrail County Medical Center", "latitude": 48.3114102, "longitude": -102.3800925, "source": "osm", "_tags": {"addr:city": "Stanley", "addr:housenumber": "615", "addr:postcode": "58784", "addr:street": "6th Street Southeast", "amenity": "hospital", "beds": "11", "emergency": "yes", "healthcare": "hospital", "name": "Mountrail County Medical Center", "opening_hours": "24/7", "phone": "+1 701 628 2424", "short_name": "MCHC", "website": "https://www.stanleyhealth.org/"}}, {"name": "Mckenzie County Healthcare Systems", "latitude": 47.806934, "longitude": -103.2823173, "source": "osm", "_tags": {"addr:city": "Watford City", "addr:housenumber": "516", "addr:postcode": "58854", "addr:street": "North Main Street", "amenity": "hospital", "beds": "24", "emergency": "yes", "healthcare": "hospital", "name": "Mckenzie County Healthcare Systems", "opening_hours": "24/7", "phone": "+1 701 842 3000", "website": "https://www.mckenziehealth.com/"}}, {"name": "Saint Luke’s Medical Center", "latitude": 48.9067476, "longitude": -103.2991272, "source": "osm", "_tags": {"addr:city": "Crosby", "addr:housenumber": "702", "addr:postcode": "58730", "addr:street": "1st Street Southwest", "amenity": "hospital", "beds": "15", "emergency": "yes", "healthcare": "hospital", "name": "Saint Luke’s Medical Center", "opening_hours": "24/7", "phone": "+1 701 965 6384", "website": "https://www.dcstlukes.org/"}}, {"name": "Tioga Medical Center", "latitude": 48.4026689, "longitude": -102.934379, "source": "osm", "_tags": {"addr:city": "Tioga", "addr:housenumber": "810", "addr:postcode": "58852", "addr:street": "Welo Street", "amenity": "hospital", "emergency": "yes", "gnis:feature_id": "1034103", "name": "Tioga Medical Center", "phone": "+1 701 664 3305", "website": "https://www.tiogahealth.org/"}}, {"name": "McKenzie County Hospital", "latitude": 47.8036417, "longitude": -103.2707569, "source": "osm", "_tags": {"addr:city": "Watford City", "addr:housenumber": "709", "addr:postcode": "58854", "addr:state": "ND", "addr:street": "4th Avenue Northeast", "amenity": "hospital", "contact:fax": "(701) 842-6248", "contact:phone": "(701) 842-3000", "name": "McKenzie County Hospital", "operator": "McKenzie County Healthcare Systems", "url": "https://www.mckenziehealth.com/"}}]