[{"name": "Sanford Northwest Clinic", "latitude": 48.2589975, "longitude": -101.3185212, "source": "osm", "_tags": {"addr:city": "Minot", "addr:housenumber": "1500 21st Ave NW", "addr:postcode": "58703", "addr:state": "ND", "amenity": "hospital", "healthcare": "hospital", "healthcare:speciality": "general", "name": "Sanford Northwest Clinic", "opening_hours": "Mo-Fr 08:00-17:00", "operator": "Sanford Health", "operator:wikidata": "Q7417625"}}, {"name": "Trinity Hospital - St. Joseph's", "latitude": 48.2317653, "longitude": -101.287197, "source": "osm", "_tags": {"addr:city": "Minot", "addr:housenumber": "407", "addr:postcode": "58702", "addr:street": "3rd Street Southeast", "amenity": "hospital", "emergency": "no", "gnis:feature_id": "1031193", "healthcare": "hospital", "name": "Trinity Hospital - St. Joseph's", "old_name": "Saint Josephs Hospital", "phone": "+1 701 857 5000"}}, {"name": "Trinity Hospital", "latitude": 48.232514, "longitude": -101.2944897, "source": "osm", "_tags": {"addr:city": "Minot", "addr:housenumber": "1", "addr:postcode": "58702", "addr:street": "Burdick Expressway West", "amenity": "hospital", "emergency": "yes", "gnis:feature_id": "1032538", "healthcare": "hospital", "name": "Trinity Hospital", "phone": "+1 701 857 5000", "website": "https://www.trinityhealth.org/"}}, {"name": "Saint Andrews Health Center", "latitude": 48.8290516, "longitude": -100.4499154, "source": "osm", "_tags": {"addr:city": "Bottineau", "addr:housenumber": "316", "addr:postcode": "58318", "addr:state": "ND", "addr:street": "Ohmer Street", "amenity": "hospital", "beds": "25", "emergency": "yes", "healthcare": "hospital", "name": "Saint Andrews Health Center", "opening_hours": "24/7", "operator": "Sisters of Mary of the Presentation Health System", "phone": "+1 701 228 9300", "website": "https://www.standrewshealth.com/"}}, {"name": "CHI Saint Alexius Health Garrison", "latitude": 47.6488434, "longitude": -101.4106288, "source": "osm", "_tags": {"addr:city": "Garrison", "addr:housenumber": "407", "addr:postcode": "58540", "addr:street": "3rd Avenue Southeast", "amenity": "hospital", "beds": "22", "emergency": "yes", "healthcare": "hospital", "name": "CHI Saint Alexius Health Garrison", "old_name": "Garrison Memorial Hospital", "opening_hours": "24/7", "operator": "Catholic Health Initiatives", "phone": "+1 701 463 2275", "website": "https://www.chistalexiushealth.org/garrison"}}, {"name": "CHI Saint Alexius Health Turtle Lake", "latitude": 47.5182546, "longitude": -100.8943585, "source": "osm", "_tags": {"addr:city": "Turtle Lake", "addr:housenumber": "220", "addr:postcode": "58575", "addr:street": "5th Avenue", "amenity": "hospital", "beds": "25", "emergency": "yes", "healthcare": "hospital", "name": "CHI Saint Alexius Health Turtle Lake", "opening_hours": "24/7", "operator": "Catholic Health Initiatives", "phone": "+1 701 448 2331", "website": "https://www.chistalexiushealth.org/turtlelake"}}, {"name": "Trinity Kenmare Community Hospital", "latitude": 48.6742072, "longitude": -102.0845379, "source": "osm", "_tags": {"addr:city": "Kenmare", "addr:housenumber": "317", "addr:postcode": "58746", "addr:street": "1st Avenue Northwest", "amenity": "hospital", "beds": "25", "emergency": "yes", "healthcare": "hospital", "name": "Trinity Kenmare Community Hospital", "opening_hours": "24/7", "operator": "Trinity Health", "phone": "+1 701 385 4296", "website": "https://www.trinityhealth.org/index.php?page=location&detail=25"}}, {"name": "Sakakawea Medical Center", "latitude": 47.2983159, "longitude": -101.6102193, "source": "osm", "_tags": {"addr:city": "Hazen", "addr:housenumber": "510", "addr:postcode": "58545", "addr:street": "8th Avenue Northeast", "amenity": "hospital", "beds": "13", "emergency": "yes", "healthcare": "hospital", "name": "Sakakawea Medical Center", "opening_hours": "24/7", "phone": "+1 701 748 2225", "website": "https://www.smcnd.org/"}}, {"name": "", "latitude": 48.1943945, "longitude": -101.3285086, "source": "osm", "_tags": {"amenity": "hospital", "healthcare": "hospital"}}]