[{"name": "Mental Health Center", "latitude": 48.2020852, "longitude": -106.6407499, "source": "osm", "_tags": {"addr:housenumber": "1009", "addr:postcode": "59230", "addr:state": "MT", "addr:street": "6th Avenue North", "alt_name": "Eastern Montana Community Mental Health Center", "amenity": "hospital", "building": "yes", "emergency": "no", "healthcare": "hospital", "name": "Mental Health Center", "phone": "+1-406-228-9349", "start_date": "1959"}}, {"name": "Garfield County Health Center", "latitude": 47.3188397, "longitude": -106.911255, "source": "osm", "_tags": {"addr:city": "Jordan", "addr:housenumber": "332", "addr:postcode": "59337", "addr:state": "MT", "addr:street": "Leavitt Avenue", "amenity": "hospital", "building": "hospital", "emergency": "yes", "gnis:feature_id": "1715943", "healthcare": "hospital", "name": "Garfield County Health Center", "opening_hours": "24/7", "operator": "Garfield County", "operator:type": "government", "phone": "+1 406 557 2500", "website": "http://www.garfieldco.us/garfield-county-health-center.html"}}, {"name": "Frances Mahon Deaconess Hospital", "latitude": 48.1892901, "longitude": -106.6348618, "source": "osm", "_tags": {"addr:city": "Glasgow", "addr:housenumber": "621", "addr:postcode": "59230", "addr:state": "MT", "addr:street": "3rd Street South", "amenity": "hospital", "emergency": "yes", "gnis:feature_id": "770501", "healthcare": "hospital", "name": "Frances Mahon Deaconess Hospital", "opening_hours": "24/7", "phone": "+1 406 228 3500", "website": "https://www.fmdh.org/"}}, {"name": "Phillips County Hospital and Family Health Clinic", "latitude": 48.3572212, "longitude": -107.8592979, "source": "osm", "_tags": {"addr:city": "Malta", "addr:housenumber": "311", "addr:postcode": "59538", "addr:state": "MT", "addr:street": "South 8th Avenue East", "amenity": "hospital", "beds": "6", "emergency": "yes", "gnis:feature_id": "1721821", "healthcare": "hospital", "name": "Phillips County Hospital and Family Health Clinic", "opening_hours": "24/7", "phone": "+1 406 654 1100", "website": "https://pchospital.us/"}}]