[{"name": "Kaiser Permanente Redmond Medical Center at Riverpark", "latitude": 47.6732863, "longitude": -122.129091, "source": "osm", "_tags": {"amenity": "hospital", "emergency": "no", "healthcare": "hospital", "name": "Kaiser Permanente Redmond Medical Center at Riverpark", "operator": "Kaiser Permanente", "operator:short": "KP", "operator:website": "https://healthy.kaiserpermanente.org/", "operator:wikidata": "Q1721601", "operator:wikipedia": "en:Kaiser Permanente", "phone": "+1-888-901-4636"}}, {"name": "Evergreen Endodontics - Tooth Pain & Dental Emergency Specialists", "latitude": 47.5430118, "longitude": -122.0450729, "source": "osm", "_tags": {"addr:city": "Issaquah", "addr:housenumber": "600", "addr:postcode": "98027", "addr:state": "WA", "addr:street": "Northwest Gilman Boulevard", "addr:unit": "A", "amenity": "hospital", "contact:facebook": "https://www.facebook.com/evergreen.endo/", "description": "We specialize in resolving your Tooth Pain, Aches and Infections through root canals, retreatments, endodontic microsurgery and endodontist treatments in a calm and relaxing state-of-the-art environment.", "email": "info@EvergreenEndo.com", "emergency": "yes", "fax": "+1-425-697-9778", "healthcare": "hospital", "healthcare:speciality": "dentist;endodontics;dental_oral_maxillo_facial_surgery;root_canal", "internet_access": "wlan", "name": "Evergreen Endodontics - Tooth Pain & Dental Emergency Specialists", "opening_hours": "Mo-Fr 07:30-17:00", "operator": "Dr. Nima Dejbod", "operator:type": "business", "payment:american_express": "yes", "payment:apple_pay": "yes", "payment:cash": "yes", "payment:contactless": "yes", "payment:credit_cards": "yes", "payment:debit_cards": "yes", "payment:discover_card": "yes", "payment:mastercard": "yes", "payment:paypal": "yes", "payment:visa": "yes", "payment:visa_debit": "yes", "phone": "+1-425-697-9777", "website": "https://www.evergreenendo.com", "wheelchair": "yes"}}, {"name": "Central Washington Hospital", "latitude": 47.406359, "longitude": -120.3219187, "source": "osm", "_tags": {"addr:city": "Wenatchee", "addr:housenumber": "1201", "addr:postcode": "98801", "addr:street": "South Miller Street", "amenity": "hospital", "beds": "198", "emergency": "yes", "gnis:feature_id": "1525352", "healthcare": "hospital", "name": "Central Washington Hospital", "opening_hours": "24/7", "operator": "Confluence Health", "phone": "+1-509-662-1511", "website": "https://www.confluencehealth.org/locations/central-washington-hospital-clinics/"}}, {"name": "Wenatchee Valley Medical Center", "latitude": 47.4327584, "longitude": -120.3226899, "source": "osm", "_tags": {"addr:city": "Wenatchee", "addr:housenumber": "820", "addr:postcode": "98801", "addr:state": "WA", "addr:street": "North Chelan Avenue", "amenity": "hospital", "emergency": "no", "healthcare": "hospital", "name": "Wenatchee Valley Medical Center", "operator": "Confluence Health", "phone": "+1-509-663-8711", "website": "https://www.confluencehealth.org/locations/wenatchee-valley-hospital-clinics/", "wikidata": "Q30270663"}}, {"name": "Swedish Hospital", "latitude": 47.6764005, "longitude": -122.0991002, "source": "osm", "_tags": {"addr:city": "Redmond", "addr:housenumber": "18100", "addr:postcode": "98052", "addr:state": "WA", "addr:street": "Northeast Union Hill Road", "amenity": "hospital", "beds": "18", "building": "yes", "emergency": "yes", "healthcare": "hospital", "name": "Swedish Hospital", "opening_hours": "24/7", "operator": "Swedish Medical Center", "phone": "+1-206-320-5190", "website": "https://www.swedish.org/locations/redmond-campus"}}, {"name": "Eastgate Public Health Center", "latitude": 47.5812847, "longitude": -122.1498082, "source": "osm", "_tags": {"addr:city": "Bellevue", "addr:housenumber": "14350", "addr:postcode": "98007", "addr:street": "Southeast Eastgate Way", "amenity": "hospital", "building": "hospital", "emergency": "no", "healthcare": "hospital", "name": "Eastgate Public Health Center", "source": "http://www.kingcounty.gov/healthservices/health/locations/eastgate.aspx"}}, {"name": "Swedish Issaquah", "latitude": 47.5356792, "longitude": -122.021731, "source": "osm", "_tags": {"addr:city": "Issaquah", "addr:housenumber": "751", "addr:postcode": "98029", "addr:state": "WA", "addr:street": "Northeast Blakely Drive", "amenity": "hospital", "beds": "120", "emergency": "yes", "healthcare": "hospital", "name": "Swedish Issaquah", "opening_hours": "24/7", "operator": "Swedish Medical Center", "phone": "+1-425-313-4000", "website": "https://www.swedish.org/locations/issaquah-campus"}}, {"name": "Overlake Medical Center", "latitude": 47.6209671, "longitude": -122.1869413, "source": "osm", "_tags": {"addr:city": "Bellevue", "addr:housenumber": "1035", "addr:postcode": "98004", "addr:state": "WA", "addr:street": "116th Avenue Northeast", "amenity": "hospital", "beds": "347", "emergency": "yes", "healthcare": "hospital", "name": "Overlake Medical Center", "old_name": "Overlake Memorial Hospital", "opening_hours": "24/7", "phone": "+1-425-688-5000", "website": "https://www.overlakehospital.org/", "wikidata": "Q7113724", "wikipedia": "en:Overlake Hospital Medical Center"}}, {"name": "MultiCare Covington Medical Center", "latitude": 47.3593424, "longitude": -122.1037091, "source": "osm", "_tags": {"addr:city": "Covington", "addr:housenumber": "17700", "addr:postcode": "98042", "addr:state": "WA", "addr:street": "Southeast 272nd Street", "amenity": "hospital", "beds": "58", "emergency": "yes", "healthcare": "hospital", "name": "MultiCare Covington Medical Center", "opening_hours": "24/7", "operator": "MultiCare Health System", "phone": "+1-253-372-7100", "website": "https://www.multicare.org/multicare-covington-medical-center/"}}, {"name": "Cascade Valley Hospital", "latitude": 48.1891807, "longitude": -122.118713, "source": "osm", "_tags": {"addr:city": "Arlington", "addr:housenumber": "330", "addr:postcode": "98223", "addr:state": "WA", "addr:street": "South Stillaguamish Avenue", "amenity": "hospital", "beds": "48", "emergency": "yes", "gnis:feature_id": "1530104", "healthcare": "hospital", "name": "Cascade Valley Hospital", "opening_hours": "24/7", "phone": "+1-360-435-2133", "website": "http://www.cascadevalley.org/", "wikidata": "Q30595966"}}, {"name": "EvergreenHealth Monroe", "latitude": 47.8636835, "longitude": -121.9885258, "source": "osm", "_tags": {"addr:city": "Monroe", "addr:housenumber": "14701", "addr:postcode": "98272", "addr:street": "179th Avenue Southeast", "amenity": "hospital", "beds": "112", "emergency": "yes", "gnis:feature_id": "1523321", "healthcare": "hospital", "name": "EvergreenHealth Monroe", "old_name": "Valley General Hospital", "opening_hours": "24/7", "operator": "EvergreenHealth", "phone": "+1-360-794-7497", "website": "https://www.evergreenhealthmonroe.com/"}}, {"name": "EvergreenHealth Kirkland", "latitude": 47.7153387, "longitude": -122.1783439, "source": "osm", "_tags": {"addr:city": "Kirkland", "addr:housenumber": "12040", "addr:postcode": "98034", "addr:street": "Northeast 128th Street", "alt_name": "Evergreen Health Kirkland;Ever green Health Kirkland", "amenity": "hospital", "beds": "318", "emergency": "yes", "gnis:feature_id": "1510108", "healthcare": "hospital", "name": "EvergreenHealth Kirkland", "old_name": "Evergreen General Hospital", "opening_hours": "24/7", "operator": "EvergreenHealth", "phone": "+1-425-899-1000", "website": "https://www.evergreenhealth.com/"}}, {"name": "Snoqualmie Valley Hospital", "latitude": 47.51272, "longitude": -121.8855547, "source": "osm", "_tags": {"addr:city": "Snoqualmie", "addr:housenumber": "9801", "addr:postcode": "98065", "addr:state": "WA", "addr:street": "Frontier Avenue Southeast", "amenity": "hospital", "beds": "25", "emergency": "yes", "healthcare": "hospital", "name": "Snoqualmie Valley Hospital", "opening_hours": "24/7", "phone": "+1-425-831-2300", "website": "https://snoqualmiehospital.org/"}}, {"name": "St. Elizabeth Hospital", "latitude": 47.2089444, "longitude": -121.9883787, "source": "osm", "_tags": {"addr:city": "Enumclaw", "addr:housenumber": "1455", "addr:postcode": "98022", "addr:state": "WA", "addr:street": "Battersby Avenue", "amenity": "hospital", "beds": "38", "emergency": "yes", "gnis:feature_id": "2461626", "healthcare": "hospital", "name": "St. Elizabeth Hospital", "opening_hours": "24/7", "operator": "CHI Franciscan Health", "phone": "+1-360-802-8800", "website": "https://www.chifranciscan.org/st-elizabeth-hospital.html", "wikidata": "Q7587851"}}, {"name": "Cascade Medical Center", "latitude": 47.594475, "longitude": -120.6607892, "source": "osm", "_tags": {"addr:city": "Leavenworth", "addr:housenumber": "817", "addr:postcode": "98826", "addr:street": "Commercial Street", "amenity": "hospital", "beds": "12", "check_date": "2024-06-27", "emergency": "yes", "healthcare": "hospital", "name": "Cascade Medical Center", "opening_hours": "24/7", "phone": "+1-509-548-5815", "website": "https://cascademedical.org/", "wheelchair": "yes"}}, {"name": "Smokey Point Behavioral Hospital", "latitude": 48.1386498, "longitude": -122.1794565, "source": "osm", "_tags": {"amenity": "hospital", "healthcare": "hospital", "name": "Smokey Point Behavioral Hospital", "website": "https://smokeypointbehavioralhospital.com/"}}, {"name": "Eastside Fire & Rescue Station 88", "latitude": 47.4449425, "longitude": -121.7638597, "source": "osm", "_tags": {"addr:city": "North Bend", "addr:housenumber": "42804", "addr:postcode": "98045", "addr:state": "WA", "addr:street": "Southeast 172nd Street", "amenity": "fire_station", "building": "yes", "check_date": "2025-09-14", "emergency": "yes", "healthcare": "hospital", "name": "Eastside Fire & Rescue Station 88", "source": "microsoft/BuildingFootprints"}}]