[{"name": "Bengough Health Centre", "latitude": 49.3935025, "longitude": -105.13432, "source": "osm", "_tags": {"amenity": "hospital", "name": "Bengough Health Centre"}}, {"name": "Regina General Hospital", "latitude": 50.4439615, "longitude": -104.6012704, "source": "osm", "_tags": {"amenity": "hospital", "emergency": "yes", "healthcare": "hospital", "name": "Regina General Hospital", "website": "https://www.rqhealth.ca/finding/hospitals/general/regina_general_hospital.shtml", "wikidata": "Q30280625"}}, {"name": "", "latitude": 50.9448904, "longitude": -104.2182023, "source": "osm", "_tags": {"amenity": "hospital", "building": "yes", "source": "NRCan-CanVec-10.0"}}, {"name": "Pasqua Hospital", "latitude": 50.4541356, "longitude": -104.6387701, "source": "osm", "_tags": {"amenity": "hospital", "name": "Pasqua Hospital", "wheelchair": "yes"}}, {"name": "", "latitude": 50.4190625, "longitude": -105.5251107, "source": "osm", "_tags": {"amenity": "hospital", "building": "yes", "healthcare": "hospital"}}, {"name": "15 Wing Medical", "latitude": 50.3381331, "longitude": -105.5609649, "source": "osm", "_tags": {"amenity": "hospital", "healthcare": "hospital", "name": "15 Wing Medical"}}, {"name": "", "latitude": 49.6286031, "longitude": -105.9836365, "source": "osm", "_tags": {"amenity": "hospital", "healthcare": "hospital"}}, {"name": "", "latitude": 49.6464329, "longitude": -104.6617556, "source": "osm", "_tags": {"amenity": "hospital", "healthcare": "hospital"}}, {"name": "Radville Marian Health Centre", "latitude": 49.4634425, "longitude": -104.3056577, "source": "osm", "_tags": {"amenity": "hospital", "healthcare": "hospital", "name": "Radville Marian Health Centre"}}, {"name": "Wascana Rehabilitation Centre", "latitude": 50.4252008, "longitude": -104.6112334, "source": "osm", "_tags": {"addr:housenumber": "2180", "addr:street": "23rd Avenue", "amenity": "hospital", "building": "yes", "emergency": "no", "healthcare": "hospital", "name": "Wascana Rehabilitation Centre", "type": "multipolygon"}}]