[{"name": "Cypress Regional Hospital", "latitude": 50.3110501, "longitude": -107.7758433, "source": "osm", "_tags": {"amenity": "hospital", "emergency": "yes", "healthcare": "hospital", "name": "Cypress Regional Hospital"}}, {"name": "Regency Hospital", "latitude": 50.8000261, "longitude": -106.5090397, "source": "osm", "_tags": {"amenity": "hospital", "building": "hospital", "emergency": "yes", "healthcare": "hospital", "name": "Regency Hospital", "source": "local_knowledge"}}, {"name": "Regency Hospital", "latitude": 50.8000849, "longitude": -106.508876, "source": "osm", "_tags": {"amenity": "hospital", "emergency": "yes", "healthcare": "hospital", "name": "Regency Hospital", "source": "local_knowledge"}}, {"name": "Cypress Regional Hospital", "latitude": 50.3109112, "longitude": -107.7753869, "source": "osm", "_tags": {"amenity": "hospital", "emergency": "yes", "healthcare": "hospital", "name": "Cypress Regional Hospital"}}, {"name": "", "latitude": 50.4260523, "longitude": -107.2176716, "source": "osm", "_tags": {"amenity": "hospital", "healthcare": "hospital"}}, {"name": "St Joseph's Hospital", "latitude": 49.8742488, "longitude": -106.5633745, "source": "osm", "_tags": {"amenity": "hospital", "healthcare": "hospital", "name": "St Joseph's Hospital"}}, {"name": "", "latitude": 49.4191144, "longitude": -107.0702725, "source": "osm", "_tags": {"amenity": "hospital", "healthcare": "hospital", "source": "NRCan-CanVec-10.0"}}, {"name": "Lucky Lake Health Center", "latitude": 50.9806026, "longitude": -107.1369721, "source": "osm", "_tags": {"amenity": "hospital", "healthcare": "hospital", "name": "Lucky Lake Health Center", "source": "https://www.saskhealthauthority.ca/facilities-locations/lucky-lake-health-centre"}}]