[{"name": "Pemberton Health Centre", "latitude": 50.3211236, "longitude": -122.8043451, "source": "osm", "_tags": {"addr:city": "Pemberton", "addr:housenumber": "1403", "addr:postcode": "V0N 2L0", "addr:province": "BC", "addr:street": "Portage Road", "amenity": "hospital", "designation": "hospital é Health Centre", "emergency": "no", "healthcare": "hospital", "name": "Pemberton Health Centre", "operator": "BC Medical Services", "phone": "+1-604-894-6939", "source": "user", "website": "https://www.vch.ca/locations-and-services/find-health-services/?program_id=2909", "wheelchair": "yes"}}, {"name": "British Columbia Children's Emergency", "latitude": 49.2455446, "longitude": -123.123599, "source": "osm", "_tags": {"addr:housenumber": "4480", "addr:street": "Oak Street", "amenity": "hospital", "emergency": "yes", "healthcare": "hospital", "healthcare:speciality": "emergency;paediatrics", "name": "British Columbia Children's Emergency", "wheelchair": "yes"}}, {"name": "Emergency", "latitude": 49.1860503, "longitude": -123.970497, "source": "osm", "_tags": {"amenity": "hospital", "door": "yes", "emergency:exit": "yes", "healthcare": "hospital", "name": "Emergency"}}, {"name": "UBC Hospital", "latitude": 49.2641866, "longitude": -123.245747, "source": "osm", "_tags": {"addr:housenumber": "2211", "addr:street": "Wesbrook Mall", "amenity": "hospital", "emergency": "yes", "healthcare": "hospital", "name": "UBC Hospital", "website": "https://www.vch.ca/en/location/ubc-hospital", "wikidata": "Q7863802", "wikipedia": "en:UBC Hospital"}}, {"name": "Emergency", "latitude": 49.2582638, "longitude": -123.0957019, "source": "osm", "_tags": {"amenity": "hospital", "healthcare": "hospital", "name": "Emergency"}}, {"name": "Emergency", "latitude": 49.1759521, "longitude": -122.8441601, "source": "osm", "_tags": {"amenity": "hospital", "healthcare": "hospital", "name": "Emergency"}}, {"name": "Emergency", "latitude": 49.2259374, "longitude": -122.8920702, "source": "osm", "_tags": {"amenity": "hospital", "emergency": "yes", "healthcare": "hospital", "name": "Emergency"}}, {"name": "Aarm Dental Group on Beach", "latitude": 49.2757508, "longitude": -123.133849, "source": "osm", "_tags": {"Category": "Dentist", "addr:city": "Vancouver", "addr:housenumber": "1000", "addr:postcode": "V6E 4M2", "addr:province": "BC", "addr:street": "Beach Avenue", "addr:unit": "#112", "amenity": "hospital", "contact:facebook": "https://www.facebook.com/profile.php?id=100083372280809", "email": "beach@aarm-dental.com", "healthcare": "hospital", "healthcare:speciality": "dentist", "name": "Aarm Dental Group on Beach", "opening_hours": "Mon-Tue 9am-6pm; Wed 10am-8pm; Thu-Fri 9am-6pm; Sat 9am-4pm", "phone": "604-683-5530", "start_date": "1997-12-01", "website": "https://www.aarm-dental.com/beach"}}, {"name": "Lions Gate Hospital", "latitude": 49.3209784, "longitude": -123.0676719, "source": "osm", "_tags": {"addr:housenumber": "231", "addr:street": "East 15th Street", "amenity": "hospital", "emergency": "yes", "healthcare": "hospital", "name": "Lions Gate Hospital", "operator": "Vancouver Coastal Health", "operator:type": "public", "phone": "+1-604-988-3131", "toilets:wheelchair": "yes", "website": "https://www.vch.ca/en/location/lions-gate-hospital", "wheelchair": "yes", "wikidata": "Q96418816", "wikipedia": "en:Lions Gate Hospital"}}, {"name": "Eagle Ridge Hospital", "latitude": 49.2851831, "longitude": -122.8243716, "source": "osm", "_tags": {"addr:housenumber": "475", "addr:street": "Guildford Way", "amenity": "hospital", "emergency": "yes", "healthcare": "hospital", "name": "Eagle Ridge Hospital", "operator": "Fraser Health Authority", "operator:type": "public", "operator:wikidata": "Q5493608", "phone": "+1-604-461-2022", "website": "https://www.fraserhealth.ca/Service-Directory/Locations/Port-Moody/eagle-ridge-hospital"}}, {"name": "Burnaby Hospital", "latitude": 49.2496764, "longitude": -123.0154562, "source": "osm", "_tags": {"addr:housenumber": "3935", "addr:street": "Kincaid Street", "amenity": "hospital", "beds": "286", "emergency": "yes", "healthcare": "hospital", "healthcare:speciality": "emergency;general;internal;surgery;orthopaedics;gynaecology;urology;obstetrics;neonatal_intensive_care;tertiary_palliative;psychiatry;ambulatory", "name": "Burnaby Hospital", "old_name": "Burnaby General Hospital", "opening_hours": "24/7", "operator": "Fraser Health Authority", "operator:type": "public", "operator:wikidata": "Q5493608", "operator:wikipedia": "en:Fraser Health", "phone": "+1-604-434-4211", "start_date": "1952", "website": "https://www.fraserhealth.ca/Service-Directory/Locations/Burnaby/burnaby-hospital#.YIrwo_lKjn0", "wheelchair": "yes", "wikidata": "Q4999585", "wikipedia": "en:Burnaby Hospital"}}, {"name": "Royal Columbian Hospital", "latitude": 49.2266299, "longitude": -122.8906222, "source": "osm", "_tags": {"addr:housenumber": "330", "addr:street": "East Columbia Street", "amenity": "hospital", "emergency": "yes", "healthcare": "hospital", "name": "Royal Columbian Hospital", "operator": "Fraser Health Authority", "operator:type": "public", "operator:wikidata": "Q5493608", "operator:wikipedia": "en:Fraser Health", "phone": "+1-604-520-4253", "website": "https://www.fraserhealth.ca/Service-Directory/Locations/New-Westminster/royal-columbian-hospital", "wikidata": "Q7373996"}}, {"name": "Forensic Psychiatric Hospital", "latitude": 49.2283846, "longitude": -122.8112105, "source": "osm", "_tags": {"amenity": "hospital", "emergency": "no", "healthcare": "hospital", "healthcare:speciality": "psychiatry", "name": "Forensic Psychiatric Hospital"}}, {"name": "St. Paul's Hospital", "latitude": 49.2806221, "longitude": -123.1289183, "source": "osm", "_tags": {"addr:city": "Vancouver", "addr:housenumber": "1081", "addr:postcode": "V6Z 1Y6", "addr:street": "Burrard Street", "amenity": "hospital", "emergency": "yes", "healthcare": "hospital", "name": "St. Paul's Hospital", "opening_hours": "24/7", "operator": "Providence Health Care", "operator:type": "public", "phone": "+1-604-682-2344", "website": "https://www.providencehealthcare.org/hospitals-residences/st-paul%27s-hospital", "wheelchair": "yes", "wikidata": "Q7591153", "wikipedia": "en:St. Paul's Hospital (Vancouver)"}}, {"name": "Langley Memorial Hospital", "latitude": 49.0942805, "longitude": -122.6119512, "source": "osm", "_tags": {"addr:housenumber": "22051", "addr:street": "Fraser Highway", "amenity": "hospital", "emergency": "yes", "healthcare": "hospital", "landuse": "institutional", "name": "Langley Memorial Hospital", "operator": "Fraser Health Authority", "operator:type": "public", "operator:wikidata": "Q5493608", "operator:wikipedia": "en:Fraser Health", "phone": "+1-604-514-6000", "website": "https://www.fraserhealth.ca/Service-Directory/Locations/Langley/langley-memorial-hospital", "wikidata": "Q17068624"}}, {"name": "Children's & Women's Health Centre of British Columbia", "latitude": 49.2442391, "longitude": -123.124124, "source": "osm", "_tags": {"addr:housenumber": "4500", "addr:street": "Oak Street", "alt_name": "BCCW", "amenity": "hospital", "healthcare": "hospital", "landuse": "institutional", "name": "Children's & Women's Health Centre of British Columbia", "operator": "Provincial Health Services Authority", "operator:type": "public", "short_name": "C&W", "website": "http://www.cw.bc.ca", "wikidata": "Q30279823"}}, {"name": "Mount Saint Joseph Hospital", "latitude": 49.2582912, "longitude": -123.094971, "source": "osm", "_tags": {"addr:city": "Vancouver", "addr:housenumber": "3080", "addr:province": "BC", "addr:street": "Prince Edward Street", "amenity": "hospital", "healthcare": "hospital", "name": "Mount Saint Joseph Hospital", "wikidata": "Q96419005", "wikipedia": "en:Mount Saint Joseph Hospital"}}, {"name": "Abbotsford Regional Hospital & Cancer Centre", "latitude": 49.03684, "longitude": -122.3134181, "source": "osm", "_tags": {"addr:city": "Abbotsford", "addr:housenumber": "32900", "addr:postcode": "V2S 0C2", "addr:province": "BC", "addr:street": "Marshall Road", "alt_name": "ARHCC", "amenity": "hospital", "beds": "300", "emergency": "yes", "healthcare": "hospital", "healthcare:speciality": "emergency", "landuse": "institutional", "name": "Abbotsford Regional Hospital & Cancer Centre", "operator": "Fraser Health Authority", "operator:type": "public", "operator:wikidata": "Q5493608", "phone": "+1-604-851-4700", "start_date": "2008-08-24", "website": "https://www.fraserhealth.ca/your_stay/our_hospitals/abbotsford-regional-hospital-and-cancer-centre", "wikidata": "Q17098832", "wikipedia": "en:Abbotsford_Regional_Hospital_and_Cancer_Centre"}}, {"name": "Sechelt Hospital", "latitude": 49.4754626, "longitude": -123.7493433, "source": "osm", "_tags": {"addr:city": "Sechelt", "addr:housenumber": "5544", "addr:postcode": "V0N 3A0", "addr:province": "BC", "addr:street": "Sunshine Coast Highway", "alt_name": "Shísálh Hospital", "amenity": "hospital", "emergency": "yes", "healthcare": "hospital", "healthcare:speciality": "emergency", "name": "Sechelt Hospital", "old_name": "Sechelt St. Mary's Hospital", "operator": "Vancouver Coastal Health", "operator:type": "public", "phone": "+1-604-885-2224", "website": "https://www.vch.ca/Locations-Services/result?res_id=648"}}, {"name": "Mission Memorial Hospital", "latitude": 49.1351851, "longitude": -122.3310621, "source": "osm", "_tags": {"addr:housenumber": "7324", "addr:postcode": "V2V 3H5", "addr:street": "Hurd Street", "amenity": "hospital", "emergency": "yes", "healthcare": "hospital", "name": "Mission Memorial Hospital", "operator": "Fraser Health Authority", "operator:type": "public", "operator:wikidata": "Q5493608", "operator:wikipedia": "en:Fraser Health", "website": "https://www.fraserhealth.ca/Service-Directory/Locations/Mission/mission-memorial-hospital", "wikidata": "Q121644233"}}, {"name": "Peace Arch Hospital", "latitude": 49.0301701, "longitude": -122.7923172, "source": "osm", "_tags": {"addr:housenumber": "15521", "addr:street": "Russell Avenue", "amenity": "hospital", "check_date": "2024-01-14", "emergency": "yes", "healthcare": "hospital", "internet_access": "wlan", "internet_access:fee": "no", "name": "Peace Arch Hospital", "opening_hours": "24/7", "operator": "Fraser Health Authority", "operator:type": "public", "operator:wikidata": "Q5493608", "phone": "+1-604-531-5512", "website": "https://www.fraserhealth.ca/Service-Directory/Locations/White-Rock/peace-arch-hospital", "wheelchair": "yes", "wikidata": "Q7157315", "wikipedia": "en:Peace Arch Hospital"}}, {"name": "Redfish Healing Centre for Mental Health and Addiction", "latitude": 49.2586223, "longitude": -122.7994283, "source": "osm", "_tags": {"addr:city": "Coquitlam", "addr:housenumber": "2745", "addr:postcode": "V3C4J2", "addr:province": "BC", "addr:street": "Lougheed Highway", "amenity": "hospital", "healthcare": "hospital", "name": "Redfish Healing Centre for Mental Health and Addiction", "operator": "PHSA", "operator:type": "government", "start_date": "2021-10-12", "wheelchair": "yes"}}, {"name": "Ridge Meadows Hospital", "latitude": 49.215389, "longitude": -122.6300087, "source": "osm", "_tags": {"addr:housenumber": "11666", "addr:street": "Laity Street", "amenity": "hospital", "emergency": "yes", "healthcare": "hospital", "name": "Ridge Meadows Hospital", "operator": "Fraser Health Authority", "operator:type": "public", "operator:wikidata": "Q5493608", "operator:wikipedia": "en:Fraser Health", "phone": "+1-604-463-4111", "website": "https://www.fraserhealth.ca/Service-Directory/Locations/Maple-Ridge---Pitt-Meadows/ridge-meadows-hospital", "wikidata": "Q121644099"}}, {"name": "Delta Hospital", "latitude": 49.0860132, "longitude": -123.0619072, "source": "osm", "_tags": {"addr:housenumber": "5800", "addr:street": "Mountain View Boulevard", "amenity": "hospital", "beds": "64", "emergency": "yes", "healthcare": "hospital", "name": "Delta Hospital", "operator": "Fraser Health Authority", "operator:type": "public", "operator:wikidata": "Q5493608", "operator:wikipedia": "en:Fraser Health", "phone": "+1-604-946-1121", "website": "https://www.fraserhealth.ca/Service-Directory/Locations/Delta/delta-hospital", "wikidata": "Q20712289"}}, {"name": "Squamish General Hospital", "latitude": 49.6984397, "longitude": -123.1406004, "source": "osm", "_tags": {"addr:housenumber": "38140", "addr:street": "Behrner Drive", "amenity": "hospital", "emergency": "yes", "healthcare": "hospital", "name": "Squamish General Hospital", "operator": "Vancouver Coastal Health", "operator:type": "public", "phone": "+1-604-892-5211", "website": "https://www.vch.ca/en/location/squamish-general-hospital"}}, {"name": "Surrey Memorial Hospital", "latitude": 49.1762543, "longitude": -122.842832, "source": "osm", "_tags": {"addr:city": "Surrey", "addr:housenumber": "13750", "addr:province": "BC", "addr:street": "96 Avenue", "alt_name": "SMH", "amenity": "hospital", "beds": "650", "emergency": "yes", "healthcare": "hospital", "healthcare:speciality": "emergency", "name": "Surrey Memorial Hospital", "opening_hours": "24/7", "operator": "Fraser Health Authority", "operator:type": "public", "operator:wikidata": "Q5493608", "operator:wikipedia": "en:Fraser Health", "phone": "+1-604-581-2211", "surrey:addrid": "19839", "surrey:date": "20020213", "type": "multipolygon", "website": "https://www.fraserhealth.ca/find-us/hospitals/surrey-memorial-hospital/", "wheelchair": "yes", "wikidata": "Q7646827", "wikipedia": "en:Surrey Memorial Hospital"}}, {"name": "Richmond Hospital", "latitude": 49.1688721, "longitude": -123.146326, "source": "osm", "_tags": {"addr:housenumber": "7000", "addr:street": "Westminster Highway", "amenity": "hospital", "emergency": "yes", "healthcare": "hospital", "internet_access": "wlan", "internet_access:fee": "customers", "name": "Richmond Hospital", "old_name": "Richmond General Hospital", "opening_hours": "24/7", "operator": "Vancouver Coastal Health", "operator:type": "public", "phone": "+1-604-278-9711", "type": "multipolygon", "website": "https://www.vch.ca/en/location/richmond-hospital", "wheelchair": "yes", "wikidata": "Q7330892", "wikipedia": "en:Richmond Hospital"}}, {"name": "Nanaimo Regional General Hospital", "latitude": 49.1848577, "longitude": -123.9696483, "source": "osm", "_tags": {"addr:city": "Nanaimo", "addr:housenumber": "1200", "addr:postcode": "V9S 2B7", "addr:province": "BC", "addr:street": "Dufferin Crescent", "amenity": "hospital", "beds": "345", "emergency": "yes", "healthcare": "hospital", "healthcare:speciality": "emergency", "name": "Nanaimo Regional General Hospital", "operator": "Vancouver Island Health Authority", "operator:type": "public", "phone": "+1-250-755-7691", "type": "multipolygon", "website": "https://www.islandhealth.ca/our-locations/hospitals-health-centre-locations/nanaimo-regional-general-hospital"}}, {"name": "Vancouver General Hospital", "latitude": 49.2612374, "longitude": -123.1221077, "source": "osm", "_tags": {"addr:city": "Vancouver", "addr:housenumber": "899", "addr:postcode": "V5Z 0A2", "addr:province": "BC", "addr:street": "West 12th Avenue", "amenity": "hospital", "beds": "1900", "emergency": "yes", "healthcare": "hospital", "healthcare:speciality": "emergency", "name": "Vancouver General Hospital", "operator": "Vancouver Coastal Health", "operator:type": "public", "operator:wikidata": "Q7914144", "phone": "+1-604-875-4111", "ref": "VGH", "short_name": "VGH", "type": "multipolygon", "website": "https://www.vch.ca/en/location/vancouver-general-hospital", "wheelchair": "yes", "wikidata": "Q7914187", "wikipedia": "en:Vancouver General Hospital"}}]