[{"name": "Arrow Lakes Hospital", "latitude": 50.238755, "longitude": -117.794981, "source": "osm", "_tags": {"addr:housenumber": "97", "addr:street": "1st Avenue NE", "amenity": "hospital", "emergency": "yes", "healthcare": "hospital", "name": "Arrow Lakes Hospital", "operator": "Interior Health", "operator:type": "public", "operator:wikidata": "Q6046681", "phone": "+1-250-265-3622", "website": "https://www.interiorhealth.ca/locations/arrow-lakes-hospital", "wikidata": "Q4796126", "wikipedia": "en:Arrow Lakes Hospital"}}, {"name": "Kaslo Primary Health Centre", "latitude": 49.9133861, "longitude": -116.9136176, "source": "osm", "_tags": {"addr:city": "Kaslo", "addr:housenumber": "673", "addr:postcode": "V0G 1M0", "addr:street": "A Avenue", "addr:unit": "Lower", "amenity": "hospital", "emergency": "no", "healthcare": "hospital", "name": "Kaslo Primary Health Centre", "operator": "Victorian Community Health Centre"}}, {"name": "Victorian Community Health Centre", "latitude": 49.9134061, "longitude": -116.9144432, "source": "osm", "_tags": {"addr:city": "Kaslo", "addr:housenumber": "673", "addr:postcode": "V0G 1M0", "addr:street": "A Avenue", "addr:unit": "Upper", "amenity": "hospital", "emergency": "yes", "healthcare": "hospital", "level": "1", "name": "Victorian Community Health Centre", "operator": "Victorian Community Health Centre", "wheelchair": "yes"}}, {"name": "Kootenay Boundary Regional Hospital", "latitude": 49.1030882, "longitude": -117.7019756, "source": "osm", "_tags": {"addr:street": "Hospital Bench", "amenity": "hospital", "building": "yes", "emergency": "yes", "name": "Kootenay Boundary Regional Hospital", "wheelchair": "yes"}}, {"name": "Kootenay Lake Hospital", "latitude": 49.4948495, "longitude": -117.2851231, "source": "osm", "_tags": {"amenity": "hospital", "healthcare": "hospital", "name": "Kootenay Lake Hospital"}}, {"name": "Slocan Community Health Centre", "latitude": 49.9837141, "longitude": -117.3734285, "source": "osm", "_tags": {"amenity": "hospital", "building": "hospital", "name": "Slocan Community Health Centre"}}, {"name": "Castlegar and District Community Health Centre", "latitude": 49.3149807, "longitude": -117.6614888, "source": "osm", "_tags": {"addr:housenumber": "709", "addr:street": "10th Street", "amenity": "hospital", "emergency": "no", "healthcare": "hospital", "name": "Castlegar and District Community Health Centre", "operator": "Interior Health", "operator:type": "public", "phone": "+1-250-365-7711", "website": "https://www.interiorhealth.ca/locations/castlegar-district-community-health-centre", "wheelchair": "yes"}}, {"name": "Creston Valley Hospital & Health Centre", "latitude": 49.0983684, "longitude": -116.5076183, "source": "osm", "_tags": {"addr:housenumber": "312", "addr:street": "15th Avenue North", "amenity": "hospital", "healthcare": "hospital", "name": "Creston Valley Hospital & Health Centre"}}]