[{"name": "Rockyview General Hospital EMERGENCY ENTRANCE", "latitude": 50.9890757, "longitude": -114.097359, "source": "osm", "_tags": {"amenity": "hospital", "emergency": "emergency_ward_entrance", "healthcare": "hospital", "name": "Rockyview General Hospital EMERGENCY ENTRANCE", "operator": "Alberta Health Services", "operator:short": "AHS", "operator:type": "public", "operator:wikidata": "Q4711650"}}, {"name": "Bright Horizon Therapies", "latitude": 50.9638857, "longitude": -114.0733343, "source": "osm", "_tags": {"addr:city": "Calgary", "addr:housenumber": "10201", "addr:postcode": "T2W 4X9", "addr:province": "Alberta", "addr:street": "Southport Road SW", "addr:unit": "#650", "amenity": "hospital", "healthcare": "hospital", "healthcare:speciality": "behavior;psychiatry", "name": "Bright Horizon Therapies"}}, {"name": "South Calgary Health Centre", "latitude": 50.9025594, "longitude": -114.0591201, "source": "osm", "_tags": {"amenity": "hospital", "check_date": "2024-06-07", "healthcare": "hospital", "name": "South Calgary Health Centre"}}, {"name": "", "latitude": 49.7259032, "longitude": -113.3933087, "source": "osm", "_tags": {"amenity": "hospital", "healthcare": "hospital"}}, {"name": "Raymond Health Centre", "latitude": 49.4644335, "longitude": -112.6510414, "source": "osm", "_tags": {"amenity": "hospital", "healthcare": "hospital", "name": "Raymond Health Centre", "source:name": "local_knowledge", "website": "https://www.albertahealthservices.ca/facilities.asp?pid=facility&rid=3306"}}, {"name": "Chinook Regional Hospital", "latitude": 49.6852266, "longitude": -112.816206, "source": "osm", "_tags": {"addr:city": "Lethbridge", "addr:housenumber": "960", "addr:postcode": "T1J 1W5", "addr:street": "19 Street S", "amenity": "hospital", "emergency": "yes", "name": "Chinook Regional Hospital"}}, {"name": "South Health Campus", "latitude": 50.8822636, "longitude": -113.9525711, "source": "osm", "_tags": {"addr:city": "Calgary", "addr:housenumber": "4448", "addr:postcode": "T3M 1M4", "addr:province": "AB", "addr:street": "Front Street SE", "amenity": "hospital", "emergency": "yes", "healthcare": "hospital", "name": "South Health Campus", "website": "https://www.albertahealthservices.ca/shc/shc.aspx", "wheelchair": "yes", "wikidata": "Q14956882", "wikipedia": "en:South Health Campus"}}, {"name": "High River General Hospital", "latitude": 50.5760323, "longitude": -113.8794095, "source": "osm", "_tags": {"addr:city": "High River", "addr:housenumber": "560", "addr:postcode": "T1V 1B3", "addr:street": "9 Avenue SW", "amenity": "hospital", "emergency": "yes", "healthcare": "hospital", "name": "High River General Hospital", "phone": "+1-403-652-2200"}}, {"name": "Claresholm General Hospital", "latitude": 50.0186244, "longitude": -113.5826165, "source": "osm", "_tags": {"amenity": "hospital", "building": "hospital", "healthcare": "hospital", "name": "Claresholm General Hospital"}}, {"name": "", "latitude": 50.0173044, "longitude": -113.5806841, "source": "osm", "_tags": {"amenity": "hospital", "healthcare": "hospital"}}, {"name": "Rockyview General Hospital", "latitude": 50.9908489, "longitude": -114.0973582, "source": "osm", "_tags": {"amenity": "hospital", "healthcare": "hospital", "name": "Rockyview General Hospital", "wikidata": "Q7356054", "wikipedia:en": "Rockyview General Hospital"}}, {"name": "", "latitude": 49.4225669, "longitude": -112.8636878, "source": "osm", "_tags": {"amenity": "hospital", "healthcare": "hospital"}}, {"name": "Pincher Creek Health Centre", "latitude": 49.4932315, "longitude": -113.9472382, "source": "osm", "_tags": {"amenity": "hospital", "healthcare": "hospital", "name": "Pincher Creek Health Centre"}}, {"name": "Fort Macleod Hospital", "latitude": 49.7263175, "longitude": -113.3938538, "source": "osm", "_tags": {"amenity": "hospital", "building": "hospital", "healthcare": "hospital", "name": "Fort Macleod Hospital"}}, {"name": "Claresholm Centre for Mental Health & Addictions", "latitude": 50.0177877, "longitude": -113.579561, "source": "osm", "_tags": {"amenity": "hospital", "building": "hospital", "healthcare": "hospital", "name": "Claresholm Centre for Mental Health & Addictions"}}, {"name": "Tsuu T'ina Health Centre", "latitude": 50.9527216, "longitude": -114.1626739, "source": "osm", "_tags": {"addr:city": "Tsuut ºina Nation", "addr:housenumber": "72", "addr:province": "AB", "addr:street": "Bullhead Road", "amenity": "hospital", "fax": "+1-403-251-1627", "healthcare": "hospital", "name": "Tsuu T'ina Health Centre", "operator": "Tsuut'ina Nation", "operator:type": "government", "phone": "+1-403-251-7575"}}, {"name": "Siksika Health Services", "latitude": 50.8435695, "longitude": -113.0455979, "source": "osm", "_tags": {"amenity": "hospital", "healthcare": "hospital", "name": "Siksika Health Services"}}, {"name": "", "latitude": 50.7900154, "longitude": -112.4616996, "source": "osm", "_tags": {"amenity": "hospital", "healthcare": "hospital"}}]