[{"name": "St Joseph's Hospital", "latitude": 49.1525977, "longitude": -103.0116098, "source": "osm", "_tags": {"amenity": "hospital", "building": "hospital", "name": "St Joseph's Hospital", "source": "Bing"}}, {"name": "St. Peter's Hospital", "latitude": 50.9382231, "longitude": -102.821862, "source": "osm", "_tags": {"amenity": "hospital", "building": "yes", "healthcare": "hospital", "name": "St. Peter's Hospital"}}, {"name": "", "latitude": 50.4100337, "longitude": -102.934601, "source": "osm", "_tags": {"amenity": "hospital", "building": "yes", "source": "NRCan-CanVec-10.0"}}, {"name": "", "latitude": 50.805094, "longitude": -103.548677, "source": "osm", "_tags": {"amenity": "hospital", "building": "yes", "source": "NRCan-CanVec-10.0"}}, {"name": "Whitewood Community Health Centre", "latitude": 50.3247326, "longitude": -102.2610774, "source": "osm", "_tags": {"amenity": "hospital", "emergency": "no", "name": "Whitewood Community Health Centre", "source": "NRCan-CanVec-10.0"}}, {"name": "Kipling Integrated Health Centre", "latitude": 50.1011709, "longitude": -102.6416353, "source": "osm", "_tags": {"addr:housenumber": "906", "addr:street": "Industrial Drive", "amenity": "hospital", "healthcare": "hospital", "name": "Kipling Integrated Health Centre"}}, {"name": "All Nations Healing Hospital", "latitude": 50.7609092, "longitude": -103.7867711, "source": "osm", "_tags": {"amenity": "hospital", "healthcare": "hospital", "name": "All Nations Healing Hospital"}}, {"name": "Wolseley Memorial Integrated Care Centre", "latitude": 50.4261208, "longitude": -103.2691118, "source": "osm", "_tags": {"addr:housenumber": "801", "addr:street": "Ouimet Street", "amenity": "hospital", "emergency": "yes", "healthcare": "hospital", "name": "Wolseley Memorial Integrated Care Centre", "operator": "Regina Qu'Appelle Health Region", "operator:type": "government"}}, {"name": "Indian Head Union Hospital", "latitude": 50.5369867, "longitude": -103.6779858, "source": "osm", "_tags": {"addr:city": "Indian Head", "addr:housenumber": "300", "addr:postcode": "S0G 2K0", "addr:street": "Hospital Street", "amenity": "hospital", "healthcare": "hospital", "name": "Indian Head Union Hospital"}}, {"name": "Broadview hospital", "latitude": 50.373956, "longitude": -102.5845209, "source": "osm", "_tags": {"addr:city": "Broadview", "addr:housenumber": "901", "addr:street": "Nina Street", "amenity": "hospital", "healthcare": "hospital", "name": "Broadview hospital"}}, {"name": "Arcola Hospital", "latitude": 49.6379457, "longitude": -102.4844011, "source": "osm", "_tags": {"amenity": "hospital", "building": "hospital", "name": "Arcola Hospital"}}]