[{"name": "Chilliwack General Hospital", "latitude": 49.1668554, "longitude": -121.9638602, "source": "osm", "_tags": {"addr:housenumber": "45600", "addr:street": "Menholm Road", "amenity": "hospital", "emergency": "yes", "healthcare": "hospital", "name": "Chilliwack General Hospital", "operator": "Fraser Health Authority", "operator:type": "public", "operator:wikidata": "Q5493608", "phone": "+1-604-795-4141", "website": "https://www.fraserhealth.ca/Service-Directory/Locations/Chilliwack/chilliwack-general-hospital", "wikidata": "Q96418115", "wikipedia": "en:Chilliwack General Hospital"}}, {"name": "Nicola Valley Hospital & Heath Centre", "latitude": 50.1219301, "longitude": -120.7731019, "source": "osm", "_tags": {"addr:city": "Merritt", "addr:housenumber": "3451", "addr:postcode": "V1K 1C6", "addr:province": "BC", "addr:street": "Voght Street", "addr:unit": "Nicola Valley Hospital", "amenity": "hospital", "building": "yes", "emergency": "yes", "fax": "+1-250-378-3287", "healthcare": "hospital", "name": "Nicola Valley Hospital & Heath Centre", "opening_hours": "24/7", "operator": "Interior Health", "phone": "+1-250-378-2242", "website": "https://www.interiorhealth.ca/locations/nicola-valley-hospital-and-health-centre"}}, {"name": "Ashcroft Community Health Centre", "latitude": 50.7347483, "longitude": -121.280124, "source": "osm", "_tags": {"amenity": "hospital", "building": "yes", "healthcare": "hospital", "name": "Ashcroft Community Health Centre", "source": "NRCan-CanVec-7.0"}}, {"name": "Overlander Hospital", "latitude": 50.7031754, "longitude": -120.395573, "source": "osm", "_tags": {"amenity": "hospital", "building": "service", "healthcare": "hospital", "height": "8.84500000", "name": "Overlander Hospital", "source": "City of Kamloops"}}, {"name": "Royal Inland Hospital", "latitude": 50.6694997, "longitude": -120.3343465, "source": "osm", "_tags": {"addr:city": "Kamloops", "addr:housenumber": "311", "addr:postcode": "V2C 2T1", "addr:province": "BC", "addr:street": "Columbia Street", "amenity": "hospital", "beds": "224", "emergency": "yes", "healthcare": "hospital", "healthcare:speciality": "emergency;trauma;trauma_surgery;trauma-surgery;trauma_center;trauma-center", "name": "Royal Inland Hospital"}}, {"name": "Princeton General Hospital", "latitude": 49.4543487, "longitude": -120.5265, "source": "osm", "_tags": {"addr:housenumber": "98", "addr:postcode": "V0X 1W0", "addr:street": "Ridgewood Drive", "amenity": "hospital", "emergency": "yes", "healthcare": "hospital", "name": "Princeton General Hospital"}}, {"name": "Lillooet Hospital & Health Centre", "latitude": 50.6893018, "longitude": -121.9392997, "source": "osm", "_tags": {"addr:city": "Lillooet", "addr:housenumber": "951", "addr:street": "Murray Street", "amenity": "hospital", "building": "hospital", "emergency": "yes", "healthcare": "hospital", "name": "Lillooet Hospital & Health Centre"}}, {"name": "Fraser Canyon Hospital", "latitude": 49.3769596, "longitude": -121.4247032, "source": "osm", "_tags": {"addr:housenumber": "1275", "addr:street": "7th Avenue", "amenity": "hospital", "emergency": "yes", "healthcare": "hospital", "name": "Fraser Canyon Hospital", "operator": "Fraser Health Authority", "operator:type": "public", "operator:wikidata": "Q5493608", "phone": "+1-604-869-5656", "website": "https://www.fraserhealth.ca/Service-Directory/Locations/Hope/fraser-canyon-hospital", "wikidata": "Q17020017", "wikipedia": "en:Fraser Canyon Hospital"}}, {"name": "First Aid Station", "latitude": 49.3810247, "longitude": -121.9361621, "source": "osm", "_tags": {"amenity": "hospital", "building": "yes", "name": "First Aid Station"}}, {"name": "Overlander Extended Care Hospital", "latitude": 50.7033499, "longitude": -120.3952205, "source": "osm", "_tags": {"amenity": "hospital", "healthcare": "hospital", "name": "Overlander Extended Care Hospital"}}]