[{"name": "Birtle Hospital", "latitude": 50.42598, "longitude": -101.046001, "source": "osm", "_tags": {"amenity": "hospital", "name": "Birtle Hospital"}}, {"name": "", "latitude": 50.7731449, "longitude": -101.2775104, "source": "osm", "_tags": {"amenity": "hospital", "building": "yes", "healthcare": "hospital", "source": "CanVec 6.0 - NRCan"}}, {"name": "", "latitude": 50.0352815, "longitude": -100.2423425, "source": "osm", "_tags": {"amenity": "hospital", "building": "hospital", "source": "CanVec 6.0 - NRCan"}}, {"name": "Shoal Lake/Strathclair Health Centre", "latitude": 50.4388227, "longitude": -100.5947592, "source": "osm", "_tags": {"amenity": "hospital", "name": "Shoal Lake/Strathclair Health Centre", "source:name": "local_knowledge", "website": "http://www.assiniboine-rha.ca/index.php/health_sites/view?id=36"}}, {"name": "Virden Hospital and Clinic", "latitude": 49.8556655, "longitude": -100.923884, "source": "osm", "_tags": {"addr:street": "440 KING ST E", "amenity": "hospital", "name": "Virden Hospital and Clinic"}}, {"name": "", "latitude": 50.4369323, "longitude": -100.5897516, "source": "osm", "_tags": {"amenity": "hospital", "source": "Bing"}}, {"name": "St. Anthony's Hospital", "latitude": 50.6504514, "longitude": -102.0841647, "source": "osm", "_tags": {"amenity": "hospital", "building": "hospital", "name": "St. Anthony's Hospital", "source": "NRCan-CanVec-10.0"}}, {"name": "Hartney Health Centre", "latitude": 49.4846056, "longitude": -100.5269949, "source": "osm", "_tags": {"addr:city": "Hartney", "addr:housenumber": "617", "addr:street": "River Avenue", "amenity": "hospital", "name": "Hartney Health Centre", "operator": "Assiniboine Regional Health Authority"}}, {"name": "Gainsborough Health Care", "latitude": 49.1789854, "longitude": -101.4512017, "source": "osm", "_tags": {"addr:city": "Gainsborough", "addr:housenumber": "312", "addr:street": "Reynolds Avenue", "amenity": "hospital", "name": "Gainsborough Health Care"}}, {"name": "", "latitude": 49.6146131, "longitude": -100.2490835, "source": "osm", "_tags": {"amenity": "hospital", "healthcare": "hospital"}}, {"name": "Reston Health Centre", "latitude": 49.5613947, "longitude": -101.100204, "source": "osm", "_tags": {"amenity": "hospital", "building": "hospital", "name": "Reston Health Centre"}}, {"name": "Southeast Integrated Care Centre", "latitude": 50.136149, "longitude": -101.6565835, "source": "osm", "_tags": {"amenity": "hospital", "building": "hospital", "emergency": "yes", "healthcare": "hospital", "name": "Southeast Integrated Care Centre", "source": "Bing"}}, {"name": "", "latitude": 50.8404283, "longitude": -101.7071959, "source": "osm", "_tags": {"amenity": "hospital", "healthcare": "hospital"}}, {"name": "Southeast Integrated Care Centre", "latitude": 50.1361095, "longitude": -101.6564164, "source": "osm", "_tags": {"amenity": "hospital", "healthcare": "hospital", "name": "Southeast Integrated Care Centre"}}, {"name": "", "latitude": 49.1920516, "longitude": -100.4989422, "source": "osm", "_tags": {"amenity": "hospital", "attribution": "2001 Her Majesty the Queen in Right of Manitoba, as represented by the Minister of Conservation. All rights reserved.", "building": "yes", "source": "Manitoba Lands Initiative", "type": "multipolygon"}}]