[{"name": "First Aid", "latitude": 50.0227963, "longitude": -114.9549933, "source": "osm", "_tags": {"amenity": "hospital", "name": "First Aid"}}, {"name": "Elk Valley Hospital", "latitude": 49.5136559, "longitude": -115.0560971, "source": "osm", "_tags": {"amenity": "hospital", "emergency": "yes", "healthcare": "hospital", "name": "Elk Valley Hospital", "opening_hours": "24/7", "source": "Bing", "website": "https://www.interiorhealth.ca/locations/elk-valley-hospital"}}, {"name": "", "latitude": 50.506861, "longitude": -116.0333148, "source": "osm", "_tags": {"amenity": "hospital", "healthcare": "hospital", "source": "Bing"}}, {"name": "Crowsnest Pass Medical Centre", "latitude": 49.616799, "longitude": -114.4581192, "source": "osm", "_tags": {"amenity": "hospital", "healthcare": "hospital", "name": "Crowsnest Pass Medical Centre"}}, {"name": "Sparwood Health Centre", "latitude": 49.7214956, "longitude": -114.8925408, "source": "osm", "_tags": {"amenity": "hospital", "healthcare": "hospital", "name": "Sparwood Health Centre"}}, {"name": "Oilfields General Hospital", "latitude": 50.6777735, "longitude": -114.2346948, "source": "osm", "_tags": {"amenity": "hospital", "emergency": "yes", "healthcare": "hospital", "name": "Oilfields General Hospital"}}]