[{"name": "West Coast General Hospital", "latitude": 49.24852, "longitude": -124.7820497, "source": "osm", "_tags": {"addr:housenumber": "3949", "addr:street": "Port Alberni Highway", "amenity": "hospital", "building": "yes", "check_date": "2024-04-01", "emergency": "yes", "healthcare": "hospital", "name": "West Coast General Hospital", "operator:type": "public", "payment:cash": "yes", "payment:credit_cards": "yes", "payment:debit_cards": "yes", "payment:mastercard": "yes", "payment:visa": "yes"}}, {"name": "Tofino General Hospital", "latitude": 49.1513796, "longitude": -125.9086005, "source": "osm", "_tags": {"addr:city": "Tofino", "addr:housenumber": "261", "addr:postcode": "V0R 2Z0", "addr:street": "Neill Street", "amenity": "hospital", "building": "yes", "healthcare": "hospital", "name": "Tofino General Hospital"}}, {"name": "", "latitude": 49.2474044, "longitude": -124.7819227, "source": "osm", "_tags": {"amenity": "hospital", "building": "yes", "comment": "Extended Care facility", "healthcare": "hospital"}}, {"name": "Oceanside Health Centre", "latitude": 49.3103462, "longitude": -124.3246157, "source": "osm", "_tags": {"addr:housenumber": "489", "addr:street": "Alberni Highway", "amenity": "hospital", "building": "hospital", "healthcare": "hospital", "name": "Oceanside Health Centre"}}, {"name": "North Island Hospital - Campbell River & District", "latitude": 50.0088899, "longitude": -125.2425934, "source": "osm", "_tags": {"addr:housenumber": "375", "addr:street": "2nd Avenue", "amenity": "hospital", "building": "yes", "healthcare": "hospital", "name": "North Island Hospital - Campbell River & District", "phone": "+1-250-286-7100", "website": "https://www.islandhealth.ca/our-locations/hospitals-health-centre-locations/north-island-hospital-campbell-river-district"}}, {"name": "", "latitude": 50.0093313, "longitude": -125.244327, "source": "osm", "_tags": {"amenity": "hospital", "emergency": "yes", "healthcare": "hospital"}}, {"name": "qathet General Hospital", "latitude": 49.8509733, "longitude": -124.5182329, "source": "osm", "_tags": {"addr:housenumber": "5000", "addr:street": "Joyce Avenue", "alt_name": "Powell River General Hospital", "amenity": "hospital", "emergency": "yes", "healthcare": "hospital", "name": "qathet General Hospital", "website": "https://powellriverconnect.com/directory/health-and-wellness/doctors/powell-river-general-hospital/"}}, {"name": "", "latitude": 49.1511447, "longitude": -125.9089206, "source": "osm", "_tags": {"amenity": "hospital", "healthcare": "hospital"}}, {"name": "", "latitude": 49.2484164, "longitude": -124.7820881, "source": "osm", "_tags": {"amenity": "hospital", "healthcare": "hospital", "type": "multipolygon"}}, {"name": "North Island Hospital - Comox Valley (Emergency)", "latitude": 49.7121227, "longitude": -124.9690971, "source": "osm", "_tags": {"amenity": "hospital", "building": "yes", "healthcare": "hospital", "name": "North Island Hospital - Comox Valley (Emergency)", "type": "multipolygon"}}, {"name": "North Island Hospital - Comox Valley", "latitude": 49.7123217, "longitude": -124.9699926, "source": "osm", "_tags": {"addr:housenumber": "101", "addr:street": "Lerwick Road", "amenity": "hospital", "building": "yes", "healthcare": "hospital", "name": "North Island Hospital - Comox Valley", "phone": "+1-250-331-5900", "type": "multipolygon"}}]