[{"name": "BC Prosthetic & Orthotic Services", "latitude": 49.8835665, "longitude": -119.4497089, "source": "osm", "_tags": {"amenity": "hospital", "healthcare": "hospital", "name": "BC Prosthetic & Orthotic Services", "name:en": "BC Prosthetic & Orthotic Services"}}, {"name": "Ashnola at the Crossing", "latitude": 49.2205368, "longitude": -119.9559674, "source": "osm", "_tags": {"amenity": "hospital", "healthcare": "hospital", "name": "Ashnola at the Crossing", "operator": "BC Mental Health & Substance Abuse Services", "website": "http://www.bcmhsus.ca/our-services/provincial-addiction-programs/ashnola-at-the-crossing"}}, {"name": "Kelowna General Hospital", "latitude": 49.8734256, "longitude": -119.4936591, "source": "osm", "_tags": {"amenity": "hospital", "check_date": "2024-08-21", "emergency": "yes", "healthcare": "hospital", "name": "Kelowna General Hospital", "phone": "+250-862-4000", "wheelchair": "yes"}}, {"name": "", "latitude": 50.4439262, "longitude": -119.1938814, "source": "osm", "_tags": {"amenity": "hospital", "building": "yes", "source": "NRCan-CanVec-8.0"}}, {"name": "Shuswap Lake General Hospital", "latitude": 50.7042326, "longitude": -119.2744311, "source": "osm", "_tags": {"addr:housenumber": "601", "addr:street": "10 Street Northeast", "amenity": "hospital", "building": "yes", "healthcare": "hospital", "name": "Shuswap Lake General Hospital", "source": "Bing"}}, {"name": "Boundary District Hospital", "latitude": 49.0299743, "longitude": -118.4686659, "source": "osm", "_tags": {"addr:city": "Grand Forks", "addr:housenumber": "7649", "addr:postcode": "V0H 1H0", "addr:street": "22nd Street", "amenity": "hospital", "emergency": "yes", "healthcare": "hospital", "healthcare:speciality": "general", "name": "Boundary District Hospital", "note": "Phone 9-1-1 in the case of an emergency!", "phone": "+1-250-443-2100", "website": "https://www.interiorhealth.ca/locations/boundary-district-hospital"}}, {"name": "Penticton Regional Hospital", "latitude": 49.4817041, "longitude": -119.5777232, "source": "osm", "_tags": {"amenity": "hospital", "healthcare": "hospital", "name": "Penticton Regional Hospital", "wikidata": "Q14874740", "wikipedia": "en:Penticton Regional Hospital"}}, {"name": "Silver Kettle Village", "latitude": 49.0241427, "longitude": -118.4648506, "source": "osm", "_tags": {"addr:city": "Grand Forks", "addr:postcode": "V0H 1H0", "addr:street": "72nd Avenue", "amenity": "hospital", "healthcare": "hospital", "healthcare:speciality": "general", "name": "Silver Kettle Village"}}, {"name": "Summerland Community Health Centre", "latitude": 49.6013159, "longitude": -119.6688599, "source": "osm", "_tags": {"amenity": "hospital", "healthcare": "hospital", "name": "Summerland Community Health Centre", "source": "NRCan-CanVec-10.0"}}, {"name": "Vernon Jubilee Hospital", "latitude": 50.2566885, "longitude": -119.2711548, "source": "osm", "_tags": {"amenity": "hospital", "emergency": "yes", "healthcare": "hospital", "name": "Vernon Jubilee Hospital", "operator": "Interior Health"}}, {"name": "South Okanagan General Hospital", "latitude": 49.1833484, "longitude": -119.5390828, "source": "osm", "_tags": {"addr:housenumber": "911", "addr:street": "McKinney Road", "amenity": "hospital", "emergency": "yes", "healthcare": "hospital", "name": "South Okanagan General Hospital", "phone": "+1-250-498-5000", "website": "https://www.interiorhealth.ca/locations/south-okanagan-general-hospital", "wheelchair": "yes", "wikidata": "Q7568061", "wikipedia": "en:South Okanagan General Hospital"}}, {"name": "South Similkameen Health Centre", "latitude": 49.204561, "longitude": -119.8326679, "source": "osm", "_tags": {"addr:housenumber": "700", "addr:street": "3rd Street", "amenity": "hospital", "emergency": "yes", "healthcare": "hospital", "name": "South Similkameen Health Centre", "phone": "+1-250-499-3000", "website": "https://www.interiorhealth.ca/locations/south-similkameen-health-centre"}}]