[{"name": "", "latitude": 49.9621904, "longitude": -98.7757639, "source": "osm", "_tags": {"amenity": "hospital", "building": "yes", "source": "NRCan-CanVec-7.0"}}, {"name": "", "latitude": 49.6539, "longitude": -98.3451964, "source": "osm", "_tags": {"amenity": "hospital", "building": "yes", "source": "NRCan-CanVec-7.0"}}, {"name": "Minnedosa General", "latitude": 50.2415979, "longitude": -99.8399312, "source": "osm", "_tags": {"amenity": "hospital", "attribution": "2001 Her Majesty the Queen in Right of Manitoba, as represented by the Minister of Conservation. All rights reserved.", "building": "yes", "healthcare": "hospital", "name": "Minnedosa General", "source": "Manitoba Lands Initiative"}}, {"name": "", "latitude": 50.2252285, "longitude": -98.9431632, "source": "osm", "_tags": {"amenity": "hospital", "building": "yes", "source": "CanVec 6.0 - NRCan"}}, {"name": "", "latitude": 49.2373858, "longitude": -98.5351596, "source": "osm", "_tags": {"amenity": "hospital", "building": "yes", "source": "CanVec 6.0 - NRCan"}}, {"name": "Boissevain Health Centre", "latitude": 49.2253436, "longitude": -100.0608275, "source": "osm", "_tags": {"amenity": "hospital", "attribution": "2001 Her Majesty the Queen in Right of Manitoba, as represented by the Minister of Conservation. All rights reserved.", "building": "yes", "name": "Boissevain Health Centre", "source": "NRCan-CanVec-7.0"}}, {"name": "Brandon Regional Health Centre", "latitude": 49.8402959, "longitude": -99.9361891, "source": "osm", "_tags": {"amenity": "hospital", "attribution": "2001 Her Majesty the Queen in Right of Manitoba, as represented by the Minister of Conservation. All rights reserved.", "building": "yes", "emergency": "yes", "healthcare": "hospital", "healthcare:speciality": "emergency;surgery;general", "name": "Brandon Regional Health Centre", "source": "NRCan-CanVec-7.0"}}, {"name": "Lorne Memorial Hospital", "latitude": 49.4123848, "longitude": -98.787256, "source": "osm", "_tags": {"amenity": "hospital", "building": "yes", "emergency": "yes", "healthcare": "hospital", "name": "Lorne Memorial Hospital", "source": "NRCan-CanVec-7.0"}}, {"name": "", "latitude": 49.091909, "longitude": -99.3349741, "source": "osm", "_tags": {"amenity": "hospital", "building": "yes", "healthcare": "hospital", "source": "NRCan-CanVec-7.0"}}, {"name": "", "latitude": 49.5596065, "longitude": -99.2853228, "source": "osm", "_tags": {"amenity": "hospital", "building": "yes", "source": "NRCan-CanVec-7.0"}}, {"name": "", "latitude": 49.5319283, "longitude": -98.5655992, "source": "osm", "_tags": {"amenity": "hospital", "building": "yes", "source": "NRCan-CanVec-7.0"}}, {"name": "Tiger Hill Health Centre", "latitude": 49.6332515, "longitude": -98.6983661, "source": "osm", "_tags": {"amenity": "hospital", "building": "yes", "check_date": "2023-07-16", "name": "Tiger Hill Health Centre", "source": "NRCan-CanVec-7.0"}}, {"name": "Baldur District Hospital", "latitude": 49.3856215, "longitude": -99.2400747, "source": "osm", "_tags": {"amenity": "hospital", "building": "yes", "name": "Baldur District Hospital", "source": "Bing"}}, {"name": "", "latitude": 49.8072688, "longitude": -99.6349493, "source": "osm", "_tags": {"amenity": "hospital", "building": "yes", "healthcare": "clinic"}}, {"name": "Tri-Lake Health Centre", "latitude": 49.1754818, "longitude": -99.6621878, "source": "osm", "_tags": {"amenity": "hospital", "amenity_1": "clinic", "healthcare": "hospital", "healthcare:speciality": "general", "name": "Tri-Lake Health Centre"}}, {"name": "Neepawa Health Centre (Memorial Hospital)", "latitude": 50.2343937, "longitude": -99.4610608, "source": "osm", "_tags": {"addr:city": "Neepawa", "addr:housenumber": "500", "addr:postcode": "R0J 1H0", "addr:province": "Manitoba", "addr:street": "Hospital Street", "amenity": "hospital", "healthcare": "hospital", "name": "Neepawa Health Centre (Memorial Hospital)", "operator": "Manitoba Provincial Ministry of Health"}}]