[{"name": "", "latitude": 49.7847419, "longitude": -112.1649903, "source": "osm", "_tags": {"amenity": "hospital", "healthcare": "hospital"}}, {"name": "Medicine Hat Regional Hospital", "latitude": 50.0357009, "longitude": -110.7040287, "source": "osm", "_tags": {"amenity": "hospital", "emergency": "yes", "healthcare": "hospital", "name": "Medicine Hat Regional Hospital", "source": "Alberta Health Services (http://www.albertahealthservices.ca/facilities.asp?pid=facility&rid=1000474)", "website": "https://www.albertahealthservices.ca/facilities.asp?pid=facility&rid=1000474"}}, {"name": "", "latitude": 49.1489495, "longitude": -112.0773407, "source": "osm", "_tags": {"amenity": "hospital"}}, {"name": "", "latitude": 50.5690443, "longitude": -111.8892838, "source": "osm", "_tags": {"amenity": "hospital", "healthcare": "hospital", "operator": "Alberta Health Services", "operator:short": "AHS", "operator:type": "public", "operator:wikidata": "Q4711650"}}, {"name": "Brooks Health Centre", "latitude": 50.5685577, "longitude": -111.8892615, "source": "osm", "_tags": {"addr:city": "Brooks", "addr:country": "CA", "addr:housenumber": "440", "addr:postcode": "T1R 0X8", "addr:province": "AB", "addr:street": "3 Street East", "amenity": "hospital", "building": "hospital", "building:levels": "1", "name": "Brooks Health Centre", "operator": "Alberta Health Services"}}]