[{"name": "", "latitude": 51.1509201, "longitude": -100.4843688, "source": "osm", "_tags": {"amenity": "hospital", "building": "yes", "source": "CanVec 6.0 - NRCan"}}, {"name": "", "latitude": 51.8805143, "longitude": -102.0766557, "source": "osm", "_tags": {"amenity": "hospital", "building": "yes", "source": "NRCan-CanVec-8.0"}}, {"name": "", "latitude": 51.2273176, "longitude": -101.3624365, "source": "osm", "_tags": {"amenity": "hospital", "building": "yes", "source": "CanVec 6.0 - NRCan"}}, {"name": "", "latitude": 51.5573171, "longitude": -101.8872582, "source": "osm", "_tags": {"amenity": "hospital", "building": "yes", "source": "CanVec 6.0 - NRCan"}}, {"name": "", "latitude": 51.5588317, "longitude": -101.8871206, "source": "osm", "_tags": {"amenity": "hospital", "building": "yes", "source": "CanVec 6.0 - NRCan"}}, {"name": "", "latitude": 51.9153951, "longitude": -101.5425484, "source": "osm", "_tags": {"amenity": "hospital", "building": "yes", "source": "CanVec 6.0 - NRCan"}}, {"name": "", "latitude": 52.1057671, "longitude": -101.2613639, "source": "osm", "_tags": {"amenity": "hospital", "healthcare": "hospital"}}, {"name": "", "latitude": 51.5573813, "longitude": -101.8885896, "source": "osm", "_tags": {"amenity": "hospital", "building": "yes", "type": "multipolygon"}}]