[{"name": "", "latitude": 52.8380957, "longitude": -109.6314327, "source": "osm", "_tags": {"amenity": "hospital", "building": "yes", "source": "NRCan-CanVec-10.0"}}, {"name": "Battlefords Union Hospital", "latitude": 52.7725428, "longitude": -108.2883345, "source": "osm", "_tags": {"addr:housenumber": "1092", "addr:street": "107th Street", "amenity": "hospital", "building": "yes", "emergency": "yes", "healthcare": "hospital", "name": "Battlefords Union Hospital", "phone": "+1-306-446-6600"}}, {"name": "Battlefords Union Hospital", "latitude": 52.7726578, "longitude": -108.288713, "source": "osm", "_tags": {"amenity": "hospital", "emergency": "yes", "healthcare": "hospital", "internet_access": "wlan", "name": "Battlefords Union Hospital", "phone": "+1-306-446-6600"}}, {"name": "", "latitude": 51.4705808, "longitude": -109.1642112, "source": "osm", "_tags": {"amenity": "hospital", "healthcare": "hospital"}}, {"name": "", "latitude": 52.333686, "longitude": -109.9346091, "source": "osm", "_tags": {"amenity": "hospital", "healthcare": "hospital"}}, {"name": "Unity & District Health Centre", "latitude": 52.44306, "longitude": -109.1725744, "source": "osm", "_tags": {"addr:city": "Unity", "addr:postcode": "S0K 4L0", "addr:province": "SK", "addr:street": "Airport Road", "amenity": "hospital", "healthcare": "hospital", "name": "Unity & District Health Centre"}}, {"name": "Kerrobert Health Centre", "latitude": 51.9137926, "longitude": -109.1329586, "source": "osm", "_tags": {"amenity": "hospital", "healthcare": "hospital", "name": "Kerrobert Health Centre"}}]