[{"name": "", "latitude": 52.3298259, "longitude": -104.4992037, "source": "osm", "_tags": {"amenity": "hospital", "building": "yes", "source": "NRCan-CanVec-10.0"}}, {"name": "", "latitude": 51.265877, "longitude": -105.9845386, "source": "osm", "_tags": {"amenity": "hospital", "building": "yes", "source": "NRCan-CanVec-10.0"}}, {"name": "Nokomis Clinic", "latitude": 51.507571, "longitude": -105.0075038, "source": "osm", "_tags": {"amenity": "hospital", "building": "yes", "name": "Nokomis Clinic", "source": "NRCan-CanVec-10.0"}}, {"name": "", "latitude": 52.6506291, "longitude": -105.7414124, "source": "osm", "_tags": {"amenity": "hospital", "building": "yes", "source": "NRCan-CanVec-10.0"}}, {"name": "", "latitude": 52.8656243, "longitude": -104.6145073, "source": "osm", "_tags": {"amenity": "hospital", "healthcare": "hospital"}}, {"name": "Lanigan Hospital", "latitude": 51.8514325, "longitude": -105.0249223, "source": "osm", "_tags": {"amenity": "hospital", "healthcare": "hospital", "name": "Lanigan Hospital"}}, {"name": "Watrous District Health Complex", "latitude": 51.674558, "longitude": -105.4565096, "source": "osm", "_tags": {"amenity": "hospital", "healthcare": "hospital", "name": "Watrous District Health Complex"}}, {"name": "​Humboldt District Health Complex", "latitude": 52.2127821, "longitude": -105.1209119, "source": "osm", "_tags": {"amenity": "hospital", "emergency": "yes", "healthcare": "hospital", "name": "​Humboldt District Health Complex"}}]