[{"name": "Harvest Medicine Calgary & Alberta", "latitude": 51.0689758, "longitude": -114.1171756, "source": "osm", "_tags": {"addr:city": "Calgary", "addr:housenumber": "1824", "addr:postcode": "T2M 3Y7", "addr:province": "Alberta", "addr:street": "Crowchild Trail NW", "addr:unit": "suite 101", "amenity": "hospital", "healthcare": "hospital", "name": "Harvest Medicine Calgary & Alberta"}}, {"name": "Olds Hospital and Care Centre", "latitude": 51.8015113, "longitude": -114.1183727, "source": "osm", "_tags": {"amenity": "hospital", "healthcare": "hospital", "name": "Olds Hospital and Care Centre", "operator": "Alberta Health Services", "operator:short": "AHS", "operator:wikidata": "Q4711650"}}, {"name": "Alberta Children's Hospital", "latitude": 51.0747205, "longitude": -114.1479501, "source": "osm", "_tags": {"addr:housenumber": "28", "addr:postcode": "T3B 6A8", "addr:street": "Oki Drive NW", "amenity": "hospital", "emergency": "yes", "healthcare": "hospital", "name": "Alberta Children's Hospital", "website": "https://www.albertahealthservices.ca/Facilities/ACH/", "wheelchair": "yes", "wikidata": "Q2831698"}}, {"name": "Foothills Medical Centre", "latitude": 51.0651377, "longitude": -114.1351878, "source": "osm", "_tags": {"addr:housenumber": "1403", "addr:street": "29 Street NW", "amenity": "hospital", "description": "\"As one of Canadaâ€™s largest hospitals, Foothills Medical Centre (FMC) provides advanced healthcare services to more than two million people from Calgary, southern Alberta, southeastern British Columbia and southern Saskatchewan.\"", "emergency": "yes", "healthcare": "hospital", "name": "Foothills Medical Centre", "note": "main bldg complex reworked using \"footprint\" map 2017-04; don't expect good visual alignment with aerial images (height/angle issues)", "operator": "Alberta Health Services", "operator:short": "AHS", "operator:type": "public", "operator:wikidata": "Q4711650", "phone": "+1-403-944-1110", "website": "https://www.albertahealthservices.ca/fmc/fmc.aspx", "wheelchair": "yes", "wikidata": "Q8564404", "wikipedia": "en:Foothills Medical Centre"}}, {"name": "Peter Lougheed Centre of the Calgary General Hospital", "latitude": 51.0791076, "longitude": -113.9845747, "source": "osm", "_tags": {"addr:city": "Calgary", "addr:housenumber": "3500", "addr:street": "26 Avenue NE", "amenity": "hospital", "emergency": "yes", "healthcare": "hospital", "name": "Peter Lougheed Centre of the Calgary General Hospital", "phone": "+1-403-943-4555", "website": "https://www.albertahealthservices.ca/facilities.asp?pid=facility&rid=2", "wheelchair": "yes", "wikipedia": "en:Peter Lougheed Centre"}}, {"name": "Drumheller Health Centre", "latitude": 51.4692228, "longitude": -112.726484, "source": "osm", "_tags": {"addr:city": "Drumheller", "addr:housenumber": "351", "addr:postcode": "T0J 0Y1", "addr:street": "9 Street Northwest", "amenity": "hospital", "healthcare": "hospital", "name": "Drumheller Health Centre", "website": "https://www.albertahealthservices.ca/facilities.asp?pid=facility&rid=1000305"}}, {"name": "Three Hills Hospital", "latitude": 51.708089, "longitude": -113.2512616, "source": "osm", "_tags": {"addr:city": "Three Hills", "addr:housenumber": "1502", "addr:postcode": "T0M2A0", "addr:province": "Alberta", "addr:street": "2 Street North", "amenity": "hospital", "healthcare": "hospital", "healthcare:speciality": "emergency;general;intensive;community", "mobile": "+1 403-443-2444", "name": "Three Hills Hospital", "opening_hours": "24/7", "operator": "Alberta Health Services", "operator:short": "AHS", "operator:type": "public", "operator:wikidata": "Q4711650", "source": "Bing", "wheelchair": "yes"}}, {"name": "Didsbury District Health Services", "latitude": 51.6619237, "longitude": -114.1238319, "source": "osm", "_tags": {"amenity": "hospital", "building": "hospital", "emergency": "yes", "healthcare": "hospital", "name": "Didsbury District Health Services"}}, {"name": "", "latitude": 51.8014544, "longitude": -114.1180227, "source": "osm", "_tags": {"addr:city": "Olds", "addr:housenumber": "3901", "addr:postcode": "T4H 1T4", "addr:street": "57 Avenue", "amenity": "hospital", "emergency": "yes", "healthcare": "hospital"}}, {"name": "Red Deer Regional Hospital Centre", "latitude": 52.2604237, "longitude": -113.8177702, "source": "osm", "_tags": {"addr:city": "Red Deer", "addr:housenumber": "3942", "addr:postcode": "T4N 4E7", "addr:street": "50A Avenue", "amenity": "hospital", "emergency": "yes", "healthcare": "hospital", "name": "Red Deer Regional Hospital Centre", "website": "https://www.albertahealthservices.ca/facilities.asp?pid=facility&rid=1000342"}}, {"name": "Stettler Regional Healthcare Center", "latitude": 52.3237007, "longitude": -112.723754, "source": "osm", "_tags": {"addr:housenumber": "5912", "addr:street": "47 Avenue", "amenity": "hospital", "building": "hospital", "emergency": "yes", "healthcare": "hospital", "name": "Stettler Regional Healthcare Center"}}, {"name": "Centennial Centre for Mental Health & Brain Injury", "latitude": 52.651106, "longitude": -113.5733283, "source": "osm", "_tags": {"amenity": "hospital", "name": "Centennial Centre for Mental Health & Brain Injury", "operator": "Alberta Health Services", "toilets:wheelchair": "yes", "website": "https://mentalhealthexcellence.ca/", "wheelchair": "yes"}}, {"name": "Ponoka Hospital & Care Centre", "latitude": 52.6844437, "longitude": -113.5893603, "source": "osm", "_tags": {"amenity": "hospital", "emergency": "yes", "healthcare": "hospital", "name": "Ponoka Hospital & Care Centre"}}, {"name": "Wetaskiwin Hospital & Care Centre", "latitude": 52.9864751, "longitude": -113.368037, "source": "osm", "_tags": {"amenity": "hospital", "emergency": "yes", "healthcare": "hospital", "name": "Wetaskiwin Hospital & Care Centre"}}, {"name": "", "latitude": 52.3238488, "longitude": -112.7243289, "source": "osm", "_tags": {"amenity": "hospital", "healthcare": "hospital"}}, {"name": "Lacombe Hospital and Care Centre", "latitude": 52.4611329, "longitude": -113.7410128, "source": "osm", "_tags": {"addr:city": "Lacombe", "addr:housenumber": "5430", "addr:postcode": "T4L 1G8", "addr:province": "AB", "addr:street": "47 Avenue", "amenity": "hospital", "emergency": "yes", "healthcare": "hospital", "name": "Lacombe Hospital and Care Centre", "operator": "Alberta Health Services", "operator:short": "AHS", "operator:type": "government", "operator:wikidata": "Q4711650", "operator:wikipedia": "en:Alberta Health Services"}}, {"name": "Sheldon M. Chumir Health Centre", "latitude": 51.0412033, "longitude": -114.0728688, "source": "osm", "_tags": {"addr:housenumber": "1213", "addr:postcode": "T2R 0X7", "addr:street": "4 Street SW", "amenity": "hospital", "description": "This facility provides 24/7 care for people with injuries or illnesses that are not life threatening. Other healthcare services have limited hours.", "emergency": "no", "healthcare": "hospital", "internet_access": "wlan", "internet_access:ssid": "healthspot", "name": "Sheldon M. Chumir Health Centre", "operator": "Alberta Health Services", "operator:short": "AHS", "operator:type": "public", "operator:wikidata": "Q4711650", "operator:wikipedia": "en:Alberta Health Services", "phone": "+1 403 955 6200", "website": "https://www.albertahealthservices.ca/findhealth/facility.aspx?id=1018406", "wheelchair": "yes", "wikidata": "Q7493529", "wikipedia": "en:Sheldon M. Chumir Centre"}}, {"name": "Innisfail Health Centre", "latitude": 52.0195018, "longitude": -113.9516813, "source": "osm", "_tags": {"amenity": "hospital", "healthcare": "hospital", "name": "Innisfail Health Centre"}}, {"name": "Michener Centre South", "latitude": 52.2716329, "longitude": -113.7852697, "source": "osm", "_tags": {"amenity": "hospital", "healthcare": "hospital", "name": "Michener Centre South"}}, {"name": "EMS Three Hills", "latitude": 51.7096065, "longitude": -113.252649, "source": "osm", "_tags": {"amenity": "hospital", "healthcare": "hospital", "name": "EMS Three Hills", "operator": "Alberta Health Services", "operator:short": "AHS", "operator:type": "public", "operator:wikidata": "Q4711650"}}]