[{"name": "", "latitude": 51.6416385, "longitude": -103.5229508, "source": "osm", "_tags": {"amenity": "hospital", "building": "yes", "healthcare": "hospital", "source": "NRCan-CanVec-10.0"}}, {"name": "Yorkton Regional Health Center", "latitude": 51.2017726, "longitude": -102.4807859, "source": "osm", "_tags": {"addr:housenumber": "270", "addr:street": "Bradbrooke Drive", "amenity": "hospital", "building": "yes", "emergency": "yes", "healthcare": "hospital", "name": "Yorkton Regional Health Center", "operator": "Sunrise Health Region", "source": "Bing", "source:name": "City of Yorkton", "website": "http://www.sunrisehealthregion.sk.ca/default.aspx?page=27"}}, {"name": "", "latitude": 51.6255366, "longitude": -102.4409686, "source": "osm", "_tags": {"amenity": "hospital", "building": "yes", "source": "NRCan-CanVec-8.0"}}, {"name": "", "latitude": 52.8511952, "longitude": -104.0411029, "source": "osm", "_tags": {"amenity": "hospital", "building": "yes", "healthcare": "hospital", "source": "NRCan-CanVec-10.0"}}, {"name": "", "latitude": 51.314257, "longitude": -103.9838866, "source": "osm", "_tags": {"amenity": "hospital", "building": "yes", "source": "NRCan-CanVec-10.0"}}, {"name": "", "latitude": 51.1724642, "longitude": -103.4905617, "source": "osm", "_tags": {"amenity": "hospital", "building": "yes", "healthcare": "hospital", "source": "NRCan-CanVec-10.0"}}, {"name": "", "latitude": 51.9519588, "longitude": -103.795213, "source": "osm", "_tags": {"amenity": "hospital", "building": "yes", "healthcare": "hospital", "source": "NRCan-CanVec-10.0"}}, {"name": "", "latitude": 52.5971497, "longitude": -103.2613281, "source": "osm", "_tags": {"amenity": "hospital", "building": "yes"}}, {"name": "Wadena Hospital", "latitude": 51.95201, "longitude": -103.7954733, "source": "osm", "_tags": {"amenity": "hospital", "healthcare": "hospital", "name": "Wadena Hospital"}}, {"name": "Northeast Healthplex", "latitude": 52.8571906, "longitude": -104.0562457, "source": "osm", "_tags": {"amenity": "hospital", "building": "hospital", "name": "Northeast Healthplex", "website": "https://www.kelseytrailhealth.ca/"}}, {"name": "Hudson Bay Health Care Facility", "latitude": 52.8539133, "longitude": -102.3875068, "source": "osm", "_tags": {"amenity": "hospital", "building": "yes", "name": "Hudson Bay Health Care Facility"}}, {"name": "", "latitude": 52.2870365, "longitude": -103.8124263, "source": "osm", "_tags": {"amenity": "hospital", "building": "hospital"}}]