[{"name": "Fox Creek Healthcare Centre", "latitude": 54.404711, "longitude": -116.8014235, "source": "osm", "_tags": {"amenity": "hospital", "healthcare": "hospital", "name": "Fox Creek Healthcare Centre"}}, {"name": "Hinton Healthcare Centre", "latitude": 53.3983679, "longitude": -117.5853984, "source": "osm", "_tags": {"addr:city": "Hinton", "addr:housenumber": "1280", "addr:postcode": "T7V 1V2", "addr:province": "AB", "addr:street": "Switzer Drive", "amenity": "hospital", "emergency": "yes", "healthcare": "hospital", "name": "Hinton Healthcare Centre", "operator": "Alberta Health Services", "operator:short": "AHS", "operator:type": "public", "operator:wikidata": "Q4711650", "phone": "+1 780 865 3333"}}, {"name": "Edson Healthcare Centre", "latitude": 53.5913188, "longitude": -116.4065851, "source": "osm", "_tags": {"addr:city": "Edson", "addr:housenumber": "3837", "addr:postcode": "T7E 0C5", "addr:province": "Alberta", "addr:street": "6 Avenue", "amenity": "hospital", "emergency": "yes", "healthcare": "hospital", "name": "Edson Healthcare Centre", "operator": "Alberta Health Services", "operator:short": "AHS", "operator:type": "public", "operator:wikidata": "Q4711650"}}]