[{"name": "", "latitude": 53.5365871, "longitude": -109.4556795, "source": "osm", "_tags": {"amenity": "hospital", "building": "yes", "source": "NRCan-CanVec-10.0"}}, {"name": "", "latitude": 53.633539, "longitude": -109.1943742, "source": "osm", "_tags": {"amenity": "hospital", "building": "yes", "source": "NRCan-CanVec-10.0"}}, {"name": "", "latitude": 53.0793381, "longitude": -109.294393, "source": "osm", "_tags": {"amenity": "hospital", "building": "yes", "healthcare": "hospital", "source": "NRCan-CanVec-10.0"}}, {"name": "", "latitude": 54.0273354, "longitude": -109.1574482, "source": "osm", "_tags": {"amenity": "hospital", "building": "yes", "source": "NRCan-CanVec-10.0"}}, {"name": "Northwest Health Facility/Meadow Lake Hospital", "latitude": 54.123577, "longitude": -108.4348681, "source": "osm", "_tags": {"addr:housenumber": "711", "addr:postcode": "S9X 1E6", "addr:street": "Centre Street", "amenity": "hospital", "building": "yes", "healthcare": "hospital", "name": "Northwest Health Facility/Meadow Lake Hospital"}}, {"name": "", "latitude": 54.1237252, "longitude": -108.4345051, "source": "osm", "_tags": {"amenity": "hospital"}}, {"name": "", "latitude": 54.3997121, "longitude": -109.226492, "source": "osm", "_tags": {"amenity": "hospital", "building": "hospital"}}, {"name": "", "latitude": 53.2727417, "longitude": -109.9896649, "source": "osm", "_tags": {"amenity": "hospital", "healthcare": "hospital"}}, {"name": "", "latitude": 53.2651041, "longitude": -110.0522734, "source": "osm", "_tags": {"amenity": "hospital", "healthcare": "hospital"}}]