[{"name": "St. Joseph's General Hospital", "latitude": 53.494057, "longitude": -112.033096, "source": "osm", "_tags": {"amenity": "hospital", "healthcare": "hospital", "name": "St. Joseph's General Hospital", "source": "ourairports.com"}}, {"name": "St. Paul Health Care Centre", "latitude": 53.9885742, "longitude": -111.2904315, "source": "osm", "_tags": {"amenity": "hospital", "healthcare": "hospital", "name": "St. Paul Health Care Centre"}}, {"name": "Cold Lake Healthcare Centre", "latitude": 54.468218, "longitude": -110.1965097, "source": "osm", "_tags": {"amenity": "hospital", "emergency": "yes", "healthcare": "hospital", "name": "Cold Lake Healthcare Centre"}}, {"name": "William J. Cadzow - Lac La Biche Healthcare Centre", "latitude": 54.7645736, "longitude": -111.9645776, "source": "osm", "_tags": {"addr:city": "Hamlet of Lac la Biche", "addr:housenumber": "9110", "addr:postcode": "T0A 2C0", "addr:province": "AB", "addr:street": "93 Street", "amenity": "hospital", "healthcare": "hospital", "name": "William J. Cadzow - Lac La Biche Healthcare Centre"}}, {"name": "Elk Point Healthcare Centre", "latitude": 53.897919, "longitude": -110.9068134, "source": "osm", "_tags": {"amenity": "hospital", "building": "hospital", "name": "Elk Point Healthcare Centre"}}, {"name": "St. Paul Health Care Centre", "latitude": 53.9885982, "longitude": -111.2903998, "source": "osm", "_tags": {"amenity": "hospital", "building": "hospital", "healthcare": "hospital", "name": "St. Paul Health Care Centre"}}, {"name": "Saddle Lake Health Services", "latitude": 53.9703434, "longitude": -111.694235, "source": "osm", "_tags": {"amenity": "hospital", "healthcare": "hospital", "name": "Saddle Lake Health Services"}}, {"name": "Bonnyville Health Centre", "latitude": 54.2637254, "longitude": -110.7395298, "source": "osm", "_tags": {"amenity": "hospital", "healthcare": "hospital", "name": "Bonnyville Health Centre"}}, {"name": "Beaver Lake Health Centre", "latitude": 54.6814434, "longitude": -111.9110278, "source": "osm", "_tags": {"amenity": "hospital", "healthcare": "hospital", "name": "Beaver Lake Health Centre"}}, {"name": "Two Hills Health Centre", "latitude": 53.7133117, "longitude": -111.7316914, "source": "osm", "_tags": {"addr:city": "Two Hills", "addr:housenumber": "4401", "addr:postcode": "T0B 4K0", "addr:province": "Alberta", "addr:street": "53 Avenue", "amenity": "hospital", "emergency": "yes", "healthcare": "hospital", "name": "Two Hills Health Centre", "operator": "Alberta Health Services", "operator:short": "AHS", "operator:type": "public", "operator:wikidata": "Q4711650", "website": "https://www.albertahealthservices.ca/findhealth/facility.aspx?id=1001613"}}]