[{"name": "Northern Haida Gwaii Hospital and Health Centre", "latitude": 54.0204029, "longitude": -132.1573868, "source": "osm", "_tags": {"addr:city": "Massett", "addr:housenumber": "2520", "addr:street": "Harrison Avenue", "amenity": "hospital", "emergency": "yes", "healthcare": "hospital", "name": "Northern Haida Gwaii Hospital and Health Centre"}}, {"name": "Haida Gwaii Hospital and Health Centre", "latitude": 53.2549236, "longitude": -132.070294, "source": "osm", "_tags": {"addr:housenumber": "3209", "addr:street": "Oceanview Drive", "amenity": "hospital", "building": "hospital", "healthcare": "hospital", "healthcare:speciality": "community;general;clinic", "name": "Haida Gwaii Hospital and Health Centre", "name:hai": "Xaayda Gwaay Ngaaysdll Naay", "operator": "Northern Health", "source": "Bing", "wheelchair": "yes"}}, {"name": "Prince Rupert Regional Hospital", "latitude": 54.3047714, "longitude": -130.329985, "source": "osm", "_tags": {"addr:housenumber": "1305", "addr:postcode": "V8J 2A6", "addr:street": "Summit Avenue", "amenity": "hospital", "healthcare": "hospital", "name": "Prince Rupert Regional Hospital"}}, {"name": "Health Center", "latitude": 54.3370172, "longitude": -130.4450162, "source": "osm", "_tags": {"addr:housenumber": "212", "addr:street": "Wil Gyeks (Where it's Calm ) Road", "building": "yes", "building:levels": "1", "healthcare": "hospital", "name": "Health Center"}}]