[{"name": "Intensive Care Home", "latitude": 55.327188, "longitude": -119.5503322, "source": "osm", "_tags": {"amenity": "hospital", "building": "hospital", "name": "Intensive Care Home"}}, {"name": "Beaverlodge Hospital", "latitude": 55.2137575, "longitude": -119.4251617, "source": "osm", "_tags": {"amenity": "hospital", "building": "hospital", "healthcare": "hospital", "name": "Beaverlodge Hospital"}}, {"name": "Central Peace Health Complex", "latitude": 55.776903, "longitude": -118.8386067, "source": "osm", "_tags": {"amenity": "hospital", "building": "hospital", "name": "Central Peace Health Complex"}}, {"name": "", "latitude": 55.3278199, "longitude": -119.5501995, "source": "osm", "_tags": {"amenity": "hospital", "healthcare": "hospital"}}, {"name": "", "latitude": 55.2135887, "longitude": -119.4256558, "source": "osm", "_tags": {"amenity": "hospital", "healthcare": "hospital"}}, {"name": "Grande Prairie Regional Hospital", "latitude": 55.1815972, "longitude": -118.8252404, "source": "osm", "_tags": {"addr:city": "Grande Prairie", "addr:housenumber": "11205", "addr:postcode": "T8V 4B1", "addr:province": "Alberta", "addr:street": "110 Street", "amenity": "hospital", "healthcare": "hospital", "name": "Grande Prairie Regional Hospital", "operator": "Alberta Health Services", "operator:short": "AHS", "operator:type": "public", "operator:wikidata": "Q4711650", "website": "https://www.albertahealthservices.ca/gprh/gprh.aspx"}}]