[{"name": "Chetwynd Hospital", "latitude": 55.6963359, "longitude": -121.6442067, "source": "osm", "_tags": {"amenity": "hospital", "healthcare": "hospital", "name": "Chetwynd Hospital"}}, {"name": "Dawson Creek & District Hospital", "latitude": 55.7496995, "longitude": -120.2355971, "source": "osm", "_tags": {"addr:housenumber": "11100", "addr:postcode": "V1G 3W8", "addr:street": "13 Street", "amenity": "hospital", "building": "hospital", "emergency": "yes", "healthcare": "hospital", "name": "Dawson Creek & District Hospital", "phone": "+1-250-782-8501"}}, {"name": "Fort St. John Hospital", "latitude": 56.2556089, "longitude": -120.8144735, "source": "osm", "_tags": {"amenity": "hospital", "healthcare": "hospital", "name": "Fort St. John Hospital"}}, {"name": "Fort St. John Hospital", "latitude": 56.256062, "longitude": -120.8167079, "source": "osm", "_tags": {"addr:housenumber": "8407", "addr:street": "112 Avenue", "amenity": "hospital", "building": "yes", "healthcare": "hospital", "name": "Fort St. John Hospital", "website": "https://www.northernhealth.ca/OurServices/Facilities.aspx?FacilityID=24", "wikipedia": "en:Fort St. John, British Columbia"}}, {"name": "", "latitude": 55.7002211, "longitude": -121.6322504, "source": "osm", "_tags": {"amenity": "hospital", "healthcare": "hospital"}}]