[{"name": "Mt. Edgecumbe Hospital", "latitude": 57.0516902, "longitude": -135.355111, "source": "osm", "_tags": {"addr:city": "Sitka", "addr:housenumber": "222", "addr:postcode": "99835", "addr:state": "AK", "addr:street": "Tongass Drive", "amenity": "hospital", "beds": "25", "building": "hospital", "ele": "18.00", "emergency": "yes", "healthcare": "hospital", "height": "9.20", "name": "Mt. Edgecumbe Hospital", "name:tli": "S’áxt’ Hít", "operator": "SouthEast Alaska Regional Health Consortium", "phone": "+1 907 966 2411", "website": "https://searhc.org/service/mt-edgecumbe-hospital-saxt-hit/"}}, {"name": "Bartlett Regional Hospital", "latitude": 58.3291017, "longitude": -134.4649065, "source": "osm", "_tags": {"addr:city": "Juneau", "addr:housenumber": "3260", "addr:postcode": "99801", "addr:state": "AK", "addr:street": "Hospital Drive", "amenity": "hospital", "beds": "78", "emergency": "yes", "healthcare": "hospital", "name": "Bartlett Regional Hospital", "phone": "+1 907 796 8900", "website": "https://www.bartletthospital.org/", "wikidata": "Q20712149", "wikipedia": "en:Bartlett Regional Hospital"}}, {"name": "", "latitude": 57.0515669, "longitude": -135.3553632, "source": "osm", "_tags": {"amenity": "hospital", "healthcare": "hospital"}}]