[{"name": "Rocher de Beaumont", "latitude": 44.3855261, "longitude": 5.6860407, "elevation": 1545.0, "source": "osm", "_tags": {"ele": "1545", "name": "Rocher de Beaumont", "natural": "peak"}}, {"name": "Arambre", "latitude": 44.4301972, "longitude": 5.7451892, "elevation": 1444.0, "source": "osm", "_tags": {"ele": "1444", "name": "Arambre", "natural": "peak", "tourism": "viewpoint"}}, {"name": "Croix de Provence", "latitude": 43.5308899, "longitude": 5.5800377, "elevation": 946.0, "source": "osm", "_tags": {"ele": "946", "man_made": "cross", "name": "Croix de Provence", "natural": "peak", "summit:cross": "yes", "summit:register": "no"}}, {"name": "Montagne de Bergiès", "latitude": 44.2037508, "longitude": 5.5116312, "elevation": 1364.0, "source": "osm", "_tags": {"ele": "1364", "name": "Montagne de Bergiès", "natural": "peak", "wikidata": "Q32131398"}}, {"name": "Montagne de Buc", "latitude": 44.2064194, "longitude": 5.4777439, "elevation": 1442.0, "source": "osm", "_tags": {"ele": "1442", "name": "Montagne de Buc", "natural": "peak"}}, {"name": "Montagne des Vaux", "latitude": 44.3896484, "longitude": 5.1196647, "elevation": 872.0, "source": "osm", "_tags": {"ele": "872", "name": "Montagne des Vaux", "natural": "peak"}}, {"name": "Montagne de Chamouse", "latitude": 44.2612378, "longitude": 5.5730751, "elevation": 1531.9, "source": "osm", "_tags": {"ele": "1531.9", "name": "Montagne de Chamouse", "natural": "peak"}}, {"name": "", "latitude": 44.3016847, "longitude": 5.6055029, "elevation": 1127.0, "source": "osm", "_tags": {"ele": "1127", "natural": "peak"}}, {"name": "Sommet de la Clavelière", "latitude": 44.3215261, "longitude": 5.4636074, "elevation": 1352.0, "source": "osm", "_tags": {"ele": "1352", "name": "Sommet de la Clavelière", "natural": "peak"}}, {"name": "Rocher du Cire", "latitude": 44.048226, "longitude": 5.3259846, "elevation": 872.0, "source": "osm", "_tags": {"ele": "872", "name": "Rocher du Cire", "natural": "peak", "tourism": "attraction"}}, {"name": "Mont Ventoux", "latitude": 44.1739649, "longitude": 5.2783976, "elevation": 1910.0, "source": "osm", "_tags": {"alt_name": "Le Sommet", "ele": "1910", "name": "Mont Ventoux", "natural": "peak", "prominence": "1150", "source": "cadastre-dgi-fr source : Direction Générale des Impôts - Cadastre", "wikidata": "Q209064", "wikipedia": "fr:Mont Ventoux"}}, {"name": "Mourre Nègre", "latitude": 43.8155643, "longitude": 5.4673354, "elevation": 1125.0, "source": "osm", "_tags": {"ele": "1125", "name": "Mourre Nègre", "natural": "peak", "wikidata": "Q1648147"}}, {"name": "", "latitude": 43.738661, "longitude": 4.9513358, "elevation": 380.0, "source": "osm", "_tags": {"ele": "380", "natural": "peak"}}, {"name": "Pic des Mouches", "latitude": 43.5389855, "longitude": 5.6454518, "elevation": 1011.0, "source": "osm", "_tags": {"ele": "1011", "name": "Pic des Mouches", "natural": "peak", "wikidata": "Q3382413", "wikipedia": "fr:Pic des Mouches"}}, {"name": "", "latitude": 43.7387812, "longitude": 4.964393, "elevation": 345.0, "source": "osm", "_tags": {"ele": "345", "natural": "peak"}}, {"name": "Signal de Saint-Pierre", "latitude": 43.9795718, "longitude": 5.4852785, "elevation": 1256.0, "source": "osm", "_tags": {"ele": "1256", "name": "Signal de Saint-Pierre", "natural": "peak", "wikidata": "Q3483599"}}, {"name": "Montagne des Plates", "latitude": 44.2939659, "longitude": 5.260494, "elevation": 900.33, "source": "osm", "_tags": {"description": "Buse en ciment : Tige en fer scellée au centre - Point vu en place en 1984", "ele": "900.33", "name": "Montagne des Plates", "natural": "peak", "note": "Ne pas déplacer ce point, cf. - Do not move this node, see - http://wiki.openstreetmap.org/wiki/WikiProject_France/Repères_Géodésiques#Permanence_des_rep.C3.A8res", "ref": "2606302 - 1", "source": "©IGN 2010 dans le cadre de la cartographie réglementaire", "url": "http://geodesie.ign.fr/fiches/index.php?module=e&action=fichepdf&source=carte&sit_no=2606302"}}, {"name": "Montagne de Croc", "latitude": 44.2570217, "longitude": 5.4668611, "elevation": 1303.13, "source": "osm", "_tags": {"description": "Borne en granit gravée IGN - Point vu en place en 1953", "ele": "1303.13", "name": "Montagne de Croc", "natural": "peak", "note": "Ne pas déplacer ce point, cf. - Do not move this node, see - http://wiki.openstreetmap.org/wiki/WikiProject_France/Repères_Géodésiques#Permanence_des_rep.C3.A8res", "ref": "2618101 - 1", "source": "©IGN 2010 dans le cadre de la cartographie réglementaire", "url": "http://geodesie.ign.fr/fiches/index.php?module=e&action=fichepdf&source=carte&sit_no=2618101"}}, {"name": "Collet Court", "latitude": 44.2067167, "longitude": 5.4780013, "elevation": 1441.91, "source": "osm", "_tags": {"description": "Borne en granit gravée IGN - Point vu en place en 1953", "ele": "1441.91", "name": "Collet Court", "natural": "peak", "note": "Ne pas déplacer ce point, cf. - Do not move this node, see - http://wiki.openstreetmap.org/wiki/WikiProject_France/Repères_Géodésiques#Permanence_des_rep.C3.A8res", "ref": "2618103 - 1", "source": "©IGN 2010 dans le cadre de la cartographie réglementaire", "url": "http://geodesie.ign.fr/fiches/index.php?module=e&action=fichepdf&source=carte&sit_no=2618103"}}, {"name": "Pié Redon", "latitude": 44.1423144, "longitude": 5.1278185, "elevation": 500.21, "source": "osm", "_tags": {"description": "Borne en granit gravée IGN - Point vu en place en 2001", "ele": "500.21", "name": "Pié Redon", "natural": "peak", "note": "Ne pas déplacer ce point, cf. - Do not move this node, see - http://wiki.openstreetmap.org/wiki/WikiProject_France/Repères_Géodésiques#Permanence_des_rep.C3.A8res", "ref": "8400802 - A", "source": "©IGN 2010 dans le cadre de la cartographie réglementaire", "url": "http://geodesie.ign.fr/fiches/index.php?module=e&action=fichepdf&source=carte&sit_no=8400802"}}, {"name": "Boufaou", "latitude": 43.8195281, "longitude": 5.569223, "elevation": 834.0, "source": "osm", "_tags": {"ele": "834", "name": "Boufaou", "natural": "peak"}}, {"name": "La Grand-Colle", "latitude": 43.818341, "longitude": 5.5797116, "elevation": 819.0, "source": "osm", "_tags": {"ele": "819", "name": "La Grand-Colle", "natural": "peak"}}, {"name": "", "latitude": 43.7957032, "longitude": 5.550416, "elevation": 653.0, "source": "osm", "_tags": {"ele": "653", "natural": "peak"}}, {"name": "Rocher du Quiquillon", "latitude": 44.3177321, "longitude": 5.6958697, "elevation": 1025.0, "source": "osm", "_tags": {"ele": "1025", "name": "Rocher du Quiquillon", "natural": "peak"}}, {"name": "Collet du Paradis", "latitude": 43.8076494, "longitude": 5.6211864, "elevation": 603.0, "source": "osm", "_tags": {"ele": "603", "name": "Collet du Paradis", "natural": "peak", "wikidata": "Q31678533"}}, {"name": "La Groupatassière", "latitude": 43.8251453, "longitude": 5.6020033, "elevation": 782.0, "source": "osm", "_tags": {"ele": "782", "name": "La Groupatassière", "natural": "peak"}}, {"name": "Piégros", "latitude": 43.8257335, "longitude": 5.5889141, "elevation": 765.0, "source": "osm", "_tags": {"ele": "765", "name": "Piégros", "natural": "peak"}}, {"name": "Saint-Michel", "latitude": 44.3022108, "longitude": 5.7013807, "elevation": 1216.0, "source": "osm", "_tags": {"ele": "1216", "name": "Saint-Michel", "natural": "peak"}}, {"name": "Signal de Lure", "latitude": 44.1230492, "longitude": 5.8025699, "elevation": 1826.0, "source": "osm", "_tags": {"ele": "1826", "name": "Signal de Lure", "natural": "peak", "source": "Bing", "tourism": "viewpoint"}}, {"name": "Le Contras", "latitude": 44.1250793, "longitude": 5.7318647, "elevation": 1619.0, "source": "osm", "_tags": {"ele": "1619", "name": "Le Contras", "natural": "peak", "source": "Bing"}}, {"name": "", "latitude": 44.1324347, "longitude": 5.7249855, "elevation": 1629.0, "source": "osm", "_tags": {"ele": "1629", "natural": "peak"}}, {"name": "La Grand-Montagne", "latitude": 43.9478619, "longitude": 5.4868522, "elevation": 1051.0, "source": "osm", "_tags": {"ele": "1051", "name": "La Grand-Montagne", "natural": "peak", "source": "BDOrtho IGN 2017", "wikidata": "Q31642717"}}, {"name": "Montagne de Palle", "latitude": 44.1945567, "longitude": 5.5994145, "elevation": 1484.0, "source": "osm", "_tags": {"ele": "1484", "name": "Montagne de Palle", "natural": "peak"}}, {"name": "Chante Duc", "latitude": 44.1978182, "longitude": 5.6400982, "elevation": 1427.0, "source": "osm", "_tags": {"ele": "1427", "name": "Chante Duc", "natural": "peak"}}, {"name": "Colline Saint-Jacques", "latitude": 43.8379949, "longitude": 5.0325952, "elevation": 182.0, "source": "osm", "_tags": {"ele": "182", "name": "Colline Saint-Jacques", "natural": "peak"}}, {"name": "Le Devès", "latitude": 44.1468103, "longitude": 5.080755, "elevation": 521.0, "source": "osm", "_tags": {"ele": "521", "name": "Le Devès", "name:oc": "Lo Devèrs", "natural": "peak", "source:name:oc": "ieo-bdtopoc"}}, {"name": "Ubrieux", "latitude": 44.2903286, "longitude": 5.2869678, "elevation": 711.0, "source": "osm", "_tags": {"ele": "711", "name": "Ubrieux", "natural": "peak"}}, {"name": "Le Suillet", "latitude": 44.3302716, "longitude": 5.7046445, "elevation": 1324.0, "source": "osm", "_tags": {"ele": "1324", "name": "Le Suillet", "natural": "peak"}}, {"name": "Coteau de la Combre", "latitude": 43.818992, "longitude": 5.5372147, "elevation": 1038.0, "source": "osm", "_tags": {"ele": "1038", "name": "Coteau de la Combre", "natural": "peak"}}, {"name": "Sommet de la Platte", "latitude": 44.2361764, "longitude": 5.7911234, "elevation": 1483.0, "source": "osm", "_tags": {"ele": "1483", "name": "Sommet de la Platte", "natural": "peak", "tourism": "viewpoint"}}, {"name": "", "latitude": 44.1612355, "longitude": 5.3195053, "elevation": 1646.0, "source": "osm", "_tags": {"ele": "1646", "natural": "peak"}}, {"name": "Tête de la Grave", "latitude": 44.1613291, "longitude": 5.3103443, "elevation": 1627.0, "source": "osm", "_tags": {"ele": "1627", "name": "Tête de la Grave", "natural": "peak"}}, {"name": "La Château", "latitude": 44.1048125, "longitude": 5.7779351, "elevation": 1511.0, "source": "osm", "_tags": {"ele": "1511", "name": "La Château", "natural": "peak"}}, {"name": "Pic de Saint-Cyr", "latitude": 44.2441937, "longitude": 5.790239, "elevation": 1365.0, "source": "osm", "_tags": {"ele": "1365", "name": "Pic de Saint-Cyr", "natural": "peak", "tourism": "viewpoint"}}, {"name": "Mont Aurélien", "latitude": 43.4512499, "longitude": 5.7728969, "elevation": 879.0, "source": "osm", "_tags": {"ele": "879", "name": "Mont Aurélien", "name:oc": "Mont Aurelian", "natural": "peak", "source:name:oc": "ieo-bdtopoc", "wikidata": "Q34927247"}}, {"name": "Montagne des Ubacs", "latitude": 43.57944, "longitude": 5.6283302, "elevation": 697.0, "source": "osm", "_tags": {"ele": "697", "name": "Montagne des Ubacs", "natural": "peak", "wikidata": "Q3322304", "wikipedia": "fr:Montagne des Ubacs"}}, {"name": "Montagne de Saint-Genis", "latitude": 44.3914, "longitude": 5.8375, "elevation": 1432.0, "source": "osm", "_tags": {"ele": "1432", "name": "Montagne de Saint-Genis", "natural": "peak", "wikidata": "Q3322294", "wikipedia": "fr:Montagne de Saint-Genis"}}, {"name": "Saint-Jaume", "latitude": 44.3365418, "longitude": 5.1409308, "elevation": 791.0, "source": "osm", "_tags": {"ele": "791", "name": "Saint-Jaume", "natural": "peak"}}, {"name": "Montagne d'Essaillon", "latitude": 44.3568542, "longitude": 5.1637107, "elevation": 792.0, "source": "osm", "_tags": {"ele": "792", "name": "Montagne d'Essaillon", "natural": "peak"}}, {"name": "", "latitude": 43.8092938, "longitude": 5.1347909, "elevation": 601.0, "source": "osm", "_tags": {"ele": "601", "natural": "peak"}}, {"name": "Garde-Grosse", "latitude": 44.3368343, "longitude": 5.1549052, "elevation": 944.0, "source": "osm", "_tags": {"ele": "944", "name": "Garde-Grosse", "natural": "peak"}}, {"name": "Sève", "latitude": 43.9994003, "longitude": 4.9034451, "elevation": 90.0, "source": "osm", "_tags": {"ele": "90", "name": "Sève", "natural": "peak"}}, {"name": "Collet Redon", "latitude": 43.5094012, "longitude": 5.2787113, "elevation": 254.0, "source": "osm", "_tags": {"ele": "254", "name": "Collet Redon", "natural": "peak"}}, {"name": "Malivers", "latitude": 44.3498456, "longitude": 5.2584632, "elevation": 731.0, "source": "osm", "_tags": {"ele": "731", "name": "Malivers", "natural": "peak"}}, {"name": "Cougoir", "latitude": 44.4249695, "longitude": 5.1452119, "elevation": 1214.0, "source": "osm", "_tags": {"ele": "1214", "name": "Cougoir", "name:oc": "Lo Cogoar", "natural": "peak", "source:name:oc": "ieo-bdtopoc"}}, {"name": "Le Mont Menu", "latitude": 43.7097186, "longitude": 5.0107632, "elevation": 306.0, "source": "osm", "_tags": {"ele": "306", "name": "Le Mont Menu", "natural": "peak"}}, {"name": "Montagne de l'Arsuc", "latitude": 44.2954666, "longitude": 5.5462283, "elevation": 1460.0, "source": "osm", "_tags": {"ele": "1460", "name": "Montagne de l'Arsuc", "natural": "peak"}}, {"name": "Roc de l'Aigle", "latitude": 44.2001134, "longitude": 5.8449144, "elevation": 1219.0, "source": "osm", "_tags": {"ele": "1219", "name": "Roc de l'Aigle", "natural": "peak", "summit:cross": "yes", "tourism": "viewpoint"}}, {"name": "Revuaire", "latitude": 44.3972932, "longitude": 5.7772926, "elevation": null, "source": "osm", "_tags": {"name": "Revuaire", "natural": "peak"}}, {"name": "Roc de Taillefer", "latitude": 44.3949512, "longitude": 5.791393, "elevation": null, "source": "osm", "_tags": {"name": "Roc de Taillefer", "natural": "peak"}}, {"name": "Rocher du Midi", "latitude": 44.1581621, "longitude": 5.0110008, "elevation": 470.0, "source": "osm", "_tags": {"ele": "470", "name": "Rocher du Midi", "natural": "peak"}}, {"name": "Serre de Lagarde", "latitude": 44.2603251, "longitude": 4.9580798, "elevation": 315.0, "source": "osm", "_tags": {"ele": "315", "loc_name": "Serre Pointu", "name": "Serre de Lagarde", "natural": "peak"}}, {"name": "Mont Serein", "latitude": 44.185102, "longitude": 5.2602825, "elevation": 1450.0, "source": "osm", "_tags": {"ele": "1450", "name": "Mont Serein", "natural": "peak", "wikidata": "Q3322100"}}, {"name": "Les Opies", "latitude": 43.7121743, "longitude": 4.9827655, "elevation": 498.0, "source": "osm", "_tags": {"check_date": "2024-04-14", "ele": "498", "name": "Les Opies", "name:oc": "Leis Aupilhas", "natural": "peak", "source:name:oc": "ieo-bdtopoc", "wikidata": "Q2803786"}}, {"name": "Signal de Piégros", "latitude": 43.7726539, "longitude": 5.6456103, "elevation": 559.0, "source": "osm", "_tags": {"ele": "559", "name": "Signal de Piégros", "natural": "peak"}}, {"name": "Le Collet", "latitude": 43.853155, "longitude": 5.71565, "elevation": 779.0, "source": "osm", "_tags": {"ele": "779", "name": "Le Collet", "natural": "peak"}}, {"name": "Pié Cabrier", "latitude": 43.8166999, "longitude": 5.641506, "elevation": 720.0, "source": "osm", "_tags": {"ele": "720", "name": "Pié Cabrier", "natural": "peak"}}, {"name": "Concors", "latitude": 43.5945673, "longitude": 5.6141699, "elevation": 781.0, "source": "osm", "_tags": {"ele": "781", "name": "Concors", "natural": "peak"}}, {"name": "Le Gros Collet", "latitude": 43.5999777, "longitude": 5.5129628, "elevation": null, "source": "osm", "_tags": {"name": "Le Gros Collet", "name:oc": "Colet Gròs", "natural": "peak", "source:name:oc": "ieo-bdtopoc"}}, {"name": "Colet Redon", "latitude": 43.5920625, "longitude": 5.5085931, "elevation": null, "source": "osm", "_tags": {"name": "Colet Redon", "name:fr": "Mamelon Rond", "name:oc": "Colet Redon", "natural": "peak", "source:name:fr": "https://www.locongres.org/fr/applications/dicodoc-fr/dicodoc-recherche?type=oc-fr&dic%5B%5D=BASIC&dic%5B%5D=RBVDOF&dic%5B%5D=LAUSOF&dic%5B%5D=GRANOF&dic%5B%5D=PNSTOF&dic%5B%5D=PROVOF&dic%5B%5D=LAGAOF&q=Colet&q2=&submit=Rechercher", "source:name:oc": "ieo-bdtopoc"}}, {"name": "Pic du Comte", "latitude": 44.1977917, "longitude": 5.2396606, "elevation": 1154.0, "source": "osm", "_tags": {"ele": "1154", "name": "Pic du Comte", "natural": "peak"}}, {"name": "La Crapon", "latitude": 44.2042854, "longitude": 5.5284703, "elevation": 1113.0, "source": "osm", "_tags": {"ele": "1113", "name": "La Crapon", "natural": "peak"}}, {"name": "Rocher Saint-Julien", "latitude": 44.2679964, "longitude": 5.2841002, "elevation": 705.0, "source": "osm", "_tags": {"ele": "705", "name": "Rocher Saint-Julien", "natural": "peak"}}, {"name": "Le Rochasson", "latitude": 44.3920456, "longitude": 5.6856471, "elevation": 1420.0, "source": "osm", "_tags": {"ele": "1420", "name": "Le Rochasson", "natural": "peak", "tourism": "viewpoint"}}, {"name": "Rocher des fées", "latitude": 44.4026058, "longitude": 5.2635592, "elevation": 635.0, "source": "osm", "_tags": {"ele": "635", "name": "Rocher des fées", "name:oc": "Rochièr de las Faas", "natural": "peak", "source:name:oc": "ieo-bdtopoc"}}, {"name": "Serre de Bout", "latitude": 44.3590625, "longitude": 5.4954248, "elevation": null, "source": "osm", "_tags": {"name": "Serre de Bout", "natural": "peak"}}, {"name": "La Tatie", "latitude": 44.2037095, "longitude": 5.6958642, "elevation": 1321.0, "source": "osm", "_tags": {"ele": "1321", "name": "La Tatie", "natural": "peak"}}, {"name": "Montagne du Pied du Mulet", "latitude": 44.1952616, "longitude": 5.6865754, "elevation": 1538.0, "source": "osm", "_tags": {"ele": "1538", "loc_name": "Montagne du Pé de Muéou", "name": "Montagne du Pied du Mulet", "natural": "peak"}}, {"name": "Montagne de Mare", "latitude": 44.2012124, "longitude": 5.7151037, "elevation": 1603.0, "source": "osm", "_tags": {"ele": "1603", "name": "Montagne de Mare", "natural": "peak"}}, {"name": "Sommet de Morteiron", "latitude": 44.1181493, "longitude": 5.7875549, "elevation": 1708.0, "source": "osm", "_tags": {"ele": "1708", "name": "Sommet de Morteiron", "natural": "peak"}}, {"name": "Le Buisseron", "latitude": 43.9694828, "longitude": 5.522098, "elevation": 1120.0, "source": "osm", "_tags": {"ele": "1120", "name": "Le Buisseron", "natural": "peak"}}, {"name": "Le Verger", "latitude": 43.9749894, "longitude": 5.4948082, "elevation": 1235.0, "source": "osm", "_tags": {"ele": "1235", "name": "Le Verger", "natural": "peak"}}, {"name": "Le Rocher Pointu", "latitude": 44.4190984, "longitude": 5.4742343, "elevation": 1402.0, "source": "osm", "_tags": {"ele": "1402", "name": "Le Rocher Pointu", "name:oc": "Lo Rochier Ponchut", "natural": "peak", "source:name:oc": "ieo-bdtopoc"}}, {"name": "Montagne d'Herc", "latitude": 44.2720897, "longitude": 5.589026, "elevation": 1379.0, "source": "osm", "_tags": {"ele": "1379", "name": "Montagne d'Herc", "name:oc": "Montanha d'Erc", "natural": "peak", "source:name:oc": "ieo-bdtopoc"}}, {"name": "Montagne des Gravieres", "latitude": 44.4194912, "longitude": 5.4039937, "elevation": null, "source": "osm", "_tags": {"name": "Montagne des Gravieres", "name:oc": "Montanha de las Gravièras", "natural": "peak", "source:name:oc": "ieo-bdtopoc"}}, {"name": "Serre d'Enclus", "latitude": 44.4227206, "longitude": 5.3842241, "elevation": 1146.0, "source": "osm", "_tags": {"ele": "1146", "name": "Serre d'Enclus", "name:oc": "Serre d'Enclusa", "natural": "peak", "source:name:oc": "ieo-bdtopoc"}}, {"name": "Montaiguet", "latitude": 43.4983839, "longitude": 5.4537361, "elevation": null, "source": "osm", "_tags": {"name": "Montaiguet", "name:oc": "Mont Aiguet", "natural": "peak", "source:name:oc": "ieo-bdtopoc"}}, {"name": "La Vanige", "latitude": 44.3250784, "longitude": 5.4277706, "elevation": 1391.0, "source": "osm", "_tags": {"ele": "1391", "name": "La Vanige", "natural": "peak"}}, {"name": "Pié de Maille", "latitude": 44.1844653, "longitude": 5.0228645, "elevation": 330.0, "source": "osm", "_tags": {"ele": "330", "name": "Pié de Maille", "natural": "peak"}}, {"name": "Paillère", "latitude": 44.1703551, "longitude": 5.0097773, "elevation": 338.0, "source": "osm", "_tags": {"ele": "338", "name": "Paillère", "natural": "peak"}}, {"name": "Pié Gu", "latitude": 44.170432, "longitude": 5.0155636, "elevation": 416.0, "source": "osm", "_tags": {"ele": "416", "name": "Pié Gu", "natural": "peak"}}, {"name": "Le Cayron", "latitude": 44.1622925, "longitude": 5.0225678, "elevation": 529.0, "source": "osm", "_tags": {"ele": "529", "name": "Le Cayron", "natural": "peak"}}, {"name": "", "latitude": 43.7031244, "longitude": 5.8837466, "elevation": 440.0, "source": "osm", "_tags": {"ele": "440", "natural": "peak"}}, {"name": "", "latitude": 43.6636553, "longitude": 5.3517767, "elevation": 359.0, "source": "osm", "_tags": {"ele": "359", "natural": "peak"}}, {"name": "La Baume", "latitude": 43.6664172, "longitude": 5.3376492, "elevation": 348.0, "source": "osm", "_tags": {"ele": "348", "name": "La Baume", "natural": "peak"}}, {"name": "La citadelle", "latitude": 43.5547999, "longitude": 5.6576426, "elevation": 720.0, "source": "osm", "_tags": {"ele": "720", "name": "La citadelle", "natural": "peak"}}, {"name": "Piébroux", "latitude": 44.004758, "longitude": 5.6916489, "elevation": 707.0, "source": "osm", "_tags": {"ele": "707", "name": "Piébroux", "natural": "peak"}}, {"name": "", "latitude": 44.0099355, "longitude": 5.696852, "elevation": 683.0, "source": "osm", "_tags": {"ele": "683", "natural": "peak"}}, {"name": "Pas de la Frache", "latitude": 44.157942, "longitude": 5.3315227, "elevation": 1585.0, "source": "osm", "_tags": {"ele": "1585", "name": "Pas de la Frache", "natural": "peak"}}, {"name": "", "latitude": 44.1721853, "longitude": 5.2874595, "elevation": 1836.0, "source": "osm", "_tags": {"ele": "1836", "natural": "peak"}}, {"name": "", "latitude": 43.9970767, "longitude": 5.5815513, "elevation": 646.0, "source": "osm", "_tags": {"ele": "646", "natural": "peak"}}, {"name": "", "latitude": 43.9926948, "longitude": 5.5337981, "elevation": 851.0, "source": "osm", "_tags": {"ele": "851", "natural": "peak"}}, {"name": "", "latitude": 44.0193261, "longitude": 5.53979, "elevation": 842.0, "source": "osm", "_tags": {"ele": "842", "natural": "peak"}}, {"name": "", "latitude": 44.0414545, "longitude": 5.5500913, "elevation": 854.0, "source": "osm", "_tags": {"ele": "854", "natural": "peak"}}, {"name": "", "latitude": 44.1037822, "longitude": 5.5318588, "elevation": 940.0, "source": "osm", "_tags": {"ele": "940", "natural": "peak"}}, {"name": "", "latitude": 44.0328518, "longitude": 5.4628914, "elevation": 1046.0, "source": "osm", "_tags": {"ele": "1046", "natural": "peak"}}, {"name": "", "latitude": 44.0839966, "longitude": 5.5028928, "elevation": 840.0, "source": "osm", "_tags": {"ele": "840", "natural": "peak"}}, {"name": "Le Rochas", "latitude": 44.3173934, "longitude": 5.6897065, "elevation": 885.0, "source": "osm", "_tags": {"ele": "885", "name": "Le Rochas", "natural": "peak"}}, {"name": "", "latitude": 43.7594973, "longitude": 4.8934755, "elevation": 354.0, "source": "osm", "_tags": {"ele": "354", "natural": "peak"}}, {"name": "", "latitude": 43.7600357, "longitude": 4.9022689, "elevation": 351.0, "source": "osm", "_tags": {"ele": "351", "natural": "peak"}}, {"name": "Collet de la Garde", "latitude": 43.5709714, "longitude": 5.0478597, "elevation": 126.0, "source": "osm", "_tags": {"ele": "126", "name": "Collet de la Garde", "natural": "peak"}}, {"name": "Rocher des Trois Évêques", "latitude": 44.137341, "longitude": 5.0581833, "elevation": 422.0, "source": "osm", "_tags": {"ele": "422", "name": "Rocher des Trois Évêques", "natural": "peak"}}, {"name": "Serre du Pestrin", "latitude": 44.135796, "longitude": 5.0639264, "elevation": null, "source": "osm", "_tags": {"name": "Serre du Pestrin", "natural": "peak"}}, {"name": "Roc Jaune", "latitude": 44.1342608, "longitude": 5.066706, "elevation": null, "source": "osm", "_tags": {"name": "Roc Jaune", "natural": "peak"}}, {"name": "Carabelle", "latitude": 44.1382058, "longitude": 5.0664518, "elevation": 520.0, "source": "osm", "_tags": {"ele": "520", "name": "Carabelle", "natural": "peak"}}, {"name": "Le Graveyron", "latitude": 44.1329792, "longitude": 5.0777355, "elevation": 443.0, "source": "osm", "_tags": {"ele": "443", "name": "Le Graveyron", "natural": "peak"}}, {"name": "Narretau", "latitude": 44.1061687, "longitude": 5.7192298, "elevation": 1489.0, "source": "osm", "_tags": {"ele": "1489", "name": "Narretau", "natural": "peak"}}, {"name": "Montagne de Linceuil", "latitude": 44.3137035, "longitude": 5.239218, "elevation": 1192.0, "source": "osm", "_tags": {"ele": "1192", "name": "Montagne de Linceuil", "natural": "peak"}}, {"name": "Montagne de Montlaud", "latitude": 44.3077192, "longitude": 5.2828826, "elevation": 983.0, "source": "osm", "_tags": {"ele": "983", "name": "Montagne de Montlaud", "natural": "peak"}}, {"name": "Sommet de Gacholle", "latitude": 44.0306731, "longitude": 5.2417713, "elevation": 475.0, "source": "osm", "_tags": {"ele": "475", "name": "Sommet de Gacholle", "natural": "peak"}}, {"name": "Tête du Mouret", "latitude": 44.4040839, "longitude": 5.3642893, "elevation": 1010.0, "source": "osm", "_tags": {"ele": "1010", "name": "Tête du Mouret", "name:oc": "Tèsta dau Morret", "natural": "peak", "source:name:oc": "ieo-bdtopoc"}}, {"name": "", "latitude": 44.1813788, "longitude": 5.0619446, "elevation": 717.0, "source": "osm", "_tags": {"ele": "717", "natural": "peak"}}, {"name": "", "latitude": 44.1820441, "longitude": 5.0645118, "elevation": 722.0, "source": "osm", "_tags": {"ele": "722", "natural": "peak"}}, {"name": "Serre des Moles", "latitude": 44.2743205, "longitude": 5.41523, "elevation": 866.0, "source": "osm", "_tags": {"ele": "866", "name": "Serre des Moles", "natural": "peak"}}, {"name": "Grand Puech", "latitude": 43.6947078, "longitude": 5.1627406, "elevation": 385.0, "source": "osm", "_tags": {"ele": "385", "name": "Grand Puech", "natural": "peak"}}, {"name": "Les Clèdes", "latitude": 43.6956636, "longitude": 5.1710521, "elevation": 394.0, "source": "osm", "_tags": {"ele": "394", "name": "Les Clèdes", "natural": "peak"}}, {"name": "", "latitude": 43.6896388, "longitude": 5.1571668, "elevation": 386.0, "source": "osm", "_tags": {"ele": "386", "natural": "peak"}}, {"name": "Saint-Sépulcre", "latitude": 43.6884463, "longitude": 5.6428995, "elevation": 589.0, "source": "osm", "_tags": {"ele": "589", "name": "Saint-Sépulcre", "natural": "peak"}}, {"name": "Le Courbiou", "latitude": 44.3985392, "longitude": 5.1052058, "elevation": 839.0, "source": "osm", "_tags": {"ele": "839", "name": "Le Courbiou", "natural": "peak"}}, {"name": "Oulle", "latitude": 44.4101547, "longitude": 5.0891475, "elevation": 789.0, "source": "osm", "_tags": {"ele": "789", "name": "Oulle", "natural": "peak"}}, {"name": "Serre de la commune", "latitude": 44.4156854, "longitude": 5.0804214, "elevation": 728.0, "source": "osm", "_tags": {"ele": "728", "name": "Serre de la commune", "natural": "peak"}}, {"name": "Roc de l'Aigle", "latitude": 44.4270299, "longitude": 5.7867442, "elevation": 1015.0, "source": "osm", "_tags": {"ele": "1015", "name": "Roc de l'Aigle", "natural": "peak"}}, {"name": "", "latitude": 43.5355501, "longitude": 4.9793872, "elevation": 109.0, "source": "osm", "_tags": {"ele": "109", "natural": "peak"}}, {"name": "Les Espranons", "latitude": 44.2974858, "longitude": 5.762679, "elevation": 1350.0, "source": "osm", "_tags": {"ele": "1350", "man_made": "mast", "name": "Les Espranons", "natural": "peak", "tower:type": "communication"}}, {"name": "Le Bramadou", "latitude": 43.8039386, "longitude": 5.5575013, "elevation": 663.0, "source": "osm", "_tags": {"ele": "663", "name": "Le Bramadou", "natural": "peak"}}, {"name": "Sommet de l'Homme", "latitude": 44.1320138, "longitude": 5.7501202, "elevation": 1637.0, "source": "osm", "_tags": {"ele": "1637", "name": "Sommet de l'Homme", "natural": "peak"}}, {"name": "Tête du Gros Charne", "latitude": 44.1612879, "longitude": 5.1923219, "elevation": 866.0, "source": "osm", "_tags": {"ele": "866", "name": "Tête du Gros Charne", "name:fr": "Tête du Gros Charne", "name:oc": "Tèsta dau Gròs Charna", "natural": "peak", "source:name:oc": "ieo-bdtopoc"}}, {"name": "Le Grand Barbeirol", "latitude": 44.1593655, "longitude": 5.1666215, "elevation": 809.0, "source": "osm", "_tags": {"ele": "809", "name": "Le Grand Barbeirol", "name:fr": "Le Grand Barbeirol", "name:oc": "Lo Barbeiròl  Grand", "natural": "peak", "source:name:oc": "ieo-bdtopoc"}}, {"name": "Le Petit Fribouquet", "latitude": 44.1506839, "longitude": 5.1773181, "elevation": 597.0, "source": "osm", "_tags": {"ele": "597", "name": "Le Petit Fribouquet", "name:fr": "Le Petit Fribouquet", "name:oc": "Lo Pichòt Friboquet", "natural": "peak", "source:name:oc": "ieo-bdtopoc"}}, {"name": "Sommet Saint-Alban", "latitude": 44.0756369, "longitude": 5.1729931, "elevation": null, "source": "osm", "_tags": {"name": "Sommet Saint-Alban", "natural": "peak"}}, {"name": "Le Signal", "latitude": 43.529416, "longitude": 5.5892505, "elevation": null, "source": "osm", "_tags": {"name": "Le Signal", "natural": "peak"}}, {"name": "Mont Major", "latitude": 43.6155911, "longitude": 5.7983635, "elevation": null, "source": "osm", "_tags": {"name": "Mont Major", "natural": "peak", "wikidata": "Q31638379"}}, {"name": "Pain de munition", "latitude": 43.5448808, "longitude": 5.7425746, "elevation": 612.0, "source": "osm", "_tags": {"ele": "612", "name": "Pain de munition", "natural": "peak", "wikidata": "Q31635097"}}, {"name": "", "latitude": 44.4196031, "longitude": 5.3911183, "elevation": null, "source": "osm", "_tags": {"natural": "peak"}}, {"name": "Rocher de Chateau Virant", "latitude": 43.5546315, "longitude": 5.1419738, "elevation": null, "source": "osm", "_tags": {"name": "Rocher de Chateau Virant", "natural": "peak"}}, {"name": "Montagne de Chabre", "latitude": 44.2658659, "longitude": 5.6428537, "elevation": 1393.0, "source": "osm", "_tags": {"ele": "1393", "loc_name": "Montagne de chèvre", "name": "Montagne de Chabre", "name:en": "Chabre Mountain", "name:fr": "Montagne de Chabre", "natural": "peak", "wikipedia": "fr:Montagne de Chabre"}}, {"name": "", "latitude": 43.6388419, "longitude": 5.1049587, "elevation": 133.0, "source": "osm", "_tags": {"ele": "133", "natural": "peak"}}, {"name": "Montagne de Geine", "latitude": 44.2096882, "longitude": 5.3657906, "elevation": 1268.0, "source": "osm", "_tags": {"ele": "1268", "name": "Montagne de Geine", "natural": "peak"}}, {"name": "Colline des Frères", "latitude": 43.4457696, "longitude": 5.4627449, "elevation": 275.0, "source": "osm", "_tags": {"ele": "275", "name": "Colline des Frères", "natural": "peak", "source": "IGN - 2021-12"}}, {"name": "La Gineste", "latitude": 44.4182646, "longitude": 5.7258893, "elevation": 811.0, "source": "osm", "_tags": {"ele": "811", "name": "La Gineste", "natural": "peak"}}, {"name": "La Petite Gineste", "latitude": 44.4138193, "longitude": 5.7283422, "elevation": 730.0, "source": "osm", "_tags": {"ele": "730", "name": "La Petite Gineste", "natural": "peak"}}, {"name": "Saint-Jean", "latitude": 44.4234837, "longitude": 5.7011909, "elevation": 860.0, "source": "osm", "_tags": {"ele": "860", "name": "Saint-Jean", "natural": "peak"}}, {"name": "Serre de l'Aigle", "latitude": 44.4050767, "longitude": 5.4839489, "elevation": 1088.0, "source": "osm", "_tags": {"ele": "1088", "name": "Serre de l'Aigle", "natural": "peak"}}, {"name": "Serre du Suquet", "latitude": 44.4072065, "longitude": 5.4697029, "elevation": 1098.0, "source": "osm", "_tags": {"ele": "1098", "name": "Serre du Suquet", "name:oc": "Serre dau Suquet", "natural": "peak", "source:name:oc": "ieo-bdtopoc"}}, {"name": "Montagne de Haute Huche", "latitude": 44.3162543, "longitude": 5.4314254, "elevation": 1301.0, "source": "osm", "_tags": {"ele": "1301", "name": "Montagne de Haute Huche", "natural": "peak"}}, {"name": "Garancier", "latitude": 44.3154573, "longitude": 5.4169839, "elevation": 1215.0, "source": "osm", "_tags": {"ele": "1215", "name": "Garancier", "natural": "peak"}}, {"name": "", "latitude": 44.2858809, "longitude": 5.4068986, "elevation": 799.0, "source": "osm", "_tags": {"ele": "799", "natural": "peak"}}, {"name": "Montagne de Serre Gautier", "latitude": 44.2337729, "longitude": 5.3793482, "elevation": 1125.0, "source": "osm", "_tags": {"ele": "1125", "name": "Montagne de Serre Gautier", "natural": "peak"}}, {"name": "Rocher des Toures", "latitude": 44.2276808, "longitude": 5.3494481, "elevation": 1135.0, "source": "osm", "_tags": {"ele": "1135", "name": "Rocher des Toures", "natural": "peak"}}, {"name": "Tête de Coste Raz", "latitude": 44.2280437, "longitude": 5.3450446, "elevation": 1165.0, "source": "osm", "_tags": {"ele": "1165", "name": "Tête de Coste Raz", "natural": "peak"}}, {"name": "Courroyes", "latitude": 43.5753136, "longitude": 5.030596, "elevation": 79.0, "source": "osm", "_tags": {"ele": "79", "name": "Courroyes", "natural": "peak", "source": "IGN - 2021-12"}}, {"name": "Gros Mourre", "latitude": 43.7577859, "longitude": 5.1650258, "elevation": 214.0, "source": "osm", "_tags": {"ele": "214", "name": "Gros Mourre", "natural": "peak"}}, {"name": "", "latitude": 43.7770907, "longitude": 5.1434614, "elevation": 317.0, "source": "osm", "_tags": {"ele": "317", "natural": "peak"}}, {"name": "", "latitude": 43.7797658, "longitude": 5.1394119, "elevation": 346.0, "source": "osm", "_tags": {"ele": "346", "natural": "peak"}}, {"name": "", "latitude": 43.7816953, "longitude": 5.138776, "elevation": 276.0, "source": "osm", "_tags": {"ele": "276", "natural": "peak"}}, {"name": "Collet de la Reinache", "latitude": 43.6129481, "longitude": 5.7686603, "elevation": 417.0, "source": "osm", "_tags": {"ele": "417", "name": "Collet de la Reinache", "natural": "peak", "source": "IGN BDTOPO 2021-12-15", "source:ele": "IGN RGEALTI 2020-01-06 (Lidar)"}}, {"name": "Le Devenson", "latitude": 43.6218271, "longitude": 5.7251428, "elevation": 434.0, "source": "osm", "_tags": {"ele": "434", "name": "Le Devenson", "natural": "peak", "source": "IGN BDTOPO 2021-12-15", "source:ele": "IGN RGEALTI 2020-01-06 (Lidar)"}}, {"name": "Sainte-Croix", "latitude": 43.5669125, "longitude": 5.0214914, "elevation": 59.0, "source": "osm", "_tags": {"ele": "59", "name": "Sainte-Croix", "natural": "peak", "source": "IGN - 2021-12"}}, {"name": "Collet Désert", "latitude": 43.563072, "longitude": 5.0074865, "elevation": 85.0, "source": "osm", "_tags": {"ele": "85", "name": "Collet Désert", "natural": "peak", "source": "IGN - 2022-03"}}, {"name": "Tartagu", "latitude": 43.6045592, "longitude": 5.0278385, "elevation": 109.0, "source": "osm", "_tags": {"ele": "109", "name": "Tartagu", "natural": "peak", "source": "IGN - 2022-03"}}, {"name": "Collet Redon", "latitude": 43.6056075, "longitude": 5.0387296, "elevation": 90.0, "source": "osm", "_tags": {"ele": "90", "name": "Collet Redon", "natural": "peak", "source": "IGN - 2022-03"}}, {"name": "Mountine Jean", "latitude": 43.5377087, "longitude": 4.9953803, "elevation": 90.0, "source": "osm", "_tags": {"ele": "90", "name": "Mountine Jean", "natural": "peak", "source": "IGN - 2022-03"}}, {"name": "Bernette", "latitude": 43.5498995, "longitude": 4.981613, "elevation": 80.0, "source": "osm", "_tags": {"ele": "80", "name": "Bernette", "natural": "peak", "source": "IGN - 2022-03"}}, {"name": "Le Castellan", "latitude": 43.5177143, "longitude": 4.9906199, "elevation": 30.0, "source": "osm", "_tags": {"ele": "30", "name": "Le Castellan", "natural": "peak", "source": "IGN - 2022-03", "wikidata": "Q132185665"}}, {"name": "Le Picarlet", "latitude": 43.7595683, "longitude": 5.7421646, "elevation": 401.0, "source": "osm", "_tags": {"ele": "401", "name": "Le Picarlet", "natural": "peak", "source": "IGN BDTOPO 2022-03-15", "source:ele": "IGN RGEALTI 2021-08-04 (Lidar)"}}, {"name": "Pierravon", "latitude": 44.0815526, "longitude": 5.6679712, "elevation": 1031.0, "source": "osm", "_tags": {"ele": "1031", "name": "Pierravon", "natural": "peak", "source": "IGN BDTOPO 2022-03-15", "source:ele": "IGN RGEALTI 2021-08-04 (Lidar)"}}, {"name": "Pébouine", "latitude": 44.0701512, "longitude": 5.6849358, "elevation": 1001.0, "source": "osm", "_tags": {"ele": "1001", "name": "Pébouine", "natural": "peak", "source": "IGN BDTOPO 2022-03-15", "source:ele": "IGN RGEALTI 2021-08-04 (Lidar)"}}, {"name": "La Meynière", "latitude": 44.0979729, "longitude": 5.6626556, "elevation": 1032.0, "source": "osm", "_tags": {"ele": "1032", "name": "La Meynière", "natural": "peak", "source": "IGN BDTOPO 2022-03-15", "source:ele": "IGN RGEALTI 2021-08-04 (Lidar)"}}, {"name": "Chastellar", "latitude": 44.0621535, "longitude": 5.681299, "elevation": 994.0, "source": "osm", "_tags": {"ele": "994", "name": "Chastellar", "natural": "peak", "source": "IGN BDTOPO 2022-03-15", "source:ele": "IGN RGEALTI 2021-08-04 (Lidar)"}}, {"name": "Le Coulet", "latitude": 44.0799088, "longitude": 5.6953778, "elevation": 920.0, "source": "osm", "_tags": {"ele": "920", "name": "Le Coulet", "natural": "peak", "source": "IGN BDTOPO 2022-03-15", "source:ele": "IGN RGEALTI 2021-08-04 (Lidar)"}}, {"name": "Nartaud", "latitude": 44.0806816, "longitude": 5.7107681, "elevation": 1052.0, "source": "osm", "_tags": {"ele": "1052", "name": "Nartaud", "natural": "peak", "source": "IGN BDTOPO 2022-03-15", "source:ele": "IGN RGEALTI 2021-08-04 (Lidar)"}}, {"name": "La Gardette", "latitude": 44.0899087, "longitude": 5.7123698, "elevation": 1130.0, "source": "osm", "_tags": {"ele": "1130", "name": "La Gardette", "natural": "peak", "source": "IGN BDTOPO 2022-03-15", "source:ele": "IGN RGEALTI 2021-08-04 (Lidar)"}}, {"name": "La Pérardière", "latitude": 44.052508, "longitude": 5.6945299, "elevation": 908.0, "source": "osm", "_tags": {"ele": "908", "name": "La Pérardière", "natural": "peak", "source": "IGN BDTOPO 2022-03-15", "source:ele": "IGN RGEALTI 2021-08-04 (Lidar)"}}, {"name": "Jalinière", "latitude": 44.1012161, "longitude": 5.6770168, "elevation": 1181.0, "source": "osm", "_tags": {"ele": "1181", "name": "Jalinière", "natural": "peak", "source": "IGN BDTOPO 2022-03-15", "source:ele": "IGN RGEALTI 2021-08-04 (Lidar)"}}, {"name": "Les Aubarines", "latitude": 44.077216, "longitude": 5.7400097, "elevation": 1150.0, "source": "osm", "_tags": {"ele": "1150", "name": "Les Aubarines", "natural": "peak", "source": "IGN BDTOPO 2022-03-15", "source:ele": "IGN RGEALTI 2021-08-04 (Lidar)"}}, {"name": "Le Crapon", "latitude": 44.089953, "longitude": 5.6491234, "elevation": 1240.0, "source": "osm", "_tags": {"ele": "1240", "name": "Le Crapon", "natural": "peak", "source": "IGN BDTOPO 2022-03-15", "source:ele": "IGN RGEALTI 2021-08-04 (Lidar)"}}, {"name": "L'Ermite", "latitude": 44.1058844, "longitude": 5.6296561, "elevation": 1187.0, "source": "osm", "_tags": {"ele": "1187", "name": "L'Ermite", "natural": "peak", "source": "IGN BDTOPO 2022-03-15", "source:ele": "IGN RGEALTI 2021-08-04 (Lidar)"}}, {"name": "Gleyrous", "latitude": 44.088049, "longitude": 5.7299485, "elevation": 1183.0, "source": "osm", "_tags": {"ele": "1183", "name": "Gleyrous", "natural": "peak", "source": "IGN BDTOPO 2022-03-15", "source:ele": "IGN RGEALTI 2021-08-04 (Lidar)"}}, {"name": "Pié d'Enroux", "latitude": 44.0389872, "longitude": 5.6508094, "elevation": 842.0, "source": "osm", "_tags": {"ele": "842", "name": "Pié d'Enroux", "natural": "peak", "source": "IGN BDTOPO 2022-03-15", "source:ele": "IGN RGEALTI 2021-08-04 (Lidar)"}}, {"name": "Colline du Château", "latitude": 43.67816, "longitude": 5.8491865, "elevation": 460.0, "source": "osm", "_tags": {"ele": "460", "name": "Colline du Château", "natural": "peak", "source": "IGN BDTOPO 2022-06-15", "source:ele": "IGN RGEALTI 2020-01-06 (Lidar)"}}, {"name": "La Blache", "latitude": 44.2470266, "longitude": 5.2816168, "elevation": null, "source": "osm", "_tags": {"name": "La Blache", "natural": "peak", "source": "IGN - 2022-06"}}, {"name": "La Prenasse", "latitude": 44.2486459, "longitude": 5.226454, "elevation": null, "source": "osm", "_tags": {"name": "La Prenasse", "natural": "peak", "source": "IGN - 2022-06"}}, {"name": "Roche d'Oie", "latitude": 44.2592011, "longitude": 5.2044475, "elevation": 623.0, "source": "osm", "_tags": {"ele": "623", "name": "Roche d'Oie", "natural": "peak", "source": "IGN - 2022-06"}}, {"name": "Rocher de Mévouillon", "latitude": 44.2378555, "longitude": 5.4818941, "elevation": 1120.0, "source": "osm", "_tags": {"ele": "1120", "name": "Rocher de Mévouillon", "natural": "peak"}}, {"name": "Roche Colombe", "latitude": 44.272103, "longitude": 5.2131664, "elevation": 681.0, "source": "osm", "_tags": {"ele": "681", "name": "Roche Colombe", "natural": "peak"}}, {"name": "Sommet de Bluye", "latitude": 44.2306033, "longitude": 5.2546424, "elevation": 1063.0, "source": "osm", "_tags": {"ele": "1063", "name": "Sommet de Bluye", "natural": "peak"}}, {"name": "Rocher Rond", "latitude": 44.267892, "longitude": 5.2367987, "elevation": 804.0, "source": "osm", "_tags": {"ele": "804", "name": "Rocher Rond", "natural": "peak"}}, {"name": "Risou", "latitude": 44.3930659, "longitude": 5.5196164, "elevation": 1182.0, "source": "osm", "_tags": {"ele": "1182", "name": "Risou", "natural": "peak"}}, {"name": "Gonson", "latitude": 44.2322171, "longitude": 5.5557601, "elevation": 1101.0, "source": "osm", "_tags": {"ele": "1101", "name": "Gonson", "natural": "peak"}}, {"name": "Sommet de Chassenaye", "latitude": 44.2345288, "longitude": 5.5225002, "elevation": 1167.0, "source": "osm", "_tags": {"ele": "1167", "name": "Sommet de Chassenaye", "natural": "peak"}}, {"name": "Sommet des Tunes", "latitude": 44.2576316, "longitude": 5.4028559, "elevation": 1263.0, "source": "osm", "_tags": {"ele": "1263", "name": "Sommet des Tunes", "natural": "peak"}}, {"name": "Rocher du Grand Ubac", "latitude": 44.2924024, "longitude": 5.1684563, "elevation": 782.0, "source": "osm", "_tags": {"ele": "782", "name": "Rocher du Grand Ubac", "natural": "peak"}}, {"name": "La Montagne", "latitude": 44.2990012, "longitude": 5.168409, "elevation": 789.0, "source": "osm", "_tags": {"ele": "789", "name": "La Montagne", "natural": "peak"}}, {"name": "Sommet Est de Gravas", "latitude": 44.2758153, "longitude": 5.3731907, "elevation": 1147.0, "source": "osm", "_tags": {"ele": "1147", "name": "Sommet Est de Gravas", "natural": "peak"}}, {"name": "Rocher de Bramart", "latitude": 44.4190159, "longitude": 5.2973248, "elevation": 936.0, "source": "osm", "_tags": {"ele": "936", "name": "Rocher de Bramart", "name:oc": "Rochièr de Bramart", "natural": "peak", "source:name:oc": "ieo-bdtopoc"}}, {"name": "Rochers Mindrits", "latitude": 44.2816361, "longitude": 5.3382354, "elevation": 1114.0, "source": "osm", "_tags": {"ele": "1114", "name": "Rochers Mindrits", "natural": "peak"}}, {"name": "Antenne d'Ambonne", "latitude": 44.3817395, "longitude": 5.3289778, "elevation": 1299.0, "source": "osm", "_tags": {"ele": "1299", "name": "Antenne d'Ambonne", "name:oc": "Antena d'Ambona", "natural": "peak", "source:name:oc": "ieo-bdtopoc"}}, {"name": "Montagne de Buisseron", "latitude": 44.3805256, "longitude": 5.3159711, "elevation": 1269.0, "source": "osm", "_tags": {"ele": "1269", "name": "Montagne de Buisseron", "name:oc": "Montanha de Boisseron", "natural": "peak", "source:name:oc": "ieo-bdtopoc"}}, {"name": "Charamelet", "latitude": 44.3718609, "longitude": 5.3463279, "elevation": 1264.0, "source": "osm", "_tags": {"ele": "1264", "name": "Charamelet", "name:oc": "Charamelet", "natural": "peak", "source:name:oc": "ieo-bdtopoc"}}, {"name": "Beaumort", "latitude": 43.5340068, "longitude": 5.802782, "elevation": 627.0, "source": "osm", "_tags": {"ele": "627", "name": "Beaumort", "natural": "peak", "source": "IGN BDTOPO 2022-06-15", "source:ele": "IGN RGEALTI 2020-01-06 (Lidar)"}}, {"name": "Bigourdan", "latitude": 43.6933669, "longitude": 5.8195035, "elevation": 433.0, "source": "osm", "_tags": {"ele": "433", "name": "Bigourdan", "natural": "peak", "source": "IGN BDTOPO 2022-06-15", "source:ele": "IGN RGEALTI 2020-01-06 (Lidar)"}}, {"name": "Colle Piérade", "latitude": 43.6374417, "longitude": 5.8844535, "elevation": 490.0, "source": "osm", "_tags": {"ele": "490", "name": "Colle Piérade", "natural": "peak", "source": "IGN BDTOPO 2022-06-15", "source:ele": "IGN RGEALTI 2020-01-06 (Lidar)"}}, {"name": "Colles Gacharelles", "latitude": 43.5848533, "longitude": 5.8772393, "elevation": 523.0, "source": "osm", "_tags": {"ele": "523", "name": "Colles Gacharelles", "natural": "peak", "source": "IGN BDTOPO 2022-06-15", "source:ele": "IGN RGEALTI 2020-01-06 (Lidar)"}}, {"name": "Montagne de Baume Noire", "latitude": 44.3061928, "longitude": 5.2272864, "elevation": 1034.0, "source": "osm", "_tags": {"ele": "1034", "name": "Montagne de Baume Noire", "natural": "peak"}}, {"name": "Malpertuis", "latitude": 44.2977139, "longitude": 5.2468447, "elevation": 950.0, "source": "osm", "_tags": {"ele": "950", "name": "Malpertuis", "natural": "peak"}}, {"name": "Monts d'Autuche", "latitude": 44.3550326, "longitude": 5.2004679, "elevation": 965.0, "source": "osm", "_tags": {"ele": "965", "name": "Monts d'Autuche", "natural": "peak"}}, {"name": "Montagne de Peitieux", "latitude": 44.3213403, "longitude": 5.1781901, "elevation": 842.0, "source": "osm", "_tags": {"ele": "842", "name": "Montagne de Peitieux", "natural": "peak"}}, {"name": "Pié Fouquet", "latitude": 43.6650688, "longitude": 5.3641658, "elevation": 436.0, "source": "osm", "_tags": {"ele": "436", "name": "Pié Fouquet", "natural": "peak", "source": "IGN - 2022-06"}}, {"name": "Serre de l'Estalonnet", "latitude": 44.3379974, "longitude": 5.407554, "elevation": 1240.0, "source": "osm", "_tags": {"ele": "1240", "name": "Serre de l'Estalonnet", "natural": "peak"}}, {"name": "Le Casset", "latitude": 44.3690406, "longitude": 5.3673429, "elevation": 1317.0, "source": "osm", "_tags": {"ele": "1317", "name": "Le Casset", "name:oc": "Lo Casset", "natural": "peak"}}, {"name": "Montagne du Grêle", "latitude": 44.3449482, "longitude": 5.3936425, "elevation": 1276.0, "source": "osm", "_tags": {"ele": "1276", "name": "Montagne du Grêle", "natural": "peak"}}, {"name": "Montagne de Bouvrège", "latitude": 44.2522687, "longitude": 5.4862653, "elevation": 1242.0, "source": "osm", "_tags": {"ele": "1242", "name": "Montagne de Bouvrège", "natural": "peak"}}, {"name": "Serre Gros", "latitude": 44.2911005, "longitude": 5.3175458, "elevation": 961.0, "source": "osm", "_tags": {"ele": "961", "name": "Serre Gros", "natural": "peak"}}, {"name": "Serre de Gignac", "latitude": 44.3160925, "longitude": 5.3975464, "elevation": 1106.0, "source": "osm", "_tags": {"ele": "1106", "name": "Serre de Gignac", "natural": "peak"}}, {"name": "Mont Saint-Mathieu", "latitude": 44.3139199, "longitude": 5.3736082, "elevation": 951.0, "source": "osm", "_tags": {"ele": "951", "name": "Mont Saint-Mathieu", "natural": "peak"}}, {"name": "Montagne du Devès", "latitude": 44.32971, "longitude": 5.1355346, "elevation": 696.0, "source": "osm", "_tags": {"ele": "696", "name": "Montagne du Devès", "natural": "peak"}}, {"name": "Teyssonnières", "latitude": 44.2634293, "longitude": 5.2096746, "elevation": 628.0, "source": "osm", "_tags": {"ele": "628", "name": "Teyssonnières", "natural": "peak"}}, {"name": "Sommet des Blaches", "latitude": 44.267825, "longitude": 5.2184041, "elevation": 643.0, "source": "osm", "_tags": {"ele": "643", "name": "Sommet des Blaches", "natural": "peak"}}, {"name": "Mauperrier", "latitude": 44.4128563, "longitude": 5.1317184, "elevation": 886.0, "source": "osm", "_tags": {"ele": "886", "name": "Mauperrier", "natural": "peak"}}, {"name": "La Veyronne", "latitude": 44.3968815, "longitude": 5.1418975, "elevation": 777.0, "source": "osm", "_tags": {"ele": "777", "name": "La Veyronne", "natural": "peak"}}, {"name": "Gros Moure", "latitude": 44.314339, "longitude": 5.1649323, "elevation": 826.0, "source": "osm", "_tags": {"ele": "826", "name": "Gros Moure", "natural": "peak"}}, {"name": "Pié Cheval", "latitude": 44.1474, "longitude": 5.1329565, "elevation": 505.0, "source": "osm", "_tags": {"ele": "505", "name": "Pié Cheval", "natural": "peak"}}, {"name": "La Madeleine", "latitude": 44.1367729, "longitude": 5.1270387, "elevation": 463.0, "source": "osm", "_tags": {"ele": "463", "name": "La Madeleine", "natural": "peak"}}, {"name": "Collet Pellat", "latitude": 44.1803556, "longitude": 5.3431441, "elevation": 759.0, "source": "osm", "_tags": {"ele": "759", "name": "Collet Pellat", "natural": "peak"}}, {"name": "Pié de Juin", "latitude": 44.1840096, "longitude": 5.3328113, "elevation": 787.0, "source": "osm", "_tags": {"ele": "787", "name": "Pié de Juin", "natural": "peak"}}, {"name": "Collet de Réchaume", "latitude": 44.2049439, "longitude": 5.2416527, "elevation": 918.0, "source": "osm", "_tags": {"ele": "918", "name": "Collet de Réchaume", "natural": "peak"}}, {"name": "", "latitude": 43.7469077, "longitude": 4.897986, "elevation": 274.0, "source": "osm", "_tags": {"ele": "274", "natural": "peak"}}, {"name": "Roc Salière", "latitude": 43.9520095, "longitude": 5.3407749, "elevation": 461.0, "source": "osm", "_tags": {"ele": "461", "name": "Roc Salière", "natural": "peak"}}, {"name": "La Colle Pelade", "latitude": 43.5631144, "longitude": 5.8041415, "elevation": 575.0, "source": "osm", "_tags": {"ele": "575", "name": "La Colle Pelade", "natural": "peak", "source": "IGN BDTOPO 2022-12-15", "source:ele": "IGN RGEALTI 2022-12-20 (Lidar)"}}, {"name": "", "latitude": 43.6976046, "longitude": 5.7832643, "elevation": 394.0, "source": "osm", "_tags": {"ele": "394", "natural": "peak", "source:ele": "IGN RGEALTI 2022-12-20 (Lidar)"}}, {"name": "Collet du Pouchon", "latitude": 43.5389054, "longitude": 5.7196111, "elevation": 531.0, "source": "osm", "_tags": {"ele": "531", "name": "Collet du Pouchon", "natural": "peak", "source": "IGN BDTOPO 2022-12-15", "source:ele": "IGN RGEALTI 2022-12-20 (Lidar)"}}, {"name": "La Dispute", "latitude": 43.5459908, "longitude": 5.7289198, "elevation": 571.0, "source": "osm", "_tags": {"ele": "571", "name": "La Dispute", "natural": "peak", "source": "IGN BDTOPO 2022-12-15", "source:ele": "IGN RGEALTI 2022-12-20 (Lidar)"}}, {"name": "", "latitude": 43.7095001, "longitude": 4.9032796, "elevation": 145.0, "source": "osm", "_tags": {"ele": "145", "natural": "peak"}}, {"name": "", "latitude": 43.7126856, "longitude": 4.9029143, "elevation": 191.0, "source": "osm", "_tags": {"ele": "191", "natural": "peak"}}, {"name": "La Tête de l'Aigle", "latitude": 43.6919566, "longitude": 5.7840694, "elevation": 425.0, "source": "osm", "_tags": {"ele": "425", "name": "La Tête de l'Aigle", "natural": "peak", "source": "IGN BDTOPO 2022-12-15", "source:ele": "IGN RGEALTI 2022-12-20 (Lidar)"}}, {"name": "Olympe", "latitude": 43.4451037, "longitude": 5.761161, "elevation": 881.0, "source": "osm", "_tags": {"ele": "881", "name": "Olympe", "natural": "peak", "note": "Il s'agit bien de l'Olympe et non du Mont Olympe qui existe aussi et dans le même secteur", "source": "IGN BDTOPO 2022-12-15", "source:ele": "IGN RGEALTI 2022-12-20 (Lidar)"}}, {"name": "Mont Carmel", "latitude": 43.6712982, "longitude": 5.8457814, "elevation": 454.0, "source": "osm", "_tags": {"ele": "454", "name": "Mont Carmel", "natural": "peak", "source": "IGN BDTOPO 2022-12-15", "source:ele": "IGN RGEALTI 2022-12-20 (Lidar)"}}, {"name": "Quilladou", "latitude": 43.5357145, "longitude": 5.819918, "elevation": 609.0, "source": "osm", "_tags": {"ele": "609", "name": "Quilladou", "natural": "peak", "source": "IGN BDTOPO 2022-12-15", "source:ele": "IGN RGEALTI 2022-12-20 (Lidar)"}}, {"name": "L'Espéron", "latitude": 43.6194531, "longitude": 5.8379165, "elevation": 417.0, "source": "osm", "_tags": {"ele": "417", "name": "L'Espéron", "natural": "peak", "source": "IGN BDTOPO 2022-12-15", "source:ele": "IGN RGEALTI 2022-12-20 (Lidar)"}}, {"name": "La Gardiole", "latitude": 43.5699811, "longitude": 5.6983879, "elevation": 630.0, "source": "osm", "_tags": {"ele": "630", "name": "La Gardiole", "natural": "peak", "source": "IGN BDTOPO 2022-12-15", "source:ele": "IGN RGEALTI 2022-12-20 (Lidar)"}}, {"name": "Pic de Gaurran", "latitude": 43.5908877, "longitude": 5.8580693, "elevation": 515.0, "source": "osm", "_tags": {"ele": "515", "name": "Pic de Gaurran", "natural": "peak", "source": "IGN BDTOPO 2022-12-15", "source:ele": "IGN RGEALTI 2022-12-20 (Lidar)"}}, {"name": "Colle de Lineau", "latitude": 43.7513194, "longitude": 5.8270672, "elevation": 396.0, "source": "osm", "_tags": {"ele": "396", "name": "Colle de Lineau", "natural": "peak", "source": "IGN BDTOPO 2022-12-15", "source:ele": "IGN RGEALTI 2022-12-20 (Lidar)"}}, {"name": "Coste Raste", "latitude": 43.6822096, "longitude": 5.857167, "elevation": 441.0, "source": "osm", "_tags": {"ele": "441", "name": "Coste Raste", "natural": "peak", "source": "IGN BDTOPO 2022-12-15", "source:ele": "IGN RGEALTI 2022-12-20 (Lidar)"}}, {"name": "Le Mourre de Cros", "latitude": 44.1282726, "longitude": 5.1536985, "elevation": 410.0, "source": "osm", "_tags": {"ele": "410", "name": "Le Mourre de Cros", "name:fr": "Le Mourre de Cros", "name:oc": "Lo Morre de Cròs", "natural": "peak", "source:name:oc": "ieo-bdtopoc"}}, {"name": "Le Collet du Général", "latitude": 43.5330903, "longitude": 5.825964, "elevation": 570.0, "source": "osm", "_tags": {"ele": "570", "name": "Le Collet du Général", "natural": "peak", "source": "IGN BDTOPO 2022-12-15", "source:ele": "IGN RGEALTI 2022-12-20 (Lidar)"}}, {"name": "L'Éouvière", "latitude": 43.5900557, "longitude": 5.8351989, "elevation": 572.0, "source": "osm", "_tags": {"ele": "572", "name": "L'Éouvière", "natural": "peak", "source": "IGN BDTOPO 2022-12-15", "source:ele": "IGN RGEALTI 2022-12-20 (Lidar)"}}, {"name": "Berne", "latitude": 43.4361869, "longitude": 5.822809, "elevation": 590.0, "source": "osm", "_tags": {"ele": "590", "name": "Berne", "natural": "peak", "source": "IGN BDTOPO 2022-12-15", "source:ele": "IGN RGEALTI 2022-12-20 (Lidar)"}}, {"name": "Collet des Fourches", "latitude": 43.7330033, "longitude": 5.8337, "elevation": 338.0, "source": "osm", "_tags": {"ele": "338", "name": "Collet des Fourches", "natural": "peak", "source": "IGN BDTOPO 2022-12-15", "source:ele": "IGN RGEALTI 2022-12-20 (Lidar)"}}, {"name": "Collet de Biau", "latitude": 43.5911519, "longitude": 5.8685373, "elevation": 512.0, "source": "osm", "_tags": {"ele": "512", "name": "Collet de Biau", "natural": "peak", "source": "IGN BDTOPO 2022-12-15", "source:ele": "IGN RGEALTI 2022-12-20 (Lidar)"}}, {"name": "Le Peirouret", "latitude": 43.6823143, "longitude": 5.850088, "elevation": 422.0, "source": "osm", "_tags": {"ele": "422", "name": "Le Peirouret", "natural": "peak", "source": "IGN BDTOPO 2022-12-15", "source:ele": "IGN RGEALTI 2022-12-20 (Lidar)"}}, {"name": "Collet de Mourgues", "latitude": 43.4920423, "longitude": 5.7632557, "elevation": 299.0, "source": "osm", "_tags": {"ele": "299", "name": "Collet de Mourgues", "natural": "peak", "source": "IGN BDTOPO 2022-12-15", "source:ele": "IGN RGEALTI 2022-12-20 (Lidar)"}}, {"name": "Collet Saint-Martin", "latitude": 43.6138217, "longitude": 5.7827422, "elevation": 425.0, "source": "osm", "_tags": {"ele": "425", "name": "Collet Saint-Martin", "natural": "peak", "source": "IGN BDTOPO 2022-12-15", "source:ele": "IGN RGEALTI 2022-12-20 (Lidar)"}}, {"name": "Collet de Mourre Redon", "latitude": 43.5126654, "longitude": 5.2009222, "elevation": 100.0, "source": "osm", "_tags": {"ele": "100", "name": "Collet de Mourre Redon", "natural": "peak", "source": "IGN - 2022-06"}}, {"name": "Collet de Colombier", "latitude": 43.5246508, "longitude": 5.2064595, "elevation": 120.0, "source": "osm", "_tags": {"ele": "120", "name": "Collet de Colombier", "natural": "peak", "source": "IGN - 2022-06"}}, {"name": "Aiguille de Buis", "latitude": 44.2863045, "longitude": 5.2905008, "elevation": null, "source": "osm", "_tags": {"name": "Aiguille de Buis", "natural": "peak"}}, {"name": "Mourre de Cairas", "latitude": 43.8062412, "longitude": 5.1823497, "elevation": 726.0, "source": "osm", "_tags": {"ele": "726", "name": "Mourre de Cairas", "natural": "peak", "source": "survey"}}, {"name": "Cap de Serre", "latitude": 43.78395, "longitude": 5.32778, "elevation": 614.0, "source": "osm", "_tags": {"ele": "614", "name": "Cap de Serre", "natural": "peak", "source": "survey"}}, {"name": "Collet Redon", "latitude": 43.5974838, "longitude": 5.5038025, "elevation": 435.0, "source": "osm", "_tags": {"ele": "435", "name": "Collet Redon", "natural": "peak", "source": "IGN - 2022-06"}}, {"name": "", "latitude": 44.2663705, "longitude": 5.8363461, "elevation": null, "source": "osm", "_tags": {"natural": "peak"}}, {"name": "Le Cluyer", "latitude": 43.985185, "longitude": 5.4071476, "elevation": 1054.0, "source": "osm", "_tags": {"ele": "1054", "name": "Le Cluyer", "natural": "peak"}}, {"name": "Collet de Travignon", "latitude": 43.9887872, "longitude": 5.4235892, "elevation": 1014.0, "source": "osm", "_tags": {"ele": "1014", "name": "Collet de Travignon", "natural": "peak"}}, {"name": "Le Rouan", "latitude": 43.98537, "longitude": 5.4364417, "elevation": 1028.0, "source": "osm", "_tags": {"ele": "1028", "name": "Le Rouan", "natural": "peak"}}, {"name": "Colline de Berre", "latitude": 44.0032981, "longitude": 5.4475593, "elevation": 1187.0, "source": "osm", "_tags": {"ele": "1187", "name": "Colline de Berre", "natural": "peak"}}, {"name": "Collet de Brégavon", "latitude": 44.0057112, "longitude": 5.412637, "elevation": 1057.0, "source": "osm", "_tags": {"ele": "1057", "name": "Collet de Brégavon", "natural": "peak"}}, {"name": "Colline de Perréal", "latitude": 43.9179199, "longitude": 5.363581, "elevation": 475.0, "source": "osm", "_tags": {"ele": "475", "name": "Colline de Perréal", "natural": "peak"}}, {"name": "Colline de la Bruyère", "latitude": 43.9210125, "longitude": 5.4355745, "elevation": 409.0, "source": "osm", "_tags": {"ele": "409", "name": "Colline de la Bruyère", "natural": "peak"}}, {"name": "", "latitude": 43.9185764, "longitude": 5.4216599, "elevation": 386.0, "source": "osm", "_tags": {"ele": "386", "natural": "peak"}}, {"name": "", "latitude": 43.9188632, "longitude": 5.4272512, "elevation": 404.0, "source": "osm", "_tags": {"ele": "404", "natural": "peak"}}, {"name": "Colline des Puys", "latitude": 43.9065732, "longitude": 5.4174629, "elevation": 470.0, "source": "osm", "_tags": {"ele": "470", "name": "Colline des Puys", "natural": "peak"}}, {"name": "", "latitude": 43.9585089, "longitude": 5.326826, "elevation": 579.0, "source": "osm", "_tags": {"ele": "579", "natural": "peak"}}, {"name": "", "latitude": 43.9096521, "longitude": 5.3472816, "elevation": 338.0, "source": "osm", "_tags": {"ele": "338", "natural": "peak"}}, {"name": "", "latitude": 43.9120307, "longitude": 5.3499491, "elevation": 334.0, "source": "osm", "_tags": {"ele": "334", "natural": "peak"}}, {"name": "", "latitude": 43.8981501, "longitude": 5.345668, "elevation": 320.0, "source": "osm", "_tags": {"ele": "320", "natural": "peak"}}, {"name": "", "latitude": 43.9037697, "longitude": 5.3424114, "elevation": 303.0, "source": "osm", "_tags": {"ele": "303", "natural": "peak"}}, {"name": "Le Fort", "latitude": 43.899443, "longitude": 5.361252, "elevation": 352.0, "source": "osm", "_tags": {"ele": "352", "name": "Le Fort", "natural": "peak"}}, {"name": "Rocher de l'Aiguille", "latitude": 44.3430374, "longitude": 5.1375217, "elevation": 520.0, "source": "osm", "_tags": {"ele": "520", "name": "Rocher de l'Aiguille", "natural": "peak"}}, {"name": "Le Pointu", "latitude": 43.9339226, "longitude": 5.4976911, "elevation": 872.0, "source": "osm", "_tags": {"ele": "872", "name": "Le Pointu", "natural": "peak"}}, {"name": "Mourre Blanc", "latitude": 43.9227801, "longitude": 5.3658022, "elevation": 432.0, "source": "osm", "_tags": {"ele": "432", "name": "Mourre Blanc", "natural": "peak"}}, {"name": "", "latitude": 43.9241952, "longitude": 5.4055152, "elevation": 322.0, "source": "osm", "_tags": {"ele": "322", "natural": "peak"}}, {"name": "", "latitude": 43.9301399, "longitude": 5.4395288, "elevation": 371.0, "source": "osm", "_tags": {"ele": "371", "natural": "peak"}}, {"name": "", "latitude": 43.9331108, "longitude": 5.428032, "elevation": 355.0, "source": "osm", "_tags": {"ele": "355", "natural": "peak"}}, {"name": "La Garrussière", "latitude": 43.939738, "longitude": 5.341781, "elevation": 332.0, "source": "osm", "_tags": {"ele": "332", "name": "La Garrussière", "natural": "peak"}}, {"name": "", "latitude": 43.9489136, "longitude": 5.3076732, "elevation": 481.0, "source": "osm", "_tags": {"ele": "481", "natural": "peak"}}, {"name": "", "latitude": 43.98962, "longitude": 5.3546782, "elevation": 880.0, "source": "osm", "_tags": {"ele": "880", "natural": "peak"}}, {"name": "", "latitude": 43.9026592, "longitude": 5.4765245, "elevation": 543.0, "source": "osm", "_tags": {"ele": "543", "natural": "peak"}}, {"name": "", "latitude": 43.9007823, "longitude": 5.4544601, "elevation": 507.0, "source": "osm", "_tags": {"ele": "507", "natural": "peak"}}, {"name": "Colline de la Gardette", "latitude": 43.900904, "longitude": 5.34108, "elevation": 320.0, "source": "osm", "_tags": {"ele": "320", "name": "Colline de la Gardette", "natural": "peak"}}, {"name": "Roche Ruine", "latitude": 44.0014942, "longitude": 5.7715873, "elevation": 911.0, "source": "osm", "_tags": {"ele": "911", "name": "Roche Ruine", "natural": "peak", "source": "IGN BDTOPO 2022-06-15", "source:ele": "IGN RGEALTI 2021-08-04 (Lidar)"}}, {"name": "", "latitude": 43.8463883, "longitude": 5.7345997, "elevation": 630.0, "source": "osm", "_tags": {"ele": "630", "natural": "peak", "source": "IGN BDTOPO 2022-06-15", "source:ele": "IGN RGEALTI 2021-08-04 (Lidar)"}}, {"name": "Le Saignas", "latitude": 44.0055334, "longitude": 5.8217538, "elevation": 641.0, "source": "osm", "_tags": {"ele": "641", "name": "Le Saignas", "natural": "peak", "source": "IGN BDTOPO 2022-06-15", "source:ele": "IGN RGEALTI 2021-08-04 (Lidar)"}}, {"name": "La Bombardière", "latitude": 43.9563943, "longitude": 5.7854389, "elevation": 604.0, "source": "osm", "_tags": {"ele": "604", "name": "La Bombardière", "natural": "peak", "source": "IGN BDTOPO 2022-06-15", "source:ele": "IGN RGEALTI 2021-08-04 (Lidar)"}}, {"name": "Pibouret", "latitude": 43.9789857, "longitude": 5.8269495, "elevation": 597.0, "source": "osm", "_tags": {"ele": "597", "name": "Pibouret", "natural": "peak", "source": "IGN BDTOPO 2022-06-15", "source:ele": "IGN RGEALTI 2021-08-04 (Lidar)"}}, {"name": "Mont d'Or", "latitude": 43.8379235, "longitude": 5.7939445, "elevation": 529.0, "source": "osm", "_tags": {"ele": "529", "name": "Mont d'Or", "natural": "peak", "source": "IGN BDTOPO 2022-06-15", "source:ele": "IGN RGEALTI 2021-08-04 (Lidar)"}}, {"name": "Le Serre", "latitude": 44.3889323, "longitude": 5.0210479, "elevation": 294.0, "source": "osm", "_tags": {"ele": "294", "name": "Le Serre", "natural": "peak", "source": "IGN BDTOPO 2023-09-15", "source:ele": "IGN RGEALTI 2022-12-16 (Lidar)"}}, {"name": "Collet Redon", "latitude": 43.9904233, "longitude": 5.472067, "elevation": 1133.0, "source": "osm", "_tags": {"ele": "1133", "name": "Collet Redon", "natural": "peak", "source": "IGN BDTOPO 2023-09-15", "source:ele": "IGN RGEALTI 2022-12-16 (Lidar)"}}, {"name": "Poirière", "latitude": 44.0020089, "longitude": 5.668351, "elevation": 832.0, "source": "osm", "_tags": {"ele": "832", "name": "Poirière", "natural": "peak", "source": "IGN BDTOPO 2023-09-15", "source:ele": "IGN RGEALTI 2023-08-08 (Lidar)"}}, {"name": "Pueg Ricard", "latitude": 43.4503467, "longitude": 5.0104024, "elevation": null, "source": "osm", "_tags": {"name": "Pueg Ricard", "name:oc": "Pueg Ricard", "natural": "peak", "source:name:oc": "ieo-bdtopoc"}}, {"name": "Malacoste", "latitude": 43.6788802, "longitude": 5.592409, "elevation": 477.0, "source": "osm", "_tags": {"ele": "477", "name": "Malacoste", "natural": "peak"}}, {"name": "La Loube", "latitude": 44.2656374, "longitude": 5.3897016, "elevation": 1302.0, "source": "osm", "_tags": {"ele": "1302", "name": "La Loube", "natural": "peak"}}, {"name": "Les Aiguilles", "latitude": 44.416845, "longitude": 5.3917232, "elevation": 1362.0, "source": "osm", "_tags": {"ele": "1362", "name": "Les Aiguilles", "name:oc": "Las Agulhas", "natural": "peak", "source:name:oc": "ieo-bdtopoc"}}, {"name": "Les Tunes", "latitude": 44.2541434, "longitude": 5.4068751, "elevation": 1255.0, "source": "osm", "_tags": {"ele": "1255", "name": "Les Tunes", "natural": "peak"}}, {"name": "La Nible", "latitude": 44.2514278, "longitude": 5.3172847, "elevation": 1199.0, "source": "osm", "_tags": {"ele": "1199", "name": "La Nible", "natural": "peak"}}, {"name": "Crête de Pibouyre", "latitude": 44.341323, "longitude": 5.5736591, "elevation": 1120.0, "source": "osm", "_tags": {"ele": "1120", "name": "Crête de Pibouyre", "natural": "peak"}}, {"name": "Le Fourchat", "latitude": 44.4232687, "longitude": 5.4818541, "elevation": 1571.0, "source": "osm", "_tags": {"ele": "1571", "name": "Le Fourchat", "name:oc": "Lo Forchat", "natural": "peak", "source:name:oc": "ieo-bdtopoc"}}, {"name": "Montagne de Maraysse", "latitude": 44.4280424, "longitude": 5.5384563, "elevation": 1567.0, "source": "osm", "_tags": {"ele": "1567", "name": "Montagne de Maraysse", "name:oc": "Montanha de Maraisse", "natural": "peak", "source:name:oc": "ieo-bdtopoc"}}, {"name": "", "latitude": 44.1460454, "longitude": 5.7973678, "elevation": 1321.0, "source": "osm", "_tags": {"ele": "1321", "natural": "peak"}}, {"name": "Banne", "latitude": 44.2383579, "longitude": 5.3633703, "elevation": 1382.0, "source": "osm", "_tags": {"ele": "1382", "name": "Banne", "natural": "peak"}}, {"name": "Mont Sauvy", "latitude": 43.7987682, "longitude": 5.0328345, "elevation": 180.0, "source": "osm", "_tags": {"ele": "180", "name": "Mont Sauvy", "natural": "peak", "source": "IGN - 2023-12-15"}}, {"name": "Rocher de Rocalinaud", "latitude": 44.1246388, "longitude": 5.0441755, "elevation": null, "source": "osm", "_tags": {"name": "Rocher de Rocalinaud", "natural": "peak"}}, {"name": "Tête de Chauva", "latitude": 44.1696589, "longitude": 5.2322646, "elevation": null, "source": "osm", "_tags": {"name": "Tête de Chauva", "natural": "peak", "source": "IGN - 2024-03-15"}}, {"name": "Roche Blave", "latitude": 44.3456077, "longitude": 5.209035, "elevation": null, "source": "osm", "_tags": {"name": "Roche Blave", "natural": "peak"}}, {"name": "La Cacule", "latitude": 44.2762768, "longitude": 5.7387618, "elevation": 940.0, "source": "osm", "_tags": {"ele": "940", "name": "La Cacule", "natural": "peak", "source": "IGN - 2024-03-15"}}, {"name": "Le Peydès", "latitude": 44.2716944, "longitude": 5.7099251, "elevation": 1110.0, "source": "osm", "_tags": {"ele": "1110", "name": "Le Peydès", "natural": "peak", "source": "IGN - 2024-03-15"}}, {"name": "Serre des Fourches", "latitude": 44.2575066, "longitude": 5.7494827, "elevation": 730.0, "source": "osm", "_tags": {"ele": "730", "name": "Serre des Fourches", "natural": "peak", "source": "IGN - 2024-03-15"}}, {"name": "Micoulaud", "latitude": 44.2433543, "longitude": 5.7457065, "elevation": 1030.0, "source": "osm", "_tags": {"ele": "1030", "name": "Micoulaud", "natural": "peak", "source": "IGN - 2024-03-15"}}, {"name": "Rocher du Castellas", "latitude": 43.9839547, "longitude": 5.2718581, "elevation": 703.0, "source": "osm", "_tags": {"ele": "703", "name": "Rocher du Castellas", "natural": "peak"}}, {"name": "Chaîne de la Trévaresse", "latitude": 43.6260727, "longitude": 5.3541169, "elevation": 360.0, "source": "osm", "_tags": {"ele": "360", "name": "Chaîne de la Trévaresse", "natural": "peak", "source": "IGN - 2024-03-15"}}, {"name": "", "latitude": 43.9353269, "longitude": 5.1385628, "elevation": null, "source": "osm", "_tags": {"natural": "peak"}}, {"name": "", "latitude": 44.3527091, "longitude": 5.0095125, "elevation": null, "source": "osm", "_tags": {"natural": "peak"}}, {"name": "Saint-André", "latitude": 44.3961014, "longitude": 4.9351576, "elevation": null, "source": "osm", "_tags": {"name": "Saint-André", "natural": "peak", "source": "IGN - 2024-03-15"}}, {"name": "Saint-Michel", "latitude": 44.3895317, "longitude": 4.8969244, "elevation": null, "source": "osm", "_tags": {"name": "Saint-Michel", "natural": "peak", "source": "IGN - 2024-03-15"}}, {"name": "Serre du Pont", "latitude": 44.3670952, "longitude": 4.8863231, "elevation": null, "source": "osm", "_tags": {"name": "Serre du Pont", "natural": "peak", "source": "IGN - 2024-03-15"}}, {"name": "Mont Saint-André", "latitude": 44.2966348, "longitude": 4.8998255, "elevation": null, "source": "osm", "_tags": {"name": "Mont Saint-André", "natural": "peak", "source": "IGN - 2024-03-15"}}, {"name": "Les Serrières", "latitude": 44.4082214, "longitude": 4.9540803, "elevation": null, "source": "osm", "_tags": {"name": "Les Serrières", "natural": "peak", "source": "IGN - 2024-03-15"}}, {"name": "Barriol", "latitude": 44.4233303, "longitude": 4.970904, "elevation": null, "source": "osm", "_tags": {"name": "Barriol", "natural": "peak", "source": "IGN - 2024-03-15"}}, {"name": "Serre Devin", "latitude": 44.4290129, "longitude": 4.9477262, "elevation": null, "source": "osm", "_tags": {"name": "Serre Devin", "natural": "peak", "source": "IGN - 2024-03-15"}}, {"name": "Montines", "latitude": 44.4288079, "longitude": 4.9298023, "elevation": null, "source": "osm", "_tags": {"name": "Montines", "natural": "peak", "source": "IGN - 2024-03-15"}}, {"name": "La Malle", "latitude": 44.3813746, "longitude": 5.0514261, "elevation": null, "source": "osm", "_tags": {"name": "La Malle", "natural": "peak", "source": "IGN - 2024-03-15"}}, {"name": "La Rouchonne", "latitude": 44.3842313, "longitude": 5.0605177, "elevation": null, "source": "osm", "_tags": {"name": "La Rouchonne", "natural": "peak", "source": "IGN - 2024-03-15"}}, {"name": "Moure de Broche", "latitude": 44.3816288, "longitude": 5.0729013, "elevation": null, "source": "osm", "_tags": {"name": "Moure de Broche", "natural": "peak", "source": "IGN - 2024-03-15"}}, {"name": "Chante-Cocu et Beauregard", "latitude": 44.3853348, "longitude": 5.0812242, "elevation": null, "source": "osm", "_tags": {"name": "Chante-Cocu et Beauregard", "natural": "peak", "source": "IGN - 2024-03-15"}}, {"name": "Serre Long", "latitude": 44.3926969, "longitude": 5.0836663, "elevation": null, "source": "osm", "_tags": {"name": "Serre Long", "natural": "peak", "source": "IGN - 2024-03-15"}}, {"name": "Serre de Berlot", "latitude": 44.3783155, "longitude": 5.1048569, "elevation": null, "source": "osm", "_tags": {"name": "Serre de Berlot", "natural": "peak", "source": "IGN - 2024-03-15"}}, {"name": "Serre des Bornes", "latitude": 44.3729524, "longitude": 5.1179917, "elevation": null, "source": "osm", "_tags": {"name": "Serre des Bornes", "natural": "peak", "source": "IGN - 2024-03-15"}}, {"name": "le Serre", "latitude": 44.3663319, "longitude": 5.1055112, "elevation": null, "source": "osm", "_tags": {"name": "le Serre", "natural": "peak", "source": "IGN - 2024-03-15"}}, {"name": "Serre Sentinelle", "latitude": 44.3598373, "longitude": 5.0979421, "elevation": null, "source": "osm", "_tags": {"name": "Serre Sentinelle", "natural": "peak", "source": "IGN - 2024-03-15"}}, {"name": "Serre Long", "latitude": 44.356352, "longitude": 5.0941357, "elevation": null, "source": "osm", "_tags": {"name": "Serre Long", "natural": "peak", "source": "IGN - 2024-03-15"}}, {"name": "Serre de Vialle", "latitude": 44.3654752, "longitude": 5.0559992, "elevation": null, "source": "osm", "_tags": {"name": "Serre de Vialle", "natural": "peak", "source": "IGN - 2024-03-15"}}, {"name": "Chevalets", "latitude": 44.3517955, "longitude": 5.0788512, "elevation": null, "source": "osm", "_tags": {"name": "Chevalets", "natural": "peak", "source": "IGN - 2024-03-15"}}, {"name": "Chabrier", "latitude": 44.3496307, "longitude": 5.0657558, "elevation": null, "source": "osm", "_tags": {"name": "Chabrier", "natural": "peak", "source": "IGN - 2024-03-15"}}, {"name": "Gareu", "latitude": 44.3435254, "longitude": 5.0645193, "elevation": null, "source": "osm", "_tags": {"name": "Gareu", "natural": "peak", "source": "IGN - 2024-03-15"}}, {"name": "Serre des Lavandes", "latitude": 44.3548414, "longitude": 4.9776108, "elevation": null, "source": "osm", "_tags": {"name": "Serre des Lavandes", "natural": "peak", "source": "IGN - 2024-03-15"}}, {"name": "Serre Besson", "latitude": 44.3304054, "longitude": 5.0439044, "elevation": null, "source": "osm", "_tags": {"name": "Serre Besson", "natural": "peak", "source": "IGN - 2024-03-15"}}, {"name": "La Garenne", "latitude": 44.314279, "longitude": 5.0158741, "elevation": null, "source": "osm", "_tags": {"name": "La Garenne", "natural": "peak", "source": "IGN - 2024-03-15"}}, {"name": "Les Olagnons", "latitude": 44.3202826, "longitude": 5.0057602, "elevation": null, "source": "osm", "_tags": {"name": "Les Olagnons", "natural": "peak", "source": "IGN - 2024-03-15"}}, {"name": "Le Rastelet", "latitude": 44.3130371, "longitude": 4.9781099, "elevation": null, "source": "osm", "_tags": {"name": "Le Rastelet", "natural": "peak", "source": "IGN - 2024-03-15"}}, {"name": "Les Antonins", "latitude": 44.3306223, "longitude": 4.9685803, "elevation": null, "source": "osm", "_tags": {"name": "Les Antonins", "natural": "peak", "source": "IGN - 2024-03-15"}}, {"name": "Lestau", "latitude": 44.3251567, "longitude": 4.937499, "elevation": null, "source": "osm", "_tags": {"name": "Lestau", "natural": "peak", "source": "IGN - 2024-03-15"}}, {"name": "Le Crépon", "latitude": 44.2497798, "longitude": 5.1525471, "elevation": null, "source": "osm", "_tags": {"name": "Le Crépon", "natural": "peak", "source": "IGN - 2024-03-15"}}, {"name": "La Gardette", "latitude": 44.2419782, "longitude": 5.1138966, "elevation": null, "source": "osm", "_tags": {"name": "La Gardette", "natural": "peak", "source": "IGN - 2024-03-15"}}, {"name": "Le Devès", "latitude": 44.2493936, "longitude": 5.1156135, "elevation": null, "source": "osm", "_tags": {"name": "Le Devès", "natural": "peak", "source": "IGN - 2024-03-15"}}, {"name": "Le Testu", "latitude": 44.2479671, "longitude": 5.1115505, "elevation": null, "source": "osm", "_tags": {"name": "Le Testu", "natural": "peak", "source": "IGN - 2024-03-15"}}, {"name": "Jau", "latitude": 44.2573599, "longitude": 5.128888, "elevation": null, "source": "osm", "_tags": {"name": "Jau", "natural": "peak", "source": "IGN - 2024-03-15"}}, {"name": "Roches Planes", "latitude": 44.2719852, "longitude": 5.1413826, "elevation": null, "source": "osm", "_tags": {"name": "Roches Planes", "natural": "peak", "source": "IGN - 2024-03-15"}}, {"name": "Serre Rouge", "latitude": 44.2747313, "longitude": 5.0853146, "elevation": null, "source": "osm", "_tags": {"name": "Serre Rouge", "natural": "peak", "source": "IGN - 2024-03-15"}}, {"name": "Corin", "latitude": 44.318289, "longitude": 5.1612549, "elevation": null, "source": "osm", "_tags": {"name": "Corin", "natural": "peak", "source": "IGN - 2024-03-15"}}, {"name": "Le Calvaire", "latitude": 44.3156515, "longitude": 5.1096034, "elevation": null, "source": "osm", "_tags": {"name": "Le Calvaire", "natural": "peak", "source": "IGN - 2024-03-15"}}, {"name": "Taillepain", "latitude": 44.2995298, "longitude": 5.1349703, "elevation": null, "source": "osm", "_tags": {"name": "Taillepain", "natural": "peak", "source": "IGN - 2024-03-15"}}, {"name": "Les Aussellons", "latitude": 44.2925959, "longitude": 5.066105, "elevation": null, "source": "osm", "_tags": {"name": "Les Aussellons", "natural": "peak", "source": "IGN - 2024-03-15"}}, {"name": "Serre de la Donne", "latitude": 44.2926309, "longitude": 5.058528, "elevation": null, "source": "osm", "_tags": {"name": "Serre de la Donne", "natural": "peak", "source": "IGN - 2024-03-15"}}, {"name": "Le Coustias", "latitude": 44.2929593, "longitude": 5.0467806, "elevation": null, "source": "osm", "_tags": {"name": "Le Coustias", "natural": "peak", "source": "IGN - 2024-03-15"}}, {"name": "Éoupe", "latitude": 44.3771516, "longitude": 5.1561505, "elevation": null, "source": "osm", "_tags": {"name": "Éoupe", "natural": "peak", "source": "IGN - 2024-03-15"}}, {"name": "Galfe", "latitude": 44.3661743, "longitude": 5.1710939, "elevation": null, "source": "osm", "_tags": {"name": "Galfe", "natural": "peak", "source": "IGN - 2024-03-15"}}, {"name": "Champbrillat", "latitude": 44.3432072, "longitude": 5.1830542, "elevation": null, "source": "osm", "_tags": {"name": "Champbrillat", "natural": "peak", "source": "IGN - 2024-03-15"}}, {"name": "Le Devès", "latitude": 44.3346544, "longitude": 5.1703992, "elevation": null, "source": "osm", "_tags": {"name": "Le Devès", "natural": "peak", "source": "IGN - 2024-03-15"}}, {"name": "Serre Rouge", "latitude": 44.349509, "longitude": 5.1537154, "elevation": null, "source": "osm", "_tags": {"name": "Serre Rouge", "natural": "peak", "source": "IGN - 2024-03-15"}}, {"name": "Serre de Lauzière", "latitude": 44.3431909, "longitude": 5.1231567, "elevation": null, "source": "osm", "_tags": {"name": "Serre de Lauzière", "natural": "peak", "source": "IGN - 2024-03-15"}}, {"name": "Suzaud", "latitude": 44.4203884, "longitude": 5.0242874, "elevation": null, "source": "osm", "_tags": {"name": "Suzaud", "natural": "peak", "source": "IGN - 2024-03-15"}}, {"name": "Bel-Air", "latitude": 44.4164611, "longitude": 5.0130519, "elevation": null, "source": "osm", "_tags": {"name": "Bel-Air", "natural": "peak", "source": "IGN - 2024-03-15"}}, {"name": "Rachas", "latitude": 44.4088966, "longitude": 5.0302039, "elevation": null, "source": "osm", "_tags": {"name": "Rachas", "natural": "peak", "source": "IGN - 2024-03-15"}}, {"name": "Bois Vieux", "latitude": 44.4061018, "longitude": 5.0355553, "elevation": null, "source": "osm", "_tags": {"name": "Bois Vieux", "natural": "peak", "source": "IGN - 2024-03-15"}}, {"name": "La Garenne", "latitude": 44.3984358, "longitude": 5.0300547, "elevation": null, "source": "osm", "_tags": {"name": "La Garenne", "natural": "peak", "source": "IGN - 2024-03-15"}}, {"name": "Collanion", "latitude": 44.3978718, "longitude": 5.0215065, "elevation": null, "source": "osm", "_tags": {"name": "Collanion", "natural": "peak", "source": "IGN - 2024-03-15"}}, {"name": "Gramenon", "latitude": 44.4265837, "longitude": 5.0226242, "elevation": null, "source": "osm", "_tags": {"name": "Gramenon", "natural": "peak", "source": "IGN - 2024-03-15"}}, {"name": "Montagne la Croix", "latitude": 44.4269855, "longitude": 5.1411127, "elevation": 1221.0, "source": "osm", "_tags": {"ele": "1221", "name": "Montagne la Croix", "natural": "peak", "source": "IGN - 2024-03-15"}}, {"name": "Rider", "latitude": 44.4282604, "longitude": 5.167701, "elevation": null, "source": "osm", "_tags": {"name": "Rider", "natural": "peak", "source": "IGN - 2024-03-15"}}, {"name": "Moutas", "latitude": 44.42792, "longitude": 5.1634893, "elevation": 757.0, "source": "osm", "_tags": {"ele": "757", "name": "Moutas", "natural": "peak", "source": "IGN - 2024-03-15"}}, {"name": "La Girarde", "latitude": 44.430906, "longitude": 4.982145, "elevation": null, "source": "osm", "_tags": {"name": "La Girarde", "natural": "peak", "source": "IGN - 2024-03-15"}}, {"name": "Le Chafal", "latitude": 44.4172643, "longitude": 5.1746814, "elevation": null, "source": "osm", "_tags": {"name": "Le Chafal", "natural": "peak", "source": "IGN - 2024-03-15"}}, {"name": "Châteauneuf", "latitude": 44.4187776, "longitude": 5.1863961, "elevation": null, "source": "osm", "_tags": {"name": "Châteauneuf", "natural": "peak", "source": "IGN - 2024-03-15"}}, {"name": "Bassas", "latitude": 44.4292723, "longitude": 5.1904814, "elevation": null, "source": "osm", "_tags": {"name": "Bassas", "natural": "peak", "source": "IGN - 2024-03-15"}}, {"name": "Les Pignes", "latitude": 44.4306391, "longitude": 5.2032729, "elevation": null, "source": "osm", "_tags": {"name": "Les Pignes", "natural": "peak", "source": "IGN - 2024-03-15"}}, {"name": "Piocel", "latitude": 44.4261385, "longitude": 5.2064089, "elevation": null, "source": "osm", "_tags": {"name": "Piocel", "natural": "peak", "source": "IGN - 2024-03-15"}}, {"name": "La Jouana", "latitude": 44.4275221, "longitude": 5.0684003, "elevation": 696.0, "source": "osm", "_tags": {"ele": "696", "name": "La Jouana", "natural": "peak", "source": "IGN - 2024-03-15"}}, {"name": "Le Cendrier", "latitude": 44.4271494, "longitude": 5.0757656, "elevation": 714.0, "source": "osm", "_tags": {"ele": "714", "name": "Le Cendrier", "natural": "peak", "source": "IGN - 2024-03-15"}}, {"name": "Charbonnel", "latitude": 44.4226344, "longitude": 5.0713617, "elevation": 638.0, "source": "osm", "_tags": {"ele": "638", "name": "Charbonnel", "natural": "peak", "source": "IGN - 2024-03-15"}}, {"name": "Les Courlisses", "latitude": 44.4241926, "longitude": 5.0644348, "elevation": 576.0, "source": "osm", "_tags": {"ele": "576", "name": "Les Courlisses", "natural": "peak", "source": "IGN - 2024-03-15"}}, {"name": "Charbonnelon", "latitude": 44.4205535, "longitude": 5.0685765, "elevation": 614.0, "source": "osm", "_tags": {"ele": "614", "name": "Charbonnelon", "natural": "peak", "source": "IGN - 2024-03-15"}}, {"name": "La Garenne", "latitude": 44.4151407, "longitude": 5.0568402, "elevation": null, "source": "osm", "_tags": {"name": "La Garenne", "natural": "peak", "source": "IGN - 2024-03-15"}}, {"name": "Baliguet", "latitude": 44.4108069, "longitude": 5.0563422, "elevation": null, "source": "osm", "_tags": {"name": "Baliguet", "natural": "peak", "source": "IGN - 2024-03-15"}}, {"name": "Moutasset", "latitude": 44.421848, "longitude": 5.0998659, "elevation": 871.0, "source": "osm", "_tags": {"ele": "871", "name": "Moutasset", "natural": "peak", "source": "IGN - 2024-03-15"}}, {"name": "Serre Moutas", "latitude": 44.4261609, "longitude": 5.1115292, "elevation": 863.0, "source": "osm", "_tags": {"ele": "863", "name": "Serre Moutas", "natural": "peak", "source": "IGN - 2024-03-15"}}, {"name": "Le Serret", "latitude": 44.4092318, "longitude": 5.1041678, "elevation": null, "source": "osm", "_tags": {"name": "Le Serret", "natural": "peak", "source": "IGN - 2024-03-15"}}, {"name": "Serre la Serrière", "latitude": 44.4041397, "longitude": 5.1119637, "elevation": null, "source": "osm", "_tags": {"name": "Serre la Serrière", "natural": "peak", "source": "IGN - 2024-03-15"}}, {"name": "Côte Eysséache", "latitude": 44.40347, "longitude": 5.1372472, "elevation": null, "source": "osm", "_tags": {"name": "Côte Eysséache", "natural": "peak", "source": "IGN - 2024-03-15"}}, {"name": "Vaux", "latitude": 44.387437, "longitude": 5.1371781, "elevation": null, "source": "osm", "_tags": {"name": "Vaux", "natural": "peak", "source": "IGN - 2024-03-15"}}, {"name": "Les Corbières", "latitude": 44.4308023, "longitude": 5.0635448, "elevation": 632.0, "source": "osm", "_tags": {"ele": "632", "name": "Les Corbières", "natural": "peak", "source": "IGN - 2024-03-15"}}, {"name": "Moutas", "latitude": 44.4238536, "longitude": 5.1046787, "elevation": 1033.0, "source": "osm", "_tags": {"ele": "1033", "name": "Moutas", "natural": "peak", "source": "IGN - 2024-03-15"}}]