[{"name": "Velika Osjecenica", "latitude": 44.5191406, "longitude": 16.2556186, "elevation": 1798.0, "source": "osm", "_tags": {"ele": "1798", "name": "Velika Osjecenica", "name:sr": "Велика Осјеценица", "natural": "peak"}}, {"name": "Ježevac", "latitude": 44.5625041, "longitude": 16.4079473, "elevation": 1032.0, "source": "osm", "_tags": {"ele": "1032", "name": "Ježevac", "name:sr": "Јежевац", "natural": "peak"}}, {"name": "Suhi vrh", "latitude": 44.6148671, "longitude": 16.3605528, "elevation": 1231.0, "source": "osm", "_tags": {"ele": "1231", "name": "Suhi vrh", "name:sr": "Сухи врх", "name:sr-Latn": "Suhi vrh", "natural": "peak"}}, {"name": "", "latitude": 44.5726547, "longitude": 16.4124105, "elevation": 1017.0, "source": "osm", "_tags": {"ele": "1017", "natural": "peak"}}, {"name": "Barjamovac", "latitude": 44.5551653, "longitude": 16.4223668, "elevation": 938.0, "source": "osm", "_tags": {"ele": "938", "name": "Barjamovac", "name:sr": "Барјамовац", "natural": "peak"}}, {"name": "Kvrgica vrh", "latitude": 44.583048, "longitude": 16.3916394, "elevation": 1024.0, "source": "osm", "_tags": {"ele": "1024", "name": "Kvrgica vrh", "name:sr": "Квргица врх", "natural": "peak"}}, {"name": "Majkića brdo", "latitude": 44.9305649, "longitude": 16.3523488, "elevation": 330.0, "source": "osm", "_tags": {"ele": "330", "name": "Majkića brdo", "name:sr": "Мајкића брдо", "natural": "peak"}}, {"name": "Pađenova glavica", "latitude": 44.9662331, "longitude": 16.3584787, "elevation": 310.0, "source": "osm", "_tags": {"ele": "310", "name": "Pađenova glavica", "name:sr": "Пађенова главица", "natural": "peak"}}, {"name": "Jujina glavica", "latitude": 44.9503206, "longitude": 16.3389093, "elevation": 350.0, "source": "osm", "_tags": {"ele": "350", "name": "Jujina glavica", "name:sr": "Јујина главица", "natural": "peak"}}, {"name": "Poljanak", "latitude": 44.9613748, "longitude": 16.3258632, "elevation": 325.0, "source": "osm", "_tags": {"ele": "325", "name": "Poljanak", "name:sr": "Пољанак", "natural": "peak"}}, {"name": "Ševića glavica", "latitude": 44.9648974, "longitude": 16.2959941, "elevation": 315.0, "source": "osm", "_tags": {"ele": "315", "name": "Ševića glavica", "name:sr": "Шевића главица", "natural": "peak"}}, {"name": "Čulića brdo", "latitude": 44.9951937, "longitude": 16.3160189, "elevation": 200.0, "source": "osm", "_tags": {"ele": "200", "name": "Čulića brdo", "name:sr": "Чулића брдо", "name:sr-Latn": "Čulića brdo", "natural": "peak"}}, {"name": "Vratolom", "latitude": 44.9955578, "longitude": 16.3627966, "elevation": 300.0, "source": "osm", "_tags": {"ele": "300", "name": "Vratolom", "name:sr": "Вратолом", "natural": "peak"}}, {"name": "Vis", "latitude": 44.925516, "longitude": 16.3408983, "elevation": 320.0, "source": "osm", "_tags": {"ele": "320", "name": "Vis", "name:sr": "Вис", "natural": "peak"}}, {"name": "Ivanića brdo", "latitude": 44.9447421, "longitude": 16.291432, "elevation": 345.0, "source": "osm", "_tags": {"ele": "345", "name": "Ivanića brdo", "name:sr": "Иванића брдо", "natural": "peak"}}, {"name": "Crkvina", "latitude": 44.9438004, "longitude": 16.2647815, "elevation": 385.0, "source": "osm", "_tags": {"ele": "385", "name": "Crkvina", "name:sr": "Црквина", "natural": "peak"}}, {"name": "Veliki Lisac", "latitude": 44.8778535, "longitude": 16.3075598, "elevation": 455.0, "source": "osm", "_tags": {"ele": "455", "name": "Veliki Lisac", "name:sr": "Велики Лисац", "natural": "peak"}}, {"name": "Grabež", "latitude": 44.8507109, "longitude": 16.3766345, "elevation": 529.0, "source": "osm", "_tags": {"ele": "529", "name": "Grabež", "name:sr": "Грабеж", "natural": "peak"}}, {"name": "Oštrelj", "latitude": 44.476087, "longitude": 16.4156108, "elevation": 1388.0, "source": "osm", "_tags": {"ele": "1388", "name": "Oštrelj", "name:sr": "Оштрељ", "natural": "peak"}}, {"name": "Travnati vrh", "latitude": 44.447355, "longitude": 16.4535811, "elevation": 1476.0, "source": "osm", "_tags": {"ele": "1476", "name": "Travnati vrh", "name:sr": "Травнати врх", "natural": "peak"}}, {"name": "Tisov vrh", "latitude": 44.458681, "longitude": 16.4363148, "elevation": 1349.0, "source": "osm", "_tags": {"ele": "1349", "name": "Tisov vrh", "name:sr": "Тисов врх", "natural": "peak"}}, {"name": "Krmarova kosa", "latitude": 44.462704, "longitude": 16.4217545, "elevation": 1268.0, "source": "osm", "_tags": {"ele": "1268", "name": "Krmarova kosa", "name:sr": "Крмарова коса", "natural": "peak"}}, {"name": "", "latitude": 44.473119, "longitude": 16.4270286, "elevation": 1174.0, "source": "osm", "_tags": {"ele": "1174", "natural": "peak"}}, {"name": "", "latitude": 44.464487, "longitude": 16.4465619, "elevation": 1424.0, "source": "osm", "_tags": {"ele": "1424", "natural": "peak"}}, {"name": "", "latitude": 44.461804, "longitude": 16.4523152, "elevation": 1501.0, "source": "osm", "_tags": {"ele": "1501", "natural": "peak"}}, {"name": "", "latitude": 44.45188, "longitude": 16.4700321, "elevation": 1467.0, "source": "osm", "_tags": {"ele": "1467", "natural": "peak"}}, {"name": "Tavan", "latitude": 44.9365638, "longitude": 16.3662763, "elevation": 335.0, "source": "osm", "_tags": {"ele": "335", "name": "Tavan", "name:sr": "Таван", "natural": "peak"}}, {"name": "Kremen", "latitude": 44.4641132, "longitude": 15.8864561, "elevation": 1591.0, "source": "osm", "_tags": {"ele": "1591", "name": "Kremen", "natural": "peak", "wikidata": "Q25295503"}}, {"name": "", "latitude": 44.4565563, "longitude": 16.451333, "elevation": 1522.0, "source": "osm", "_tags": {"ele": "1522", "natural": "peak"}}, {"name": "Đusin vrh", "latitude": 44.737224, "longitude": 16.127628, "elevation": 1099.0, "source": "osm", "_tags": {"ele": "1099", "name": "Đusin vrh", "natural": "peak"}}, {"name": "", "latitude": 45.0483915, "longitude": 16.0308995, "elevation": 325.0, "source": "osm", "_tags": {"ele": "325", "natural": "peak"}}, {"name": "", "latitude": 45.0576223, "longitude": 16.0358617, "elevation": 316.0, "source": "osm", "_tags": {"ele": "316", "natural": "peak"}}, {"name": "Urije", "latitude": 45.050389, "longitude": 16.0214651, "elevation": 362.0, "source": "osm", "_tags": {"ele": "362", "name": "Urije", "name:sr": "Урије", "natural": "peak"}}, {"name": "Cepeliš", "latitude": 45.3958999, "longitude": 16.270918, "elevation": 415.0, "source": "osm", "_tags": {"ele": "415", "name": "Cepeliš", "natural": "peak", "wikidata": "Q25298963"}}, {"name": "Ljutoč", "latitude": 44.6766376, "longitude": 16.0418857, "elevation": 1168.0, "source": "osm", "_tags": {"ele": "1168", "name": "Ljutoč", "name:sr": "Љуточ", "natural": "peak"}}, {"name": "Spahićka glavica", "latitude": 44.8733987, "longitude": 15.9174893, "elevation": 497.0, "source": "osm", "_tags": {"ele": "497", "name": "Spahićka glavica", "name:sr": "Спахићка главица", "natural": "peak"}}, {"name": "Mrđa", "latitude": 44.7671712, "longitude": 15.9069422, "elevation": 489.0, "source": "osm", "_tags": {"ele": "489", "name": "Mrđa", "name:sr": "Мрђа", "natural": "peak"}}, {"name": "Babino Brdo", "latitude": 45.3431224, "longitude": 16.3387149, "elevation": 409.0, "source": "osm", "_tags": {"ele": "409", "name": "Babino Brdo", "natural": "peak", "wikidata": "Q25300940"}}, {"name": "Kućište", "latitude": 45.3698951, "longitude": 16.2691862, "elevation": 296.0, "source": "osm", "_tags": {"ele": "296", "name": "Kućište", "natural": "peak"}}, {"name": "Škorić brdo", "latitude": 44.4800672, "longitude": 15.9810197, "elevation": 1061.0, "source": "osm", "_tags": {"ele": "1061", "name": "Škorić brdo", "natural": "peak"}}, {"name": "Grad", "latitude": 44.7670658, "longitude": 16.0230685, "elevation": 903.0, "source": "osm", "_tags": {"ele": "903", "name": "Grad", "name:sr": "Град", "natural": "peak"}}, {"name": "Debelo Brdo", "latitude": 44.9414497, "longitude": 16.4483574, "elevation": 246.0, "source": "osm", "_tags": {"ele": "246", "name": "Debelo Brdo", "name:sr": "Дебело Брдо", "natural": "peak"}}, {"name": "Vranjkovac", "latitude": 44.9579708, "longitude": 16.4393267, "elevation": 205.0, "source": "osm", "_tags": {"ele": "205", "name": "Vranjkovac", "name:sr": "Врањковац", "natural": "peak"}}, {"name": "Pivnica", "latitude": 44.9711786, "longitude": 16.465184, "elevation": 293.0, "source": "osm", "_tags": {"ele": "293", "name": "Pivnica", "name:sr": "Пивница", "natural": "peak"}}, {"name": "Opsine", "latitude": 44.9851502, "longitude": 16.4195291, "elevation": 243.0, "source": "osm", "_tags": {"ele": "243", "name": "Opsine", "name:sr": "Опсине", "natural": "peak"}}, {"name": "Tišmina Glava", "latitude": 44.5893515, "longitude": 15.9373412, "elevation": 854.0, "source": "osm", "_tags": {"ele": "854", "name": "Tišmina Glava", "natural": "peak", "wikidata": "Q25312028", "wikipedia": "ceb:Tišmina Glava (bungtod sa Krowatiya, lat 44,59, long 15,94)"}}, {"name": "Birovača", "latitude": 44.5874971, "longitude": 15.9505347, "elevation": 875.0, "source": "osm", "_tags": {"ele": "875", "name": "Birovača", "natural": "peak"}}, {"name": "Visoka Glava", "latitude": 44.5970321, "longitude": 15.9510497, "elevation": 971.0, "source": "osm", "_tags": {"alt_name": "Crni vrh", "ele": "971", "name": "Visoka Glava", "natural": "peak", "wikidata": "Q25312027"}}, {"name": "Tičevo", "latitude": 44.6099431, "longitude": 15.905384, "elevation": 1174.0, "source": "osm", "_tags": {"ele": "1174", "name": "Tičevo", "natural": "peak", "wikidata": "Q25286870"}}, {"name": "Lisac", "latitude": 44.5113872, "longitude": 16.042281, "elevation": 997.0, "source": "osm", "_tags": {"ele": "997", "name": "Lisac", "natural": "peak", "wikidata": "Q25295733"}}, {"name": "Paljevine", "latitude": 45.3887866, "longitude": 16.2831595, "elevation": 410.0, "source": "osm", "_tags": {"ele": "410", "name": "Paljevine", "natural": "peak"}}, {"name": "", "latitude": 45.4018983, "longitude": 16.2610279, "elevation": 406.0, "source": "osm", "_tags": {"ele": "406", "natural": "peak"}}, {"name": "Kosinjak", "latitude": 45.4118654, "longitude": 16.2416235, "elevation": 325.0, "source": "osm", "_tags": {"ele": "325", "name": "Kosinjak", "natural": "peak"}}, {"name": "Petrovića brdo", "latitude": 45.2148141, "longitude": 16.4693339, "elevation": 367.0, "source": "osm", "_tags": {"ele": "367", "name": "Petrovića brdo", "name:sr": "Петровића брдо", "natural": "peak", "wikidata": "Q26222545"}}, {"name": "Stara straža", "latitude": 45.2332378, "longitude": 16.4201152, "elevation": 477.0, "source": "osm", "_tags": {"ele": "477", "name": "Stara straža", "natural": "peak", "wikidata": "Q26222615"}}, {"name": "Lipova kosa", "latitude": 45.2407976, "longitude": 16.3990581, "elevation": 496.0, "source": "osm", "_tags": {"ele": "496", "name": "Lipova kosa", "natural": "peak", "wikidata": "Q26222624"}}, {"name": "Jurčevac", "latitude": 45.4309302, "longitude": 16.0652456, "elevation": 213.0, "source": "osm", "_tags": {"ele": "213", "name": "Jurčevac", "natural": "peak"}}, {"name": "Pribilović-brdo", "latitude": 45.4294949, "longitude": 16.2026844, "elevation": 264.0, "source": "osm", "_tags": {"ele": "264", "name": "Pribilović-brdo", "natural": "peak"}}, {"name": "Kozja glava", "latitude": 45.2290098, "longitude": 16.3893688, "elevation": 508.0, "source": "osm", "_tags": {"ele": "508", "name": "Kozja glava", "natural": "peak", "wikidata": "Q26222657"}}, {"name": "Piramida", "latitude": 45.2038955, "longitude": 16.2980471, "elevation": 617.0, "source": "osm", "_tags": {"ele": "617", "name": "Piramida", "natural": "peak", "wikidata": "Q26222583"}}, {"name": "Ravnovac", "latitude": 45.3230271, "longitude": 16.3866271, "elevation": 341.0, "source": "osm", "_tags": {"ele": "341", "name": "Ravnovac", "natural": "peak"}}, {"name": "", "latitude": 45.2701248, "longitude": 16.3915716, "elevation": 437.0, "source": "osm", "_tags": {"ele": "437", "natural": "peak"}}, {"name": "Lamištranga", "latitude": 45.3140788, "longitude": 16.3432535, "elevation": 367.0, "source": "osm", "_tags": {"ele": "367", "name": "Lamištranga", "natural": "peak"}}, {"name": "", "latitude": 45.2958066, "longitude": 16.3622184, "elevation": 435.0, "source": "osm", "_tags": {"ele": "435", "natural": "peak"}}, {"name": "", "latitude": 45.323759, "longitude": 16.3443313, "elevation": 344.0, "source": "osm", "_tags": {"ele": "344", "natural": "peak"}}, {"name": "Matića brdo", "latitude": 45.2893263, "longitude": 16.311387, "elevation": 355.0, "source": "osm", "_tags": {"ele": "355", "name": "Matića brdo", "natural": "peak"}}, {"name": "Stojića brdo", "latitude": 45.264252, "longitude": 16.3002941, "elevation": 409.0, "source": "osm", "_tags": {"ele": "409", "name": "Stojića brdo", "natural": "peak"}}, {"name": "", "latitude": 45.3305507, "longitude": 16.4682602, "elevation": 225.0, "source": "osm", "_tags": {"ele": "225", "natural": "peak"}}, {"name": "Gavrino brdo", "latitude": 45.0560063, "longitude": 16.3928107, "elevation": 261.0, "source": "osm", "_tags": {"ele": "261", "name": "Gavrino brdo", "name:sr": "Гаврино брдо", "natural": "peak"}}, {"name": "Pajdaš", "latitude": 45.2632051, "longitude": 16.2082681, "elevation": 307.0, "source": "osm", "_tags": {"ele": "307", "name": "Pajdaš", "natural": "peak"}}, {"name": "", "latitude": 45.2437238, "longitude": 16.1445602, "elevation": 274.0, "source": "osm", "_tags": {"ele": "274", "natural": "peak"}}, {"name": "Ljeskovac", "latitude": 45.3563112, "longitude": 16.3122085, "elevation": 369.0, "source": "osm", "_tags": {"ele": "369", "name": "Ljeskovac", "natural": "peak"}}, {"name": "", "latitude": 45.2733355, "longitude": 16.1477835, "elevation": 161.0, "source": "osm", "_tags": {"ele": "161", "natural": "peak"}}, {"name": "", "latitude": 45.2671071, "longitude": 16.1385679, "elevation": 263.0, "source": "osm", "_tags": {"ele": "263", "natural": "peak"}}, {"name": "Paunovac", "latitude": 45.3008847, "longitude": 16.1021761, "elevation": 231.0, "source": "osm", "_tags": {"ele": "231", "name": "Paunovac", "natural": "peak"}}, {"name": "", "latitude": 45.2963398, "longitude": 16.0936155, "elevation": 235.0, "source": "osm", "_tags": {"ele": "235", "natural": "peak"}}, {"name": "", "latitude": 45.2762767, "longitude": 16.2104325, "elevation": 358.0, "source": "osm", "_tags": {"ele": "358", "natural": "peak"}}, {"name": "", "latitude": 45.2915697, "longitude": 16.2234573, "elevation": 338.0, "source": "osm", "_tags": {"ele": "338", "natural": "peak"}}, {"name": "", "latitude": 45.4040778, "longitude": 16.0435429, "elevation": 209.0, "source": "osm", "_tags": {"ele": "209", "natural": "peak"}}, {"name": "", "latitude": 45.3289148, "longitude": 16.1617525, "elevation": 247.0, "source": "osm", "_tags": {"ele": "247", "natural": "peak"}}, {"name": "Bijelo brdo", "latitude": 45.3035815, "longitude": 16.0453859, "elevation": 224.0, "source": "osm", "_tags": {"ele": "224", "name": "Bijelo brdo", "natural": "peak"}}, {"name": "", "latitude": 45.1541367, "longitude": 16.1460971, "elevation": 470.0, "source": "osm", "_tags": {"ele": "470", "natural": "peak"}}, {"name": "Čukur", "latitude": 45.1616863, "longitude": 16.1178395, "elevation": 525.0, "source": "osm", "_tags": {"ele": "525", "name": "Čukur", "natural": "peak", "wikidata": "Q25326899"}}, {"name": "", "latitude": 45.1550908, "longitude": 16.0763183, "elevation": 446.0, "source": "osm", "_tags": {"ele": "446", "natural": "peak"}}, {"name": "", "latitude": 45.2639195, "longitude": 16.1518922, "elevation": 222.0, "source": "osm", "_tags": {"ele": "222", "natural": "peak"}}, {"name": "", "latitude": 45.2193004, "longitude": 16.0259097, "elevation": 299.0, "source": "osm", "_tags": {"ele": "299", "natural": "peak"}}, {"name": "", "latitude": 45.2129969, "longitude": 16.0365583, "elevation": 333.0, "source": "osm", "_tags": {"ele": "333", "natural": "peak"}}, {"name": "Klisur", "latitude": 45.2292735, "longitude": 16.1559903, "elevation": 274.0, "source": "osm", "_tags": {"ele": "274", "name": "Klisur", "natural": "peak", "wikidata": "Q25327214"}}, {"name": "Peler", "latitude": 45.2315025, "longitude": 16.1286645, "elevation": 419.0, "source": "osm", "_tags": {"ele": "419", "name": "Peler", "natural": "peak"}}, {"name": "Kamare", "latitude": 45.1992768, "longitude": 16.1446439, "elevation": 512.0, "source": "osm", "_tags": {"ele": "512", "name": "Kamare", "natural": "peak", "wikidata": "Q25327022"}}, {"name": "Mješalić", "latitude": 45.1716005, "longitude": 16.1451159, "elevation": 532.0, "source": "osm", "_tags": {"ele": "532", "name": "Mješalić", "natural": "peak"}}, {"name": "Vukušića brdo", "latitude": 45.1653072, "longitude": 16.1780749, "elevation": 507.0, "source": "osm", "_tags": {"ele": "507", "name": "Vukušića brdo", "natural": "peak"}}, {"name": "", "latitude": 45.2514819, "longitude": 15.8883546, "elevation": 241.0, "source": "osm", "_tags": {"ele": "241", "natural": "peak"}}, {"name": "Obljaj", "latitude": 44.5346173, "longitude": 15.9612616, "elevation": 666.3, "source": "osm", "_tags": {"ele": "666.3", "name": "Obljaj", "natural": "peak", "wikidata": "Q25312001"}}, {"name": "Gologuz", "latitude": 44.5794323, "longitude": 15.968139, "elevation": 1052.0, "source": "osm", "_tags": {"ele": "1052", "name": "Gologuz", "natural": "peak", "wikidata": "Q25312025"}}, {"name": "Kapija", "latitude": 45.1613575, "longitude": 16.2295319, "elevation": 521.0, "source": "osm", "_tags": {"ele": "521", "name": "Kapija", "natural": "peak", "wikidata": "Q26221648"}}, {"name": "Dikavac", "latitude": 45.1801469, "longitude": 16.1977406, "elevation": 585.0, "source": "osm", "_tags": {"ele": "585", "name": "Dikavac", "natural": "peak", "wikidata": "Q25299080"}}, {"name": "Kapija brdo", "latitude": 45.1901175, "longitude": 16.2315239, "elevation": 601.0, "source": "osm", "_tags": {"ele": "601", "name": "Kapija brdo", "natural": "peak", "wikidata": "Q26221652"}}, {"name": "Razbojne", "latitude": 45.1895306, "longitude": 16.2138964, "elevation": 558.0, "source": "osm", "_tags": {"ele": "558", "name": "Razbojne", "natural": "peak", "wikidata": "Q26221653"}}, {"name": "Jarčevac", "latitude": 45.1307167, "longitude": 16.1223213, "elevation": 389.0, "source": "osm", "_tags": {"ele": "389", "name": "Jarčevac", "natural": "peak", "wikidata": "Q25326820"}}, {"name": "", "latitude": 45.1330443, "longitude": 16.1007099, "elevation": 390.0, "source": "osm", "_tags": {"ele": "390", "natural": "peak"}}, {"name": "Kokirna", "latitude": 45.1323513, "longitude": 16.1554866, "elevation": 534.0, "source": "osm", "_tags": {"ele": "534", "name": "Kokirna", "natural": "peak", "wikidata": "Q25295399"}}, {"name": "Biljezi", "latitude": 45.1157779, "longitude": 16.1790833, "elevation": 458.0, "source": "osm", "_tags": {"ele": "458", "name": "Biljezi", "natural": "peak"}}, {"name": "Prošja", "latitude": 45.1172653, "longitude": 16.1733937, "elevation": 455.0, "source": "osm", "_tags": {"ele": "455", "name": "Prošja", "natural": "peak", "wikidata": "Q25328719"}}, {"name": "Visoka glava", "latitude": 45.0540955, "longitude": 16.1910737, "elevation": 516.0, "source": "osm", "_tags": {"ele": "516", "name": "Visoka glava", "natural": "peak"}}, {"name": "Stražbenica", "latitude": 45.1242511, "longitude": 16.2291886, "elevation": 366.0, "source": "osm", "_tags": {"ele": "366", "name": "Stražbenica", "natural": "peak", "wikidata": "Q26222777"}}, {"name": "Bijelića glava", "latitude": 45.0722615, "longitude": 16.2343962, "elevation": 366.0, "source": "osm", "_tags": {"ele": "366", "name": "Bijelića glava", "natural": "peak"}}, {"name": "Mijatova pošta", "latitude": 45.0476872, "longitude": 16.2146221, "elevation": 439.0, "source": "osm", "_tags": {"ele": "439", "name": "Mijatova pošta", "natural": "peak", "wikidata": "Q26222722"}}, {"name": "Bubreg", "latitude": 45.1408063, "longitude": 16.2164748, "elevation": 271.0, "source": "osm", "_tags": {"ele": "271", "name": "Bubreg", "natural": "peak", "wikidata": "Q26222783"}}, {"name": "Rosanovića brdo", "latitude": 45.1235648, "longitude": 16.2079673, "elevation": 367.0, "source": "osm", "_tags": {"ele": "367", "name": "Rosanovića brdo", "natural": "peak"}}, {"name": "Vijenac", "latitude": 45.1362698, "longitude": 16.197305, "elevation": 336.0, "source": "osm", "_tags": {"ele": "336", "name": "Vijenac", "natural": "peak", "wikidata": "Q25326794"}}, {"name": "", "latitude": 45.1486899, "longitude": 16.2017642, "elevation": 548.0, "source": "osm", "_tags": {"ele": "548", "natural": "peak"}}, {"name": "Vratnica", "latitude": 45.1283822, "longitude": 16.3063495, "elevation": 252.0, "source": "osm", "_tags": {"ele": "252", "name": "Vratnica", "natural": "peak"}}, {"name": "Muljača", "latitude": 45.0955442, "longitude": 16.3119742, "elevation": 216.0, "source": "osm", "_tags": {"ele": "216", "name": "Muljača", "natural": "peak", "wikidata": "Q26222965"}}, {"name": "", "latitude": 45.3352049, "longitude": 16.1797017, "elevation": 223.0, "source": "osm", "_tags": {"ele": "223", "natural": "peak"}}, {"name": "", "latitude": 45.3612341, "longitude": 16.2032213, "elevation": 214.0, "source": "osm", "_tags": {"ele": "214", "natural": "peak"}}, {"name": "", "latitude": 45.3687136, "longitude": 16.196725, "elevation": 205.0, "source": "osm", "_tags": {"ele": "205", "natural": "peak"}}, {"name": "Božića brdo", "latitude": 45.2930449, "longitude": 16.2017065, "elevation": 237.0, "source": "osm", "_tags": {"ele": "237", "name": "Božića brdo", "natural": "peak"}}, {"name": "Kolište", "latitude": 45.3167958, "longitude": 16.2608961, "elevation": 327.0, "source": "osm", "_tags": {"ele": "327", "name": "Kolište", "natural": "peak"}}, {"name": "Kruškar", "latitude": 45.3037595, "longitude": 16.2005317, "elevation": 236.0, "source": "osm", "_tags": {"ele": "236", "name": "Kruškar", "natural": "peak"}}, {"name": "", "latitude": 45.3208941, "longitude": 16.2034124, "elevation": 234.0, "source": "osm", "_tags": {"ele": "234", "natural": "peak"}}, {"name": "", "latitude": 45.3331044, "longitude": 16.2621326, "elevation": 291.0, "source": "osm", "_tags": {"ele": "291", "natural": "peak"}}, {"name": "", "latitude": 45.4030377, "longitude": 16.2316534, "elevation": 257.0, "source": "osm", "_tags": {"ele": "257", "natural": "peak"}}, {"name": "Osječenica", "latitude": 45.1617965, "longitude": 16.32541, "elevation": 485.0, "source": "osm", "_tags": {"ele": "485", "name": "Osječenica", "natural": "peak", "wikidata": "Q25291759"}}, {"name": "Jurakovac", "latitude": 45.1548401, "longitude": 16.4004529, "elevation": 369.0, "source": "osm", "_tags": {"ele": "369", "name": "Jurakovac", "natural": "peak", "wikidata": "Q26222421"}}, {"name": "Preslijež", "latitude": 45.147512, "longitude": 16.3186884, "elevation": 387.0, "source": "osm", "_tags": {"ele": "387", "name": "Preslijež", "natural": "peak"}}, {"name": "Kordića brdo", "latitude": 45.0721139, "longitude": 16.3449081, "elevation": 270.0, "source": "osm", "_tags": {"ele": "270", "name": "Kordića brdo", "natural": "peak", "wikidata": "Q26222915"}}, {"name": "Radića brdo", "latitude": 45.0098371, "longitude": 16.3383825, "elevation": 305.0, "source": "osm", "_tags": {"ele": "305", "name": "Radića brdo", "natural": "peak", "wikidata": "Q26222823"}}, {"name": "Raduta", "latitude": 45.0077834, "longitude": 16.2907599, "elevation": 291.0, "source": "osm", "_tags": {"ele": "291", "name": "Raduta", "natural": "peak", "wikidata": "Q26222836"}}, {"name": "Rajnovac", "latitude": 45.0382276, "longitude": 16.2242939, "elevation": 360.0, "source": "osm", "_tags": {"ele": "360", "name": "Rajnovac", "natural": "peak", "wikidata": "Q26222720"}}, {"name": "", "latitude": 45.0760895, "longitude": 16.2869721, "elevation": 295.0, "source": "osm", "_tags": {"ele": "295", "natural": "peak"}}, {"name": "", "latitude": 45.0619919, "longitude": 16.2614509, "elevation": 336.0, "source": "osm", "_tags": {"ele": "336", "natural": "peak"}}, {"name": "Radoc", "latitude": 45.082434, "longitude": 16.0997761, "elevation": 629.0, "source": "osm", "_tags": {"ele": "629", "name": "Radoc", "name:sr": "Радоц", "natural": "peak"}}, {"name": "Veliko Brdo", "latitude": 45.0408133, "longitude": 16.0241596, "elevation": null, "source": "osm", "_tags": {"name": "Veliko Brdo", "name:sr": "Велико Брдо", "natural": "peak"}}, {"name": "", "latitude": 45.4259612, "longitude": 15.9405747, "elevation": 208.0, "source": "osm", "_tags": {"ele": "208", "natural": "peak"}}, {"name": "Jovanovo brdo", "latitude": 45.3374071, "longitude": 16.3992833, "elevation": 288.0, "source": "osm", "_tags": {"ele": "288", "name": "Jovanovo brdo", "natural": "peak"}}, {"name": "", "latitude": 44.8748836, "longitude": 16.3959793, "elevation": 325.0, "source": "osm", "_tags": {"ele": "325", "natural": "peak"}}, {"name": "", "latitude": 44.944384, "longitude": 16.4691774, "elevation": 278.0, "source": "osm", "_tags": {"ele": "278", "natural": "peak"}}, {"name": "Stavanac", "latitude": 44.9607012, "longitude": 16.4612187, "elevation": 249.0, "source": "osm", "_tags": {"ele": "249", "name": "Stavanac", "name:sr": "Ставанац", "name:sr-Latn": "Stavanac", "natural": "peak"}}, {"name": "Jagodnjak", "latitude": 44.9322436, "longitude": 16.4340028, "elevation": 203.0, "source": "osm", "_tags": {"ele": "203", "name": "Jagodnjak", "name:sr": "Јагодњак", "natural": "peak"}}, {"name": "", "latitude": 44.9400552, "longitude": 16.4211448, "elevation": 245.0, "source": "osm", "_tags": {"ele": "245", "natural": "peak"}}, {"name": "", "latitude": 44.9351846, "longitude": 16.4080206, "elevation": 293.0, "source": "osm", "_tags": {"ele": "293", "natural": "peak"}}, {"name": "Klajinovac", "latitude": 44.9398664, "longitude": 16.416673, "elevation": null, "source": "osm", "_tags": {"fixme": "K*r*ajinovac?", "name": "Klajinovac", "name:sr": "Клајиновац", "natural": "peak"}}, {"name": "Kecmanova Glava", "latitude": 44.9535909, "longitude": 16.4062583, "elevation": 303.0, "source": "osm", "_tags": {"ele": "303", "name": "Kecmanova Glava", "name:sr": "Кецманова Глава", "name:sr-Latn": "Kecmanova Glava", "natural": "peak"}}, {"name": "Bilica Glava", "latitude": 44.9529037, "longitude": 16.3907437, "elevation": 343.0, "source": "osm", "_tags": {"ele": "343", "name": "Bilica Glava", "name:sr": "Билица Глава", "natural": "peak"}}, {"name": "Bilića Glava", "latitude": 44.937313, "longitude": 16.3905474, "elevation": 287.0, "source": "osm", "_tags": {"ele": "287", "name": "Bilića Glava", "name:sr": "Билића Глава", "natural": "peak"}}, {"name": "Rečinska Glava", "latitude": 44.9612905, "longitude": 16.391229, "elevation": 330.0, "source": "osm", "_tags": {"ele": "330", "name": "Rečinska Glava", "name:sr": "Речинска Глава", "natural": "peak"}}, {"name": "Metaljka", "latitude": 44.951178, "longitude": 16.3588912, "elevation": 306.0, "source": "osm", "_tags": {"ele": "306", "name": "Metaljka", "name:sr": "Метаљка", "natural": "peak"}}, {"name": "Vejinovac", "latitude": 44.9862866, "longitude": 16.3495206, "elevation": 222.0, "source": "osm", "_tags": {"ele": "222", "name": "Vejinovac", "name:sr": "Вејиновац", "natural": "peak"}}, {"name": "", "latitude": 44.9491361, "longitude": 16.4531821, "elevation": 229.0, "source": "osm", "_tags": {"ele": "229", "natural": "peak"}}, {"name": "Gorenjski redak", "latitude": 44.9242061, "longitude": 16.4563598, "elevation": 300.0, "source": "osm", "_tags": {"ele": "300", "name": "Gorenjski redak", "name:sr": "Горењски редак", "natural": "peak"}}, {"name": "Vekića brdo", "latitude": 44.9326516, "longitude": 16.4471479, "elevation": 286.0, "source": "osm", "_tags": {"ele": "286", "name": "Vekića brdo", "name:sr": "Векића брдо", "natural": "peak"}}, {"name": "Pimica", "latitude": 44.9246884, "longitude": 16.4700154, "elevation": 331.0, "source": "osm", "_tags": {"ele": "331", "name": "Pimica", "name:sr": "Пимица", "natural": "peak"}}, {"name": "Gavran", "latitude": 44.9135096, "longitude": 16.4298159, "elevation": 381.0, "source": "osm", "_tags": {"ele": "381", "name": "Gavran", "name:sr": "Гавран", "natural": "peak"}}, {"name": "Crni Vrh", "latitude": 44.9041534, "longitude": 16.4156432, "elevation": 424.0, "source": "osm", "_tags": {"ele": "424", "name": "Crni Vrh", "name:sr": "Црни Врх", "natural": "peak"}}, {"name": "Gradina", "latitude": 44.9137801, "longitude": 16.4504508, "elevation": null, "source": "osm", "_tags": {"name": "Gradina", "name:sr": "Градина", "natural": "peak"}}, {"name": "Gračani", "latitude": 45.0367097, "longitude": 16.3762056, "elevation": 236.0, "source": "osm", "_tags": {"ele": "236", "name": "Gračani", "name:sr": "Грачани", "natural": "peak"}}, {"name": "Kićak", "latitude": 45.0246578, "longitude": 16.3660415, "elevation": 258.0, "source": "osm", "_tags": {"ele": "258", "name": "Kićak", "name:sr": "Кићак", "natural": "peak"}}, {"name": "", "latitude": 45.0130046, "longitude": 16.3705967, "elevation": 293.0, "source": "osm", "_tags": {"ele": "293", "natural": "peak"}}, {"name": "Salkića glava", "latitude": 45.0012577, "longitude": 16.3751485, "elevation": 347.0, "source": "osm", "_tags": {"ele": "347", "name": "Salkića glava", "name:sr": "Салкића глава", "name:sr-Latn": "Salkića glava", "natural": "peak"}}, {"name": "Drum", "latitude": 45.4308341, "longitude": 16.256164, "elevation": 185.0, "source": "osm", "_tags": {"ele": "185", "name": "Drum", "natural": "peak"}}, {"name": "Radostovo", "latitude": 45.0675957, "longitude": 16.0318421, "elevation": null, "source": "osm", "_tags": {"name": "Radostovo", "name:sr": "Радостово", "natural": "peak"}}, {"name": "Medarevo brdo", "latitude": 45.3310776, "longitude": 16.3788535, "elevation": 352.0, "source": "osm", "_tags": {"ele": "352", "name": "Medarevo brdo", "natural": "peak"}}, {"name": "", "latitude": 45.3227396, "longitude": 16.4155183, "elevation": 269.0, "source": "osm", "_tags": {"ele": "269", "natural": "peak"}}, {"name": "", "latitude": 44.8882342, "longitude": 16.4590107, "elevation": 450.0, "source": "osm", "_tags": {"ele": "450", "natural": "peak"}}, {"name": "", "latitude": 44.8719193, "longitude": 16.4668195, "elevation": 530.0, "source": "osm", "_tags": {"ele": "530", "natural": "peak"}}, {"name": "Tavan", "latitude": 44.644588, "longitude": 15.9276116, "elevation": 981.0, "source": "osm", "_tags": {"ele": "981", "name": "Tavan", "natural": "peak"}}, {"name": "", "latitude": 45.2489464, "longitude": 15.9624374, "elevation": 216.0, "source": "osm", "_tags": {"ele": "216", "natural": "peak"}}, {"name": "", "latitude": 45.1862488, "longitude": 16.0230709, "elevation": 228.0, "source": "osm", "_tags": {"ele": "228", "natural": "peak"}}, {"name": "Zečevac", "latitude": 45.1939982, "longitude": 16.0570412, "elevation": 394.0, "source": "osm", "_tags": {"ele": "394", "name": "Zečevac", "natural": "peak", "wikidata": "Q25327050"}}, {"name": "Pljeskar", "latitude": 45.1801005, "longitude": 16.0746098, "elevation": 486.0, "source": "osm", "_tags": {"ele": "486", "name": "Pljeskar", "natural": "peak", "wikidata": "Q25326928"}}, {"name": "Patrije", "latitude": 45.1686898, "longitude": 16.1028979, "elevation": 485.0, "source": "osm", "_tags": {"ele": "485", "name": "Patrije", "natural": "peak"}}, {"name": "Bešića kosa", "latitude": 44.973884, "longitude": 16.4516954, "elevation": 236.0, "source": "osm", "_tags": {"ele": "236", "name": "Bešića kosa", "name:sr": "Бешића коса", "natural": "peak"}}, {"name": "Umetaljke", "latitude": 45.3448279, "longitude": 16.2838021, "elevation": 233.0, "source": "osm", "_tags": {"ele": "233", "name": "Umetaljke", "natural": "peak"}}, {"name": "Metla", "latitude": 45.3321209, "longitude": 16.3351425, "elevation": 413.0, "source": "osm", "_tags": {"ele": "413", "name": "Metla", "natural": "peak"}}, {"name": "Glavica", "latitude": 45.3360435, "longitude": 16.2714381, "elevation": 342.0, "source": "osm", "_tags": {"ele": "342", "name": "Glavica", "natural": "peak", "wikidata": "Q25297212"}}, {"name": "", "latitude": 45.0553585, "longitude": 16.4688007, "elevation": 294.0, "source": "osm", "_tags": {"ele": "294", "natural": "peak"}}, {"name": "", "latitude": 44.6395719, "longitude": 16.4242263, "elevation": 1183.0, "source": "osm", "_tags": {"ele": "1183", "natural": "peak"}}, {"name": "", "latitude": 44.5570021, "longitude": 16.0818267, "elevation": 547.0, "source": "osm", "_tags": {"ele": "547", "natural": "peak"}}, {"name": "", "latitude": 44.5633877, "longitude": 16.0931374, "elevation": 342.0, "source": "osm", "_tags": {"ele": "342", "natural": "peak"}}, {"name": "", "latitude": 44.5574089, "longitude": 16.091773, "elevation": 408.0, "source": "osm", "_tags": {"ele": "408", "natural": "peak"}}, {"name": "", "latitude": 44.8159582, "longitude": 15.9461602, "elevation": 394.0, "source": "osm", "_tags": {"ele": "394", "natural": "peak"}}, {"name": "Mala Kosić", "latitude": 44.8313287, "longitude": 15.9492176, "elevation": 465.0, "source": "osm", "_tags": {"ele": "465", "name": "Mala Kosić", "name:sr": "Мала Косић", "natural": "peak"}}, {"name": "Ribićka Glavica", "latitude": 44.8108236, "longitude": 15.9133654, "elevation": 354.0, "source": "osm", "_tags": {"ele": "354", "name": "Ribićka Glavica", "name:sr": "Рибићка Главица", "natural": "peak"}}, {"name": "Jelovac", "latitude": 44.8626657, "longitude": 16.0023124, "elevation": 895.0, "source": "osm", "_tags": {"ele": "895", "name": "Jelovac", "name:sr": "Јеловац", "natural": "peak"}}, {"name": "", "latitude": 44.8093725, "longitude": 16.0709204, "elevation": 1006.0, "source": "osm", "_tags": {"ele": "1006", "natural": "peak"}}, {"name": "Trovrh", "latitude": 44.818425, "longitude": 15.9634722, "elevation": 476.0, "source": "osm", "_tags": {"ele": "476", "name": "Trovrh", "name:sr": "Троврх", "natural": "peak"}}, {"name": "Tipsov Vrh", "latitude": 44.7413696, "longitude": 16.1121973, "elevation": 1135.0, "source": "osm", "_tags": {"ele": "1135", "name": "Tipsov Vrh", "name:sr": "Типсов Врх", "natural": "peak"}}, {"name": "Čair", "latitude": 44.8209407, "longitude": 16.4445864, "elevation": 649.0, "source": "osm", "_tags": {"ele": "649", "name": "Čair", "name:sr": "Чаир", "natural": "peak"}}, {"name": "Veliki Omar", "latitude": 44.663032, "longitude": 16.4271424, "elevation": 1252.0, "source": "osm", "_tags": {"ele": "1252", "name": "Veliki Omar", "name:sr": "Велики Омар", "natural": "peak"}}, {"name": "Rakita", "latitude": 44.6717831, "longitude": 16.4339217, "elevation": 1130.0, "source": "osm", "_tags": {"ele": "1130", "name": "Rakita", "name:sr": "Ракита", "natural": "peak"}}, {"name": "Borovac", "latitude": 44.6867873, "longitude": 16.4177756, "elevation": 1135.0, "source": "osm", "_tags": {"ele": "1135", "name": "Borovac", "name:sr": "Боровац", "natural": "peak"}}, {"name": "Kekića Vrh", "latitude": 44.6888097, "longitude": 16.3014226, "elevation": 1287.0, "source": "osm", "_tags": {"ele": "1287", "name": "Kekića Vrh", "name:sr": "Кекића Врх", "natural": "peak"}}, {"name": "Javornjača", "latitude": 44.7179874, "longitude": 16.3391924, "elevation": 1480.0, "source": "osm", "_tags": {"ele": "1480", "name": "Javornjača", "name:sr": "Јаворњача", "natural": "peak"}}, {"name": "", "latitude": 44.9754371, "longitude": 16.4379255, "elevation": 143.0, "source": "osm", "_tags": {"ele": "143", "natural": "peak"}}, {"name": "", "latitude": 44.9845156, "longitude": 15.9225014, "elevation": 475.0, "source": "osm", "_tags": {"ele": "475", "natural": "peak"}}, {"name": "", "latitude": 44.9893392, "longitude": 15.9357815, "elevation": 506.0, "source": "osm", "_tags": {"ele": "506", "natural": "peak"}}, {"name": "", "latitude": 44.9964768, "longitude": 15.9099857, "elevation": 382.0, "source": "osm", "_tags": {"ele": "382", "natural": "peak"}}, {"name": "Bogdanić", "latitude": 44.987125, "longitude": 16.4405318, "elevation": 242.0, "source": "osm", "_tags": {"ele": "242", "name": "Bogdanić", "name:sr": "Богданић", "natural": "peak"}}, {"name": "Crnobrnjsko brdo", "latitude": 45.1646337, "longitude": 16.4399294, "elevation": 306.0, "source": "osm", "_tags": {"ele": "306", "name": "Crnobrnjsko brdo", "natural": "peak", "wikidata": "Q26222484"}}, {"name": "Vijenac", "latitude": 45.1599158, "longitude": 16.4574869, "elevation": 281.0, "source": "osm", "_tags": {"ele": "281", "name": "Vijenac", "natural": "peak"}}, {"name": "Jasenov vrh", "latitude": 44.4723824, "longitude": 16.006493, "elevation": 1278.0, "source": "osm", "_tags": {"ele": "1278", "name": "Jasenov vrh", "natural": "peak"}}, {"name": "Međednjak", "latitude": 44.8529222, "longitude": 16.4496452, "elevation": 424.0, "source": "osm", "_tags": {"ele": "424", "name": "Međednjak", "name:sr": "Међедњак", "name:sr-Latn": "Međednjak", "natural": "peak"}}, {"name": "Strazbenica", "latitude": 44.6067601, "longitude": 16.3494524, "elevation": 1194.0, "source": "osm", "_tags": {"ele": "1194", "name": "Strazbenica", "name:sr": "Стразбеница", "natural": "peak"}}, {"name": "", "latitude": 44.5887891, "longitude": 16.3519349, "elevation": 957.0, "source": "osm", "_tags": {"ele": "957", "natural": "peak"}}, {"name": "Latinski vrh", "latitude": 44.5672471, "longitude": 16.428404, "elevation": 997.0, "source": "osm", "_tags": {"ele": "997", "name": "Latinski vrh", "name:sr": "Латински врх", "natural": "peak"}}, {"name": "Velika Uvala", "latitude": 44.66251, "longitude": 16.4605677, "elevation": 690.0, "source": "osm", "_tags": {"ele": "690", "name": "Velika Uvala", "name:sr": "Велика Увала", "name:sr-Latn": "Velika Uvala", "natural": "peak"}}, {"name": "", "latitude": 45.2688937, "longitude": 16.3200181, "elevation": 425.0, "source": "osm", "_tags": {"ele": "425", "natural": "peak"}}, {"name": "", "latitude": 45.2813445, "longitude": 16.3284326, "elevation": 402.0, "source": "osm", "_tags": {"ele": "402", "natural": "peak"}}, {"name": "", "latitude": 44.9619191, "longitude": 16.4494613, "elevation": 215.0, "source": "osm", "_tags": {"ele": "215", "natural": "peak"}}, {"name": "Gradina", "latitude": 45.3749778, "longitude": 16.3076261, "elevation": 329.0, "source": "osm", "_tags": {"ele": "329", "name": "Gradina", "natural": "peak"}}, {"name": "Svinkalica", "latitude": 45.3805626, "longitude": 16.3594151, "elevation": 193.0, "source": "osm", "_tags": {"ele": "193", "name": "Svinkalica", "natural": "peak"}}, {"name": "", "latitude": 45.3120823, "longitude": 16.2664274, "elevation": 345.0, "source": "osm", "_tags": {"ele": "345", "natural": "peak"}}, {"name": "Stojanovac", "latitude": 45.3994583, "longitude": 16.4287294, "elevation": 150.0, "source": "osm", "_tags": {"ele": "150", "name": "Stojanovac", "natural": "peak"}}, {"name": "Gradina", "latitude": 45.2454096, "longitude": 16.3192354, "elevation": 451.0, "source": "osm", "_tags": {"ele": "451", "name": "Gradina", "natural": "peak"}}, {"name": "", "latitude": 45.2287817, "longitude": 16.2963817, "elevation": 566.0, "source": "osm", "_tags": {"ele": "566", "natural": "peak"}}, {"name": "", "latitude": 45.2370793, "longitude": 16.3105273, "elevation": 457.0, "source": "osm", "_tags": {"ele": "457", "natural": "peak"}}, {"name": "", "latitude": 45.2545564, "longitude": 16.3091392, "elevation": 453.0, "source": "osm", "_tags": {"ele": "453", "natural": "peak"}}, {"name": "Ledinjak", "latitude": 45.2522815, "longitude": 16.3242513, "elevation": 369.0, "source": "osm", "_tags": {"ele": "369", "name": "Ledinjak", "natural": "peak"}}, {"name": "Ramanovo brdo", "latitude": 45.2467491, "longitude": 16.3077959, "elevation": 475.0, "source": "osm", "_tags": {"ele": "475", "name": "Ramanovo brdo", "natural": "peak"}}, {"name": "Svinčina", "latitude": 45.2507206, "longitude": 16.3024162, "elevation": 466.0, "source": "osm", "_tags": {"ele": "466", "name": "Svinčina", "natural": "peak"}}, {"name": "Crkvište", "latitude": 45.2501893, "longitude": 16.3458249, "elevation": 478.0, "source": "osm", "_tags": {"ele": "478", "name": "Crkvište", "natural": "peak"}}, {"name": "Čizmino brdo", "latitude": 45.2395913, "longitude": 16.3386453, "elevation": 478.0, "source": "osm", "_tags": {"ele": "478", "name": "Čizmino brdo", "natural": "peak"}}, {"name": "Darda", "latitude": 45.3190693, "longitude": 16.0801299, "elevation": 204.0, "source": "osm", "_tags": {"ele": "204", "name": "Darda", "natural": "peak"}}, {"name": "Đurina glava", "latitude": 45.2450714, "longitude": 16.3672471, "elevation": 511.0, "source": "osm", "_tags": {"ele": "511", "name": "Đurina glava", "natural": "peak"}}, {"name": "Gelina", "latitude": 45.2203547, "longitude": 16.2571093, "elevation": 522.0, "source": "osm", "_tags": {"ele": "522", "name": "Gelina", "natural": "peak"}}, {"name": "Debelo brdo", "latitude": 45.2269415, "longitude": 16.2327072, "elevation": 536.0, "source": "osm", "_tags": {"ele": "536", "name": "Debelo brdo", "natural": "peak"}}, {"name": "Međugorje", "latitude": 45.2354318, "longitude": 16.2551737, "elevation": 477.0, "source": "osm", "_tags": {"ele": "477", "name": "Međugorje", "natural": "peak"}}, {"name": "", "latitude": 45.245301, "longitude": 16.2908081, "elevation": 423.0, "source": "osm", "_tags": {"ele": "423", "natural": "peak"}}, {"name": "Gartovo brdo", "latitude": 45.2628934, "longitude": 16.3298674, "elevation": 357.0, "source": "osm", "_tags": {"ele": "357", "name": "Gartovo brdo", "natural": "peak"}}, {"name": "Gologuz", "latitude": 45.2650838, "longitude": 16.3850955, "elevation": 437.0, "source": "osm", "_tags": {"ele": "437", "name": "Gologuz", "natural": "peak"}}, {"name": "Mlječkovac", "latitude": 45.2748025, "longitude": 16.3932577, "elevation": 419.0, "source": "osm", "_tags": {"ele": "419", "name": "Mlječkovac", "natural": "peak"}}, {"name": "", "latitude": 45.2826065, "longitude": 16.3980875, "elevation": 388.6, "source": "osm", "_tags": {"ele": "388.6", "natural": "peak"}}, {"name": "", "latitude": 45.2867026, "longitude": 16.4009983, "elevation": 354.0, "source": "osm", "_tags": {"ele": "354", "natural": "peak"}}, {"name": "", "latitude": 45.290009, "longitude": 16.4068038, "elevation": 275.8, "source": "osm", "_tags": {"ele": "275.8", "natural": "peak"}}, {"name": "", "latitude": 45.2965077, "longitude": 16.3781619, "elevation": 347.2, "source": "osm", "_tags": {"ele": "347.2", "natural": "peak"}}, {"name": "Vitoroga", "latitude": 44.7643676, "longitude": 16.461127, "elevation": 601.0, "source": "osm", "_tags": {"ele": "601", "name": "Vitoroga", "name:sr": "Виторога", "natural": "peak"}}, {"name": "", "latitude": 44.6917087, "longitude": 16.0737625, "elevation": 731.0, "source": "osm", "_tags": {"ele": "731", "natural": "peak"}}, {"name": "Visoko brdo", "latitude": 45.2276762, "longitude": 16.3263626, "elevation": 544.6, "source": "osm", "_tags": {"ele": "544.6", "name": "Visoko brdo", "natural": "peak"}}, {"name": "Sladakovac", "latitude": 44.4808569, "longitude": 15.987374, "elevation": 1069.0, "source": "osm", "_tags": {"ele": "1069", "name": "Sladakovac", "natural": "peak"}}, {"name": "", "latitude": 44.5196273, "longitude": 15.9200622, "elevation": 1232.0, "source": "osm", "_tags": {"ele": "1232", "natural": "peak"}}, {"name": "", "latitude": 44.5181411, "longitude": 15.9255547, "elevation": 1235.0, "source": "osm", "_tags": {"ele": "1235", "natural": "peak"}}, {"name": "Šestanj brdo", "latitude": 45.4293936, "longitude": 16.1787592, "elevation": 239.0, "source": "osm", "_tags": {"ele": "239", "name": "Šestanj brdo", "natural": "peak"}}, {"name": "Jabuka", "latitude": 44.6942747, "longitude": 16.0916768, "elevation": 798.0, "source": "osm", "_tags": {"ele": "798", "name": "Jabuka", "name:sr": "Јабука", "natural": "peak"}}, {"name": "", "latitude": 44.6985656, "longitude": 16.0768535, "elevation": 748.0, "source": "osm", "_tags": {"ele": "748", "natural": "peak"}}, {"name": "Jadovički vrh", "latitude": 44.7261309, "longitude": 16.058944, "elevation": 1170.0, "source": "osm", "_tags": {"ele": "1170", "name": "Jadovički vrh", "name:sr": "Јадовички врх", "natural": "peak"}}, {"name": "Ševića jasen", "latitude": 44.7405643, "longitude": 16.0606014, "elevation": 1048.0, "source": "osm", "_tags": {"ele": "1048", "name": "Ševića jasen", "name:sr": "Шевића јасен", "natural": "peak"}}, {"name": "", "latitude": 44.745978, "longitude": 16.0686509, "elevation": 889.0, "source": "osm", "_tags": {"ele": "889", "natural": "peak"}}, {"name": "", "latitude": 44.7524612, "longitude": 16.0660189, "elevation": 906.0, "source": "osm", "_tags": {"ele": "906", "natural": "peak"}}, {"name": "", "latitude": 44.7309386, "longitude": 15.8913776, "elevation": 689.8, "source": "osm", "_tags": {"ele": "689.8", "natural": "peak"}}, {"name": "Željezna glava", "latitude": 44.7134998, "longitude": 15.9157163, "elevation": 775.6, "source": "osm", "_tags": {"ele": "775.6", "name": "Željezna glava", "natural": "peak"}}, {"name": "Drenovača", "latitude": 44.7213423, "longitude": 15.9226913, "elevation": 581.0, "source": "osm", "_tags": {"ele": "581", "name": "Drenovača", "name:sr": "Дреновача", "natural": "peak"}}, {"name": "Lakin Vrh", "latitude": 44.5787033, "longitude": 16.1405614, "elevation": 1193.0, "source": "osm", "_tags": {"ele": "1193", "name": "Lakin Vrh", "name:sr": "Лакин врх", "natural": "peak"}}, {"name": "Stubica", "latitude": 45.4154492, "longitude": 15.8969097, "elevation": 221.0, "source": "osm", "_tags": {"ele": "221", "name": "Stubica", "natural": "peak"}}, {"name": "Komozečko brdo", "latitude": 45.4160769, "longitude": 15.9100345, "elevation": 177.0, "source": "osm", "_tags": {"alt_name": "Biljeg", "ele": "177", "name": "Komozečko brdo", "natural": "peak"}}, {"name": "Rudina", "latitude": 45.4227588, "longitude": 15.9286102, "elevation": 181.0, "source": "osm", "_tags": {"ele": "181", "name": "Rudina", "natural": "peak"}}, {"name": "Lubarda", "latitude": 45.3814947, "longitude": 15.923538, "elevation": 231.0, "source": "osm", "_tags": {"ele": "231", "name": "Lubarda", "natural": "peak"}}, {"name": "Vijenac", "latitude": 45.000975, "longitude": 16.4220705, "elevation": 252.0, "source": "osm", "_tags": {"ele": "252", "name": "Vijenac", "name:sr": "Вијенац", "natural": "peak"}}, {"name": "Debeljača", "latitude": 44.4967184, "longitude": 16.1071188, "elevation": 772.0, "source": "osm", "_tags": {"ele": "772", "name": "Debeljača", "natural": "peak"}}, {"name": "Omeragin vršić", "latitude": 44.7891024, "longitude": 16.2699473, "elevation": null, "source": "osm", "_tags": {"name": "Omeragin vršić", "name:sr": "Омерагин вршић", "natural": "peak"}}, {"name": "", "latitude": 45.1256377, "longitude": 16.3350697, "elevation": 232.0, "source": "osm", "_tags": {"ele": "232", "natural": "peak"}}, {"name": "Trešnjar", "latitude": 45.1275609, "longitude": 16.3565979, "elevation": 214.0, "source": "osm", "_tags": {"ele": "214", "name": "Trešnjar", "natural": "peak"}}, {"name": "Palanka", "latitude": 45.1468363, "longitude": 16.362026, "elevation": 300.0, "source": "osm", "_tags": {"ele": "300", "name": "Palanka", "natural": "peak"}}, {"name": "Previja", "latitude": 44.4358893, "longitude": 15.923112, "elevation": 841.0, "source": "osm", "_tags": {"ele": "841", "name": "Previja", "natural": "peak"}}, {"name": "Šolobanica", "latitude": 44.4395214, "longitude": 15.9042997, "elevation": 1145.0, "source": "osm", "_tags": {"ele": "1145", "name": "Šolobanica", "natural": "peak", "wikidata": "Q25327407"}}, {"name": "Glavica", "latitude": 44.4456786, "longitude": 15.903203, "elevation": 1053.0, "source": "osm", "_tags": {"ele": "1053", "name": "Glavica", "natural": "peak", "wikidata": "Q25327413"}}, {"name": "Opaljeni vršci", "latitude": 44.4741892, "longitude": 15.9005984, "elevation": 1315.0, "source": "osm", "_tags": {"ele": "1315", "name": "Opaljeni vršci", "natural": "peak", "wikidata": "Q26221689"}}, {"name": "Prpino brdo", "latitude": 44.4748395, "longitude": 15.970411, "elevation": 976.0, "source": "osm", "_tags": {"ele": "976", "name": "Prpino brdo", "natural": "peak"}}, {"name": "", "latitude": 44.4706284, "longitude": 15.9207065, "elevation": 1353.0, "source": "osm", "_tags": {"ele": "1353", "natural": "peak"}}, {"name": "", "latitude": 44.9854732, "longitude": 15.933615, "elevation": 440.0, "source": "osm", "_tags": {"ele": "440", "natural": "peak"}}, {"name": "Velika Gomila", "latitude": 44.9225404, "longitude": 16.052384, "elevation": 778.0, "source": "osm", "_tags": {"ele": "778", "name": "Velika Gomila", "name:sr": "Велика Гомила", "natural": "peak"}}, {"name": "Gradina", "latitude": 44.5087217, "longitude": 16.0331388, "elevation": 777.0, "source": "osm", "_tags": {"ele": "777", "name": "Gradina", "natural": "peak"}}, {"name": "", "latitude": 45.3928575, "longitude": 15.9195546, "elevation": 216.0, "source": "osm", "_tags": {"ele": "216", "natural": "peak"}}, {"name": "", "latitude": 45.3246862, "longitude": 16.3832732, "elevation": 338.0, "source": "osm", "_tags": {"ele": "338", "natural": "peak"}}, {"name": "Premagrad", "latitude": 45.3574164, "longitude": 16.3370193, "elevation": 276.0, "source": "osm", "_tags": {"ele": "276", "name": "Premagrad", "natural": "peak"}}, {"name": "Čupinovac", "latitude": 45.3508821, "longitude": 16.3168538, "elevation": 346.0, "source": "osm", "_tags": {"ele": "346", "name": "Čupinovac", "natural": "peak"}}, {"name": "Janoševac", "latitude": 45.2064127, "longitude": 16.4233199, "elevation": 431.0, "source": "osm", "_tags": {"ele": "431", "name": "Janoševac", "natural": "peak"}}, {"name": "Kosijerak", "latitude": 45.2608758, "longitude": 16.1904316, "elevation": 270.0, "source": "osm", "_tags": {"ele": "270", "name": "Kosijerak", "natural": "peak"}}, {"name": "", "latitude": 45.2469388, "longitude": 16.2210729, "elevation": 316.0, "source": "osm", "_tags": {"ele": "316", "natural": "peak"}}, {"name": "", "latitude": 45.2294786, "longitude": 16.1873691, "elevation": 312.0, "source": "osm", "_tags": {"ele": "312", "natural": "peak"}}, {"name": "", "latitude": 45.2358881, "longitude": 16.1941467, "elevation": 268.0, "source": "osm", "_tags": {"ele": "268", "natural": "peak"}}, {"name": "", "latitude": 45.2048054, "longitude": 16.1523459, "elevation": 480.0, "source": "osm", "_tags": {"ele": "480", "natural": "peak"}}, {"name": "", "latitude": 45.2162056, "longitude": 16.142762, "elevation": 383.0, "source": "osm", "_tags": {"ele": "383", "natural": "peak"}}, {"name": "", "latitude": 45.209738, "longitude": 16.1464449, "elevation": 496.0, "source": "osm", "_tags": {"ele": "496", "natural": "peak"}}, {"name": "Drljačko brdo", "latitude": 45.2440593, "longitude": 16.191137, "elevation": 259.0, "source": "osm", "_tags": {"ele": "259", "name": "Drljačko brdo", "natural": "peak"}}, {"name": "Glavica", "latitude": 45.3231048, "longitude": 16.1776529, "elevation": 236.0, "source": "osm", "_tags": {"ele": "236", "name": "Glavica", "natural": "peak"}}, {"name": "Bukovlja", "latitude": 45.311787, "longitude": 16.1825426, "elevation": 217.0, "source": "osm", "_tags": {"ele": "217", "name": "Bukovlja", "natural": "peak"}}, {"name": "", "latitude": 45.3888885, "longitude": 16.2361371, "elevation": 271.0, "source": "osm", "_tags": {"ele": "271", "natural": "peak"}}, {"name": "Maljevac", "latitude": 45.1940943, "longitude": 16.294092, "elevation": 585.0, "source": "osm", "_tags": {"ele": "585", "name": "Maljevac", "natural": "peak"}}, {"name": "Brezova glava", "latitude": 45.205717, "longitude": 16.3369612, "elevation": 448.5, "source": "osm", "_tags": {"ele": "448.5", "name": "Brezova glava", "natural": "peak"}}, {"name": "Keternica", "latitude": 45.2035874, "longitude": 16.3129415, "elevation": 591.0, "source": "osm", "_tags": {"ele": "591", "name": "Keternica", "natural": "peak"}}, {"name": "", "latitude": 45.3945859, "longitude": 16.1168746, "elevation": 192.0, "source": "osm", "_tags": {"ele": "192", "natural": "peak"}}, {"name": "", "latitude": 45.3145218, "longitude": 16.1091219, "elevation": 208.0, "source": "osm", "_tags": {"ele": "208", "natural": "peak"}}, {"name": "", "latitude": 45.3176858, "longitude": 16.0923729, "elevation": 221.0, "source": "osm", "_tags": {"ele": "221", "natural": "peak"}}, {"name": "", "latitude": 45.3241154, "longitude": 16.0110967, "elevation": 175.0, "source": "osm", "_tags": {"ele": "175", "natural": "peak"}}, {"name": "Trsija", "latitude": 45.3137427, "longitude": 16.004378, "elevation": 180.0, "source": "osm", "_tags": {"ele": "180", "name": "Trsija", "natural": "peak"}}, {"name": "", "latitude": 45.2953473, "longitude": 15.996981, "elevation": 168.0, "source": "osm", "_tags": {"ele": "168", "natural": "peak"}}, {"name": "", "latitude": 45.3155548, "longitude": 15.9803304, "elevation": 186.0, "source": "osm", "_tags": {"ele": "186", "natural": "peak"}}, {"name": "", "latitude": 45.3234926, "longitude": 15.9907218, "elevation": 184.0, "source": "osm", "_tags": {"ele": "184", "natural": "peak"}}, {"name": "", "latitude": 45.2308919, "longitude": 16.2164992, "elevation": 340.0, "source": "osm", "_tags": {"ele": "340", "natural": "peak"}}, {"name": "", "latitude": 45.3012482, "longitude": 16.2634813, "elevation": 295.0, "source": "osm", "_tags": {"ele": "295", "natural": "peak"}}, {"name": "", "latitude": 45.2961168, "longitude": 16.2615956, "elevation": 323.0, "source": "osm", "_tags": {"ele": "323", "natural": "peak"}}, {"name": "", "latitude": 45.3160744, "longitude": 16.2521066, "elevation": 291.0, "source": "osm", "_tags": {"ele": "291", "natural": "peak"}}, {"name": "", "latitude": 45.3056395, "longitude": 16.2514085, "elevation": 251.0, "source": "osm", "_tags": {"ele": "251", "natural": "peak"}}, {"name": "Božino brdo", "latitude": 45.2239535, "longitude": 15.8953167, "elevation": 196.0, "source": "osm", "_tags": {"ele": "196", "name": "Božino brdo", "natural": "peak"}}, {"name": "Javornik", "latitude": 44.4876449, "longitude": 15.9286425, "elevation": 1292.0, "source": "osm", "_tags": {"ele": "1292", "name": "Javornik", "natural": "peak"}}, {"name": "Rajčetina kosa", "latitude": 44.5056557, "longitude": 15.917656, "elevation": 1265.0, "source": "osm", "_tags": {"ele": "1265", "name": "Rajčetina kosa", "natural": "peak"}}, {"name": "Kurozeb", "latitude": 44.4971013, "longitude": 15.9179216, "elevation": 1232.0, "source": "osm", "_tags": {"ele": "1232", "name": "Kurozeb", "natural": "peak"}}, {"name": "Bijeli vrh", "latitude": 44.4731094, "longitude": 15.9154895, "elevation": 1385.0, "source": "osm", "_tags": {"ele": "1385", "name": "Bijeli vrh", "natural": "peak"}}, {"name": "Vršak", "latitude": 44.4664509, "longitude": 15.9059986, "elevation": 1314.0, "source": "osm", "_tags": {"ele": "1314", "name": "Vršak", "natural": "peak"}}, {"name": "Vukoviča kose", "latitude": 45.4049478, "longitude": 15.9626563, "elevation": 214.0, "source": "osm", "_tags": {"ele": "214", "name": "Vukoviča kose", "natural": "peak"}}, {"name": "Rikovačke kose", "latitude": 45.393701, "longitude": 15.8958366, "elevation": 196.0, "source": "osm", "_tags": {"ele": "196", "name": "Rikovačke kose", "natural": "peak"}}, {"name": "Sovinjak", "latitude": 45.4163866, "longitude": 16.0072326, "elevation": 185.0, "source": "osm", "_tags": {"ele": "185", "name": "Sovinjak", "natural": "peak"}}, {"name": "Bulatsko brdo", "latitude": 45.4300042, "longitude": 15.9066461, "elevation": 197.0, "source": "osm", "_tags": {"ele": "197", "name": "Bulatsko brdo", "natural": "peak"}}, {"name": "Kosa", "latitude": 45.4186773, "longitude": 15.988864, "elevation": 153.0, "source": "osm", "_tags": {"ele": "153", "name": "Kosa", "natural": "peak"}}, {"name": "Tavanci", "latitude": 45.3674463, "longitude": 16.2924374, "elevation": 288.0, "source": "osm", "_tags": {"ele": "288", "name": "Tavanci", "natural": "peak"}}, {"name": "Farćev brijeg", "latitude": 45.3940813, "longitude": 16.1237498, "elevation": 189.0, "source": "osm", "_tags": {"ele": "189", "name": "Farćev brijeg", "natural": "peak"}}, {"name": "Perćevica", "latitude": 45.3965259, "longitude": 16.1651212, "elevation": 156.0, "source": "osm", "_tags": {"ele": "156", "name": "Perćevica", "natural": "peak"}}, {"name": "", "latitude": 45.4028648, "longitude": 16.1799144, "elevation": 189.0, "source": "osm", "_tags": {"ele": "189", "natural": "peak"}}, {"name": "", "latitude": 45.4028939, "longitude": 16.1099406, "elevation": 202.0, "source": "osm", "_tags": {"ele": "202", "natural": "peak"}}, {"name": "Mijatovac", "latitude": 45.3898347, "longitude": 16.3794963, "elevation": 197.0, "source": "osm", "_tags": {"ele": "197", "name": "Mijatovac", "natural": "peak"}}, {"name": "Malo brdo", "latitude": 45.3853362, "longitude": 16.3832558, "elevation": 199.0, "source": "osm", "_tags": {"ele": "199", "name": "Malo brdo", "natural": "peak"}}, {"name": "Malčevac", "latitude": 45.3920639, "longitude": 16.3901289, "elevation": 182.0, "source": "osm", "_tags": {"ele": "182", "name": "Malčevac", "natural": "peak"}}, {"name": "Lovčansko brdo", "latitude": 45.3194889, "longitude": 16.405275, "elevation": 263.0, "source": "osm", "_tags": {"ele": "263", "name": "Lovčansko brdo", "natural": "peak"}}, {"name": "Dukića brdo", "latitude": 45.334593, "longitude": 16.4111194, "elevation": 270.0, "source": "osm", "_tags": {"ele": "270", "name": "Dukića brdo", "natural": "peak"}}, {"name": "Čavić brdo", "latitude": 45.3181792, "longitude": 16.427375, "elevation": 267.0, "source": "osm", "_tags": {"ele": "267", "name": "Čavić brdo", "natural": "peak"}}, {"name": "Lajsevac", "latitude": 45.3092357, "longitude": 16.4528555, "elevation": 259.0, "source": "osm", "_tags": {"ele": "259", "name": "Lajsevac", "natural": "peak"}}, {"name": "Crlješnica", "latitude": 45.191349, "longitude": 16.4682921, "elevation": 288.0, "source": "osm", "_tags": {"ele": "288", "name": "Crlješnica", "natural": "peak"}}, {"name": "Zimoma", "latitude": 44.6323646, "longitude": 15.9628447, "elevation": 800.0, "source": "osm", "_tags": {"ele": "800", "name": "Zimoma", "natural": "peak"}}, {"name": "Kosa", "latitude": 44.6387232, "longitude": 15.9655111, "elevation": 789.0, "source": "osm", "_tags": {"ele": "789", "name": "Kosa", "natural": "peak"}}, {"name": "Vršak", "latitude": 44.6478953, "longitude": 16.0231969, "elevation": 528.0, "source": "osm", "_tags": {"ele": "528", "name": "Vršak", "natural": "peak"}}, {"name": "Ćuma", "latitude": 44.6238973, "longitude": 15.9662646, "elevation": 827.0, "source": "osm", "_tags": {"ele": "827", "name": "Ćuma", "natural": "peak"}}, {"name": "Križ", "latitude": 45.2496229, "longitude": 16.0016022, "elevation": 282.0, "source": "osm", "_tags": {"ele": "282", "name": "Križ", "natural": "peak"}}, {"name": "Visoka glavica", "latitude": 45.2579228, "longitude": 16.0197612, "elevation": 263.0, "source": "osm", "_tags": {"ele": "263", "name": "Visoka glavica", "natural": "peak"}}, {"name": "Erakovo brdo", "latitude": 45.2449943, "longitude": 15.9997062, "elevation": 275.0, "source": "osm", "_tags": {"ele": "275", "name": "Erakovo brdo", "natural": "peak"}}, {"name": "Mali Kremen", "latitude": 44.4633043, "longitude": 15.8987505, "elevation": 1304.0, "source": "osm", "_tags": {"alt_name": "Kremenčak", "ele": "1304", "name": "Mali Kremen", "natural": "peak"}}, {"name": "Ciganka (Kuk)", "latitude": 44.4397573, "longitude": 15.9686442, "elevation": 1142.0, "source": "osm", "_tags": {"ele": "1142", "name": "Ciganka (Kuk)", "natural": "peak"}}, {"name": "Vijojla", "latitude": 44.4552743, "longitude": 15.8992992, "elevation": 1283.0, "source": "osm", "_tags": {"ele": "1283", "name": "Vijojla", "natural": "peak"}}, {"name": "Vršak", "latitude": 44.4515688, "longitude": 15.9051997, "elevation": 1234.0, "source": "osm", "_tags": {"ele": "1234", "name": "Vršak", "natural": "peak"}}, {"name": "Milića glavica", "latitude": 44.4428894, "longitude": 15.9212742, "elevation": 849.0, "source": "osm", "_tags": {"ele": "849", "name": "Milića glavica", "natural": "peak"}}, {"name": "Prokina glavica", "latitude": 44.44831, "longitude": 15.9226691, "elevation": 860.0, "source": "osm", "_tags": {"ele": "860", "name": "Prokina glavica", "natural": "peak"}}, {"name": "Milićev vrh", "latitude": 44.4338094, "longitude": 15.9889016, "elevation": 1289.0, "source": "osm", "_tags": {"ele": "1289", "name": "Milićev vrh", "natural": "peak"}}, {"name": "Obli kuk", "latitude": 44.4328907, "longitude": 15.9743473, "elevation": 1154.0, "source": "osm", "_tags": {"ele": "1154", "name": "Obli kuk", "natural": "peak"}}, {"name": "Glavičica", "latitude": 44.4671548, "longitude": 16.0425202, "elevation": 844.0, "source": "osm", "_tags": {"ele": "844", "name": "Glavičica", "natural": "peak"}}, {"name": "Kićina glavica", "latitude": 44.4562008, "longitude": 16.033435, "elevation": 825.0, "source": "osm", "_tags": {"ele": "825", "name": "Kićina glavica", "natural": "peak"}}, {"name": "Majstorovića kosa", "latitude": 44.4450271, "longitude": 16.0027904, "elevation": 1273.0, "source": "osm", "_tags": {"ele": "1273", "name": "Majstorovića kosa", "natural": "peak"}}, {"name": "Vršeljak Bajića", "latitude": 44.4692247, "longitude": 15.9996992, "elevation": 1191.0, "source": "osm", "_tags": {"ele": "1191", "name": "Vršeljak Bajića", "natural": "peak"}}, {"name": "Vršak Parapanića", "latitude": 44.4315992, "longitude": 16.0594584, "elevation": 857.0, "source": "osm", "_tags": {"ele": "857", "name": "Vršak Parapanića", "natural": "peak"}}, {"name": "Grič", "latitude": 44.4623079, "longitude": 16.0534012, "elevation": 1007.0, "source": "osm", "_tags": {"ele": "1007", "name": "Grič", "natural": "peak"}}, {"name": "Vršak Dvokića", "latitude": 44.4636158, "longitude": 16.0119213, "elevation": 1226.0, "source": "osm", "_tags": {"ele": "1226", "name": "Vršak Dvokića", "natural": "peak"}}, {"name": "Vršeljak", "latitude": 44.4550179, "longitude": 16.0163229, "elevation": 1129.0, "source": "osm", "_tags": {"ele": "1129", "name": "Vršeljak", "natural": "peak"}}, {"name": "Mali Lisac", "latitude": 44.4523361, "longitude": 16.0254206, "elevation": 1069.0, "source": "osm", "_tags": {"ele": "1069", "name": "Mali Lisac", "natural": "peak"}}, {"name": "Babićev vrh", "latitude": 44.4479832, "longitude": 16.0614944, "elevation": 985.0, "source": "osm", "_tags": {"alt_name": "Babića vrh", "ele": "985", "name": "Babićev vrh", "natural": "peak"}}, {"name": "Vršina", "latitude": 44.4484285, "longitude": 15.978681, "elevation": 1092.0, "source": "osm", "_tags": {"ele": "1092", "name": "Vršina", "natural": "peak"}}, {"name": "Veliki Lisac", "latitude": 44.4647505, "longitude": 16.0307446, "elevation": 1109.0, "source": "osm", "_tags": {"ele": "1109", "name": "Veliki Lisac", "natural": "peak"}}, {"name": "Danilova glavica", "latitude": 44.4529027, "longitude": 16.034176, "elevation": 905.0, "source": "osm", "_tags": {"ele": "905", "name": "Danilova glavica", "natural": "peak"}}, {"name": "Veliki vrh", "latitude": 44.4526824, "longitude": 16.0589315, "elevation": 1057.0, "source": "osm", "_tags": {"ele": "1057", "name": "Veliki vrh", "natural": "peak"}}, {"name": "Zaklopački Lisac", "latitude": 44.4393866, "longitude": 16.0709942, "elevation": 974.0, "source": "osm", "_tags": {"ele": "974", "name": "Zaklopački Lisac", "natural": "peak"}}, {"name": "Stojanov brijeg", "latitude": 44.4342977, "longitude": 15.99566, "elevation": 1271.0, "source": "osm", "_tags": {"ele": "1271", "name": "Stojanov brijeg", "natural": "peak"}}, {"name": "Obljajac", "latitude": 44.4348739, "longitude": 16.055655, "elevation": 881.0, "source": "osm", "_tags": {"ele": "881", "name": "Obljajac", "natural": "peak"}}, {"name": "Zavišića Vršina", "latitude": 44.4570386, "longitude": 16.0020463, "elevation": 1259.0, "source": "osm", "_tags": {"ele": "1259", "name": "Zavišića Vršina", "natural": "peak"}}, {"name": "Prpino brdo", "latitude": 44.4399094, "longitude": 15.9832675, "elevation": 1194.0, "source": "osm", "_tags": {"ele": "1194", "name": "Prpino brdo", "natural": "peak"}}, {"name": "Lipovača", "latitude": 44.4469712, "longitude": 16.0960088, "elevation": 781.0, "source": "osm", "_tags": {"ele": "781", "name": "Lipovača", "natural": "peak"}}, {"name": "Stražište", "latitude": 44.4436557, "longitude": 16.0147433, "elevation": 1213.0, "source": "osm", "_tags": {"ele": "1213", "name": "Stražište", "natural": "peak"}}, {"name": "Kotarsko brdo", "latitude": 44.4454787, "longitude": 16.1332191, "elevation": 536.0, "source": "osm", "_tags": {"ele": "536", "name": "Kotarsko brdo", "natural": "peak"}}, {"name": "Glavice", "latitude": 44.4379095, "longitude": 16.1054332, "elevation": 660.0, "source": "osm", "_tags": {"ele": "660", "name": "Glavice", "natural": "peak"}}, {"name": "Obla glavica", "latitude": 44.4352399, "longitude": 16.0994509, "elevation": 843.0, "source": "osm", "_tags": {"ele": "843", "name": "Obla glavica", "natural": "peak"}}, {"name": "Razvale", "latitude": 44.451995, "longitude": 16.1137814, "elevation": 695.0, "source": "osm", "_tags": {"ele": "695", "name": "Razvale", "natural": "peak"}}, {"name": "Kita", "latitude": 44.4444775, "longitude": 16.1115698, "elevation": 693.0, "source": "osm", "_tags": {"ele": "693", "name": "Kita", "natural": "peak"}}, {"name": "Krš Dukića", "latitude": 44.4527272, "longitude": 16.1032008, "elevation": 649.0, "source": "osm", "_tags": {"ele": "649", "name": "Krš Dukića", "natural": "peak"}}, {"name": "Gradina", "latitude": 44.4620419, "longitude": 16.1269539, "elevation": 580.0, "source": "osm", "_tags": {"ele": "580", "name": "Gradina", "natural": "peak"}}, {"name": "Golo brdo", "latitude": 44.6971315, "longitude": 16.0100098, "elevation": 911.0, "source": "osm", "_tags": {"ele": "911", "name": "Golo brdo", "natural": "peak"}}, {"name": "", "latitude": 44.6904401, "longitude": 16.0263843, "elevation": 946.0, "source": "osm", "_tags": {"ele": "946", "natural": "peak"}}, {"name": "Lisina", "latitude": 44.6834305, "longitude": 16.033827, "elevation": 1039.0, "source": "osm", "_tags": {"ele": "1039", "name": "Lisina", "natural": "peak"}}, {"name": "", "latitude": 44.6832946, "longitude": 16.0354196, "elevation": 1047.0, "source": "osm", "_tags": {"ele": "1047", "natural": "peak"}}, {"name": "Pod", "latitude": 44.6318411, "longitude": 16.0499975, "elevation": 463.0, "source": "osm", "_tags": {"ele": "463", "name": "Pod", "natural": "peak"}}, {"name": "", "latitude": 44.6419079, "longitude": 16.0579854, "elevation": 629.0, "source": "osm", "_tags": {"ele": "629", "natural": "peak"}}, {"name": "Zorića vrh", "latitude": 44.7025788, "longitude": 15.9828563, "elevation": 825.0, "source": "osm", "_tags": {"ele": "825", "name": "Zorića vrh", "natural": "peak"}}, {"name": "Inoćina greda", "latitude": 44.6977745, "longitude": 15.9914422, "elevation": 854.0, "source": "osm", "_tags": {"ele": "854", "name": "Inoćina greda", "natural": "peak"}}, {"name": "", "latitude": 45.1721931, "longitude": 16.3085147, "elevation": 400.0, "source": "osm", "_tags": {"ele": "400", "natural": "peak"}}, {"name": "", "latitude": 45.1877421, "longitude": 16.3261204, "elevation": 425.0, "source": "osm", "_tags": {"ele": "425", "natural": "peak"}}, {"name": "", "latitude": 45.183326, "longitude": 16.3012394, "elevation": 505.0, "source": "osm", "_tags": {"ele": "505", "natural": "peak"}}, {"name": "Bjelovac", "latitude": 45.3642394, "longitude": 16.1751922, "elevation": 203.0, "source": "osm", "_tags": {"ele": "203", "name": "Bjelovac", "natural": "peak"}}, {"name": "Kokerina", "latitude": 45.4225151, "longitude": 16.163213, "elevation": 180.0, "source": "osm", "_tags": {"ele": "180", "name": "Kokerina", "natural": "peak"}}, {"name": "Čardašće", "latitude": 45.391906, "longitude": 16.1810051, "elevation": 192.0, "source": "osm", "_tags": {"ele": "192", "name": "Čardašće", "natural": "peak"}}, {"name": "Lasac", "latitude": 45.4241155, "longitude": 16.1525522, "elevation": 171.0, "source": "osm", "_tags": {"ele": "171", "name": "Lasac", "natural": "peak"}}, {"name": "Debela kosa", "latitude": 45.3962584, "longitude": 16.0406751, "elevation": 197.0, "source": "osm", "_tags": {"ele": "197", "name": "Debela kosa", "natural": "peak"}}, {"name": "Bokića Vršak", "latitude": 44.5034571, "longitude": 15.9587048, "elevation": 1056.0, "source": "osm", "_tags": {"ele": "1056", "name": "Bokića Vršak", "natural": "peak"}}, {"name": "Točkova greda", "latitude": 44.489079, "longitude": 16.0110407, "elevation": 1147.0, "source": "osm", "_tags": {"ele": "1147", "name": "Točkova greda", "natural": "peak"}}, {"name": "Crni vrh", "latitude": 44.5020734, "longitude": 15.942326, "elevation": 1112.0, "source": "osm", "_tags": {"ele": "1112", "name": "Crni vrh", "natural": "peak"}}, {"name": "Pošta", "latitude": 44.5056974, "longitude": 15.9360802, "elevation": 1094.0, "source": "osm", "_tags": {"ele": "1094", "name": "Pošta", "natural": "peak"}}, {"name": "Šljeme", "latitude": 44.4994708, "longitude": 15.9465067, "elevation": 1084.0, "source": "osm", "_tags": {"ele": "1084", "name": "Šljeme", "natural": "peak"}}, {"name": "Oštrikovac", "latitude": 44.5074366, "longitude": 15.963679, "elevation": 1075.0, "source": "osm", "_tags": {"ele": "1075", "name": "Oštrikovac", "natural": "peak"}}, {"name": "Ilića kosa", "latitude": 44.4944581, "longitude": 15.9886334, "elevation": 1207.0, "source": "osm", "_tags": {"ele": "1207", "name": "Ilića kosa", "natural": "peak"}}, {"name": "Lubardenik", "latitude": 44.4844161, "longitude": 15.9944256, "elevation": 1159.0, "source": "osm", "_tags": {"ele": "1159", "name": "Lubardenik", "natural": "peak"}}, {"name": "", "latitude": 45.2410645, "longitude": 16.1984129, "elevation": 249.0, "source": "osm", "_tags": {"ele": "249", "natural": "peak"}}, {"name": "", "latitude": 45.246211, "longitude": 16.1646696, "elevation": 304.0, "source": "osm", "_tags": {"ele": "304", "natural": "peak"}}, {"name": "", "latitude": 45.2556579, "longitude": 16.1589035, "elevation": 248.0, "source": "osm", "_tags": {"ele": "248", "natural": "peak"}}, {"name": "", "latitude": 45.2189637, "longitude": 16.1619225, "elevation": 354.0, "source": "osm", "_tags": {"ele": "354", "natural": "peak"}}, {"name": "", "latitude": 45.2432853, "longitude": 16.1450788, "elevation": 273.0, "source": "osm", "_tags": {"ele": "273", "natural": "peak"}}, {"name": "", "latitude": 45.1691657, "longitude": 16.2628196, "elevation": 342.0, "source": "osm", "_tags": {"ele": "342", "natural": "peak"}}, {"name": "", "latitude": 45.1630492, "longitude": 16.3123479, "elevation": 390.0, "source": "osm", "_tags": {"ele": "390", "natural": "peak"}}, {"name": "", "latitude": 45.3210923, "longitude": 16.3651426, "elevation": 364.0, "source": "osm", "_tags": {"ele": "364", "natural": "peak"}}, {"name": "Debeli vrh", "latitude": 44.7051924, "longitude": 15.8961115, "elevation": 968.0, "source": "osm", "_tags": {"ele": "968", "name": "Debeli vrh", "natural": "peak"}}, {"name": "Barjaktaruša", "latitude": 44.6832786, "longitude": 15.8870591, "elevation": 1225.0, "source": "osm", "_tags": {"ele": "1225", "name": "Barjaktaruša", "natural": "peak"}}, {"name": "Gubavi vrh", "latitude": 44.6988718, "longitude": 15.9008828, "elevation": 970.0, "source": "osm", "_tags": {"ele": "970", "name": "Gubavi vrh", "natural": "peak"}}, {"name": "Vršak", "latitude": 44.7247936, "longitude": 15.9010458, "elevation": 699.0, "source": "osm", "_tags": {"ele": "699", "name": "Vršak", "natural": "peak"}}, {"name": "Crni vrh", "latitude": 44.714752, "longitude": 15.8874575, "elevation": 986.0, "source": "osm", "_tags": {"ele": "986", "name": "Crni vrh", "natural": "peak"}}, {"name": "Hrastik", "latitude": 44.7196779, "longitude": 15.9073183, "elevation": 719.0, "source": "osm", "_tags": {"ele": "719", "name": "Hrastik", "natural": "peak"}}, {"name": "Loskunski kamen", "latitude": 44.7046624, "longitude": 15.9524018, "elevation": 476.0, "source": "osm", "_tags": {"ele": "476", "name": "Loskunski kamen", "natural": "peak"}}, {"name": "Dugovača", "latitude": 44.6719214, "longitude": 15.9049812, "elevation": 1021.0, "source": "osm", "_tags": {"ele": "1021", "name": "Dugovača", "natural": "peak"}}, {"name": "Jorganov Vršak", "latitude": 44.6086017, "longitude": 15.98838, "elevation": 824.0, "source": "osm", "_tags": {"ele": "824", "name": "Jorganov Vršak", "natural": "peak"}}, {"name": "Uskovača", "latitude": 44.6844796, "longitude": 15.9033044, "elevation": 982.0, "source": "osm", "_tags": {"ele": "982", "name": "Uskovača", "natural": "peak"}}, {"name": "Paunovača", "latitude": 44.6697797, "longitude": 15.8872196, "elevation": 1175.0, "source": "osm", "_tags": {"ele": "1175", "name": "Paunovača", "natural": "peak"}}, {"name": "Mali Oštrelj", "latitude": 44.6767006, "longitude": 15.923316, "elevation": 931.0, "source": "osm", "_tags": {"alt_name": "Mali Oštrulj", "ele": "931", "name": "Mali Oštrelj", "natural": "peak"}}, {"name": "Lapanovača", "latitude": 44.6863796, "longitude": 15.945077, "elevation": 592.0, "source": "osm", "_tags": {"ele": "592", "name": "Lapanovača", "natural": "peak"}}, {"name": "Tavan", "latitude": 44.6618204, "longitude": 15.9324223, "elevation": 842.0, "source": "osm", "_tags": {"ele": "842", "name": "Tavan", "natural": "peak"}}, {"name": "Glavica", "latitude": 44.6824627, "longitude": 15.9618826, "elevation": 514.0, "source": "osm", "_tags": {"ele": "514", "name": "Glavica", "natural": "peak"}}, {"name": "Veliki Oštrelj", "latitude": 44.6801248, "longitude": 15.9189918, "elevation": 949.0, "source": "osm", "_tags": {"alt_name": "Veliki Oštrulj", "ele": "949", "name": "Veliki Oštrelj", "natural": "peak"}}, {"name": "Velika Lopata", "latitude": 44.6522906, "longitude": 15.9008844, "elevation": 1127.0, "source": "osm", "_tags": {"alt_name": "Vidića Ogradak", "ele": "1127", "name": "Velika Lopata", "natural": "peak"}}, {"name": "Matićev vrh", "latitude": 44.6608146, "longitude": 15.8997925, "elevation": 1077.0, "source": "osm", "_tags": {"ele": "1077", "name": "Matićev vrh", "natural": "peak"}}, {"name": "Gradina", "latitude": 44.6393417, "longitude": 15.9121724, "elevation": 1083.0, "source": "osm", "_tags": {"ele": "1083", "name": "Gradina", "natural": "peak"}}, {"name": "Mala Lopata", "latitude": 44.6464915, "longitude": 15.89714, "elevation": 1030.0, "source": "osm", "_tags": {"ele": "1030", "name": "Mala Lopata", "natural": "peak"}}, {"name": "Lisina", "latitude": 44.6495409, "longitude": 15.9135386, "elevation": 1133.0, "source": "osm", "_tags": {"ele": "1133", "name": "Lisina", "natural": "peak"}}, {"name": "Debelo brdo", "latitude": 44.6717094, "longitude": 15.9122462, "elevation": 1048.0, "source": "osm", "_tags": {"ele": "1048", "name": "Debelo brdo", "natural": "peak"}}, {"name": "Delanova glavica", "latitude": 44.5879176, "longitude": 16.0123958, "elevation": 676.0, "source": "osm", "_tags": {"ele": "676", "name": "Delanova glavica", "natural": "peak"}}, {"name": "Zekića vrh", "latitude": 44.6720962, "longitude": 15.9295359, "elevation": 901.0, "source": "osm", "_tags": {"ele": "901", "name": "Zekića vrh", "natural": "peak"}}, {"name": "Batak", "latitude": 44.6511311, "longitude": 15.9341305, "elevation": 869.0, "source": "osm", "_tags": {"ele": "869", "name": "Batak", "natural": "peak"}}, {"name": "Balaćev Vršak", "latitude": 44.6376173, "longitude": 15.9533284, "elevation": 717.0, "source": "osm", "_tags": {"alt_name": "Veliki Vršak", "ele": "717", "name": "Balaćev Vršak", "natural": "peak"}}, {"name": "Palež", "latitude": 44.6256019, "longitude": 15.9248097, "elevation": 903.0, "source": "osm", "_tags": {"ele": "903", "name": "Palež", "natural": "peak"}}, {"name": "Balaćev Vršak", "latitude": 44.6123907, "longitude": 15.9814534, "elevation": 742.0, "source": "osm", "_tags": {"ele": "742", "name": "Balaćev Vršak", "natural": "peak"}}, {"name": "Vršak", "latitude": 44.6248723, "longitude": 15.9531478, "elevation": 778.0, "source": "osm", "_tags": {"ele": "778", "name": "Vršak", "natural": "peak"}}, {"name": "Buševićka glavica", "latitude": 44.5970695, "longitude": 16.0278856, "elevation": 742.0, "source": "osm", "_tags": {"ele": "742", "name": "Buševićka glavica", "natural": "peak"}}, {"name": "Veliko Brdo", "latitude": 44.661302, "longitude": 15.9170496, "elevation": 1043.0, "source": "osm", "_tags": {"ele": "1043", "name": "Veliko Brdo", "natural": "peak"}}, {"name": "Prijespa", "latitude": 44.6471055, "longitude": 15.886348, "elevation": 937.0, "source": "osm", "_tags": {"ele": "937", "name": "Prijespa", "natural": "peak"}}, {"name": "Biljećki Vršak", "latitude": 44.6061583, "longitude": 15.9918661, "elevation": 819.0, "source": "osm", "_tags": {"ele": "819", "name": "Biljećki Vršak", "natural": "peak"}}, {"name": "Vršak", "latitude": 44.6622682, "longitude": 15.910024, "elevation": 1079.0, "source": "osm", "_tags": {"ele": "1079", "name": "Vršak", "natural": "peak"}}, {"name": "Balaćeva glavica", "latitude": 44.6474303, "longitude": 15.9474883, "elevation": 698.0, "source": "osm", "_tags": {"ele": "698", "name": "Balaćeva glavica", "natural": "peak"}}, {"name": "Banov vrh", "latitude": 44.6322936, "longitude": 15.9302777, "elevation": 875.0, "source": "osm", "_tags": {"ele": "875", "name": "Banov vrh", "natural": "peak"}}, {"name": "Trovrsi", "latitude": 44.6197751, "longitude": 15.9676648, "elevation": 825.0, "source": "osm", "_tags": {"ele": "825", "name": "Trovrsi", "natural": "peak"}}, {"name": "Veliki Srnećak", "latitude": 44.6132395, "longitude": 16.0053722, "elevation": 751.0, "source": "osm", "_tags": {"ele": "751", "name": "Veliki Srnećak", "natural": "peak"}}, {"name": "Drenovača", "latitude": 44.6412386, "longitude": 15.9442081, "elevation": 701.0, "source": "osm", "_tags": {"ele": "701", "name": "Drenovača", "natural": "peak"}}, {"name": "Pod Barićev", "latitude": 44.5903858, "longitude": 15.9821693, "elevation": 870.0, "source": "osm", "_tags": {"ele": "870", "name": "Pod Barićev", "natural": "peak"}}, {"name": "Međedovača", "latitude": 44.5950647, "longitude": 15.9911366, "elevation": 916.0, "source": "osm", "_tags": {"ele": "916", "name": "Međedovača", "natural": "peak"}}, {"name": "Vršak", "latitude": 44.5854023, "longitude": 15.9948145, "elevation": 747.0, "source": "osm", "_tags": {"ele": "747", "name": "Vršak", "natural": "peak"}}, {"name": "Mali Vršak", "latitude": 44.638869, "longitude": 15.9499611, "elevation": 700.0, "source": "osm", "_tags": {"ele": "700", "name": "Mali Vršak", "natural": "peak"}}, {"name": "Bubalska glavica", "latitude": 44.6302193, "longitude": 15.9793865, "elevation": 630.0, "source": "osm", "_tags": {"ele": "630", "name": "Bubalska glavica", "natural": "peak"}}, {"name": "Popovića vrh", "latitude": 44.6489901, "longitude": 15.9573747, "elevation": 726.0, "source": "osm", "_tags": {"ele": "726", "name": "Popovića vrh", "natural": "peak"}}, {"name": "Šnjarevac", "latitude": 44.6183968, "longitude": 16.0176523, "elevation": 702.0, "source": "osm", "_tags": {"ele": "702", "name": "Šnjarevac", "natural": "peak"}}, {"name": "Basača", "latitude": 44.6032461, "longitude": 15.9770559, "elevation": 966.0, "source": "osm", "_tags": {"ele": "966", "name": "Basača", "natural": "peak"}}, {"name": "Vršeljak", "latitude": 44.5761719, "longitude": 15.9798291, "elevation": 1066.0, "source": "osm", "_tags": {"ele": "1066", "name": "Vršeljak", "natural": "peak"}}, {"name": "Popovo brdo", "latitude": 44.5952049, "longitude": 15.9762734, "elevation": 866.0, "source": "osm", "_tags": {"ele": "866", "name": "Popovo brdo", "natural": "peak"}}, {"name": "Kazača", "latitude": 44.6043874, "longitude": 16.0139794, "elevation": 793.0, "source": "osm", "_tags": {"ele": "793", "name": "Kazača", "natural": "peak"}}, {"name": "Škorić glavica", "latitude": 44.6227168, "longitude": 15.9924025, "elevation": 640.0, "source": "osm", "_tags": {"ele": "640", "name": "Škorić glavica", "natural": "peak"}}, {"name": "Kukovi", "latitude": 44.6244005, "longitude": 16.0116782, "elevation": 714.0, "source": "osm", "_tags": {"ele": "714", "name": "Kukovi", "natural": "peak"}}, {"name": "Karanović glavica", "latitude": 44.5993067, "longitude": 16.0230849, "elevation": 776.0, "source": "osm", "_tags": {"ele": "776", "name": "Karanović glavica", "natural": "peak"}}, {"name": "Mali Srnećak", "latitude": 44.6186894, "longitude": 15.9996525, "elevation": 732.0, "source": "osm", "_tags": {"ele": "732", "name": "Mali Srnećak", "natural": "peak"}}, {"name": "Brkića glava", "latitude": 44.6256104, "longitude": 16.0088563, "elevation": 698.0, "source": "osm", "_tags": {"ele": "698", "name": "Brkića glava", "natural": "peak"}}, {"name": "Palež", "latitude": 44.6287301, "longitude": 16.0017142, "elevation": 666.0, "source": "osm", "_tags": {"ele": "666", "name": "Palež", "natural": "peak"}}, {"name": "Gradine", "latitude": 44.639548, "longitude": 15.9855715, "elevation": 586.0, "source": "osm", "_tags": {"ele": "586", "name": "Gradine", "natural": "peak"}}, {"name": "Crkvina", "latitude": 44.6376266, "longitude": 16.0039845, "elevation": 618.0, "source": "osm", "_tags": {"ele": "618", "name": "Crkvina", "natural": "peak"}}, {"name": "Kosice", "latitude": 44.6295198, "longitude": 16.0204198, "elevation": 583.0, "source": "osm", "_tags": {"ele": "583", "name": "Kosice", "natural": "peak"}}, {"name": "Gluščino brdo", "latitude": 44.6549414, "longitude": 15.9996696, "elevation": 534.0, "source": "osm", "_tags": {"ele": "534", "name": "Gluščino brdo", "natural": "peak"}}, {"name": "Peovo brdo", "latitude": 44.6095073, "longitude": 16.0258475, "elevation": 647.0, "source": "osm", "_tags": {"ele": "647", "name": "Peovo brdo", "natural": "peak"}}, {"name": "Dodinovac", "latitude": 44.6037519, "longitude": 16.0411343, "elevation": 543.0, "source": "osm", "_tags": {"ele": "543", "name": "Dodinovac", "natural": "peak"}}, {"name": "Vaskanova glavica", "latitude": 44.6501556, "longitude": 15.982301, "elevation": 594.0, "source": "osm", "_tags": {"ele": "594", "name": "Vaskanova glavica", "natural": "peak"}}, {"name": "Glavica", "latitude": 44.6447333, "longitude": 15.999597, "elevation": 573.0, "source": "osm", "_tags": {"ele": "573", "name": "Glavica", "natural": "peak"}}, {"name": "Vršak", "latitude": 44.6213373, "longitude": 16.034783, "elevation": 551.0, "source": "osm", "_tags": {"ele": "551", "name": "Vršak", "natural": "peak"}}, {"name": "Kugin brijeg", "latitude": 44.6109595, "longitude": 16.0387332, "elevation": 524.0, "source": "osm", "_tags": {"ele": "524", "name": "Kugin brijeg", "natural": "peak"}}, {"name": "Ovukina glavica", "latitude": 44.6379792, "longitude": 16.0236222, "elevation": 538.0, "source": "osm", "_tags": {"ele": "538", "name": "Ovukina glavica", "natural": "peak"}}, {"name": "Peovo", "latitude": 44.6315641, "longitude": 16.0141968, "elevation": 600.0, "source": "osm", "_tags": {"ele": "600", "name": "Peovo", "natural": "peak"}}, {"name": "Šnjevita glavica", "latitude": 44.6652571, "longitude": 15.9783967, "elevation": 557.0, "source": "osm", "_tags": {"ele": "557", "name": "Šnjevita glavica", "natural": "peak"}}, {"name": "Kestenica", "latitude": 44.6453357, "longitude": 15.9763697, "elevation": 669.0, "source": "osm", "_tags": {"ele": "669", "name": "Kestenica", "natural": "peak"}}, {"name": "Gradina", "latitude": 44.6703025, "longitude": 15.9498278, "elevation": 519.0, "source": "osm", "_tags": {"ele": "519", "name": "Gradina", "natural": "peak"}}, {"name": "Dukića Vršak", "latitude": 44.513634, "longitude": 16.1016233, "elevation": 681.0, "source": "osm", "_tags": {"ele": "681", "name": "Dukića Vršak", "natural": "peak"}}, {"name": "Matijevača", "latitude": 44.5604983, "longitude": 16.0240317, "elevation": 677.0, "source": "osm", "_tags": {"ele": "677", "name": "Matijevača", "natural": "peak"}}, {"name": "Vršeljak", "latitude": 44.4616266, "longitude": 16.0865033, "elevation": 687.0, "source": "osm", "_tags": {"ele": "687", "name": "Vršeljak", "natural": "peak"}}, {"name": "Popovićev vrh", "latitude": 44.5763884, "longitude": 15.9978809, "elevation": 847.0, "source": "osm", "_tags": {"ele": "847", "name": "Popovićev vrh", "natural": "peak"}}, {"name": "Mamić glavica", "latitude": 44.4760852, "longitude": 16.0611063, "elevation": 570.0, "source": "osm", "_tags": {"ele": "570", "name": "Mamić glavica", "natural": "peak"}}, {"name": "Bilo", "latitude": 44.5289757, "longitude": 16.1015341, "elevation": 696.0, "source": "osm", "_tags": {"ele": "696", "name": "Bilo", "natural": "peak"}}, {"name": "Ćukinovac", "latitude": 44.5409869, "longitude": 16.0171507, "elevation": 724.0, "source": "osm", "_tags": {"ele": "724", "name": "Ćukinovac", "natural": "peak"}}, {"name": "Kalatna glavica", "latitude": 44.48651, "longitude": 16.0730062, "elevation": 564.0, "source": "osm", "_tags": {"ele": "564", "name": "Kalatna glavica", "natural": "peak"}}, {"name": "Tavanak", "latitude": 44.5767384, "longitude": 16.009997, "elevation": 684.0, "source": "osm", "_tags": {"ele": "684", "name": "Tavanak", "natural": "peak"}}, {"name": "Panos", "latitude": 44.4702989, "longitude": 16.1064069, "elevation": 773.0, "source": "osm", "_tags": {"ele": "773", "name": "Panos", "natural": "peak"}}, {"name": "Vršeljak", "latitude": 44.5548136, "longitude": 16.0078658, "elevation": 812.0, "source": "osm", "_tags": {"ele": "812", "name": "Vršeljak", "natural": "peak"}}, {"name": "Stipin Vršak", "latitude": 44.5318623, "longitude": 16.049525, "elevation": 625.0, "source": "osm", "_tags": {"ele": "625", "name": "Stipin Vršak", "natural": "peak"}}, {"name": "Glavica", "latitude": 44.5248218, "longitude": 16.0883498, "elevation": 636.0, "source": "osm", "_tags": {"ele": "636", "name": "Glavica", "natural": "peak"}}, {"name": "Varćakovac", "latitude": 44.4714002, "longitude": 16.1119643, "elevation": 671.0, "source": "osm", "_tags": {"ele": "671", "name": "Varćakovac", "natural": "peak"}}, {"name": "Gradina", "latitude": 44.4637766, "longitude": 16.0798835, "elevation": 745.0, "source": "osm", "_tags": {"ele": "745", "name": "Gradina", "natural": "peak"}}, {"name": "Visočica", "latitude": 44.5416054, "longitude": 16.0088762, "elevation": 841.0, "source": "osm", "_tags": {"ele": "841", "name": "Visočica", "natural": "peak"}}, {"name": "Dukića Vršak", "latitude": 44.5060057, "longitude": 16.1118001, "elevation": 677.0, "source": "osm", "_tags": {"ele": "677", "name": "Dukića Vršak", "natural": "peak"}}, {"name": "Vrh Zečica", "latitude": 44.5648756, "longitude": 16.0140965, "elevation": 698.0, "source": "osm", "_tags": {"ele": "698", "name": "Vrh Zečica", "natural": "peak"}}, {"name": "Jurića Ogradak", "latitude": 44.5633974, "longitude": 15.9887365, "elevation": 1122.0, "source": "osm", "_tags": {"ele": "1122", "name": "Jurića Ogradak", "natural": "peak"}}, {"name": "Špija", "latitude": 44.5496825, "longitude": 16.0202494, "elevation": 804.0, "source": "osm", "_tags": {"ele": "804", "name": "Špija", "natural": "peak"}}, {"name": "Oštri vrh", "latitude": 44.5547222, "longitude": 15.9991937, "elevation": 1078.0, "source": "osm", "_tags": {"ele": "1078", "name": "Oštri vrh", "natural": "peak"}}, {"name": "Vojvodino brdo", "latitude": 44.4850745, "longitude": 16.124004, "elevation": 664.0, "source": "osm", "_tags": {"ele": "664", "name": "Vojvodino brdo", "natural": "peak"}}, {"name": "Jasenovača", "latitude": 44.545146, "longitude": 16.0450327, "elevation": 629.0, "source": "osm", "_tags": {"ele": "629", "name": "Jasenovača", "natural": "peak"}}, {"name": "Jankov vrh", "latitude": 44.5026356, "longitude": 16.1163414, "elevation": 673.0, "source": "osm", "_tags": {"ele": "673", "name": "Jankov vrh", "natural": "peak"}}, {"name": "Golo Bilo", "latitude": 44.5233001, "longitude": 16.1043521, "elevation": 711.0, "source": "osm", "_tags": {"ele": "711", "name": "Golo Bilo", "natural": "peak"}}, {"name": "Vojvodino brdo", "latitude": 44.4866069, "longitude": 16.1163533, "elevation": 689.0, "source": "osm", "_tags": {"ele": "689", "name": "Vojvodino brdo", "natural": "peak"}}, {"name": "Kerića brdo", "latitude": 44.4931145, "longitude": 16.1175578, "elevation": 658.0, "source": "osm", "_tags": {"ele": "658", "name": "Kerića brdo", "natural": "peak"}}, {"name": "Gradina", "latitude": 44.4835172, "longitude": 16.1024318, "elevation": 634.0, "source": "osm", "_tags": {"ele": "634", "name": "Gradina", "natural": "peak"}}, {"name": "Gologuz", "latitude": 44.4749282, "longitude": 16.0821819, "elevation": 672.0, "source": "osm", "_tags": {"ele": "672", "name": "Gologuz", "natural": "peak"}}, {"name": "Radakuša", "latitude": 44.5218198, "longitude": 16.0653549, "elevation": 675.0, "source": "osm", "_tags": {"ele": "675", "name": "Radakuša", "natural": "peak"}}, {"name": "Bakrać", "latitude": 44.508728, "longitude": 16.0813695, "elevation": 806.0, "source": "osm", "_tags": {"ele": "806", "name": "Bakrać", "natural": "peak"}}, {"name": "Sekani Vršak", "latitude": 44.5286619, "longitude": 16.0353124, "elevation": 690.0, "source": "osm", "_tags": {"ele": "690", "name": "Sekani Vršak", "natural": "peak"}}, {"name": "Mali Lisac", "latitude": 44.5072529, "longitude": 16.0657838, "elevation": 792.0, "source": "osm", "_tags": {"ele": "792", "name": "Mali Lisac", "natural": "peak"}}, {"name": "Gradina", "latitude": 44.4812262, "longitude": 16.0420039, "elevation": 728.0, "source": "osm", "_tags": {"ele": "728", "name": "Gradina", "natural": "peak"}}, {"name": "Vrščić", "latitude": 44.4733877, "longitude": 15.9377878, "elevation": 1164.0, "source": "osm", "_tags": {"ele": "1164", "name": "Vrščić", "natural": "peak"}}, {"name": "Trnovčić", "latitude": 44.5049786, "longitude": 16.0434804, "elevation": 907.0, "source": "osm", "_tags": {"ele": "907", "name": "Trnovčić", "natural": "peak"}}, {"name": "Mandina glavica", "latitude": 44.4985887, "longitude": 16.0202545, "elevation": 821.0, "source": "osm", "_tags": {"ele": "821", "name": "Mandina glavica", "natural": "peak"}}, {"name": "Kosica", "latitude": 44.4823648, "longitude": 15.9328718, "elevation": 1214.0, "source": "osm", "_tags": {"ele": "1214", "name": "Kosica", "natural": "peak"}}, {"name": "Mandića glavica", "latitude": 44.4823874, "longitude": 16.0291146, "elevation": 855.0, "source": "osm", "_tags": {"ele": "855", "name": "Mandića glavica", "natural": "peak"}}, {"name": "Čardačina", "latitude": 44.4892182, "longitude": 15.9689301, "elevation": 982.0, "source": "osm", "_tags": {"ele": "982", "name": "Čardačina", "natural": "peak"}}, {"name": "Bebanov vrh", "latitude": 44.4946938, "longitude": 15.9954811, "elevation": 1181.0, "source": "osm", "_tags": {"ele": "1181", "name": "Bebanov vrh", "natural": "peak"}}, {"name": "Drćino brdo", "latitude": 44.4797005, "longitude": 16.031311, "elevation": 866.0, "source": "osm", "_tags": {"ele": "866", "name": "Drćino brdo", "natural": "peak"}}, {"name": "Vršeljci", "latitude": 44.4749331, "longitude": 15.89185, "elevation": 1241.0, "source": "osm", "_tags": {"ele": "1241", "name": "Vršeljci", "natural": "peak"}}, {"name": "Kuk", "latitude": 44.4692469, "longitude": 15.934393, "elevation": 1165.0, "source": "osm", "_tags": {"ele": "1165", "name": "Kuk", "natural": "peak"}}, {"name": "Sedlarov vrh", "latitude": 44.5008065, "longitude": 15.9882668, "elevation": 1099.0, "source": "osm", "_tags": {"ele": "1099", "name": "Sedlarov vrh", "natural": "peak"}}, {"name": "Radulovića Vršak", "latitude": 44.504867, "longitude": 15.9484984, "elevation": 1077.0, "source": "osm", "_tags": {"ele": "1077", "name": "Radulovića Vršak", "natural": "peak"}}, {"name": "Cecelj", "latitude": 44.5344995, "longitude": 15.9179451, "elevation": 1000.0, "source": "osm", "_tags": {"ele": "1000", "name": "Cecelj", "natural": "peak"}}, {"name": "Vršeljak", "latitude": 44.6015013, "longitude": 15.9097898, "elevation": 976.0, "source": "osm", "_tags": {"ele": "976", "name": "Vršeljak", "natural": "peak"}}, {"name": "Veliko Brdo", "latitude": 44.5807465, "longitude": 15.9379378, "elevation": 686.0, "source": "osm", "_tags": {"ele": "686", "name": "Veliko Brdo", "natural": "peak"}}, {"name": "Malo Brdo", "latitude": 44.582154, "longitude": 15.9409505, "elevation": 680.0, "source": "osm", "_tags": {"ele": "680", "name": "Malo Brdo", "natural": "peak"}}, {"name": "Cesarov sto", "latitude": 44.5361098, "longitude": 15.9101781, "elevation": 1171.0, "source": "osm", "_tags": {"ele": "1171", "name": "Cesarov sto", "natural": "peak"}}, {"name": "Stražbenica", "latitude": 44.5192374, "longitude": 15.9066668, "elevation": 1201.0, "source": "osm", "_tags": {"ele": "1201", "name": "Stražbenica", "natural": "peak"}}, {"name": "Jankovića vrh", "latitude": 44.5209207, "longitude": 15.9229567, "elevation": 1248.0, "source": "osm", "_tags": {"ele": "1248", "name": "Jankovića vrh", "natural": "peak"}}, {"name": "Glavica", "latitude": 44.5232687, "longitude": 16.0072717, "elevation": 597.0, "source": "osm", "_tags": {"ele": "597", "name": "Glavica", "natural": "peak"}}, {"name": "Ćuma", "latitude": 44.6245786, "longitude": 15.8935227, "elevation": 1142.0, "source": "osm", "_tags": {"ele": "1142", "name": "Ćuma", "natural": "peak"}}, {"name": "Vršak", "latitude": 44.6220605, "longitude": 15.9013378, "elevation": 1081.0, "source": "osm", "_tags": {"ele": "1081", "name": "Vršak", "natural": "peak"}}, {"name": "Tadića Vršak", "latitude": 44.6143938, "longitude": 15.9475216, "elevation": 790.0, "source": "osm", "_tags": {"ele": "790", "name": "Tadića Vršak", "natural": "peak"}}, {"name": "Bijeli brijeg", "latitude": 44.5357367, "longitude": 15.9909584, "elevation": 625.0, "source": "osm", "_tags": {"ele": "625", "name": "Bijeli brijeg", "natural": "peak"}}, {"name": "Vujino brdo", "latitude": 44.6022422, "longitude": 15.9427336, "elevation": 792.0, "source": "osm", "_tags": {"ele": "792", "name": "Vujino brdo", "natural": "peak"}}, {"name": "Brdo", "latitude": 44.5934185, "longitude": 15.9630227, "elevation": 827.0, "source": "osm", "_tags": {"ele": "827", "name": "Brdo", "natural": "peak"}}, {"name": "Bilo", "latitude": 44.620247, "longitude": 15.9421297, "elevation": 826.0, "source": "osm", "_tags": {"ele": "826", "name": "Bilo", "natural": "peak"}}, {"name": "Zarića Ogradak", "latitude": 44.6067721, "longitude": 15.9515931, "elevation": 844.0, "source": "osm", "_tags": {"ele": "844", "name": "Zarića Ogradak", "natural": "peak"}}, {"name": "Kosica", "latitude": 44.6065731, "longitude": 15.9309035, "elevation": 928.0, "source": "osm", "_tags": {"ele": "928", "name": "Kosica", "natural": "peak"}}, {"name": "Basarino Brdo", "latitude": 44.5813999, "longitude": 15.9323723, "elevation": 665.0, "source": "osm", "_tags": {"ele": "665", "name": "Basarino Brdo", "natural": "peak"}}, {"name": "Tadića glavica", "latitude": 44.5772383, "longitude": 15.9353461, "elevation": 652.0, "source": "osm", "_tags": {"ele": "652", "name": "Tadića glavica", "natural": "peak"}}, {"name": "Čelina", "latitude": 44.5427071, "longitude": 15.9212509, "elevation": 958.0, "source": "osm", "_tags": {"ele": "958", "name": "Čelina", "natural": "peak"}}, {"name": "Podić", "latitude": 44.6010472, "longitude": 15.9257232, "elevation": 974.0, "source": "osm", "_tags": {"ele": "974", "name": "Podić", "natural": "peak"}}, {"name": "Crni vrh", "latitude": 44.6131934, "longitude": 15.9143154, "elevation": 1163.0, "source": "osm", "_tags": {"ele": "1163", "name": "Crni vrh", "natural": "peak"}}, {"name": "Đukić Vršak", "latitude": 44.5922091, "longitude": 15.8933671, "elevation": 1185.0, "source": "osm", "_tags": {"ele": "1185", "name": "Đukić Vršak", "natural": "peak"}}, {"name": "Kuk", "latitude": 44.5301913, "longitude": 15.9040846, "elevation": 1183.0, "source": "osm", "_tags": {"ele": "1183", "name": "Kuk", "natural": "peak"}}, {"name": "Poćućina glavica", "latitude": 44.5765497, "longitude": 15.9199352, "elevation": 746.0, "source": "osm", "_tags": {"ele": "746", "name": "Poćućina glavica", "natural": "peak"}}, {"name": "Miškova Bašća", "latitude": 44.6101491, "longitude": 15.8860219, "elevation": 1113.0, "source": "osm", "_tags": {"ele": "1113", "name": "Miškova Bašća", "natural": "peak"}}, {"name": "Zbjeg", "latitude": 44.5602423, "longitude": 15.9223712, "elevation": 739.0, "source": "osm", "_tags": {"ele": "739", "name": "Zbjeg", "natural": "peak"}}, {"name": "Zobeničina Lisina", "latitude": 44.546067, "longitude": 15.9045637, "elevation": 1300.0, "source": "osm", "_tags": {"ele": "1300", "name": "Zobeničina Lisina", "natural": "peak"}}, {"name": "Vućića brdo", "latitude": 44.5283385, "longitude": 15.8893413, "elevation": 1115.0, "source": "osm", "_tags": {"ele": "1115", "name": "Vućića brdo", "natural": "peak"}}, {"name": "Šašića glavica", "latitude": 44.5690666, "longitude": 15.9236287, "elevation": 733.0, "source": "osm", "_tags": {"ele": "733", "name": "Šašića glavica", "natural": "peak"}}, {"name": "Vršak", "latitude": 44.5920242, "longitude": 15.9019733, "elevation": 1031.0, "source": "osm", "_tags": {"ele": "1031", "name": "Vršak", "natural": "peak"}}, {"name": "Gradina", "latitude": 44.5868332, "longitude": 15.9167806, "elevation": 797.0, "source": "osm", "_tags": {"ele": "797", "name": "Gradina", "natural": "peak"}}, {"name": "Svinjarice", "latitude": 44.5795166, "longitude": 15.8867824, "elevation": 1465.0, "source": "osm", "_tags": {"ele": "1465", "name": "Svinjarice", "natural": "peak"}}, {"name": "TIšmin Vršak", "latitude": 44.5870303, "longitude": 15.8913186, "elevation": 1292.0, "source": "osm", "_tags": {"ele": "1292", "name": "TIšmin Vršak", "natural": "peak"}}, {"name": "Rašetin vrh", "latitude": 44.5619462, "longitude": 15.8925933, "elevation": 1389.0, "source": "osm", "_tags": {"ele": "1389", "name": "Rašetin vrh", "natural": "peak"}}, {"name": "", "latitude": 45.1553949, "longitude": 16.139456, "elevation": 476.0, "source": "osm", "_tags": {"ele": "476", "natural": "peak"}}, {"name": "Mali Ljutoć", "latitude": 44.7213532, "longitude": 15.9660192, "elevation": 792.0, "source": "osm", "_tags": {"ele": "792", "name": "Mali Ljutoć", "natural": "peak"}}, {"name": "Pržine", "latitude": 44.7158853, "longitude": 15.9747987, "elevation": 762.0, "source": "osm", "_tags": {"ele": "762", "name": "Pržine", "natural": "peak"}}, {"name": "Veliki Ljutoč", "latitude": 44.7277051, "longitude": 15.9586276, "elevation": 941.0, "source": "osm", "_tags": {"ele": "941", "name": "Veliki Ljutoč", "natural": "peak"}}, {"name": "", "latitude": 45.2777025, "longitude": 16.1946029, "elevation": 333.7, "source": "osm", "_tags": {"ele": "333.7", "natural": "peak"}}, {"name": "", "latitude": 45.37576, "longitude": 16.0701676, "elevation": 202.0, "source": "osm", "_tags": {"ele": "202", "natural": "peak"}}, {"name": "", "latitude": 45.3672561, "longitude": 16.0797251, "elevation": 188.0, "source": "osm", "_tags": {"ele": "188", "natural": "peak"}}, {"name": "", "latitude": 45.2345435, "longitude": 16.3407147, "elevation": 448.0, "source": "osm", "_tags": {"ele": "448", "natural": "peak"}}, {"name": "", "latitude": 45.2592942, "longitude": 16.3657101, "elevation": 433.0, "source": "osm", "_tags": {"ele": "433", "natural": "peak"}}, {"name": "", "latitude": 45.2868846, "longitude": 15.9277624, "elevation": 177.0, "source": "osm", "_tags": {"ele": "177", "natural": "peak"}}, {"name": "", "latitude": 45.4239581, "longitude": 16.2674796, "elevation": 199.0, "source": "osm", "_tags": {"ele": "199", "natural": "peak"}}, {"name": "", "latitude": 45.2880652, "longitude": 16.1206969, "elevation": 173.0, "source": "osm", "_tags": {"ele": "173", "natural": "peak"}}, {"name": "", "latitude": 45.426689, "longitude": 16.2309268, "elevation": 183.0, "source": "osm", "_tags": {"ele": "183", "natural": "peak"}}, {"name": "", "latitude": 45.4257513, "longitude": 16.2379197, "elevation": 180.0, "source": "osm", "_tags": {"ele": "180", "natural": "peak"}}, {"name": "", "latitude": 44.8906116, "longitude": 16.2220001, "elevation": 410.0, "source": "osm", "_tags": {"ele": "410", "natural": "peak"}}, {"name": "", "latitude": 44.8740279, "longitude": 16.1893415, "elevation": 351.0, "source": "osm", "_tags": {"ele": "351", "natural": "peak"}}, {"name": "", "latitude": 44.8870201, "longitude": 16.1933863, "elevation": 410.0, "source": "osm", "_tags": {"ele": "410", "natural": "peak"}}, {"name": "Stojakovića brdo", "latitude": 44.9479508, "longitude": 16.275183, "elevation": 337.0, "source": "osm", "_tags": {"ele": "337", "name": "Stojakovića brdo", "natural": "peak"}}, {"name": "", "latitude": 44.9565914, "longitude": 16.2219357, "elevation": 419.0, "source": "osm", "_tags": {"ele": "419", "natural": "peak"}}, {"name": "", "latitude": 44.8985274, "longitude": 16.1700189, "elevation": 254.0, "source": "osm", "_tags": {"ele": "254", "natural": "peak"}}, {"name": "Kamenito brdo", "latitude": 44.8747045, "longitude": 16.1268031, "elevation": 337.0, "source": "osm", "_tags": {"ele": "337", "name": "Kamenito brdo", "natural": "peak"}}, {"name": "Okrugljak", "latitude": 44.8923332, "longitude": 16.0947561, "elevation": 388.0, "source": "osm", "_tags": {"ele": "388", "name": "Okrugljak", "natural": "peak"}}, {"name": "Mala Gomila", "latitude": 44.8951758, "longitude": 16.0640824, "elevation": 735.0, "source": "osm", "_tags": {"ele": "735", "name": "Mala Gomila", "natural": "peak"}}, {"name": "Vrankovića glavica", "latitude": 44.9431137, "longitude": 16.1014938, "elevation": 418.0, "source": "osm", "_tags": {"ele": "418", "name": "Vrankovića glavica", "natural": "peak"}}, {"name": "Tavanak", "latitude": 44.943501, "longitude": 16.1630666, "elevation": 243.0, "source": "osm", "_tags": {"ele": "243", "name": "Tavanak", "natural": "peak"}}, {"name": "", "latitude": 44.9282732, "longitude": 16.1986327, "elevation": 385.0, "source": "osm", "_tags": {"ele": "385", "natural": "peak"}}, {"name": "", "latitude": 44.9119244, "longitude": 16.1841917, "elevation": 415.0, "source": "osm", "_tags": {"ele": "415", "natural": "peak"}}, {"name": "", "latitude": 44.9190814, "longitude": 16.1359119, "elevation": 348.0, "source": "osm", "_tags": {"ele": "348", "natural": "peak"}}, {"name": "Visibaba", "latitude": 44.8996598, "longitude": 16.121149, "elevation": 371.0, "source": "osm", "_tags": {"ele": "371", "name": "Visibaba", "natural": "peak"}}, {"name": "", "latitude": 44.7602037, "longitude": 15.9194898, "elevation": 547.0, "source": "osm", "_tags": {"ele": "547", "natural": "peak"}}, {"name": "Cilj", "latitude": 44.751046, "longitude": 15.967083, "elevation": 485.0, "source": "osm", "_tags": {"ele": "485", "name": "Cilj", "natural": "peak"}}, {"name": "Begova glava", "latitude": 44.745697, "longitude": 15.9521913, "elevation": 358.0, "source": "osm", "_tags": {"ele": "358", "name": "Begova glava", "natural": "peak"}}, {"name": "Crni vrh", "latitude": 44.6996231, "longitude": 16.0490512, "elevation": 856.0, "source": "osm", "_tags": {"ele": "856", "name": "Crni vrh", "natural": "peak"}}, {"name": "Suhi vrh", "latitude": 44.7047172, "longitude": 16.0138607, "elevation": 910.0, "source": "osm", "_tags": {"ele": "910", "name": "Suhi vrh", "natural": "peak"}}, {"name": "Kamenica", "latitude": 44.6500322, "longitude": 16.1161306, "elevation": 1128.0, "source": "osm", "_tags": {"ele": "1128", "name": "Kamenica", "natural": "peak"}}, {"name": "Tukovi", "latitude": 44.6607933, "longitude": 16.1066007, "elevation": 943.0, "source": "osm", "_tags": {"ele": "943", "name": "Tukovi", "natural": "peak"}}, {"name": "Gradina", "latitude": 44.6623348, "longitude": 16.0793924, "elevation": 798.0, "source": "osm", "_tags": {"ele": "798", "name": "Gradina", "natural": "peak"}}, {"name": "Gologlav", "latitude": 44.5098044, "longitude": 16.2007034, "elevation": 1123.0, "source": "osm", "_tags": {"ele": "1123", "name": "Gologlav", "natural": "peak"}}, {"name": "Išćar", "latitude": 44.5032394, "longitude": 16.2543368, "elevation": 1517.0, "source": "osm", "_tags": {"ele": "1517", "name": "Išćar", "natural": "peak"}}, {"name": "Malinjak", "latitude": 44.5096361, "longitude": 16.2407541, "elevation": 1449.0, "source": "osm", "_tags": {"ele": "1449", "name": "Malinjak", "natural": "peak"}}, {"name": "Bršljanov vrh", "latitude": 44.5197652, "longitude": 16.2377715, "elevation": 1362.0, "source": "osm", "_tags": {"ele": "1362", "name": "Bršljanov vrh", "natural": "peak"}}, {"name": "", "latitude": 44.5318888, "longitude": 16.2111854, "elevation": 1116.0, "source": "osm", "_tags": {"ele": "1116", "natural": "peak"}}, {"name": "Srt", "latitude": 44.5782718, "longitude": 16.1691284, "elevation": 962.0, "source": "osm", "_tags": {"ele": "962", "name": "Srt", "natural": "peak"}}, {"name": "Lisina", "latitude": 44.6429182, "longitude": 16.143465, "elevation": 1145.0, "source": "osm", "_tags": {"ele": "1145", "name": "Lisina", "natural": "peak"}}, {"name": "Čučevo brdo", "latitude": 44.6597554, "longitude": 16.1799216, "elevation": 1091.0, "source": "osm", "_tags": {"ele": "1091", "name": "Čučevo brdo", "natural": "peak"}}, {"name": "Prijeka glavica", "latitude": 44.6217694, "longitude": 16.2074089, "elevation": 666.0, "source": "osm", "_tags": {"ele": "666", "name": "Prijeka glavica", "natural": "peak"}}, {"name": "", "latitude": 44.6395441, "longitude": 16.2295103, "elevation": 646.0, "source": "osm", "_tags": {"ele": "646", "natural": "peak"}}, {"name": "", "latitude": 44.6430098, "longitude": 16.2723613, "elevation": 763.0, "source": "osm", "_tags": {"ele": "763", "natural": "peak"}}, {"name": "Mali Obljaj", "latitude": 44.6381241, "longitude": 16.2925958, "elevation": 909.0, "source": "osm", "_tags": {"ele": "909", "name": "Mali Obljaj", "natural": "peak"}}, {"name": "Veliki Obljaj", "latitude": 44.6265954, "longitude": 16.3097191, "elevation": 951.0, "source": "osm", "_tags": {"ele": "951", "name": "Veliki Obljaj", "natural": "peak"}}, {"name": "Vujovica", "latitude": 44.5987871, "longitude": 16.2370956, "elevation": 658.0, "source": "osm", "_tags": {"ele": "658", "name": "Vujovica", "natural": "peak"}}, {"name": "Rudača", "latitude": 44.6220901, "longitude": 16.2496805, "elevation": 651.0, "source": "osm", "_tags": {"ele": "651", "name": "Rudača", "natural": "peak"}}, {"name": "", "latitude": 44.6218458, "longitude": 16.2701082, "elevation": 701.0, "source": "osm", "_tags": {"ele": "701", "natural": "peak"}}, {"name": "Točna glavica", "latitude": 44.6205018, "longitude": 16.2914371, "elevation": 705.0, "source": "osm", "_tags": {"ele": "705", "name": "Točna glavica", "natural": "peak"}}, {"name": "Suin vrh", "latitude": 44.5821538, "longitude": 16.2321925, "elevation": 692.0, "source": "osm", "_tags": {"ele": "692", "name": "Suin vrh", "natural": "peak"}}, {"name": "Boškovića greda", "latitude": 44.5741602, "longitude": 16.1078238, "elevation": 695.0, "source": "osm", "_tags": {"ele": "695", "name": "Boškovića greda", "natural": "peak"}}, {"name": "Runjevica", "latitude": 44.5774158, "longitude": 16.0335159, "elevation": 667.0, "source": "osm", "_tags": {"ele": "667", "name": "Runjevica", "natural": "peak"}}, {"name": "Culumak", "latitude": 44.5994135, "longitude": 16.0859799, "elevation": 408.0, "source": "osm", "_tags": {"ele": "408", "name": "Culumak", "natural": "peak"}}, {"name": "", "latitude": 44.6074571, "longitude": 16.0686206, "elevation": 353.0, "source": "osm", "_tags": {"ele": "353", "natural": "peak"}}, {"name": "", "latitude": 44.5898407, "longitude": 16.1214924, "elevation": 878.0, "source": "osm", "_tags": {"ele": "878", "natural": "peak"}}, {"name": "Koviljača", "latitude": 44.6117458, "longitude": 16.1762416, "elevation": 816.0, "source": "osm", "_tags": {"ele": "816", "name": "Koviljača", "natural": "peak"}}, {"name": "Drenova glavica", "latitude": 44.5702623, "longitude": 16.2122369, "elevation": 701.0, "source": "osm", "_tags": {"ele": "701", "name": "Drenova glavica", "natural": "peak"}}, {"name": "", "latitude": 44.5446828, "longitude": 16.2353897, "elevation": 1245.0, "source": "osm", "_tags": {"ele": "1245", "natural": "peak"}}, {"name": "", "latitude": 44.5109521, "longitude": 16.2886262, "elevation": 1351.0, "source": "osm", "_tags": {"ele": "1351", "natural": "peak"}}, {"name": "Crni vrh", "latitude": 44.4984032, "longitude": 16.2899351, "elevation": null, "source": "osm", "_tags": {"name": "Crni vrh", "natural": "peak"}}, {"name": "Velika glavica", "latitude": 44.46999, "longitude": 16.2045335, "elevation": 799.0, "source": "osm", "_tags": {"ele": "799", "name": "Velika glavica", "natural": "peak"}}, {"name": "", "latitude": 44.4930462, "longitude": 16.2010574, "elevation": 747.0, "source": "osm", "_tags": {"ele": "747", "natural": "peak"}}, {"name": "Gaj", "latitude": 44.4946533, "longitude": 16.1774754, "elevation": 751.0, "source": "osm", "_tags": {"ele": "751", "name": "Gaj", "natural": "peak"}}, {"name": "Runjevac", "latitude": 44.5290685, "longitude": 16.1652258, "elevation": 1088.0, "source": "osm", "_tags": {"ele": "1088", "name": "Runjevac", "natural": "peak"}}, {"name": "Ivovac", "latitude": 44.5117592, "longitude": 16.1408848, "elevation": 849.0, "source": "osm", "_tags": {"ele": "849", "name": "Ivovac", "natural": "peak"}}, {"name": "Gavranuša", "latitude": 44.5561667, "longitude": 16.1497414, "elevation": 978.0, "source": "osm", "_tags": {"ele": "978", "name": "Gavranuša", "natural": "peak"}}, {"name": "", "latitude": 44.4517958, "longitude": 16.326456, "elevation": 1329.0, "source": "osm", "_tags": {"ele": "1329", "natural": "peak"}}, {"name": "", "latitude": 44.4494101, "longitude": 16.2490475, "elevation": 674.0, "source": "osm", "_tags": {"ele": "674", "natural": "peak"}}, {"name": "Veliki vrh", "latitude": 44.4640178, "longitude": 16.1722183, "elevation": 900.0, "source": "osm", "_tags": {"ele": "900", "name": "Veliki vrh", "natural": "peak"}}, {"name": "", "latitude": 44.4592855, "longitude": 16.2056923, "elevation": 929.0, "source": "osm", "_tags": {"ele": "929", "natural": "peak"}}, {"name": "Suhi vrh", "latitude": 44.4711308, "longitude": 16.2783024, "elevation": 1425.0, "source": "osm", "_tags": {"ele": "1425", "name": "Suhi vrh", "natural": "peak"}}, {"name": "Velika zeljarica", "latitude": 44.4855914, "longitude": 16.2898922, "elevation": 1622.0, "source": "osm", "_tags": {"ele": "1622", "name": "Velika zeljarica", "natural": "peak"}}, {"name": "", "latitude": 44.4817642, "longitude": 16.3346529, "elevation": 1431.0, "source": "osm", "_tags": {"ele": "1431", "natural": "peak"}}, {"name": "", "latitude": 44.4675706, "longitude": 16.354866, "elevation": 1388.0, "source": "osm", "_tags": {"ele": "1388", "natural": "peak"}}, {"name": "Vrančev vrh", "latitude": 44.4660699, "longitude": 16.3749504, "elevation": 1294.0, "source": "osm", "_tags": {"ele": "1294", "name": "Vrančev vrh", "natural": "peak"}}, {"name": "Vršeljak", "latitude": 44.4654496, "longitude": 16.4059675, "elevation": 1166.0, "source": "osm", "_tags": {"ele": "1166", "name": "Vršeljak", "natural": "peak"}}, {"name": "", "latitude": 44.4824531, "longitude": 16.3816881, "elevation": 1411.0, "source": "osm", "_tags": {"ele": "1411", "natural": "peak"}}, {"name": "Lisina", "latitude": 44.6988453, "longitude": 16.1905431, "elevation": 1113.0, "source": "osm", "_tags": {"ele": "1113", "name": "Lisina", "natural": "peak"}}, {"name": "Mačja greda", "latitude": 44.7268877, "longitude": 16.1932897, "elevation": 1014.0, "source": "osm", "_tags": {"ele": "1014", "name": "Mačja greda", "natural": "peak"}}, {"name": "", "latitude": 44.7553583, "longitude": 16.1603307, "elevation": 608.0, "source": "osm", "_tags": {"ele": "608", "natural": "peak"}}, {"name": "", "latitude": 44.7662369, "longitude": 16.167959, "elevation": 694.0, "source": "osm", "_tags": {"ele": "694", "natural": "peak"}}, {"name": "Vranovača", "latitude": 44.6872828, "longitude": 16.2034392, "elevation": 795.0, "source": "osm", "_tags": {"ele": "795", "name": "Vranovača", "natural": "peak"}}, {"name": "Lisičijak", "latitude": 44.672712, "longitude": 16.1981391, "elevation": 942.0, "source": "osm", "_tags": {"ele": "942", "name": "Lisičijak", "natural": "peak"}}, {"name": "", "latitude": 44.5304433, "longitude": 16.3364982, "elevation": 723.0, "source": "osm", "_tags": {"ele": "723", "natural": "peak"}}, {"name": "Batin gaj", "latitude": 44.5339615, "longitude": 16.3260269, "elevation": 697.0, "source": "osm", "_tags": {"ele": "697", "name": "Batin gaj", "natural": "peak"}}, {"name": "Draguljevac", "latitude": 44.5037904, "longitude": 16.324954, "elevation": 1236.0, "source": "osm", "_tags": {"ele": "1236", "name": "Draguljevac", "natural": "peak"}}, {"name": "Novakovića vrh", "latitude": 44.4928644, "longitude": 16.3511351, "elevation": 1106.0, "source": "osm", "_tags": {"ele": "1106", "name": "Novakovića vrh", "natural": "peak"}}, {"name": "Cilj", "latitude": 44.6850249, "longitude": 16.1431861, "elevation": 1117.0, "source": "osm", "_tags": {"ele": "1117", "name": "Cilj", "natural": "peak"}}, {"name": "Ciganka", "latitude": 44.6926677, "longitude": 16.1654431, "elevation": 1072.0, "source": "osm", "_tags": {"ele": "1072", "name": "Ciganka", "natural": "peak"}}, {"name": "Ciganka", "latitude": 44.7230229, "longitude": 16.1691606, "elevation": 951.0, "source": "osm", "_tags": {"ele": "951", "name": "Ciganka", "natural": "peak"}}, {"name": "Kotlarski vrh", "latitude": 44.7361101, "longitude": 16.0501671, "elevation": 1199.0, "source": "osm", "_tags": {"ele": "1199", "name": "Kotlarski vrh", "natural": "peak"}}, {"name": "Koviljača", "latitude": 44.6770703, "longitude": 16.1172143, "elevation": 858.0, "source": "osm", "_tags": {"ele": "858", "name": "Koviljača", "natural": "peak"}}, {"name": "Pervanića vrh", "latitude": 44.7110459, "longitude": 16.1041975, "elevation": 1005.0, "source": "osm", "_tags": {"ele": "1005", "name": "Pervanića vrh", "natural": "peak"}}, {"name": "Čelikov vrh", "latitude": 44.7043206, "longitude": 16.133101, "elevation": 1068.0, "source": "osm", "_tags": {"ele": "1068", "name": "Čelikov vrh", "natural": "peak"}}, {"name": "Ćirin vrh", "latitude": 44.7120828, "longitude": 16.1242604, "elevation": 1054.0, "source": "osm", "_tags": {"ele": "1054", "name": "Ćirin vrh", "natural": "peak"}}, {"name": "Muhamedov vrh", "latitude": 44.7157577, "longitude": 16.1345386, "elevation": 1084.0, "source": "osm", "_tags": {"ele": "1084", "name": "Muhamedov vrh", "natural": "peak"}}, {"name": "Lipska kosa", "latitude": 44.7311409, "longitude": 16.1060643, "elevation": 1021.0, "source": "osm", "_tags": {"ele": "1021", "name": "Lipska kosa", "natural": "peak"}}, {"name": "Aleksin vrh", "latitude": 44.713135, "longitude": 16.1482072, "elevation": 1099.0, "source": "osm", "_tags": {"ele": "1099", "name": "Aleksin vrh", "natural": "peak"}}, {"name": "Miminovac", "latitude": 44.7284121, "longitude": 16.1492157, "elevation": 991.0, "source": "osm", "_tags": {"ele": "991", "name": "Miminovac", "natural": "peak"}}, {"name": "Bijela kosa", "latitude": 44.75868, "longitude": 16.079371, "elevation": 1038.0, "source": "osm", "_tags": {"ele": "1038", "name": "Bijela kosa", "natural": "peak"}}, {"name": "Čekina Lisina", "latitude": 44.7264913, "longitude": 16.0462188, "elevation": 1171.0, "source": "osm", "_tags": {"ele": "1171", "name": "Čekina Lisina", "natural": "peak"}}, {"name": "Goli vrh", "latitude": 44.7413381, "longitude": 16.0367345, "elevation": 1185.0, "source": "osm", "_tags": {"ele": "1185", "name": "Goli vrh", "natural": "peak"}}, {"name": "", "latitude": 44.8610707, "longitude": 16.1483359, "elevation": 347.0, "source": "osm", "_tags": {"ele": "347", "natural": "peak"}}, {"name": "", "latitude": 44.8648046, "longitude": 16.0990155, "elevation": 353.0, "source": "osm", "_tags": {"ele": "353", "natural": "peak"}}, {"name": "Bubaljka", "latitude": 44.8289695, "longitude": 15.997467, "elevation": 669.0, "source": "osm", "_tags": {"ele": "669", "name": "Bubaljka", "natural": "peak"}}, {"name": "", "latitude": 44.8571922, "longitude": 16.0552311, "elevation": 463.0, "source": "osm", "_tags": {"ele": "463", "natural": "peak"}}, {"name": "Lonina kosa", "latitude": 44.8652608, "longitude": 16.0211563, "elevation": 760.0, "source": "osm", "_tags": {"ele": "760", "name": "Lonina kosa", "natural": "peak"}}, {"name": "Savića Glavica", "latitude": 44.8763088, "longitude": 16.0442018, "elevation": 494.0, "source": "osm", "_tags": {"ele": "494", "name": "Savića Glavica", "natural": "peak"}}, {"name": "Stanica Grmuša", "latitude": 44.9000854, "longitude": 16.0257911, "elevation": 399.0, "source": "osm", "_tags": {"ele": "399", "name": "Stanica Grmuša", "natural": "peak"}}, {"name": "Novakovića glavica", "latitude": 44.8840023, "longitude": 15.9955787, "elevation": 580.0, "source": "osm", "_tags": {"ele": "580", "name": "Novakovića glavica", "natural": "peak"}}, {"name": "", "latitude": 44.8639909, "longitude": 15.9817171, "elevation": 796.0, "source": "osm", "_tags": {"ele": "796", "natural": "peak"}}, {"name": "Uzelčeva glavica", "latitude": 44.8845496, "longitude": 15.9669113, "elevation": 466.0, "source": "osm", "_tags": {"ele": "466", "name": "Uzelčeva glavica", "natural": "peak"}}, {"name": "Jezerska glavica", "latitude": 44.8741495, "longitude": 15.9387374, "elevation": 595.0, "source": "osm", "_tags": {"alt_name": "Srbljanska glavica", "ele": "595", "name": "Jezerska glavica", "natural": "peak"}}, {"name": "", "latitude": 44.8502101, "longitude": 15.9097909, "elevation": 453.0, "source": "osm", "_tags": {"ele": "453", "natural": "peak"}}, {"name": "Srednjak", "latitude": 44.8063206, "longitude": 16.0024452, "elevation": 1014.0, "source": "osm", "_tags": {"ele": "1014", "name": "Srednjak", "natural": "peak"}}, {"name": "Krilića vrh", "latitude": 44.8460873, "longitude": 15.9744429, "elevation": 746.0, "source": "osm", "_tags": {"ele": "746", "name": "Krilića vrh", "natural": "peak"}}, {"name": "Hasin vrh", "latitude": 44.8546671, "longitude": 15.9489834, "elevation": 625.0, "source": "osm", "_tags": {"ele": "625", "name": "Hasin vrh", "natural": "peak"}}, {"name": "404", "latitude": 44.7967286, "longitude": 15.9387159, "elevation": null, "source": "osm", "_tags": {"name": "404", "natural": "peak"}}, {"name": "", "latitude": 44.7819265, "longitude": 15.9663963, "elevation": 506.0, "source": "osm", "_tags": {"ele": "506", "natural": "peak"}}, {"name": "", "latitude": 44.8255834, "longitude": 16.0587501, "elevation": 596.0, "source": "osm", "_tags": {"ele": "596", "natural": "peak"}}, {"name": "Orlovača", "latitude": 44.8346608, "longitude": 16.0236883, "elevation": 684.0, "source": "osm", "_tags": {"ele": "684", "name": "Orlovača", "natural": "peak"}}, {"name": "Drenovac", "latitude": 44.8523702, "longitude": 16.0199976, "elevation": 709.0, "source": "osm", "_tags": {"ele": "709", "name": "Drenovac", "natural": "peak"}}, {"name": "", "latitude": 44.8469849, "longitude": 16.1374354, "elevation": 346.0, "source": "osm", "_tags": {"ele": "346", "natural": "peak"}}, {"name": "Obljaj", "latitude": 44.8379779, "longitude": 16.1051416, "elevation": 533.0, "source": "osm", "_tags": {"ele": "533", "name": "Obljaj", "natural": "peak"}}, {"name": "Skrbin vrh", "latitude": 44.8151727, "longitude": 16.0306245, "elevation": 893.0, "source": "osm", "_tags": {"ele": "893", "name": "Skrbin vrh", "natural": "peak"}}, {"name": "Trovrh (Gredoviti Vrh)", "latitude": 44.7848202, "longitude": 16.0743284, "elevation": 1209.0, "source": "osm", "_tags": {"ele": "1209", "name": "Trovrh (Gredoviti Vrh)", "natural": "peak"}}, {"name": "", "latitude": 44.7976727, "longitude": 16.1608886, "elevation": 410.0, "source": "osm", "_tags": {"ele": "410", "natural": "peak"}}, {"name": "", "latitude": 44.8157587, "longitude": 16.1307191, "elevation": 741.0, "source": "osm", "_tags": {"ele": "741", "natural": "peak"}}, {"name": "Opaljenik", "latitude": 44.8093044, "longitude": 16.111772, "elevation": 911.0, "source": "osm", "_tags": {"ele": "911", "name": "Opaljenik", "natural": "peak"}}, {"name": "", "latitude": 44.7855588, "longitude": 16.101011, "elevation": 1086.0, "source": "osm", "_tags": {"ele": "1086", "natural": "peak"}}, {"name": "", "latitude": 44.7825357, "longitude": 16.1721324, "elevation": 501.0, "source": "osm", "_tags": {"ele": "501", "natural": "peak"}}, {"name": "", "latitude": 44.7774942, "longitude": 16.1342811, "elevation": 743.0, "source": "osm", "_tags": {"ele": "743", "natural": "peak"}}, {"name": "Mala Javornjača", "latitude": 44.7903635, "longitude": 16.0375499, "elevation": 1164.0, "source": "osm", "_tags": {"ele": "1164", "name": "Mala Javornjača", "natural": "peak"}}, {"name": "", "latitude": 44.9045538, "longitude": 15.9775543, "elevation": 353.0, "source": "osm", "_tags": {"ele": "353", "natural": "peak"}}, {"name": "Zminjak", "latitude": 44.9790257, "longitude": 15.964669, "elevation": 515.0, "source": "osm", "_tags": {"ele": "515", "name": "Zminjak", "natural": "peak"}}, {"name": "", "latitude": 44.9620632, "longitude": 15.8885828, "elevation": 350.0, "source": "osm", "_tags": {"ele": "350", "natural": "peak"}}, {"name": "", "latitude": 44.9368863, "longitude": 15.9198117, "elevation": 414.0, "source": "osm", "_tags": {"ele": "414", "natural": "peak"}}, {"name": "", "latitude": 44.9010391, "longitude": 15.9226388, "elevation": 391.0, "source": "osm", "_tags": {"ele": "391", "natural": "peak"}}, {"name": "Mutina glavica", "latitude": 44.9170833, "longitude": 15.8912945, "elevation": 407.0, "source": "osm", "_tags": {"ele": "407", "name": "Mutina glavica", "natural": "peak"}}, {"name": "Samnjak", "latitude": 44.5984891, "longitude": 16.314547, "elevation": 788.0, "source": "osm", "_tags": {"ele": "788", "name": "Samnjak", "natural": "peak"}}, {"name": "Gajni vrh", "latitude": 44.7272231, "longitude": 16.2589502, "elevation": 876.0, "source": "osm", "_tags": {"ele": "876", "name": "Gajni vrh", "natural": "peak"}}, {"name": "Curguzovac", "latitude": 44.7262474, "longitude": 16.2791633, "elevation": 902.0, "source": "osm", "_tags": {"ele": "902", "name": "Curguzovac", "natural": "peak"}}, {"name": "Lujin vrh", "latitude": 44.7087737, "longitude": 16.3756799, "elevation": null, "source": "osm", "_tags": {"name": "Lujin vrh", "natural": "peak"}}, {"name": "Crni vrh", "latitude": 44.7112441, "longitude": 16.36545, "elevation": 1378.0, "source": "osm", "_tags": {"ele": "1378", "name": "Crni vrh", "natural": "peak"}}, {"name": "Miljevac", "latitude": 44.7096887, "longitude": 16.417458, "elevation": 963.0, "source": "osm", "_tags": {"ele": "963", "name": "Miljevac", "natural": "peak"}}, {"name": "Konjska glava", "latitude": 44.7262778, "longitude": 16.3810444, "elevation": 1077.0, "source": "osm", "_tags": {"ele": "1077", "name": "Konjska glava", "natural": "peak"}}, {"name": "Suhopoljski vrh", "latitude": 44.7490344, "longitude": 16.3194608, "elevation": 1186.0, "source": "osm", "_tags": {"ele": "1186", "name": "Suhopoljski vrh", "natural": "peak"}}, {"name": "Majkića brdo", "latitude": 44.7394787, "longitude": 16.3364553, "elevation": 1352.0, "source": "osm", "_tags": {"ele": "1352", "name": "Majkića brdo", "natural": "peak"}}, {"name": "1325", "latitude": 44.7248982, "longitude": 16.3079702, "elevation": null, "source": "osm", "_tags": {"name": "1325", "natural": "peak"}}, {"name": "Mačja greda", "latitude": 44.7036191, "longitude": 16.324439, "elevation": 1250.0, "source": "osm", "_tags": {"ele": "1250", "name": "Mačja greda", "natural": "peak"}}, {"name": "Rizvanov vrh", "latitude": 44.6969082, "longitude": 16.2968015, "elevation": 1213.0, "source": "osm", "_tags": {"ele": "1213", "name": "Rizvanov vrh", "natural": "peak"}}, {"name": "Sanske uvale", "latitude": 44.6923932, "longitude": 16.3656807, "elevation": 1217.0, "source": "osm", "_tags": {"ele": "1217", "name": "Sanske uvale", "natural": "peak"}}, {"name": "Dekovački vrh", "latitude": 44.6095499, "longitude": 16.4539575, "elevation": 1170.0, "source": "osm", "_tags": {"ele": "1170", "name": "Dekovački vrh", "natural": "peak"}}, {"name": "Kosijer", "latitude": 44.6550772, "longitude": 16.3790917, "elevation": 1247.0, "source": "osm", "_tags": {"ele": "1247", "name": "Kosijer", "natural": "peak"}}, {"name": "Tisovi vrh", "latitude": 44.6627011, "longitude": 16.395936, "elevation": 1169.0, "source": "osm", "_tags": {"ele": "1169", "name": "Tisovi vrh", "natural": "peak"}}, {"name": "Basanov vrh", "latitude": 44.6757485, "longitude": 16.3781261, "elevation": 1128.0, "source": "osm", "_tags": {"ele": "1128", "name": "Basanov vrh", "natural": "peak"}}, {"name": "", "latitude": 44.662289, "longitude": 16.3717747, "elevation": 1255.0, "source": "osm", "_tags": {"ele": "1255", "natural": "peak"}}, {"name": "Mačija greda", "latitude": 44.6328716, "longitude": 16.3690281, "elevation": 1208.0, "source": "osm", "_tags": {"ele": "1208", "name": "Mačija greda", "natural": "peak"}}, {"name": "Čunjger", "latitude": 44.6062503, "longitude": 16.3805294, "elevation": 1011.0, "source": "osm", "_tags": {"ele": "1011", "name": "Čunjger", "natural": "peak"}}, {"name": "Šajnovac", "latitude": 44.5745729, "longitude": 16.3783836, "elevation": 955.0, "source": "osm", "_tags": {"ele": "955", "name": "Šajnovac", "natural": "peak"}}, {"name": "", "latitude": 44.5414559, "longitude": 16.4125442, "elevation": 693.0, "source": "osm", "_tags": {"ele": "693", "natural": "peak"}}, {"name": "1039", "latitude": 44.5388559, "longitude": 16.451683, "elevation": null, "source": "osm", "_tags": {"name": "1039", "natural": "peak"}}, {"name": "Đurinovača", "latitude": 44.5269862, "longitude": 16.4273929, "elevation": 911.0, "source": "osm", "_tags": {"ele": "911", "name": "Đurinovača", "natural": "peak"}}, {"name": "", "latitude": 45.2416124, "longitude": 16.2066635, "elevation": 266.0, "source": "osm", "_tags": {"ele": "266", "natural": "peak"}}, {"name": "", "latitude": 45.3523524, "longitude": 15.9110418, "elevation": 211.0, "source": "osm", "_tags": {"ele": "211", "natural": "peak"}}, {"name": "", "latitude": 45.3243488, "longitude": 16.3566226, "elevation": 384.0, "source": "osm", "_tags": {"ele": "384", "natural": "peak"}}, {"name": "Makarovača", "latitude": 45.0800915, "longitude": 16.1361621, "elevation": null, "source": "osm", "_tags": {"name": "Makarovača", "natural": "peak"}}, {"name": "Hrastik", "latitude": 44.8111982, "longitude": 15.8932881, "elevation": 270.0, "source": "osm", "_tags": {"ele": "270", "name": "Hrastik", "name:sr": "Храстик", "natural": "peak"}}, {"name": "Alajbegov vrh", "latitude": 44.7683438, "longitude": 16.0692596, "elevation": 1036.0, "source": "osm", "_tags": {"ele": "1036", "name": "Alajbegov vrh", "name:sr": "Алајбегов врх", "natural": "peak"}}, {"name": "Ogradak", "latitude": 44.7330286, "longitude": 16.0171407, "elevation": 712.0, "source": "osm", "_tags": {"ele": "712", "name": "Ogradak", "name:sr": "Оградак", "natural": "peak"}}, {"name": "Hadžiavdića glavica", "latitude": 44.8170953, "longitude": 15.8939139, "elevation": 254.0, "source": "osm", "_tags": {"ele": "254", "name": "Hadžiavdića glavica", "name:sr-Latn": "Хаџиавдића главица", "natural": "peak"}}, {"name": "Mrkin brijeg", "latitude": 44.7280546, "longitude": 16.0227442, "elevation": 723.0, "source": "osm", "_tags": {"ele": "723", "name": "Mrkin brijeg", "name:sr": "Мркин бријег", "natural": "peak"}}, {"name": "Tintorovo brdo", "latitude": 45.2301843, "longitude": 16.1507622, "elevation": 250.0, "source": "osm", "_tags": {"ele": "250", "name": "Tintorovo brdo", "natural": "peak"}}]