[{"name": "Petrovac", "latitude": 45.2459387, "longitude": 13.7102587, "elevation": 223.0, "source": "osm", "_tags": {"ele": "223", "name": "Petrovac", "natural": "peak"}}, {"name": "", "latitude": 45.0065775, "longitude": 13.8760074, "elevation": 222.0, "source": "osm", "_tags": {"ele": "222", "natural": "peak"}}, {"name": "Turnina", "latitude": 45.0911055, "longitude": 13.682497, "elevation": 105.7, "source": "osm", "_tags": {"ele": "105.7", "name": "Turnina", "natural": "peak"}}, {"name": "Rasohe", "latitude": 45.145551, "longitude": 13.6002491, "elevation": 42.0, "source": "osm", "_tags": {"ele": "42", "name": "Rasohe", "natural": "peak"}}, {"name": "Mufoš", "latitude": 45.1364989, "longitude": 13.6648977, "elevation": 102.0, "source": "osm", "_tags": {"ele": "102", "name": "Mufoš", "natural": "peak"}}, {"name": "Petalon", "latitude": 45.1414553, "longitude": 13.5994612, "elevation": 21.0, "source": "osm", "_tags": {"ele": "21", "name": "Petalon", "natural": "peak"}}, {"name": "Križ", "latitude": 45.1148897, "longitude": 13.6132209, "elevation": 56.8, "source": "osm", "_tags": {"ele": "56.8", "name": "Križ", "name:it": "Monluon", "natural": "peak"}}, {"name": "", "latitude": 45.1174848, "longitude": 13.6275282, "elevation": 35.2, "source": "osm", "_tags": {"ele": "35.2", "natural": "peak"}}, {"name": "Riko", "latitude": 45.1160857, "longitude": 13.6395469, "elevation": 51.4, "source": "osm", "_tags": {"ele": "51.4", "name": "Riko", "name:it": "Ricco", "natural": "peak"}}, {"name": "Tonkaž", "latitude": 45.1229456, "longitude": 13.6430926, "elevation": 96.4, "source": "osm", "_tags": {"ele": "96.4", "name": "Tonkaž", "name:it": "Doncas", "natural": "peak"}}, {"name": "Monter", "latitude": 45.1212325, "longitude": 13.6576522, "elevation": 123.7, "source": "osm", "_tags": {"ele": "123.7", "name": "Monter", "name:it": "Montero", "natural": "peak"}}, {"name": "Sv. Proto", "latitude": 45.119919, "longitude": 13.6686222, "elevation": 108.6, "source": "osm", "_tags": {"ele": "108.6", "name": "Sv. Proto", "name:it": "S. Proto", "natural": "peak"}}, {"name": "Dugi vrh", "latitude": 45.120234, "longitude": 13.6750345, "elevation": 107.6, "source": "osm", "_tags": {"ele": "107.6", "name": "Dugi vrh", "natural": "peak"}}, {"name": "Sv. Tomaž", "latitude": 45.1112576, "longitude": 13.657657, "elevation": 102.9, "source": "osm", "_tags": {"ele": "102.9", "name": "Sv. Tomaž", "name:it": "S. Tommaso", "natural": "peak"}}, {"name": "Moguštin", "latitude": 45.1215793, "longitude": 13.6914075, "elevation": 143.4, "source": "osm", "_tags": {"ele": "143.4", "name": "Moguštin", "name:it": "Mongustin", "natural": "peak"}}, {"name": "Varave", "latitude": 45.1165485, "longitude": 13.6869736, "elevation": 148.8, "source": "osm", "_tags": {"ele": "148.8", "name": "Varave", "natural": "peak"}}, {"name": "Smokvina", "latitude": 45.122924, "longitude": 13.7042318, "elevation": 115.3, "source": "osm", "_tags": {"ele": "115.3", "name": "Smokvina", "natural": "peak"}}, {"name": "Gomila", "latitude": 45.1169218, "longitude": 13.7029035, "elevation": 155.5, "source": "osm", "_tags": {"ele": "155.5", "name": "Gomila", "natural": "peak"}}, {"name": "Kičer", "latitude": 45.1210688, "longitude": 13.7264537, "elevation": 208.3, "source": "osm", "_tags": {"ele": "208.3", "name": "Kičer", "natural": "peak"}}, {"name": "Ciganska glava", "latitude": 45.1120659, "longitude": 13.7274259, "elevation": 147.0, "source": "osm", "_tags": {"ele": "147", "name": "Ciganska glava", "natural": "peak"}}, {"name": "Zavrh", "latitude": 45.1122643, "longitude": 13.7122621, "elevation": 158.6, "source": "osm", "_tags": {"ele": "158.6", "name": "Zavrh", "natural": "peak"}}, {"name": "Rukav", "latitude": 45.1168085, "longitude": 13.711171, "elevation": 157.4, "source": "osm", "_tags": {"ele": "157.4", "name": "Rukav", "natural": "peak"}}, {"name": "Markov vrh", "latitude": 45.1113175, "longitude": 13.6819351, "elevation": 122.2, "source": "osm", "_tags": {"ele": "122.2", "name": "Markov vrh", "natural": "peak"}}, {"name": "Montelongo", "latitude": 45.1105681, "longitude": 13.6270072, "elevation": 63.8, "source": "osm", "_tags": {"ele": "63.8", "name": "Montelongo", "natural": "peak"}}, {"name": "Mompaderno", "latitude": 45.1091682, "longitude": 13.6316054, "elevation": 61.4, "source": "osm", "_tags": {"ele": "61.4", "name": "Mompaderno", "name:it": "Monpaderno", "natural": "peak"}}, {"name": "Monsena", "latitude": 45.1079661, "longitude": 13.6170069, "elevation": 42.0, "source": "osm", "_tags": {"ele": "42", "name": "Monsena", "name:it": "Monsena", "natural": "peak"}}, {"name": "Salterija", "latitude": 45.1015677, "longitude": 13.6364713, "elevation": 52.7, "source": "osm", "_tags": {"ele": "52.7", "name": "Salterija", "natural": "peak"}}, {"name": "Mondelako", "latitude": 45.1047686, "longitude": 13.6488281, "elevation": 57.2, "source": "osm", "_tags": {"ele": "57.2", "name": "Mondelako", "name:it": "Mondelaco", "natural": "peak"}}, {"name": "Konjski vrh", "latitude": 45.102028, "longitude": 13.6754063, "elevation": 87.4, "source": "osm", "_tags": {"ele": "87.4", "name": "Konjski vrh", "natural": "peak"}}, {"name": "", "latitude": 45.0991105, "longitude": 13.6570983, "elevation": 44.1, "source": "osm", "_tags": {"ele": "44.1", "natural": "peak"}}, {"name": "Laštre", "latitude": 45.095251, "longitude": 13.6485101, "elevation": 63.7, "source": "osm", "_tags": {"ele": "63.7", "name": "Laštre", "name:it": "Le Laste", "natural": "peak"}}, {"name": "", "latitude": 45.0944191, "longitude": 13.6210867, "elevation": 14.3, "source": "osm", "_tags": {"ele": "14.3", "natural": "peak"}}, {"name": "Bogunov vrh", "latitude": 45.1052307, "longitude": 13.6908508, "elevation": 124.0, "source": "osm", "_tags": {"ele": "124", "name": "Bogunov vrh", "natural": "peak"}}, {"name": "Kovačija", "latitude": 45.1022018, "longitude": 13.6971839, "elevation": 129.3, "source": "osm", "_tags": {"ele": "129.3", "name": "Kovačija", "natural": "peak"}}, {"name": "Perićeva glav", "latitude": 45.1023173, "longitude": 13.7071047, "elevation": 158.0, "source": "osm", "_tags": {"ele": "158", "name": "Perićeva glav", "natural": "peak"}}, {"name": "Darne", "latitude": 45.0108881, "longitude": 13.726144, "elevation": 53.3, "source": "osm", "_tags": {"ele": "53.3", "name": "Darne", "natural": "peak"}}, {"name": "Datule", "latitude": 45.0102012, "longitude": 13.717151, "elevation": 23.9, "source": "osm", "_tags": {"ele": "23.9", "name": "Datule", "natural": "peak"}}, {"name": "Sv. Pavao", "latitude": 45.0140882, "longitude": 13.7161409, "elevation": 32.0, "source": "osm", "_tags": {"ele": "32", "name": "Sv. Pavao", "name:it": "San Polo", "natural": "peak"}}, {"name": "Montauro", "latitude": 45.0691254, "longitude": 13.6277935, "elevation": 38.6, "source": "osm", "_tags": {"ele": "38.6", "name": "Montauro", "natural": "peak"}}, {"name": "Monvi", "latitude": 45.0679837, "longitude": 13.6407397, "elevation": 54.3, "source": "osm", "_tags": {"ele": "54.3", "name": "Monvi", "name:it": "Monvè", "natural": "peak"}}, {"name": "Maluža", "latitude": 45.0684429, "longitude": 13.6576374, "elevation": 36.2, "source": "osm", "_tags": {"ele": "36.2", "name": "Maluža", "name:it": "Malusà", "natural": "peak"}}, {"name": "", "latitude": 45.0890505, "longitude": 13.6623056, "elevation": 40.3, "source": "osm", "_tags": {"ele": "40.3", "natural": "peak"}}, {"name": "", "latitude": 45.0883632, "longitude": 13.6503685, "elevation": 38.2, "source": "osm", "_tags": {"ele": "38.2", "natural": "peak"}}, {"name": "Kapa", "latitude": 45.0978851, "longitude": 13.6887975, "elevation": 121.3, "source": "osm", "_tags": {"ele": "121.3", "name": "Kapa", "natural": "peak", "wikidata": "Q25302390"}}, {"name": "Valtinjan", "latitude": 45.0888826, "longitude": 13.6937624, "elevation": 127.7, "source": "osm", "_tags": {"ele": "127.7", "name": "Valtinjan", "natural": "peak"}}, {"name": "Bumbrenat", "latitude": 45.0887121, "longitude": 13.7021509, "elevation": 121.3, "source": "osm", "_tags": {"ele": "121.3", "name": "Bumbrenat", "natural": "peak"}}, {"name": "M. Kanaškura", "latitude": 45.0940003, "longitude": 13.7078751, "elevation": 151.2, "source": "osm", "_tags": {"ele": "151.2", "name": "M. Kanaškura", "natural": "peak"}}, {"name": "V. Kanaškura", "latitude": 45.0949159, "longitude": 13.7166664, "elevation": 175.4, "source": "osm", "_tags": {"ele": "175.4", "name": "V. Kanaškura", "natural": "peak"}}, {"name": "Velebić", "latitude": 45.1017756, "longitude": 13.7184375, "elevation": 182.1, "source": "osm", "_tags": {"ele": "182.1", "name": "Velebić", "natural": "peak"}}, {"name": "Šimetov vrh", "latitude": 45.0911154, "longitude": 13.7236451, "elevation": 162.0, "source": "osm", "_tags": {"ele": "162", "name": "Šimetov vrh", "natural": "peak"}}, {"name": "Busuja", "latitude": 45.1080935, "longitude": 13.7312591, "elevation": 168.0, "source": "osm", "_tags": {"ele": "168", "name": "Busuja", "natural": "peak"}}, {"name": "Mukliz", "latitude": 45.1038638, "longitude": 13.7341245, "elevation": 193.5, "source": "osm", "_tags": {"ele": "193.5", "name": "Mukliz", "natural": "peak"}}, {"name": "Muvica", "latitude": 45.0957758, "longitude": 13.738726, "elevation": 176.8, "source": "osm", "_tags": {"ele": "176.8", "name": "Muvica", "natural": "peak"}}, {"name": "Mali Karpanj", "latitude": 45.0867443, "longitude": 13.7403435, "elevation": 179.4, "source": "osm", "_tags": {"ele": "179.4", "name": "Mali Karpanj", "natural": "peak"}}, {"name": "Laštre", "latitude": 45.0849978, "longitude": 13.7129609, "elevation": 137.0, "source": "osm", "_tags": {"ele": "137", "name": "Laštre", "name:it": "Monte delle Lastre", "natural": "peak"}}, {"name": "Muja", "latitude": 45.0570989, "longitude": 13.6816387, "elevation": 46.7, "source": "osm", "_tags": {"ele": "46.7", "name": "Muja", "natural": "peak"}}, {"name": "Burla", "latitude": 45.0437521, "longitude": 13.6874525, "elevation": 35.1, "source": "osm", "_tags": {"ele": "35.1", "name": "Burla", "natural": "peak"}}, {"name": "Paradiž", "latitude": 45.0465534, "longitude": 13.6900323, "elevation": 38.0, "source": "osm", "_tags": {"ele": "38", "name": "Paradiž", "natural": "peak"}}, {"name": "Gustinja", "latitude": 45.0252891, "longitude": 13.691696, "elevation": 30.2, "source": "osm", "_tags": {"ele": "30.2", "name": "Gustinja", "natural": "peak"}}, {"name": "Monbrodo", "latitude": 45.0346924, "longitude": 13.6923367, "elevation": 30.6, "source": "osm", "_tags": {"ele": "30.6", "name": "Monbrodo", "natural": "peak"}}, {"name": "Monkodonja", "latitude": 45.0705911, "longitude": 13.6981671, "elevation": 81.2, "source": "osm", "_tags": {"ele": "81.2", "name": "Monkodonja", "natural": "peak"}}, {"name": "Velika Valtida", "latitude": 45.0728192, "longitude": 13.6867529, "elevation": 84.4, "source": "osm", "_tags": {"ele": "84.4", "name": "Velika Valtida", "name:it": "Valteda Grande", "natural": "peak"}}, {"name": "Mala Valtida", "latitude": 45.0784203, "longitude": 13.6796926, "elevation": 61.0, "source": "osm", "_tags": {"ele": "61", "name": "Mala Valtida", "name:it": "Valteda Piccola", "natural": "peak"}}, {"name": "Milovići", "latitude": 45.161842, "longitude": 13.6939094, "elevation": 146.2, "source": "osm", "_tags": {"ele": "146.2", "name": "Milovići", "natural": "peak"}}, {"name": "Mučerba", "latitude": 45.1560641, "longitude": 13.6433097, "elevation": 114.2, "source": "osm", "_tags": {"ele": "114.2", "name": "Mučerba", "natural": "peak"}}, {"name": "Biškupovi vrhi", "latitude": 45.150321, "longitude": 13.646671, "elevation": 112.7, "source": "osm", "_tags": {"ele": "112.7", "name": "Biškupovi vrhi", "natural": "peak"}}, {"name": "Mukaba", "latitude": 45.1404703, "longitude": 13.6534647, "elevation": 121.6, "source": "osm", "_tags": {"ele": "121.6", "name": "Mukaba", "name:it": "Moncalvo", "natural": "peak", "wikidata": "Q26224755"}}, {"name": "Vrh Moškateje", "latitude": 45.1442893, "longitude": 13.6254976, "elevation": 71.0, "source": "osm", "_tags": {"ele": "71", "name": "Vrh Moškateje", "natural": "peak"}}, {"name": "Forke", "latitude": 45.0388512, "longitude": 13.802744, "elevation": 206.0, "source": "osm", "_tags": {"ele": "206", "name": "Forke", "natural": "peak", "source": "US Defence"}}, {"name": "Vrh Maškarade", "latitude": 45.0230194, "longitude": 13.8199495, "elevation": 175.0, "source": "osm", "_tags": {"ele": "175", "name": "Vrh Maškarade", "natural": "peak", "source": "US Defence"}}, {"name": "", "latitude": 45.0354499, "longitude": 13.8633499, "elevation": 222.0, "source": "osm", "_tags": {"ele": "222", "natural": "peak"}}, {"name": "Sveti Petar", "latitude": 45.0516746, "longitude": 13.8380045, "elevation": 247.0, "source": "osm", "_tags": {"ele": "247", "name": "Sveti Petar", "natural": "peak", "source": "US Defence"}}, {"name": "Duhićko Brdo", "latitude": 45.2468144, "longitude": 13.8242962, "elevation": 385.0, "source": "osm", "_tags": {"ele": "385", "name": "Duhićko Brdo", "natural": "peak", "source": "US Defence"}}, {"name": "Križevica", "latitude": 45.243925, "longitude": 13.845211, "elevation": 384.0, "source": "osm", "_tags": {"ele": "384", "name": "Križevica", "natural": "peak"}}, {"name": "Vela Traga", "latitude": 45.2476218, "longitude": 13.8719864, "elevation": 363.0, "source": "osm", "_tags": {"ele": "363", "name": "Vela Traga", "natural": "peak", "source": "US Defence"}}, {"name": "", "latitude": 45.1921746, "longitude": 13.8588829, "elevation": 352.0, "source": "osm", "_tags": {"ele": "352", "natural": "peak"}}, {"name": "Čambarela", "latitude": 45.2148119, "longitude": 13.8177641, "elevation": 349.0, "source": "osm", "_tags": {"ele": "349", "name": "Čambarela", "natural": "peak"}}, {"name": "Jelovski Brig", "latitude": 45.1944225, "longitude": 13.8122574, "elevation": 347.0, "source": "osm", "_tags": {"ele": "347", "name": "Jelovski Brig", "natural": "peak", "source": "US Defence"}}, {"name": "Križ", "latitude": 45.161874, "longitude": 13.8257333, "elevation": 325.0, "source": "osm", "_tags": {"ele": "325", "name": "Križ", "natural": "peak", "source": "US Defence"}}, {"name": "Orljak", "latitude": 45.1724529, "longitude": 13.8054818, "elevation": 303.0, "source": "osm", "_tags": {"ele": "303", "name": "Orljak", "natural": "peak", "source": "US Defence"}}, {"name": "Stari Grad", "latitude": 45.0817132, "longitude": 13.807667, "elevation": 233.0, "source": "osm", "_tags": {"ele": "233", "name": "Stari Grad", "natural": "peak", "source": "US Defence"}}, {"name": "", "latitude": 45.1491372, "longitude": 13.8748789, "elevation": 356.0, "source": "osm", "_tags": {"ele": "356", "natural": "peak", "source": "US Defence"}}, {"name": "", "latitude": 44.9744503, "longitude": 13.8672661, "elevation": 166.0, "source": "osm", "_tags": {"ele": "166", "natural": "peak", "source": "US Defence"}}, {"name": "", "latitude": 44.9970642, "longitude": 13.8444751, "elevation": 182.0, "source": "osm", "_tags": {"ele": "182", "natural": "peak", "source": "US Defence"}}, {"name": "Kaštelir", "latitude": 44.8978708, "longitude": 13.8283305, "elevation": 45.0, "source": "osm", "_tags": {"ele": "45", "name": "Kaštelir", "name:it": "Castellier", "natural": "peak", "source": "U.S. Defense"}}, {"name": "Glogovac", "latitude": 45.2679793, "longitude": 13.8061205, "elevation": 379.0, "source": "osm", "_tags": {"ele": "379", "name": "Glogovac", "natural": "peak"}}, {"name": "Mali Sveti Anđel", "latitude": 45.2132271, "longitude": 13.6278687, "elevation": null, "source": "osm", "_tags": {"historic": "ruins", "name": "Mali Sveti Anđel", "natural": "peak"}}, {"name": "Mordele", "latitude": 45.2146975, "longitude": 13.6287434, "elevation": null, "source": "osm", "_tags": {"historic": "ruins", "name": "Mordele", "natural": "peak"}}, {"name": "Sveti Anđel", "latitude": 45.2109025, "longitude": 13.6274513, "elevation": 110.0, "source": "osm", "_tags": {"ele": "110", "historic": "ruins", "name": "Sveti Anđel", "name:it": "S. Angelo", "natural": "peak"}}, {"name": "Rapavel", "latitude": 45.2597071, "longitude": 13.7760001, "elevation": 310.0, "source": "osm", "_tags": {"ele": "310", "fixme": "peak?", "name": "Rapavel", "natural": "peak"}}, {"name": "Anžići", "latitude": 45.2567138, "longitude": 13.7735772, "elevation": 300.0, "source": "osm", "_tags": {"ele": "300", "fixme": "peak?", "name": "Anžići", "natural": "peak"}}, {"name": "Sveti Toma", "latitude": 45.3344868, "longitude": 13.7628134, "elevation": 300.0, "source": "osm", "_tags": {"ele": "300", "name": "Sveti Toma", "name:it": "S. Tomà", "natural": "peak", "wikidata": "Q25286839"}}, {"name": "Grič", "latitude": 45.3178442, "longitude": 13.7596297, "elevation": 345.0, "source": "osm", "_tags": {"ele": "345", "name": "Grič", "name:en": "Antennas", "name:it": "S. Lorenzo", "natural": "peak"}}, {"name": "Picugi III", "latitude": 45.1943702, "longitude": 13.6510884, "elevation": 110.0, "source": "osm", "_tags": {"ele": "110", "name": "Picugi III", "name:hr": "Picugi III", "natural": "peak"}}, {"name": "Picugi II", "latitude": 45.1976283, "longitude": 13.6488818, "elevation": 119.0, "source": "osm", "_tags": {"ele": "119", "name": "Picugi II", "name:hr": "Picugi II", "natural": "peak"}}, {"name": "Picugi I", "latitude": 45.1996521, "longitude": 13.6463599, "elevation": 110.0, "source": "osm", "_tags": {"ele": "110", "name": "Picugi I", "name:hr": "Picugi I", "natural": "peak"}}, {"name": "Montaur", "latitude": 45.2506709, "longitude": 13.7270182, "elevation": 274.0, "source": "osm", "_tags": {"ele": "274", "name": "Montaur", "name:it": "Montauro", "natural": "peak"}}, {"name": "Parentin", "latitude": 45.1254747, "longitude": 13.8085, "elevation": null, "source": "osm", "_tags": {"name": "Parentin", "natural": "peak"}}, {"name": "Montižansko brdo", "latitude": 45.1821508, "longitude": 13.6815713, "elevation": 150.0, "source": "osm", "_tags": {"ele": "150", "name": "Montižansko brdo", "natural": "peak"}}, {"name": "Maklavun", "latitude": 45.1084737, "longitude": 13.7528357, "elevation": null, "source": "osm", "_tags": {"name": "Maklavun", "natural": "peak"}}, {"name": "Sveti Martin", "latitude": 45.1245873, "longitude": 13.7404836, "elevation": 230.0, "source": "osm", "_tags": {"ele": "230", "name": "Sveti Martin", "name:it": "S. Martino", "natural": "peak"}}, {"name": "Punčan", "latitude": 45.2277978, "longitude": 13.7319094, "elevation": 246.0, "source": "osm", "_tags": {"ele": "246", "name": "Punčan", "natural": "peak"}}, {"name": "Gradina", "latitude": 44.9121559, "longitude": 13.7711604, "elevation": 32.7, "source": "osm", "_tags": {"ele": "32.7", "name": "Gradina", "name:it": "Castellier", "natural": "peak"}}, {"name": "Saluga", "latitude": 44.916213, "longitude": 13.7739476, "elevation": 26.0, "source": "osm", "_tags": {"ele": "26", "name": "Saluga", "natural": "peak", "old_name": "Saluga"}}, {"name": "Mrtvi vrh", "latitude": 44.9140879, "longitude": 13.7775149, "elevation": 26.0, "source": "osm", "_tags": {"ele": "26", "name": "Mrtvi vrh", "natural": "peak", "old_name:it": "Monte Maribon"}}, {"name": "Vrh Kosir", "latitude": 44.9056217, "longitude": 13.7784717, "elevation": 30.0, "source": "osm", "_tags": {"ele": "30", "name": "Vrh Kosir", "natural": "peak", "old_name:it": "Rancon"}}, {"name": "Monmajor", "latitude": 45.125888, "longitude": 13.6336359, "elevation": null, "source": "osm", "_tags": {"name": "Monmajor", "name:it": "Monmaggiore", "natural": "peak"}}, {"name": "Varda", "latitude": 45.0620865, "longitude": 13.7779884, "elevation": 171.6, "source": "osm", "_tags": {"ele": "171.6", "name": "Varda", "natural": "peak"}}, {"name": "Rajkov vrh", "latitude": 45.2439912, "longitude": 13.7975728, "elevation": 350.0, "source": "osm", "_tags": {"alt_name": "Brčićev vrh", "ele": "350", "name": "Rajkov vrh", "natural": "peak"}}, {"name": "Montenez", "latitude": 45.2811695, "longitude": 13.7121445, "elevation": 237.0, "source": "osm", "_tags": {"ele": "237", "name": "Montenez", "natural": "peak"}}, {"name": "Krč", "latitude": 45.2957205, "longitude": 13.8031625, "elevation": 366.0, "source": "osm", "_tags": {"ele": "366", "name": "Krč", "natural": "peak"}}, {"name": "Monkaštel", "latitude": 45.2713538, "longitude": 13.6062633, "elevation": 50.0, "source": "osm", "_tags": {"ele": "50", "name": "Monkaštel", "name:it": "Moncastell", "natural": "peak"}}, {"name": "Monperlon", "latitude": 45.2818907, "longitude": 13.6410047, "elevation": 84.0, "source": "osm", "_tags": {"ele": "84", "name": "Monperlon", "natural": "peak", "wikidata": "Q25291581"}}, {"name": "", "latitude": 45.226919, "longitude": 13.7629921, "elevation": 284.0, "source": "osm", "_tags": {"ele": "284", "natural": "peak"}}, {"name": "Bašićkin vrh", "latitude": 45.2322717, "longitude": 13.7542647, "elevation": 273.0, "source": "osm", "_tags": {"alt_name": "Seni", "ele": "273", "name": "Bašićkin vrh", "natural": "peak"}}, {"name": "Martezoll vrh", "latitude": 45.1714672, "longitude": 13.6522615, "elevation": 72.0, "source": "osm", "_tags": {"ele": "72", "name": "Martezoll vrh", "natural": "peak"}}, {"name": "Bumberić", "latitude": 45.1471837, "longitude": 13.7401045, "elevation": 182.0, "source": "osm", "_tags": {"ele": "182", "name": "Bumberić", "natural": "peak"}}, {"name": "Monsporco", "latitude": 45.0547323, "longitude": 13.7053476, "elevation": 83.0, "source": "osm", "_tags": {"ele": "83", "name": "Monsporco", "natural": "peak"}}, {"name": "Kavruja", "latitude": 45.386261, "longitude": 13.6939121, "elevation": 302.0, "source": "osm", "_tags": {"ele": "302", "name": "Kavruja", "natural": "peak"}}, {"name": "Sobenjak", "latitude": 45.3218275, "longitude": 13.7627499, "elevation": 324.0, "source": "osm", "_tags": {"ele": "324", "name": "Sobenjak", "natural": "peak"}}, {"name": "Pižanovac", "latitude": 45.0720968, "longitude": 13.7623292, "elevation": 190.9, "source": "osm", "_tags": {"ele": "190.9", "name": "Pižanovac", "natural": "peak"}}, {"name": "Puler", "latitude": 45.0682742, "longitude": 13.7775889, "elevation": 178.0, "source": "osm", "_tags": {"ele": "178", "name": "Puler", "natural": "peak"}}, {"name": "Monkaštel", "latitude": 45.0608085, "longitude": 13.8006971, "elevation": 232.4, "source": "osm", "_tags": {"ele": "232.4", "name": "Monkaštel", "natural": "peak"}}, {"name": "Grabrovac", "latitude": 45.0493951, "longitude": 13.8092791, "elevation": 201.2, "source": "osm", "_tags": {"ele": "201.2", "name": "Grabrovac", "natural": "peak"}}, {"name": "Mažin", "latitude": 45.0307664, "longitude": 13.8073013, "elevation": 175.3, "source": "osm", "_tags": {"ele": "175.3", "name": "Mažin", "natural": "peak"}}, {"name": "Mon Grego", "latitude": 45.0185607, "longitude": 13.7181726, "elevation": 47.0, "source": "osm", "_tags": {"ele": "47", "name": "Mon Grego", "natural": "peak"}}, {"name": "M. Majan", "latitude": 45.0227295, "longitude": 13.72704, "elevation": 73.6, "source": "osm", "_tags": {"ele": "73.6", "name": "M. Majan", "natural": "peak"}}, {"name": "V. Majan", "latitude": 45.0234264, "longitude": 13.7232935, "elevation": 76.7, "source": "osm", "_tags": {"ele": "76.7", "name": "V. Majan", "natural": "peak"}}, {"name": "Vrh Dorine", "latitude": 45.0533572, "longitude": 13.7550369, "elevation": 146.6, "source": "osm", "_tags": {"ele": "146.6", "name": "Vrh Dorine", "natural": "peak"}}, {"name": "", "latitude": 45.05056, "longitude": 13.764185, "elevation": 150.0, "source": "osm", "_tags": {"ele": "150", "natural": "peak"}}, {"name": "Mukle", "latitude": 45.3361456, "longitude": 13.6790405, "elevation": 170.6, "source": "osm", "_tags": {"description": "Mukle", "ele": "170.6", "name": "Mukle", "natural": "peak", "wikidata": "Q25291605"}}, {"name": "Vele Mukle", "latitude": 45.3309193, "longitude": 13.6692064, "elevation": 170.6, "source": "osm", "_tags": {"description": "Vele Mukle", "ele": "170.6", "name": "Vele Mukle", "natural": "peak"}}, {"name": "", "latitude": 45.3997711, "longitude": 13.8699908, "elevation": 474.0, "source": "osm", "_tags": {"ele": "474", "natural": "peak"}}, {"name": "Veliki Repavac", "latitude": 45.4174296, "longitude": 13.847084, "elevation": 492.0, "source": "osm", "_tags": {"ele": "492", "name": "Veliki Repavac", "natural": "peak", "wikidata": "Q25292086", "wikipedia": "sv:Veli Repavac"}}, {"name": "Čerešnjevac", "latitude": 45.4227732, "longitude": 13.825391, "elevation": 457.0, "source": "osm", "_tags": {"ele": "457", "name": "Čerešnjevac", "natural": "peak"}}, {"name": "", "latitude": 45.4178256, "longitude": 13.8569231, "elevation": 451.0, "source": "osm", "_tags": {"ele": "451", "natural": "peak"}}, {"name": "Pećoc", "latitude": 45.405127, "longitude": 13.865592, "elevation": 481.0, "source": "osm", "_tags": {"ele": "481", "name": "Pećoc", "natural": "peak"}}, {"name": "Huntalov vrh", "latitude": 45.3823417, "longitude": 13.6787063, "elevation": 234.0, "source": "osm", "_tags": {"ele": "234", "name": "Huntalov vrh", "natural": "peak"}}, {"name": "", "latitude": 44.9254355, "longitude": 13.7381549, "elevation": 17.0, "source": "osm", "_tags": {"ele": "17", "natural": "peak"}}, {"name": "Vrbanj", "latitude": 44.9229135, "longitude": 13.745472, "elevation": 23.0, "source": "osm", "_tags": {"ele": "23", "name": "Vrbanj", "natural": "peak"}}, {"name": "Vela Straža", "latitude": 44.9137284, "longitude": 13.7621017, "elevation": 55.0, "source": "osm", "_tags": {"ele": "55", "name": "Vela Straža", "natural": "peak"}}, {"name": "Javornik", "latitude": 44.9065808, "longitude": 13.7688853, "elevation": 32.0, "source": "osm", "_tags": {"ele": "32", "name": "Javornik", "natural": "peak"}}, {"name": "", "latitude": 44.9084097, "longitude": 13.7685873, "elevation": 28.0, "source": "osm", "_tags": {"ele": "28", "natural": "peak"}}, {"name": "Borik", "latitude": 44.9057501, "longitude": 13.7499459, "elevation": 27.0, "source": "osm", "_tags": {"ele": "27", "name": "Borik", "natural": "peak"}}, {"name": "", "latitude": 44.9012476, "longitude": 13.7396892, "elevation": 12.0, "source": "osm", "_tags": {"ele": "12", "natural": "peak"}}, {"name": "", "latitude": 44.9132003, "longitude": 13.7285955, "elevation": 9.0, "source": "osm", "_tags": {"ele": "9", "natural": "peak"}}, {"name": "", "latitude": 44.9146819, "longitude": 13.7166973, "elevation": 8.0, "source": "osm", "_tags": {"ele": "8", "natural": "peak"}}, {"name": "", "latitude": 44.9189973, "longitude": 13.7278982, "elevation": 5.0, "source": "osm", "_tags": {"ele": "5", "natural": "peak"}}, {"name": "Cer", "latitude": 44.9308628, "longitude": 13.7433048, "elevation": 13.0, "source": "osm", "_tags": {"ele": "13", "name": "Cer", "natural": "peak"}}, {"name": "", "latitude": 44.9400223, "longitude": 13.7353654, "elevation": 19.0, "source": "osm", "_tags": {"ele": "19", "natural": "peak"}}, {"name": "", "latitude": 44.9385946, "longitude": 13.7417169, "elevation": 30.0, "source": "osm", "_tags": {"ele": "30", "natural": "peak"}}, {"name": "", "latitude": 44.9307109, "longitude": 13.74824, "elevation": 9.0, "source": "osm", "_tags": {"ele": "9", "natural": "peak"}}, {"name": "", "latitude": 44.9336275, "longitude": 13.7227054, "elevation": 8.0, "source": "osm", "_tags": {"ele": "8", "natural": "peak"}}, {"name": "", "latitude": 44.93823, "longitude": 13.7184568, "elevation": 15.0, "source": "osm", "_tags": {"ele": "15", "natural": "peak"}}, {"name": "", "latitude": 44.9375769, "longitude": 13.7236495, "elevation": 7.0, "source": "osm", "_tags": {"ele": "7", "natural": "peak"}}, {"name": "", "latitude": 44.9438953, "longitude": 13.72189, "elevation": 6.0, "source": "osm", "_tags": {"ele": "6", "natural": "peak"}}, {"name": "", "latitude": 44.912915, "longitude": 13.7481881, "elevation": 5.0, "source": "osm", "_tags": {"ele": "5", "natural": "peak"}}, {"name": "", "latitude": 44.8919386, "longitude": 13.7975184, "elevation": 45.0, "source": "osm", "_tags": {"ele": "45", "natural": "peak"}}, {"name": "", "latitude": 44.8995844, "longitude": 13.7888709, "elevation": 18.0, "source": "osm", "_tags": {"ele": "18", "natural": "peak"}}, {"name": "", "latitude": 44.9012107, "longitude": 13.797733, "elevation": 8.0, "source": "osm", "_tags": {"ele": "8", "natural": "peak"}}, {"name": "Mužilj", "latitude": 44.8635961, "longitude": 13.8001362, "elevation": 80.0, "source": "osm", "_tags": {"ele": "80", "name": "Mužilj", "natural": "peak"}}, {"name": "", "latitude": 44.8715194, "longitude": 13.8253275, "elevation": 24.0, "source": "osm", "_tags": {"ele": "24", "natural": "peak"}}, {"name": "", "latitude": 44.8554815, "longitude": 13.8135044, "elevation": 27.0, "source": "osm", "_tags": {"ele": "27", "natural": "peak"}}, {"name": "Brdina", "latitude": 44.8866152, "longitude": 13.8101682, "elevation": 77.0, "source": "osm", "_tags": {"ele": "77", "name": "Brdina", "natural": "peak"}}, {"name": "Monsego", "latitude": 45.0685363, "longitude": 13.7086122, "elevation": 98.0, "source": "osm", "_tags": {"ele": "98", "name": "Monsego", "natural": "peak"}}, {"name": "", "latitude": 44.8819665, "longitude": 13.8555813, "elevation": 50.0, "source": "osm", "_tags": {"ele": "50", "natural": "peak"}}, {"name": "", "latitude": 44.8788648, "longitude": 13.8515795, "elevation": 46.0, "source": "osm", "_tags": {"ele": "46", "natural": "peak"}}, {"name": "", "latitude": 44.8404482, "longitude": 13.8353843, "elevation": 31.0, "source": "osm", "_tags": {"ele": "31", "natural": "peak"}}, {"name": "Zelenac", "latitude": 45.424938, "longitude": 13.8083626, "elevation": 457.0, "source": "osm", "_tags": {"ele": "457", "name": "Zelenac", "natural": "peak"}}, {"name": "", "latitude": 45.419309, "longitude": 13.8665611, "elevation": 437.0, "source": "osm", "_tags": {"ele": "437", "natural": "peak"}}, {"name": "Sveti Nikola", "latitude": 45.4289074, "longitude": 13.7194189, "elevation": 312.0, "source": "osm", "_tags": {"ele": "312", "name": "Sveti Nikola", "natural": "peak"}}, {"name": "Krog", "latitude": 45.415944, "longitude": 13.7065818, "elevation": 306.0, "source": "osm", "_tags": {"ele": "306", "name": "Krog", "natural": "peak"}}, {"name": "Vršić", "latitude": 45.4260744, "longitude": 13.7284019, "elevation": 303.0, "source": "osm", "_tags": {"ele": "303", "name": "Vršić", "natural": "peak"}}, {"name": "", "latitude": 45.4097022, "longitude": 13.7259933, "elevation": 302.0, "source": "osm", "_tags": {"ele": "302", "natural": "peak"}}, {"name": "Poletiole", "latitude": 45.3897188, "longitude": 13.8688206, "elevation": 446.0, "source": "osm", "_tags": {"ele": "446", "name": "Poletiole", "natural": "peak"}}, {"name": "Stara Šterna", "latitude": 45.4235448, "longitude": 13.7909733, "elevation": 398.0, "source": "osm", "_tags": {"ele": "398", "name": "Stara Šterna", "natural": "peak"}}, {"name": "Galešova", "latitude": 45.4242527, "longitude": 13.796445, "elevation": 437.0, "source": "osm", "_tags": {"ele": "437", "name": "Galešova", "natural": "peak"}}, {"name": "", "latitude": 45.4206231, "longitude": 13.7892031, "elevation": 386.0, "source": "osm", "_tags": {"ele": "386", "natural": "peak"}}, {"name": "Slopji vrh", "latitude": 45.4234677, "longitude": 13.7750276, "elevation": 399.0, "source": "osm", "_tags": {"ele": "399", "name": "Slopji vrh", "natural": "peak"}}, {"name": "Srednje brdo", "latitude": 45.4271606, "longitude": 13.8797424, "elevation": 402.0, "source": "osm", "_tags": {"ele": "402", "name": "Srednje brdo", "natural": "peak"}}, {"name": "", "latitude": 45.4097791, "longitude": 13.8643813, "elevation": 438.0, "source": "osm", "_tags": {"ele": "438", "natural": "peak"}}, {"name": "", "latitude": 45.4219608, "longitude": 13.8750726, "elevation": 402.0, "source": "osm", "_tags": {"ele": "402", "natural": "peak"}}, {"name": "Slivice", "latitude": 45.4146408, "longitude": 13.8812041, "elevation": 452.0, "source": "osm", "_tags": {"ele": "452", "name": "Slivice", "natural": "peak"}}, {"name": "Glavica", "latitude": 45.4121404, "longitude": 13.8776368, "elevation": 462.0, "source": "osm", "_tags": {"ele": "462", "name": "Glavica", "natural": "peak"}}, {"name": "", "latitude": 45.4280614, "longitude": 13.8642691, "elevation": 454.0, "source": "osm", "_tags": {"ele": "454", "natural": "peak"}}, {"name": "", "latitude": 45.4176829, "longitude": 13.8138536, "elevation": 416.0, "source": "osm", "_tags": {"ele": "416", "natural": "peak"}}, {"name": "", "latitude": 45.4099534, "longitude": 13.8424631, "elevation": 459.0, "source": "osm", "_tags": {"ele": "459", "natural": "peak"}}, {"name": "Korona", "latitude": 45.1821527, "longitude": 13.8086845, "elevation": 331.5, "source": "osm", "_tags": {"ele": "331.5", "name": "Korona", "name:hr": "Koruna", "natural": "peak"}}, {"name": "Koren", "latitude": 45.1256526, "longitude": 13.7185648, "elevation": 154.0, "source": "osm", "_tags": {"ele": "154", "name": "Koren", "natural": "peak"}}, {"name": "", "latitude": 45.128271, "longitude": 13.8185234, "elevation": 123.0, "source": "osm", "_tags": {"ele": "123", "natural": "peak"}}, {"name": "", "latitude": 45.2945472, "longitude": 13.8800609, "elevation": 428.0, "source": "osm", "_tags": {"ele": "428", "natural": "peak"}}, {"name": "Kurbino brdo", "latitude": 45.2616553, "longitude": 13.8175118, "elevation": 369.0, "source": "osm", "_tags": {"ele": "369", "name": "Kurbino brdo", "natural": "peak"}}, {"name": "Brdo", "latitude": 45.2901422, "longitude": 13.8736545, "elevation": 432.0, "source": "osm", "_tags": {"ele": "432", "name": "Brdo", "natural": "peak"}}, {"name": "", "latitude": 45.3873358, "longitude": 13.714577, "elevation": 319.0, "source": "osm", "_tags": {"ele": "319", "natural": "peak"}}, {"name": "Čuket", "latitude": 45.3834919, "longitude": 13.7037631, "elevation": 290.0, "source": "osm", "_tags": {"ele": "290", "name": "Čuket", "natural": "peak"}}, {"name": "", "latitude": 45.3835775, "longitude": 13.6993594, "elevation": 265.0, "source": "osm", "_tags": {"ele": "265", "natural": "peak"}}, {"name": "Vrh Borik", "latitude": 44.9038095, "longitude": 13.754518, "elevation": 28.0, "source": "osm", "_tags": {"ele": "28", "name": "Vrh Borik", "natural": "peak"}}, {"name": "Starola", "latitude": 45.4136687, "longitude": 13.6371602, "elevation": 165.0, "source": "osm", "_tags": {"ele": "165", "name": "Starola", "natural": "peak"}}, {"name": "Pelegrin", "latitude": 45.4101231, "longitude": 13.6442355, "elevation": 185.0, "source": "osm", "_tags": {"ele": "185", "name": "Pelegrin", "natural": "peak"}}, {"name": "Cupiga", "latitude": 45.4151338, "longitude": 13.6303563, "elevation": 134.0, "source": "osm", "_tags": {"ele": "134", "name": "Cupiga", "natural": "peak"}}, {"name": "Mažire", "latitude": 45.2048389, "longitude": 13.8245211, "elevation": 338.8, "source": "osm", "_tags": {"ele": "338.8", "name": "Mažire", "natural": "peak"}}, {"name": "Kras", "latitude": 45.1972614, "longitude": 13.7975022, "elevation": 326.3, "source": "osm", "_tags": {"ele": "326.3", "name": "Kras", "natural": "peak"}}, {"name": "Rušnjak", "latitude": 45.1992243, "longitude": 13.7770951, "elevation": 296.5, "source": "osm", "_tags": {"ele": "296.5", "name": "Rušnjak", "natural": "peak"}}, {"name": "Lakovićki brig", "latitude": 45.1793675, "longitude": 13.7628946, "elevation": 241.0, "source": "osm", "_tags": {"ele": "241", "name": "Lakovićki brig", "natural": "peak"}}, {"name": "", "latitude": 45.1794623, "longitude": 13.7808155, "elevation": 254.4, "source": "osm", "_tags": {"ele": "254.4", "natural": "peak"}}, {"name": "Sv. Martin", "latitude": 45.2283123, "longitude": 13.818185, "elevation": 354.3, "source": "osm", "_tags": {"ele": "354.3", "name": "Sv. Martin", "natural": "peak"}}, {"name": "Krčan", "latitude": 45.2337426, "longitude": 13.8847083, "elevation": 399.0, "source": "osm", "_tags": {"ele": "399", "name": "Krčan", "natural": "peak"}}, {"name": "", "latitude": 45.228514, "longitude": 13.8710827, "elevation": 376.0, "source": "osm", "_tags": {"ele": "376", "natural": "peak"}}, {"name": "", "latitude": 45.2229619, "longitude": 13.8625396, "elevation": 374.5, "source": "osm", "_tags": {"ele": "374.5", "natural": "peak"}}, {"name": "Brda", "latitude": 45.2331184, "longitude": 13.8082246, "elevation": 350.2, "source": "osm", "_tags": {"alt_name": "Pinčanovo brdo", "ele": "350.2", "name": "Brda", "natural": "peak"}}, {"name": "Pajićka glavica", "latitude": 45.2477263, "longitude": 13.7884166, "elevation": 337.6, "source": "osm", "_tags": {"ele": "337.6", "name": "Pajićka glavica", "natural": "peak"}}, {"name": "Turkovac", "latitude": 45.2318114, "longitude": 13.7821411, "elevation": 317.0, "source": "osm", "_tags": {"ele": "317", "name": "Turkovac", "natural": "peak"}}, {"name": "Smoličeva glavica", "latitude": 45.2617217, "longitude": 13.7839488, "elevation": 337.8, "source": "osm", "_tags": {"ele": "337.8", "name": "Smoličeva glavica", "natural": "peak"}}, {"name": "", "latitude": 45.2846384, "longitude": 13.7889294, "elevation": 351.4, "source": "osm", "_tags": {"ele": "351.4", "natural": "peak"}}, {"name": "Kamenjača", "latitude": 45.131868, "longitude": 13.7146849, "elevation": 134.6, "source": "osm", "_tags": {"ele": "134.6", "name": "Kamenjača", "natural": "peak"}}, {"name": "Kozarica", "latitude": 45.1385901, "longitude": 13.7202982, "elevation": 124.1, "source": "osm", "_tags": {"ele": "124.1", "name": "Kozarica", "natural": "peak"}}, {"name": "Glavica od Lima", "latitude": 45.131079, "longitude": 13.7265584, "elevation": 133.2, "source": "osm", "_tags": {"ele": "133.2", "name": "Glavica od Lima", "natural": "peak"}}, {"name": "Obruči", "latitude": 45.1167019, "longitude": 13.7750339, "elevation": 183.8, "source": "osm", "_tags": {"ele": "183.8", "name": "Obruči", "natural": "peak"}}, {"name": "Šublentica", "latitude": 45.3215448, "longitude": 13.8210177, "elevation": 352.0, "source": "osm", "_tags": {"ele": "352", "name": "Šublentica", "natural": "peak"}}, {"name": "Gradina", "latitude": 44.8465902, "longitude": 13.8557895, "elevation": 50.0, "source": "osm", "_tags": {"ele": "50", "name": "Gradina", "natural": "peak"}}, {"name": "Kaštelir", "latitude": 44.8113162, "longitude": 13.8824994, "elevation": 68.0, "source": "osm", "_tags": {"ele": "68", "name": "Kaštelir", "natural": "peak"}}, {"name": "Debeli vrh", "latitude": 44.8319012, "longitude": 13.8650946, "elevation": 42.0, "source": "osm", "_tags": {"ele": "42", "name": "Debeli vrh", "natural": "peak"}}, {"name": "Bumbište", "latitude": 44.8172021, "longitude": 13.8564867, "elevation": 42.0, "source": "osm", "_tags": {"ele": "42", "name": "Bumbište", "natural": "peak"}}, {"name": "Vernal", "latitude": 44.8933752, "longitude": 13.8797604, "elevation": 85.0, "source": "osm", "_tags": {"ele": "85", "name": "Vernal", "natural": "peak"}}, {"name": "Karbuner", "latitude": 44.8826296, "longitude": 13.8242541, "elevation": 34.0, "source": "osm", "_tags": {"ele": "34", "name": "Karbuner", "natural": "peak"}}, {"name": "Špeh", "latitude": 44.8925476, "longitude": 13.8091517, "elevation": 44.0, "source": "osm", "_tags": {"ele": "44", "name": "Špeh", "natural": "peak"}}, {"name": "Selina", "latitude": 44.8330496, "longitude": 13.8473152, "elevation": 35.0, "source": "osm", "_tags": {"ele": "35", "name": "Selina", "natural": "peak"}}, {"name": "Piškera", "latitude": 44.8270963, "longitude": 13.8487525, "elevation": 31.0, "source": "osm", "_tags": {"ele": "31", "name": "Piškera", "natural": "peak"}}, {"name": "Vrh", "latitude": 45.3962384, "longitude": 13.7763746, "elevation": 297.0, "source": "osm", "_tags": {"ele": "297", "name": "Vrh", "natural": "peak"}}, {"name": "Kapularov vrh", "latitude": 45.2966817, "longitude": 13.7271773, "elevation": 286.0, "source": "osm", "_tags": {"ele": "286", "name": "Kapularov vrh", "natural": "peak"}}, {"name": "Grabar", "latitude": 45.2842785, "longitude": 13.7074459, "elevation": 218.0, "source": "osm", "_tags": {"ele": "218", "name": "Grabar", "natural": "peak"}}, {"name": "Sveta Jelena", "latitude": 45.3717142, "longitude": 13.8298101, "elevation": 421.0, "source": "osm", "_tags": {"ele": "421", "name": "Sveta Jelena", "natural": "peak"}}, {"name": "Meja", "latitude": 45.406835, "longitude": 13.820071, "elevation": 398.0, "source": "osm", "_tags": {"ele": "398", "name": "Meja", "natural": "peak"}}, {"name": "Vrh", "latitude": 45.4312864, "longitude": 13.7897729, "elevation": 426.0, "source": "osm", "_tags": {"ele": "426", "name": "Vrh", "natural": "peak"}}, {"name": "Čebronjak", "latitude": 45.3668364, "longitude": 13.8377277, "elevation": 320.0, "source": "osm", "_tags": {"ele": "320", "name": "Čebronjak", "natural": "peak"}}, {"name": "Glavica", "latitude": 45.4186733, "longitude": 13.8040078, "elevation": 406.0, "source": "osm", "_tags": {"ele": "406", "name": "Glavica", "natural": "peak"}}, {"name": "Šansar", "latitude": 45.1900328, "longitude": 13.6410696, "elevation": 119.0, "source": "osm", "_tags": {"ele": "119", "name": "Šansar", "natural": "peak"}}, {"name": "Vrh Valdecin", "latitude": 45.1989436, "longitude": 13.6671603, "elevation": 102.0, "source": "osm", "_tags": {"ele": "102", "name": "Vrh Valdecin", "natural": "peak"}}, {"name": "Ćušov vrh", "latitude": 45.1811421, "longitude": 13.6671976, "elevation": 122.0, "source": "osm", "_tags": {"ele": "122", "name": "Ćušov vrh", "natural": "peak"}}, {"name": "Blagarica", "latitude": 45.1802754, "longitude": 13.670689, "elevation": 121.0, "source": "osm", "_tags": {"ele": "121", "name": "Blagarica", "natural": "peak"}}, {"name": "Malovar", "latitude": 45.1950464, "longitude": 13.6760365, "elevation": 128.0, "source": "osm", "_tags": {"ele": "128", "name": "Malovar", "natural": "peak"}}, {"name": "Draća", "latitude": 45.1951616, "longitude": 13.657092, "elevation": 82.0, "source": "osm", "_tags": {"ele": "82", "name": "Draća", "natural": "peak"}}, {"name": "Mučuban", "latitude": 45.1116065, "longitude": 13.6505815, "elevation": 93.0, "source": "osm", "_tags": {"ele": "93", "name": "Mučuban", "natural": "peak"}}, {"name": "Velika Šimnja", "latitude": 45.134695, "longitude": 13.6854154, "elevation": 95.0, "source": "osm", "_tags": {"ele": "95", "name": "Velika Šimnja", "natural": "peak"}}, {"name": "Brišak", "latitude": 45.1556362, "longitude": 13.6688139, "elevation": 82.0, "source": "osm", "_tags": {"ele": "82", "name": "Brišak", "natural": "peak"}}, {"name": "Sv. Fuma", "latitude": 45.1193782, "longitude": 13.6183113, "elevation": 22.0, "source": "osm", "_tags": {"ele": "22", "name": "Sv. Fuma", "natural": "peak"}}, {"name": "Veliki Debeljak", "latitude": 45.1599318, "longitude": 13.6735293, "elevation": 119.0, "source": "osm", "_tags": {"ele": "119", "name": "Veliki Debeljak", "natural": "peak"}}, {"name": "Drčev vrh", "latitude": 45.1290633, "longitude": 13.7070705, "elevation": 122.0, "source": "osm", "_tags": {"ele": "122", "name": "Drčev vrh", "natural": "peak"}}, {"name": "Smrikovac", "latitude": 45.0984664, "longitude": 13.6962931, "elevation": 127.0, "source": "osm", "_tags": {"alt_name": "Cecilijin vrh", "ele": "127", "name": "Smrikovac", "natural": "peak"}}, {"name": "Ušnjak", "latitude": 45.146011, "longitude": 13.6832741, "elevation": 112.0, "source": "osm", "_tags": {"ele": "112", "name": "Ušnjak", "natural": "peak"}}, {"name": "Radmanski vrh", "latitude": 45.1684706, "longitude": 13.7128718, "elevation": 177.0, "source": "osm", "_tags": {"ele": "177", "name": "Radmanski vrh", "natural": "peak"}}, {"name": "Karpa", "latitude": 45.116423, "longitude": 13.6717712, "elevation": 106.0, "source": "osm", "_tags": {"ele": "106", "name": "Karpa", "natural": "peak"}}, {"name": "Mon Kornjaj", "latitude": 45.113446, "longitude": 13.6204663, "elevation": 35.0, "source": "osm", "_tags": {"ele": "35", "name": "Mon Kornjaj", "natural": "peak"}}, {"name": "Malin vrh", "latitude": 45.18606, "longitude": 13.7111167, "elevation": 160.0, "source": "osm", "_tags": {"ele": "160", "name": "Malin vrh", "natural": "peak"}}, {"name": "Marićovica", "latitude": 45.1107381, "longitude": 13.7062328, "elevation": 154.0, "source": "osm", "_tags": {"ele": "154", "name": "Marićovica", "natural": "peak"}}, {"name": "Dodin vrh", "latitude": 45.1716435, "longitude": 13.7205822, "elevation": 180.0, "source": "osm", "_tags": {"ele": "180", "name": "Dodin vrh", "natural": "peak"}}, {"name": "Crljenica", "latitude": 45.1302156, "longitude": 13.6292224, "elevation": 63.0, "source": "osm", "_tags": {"ele": "63", "name": "Crljenica", "natural": "peak"}}, {"name": "Vonjavica", "latitude": 45.1585127, "longitude": 13.6684227, "elevation": 94.0, "source": "osm", "_tags": {"ele": "94", "name": "Vonjavica", "natural": "peak"}}, {"name": "Šankarer", "latitude": 45.1264045, "longitude": 13.6501495, "elevation": 108.0, "source": "osm", "_tags": {"ele": "108", "name": "Šankarer", "natural": "peak"}}, {"name": "Mali Debeljak", "latitude": 45.1567335, "longitude": 13.6778825, "elevation": 104.0, "source": "osm", "_tags": {"ele": "104", "name": "Mali Debeljak", "natural": "peak"}}, {"name": "Delićki vrh", "latitude": 45.1718604, "longitude": 13.6811317, "elevation": 118.0, "source": "osm", "_tags": {"ele": "118", "name": "Delićki vrh", "natural": "peak"}}, {"name": "Kaštelir", "latitude": 45.1735779, "longitude": 13.7149535, "elevation": 183.0, "source": "osm", "_tags": {"ele": "183", "name": "Kaštelir", "natural": "peak"}}, {"name": "Marcari", "latitude": 45.3809417, "longitude": 13.6378546, "elevation": 169.0, "source": "osm", "_tags": {"ele": "169", "name": "Marcari", "natural": "peak"}}, {"name": "Kontarini", "latitude": 45.3999285, "longitude": 13.6424348, "elevation": 157.8, "source": "osm", "_tags": {"ele": "157.8", "name": "Kontarini", "natural": "peak"}}, {"name": "Kršin", "latitude": 45.3894413, "longitude": 13.6332638, "elevation": 126.0, "source": "osm", "_tags": {"ele": "126", "name": "Kršin", "natural": "peak"}}, {"name": "Baršut", "latitude": 45.3608909, "longitude": 13.6690076, "elevation": 137.0, "source": "osm", "_tags": {"ele": "137", "name": "Baršut", "natural": "peak"}}, {"name": "Monte Baster", "latitude": 45.4029893, "longitude": 13.6720963, "elevation": 234.0, "source": "osm", "_tags": {"ele": "234", "name": "Monte Baster", "natural": "peak"}}, {"name": "Fraška", "latitude": 45.386783, "longitude": 13.7263962, "elevation": 335.0, "source": "osm", "_tags": {"ele": "335", "name": "Fraška", "natural": "peak"}}, {"name": "Smergo", "latitude": 45.3729935, "longitude": 13.6431862, "elevation": 168.0, "source": "osm", "_tags": {"ele": "168", "name": "Smergo", "natural": "peak"}}, {"name": "Sv. Eufemija", "latitude": 45.4026, "longitude": 13.6589044, "elevation": 187.0, "source": "osm", "_tags": {"ele": "187", "name": "Sv. Eufemija", "natural": "peak"}}, {"name": "Kastanjari", "latitude": 45.3942554, "longitude": 13.6611827, "elevation": 219.0, "source": "osm", "_tags": {"ele": "219", "name": "Kastanjari", "natural": "peak"}}, {"name": "Drače", "latitude": 45.3537131, "longitude": 13.6821568, "elevation": 118.0, "source": "osm", "_tags": {"ele": "118", "name": "Drače", "natural": "peak"}}, {"name": "Kurel", "latitude": 45.3938998, "longitude": 13.6839217, "elevation": 229.0, "source": "osm", "_tags": {"ele": "229", "name": "Kurel", "natural": "peak"}}, {"name": "Saltarija", "latitude": 45.3439284, "longitude": 13.6201659, "elevation": 84.0, "source": "osm", "_tags": {"ele": "84", "name": "Saltarija", "natural": "peak"}}, {"name": "Sv. Križ", "latitude": 45.3769594, "longitude": 13.767433, "elevation": 367.0, "source": "osm", "_tags": {"ele": "367", "name": "Sv. Križ", "natural": "peak"}}, {"name": "Trumba", "latitude": 45.4096824, "longitude": 13.6128475, "elevation": 116.0, "source": "osm", "_tags": {"ele": "116", "name": "Trumba", "natural": "peak"}}, {"name": "Tisarica", "latitude": 45.3739999, "longitude": 13.6586255, "elevation": 165.0, "source": "osm", "_tags": {"ele": "165", "name": "Tisarica", "natural": "peak"}}, {"name": "Zlavaj", "latitude": 45.3890002, "longitude": 13.619401, "elevation": 122.0, "source": "osm", "_tags": {"ele": "122", "name": "Zlavaj", "natural": "peak"}}, {"name": "Sv. Franjo", "latitude": 45.3818196, "longitude": 13.6624326, "elevation": 203.0, "source": "osm", "_tags": {"ele": "203", "name": "Sv. Franjo", "natural": "peak"}}, {"name": "Monaški vrh", "latitude": 45.3686881, "longitude": 13.627115, "elevation": 131.0, "source": "osm", "_tags": {"ele": "131", "name": "Monaški vrh", "natural": "peak"}}, {"name": "Kaštelir", "latitude": 45.4046026, "longitude": 13.7741054, "elevation": 348.0, "source": "osm", "_tags": {"ele": "348", "name": "Kaštelir", "natural": "peak"}}, {"name": "Sv. Jure", "latitude": 45.3776403, "longitude": 13.7592837, "elevation": 384.0, "source": "osm", "_tags": {"ele": "384", "name": "Sv. Jure", "natural": "peak"}}, {"name": "Sv. Jurij", "latitude": 45.3370909, "longitude": 13.6337243, "elevation": 70.0, "source": "osm", "_tags": {"ele": "70", "name": "Sv. Jurij", "natural": "peak"}}, {"name": "Klija", "latitude": 45.3930695, "longitude": 13.7217108, "elevation": 284.0, "source": "osm", "_tags": {"ele": "284", "name": "Klija", "natural": "peak"}}, {"name": "Breg", "latitude": 45.3996602, "longitude": 13.733457, "elevation": 302.0, "source": "osm", "_tags": {"ele": "302", "name": "Breg", "natural": "peak"}}, {"name": "Armanja", "latitude": 45.38192, "longitude": 13.8087808, "elevation": 416.0, "source": "osm", "_tags": {"ele": "416", "name": "Armanja", "natural": "peak"}}, {"name": "Kukuj", "latitude": 45.4095481, "longitude": 13.8458362, "elevation": 459.0, "source": "osm", "_tags": {"ele": "459", "name": "Kukuj", "natural": "peak"}}, {"name": "Silvestar", "latitude": 45.3652862, "longitude": 13.8073611, "elevation": 318.0, "source": "osm", "_tags": {"ele": "318", "name": "Silvestar", "natural": "peak"}}, {"name": "Glavica", "latitude": 45.3586967, "longitude": 13.8825441, "elevation": 295.0, "source": "osm", "_tags": {"ele": "295", "name": "Glavica", "natural": "peak"}}, {"name": "Gradina", "latitude": 45.1202518, "longitude": 13.7319208, "elevation": 206.0, "source": "osm", "_tags": {"ele": "206", "name": "Gradina", "natural": "peak"}}, {"name": "Vandalari", "latitude": 45.1397891, "longitude": 13.6426479, "elevation": 105.0, "source": "osm", "_tags": {"ele": "105", "name": "Vandalari", "natural": "peak"}}, {"name": "Kobilarica", "latitude": 45.1028701, "longitude": 13.7448684, "elevation": 192.0, "source": "osm", "_tags": {"ele": "192", "name": "Kobilarica", "natural": "peak"}}, {"name": "Rupnjak", "latitude": 45.1249902, "longitude": 13.7344759, "elevation": 213.0, "source": "osm", "_tags": {"ele": "213", "name": "Rupnjak", "natural": "peak"}}, {"name": "Zvenke", "latitude": 45.1090586, "longitude": 13.7421919, "elevation": 204.0, "source": "osm", "_tags": {"ele": "204", "name": "Zvenke", "natural": "peak"}}, {"name": "Mali vrh", "latitude": 45.1111542, "longitude": 13.7417158, "elevation": 207.0, "source": "osm", "_tags": {"ele": "207", "name": "Mali vrh", "natural": "peak"}}, {"name": "Mompeter", "latitude": 45.1043126, "longitude": 13.7758649, "elevation": 208.0, "source": "osm", "_tags": {"ele": "208", "name": "Mompeter", "natural": "peak"}}, {"name": "Žuntića glavica", "latitude": 45.1159042, "longitude": 13.7429485, "elevation": 189.0, "source": "osm", "_tags": {"ele": "189", "name": "Žuntića glavica", "natural": "peak"}}, {"name": "Karaštak", "latitude": 45.1108394, "longitude": 13.7356525, "elevation": 202.0, "source": "osm", "_tags": {"ele": "202", "name": "Karaštak", "natural": "peak"}}, {"name": "Čepinov vrh", "latitude": 45.1304005, "longitude": 13.7756433, "elevation": 218.0, "source": "osm", "_tags": {"ele": "218", "name": "Čepinov vrh", "natural": "peak"}}, {"name": "Gušovac", "latitude": 45.101536, "longitude": 13.7509418, "elevation": 197.0, "source": "osm", "_tags": {"ele": "197", "name": "Gušovac", "natural": "peak"}}, {"name": "Kotištak", "latitude": 45.0953767, "longitude": 13.7750127, "elevation": 185.0, "source": "osm", "_tags": {"ele": "185", "name": "Kotištak", "natural": "peak"}}, {"name": "Jurovac", "latitude": 45.1015583, "longitude": 13.7659206, "elevation": 195.0, "source": "osm", "_tags": {"ele": "195", "name": "Jurovac", "natural": "peak"}}, {"name": "Peniška glavica", "latitude": 45.0895029, "longitude": 13.7335722, "elevation": 151.0, "source": "osm", "_tags": {"ele": "151", "name": "Peniška glavica", "natural": "peak"}}, {"name": "Morovac", "latitude": 45.089457, "longitude": 13.7658458, "elevation": 291.0, "source": "osm", "_tags": {"ele": "291", "name": "Morovac", "natural": "peak"}}, {"name": "Mali Golaš", "latitude": 45.0883311, "longitude": 13.7789474, "elevation": 188.0, "source": "osm", "_tags": {"ele": "188", "name": "Mali Golaš", "natural": "peak"}}, {"name": "Žamljak", "latitude": 45.0965471, "longitude": 13.7481863, "elevation": 198.0, "source": "osm", "_tags": {"ele": "198", "name": "Žamljak", "natural": "peak"}}, {"name": "Mongrupač", "latitude": 45.0925376, "longitude": 13.7778414, "elevation": 196.0, "source": "osm", "_tags": {"ele": "196", "name": "Mongrupač", "natural": "peak"}}, {"name": "Male Hižine", "latitude": 45.0803225, "longitude": 13.7537838, "elevation": 161.0, "source": "osm", "_tags": {"ele": "161", "name": "Male Hižine", "natural": "peak"}}, {"name": "Mamu", "latitude": 45.0996102, "longitude": 13.7731246, "elevation": 196.0, "source": "osm", "_tags": {"ele": "196", "name": "Mamu", "natural": "peak"}}, {"name": "Veliki Golaš", "latitude": 45.0833099, "longitude": 13.7733774, "elevation": 231.0, "source": "osm", "_tags": {"ele": "231", "name": "Veliki Golaš", "natural": "peak"}}, {"name": "Velike Hižine", "latitude": 45.0813479, "longitude": 13.7567098, "elevation": 164.0, "source": "osm", "_tags": {"ele": "164", "name": "Velike Hižine", "natural": "peak"}}, {"name": "Bataljevac", "latitude": 45.1037419, "longitude": 13.8006588, "elevation": 203.0, "source": "osm", "_tags": {"ele": "203", "name": "Bataljevac", "natural": "peak"}}, {"name": "Noveruk", "latitude": 45.0781969, "longitude": 13.8078951, "elevation": 210.0, "source": "osm", "_tags": {"ele": "210", "name": "Noveruk", "natural": "peak"}}, {"name": "Montižeja", "latitude": 45.0809706, "longitude": 13.7607087, "elevation": 157.0, "source": "osm", "_tags": {"ele": "157", "name": "Montižeja", "natural": "peak"}}, {"name": "Kaž", "latitude": 45.0798178, "longitude": 13.7502529, "elevation": 172.0, "source": "osm", "_tags": {"ele": "172", "name": "Kaž", "natural": "peak"}}, {"name": "Veliki Busul", "latitude": 45.086009, "longitude": 13.7472218, "elevation": 177.0, "source": "osm", "_tags": {"ele": "177", "name": "Veliki Busul", "natural": "peak"}}, {"name": "Veliki Karpanj", "latitude": 45.0827646, "longitude": 13.7396839, "elevation": 170.0, "source": "osm", "_tags": {"ele": "170", "name": "Veliki Karpanj", "natural": "peak"}}, {"name": "Momarin", "latitude": 45.0942588, "longitude": 13.7611039, "elevation": 212.0, "source": "osm", "_tags": {"ele": "212", "name": "Momarin", "natural": "peak"}}, {"name": "Mali Busul", "latitude": 45.0835533, "longitude": 13.7498776, "elevation": 179.0, "source": "osm", "_tags": {"ele": "179", "name": "Mali Busul", "natural": "peak"}}, {"name": "Mrvazin", "latitude": 45.0917388, "longitude": 13.7581394, "elevation": 206.0, "source": "osm", "_tags": {"ele": "206", "name": "Mrvazin", "natural": "peak"}}, {"name": "Pudarica", "latitude": 45.0765892, "longitude": 13.7514437, "elevation": 157.0, "source": "osm", "_tags": {"ele": "157", "name": "Pudarica", "natural": "peak"}}, {"name": "Smrikovica", "latitude": 45.0862084, "longitude": 13.7192204, "elevation": 140.0, "source": "osm", "_tags": {"ele": "140", "name": "Smrikovica", "natural": "peak"}}, {"name": "Glavice", "latitude": 45.0912384, "longitude": 13.7479266, "elevation": 179.0, "source": "osm", "_tags": {"ele": "179", "name": "Glavice", "natural": "peak"}}, {"name": "Kovačov vrh", "latitude": 45.0782703, "longitude": 13.7127648, "elevation": 104.0, "source": "osm", "_tags": {"ele": "104", "name": "Kovačov vrh", "natural": "peak"}}, {"name": "Rikardov vrh", "latitude": 45.0773328, "longitude": 13.7293285, "elevation": 141.0, "source": "osm", "_tags": {"ele": "141", "name": "Rikardov vrh", "natural": "peak"}}, {"name": "Ladićov vrh", "latitude": 45.0724188, "longitude": 13.7201159, "elevation": 198.0, "source": "osm", "_tags": {"ele": "198", "name": "Ladićov vrh", "natural": "peak"}}, {"name": "Baldov vrh", "latitude": 45.0754169, "longitude": 13.7079535, "elevation": 84.0, "source": "osm", "_tags": {"ele": "84", "name": "Baldov vrh", "natural": "peak"}}, {"name": "Valkaretov vrh", "latitude": 45.0620793, "longitude": 13.7596487, "elevation": 159.0, "source": "osm", "_tags": {"ele": "159", "name": "Valkaretov vrh", "natural": "peak"}}, {"name": "Lešišnjak", "latitude": 45.0732513, "longitude": 13.7550492, "elevation": 167.0, "source": "osm", "_tags": {"ele": "167", "name": "Lešišnjak", "natural": "peak"}}, {"name": "Martežin", "latitude": 45.0743104, "longitude": 13.7751829, "elevation": 172.0, "source": "osm", "_tags": {"ele": "172", "name": "Martežin", "natural": "peak"}}, {"name": "Brničevac", "latitude": 45.0690292, "longitude": 13.7444207, "elevation": 139.0, "source": "osm", "_tags": {"ele": "139", "name": "Brničevac", "natural": "peak"}}, {"name": "Škačota", "latitude": 45.0664694, "longitude": 13.7611566, "elevation": 174.0, "source": "osm", "_tags": {"ele": "174", "name": "Škačota", "natural": "peak"}}, {"name": "Rebra", "latitude": 45.0670199, "longitude": 13.7273205, "elevation": 100.0, "source": "osm", "_tags": {"ele": "100", "name": "Rebra", "natural": "peak"}}, {"name": "Monte Karpa", "latitude": 45.0631331, "longitude": 13.7153618, "elevation": 81.0, "source": "osm", "_tags": {"ele": "81", "name": "Monte Karpa", "natural": "peak"}}, {"name": "Mulem", "latitude": 45.0562229, "longitude": 13.7389009, "elevation": 125.0, "source": "osm", "_tags": {"ele": "125", "name": "Mulem", "natural": "peak"}}, {"name": "Mušego", "latitude": 45.0675706, "longitude": 13.7050819, "elevation": 104.0, "source": "osm", "_tags": {"ele": "104", "name": "Mušego", "natural": "peak"}}, {"name": "Šarižol", "latitude": 45.0562994, "longitude": 13.7119223, "elevation": 95.0, "source": "osm", "_tags": {"alt_name": "Cima", "ele": "95", "name": "Šarižol", "natural": "peak"}}, {"name": "Golo brdo", "latitude": 45.0995592, "longitude": 13.7264929, "elevation": 168.0, "source": "osm", "_tags": {"ele": "168", "name": "Golo brdo", "natural": "peak"}}, {"name": "Velika Gumila", "latitude": 45.1015481, "longitude": 13.7241724, "elevation": 180.0, "source": "osm", "_tags": {"ele": "180", "name": "Velika Gumila", "natural": "peak"}}, {"name": "Jar", "latitude": 45.0824474, "longitude": 13.7050071, "elevation": 131.0, "source": "osm", "_tags": {"alt_name": "Montajar", "ele": "131", "name": "Jar", "natural": "peak"}}, {"name": "Čulov vrh", "latitude": 45.0504352, "longitude": 13.7096167, "elevation": 68.0, "source": "osm", "_tags": {"ele": "68", "name": "Čulov vrh", "natural": "peak"}}, {"name": "Mučelo", "latitude": 45.0322118, "longitude": 13.6930858, "elevation": 17.0, "source": "osm", "_tags": {"ele": "17", "name": "Mučelo", "natural": "peak"}}, {"name": "Vrh Spanidiga", "latitude": 45.0502299, "longitude": 13.7173042, "elevation": 80.0, "source": "osm", "_tags": {"ele": "80", "name": "Vrh Spanidiga", "natural": "peak"}}, {"name": "Lešo", "latitude": 45.0422588, "longitude": 13.6929222, "elevation": 36.0, "source": "osm", "_tags": {"ele": "36", "name": "Lešo", "natural": "peak"}}, {"name": "Grašićov vrh", "latitude": 45.0453985, "longitude": 13.710688, "elevation": 62.0, "source": "osm", "_tags": {"ele": "62", "name": "Grašićov vrh", "natural": "peak"}}, {"name": "Sveti Damjan", "latitude": 45.0266233, "longitude": 13.7098868, "elevation": 21.0, "source": "osm", "_tags": {"ele": "21", "name": "Sveti Damjan", "natural": "peak"}}, {"name": "Bruže", "latitude": 45.0298238, "longitude": 13.7348853, "elevation": 57.0, "source": "osm", "_tags": {"ele": "57", "name": "Bruže", "natural": "peak"}}, {"name": "Zmijski vrh", "latitude": 45.0230353, "longitude": 13.7175388, "elevation": 48.0, "source": "osm", "_tags": {"alt_name": "Monbiše", "ele": "48", "name": "Zmijski vrh", "natural": "peak"}}, {"name": "Trombona", "latitude": 45.0120749, "longitude": 13.7451029, "elevation": 60.0, "source": "osm", "_tags": {"ele": "60", "name": "Trombona", "natural": "peak"}}, {"name": "Soko", "latitude": 45.0291155, "longitude": 13.7440371, "elevation": 71.0, "source": "osm", "_tags": {"ele": "71", "name": "Soko", "natural": "peak"}}, {"name": "Bašo", "latitude": 45.0151159, "longitude": 13.731246, "elevation": 60.0, "source": "osm", "_tags": {"ele": "60", "name": "Bašo", "natural": "peak"}}, {"name": "Ivići", "latitude": 45.0182567, "longitude": 13.7237271, "elevation": 50.0, "source": "osm", "_tags": {"ele": "50", "name": "Ivići", "natural": "peak"}}, {"name": "Mongrižeja", "latitude": 45.0347677, "longitude": 13.7222715, "elevation": 66.0, "source": "osm", "_tags": {"ele": "66", "name": "Mongrižeja", "natural": "peak"}}, {"name": "Murinjan", "latitude": 45.0329482, "longitude": 13.7091251, "elevation": 41.0, "source": "osm", "_tags": {"ele": "41", "name": "Murinjan", "natural": "peak"}}, {"name": "Paštrovićev vrh", "latitude": 45.0226795, "longitude": 13.7383584, "elevation": 63.0, "source": "osm", "_tags": {"ele": "63", "name": "Paštrovićev vrh", "natural": "peak"}}, {"name": "Brigonere", "latitude": 45.0310579, "longitude": 13.7282174, "elevation": 55.0, "source": "osm", "_tags": {"ele": "55", "name": "Brigonere", "natural": "peak"}}, {"name": "Sveta Nedilja", "latitude": 45.0252803, "longitude": 13.7358287, "elevation": 62.0, "source": "osm", "_tags": {"ele": "62", "name": "Sveta Nedilja", "natural": "peak"}}, {"name": "Monzvonel", "latitude": 45.0664467, "longitude": 13.6820401, "elevation": 52.0, "source": "osm", "_tags": {"ele": "52", "name": "Monzvonel", "natural": "peak"}}, {"name": "Elvarno", "latitude": 45.0695449, "longitude": 13.6781363, "elevation": 44.0, "source": "osm", "_tags": {"ele": "44", "name": "Elvarno", "natural": "peak"}}, {"name": "Gonan", "latitude": 45.0145145, "longitude": 13.741997, "elevation": 62.0, "source": "osm", "_tags": {"ele": "62", "name": "Gonan", "natural": "peak"}}, {"name": "Monpelozo", "latitude": 45.1035107, "longitude": 13.6311037, "elevation": 49.0, "source": "osm", "_tags": {"ele": "49", "name": "Monpelozo", "natural": "peak"}}, {"name": "Vršetina", "latitude": 45.0859576, "longitude": 13.6685073, "elevation": 38.0, "source": "osm", "_tags": {"ele": "38", "name": "Vršetina", "natural": "peak"}}, {"name": "Mulin", "latitude": 45.0748529, "longitude": 13.6391348, "elevation": 42.0, "source": "osm", "_tags": {"ele": "42", "name": "Mulin", "natural": "peak"}}, {"name": "Tonkaž", "latitude": 45.1254837, "longitude": 13.64598, "elevation": 102.0, "source": "osm", "_tags": {"ele": "102", "name": "Tonkaž", "natural": "peak"}}, {"name": "Prtenjaćko brdo", "latitude": 45.1460554, "longitude": 13.760681, "elevation": 230.0, "source": "osm", "_tags": {"ele": "230", "name": "Prtenjaćko brdo", "natural": "peak"}}, {"name": "Juretov vrh", "latitude": 45.1080826, "longitude": 13.6683113, "elevation": 52.0, "source": "osm", "_tags": {"ele": "52", "name": "Juretov vrh", "natural": "peak"}}, {"name": "Mončarez", "latitude": 45.1060493, "longitude": 13.6355964, "elevation": 42.0, "source": "osm", "_tags": {"ele": "42", "name": "Mončarez", "natural": "peak"}}, {"name": "Vrh Draguzeti", "latitude": 45.1515696, "longitude": 13.7907496, "elevation": 241.0, "source": "osm", "_tags": {"ele": "241", "name": "Vrh Draguzeti", "natural": "peak"}}, {"name": "Križnjak", "latitude": 45.1374647, "longitude": 13.8031269, "elevation": 259.0, "source": "osm", "_tags": {"ele": "259", "name": "Križnjak", "natural": "peak"}}, {"name": "Črljan", "latitude": 45.1442923, "longitude": 13.7182736, "elevation": 162.0, "source": "osm", "_tags": {"ele": "162", "name": "Črljan", "natural": "peak"}}, {"name": "Gradišće", "latitude": 45.1587427, "longitude": 13.7876481, "elevation": 247.0, "source": "osm", "_tags": {"ele": "247", "name": "Gradišće", "natural": "peak"}}, {"name": "Vrh", "latitude": 45.1418587, "longitude": 13.7357954, "elevation": 177.0, "source": "osm", "_tags": {"ele": "177", "name": "Vrh", "natural": "peak"}}, {"name": "Gradina", "latitude": 45.1402329, "longitude": 13.7822547, "elevation": 266.0, "source": "osm", "_tags": {"ele": "266", "name": "Gradina", "natural": "peak"}}, {"name": "Kloštarska glavica", "latitude": 45.1455861, "longitude": 13.7142346, "elevation": 153.0, "source": "osm", "_tags": {"ele": "153", "name": "Kloštarska glavica", "natural": "peak"}}, {"name": "Klarićevo brdo", "latitude": 45.1461526, "longitude": 13.7700016, "elevation": 231.0, "source": "osm", "_tags": {"ele": "231", "name": "Klarićevo brdo", "natural": "peak"}}, {"name": "Mićin vrh", "latitude": 45.1490648, "longitude": 13.7469395, "elevation": 171.0, "source": "osm", "_tags": {"ele": "171", "name": "Mićin vrh", "natural": "peak"}}, {"name": "Mali Major", "latitude": 45.1606249, "longitude": 13.7114199, "elevation": 169.0, "source": "osm", "_tags": {"ele": "169", "name": "Mali Major", "natural": "peak"}}, {"name": "Prekijov vrh", "latitude": 45.1661454, "longitude": 13.6764026, "elevation": 99.0, "source": "osm", "_tags": {"ele": "99", "name": "Prekijov vrh", "natural": "peak"}}, {"name": "Vrh Kave", "latitude": 45.1434357, "longitude": 13.7059971, "elevation": 138.0, "source": "osm", "_tags": {"ele": "138", "name": "Vrh Kave", "natural": "peak"}}, {"name": "Štrovac", "latitude": 45.1630922, "longitude": 13.6839458, "elevation": 127.0, "source": "osm", "_tags": {"ele": "127", "name": "Štrovac", "natural": "peak"}}, {"name": "Veliki Smokovac", "latitude": 45.1694035, "longitude": 13.6697087, "elevation": 113.0, "source": "osm", "_tags": {"ele": "113", "name": "Veliki Smokovac", "natural": "peak"}}, {"name": "Veliki Major", "latitude": 45.1634076, "longitude": 13.709532, "elevation": 189.0, "source": "osm", "_tags": {"ele": "189", "name": "Veliki Major", "natural": "peak"}}, {"name": "Veliki Mramor", "latitude": 45.169718, "longitude": 13.6865596, "elevation": 121.0, "source": "osm", "_tags": {"ele": "121", "name": "Veliki Mramor", "natural": "peak"}}, {"name": "Kaligarići", "latitude": 45.1626824, "longitude": 13.6442544, "elevation": 64.0, "source": "osm", "_tags": {"ele": "64", "name": "Kaligarići", "natural": "peak"}}, {"name": "Perovac", "latitude": 45.1499166, "longitude": 13.7197656, "elevation": 153.0, "source": "osm", "_tags": {"ele": "153", "name": "Perovac", "natural": "peak"}}, {"name": "Kamenjak", "latitude": 45.15737, "longitude": 13.7034433, "elevation": 161.0, "source": "osm", "_tags": {"ele": "161", "name": "Kamenjak", "natural": "peak"}}, {"name": "Zlatovac", "latitude": 45.1643357, "longitude": 13.6889746, "elevation": 127.0, "source": "osm", "_tags": {"ele": "127", "name": "Zlatovac", "natural": "peak"}}, {"name": "Mali Mramor", "latitude": 45.1709179, "longitude": 13.6891166, "elevation": 120.0, "source": "osm", "_tags": {"ele": "120", "name": "Mali Mramor", "natural": "peak"}}, {"name": "Marinov vrh", "latitude": 45.1672355, "longitude": 13.6932624, "elevation": 141.0, "source": "osm", "_tags": {"ele": "141", "name": "Marinov vrh", "natural": "peak"}}, {"name": "Mali Smokovac", "latitude": 45.1685477, "longitude": 13.6666313, "elevation": 104.0, "source": "osm", "_tags": {"ele": "104", "name": "Mali Smokovac", "natural": "peak"}}, {"name": "Grabrovica", "latitude": 45.1690919, "longitude": 13.6603372, "elevation": 94.0, "source": "osm", "_tags": {"ele": "94", "name": "Grabrovica", "natural": "peak"}}, {"name": "Brišak", "latitude": 45.1734078, "longitude": 13.6448662, "elevation": 89.0, "source": "osm", "_tags": {"ele": "89", "name": "Brišak", "natural": "peak"}}, {"name": "Miloševica", "latitude": 45.1509333, "longitude": 13.6706165, "elevation": 99.0, "source": "osm", "_tags": {"ele": "99", "name": "Miloševica", "natural": "peak"}}, {"name": "Bumbažin", "latitude": 45.1451001, "longitude": 13.6769066, "elevation": 106.0, "source": "osm", "_tags": {"ele": "106", "name": "Bumbažin", "natural": "peak"}}, {"name": "Prkećinov vrh", "latitude": 45.1525896, "longitude": 13.6585809, "elevation": 117.0, "source": "osm", "_tags": {"ele": "117", "name": "Prkećinov vrh", "natural": "peak"}}, {"name": "Veliki vrh", "latitude": 45.1507909, "longitude": 13.6536251, "elevation": 117.0, "source": "osm", "_tags": {"ele": "117", "name": "Veliki vrh", "natural": "peak"}}, {"name": "Bulpinski vrhi", "latitude": 45.1459571, "longitude": 13.654759, "elevation": 121.0, "source": "osm", "_tags": {"ele": "121", "name": "Bulpinski vrhi", "natural": "peak"}}, {"name": "Črni vrh", "latitude": 45.1489006, "longitude": 13.6602281, "elevation": 118.0, "source": "osm", "_tags": {"ele": "118", "name": "Črni vrh", "natural": "peak"}}, {"name": "Biškupovi vrhi", "latitude": 45.1514475, "longitude": 13.6420855, "elevation": 112.0, "source": "osm", "_tags": {"ele": "112", "name": "Biškupovi vrhi", "natural": "peak"}}, {"name": "Vrh Kravarice", "latitude": 45.1463332, "longitude": 13.6392973, "elevation": 107.0, "source": "osm", "_tags": {"ele": "107", "name": "Vrh Kravarice", "natural": "peak"}}, {"name": "Vrnale", "latitude": 45.1486405, "longitude": 13.6131667, "elevation": 70.0, "source": "osm", "_tags": {"ele": "70", "name": "Vrnale", "natural": "peak"}}, {"name": "Karpan", "latitude": 45.138279, "longitude": 13.6026784, "elevation": 25.0, "source": "osm", "_tags": {"ele": "25", "name": "Karpan", "natural": "peak"}}, {"name": "Montigun", "latitude": 45.1421208, "longitude": 13.6164897, "elevation": 57.0, "source": "osm", "_tags": {"ele": "57", "name": "Montigun", "natural": "peak"}}, {"name": "Veliki vrhi", "latitude": 45.1568297, "longitude": 13.6387896, "elevation": 107.0, "source": "osm", "_tags": {"ele": "107", "name": "Veliki vrhi", "natural": "peak"}}, {"name": "Bruštulade", "latitude": 45.1442082, "longitude": 13.6114513, "elevation": 60.0, "source": "osm", "_tags": {"ele": "60", "name": "Bruštulade", "natural": "peak"}}, {"name": "Zatika", "latitude": 45.1549414, "longitude": 13.6131596, "elevation": 59.0, "source": "osm", "_tags": {"ele": "59", "name": "Zatika", "natural": "peak"}}, {"name": "Lovrinovića vrh", "latitude": 45.1695882, "longitude": 13.6066029, "elevation": 32.0, "source": "osm", "_tags": {"ele": "32", "name": "Lovrinovića vrh", "natural": "peak"}}, {"name": "Divljački vrh", "latitude": 45.1874836, "longitude": 13.5986915, "elevation": 35.0, "source": "osm", "_tags": {"ele": "35", "name": "Divljački vrh", "natural": "peak"}}, {"name": "Črnjančić", "latitude": 45.1761909, "longitude": 13.6265627, "elevation": 48.0, "source": "osm", "_tags": {"ele": "48", "name": "Črnjančić", "natural": "peak"}}, {"name": "Faraguda", "latitude": 45.1726705, "longitude": 13.6320844, "elevation": 73.0, "source": "osm", "_tags": {"ele": "73", "name": "Faraguda", "natural": "peak"}}, {"name": "Mugrasel", "latitude": 45.1662016, "longitude": 13.6180369, "elevation": 46.0, "source": "osm", "_tags": {"ele": "46", "name": "Mugrasel", "natural": "peak"}}, {"name": "Sveti Petar", "latitude": 45.204008, "longitude": 13.6222125, "elevation": 63.0, "source": "osm", "_tags": {"ele": "63", "name": "Sveti Petar", "natural": "peak"}}, {"name": "Martin", "latitude": 45.191759, "longitude": 13.6134369, "elevation": 67.0, "source": "osm", "_tags": {"ele": "67", "name": "Martin", "natural": "peak"}}, {"name": "Goli vrh", "latitude": 45.1922592, "longitude": 13.5888343, "elevation": 25.0, "source": "osm", "_tags": {"ele": "25", "name": "Goli vrh", "natural": "peak"}}, {"name": "Veli vrh", "latitude": 45.1828601, "longitude": 13.613047, "elevation": 48.0, "source": "osm", "_tags": {"ele": "48", "name": "Veli vrh", "natural": "peak"}}, {"name": "Serafin", "latitude": 45.1998517, "longitude": 13.6306803, "elevation": 85.0, "source": "osm", "_tags": {"ele": "85", "name": "Serafin", "natural": "peak"}}, {"name": "Leveruc", "latitude": 45.1966471, "longitude": 13.6304162, "elevation": 80.0, "source": "osm", "_tags": {"ele": "80", "name": "Leveruc", "natural": "peak"}}, {"name": "Lahov vrh", "latitude": 45.189593, "longitude": 13.600362, "elevation": 38.0, "source": "osm", "_tags": {"ele": "38", "name": "Lahov vrh", "natural": "peak"}}, {"name": "Krcaveja", "latitude": 45.1926568, "longitude": 13.6031325, "elevation": 34.0, "source": "osm", "_tags": {"ele": "34", "name": "Krcaveja", "natural": "peak"}}, {"name": "Muliganac", "latitude": 45.1931398, "longitude": 13.6448594, "elevation": 113.0, "source": "osm", "_tags": {"ele": "113", "name": "Muliganac", "natural": "peak"}}, {"name": "Šarajka", "latitude": 45.1958404, "longitude": 13.6410467, "elevation": 79.0, "source": "osm", "_tags": {"ele": "79", "name": "Šarajka", "natural": "peak"}}, {"name": "Zbižalka", "latitude": 45.1848805, "longitude": 13.6227864, "elevation": 38.0, "source": "osm", "_tags": {"ele": "38", "name": "Zbižalka", "natural": "peak"}}, {"name": "Škavnica", "latitude": 45.18529, "longitude": 13.6337579, "elevation": 71.0, "source": "osm", "_tags": {"ele": "71", "name": "Škavnica", "natural": "peak"}}, {"name": "Plišivka", "latitude": 45.1902533, "longitude": 13.6331123, "elevation": 90.0, "source": "osm", "_tags": {"ele": "90", "name": "Plišivka", "natural": "peak"}}, {"name": "Miked", "latitude": 45.2053339, "longitude": 13.6181961, "elevation": 51.0, "source": "osm", "_tags": {"ele": "51", "name": "Miked", "natural": "peak"}}, {"name": "Pomed", "latitude": 45.1995957, "longitude": 13.6221748, "elevation": 62.0, "source": "osm", "_tags": {"alt_name": "Pomet", "ele": "62", "name": "Pomed", "natural": "peak"}}, {"name": "Mugeblić", "latitude": 45.1934834, "longitude": 13.6240088, "elevation": 83.0, "source": "osm", "_tags": {"ele": "83", "name": "Mugeblić", "natural": "peak"}}, {"name": "Dvorina", "latitude": 45.1959869, "longitude": 13.6173097, "elevation": 46.0, "source": "osm", "_tags": {"ele": "46", "name": "Dvorina", "natural": "peak"}}, {"name": "Košambra", "latitude": 45.2125209, "longitude": 13.6116262, "elevation": 52.0, "source": "osm", "_tags": {"ele": "52", "name": "Košambra", "natural": "peak"}}, {"name": "Kovačica", "latitude": 45.22319, "longitude": 13.6232207, "elevation": 63.0, "source": "osm", "_tags": {"ele": "63", "name": "Kovačica", "natural": "peak"}}, {"name": "Petrov vrh", "latitude": 45.225327, "longitude": 13.6164107, "elevation": 57.0, "source": "osm", "_tags": {"ele": "57", "name": "Petrov vrh", "natural": "peak"}}, {"name": "Bejakin vrh", "latitude": 45.2179839, "longitude": 13.6249906, "elevation": 88.0, "source": "osm", "_tags": {"ele": "88", "name": "Bejakin vrh", "natural": "peak"}}, {"name": "Debeli vrh", "latitude": 45.1976673, "longitude": 13.5860508, "elevation": 34.0, "source": "osm", "_tags": {"ele": "34", "name": "Debeli vrh", "natural": "peak"}}, {"name": "Mali vrh", "latitude": 45.2143027, "longitude": 13.6403774, "elevation": 102.0, "source": "osm", "_tags": {"ele": "102", "name": "Mali vrh", "natural": "peak"}}, {"name": "Ciprijanov vrh", "latitude": 45.2085034, "longitude": 13.6213014, "elevation": 51.0, "source": "osm", "_tags": {"ele": "51", "name": "Ciprijanov vrh", "natural": "peak"}}, {"name": "Veliki vrh", "latitude": 45.2163734, "longitude": 13.6329616, "elevation": 100.0, "source": "osm", "_tags": {"ele": "100", "name": "Veliki vrh", "natural": "peak"}}, {"name": "Bajban", "latitude": 45.2072126, "longitude": 13.7199969, "elevation": 187.0, "source": "osm", "_tags": {"ele": "187", "name": "Bajban", "natural": "peak"}}, {"name": "Odrlin", "latitude": 45.1897668, "longitude": 13.7224416, "elevation": 167.0, "source": "osm", "_tags": {"ele": "167", "name": "Odrlin", "natural": "peak"}}, {"name": "Tičarica", "latitude": 45.2011543, "longitude": 13.7192725, "elevation": 145.0, "source": "osm", "_tags": {"ele": "145", "name": "Tičarica", "natural": "peak"}}, {"name": "Veli vrh", "latitude": 45.2107125, "longitude": 13.6181389, "elevation": 70.0, "source": "osm", "_tags": {"ele": "70", "name": "Veli vrh", "natural": "peak"}}, {"name": "Rušnjakov vrh", "latitude": 45.2217346, "longitude": 13.6641126, "elevation": 117.0, "source": "osm", "_tags": {"ele": "117", "name": "Rušnjakov vrh", "natural": "peak"}}, {"name": "Bačvan", "latitude": 45.1990071, "longitude": 13.5984144, "elevation": 46.0, "source": "osm", "_tags": {"ele": "46", "name": "Bačvan", "natural": "peak"}}, {"name": "Vidor", "latitude": 45.2157242, "longitude": 13.6497893, "elevation": 102.0, "source": "osm", "_tags": {"ele": "102", "name": "Vidor", "natural": "peak"}}, {"name": "Matulički vrh", "latitude": 45.2345624, "longitude": 13.6092928, "elevation": 46.0, "source": "osm", "_tags": {"ele": "46", "name": "Matulički vrh", "natural": "peak"}}, {"name": "Rakovčev vrh", "latitude": 45.1972061, "longitude": 13.7529179, "elevation": 246.0, "source": "osm", "_tags": {"ele": "246", "name": "Rakovčev vrh", "natural": "peak"}}, {"name": "Pišurinka", "latitude": 45.1909925, "longitude": 13.7409204, "elevation": 216.0, "source": "osm", "_tags": {"ele": "216", "name": "Pišurinka", "natural": "peak"}}, {"name": "Vrh Zatike", "latitude": 45.222081, "longitude": 13.6107176, "elevation": 51.0, "source": "osm", "_tags": {"ele": "51", "name": "Vrh Zatike", "natural": "peak"}}, {"name": "Gregovica", "latitude": 45.2169624, "longitude": 13.7018175, "elevation": 157.0, "source": "osm", "_tags": {"ele": "157", "name": "Gregovica", "natural": "peak"}}, {"name": "Valkarinska glavica", "latitude": 45.2018322, "longitude": 13.6418626, "elevation": 68.0, "source": "osm", "_tags": {"ele": "68", "name": "Valkarinska glavica", "natural": "peak"}}, {"name": "Buranka", "latitude": 45.225623, "longitude": 13.630725, "elevation": 78.0, "source": "osm", "_tags": {"ele": "78", "name": "Buranka", "natural": "peak"}}, {"name": "Fabićov vrh", "latitude": 45.2351774, "longitude": 13.6481456, "elevation": 95.0, "source": "osm", "_tags": {"ele": "95", "name": "Fabićov vrh", "natural": "peak"}}, {"name": "Runjevac", "latitude": 45.220567, "longitude": 13.6278143, "elevation": 65.0, "source": "osm", "_tags": {"ele": "65", "name": "Runjevac", "natural": "peak"}}, {"name": "Tinjacov vrh", "latitude": 45.2221573, "longitude": 13.617414, "elevation": 50.0, "source": "osm", "_tags": {"ele": "50", "name": "Tinjacov vrh", "natural": "peak"}}, {"name": "Vrh Škavacera", "latitude": 45.2156142, "longitude": 13.6124574, "elevation": 56.0, "source": "osm", "_tags": {"ele": "56", "name": "Vrh Škavacera", "natural": "peak"}}, {"name": "Dračevac", "latitude": 45.3242228, "longitude": 13.6432836, "elevation": 115.0, "source": "osm", "_tags": {"ele": "115", "name": "Dračevac", "natural": "peak"}}, {"name": "Petrovac", "latitude": 45.2256831, "longitude": 13.6462616, "elevation": 96.0, "source": "osm", "_tags": {"ele": "96", "name": "Petrovac", "natural": "peak"}}, {"name": "Solenjak", "latitude": 45.2443819, "longitude": 13.713652, "elevation": 229.0, "source": "osm", "_tags": {"ele": "229", "name": "Solenjak", "natural": "peak"}}, {"name": "Pršurićki vrh", "latitude": 45.231157, "longitude": 13.6976343, "elevation": 155.0, "source": "osm", "_tags": {"ele": "155", "name": "Pršurićki vrh", "natural": "peak"}}, {"name": "Rumpeljak", "latitude": 45.2426487, "longitude": 13.6759746, "elevation": 163.0, "source": "osm", "_tags": {"ele": "163", "name": "Rumpeljak", "natural": "peak"}}, {"name": "Bendek", "latitude": 45.2493661, "longitude": 13.6390916, "elevation": 100.0, "source": "osm", "_tags": {"ele": "100", "name": "Bendek", "natural": "peak"}}, {"name": "Kršenac", "latitude": 45.2705223, "longitude": 13.7100323, "elevation": 207.0, "source": "osm", "_tags": {"ele": "207", "name": "Kršenac", "natural": "peak"}}, {"name": "Mavriš", "latitude": 45.2883179, "longitude": 13.6928162, "elevation": 188.0, "source": "osm", "_tags": {"ele": "188", "name": "Mavriš", "natural": "peak"}}, {"name": "Rabanov vrh", "latitude": 45.2366492, "longitude": 13.680688, "elevation": 141.0, "source": "osm", "_tags": {"ele": "141", "name": "Rabanov vrh", "natural": "peak"}}, {"name": "Kamenica", "latitude": 45.2632068, "longitude": 13.6871242, "elevation": 161.0, "source": "osm", "_tags": {"ele": "161", "name": "Kamenica", "natural": "peak"}}, {"name": "Vrh Santarije", "latitude": 45.26216, "longitude": 13.6073798, "elevation": 51.0, "source": "osm", "_tags": {"ele": "51", "name": "Vrh Santarije", "natural": "peak"}}, {"name": "Vrh Tadini", "latitude": 45.3133905, "longitude": 13.6963207, "elevation": 255.0, "source": "osm", "_tags": {"ele": "255", "name": "Vrh Tadini", "natural": "peak"}}, {"name": "Vrhi", "latitude": 45.3944432, "longitude": 13.5820244, "elevation": 76.0, "source": "osm", "_tags": {"ele": "76", "name": "Vrhi", "natural": "peak"}}, {"name": "Babićki vrh", "latitude": 45.3102305, "longitude": 13.6896958, "elevation": 254.0, "source": "osm", "_tags": {"ele": "254", "name": "Babićki vrh", "natural": "peak"}}, {"name": "Cemerića brda", "latitude": 45.2932612, "longitude": 13.5882797, "elevation": 40.0, "source": "osm", "_tags": {"ele": "40", "name": "Cemerića brda", "natural": "peak"}}, {"name": "Golaš", "latitude": 45.3222656, "longitude": 13.6534552, "elevation": 169.0, "source": "osm", "_tags": {"ele": "169", "name": "Golaš", "natural": "peak"}}, {"name": "Gradina", "latitude": 45.3415719, "longitude": 13.6858028, "elevation": 111.0, "source": "osm", "_tags": {"ele": "111", "name": "Gradina", "natural": "peak"}}, {"name": "Male Mukle", "latitude": 45.3269736, "longitude": 13.6713952, "elevation": 164.0, "source": "osm", "_tags": {"ele": "164", "name": "Male Mukle", "natural": "peak"}}, {"name": "Cerovina", "latitude": 45.3270146, "longitude": 13.7182178, "elevation": 260.0, "source": "osm", "_tags": {"ele": "260", "name": "Cerovina", "natural": "peak"}}, {"name": "Pudarica", "latitude": 45.3330804, "longitude": 13.7230637, "elevation": 243.0, "source": "osm", "_tags": {"ele": "243", "name": "Pudarica", "natural": "peak"}}, {"name": "Drvarica", "latitude": 45.3433628, "longitude": 13.7150574, "elevation": 192.0, "source": "osm", "_tags": {"ele": "192", "name": "Drvarica", "natural": "peak"}}, {"name": "Ravna strana", "latitude": 45.3406833, "longitude": 13.6775407, "elevation": 147.0, "source": "osm", "_tags": {"ele": "147", "name": "Ravna strana", "natural": "peak"}}, {"name": "Vršić", "latitude": 45.340397, "longitude": 13.7209567, "elevation": 210.0, "source": "osm", "_tags": {"ele": "210", "name": "Vršić", "natural": "peak"}}, {"name": "Zminjac", "latitude": 45.3422187, "longitude": 13.7064547, "elevation": 178.0, "source": "osm", "_tags": {"ele": "178", "name": "Zminjac", "natural": "peak"}}, {"name": "Krušerov vrh", "latitude": 45.3349696, "longitude": 13.7468479, "elevation": 281.0, "source": "osm", "_tags": {"alt_name": "Zlatni vrh", "ele": "281", "name": "Krušerov vrh", "natural": "peak"}}, {"name": "Gradina", "latitude": 45.3135528, "longitude": 13.7603494, "elevation": 336.0, "source": "osm", "_tags": {"ele": "336", "name": "Gradina", "natural": "peak"}}, {"name": "Glavica", "latitude": 45.3315007, "longitude": 13.7380249, "elevation": 287.0, "source": "osm", "_tags": {"ele": "287", "name": "Glavica", "natural": "peak"}}, {"name": "Bošket", "latitude": 45.3278495, "longitude": 13.7548798, "elevation": 294.0, "source": "osm", "_tags": {"ele": "294", "name": "Bošket", "natural": "peak"}}, {"name": "Nardući", "latitude": 45.3496782, "longitude": 13.7118576, "elevation": 103.0, "source": "osm", "_tags": {"ele": "103", "name": "Nardući", "natural": "peak"}}, {"name": "Glavica", "latitude": 45.3190257, "longitude": 13.7763507, "elevation": 299.0, "source": "osm", "_tags": {"ele": "299", "name": "Glavica", "natural": "peak"}}, {"name": "Bekarov vrh", "latitude": 45.3326519, "longitude": 13.7553428, "elevation": 298.0, "source": "osm", "_tags": {"ele": "298", "name": "Bekarov vrh", "natural": "peak"}}, {"name": "Pekavica", "latitude": 45.3152583, "longitude": 13.7411713, "elevation": 320.0, "source": "osm", "_tags": {"ele": "320", "name": "Pekavica", "natural": "peak"}}, {"name": "Furbova Boška", "latitude": 45.3377997, "longitude": 13.776796, "elevation": 174.0, "source": "osm", "_tags": {"ele": "174", "name": "Furbova Boška", "natural": "peak"}}, {"name": "Stanišov vrh", "latitude": 45.3055064, "longitude": 13.7345216, "elevation": 300.0, "source": "osm", "_tags": {"ele": "300", "name": "Stanišov vrh", "natural": "peak"}}, {"name": "Dolcan", "latitude": 45.3402685, "longitude": 13.7997468, "elevation": 60.0, "source": "osm", "_tags": {"ele": "60", "name": "Dolcan", "natural": "peak"}}, {"name": "Šandrih", "latitude": 45.3303393, "longitude": 13.7975431, "elevation": 179.0, "source": "osm", "_tags": {"ele": "179", "name": "Šandrih", "natural": "peak"}}, {"name": "Mali Kamenjak", "latitude": 45.3112023, "longitude": 13.7911125, "elevation": 282.0, "source": "osm", "_tags": {"ele": "282", "name": "Mali Kamenjak", "natural": "peak"}}, {"name": "Veli Kamenjak", "latitude": 45.3149645, "longitude": 13.7955154, "elevation": 256.0, "source": "osm", "_tags": {"ele": "256", "name": "Veli Kamenjak", "natural": "peak"}}, {"name": "Veli brig", "latitude": 45.2962276, "longitude": 13.7896276, "elevation": 355.0, "source": "osm", "_tags": {"ele": "355", "name": "Veli brig", "natural": "peak"}}, {"name": "Violski brijeg", "latitude": 45.2996144, "longitude": 13.8016093, "elevation": 344.0, "source": "osm", "_tags": {"ele": "344", "name": "Violski brijeg", "natural": "peak"}}, {"name": "Bankovac", "latitude": 45.2817052, "longitude": 13.8043673, "elevation": 346.0, "source": "osm", "_tags": {"ele": "346", "name": "Bankovac", "natural": "peak"}}, {"name": "Martinov vrh", "latitude": 45.2827085, "longitude": 13.7472007, "elevation": 317.0, "source": "osm", "_tags": {"ele": "317", "name": "Martinov vrh", "natural": "peak"}}, {"name": "Obor", "latitude": 45.3030983, "longitude": 13.7913424, "elevation": 346.0, "source": "osm", "_tags": {"ele": "346", "name": "Obor", "natural": "peak"}}, {"name": "Brižac", "latitude": 45.3032265, "longitude": 13.7684383, "elevation": 338.0, "source": "osm", "_tags": {"ele": "338", "name": "Brižac", "natural": "peak"}}, {"name": "Krušarov vrh", "latitude": 45.2992493, "longitude": 13.7596981, "elevation": 321.0, "source": "osm", "_tags": {"ele": "321", "name": "Krušarov vrh", "natural": "peak"}}, {"name": "Mutika", "latitude": 45.3025327, "longitude": 13.7780189, "elevation": 336.0, "source": "osm", "_tags": {"alt_name": "Motika", "ele": "336", "name": "Mutika", "natural": "peak"}}, {"name": "Klenac", "latitude": 45.2776476, "longitude": 13.7768099, "elevation": 333.0, "source": "osm", "_tags": {"ele": "333", "name": "Klenac", "natural": "peak"}}, {"name": "Jamovac", "latitude": 45.2785036, "longitude": 13.7617966, "elevation": 325.0, "source": "osm", "_tags": {"ele": "325", "name": "Jamovac", "natural": "peak"}}, {"name": "Rakavac", "latitude": 45.2833657, "longitude": 13.8408124, "elevation": 373.0, "source": "osm", "_tags": {"ele": "373", "name": "Rakavac", "natural": "peak"}}, {"name": "Mandićev vrh", "latitude": 45.2462034, "longitude": 13.8035629, "elevation": 346.0, "source": "osm", "_tags": {"ele": "346", "name": "Mandićev vrh", "natural": "peak"}}, {"name": "Turkovica", "latitude": 45.2766196, "longitude": 13.7891277, "elevation": 340.0, "source": "osm", "_tags": {"ele": "340", "name": "Turkovica", "natural": "peak"}}, {"name": "Straže", "latitude": 45.2697072, "longitude": 13.8510973, "elevation": 395.0, "source": "osm", "_tags": {"ele": "395", "name": "Straže", "natural": "peak"}}, {"name": "Starića vrh", "latitude": 45.2351817, "longitude": 13.7893632, "elevation": 323.0, "source": "osm", "_tags": {"ele": "323", "name": "Starića vrh", "natural": "peak"}}, {"name": "Smolićev brig", "latitude": 45.2688758, "longitude": 13.7982322, "elevation": 365.0, "source": "osm", "_tags": {"ele": "365", "name": "Smolićev brig", "natural": "peak"}}, {"name": "Pilatski brig", "latitude": 45.2924649, "longitude": 13.83038, "elevation": 352.0, "source": "osm", "_tags": {"ele": "352", "name": "Pilatski brig", "natural": "peak"}}, {"name": "Rabotan", "latitude": 45.3003535, "longitude": 13.8356227, "elevation": 396.0, "source": "osm", "_tags": {"ele": "396", "name": "Rabotan", "natural": "peak"}}, {"name": "Brčićeva glavica", "latitude": 45.2584577, "longitude": 13.7922225, "elevation": 334.0, "source": "osm", "_tags": {"ele": "334", "name": "Brčićeva glavica", "natural": "peak"}}, {"name": "Liretov brig", "latitude": 45.2933338, "longitude": 13.8114583, "elevation": 375.0, "source": "osm", "_tags": {"ele": "375", "name": "Liretov brig", "natural": "peak"}}, {"name": "Ovzida", "latitude": 45.2879163, "longitude": 13.8238307, "elevation": 356.0, "source": "osm", "_tags": {"ele": "356", "name": "Ovzida", "natural": "peak"}}, {"name": "Hadum", "latitude": 45.2989652, "longitude": 13.8169318, "elevation": 326.0, "source": "osm", "_tags": {"ele": "326", "name": "Hadum", "natural": "peak"}}, {"name": "Sveta Marija", "latitude": 45.2671385, "longitude": 13.8186064, "elevation": 371.0, "source": "osm", "_tags": {"ele": "371", "name": "Sveta Marija", "natural": "peak"}}, {"name": "Muškovića vrh", "latitude": 45.2473711, "longitude": 13.8308842, "elevation": 387.0, "source": "osm", "_tags": {"alt_name": "Grozdag", "ele": "387", "name": "Muškovića vrh", "natural": "peak"}}, {"name": "Merdač", "latitude": 45.2886751, "longitude": 13.8196425, "elevation": 359.0, "source": "osm", "_tags": {"ele": "359", "name": "Merdač", "natural": "peak"}}, {"name": "Veli vrh", "latitude": 45.2686097, "longitude": 13.8258783, "elevation": 376.0, "source": "osm", "_tags": {"ele": "376", "name": "Veli vrh", "natural": "peak"}}, {"name": "Štandar", "latitude": 45.24737, "longitude": 13.8138707, "elevation": 374.0, "source": "osm", "_tags": {"ele": "374", "name": "Štandar", "natural": "peak"}}, {"name": "Jelino brdo", "latitude": 45.2546152, "longitude": 13.818188, "elevation": 367.0, "source": "osm", "_tags": {"ele": "367", "name": "Jelino brdo", "natural": "peak"}}, {"name": "Martinci", "latitude": 45.2657213, "longitude": 13.8454004, "elevation": 401.0, "source": "osm", "_tags": {"ele": "401", "name": "Martinci", "natural": "peak"}}, {"name": "Obišenjak", "latitude": 45.2790719, "longitude": 13.8331113, "elevation": 355.0, "source": "osm", "_tags": {"ele": "355", "name": "Obišenjak", "natural": "peak"}}, {"name": "Malenica", "latitude": 45.2638661, "longitude": 13.8371135, "elevation": 383.0, "source": "osm", "_tags": {"ele": "383", "name": "Malenica", "natural": "peak"}}, {"name": "Martinićevo brdo", "latitude": 45.2616304, "longitude": 13.8397043, "elevation": 401.0, "source": "osm", "_tags": {"ele": "401", "name": "Martinićevo brdo", "natural": "peak"}}, {"name": "Livačka glavica", "latitude": 45.2615279, "longitude": 13.8280087, "elevation": 366.0, "source": "osm", "_tags": {"ele": "366", "name": "Livačka glavica", "natural": "peak"}}, {"name": "Kostanjevica", "latitude": 45.2522252, "longitude": 13.8359925, "elevation": 394.0, "source": "osm", "_tags": {"ele": "394", "name": "Kostanjevica", "natural": "peak"}}, {"name": "Brentarica", "latitude": 45.2348917, "longitude": 13.8187067, "elevation": 356.0, "source": "osm", "_tags": {"ele": "356", "name": "Brentarica", "natural": "peak"}}, {"name": "Vrh", "latitude": 45.234896, "longitude": 13.8142022, "elevation": 355.0, "source": "osm", "_tags": {"ele": "355", "name": "Vrh", "natural": "peak"}}, {"name": "Montejan", "latitude": 45.2529258, "longitude": 13.7812328, "elevation": 325.0, "source": "osm", "_tags": {"ele": "325", "name": "Montejan", "natural": "peak"}}, {"name": "Grabar", "latitude": 45.2625256, "longitude": 13.7744304, "elevation": 324.0, "source": "osm", "_tags": {"ele": "324", "name": "Grabar", "natural": "peak"}}, {"name": "Žužićev vrh", "latitude": 45.269793, "longitude": 13.7480293, "elevation": 299.0, "source": "osm", "_tags": {"ele": "299", "name": "Žužićev vrh", "natural": "peak"}}, {"name": "Pavnica", "latitude": 45.2660627, "longitude": 13.7337177, "elevation": 265.0, "source": "osm", "_tags": {"ele": "265", "name": "Pavnica", "natural": "peak"}}, {"name": "Katunsko brdo", "latitude": 45.2294606, "longitude": 13.7393185, "elevation": 250.0, "source": "osm", "_tags": {"ele": "250", "name": "Katunsko brdo", "natural": "peak"}}, {"name": "Vrtlač", "latitude": 45.2312968, "longitude": 13.7460473, "elevation": 259.0, "source": "osm", "_tags": {"ele": "259", "name": "Vrtlač", "natural": "peak"}}, {"name": "Košutićka glavica", "latitude": 45.2344, "longitude": 13.7418334, "elevation": 238.0, "source": "osm", "_tags": {"ele": "238", "name": "Košutićka glavica", "natural": "peak"}}, {"name": "Benić vrh", "latitude": 45.2127775, "longitude": 13.7584824, "elevation": 266.0, "source": "osm", "_tags": {"ele": "266", "name": "Benić vrh", "natural": "peak"}}, {"name": "Ivanova glavica", "latitude": 45.2471464, "longitude": 13.7431187, "elevation": 263.0, "source": "osm", "_tags": {"ele": "263", "name": "Ivanova glavica", "natural": "peak"}}, {"name": "Vošljak", "latitude": 45.180966, "longitude": 13.855976, "elevation": 337.0, "source": "osm", "_tags": {"ele": "337", "name": "Vošljak", "natural": "peak"}}, {"name": "Sohnjak", "latitude": 45.1677916, "longitude": 13.7526368, "elevation": 185.0, "source": "osm", "_tags": {"ele": "185", "name": "Sohnjak", "natural": "peak"}}, {"name": "Grivun", "latitude": 45.186195, "longitude": 13.7475705, "elevation": 222.0, "source": "osm", "_tags": {"ele": "222", "name": "Grivun", "natural": "peak"}}, {"name": "Vrhovine", "latitude": 45.169502, "longitude": 13.8589746, "elevation": 336.0, "source": "osm", "_tags": {"ele": "336", "name": "Vrhovine", "natural": "peak"}}, {"name": "Bačak", "latitude": 45.1997232, "longitude": 13.8455099, "elevation": 334.0, "source": "osm", "_tags": {"ele": "334", "name": "Bačak", "natural": "peak"}}, {"name": "Glavica", "latitude": 45.1997733, "longitude": 13.8726052, "elevation": 404.0, "source": "osm", "_tags": {"ele": "404", "name": "Glavica", "natural": "peak"}}, {"name": "Glavica", "latitude": 45.134113, "longitude": 13.831072, "elevation": 297.0, "source": "osm", "_tags": {"ele": "297", "name": "Glavica", "natural": "peak"}}, {"name": "Glavica", "latitude": 45.156696, "longitude": 13.7547095, "elevation": 184.0, "source": "osm", "_tags": {"ele": "184", "name": "Glavica", "natural": "peak"}}, {"name": "Didovac", "latitude": 45.1627824, "longitude": 13.8163879, "elevation": 322.0, "source": "osm", "_tags": {"ele": "322", "name": "Didovac", "natural": "peak"}}, {"name": "Juštov vrh", "latitude": 45.1701557, "longitude": 13.8356958, "elevation": 317.0, "source": "osm", "_tags": {"ele": "317", "name": "Juštov vrh", "natural": "peak"}}, {"name": "Juštov rt", "latitude": 45.1697274, "longitude": 13.8424332, "elevation": 303.0, "source": "osm", "_tags": {"ele": "303", "name": "Juštov rt", "natural": "peak"}}, {"name": "Lesičak", "latitude": 45.1625532, "longitude": 13.8809634, "elevation": 355.0, "source": "osm", "_tags": {"ele": "355", "name": "Lesičak", "natural": "peak"}}, {"name": "Brestić", "latitude": 45.1770652, "longitude": 13.8836072, "elevation": 375.0, "source": "osm", "_tags": {"ele": "375", "name": "Brestić", "natural": "peak"}}, {"name": "Gorica", "latitude": 45.2057682, "longitude": 13.8641074, "elevation": 380.0, "source": "osm", "_tags": {"ele": "380", "name": "Gorica", "natural": "peak"}}, {"name": "Krničar", "latitude": 45.1378745, "longitude": 13.8740416, "elevation": 356.0, "source": "osm", "_tags": {"ele": "356", "name": "Krničar", "natural": "peak"}}, {"name": "Goliš", "latitude": 45.1961779, "longitude": 13.880451, "elevation": 406.0, "source": "osm", "_tags": {"ele": "406", "name": "Goliš", "natural": "peak"}}, {"name": "Blažov vrh", "latitude": 45.2329056, "longitude": 13.8760666, "elevation": 384.0, "source": "osm", "_tags": {"ele": "384", "name": "Blažov vrh", "natural": "peak"}}, {"name": "Veliki vrh", "latitude": 45.2142427, "longitude": 13.8535455, "elevation": 381.0, "source": "osm", "_tags": {"ele": "381", "name": "Veliki vrh", "natural": "peak"}}, {"name": "Ivetićev brig", "latitude": 45.21685, "longitude": 13.8235441, "elevation": 336.0, "source": "osm", "_tags": {"ele": "336", "name": "Ivetićev brig", "natural": "peak"}}, {"name": "Crkvena glavica", "latitude": 45.2317655, "longitude": 13.83522, "elevation": 358.0, "source": "osm", "_tags": {"ele": "358", "name": "Crkvena glavica", "natural": "peak"}}, {"name": "Pedelinovac", "latitude": 45.2194644, "longitude": 13.7853249, "elevation": 291.0, "source": "osm", "_tags": {"ele": "291", "name": "Pedelinovac", "natural": "peak"}}, {"name": "Santarija", "latitude": 45.2631177, "longitude": 13.8826476, "elevation": 407.0, "source": "osm", "_tags": {"ele": "407", "name": "Santarija", "natural": "peak"}}, {"name": "Glavica", "latitude": 45.2225305, "longitude": 13.8265279, "elevation": 344.0, "source": "osm", "_tags": {"ele": "344", "name": "Glavica", "natural": "peak"}}, {"name": "Kamenica", "latitude": 45.2812646, "longitude": 13.8574203, "elevation": 378.0, "source": "osm", "_tags": {"ele": "378", "name": "Kamenica", "natural": "peak"}}, {"name": "Brajkovski brig", "latitude": 45.2526535, "longitude": 13.8610228, "elevation": 389.0, "source": "osm", "_tags": {"ele": "389", "name": "Brajkovski brig", "natural": "peak"}}, {"name": "Batovčev vrh", "latitude": 45.258535, "longitude": 13.8748678, "elevation": 409.0, "source": "osm", "_tags": {"ele": "409", "name": "Batovčev vrh", "natural": "peak"}}, {"name": "Muzarine", "latitude": 45.2776691, "longitude": 13.8690659, "elevation": 383.0, "source": "osm", "_tags": {"ele": "383", "name": "Muzarine", "natural": "peak"}}, {"name": "Crkveni breh", "latitude": 45.2696904, "longitude": 13.8826075, "elevation": 440.0, "source": "osm", "_tags": {"ele": "440", "name": "Crkveni breh", "natural": "peak"}}, {"name": "Brig", "latitude": 45.2573361, "longitude": 13.8555878, "elevation": 408.0, "source": "osm", "_tags": {"ele": "408", "name": "Brig", "natural": "peak"}}, {"name": "Špitalski vrh", "latitude": 45.2674096, "longitude": 13.8683179, "elevation": 407.0, "source": "osm", "_tags": {"ele": "407", "name": "Špitalski vrh", "natural": "peak"}}, {"name": "Glavica", "latitude": 45.2832166, "longitude": 13.8661504, "elevation": 401.0, "source": "osm", "_tags": {"ele": "401", "name": "Glavica", "natural": "peak"}}, {"name": "Veli brig", "latitude": 45.2857626, "longitude": 13.8528445, "elevation": 430.0, "source": "osm", "_tags": {"alt_name": "Veli vrh", "ele": "430", "name": "Veli brig", "natural": "peak"}}, {"name": "Štrped", "latitude": 45.2634453, "longitude": 13.8642954, "elevation": 404.0, "source": "osm", "_tags": {"ele": "404", "name": "Štrped", "natural": "peak"}}, {"name": "Kaštelir", "latitude": 45.2733894, "longitude": 13.8653884, "elevation": 359.0, "source": "osm", "_tags": {"ele": "359", "name": "Kaštelir", "natural": "peak"}}, {"name": "Cviće", "latitude": 45.2960382, "longitude": 13.8730188, "elevation": 433.0, "source": "osm", "_tags": {"ele": "433", "name": "Cviće", "natural": "peak"}}, {"name": "Brdo", "latitude": 45.3010046, "longitude": 13.8792747, "elevation": 456.0, "source": "osm", "_tags": {"ele": "456", "name": "Brdo", "natural": "peak"}}, {"name": "Mulov brig", "latitude": 45.2923627, "longitude": 13.8650986, "elevation": 421.0, "source": "osm", "_tags": {"ele": "421", "name": "Mulov brig", "natural": "peak"}}, {"name": "Markovac", "latitude": 45.3018763, "longitude": 13.864861, "elevation": 423.0, "source": "osm", "_tags": {"ele": "423", "name": "Markovac", "natural": "peak"}}, {"name": "Kozare", "latitude": 45.3096559, "longitude": 13.8656857, "elevation": 298.0, "source": "osm", "_tags": {"ele": "298", "name": "Kozare", "natural": "peak"}}, {"name": "Brežina", "latitude": 45.303221, "longitude": 13.8466834, "elevation": 425.0, "source": "osm", "_tags": {"ele": "425", "name": "Brežina", "natural": "peak"}}, {"name": "Kancijanov breg", "latitude": 45.3344641, "longitude": 13.8710575, "elevation": 298.0, "source": "osm", "_tags": {"ele": "298", "name": "Kancijanov breg", "natural": "peak"}}, {"name": "Sv. Kirin", "latitude": 45.3181077, "longitude": 13.8820499, "elevation": 392.0, "source": "osm", "_tags": {"ele": "392", "name": "Sv. Kirin", "natural": "peak"}}, {"name": "Vojnikovo", "latitude": 45.1094385, "longitude": 13.8726041, "elevation": 326.0, "source": "osm", "_tags": {"ele": "326", "name": "Vojnikovo", "natural": "peak"}}, {"name": "Vrh", "latitude": 45.1095006, "longitude": 13.8476402, "elevation": 302.0, "source": "osm", "_tags": {"ele": "302", "name": "Vrh", "natural": "peak"}}, {"name": "Pištine", "latitude": 45.109308, "longitude": 13.8608175, "elevation": 324.0, "source": "osm", "_tags": {"ele": "324", "name": "Pištine", "natural": "peak"}}, {"name": "Mikulanija", "latitude": 45.1219218, "longitude": 13.8787476, "elevation": 349.0, "source": "osm", "_tags": {"ele": "349", "name": "Mikulanija", "natural": "peak"}}, {"name": "Sv. Matija", "latitude": 45.0983949, "longitude": 13.8507261, "elevation": 297.0, "source": "osm", "_tags": {"ele": "297", "name": "Sv. Matija", "natural": "peak"}}, {"name": "Veliki vrh", "latitude": 45.0290873, "longitude": 13.8305817, "elevation": 195.0, "source": "osm", "_tags": {"ele": "195", "name": "Veliki vrh", "natural": "peak"}}, {"name": "Selinski vrh", "latitude": 45.0576371, "longitude": 13.8252739, "elevation": 233.0, "source": "osm", "_tags": {"ele": "233", "name": "Selinski vrh", "natural": "peak"}}, {"name": "Glavica", "latitude": 45.04677, "longitude": 13.8450124, "elevation": 241.0, "source": "osm", "_tags": {"ele": "241", "name": "Glavica", "natural": "peak"}}, {"name": "Mandriol", "latitude": 44.9999538, "longitude": 13.768505, "elevation": 75.0, "source": "osm", "_tags": {"ele": "75", "name": "Mandriol", "natural": "peak"}}, {"name": "Barišin vrh", "latitude": 45.056574, "longitude": 13.8342576, "elevation": 227.0, "source": "osm", "_tags": {"ele": "227", "name": "Barišin vrh", "natural": "peak"}}, {"name": "Valmarin", "latitude": 44.9004159, "longitude": 13.8631898, "elevation": 83.0, "source": "osm", "_tags": {"ele": "83", "name": "Valmarin", "natural": "peak"}}, {"name": "Mulin", "latitude": 44.9570117, "longitude": 13.8688677, "elevation": 175.0, "source": "osm", "_tags": {"ele": "175", "name": "Mulin", "natural": "peak"}}, {"name": "Koblarica", "latitude": 45.0074431, "longitude": 13.8494517, "elevation": 173.0, "source": "osm", "_tags": {"ele": "173", "name": "Koblarica", "natural": "peak"}}, {"name": "Mali vrh", "latitude": 45.0548073, "longitude": 13.8178564, "elevation": 194.0, "source": "osm", "_tags": {"ele": "194", "name": "Mali vrh", "natural": "peak"}}, {"name": "Dešlinac", "latitude": 45.0675061, "longitude": 13.8183832, "elevation": 230.0, "source": "osm", "_tags": {"ele": "230", "name": "Dešlinac", "natural": "peak"}}, {"name": "Munida", "latitude": 44.8821922, "longitude": 13.8146217, "elevation": 52.0, "source": "osm", "_tags": {"ele": "52", "name": "Munida", "natural": "peak"}}, {"name": "Drinovac", "latitude": 45.0619741, "longitude": 13.8095138, "elevation": 209.0, "source": "osm", "_tags": {"ele": "209", "name": "Drinovac", "natural": "peak"}}, {"name": "Veliki vrh", "latitude": 45.061371, "longitude": 13.8229439, "elevation": 246.0, "source": "osm", "_tags": {"ele": "246", "name": "Veliki vrh", "natural": "peak"}}, {"name": "Šliver", "latitude": 45.0206143, "longitude": 13.8464751, "elevation": 193.0, "source": "osm", "_tags": {"ele": "193", "name": "Šliver", "natural": "peak"}}, {"name": "Črnjin vrh", "latitude": 45.0572877, "longitude": 13.8097003, "elevation": 224.0, "source": "osm", "_tags": {"ele": "224", "name": "Črnjin vrh", "natural": "peak"}}, {"name": "Grabrovac", "latitude": 45.0652677, "longitude": 13.8125347, "elevation": 244.0, "source": "osm", "_tags": {"ele": "244", "name": "Grabrovac", "natural": "peak"}}, {"name": "Pajuka", "latitude": 45.0377623, "longitude": 13.8120457, "elevation": 187.0, "source": "osm", "_tags": {"ele": "187", "name": "Pajuka", "natural": "peak"}}, {"name": "Volpi", "latitude": 45.0488014, "longitude": 13.802927, "elevation": 195.0, "source": "osm", "_tags": {"ele": "195", "name": "Volpi", "natural": "peak"}}, {"name": "Bilanski vrh", "latitude": 45.0609074, "longitude": 13.8152864, "elevation": 211.0, "source": "osm", "_tags": {"ele": "211", "name": "Bilanski vrh", "natural": "peak"}}, {"name": "Vršac", "latitude": 45.0597866, "longitude": 13.828935, "elevation": 233.0, "source": "osm", "_tags": {"ele": "233", "name": "Vršac", "natural": "peak"}}, {"name": "Ševardovica", "latitude": 45.0474414, "longitude": 13.8252925, "elevation": 214.0, "source": "osm", "_tags": {"ele": "214", "name": "Ševardovica", "natural": "peak"}}, {"name": "Signal", "latitude": 44.8657278, "longitude": 13.804082, "elevation": 75.0, "source": "osm", "_tags": {"ele": "75", "name": "Signal", "natural": "peak"}}, {"name": "Pećine", "latitude": 44.8258535, "longitude": 13.8562881, "elevation": 26.0, "source": "osm", "_tags": {"ele": "26", "name": "Pećine", "natural": "peak"}}, {"name": "Kope", "latitude": 44.8137813, "longitude": 13.8695912, "elevation": 57.0, "source": "osm", "_tags": {"ele": "57", "name": "Kope", "natural": "peak"}}, {"name": "Volaričevo brdo", "latitude": 45.4253405, "longitude": 13.8736634, "elevation": 421.0, "source": "osm", "_tags": {"ele": "421", "name": "Volaričevo brdo", "natural": "peak"}}, {"name": "Vrh", "latitude": 45.4284385, "longitude": 13.8542308, "elevation": 443.0, "source": "osm", "_tags": {"ele": "443", "name": "Vrh", "natural": "peak"}}, {"name": "Lega", "latitude": 45.4302535, "longitude": 13.8413134, "elevation": 437.0, "source": "osm", "_tags": {"ele": "437", "name": "Lega", "natural": "peak"}}, {"name": "Klenovica", "latitude": 45.4239485, "longitude": 13.8545731, "elevation": 437.0, "source": "osm", "_tags": {"ele": "437", "name": "Klenovica", "natural": "peak"}}]